EVENT     295303
    Date      Time       Latitude Longitude    Depth    Ndef Nsta Gap    Mag1  N    Mag2  N    Mag3  N   Author         ID
       rms   OT_Error      Smajor Sminor Az        Err   mdist  Mdist     Err        Err        Err      Quality

2013/04/04 06:01:35.5     42.7645   -1.6478      2.0      75   13 075  Ml 2.9 15  Md 2.7  2              bulletin    295403
                                                                                                         _ldg
      0.66   +-  0.08       1.8    1.4  154.93 +-  0.0    0.05   5.65   +-0.3      +-0.1                 m i ke

PYRENEES
Sta     Dist  EvAz     Phase      Date       Time     TRes  Azim  AzRes  Slow  SRes Def   SNR       Amp   Per   Mag1   Mag2       ID
SJPF  000.47 041.5 m E Pg      2013/04/04 06:01:43.8  -0.6                          T                                        5244215
SJPF  000.47 041.5 m E Sg      2013/04/04 06:01:50.7   0.1                          T               84.5  .29        Md 2.8  5244238
ETSF  000.81 080.1 m E Pg      2013/04/04 06:01:50.2  -0.6                          T                                        5244237
ETSF  000.81 080.1 m E Sg      2013/04/04 06:02:01.4   0.0                          T               43.7  .34        Md 2.6  5244236
EPF   001.48 079.0 m E Pg      2013/04/04 06:02:03.5   0.3                          T                                        5250411
EPF   001.48 079.0 m E Sg      2013/04/04 06:02:22.3  -0.1                          T               65.7  .30 Ml 3.4         5244235
LFF   002.78 037.6 m E Pn      2013/04/04 06:02:18.8  -0.2                          T                                        5244229
LFF   002.78 037.6 m E Pg      2013/04/04 06:02:28.0   1.0                          T                                        5250410
LFF   002.78 037.6 m E Sn      2013/04/04 06:02:51.2   0.0                          T               12.1  .43 Ml 2.7         5250409
LFF   002.78 037.6 m E Sg      2013/04/04 06:03:03.2   0.6                          T               12.9  .47 Ml 2.6         5250408
MTLF  002.89 077.2 m E Pn      2013/04/04 06:02:21.4   0.7                          T                                        5244228
MTLF  002.89 077.2 m E Pg      2013/04/04 06:02:28.9  -0.2                          T                                        5250407
MTLF  002.89 077.2 m E Sn      2013/04/04 06:02:52.9  -1.1                          T                5.3  .46 Ml 2.5         5244227
MTLF  002.89 077.2 m E Sg      2013/04/04 06:03:06.2  -0.1                          T                3.9  .34 Ml 2.5         5250406
RJF   003.41 040.9 m E Pn      2013/04/04 06:02:28.2   0.4                          T                                        5244233
RJF   003.41 040.9 m E Sn      2013/04/04 06:03:06.4   0.0                          T               32.8  .52 Ml 3.0         5244232
CAF   003.45 049.9 m E Pn      2013/04/04 06:02:28.2   0.0                          T                                        5244234
CAF   003.45 049.9 m E Sn      2013/04/04 06:03:07.0  -0.2                          T                5.1  .29 Ml 2.8         5244223
CAF   003.45 049.9 m E Sg      2013/04/04 06:03:23.4  -0.2                          T                8.4  .53 Ml 2.7         5250403
LASF  004.22 070.0 m E Pn      2013/04/04 06:02:39.0   0.2                          T                                        5250405
LASF  004.22 070.0 m E Sn      2013/04/04 06:03:25.9   0.2                          T                6.1  .58 Ml 2.7         5250707
LASF  004.22 070.0 m E Sg      2013/04/04 06:03:47.7   0.0                          T                2.0  .30 Ml 2.5         5250404
TCF   004.47 036.7 m E Pn      2013/04/04 06:02:42.1  -0.1                          T                                        5244225
TCF   004.47 036.7 m E Sn      2013/04/04 06:03:31.5  -0.3                          T               10.2  .54 Ml 3.1         5244226
BGF   004.97 038.7 m E Pn      2013/04/04 06:02:49.0   0.1                          T                                        5244230
BGF   004.97 038.7 m E Sn      2013/04/04 06:03:43.5   0.0                          T               21.9  .50 Ml 3.5         5244231
AVF   005.37 039.8 m E Pn      2013/04/04 06:02:54.7   0.3                          T                                        5244224
AVF   005.37 039.8 m E Sn      2013/04/04 06:03:53.4   0.2                          T                6.0  .65 Ml 2.9         5250709
GRR   005.65 005.4 m E Sn      2013/04/04 06:03:59.6  -0.3                          T                2.8  .33 Ml 2.8         5250708
SSF   005.64 038.7 m E Sn      2013/04/04 06:03:59.8   0.1                          T                4.7  .39 Ml 3.2         5250710

.
EVENT     295315
    Date      Time       Latitude Longitude    Depth    Ndef Nsta Gap    Mag1  N    Mag2  N    Mag3  N   Author         ID
       rms   OT_Error      Smajor Sminor Az        Err   mdist  Mdist     Err        Err        Err      Quality

2013/04/04 08:21:24.8     43.8093    7.5857       .0 f    18    5 173  Ml 1.7  4  Md 1.7  2              bulletin    295415
                                                                                                         _ldg
      0.22   +-  0.07       1.5    1.0  142.06 +-  0.0    0.09   1.65   +-0.3      +-0.1                 m i km

NEAR SOUTH COAST OF FRANCE
Sta     Dist  EvAz     Phase      Date       Time     TRes  Azim  AzRes  Slow  SRes Def   SNR       Amp   Per   Mag1   Mag2       ID
SBF   000.12 296.3 m E Pg      2013/04/04 08:21:27.7   0.0                          T                                        5244636
SBF   000.12 296.3 m E Sg      2013/04/04 08:21:29.5  -0.2                          T               74.4  .49        Md 1.7  5244635
FRF   000.73 250.3 m E Pg      2013/04/04 08:21:38.8   0.1                          T                                        5244632
FRF   000.73 250.3 m E Pn      2013/04/04 08:21:40.7  -0.2                          T                                        5250543
FRF   000.73 250.3 m E Sg      2013/04/04 08:21:48.3  -0.1                          T                2.2  .25        Md 1.7  5244631
LMR   000.92 239.1 m E Pg      2013/04/04 08:21:42.4   0.1                          T                                        5244634
LMR   000.92 239.1 m E Pn      2013/04/04 08:21:43.5   0.0                          T                                        5250544
LMR   000.92 239.1 m E Sg      2013/04/04 08:21:54.4   0.0                          T                1.5  .28 Ml 1.5         5244633
MBDF  001.09 327.8 m E Pg      2013/04/04 08:21:45.6  -0.1                          T                                        5244630
MBDF  001.09 327.8 m E Sg      2013/04/04 08:21:59.8  -0.2                          T                1.8  .52 Ml 1.4         5244629
ORIF  001.65 312.8 m E Pn      2013/04/04 08:21:53.8   0.1                          T                                        5250542
ORIF  001.65 312.8 m E Sn      2013/04/04 08:22:14.4   0.0                          T                6.2  .65 Ml 2.1         5250541

.
EVENT     295313
    Date      Time       Latitude Longitude    Depth    Ndef Nsta Gap    Mag1  N    Mag2  N    Mag3  N   Author         ID
       rms   OT_Error      Smajor Sminor Az        Err   mdist  Mdist     Err        Err        Err      Quality

2013/04/04 08:36:07.7     42.2771    3.0833       .0 f    27    7 206  Ml 2.4  8                         bulletin    295413
                                                                                                         _ldg
      0.44   +-  0.17       2.9    1.4  109.53 +-  0.0    0.22   3.24   +-0.3                            m i km

PYRENEES
Sta     Dist  EvAz     Phase      Date       Time     TRes  Azim  AzRes  Slow  SRes Def   SNR       Amp   Per   Mag1   Mag2       ID
MTLF  001.24 329.4 m E Pn      2013/04/04 08:36:30.9   0.1                          T                                        5244328
MTLF  001.24 329.4 m E P       2013/04/04 08:36:32.4   0.1                          T                                        5250715
MTLF  001.24 329.4 m E Sg      2013/04/04 08:36:47.0  -0.4                          T               11.7  .45 Ml 2.3         5244334
EPF   002.16 291.3 m E Pn      2013/04/04 08:36:43.5   0.1                          T                                        5244321
EPF   002.16 291.3 m E Pg      2013/04/04 08:36:48.3   0.1                          T                                        5250716
EPF   002.16 291.3 m E Sn      2013/04/04 08:37:09.0  -0.4                          T                                        5250717
EPF   002.16 291.3 m E Sg      2013/04/04 08:37:15.9  -0.2                          T                6.9  .41 Ml 2.5         5244329
ETSF  002.76 284.2 m E Pn      2013/04/04 08:36:51.2  -0.4                          T                                        5244320
ETSF  002.76 284.2 m E Sg      2013/04/04 08:37:34.4  -0.6                          T                4.6  .32 Ml 2.5         5244330
RJF   003.23 340.0 m E Pn      2013/04/04 08:36:57.9  -0.1                          T                                        5244353
RJF   003.23 340.0 m E Sg      2013/04/04 08:37:49.4  -0.2                          T                2.9  .31 Ml 2.1         5244331
LASF  001.89 017.2 m E Sg      2013/04/04 08:37:07.7   0.1                          T                1.2  .24 Ml 1.9         5250714
CAF   002.75 344.7 m E Sg      2013/04/04 08:37:34.4  -0.2                          T                3.5  .29 Ml 2.5         5244333
LFF   003.16 328.2 m E Sg      2013/04/04 08:37:46.9  -0.3                          T               10.8  .52 Ml 2.6         5244332

.
EVENT     295312
    Date      Time       Latitude Longitude    Depth    Ndef Nsta Gap    Mag1  N    Mag2  N    Mag3  N   Author         ID
       rms   OT_Error      Smajor Sminor Az        Err   mdist  Mdist     Err        Err        Err      Quality

2013/04/04 08:51:45.5     47.4324    5.0712       .0 f    20    8 100  Ml 2.1  7  Md 1.9  1              bulletin    295412
                                                                                                         _ldg
      0.40   +-  0.04       1.5     .7  152.36 +-  0.0    0.84   1.34   +-0.2      +-                    m i km

FRANCE
Sta     Dist  EvAz     Phase      Date       Time     TRes  Azim  AzRes  Slow  SRes Def   SNR       Amp   Per   Mag1   Mag2       ID
LOR   000.84 259.2 m E Pg      2013/04/04 08:52:01.5   0.0  82.3  4.0               T                                        5250725
LOR   000.84 259.2 m E Pn      2013/04/04 08:52:03.2   0.1  81.2  2.9               T                                        5244359
LOR   000.84 259.2 m E Sn      2013/04/04 08:52:15.6   0.0                          T                5.2  .20        Md 1.9  5244358
HAU   001.04 055.9 m E Pg      2013/04/04 08:52:05.1   0.0                          T                                        5250724
HAU   001.04 055.9 m E P       2013/04/04 08:52:06.9  -0.2                          T                                        5244355
HAU   001.04 055.9 m E Sn      2013/04/04 08:52:20.3   0.0                          T                4.1  .22 Ml 1.9         5244354
MEZF  001.07 359.3 m E Pn      2013/04/04 08:52:06.2   0.0                          T                                        5244383
MEZF  001.07 359.3 m E Sn      2013/04/04 08:52:21.1   0.0                          T               12.4  .37 Ml 2.4         5244384
CABF  001.08 139.4 m E Pn      2013/04/04 08:52:06.5   0.1                          T                                        5250722
CABF  001.08 139.4 m E Sn      2013/04/04 08:52:21.7   0.3                          T                4.0  .24 Ml 2.1         5250723
SSF   001.13 251.4 m E Pg      2013/04/04 08:52:06.8   0.0                          T                                        5244356
SSF   001.13 251.4 m E Sg      2013/04/04 08:52:21.7   0.0                          T                5.1  .22 Ml 2.3         5244357
SMF   001.15 227.3 m E Pg      2013/04/04 08:52:07.4   0.1                          T                                        5250718
SMF   001.15 227.3 m E P       2013/04/04 08:52:08.7  -0.1                          T                                        5244382
SMF   001.15 227.3 m E Sn      2013/04/04 08:52:23.3   0.2                          T                3.2  .18 Ml 2.1         5244381
HINF  001.27 071.7 m E Pg      2013/04/04 08:52:09.5   0.1                          T                                        5250727
HINF  001.27 071.7 m E Sn      2013/04/04 08:52:25.9   0.1                          T                4.0  .20 Ml 2.2         5244385
AVF   001.34 242.0 m E Pg      2013/04/04 08:52:10.6  -0.1                          T                                        5250726
AVF   001.34 242.0 m E P       2013/04/04 08:52:11.5   0.1                          T                                        5250720
AVF   001.34 242.0 m E Sg      2013/04/04 08:52:28.0  -0.1                          T                1.1  .21 Ml 1.7         5250721

.
EVENT     295335
    Date      Time       Latitude Longitude    Depth    Ndef Nsta Gap    Mag1  N    Mag2  N    Mag3  N   Author         ID
       rms   OT_Error      Smajor Sminor Az        Err   mdist  Mdist     Err        Err        Err      Quality

2013/04/04 10:29:20.8     43.9290    7.1827       .0 f    22    6 094  Ml 2.0  3  Md 1.8  2              bulletin    295435
                                                                                                         _ldg
      0.13   +-  0.03        .6     .5   48.98 +-  0.0    0.17   1.36   +-0.3      +-0.0                 m i km

NEAR SOUTH COAST OF FRANCE
Sta     Dist  EvAz     Phase      Date       Time     TRes  Azim  AzRes  Slow  SRes Def   SNR       Amp   Per   Mag1   Mag2       ID
SBF   000.19 109.8 m E Pg      2013/04/04 10:29:24.9  -0.1                          T                                        5244648
SBF   000.19 109.8 m E Sg      2013/04/04 10:29:27.9  -0.1                          T               54.5  .60        Md 1.8  5244645
FRF   000.54 226.7 m E Pg      2013/04/04 10:29:31.3   0.0                          T                                        5244646
FRF   000.54 226.7 m E Sg      2013/04/04 10:29:38.5   0.0                          T                2.8  .22        Md 1.8  5244643
LMR   000.77 219.7 m E Pg      2013/04/04 10:29:35.5  -0.1                          T                                        5244647
LMR   000.77 219.7 m E Sg      2013/04/04 10:29:45.8   0.0                          T                2.4  .29                5244644
MBDF  000.85 339.8 m E Pg      2013/04/04 10:29:37.3   0.0                          T                                        5244640
MBDF  000.85 339.8 m E Sg      2013/04/04 10:29:48.6   0.0                          T                5.5  .54                5244639
SMRF  001.16 272.9 m E Pg      2013/04/04 10:29:43.1   0.2                          T                                        5244642
SMRF  001.16 272.9 m E Sg      2013/04/04 10:29:58.1  -0.1                          T                7.1  .29 Ml 2.3         5244641
ORIF  001.36 317.1 m E Pg      2013/04/04 10:29:46.6   0.0                          T                                        5244638
ORIF  001.36 317.1 m E Sg      2013/04/04 10:30:04.4   0.0                          T                8.9  .72 Ml 2.1         5244637

.
EVENT     295378
    Date      Time       Latitude Longitude    Depth    Ndef Nsta Gap    Mag1  N    Mag2  N    Mag3  N   Author         ID
       rms   OT_Error      Smajor Sminor Az        Err   mdist  Mdist     Err        Err        Err      Quality

2013/04/04 11:41:10.5     41.5706    2.5982      4.0 f    30    4 205  Ml 1.9  5                         bulletin    295478
                                                                                                         _ldg
      0.40   +-  0.12       2.1    1.2  145.99 +-  0.0    0.23   3.23   +-0.1                            m i ke

SPAIN
Sta     Dist  EvAz     Phase      Date       Time     TRes  Azim  AzRes  Slow  SRes Def   SNR       Amp   Per   Mag1   Mag2       ID
MTLF  001.79 351.1 m E Pn      2013/04/04 11:41:40.6   0.1                          T                                        5246097
MTLF  001.79 351.1 m E Pg      2013/04/04 11:41:43.9   0.0                          T                                        5250728
MTLF  001.79 351.1 m E Sg      2013/04/04 11:42:06.8  -0.2                          T                 .9  .20 Ml 1.8         5246096
EPF   002.22 311.8 m E Pn      2013/04/04 11:41:46.5   0.1                          T                                        5246107
EPF   002.22 311.8 m E Pg      2013/04/04 11:41:51.4  -0.5                          T                                        5246095
EPF   002.22 311.8 m E Sg      2013/04/04 11:42:19.5  -0.9                          T                1.2  .16 Ml 2.1         5246094
ETSF  002.69 300.6 m E Pn      2013/04/04 11:41:52.9   0.0                          T                                        5246101
ETSF  002.69 300.6 m E Sg      2013/04/04 11:42:35.6   0.3                          T                 .8  .25 Ml 1.9         5246092
SJPF  003.23 299.8 m E Pn      2013/04/04 11:42:00.4   0.3                          T                                        5246106
SJPF  003.23 299.8 m E Sg      2013/04/04 11:42:51.9   0.1                          T                 .4  .20 Ml 1.8         5246105

.
