EVENT     260963
    Date      Time       Latitude Longitude    Depth    Ndef Nsta Gap    Mag1  N    Mag2  N    Mag3  N   Author         ID
       rms   OT_Error      Smajor Sminor Az        Err   mdist  Mdist     Err        Err        Err      Quality

2011/07/02 14:43:04.3     41.8053    7.5110     10.0 f   192   42 083  Ml 3.9 24  Md 3.7  4              js067245    260963

      2.27   +-  0.19       5.1    3.7  179.61 +-  0.0    1.33  12.25   +-0.3      +-0.1                 m i ke

WESTERN MEDITERRANEAN SEA
Sta     Dist  EvAz     Phase      Date       Time     TRes  Azim  AzRes  Slow  SRes Def   SNR       Amp   Per   Mag1   Mag2       ID
PGF   001.33 055.6 m E Pn      2011/07/02 14:43:26.8  -0.6                          T                                        4714548
PGF   001.33 055.6 m E Sn      2011/07/02 14:43:41.3  -2.9                          T                                Md 3.6  4716346
LMR   001.70 334.5 m E Pn      2011/07/02 14:43:32.4   0.1                          T   001.0                                4714503
LMR   001.70 334.5 m E Sn      2011/07/02 14:43:50.0  -2.7                          T                                Md 3.7  4716348
FRF   001.87 340.3 m E Pn      2011/07/02 14:43:34.5  -0.1                          T                                        4716350
FRF   001.87 340.3 m E Sn      2011/07/02 14:43:54.1  -2.7                          T                                Md 3.8  4716349
SBF   002.06 358.5 m E Pn      2011/07/02 14:43:36.1  -1.2                          T                                        4714545
SBF   002.06 358.5 m E Sn      2011/07/02 14:43:56.3  -5.2                          T                                Md 3.8  4716347
SMRF  002.59 327.4 m E Pn      2011/07/02 14:43:46.4   1.8                          T   001.0                                4714536
SMRF  002.59 327.4 m E Sn      2011/07/02 14:44:18.9   4.6                          T   001.0      358.0  .48 Ml 4.2         4714537
MBDF  002.97 349.8 m E Pn      2011/07/02 14:43:51.3   1.5                          T   001.0                                4714523
MBDF  002.97 349.8 m E Sn      2011/07/02 14:44:23.5   0.1                          T   001.0      249.7  .45 Ml 4.2         4714524
PTF   003.39 049.3 m E Pn      2011/07/02 14:43:55.9   0.6                          T                                        4714367
ORIF  003.33 339.6 m E Pn      2011/07/02 14:43:56.4   1.7                          T   001.0                                4714528
ORIF  003.33 339.6 m E Sn      2011/07/02 14:44:30.6  -1.3                          T   001.0      111.7  .41 Ml 3.9         4714529
LASF  003.51 311.5 m E Pn      2011/07/02 14:43:58.4   1.3                          T   001.0                                4714498
LASF  003.51 311.5 m E Sn      2011/07/02 14:44:35.5  -0.7                          T   001.0      122.9  .31 Ml 4.1         4714499
VIVF  003.69 326.8 m E Pn      2011/07/02 14:44:00.5   1.1                          T   001.0                                4714534
VIVF  003.69 326.8 m E Sn      2011/07/02 14:44:40.6   0.2                          T   001.0       51.3  .32 Ml 3.8         4714535
LPL   003.75 351.6 m E Pn      2011/07/02 14:44:03.4   2.8                          T   001.0                                4714509
LPL   003.75 351.6 m E Sn      2011/07/02 14:44:43.7   1.5                          T   001.0       97.7  .44 Ml 3.9         4714510
LPG   003.73 351.8 m E Pn      2011/07/02 14:44:03.5   3.1                          T   001.0                                4714507
LPG   003.73 351.8 m E Sn      2011/07/02 14:44:43.8   2.1                          T   001.0      103.8  .49 Ml 3.9         4714508
MTLF  004.20 293.2 m E Pn      2011/07/02 14:44:07.0   1.6                          T   001.0                                4714527
MTLF  004.20 293.2 m E Sn      2011/07/02 14:44:55.0   2.4                          T              177.4  .44 Ml 4.3         4714543
CABF  004.91 348.5 m E Pn      2011/07/02 14:44:17.1   1.0                          T   001.0                                4714518
CABF  004.91 348.5 m E Sn      2011/07/02 14:45:07.8  -1.9                          T               28.3  .44 Ml 3.7         4714538
CAF   005.05 310.0 m E Pn      2011/07/02 14:44:20.5   2.5                          T   001.0                                4714487
CAF   005.05 310.0 m E Sn      2011/07/02 14:45:13.2   0.3                          T   001.0       73.3  .44 Ml 4.1         4714488
SMF   005.51 332.7 m E Pn      2011/07/02 14:44:25.5   1.3                          T   001.0                                4714512
SMF   005.51 332.7 m E Sn      2011/07/02 14:45:22.6  -1.3                          T   001.0       17.6  .22 Ml 3.9         4714513
EPF   005.45 285.4 m E Pn      2011/07/02 14:44:26.5   3.1                          T   001.0                                4714491
EPF   005.45 285.4 m E Sn      2011/07/02 14:45:26.1   3.6                          T   001.0       90.0  .44 Ml 4.3         4714492
RJF   005.59 310.8 m E Pn      2011/07/02 14:44:28.0   2.8                          T   001.0                                4714483
RJF   005.59 310.8 m E Sn      2011/07/02 14:45:23.2  -2.5                          T   001.0       17.2  .52 Ml 3.2         4714484
AVF   005.81 330.5 m E Pn      2011/07/02 14:44:30.1   1.9                          T   001.0                                4714485
AVF   005.81 330.5 m E Sn      2011/07/02 14:45:30.4  -0.5                          T               31.0  .62 Ml 3.8         4714539
BGF   005.81 326.4 m E Pn      2011/07/02 14:44:30.6   2.2                          T   001.0                                4714486
TCF   005.89 321.3 m E Pn      2011/07/02 14:44:31.3   1.9                          T   001.0                                4714516
SSF   005.99 332.7 m E Pn      2011/07/02 14:44:32.0   1.3                          T   001.0                                4714514
SSF   005.99 332.7 m E Sn      2011/07/02 14:45:35.5   0.3                          T   001.0       12.0  .37 Ml 3.7         4714515
HINF  006.03 355.8 m E Pn      2011/07/02 14:44:32.1   0.8                          T   001.0                                4714521
HINF  006.03 355.8 m E Sn      2011/07/02 14:45:34.6  -1.8                          T   001.0       13.0  .30 Ml 3.7         4714522
LFF   005.84 304.7 m E Pn      2011/07/02 14:44:32.6   3.9                          T   001.0                                4714501
LFF   005.84 304.7 m E Sn      2011/07/02 14:45:32.8   1.0                          T   001.0       18.2  .27 Ml 3.7         4714502
LOR   006.05 335.7 m E Pn      2011/07/02 14:44:33.0   1.3 157.8  4.6               T   001.0                                4714505
LOR   006.05 335.7 m E Sn      2011/07/02 14:45:35.3  -1.6                          T   001.0       16.4  .28 Ml 3.9         4714506
HAU   006.25 352.8 m E Pn      2011/07/02 14:44:34.7   0.4                          T   001.0                                4714496
HAU   006.25 352.8 m E Sn      2011/07/02 14:45:40.2  -1.5                          T   001.0       42.2  .34 Ml 4.0         4714497
ETSF  006.08 283.0 m E Pn      2011/07/02 14:44:36.6   4.6                          T   001.0                                4714519
ETSF  006.08 283.0 m E Sn      2011/07/02 14:45:45.3   7.7                          T               61.6  .44 Ml 4.3         4714542
THEF  006.51 351.0 m E Pn      2011/07/02 14:44:38.8   1.0                          T                                        4716351
CDF   006.61 358.6 m E Pn      2011/07/02 14:44:40.0   0.7                          T   001.0                                4714489
CDF   006.61 358.6 m E Sn      2011/07/02 14:45:50.4   0.2                          T   001.0        8.6  .33 Ml 3.7         4714490
SFTF  006.63 345.5 m E Pn      2011/07/02 14:44:40.5   1.0 146.3  -17.5             T                                        4718961
SJPF  006.59 284.4 m E Pn      2011/07/02 14:44:42.6   3.6                          T   001.0                                4714533
SJPF  006.59 284.4 m E Sn      2011/07/02 14:45:55.0   5.2                          T               30.8  .39 Ml 4.1         4714541
PAGF  006.87 350.0 m E Pn      2011/07/02 14:44:43.7   1.0 162.3  -6.5              T                                        4716352
MEZF  006.92 346.3 m E Pn      2011/07/02 14:44:45.6   2.2 153.4  -11.2             T   001.0                                4714525
MEZF  006.92 346.3 m E Sn      2011/07/02 14:45:55.8  -1.7                          T   001.0       15.7  .35 Ml 3.9         4714526
MFF   007.30 313.7 m E Pn      2011/07/02 14:44:51.6   3.1                          T   001.0                                4714511
GIVF  008.51 348.2 m E Pn      2011/07/02 14:45:06.7   1.7                          T   001.0                                4714520
BAIF  008.57 345.6 m E Pn      2011/07/02 14:45:07.4   1.5                          T   001.0                                4714517
LDF   008.66 324.2 m E Pn      2011/07/02 14:45:10.3   3.1                          T   001.0                                4714500
GRR   008.85 320.9 m E Pn      2011/07/02 14:45:13.2   3.6                          T   001.0                                4714495
FLN   008.95 323.7 m E Pn      2011/07/02 14:45:14.4   3.4 143.0  5.0               T   001.0                                4714493
SGMF  009.61 315.6 m E Pn      2011/07/02 14:45:22.2   2.3                          T   001.0                                4714532
QUIF  009.73 312.5 m E Pn      2011/07/02 14:45:24.3   2.6                          T   001.0                                4714530
ROSF  010.04 314.2 m E Pn      2011/07/02 14:45:28.7   2.9                          T   001.0                                4714531

.
EVENT     260979
    Date      Time       Latitude Longitude    Depth    Ndef Nsta Gap    Mag1  N    Mag2  N    Mag3  N   Author         ID
       rms   OT_Error      Smajor Sminor Az        Err   mdist  Mdist     Err        Err        Err      Quality

2011/07/02 15:14:49.8     42.0530    7.6813     10.0 f    15    8 226  Ml 2.6  7  Md 2.3  3              js067245    260979

      1.19   +-  0.80      21.3    7.6   10.78 +-  0.0    1.10   4.23   +-0.3      +-0.2                 m i ke

WESTERN MEDITERRANEAN SEA
Sta     Dist  EvAz     Phase      Date       Time     TRes  Azim  AzRes  Slow  SRes Def   SNR       Amp   Per   Mag1   Mag2       ID
PGF   001.10 062.7 m E Pn      2011/07/02 15:15:09.2  -0.6                          T                                        4716358
PGF   001.10 062.7 m E Sn      2011/07/02 15:15:22.9  -1.1                          T               18.9  .22 Ml 3.0 Md 2.0  4716353
LMR   001.54 326.4 m E Pn      2011/07/02 15:15:14.8  -0.9                          T                                        4716359
LMR   001.54 326.4 m E Sn      2011/07/02 15:15:32.1  -2.5                          T               11.7  .31 Ml 2.7 Md 2.4  4716355
FRF   001.69 333.5 m E Pn      2011/07/02 15:15:16.8  -0.8                          T                                        4716360
FRF   001.69 333.5 m E Sn      2011/07/02 15:15:36.2  -1.8                          T                5.1  .21 Ml 2.5 Md 2.4  4716356
SBF   001.82 354.4 m E Pn      2011/07/02 15:15:20.8   1.2                          T                                        4716357
SBF   001.82 354.4 m E Sn      2011/07/02 15:15:39.8  -1.5                          T                2.0  .13 Ml 2.3         4716354
ORIF  003.15 336.0 m E Pn      2011/07/02 15:15:39.1   1.4                          T                                        4718964
LASF  003.46 307.1 m E Pn      2011/07/02 15:15:41.3  -0.5                          T                                        4718966
LASF  003.46 307.1 m E Sn      2011/07/02 15:16:18.2  -2.2                          T                1.7  .23 Ml 2.4         4718967
VIVF  003.56 323.0 m E Pn      2011/07/02 15:15:42.2  -0.9                          T                                        4718965
MTLF  004.23 289.6 m E Sn      2011/07/02 15:16:38.0  -0.8                          T                 .8  .24 Ml 2.2         4718968

.
EVENT     260980
    Date      Time       Latitude Longitude    Depth    Ndef Nsta Gap    Mag1  N    Mag2  N    Mag3  N   Author         ID
       rms   OT_Error      Smajor Sminor Az        Err   mdist  Mdist     Err        Err        Err      Quality

2011/07/02 20:06:40.1     42.3163    9.6460     20.2       6    2 358  Ml 1.6  1  Md 2.1  1              js067245    260980

      1.14   +-  0.71      12.3    9.1  116.52 +-  2.0    0.53   2.52   +-         +-                    m i ke

CORSICA, FRANCE
Sta     Dist  EvAz     Phase      Date       Time     TRes  Azim  AzRes  Slow  SRes Def   SNR       Amp   Per   Mag1   Mag2       ID
PGF   000.53 296.1 m E Pg      2011/07/02 20:06:50.8  -0.1                          T                                        4718975
PGF   000.53 296.1 m E Sg      2011/07/02 20:06:58.5   0.2                          T               25.0  .34        Md 2.1  4718976
LMR   002.52 294.8 m E Pn      2011/07/02 20:07:18.3   0.2                          T                                        4718973
LMR   002.52 294.8 m E Sn      2011/07/02 20:07:46.0  -0.4                          T                 .3  .17 Ml 1.6         4718974

.
EVENT     260981
    Date      Time       Latitude Longitude    Depth    Ndef Nsta Gap    Mag1  N    Mag2  N    Mag3  N   Author         ID
       rms   OT_Error      Smajor Sminor Az        Err   mdist  Mdist     Err        Err        Err      Quality

2011/07/02 23:24:01.8     43.0326    -.4830      2.0       6    3 171             Md 1.5  3              js067245    260981

      0.26   +-  0.15       4.7    2.6  175.61 +-  0.0    0.15   0.60              +-0.2                 m i ke

PYRENEES
Sta     Dist  EvAz     Phase      Date       Time     TRes  Azim  AzRes  Slow  SRes Def   SNR       Amp   Per   Mag1   Mag2       ID
ETSF  000.15 202.7 m E Pg      2011/07/02 23:24:04.7  -0.2                          T                                        4718981
ETSF  000.15 202.7 m E Sg      2011/07/02 23:24:07.6   0.6                          T                3.9  .22        Md 1.5  4718982
SJPF  000.55 278.7 m E Pg      2011/07/02 23:24:12.3   0.0                          T                                        4718977
SJPF  000.55 278.7 m E Sg      2011/07/02 23:24:19.6   0.1                          T                1.4  .31        Md 1.3  4718978
EPF   000.60 089.9 m E Pg      2011/07/02 23:24:13.5   0.2                          T                                        4718979
EPF   000.60 089.9 m E Sg      2011/07/02 23:24:20.9  -0.4                          T                1.4  .27        Md 1.7  4718980

.
EVENT     260984
    Date      Time       Latitude Longitude    Depth    Ndef Nsta Gap    Mag1  N    Mag2  N    Mag3  N   Author         ID
       rms   OT_Error      Smajor Sminor Az        Err   mdist  Mdist     Err        Err        Err      Quality

2011/07/03 01:57:28.5     41.0331    1.0963      2.0      27    4 183  Ml 1.5  4                         js067245    260984

      0.50   +-  0.14       2.5    1.4  143.62 +-  0.0    0.32   2.70   +-0.1                            m i ke

SPAIN
Sta     Dist  EvAz     Phase      Date       Time     TRes  Azim  AzRes  Slow  SRes Def   SNR       Amp   Per   Mag1   Mag2       ID
EPF   002.07 344.5 m E Pg      2011/07/03 01:58:06.8  -0.3                          T                                        4718985
EPF   002.07 344.5 m E Sg      2011/07/03 01:58:33.9   0.0                          T                 .4  .23 Ml 1.5         4718986
ETSF  002.24 327.0 m E Pg      2011/07/03 01:58:10.0  -0.2                          T                                        4718987
ETSF  002.24 327.0 m E Sg      2011/07/03 01:58:38.8  -0.2                          T                 .4  .24 Ml 1.4         4718988
MTLF  002.45 019.5 m E Pg      2011/07/03 01:58:14.0  -0.1                          T                                        4718983
MTLF  002.45 019.5 m E Pn      2011/07/03 01:58:45.8  38.1                          T                 .2  .19 Ml 1.3         4718984
SJPF  002.70 321.0 m E Pg      2011/07/03 01:58:18.6  -0.1                          T                                        4718989
SJPF  002.70 321.0 m E Sg      2011/07/03 01:58:53.4   0.0                          T                 .4  .27 Ml 1.6         4718990

.
EVENT     260985
    Date      Time       Latitude Longitude    Depth    Ndef Nsta Gap    Mag1  N    Mag2  N    Mag3  N   Author         ID
       rms   OT_Error      Smajor Sminor Az        Err   mdist  Mdist     Err        Err        Err      Quality

2011/07/03 06:21:20.5     43.1142    -.5283      3.0 f    30    7 107  Ml 2.3  4  Md 2.1  3              js067245    260985

      0.42   +-  0.08       1.8    1.3  165.81 +-  0.0    0.22   2.64   +-0.2      +-0.2                 m i ke

PYRENEES
Sta     Dist  EvAz     Phase      Date       Time     TRes  Azim  AzRes  Slow  SRes Def   SNR       Amp   Per   Mag1   Mag2       ID
ETSF  000.22 186.0 m E Pg      2011/07/03 06:21:24.0  -0.9                          T                                        4718995
ETSF  000.22 186.0 m E Sg      2011/07/03 06:21:26.1  -1.8                          T               23.2  .20        Md 2.4  4715505
SJPF  000.51 270.1 m E Pg      2011/07/03 06:21:29.9  -0.3                          T                                        4718993
SJPF  000.51 270.1 m E Sg      2011/07/03 06:21:37.9   0.9                          T               12.2  .34        Md 2.0  4718994
EPF   000.64 097.2 m E Pg      2011/07/03 06:21:32.2  -0.5                          T                                        4718991
EPF   000.64 097.2 m E Sg      2011/07/03 06:21:40.9  -0.2                          T                6.7  .20        Md 2.0  4718992
MTLF  002.02 082.6 m E Pn      2011/07/03 06:21:53.6   0.0                          T                                        4718997
MTLF  002.02 082.6 m E Pg      2011/07/03 06:21:58.1   0.0                          T                                        4718996
MTLF  002.02 082.6 m E Sg      2011/07/03 06:22:23.6  -0.4                          T                2.8  .29 Ml 2.2         4718998
LFF   002.04 026.2 m E Pg      2011/07/03 06:21:58.6   0.2                          T                                        4719003
LFF   002.04 026.2 m E Sg      2011/07/03 06:22:25.0   0.3                          T                8.2  .30 Ml 2.5         4719004
CAF   002.60 045.0 m E Pn      2011/07/03 06:22:01.6  -0.1                          T                                        4719000
CAF   002.60 045.0 m E Pg      2011/07/03 06:22:08.8  -0.1                          T                                        4718999
CAF   002.60 045.0 m E Sn      2011/07/03 06:22:32.0   0.1                          T                                        4719001
CAF   002.60 045.0 m E Sg      2011/07/03 06:22:42.5   0.2                          T                2.8  .20 Ml 2.5         4719002
RJF   002.64 033.2 m E Pg      2011/07/03 06:22:09.2  -0.2                          T                                        4719005
RJF   002.64 033.2 m E Sg      2011/07/03 06:22:43.6   0.2                          T                4.0  .32 Ml 2.1         4719006

.
