EVENT     257403
    Date      Time       Latitude Longitude    Depth    Ndef Nsta Gap    Mag1  N    Mag2  N    Mag3  N   Author         ID
       rms   OT_Error      Smajor Sminor Az        Err   mdist  Mdist     Err        Err        Err      Quality

2011/03/21 10:22:01.9     43.2828    -.6221      2.0       8    4 123  Ml 1.9  2  Md 2.0  3              js067245    257403

      0.90   +-  0.21       4.9    3.5  171.08 +-  0.0    0.21   2.54   +-0.4      +-0.1                 m i ke

PYRENEES
Sta     Dist  EvAz     Phase      Date       Time     TRes  Azim  AzRes  Slow  SRes Def   SNR       Amp   Per   Mag1   Mag2       ID
SJPF  000.47 249.2 m E Pg      2011/03/21 10:22:10.1  -0.8                          T                                        4662304
SJPF  000.47 249.2 m E Sg      2011/03/21 10:22:15.4  -1.8                          T               11.2  .34        Md 2.0  4662303
EPF   000.75 109.4 m E Pg      2011/03/21 10:22:16.6   0.5                          T                                        4662301
EPF   000.75 109.4 m E Sg      2011/03/21 10:22:27.4   1.5                          T                1.4  .15        Md 1.9  4662302
LFF   001.93 030.2 m E Pg      2011/03/21 10:22:37.2  -0.4                          T                                        4662307
LFF   001.93 030.2 m E Sg      2011/03/21 10:23:02.0  -0.5                          T                5.0  .30 Ml 2.2 Md 2.1  4662308
CAF   002.54 048.8 m E Pn      2011/03/21 10:22:42.0  -0.4                          T                                        4662305
CAF   002.54 048.8 m E Sn      2011/03/21 10:23:11.9  -0.1                          T                 .5  .25 Ml 1.6         4662306

.
EVENT     257415
    Date      Time       Latitude Longitude    Depth    Ndef Nsta Gap    Mag1  N    Mag2  N    Mag3  N   Author         ID
       rms   OT_Error      Smajor Sminor Az        Err   mdist  Mdist     Err        Err        Err      Quality

2011/03/21 14:43:45.1     44.4628    7.3093      2.0      16    7 192  Ml 2.1  6  Md 1.9  3              js067245    257415

      0.37   +-  0.15       3.6    1.6   76.45 +-  0.0    0.47   1.34   +-0.2      +-0.0                 m i ke

NORTHERN ITALY
Sta     Dist  EvAz     Phase      Date       Time     TRes  Azim  AzRes  Slow  SRes Def   SNR       Amp   Per   Mag1   Mag2       ID
MBDF  000.47 304.7 m E Pg      2011/03/21 14:43:54.5   0.3                          T                                        4662429
MBDF  000.47 304.7 m E Sg      2011/03/21 14:44:00.6   0.2                          T               34.4  .24        Md 1.9  4662424
SBF   000.61 171.4 m E Pg      2011/03/21 14:43:56.6  -0.1                          T                                        4662428
SBF   000.61 171.4 m E Sg      2011/03/21 14:44:04.4  -0.2                          T               10.8  .24        Md 2.0  4662421
ORIF  001.12 294.6 m E Pg      2011/03/21 14:44:06.1   0.0                          T                                        4662425
ORIF  001.12 294.6 m E Sg      2011/03/21 14:44:19.1  -1.5                          T                5.7  .37 Ml 2.0         4662418
LPG   001.11 339.3 m E Pg      2011/03/21 14:44:06.2   0.0                          T                                        4662419
LPG   001.11 339.3 m E Sg      2011/03/21 14:44:20.4  -0.2                          T                2.8  .25 Ml 1.9 Md 1.9  4662416
LPL   001.13 339.0 m E Pg      2011/03/21 14:44:06.6   0.1                          T                                        4662420
LPL   001.13 339.0 m E Sg      2011/03/21 14:44:21.0  -0.2                          T                4.0  .32 Ml 2.0         4662417
LMR   001.27 207.4 m E Pg      2011/03/21 14:44:08.8   0.1                          T                                        4662427
LMR   001.27 207.4 m E Sg      2011/03/21 14:44:24.8  -0.4                          T                6.8  .18 Ml 2.5         4662423
SMRF  001.34 249.3 m E Pg      2011/03/21 14:44:11.4   1.3                          T                                        4662426
SMRF  001.34 249.3 m E Sg      2011/03/21 14:44:28.3   0.8                          T                8.6  .40 Ml 2.3         4662422

.
EVENT     257422
    Date      Time       Latitude Longitude    Depth    Ndef Nsta Gap    Mag1  N    Mag2  N    Mag3  N   Author         ID
       rms   OT_Error      Smajor Sminor Az        Err   mdist  Mdist     Err        Err        Err      Quality

2011/03/21 16:58:35.1     43.6851   12.1950     53.0     112   25 027  Ml 3.3 28                         js067245    257422

      0.67   +-  0.12       2.3    1.8   12.40 +-  2.0    0.05   7.21   +-0.3                            m i ke

CENTRAL ITALY
Sta     Dist  EvAz     Phase      Date       Time     TRes  Azim  AzRes  Slow  SRes Def   SNR       Amp   Per   Mag1   Mag2       ID
PGF   002.60 245.2 m E Pn      2011/03/21 16:59:15.4   0.6                          T                                        4662622
PGF   002.60 245.2 m E Sn      2011/03/21 16:59:44.0  -0.1                          T               21.6  .30 Ml 3.4         4662608
SBF   003.45 274.6 m E Pn      2011/03/21 16:59:26.9   0.8                          T                                        4662621
SBF   003.45 274.6 m E Sn      2011/03/21 17:00:03.4  -0.6                          T               56.4  .42 Ml 3.7         4662607
MBDF  004.04 286.8 m E Pn      2011/03/21 16:59:34.2   0.1                          T                                        4662614
MBDF  004.04 286.8 m E Sn      2011/03/21 17:00:17.7  -0.2                          T               11.8  .48 Ml 3.0         4662601
FRF   004.03 270.1 m E Pn      2011/03/21 16:59:34.9   1.1                          T                                        4662619
FRF   004.03 270.1 m E Sn      2011/03/21 17:00:17.6   0.0                          T               18.7  .26 Ml 3.6         4662606
LMR   004.15 267.1 m E Pn      2011/03/21 16:59:35.9   0.6                          T                                        4662620
LMR   004.15 267.1 m E Sn      2011/03/21 17:00:20.2  -0.2                          T               11.0  .22 Ml 3.4         4662605
LPL   004.31 297.0 m E Pn      2011/03/21 16:59:37.5  -0.3                          T                                        4662616
LPL   004.31 297.0 m E Sn      2011/03/21 17:00:24.1  -0.4                          T                9.2  .42 Ml 3.1         4662603
LPG   004.29 296.9 m E Pn      2011/03/21 16:59:37.6   0.0                          T                                        4662617
LPG   004.29 296.9 m E Sn      2011/03/21 17:00:23.9  -0.2                          T                7.1  .28 Ml 3.1         4662604
ORIF  004.70 287.4 m E Pn      2011/03/21 16:59:42.8  -0.1                          T                                        4662615
ORIF  004.70 287.4 m E Sn      2011/03/21 17:00:33.2  -0.3                          T               12.6  .54 Ml 3.2         4662602
SMRF  004.80 275.8 m E Pn      2011/03/21 16:59:44.9   0.7                          T                                        4662618
SMRF  004.80 275.8 m E Sn      2011/03/21 17:00:35.6  -0.2                          T                2.4  .29 Ml 2.8         4662571
CABF  005.22 306.2 m E Pn      2011/03/21 16:59:50.3   0.4                          T                                        4662613
CABF  005.22 306.2 m E Sn      2011/03/21 17:00:45.7  -0.1                          T                4.3  .40 Ml 3.0         4662583
VIVF  005.53 284.8 m E Pn      2011/03/21 16:59:54.6   0.6                          T                                        4662600
VIVF  005.53 284.8 m E Sn      2011/03/21 17:00:52.9  -0.2                          T                2.5  .34 Ml 2.9         4662573
HINF  005.57 319.7 m E Pn      2011/03/21 16:59:55.6   0.9                          T                                        4662612
HINF  005.57 319.7 m E Sn      2011/03/21 17:00:53.9  -0.3                          T               14.0  .28 Ml 3.7         4662584
CDF   005.84 325.8 m E Pn      2011/03/21 16:59:59.4   1.1                          T                                        4662610
CDF   005.84 325.8 m E Sn      2011/03/21 17:01:00.7   0.1                          T                7.8  .20 Ml 3.8         4662587
HAU   005.94 318.7 m E Pn      2011/03/21 17:00:00.4   0.7                          T                                        4662611
HAU   005.94 318.7 m E Sn      2011/03/21 17:01:02.9  -0.1                          T               13.8  .22 Ml 3.7         4662585
LANF  006.11 331.7 m E Pn      2011/03/21 17:00:01.9   0.0                          T                                        4662595
LANF  006.11 331.7 m E Sn      2011/03/21 17:01:06.7  -0.2                          T                4.4  .25 Ml 3.4         4662588
LASF  006.04 276.6 m E Pn      2011/03/21 17:00:02.2   1.2                          T                                        4662599
LASF  006.04 276.6 m E Sn      2011/03/21 17:01:05.2  -0.1                          T                1.4  .35 Ml 2.7         4662572
THEF  006.27 318.6 m E Pn      2011/03/21 17:00:04.1   0.1                          T                                        4662596
THEF  006.27 318.6 m E Sn      2011/03/21 17:01:10.6  -0.1                          T                8.0  .29 Ml 3.6         4662586
SMF   006.61 299.5 m E Pn      2011/03/21 17:00:07.8  -0.8                          T                                        4662609
SMF   006.61 299.5 m E Sn      2011/03/21 17:01:18.5  -0.2                          T                4.1  .27 Ml 3.4         4662576
PAGF  006.63 319.6 m E Pn      2011/03/21 17:00:08.9   0.0                          T                                        4662579
PAGF  006.63 319.6 m E Sn      2011/03/21 17:01:18.9  -0.3                          T                3.3  .49 Ml 3.0         4662580
SFTF  006.73 314.7 m E Pn      2011/03/21 17:00:10.2  -0.1                          T                                        4662577
SFTF  006.73 314.7 m E Sn      2011/03/21 17:01:21.5  -0.1                          T                5.0  .23 Ml 3.5         4662582
LOR   006.87 304.3 m E Pn      2011/03/21 17:00:12.2   0.0                          T                                        4662592
LOR   006.87 304.3 m E Sn      2011/03/21 17:01:24.6  -0.4                          T                4.4  .24 Ml 3.5         4662591
MEZF  006.92 316.6 m E Pn      2011/03/21 17:00:12.8   0.0                          T                                        4662578
MEZF  006.92 316.6 m E Sn      2011/03/21 17:01:26.0  -0.1                          T                6.8  .36 Ml 3.5         4662581
SSF   006.99 301.9 m E Pn      2011/03/21 17:00:13.9   0.1                          T                                        4662593
SSF   006.99 301.9 m E Sn      2011/03/21 17:01:27.5  -0.3                          T                1.7  .27 Ml 3.1         4662590
RUP   006.98 331.4 m E Pn      2011/03/21 17:00:14.1   0.4                          T                                        4662594
RUP   006.98 331.4 m E Sn      2011/03/21 17:01:27.4  -0.1                          T                                        4662589
BGF   007.21 296.7 m E Pn      2011/03/21 17:00:16.8   0.0                          T                                        4662598
BGF   007.21 296.7 m E Sn      2011/03/21 17:01:33.0  -0.1                          T                5.8  .32 Ml 3.5         4662575

.
EVENT     257417
    Date      Time       Latitude Longitude    Depth    Ndef Nsta Gap    Mag1  N    Mag2  N    Mag3  N   Author         ID
       rms   OT_Error      Smajor Sminor Az        Err   mdist  Mdist     Err        Err        Err      Quality

2011/03/22 01:55:34.9     43.1895    -.9348      2.0      39    5 119  Ml 1.7  5  Md 1.5  3              js067245    257417

      0.33   +-  0.06       1.3     .9  135.63 +-  0.0    0.20   2.77   +-0.3      +-0.1                 m i ke

PYRENEES
Sta     Dist  EvAz     Phase      Date       Time     TRes  Azim  AzRes  Slow  SRes Def   SNR       Amp   Per   Mag1   Mag2       ID
SJPF  000.23 250.4 m E Pg      2011/03/22 01:55:39.5   0.2                          T                                        4662641
SJPF  000.23 250.4 m E Sg      2011/03/22 01:55:42.9   0.4                          T               28.5  .20        Md 1.5  4662640
EPF   000.95 099.2 m E Pg      2011/03/22 01:55:53.5   0.8                          T                                        4662636
EPF   000.95 099.2 m E Sg      2011/03/22 01:56:06.6   1.5                          T                1.0  .27 Ml 1.4 Md 1.5  4662639
LFF   002.13 034.0 m E Pn      2011/03/22 01:56:09.6   0.0                          T                                        4662635
LFF   002.13 034.0 m E Pg      2011/03/22 01:56:14.1  -0.2                          T                                        4662632
LFF   002.13 034.0 m E Sg      2011/03/22 01:56:41.1  -0.6                          T                1.4  .33 Ml 1.7 Md 1.6  4662638
MTLF  002.31 085.2 m E Pn      2011/03/22 01:56:12.5   0.5                          T                                        4662631
MTLF  002.31 085.2 m E Sn      2011/03/22 01:56:40.0   0.6                          T                 .5  .36 Ml 1.4         4662633
CAF   002.77 050.2 m E Pn      2011/03/22 01:56:18.4  -0.1                          T                                        4662634
CAF   002.77 050.2 m E Sn      2011/03/22 01:56:50.3  -0.3                          T                1.6  .42 Ml 2.0         4662637

.
EVENT     257418
    Date      Time       Latitude Longitude    Depth    Ndef Nsta Gap    Mag1  N    Mag2  N    Mag3  N   Author         ID
       rms   OT_Error      Smajor Sminor Az        Err   mdist  Mdist     Err        Err        Err      Quality

2011/03/22 02:16:36.0     42.8880    -.5206      2.0      12    3 153  Ml 1.9  2  Md 1.7  3              js067245    257418

      0.24   +-  0.08       2.8     .9    9.01 +-  0.0    0.24   2.06   +-0.4      +-0.0                 m i ke

PYRENEES
Sta     Dist  EvAz     Phase      Date       Time     TRes  Azim  AzRes  Slow  SRes Def   SNR       Amp   Per   Mag1   Mag2       ID
SJPF  000.56 293.8 m E Pg      2011/03/22 02:16:46.8   0.1                          T                                        4662647
SJPF  000.56 293.8 m E Sg      2011/03/22 02:16:54.0  -0.1                          T                4.3  .41        Md 1.7  4662644
EPF   000.65 077.0 m E Pg      2011/03/22 02:16:48.1  -0.2                          T                                        4662646
EPF   000.65 077.0 m E Sg      2011/03/22 02:16:57.0   0.2                          T                3.7  .26        Md 1.7  4662645
MTLF  002.06 076.3 m E Pg      2011/03/22 02:17:14.0  -0.2                          T                                        4662643
MTLF  002.06 076.3 m E Sg      2011/03/22 02:17:40.8   0.1                          T                 .7  .28 Ml 1.6 Md 1.7  4662642

.
EVENT     257423
    Date      Time       Latitude Longitude    Depth    Ndef Nsta Gap    Mag1  N    Mag2  N    Mag3  N   Author         ID
       rms   OT_Error      Smajor Sminor Az        Err   mdist  Mdist     Err        Err        Err      Quality

2011/03/22 03:10:10.7     45.4384    6.6612      2.0      12    5 144  Ml 1.5  1  Md 1.5  3              js067245    257423

      0.04   +-  0.02        .6     .3  129.81 +-  0.0    0.09   1.52   +-         +-0.0                 m i ke

FRANCE
Sta     Dist  EvAz     Phase      Date       Time     TRes  Azim  AzRes  Slow  SRes Def   SNR       Amp   Per   Mag1   Mag2       ID
LPL   000.09 032.7 m E Pg      2011/03/22 03:10:13.0  -0.1                          T                                        4662659
LPL   000.09 032.7 m E Sg      2011/03/22 03:10:14.5   0.0                          T               18.4  .20        Md 1.5  4662656
LPG   000.09 046.9 m E Pg      2011/03/22 03:10:13.1   0.1                          T                                        4662658
LPG   000.09 046.9 m E Sg      2011/03/22 03:10:14.4   0.0                          T               28.9  .18        Md 1.5  4662657
MBDF  000.72 173.7 m E Pg      2011/03/22 03:10:24.4   0.0                          T                                        4662653
MBDF  000.72 173.7 m E Sg      2011/03/22 03:10:33.7   0.0                          T                4.1  .51        Md 1.5  4662654
ORIF  000.76 227.0 m E Pg      2011/03/22 03:10:25.1   0.0                          T                                        4662652
ORIF  000.76 227.0 m E Sg      2011/03/22 03:10:35.1   0.1                          T                1.7  .33                4662655
VIVF  001.52 248.2 m E Pn      2011/03/22 03:10:37.3   0.0                          T                                        4662649
VIVF  001.52 248.2 m E Sn      2011/03/22 03:10:56.5   0.0                          T                  1  .35 Ml 1.5         4662648

.
EVENT     257419
    Date      Time       Latitude Longitude    Depth    Ndef Nsta Gap    Mag1  N    Mag2  N    Mag3  N   Author         ID
       rms   OT_Error      Smajor Sminor Az        Err   mdist  Mdist     Err        Err        Err      Quality

2011/03/22 04:43:55.2     43.1480    -.3791      2.0      13    3 108  Ml 1.8  1  Md 1.9  3              js067245    257419

      0.44   +-  0.10       2.0    1.4    4.43 +-  0.0    0.08   2.25   +-         +-0.1                 m i ke

PYRENEES
Sta     Dist  EvAz     Phase      Date       Time     TRes  Azim  AzRes  Slow  SRes Def   SNR       Amp   Per   Mag1   Mag2       ID
EPF   000.54 102.3 m E Pg      2011/03/22 04:44:05.5   0.0                          T                                        4662665
EPF   000.54 102.3 m E Sg      2011/03/22 04:44:12.8   0.2                          T                2.1  .26        Md 1.9  4662662
SJPF  000.62 267.1 m E Pg      2011/03/22 04:44:06.8  -0.1                          T                                        4662664
SJPF  000.62 267.1 m E Sg      2011/03/22 04:44:15.0  -0.1                          T                1.1  .32        Md 1.9  4662663
LFF   001.96 023.9 m E Pg      2011/03/22 04:44:31.5  -0.2                          T                                        4662660
LFF   001.96 023.9 m E Sg      2011/03/22 04:44:56.8  -0.2                          T                1.7  .27 Ml 1.8 Md 2.0  4662661

.
