EVENT     257087
    Date      Time       Latitude Longitude    Depth    Ndef Nsta Gap    Mag1  N    Mag2  N    Mag3  N   Author         ID
       rms   OT_Error      Smajor Sminor Az        Err   mdist  Mdist     Err        Err        Err      Quality

2011/03/12 08:01:19.4     47.4059   12.5032      2.0     109   32 043  Ml 3.4 35                         js067245    257087

      0.63   +-  0.10       2.7    1.6   20.64 +-  0.0    0.54   8.68   +-0.3                            m i ke

AUSTRIA
Sta     Dist  EvAz     Phase      Date       Time     TRes  Azim  AzRes  Slow  SRes Def   SNR       Amp   Per   Mag1   Mag2       ID
LANF  003.52 298.4 m E Pn      2011/03/12 08:02:13.4   0.3                          T                                        4659526
LANF  003.52 298.4 m E Sg      2011/03/12 08:03:09.5  -0.1                          T               18.0  .27 Ml 3.4         4659588
CDF   003.66 287.9 m E Pn      2011/03/12 08:02:16.4   1.3                          T                                        4659546
CDF   003.66 287.9 m E Sg      2011/03/12 08:03:14.2   0.1                          T               20.0  .26 Ml 3.6         4659587
HINF  003.84 278.2 m E Pn      2011/03/12 08:02:19.1   1.5                          T                                        4659542
HINF  003.84 278.2 m E Sn      2011/03/12 08:03:00.9   0.3                          T                                        4659507
HINF  003.84 278.2 m E Sg      2011/03/12 08:03:19.9   0.0                          T               22.8  .30 Ml 3.5         4659581
RUP   004.28 304.4 m E Pn      2011/03/12 08:02:23.3  -0.3                          T                                        4659545
RUP   004.28 304.4 m E Sg      2011/03/12 08:03:33.5  -0.1                          T                                        4659589
HAU   004.20 280.5 m E Pn      2011/03/12 08:02:24.2   1.8                          T                                        4659544
HAU   004.20 280.5 m E Sn      2011/03/12 08:03:09.3   0.2                          T                                        4659508
HAU   004.20 280.5 m E Sg      2011/03/12 08:03:31.0   0.0                          T               40.4  .34 Ml 3.5         4659582
LPG   004.41 246.5 m E Pn      2011/03/12 08:02:25.5  -0.1                          T                                        4659540
LPG   004.41 246.5 m E Sn      2011/03/12 08:03:14.8   0.3                          T               14.7  .57 Ml 3.2         4659493
LPL   004.41 246.8 m E Pn      2011/03/12 08:02:25.7   0.2                          T                                        4659539
LPL   004.41 246.8 m E Sn      2011/03/12 08:03:14.8   0.3                          T               11.4  .54 Ml 3.1         4659494
CABF  004.46 262.1 m E Pn      2011/03/12 08:02:27.9   1.8                          T                                        4659541
CABF  004.46 262.1 m E Sn      2011/03/12 08:03:15.6   0.2                          T                                        4659506
CABF  004.46 262.1 m E Sg      2011/03/12 08:03:39.1  -0.2                          T               23.0  .53 Ml 3.4         4659580
THEF  004.46 283.0 m E Pn      2011/03/12 08:02:28.0   2.1                          T                                        4659543
THEF  004.46 283.0 m E Sn      2011/03/12 08:03:15.6   0.2                          T                                        4659509
THEF  004.46 283.0 m E Sg      2011/03/12 08:03:39.2   0.0                          T               22.8  .32 Ml 3.6         4659583
PAGF  004.70 286.7 m E Pn      2011/03/12 08:02:29.4   0.3                          T                                        4659525
PAGF  004.70 286.7 m E Sg      2011/03/12 08:03:46.4  -0.1                          T                9.0  .52 Ml 3.0         4659586
MBDF  004.80 238.2 m E Pn      2011/03/12 08:02:30.8   0.1                          T                                        4659538
MBDF  004.80 238.2 m E Sn      2011/03/12 08:03:23.7  -0.1                          T               16.2  .44 Ml 3.4         4659496
SBF   005.02 226.9 m E Pn      2011/03/12 08:02:34.1   0.5                          T                                        4659518
SBF   005.02 226.9 m E Sn      2011/03/12 08:03:28.9   0.1                          T               15.9  .39 Ml 3.5         4659489
SFTF  005.09 281.8 m E Pn      2011/03/12 08:02:34.7   0.1                          T                                        4659523
SFTF  005.09 281.8 m E Sn      2011/03/12 08:03:30.6   0.2                          T                                        4659510
SFTF  005.09 281.8 m E Sg      2011/03/12 08:03:58.8  -0.1                          T               11.7  .32 Ml 3.5         4659584
MEZF  005.13 285.1 m E Pn      2011/03/12 08:02:35.3   0.4                          T                                        4659524
MEZF  005.13 285.1 m E Sg      2011/03/12 08:03:59.7  -0.1                          T               20.4  .44 Ml 3.6         4659585
ORIF  005.23 244.0 m E Pn      2011/03/12 08:02:37.0   0.5                          T                                        4659537
ORIF  005.23 244.0 m E Sn      2011/03/12 08:03:34.1   0.3                          T                8.5  .32 Ml 3.3         4659495
FRF   005.63 229.1 m E Pn      2011/03/12 08:02:42.3   0.5                          T                                        4659517
FRF   005.63 229.1 m E Sn      2011/03/12 08:03:43.6   0.3                          T                3.8  .30 Ml 3.2         4659491
GIVF  005.75 300.8 m E Pn      2011/03/12 08:02:43.7   0.2                          T                                        4659528
GIVF  005.75 300.8 m E Sn      2011/03/12 08:03:46.5   0.3                          T                                        4659511
GIVF  005.75 300.8 m E Sg      2011/03/12 08:04:19.5   0.2                          T               13.5  .61 Ml 3.4         4660392
LMR   005.86 228.2 m E Pn      2011/03/12 08:02:44.9  -0.1                          T                                        4659515
LMR   005.86 228.2 m E Sn      2011/03/12 08:03:49.3   0.5                          T                7.4  .50 Ml 3.3         4659490
LOR   005.88 271.8 m E Pn      2011/03/12 08:02:45.5   0.2                          T                                        4659531
LOR   005.88 271.8 m E Sn      2011/03/12 08:03:48.9  -0.3                          T                                        4659514
LOR   005.88 271.8 m E Sg      2011/03/12 08:04:23.4   0.0                          T               10.3  .45 Ml 3.4         4659592
SMRF  005.94 237.3 m E Pn      2011/03/12 08:02:46.3   0.2                          T                                        4659516
SMRF  005.94 237.3 m E Sn      2011/03/12 08:03:51.2   0.4                          T                3.5  .36 Ml 3.1         4659492
SMF   005.97 265.9 m E Pn      2011/03/12 08:02:47.2   0.7                          T                                        4659521
SMF   005.97 265.9 m E Sn      2011/03/12 08:03:51.7   0.2                          T                6.3  .26 Ml 3.5         4659504
VIVF  006.01 247.8 m E Pn      2011/03/12 08:02:47.6   0.6                          T                                        4659536
VIVF  006.01 247.8 m E Sn      2011/03/12 08:03:52.7   0.3                          T                8.3  .42 Ml 3.4         4659497
BAIF  006.10 298.9 m E Pn      2011/03/12 08:02:47.8  -0.4                          T                                        4659527
BAIF  006.10 298.9 m E Sg      2011/03/12 08:04:30.1   0.0                          T               13.5  .69 Ml 3.4         4659590
SSF   006.14 270.1 m E Pn      2011/03/12 08:02:49.1   0.3                          T                                        4659530
SSF   006.14 270.1 m E Sn      2011/03/12 08:03:54.8  -0.6                          T                                        4659513
SSF   006.14 270.1 m E Sg      2011/03/12 08:04:31.2  -0.2                          T                8.3  .67 Ml 3.3         4659591
AVF   006.28 267.7 m E Pn      2011/03/12 08:02:51.4   0.8                          T                                        4659522
AVF   006.28 267.7 m E Sn      2011/03/12 08:03:59.0   0.3                          T                5.5  .48 Ml 3.2         4659505
BGF   006.66 266.2 m E Pn      2011/03/12 08:02:56.6   0.7                          T                                        4659520
BGF   006.66 266.2 m E Sn      2011/03/12 08:04:08.2   0.3                          T               44.5  .42 Ml 4.2         4659503
LASF  006.90 244.3 m E Pn      2011/03/12 08:02:59.4   0.1                          T                                        4659487
LASF  006.90 244.3 m E Sn      2011/03/12 08:04:13.9   0.1                          T               14.9  .52 Ml 3.7         4659488
TCF   007.15 264.8 m E Pn      2011/03/12 08:03:03.0   0.5                          T                                        4659529
TCF   007.15 264.8 m E Sn      2011/03/12 08:04:19.7   0.1                          T               18.9  .40 Ml 4.0         4659512
CAF   007.66 254.9 m E Pn      2011/03/12 08:03:09.6   0.1                          T                                        4659535
CAF   007.66 254.9 m E Sn      2011/03/12 08:04:31.9   0.1                          T                3.7  .25 Ml 3.5         4659498
RJF   007.89 258.6 m E Pn      2011/03/12 08:03:12.5   0.0                          T                                        4659533
RJF   007.89 258.6 m E Sn      2011/03/12 08:04:37.5   0.3                          T                6.3  .34 Ml 3.3         4659501
LFF   008.53 257.5 m E Pn      2011/03/12 08:03:21.4   0.1                          T                                        4659534
LFF   008.53 257.5 m E Sn      2011/03/12 08:04:52.9   0.4                          T                4.0  .47 Ml 3.3         4659499
MFF   008.68 269.3 m E Pn      2011/03/12 08:03:23.4  -0.1                          T                                        4659532
MFF   008.68 269.3 m E Sn      2011/03/12 08:04:56.4   0.1                          T                2.4  .35 Ml 3.5         4659500

.
EVENT     257088
    Date      Time       Latitude Longitude    Depth    Ndef Nsta Gap    Mag1  N    Mag2  N    Mag3  N   Author         ID
       rms   OT_Error      Smajor Sminor Az        Err   mdist  Mdist     Err        Err        Err      Quality

2011/03/12 12:43:45.3     45.6934    7.0018      2.0      10    4 322  Ml 1.7  3  Md 1.7  3              js067245    257088

      0.13   +-  0.22       3.6    3.0  178.61 +-  0.0    0.26   1.11   +-0.1      +-0.0                 m i ke

NORTHERN ITALY
Sta     Dist  EvAz     Phase      Date       Time     TRes  Azim  AzRes  Slow  SRes Def   SNR       Amp   Per   Mag1   Mag2       ID
LPL   000.26 227.0 m E Pg      2011/03/12 12:43:50.8   0.1                          T                                        4659602
LPL   000.26 227.0 m E Sg      2011/03/12 12:43:54.2   0.0                          T                6.6  .24        Md 1.7  4659600
LPG   000.26 222.0 m E Pg      2011/03/12 12:43:51.0   0.1                          T                                        4659601
LPG   000.26 222.0 m E Sg      2011/03/12 12:43:54.5   0.1                          T                9.6  .20        Md 1.7  4659599
MBDF  000.98 189.6 m E Pg      2011/03/12 12:44:03.9   0.1                          T                                        4659596
MBDF  000.98 189.6 m E Sg      2011/03/12 12:44:16.5  -0.1                          T                2.0  .28 Ml 1.7 Md 1.7  4659597
ORIF  001.11 226.0 m E Pg      2011/03/12 12:44:05.9  -0.3                          T                                        4659595
ORIF  001.11 226.0 m E Sg      2011/03/12 12:44:20.5  -0.1                          T                1.2  .26 Ml 1.5         4659598

.
EVENT     257089
    Date      Time       Latitude Longitude    Depth    Ndef Nsta Gap    Mag1  N    Mag2  N    Mag3  N   Author         ID
       rms   OT_Error      Smajor Sminor Az        Err   mdist  Mdist     Err        Err        Err      Quality

2011/03/12 16:00:56.2     37.8136   -1.7936      2.0      65    5 115  Ml 2.8  5                         js067245    257089

      0.97   +-  0.17       3.9    2.2  141.37 +-  0.0    0.44   7.67   +-0.2                            m i ke

SPAIN
Sta     Dist  EvAz     Phase      Date       Time     TRes  Azim  AzRes  Slow  SRes Def   SNR       Amp   Per   Mag1   Mag2       ID
ETSF  005.17 010.1 m E Pn      2011/03/12 16:02:12.5   0.1                          T                                        4659611
ETSF  005.17 010.1 m E Sg      2011/03/12 16:03:38.1   0.0                          T                1.5  .30 Ml 2.6         4659606
SJPF  005.31 004.5 m E Pn      2011/03/12 16:02:14.3   0.0                          T                                        4659612
SJPF  005.31 004.5 m E Sg      2011/03/12 16:03:42.5  -0.1                          T                2.8  .43 Ml 2.8         4659605
EPF   005.46 016.7 m E Pn      2011/03/12 16:02:17.8   1.3                          T                                        4659610
EPF   005.46 016.7 m E Sg      2011/03/12 16:03:47.0  -0.2                          T                2.8  .40 Ml 2.8         4659607
LFF   007.37 014.2 m E Pn      2011/03/12 16:02:42.2  -0.1                          T                                        4659608
LFF   007.37 014.2 m E Sn      2011/03/12 16:04:01.8   0.1                          T                2.4  .33 Ml 3.0         4659604
CAF   007.67 021.0 m E Pn      2011/03/12 16:02:46.6   0.0                          T                                        4659609
CAF   007.67 021.0 m E Sn      2011/03/12 16:04:09.1   0.1                          T                1.0  .26 Ml 3.0         4659603

.
EVENT     257090
    Date      Time       Latitude Longitude    Depth    Ndef Nsta Gap    Mag1  N    Mag2  N    Mag3  N   Author         ID
       rms   OT_Error      Smajor Sminor Az        Err   mdist  Mdist     Err        Err        Err      Quality

2011/03/12 16:49:16.6     43.4554    -.6780      2.0      13    3 226  Ml 2.2  1  Md 2.2  3              js067245    257090

      0.50   +-  0.28       5.3    2.4  179.75 +-  0.0    0.37   2.18   +-         +-0.0                 m i ke

PYRENEES
Sta     Dist  EvAz     Phase      Date       Time     TRes  Azim  AzRes  Slow  SRes Def   SNR       Amp   Per   Mag1   Mag2       ID
SJPF  000.53 229.6 m E Pg      2011/03/12 16:49:26.2  -0.5                          T                                        4659657
SJPF  000.53 229.6 m E Sg      2011/03/12 16:49:33.3  -0.3                          T                6.7  .28        Md 2.2  4659654
ETSF  000.56 171.1 m E Pg      2011/03/12 16:49:27.0  -0.5                          T                                        4659656
ETSF  000.56 171.1 m E Sg      2011/03/12 16:49:34.5  -0.4                          T                8.4  .24        Md 2.1  4659653
EPF   000.86 119.4 m E Pg      2011/03/12 16:49:32.4  -0.4                          T                                        4659655
EPF   000.86 119.4 m E Sg      2011/03/12 16:49:43.5  -0.4                          T                6.6  .22 Ml 2.2 Md 2.1  4659652

.
EVENT     257091
    Date      Time       Latitude Longitude    Depth    Ndef Nsta Gap    Mag1  N    Mag2  N    Mag3  N   Author         ID
       rms   OT_Error      Smajor Sminor Az        Err   mdist  Mdist     Err        Err        Err      Quality

2011/03/13 00:18:21.0     47.1293    1.5283      2.0      24   10 130  Ml 1.7 12  Md 1.9  3              js067245    257091

      0.24   +-  0.07       1.6     .9  177.32 +-  0.0    0.77   2.04   +-0.2      +-0.1                 m i ke

FRANCE
Sta     Dist  EvAz     Phase      Date       Time     TRes  Azim  AzRes  Slow  SRes Def   SNR       Amp   Per   Mag1   Mag2       ID
HYF   000.77 079.2 m E Pg      2011/03/13 00:18:35.9   0.4                          T                                        4659786
HYF   000.77 079.2 m E Sg      2011/03/13 00:18:45.3  -0.3                          T                                Md 2.0  4659780
TCF   000.96 150.6 m E Pg      2011/03/13 00:18:38.9  -0.2                          T                                        4659790
TCF   000.96 150.6 m E Sg      2011/03/13 00:18:51.5  -0.1                          T                1.3  .16 Ml 1.8 Md 1.9  4659794
BGF   001.07 121.8 m E Pg      2011/03/13 00:18:41.5   0.4                          T                                        4659787
BGF   001.07 121.8 m E Sg      2011/03/13 00:18:54.7  -0.2                          T                3.8  .25 Ml 2.0 Md 1.8  4659779
MFF   001.26 246.0 m E Pg      2011/03/13 00:18:44.6   0.0                          T                                        4659800
MFF   001.26 246.0 m E Sg      2011/03/13 00:19:01.2   0.3                          T                1.7  .25 Ml 1.9         4659796
AVF   001.29 104.5 m E Pg      2011/03/13 00:18:45.1   0.0                          T                                        4659783
AVF   001.29 104.5 m E Sg      2011/03/13 00:19:01.7  -0.2                          T                1.2  .28 Ml 1.6         4659782
SSF   001.35 092.2 m E Pg      2011/03/13 00:18:46.2   0.0                          T                                        4659789
SSF   001.35 092.2 m E Sg      2011/03/13 00:19:03.4  -0.3                          T                  1  .26 Ml 1.6         4659793
SMF   001.66 106.1 m E Pn      2011/03/13 00:18:49.6   0.3                          T                                        4659784
SMF   001.66 106.1 m E Sg      2011/03/13 00:19:13.1  -0.2                          T                 .9  .23 Ml 1.7         4659781
LOR   001.60 084.1 m E Pg      2011/03/13 00:18:50.3  -0.5                          T                                        4659788
LOR   001.60 084.1 m E Sg      2011/03/13 00:19:11.0  -0.3                          T                1.1  .29 Ml 1.7         4659792
RJF   001.83 180.3 m E Pn      2011/03/13 00:18:51.5  -0.2                          T                                        4659799
RJF   001.83 180.3 m E Sg      2011/03/13 00:19:18.3  -0.2                          T                 .9  .22 Ml 1.4         4659797
GRR   002.04 308.9 m E Pn      2011/03/13 00:18:54.4  -0.1                          T                                        4659798
GRR   002.04 308.9 m E Sg      2011/03/13 00:19:24.8  -0.4                          T                 .8  .32 Ml 1.5         4659795

.
