EVENT     295195
    Date      Time       Latitude Longitude    Depth    Ndef Nsta Gap    Mag1  N    Mag2  N    Mag3  N   Author         ID
       rms   OT_Error      Smajor Sminor Az        Err   mdist  Mdist     Err        Err        Err      Quality

2013/04/03 04:24:36.8     47.1344    7.1638      2.0      59   15 032  Ml 2.1  6                         bulletin    295295
                                                                                                         _ldg
      0.59   +-  0.06       1.4    1.2  127.10 +-  0.0    0.26   2.86   +-0.2                            m i ke

SWITZERLAND
Sta     Dist  EvAz     Phase      Date       Time     TRes  Azim  AzRes  Slow  SRes Def   SNR       Amp   Per   Mag1   Mag2       ID
HINF  000.71 343.0 m E Pg      2013/04/03 04:24:50.2  -0.2                          T                                        5242886
HINF  000.71 343.0 m E Pn      2013/04/03 04:24:52.4   0.0                          T                                        5243506
HINF  000.71 343.0 m E Sg      2013/04/03 04:24:59.4  -0.3                          T                5.1  .17                5242885
HINF  000.71 343.0 m E Sn      2013/04/03 04:25:03.2  -0.2                          T                                        5243505
CABF  000.91 235.1 m E Pg      2013/04/03 04:24:53.9  -0.1                          T                                        5242883
CABF  000.91 235.1 m E Sg      2013/04/03 04:25:05.7   0.0                          T                8.3  .28 Ml 2.2         5242881
HAU   001.03 327.9 m E Pg      2013/04/03 04:24:56.6   0.4                          T                                        5242884
HAU   001.03 327.9 m E Sg      2013/04/03 04:25:09.2  -0.4                          T                3.1  .22 Ml 1.8         5242882
CDF   001.28 003.3 m E Pn      2013/04/03 04:25:00.2   0.0                          T                                        5242903
CDF   001.28 003.3 m E Sg      2013/04/03 04:25:17.0  -0.4                          T                6.2  .32 Ml 2.3         5242902
LPL   001.65 190.6 m E Pn      2013/04/03 04:25:05.9   0.5                          T                                        5242908
LPL   001.65 190.6 m E Sn      2013/04/03 04:25:26.3   0.4                          T                5.1  .52 Ml 2.1         5242907
LPG   001.66 190.1 m E Pn      2013/04/03 04:25:06.1   0.5                          T                                        5242906
LPG   001.66 190.1 m E Sn      2013/04/03 04:25:26.7   0.4                          T                2.3  .28 Ml 2.0         5242905
PAGF  001.72 326.2 m E Pn      2013/04/03 04:25:06.7   0.6                          T                                        5243525
PAGF  001.72 326.2 m E Pg      2013/04/03 04:25:08.7  -0.2                          T                                        5243524
PAGF  001.72 326.2 m E Sn      2013/04/03 04:25:27.0  -0.4                          T                                        5243522
PAGF  001.72 326.2 m E Sg      2013/04/03 04:25:30.7  -0.4                          T                                        5243523
SFTF  001.79 307.5 m E Pn      2013/04/03 04:25:07.0  -0.1                          T                                        5242904
SFTF  001.79 307.5 m E Pg      2013/04/03 04:25:09.8  -0.4                          T                                        5243530
SFTF  001.79 307.5 m E Sn      2013/04/03 04:25:28.5  -0.5                          T                                        5243504
SFTF  001.79 307.5 m E Sg      2013/04/03 04:25:32.6  -0.7                          T                                        5242910
MEZF  001.97 314.6 m E Pn      2013/04/03 04:25:09.5   0.0                          T                                        5243521
MEZF  001.97 314.6 m E Pg      2013/04/03 04:25:13.5   0.0                          T                                        5243520
MEZF  001.97 314.6 m E Sn      2013/04/03 04:25:32.6  -0.8                          T                                        5243519
MEZF  001.97 314.6 m E Sg      2013/04/03 04:25:38.2  -0.7                          T                                        5243518
LOR   002.26 274.6 m E Pn      2013/04/03 04:25:13.5   0.1  98.8  6.6               T                1.9  .20 Ml 2.3         5242900
LOR   002.26 274.6 m E Pg      2013/04/03 04:25:18.9   0.1                          T                                        5243534
LOR   002.26 274.6 m E Sg      2013/04/03 04:25:47.3  -0.5                          T                                        5242901
SMF   002.33 259.1 m E Pn      2013/04/03 04:25:14.5   0.1                          T                                        5243517
SMF   002.33 259.1 m E Pg      2013/04/03 04:25:20.3   0.2                          T                                        5243516
SMF   002.33 259.1 m E Sn      2013/04/03 04:25:41.8  -0.1                          T                                        5243514
SMF   002.33 259.1 m E Sg      2013/04/03 04:25:49.5  -0.6                          T                                        5243515
SSF   002.50 269.7 m E Pn      2013/04/03 04:25:15.6  -1.1                          T                                        5242909
SSF   002.50 269.7 m E Pg      2013/04/03 04:25:23.4   0.2                          T                                        5243531
SSF   002.50 269.7 m E Sn      2013/04/03 04:25:45.2  -0.7                          T                                        5243532
SSF   002.50 269.7 m E Sg      2013/04/03 04:25:54.8  -0.6                          T                                        5243533
MBDF  002.42 186.6 m E Pn      2013/04/03 04:25:16.4   0.6                          T                                        5242912
MBDF  002.42 186.6 m E Pg      2013/04/03 04:25:21.5  -0.5                          T                                        5242911
MBDF  002.42 186.6 m E Sg      2013/04/03 04:25:53.6   0.5                          T                                        5242913
AVF   002.63 263.9 m E Pn      2013/04/03 04:25:18.6   0.2                          T                                        5243529
AVF   002.63 263.9 m E Pg      2013/04/03 04:25:25.7   0.0                          T                                        5243528
AVF   002.63 263.9 m E Sn      2013/04/03 04:25:48.6  -0.5                          T                                        5243526
AVF   002.63 263.9 m E Sg      2013/04/03 04:25:59.2  -0.3                          T                                        5243527
VIVF  002.86 218.2 m E Pn      2013/04/03 04:25:22.1   0.5                          T                                        5243564
VIVF  002.86 218.2 m E Pg      2013/04/03 04:25:30.4   0.5                          T                                        5243561
VIVF  002.86 218.2 m E Sn      2013/04/03 04:25:54.8   0.1                          T                                        5243562
VIVF  002.86 218.2 m E Sg      2013/04/03 04:26:05.6  -1.2                          T                                        5243563

.
EVENT     295198
    Date      Time       Latitude Longitude    Depth    Ndef Nsta Gap    Mag1  N    Mag2  N    Mag3  N   Author         ID
       rms   OT_Error      Smajor Sminor Az        Err   mdist  Mdist     Err        Err        Err      Quality

2013/04/03 06:28:22.1     42.4673    2.0101     12.0 f    59    9 044  Ml 2.2 10                         bulletin    295298
                                                                                                         _ldg
      0.44   +-  0.05       1.0    1.0  115.03 +-  0.0    0.03   3.07   +-0.2                            m i ke

PYRENEES
Sta     Dist  EvAz     Phase      Date       Time     TRes  Azim  AzRes  Slow  SRes Def   SNR       Amp   Per   Mag1   Mag2       ID
MTLF  000.89 009.8 m E Pg      2013/04/03 06:28:38.7  -0.2                          T                                        5243089
MTLF  000.89 009.8 m E Sg      2013/04/03 06:28:49.9  -0.6                          T                6.7  .16 Ml 2.4         5243088
EPF   001.35 295.1 m E Pn      2013/04/03 06:28:47.1   1.8                          T                                        5243087
EPF   001.35 295.1 m E Sn      2013/04/03 06:29:02.9   0.8                          T                4.4  .32 Ml 2.1         5243086
ETSF  001.94 283.7 m E Pn      2013/04/03 06:28:53.4   0.0                          T                                        5243143
ETSF  001.94 283.7 m E Sn      2013/04/03 06:29:16.5   0.3                          T                                        5243141
ETSF  001.94 283.7 m E Sg      2013/04/03 06:29:23.7   0.3                          T                3.9  .28 Ml 2.3         5243142
LASF  002.10 039.4 m E Pn      2013/04/03 06:28:55.9   0.5                          T                                        5243085
LASF  002.10 039.4 m E Pg      2013/04/03 06:29:00.8  -0.4                          T                                        5243541
LASF  002.10 039.4 m E Sn      2013/04/03 06:29:20.4   0.6                          T                2.2  .29 Ml 2.1         5243084
SJPF  002.47 286.3 m E Pn      2013/04/03 06:29:00.3  -0.1                          T                                        5244288
SJPF  002.47 286.3 m E Sn      2013/04/03 06:29:28.9   0.3                          T                                        5244287
SJPF  002.47 286.3 m E Sg      2013/04/03 06:29:40.0   0.3                          T                1.1  .26 Ml 1.9         5244286
CAF   002.46 000.9 m E Pn      2013/04/03 06:29:01.1   0.7                          T                                        5243139
CAF   002.46 000.9 m E Pg      2013/04/03 06:29:07.7  -0.1                          T                                        5243551
CAF   002.46 000.9 m E Sn      2013/04/03 06:29:29.1   0.6                          T                                        5243550
CAF   002.46 000.9 m E Sg      2013/04/03 06:29:38.7  -0.8                          T                2.5  .18 Ml 2.5         5243140
LFF   002.64 340.0 m E Pn      2013/04/03 06:29:03.1   0.4                          T                                        5243549
LFF   002.64 340.0 m E Pg      2013/04/03 06:29:11.4   0.3                          T                                        5243548
LFF   002.64 340.0 m E Sn      2013/04/03 06:29:33.6   0.9                          T                                        5243546
LFF   002.64 340.0 m E Sg      2013/04/03 06:29:44.8  -0.2                          T               10.8  .47 Ml 2.5         5243547
RJF   002.86 353.0 m E Pn      2013/04/03 06:29:06.2   0.4                          T                                        5243545
RJF   002.86 353.0 m E Pg      2013/04/03 06:29:15.5   0.3                          T                                        5243544
RJF   002.86 353.0 m E Sn      2013/04/03 06:29:38.5   0.4                          T                                        5243542
RJF   002.86 353.0 m E Sg      2013/04/03 06:29:51.9   0.0                          T                2.1  .22 Ml 2.0         5243543
VIVF  003.07 038.1 m E Pn      2013/04/03 06:29:08.0  -0.7                          T                                        5244290
VIVF  003.07 038.1 m E Sn      2013/04/03 06:29:43.5   0.4                          T                1.1  .22 Ml 2.1         5244289

.
EVENT     295274
    Date      Time       Latitude Longitude    Depth    Ndef Nsta Gap    Mag1  N    Mag2  N    Mag3  N   Author         ID
       rms   OT_Error      Smajor Sminor Az        Err   mdist  Mdist     Err        Err        Err      Quality

2013/04/03 07:50:27.7     47.6759    5.9748       .0 f    21   10 099  Ml 2.1  7  Md 2.1  2              bulletin    295374
                                                                                                         _ldg
      0.22   +-  0.03        .6     .4  145.48 +-  0.0    0.41   1.79   +-0.1      +-0.1                 m i km

FRANCE
Sta     Dist  EvAz     Phase      Date       Time     TRes  Azim  AzRes  Slow  SRes Def   SNR       Amp   Per   Mag1   Mag2       ID
HAU   000.41 037.2 m E Pg      2013/04/03 07:50:36.0   0.0                          T                                        5243340
HAU   000.41 037.2 m E Sg      2013/04/03 07:50:41.7   0.0                          T               10.4  .24        Md 2.1  5243339
HINF  000.61 076.3 m E Pg      2013/04/03 07:50:39.7   0.1                          T                                        5243338
HINF  000.61 076.3 m E Sg      2013/04/03 07:50:47.7  -0.1                          T                4.4  .28        Md 2.0  5243337
SFTF  000.82 310.4 m E Pg      2013/04/03 07:50:43.4  -0.1 130.4  0.7               T                                        5243358
SFTF  000.82 310.4 m E Sg      2013/04/03 07:50:54.5   0.1                          T                5.6  .34                5243357
PAGF  000.90 349.3 m E Pg      2013/04/03 07:50:44.8   0.0                          T                                        5243360
PAGF  000.90 349.3 m E Sg      2013/04/03 07:50:56.6   0.0 170.0  0.9               T                5.8  .31 Ml 2.0         5243359
MEZF  001.03 323.5 m E Pg      2013/04/03 07:50:47.2  -0.1 142.9  0.1               T                                        5250255
MEZF  001.03 323.5 m E Sg      2013/04/03 07:51:01.0   0.1                          T                6.8  .25 Ml 2.3         5250254
CABF  001.07 175.8 m E Pn      2013/04/03 07:50:48.6   0.0                          T                                        5243336
CABF  001.07 175.8 m E Sn      2013/04/03 07:51:03.3  -0.1                          T                4.2  .25 Ml 2.1         5243335
CDF   001.14 049.4 m E Pg      2013/04/03 07:50:49.4   0.0                          T                                        5243361
CDF   001.14 049.4 m E Sg      2013/04/03 07:51:04.4  -0.1                          T                3.5  .27 Ml 2.1         5243362
LOR   001.49 254.9 m E Pg      2013/04/03 07:50:56.0   0.2  75.2  1.9               T                                        5250249
LOR   001.49 254.9 m E Sg      2013/04/03 07:51:15.4   0.1  75.2  1.8               T                3.3  .26 Ml 2.2         5250250
SMF   001.78 235.5 m E Pg      2013/04/03 07:51:01.0  -0.2                          T                                        5250252
SMF   001.78 235.5 m E Sn      2013/04/03 07:51:20.5   0.1                          T                                        5250253
SMF   001.78 235.5 m E Sg      2013/04/03 07:51:24.5   0.1                          T                4.0  .39 Ml 2.2         5250251
SSF   001.79 250.8 m E Pg      2013/04/03 07:51:01.2  -0.1                          T                                        5250247
SSF   001.79 250.8 m E Sg      2013/04/03 07:51:24.5   0.0                          T                2.0  .29 Ml 2.1         5250248

.
EVENT     295276
    Date      Time       Latitude Longitude    Depth    Ndef Nsta Gap    Mag1  N    Mag2  N    Mag3  N   Author         ID
       rms   OT_Error      Smajor Sminor Az        Err   mdist  Mdist     Err        Err        Err      Quality

2013/04/03 10:03:10.4     47.7145    5.9826       .0 f    16    9 096  Ml 2.0  6  Md 2.1  1              bulletin    295376
                                                                                                         _ldg
      0.93   +-  0.11       2.4    1.9  143.30 +-  0.0    0.38   1.81   +-0.1      +-                    m i km

FRANCE
Sta     Dist  EvAz     Phase      Date       Time     TRes  Azim  AzRes  Slow  SRes Def   SNR       Amp   Per   Mag1   Mag2       ID
HAU   000.38 040.1 m E Pg      2013/04/03 10:03:18.3   0.3                          T                                        5243590
HAU   000.38 040.1 m E Sg      2013/04/03 10:03:23.3   0.0                          T               55.2  .76        Md 2.1  5243587
HINF  000.60 079.8 m E Pg      2013/04/03 10:03:22.3   0.3                          T                                        5243589
HINF  000.60 079.8 m E Sg      2013/04/03 10:03:30.2   0.2                          T               28.7  .92                5243588
PAGF  000.86 348.5 m E Pn      2013/04/03 10:03:28.3   0.0                          T                                        5250239
PAGF  000.86 348.5 m E Sg      2013/04/03 10:03:37.9  -0.3                          T                6.6  .40 Ml 2.0         5250244
MEZF  001.00 322.0 m E Pg      2013/04/03 10:03:29.4  -0.1                          T                                        5250240
MEZF  001.00 322.0 m E Sn      2013/04/03 10:03:44.2  -0.3                          T                4.4  .34 Ml 1.9         5250243
CABF  001.11 176.3 m E Pg      2013/04/03 10:03:30.7  -0.7                          T                                        5243592
CABF  001.11 176.3 m E Sg      2013/04/03 10:03:46.9   0.9                          T                5.0  .40 Ml 2.0         5243591
CDF   001.11 050.7 m E Pg      2013/04/03 10:03:31.3  -0.3                          T                                        5243586
CDF   001.11 050.7 m E Sn      2013/04/03 10:03:47.0  -0.1                          T                3.9  .30 Ml 2.1         5243585
LOR   001.51 253.6 m E Pg      2013/04/03 10:03:39.1   0.3  69.2  -2.8              T                                        5250237
LOR   001.51 253.6 m E Sg      2013/04/03 10:03:58.5   0.1  84.6  12.6              T               12.9  .78 Ml 2.3         5250238
SFTF  000.80 308.1 m E Sn      2013/04/03 10:03:39.4  -0.2 128.1  0.7               T                9.2  .47                5250242
SMF   001.81 234.6 m E Sg      2013/04/03 10:04:08.3   0.5                          T                2.6  .33 Ml 2.1         5250241

.
