EVENT     270679
    Date      Time       Latitude Longitude    Depth    Ndef Nsta Gap    Mag1  N    Mag2  N    Mag3  N   Author         ID
       rms   OT_Error      Smajor Sminor Az        Err   mdist  Mdist     Err        Err        Err      Quality

2012/02/24 18:51:09.6     45.4162    6.5530      2.0      65   21 033  Ml 2.5 17  Md 2.5  4              js067245    270700

      0.86   +-  0.08       1.8    1.3   66.25 +-  0.0    0.16   5.06   +-0.2      +-0.1                 m i ke

FRANCE
Sta     Dist  EvAz     Phase      Date       Time     TRes  Azim  AzRes  Slow  SRes Def   SNR       Amp   Per   Mag1   Mag2       ID
LPL   000.16 051.5 m E Pg      2012/02/24 18:51:12.9  -0.3                          T   001.0                                4848715
LPL   000.16 051.5 m E Sg      2012/02/24 18:51:15.1  -0.3                          T              216.7  .32        Md 2.6  4853368
LPG   000.16 059.7 m E Pg      2012/02/24 18:51:12.9  -0.4                          T   001.0                                4848714
LPG   000.16 059.7 m E Sg      2012/02/24 18:51:15.4  -0.2                          T              276.3  .30        Md 2.5  4853367
ORIF  000.69 224.0 m E Pg      2012/02/24 18:51:22.4  -0.3                          T   001.0                                4848728
ORIF  000.69 224.0 m E Sg      2012/02/24 18:51:31.3  -0.4                          T               33.6  .32                4853369
MBDF  000.71 167.3 m E Pg      2012/02/24 18:51:23.0  -0.1                          T   001.0                                4848726
MBDF  000.71 167.3 m E Sg      2012/02/24 18:51:32.4   0.1                          T               33.4  .36        Md 2.6  4853370
CABF  001.24 345.0 m E Pn      2012/02/24 18:51:32.4   0.0                          T   001.0                                4848723
CABF  001.24 345.0 m E Pg      2012/02/24 18:51:33.4   0.6                          T   001.0                                4848724
CABF  001.24 345.0 m E Sg      2012/02/24 18:51:49.0   0.1                          T   001.0       12.3  .20 Ml 2.7 Md 2.4  4848725
VIVF  001.44 247.8 m E Pn      2012/02/24 18:51:34.9  -0.2                          T   001.0                                4848729
VIVF  001.44 247.8 m E Pg      2012/02/24 18:51:36.4  -0.2                          T   001.0                                4848730
VIVF  001.44 247.8 m E Sn      2012/02/24 18:51:53.6   0.1                          T   001.0       17.5  .28 Ml 2.8         4848731
VIVF  001.44 247.8 m E Sg      2012/02/24 18:51:55.2   0.0                          T               17.6  .28 Ml 2.8         4853364
SMRF  001.60 206.2 m E Pg      2012/02/24 18:51:39.9   0.5                          T   001.0                                4848732
SBF   001.68 157.6 m E Pg      2012/02/24 18:51:41.4   0.5                          T   001.0                                4848716
SBF   001.68 157.6 m E Sg      2012/02/24 18:52:03.5   1.0                          T   001.0       10.6  .24 Ml 2.8         4848717
LMR   002.08 180.9 m E Pn      2012/02/24 18:51:43.6  -0.1                          T   001.0                                4848707
LMR   002.08 180.9 m E Pg      2012/02/24 18:51:48.0  -0.2                          T   001.0                                4848708
LMR   002.08 180.9 m E Sn      2012/02/24 18:52:08.6  -0.1                          T   001.0        5.5  .40 Ml 2.4         4848709
LMR   002.08 180.9 m E Sg      2012/02/24 18:52:15.7   0.6                          T                2.1  .17 Ml 2.3         4853365
FRF   001.86 177.9 m E Pg      2012/02/24 18:51:44.5   0.4                          T   001.0                                4848702
FRF   001.86 177.9 m E Sg      2012/02/24 18:52:08.2   0.2                          T                8.1  .32 Ml 2.6         4853366
SMF   002.25 304.0 m E Pn      2012/02/24 18:51:46.0  -0.1                          T   001.0                                4848718
SMF   002.25 304.0 m E Sg      2012/02/24 18:52:19.1  -1.4                          T   001.0        4.7  .20 Ml 2.6         4848719
HAU   002.59 357.0 m E Pn      2012/02/24 18:51:50.5  -0.2                          T   001.0                                4848703
HAU   002.59 357.0 m E Pg      2012/02/24 18:51:58.0   0.3                          T   001.0                                4848704
HAU   002.59 357.0 m E Sn      2012/02/24 18:52:20.1  -0.9                          T   001.0                                4848705
HAU   002.59 357.0 m E Sg      2012/02/24 18:52:31.6   0.5                          T   001.0        5.6  .28 Ml 2.4         4848706
LOR   002.63 315.8 m E Pn      2012/02/24 18:51:52.0   0.8                          T   001.0                                4848710
LOR   002.63 315.8 m E Pg      2012/02/24 18:51:58.0  -0.4 134.5  0.7               T   001.0                                4848711
LOR   002.63 315.8 m E Sn      2012/02/24 18:52:21.6  -0.2                          T   001.0                                4848712
LOR   002.63 315.8 m E Sg      2012/02/24 18:52:30.6  -1.6                          T   001.0        2.3  .20 Ml 2.4         4848713
AVF   002.62 302.8 m E Pn      2012/02/24 18:51:52.5   1.5                          T   001.0                                4848694
AVF   002.62 302.8 m E Pg      2012/02/24 18:51:57.5  -0.6                          T   001.0                                4848695
AVF   002.62 302.8 m E Sg      2012/02/24 18:52:29.6  -2.1                          T   001.0        1.4  .20 Ml 2.2         4848696
SSF   002.68 309.0 m E Pn      2012/02/24 18:51:52.0   1.1                          T   001.0                                4848720
SSF   002.68 309.0 m E Pg      2012/02/24 18:51:58.5  -0.8                          T   001.0                                4848721
SSF   002.68 309.0 m E Sg      2012/02/24 18:52:33.6  -0.1                          T   001.0        2.7  .28 Ml 2.4         4848722
BGF   002.83 295.2 m E Pn      2012/02/24 18:51:55.0   1.1                          T   001.0                                4848697
BGF   002.83 295.2 m E Sg      2012/02/24 18:52:38.1  -0.2                          T   001.0          7  .44 Ml 2.6         4848698
CDF   003.04 009.1 m E Pn      2012/02/24 18:51:57.5   0.6                          T   001.0                                4848699
CDF   003.04 009.1 m E Sg      2012/02/24 18:52:47.7   2.7                          T   001.0        1.9  .36 Ml 2.3         4848700
SFTF  002.98 340.1 m E Pg      2012/02/24 18:52:05.4   0.6 143.1  -15.9             T                                        4853360
SFTF  002.98 340.1 m E Sg      2012/02/24 18:52:41.5  -1.6                          T                3.0  .27 Ml 2.5         4853359
EPF   005.06 244.1 m E Pn      2012/02/24 18:52:24.1  -0.3                          T   001.0                                4848701
MEZF  003.25 342.1 m E Sg      2012/02/24 18:52:53.7   2.1                          T   001.0        4.6  .32 Ml 2.6         4848727
RJF   003.55 270.0 m E Sg      2012/02/24 18:52:58.7  -2.3                          T   001.0        1.7  .36 Ml 1.9         4848693

.
EVENT     270680
    Date      Time       Latitude Longitude    Depth    Ndef Nsta Gap    Mag1  N    Mag2  N    Mag3  N   Author         ID
       rms   OT_Error      Smajor Sminor Az        Err   mdist  Mdist     Err        Err        Err      Quality

2012/02/24 19:13:50.8     44.4983    6.6900      2.0      37    9 050  Ml 1.4  6  Md 1.8  2              js067245    270701

      0.31   +-  0.05       1.2     .9   58.14 +-  0.0    0.24   1.48   +-0.2      +-0.0                 m i ke

FRANCE
Sta     Dist  EvAz     Phase      Date       Time     TRes  Azim  AzRes  Slow  SRes Def   SNR       Amp   Per   Mag1   Mag2       ID
MBDF  000.24 014.2 m E Pg      2012/02/24 19:13:56.2   0.5                          T                                        4854889
MBDF  000.24 014.2 m E Sg      2012/02/24 19:13:59.0   0.0                          T                3.2  .18        Md 1.8  4854890
ORIF  000.71 306.3 m E Pg      2012/02/24 19:14:04.4  -0.1                          T                                        4854908
ORIF  000.71 306.3 m E Sg      2012/02/24 19:14:13.7   0.0                          T                2.4  .20        Md 1.8  4854909
SBF   000.83 139.6 m E Pn      2012/02/24 19:14:08.1   0.1                          T                                        4854900
SBF   000.83 139.6 m E Sg      2012/02/24 19:14:17.3  -0.1                          T                1.7  .25                4854899
FRF   000.94 181.9 m E Pg      2012/02/24 19:14:08.5   0.0                          T                                        4854902
FRF   000.94 181.9 m E Pn      2012/02/24 19:14:09.3  -0.1                          T                                        4854903
FRF   000.94 181.9 m E Sg      2012/02/24 19:14:20.5  -0.1                          T                1.5  .18 Ml 1.8         4854897
LPG   001.00 002.5 m E Pg      2012/02/24 19:14:10.0   0.1                          T                                        4854905
LPG   001.00 002.5 m E Sg      2012/02/24 19:14:23.0   0.0                          T                 .6  .22 Ml 1.2         4854895
SMRF  000.96 237.3 m E Pn      2012/02/24 19:14:10.2   0.5                          T                                        4854904
SMRF  000.96 237.3 m E Sg      2012/02/24 19:14:21.1  -0.2                          T                 .6  .23 Ml 1.2         4854896
LPL   001.02 001.7 m E Pg      2012/02/24 19:14:10.2   0.0                          T                                        4854906
LPL   001.02 001.7 m E Sg      2012/02/24 19:14:23.6   0.1                          T                  1  .24 Ml 1.4         4854894
LMR   001.17 186.5 m E P       2012/02/24 19:14:14.1  -0.1                          T                                        4854901
LMR   001.17 186.5 m E Sg      2012/02/24 19:14:28.0   0.1                          T                 .8  .22 Ml 1.5         4854898
VIVF  001.48 284.7 m E Pg      2012/02/24 19:14:18.5   0.0                          T                                        4854907
VIVF  001.48 284.7 m E Sg      2012/02/24 19:14:37.6   0.0                          T                 .7  .32 Ml 1.4         4854893

.
EVENT     270681
    Date      Time       Latitude Longitude    Depth    Ndef Nsta Gap    Mag1  N    Mag2  N    Mag3  N   Author         ID
       rms   OT_Error      Smajor Sminor Az        Err   mdist  Mdist     Err        Err        Err      Quality

2012/02/24 20:24:58.7     44.4963    6.6802      2.0      42    9 051  Ml 1.5  6  Md 1.9  2              js067245    270702

      0.36   +-  0.04        .9     .7   54.85 +-  0.0    0.24   1.48   +-0.2      +-0.0                 m i ke

FRANCE
Sta     Dist  EvAz     Phase      Date       Time     TRes  Azim  AzRes  Slow  SRes Def   SNR       Amp   Per   Mag1   Mag2       ID
MBDF  000.24 015.7 m E Pg      2012/02/24 20:25:04.0   0.3                          T                                        4854942
MBDF  000.24 015.7 m E Sg      2012/02/24 20:25:06.8  -0.2                          T                5.3  .18        Md 1.9  4854943
ORIF  000.71 306.8 m E Pg      2012/02/24 20:25:12.2   0.0                          T                                        4854941
ORIF  000.71 306.8 m E Sg      2012/02/24 20:25:21.6   0.0                          T                3.6  .18        Md 1.8  4854930
SBF   000.83 139.1 m E Pg      2012/02/24 20:25:15.5   1.0                          T                                        4854933
SBF   000.83 139.1 m E Pn      2012/02/24 20:25:15.9   0.0                          T                                        4854934
SBF   000.83 139.1 m E Sg      2012/02/24 20:25:25.1  -0.3                          T                1.3  .19                4854924
FRF   000.94 181.5 m E Pg      2012/02/24 20:25:16.3   0.0                          T                                        4854936
FRF   000.94 181.5 m E Pn      2012/02/24 20:25:17.1  -0.2                          T                                        4854937
FRF   000.94 181.5 m E Sg      2012/02/24 20:25:28.4   0.0                          T                1.1  .15 Ml 1.7         4854926
LPG   001.00 002.9 m E Pg      2012/02/24 20:25:17.8   0.0                          T                                        4854939
LPG   001.00 002.9 m E Sg      2012/02/24 20:25:30.7  -0.2                          T                 .6  .25 Ml 1.2         4854928
SMRF  000.95 237.2 m E Pn      2012/02/24 20:25:17.9   0.5                          T                                        4854938
SMRF  000.95 237.2 m E Sg      2012/02/24 20:25:28.9   0.0                          T                1.4  .33 Ml 1.4         4854927
LPL   001.02 002.1 m E Pg      2012/02/24 20:25:18.0  -0.1                          T                                        4854940
LPL   001.02 002.1 m E Sg      2012/02/24 20:25:31.2  -0.2                          T                 .8  .26 Ml 1.3         4854929
LMR   001.17 186.1 m E P       2012/02/24 20:25:21.9  -0.2                          T                                        4854935
LMR   001.17 186.1 m E Sg      2012/02/24 20:25:35.8   0.1                          T                1.3  .21 Ml 1.7         4854925
VIVF  001.48 284.8 m E Pg      2012/02/24 20:25:26.4   0.1                          T                                        4854932
VIVF  001.48 284.8 m E Sg      2012/02/24 20:25:45.5   0.1                          T                 .9  .26 Ml 1.6         4854931

.
EVENT     270682
    Date      Time       Latitude Longitude    Depth    Ndef Nsta Gap    Mag1  N    Mag2  N    Mag3  N   Author         ID
       rms   OT_Error      Smajor Sminor Az        Err   mdist  Mdist     Err        Err        Err      Quality

2012/02/25 01:22:20.8     42.5467     .9749     17.2      25    4 048  Ml 1.6  3  Md 1.9  1              js067245    270703

      0.40   +-  0.08       1.4    1.2   43.93 +-  1.2    0.20   2.51   +-0.2      +-                    m i ke

PYRENEES
Sta     Dist  EvAz     Phase      Date       Time     TRes  Azim  AzRes  Slow  SRes Def   SNR       Amp   Per   Mag1   Mag2       ID
EPF   000.67 316.2 m E Pg      2012/02/25 01:22:34.2   0.3                          T                                        4854948
EPF   000.67 316.2 m E Sg      2012/02/25 01:22:42.6  -0.3                          T                1.7  .26        Md 1.9  4854949
MTLF  001.21 048.5 m E Pg      2012/02/25 01:22:44.4   0.8                          T                                        4854946
MTLF  001.21 048.5 m E Sg      2012/02/25 01:22:59.2  -0.2                          T                 .7  .26 Ml 1.3         4854947
SJPF  001.71 290.0 m E Sg      2012/02/25 01:23:14.6  -0.5                          T                1.5  .29 Ml 1.8         4854945
CAF   002.51 018.0 m E Sg      2012/02/25 01:23:39.5  -0.2                          T                 .5  .27 Ml 1.5         4854944

.
