EVENT     258490
    Date      Time       Latitude Longitude    Depth    Ndef Nsta Gap    Mag1  N    Mag2  N    Mag3  N   Author         ID
       rms   OT_Error      Smajor Sminor Az        Err   mdist  Mdist     Err        Err        Err      Quality

2011/04/20 12:06:47.1     42.6085     .4278      2.0      17    4 068  Ml 1.5  2  Md 1.4  2              js067245    258490

      0.87   +-  0.22       4.6    3.6   40.02 +-  0.0    0.18   1.65   +-0.1      +-0.1                 m i ke

PYRENEES
Sta     Dist  EvAz     Phase      Date       Time     TRes  Azim  AzRes  Slow  SRes Def   SNR       Amp   Per   Mag1   Mag2       ID
EPF   000.43 351.3 m E Pg      2011/04/20 12:06:55.1  -0.3                          T                                        4678208
EPF   000.43 351.3 m E Sg      2011/04/20 12:07:03.3   2.3                          T                5.1  .27        Md 1.5  4678209
ETSF  000.78 292.1 m E Pg      2011/04/20 12:07:01.9  -0.1                          T                                        4678204
ETSF  000.78 292.1 m E Sg      2011/04/20 12:07:11.9  -0.2                          T                1.5  .27        Md 1.3  4678205
MTLF  001.50 060.3 m E Pg      2011/04/20 12:07:15.7   0.6                          T                                        4678206
MTLF  001.50 060.3 m E Sg      2011/04/20 12:07:34.8   0.3                          T                 .7  .23 Ml 1.5         4678207
SJPF  001.32 293.1 m E Sg      2011/04/20 12:07:28.2  -0.5                          T                 .9  .31 Ml 1.4         4678203

.
EVENT     258483
    Date      Time       Latitude Longitude    Depth    Ndef Nsta Gap    Mag1  N    Mag2  N    Mag3  N   Author         ID
       rms   OT_Error      Smajor Sminor Az        Err   mdist  Mdist     Err        Err        Err      Quality

2011/04/20 14:04:36.7     42.9711   15.6173     10.0 f    90   21 134  Ml 3.7 18                         js067245    258483

      0.78   +-  0.08       3.3    1.4   22.58 +-  0.0    1.18  10.12   +-0.2                            m i ke

ADRIATIC SEA
Sta     Dist  EvAz     Phase      Date       Time     TRes  Azim  AzRes  Slow  SRes Def   SNR       Amp   Per   Mag1   Mag2       ID
PGF   004.89 267.3 m E Pn      2011/04/20 14:05:48.4   0.0                          T                                        4677458
SBF   006.03 281.3 m E Pn      2011/04/20 14:06:03.8   0.0                          T                                        4677459
FRF   006.58 278.2 m E Pn      2011/04/20 14:06:11.0  -0.2                          T                                        4677461
MBDF  006.63 288.4 m E Pn      2011/04/20 14:06:12.2   0.0                          T                                        4677465
MBDF  006.63 288.4 m E Sn      2011/04/20 14:07:23.6   0.3                          T               14.3  .68 Ml 3.5         4677432
LMR   006.67 276.2 m E Pn      2011/04/20 14:06:12.4  -0.1                          T                                        4677460
LPG   006.85 294.7 m E Pn      2011/04/20 14:06:15.2   0.0                          T                                        4677462
LPG   006.85 294.7 m E Sn      2011/04/20 14:07:29.1   0.4                          T               26.2  .68 Ml 3.8         4677428
LPL   006.87 294.8 m E Pn      2011/04/20 14:06:15.3  -0.1                          T                                        4677463
LPL   006.87 294.8 m E Sn      2011/04/20 14:07:29.6   0.5                          T               21.6  .76 Ml 3.7         4677429
ORIF  007.29 288.8 m E Pn      2011/04/20 14:06:20.8  -0.2                          T                                        4677464
ORIF  007.29 288.8 m E Sn      2011/04/20 14:07:39.4   0.4                          T                9.5  .59 Ml 3.5         4677430
SMRF  007.37 281.3 m E Pn      2011/04/20 14:06:21.9  -0.1                          T                                        4677457
CABF  007.69 301.5 m E Pn      2011/04/20 14:06:26.4  -0.1                          T                                        4677454
CABF  007.69 301.5 m E Sn      2011/04/20 14:07:49.0   0.4                          T               23.3  .98 Ml 3.7         4677436
HINF  007.84 311.2 m E Pn      2011/04/20 14:06:28.4   0.0                          T                                        4677453
HINF  007.84 311.2 m E Sn      2011/04/20 14:07:52.3   0.3                          T               20.4  .60 Ml 3.9         4677437
CDF   007.98 315.9 m E Pn      2011/04/20 14:06:30.3  -0.1                          T                                        4677450
CDF   007.98 315.9 m E Sn      2011/04/20 14:07:55.8   0.4                          T                7.8  .57 Ml 3.7         4677439
LANF  008.10 320.6 m E Pn      2011/04/20 14:06:31.9   0.0                          T                                        4677451
LANF  008.10 320.6 m E Sn      2011/04/20 14:07:58.7   0.4                          T                8.9  .38 Ml 3.8         4677440
VIVF  008.12 287.1 m E Pn      2011/04/20 14:06:32.3   0.0                          T                                        4677456
VIVF  008.12 287.1 m E Sn      2011/04/20 14:07:59.2   0.4                          T                4.2  .47 Ml 3.4         4677431
HAU   008.23 310.9 m E Pn      2011/04/20 14:06:33.5  -0.2                          T                                        4677452
HAU   008.23 310.9 m E Sn      2011/04/20 14:08:01.7   0.4                          T               23.6  .52 Ml 3.9         4677438
LASF  008.62 281.4 m E Pn      2011/04/20 14:06:38.9  -0.1                          T                                        4677455
SMF   009.14 297.7 m E Pn      2011/04/20 14:06:46.0  -0.1                          T                                        4677449
SMF   009.14 297.7 m E Sn      2011/04/20 14:08:23.6   0.5                          T                8.8  .57 Ml 3.8         4677434
LOR   009.36 301.4 m E Pn      2011/04/20 14:06:49.1   0.1 120.1  7.1               T                                        4677446
LOR   009.36 301.4 m E Sn      2011/04/20 14:08:28.7   0.5                          T                8.5  .44 Ml 3.9         4677443
AVF   009.51 297.9 m E Pn      2011/04/20 14:06:50.8  -0.2                          T                                        4677448
AVF   009.51 297.9 m E Sn      2011/04/20 14:08:32.3   0.6                          T                8.1  .85 Ml 3.6         4677435
SSF   009.50 299.7 m E Pn      2011/04/20 14:06:50.9   0.0                          T                                        4677445
SSF   009.50 299.7 m E Sn      2011/04/20 14:08:32.1   0.5                          T               11.5  .91 Ml 3.8         4677442
TCF   010.12 293.7 m E Pn      2011/04/20 14:06:59.4   0.0                          T                                        4677444
TCF   010.12 293.7 m E Sn      2011/04/20 14:08:46.8   0.4                          T                3.8  .48 Ml 3.7         4677441

.
EVENT     258486
    Date      Time       Latitude Longitude    Depth    Ndef Nsta Gap    Mag1  N    Mag2  N    Mag3  N   Author         ID
       rms   OT_Error      Smajor Sminor Az        Err   mdist  Mdist     Err        Err        Err      Quality

2011/04/20 18:16:13.5     47.9979    8.1766     10.0      10    5 072  Ml 1.5  4  Md 1.5  3              js067245    258486

      0.15   +-  0.03        .6     .5  163.15 +-  0.0    0.17   1.99   +-0.2      +-0.1                 m i ke

SWITZERLAND
Sta     Dist  EvAz     Phase      Date       Time     TRes  Azim  AzRes  Slow  SRes Def   SNR       Amp   Per   Mag1   Mag2       ID
CDF   000.73 304.9 m E Pg      2011/04/20 18:16:27.7   0.1                          T                                        4677470
CDF   000.73 304.9 m E Sg      2011/04/20 18:16:37.1   0.0                          T                1.2  .15        Md 1.6  4677471
HINF  000.91 259.0 m E Pg      2011/04/20 18:16:30.7   0.0                          T                                        4677475
HINF  000.91 259.0 m E Sg      2011/04/20 18:16:42.7   0.2                          T                1.6  .19 Ml 1.7 Md 1.5  4677474
HAU   001.23 271.0 m E Pg      2011/04/20 18:16:36.6   0.0                          T                                        4677468
HAU   001.23 271.0 m E Sg      2011/04/20 18:16:52.7   0.1                          T                 .5  .12 Ml 1.3 Md 1.4  4677473
PAGF  001.73 289.7 m E Pg      2011/04/20 18:16:45.7  -0.1                          T                                        4677466
PAGF  001.73 289.7 m E Sg      2011/04/20 18:17:08.2   0.1                          T                 .8  .31 Ml 1.5         4677467
CABF  001.99 226.5 m E Pg      2011/04/20 18:16:50.4  -0.2                          T                                        4677472
CABF  001.99 226.5 m E Sg      2011/04/20 18:17:16.5   0.3                          T                 .3  .22 Ml 1.4         4677469

.
EVENT     258488
    Date      Time       Latitude Longitude    Depth    Ndef Nsta Gap    Mag1  N    Mag2  N    Mag3  N   Author         ID
       rms   OT_Error      Smajor Sminor Az        Err   mdist  Mdist     Err        Err        Err      Quality

2011/04/20 20:59:47.1     46.6046    6.7581      9.0 f    52   19 081  Ml 2.1 19  Md 2.1  3              js067245    258488

      0.64   +-  0.05       1.0     .8  102.00 +-  0.0    0.22   3.16   +-0.3      +-0.0                 m i ke

SWITZERLAND
Sta     Dist  EvAz     Phase      Date       Time     TRes  Azim  AzRes  Slow  SRes Def   SNR       Amp   Per   Mag1   Mag2       ID
CABF  000.46 271.1 m E Pg      2011/04/20 20:59:56.2   0.0                          T                                        4677522
CABF  000.46 271.1 m E P       2011/04/20 20:59:57.3  -0.1                          T                                        4680429
CABF  000.46 271.1 m E Sg      2011/04/20 21:00:02.4   0.1                          T                                        4680430
CABF  000.46 271.1 m E Sn      2011/04/20 21:00:06.2   0.0                          T               31.4  .41        Md 2.2  4677512
LPL   001.09 181.0 m E Pg      2011/04/20 21:00:07.6  -0.2                          T                                        4677519
LPL   001.09 181.0 m E Sg      2011/04/20 21:00:21.9   0.0                          T                3.7  .42 Ml 1.8 Md 2.2  4677479
LPG   001.11 180.2 m E Pg      2011/04/20 21:00:08.1  -0.2                          T                                        4677518
LPG   001.11 180.2 m E P       2011/04/20 21:00:09.1  -0.1                          T                                        4680426
LPG   001.11 180.2 m E Sg      2011/04/20 21:00:22.6   0.0                          T                5.6  .48 Ml 1.9 Md 2.1  4677478
HINF  001.21 003.0 m E Pg      2011/04/20 21:00:09.6  -0.3                          T                                        4677521
HINF  001.21 003.0 m E P       2011/04/20 21:00:10.1  -0.3                          T                                        4680431
HINF  001.21 003.0 m E Sg      2011/04/20 21:00:25.3  -0.3                          T                8.5  .24 Ml 2.5         4677511
HAU   001.43 348.9 m E Pg      2011/04/20 21:00:13.4  -0.4                          T                                        4677520
HAU   001.43 348.9 m E Sg      2011/04/20 21:00:32.2  -0.1                          T               17.5  .24 Ml 2.6         4677508
CDF   001.84 010.8 m E Pn      2011/04/20 21:00:17.8   0.5                          T                                        4680432
CDF   001.84 010.8 m E Pg      2011/04/20 21:00:21.5   0.0                          T                                        4677501
CDF   001.84 010.8 m E Sg      2011/04/20 21:00:45.0  -0.3                          T                3.7  .35 Ml 2.3         4677487
ORIF  001.80 200.3 m E P       2011/04/20 21:00:18.7  -0.1                          T                                        4680427
ORIF  001.80 200.3 m E Sg      2011/04/20 21:00:43.7  -0.1                          T                4.7  .50 Ml 2.1         4677480
SMF   002.01 272.2 m E Pn      2011/04/20 21:00:19.7   0.2                          T                                        4677505
SMF   002.01 272.2 m E Pg      2011/04/20 21:00:24.5   0.0                          T                                        4677500
SMF   002.01 272.2 m E Sg      2011/04/20 21:00:50.9   0.5                          T                2.6  .17 Ml 2.4         4677510
MBDF  001.88 179.7 m E P       2011/04/20 21:00:19.8  -0.3                          T                                        4680428
MBDF  001.88 179.7 m E Pg      2011/04/20 21:00:22.1  -0.1                          T                                        4677494
MBDF  001.88 179.7 m E Sg      2011/04/20 21:00:46.2  -0.2                          T                2.1  .53 Ml 1.8         4677481
LOR   002.09 289.5 m E Pn      2011/04/20 21:00:20.7   0.1                          T                                        4677488
LOR   002.09 289.5 m E Pg      2011/04/20 21:00:26.0   0.0 105.5  -1.9              T                                        4677515
LOR   002.09 289.5 m E Sg      2011/04/20 21:00:52.9  -0.2 116.5  9.0               T                3.0  .26 Ml 2.3         4677514
VIVF  002.28 220.6 m E Pn      2011/04/20 21:00:23.1  -0.1                          T                                        4677493
VIVF  002.28 220.6 m E Pg      2011/04/20 21:00:29.5   0.1                          T                                        4677495
VIVF  002.28 220.6 m E Sg      2011/04/20 21:00:58.9   0.1                          T                1.5  .25 Ml 2.0         4677482
SSF   002.28 282.7 m E Pn      2011/04/20 21:00:23.1   0.0                          T                                        4677489
SSF   002.28 282.7 m E Pg      2011/04/20 21:00:29.4  -0.1                          T                                        4677516
SSF   002.28 282.7 m E Sg      2011/04/20 21:00:58.8   0.0                          T                1.8  .32 Ml 2.1         4677513
SFTF  001.98 324.5 m E Pg      2011/04/20 21:00:23.8  -0.2 140.6  -2.6              T                                        4677504
SFTF  001.98 324.5 m E Sg      2011/04/20 21:00:49.4  -0.1                          T                4.4  .39 Ml 2.2         4677509
AVF   002.35 275.8 m E Pn      2011/04/20 21:00:24.3   0.2                          T                                        4677506
AVF   002.35 275.8 m E Pg      2011/04/20 21:00:30.7   0.0                          T                                        4677499
AVF   002.35 275.8 m E Sg      2011/04/20 21:01:01.0   0.0                          T                1.2  .34 Ml 1.8         4677507
PAGF  002.07 340.7 m E Pg      2011/04/20 21:00:25.4  -0.2 154.8  -5.1              T                                        4677502
PAGF  002.07 340.7 m E Sg      2011/04/20 21:00:52.4   0.0 148.8  -11.1             T                 .6  .39 Ml 1.4         4677486
MEZF  002.22 329.3 m E Pg      2011/04/20 21:00:27.9  -0.4 144.1  -3.9              T                                        4677503
MEZF  002.22 329.3 m E Sg      2011/04/20 21:00:56.7  -0.3 153.9  5.9               T                2.9  .39 Ml 2.1         4677485
BGF   002.70 270.4 m E Pn      2011/04/20 21:00:29.8   1.0                          T                                        4677498
BGF   002.70 270.4 m E Sg      2011/04/20 21:01:11.4  -0.5                          T                3.4  .40 Ml 2.3         4677484
TCF   003.16 265.9 m E Pn      2011/04/20 21:00:35.2   0.0                          T                                        4677490
TCF   003.16 265.9 m E P       2011/04/20 21:00:38.3   0.0                          T                                        4680433
LANF  002.48 016.2 m E Sg      2011/04/20 21:01:04.6  -0.4                          T                1.3  .21 Ml 2.1         4680425

.
