EVENT     258491
    Date      Time       Latitude Longitude    Depth    Ndef Nsta Gap    Mag1  N    Mag2  N    Mag3  N   Author         ID
       rms   OT_Error      Smajor Sminor Az        Err   mdist  Mdist     Err        Err        Err      Quality

2011/04/21 05:48:09.4     43.1724    -.5743      2.0      79   16 085  Ml 2.7 17                         js067245    258491

      0.51   +-  0.04       1.1     .7  144.28 +-  0.0    0.13   5.16   +-0.2                            m i ke

PYRENEES
Sta     Dist  EvAz     Phase      Date       Time     TRes  Azim  AzRes  Slow  SRes Def   SNR       Amp   Per   Mag1   Mag2       ID
ETSF  000.27 177.7 m E Pg      2011/04/21 05:48:13.9  -1.0                          T                                        4677591
ETSF  000.27 177.7 m E Sg      2011/04/21 05:48:17.7  -0.9                          T               48.2  .18                4677587
SJPF  000.48 263.2 m E Pg      2011/04/21 05:48:17.9  -0.8                          T                                        4677592
SJPF  000.48 263.2 m E Sg      2011/04/21 05:48:25.4   0.4                          T               54.1  .28                4677588
EPF   000.68 101.7 m E Pg      2011/04/21 05:48:21.5  -0.9                          T                                        4677590
EPF   000.68 101.7 m E Sg      2011/04/21 05:48:30.9  -0.4                          T               26.1  .22                4677586
LFF   002.00 027.8 m E Pn      2011/04/21 05:48:42.6   0.1                          T                                        4677585
LFF   002.00 027.8 m E Sg      2011/04/21 05:49:12.3  -0.2                          T               15.8  .30 Ml 2.8         4677563
MTLF  002.05 084.3 m E Pn      2011/04/21 05:48:43.1   0.0                          T                                        4678302
MTLF  002.05 084.3 m E P       2011/04/21 05:48:45.4   0.1                          T                                        4677589
MTLF  002.05 084.3 m E Pg      2011/04/21 05:48:47.1  -0.4                          T                                        4678303
MTLF  002.05 084.3 m E Sg      2011/04/21 05:49:13.3  -0.5                          T               11.3  .26 Ml 2.9         4677561
CAF   002.59 046.4 m E Pn      2011/04/21 05:48:50.7   0.2                          T                                        4677584
CAF   002.59 046.4 m E Sg      2011/04/21 05:49:30.6  -0.1                          T                4.5  .20 Ml 2.7         4677562
RJF   002.61 034.5 m E Pn      2011/04/21 05:48:50.9   0.1                          T                                        4677583
RJF   002.61 034.5 m E Sg      2011/04/21 05:49:31.2  -0.1                          T                6.2  .20 Ml 2.5         4677564
LASF  003.34 072.8 m E Pn      2011/04/21 05:49:00.8   0.0                          T                                        4677576
LASF  003.34 072.8 m E Sg      2011/04/21 05:49:54.3   0.0                          T                2.5  .29 Ml 2.4         4677560
MFF   003.44 004.9 m E Pn      2011/04/21 05:49:02.3   0.2                          T                                        4677582
MFF   003.44 004.9 m E Sg      2011/04/21 05:49:57.3  -0.1                          T                2.5  .28 Ml 2.6         4677565
TCF   003.69 031.5 m E Pn      2011/04/21 05:49:05.5   0.0                          T                                        4677579
TCF   003.69 031.5 m E Sg      2011/04/21 05:50:05.1  -0.2                          T                3.1  .24 Ml 2.7         4677570
VIVF  004.14 064.2 m E Pn      2011/04/21 05:49:11.7   0.1                          T                                        4677575
VIVF  004.14 064.2 m E Sg      2011/04/21 05:50:19.1  -0.2                          T                2.5  .41 Ml 2.5         4677559
BGF   004.17 034.5 m E Pn      2011/04/21 05:49:12.1   0.1                          T                                        4677580
BGF   004.17 034.5 m E Sg      2011/04/21 05:50:19.8  -0.2                          T               14.1  .36 Ml 3.3         4677567
AVF   004.57 036.2 m E Pn      2011/04/21 05:49:17.1  -0.2                          T                                        4677574
AVF   004.57 036.2 m E Sg      2011/04/21 05:50:32.4   0.0                          T                1.9  .39 Ml 2.5         4677569
SMF   004.68 040.6 m E Pn      2011/04/21 05:49:19.3   0.3                          T                                        4677573
SMF   004.68 040.6 m E Sg      2011/04/21 05:50:35.9  -0.1                          T                1.9  .39 Ml 2.5         4677568
SSF   004.84 035.2 m E Pn      2011/04/21 05:49:21.3   0.1                          T                                        4677577
SSF   004.84 035.2 m E Sg      2011/04/21 05:50:41.1   0.0                          T                2.3  .45 Ml 2.6         4677571
LOR   005.16 035.9 m E Pn      2011/04/21 05:49:25.7   0.3                          T                                        4677578
LOR   005.16 035.9 m E Sg      2011/04/21 05:50:50.8   0.0                          T                4.6  .50 Ml 2.9         4677572

.
EVENT     258492
    Date      Time       Latitude Longitude    Depth    Ndef Nsta Gap    Mag1  N    Mag2  N    Mag3  N   Author         ID
       rms   OT_Error      Smajor Sminor Az        Err   mdist  Mdist     Err        Err        Err      Quality

2011/04/21 05:49:00.2     43.1623    -.5784      2.0      68   13 083  Ml 2.6 14  Md 2.6  3              js067245    258492

      0.45   +-  0.04       1.0     .7  148.14 +-  0.0    0.12   5.17   +-0.1      +-0.0                 m i ke

PYRENEES
Sta     Dist  EvAz     Phase      Date       Time     TRes  Azim  AzRes  Slow  SRes Def   SNR       Amp   Per   Mag1   Mag2       ID
ETSF  000.26 176.9 m E Pg      2011/04/21 05:49:04.8  -0.7                          T                                        4677552
ETSF  000.26 176.9 m E Sg      2011/04/21 05:49:08.5  -0.5                          T               48.9  .20        Md 2.6  4677548
SJPF  000.48 264.3 m E Pg      2011/04/21 05:49:08.7  -0.5                          T                                        4677550
SJPF  000.48 264.3 m E Sg      2011/04/21 05:49:16.2   0.7                          T               46.9  .28        Md 2.5  4677549
EPF   000.69 100.8 m E Pg      2011/04/21 05:49:12.4  -0.8                          T                                        4677551
EPF   000.69 100.8 m E Sg      2011/04/21 05:49:21.8  -0.3                          T               22.0  .22        Md 2.6  4677547
LFF   002.02 027.7 m E Pn      2011/04/21 05:49:33.7   0.3                          T                                        4677529
LFF   002.02 027.7 m E Sg      2011/04/21 05:50:03.3  -0.2                          T                9.9  .24 Ml 2.7         4677543
MTLF  002.05 084.0 m E Pn      2011/04/21 05:49:33.9   0.0                          T                                        4677545
MTLF  002.05 084.0 m E Pg      2011/04/21 05:49:37.9  -0.4                          T                                        4678304
MTLF  002.05 084.0 m E Sg      2011/04/21 05:50:03.9  -0.8                          T                8.2  .26 Ml 2.7         4677546
CAF   002.60 046.3 m E Pn      2011/04/21 05:49:41.5   0.1                          T                                        4677527
CAF   002.60 046.3 m E Sg      2011/04/21 05:50:21.7   0.0                          T                5.4  .24 Ml 2.7         4677544
RJF   002.62 034.4 m E Pn      2011/04/21 05:49:41.8   0.2                          T                                        4677528
RJF   002.62 034.4 m E Sg      2011/04/21 05:50:22.2  -0.2                          T                5.0  .20 Ml 2.4         4677542
LASF  003.35 072.6 m E Pn      2011/04/21 05:49:52.0   0.5                          T                                        4677526
LASF  003.35 072.6 m E Sg      2011/04/21 05:50:45.3   0.1                          T                2.0  .25 Ml 2.4         4677524
MFF   003.45 005.0 m E Pn      2011/04/21 05:49:53.2   0.2                          T                                        4677530
MFF   003.45 005.0 m E Sg      2011/04/21 05:50:47.1  -1.3                          T                2.5  .29 Ml 2.6         4677541
TCF   003.70 031.5 m E Pn      2011/04/21 05:49:56.6   0.2                          T                                        4677534
TCF   003.70 031.5 m E Pg      2011/04/21 05:50:08.7   0.0                          T                                        4677533
TCF   003.70 031.5 m E Sg      2011/04/21 05:50:56.2  -0.1                          T                3.1  .29 Ml 2.6         4677539
VIVF  004.15 064.1 m E Pn      2011/04/21 05:50:02.8   0.3                          T                                        4677525
VIVF  004.15 064.1 m E Sg      2011/04/21 05:51:10.3   0.1                          T                1.6  .34 Ml 2.4         4677523
SSF   004.85 035.1 m E Pn      2011/04/21 05:50:12.1   0.1                          T                                        4677535
SSF   004.85 035.1 m E Sg      2011/04/21 05:51:32.0  -0.2                          T                1.4  .27 Ml 2.7         4677538
LOR   005.17 035.8 m E Pn      2011/04/21 05:50:16.2  -0.1                          T                                        4677536
LOR   005.17 035.8 m E Sg      2011/04/21 05:51:41.8  -0.1                          T                1.9  .36 Ml 2.6         4677537

.
EVENT     258509
    Date      Time       Latitude Longitude    Depth    Ndef Nsta Gap    Mag1  N    Mag2  N    Mag3  N   Author         ID
       rms   OT_Error      Smajor Sminor Az        Err   mdist  Mdist     Err        Err        Err      Quality

2011/04/21 06:29:34.9     40.7920   -1.8572      2.0      43    5 061  Ml 2.3  5                         js067245    258509

      0.58   +-  0.08       2.2    1.4  131.40 +-  0.0    0.15   4.56   +-0.2                            m i ke

SPAIN
Sta     Dist  EvAz     Phase      Date       Time     TRes  Azim  AzRes  Slow  SRes Def   SNR       Amp   Per   Mag1   Mag2       ID
ETSF  002.32 024.3 m E Pn      2011/04/21 06:30:12.3   0.0                          T                                        4678323
ETSF  002.32 024.3 m E Pg      2011/04/21 06:30:17.5  -0.5                          T                                        4678322
ETSF  002.32 024.3 m E Sn      2011/04/21 06:30:40.3   0.5                          T                1.9  .23 Ml 2.2         4678324
SJPF  002.37 011.3 m E Pn      2011/04/21 06:30:13.2   0.2                          T                                        4678326
SJPF  002.37 011.3 m E Pg      2011/04/21 06:30:19.2   0.4                          T                                        4678325
SJPF  002.37 011.3 m E Sn      2011/04/21 06:30:41.8   1.0                          T                1.6  .19 Ml 2.2         4678327
EPF   002.77 035.5 m E Pn      2011/04/21 06:30:18.7   0.2                          T                                        4678319
EPF   002.77 035.5 m E Pg      2011/04/21 06:30:26.4   0.0                          T                                        4678318
EPF   002.77 035.5 m E Sn      2011/04/21 06:30:50.5  -0.1                          T                                        4678320
EPF   002.77 035.5 m E Sg      2011/04/21 06:31:02.1   0.1                          T                2.3  .25 Ml 2.3         4678321
MTLF  003.96 048.6 m E Pn      2011/04/21 06:30:34.7   0.1                          T                                        4678315
MTLF  003.96 048.6 m E Pg      2011/04/21 06:30:48.0  -0.2                          T                                        4678314
MTLF  003.96 048.6 m E Sn      2011/04/21 06:31:19.3   0.4                          T                                        4678316
MTLF  003.96 048.6 m E Sg      2011/04/21 06:31:39.0   0.0                          T                 .7  .24 Ml 2.1         4678317
LFF   004.56 023.9 m E Pg      2011/04/21 06:30:59.2  -0.1                          T                                        4678312
LFF   004.56 023.9 m E Sg      2011/04/21 06:31:57.7  -0.1                          T                2.8  .26 Ml 2.6         4678313

.
EVENT     258503
    Date      Time       Latitude Longitude    Depth    Ndef Nsta Gap    Mag1  N    Mag2  N    Mag3  N   Author         ID
       rms   OT_Error      Smajor Sminor Az        Err   mdist  Mdist     Err        Err        Err      Quality

2011/04/21 09:49:13.1     49.0864    5.3883       .0 f    38   18 095  Ml 2.6 15  Md 2.4  3              js067245    258503

      1.27   +-  0.10       2.0    1.8  117.48 +-  0.0    0.58   3.53   +-0.2      +-0.1                 m i km

FRANCE
Sta     Dist  EvAz     Phase      Date       Time     TRes  Azim  AzRes  Slow  SRes Def   SNR       Amp   Per   Mag1   Mag2       ID
PAGF  000.58 157.2 m E Pg      2011/04/21 09:49:24.6   0.3 323.6  -13.8             T                                        4677785
PAGF  000.58 157.2 m E Sg      2011/04/21 09:49:32.2   0.2 331.8  -5.6              T               45.8  .82        Md 2.4  4677761
MEZF  000.63 200.9 m E Pg      2011/04/21 09:49:25.2   0.0  31.0  10.3              T                                        4677778
MEZF  000.63 200.9 m E Sg      2011/04/21 09:49:33.8   0.2  12.7  -8.0              T              149.8  .94        Md 2.4  4677762
SFTF  000.91 194.9 m E Pg      2011/04/21 09:49:30.6   0.1   6.5  -8.1              T                                        4677787
SFTF  000.91 194.9 m E Sg      2011/04/21 09:49:42.5   0.0                          T               13.9  .30 Ml 2.4 Md 2.5  4677784
GIVF  001.08 340.3 m E Pg      2011/04/21 09:49:33.5   0.0                          T                                        4677791
GIVF  001.08 340.3 m E Sg      2011/04/21 09:49:47.6  -0.1                          T                6.5  .26 Ml 2.2         4677781
BAIF  001.24 322.2 m E Pg      2011/04/21 09:49:36.7   0.2                          T                                        4677790
BAIF  001.24 322.2 m E Sg      2011/04/21 09:49:52.6  -0.1                          T               20.3  .60 Ml 2.5         4677780
HAU   001.26 149.1 m E Pg      2011/04/21 09:49:36.8   0.0                          T                                        4677786
HAU   001.26 149.1 m E Sg      2011/04/21 09:49:53.3   0.0                          T               15.8  .40 Ml 2.3         4677782
RUP   001.25 060.0 m E Pg      2011/04/21 09:49:37.0   0.2                          T                                        4677789
RUP   001.25 060.0 m E Sg      2011/04/21 09:49:52.8  -0.5                          T                                        4677779
CDF   001.42 117.7 m E Pg      2011/04/21 09:49:39.4  -0.6                          T                                        4677788
CDF   001.42 117.7 m E Sg      2011/04/21 09:49:58.4   0.0                          T               13.3  .38 Ml 2.7         4677783
LANF  001.59 092.9 m E Pn      2011/04/21 09:49:40.9  -0.1                          T                                        4677756
LANF  001.59 092.9 m E Sg      2011/04/21 09:50:03.7  -0.1                          T               16.6  .37 Ml 2.7         4677755
HINF  001.60 141.9 m E Pg      2011/04/21 09:49:43.1  -0.1                          T                                        4677777
HINF  001.60 141.9 m E Sg      2011/04/21 09:50:04.3   0.2                          T                7.1  .34 Ml 2.4         4677763
LOR   002.09 209.9 m E Pn      2011/04/21 09:49:47.9   0.1  35.7  6.9               T                                        4677776
LOR   002.09 209.9 m E Sg      2011/04/21 09:50:19.4   0.1  30.3  1.5               T               22.9  .68 Ml 2.8         4677759
SSF   002.39 212.6 m E Pn      2011/04/21 09:49:50.4  -1.4                          T                                        4677775
SSF   002.39 212.6 m E Sg      2011/04/21 09:50:28.7   0.1                          T               16.3  .86 Ml 2.7         4677760
CABF  002.52 169.0 m E Pn      2011/04/21 09:49:53.9   0.2                          T                                        4677774
CABF  002.52 169.0 m E Sg      2011/04/21 09:50:33.0   0.1                          T               21.1  .68 Ml 2.8         4677764
HYF   002.59 226.4 m E Pn      2011/04/21 09:49:54.6   0.1                          T                                        4677770
HYF   002.59 226.4 m E Sg      2011/04/21 09:50:34.8   0.0                          T                                        4677767
SMF   002.66 203.7 m E Pn      2011/04/21 09:49:55.7   0.3                          T                                        4677772
SMF   002.66 203.7 m E Sg      2011/04/21 09:50:36.9   0.0                          T                8.4  .50 Ml 2.6         4677766
AVF   002.67 211.5 m E Pn      2011/04/21 09:49:55.8   0.1                          T                                        4677773
AVF   002.67 211.5 m E Sg      2011/04/21 09:50:37.5   0.0                          T                7.7  .70 Ml 2.4         4677765
BGF   003.06 215.0 m E Pn      2011/04/21 09:50:01.2   0.3                          T                                        4677771
BGF   003.06 215.0 m E Sg      2011/04/21 09:50:49.5   0.1                          T               19.0  .52 Ml 3.0         4677768
TCF   003.53 218.7 m E Pn      2011/04/21 09:50:07.4   0.1                          T                                        4677757
TCF   003.53 218.7 m E Sg      2011/04/21 09:51:04.3   0.2                          T                3.6  .46 Ml 2.5         4677758

.
