EVENT     267221
    Date      Time       Latitude Longitude    Depth    Ndef Nsta Gap    Mag1  N    Mag2  N    Mag3  N   Author         ID
       rms   OT_Error      Smajor Sminor Az        Err   mdist  Mdist     Err        Err        Err      Quality

2011/12/08 19:10:54.0     42.9085     .1254      2.0       7    4 195  Ml 1.4  2  Md 1.4  2              js067245    267241

      0.07   +-  0.05       2.7     .5  168.72 +-  0.0    0.20   1.59   +-0.1      +-0.1                 m i ke

PYRENEES
Sta     Dist  EvAz     Phase      Date       Time     TRes  Azim  AzRes  Slow  SRes Def   SNR       Amp   Per   Mag1   Mag2       ID
EPF   000.20 052.2 m E Pg      2011/12/08 19:10:58.1   0.0                          T                                        4797538
EPF   000.20 052.2 m E Sg      2011/12/08 19:11:00.9   0.0                          T               26.7  .22        Md 1.4  4797537
ETSF  000.50 269.1 m E Pg      2011/12/08 19:11:03.7   0.0                          T                                        4797535
ETSF  000.50 269.1 m E Sg      2011/12/08 19:11:10.2  -0.2                          T                4.1  .24        Md 1.3  4797536
MTLF  001.59 073.5 m E Pg      2011/12/08 19:11:23.7   0.0                          T                                        4797541
MTLF  001.59 073.5 m E Sg      2011/12/08 19:11:44.3   0.1                          T                 .7  .27 Ml 1.5         4797540
SJPF  001.01 282.1 m E Sg      2011/12/08 19:11:26.2   0.1                          T                 .6  .17 Ml 1.4         4797539

.
EVENT     267216
    Date      Time       Latitude Longitude    Depth    Ndef Nsta Gap    Mag1  N    Mag2  N    Mag3  N   Author         ID
       rms   OT_Error      Smajor Sminor Az        Err   mdist  Mdist     Err        Err        Err      Quality

2011/12/08 22:09:44.7     44.4230    7.2764     10.0      36    8 115  Ml 1.7  6  Md 1.7  2              js067245    267236

      0.51   +-  0.06       1.6     .9   69.32 +-  0.0    0.08   1.30   +-0.3      +-0.1                 m i ke

NORTHERN ITALY
Sta     Dist  EvAz     Phase      Date       Time     TRes  Azim  AzRes  Slow  SRes Def   SNR       Amp   Per   Mag1   Mag2       ID
MBDF  000.47 310.3 m E Pg      2011/12/08 22:09:53.9  -0.2                          T                                        4797560
MBDF  000.47 310.3 m E Sg      2011/12/08 22:10:00.5   0.2                          T                 10  .24        Md 1.7  4797559
SBF   000.57 168.4 m E Pg      2011/12/08 22:09:56.0   0.2                          T                                        4797544
SBF   000.57 168.4 m E Sg      2011/12/08 22:10:03.5   0.2                          T                3.6  .21        Md 1.6  4797552
FRF   000.97 208.0 m E Pn      2011/12/08 22:10:02.8   0.0                          T                                        4797550
FRF   000.97 208.0 m E Pg      2011/12/08 22:10:03.2   0.2                          T                                        4797556
FRF   000.97 208.0 m E Sg      2011/12/08 22:10:15.3  -0.5                          T                3.9  .23 Ml 2.1         4797557
ORIF  001.11 296.9 m E Pg      2011/12/08 22:10:05.7   0.0                          T                                        4797545
ORIF  001.11 296.9 m E Sn      2011/12/08 22:10:19.4   0.1                          T                                        4797558
ORIF  001.11 296.9 m E Sg      2011/12/08 22:10:20.5   0.4                          T                 .9  .22 Ml 1.5         4797542
LMR   001.22 207.3 m E Pn      2011/12/08 22:10:06.3   0.1                          T                                        4797551
LMR   001.22 207.3 m E Pg      2011/12/08 22:10:07.4  -0.2                          T                                        4797543
LMR   001.22 207.3 m E Sn      2011/12/08 22:10:21.9   0.1                          T                                        4797553
LMR   001.22 207.3 m E Sg      2011/12/08 22:10:23.5   0.1                          T                2.2  .23 Ml 1.9         4797554
SMRF  001.30 250.5 m E P       2011/12/08 22:10:09.9   0.7                          T                                        4797549
SMRF  001.30 250.5 m E Sg      2011/12/08 22:10:27.2   1.2                          T                1.7  .27 Ml 1.8         4797555
LPG   001.14 341.1 m E Sn      2011/12/08 22:10:20.0  -0.2                          T                                        4797548
LPG   001.14 341.1 m E Sg      2011/12/08 22:10:21.2   0.0                          T                 .7  .21 Ml 1.4         4797547
LPL   001.16 340.7 m E Sg      2011/12/08 22:10:21.7   0.0                          T                 .5  .19 Ml 1.3         4797546

.
EVENT     267217
    Date      Time       Latitude Longitude    Depth    Ndef Nsta Gap    Mag1  N    Mag2  N    Mag3  N   Author         ID
       rms   OT_Error      Smajor Sminor Az        Err   mdist  Mdist     Err        Err        Err      Quality

2011/12/08 22:39:27.3     50.2091    7.8157      8.0 f    24    8 056  Ml 2.5  7  Md 2.5  3              js067245    267237

      0.57   +-  0.10       1.8    1.7  159.32 +-  0.0    0.19   2.48   +-0.2      +-0.1                 m i ke

GERMANY
Sta     Dist  EvAz     Phase      Date       Time     TRes  Azim  AzRes  Slow  SRes Def   SNR       Amp   Per   Mag1   Mag2       ID
RUP   000.70 224.1 m E Pg      2011/12/08 22:39:40.3  -0.4                          T                                        4797568
RUP   000.70 224.1 m E Pn      2011/12/08 22:39:42.3   0.2                          T                                        4797570
RUP   000.70 224.1 m E Sg      2011/12/08 22:39:50.0   0.0                          T                                Md 2.6  4797567
RUP   000.70 224.1 m E Sn      2011/12/08 22:39:53.1   0.6                          T                                        4797581
LANF  001.23 180.3 m E Pg      2011/12/08 22:39:50.4   0.1                          T                                        4797563
LANF  001.23 180.3 m E Sg      2011/12/08 22:40:05.8  -0.5                          T               15.0  .29 Ml 2.6 Md 2.5  4797566
CDF   001.83 191.3 m E Pn      2011/12/08 22:39:58.1   0.7                          T                                        4797580
CDF   001.83 191.3 m E Pg      2011/12/08 22:40:00.7  -0.8                          T                                        4797561
CDF   001.83 191.3 m E Sg      2011/12/08 22:40:24.1  -1.1                          T                6.3  .42 Ml 2.5 Md 2.4  4797565
THEF  002.31 211.8 m E Pg      2011/12/08 22:40:10.0  -0.3                          T                                        4797573
THEF  002.31 211.8 m E Sg      2011/12/08 22:40:39.0  -1.1                          T                5.8  .24 Ml 2.7         4797575
HAU   002.41 204.2 m E Pg      2011/12/08 22:40:10.1  -1.9                          T                                        4797574
HAU   002.41 204.2 m E Sg      2011/12/08 22:40:43.2   0.2                          T                3.2  .32 Ml 2.1         4797577
BAIF  002.33 267.7 m E Pg      2011/12/08 22:40:10.5   0.1                          T                                        4797571
BAIF  002.33 267.7 m E Sg      2011/12/08 22:40:41.0   0.6                          T                2.9  .22 Ml 2.4         4797564
GIVF  001.93 268.0 m E Sn      2011/12/08 22:40:22.7   1.1                          T                                        4797572
GIVF  001.93 268.0 m E Sg      2011/12/08 22:40:28.2   0.2                          T                6.4  .23 Ml 2.6         4797569
HINF  002.48 195.2 m E Sn      2011/12/08 22:40:35.2   0.3                          T                                        4797576
HINF  002.48 195.2 m E Sg      2011/12/08 22:40:44.1  -1.1                          T                3.6  .29 Ml 2.4         4797562

.
EVENT     267222
    Date      Time       Latitude Longitude    Depth    Ndef Nsta Gap    Mag1  N    Mag2  N    Mag3  N   Author         ID
       rms   OT_Error      Smajor Sminor Az        Err   mdist  Mdist     Err        Err        Err      Quality

2011/12/08 23:34:08.3     43.1365   -1.3988      2.0      20    3 137  Ml 1.2  1  Md 1.0  2              js067245    267242

      0.24   +-  0.07       1.2    1.1  175.79 +-  0.0    0.11   1.28   +-         +-0.1                 m i ke

PYRENEES
Sta     Dist  EvAz     Phase      Date       Time     TRes  Azim  AzRes  Slow  SRes Def   SNR       Amp   Per   Mag1   Mag2       ID
SJPF  000.13 100.3 m E Pg      2011/12/08 23:34:11.3   0.2                          T                                        4797585
SJPF  000.13 100.3 m E Sg      2011/12/08 23:34:13.7   0.7                          T                2.2  .21        Md 1.1  4797584
ETSF  000.66 110.8 m E Pg      2011/12/08 23:34:20.9   0.1                          T                                        4797583
ETSF  000.66 110.8 m E Sg      2011/12/08 23:34:29.3  -0.2                          T                 .4  .21        Md  .9  4797582
EPF   001.28 094.2 m E Pg      2011/12/08 23:34:32.1  -0.1                          T                                        4799630
EPF   001.28 094.2 m E Sg      2011/12/08 23:34:48.7  -0.1                          T                 .6  .31 Ml 1.2         4799631

.
EVENT     267218
    Date      Time       Latitude Longitude    Depth    Ndef Nsta Gap    Mag1  N    Mag2  N    Mag3  N   Author         ID
       rms   OT_Error      Smajor Sminor Az        Err   mdist  Mdist     Err        Err        Err      Quality

2011/12/08 23:55:44.5     44.1967    6.7913      2.0      55   11 062  Ml 2.2  8  Md 2.3  1              js067245    267238

      0.38   +-  0.05       1.2    1.0   42.50 +-  0.0    0.19   2.30   +-0.2      +-                    m i ke

FRANCE
Sta     Dist  EvAz     Phase      Date       Time     TRes  Azim  AzRes  Slow  SRes Def   SNR       Amp   Per   Mag1   Mag2       ID
MBDF  000.53 358.5 m E Pg      2011/12/08 23:55:54.3  -0.5                          T                                        4797587
MBDF  000.53 358.5 m E Sg      2011/12/08 23:56:01.5  -0.3                          T               24.1  .50        Md 2.3  4798039
SBF   000.57 125.5 m E Pg      2011/12/08 23:55:55.3  -0.1                          T                                        4797590
SBF   000.57 125.5 m E P       2011/12/08 23:55:56.8   0.1                          T                                        4798028
SBF   000.57 125.5 m E Pn      2011/12/08 23:55:58.1  -0.1                          T                                        4798027
SBF   000.57 125.5 m E Sg      2011/12/08 23:56:03.1   0.1                          T               36.7  .34                4798030
FRF   000.64 189.4 m E Pg      2011/12/08 23:55:56.1  -0.6                          T                                        4797598
FRF   000.64 189.4 m E Sg      2011/12/08 23:56:05.1   0.0                          T               12.6  .22                4798040
LMR   000.89 193.4 m E Pg      2011/12/08 23:56:00.3  -0.8                          T                                        4797591
LMR   000.89 193.4 m E Pn      2011/12/08 23:56:01.3  -1.0                          T                                        4798026
LMR   000.89 193.4 m E Sg      2011/12/08 23:56:12.7   0.0                          T                9.0  .18 Ml 2.5         4798031
SMRF  000.90 256.3 m E Pg      2011/12/08 23:56:02.0   0.6                          T                                        4797593
SMRF  000.90 256.3 m E Pn      2011/12/08 23:56:03.2   0.6                          T                                        4797592
SMRF  000.90 256.3 m E Sg      2011/12/08 23:56:13.2   0.0                          T                9.5  .26 Ml 2.3         4798038
ORIF  000.97 318.2 m E Pg      2011/12/08 23:56:03.0   0.2                          T                                        4797595
ORIF  000.97 318.2 m E P       2011/12/08 23:56:05.3   0.3                          T                                        4797596
ORIF  000.97 318.2 m E Sg      2011/12/08 23:56:15.3  -0.2                          T                6.2  .32 Ml 2.1         4799634
LPG   001.30 358.8 m E P       2011/12/08 23:56:09.4  -0.7                          T                                        4797597
LPG   001.30 358.8 m E Sg      2011/12/08 23:56:26.2   0.2                          T                4.7  .38 Ml 2.0         4799632
LPL   001.32 358.2 m E P       2011/12/08 23:56:09.8  -0.5                          T                                        4797594
LPL   001.32 358.2 m E Sg      2011/12/08 23:56:26.4   0.0                          T                7.3  .43 Ml 2.2         4799633
VIVF  001.65 294.3 m E Pn      2011/12/08 23:56:13.3   0.5                          T                                        4797588
VIVF  001.65 294.3 m E Sn      2011/12/08 23:56:32.8  -0.5                          T                                        4798033
VIVF  001.65 294.3 m E Sg      2011/12/08 23:56:36.0  -0.6                          T                2.0  .22 Ml 2.1         4798032
LASF  002.12 267.8 m E Pn      2011/12/08 23:56:19.1   0.0                          T                                        4798035
LASF  002.12 267.8 m E Sn      2011/12/08 23:56:44.6   0.1                          T                 .9  .26 Ml 1.8         4798034
PGF   002.30 134.9 m E Pn      2011/12/08 23:56:22.1   0.4                          T                                        4797589
PGF   002.30 134.9 m E Sn      2011/12/08 23:56:49.3   0.3                          T                1.4  .15 Ml 2.5         4798029

.
