EVENT     273906
    Date      Time       Latitude Longitude    Depth    Ndef Nsta Gap    Mag1  N    Mag2  N    Mag3  N   Author         ID
       rms   OT_Error      Smajor Sminor Az        Err   mdist  Mdist     Err        Err        Err      Quality

2012/04/18 10:05:31.1     47.6481    7.2710       .0 f     6    4 218  Ml 2.0  1  Md 1.7  2              bulletin    273926
                                                                                                         _ldg
      1.17   +-  2.04      37.2   18.0  104.18 +-  0.0    0.33   1.32   +-         +-0.0                 m i km

SWITZERLAND
Sta     Dist  EvAz     Phase      Date       Time     TRes  Azim  AzRes  Slow  SRes Def   SNR       Amp   Per   Mag1   Mag2       ID
HINF  000.33 301.0 m E Pg      2012/04/18 10:05:36.8  -1.0                          T                                        4920372
HINF  000.33 301.0 m E Sg      2012/04/18 10:05:40.2  -2.2                          T               77.1 1.36        Md 1.8  4920373
HAU   000.72 300.2 m E Pg      2012/04/18 10:05:45.8   0.8                          T                                        4920370
HAU   000.72 300.2 m E Sg      2012/04/18 10:05:56.0   1.5                          T                7.7  .28        Md 1.7  4920371
CDF   000.76 000.3 m E Sg      2012/04/18 10:05:56.2   0.1                          T               68.3  .96                4920369
CABF  001.32 218.3 m E Sg      2012/04/18 10:06:12.7  -0.5                          T                3.0  .26 Ml 2.0         4917828

.
EVENT     273907
    Date      Time       Latitude Longitude    Depth    Ndef Nsta Gap    Mag1  N    Mag2  N    Mag3  N   Author         ID
       rms   OT_Error      Smajor Sminor Az        Err   mdist  Mdist     Err        Err        Err      Quality

2012/04/18 10:06:47.1     48.1685     .0930       .0 f     8    6 204  Ml 2.2  1  Md 1.9  2              bulletin    273927
                                                                                                         _ldg
      0.99   +-  1.00      23.9    9.7   93.36 +-  0.0    0.45   2.20   +-         +-0.1                 m i km

FRANCE
Sta     Dist  EvAz     Phase      Date       Time     TRes  Azim  AzRes  Slow  SRes Def   SNR       Amp   Per   Mag1   Mag2       ID
LDF   000.45 341.4 m E Pg      2012/04/18 10:06:56.3   0.3                          T                                        4915666
LDF   000.45 341.4 m E Sg      2012/04/18 10:06:59.9  -2.2                          T               30.3  .40        Md 1.8  4915665
GRR   000.67 289.4 m E Pg      2012/04/18 10:07:01.2   1.1                          T                                        4917830
FLN   000.71 327.4 m E Pg      2012/04/18 10:07:01.5   0.8 146.4  -0.6              T                                        4915663
FLN   000.71 327.4 m E Sg      2012/04/18 10:07:08.6  -1.5                          T                8.1  .18        Md 1.9  4915664
SGMF  001.77 273.8 m E Pn      2012/04/18 10:07:16.8  -0.6                          T                                        4917829
QUIF  002.20 264.6 m E Pn      2012/04/18 10:07:22.5  -0.8                          T                                        4915668
MFF   001.58 186.0 m E Sg      2012/04/18 10:07:37.3   0.0                          T                1.9  .20 Ml 2.2         4920374

.
EVENT     273908
    Date      Time       Latitude Longitude    Depth    Ndef Nsta Gap    Mag1  N    Mag2  N    Mag3  N   Author         ID
       rms   OT_Error      Smajor Sminor Az        Err   mdist  Mdist     Err        Err        Err      Quality

2012/04/18 10:22:03.0     41.4820     .9434       .0 f     6    4 289  Ml 2.3  3                         bulletin    273928
                                                                                                         _ldg
      0.23   +-  0.52       8.6    5.0  167.60 +-  0.0    1.61   2.29   +-0.3                            m i km

SPAIN
Sta     Dist  EvAz     Phase      Date       Time     TRes  Azim  AzRes  Slow  SRes Def   SNR       Amp   Per   Mag1   Mag2       ID
EPF   001.61 344.1 m E Pg      2012/04/18 10:22:33.5   0.2                          T                                        4915719
EPF   001.61 344.1 m E Sg      2012/04/18 10:22:54.5   0.2                          T                8.9  .24 Ml 2.7         4915718
ETSF  001.80 322.2 m E Pg      2012/04/18 10:22:36.8  -0.1                          T                                        4915716
ETSF  001.80 322.2 m E Sg      2012/04/18 10:23:00.5   0.2                          T                4.3  .29 Ml 2.3         4915717
MTLF  002.08 026.5 m E Sg      2012/04/18 10:23:08.7  -0.3                          T                1.6  .27 Ml 2.0         4915714
SJPF  002.29 316.1 m E Sg      2012/04/18 10:23:15.1  -0.4                          T                                        4915715

.
EVENT     273909
    Date      Time       Latitude Longitude    Depth    Ndef Nsta Gap    Mag1  N    Mag2  N    Mag3  N   Author         ID
       rms   OT_Error      Smajor Sminor Az        Err   mdist  Mdist     Err        Err        Err      Quality

2012/04/18 10:23:08.5     50.1850    5.2390 f     .0 f     6    4 225  Ml 2.1  2  Md 1.9  1              bulletin    273929
                                                                                                         _ldg
      0.39   +-  0.52    9999.9 9999.9   99.90 +-  0.0    0.28   2.22   +-0.3      +-                    m i km

BELGIUM
Sta     Dist  EvAz     Phase      Date       Time     TRes  Azim  AzRes  Slow  SRes Def   SNR       Amp   Per   Mag1   Mag2       ID
GIVF  000.28 252.9 m E Pg      2012/04/18 10:23:14.1  -0.1                          T                                        4915723
GIVF  000.28 252.9 m E Sg      2012/04/18 10:23:17.8  -0.5                          T               27.3  .21        Md 1.9  4915722
BAIF  000.68 259.7 m E Pg      2012/04/18 10:23:21.6   0.1                          T                                        4915720
BAIF  000.68 259.7 m E Sg      2012/04/18 10:23:31.5   0.9                          T                8.3  .35                4915721
LANF  002.06 124.8 m E Sg      2012/04/18 10:24:13.8   0.0                          T                4.2  .32 Ml 2.3         4920376
CDF   002.22 142.3 m E Sg      2012/04/18 10:24:18.6  -0.3                          T                 .9  .24 Ml 1.9         4920375

.
EVENT     273911
    Date      Time       Latitude Longitude    Depth    Ndef Nsta Gap    Mag1  N    Mag2  N    Mag3  N   Author         ID
       rms   OT_Error      Smajor Sminor Az        Err   mdist  Mdist     Err        Err        Err      Quality

2012/04/18 10:43:07.9     48.1004   -1.0171       .0 f     8    4 213  Ml 2.4  2  Md 1.8  2              bulletin    273931
                                                                                                         _ldg
      0.42   +-  0.39      12.3    3.0  154.45 +-  0.0    0.31   1.45   +-0.1      +-0.0                 m i km

FRANCE
Sta     Dist  EvAz     Phase      Date       Time     TRes  Azim  AzRes  Slow  SRes Def   SNR       Amp   Per   Mag1   Mag2       ID
GRR   000.31 020.2 m E Pg      2012/04/18 10:43:13.7  -0.3                          T                                        4915707
GRR   000.31 020.2 m E Sg      2012/04/18 10:43:18.2  -0.1                          T              208.5 1.24        Md 1.8  4915706
LDF   000.77 050.1 m E Pg      2012/04/18 10:43:22.7   0.0                          T                                        4915704
LDF   000.77 050.1 m E Sg      2012/04/18 10:43:33.8   0.8                          T               13.0  .26        Md 1.8  4915705
SGMF  001.04 279.1 m E Pg      2012/04/18 10:43:28.1   0.5                          T                                        4915700
SGMF  001.04 279.1 m E Sg      2012/04/18 10:43:41.6   0.3                          T               11.5  .27 Ml 2.5         4915701
QUIF  001.45 263.5 m E Pg      2012/04/18 10:43:35.0  -0.2                          T                                        4915703
QUIF  001.45 263.5 m E Sg      2012/04/18 10:43:53.5  -0.7                          T                6.0  .26 Ml 2.4         4915702

.
EVENT     273912
    Date      Time       Latitude Longitude    Depth    Ndef Nsta Gap    Mag1  N    Mag2  N    Mag3  N   Author         ID
       rms   OT_Error      Smajor Sminor Az        Err   mdist  Mdist     Err        Err        Err      Quality

2012/04/18 10:59:44.3     48.3021    8.7509       .0 f     4    3 332  Ml 2.2  3                         bulletin    273932
                                                                                                         _ldg
      0.31   +-  1.24      30.0   15.4  143.87 +-  0.0    0.99   1.64   +-0.1                            m i km

GERMANY
Sta     Dist  EvAz     Phase      Date       Time     TRes  Azim  AzRes  Slow  SRes Def   SNR       Amp   Per   Mag1   Mag2       ID
CDF   000.99 276.9 m E Pg      2012/04/18 11:00:03.3   0.0                          T                                        4915730
CDF   000.99 276.9 m E Sg      2012/04/18 11:00:16.6   0.2                          T                4.2  .26 Ml 2.1         4915729
HINF  001.36 249.8 m E Sg      2012/04/18 11:00:28.2   0.3                          T                6.2  .32 Ml 2.3         4915725
HAU   001.64 260.4 m E Sg      2012/04/18 11:00:35.9  -0.5                          T                6.6  .32 Ml 2.2         4915724

.
EVENT     273931
    Date      Time       Latitude Longitude    Depth    Ndef Nsta Gap    Mag1  N    Mag2  N    Mag3  N   Author         ID
       rms   OT_Error      Smajor Sminor Az        Err   mdist  Mdist     Err        Err        Err      Quality

2012/04/18 11:10:37.7     36.4611   -2.6344      2.0      59    4 141  Ml 3.7  2                         bulletin    273951
                                                                                                         _ldg
      0.97   +-  0.20       4.1    3.0  134.05 +-  0.0    0.48   9.18   +-0.1                            m i ke

STRAIT OF GIBRALTAR
Sta     Dist  EvAz     Phase      Date       Time     TRes  Azim  AzRes  Slow  SRes Def   SNR       Amp   Per   Mag1   Mag2       ID
ETSF  006.63 013.3 m E Pn      2012/04/18 11:12:15.2   1.4                          T                                        4919405
ETSF  006.63 013.3 m E Sg      2012/04/18 11:14:05.8   0.7                          T               29.3  .78 Ml 3.8         4919401
SJPF  006.73 008.8 m E Pn      2012/04/18 11:12:16.7   1.5                          T                                        4919404
SJPF  006.73 008.8 m E Sg      2012/04/18 11:14:10.1   1.7                          T               13.3  .48 Ml 3.6         4919399
EPF   006.95 018.3 m E Pn      2012/04/18 11:12:19.3   1.2                          T                                        4919403
EPF   006.95 018.3 m E Sg      2012/04/18 11:14:15.1  -0.1                          T                                        4919400
CAF   009.18 021.4 m E Pn      2012/04/18 11:12:48.8   0.3                          T                                        4919402

.
EVENT     273913
    Date      Time       Latitude Longitude    Depth    Ndef Nsta Gap    Mag1  N    Mag2  N    Mag3  N   Author         ID
       rms   OT_Error      Smajor Sminor Az        Err   mdist  Mdist     Err        Err        Err      Quality

2012/04/18 11:44:05.5     46.4503    2.9620       .0 f    12    6 181  Ml 2.2  1  Md 1.8  2              bulletin    273933
                                                                                                         _ldg
      0.41   +-  0.20       4.9    2.4  157.38 +-  0.0    0.13   1.02   +-         +-0.1                 m i km

FRANCE
Sta     Dist  EvAz     Phase      Date       Time     TRes  Azim  AzRes  Slow  SRes Def   SNR       Amp   Per   Mag1   Mag2       ID
BGF   000.13 323.5 m E Pg      2012/04/18 11:44:08.4  -0.2                          T                                        4915737
BGF   000.13 323.5 m E Sg      2012/04/18 11:44:11.5   0.8                          T               33.3  .32        Md 1.8  4919433
AVF   000.43 038.2 m E Pg      2012/04/18 11:44:13.3  -0.7                          T                                        4915735
AVF   000.43 038.2 m E Sg      2012/04/18 11:44:19.5  -0.4                          T               12.2  .18                4915734
TCF   000.55 253.0 m E Pg      2012/04/18 11:44:16.2   0.0                          T                                        4919432
TCF   000.55 253.0 m E Sg      2012/04/18 11:44:23.4  -0.1                          T                4.5  .28        Md 1.7  4919431
SMF   000.64 071.9 m E Pg      2012/04/18 11:44:18.0   0.1                          T                                        4915736
SMF   000.64 071.9 m E Sg      2012/04/18 11:44:26.5   0.1                          T                4.1  .22                4919430
SSF   000.72 031.3 m E Pg      2012/04/18 11:44:18.8  -0.5                          T                                        4915738
SSF   000.72 031.3 m E Sg      2012/04/18 11:44:28.3  -0.5                          T                3.6  .22                4915739
LOR   001.02 036.6 m E Pg      2012/04/18 11:44:25.3   0.3                          T                                        4915741
LOR   001.02 036.6 m E Sg      2012/04/18 11:44:39.3   0.8                          T                3.7  .16 Ml 2.2         4915740

.
