EVENT     278167
    Date      Time       Latitude Longitude    Depth    Ndef Nsta Gap    Mag1  N    Mag2  N    Mag3  N   Author         ID
       rms   OT_Error      Smajor Sminor Az        Err   mdist  Mdist     Err        Err        Err      Quality

2012/06/15 00:11:52.2     48.3647   -1.0775      4.0 f    14    6 140  Ml 2.3  3  Md 2.0  3              bulletin    278267
                                                                                                         _ldg
      0.60   +-  0.09       2.7    1.5  161.70 +-  0.0    0.15   1.87   +-0.1      +-0.1                 m i ke

FRANCE
Sta     Dist  EvAz     Phase      Date       Time     TRes  Azim  AzRes  Slow  SRes Def   SNR       Amp   Per   Mag1   Mag2       ID
GRR   000.15 080.7 m E Pg      2012/06/15 00:11:55.5   0.1                          T                                        5001811
GRR   000.15 080.7 m E Sg      2012/06/15 00:11:57.5  -0.1                          T               34.6  .20        Md 2.1  5001806
FLN   000.56 044.6 m E Pg      2012/06/15 00:12:02.9   0.0 226.1  1.1               T                                        5001809
FLN   000.56 044.6 m E Sg      2012/06/15 00:12:09.9  -0.4 232.4  7.3               T                3.5  .25        Md 2.1  5001805
LDF   000.68 069.8 m E Pg      2012/06/15 00:12:05.2   0.2                          T                                        5001810
LDF   000.68 069.8 m E Sg      2012/06/15 00:12:13.7  -0.2                          T                4.1  .26        Md 1.9  5001804
SGMF  000.99 264.2 m E Pg      2012/06/15 00:12:10.8  -0.1                          T                                        5001808
SGMF  000.99 264.2 m E Sg      2012/06/15 00:12:23.3  -0.5                          T                8.6  .27 Ml 2.3         5001803
QUIF  001.47 253.0 m E Pn      2012/06/15 00:12:18.3   0.5                          T                                        5001807
QUIF  001.47 253.0 m E Sn      2012/06/15 00:12:35.9  -0.5                          T                                        5001802
QUIF  001.47 253.0 m E Sg      2012/06/15 00:12:38.9   0.3                          T                4.9  .23 Ml 2.3         5019903
MFF   001.87 159.9 m E Pn      2012/06/15 00:12:22.9  -0.4                          T                                        5001800
MFF   001.87 159.9 m E Sn      2012/06/15 00:12:46.1   0.1                          T                                        5001801
MFF   001.87 159.9 m E Sg      2012/06/15 00:12:51.3   0.0                          T                2.6  .35 Ml 2.2         5019904

.
EVENT     278170
    Date      Time       Latitude Longitude    Depth    Ndef Nsta Gap    Mag1  N    Mag2  N    Mag3  N   Author         ID
       rms   OT_Error      Smajor Sminor Az        Err   mdist  Mdist     Err        Err        Err      Quality

2012/06/15 04:16:03.4     45.4277    6.6151      3.0 f    27    6 094  Ml 1.6  1  Md 1.8  2              bulletin    278270
                                                                                                         _ldg
      0.39   +-  0.08       1.7    1.2  123.42 +-  0.0    0.12   1.49   +-         +-0.0                 m i ke

FRANCE
Sta     Dist  EvAz     Phase      Date       Time     TRes  Azim  AzRes  Slow  SRes Def   SNR       Amp   Per   Mag1   Mag2       ID
LPL   000.12 042.9 m E Pg      2012/06/15 04:16:06.5   0.1                          T                                        5001838
LPL   000.12 042.9 m E Sg      2012/06/15 04:16:08.5   0.3                          T               30.1  .28        Md 1.8  5001837
LPG   000.12 053.8 m E Pg      2012/06/15 04:16:06.6   0.2                          T                                        5001835
LPG   000.12 053.8 m E Sg      2012/06/15 04:16:08.5   0.3                          T               34.1  .20        Md 1.8  5001836
MBDF  000.71 171.0 m E Pg      2012/06/15 04:16:16.6  -0.4                          T                                        5001833
MBDF  000.71 171.0 m E Sg      2012/06/15 04:16:25.8  -0.5                          T                5.6  .44                5001832
ORIF  000.73 225.9 m E Pg      2012/06/15 04:16:16.9  -0.4                          T                                        5020822
ORIF  000.73 225.9 m E Sg      2012/06/15 04:16:26.7  -0.1                          T                4.2  .24                5001831
CABF  001.24 342.9 m E P       2012/06/15 04:16:28.2   0.4                          T                                        5001839
VIVF  001.49 248.1 m E Pg      2012/06/15 04:16:30.9  -0.4                          T                                        5020821
VIVF  001.49 248.1 m E Sg      2012/06/15 04:16:49.9  -0.5                          T                1.2  .33 Ml 1.6         5002702

.
EVENT     278171
    Date      Time       Latitude Longitude    Depth    Ndef Nsta Gap    Mag1  N    Mag2  N    Mag3  N   Author         ID
       rms   OT_Error      Smajor Sminor Az        Err   mdist  Mdist     Err        Err        Err      Quality

2012/06/15 04:16:59.1     45.4054    6.5276      3.0 f    20    5 125  Ml 1.4  1  Md 1.6  2              bulletin    278271
                                                                                                         _ldg
      0.18   +-  0.05       1.0     .7  133.72 +-  0.0    0.18   1.42   +-         +-0.0                 m i ke

FRANCE
Sta     Dist  EvAz     Phase      Date       Time     TRes  Azim  AzRes  Slow  SRes Def   SNR       Amp   Per   Mag1   Mag2       ID
LPL   000.18 052.3 m E Pg      2012/06/15 04:17:03.2   0.1                          T                                        5001845
LPL   000.18 052.3 m E Sg      2012/06/15 04:17:05.7   0.0                          T                6.6  .20        Md 1.6  5001842
LPG   000.18 059.6 m E Pg      2012/06/15 04:17:03.2   0.0                          T                                        5001844
LPG   000.18 059.6 m E Sg      2012/06/15 04:17:05.7   0.0                          T                5.7  .16        Md 1.6  5001841
ORIF  000.67 223.5 m E Pg      2012/06/15 04:17:11.9   0.0                          T                                        5001843
ORIF  000.67 223.5 m E Sg      2012/06/15 04:17:20.6   0.0                          T                3.2  .28                5001840
MBDF  000.70 165.6 m E Pg      2012/06/15 04:17:12.6   0.1                          T                                        5001846
MBDF  000.70 165.6 m E Sg      2012/06/15 04:17:21.9   0.2                          T                2.3  .30                5001847
VIVF  001.42 248.0 m E Pg      2012/06/15 04:17:25.6  -0.1                          T                                        5020819
VIVF  001.42 248.0 m E Sg      2012/06/15 04:17:44.1   0.0                          T                 .6  .24 Ml 1.4         5020820

.
EVENT     278190
    Date      Time       Latitude Longitude    Depth    Ndef Nsta Gap    Mag1  N    Mag2  N    Mag3  N   Author         ID
       rms   OT_Error      Smajor Sminor Az        Err   mdist  Mdist     Err        Err        Err      Quality

2012/06/15 08:08:02.3     47.7753    4.5565       .0 f    18   12 158  Ml 2.3  9  Md 2.4  3              bulletin    278290
                                                                                                         _ldg
      1.27   +-  0.20       7.0    2.6  136.44 +-  0.0    0.54   1.93   +-0.3      +-0.2                 m i km

FRANCE
Sta     Dist  EvAz     Phase      Date       Time     TRes  Azim  AzRes  Slow  SRes Def   SNR       Amp   Per   Mag1   Mag2       ID
SFTF  000.54 036.8 m E Pg      2012/06/15 08:08:12.5  -0.3                          T                                        5019919
SFTF  000.54 036.8 m E Sg      2012/06/15 08:08:21.9   1.8                          T               56.2  .56        Md 2.5  5019920
LOR   000.69 223.2 m E Pg      2012/06/15 08:08:15.2  -0.5  41.4  -1.3              T                                        5002471
LOR   000.69 223.2 m E Sn      2012/06/15 08:08:28.9  -0.1  38.7  -4.0              T               15.6  .46                5002470
MEZF  000.80 024.3 m E Pg      2012/06/15 08:08:18.2   0.6                          T                                        5019926
MEZF  000.80 024.3 m E Sn      2012/06/15 08:08:32.0   0.6 208.0  3.2               T               10.1  .22        Md 2.2  5019927
SSF   001.01 225.4 m E Pg      2012/06/15 08:08:21.3  -0.2                          T                                        5019921
SSF   001.01 225.4 m E Sn      2012/06/15 08:08:36.4  -0.1                          T               12.3  .32 Ml 2.5         5019922
PAGF  001.10 044.6 m E Pg      2012/06/15 08:08:23.6   0.3 227.9  2.4               T                                        5019924
PAGF  001.10 044.6 m E Sg      2012/06/15 08:08:34.9  -2.9 213.4  -12.2             T               13.7  .41 Ml 2.4         5019925
HAU   001.23 078.5 m E Pg      2012/06/15 08:08:25.3  -0.2                          T                                        5019931
HAU   001.23 078.5 m E Sg      2012/06/15 08:08:41.3  -0.3                          T               10.1  .46 Ml 2.0         5019932
THEF  001.07 064.3 m E Sg      2012/06/15 08:08:36.8   0.2                          T                2.7  .16 Ml 2.1 Md 2.5  5019918
AVF   001.28 220.2 m E Sg      2012/06/15 08:08:43.5   0.2                          T                7.6  .48 Ml 2.1         5019928
SMF   001.23 203.6 m E Sg      2012/06/15 08:08:44.3   2.6                          T                6.0  .32 Ml 2.2         5019917
HINF  001.55 087.6 m E Sg      2012/06/15 08:08:51.5  -0.1                          T                5.3  .39 Ml 2.2         5019930
BGF   001.69 224.4 m E Sg      2012/06/15 08:08:55.2  -0.7                          T               30.1  .46 Ml 2.9         5019929
CDF   001.93 069.7 m E Sn      2012/06/15 08:08:58.8   0.2                          T               10.9  .62 Ml 2.5         5019923

.
EVENT     278191
    Date      Time       Latitude Longitude    Depth    Ndef Nsta Gap    Mag1  N    Mag2  N    Mag3  N   Author         ID
       rms   OT_Error      Smajor Sminor Az        Err   mdist  Mdist     Err        Err        Err      Quality

2012/06/15 08:21:16.6     43.5400    6.5612 f     .0 f    15    6 095  Ml 1.7  1  Md 2.0  2              bulletin    278291
                                                                                                         _ldg
      0.27   +-  0.25    9999.9 9999.9   99.90 +-  0.0    0.07   2.04   +-         +-0.0                 m i km

NEAR SOUTH COAST OF FRANCE
Sta     Dist  EvAz     Phase      Date       Time     TRes  Azim  AzRes  Slow  SRes Def   SNR       Amp   Per   Mag1   Mag2       ID
FRF   000.07 071.6 m E Pg      2012/06/15 08:21:18.2  -0.1                          T                                        5002478
FRF   000.07 071.6 m E Sg      2012/06/15 08:21:19.5   0.1                          T              874.7  .52        Md 2.0  5002477
LMR   000.21 190.4 m E Pg      2012/06/15 08:21:20.7  -0.3                          T                                        5002476
LMR   000.21 190.4 m E Sg      2012/06/15 08:21:23.4  -0.7                          T               48.0  .48        Md 1.9  5002475
SBF   000.71 062.7 m E Pg      2012/06/15 08:21:30.5   0.2                          T                                        5002474
SBF   000.71 062.7 m E Sg      2012/06/15 08:21:40.2   0.3                          T               15.2  .34                5002479
SMRF  000.84 301.7 m E Pn      2012/06/15 08:21:34.1  -0.2                          T                                        5002472
SMRF  000.84 301.7 m E Sn      2012/06/15 08:21:46.0   0.3                          T                2.9  .28                5019934
PGF   002.04 118.2 m E Pn      2012/06/15 08:21:49.9  -0.9                          T                                        5002473
MBDF  001.20 007.2 m E Sn      2012/06/15 08:21:55.4   0.0                          T                1.6  .29 Ml 1.7         5019933

.
EVENT     278194
    Date      Time       Latitude Longitude    Depth    Ndef Nsta Gap    Mag1  N    Mag2  N    Mag3  N   Author         ID
       rms   OT_Error      Smajor Sminor Az        Err   mdist  Mdist     Err        Err        Err      Quality

2012/06/15 08:59:44.6     44.8658   11.2778      2.0      64   25 097  Ml 3.9 19                         bulletin    278294
                                                                                                         _ldg
      1.29   +-  0.24       6.3    4.6   61.91 +-  0.0    0.16   8.67   +-0.2                            m i ke

NORTHERN ITALY
Sta     Dist  EvAz     Phase      Date       Time     TRes  Azim  AzRes  Slow  SRes Def   SNR       Amp   Per   Mag1   Mag2       ID
PGF   002.85 216.3 m E Pn      2012/06/15 09:00:29.4   0.1                          T   001.0                                5002567
PGF   002.85 216.3 m E Sn      2012/06/15 09:00:59.5  -2.6                          T   001.0      197.2  .58 Ml 4.2         5002568
SBF   002.93 251.4 m E Pn      2012/06/15 09:00:30.7   0.3                          T   001.0                                5002569
SBF   002.93 251.4 m E Sn      2012/06/15 09:01:01.7  -2.5                          T              323.5  .48 Ml 4.2         5002587
MBDF  003.21 269.1 m E Pn      2012/06/15 09:00:33.8  -0.5                          T   001.0                                5002578
MBDF  003.21 269.1 m E Sn      2012/06/15 09:01:07.0  -2.9                          T   001.0      132.2  .60 Ml 3.8         5002579
LPL   003.28 283.0 m E Pn      2012/06/15 09:00:36.9   1.6                          T   001.0                                5002565
LPG   003.26 282.8 m E Pn      2012/06/15 09:00:36.9   1.7                          T   001.0                                5002564
LPL   003.28 283.0 m E Sn      2012/06/15 09:01:08.5  -4.1                          T   001.0       84.9  .52 Ml 3.7         5002566
LPG   003.26 282.8 m E Sn      2012/06/15 09:01:08.6  -3.7                          T              179.6  .66 Ml 3.9         5002585
FRF   003.58 250.2 m E Pn      2012/06/15 09:00:39.9   0.8                          T                                        5002591
FRF   003.58 250.2 m E Sn      2012/06/15 09:01:19.0  -0.4                          T               94.1  .46 Ml 3.9         5002586
LMR   003.76 247.6 m E Pn      2012/06/15 09:00:41.9   0.3                          T   001.0                                5002560
LMR   003.76 247.6 m E Sn      2012/06/15 09:01:21.6  -2.2                          T   001.0       72.3  .38 Ml 3.9         5002561
ORIF  003.84 272.7 m E Pn      2012/06/15 09:00:44.4   1.6                          T   001.0                                5002580
CABF  004.03 297.5 m E Pn      2012/06/15 09:00:46.9   1.5                          T   001.0                                5002575
SMRF  004.18 259.7 m E Pn      2012/06/15 09:00:48.6   1.2                          T                                        5002590
HINF  004.25 315.5 m E Pn      2012/06/15 09:00:49.4   1.0                          T   001.0                                5002576
HINF  004.25 315.5 m E Sn      2012/06/15 09:01:37.1   1.4                          T   001.0       32.8  .32 Ml 3.7         5002577
CDF   004.49 323.6 m E Pn      2012/06/15 09:00:52.2   0.5                          T   001.0                                5002554
CDF   004.49 323.6 m E Sn      2012/06/15 09:01:41.6   0.2                          T   001.0       26.2  .48 Ml 3.6         5002555
HAU   004.63 314.4 m E Pn      2012/06/15 09:00:53.9   0.3                          T   001.0                                5002556
HAU   004.63 314.4 m E Sn      2012/06/15 09:01:45.1   0.4                          T   001.0       82.8  .40 Ml 3.9         5002557
VIVF  004.70 272.2 m E Pn      2012/06/15 09:00:54.7   0.3                          T   001.0                                5002581
VIVF  004.70 272.2 m E Sn      2012/06/15 09:01:45.8  -0.5                          T               30.5  .48 Ml 3.6         5002583
LANF  004.75 331.2 m E Pn      2012/06/15 09:00:56.2   1.0                          T                                        5002588
THEF  004.96 314.6 m E Pn      2012/06/15 09:00:58.8   0.9                          T                                        5002589
LASF  005.37 264.2 m E Pn      2012/06/15 09:01:04.5   0.9                          T   001.0                                5002558
LASF  005.37 264.2 m E Sn      2012/06/15 09:02:02.0  -0.3                          T               20.3  .66 Ml 3.4         5002582
SMF   005.50 291.5 m E Pn      2012/06/15 09:01:06.1   0.8                          T   001.0                                5002570
SMF   005.50 291.5 m E Sn      2012/06/15 09:02:05.7   0.3                          T   001.0       83.9  .68 Ml 4.1         5002571
AVF   005.86 292.0 m E Pn      2012/06/15 09:01:09.0  -1.2                          T   001.0                                5002549
AVF   005.86 292.0 m E Sn      2012/06/15 09:02:10.2  -3.9                          T   001.0       32.9  .94 Ml 3.6         5002550
LOR   005.69 297.6 m E Pn      2012/06/15 09:01:09.5   1.5                          T   001.0                                5002562
LOR   005.69 297.6 m E Sn      2012/06/15 09:02:07.2  -2.9                          T   001.0       35.1  .36 Ml 4.0         5002563
SSF   005.85 294.8 m E Pn      2012/06/15 09:01:10.5   0.5                          T   001.0                                5002572
SSF   005.85 294.8 m E Sn      2012/06/15 09:02:13.8   0.1                          T   001.0       22.1  .48 Ml 3.8         5002573
BGF   006.14 289.0 m E Pn      2012/06/15 09:01:15.0   0.9                          T   001.0                                5002551
BGF   006.14 289.0 m E Sn      2012/06/15 09:02:21.3   0.5                          T   001.0       72.5  .50 Ml 4.3         5002552
CAF   006.55 273.8 m E Pn      2012/06/15 09:01:20.1   0.5                          T   001.0                                5002553
TCF   006.52 285.8 m E Pn      2012/06/15 09:01:20.6   1.3                          T   001.0                                5002574
TCF   006.52 285.8 m E Sn      2012/06/15 09:02:26.2  -3.7                          T               37.1  .68 Ml 4.0         5002584
LDF   008.67 299.5 m E Sn      2012/06/15 09:03:19.4  -1.8                          T   001.0       18.2  .64 Ml 3.9         5002559

.
