EVENT     268365
    Date      Time       Latitude Longitude    Depth    Ndef Nsta Gap    Mag1  N    Mag2  N    Mag3  N   Author         ID
       rms   OT_Error      Smajor Sminor Az        Err   mdist  Mdist     Err        Err        Err      Quality

2012/01/09 03:32:29.0     47.0889    7.3031      2.0      41   16 105  Ml 2.1 16  Md 2.1  3              js067245    268385

      1.23   +-  0.11       2.2    1.4   93.41 +-  0.0    0.27   3.26   +-0.2      +-0.1                 m i ke

SWITZERLAND
Sta     Dist  EvAz     Phase      Date       Time     TRes  Azim  AzRes  Slow  SRes Def   SNR       Amp   Per   Mag1   Mag2       ID
HINF  000.79 337.4 m E Pg      2012/01/09 03:32:44.1   0.2                          T                                        4812551
HINF  000.79 337.4 m E Pn      2012/01/09 03:32:45.3  -0.3                          T                                        4812573
HINF  000.79 337.4 m E Sg      2012/01/09 03:32:54.4   0.2                          T               16.6  .24        Md 2.0  4812552
CABF  000.96 240.6 m E Pg      2012/01/09 03:32:47.6   0.5                          T                                        4812532
CABF  000.96 240.6 m E Sg      2012/01/09 03:33:00.7   1.1                          T                9.5  .46 Ml 2.1 Md 2.0  4812531
HAU   001.12 325.2 m E Pg      2012/01/09 03:32:50.0   0.0                          T                                        4812534
HAU   001.12 325.2 m E P       2012/01/09 03:32:51.7   0.0                          T                                        4812574
HAU   001.12 325.2 m E Sg      2012/01/09 03:33:04.8   0.3                          T                6.2  .22 Ml 2.1 Md 2.2  4812535
THEF  001.44 322.7 m E Pg      2012/01/09 03:32:55.7  -0.2                          T                                        4812537
THEF  001.44 322.7 m E Sg      2012/01/09 03:33:14.8   0.3                          T               11.7  .31 Ml 2.6         4812536
LPL   001.62 194.3 m E Pn      2012/01/09 03:32:57.2   0.1                          T                                        4812572
LPL   001.62 194.3 m E Pg      2012/01/09 03:32:59.7   0.2                          T                                        4812547
LPL   001.62 194.3 m E Sg      2012/01/09 03:33:20.6   0.3                          T                1.8  .32 Ml 1.8         4812548
LPG   001.64 193.7 m E Pg      2012/01/09 03:33:00.2   0.4                          T                                        4812550
LPG   001.64 193.7 m E Sg      2012/01/09 03:33:21.3   0.4                          T                2.3  .33 Ml 1.9         4812549
PAGF  001.81 324.6 m E Pg      2012/01/09 03:33:03.0   0.3 148.6  5.1               T                                        4812526
PAGF  001.81 324.6 m E Sg      2012/01/09 03:33:26.5   0.5 153.1  9.7               T                 .7  .19 Ml 1.7         4812527
SFTF  001.90 306.9 m E Pg      2012/01/09 03:33:04.0  -0.2 135.4  10.1              T                                        4812541
SFTF  001.90 306.9 m E Sg      2012/01/09 03:33:28.8   0.2                          T                2.8  .24 Ml 2.3         4812529
LANF  001.92 009.9 m E Pg      2012/01/09 03:33:04.5  -0.3                          T                                        4812540
LANF  001.92 009.9 m E Sg      2012/01/09 03:33:29.6   0.1                          T                1.4  .17 Ml 2.1         4812571
LOR   002.36 275.6 m E Pg      2012/01/09 03:33:11.9  -0.8 105.1  12.0              T                                        4812538
LOR   002.36 275.6 m E Sg      2012/01/09 03:33:41.7  -1.4                          T                                        4812539
ORIF  002.39 205.1 m E Pg      2012/01/09 03:33:13.5   0.1                          T                                        4812553
ORIF  002.39 205.1 m E Sg      2012/01/09 03:33:44.0  -0.1                          T                1.5  .25 Ml 2.1         4812546
SMF   002.42 260.7 m E Pg      2012/01/09 03:33:14.3   0.4                          T                                        4812556
SMF   002.42 260.7 m E Sg      2012/01/09 03:33:44.4  -0.5                          T                1.7  .23 Ml 2.2         4812528
AVF   002.72 265.1 m E Pg      2012/01/09 03:33:19.8   0.3                          T                                        4812543
AVF   002.72 265.1 m E Sg      2012/01/09 03:33:54.1  -0.4                          T                                        4812544
MEZF  002.07 313.8 m E Sg      2012/01/09 03:33:34.8   0.6                          T                3.6  .31 Ml 2.3         4812542
VIVF  002.89 220.3 m E Sg      2012/01/09 03:33:59.4  -0.4                          T                3.9  .40 Ml 2.4         4812545
BGF   003.11 261.8 m E Sg      2012/01/09 03:34:06.8   0.4                          T                1.9  .26 Ml 2.3         4812555

.
EVENT     268262
    Date      Time       Latitude Longitude    Depth    Ndef Nsta Gap    Mag1  N    Mag2  N    Mag3  N   Author         ID
       rms   OT_Error      Smajor Sminor Az        Err   mdist  Mdist     Err        Err        Err      Quality

2012/01/09 05:31:28.0     44.1101    7.1562      2.0      42   11 049  Ml 2.1  8  Md 2.0  2              js067245    268282

      1.00   +-  0.07       1.6    1.3   58.95 +-  0.0    0.11   2.38   +-0.3      +-0.1                 m i ke

NORTHERN ITALY
Sta     Dist  EvAz     Phase      Date       Time     TRes  Azim  AzRes  Slow  SRes Def   SNR       Amp   Per   Mag1   Mag2       ID
SBF   000.32 140.7 m E Pg      2012/01/09 05:31:34.4   0.1                          T                                        4812631
SBF   000.32 140.7 m E Sg      2012/01/09 05:31:38.9   0.3                          T               23.5  .22        Md 2.0  4812632
FRF   000.66 214.0 m E Pg      2012/01/09 05:31:40.0  -0.5                          T                                        4812639
FRF   000.66 214.0 m E Sg      2012/01/09 05:31:48.9  -0.3                          T               13.6  .19                4812634
MBDF  000.68 336.0 m E Pg      2012/01/09 05:31:41.6   0.6                          T                                        4812638
MBDF  000.68 336.0 m E Sg      2012/01/09 05:31:50.1   0.3                          T                7.6  .28        Md 1.9  4812637
LMR   000.91 211.4 m E Pg      2012/01/09 05:31:44.9  -0.1                          T                                        4812640
LMR   000.91 211.4 m E Sg      2012/01/09 05:31:56.6  -0.2                          T                8.8  .19 Ml 2.5         4812633
SMRF  001.15 263.8 m E Pg      2012/01/09 05:31:50.0   0.5                          T                                        4812635
SMRF  001.15 263.8 m E Sg      2012/01/09 05:32:06.0   1.6                          T               12.4  .26 Ml 2.6         4812636
ORIF  001.22 312.0 m E Pg      2012/01/09 05:31:50.2  -0.7                          T                                        4812629
ORIF  001.22 312.0 m E Sg      2012/01/09 05:32:06.9   0.2                          T                3.2  .26 Ml 2.0         4812624
LPL   001.44 348.0 m E Pg      2012/01/09 05:31:55.0  -0.1                          T                                        4812642
LPL   001.44 348.0 m E Sg      2012/01/09 05:32:14.2   0.5                          T                1.8  .33 Ml 1.8         4812641
VIVF  001.93 293.6 m E Pn      2012/01/09 05:32:00.0  -0.1                          T                                        4812627
VIVF  001.93 293.6 m E Sn      2012/01/09 05:32:24.3   0.8                          T                2.2  .19 Ml 2.2         4812628
PGF   002.06 138.6 m E Pn      2012/01/09 05:32:01.8  -0.2                          T                                        4812625
PGF   002.06 138.6 m E Sn      2012/01/09 05:32:25.5  -1.2                          T                1.2  .22 Ml 2.2         4812630
LPG   001.42 348.4 m E Sg      2012/01/09 05:32:14.0   0.8                          T                1.1  .24 Ml 1.7         4812643
LASF  002.38 270.3 m E Sn      2012/01/09 05:32:33.4  -0.8                          T                                        4812626

.
EVENT     268263
    Date      Time       Latitude Longitude    Depth    Ndef Nsta Gap    Mag1  N    Mag2  N    Mag3  N   Author         ID
       rms   OT_Error      Smajor Sminor Az        Err   mdist  Mdist     Err        Err        Err      Quality

2012/01/09 06:11:49.7     42.6967     .2627      2.0       5    3 223  Ml 1.8  1  Md 1.7  2              js067245    268283

      0.84   +-  1.46      35.4   12.4  161.62 +-  0.0    0.34   1.57   +-         +-0.1                 m i ke

PYRENEES
Sta     Dist  EvAz     Phase      Date       Time     TRes  Azim  AzRes  Slow  SRes Def   SNR       Amp   Per   Mag1   Mag2       ID
EPF   000.34 009.6 m E Pg      2012/01/09 06:11:57.0   0.6                          T                                        4812718
EPF   000.34 009.6 m E Sg      2012/01/09 06:11:59.5  -1.4                          T               12.1  .20        Md 1.6  4812717
ETSF  000.64 288.7 m E Pg      2012/01/09 06:12:01.3  -0.6                          T                                        4812719
ETSF  000.64 288.7 m E Sg      2012/01/09 06:12:11.5   1.3                          T                2.6  .28        Md 1.8  4812716
MTLF  001.57 065.1 m E Sg      2012/01/09 06:12:39.2  -0.1                          T                1.3  .26 Ml 1.8         4812720

.
EVENT     268264
    Date      Time       Latitude Longitude    Depth    Ndef Nsta Gap    Mag1  N    Mag2  N    Mag3  N   Author         ID
       rms   OT_Error      Smajor Sminor Az        Err   mdist  Mdist     Err        Err        Err      Quality

2012/01/09 06:42:29.8     47.1216    1.5270      3.0 f    55   22 113  Ml 2.7 26  Md 2.8  6              js067245    268284

      0.72   +-  0.06       1.3     .9   20.25 +-  0.0    0.77   4.18   +-0.3      +-0.1                 m i ke

FRANCE
Sta     Dist  EvAz     Phase      Date       Time     TRes  Azim  AzRes  Slow  SRes Def   SNR       Amp   Per   Mag1   Mag2       ID
HYF   000.77 078.6 m E Pg      2012/01/09 06:42:44.5   0.1                          T                                        4812755
HYF   000.77 078.6 m E Sg      2012/01/09 06:42:54.3  -0.2                          T                                Md 2.7  4812752
HYF   000.77 078.6 m E Sn      2012/01/09 06:42:57.2  -0.2                          T                                        4812809
TCF   000.96 150.3 m E Pg      2012/01/09 06:42:48.1   0.3                          T   001.0                                4810041
TCF   000.96 150.3 m E Sg      2012/01/09 06:43:00.4   0.2                          T   001.0       12.7  .16 Ml 2.7 Md 2.9  4810042
BGF   001.07 121.4 m E Pg      2012/01/09 06:42:49.9   0.1                          T                                        4812754
BGF   001.07 121.4 m E Pn      2012/01/09 06:42:50.1   0.2                          T   001.0                                4810019
BGF   001.07 121.4 m E Sg      2012/01/09 06:43:03.9   0.3                          T   001.0       67.8  .28 Ml 3.2 Md 2.9  4810020
AVF   001.29 104.2 m E Pn      2012/01/09 06:42:53.3   0.2                          T   001.0                                4810018
AVF   001.29 104.2 m E Pg      2012/01/09 06:42:53.9   0.0                          T                                        4812746
AVF   001.29 104.2 m E Sg      2012/01/09 06:43:10.6   0.0                          T               16.9  .22 Ml 2.8 Md 2.8  4812753
MFF   001.26 246.3 m E Pg      2012/01/09 06:42:53.3   0.0                          T   001.0                                4810034
MFF   001.26 246.3 m E Sg      2012/01/09 06:43:09.5  -0.1                          T   001.0       15.6  .16 Ml 3.1 Md 2.7  4810036
SSF   001.35 091.8 m E Pg      2012/01/09 06:42:54.7  -0.3                          T   001.0                                4810039
SSF   001.35 091.8 m E Sg      2012/01/09 06:43:12.8   0.3                          T   001.0       12.3  .18 Ml 2.9         4810040
LOR   001.60 083.9 m E Pn      2012/01/09 06:42:57.5   0.3 265.5  -0.1              T   001.0                                4810031
LOR   001.60 083.9 m E Pg      2012/01/09 06:42:59.0  -0.5 264.7  -0.8              T   001.0                                4810032
LOR   001.60 083.9 m E Sn      2012/01/09 06:43:17.1  -0.1                          T                                        4812749
LOR   001.60 083.9 m E Sg      2012/01/09 06:43:20.4   0.3                          T   001.0       24.5  .24 Ml 3.1         4810033
RJF   001.82 180.2 m E Pn      2012/01/09 06:43:00.4   0.2                          T   001.0                                4810015
RJF   001.82 180.2 m E Pg      2012/01/09 06:43:03.4  -0.1                          T   001.0                                4810016
RJF   001.82 180.2 m E Sg      2012/01/09 06:43:26.7  -0.3                          T               17.2  .20 Ml 2.8         4812748
SMF   001.66 105.9 m E Pg      2012/01/09 06:43:00.6   0.0                          T   001.0                                4810037
SMF   001.66 105.9 m E Sg      2012/01/09 06:43:22.0  -0.1                          T   001.0       12.2  .20 Ml 2.9         4810038
LDF   001.84 323.6 m E Pg      2012/01/09 06:43:04.0  -0.1                          T                                        4812743
LDF   001.84 323.6 m E Sg      2012/01/09 06:43:27.0  -0.8                          T   001.0        6.1  .24 Ml 2.5         4810029
CAF   002.23 170.1 m E Pn      2012/01/09 06:43:05.8  -0.1                          T   001.0                                4810021
CAF   002.23 170.1 m E Pg      2012/01/09 06:43:10.8  -0.4                          T   001.0                                4810022
CAF   002.23 170.1 m E Sg      2012/01/09 06:43:40.0   0.2                          T   001.0        3.7  .18 Ml 2.6         4810023
GRR   002.05 309.1 m E Pg      2012/01/09 06:43:07.9   0.1                          T                                        4812742
GRR   002.05 309.1 m E Sg      2012/01/09 06:43:33.5  -0.7                          T   001.0        4.6  .18 Ml 2.5         4810028
FLN   002.13 321.3 m E Pg      2012/01/09 06:43:09.5   0.3 145.5  5.7               T   001.0                                4810025
FLN   002.13 321.3 m E Sg      2012/01/09 06:43:35.6  -1.0                          T   001.0        5.7  .24 Ml 2.5         4810026
LFF   002.25 194.4 m E Pg      2012/01/09 06:43:10.7  -0.8                          T                                        4812741
LFF   002.25 194.4 m E Sg      2012/01/09 06:43:40.9   0.4                          T   001.0       12.9  .32 Ml 2.7         4810030
SGMF  002.98 293.8 m E Pn      2012/01/09 06:43:17.2   1.2                          T   001.0                                4810047
SGMF  002.98 293.8 m E Pg      2012/01/09 06:43:24.9  -0.2                          T                                        4812745
SGMF  002.98 293.8 m E Sg      2012/01/09 06:44:02.7  -0.6                          T   001.0        2.1  .30 Ml 2.3         4810048
QUIF  003.28 285.8 m E Pn      2012/01/09 06:43:19.9  -0.1                          T                                        4812747
QUIF  003.28 285.8 m E Sg      2012/01/09 06:44:13.3   0.8                          T                3.3  .31 Ml 2.5         4812744
CABF  003.17 097.6 m E Pn      2012/01/09 06:43:20.5   1.8                          T   001.0                                4810043
CABF  003.17 097.6 m E Sg      2012/01/09 06:44:09.2  -0.1                          T   001.0        5.1  .40 Ml 2.6         4810044
HINF  003.68 077.2 m E Sn      2012/01/09 06:44:06.7  -0.2                          T   001.0                                4810045
HINF  003.68 077.2 m E Sg      2012/01/09 06:44:24.7  -0.5                          T   001.0        3.1  .28 Ml 2.6         4810046
VIVF  003.15 134.8 m E Sg      2012/01/09 06:44:08.8   0.1                          T   001.0        3.5  .33 Ml 2.5         4810049
LASF  003.46 150.9 m E Sg      2012/01/09 06:44:18.7   0.5                          T                  1  .28 Ml 2.1         4812738
MTLF  003.81 172.4 m E Sg      2012/01/09 06:44:29.1  -0.1                          T                2.0  .35 Ml 2.4         4812739
EPF   004.18 192.0 m E Sg      2012/01/09 06:44:45.1   4.4                          T                1.4  .21 Ml 2.5         4812740

.
EVENT     268350
    Date      Time       Latitude Longitude    Depth    Ndef Nsta Gap    Mag1  N    Mag2  N    Mag3  N   Author         ID
       rms   OT_Error      Smajor Sminor Az        Err   mdist  Mdist     Err        Err        Err      Quality

2012/01/09 09:18:45.2     44.6470    7.1673      2.0      24    3 110  Ml 1.5  3  Md 1.6  1              js067245    268370

      0.25   +-  0.05       1.3     .7   65.07 +-  0.0    0.15   0.96   +-0.0      +-                    m i ke

NORTHERN ITALY
Sta     Dist  EvAz     Phase      Date       Time     TRes  Azim  AzRes  Slow  SRes Def   SNR       Amp   Per   Mag1   Mag2       ID
MBDF  000.29 285.9 m E Pg      2012/01/09 09:18:51.2   0.0                          T                                        4812869
MBDF  000.29 285.9 m E Sg      2012/01/09 09:18:55.1   0.0                          T               10.7  .32        Md 1.6  4812868
LPG   000.90 341.0 m E Pg      2012/01/09 09:19:02.6   0.1                          T                                        4812884
LPG   000.90 341.0 m E Sg      2012/01/09 09:19:14.2   0.0                          T                1.3  .26 Ml 1.5         4812883
ORIF  000.96 286.9 m E Pg      2012/01/09 09:19:03.5   0.2                          T                                        4812886
ORIF  000.96 286.9 m E Sg      2012/01/09 09:19:15.8   0.1                          T                  1  .21 Ml 1.4         4812885

.
