EVENT     268315
    Date      Time       Latitude Longitude    Depth    Ndef Nsta Gap    Mag1  N    Mag2  N    Mag3  N   Author         ID
       rms   OT_Error      Smajor Sminor Az        Err   mdist  Mdist     Err        Err        Err      Quality

2012/01/09 12:45:47.3     36.3875    8.2321      2.0      63   18 083  Ml 3.6 11                         js067245    268335

      1.43   +-  0.23       6.1    5.2   32.30 +-  0.0    0.12  71.34   +-0.2                            m i ke

TUNISIA
Sta     Dist  EvAz     Phase      Date       Time     TRes  Azim  AzRes  Slow  SRes Def   SNR       Amp   Per   Mag1   Mag2       ID
PGF   006.18 005.3 m E P       2012/01/09 12:47:21.2  -0.8                          T                                        4813055
PGF   006.18 005.3 m E Sn      2012/01/09 12:48:24.4  -0.1                          T                8.2  .42 Ml 3.7         4812930
LMR   007.06 349.7 m E Pn      2012/01/09 12:47:30.4   1.1                          T                                        4813067
LMR   007.06 349.7 m E Sn      2012/01/09 12:48:44.1  -1.3                          T               11.9  .34 Ml 3.8         4812923
FRF   007.27 350.9 m E Pn      2012/01/09 12:47:31.9  -0.1                          T                                        4813059
FRF   007.27 350.9 m E Sn      2012/01/09 12:48:49.0  -1.3                          T               21.3  .59 Ml 3.9         4812918
SBF   007.49 355.6 m E Pn      2012/01/09 12:47:34.3  -0.9                          T                                        4813058
SBF   007.49 355.6 m E Sn      2012/01/09 12:48:54.2  -1.6                          T                6.8  .34 Ml 3.6         4812929
SMRF  007.85 345.8 m E Pn      2012/01/09 12:47:40.1   0.1                          T                                        4813066
MTLF  008.34 328.2 m E Pn      2012/01/09 12:47:46.0   0.3                          T                                        4812926
MTLF  008.34 328.2 m E Sn      2012/01/09 12:49:19.1   3.2                          T                2.8  .38 Ml 3.3         4812927
LASF  008.38 337.8 m E Pn      2012/01/09 12:47:48.5   1.4                          T                                        4812919
LASF  008.38 337.8 m E Sn      2012/01/09 12:49:19.1   2.3                          T                4.6  .40 Ml 3.5         4812928
ORIF  008.71 348.9 m E Pn      2012/01/09 12:47:51.3  -0.5                          T                                        4812924
ORIF  008.71 348.9 m E Sn      2012/01/09 12:49:26.1   1.3                          T               13.6  .77 Ml 3.8         4813056
VIVF  008.88 343.4 m E Pn      2012/01/09 12:47:53.0  -1.1                          T                                        4812925
VIVF  008.88 343.4 m E Sn      2012/01/09 12:49:31.1   2.1                          T                6.6  .46 Ml 3.7         4813065
EPF   009.00 319.9 m E Pn      2012/01/09 12:47:56.3   0.6                          T                                        4813601
EPF   009.00 319.9 m E P       2012/01/09 12:48:00.8  -0.6                          T                                        4812920
EPF   009.00 319.9 m E Sn      2012/01/09 12:49:35.3   3.6                          T                2.7  .39 Ml 3.4         4813064
ETSF  009.39 316.5 m E Pn      2012/01/09 12:48:02.5   1.4                          T                                        4812922
CAF   009.73 333.1 m E Pn      2012/01/09 12:48:06.8   1.2                          T                                        4812921
RJF   010.25 332.4 m E Pn      2012/01/09 12:48:13.0   0.3                          T                                        4813063
TCF   010.87 337.3 m E Pn      2012/01/09 12:48:22.0   0.8                          T                                        4813603
BGF   010.93 340.0 m E Pn      2012/01/09 12:48:22.3   0.4                          T                                        4813061
SSF   011.23 343.2 m E Pn      2012/01/09 12:48:26.6   0.5                          T                                        4813060
LOR   011.35 344.7 m E Pn      2012/01/09 12:48:28.2   0.5                          T                                        4813602
MBDF  008.40 352.9 m E Sn      2012/01/09 12:49:17.6  -0.1                          T               10.1  .66 Ml 3.7         4813057

.
EVENT     268352
    Date      Time       Latitude Longitude    Depth    Ndef Nsta Gap    Mag1  N    Mag2  N    Mag3  N   Author         ID
       rms   OT_Error      Smajor Sminor Az        Err   mdist  Mdist     Err        Err        Err      Quality

2012/01/09 17:01:09.5     44.7744   12.4814    100.0 f   107   25 048  Ml 3.3 23                         js067245    268372

      1.08   +-  0.11       3.3    2.4  149.71 +-  0.0    0.83   7.41   +-0.3                            m i ke

NORTHERN ITALY
Sta     Dist  EvAz     Phase      Date       Time     TRes  Azim  AzRes  Slow  SRes Def   SNR       Amp   Per   Mag1   Mag2       ID
PGF   003.37 229.8 m E Pn      2012/01/09 17:02:01.8   1.1                          T                                        4813107
PGF   003.37 229.8 m E Sn      2012/01/09 17:02:38.9   0.1                          T               11.2  .45 Ml 3.2         4813071
SBF   003.73 257.6 m E Pn      2012/01/09 17:02:05.8   0.3                          T                                        4813106
SBF   003.73 257.6 m E P       2012/01/09 17:02:09.1   2.5                          T                                        4813105
MBDF  004.07 271.3 m E Pn      2012/01/09 17:02:09.1  -0.9                          T                                        4813097
MBDF  004.07 271.3 m E Sn      2012/01/09 17:02:54.8  -0.2                          T               12.3  .43 Ml 3.1         4813627
LPG   004.12 282.1 m E Pn      2012/01/09 17:02:09.7  -1.1                          T                                        4813100
LPG   004.12 282.1 m E P       2012/01/09 17:02:14.2   2.1                          T                                        4813094
LPG   004.12 282.1 m E Sn      2012/01/09 17:02:56.2  -0.2                          T               10.2  .41 Ml 3.1         4813629
LPL   004.13 282.4 m E Pn      2012/01/09 17:02:11.0   0.0                          T                                        4813099
LPL   004.13 282.4 m E P       2012/01/09 17:02:13.7   1.5                          T                                        4813095
LPL   004.13 282.4 m E Sn      2012/01/09 17:02:56.9   0.3                          T               15.9  .42 Ml 3.3         4813628
FRF   004.37 255.9 m E Pn      2012/01/09 17:02:14.7   1.0                          T                                        4813103
FRF   004.37 255.9 m E P       2012/01/09 17:02:18.0   2.9                          T                                        4813102
FRF   004.37 255.9 m E Sn      2012/01/09 17:03:01.9   0.1                          T                5.5  .27 Ml 3.1         4813072
LMR   004.54 253.6 m E Pn      2012/01/09 17:02:16.3   0.3                          T                                        4813104
LMR   004.54 253.6 m E Sn      2012/01/09 17:03:04.9  -0.8                          T                6.4  .26 Ml 3.2         4813073
ORIF  004.70 274.1 m E Pn      2012/01/09 17:02:19.3   1.0                          T                                        4813098
ORIF  004.70 274.1 m E P       2012/01/09 17:02:21.8   2.1                          T                                        4813096
ORIF  004.70 274.1 m E Sn      2012/01/09 17:03:09.5   0.0                          T                 10  .37 Ml 3.2         4813110
CABF  004.84 294.5 m E Pn      2012/01/09 17:02:21.3   1.2                          T                                        4813086
CABF  004.84 294.5 m E Sn      2012/01/09 17:03:12.2  -0.7                          T                3.1  .35 Ml 3.0         4813136
HINF  004.95 310.0 m E Pn      2012/01/09 17:02:22.1   0.6                          T                                        4813085
HINF  004.95 310.0 m E Sn      2012/01/09 17:03:14.4  -0.9                          T                9.4  .33 Ml 3.3         4813077
SMRF  005.01 263.3 m E Pn      2012/01/09 17:02:22.6   0.1                          T                                        4813101
LANF  005.29 324.4 m E Pn      2012/01/09 17:02:25.2  -0.8                          T                                        4813082
HAU   005.33 309.5 m E Pn      2012/01/09 17:02:27.3   0.7                          T                                        4813084
HAU   005.33 309.5 m E Sn      2012/01/09 17:03:24.5   0.1                          T               30.9  .46 Ml 3.6         4813078
VIVF  005.56 273.6 m E Pn      2012/01/09 17:02:30.4   0.8                          T                                        4813093
VIVF  005.56 273.6 m E P       2012/01/09 17:02:33.8   2.5                          T                                        4813092
VIVF  005.56 273.6 m E Sn      2012/01/09 17:03:29.9   0.2                          T                4.2  .36 Ml 3.1         4813109
THEF  005.66 309.9 m E Pn      2012/01/09 17:02:30.5  -0.4                          T                                        4813083
THEF  005.66 309.9 m E Sn      2012/01/09 17:03:31.8  -0.1                          T                5.8  .33 Ml 3.3         4813135
LASF  006.22 266.6 m E Pn      2012/01/09 17:02:39.6   1.1                          T                                        4813137
SMF   006.33 290.2 m E Pn      2012/01/09 17:02:39.9  -0.1                          T                                        4813088
SMF   006.33 290.2 m E Sn      2012/01/09 17:03:48.0   0.1                          T                9.5  .38 Ml 3.8         4813076
LOR   006.50 295.6 m E Pn      2012/01/09 17:02:42.9   0.6 118.5  9.1               T                                        4813081
LOR   006.50 295.6 m E Sn      2012/01/09 17:03:53.0   1.1                          T               10.4  .33 Ml 3.8         4813080
AVF   006.69 290.7 m E Pn      2012/01/09 17:02:44.7  -0.1                          T                                        4813087
AVF   006.69 290.7 m E Sn      2012/01/09 17:03:56.6   0.3                          T                5.2  .60 Ml 3.1         4813130
SSF   006.67 293.2 m E Pn      2012/01/09 17:02:45.4   0.9                          T                                        4813132
SSF   006.67 293.2 m E Sn      2012/01/09 17:03:55.9   0.2                          T                2.3  .27 Ml 3.3         4813079
BGF   006.98 288.2 m E Pn      2012/01/09 17:02:49.9   1.2                          T                                        4813089
BGF   006.98 288.2 m E Sn      2012/01/09 17:04:04.1   0.9                          T                7.2  .35 Ml 3.6         4813075
CAF   007.41 274.8 m E Pn      2012/01/09 17:02:54.6   0.1                          T                                        4813091
PAGF  005.99 311.5 m E Sn      2012/01/09 17:03:39.8  -0.1                          T                3.8  .55 Ml 2.9         4813133
SFTF  006.18 306.4 m E Sn      2012/01/09 17:03:44.2   0.0                          T                6.9  .41 Ml 3.4         4813134
TCF   007.37 285.5 m E Sn      2012/01/09 17:04:12.5   0.1                          T                7.7  .48 Ml 3.6         4813626

.
EVENT     268354
    Date      Time       Latitude Longitude    Depth    Ndef Nsta Gap    Mag1  N    Mag2  N    Mag3  N   Author         ID
       rms   OT_Error      Smajor Sminor Az        Err   mdist  Mdist     Err        Err        Err      Quality

2012/01/09 18:03:12.9     47.4058   -1.5908      5.0 f    30   11 150  Ml 2.3 13  Md 2.4  3              js067245    268374

      1.10   +-  0.13       3.3    1.8   42.19 +-  0.0    1.07   3.43   +-0.1      +-0.0                 m i ke

FRANCE
Sta     Dist  EvAz     Phase      Date       Time     TRes  Azim  AzRes  Slow  SRes Def   SNR       Amp   Per   Mag1   Mag2       ID
SGMF  001.07 322.9 m E Pn      2012/01/09 18:03:32.8  -0.1                          T                                        4813149
SGMF  001.07 322.9 m E Pg      2012/01/09 18:03:33.6   0.6                          T                                        4813634
SGMF  001.07 322.9 m E Sg      2012/01/09 18:03:46.7  -0.2                          T                8.3  .24 Ml 2.4 Md 2.4  4813142
GRR   001.10 026.4 m E Pn      2012/01/09 18:03:33.7   0.3                          T                                        4813147
GRR   001.10 026.4 m E Pg      2012/01/09 18:03:34.1   0.6                          T                                        4813630
GRR   001.10 026.4 m E Sg      2012/01/09 18:03:47.6  -0.2                          T                5.1  .16 Ml 2.2 Md 2.3  4813144
QUIF  001.18 296.2 m E Pn      2012/01/09 18:03:34.5   0.1                          T                                        4813150
QUIF  001.18 296.2 m E Pg      2012/01/09 18:03:35.1   0.2                          T                                        4813633
QUIF  001.18 296.2 m E Sg      2012/01/09 18:03:50.0  -0.2                          T                5.5  .20 Ml 2.3 Md 2.4  4813143
MFF   001.27 128.6 m E Pg      2012/01/09 18:03:37.0   0.2                          T                                        4813146
MFF   001.27 128.6 m E Sg      2012/01/09 18:03:53.4   0.2                          T                3.8  .16 Ml 2.5         4813145
FLN   001.55 028.3 m E Pn      2012/01/09 18:03:38.2  -1.2 209.7  0.5               T                                        4813148
FLN   001.55 028.3 m E Pg      2012/01/09 18:03:41.3  -0.5 209.4  0.3               T                                        4813632
FLN   001.55 028.3 m E Sg      2012/01/09 18:04:01.3  -0.4                          T                3.6  .23 Ml 2.1         4813141
LDF   001.54 039.1 m E Pn      2012/01/09 18:03:39.6   0.2                          T                                        4813139
LDF   001.54 039.1 m E Pg      2012/01/09 18:03:41.3  -0.4                          T                                        4813631
LDF   001.54 039.1 m E Sg      2012/01/09 18:04:02.3   0.7                          T                2.9  .22 Ml 2.1         4813140
TCF   002.84 111.8 m E Pg      2012/01/09 18:04:05.4  -0.2                          T                                        4813174
TCF   002.84 111.8 m E Sn      2012/01/09 18:04:32.0   2.5                          T                                        4813165
TCF   002.84 111.8 m E Sg      2012/01/09 18:04:41.9  -0.2                          T                2.1  .34 Ml 2.2         4813175
RJF   003.01 133.2 m E Pg      2012/01/09 18:04:08.3  -0.4                          T                                        4813170
RJF   003.01 133.2 m E Sg      2012/01/09 18:04:47.6   0.3                          T                2.8  .22 Ml 2.2         4813171
BGF   003.15 104.0 m E Pg      2012/01/09 18:04:11.3  -0.1                          T                                        4813168
LFF   002.95 145.9 m E Sn      2012/01/09 18:04:31.8  -0.4                          T                                        4813166
LFF   002.95 145.9 m E Sg      2012/01/09 18:04:45.5   0.0                          T                5.8  .27 Ml 2.6         4813167
AVF   003.43 098.5 m E Sg      2012/01/09 18:05:01.0   0.5                          T                1.2  .29 Ml 2.1         4813173

.
