EVENT     265742
    Date      Time       Latitude Longitude    Depth    Ndef Nsta Gap    Mag1  N    Mag2  N    Mag3  N   Author         ID
       rms   OT_Error      Smajor Sminor Az        Err   mdist  Mdist     Err        Err        Err      Quality

2011/10/29 04:13:35.8     45.6136   10.9120     10.0 f   128   44 090  Ml 4.4 31                         js067245    265762

      1.03   +-  0.16       3.2    2.6   79.48 +-  0.0    0.25  10.07   +-0.3                            m i ke

NORTHERN ITALY
Sta     Dist  EvAz     Phase      Date       Time     TRes  Azim  AzRes  Slow  SRes Def   SNR       Amp   Per   Mag1   Mag2       ID
LPG   002.93 269.2 m E Pn      2011/10/29 04:14:19.7  -1.1                          T   001.0                                4779363
LPG   002.93 269.2 m E P       2011/10/29 04:14:23.8   0.0                          T                                        4779577
LPG   002.93 269.2 m E Sg      2011/10/29 04:15:06.4  -1.6                          T                                        4779635
LPL   002.94 269.6 m E Pn      2011/10/29 04:14:20.1  -0.8                          T   001.0                                4779364
MBDF  003.06 254.6 m E Pn      2011/10/29 04:14:21.5  -1.1                          T   001.0                                4779381
SBF   003.03 236.0 m E Pn      2011/10/29 04:14:22.7   0.7                          T   001.0                                4779367
SBF   003.03 236.0 m E Pg      2011/10/29 04:14:31.7  -0.4                          T                                        4779568
SBF   003.03 236.0 m E Sn      2011/10/29 04:14:55.0  -0.3                          T   001.0     1043.6  .54 Ml 4.7         4779368
PGF   003.36 204.9 m E Pn      2011/10/29 04:14:27.1   0.5                          T   001.0                                4779366
PGF   003.36 204.9 m E Sn      2011/10/29 04:15:04.7   0.6                          T              397.6  .54 Ml 4.6         4779634
CABF  003.50 288.3 m E Pn      2011/10/29 04:14:28.7   0.2                          T   001.0                                4779376
CABF  003.50 288.3 m E Sn      2011/10/29 04:15:08.4   1.0                          T             1118.0 1.04 Ml 4.6         4779644
CABF  003.50 288.3 m E Sg      2011/10/29 04:15:23.6  -2.0                          T                                        4779640
HINF  003.56 309.7 m E Pn      2011/10/29 04:14:29.0  -0.2                          T   001.0                                4779379
HINF  003.56 309.7 m E P       2011/10/29 04:14:32.0  -0.5                          T                                        4779750
HINF  003.56 309.7 m E Sn      2011/10/29 04:15:08.1  -0.6                          T   001.0      832.2  .66 Ml 4.7         4779380
FRF   003.67 237.5 m E Pn      2011/10/29 04:14:31.0   0.3                          T   001.0                                4779352
FRF   003.67 237.5 m E Pg      2011/10/29 04:14:42.7  -1.1                          T                                        4779569
ORIF  003.62 260.7 m E Pn      2011/10/29 04:14:31.5   1.4                          T   001.0                                4779386
ORIF  003.62 260.7 m E P       2011/10/29 04:14:33.0  -0.4                          T                                        4779576
ORIF  003.62 260.7 m E Pg      2011/10/29 04:14:41.6  -1.3                          T                                        4779575
ORIF  003.62 260.7 m E Sn      2011/10/29 04:15:08.6  -1.7                          T   001.0      444.1  .62 Ml 4.4         4779387
CDF   003.74 319.7 m E Pn      2011/10/29 04:14:31.8   0.0                          T   001.0                                4779348
CDF   003.74 319.7 m E P       2011/10/29 04:14:34.6  -0.6                          T                                        4779573
CDF   003.74 319.7 m E Sn      2011/10/29 04:15:12.8  -0.5                          T   001.0      633.6  .61 Ml 4.7         4779349
LMR   003.89 235.7 m E Pn      2011/10/29 04:14:33.8   0.2                          T   001.0                                4779360
HAU   003.94 309.0 m E Pn      2011/10/29 04:14:34.5   0.1                          T   001.0                                4779354
HAU   003.94 309.0 m E P       2011/10/29 04:14:37.9   0.0                          T                                        4779571
HAU   003.94 309.0 m E Sn      2011/10/29 04:15:18.6   0.7                          T   001.0      589.7  .53 Ml 4.5         4779355
HAU   003.94 309.0 m E Sg      2011/10/29 04:15:38.7  -0.7                          T                                        4779641
LANF  003.98 329.0 m E Pn      2011/10/29 04:14:35.1   0.2                          T                                        4779584
LANF  003.98 329.0 m E Sn      2011/10/29 04:15:19.4   0.6                          T              760.0  .65 Ml 4.7         4779630
SMRF  004.14 248.6 m E Pn      2011/10/29 04:14:37.3   0.2                          T   001.0                                4779394
SMRF  004.14 248.6 m E P       2011/10/29 04:14:39.9  -0.8                          T                                        4779636
THEF  004.27 309.6 m E Pn      2011/10/29 04:14:39.2   0.4                          T                                        4779582
THEF  004.27 309.6 m E P       2011/10/29 04:14:42.5   0.0                          T                                        4779752
THEF  004.27 309.6 m E Sn      2011/10/29 04:15:25.6   0.0                          T                                        4779643
THEF  004.27 309.6 m E Sg      2011/10/29 04:15:50.0   0.6                          T              588.1  .73 Ml 4.6         4779631
VIVF  004.47 262.5 m E Pn      2011/10/29 04:14:41.7   0.1                          T   001.0                                4779392
VIVF  004.47 262.5 m E Sn      2011/10/29 04:15:30.2  -0.4                          T   001.0       52.8  .38 Ml 3.9         4779393
PAGF  004.61 311.6 m E Pn      2011/10/29 04:14:43.9   0.6 121.8  -6.0              T                                        4779583
SFTF  004.79 304.9 m E Pn      2011/10/29 04:14:46.1   0.3 128.6  7.9               T                                        4779585
SFTF  004.79 304.9 m E P       2011/10/29 04:14:49.5  -0.4                          T                                        4779751
RUP   004.85 328.9 m E Pn      2011/10/29 04:14:47.7   1.0                          T                                        4779578
RUP   004.85 328.9 m E Pg      2011/10/29 04:15:04.2  -1.3                          T                                        4779574
RUP   004.85 328.9 m E Sn      2011/10/29 04:15:44.8   5.2                          T                                        4779629
RUP   004.85 328.9 m E Sg      2011/10/29 04:16:06.9  -0.7                          T                                        4779628
MEZF  004.94 307.9 m E Pn      2011/10/29 04:14:48.7   0.8 132.8  9.2               T   001.0                                4779382
MEZF  004.94 307.9 m E P       2011/10/29 04:14:51.9  -0.1                          T                                        4779572
MEZF  004.94 307.9 m E Sn      2011/10/29 04:15:41.7   0.0                          T   001.0      111.7  .49 Ml 4.2         4779383
MEZF  004.94 307.9 m E Sg      2011/10/29 04:16:05.3  -5.1                          T   001.0      265.7  .57 Ml 4.5         4779384
SMF   005.02 284.4 m E Pn      2011/10/29 04:14:49.1   0.0                          T   001.0                                4779369
SMF   005.02 284.4 m E P       2011/10/29 04:14:53.0  -0.3                          T                                        4779570
SMF   005.02 284.4 m E Sn      2011/10/29 04:15:43.6  -0.1                          T   001.0      237.8  .42 Ml 4.6         4779370
LOR   005.15 291.3 m E Pn      2011/10/29 04:14:50.7  -0.1 115.1  8.9               T   001.0                                4779361
LOR   005.15 291.3 m E Sn      2011/10/29 04:15:46.6  -0.2 117.1  11.0              T   001.0      127.9  .28 Ml 4.6         4779362
LASF  005.25 255.5 m E Pn      2011/10/29 04:14:51.5  -0.7                          T   001.0                                4779356
LASF  005.25 255.5 m E Sn      2011/10/29 04:15:48.7  -0.4                          T   001.0       67.9  .38 Ml 4.2         4779357
SSF   005.33 288.4 m E Pn      2011/10/29 04:14:53.2   0.0                          T   001.0                                4779371
SSF   005.33 288.4 m E Sn      2011/10/29 04:15:51.7   0.6                          T                                        4779642
AVF   005.38 285.3 m E Pn      2011/10/29 04:14:54.0   0.1                          T   001.0                                4779344
AVF   005.38 285.3 m E Sn      2011/10/29 04:15:52.7   0.5                          T               70.4  .61 Ml 4.0         4779639
BGF   005.69 282.4 m E Pn      2011/10/29 04:14:58.0  -0.2                          T   001.0                                4779345
BGF   005.69 282.4 m E Sn      2011/10/29 04:15:59.4  -0.2                          T   001.0      211.8  .44 Ml 4.7         4779346
HYF   005.95 289.1 m E Pn      2011/10/29 04:15:02.0   0.3                          T                                        4779581
HYF   005.95 289.1 m E P       2011/10/29 04:15:07.0   0.7                          T                                        4779638
HYF   005.95 289.1 m E Sn      2011/10/29 04:16:05.9   0.0                          T                                        4779645
TCF   006.11 279.4 m E Pn      2011/10/29 04:15:03.7  -0.1                          T   001.0                                4779372
TCF   006.11 279.4 m E Sn      2011/10/29 04:16:09.8   0.2                          T   001.0       64.7  .34 Ml 4.4         4779373
GIVF  006.08 319.8 m E Pn      2011/10/29 04:15:05.3   1.9                          T   001.0                                4779377
GIVF  006.08 319.8 m E Sn      2011/10/29 04:16:07.3  -1.6                          T   001.0      162.0  .70 Ml 4.5         4779378
CAF   006.28 266.9 m E Pn      2011/10/29 04:15:06.3   0.1                          T   001.0                                4779347
BAIF  006.33 317.0 m E Pn      2011/10/29 04:15:07.4   0.5                          T   001.0                                4779374
BAIF  006.33 317.0 m E Sn      2011/10/29 04:16:14.3  -0.7                          T   001.0       89.5  .64 Ml 4.3         4779375
MTLF  006.62 253.0 m E Pn      2011/10/29 04:15:10.4  -0.4                          T   001.0                                4779385
MTLF  006.62 253.0 m E Sn      2011/10/29 04:16:23.6   1.7                          T               22.3  .62 Ml 3.7         4779650
RJF   006.62 270.7 m E Pn      2011/10/29 04:15:11.5   0.7                          T   001.0                                4779343
LFF   007.21 268.3 m E Pn      2011/10/29 04:15:20.0   1.2                          T   001.0                                4779359
MFF   007.75 281.3 m E Pn      2011/10/29 04:15:25.6  -0.5                          T   001.0                                4779365
MFF   007.75 281.3 m E Sn      2011/10/29 04:16:49.1   0.3                          T               42.0  .68 Ml 4.3         4779649
LDF   008.10 295.6 m E Pn      2011/10/29 04:15:30.7  -0.2                          T   001.0                                4779358
LDF   008.10 295.6 m E Sg      2011/10/29 04:17:51.9   2.9                          T                                        4779632
EPF   008.01 254.9 m E Pn      2011/10/29 04:15:32.2   2.4                          T   001.0                                4779350
FLN   008.38 296.2 m E Pn      2011/10/29 04:15:34.4  -0.3 116.1  8.3               T   001.0                                4779351
GRR   008.51 293.2 m E Pn      2011/10/29 04:15:36.0  -0.5                          T   001.0                                4779353
GRR   008.51 293.2 m E P       2011/10/29 04:15:41.3  -0.8                          T                                        4779637
GRR   008.51 293.2 m E Sn      2011/10/29 04:17:07.7   0.7                          T               14.0  .28 Ml 4.1         4779633
ETSF  008.67 255.8 m E Pn      2011/10/29 04:15:39.6   0.8                          T                                        4779579
SJPF  009.05 258.3 m E Pn      2011/10/29 04:15:42.2  -1.7                          T   001.0                                4779391
SGMF  009.59 290.8 m E Pn      2011/10/29 04:15:50.9  -0.2                          T   001.0                                4779390
SGMF  009.59 290.8 m E Sn      2011/10/29 04:17:33.3   0.5                          T               17.8  .40 Ml 4.3         4779647
QUIF  009.93 288.5 m E Pn      2011/10/29 04:15:54.4  -1.5                          T   001.0                                4779388
QUIF  009.93 288.5 m E Sn      2011/10/29 04:17:41.7   0.7                          T               32.5  .61 Ml 4.4         4779648
ROSF  010.07 290.8 m E Pn      2011/10/29 04:15:57.2  -0.6                          T   001.0                                4779389
ROSF  010.07 290.8 m E Sn      2011/10/29 04:17:45.0   0.6                          T               22.4  .55 Ml 4.3         4779646

.
EVENT     265743
    Date      Time       Latitude Longitude    Depth    Ndef Nsta Gap    Mag1  N    Mag2  N    Mag3  N   Author         ID
       rms   OT_Error      Smajor Sminor Az        Err   mdist  Mdist     Err        Err        Err      Quality

2011/10/29 08:00:30.9     42.9161     .1454      2.0       6    3 216  Ml 1.2  1  Md 1.2  2              js067245    265763

      0.24   +-  0.38      16.7    2.4  163.40 +-  0.0    0.18   1.02   +-         +-0.3                 m i ke

PYRENEES
Sta     Dist  EvAz     Phase      Date       Time     TRes  Azim  AzRes  Slow  SRes Def   SNR       Amp   Per   Mag1   Mag2       ID
EPF   000.18 051.3 m E Pg      2011/10/29 08:00:34.8   0.2                          T                                        4779753
EPF   000.18 051.3 m E Sg      2011/10/29 08:00:36.7  -0.5                          T                4.9  .28        Md 1.4  4779754
ETSF  000.52 268.3 m E Pg      2011/10/29 08:00:40.6  -0.2                          T                                        4779756
ETSF  000.52 268.3 m E Sg      2011/10/29 08:00:48.0   0.4                          T                3.7  .38        Md 1.1  4779755
SJPF  001.02 281.6 m E Pg      2011/10/29 08:00:50.1   0.0                          T                                        4780447
SJPF  001.02 281.6 m E Sg      2011/10/29 08:01:03.3   0.0                          T                 .7  .27 Ml 1.2         4780448

.
EVENT     265744
    Date      Time       Latitude Longitude    Depth    Ndef Nsta Gap    Mag1  N    Mag2  N    Mag3  N   Author         ID
       rms   OT_Error      Smajor Sminor Az        Err   mdist  Mdist     Err        Err        Err      Quality

2011/10/29 08:09:16.3     45.7356   10.9348      5.0 f    20    7 128  Ml 2.8  2                         js067245    265764

      0.28   +-  0.13       2.7    2.1  142.86 +-  0.0    0.28   5.12   +-0.3                            m i ke

NORTHERN ITALY
Sta     Dist  EvAz     Phase      Date       Time     TRes  Azim  AzRes  Slow  SRes Def   SNR       Amp   Per   Mag1   Mag2       ID
LPG   002.95 266.9 m E Pn      2011/10/29 08:10:02.8   0.5                          T                                        4777678
LPG   002.95 266.9 m E P       2011/10/29 08:10:05.2   0.1                          T                                        4779757
LPG   002.95 266.9 m E Sn      2011/10/29 08:10:35.7  -0.1                          T                                        4779759
LPG   002.95 266.9 m E Sg      2011/10/29 08:10:49.0  -0.2                          T                                        4777672
LPL   002.96 267.2 m E Pn      2011/10/29 08:10:03.4   1.1                          T                                        4777679
LPL   002.96 267.2 m E Sg      2011/10/29 08:10:49.2  -0.2                          T                                        4777673
MBDF  003.11 252.6 m E Pn      2011/10/29 08:10:03.5  -0.8                          T                                        4777677
CABF  003.48 286.3 m E Pn      2011/10/29 08:10:10.5   1.3                          T                                        4777675
ORIF  003.66 258.9 m E Pn      2011/10/29 08:10:11.0  -0.7                          T                                        4777680
ORIF  003.66 258.9 m E P       2011/10/29 08:10:14.7  -0.3                          T                                        4779758
CDF   003.66 318.3 m E P       2011/10/29 08:10:15.0  -0.1                          T                                        4777674
VIVF  004.51 261.0 m E Pn      2011/10/29 08:10:22.7  -0.5                          T                                        4777676

.
EVENT     265795
    Date      Time       Latitude Longitude    Depth    Ndef Nsta Gap    Mag1  N    Mag2  N    Mag3  N   Author         ID
       rms   OT_Error      Smajor Sminor Az        Err   mdist  Mdist     Err        Err        Err      Quality

2011/10/29 13:54:51.4     43.0656    -.3763      2.0       6    3 178             Md 1.0  2              js067245    265815

      0.30   +-  0.16       5.9    2.5  174.11 +-  0.0    0.21   0.62              +-0.2                 m i ke

PYRENEES
Sta     Dist  EvAz     Phase      Date       Time     TRes  Azim  AzRes  Slow  SRes Def   SNR       Amp   Per   Mag1   Mag2       ID
ETSF  000.21 218.9 m E Pg      2011/10/29 13:54:55.7   0.0                          T                                        4779771
ETSF  000.21 218.9 m E Sg      2011/10/29 13:54:58.7   0.0                          T                3.5  .18        Md 1.2  4779770
EPF   000.53 093.6 m E Pg      2011/10/29 13:55:01.6   0.1                          T                                        4779766
EPF   000.53 093.6 m E Sg      2011/10/29 13:55:07.7  -0.7                          T                1.2  .22        Md  .8  4779767
SJPF  000.62 274.7 m E Pg      2011/10/29 13:55:03.3   0.1                          T                                        4779768
SJPF  000.62 274.7 m E Sg      2011/10/29 13:55:10.8  -0.6                          T                 .6  .19                4779769

.
