EVENT     270617
    Date      Time       Latitude Longitude    Depth    Ndef Nsta Gap    Mag1  N    Mag2  N    Mag3  N   Author         ID
       rms   OT_Error      Smajor Sminor Az        Err   mdist  Mdist     Err        Err        Err      Quality

2012/02/23 15:50:42.0     43.8180    7.5831       .0 f    17    5 167  Ml 1.9  3  Md 2.2  1              js067245    270638

      0.29   +-  0.07       1.6    1.1  152.24 +-  0.0    0.09   1.46   +-0.4      +-                    m i km

NEAR SOUTH COAST OF FRANCE
Sta     Dist  EvAz     Phase      Date       Time     TRes  Azim  AzRes  Slow  SRes Def   SNR       Amp   Per   Mag1   Mag2       ID
SBF   000.12 292.9 m E Pg      2012/02/23 15:50:45.1   0.3                          T                                        4846162
SBF   000.12 292.9 m E Sg      2012/02/23 15:50:46.6  -0.1                          T              100.9  .20        Md 2.2  4846163
FRF   000.73 249.6 m E Pg      2012/02/23 15:50:55.8  -0.1                          T                                        4846194
FRF   000.73 249.6 m E Pn      2012/02/23 15:50:58.1   0.0                          T                                        4846195
FRF   000.73 249.6 m E Sg      2012/02/23 15:51:06.5   0.9                          T                                        4846199
FRF   000.73 249.6 m E Sn      2012/02/23 15:51:09.7   0.2                          T                4.2  .26                4846200
LMR   000.92 238.6 m E Pg      2012/02/23 15:50:59.4   0.0                          T                                        4846192
LMR   000.92 238.6 m E Pn      2012/02/23 15:51:00.7   0.0                          T                                        4846193
LMR   000.92 238.6 m E Sg      2012/02/23 15:51:11.4  -0.2                          T                                        4846197
LMR   000.92 238.6 m E Sn      2012/02/23 15:51:13.8  -0.2                          T                3.8  .22 Ml 2.0         4846198
MBDF  001.08 327.6 m E Pg      2012/02/23 15:51:02.6   0.0                          T                                        4846196
MBDF  001.08 327.6 m E Sg      2012/02/23 15:51:16.9   0.0                          T                 .7  .22 Ml 1.4         4846202
SMRF  001.46 276.9 m E Sg      2012/02/23 15:51:28.4  -0.1                          T                3.4  .24 Ml 2.2         4846201

.
EVENT     270640
    Date      Time       Latitude Longitude    Depth    Ndef Nsta Gap    Mag1  N    Mag2  N    Mag3  N   Author         ID
       rms   OT_Error      Smajor Sminor Az        Err   mdist  Mdist     Err        Err        Err      Quality

2012/02/23 18:18:34.6     44.7843    6.7619      8.0 f    32    8 076  Ml 1.5  4  Md 1.7  1              js067245    270661

      0.24   +-  0.05       1.0     .8   76.92 +-  0.0    0.06   1.46   +-0.2      +-                    m i ke

FRANCE
Sta     Dist  EvAz     Phase      Date       Time     TRes  Azim  AzRes  Slow  SRes Def   SNR       Amp   Per   Mag1   Mag2       ID
MBDF  000.06 173.3 m E Pg      2012/02/23 18:18:37.1   0.2                          T                                        4847029
MBDF  000.06 173.3 m E Sg      2012/02/23 18:18:38.2  -0.1                          T               18.7  .16        Md 1.7  4847030
ORIF  000.64 282.4 m E Pg      2012/02/23 18:18:47.3   0.3                          T                                        4847028
ORIF  000.64 282.4 m E Sg      2012/02/23 18:18:55.4   0.1                          T                3.6  .27                4847023
LPG   000.71 359.4 m E Pg      2012/02/23 18:18:48.6   0.1                          T                                        4847027
LPG   000.71 359.4 m E Sg      2012/02/23 18:18:57.7  -0.1                          T                 .9  .21                4847021
LPL   000.73 358.4 m E Pg      2012/02/23 18:18:48.8   0.0                          T                                        4847026
LPL   000.73 358.4 m E Sg      2012/02/23 18:18:58.3  -0.1                          T                 .9  .27                4847022
SBF   001.04 152.1 m E Pg      2012/02/23 18:18:54.2  -0.1                          T                                        4847024
SBF   001.04 152.1 m E Sg      2012/02/23 18:19:07.6  -0.1                          T                 .7  .21 Ml 1.4         4847017
FRF   001.23 183.9 m E Pg      2012/02/23 18:18:57.4  -0.1                          T                                        4847025
FRF   001.23 183.9 m E Sg      2012/02/23 18:19:13.4  -0.1                          T                1.4  .23 Ml 1.7         4847019
SMRF  001.17 226.9 m E Sg      2012/02/23 18:19:12.0   0.1                          T                 .8  .31 Ml 1.3         4847020
LMR   001.46 187.2 m E Sg      2012/02/23 18:19:20.9   0.1                          T                 .6  .23 Ml 1.5         4847018

.
EVENT     270642
    Date      Time       Latitude Longitude    Depth    Ndef Nsta Gap    Mag1  N    Mag2  N    Mag3  N   Author         ID
       rms   OT_Error      Smajor Sminor Az        Err   mdist  Mdist     Err        Err        Err      Quality

2012/02/23 19:26:06.2     44.5457    7.3230     16.0 f    22    5 137  Ml 1.0  3  Md 1.4  1              js067245    270663

      0.23   +-  0.06       1.5     .9   70.25 +-  0.0    0.07   1.38   +-0.2      +-                    m i ke

NORTHERN ITALY
Sta     Dist  EvAz     Phase      Date       Time     TRes  Azim  AzRes  Slow  SRes Def   SNR       Amp   Per   Mag1   Mag2       ID
MBDF  000.43 294.9 m E Pg      2012/02/23 19:26:15.0  -0.2                          T                                        4847040
MBDF  000.43 294.9 m E Sg      2012/02/23 19:26:21.2   0.0                          T                2.0  .24        Md 1.4  4847041
SBF   000.69 173.2 m E Pg      2012/02/23 19:26:19.6   0.0                          T                                        4847036
SBF   000.69 173.2 m E Sg      2012/02/23 19:26:28.7   0.0                          T                 .4  .13                4847035
LPL   001.06 336.9 m E Pg      2012/02/23 19:26:26.5   0.0                          T                                        4847039
LPL   001.06 336.9 m E Sg      2012/02/23 19:26:40.4   0.1                          T                 .5  .28 Ml 1.1         4847032
FRF   001.10 206.6 m E Pg      2012/02/23 19:26:27.2   0.2                          T                                        4847037
FRF   001.10 206.6 m E Sg      2012/02/23 19:26:41.3   0.0                          T                 .2  .19 Ml  .8         4847034
SMRF  001.38 246.2 m E Pg      2012/02/23 19:26:32.2   0.0                          T                                        4847038
SMRF  001.38 246.2 m E Sg      2012/02/23 19:26:50.0   0.0                          T                 .3  .20 Ml 1.2         4847033

.
EVENT     270618
    Date      Time       Latitude Longitude    Depth    Ndef Nsta Gap    Mag1  N    Mag2  N    Mag3  N   Author         ID
       rms   OT_Error      Smajor Sminor Az        Err   mdist  Mdist     Err        Err        Err      Quality

2012/02/23 19:45:56.4     44.2132   10.1214      2.0      55   19 101  Ml 2.6  9                         js067245    270639

      0.28   +-  0.05       1.3     .9   26.32 +-  0.0    0.20   6.06   +-0.3                            m i ke

NORTHERN ITALY
Sta     Dist  EvAz     Phase      Date       Time     TRes  Azim  AzRes  Slow  SRes Def   SNR       Amp   Per   Mag1   Mag2       ID
PGF   001.85 206.6 m E Pn      2012/02/23 19:46:27.7   0.1                          T                                        4847055
PGF   001.85 206.6 m E Sn      2012/02/23 19:46:50.4   0.2                          T                5.4  .24 Ml 2.8         4847054
SBF   001.97 260.7 m E Pn      2012/02/23 19:46:29.4   0.3                          T                                        4847057
SBF   001.97 260.7 m E Pg      2012/02/23 19:46:33.3   0.2                          T                                        4847056
SBF   001.97 260.7 m E Sn      2012/02/23 19:46:52.8  -0.1                          T               15.2  .24 Ml 3.0         4847053
MBDF  002.45 283.3 m E Pn      2012/02/23 19:46:35.6  -0.3                          T                                        4847068
MBDF  002.45 283.3 m E P       2012/02/23 19:46:38.5   0.2                          T                                        4847067
MBDF  002.45 283.3 m E Pg      2012/02/23 19:46:42.3   0.1                          T                                        4847069
MBDF  002.45 283.3 m E Sn      2012/02/23 19:47:04.7   0.1                          T                                        4847046
MBDF  002.45 283.3 m E Sg      2012/02/23 19:47:14.1   0.4                          T                6.5  .35 Ml 2.6         4847047
FRF   002.60 256.7 m E Pn      2012/02/23 19:46:37.9   0.4                          T                                        4847060
FRF   002.60 256.7 m E P       2012/02/23 19:46:40.3   0.1                          T                                        4847059
FRF   002.60 256.7 m E Sn      2012/02/23 19:47:07.9   0.1                          T                8.6  .27 Ml 2.9         4847051
LMR   002.76 252.7 m E Pn      2012/02/23 19:46:39.9   0.1                          T                                        4847058
LMR   002.76 252.7 m E Sn      2012/02/23 19:47:11.5  -0.3                          T                6.9  .28 Ml 2.8         4847052
LPG   002.72 299.4 m E P       2012/02/23 19:46:42.3   0.0                          T                                        4847064
LPG   002.72 299.4 m E Pg      2012/02/23 19:46:47.1  -0.2                          T                                        4847065
LPG   002.72 299.4 m E Sn      2012/02/23 19:47:11.3   0.2                          T                                        4847048
LPG   002.72 299.4 m E Sg      2012/02/23 19:47:22.1  -0.1                          T                1.9  .27 Ml 2.2         4847049
SMRF  003.28 267.4 m E Pn      2012/02/23 19:46:46.6  -0.4                          T                                        4847062
SMRF  003.28 267.4 m E P       2012/02/23 19:46:49.8  -0.3                          T                                        4847061
SMRF  003.28 267.4 m E Pg      2012/02/23 19:46:56.9  -0.4                          T                                        4847063
SMRF  003.28 267.4 m E Sn      2012/02/23 19:47:24.8   0.4                          T                1.3  .28 Ml 2.1         4847050
ORIF  003.11 284.6 m E P       2012/02/23 19:46:47.5  -0.2                          T                                        4847066
CABF  003.72 311.6 m E P       2012/02/23 19:46:56.8   0.5                          T                                        4847074
HINF  004.26 328.9 m E P       2012/02/23 19:47:03.9  -0.1                          T                                        4847075
HINF  004.26 328.9 m E Sn      2012/02/23 19:47:48.0   0.3                          T                1.7  .36 Ml 2.4         4847044
HAU   004.61 326.7 m E Pn      2012/02/23 19:47:05.3   0.3                          T                                        4847077
HAU   004.61 326.7 m E P       2012/02/23 19:47:08.9   0.0                          T                                        4847076
CDF   004.64 335.9 m E P       2012/02/23 19:47:09.1  -0.3                          T                                        4847080
LPL   002.74 299.6 m E Sn      2012/02/23 19:47:11.8   0.3                          T                3.6  .36 Ml 2.4         4847045
THEF  004.93 326.0 m E P       2012/02/23 19:47:13.3  -0.2                          T                                        4847078
SMF   005.05 301.0 m E P       2012/02/23 19:47:14.4  -0.7                          T                                        4847072
PAGF  005.30 326.5 m E P       2012/02/23 19:47:18.5  -0.1                          T                                        4847079
AVF   005.41 300.8 m E P       2012/02/23 19:47:19.5  -0.7                          T                                        4847073
BGF   005.63 297.1 m E P       2012/02/23 19:47:23.4   0.0                          T                                        4847070
HYF   006.06 302.9 m E P       2012/02/23 19:47:29.6   0.3                          T                                        4847071

.
EVENT     270619
    Date      Time       Latitude Longitude    Depth    Ndef Nsta Gap    Mag1  N    Mag2  N    Mag3  N   Author         ID
       rms   OT_Error      Smajor Sminor Az        Err   mdist  Mdist     Err        Err        Err      Quality

2012/02/23 23:10:34.0     43.7100   10.4331      2.0      30    7 175  Ml 2.2  5                         js067245    270640

      0.81   +-  0.15       3.0    1.8  124.59 +-  0.0    0.21   3.52   +-0.1                            m i ke

CENTRAL ITALY
Sta     Dist  EvAz     Phase      Date       Time     TRes  Azim  AzRes  Slow  SRes Def   SNR       Amp   Per   Mag1   Mag2       ID
PGF   001.57 222.6 m E Pn      2012/02/23 23:11:01.6   0.4                          T                                        4847088
PGF   001.57 222.6 m E Sn      2012/02/23 23:11:20.9   0.0                          T                2.8  .31 Ml 2.3         4847087
SBF   002.18 275.1 m E Pn      2012/02/23 23:11:09.6   0.0                          T                                        4847089
SBF   002.18 275.1 m E Sn      2012/02/23 23:11:35.9   0.4                          T                2.1  .29 Ml 2.1         4847086
FRF   002.75 268.2 m E Pn      2012/02/23 23:11:17.2  -0.1                          T                                        4847091
FRF   002.75 268.2 m E Sn      2012/02/23 23:11:49.6   0.5                          T                2.1  .27 Ml 2.3         4847084
MBDF  002.82 292.4 m E Pn      2012/02/23 23:11:18.7   0.3                          T                                        4847094
LMR   002.88 263.8 m E Pn      2012/02/23 23:11:18.7  -0.3                          T                                        4847090
LMR   002.88 263.8 m E Sn      2012/02/23 23:11:52.4   0.2                          T                1.2  .30 Ml 2.0         4847085
SMRF  003.52 276.0 m E Pn      2012/02/23 23:11:29.2   1.3                          T                                        4847092
ORIF  003.48 291.9 m E P       2012/02/23 23:11:29.9  -0.7                          T                                        4847093

.
