EVENT     256359
    Date      Time       Latitude Longitude    Depth    Ndef Nsta Gap    Mag1  N    Mag2  N    Mag3  N   Author         ID
       rms   OT_Error      Smajor Sminor Az        Err   mdist  Mdist     Err        Err        Err      Quality

2011/02/23 23:53:04.6     43.0841    -.3168      2.0      35    8 082  Ml 2.1  5  Md 2.1  3              js067245    256379

      0.35   +-  0.05       1.1     .8  156.97 +-  0.0    0.26   3.52   +-0.1      +-0.0                 m i ke

PYRENEES
Sta     Dist  EvAz     Phase      Date       Time     TRes  Azim  AzRes  Slow  SRes Def   SNR       Amp   Per   Mag1   Mag2       ID
ETSF  000.26 223.9 m E Pg      2011/02/23 23:53:09.4  -0.4                          T                                        4653799
ETSF  000.26 223.9 m E Sg      2011/02/23 23:53:12.8  -0.4                          T               47.1  .22        Md 2.1  4653794
EPF   000.48 096.1 m E Pg      2011/02/23 23:53:13.8  -0.1                          T                                        4653798
EPF   000.48 096.1 m E Sg      2011/02/23 23:53:20.0  -0.3                          T               11.4  .20        Md 2.1  4653795
SJPF  000.67 272.8 m E Pg      2011/02/23 23:53:17.0  -0.2                          T                                        4653797
SJPF  000.67 272.8 m E Sg      2011/02/23 23:53:25.9  -0.1                          T                3.4  .27        Md 2.1  4653796
MTLF  001.87 081.2 m E Pg      2011/02/23 23:53:39.2  -0.3                          T                                        4653790
MTLF  001.87 081.2 m E Sg      2011/02/23 23:54:03.4  -0.1                          T                2.3  .31 Ml 2.0         4653789
LFF   002.01 022.0 m E Pg      2011/02/23 23:53:42.1   0.2                          T                                        4653792
LFF   002.01 022.0 m E Sg      2011/02/23 23:54:08.1   0.4                          T                3.0  .21 Ml 2.2         4653787
CAF   002.52 042.2 m E Pg      2011/02/23 23:53:51.3  -0.1                          T                                        4653793
CAF   002.52 042.2 m E Sg      2011/02/23 23:54:23.7  -0.1                          T                2.0  .21 Ml 2.3         4653788
RJF   002.58 030.1 m E Pg      2011/02/23 23:53:52.3  -0.2                          T                                        4653791
RJF   002.58 030.1 m E Sg      2011/02/23 23:54:26.0   0.3                          T                3.9  .35 Ml 2.0         4653786
MFF   003.52 001.9 m E Pg      2011/02/23 23:54:10.0   0.3                          T                                        4653784
MFF   003.52 001.9 m E Sg      2011/02/23 23:54:55.4   0.4                          T                 .5  .23 Ml 2.1         4653785

.
EVENT     256361
    Date      Time       Latitude Longitude    Depth    Ndef Nsta Gap    Mag1  N    Mag2  N    Mag3  N   Author         ID
       rms   OT_Error      Smajor Sminor Az        Err   mdist  Mdist     Err        Err        Err      Quality

2011/02/24 03:29:08.7     44.6043    7.1813      2.0      14    7 184  Ml 1.5  5  Md 1.6  1              js067245    256381

      0.22   +-  0.09       2.3     .9   76.43 +-  0.0    0.32   1.36   +-0.2      +-                    m i ke

NORTHERN ITALY
Sta     Dist  EvAz     Phase      Date       Time     TRes  Azim  AzRes  Slow  SRes Def   SNR       Amp   Per   Mag1   Mag2       ID
MBDF  000.32 292.9 m E Pg      2011/02/24 03:29:15.3   0.3                          T                                        4653813
MBDF  000.32 292.9 m E Sg      2011/02/24 03:29:19.4   0.1                          T                3.8  .18        Md 1.6  4653809
SBF   000.76 166.1 m E Pg      2011/02/24 03:29:23.1  -0.1                          T                                        4653803
SBF   000.76 166.1 m E Sg      2011/02/24 03:29:33.0  -0.1                          T                1.1  .20                4653804
LPG   000.94 341.3 m E Pg      2011/02/24 03:29:26.5  -0.2                          T                                        4653810
LPG   000.94 341.3 m E Sg      2011/02/24 03:29:38.8  -0.2                          T                 .7  .22 Ml 1.3         4653806
LPL   000.97 340.9 m E Pg      2011/02/24 03:29:27.0  -0.1                          T                                        4653801
LPL   000.97 340.9 m E Sg      2011/02/24 03:29:39.6  -0.1                          T                 .7  .24 Ml 1.2         4653800
ORIF  000.98 289.2 m E Pg      2011/02/24 03:29:27.2   0.0                          T                                        4653812
ORIF  000.98 289.2 m E Sg      2011/02/24 03:29:39.2  -0.6                          T                1.1  .22 Ml 1.5         4653808
FRF   001.11 200.5 m E Pg      2011/02/24 03:29:29.5   0.0                          T                                        4653811
FRF   001.11 200.5 m E Sg      2011/02/24 03:29:43.7  -0.3                          T                 .7  .18 Ml 1.5         4653807
LMR   001.36 201.1 m E Pg      2011/02/24 03:29:34.0   0.0                          T                                        4653802
LMR   001.36 201.1 m E Sg      2011/02/24 03:29:51.1  -0.5                          T                1.4  .19 Ml 1.8         4653805

.
EVENT     256387
    Date      Time       Latitude Longitude    Depth    Ndef Nsta Gap    Mag1  N    Mag2  N    Mag3  N   Author         ID
       rms   OT_Error      Smajor Sminor Az        Err   mdist  Mdist     Err        Err        Err      Quality

2011/02/24 13:17:49.9     42.9973   -1.5343       .0 f     6    3 325  Ml 2.0  1  Md 2.0  3              js067245    256407

      0.17   +-  0.41       7.1    6.4   63.58 +-  0.0    0.25   1.38   +-         +-0.0                 m i km

PYRENEES
Sta     Dist  EvAz     Phase      Date       Time     TRes  Azim  AzRes  Slow  SRes Def   SNR       Amp   Per   Mag1   Mag2       ID
SJPF  000.25 062.8 m E Pg      2011/02/24 13:17:55.2   0.0                          T                                        4654132
SJPF  000.25 062.8 m E Sg      2011/02/24 13:17:58.7  -0.1                          T               18.7  .18        Md 2.1  4654130
ETSF  000.72 097.5 m E Pg      2011/02/24 13:18:03.7  -0.2                          T                                        4654131
ETSF  000.72 097.5 m E Sg      2011/02/24 13:18:13.8   0.2                          T                5.7  .26        Md 2.0  4654129
EPF   001.38 088.0 m E Pg      2011/02/24 13:18:16.1   0.2                          T                                        4654127
EPF   001.38 088.0 m E Sg      2011/02/24 13:18:33.8  -0.1                          T                4.5  .48 Ml 2.0 Md 2.0  4654128

.
EVENT     256394
    Date      Time       Latitude Longitude    Depth    Ndef Nsta Gap    Mag1  N    Mag2  N    Mag3  N   Author         ID
       rms   OT_Error      Smajor Sminor Az        Err   mdist  Mdist     Err        Err        Err      Quality

2011/02/24 16:04:36.5     43.1898    -.3890       .0 f     6    3 203             Md 1.2  2              js067245    256414

      0.36   +-  0.28       7.8    3.5  178.84 +-  0.0    0.25   0.62              +-0.2                 m i km

PYRENEES
Sta     Dist  EvAz     Phase      Date       Time     TRes  Azim  AzRes  Slow  SRes Def   SNR       Amp   Per   Mag1   Mag2       ID
ETSF  000.32 203.3 m E Pg      2011/02/24 16:04:43.4   0.3                          T                                        4655588
ETSF  000.32 203.3 m E Sg      2011/02/24 16:04:46.8  -0.6                          T                6.7  .19        Md 1.1  4655589
EPF   000.56 106.4 m E Pg      2011/02/24 16:04:47.3  -0.2                          T                                        4655591
EPF   000.56 106.4 m E Sg      2011/02/24 16:04:55.0   0.1                          T                1.2  .24                4655592
SJPF  000.62 263.2 m E Pg      2011/02/24 16:04:48.6   0.1                          T                                        4655586
SJPF  000.62 263.2 m E Sg      2011/02/24 16:04:56.1  -0.7                          T                1.4  .25        Md 1.4  4655587

.
EVENT     256390
    Date      Time       Latitude Longitude    Depth    Ndef Nsta Gap    Mag1  N    Mag2  N    Mag3  N   Author         ID
       rms   OT_Error      Smajor Sminor Az        Err   mdist  Mdist     Err        Err        Err      Quality

2011/02/24 23:27:02.8     43.0927   -1.4068      2.0      16    3 111  Ml 1.2  1  Md 1.1  3              js067245    256410

      0.37   +-  0.09       1.9    1.6   43.78 +-  0.0    0.11   1.28   +-         +-0.1                 m i ke

PYRENEES
Sta     Dist  EvAz     Phase      Date       Time     TRes  Azim  AzRes  Slow  SRes Def   SNR       Amp   Per   Mag1   Mag2       ID
SJPF  000.13 081.1 m E Pg      2011/02/24 23:27:06.0   0.3                          T                                        4654144
SJPF  000.13 081.1 m E Sg      2011/02/24 23:27:08.2   0.6                          T               13.8  .20        Md 1.2  4654143
ETSF  000.65 107.0 m E Pg      2011/02/24 23:27:14.3  -0.9                          T                                        4654142
ETSF  000.65 107.0 m E Sg      2011/02/24 23:27:22.9  -0.9                          T                1.4  .27        Md 1.1  4654139
EPF   001.28 092.2 m E Pg      2011/02/24 23:27:26.3  -0.5                          T                                        4654141
EPF   001.28 092.2 m E Sg      2011/02/24 23:27:43.0  -0.4                          T                 .7  .37 Ml 1.2 Md 1.1  4654140

.
EVENT     256389
    Date      Time       Latitude Longitude    Depth    Ndef Nsta Gap    Mag1  N    Mag2  N    Mag3  N   Author         ID
       rms   OT_Error      Smajor Sminor Az        Err   mdist  Mdist     Err        Err        Err      Quality

2011/02/24 23:27:34.4     43.0860   -1.4050      2.0      14    3 107  Ml 1.2  1  Md 1.3  2              js067245    256409

      0.33   +-  0.09       1.7    1.6   32.67 +-  0.0    0.12   1.28   +-         +-0.1                 m i ke

PYRENEES
Sta     Dist  EvAz     Phase      Date       Time     TRes  Azim  AzRes  Slow  SRes Def   SNR       Amp   Per   Mag1   Mag2       ID
SJPF  000.13 078.2 m E Pg      2011/02/24 23:27:37.7   0.4                          T                                        4654138
SJPF  000.13 078.2 m E Sg      2011/02/24 23:27:39.8   0.6                          T               19.4  .18        Md 1.3  4654137
ETSF  000.65 106.5 m E Pg      2011/02/24 23:27:46.0  -0.8                          T                                        4654135
ETSF  000.65 106.5 m E Sg      2011/02/24 23:27:54.6  -0.7                          T                1.6  .21        Md 1.3  4654136
EPF   001.28 091.9 m E Pg      2011/02/24 23:27:57.9  -0.5                          T                                        4654134
EPF   001.28 091.9 m E Sg      2011/02/24 23:28:14.8  -0.2                          T                 .7  .38 Ml 1.2         4654133

.
EVENT     256398
    Date      Time       Latitude Longitude    Depth    Ndef Nsta Gap    Mag1  N    Mag2  N    Mag3  N   Author         ID
       rms   OT_Error      Smajor Sminor Az        Err   mdist  Mdist     Err        Err        Err      Quality

2011/02/25 10:00:26.5     46.0417    2.9059       .0 f    29   12 086  Ml 2.2 11  Md 2.0  3              js067245    256418

      0.52   +-  0.05       1.0     .8  118.46 +-  0.0    0.12   2.19   +-0.2      +-0.0                 m i km

FRANCE
Sta     Dist  EvAz     Phase      Date       Time     TRes  Azim  AzRes  Slow  SRes Def   SNR       Amp   Per   Mag1   Mag2       ID
BGF   000.52 355.5 m E Pg      2011/02/25 10:00:36.6   0.0                          T                                        4654247
BGF   000.52 355.5 m E Sg      2011/02/25 10:00:43.1  -0.5                          T               19.3  .32        Md 2.0  4654267
TCF   000.54 297.3 m E Pg      2011/02/25 10:00:37.1   0.0                          T                                        4654252
TCF   000.54 297.3 m E Sg      2011/02/25 10:00:43.8  -0.7                          T                4.6  .20        Md 2.0  4654270
AVF   000.81 022.3 m E Pg      2011/02/25 10:00:41.8  -0.1                          T                                        4655651
AVF   000.81 022.3 m E Pn      2011/02/25 10:00:42.7  -1.1                          T                                        4654249
AVF   000.81 022.3 m E Sg      2011/02/25 10:00:52.6  -0.2                          T                6.7  .30                4654269
SMF   000.89 046.7 m E Pg      2011/02/25 10:00:43.9   0.5                          T                                        4654248
SMF   000.89 046.7 m E Sg      2011/02/25 10:00:55.2   0.1                          T                8.2  .28 Ml 2.2         4654268
SSF   001.10 021.9 m E Pg      2011/02/25 10:00:47.3   0.0                          T                                        4654251
SSF   001.10 021.9 m E Sg      2011/02/25 10:01:01.5  -0.3                          T               11.4  .52 Ml 2.3         4654271
RJF   001.22 233.4 m E Pg      2011/02/25 10:00:49.6   0.0                          T                                        4654274
RJF   001.22 233.4 m E Sg      2011/02/25 10:01:05.8   0.2                          T                6.1  .28 Ml 1.9         4654265
CAF   001.26 208.2 m E Pg      2011/02/25 10:00:50.7   0.3                          T                                        4654275
CAF   001.26 208.2 m E Sg      2011/02/25 10:01:06.9  -0.1                          T                4.0  .20 Ml 2.2         4654264
LOR   001.39 027.8 m E Pg      2011/02/25 10:00:52.8   0.0 206.8  -1.6              T                                        4654250
LOR   001.39 027.8 m E Sg      2011/02/25 10:01:10.9  -0.1 200.3  -8.2              T                2.3  .12 Ml 2.3         4654257
LFF   001.88 234.9 m E Pn      2011/02/25 10:00:58.4   0.1                          T                                        4654260
LFF   001.88 234.9 m E Sn      2011/02/25 10:01:21.4   0.0                          T                3.9  .35 Ml 2.1         4654263
VIVF  001.72 133.0 m E Pg      2011/02/25 10:00:58.6  -0.2                          T                                        4654273
VIVF  001.72 133.0 m E Sg      2011/02/25 10:01:20.6  -0.5                          T                2.5  .35 Ml 2.0         4654259
MFF   002.19 285.9 m E Pn      2011/02/25 10:01:02.5   0.0                          T                                        4654261
MFF   002.19 285.9 m E Sn      2011/02/25 10:01:28.8   0.0                          T                3.6  .38 Ml 2.4         4654262
LASF  002.08 160.7 m E Pg      2011/02/25 10:01:05.1  -0.2                          T                                        4654272
LASF  002.08 160.7 m E Sg      2011/02/25 10:01:32.2  -0.2                          T                1.1  .21 Ml 1.9         4654258

.
EVENT     256400
    Date      Time       Latitude Longitude    Depth    Ndef Nsta Gap    Mag1  N    Mag2  N    Mag3  N   Author         ID
       rms   OT_Error      Smajor Sminor Az        Err   mdist  Mdist     Err        Err        Err      Quality

2011/02/25 11:07:10.8     48.4896    7.2512       .0 f    19    9 131  Ml 2.1  5  Md 2.1  1              js067245    256420

      0.32   +-  0.06       1.2    1.0  143.17 +-  0.0    0.08   2.04   +-0.3      +-                    m i km

FRANCE
Sta     Dist  EvAz     Phase      Date       Time     TRes  Azim  AzRes  Slow  SRes Def   SNR       Amp   Per   Mag1   Mag2       ID
CDF   000.08 167.9 m E Pg      2011/02/25 11:07:12.5  -0.3                          T                                        4654298
CDF   000.08 167.9 m E Sg      2011/02/25 11:07:14.4   0.2                          T              474.7  .44        Md 2.1  4654291
LANF  000.61 036.5 m E Pg      2011/02/25 11:07:22.7   0.0                          T                                        4655661
LANF  000.61 036.5 m E Sg      2011/02/25 11:07:31.1   0.2                          T               17.6  .31                4654289
HINF  000.72 201.7 m E Pg      2011/02/25 11:07:24.8   0.1                          T                                        4655653
HINF  000.72 201.7 m E Sg      2011/02/25 11:07:34.4   0.0                          T               37.2  .32                4654297
HAU   000.77 231.6 m E Pg      2011/02/25 11:07:25.5  -0.1                          T                                        4655654
HAU   000.77 231.6 m E Pn      2011/02/25 11:07:27.7   0.1                          T                                        4655655
HAU   000.77 231.6 m E Sn      2011/02/25 11:07:39.4   0.0                          T               20.5  .34                4654296
THEF  000.88 253.1 m E Pg      2011/02/25 11:07:27.8   0.2                          T                                        4655656
THEF  000.88 253.1 m E Sg      2011/02/25 11:07:38.9  -0.3                          T                                        4655657
THEF  000.88 253.1 m E Sn      2011/02/25 11:07:41.7  -0.1                          T               14.0  .25 Ml 2.5         4654288
PAGF  001.02 274.3 m E Pg      2011/02/25 11:07:30.0   0.0  89.9  -3.3              T                                        4655660
PAGF  001.02 274.3 m E Sg      2011/02/25 11:07:43.3  -0.1                          T                2.2  .28 Ml 1.7         4654295
MEZF  001.46 271.3 m E Pg      2011/02/25 11:07:38.3   0.0                          T                                        4655659
MEZF  001.46 271.3 m E Sg      2011/02/25 11:07:57.3  -0.1                          T                7.8  .35 Ml 2.4         4654280
SFTF  001.50 259.9 m E Pg      2011/02/25 11:07:39.2   0.1                          T                                        4655658
SFTF  001.50 259.9 m E Sg      2011/02/25 11:07:58.5  -0.2                          T                1.9  .14 Ml 2.2         4654279
CABF  002.04 203.2 m E Sg      2011/02/25 11:08:15.7   0.3                          T                1.1  .27 Ml 1.8         4655652

.
