EVENT     268935
    Date      Time       Latitude Longitude    Depth    Ndef Nsta Gap    Mag1  N    Mag2  N    Mag3  N   Author         ID
       rms   OT_Error      Smajor Sminor Az        Err   mdist  Mdist     Err        Err        Err      Quality

2012/01/21 23:09:08.3     45.8568    -.8205      2.0      39   17 146  Ml 2.4 19  Md 2.4  1              js067245    268955

      0.47   +-  0.08       1.7    1.0   61.45 +-  0.0    1.43   4.00   +-0.2      +-                    m i ke

FRANCE
Sta     Dist  EvAz     Phase      Date       Time     TRes  Azim  AzRes  Slow  SRes Def   SNR       Amp   Per   Mag1   Mag2       ID
LFF   001.43 129.3 m E Pn      2012/01/21 23:09:33.8   0.2                          T   001.0                                4818579
LFF   001.43 129.3 m E Pg      2012/01/21 23:09:35.0   0.1                          T                                        4821293
LFF   001.43 129.3 m E Sn      2012/01/21 23:09:51.9   0.0                          T   001.0                                4818580
LFF   001.43 129.3 m E Sg      2012/01/21 23:09:53.8   0.3                          T   001.0       10.2  .24 Ml 2.5 Md 2.4  4818581
RJF   001.73 107.8 m E Pg      2012/01/21 23:09:40.5  -0.1                          T                                        4821292
RJF   001.73 107.8 m E Sn      2012/01/21 23:09:58.9  -0.2                          T   001.0       13.9  .24 Ml 2.6         4818567
RJF   001.73 107.8 m E Sg      2012/01/21 23:10:02.1  -0.7                          T               21.7  .36 Ml 2.6         4821294
TCF   002.15 077.4 m E Pn      2012/01/21 23:09:44.2   0.7                          T                                        4821305
TCF   002.15 077.4 m E Sn      2012/01/21 23:10:09.0  -0.1                          T                                        4821304
TCF   002.15 077.4 m E Sg      2012/01/21 23:10:16.2   0.2                          T   001.0        3.7  .28 Ml 2.4         4818585
CAF   002.24 113.6 m E Pn      2012/01/21 23:09:44.6   0.0                          T                                        4821301
CAF   002.24 113.6 m E Pg      2012/01/21 23:09:49.8   0.0                          T                                        4821300
CAF   002.24 113.6 m E Sg      2012/01/21 23:10:18.0  -0.6                          T   001.0        3.7  .20 Ml 2.5         4818571
QUIF  002.61 322.9 m E Pn      2012/01/21 23:09:49.8   0.2                          T   001.0                                4818587
QUIF  002.61 322.9 m E Pg      2012/01/21 23:09:56.4  -0.3                          T   001.0                                4818588
QUIF  002.61 322.9 m E Sg      2012/01/21 23:10:30.5   0.1                          T   001.0          3  .24 Ml 2.4         4818589
AVF   003.04 070.6 m E Pn      2012/01/21 23:09:55.4  -0.1                          T   001.0                                4818568
AVF   003.04 070.6 m E Sg      2012/01/21 23:10:42.1  -1.5                          T   001.0         .9  .24 Ml 2.0         4818569
SGMF  002.68 334.3 m E Pg      2012/01/21 23:09:57.9   0.0                          T   001.0                                4818590
SGMF  002.68 334.3 m E Sg      2012/01/21 23:10:33.0   0.7                          T   001.0         16  .96 Ml 2.6         4818591
SSF   003.22 066.5 m E Pn      2012/01/21 23:09:58.8   0.8                          T   001.0                                4818583
SSF   003.22 066.5 m E Sg      2012/01/21 23:10:50.1   0.7                          T   001.0        1.6  .32 Ml 2.3         4818584
LDF   002.78 009.6 m E Pg      2012/01/21 23:09:59.6  -0.3                          T                                        4821302
LDF   002.78 009.6 m E Sn      2012/01/21 23:10:24.5   0.4                          T   001.0                                4818577
LDF   002.78 009.6 m E Sg      2012/01/21 23:10:35.2  -0.4                          T   001.0        6.6  .52 Ml 2.5         4818578
FLN   002.92 004.4 m E Pg      2012/01/21 23:10:02.4   0.0 185.8  1.1               T                                        4821303
FLN   002.92 004.4 m E Sn      2012/01/21 23:10:27.1  -0.2                          T   001.0                                4818574
FLN   002.92 004.4 m E Sg      2012/01/21 23:10:39.0  -0.8                          T   001.0          4  .24 Ml 2.5         4818575
EPF   002.95 163.2 m E Pg      2012/01/21 23:10:02.7  -0.3                          T                                        4821298
EPF   002.95 163.2 m E Sn      2012/01/21 23:10:27.0  -1.1                          T   001.0                                4818572
EPF   002.95 163.2 m E Sg      2012/01/21 23:10:40.4  -0.4                          T   001.0          3  .44 Ml 2.2         4818573
ETSF  002.96 176.3 m E Pg      2012/01/21 23:10:03.4   0.1                          T                                        4821299
ETSF  002.96 176.3 m E Sg      2012/01/21 23:10:41.2  -0.2                          T                 .5  .21 Ml 1.8         4821296
MTLF  003.32 138.1 m E Pg      2012/01/21 23:10:10.2   0.4                          T                                        4821297
MTLF  003.32 138.1 m E Sg      2012/01/21 23:10:53.1   0.6                          T   001.0        4.1  .76 Ml 2.2         4818586
GRR   002.53 359.4 m E Sg      2012/01/21 23:10:28.2   0.3                          T   001.0        8.6  .64 Ml 2.3         4818576
BGF   002.64 073.3 m E Sg      2012/01/21 23:10:31.0  -0.3                          T   001.0        7.6  .32 Ml 2.7         4818570
LOR   003.52 064.7 m E Sg      2012/01/21 23:10:58.1  -0.7 241.9  -6.2              T   001.0        1.2  .28 Ml 2.2         4818582
VIVF  004.00 102.5 m E Sg      2012/01/21 23:11:13.2  -0.5                          T   001.0        2.4  .52 Ml 2.3         4818592

.
EVENT     268946
    Date      Time       Latitude Longitude    Depth    Ndef Nsta Gap    Mag1  N    Mag2  N    Mag3  N   Author         ID
       rms   OT_Error      Smajor Sminor Az        Err   mdist  Mdist     Err        Err        Err      Quality

2012/01/21 23:44:59.7     43.0637    -.0115      2.0       5    3 183  Ml 0.7  1  Md 1.5  2              js067245    268966

      0.36   +-  0.36      24.9    3.7  176.08 +-  0.0    0.26   0.89   +-         +-0.0                 m i ke

PYRENEES
Sta     Dist  EvAz     Phase      Date       Time     TRes  Azim  AzRes  Slow  SRes Def   SNR       Amp   Per   Mag1   Mag2       ID
EPF   000.26 097.3 m E Pg      2012/01/21 23:45:04.7  -0.2                          T                                        4821309
EPF   000.26 097.3 m E Sg      2012/01/21 23:45:08.1  -0.3                          T                6.3  .18        Md 1.5  4821310
ETSF  000.43 247.9 m E Pg      2012/01/21 23:45:08.4   0.3                          T                                        4821307
ETSF  000.43 247.9 m E Sg      2012/01/21 23:45:13.2  -0.7                          T                4.2  .25        Md 1.5  4821308
SJPF  000.89 273.6 m E Sg      2012/01/21 23:45:27.8  -0.3                          T                 .2  .28 Ml  .7         4821306

.
EVENT     268955
    Date      Time       Latitude Longitude    Depth    Ndef Nsta Gap    Mag1  N    Mag2  N    Mag3  N   Author         ID
       rms   OT_Error      Smajor Sminor Az        Err   mdist  Mdist     Err        Err        Err      Quality

2012/01/22 02:44:53.6     44.6564    6.8648      2.0      26    9 063  Ml 1.4  5  Md 1.5  1              js067245    268975

      0.16   +-  0.03        .8     .5   53.35 +-  0.0    0.10   1.57   +-0.2      +-                    m i ke

FRANCE
Sta     Dist  EvAz     Phase      Date       Time     TRes  Azim  AzRes  Slow  SRes Def   SNR       Amp   Per   Mag1   Mag2       ID
MBDF  000.10 316.6 m E Pg      2012/01/22 02:44:55.9  -0.1                          T                                        4821323
MBDF  000.10 316.6 m E Sg      2012/01/22 02:44:57.4   0.1                          T               92.5  .28        Md 1.5  4821324
ORIF  000.75 290.8 m E Pg      2012/01/22 02:45:07.8   0.0                          T                                        4821322
ORIF  000.75 290.8 m E Sg      2012/01/22 02:45:17.1  -0.5                          T                2.1  .18                4821312
LPL   000.87 353.8 m E Pg      2012/01/22 02:45:10.1   0.0                          T                                        4821321
LPL   000.87 353.8 m E Sn      2012/01/22 02:45:23.8  -0.1                          T                 .8  .22 Ml 1.3         4821313
SBF   000.89 152.5 m E Pg      2012/01/22 02:45:10.4   0.0                          T                                        4821319
FRF   001.11 188.2 m E Pg      2012/01/22 02:45:14.4   0.1                          T                                        4821320
FRF   001.11 188.2 m E Sg      2012/01/22 02:45:28.5  -0.1                          T                1.1  .20 Ml 1.6         4821316
LMR   001.35 191.1 m E Pg      2012/01/22 02:45:18.7   0.0                          T                                        4821318
LMR   001.35 191.1 m E Sg      2012/01/22 02:45:36.2   0.1                          T                 .3  .12 Ml 1.4         4821317
LPG   000.85 354.6 m E Sn      2012/01/22 02:45:23.6   0.1                          T                 .7  .22                4821314
SMRF  001.15 234.1 m E Sg      2012/01/22 02:45:30.1   0.1                          T                1.0  .27 Ml 1.5         4821315
VIVF  001.57 278.1 m E Sn      2012/01/22 02:45:40.7   0.1                          T                 .3  .22 Ml 1.2         4821311

.
EVENT     268957
    Date      Time       Latitude Longitude    Depth    Ndef Nsta Gap    Mag1  N    Mag2  N    Mag3  N   Author         ID
       rms   OT_Error      Smajor Sminor Az        Err   mdist  Mdist     Err        Err        Err      Quality

2012/01/22 03:56:22.7     47.7999    5.7581     15.0      22   11 080  Ml 1.8  5  Md 1.8  4              js067245    268977

      0.57   +-  0.05       1.1     .9  142.62 +-  0.0    0.45   1.92   +-0.4      +-0.1                 m i ke

FRANCE
Sta     Dist  EvAz     Phase      Date       Time     TRes  Azim  AzRes  Slow  SRes Def   SNR       Amp   Per   Mag1   Mag2       ID
HAU   000.45 062.4 m E Pg      2012/01/22 03:56:31.8   0.2                          T                                        4821334
HAU   000.45 062.4 m E Sg      2012/01/22 03:56:37.7  -0.1                          T                4.5  .18        Md 1.8  4821328
THEF  000.46 020.2 m E Pg      2012/01/22 03:56:31.9   0.1                          T                                        4821335
THEF  000.46 020.2 m E Sg      2012/01/22 03:56:37.7  -0.3                          T               30.8  .20        Md 1.6  4821327
SFTF  000.63 310.3 m E Pg      2012/01/22 03:56:34.9   0.0 131.3  1.6               T                                        4821331
SFTF  000.63 310.3 m E Sg      2012/01/22 03:56:43.1  -0.2                          T                6.8  .22        Md 1.8  4821326
HINF  000.74 088.3 m E Pg      2012/01/22 03:56:36.5  -0.4                          T                                        4821332
HINF  000.74 088.3 m E Pn      2012/01/22 03:56:37.3   0.1                          T                                        4821333
HINF  000.74 088.3 m E Sg      2012/01/22 03:56:46.9   0.2                          T                5.3  .22        Md 1.8  4821329
PAGF  000.76 358.3 m E Pg      2012/01/22 03:56:37.1   0.0 183.0  4.7               T                                        4821337
PAGF  000.76 358.3 m E Sg      2012/01/22 03:56:46.7  -0.5                          T                 .8  .23                4821344
MEZF  000.85 326.3 m E Pg      2012/01/22 03:56:38.9   0.1 143.6  -2.2              T                                        4821330
MEZF  000.85 326.3 m E Sg      2012/01/22 03:56:49.9   0.0                          T                2.9  .22                4821325
CABF  001.21 169.2 m E Pg      2012/01/22 03:56:45.6   0.0                          T                                        4821339
CABF  001.21 169.2 m E Sg      2012/01/22 03:57:01.2  -0.1                          T                1.8  .30 Ml 1.7         4821343
LOR   001.39 248.2 m E Pg      2012/01/22 03:56:48.8   0.0  71.2  4.4               T                                        4821338
LOR   001.39 248.2 m E Sg      2012/01/22 03:57:06.5  -0.3  68.8  2.0               T                1.6  .19 Ml 1.9         4821346
SMF   001.74 229.2 m E Pg      2012/01/22 03:56:55.3   0.0                          T                                        4821341
SMF   001.74 229.2 m E Sg      2012/01/22 03:57:18.0   0.2                          T                3.3  .22 Ml 2.3         4821336
AVF   001.92 239.2 m E Pg      2012/01/22 03:56:58.6   0.0                          T                                        4821340
AVF   001.92 239.2 m E Sg      2012/01/22 03:57:23.5   0.1                          T                 .2  .19 Ml 1.3         4821342
SSF   001.70 245.0 m E Sg      2012/01/22 03:57:16.4   0.0                          T                 .8  .19 Ml 1.9         4821345

.
EVENT     269088
    Date      Time       Latitude Longitude    Depth    Ndef Nsta Gap    Mag1  N    Mag2  N    Mag3  N   Author         ID
       rms   OT_Error      Smajor Sminor Az        Err   mdist  Mdist     Err        Err        Err      Quality

2012/01/22 09:29:31.4     42.2853    3.2400      3.0 f    18    4 198  Ml 1.6  4                         js067245    269108

      0.17   +-  0.08       1.3     .9  114.93 +-  0.0    0.06   2.87   +-0.1                            m i ke

PYRENEES
Sta     Dist  EvAz     Phase      Date       Time     TRes  Azim  AzRes  Slow  SRes Def   SNR       Amp   Per   Mag1   Mag2       ID
MTLF  001.30 324.9 m E Pg      2012/01/22 09:29:55.6   0.0                          T                                        4821375
MTLF  001.30 324.9 m E Sn      2012/01/22 09:30:11.3  -0.2                          T                 .8  .20 Ml 1.5         4821376
LASF  001.85 013.9 m E Pg      2012/01/22 09:30:05.7  -0.1                          T                                        4821370
LASF  001.85 013.9 m E Sg      2012/01/22 09:30:29.6   0.0                          T                 .7  .29 Ml 1.6         4821371
EPF   002.27 290.2 m E Pg      2012/01/22 09:30:13.5   0.0                          T                                        4821373
EPF   002.27 290.2 m E Sg      2012/01/22 09:30:42.6  -0.1                          T                 .9  .24 Ml 1.8         4821374
ETSF  002.87 283.6 m E Sg      2012/01/22 09:31:01.5  -0.1                          T                 .4  .22 Ml 1.7         4821372

.
