EVENT     279821
    Date      Time       Latitude Longitude    Depth    Ndef Nsta Gap    Mag1  N    Mag2  N    Mag3  N   Author         ID
       rms   OT_Error      Smajor Sminor Az        Err   mdist  Mdist     Err        Err        Err      Quality

2012/07/20 04:24:44.7     46.6695   -1.2998      2.0     118   35 136  Ml 3.2 30  Md 3.1  4              bulletin    279921
                                                                                                         _ldg
      1.42   +-  0.12       2.4    1.8   59.49 +-  0.0    0.80   5.72   +-0.2      +-0.0                 m i ke

FRANCE
Sta     Dist  EvAz     Phase      Date       Time     TRes  Azim  AzRes  Slow  SRes Def   SNR       Amp   Per   Mag1   Mag2       ID
MFF   000.80 094.4 m E Pg      2012/07/20 04:24:59.2  -0.4                          T                                        5030521
MFF   000.80 094.4 m E Pn      2012/07/20 04:25:01.7   0.4                          T                                        5031820
MFF   000.80 094.4 m E Sg      2012/07/20 04:25:10.1   0.0                          T              212.2  .34        Md 3.1  5030501
MFF   000.80 094.4 m E Sn      2012/07/20 04:25:13.3   0.1                          T                                        5031829
GRR   001.75 009.7 m E Pn      2012/07/20 04:25:13.5  -0.7                          T                                        5030517
GRR   001.75 009.7 m E P       2012/07/20 04:25:15.9  -0.4                          T                                        5036729
GRR   001.75 009.7 m E Sn      2012/07/20 04:25:36.0   0.3                          T                                        5031809
GRR   001.75 009.7 m E Sg      2012/07/20 04:25:38.8  -0.8                          T               52.7  .18 Ml 3.5 Md 3.1  5030497
QUIF  001.78 315.2 m E Pn      2012/07/20 04:25:15.8   1.1                          T                                        5030520
QUIF  001.78 315.2 m E Sn      2012/07/20 04:25:37.7   1.2                          T               45.7  .18 Ml 3.6         5030500
SGMF  001.80 332.2 m E Pn      2012/07/20 04:25:16.4   1.4                          T                                        5030519
SGMF  001.80 332.2 m E Sg      2012/07/20 04:25:39.9  -1.5                          T               34.0  .18 Ml 3.4         5030499
LDF   002.08 022.0 m E Pn      2012/07/20 04:25:18.5  -0.3                          T                                        5031826
LDF   002.08 022.0 m E Pg      2012/07/20 04:25:22.5  -0.9                          T                                        5030516
LDF   002.08 022.0 m E Sn      2012/07/20 04:25:43.3  -0.5                          T                                        5036716
LDF   002.08 022.0 m E Sg      2012/07/20 04:25:49.3  -0.9                          T               25.4  .20 Ml 3.3 Md 3.1  5030496
FLN   002.17 014.5 m E Pn      2012/07/20 04:25:19.6  -0.3 191.3  -3.8              T                                        5030515
FLN   002.17 014.5 m E Pg      2012/07/20 04:25:24.3  -0.6 198.9  3.8               T                                        5031827
FLN   002.17 014.5 m E Sn      2012/07/20 04:25:46.0   0.2                          T                                        5036715
FLN   002.17 014.5 m E Sg      2012/07/20 04:25:51.3  -1.4 206.8  11.7              T               47.0  .28 Ml 3.3         5030495
ROSF  002.14 322.0 m E Pn      2012/07/20 04:25:22.2   2.6                          T                                        5030518
ROSF  002.14 322.0 m E Sg      2012/07/20 04:25:49.3  -2.6                          T               28.8  .22 Ml 3.3 Md 3.1  5030498
RJF   002.39 123.8 m E Pn      2012/07/20 04:25:23.7   0.7                          T                                        5030508
RJF   002.39 123.8 m E Pg      2012/07/20 04:25:28.1  -1.0                          T                                        5031821
RJF   002.39 123.8 m E Sg      2012/07/20 04:25:59.4  -0.4                          T               38.5  .20 Ml 3.2         5030488
LFF   002.24 139.8 m E Pn      2012/07/20 04:25:23.9   2.9                          T                                        5030507
LFF   002.24 139.8 m E Sn      2012/07/20 04:25:50.8   3.2                          T               48.2  .28 Ml 3.3         5030487
LFF   002.24 139.8 m E Sg      2012/07/20 04:25:55.1   0.0                          T                                        5030536
TCF   002.46 097.7 m E Pn      2012/07/20 04:25:24.0   0.0                          T                                        5030513
TCF   002.46 097.7 m E Pg      2012/07/20 04:25:30.6   0.3                          T                                        5030530
TCF   002.46 097.7 m E Sn      2012/07/20 04:25:52.9   0.2                          T                                        5031812
TCF   002.46 097.7 m E Sg      2012/07/20 04:26:01.7  -0.2                          T               28.7  .30 Ml 3.3         5030493
HYF   002.76 076.0 m E Pn      2012/07/20 04:25:28.9   0.8                          T                                        5030510
HYF   002.76 076.0 m E Pg      2012/07/20 04:25:36.2   0.3                          T                                        5030528
HYF   002.76 076.0 m E Sn      2012/07/20 04:25:59.0  -1.1                          T                                        5031828
HYF   002.76 076.0 m E Sg      2012/07/20 04:26:10.8  -0.6                          T                                        5030490
BGF   002.86 090.7 m E Pn      2012/07/20 04:25:30.1   0.7                          T                                        5030509
BGF   002.86 090.7 m E Pg      2012/07/20 04:25:41.0   3.3                          T                                        5030527
BGF   002.86 090.7 m E Sn      2012/07/20 04:26:01.9  -0.5                          T               48.8  .30 Ml 3.6         5030489
BGF   002.86 090.7 m E Sg      2012/07/20 04:26:14.5   0.0                          T                                        5030525
CAF   002.93 125.3 m E Pn      2012/07/20 04:25:30.6   0.2                          T                                        5030506
CAF   002.93 125.3 m E Pg      2012/07/20 04:25:38.5  -0.5                          T                                        5030535
CAF   002.93 125.3 m E Sn      2012/07/20 04:26:04.2   0.1                          T                                        5036713
CAF   002.93 125.3 m E Sg      2012/07/20 04:26:15.9  -0.8                          T               21.0  .24 Ml 3.4         5030486
AVF   003.20 086.1 m E Pn      2012/07/20 04:25:34.0   0.0                          T                                        5030512
AVF   003.20 086.1 m E Sn      2012/07/20 04:26:10.3  -0.2                          T                                        5031819
AVF   003.20 086.1 m E Sg      2012/07/20 04:26:24.5  -0.6                          T               14.5  .40 Ml 3.0         5030492
SSF   003.32 081.5 m E Pn      2012/07/20 04:25:36.1   0.4                          T                                        5030514
SSF   003.32 081.5 m E Pg      2012/07/20 04:25:46.3   0.2                          T                                        5030526
SSF   003.32 081.5 m E Sn      2012/07/20 04:26:12.9  -0.5                          T                                        5031813
SSF   003.32 081.5 m E Sg      2012/07/20 04:26:27.7  -1.1                          T                9.1  .22 Ml 3.2         5030494
SMF   003.54 088.5 m E Pn      2012/07/20 04:25:38.7   0.0                          T                                        5030511
SMF   003.54 088.5 m E Pg      2012/07/20 04:25:50.7   0.5                          T                                        5030529
SMF   003.54 088.5 m E Sg      2012/07/20 04:26:35.2  -0.5                          T                9.4  .24 Ml 3.1         5030491
LOR   003.58 078.5 m E Pn      2012/07/20 04:25:39.4   0.1 256.5  -5.8              T                                        5031825
LOR   003.58 078.5 m E Pg      2012/07/20 04:25:51.3   0.2 264.7  2.4               T                                        5031824
LOR   003.58 078.5 m E Sn      2012/07/20 04:26:19.0  -0.7                          T                                        5031814
LOR   003.58 078.5 m E Sg      2012/07/20 04:26:34.6  -2.5 243.6  -18.7             T               11.0  .22 Ml 3.3         5031823
SJPF  003.56 179.1 m E Pn      2012/07/20 04:25:39.8   0.9                          T                                        5030505
SJPF  003.56 179.1 m E Pg      2012/07/20 04:25:48.0  -2.5                          T                                        5031808
SJPF  003.56 179.1 m E Sn      2012/07/20 04:26:32.1  13.0                          T                7.9  .29 Ml 3.0         5030485
ETSF  003.81 171.8 m E Pn      2012/07/20 04:25:39.8  -2.6                          T                                        5031807
ETSF  003.81 171.8 m E Pg      2012/07/20 04:25:53.6  -1.7                          T                                        5030504
ETSF  003.81 171.8 m E Sg      2012/07/20 04:26:41.8  -2.3                          T                5.4  .28 Ml 2.9         5031822
EPF   003.82 161.6 m E Pn      2012/07/20 04:25:43.4   0.8                          T                                        5030503
EPF   003.82 161.6 m E Pg      2012/07/20 04:25:54.2  -1.3                          T                                        5031806
EPF   003.82 161.6 m E Sn      2012/07/20 04:26:23.6  -1.8                          T                                        5030484
EPF   003.82 161.6 m E Sg      2012/07/20 04:26:44.5   0.0                          T                9.9  .20 Ml 3.3         5030524
MTLF  004.16 141.9 m E Pn      2012/07/20 04:25:46.8  -0.3                          T                                        5030502
MTLF  004.16 141.9 m E Pg      2012/07/20 04:26:01.0  -0.6                          T                                        5030522
MTLF  004.16 141.9 m E Sn      2012/07/20 04:26:34.7   1.2                          T                3.5  .22 Ml 2.9         5030483
MTLF  004.16 141.9 m E Sg      2012/07/20 04:26:55.1   0.1                          T                                        5030523
LASF  004.46 123.7 m E Pn      2012/07/20 04:25:51.5   0.2                          T                                        5030534
LASF  004.46 123.7 m E Pg      2012/07/20 04:26:07.5   0.2                          T                                        5030533
LASF  004.46 123.7 m E Sg      2012/07/20 04:27:04.8   0.3                          T                6.3  .32 Ml 3.1         5030482
SFTF  004.57 068.0 m E Pn      2012/07/20 04:25:52.5  -0.2 246.7  -6.0              T                                        5031818
SFTF  004.57 068.0 m E Pg      2012/07/20 04:26:09.4   0.3                          T                                        5036705
SFTF  004.57 068.0 m E Sg      2012/07/20 04:27:08.0   0.2                          T               10.1  .42 Ml 3.2         5036725
MEZF  004.67 064.6 m E Pn      2012/07/20 04:25:53.9  -0.2 248.2  -1.0              T                                        5031817
MEZF  004.67 064.6 m E Pg      2012/07/20 04:26:11.8   0.7                          T                                        5036704
MEZF  004.67 064.6 m E Sg      2012/07/20 04:27:10.9  -0.1                          T               12.4  .48 Ml 3.2         5036724
BAIF  005.00 045.2 m E Pn      2012/07/20 04:25:58.7   0.2                          T                                        5031816
THEF  005.19 069.9 m E Pn      2012/07/20 04:26:01.1   0.0                          T                                        5036722
THEF  005.19 069.9 m E Pg      2012/07/20 04:26:21.5   0.9                          T                                        5036706
THEF  005.19 069.9 m E Sn      2012/07/20 04:26:57.8  -0.2                          T                                        5036726
THEF  005.19 069.9 m E Sg      2012/07/20 04:27:27.1   0.0                          T               12.0  .43 Ml 3.4         5031810
GIVF  005.33 047.7 m E Pn      2012/07/20 04:26:03.5   0.4                          T                                        5031815
HAU   005.37 072.8 m E Pn      2012/07/20 04:26:03.9   0.3                          T                                        5036723
HAU   005.37 072.8 m E Sn      2012/07/20 04:27:01.2  -1.2                          T                                        5036727
HAU   005.37 072.8 m E Sg      2012/07/20 04:27:31.1  -1.7                          T                6.1  .36 Ml 3.0         5031811
SMRF  005.55 116.6 m E Pn      2012/07/20 04:26:06.4   0.3                          T                                        5036709
SMRF  005.55 116.6 m E Pg      2012/07/20 04:26:27.9   0.7                          T                                        5036708
HINF  005.67 075.4 m E Pn      2012/07/20 04:26:07.8   0.1                          T                                        5036721
HINF  005.67 075.4 m E Pg      2012/07/20 04:26:31.0   1.4                          T                                        5036707
HINF  005.67 075.4 m E Sn      2012/07/20 04:27:09.2  -0.4                          T                                        5036728
HINF  005.67 075.4 m E Sg      2012/07/20 04:27:43.0   0.8                          T                5.3  .36 Ml 3.2         5036714
VIVF  004.56 111.3 m E Pg      2012/07/20 04:26:08.9   0.0                          T                                        5030532
VIVF  004.56 111.3 m E Sg      2012/07/20 04:27:08.0   0.6                          T                8.1  .44 Ml 3.0         5030481
LPL   005.70 098.8 m E Pg      2012/07/20 04:26:30.9   0.5                          T                                        5036710
LPL   005.70 098.8 m E Sn      2012/07/20 04:27:10.3  -0.3                          T                                        5036711
LPL   005.70 098.8 m E Sg      2012/07/20 04:27:43.2  -0.3                          T                                        5036719
LPG   005.72 098.9 m E Sn      2012/07/20 04:27:10.6  -0.5                          T                                        5036712
LPG   005.72 098.9 m E Sg      2012/07/20 04:27:45.5   1.3                          T                                        5036718
CABF  005.09 088.0 m E Sg      2012/07/20 04:27:24.2   0.1                          T               13.4  .82 Ml 3.1         5036720
ORIF  005.32 106.6 m E Sg      2012/07/20 04:27:31.4   0.1                          T                                        5036717

.
EVENT     279847
    Date      Time       Latitude Longitude    Depth    Ndef Nsta Gap    Mag1  N    Mag2  N    Mag3  N   Author         ID
       rms   OT_Error      Smajor Sminor Az        Err   mdist  Mdist     Err        Err        Err      Quality

2012/07/20 09:10:28.1     44.7230    4.6356       .0 f    30   15 083  Ml 2.6 16  Md 2.8  1              bulletin    279947
                                                                                                         _ldg
      0.64   +-  0.06       1.2    1.0  162.14 +-  0.0    0.14   2.60   +-0.2      +-                    m i km

FRANCE
Sta     Dist  EvAz     Phase      Date       Time     TRes  Azim  AzRes  Slow  SRes Def   SNR       Amp   Per   Mag1   Mag2       ID
VIVF  000.14 011.2 m E Pg      2012/07/20 09:10:30.7  -0.6                          T                                        5030622
VIVF  000.14 011.2 m E Sg      2012/07/20 09:10:33.7   0.3                          T                                Md 2.8  5030615
LASF  000.85 221.1 m E Pg      2012/07/20 09:10:44.6   0.1                          T                                        5030621
LASF  000.85 221.1 m E Sg      2012/07/20 09:10:55.9   0.1                          T               91.6  .58                5030616
ORIF  000.91 077.1 m E Pg      2012/07/20 09:10:45.7   0.2                          T                                        5030619
ORIF  000.91 077.1 m E Sn      2012/07/20 09:11:00.0   0.0                          T               17.1  .38 Ml 2.4         5030613
SMRF  001.01 137.6 m E Pg      2012/07/20 09:10:47.3   0.0                          T                                        5030623
SMRF  001.01 137.6 m E Sg      2012/07/20 09:11:00.6   0.0                          T               33.8  .54 Ml 2.6         5030624
MBDF  001.52 089.1 m E Pg      2012/07/20 09:10:56.8  -0.1                          T                                        5030620
MBDF  001.52 089.1 m E Sg      2012/07/20 09:11:17.7   0.9                          T               15.0  .74 Ml 2.4         5030614
SMF   002.00 344.1 m E Pn      2012/07/20 09:11:01.6   0.0                          T                                        5038387
SMF   002.00 344.1 m E Sg      2012/07/20 09:11:31.7   0.1                          T                6.8  .42 Ml 2.4         5038386
CAF   001.84 277.2 m E Pg      2012/07/20 09:11:02.8   0.1                          T                                        5030626
CAF   001.84 277.2 m E Sg      2012/07/20 09:11:27.1   0.4                          T               28.8  .56 Ml 2.9         5030625
CABF  002.15 027.8 m E Pn      2012/07/20 09:11:03.5  -0.2                          T                                        5038390
CABF  002.15 027.8 m E Pg      2012/07/20 09:11:08.1  -0.2                          T                                        5038389
CABF  002.15 027.8 m E Sg      2012/07/20 09:11:36.5   0.3                          T               11.6  .49 Ml 2.6         5038388
MTLF  002.22 232.5 m E Pg      2012/07/20 09:11:08.7  -1.0                          T                                        5030618
MTLF  002.22 232.5 m E Sg      2012/07/20 09:11:38.3  -0.3                          T               13.7  .56 Ml 2.6         5030617
FRF   001.86 128.0 m E Sn      2012/07/20 09:11:21.6  -1.0                          T                9.3  .51 Ml 2.5         5038384
FRF   001.86 128.0 m E Sg      2012/07/20 09:11:27.0   0.0                          T                9.3  .40 Ml 2.6         5038383
LPG   001.69 061.9 m E Sg      2012/07/20 09:11:22.0  -0.1                          T               17.6  .46 Ml 2.7         5030612
RJF   002.29 285.8 m E Sg      2012/07/20 09:11:40.2  -0.3                          T               13.5  .50 Ml 2.4         5038385
TCF   002.31 313.4 m E Sg      2012/07/20 09:11:41.9   0.4                          T               12.2  .52 Ml 2.7         5038393
SSF   002.47 341.8 m E Sg      2012/07/20 09:11:46.5   0.4                          T               13.6  .44 Ml 2.9         5038392
LOR   002.60 348.3 m E Sg      2012/07/20 09:11:50.5   0.1 159.0  -8.7              T               10.1  .38 Ml 2.8         5038391

.
