EVENT     277638
    Date      Time       Latitude Longitude    Depth    Ndef Nsta Gap    Mag1  N    Mag2  N    Mag3  N   Author         ID
       rms   OT_Error      Smajor Sminor Az        Err   mdist  Mdist     Err        Err        Err      Quality

2012/06/06 20:02:40.4     44.5176    6.6928      2.0      40   10 056  Ml 1.9  7  Md 2.3  2              bulletin    277747
                                                                                                         _ldg
      0.30   +-  0.04       1.0     .7   59.02 +-  0.0    0.09   2.59   +-0.3      +-0.0                 m i ke

FRANCE
Sta     Dist  EvAz     Phase      Date       Time     TRes  Azim  AzRes  Slow  SRes Def   SNR       Amp   Per   Mag1   Mag2       ID
MBDF  000.22 015.0 m E Pg      2012/06/06 20:02:44.7  -0.2                          T                                        4989079
MBDF  000.22 015.0 m E Sg      2012/06/06 20:02:48.0   0.0                          T               52.0  .54        Md 2.3  4989071
ORIF  000.70 304.9 m E Pg      2012/06/06 20:02:53.6  -0.3                          T                                        4989078
ORIF  000.70 304.9 m E Sg      2012/06/06 20:03:02.9  -0.1                          T                5.6  .18        Md 2.2  4989070
SBF   000.84 140.5 m E Pg      2012/06/06 20:02:56.6   0.2                          T                                        4989072
SBF   000.84 140.5 m E Sg      2012/06/06 20:03:06.8  -0.6                          T                6.1  .24                4989068
FRF   000.96 182.0 m E Pg      2012/06/06 20:02:58.3   0.0                          T                                        4989074
FRF   000.96 182.0 m E Sg      2012/06/06 20:03:10.6  -0.3                          T                7.8  .23 Ml 2.4         4989066
LPG   000.98 002.4 m E Pg      2012/06/06 20:02:59.0  -0.2                          T                                        4989076
LPG   000.98 002.4 m E Sg      2012/06/06 20:03:11.9   0.0                          T                1.9  .25 Ml 1.7         4992667
SMRF  000.97 236.4 m E Pg      2012/06/06 20:02:59.3   0.7                          T                                        4989075
SMRF  000.97 236.4 m E Sg      2012/06/06 20:03:11.4   0.2                          T                1.9  .22 Ml 1.7         4989069
LPL   001.00 001.6 m E Pg      2012/06/06 20:02:59.6   0.2                          T                                        4989077
LPL   001.00 001.6 m E Sg      2012/06/06 20:03:12.5   0.1                          T                2.6  .26 Ml 1.8         4992666
LMR   001.19 186.5 m E Pg      2012/06/06 20:03:02.8   0.2                          T                                        4989073
LMR   001.19 186.5 m E Sg      2012/06/06 20:03:18.2   0.1                          T                4.1  .22 Ml 2.2         4989067
VIVF  001.48 283.9 m E Pn      2012/06/06 20:03:06.7   0.3                          T                                        4989065
VIVF  001.48 283.9 m E Sn      2012/06/06 20:03:26.0   0.8                          T                1.9  .29 Ml 1.8         4989064
LASF  002.08 258.8 m E Pn      2012/06/06 20:03:14.9   0.2                          T                                        4992665
LASF  002.08 258.8 m E Sn      2012/06/06 20:03:40.0   0.4                          T                 .3  .16 Ml 1.5         4992664

.
EVENT     277639
    Date      Time       Latitude Longitude    Depth    Ndef Nsta Gap    Mag1  N    Mag2  N    Mag3  N   Author         ID
       rms   OT_Error      Smajor Sminor Az        Err   mdist  Mdist     Err        Err        Err      Quality

2012/06/07 01:47:45.0     44.9143   11.0329      2.0     169   24 016  Ml 3.1 20                         bulletin    277748
                                                                                                         _ldg
      1.01   +-  0.07       2.3    1.7   43.68 +-  0.0    0.17   9.95   +-0.3                            m i ke

NORTHERN ITALY
Sta     Dist  EvAz     Phase      Date       Time     TRes  Azim  AzRes  Slow  SRes Def   SNR       Amp   Per   Mag1   Mag2       ID
PGF   002.79 212.6 m E Pn      2012/06/07 01:48:29.2   0.4                          T                                        4989168
PGF   002.79 212.6 m E Sn      2012/06/07 01:49:00.7  -0.4                          T               12.7  .34 Ml 3.2         4989147
SBF   002.79 249.1 m E Pn      2012/06/07 01:48:29.8   1.0                          T                                        4989167
SBF   002.79 249.1 m E Sn      2012/06/07 01:49:00.3  -0.6                          T               13.9  .23 Ml 3.2         4989146
MBDF  003.04 268.0 m E Pn      2012/06/07 01:48:30.4  -1.9                          T                                        4989160
MBDF  003.04 268.0 m E Sn      2012/06/07 01:49:07.4   0.3                          T               24.1  .46 Ml 3.2         4989139
LPG   003.08 282.4 m E Pn      2012/06/07 01:48:32.9  -0.2                          T                                        4989163
LPG   003.08 282.4 m E Sn      2012/06/07 01:49:08.2  -0.2                          T                4.0  .26 Ml 2.6         4989142
LPL   003.10 282.7 m E Pn      2012/06/07 01:48:35.7   2.5                          T                                        4989162
LPL   003.10 282.7 m E Sn      2012/06/07 01:49:08.9   0.2                          T               12.7  .36 Ml 3.0         4989141
FRF   003.43 248.3 m E Pn      2012/06/07 01:48:37.7   0.2                          T                                        4989165
FRF   003.43 248.3 m E Sn      2012/06/07 01:49:16.1  -0.2                          T                6.5  .20 Ml 3.1         4989144
LMR   003.62 245.7 m E Pn      2012/06/07 01:48:40.2   0.1                          T                                        4989166
LMR   003.62 245.7 m E Sn      2012/06/07 01:49:20.2  -0.6                          T               19.3  .27 Ml 3.4         4989145
ORIF  003.66 271.9 m E Pn      2012/06/07 01:48:41.4   0.7                          T                                        4989161
ORIF  003.66 271.9 m E Sn      2012/06/07 01:49:22.0   0.1                          T                7.8  .33 Ml 2.9         4989140
CABF  003.85 297.9 m E Pn      2012/06/07 01:48:44.1   0.8                          T                                        4989152
SMRF  004.02 258.4 m E Pn      2012/06/07 01:48:46.3   0.7                          T                                        4989164
SMRF  004.02 258.4 m E Sn      2012/06/07 01:49:30.4  -0.1                          T                5.7  .45 Ml 2.8         4989143
HINF  004.10 316.6 m E Pn      2012/06/07 01:48:46.7   0.1                          T                                        4989151
HINF  004.10 316.6 m E Sn      2012/06/07 01:49:31.9  -0.4                          T               15.0  .27 Ml 3.4         4989130
CDF   004.35 324.9 m E Pn      2012/06/07 01:48:50.6   0.4                          T                                        4989149
HAU   004.48 315.3 m E Pn      2012/06/07 01:48:52.0   0.3                          T                                        4989150
HAU   004.48 315.3 m E Sn      2012/06/07 01:49:42.6   1.2                          T               45.1  .38 Ml 3.6         4989129
VIVF  004.52 271.5 m E Pn      2012/06/07 01:48:52.1  -0.3                          T                                        4989159
VIVF  004.52 271.5 m E Sn      2012/06/07 01:49:42.1  -0.4                          T                1.2  .18 Ml 2.6         4989138
LASF  005.20 263.3 m E Pn      2012/06/07 01:49:00.9  -0.7                          T                                        4989158
LASF  005.20 263.3 m E Sn      2012/06/07 01:49:58.7   0.1                          T                2.3  .35 Ml 2.7         4989137
SMF   005.32 291.5 m E Pn      2012/06/07 01:49:03.6   0.4                          T                                        4989155
SMF   005.32 291.5 m E Sn      2012/06/07 01:50:01.0  -0.5                          T               24.9  .49 Ml 3.7         4989134
LOR   005.52 297.8 m E Pn      2012/06/07 01:49:06.4   0.4 119.2  6.5               T                                        4989148
LOR   005.52 297.8 m E Sn      2012/06/07 01:50:05.8  -0.4                          T                6.0  .33 Ml 3.3         4989127
SSF   005.67 294.9 m E Pn      2012/06/07 01:49:08.2   0.3                          T                                        4989153
SSF   005.67 294.9 m E Sn      2012/06/07 01:50:10.1   0.3                          T                2.0  .26 Ml 3.0         4989131
AVF   005.68 292.0 m E Pn      2012/06/07 01:49:08.2   0.1                          T                                        4989154
AVF   005.68 292.0 m E Sn      2012/06/07 01:50:10.5   0.3                          T                2.9  .39 Ml 2.9         4989133
BGF   005.96 288.9 m E Pn      2012/06/07 01:49:12.1   0.2                          T                                        4989157
BGF   005.96 288.9 m E Sn      2012/06/07 01:50:16.4  -0.4                          T               33.9  .49 Ml 3.9         4989136
HYF   006.29 294.9 m E Pn      2012/06/07 01:49:16.8   0.3                          T                                        4989156
HYF   006.29 294.9 m E Sn      2012/06/07 01:50:24.8   0.0                          T                                        4989135
CAF   006.37 273.3 m E Pn      2012/06/07 01:49:17.9   0.4                          T                                        4989126
SFTF  005.28 310.7 m E Sn      2012/06/07 01:50:00.2  -0.4                          T                2.3  .18 Ml 3.0         4989128
TCF   006.34 285.6 m E Sn      2012/06/07 01:50:27.3   1.4                          T                3.7  .33 Ml 3.2         4989132

.
EVENT     277640
    Date      Time       Latitude Longitude    Depth    Ndef Nsta Gap    Mag1  N    Mag2  N    Mag3  N   Author         ID
       rms   OT_Error      Smajor Sminor Az        Err   mdist  Mdist     Err        Err        Err      Quality

2012/06/07 02:36:17.5     43.0864   -1.7284      2.0      31    6 128  Ml 1.8  6  Md 2.0  2              bulletin    277749
                                                                                                         _ldg
      0.63   +-  0.15       2.7    2.3  159.00 +-  0.0    0.21   3.30   +-0.2      +-0.0                 m i ke

PYRENEES
Sta     Dist  EvAz     Phase      Date       Time     TRes  Azim  AzRes  Slow  SRes Def   SNR       Amp   Per   Mag1   Mag2       ID
SJPF  000.37 085.7 m E Pg      2012/06/07 02:36:24.2  -0.5                          T                                        4989188
SJPF  000.37 085.7 m E Sg      2012/06/07 02:36:29.2  -0.4                          T               15.7  .17        Md 2.0  4989185
ETSF  000.88 101.9 m E Pg      2012/06/07 02:36:33.1  -1.0                          T                                        4989187
ETSF  000.88 101.9 m E Sg      2012/06/07 02:36:45.6   0.0                          T                4.7  .23 Ml 2.1 Md 2.0  4989184
EPF   001.52 091.4 m E Pn      2012/06/07 02:36:44.1   0.0                          T                                        4989186
EPF   001.52 091.4 m E Pg      2012/06/07 02:36:45.8   0.0                          T                                        4989183
EPF   001.52 091.4 m E Sn      2012/06/07 02:37:03.0  -0.2                          T                                        4989181
EPF   001.52 091.4 m E Sg      2012/06/07 02:37:06.6   1.1                          T                1.8  .19 Ml 2.0         4989182
MTLF  002.90 083.6 m E Pn      2012/06/07 02:37:02.4  -0.3                          T                                        4992827
MTLF  002.90 083.6 m E Pg      2012/06/07 02:37:11.0  -0.2                          T                                        4992828
MTLF  002.90 083.6 m E Sn      2012/06/07 02:37:35.2  -0.9                          T                 .3  .16 Ml 1.6         4992829
RJF   003.22 045.3 m E Pn      2012/06/07 02:37:07.3   0.1                          T                                        4989178
RJF   003.22 045.3 m E Sn      2012/06/07 02:37:43.6  -0.2                          T                 .4  .18 Ml 1.5         4989177
CAF   003.30 054.8 m E Pn      2012/06/07 02:37:08.9   0.6                          T                                        4989180
CAF   003.30 054.8 m E Sn      2012/06/07 02:37:45.5  -0.2                          T                 .4  .17 Ml 1.8         4989179

.
EVENT     277641
    Date      Time       Latitude Longitude    Depth    Ndef Nsta Gap    Mag1  N    Mag2  N    Mag3  N   Author         ID
       rms   OT_Error      Smajor Sminor Az        Err   mdist  Mdist     Err        Err        Err      Quality

2012/06/07 05:10:12.3     42.9171     .0184      4.0 f    49    8 068  Ml 2.3  5  Md 2.3  5              bulletin    277750
                                                                                                         _ldg
      0.45   +-  0.06       1.3     .9   16.65 +-  0.0    0.03   3.02   +-0.1      +-0.2                 m i ke

PYRENEES
Sta     Dist  EvAz     Phase      Date       Time     TRes  Azim  AzRes  Slow  SRes Def   SNR       Amp   Per   Mag1   Mag2       ID
EPF   000.26 064.3 m E Pg      2012/06/07 05:10:17.4  -0.2                          T                                        4989219
EPF   000.26 064.3 m E Sg      2012/06/07 05:10:21.1  -0.1                          T               45.6  .18        Md 2.1  4989218
ETSF  000.42 267.7 m E Pg      2012/06/07 05:10:20.4  -0.2                          T                                        4989217
ETSF  000.42 267.7 m E Sg      2012/06/07 05:10:26.1  -0.2                          T                                Md 2.1  4989216
SJPF  000.93 282.6 m E Pg      2012/06/07 05:10:29.7  -0.2                          T                                        4989215
SJPF  000.93 282.6 m E Sg      2012/06/07 05:10:42.1   0.1                          T                                Md 2.3  4989214
MTLF  001.66 074.5 m E Pn      2012/06/07 05:10:41.0   0.5                          T                                        4989213
MTLF  001.66 074.5 m E Pg      2012/06/07 05:10:43.5   0.2                          T                                Md 2.4  4989212
MTLF  001.66 074.5 m E Sn      2012/06/07 05:11:01.8   0.7                          T                                        4992845
MTLF  001.66 074.5 m E Sg      2012/06/07 05:11:04.7  -0.1                          T                4.0  .26 Ml 2.3         4992844
LFF   002.09 014.2 m E Pn      2012/06/07 05:10:46.1  -0.2                          T                                        4992838
LFF   002.09 014.2 m E Sn      2012/06/07 05:11:11.4   0.2                          T                                        4992839
LFF   002.09 014.2 m E Sg      2012/06/07 05:11:18.4   0.4                          T                                Md 2.6  4989210
CAF   002.49 035.7 m E Pg      2012/06/07 05:10:58.9   0.2                          T                                        4992835
CAF   002.49 035.7 m E Sg      2012/06/07 05:11:30.6  -0.2                          T                1.7  .23 Ml 2.2         4992843
RJF   002.62 023.8 m E Pg      2012/06/07 05:11:00.9   0.0                          T                                        4992840
RJF   002.62 023.8 m E Sn      2012/06/07 05:11:25.0   1.1                          T                                        4992841
RJF   002.62 023.8 m E Sg      2012/06/07 05:11:34.6   0.0                          T                3.3  .18 Ml 2.3         4992842
LASF  003.02 066.2 m E Pg      2012/06/07 05:11:08.7   0.3                          T                                        4992836
LASF  003.02 066.2 m E Sg      2012/06/07 05:11:47.0  -0.3                          T                1.4  .24 Ml 2.2         4992837

.
