EVENT     276738
    Date      Time       Latitude Longitude    Depth    Ndef Nsta Gap    Mag1  N    Mag2  N    Mag3  N   Author         ID
       rms   OT_Error      Smajor Sminor Az        Err   mdist  Mdist     Err        Err        Err      Quality

2012/05/24 02:53:21.0     44.7271   11.2622      2.0      33   12 229  Ml 2.5 11                         bulletin    276838
                                                                                                         _ldg
      0.83   +-  0.48      10.2    5.9   96.22 +-  0.0    0.98   5.91   +-0.3                            m i ke

NORTHERN ITALY
Sta     Dist  EvAz     Phase      Date       Time     TRes  Azim  AzRes  Slow  SRes Def   SNR       Amp   Per   Mag1   Mag2       ID
PGF   002.73 217.8 m E Pn      2012/05/24 02:54:03.9  -0.2                          T                                        4961991
PGF   002.73 217.8 m E Sn      2012/05/24 02:54:36.6   0.9                          T                4.2  .35 Ml 2.7         4961990
SBF   002.88 253.9 m E Pn      2012/05/24 02:54:07.0   0.8                          T                                        4961988
SBF   002.88 253.9 m E Sn      2012/05/24 02:54:39.6   0.3                          T               28.3  .46 Ml 3.2         4961989
MBDF  003.20 271.6 m E Pn      2012/05/24 02:54:10.4  -0.2                          T                                        4961975
MBDF  003.20 271.6 m E Sn      2012/05/24 02:54:46.6  -0.5                          T                1.3  .25 Ml 2.2         4961974
LPG   003.29 285.1 m E Pn      2012/05/24 02:54:12.1   0.2                          T                                        4961980
LPG   003.29 285.1 m E Sn      2012/05/24 02:54:49.0  -0.3                          T                1.8  .37 Ml 2.2         4961981
LPL   003.30 285.4 m E Pn      2012/05/24 02:54:12.3   0.2                          T                                        4961979
LPL   003.30 285.4 m E Sn      2012/05/24 02:54:48.9  -0.7                          T                2.3  .32 Ml 2.3         4961978
FRF   003.52 252.3 m E Pn      2012/05/24 02:54:14.8   0.0                          T                                        4961984
FRF   003.52 252.3 m E Sn      2012/05/24 02:54:54.1  -0.5                          T                1.9  .17 Ml 2.6         4961985
LMR   003.70 249.5 m E Pn      2012/05/24 02:54:15.6  -1.6                          T                                        4961987
LMR   003.70 249.5 m E Sn      2012/05/24 02:54:58.5  -0.3                          T                3.4  .36 Ml 2.6         4961986
ORIF  003.83 274.7 m E Pn      2012/05/24 02:54:19.4   0.3                          T                                        4961977
ORIF  003.83 274.7 m E Sn      2012/05/24 02:55:02.3   0.1                          T                2.9  .35 Ml 2.5         4961976
SMRF  004.15 261.6 m E Pn      2012/05/24 02:54:23.3   0.0                          T                                        4961983
SMRF  004.15 261.6 m E Sn      2012/05/24 02:55:09.8   0.2                          T                1.3  .39 Ml 2.2         4961982
HINF  004.35 316.9 m E Pn      2012/05/24 02:54:25.8  -0.3                          T                                        4961972
HINF  004.35 316.9 m E Sn      2012/05/24 02:55:13.3  -1.0                          T                1.7  .26 Ml 2.5         4961973
SMF   005.54 292.9 m E Pn      2012/05/24 02:54:42.0  -0.3                          T                                        4961971
AVF   005.91 293.2 m E Sn      2012/05/24 02:55:50.8  -0.7                          T                 .2  .17 Ml 2.1         4961970

.
EVENT     276988
    Date      Time       Latitude Longitude    Depth    Ndef Nsta Gap    Mag1  N    Mag2  N    Mag3  N   Author         ID
       rms   OT_Error      Smajor Sminor Az        Err   mdist  Mdist     Err        Err        Err      Quality

2012/05/24 03:04:03.6     42.1595   -2.3727     11.0 f    14    3 104  Ml 1.6  3                         bulletin    277088
                                                                                                         _ldg
      0.45   +-  0.12       2.9    1.7  122.61 +-  0.0    1.07   3.01   +-0.1                            m i ke

SPAIN
Sta     Dist  EvAz     Phase      Date       Time     TRes  Azim  AzRes  Slow  SRes Def   SNR       Amp   Per   Mag1   Mag2       ID
SJPF  001.28 041.2 m E Pg      2012/05/24 03:04:27.8   0.3                          T                                        4989891
SJPF  001.28 041.2 m E Sg      2012/05/24 03:04:43.4  -0.6                          T                 .7  .16 Ml 1.6         4989892
ETSF  001.53 060.5 m E Pg      2012/05/24 03:04:32.2   0.0                          T                                        4989889
ETSF  001.53 060.5 m E Sg      2012/05/24 03:04:51.8  -0.3                          T                  1  .23 Ml 1.7         4989890
EPF   002.18 065.6 m E Sg      2012/05/24 03:05:12.3  -0.1                          T                 .5  .25 Ml 1.5         4989893

.
EVENT     276735
    Date      Time       Latitude Longitude    Depth    Ndef Nsta Gap    Mag1  N    Mag2  N    Mag3  N   Author         ID
       rms   OT_Error      Smajor Sminor Az        Err   mdist  Mdist     Err        Err        Err      Quality

2012/05/24 04:14:00.6     44.9071   11.3172     10.0      24   11 192  Ml 2.7 10                         bulletin    276835
                                                                                                         _ldg
      0.37   +-  0.13       2.8    1.8   61.36 +-  0.0    0.21   4.63   +-0.1                            m i ke

NORTHERN ITALY
Sta     Dist  EvAz     Phase      Date       Time     TRes  Azim  AzRes  Slow  SRes Def   SNR       Amp   Per   Mag1   Mag2       ID
PGF   002.90 216.3 m E Pn      2012/05/24 04:14:45.3   0.3                          T                                        4961887
PGF   002.90 216.3 m E Sn      2012/05/24 04:15:17.6  -0.2                          T                8.7  .62 Ml 2.8         4961886
SBF   002.97 250.8 m E Pn      2012/05/24 04:14:46.1   0.0                          T                                        4961878
SBF   002.97 250.8 m E Sn      2012/05/24 04:15:19.8   0.2                          T               15.8  .42 Ml 3.0         4961877
MBDF  003.24 268.4 m E Pn      2012/05/24 04:14:49.8   0.0                          T                                        4961880
MBDF  003.24 268.4 m E Sg      2012/05/24 04:15:42.0  -0.5                          T                8.3  .52 Ml 2.7         4961879
LPG   003.28 282.0 m E P       2012/05/24 04:14:53.5  -0.1                          T                                        4961871
LPG   003.28 282.0 m E Sn      2012/05/24 04:15:26.9  -0.3                          T               13.1  .84 Ml 2.7         4961872
LPL   003.30 282.3 m E P       2012/05/24 04:14:53.8   0.0                          T                                        4961884
LPL   003.30 282.3 m E Sn      2012/05/24 04:15:28.0   0.4                          T                5.9  .46 Ml 2.6         4961885
FRF   003.62 249.8 m E Pn      2012/05/24 04:14:54.1  -0.6                          T                                        4961874
FRF   003.62 249.8 m E Sn      2012/05/24 04:15:35.2   0.3                          T                5.4  .43 Ml 2.7         4961873
LMR   003.80 247.3 m E Pn      2012/05/24 04:14:57.4   0.2                          T                                        4961875
LMR   003.80 247.3 m E Sn      2012/05/24 04:15:39.6   0.3                          T                3.1  .24 Ml 2.7         4961876
ORIF  003.86 272.1 m E Pn      2012/05/24 04:14:58.1  -0.1                          T                                        4961883
ORIF  003.86 272.1 m E Sn      2012/05/24 04:15:41.0   0.1                          T                6.5  .54 Ml 2.7         4961882
CDF   004.48 323.0 m E Pn      2012/05/24 04:15:06.6   0.1                          T                                        4989910
HINF  004.24 314.9 m E P       2012/05/24 04:15:07.0  -0.1                          T                                        4989908
HINF  004.24 314.9 m E Sn      2012/05/24 04:15:50.2   0.2                          T                3.9  .40 Ml 2.7         4989909
HAU   004.63 313.8 m E Sn      2012/05/24 04:15:59.2   0.2                          T                5.7  .38 Ml 2.7         4989907

.
EVENT     276736
    Date      Time       Latitude Longitude    Depth    Ndef Nsta Gap    Mag1  N    Mag2  N    Mag3  N   Author         ID
       rms   OT_Error      Smajor Sminor Az        Err   mdist  Mdist     Err        Err        Err      Quality

2012/05/24 04:29:56.0     44.9049   11.3537      2.0      31   13 253  Ml 2.9 14                         bulletin    276836
                                                                                                         _ldg
      0.29   +-  0.17       3.5    2.0   87.28 +-  0.0    2.91   5.72   +-0.2                            m i ke

NORTHERN ITALY
Sta     Dist  EvAz     Phase      Date       Time     TRes  Azim  AzRes  Slow  SRes Def   SNR       Amp   Per   Mag1   Mag2       ID
PGF   002.91 216.7 m E Pn      2012/05/24 04:30:41.4  -0.1                          T                                        4961919
PGF   002.91 216.7 m E Sn      2012/05/24 04:31:15.0   0.0                          T               11.4  .43 Ml 3.1         4961918
SBF   003.00 251.0 m E Pn      2012/05/24 04:30:42.8   0.1                          T                                        4961916
SBF   003.00 251.0 m E Sn      2012/05/24 04:31:17.3   0.2                          T               26.4  .41 Ml 3.2         4961917
MBDF  003.27 268.5 m E Pn      2012/05/24 04:30:46.8   0.4                          T                                        4961905
MBDF  003.27 268.5 m E Sn      2012/05/24 04:31:23.9   0.3                          T               14.7  .50 Ml 3.0         4961904
LPG   003.31 281.9 m E Pn      2012/05/24 04:30:47.8   0.6                          T                                        4961911
LPG   003.31 281.9 m E Sn      2012/05/24 04:31:24.8   0.0                          T                9.2  .48 Ml 2.8         4961910
LPL   003.32 282.2 m E Pn      2012/05/24 04:30:47.9   0.6                          T                                        4961909
LPL   003.32 282.2 m E Sn      2012/05/24 04:31:25.3   0.2                          T               12.6  .48 Ml 2.9         4961908
FRF   003.64 250.0 m E Pn      2012/05/24 04:30:52.2   0.9                          T                                        4961912
FRF   003.64 250.0 m E Sn      2012/05/24 04:31:32.5   0.2                          T                9.9  .27 Ml 3.2         4961913
LMR   003.83 247.5 m E Pn      2012/05/24 04:30:54.0   0.1                          T               10.2  .40 Ml 3.0         4961915
LMR   003.83 247.5 m E Sn      2012/05/24 04:31:36.3  -0.4                          T                                        4961914
ORIF  003.89 272.1 m E Pn      2012/05/24 04:30:55.8   0.9                          T                                        4961906
ORIF  003.89 272.1 m E Sn      2012/05/24 04:31:38.0  -0.4                          T               11.1  .50 Ml 3.0         4961907
HINF  004.26 314.7 m E Pn      2012/05/24 04:30:59.9  -0.1                          T                                        4961901
HINF  004.26 314.7 m E Sn      2012/05/24 04:31:47.1  -0.2                          T               10.8  .60 Ml 3.0         4961900
CDF   004.49 322.8 m E Pn      2012/05/24 04:31:03.2   0.1                          T                                        4961923
CDF   004.49 322.8 m E Sn      2012/05/24 04:31:53.1   0.3                          T                3.1  .40 Ml 2.8         4961922
VIVF  004.75 271.8 m E Pn      2012/05/24 04:31:06.0  -0.5                          T                                        4961921
VIVF  004.75 271.8 m E Sn      2012/05/24 04:31:59.1   0.2                          T                2.4  .37 Ml 2.6         4961920
SMF   005.54 291.0 m E Pn      2012/05/24 04:31:17.0  -0.2                          T                                        4961903
SMF   005.54 291.0 m E Sn      2012/05/24 04:32:17.4  -0.2                          T                4.9  .48 Ml 3.0         4961902
LOR   005.72 297.0 m E Pn      2012/05/24 04:31:19.4  -0.3                          T                                        4961899
LOR   005.72 297.0 m E Sn      2012/05/24 04:32:22.4   0.2                          T                2.2  .33 Ml 2.9         4961898

.
EVENT     276737
    Date      Time       Latitude Longitude    Depth    Ndef Nsta Gap    Mag1  N    Mag2  N    Mag3  N   Author         ID
       rms   OT_Error      Smajor Sminor Az        Err   mdist  Mdist     Err        Err        Err      Quality

2012/05/24 04:54:34.8     44.7390   11.5949      2.0      26    9 247  Ml 2.6  8                         bulletin    276837
                                                                                                         _ldg
      0.85   +-  0.52      11.5    6.0  102.84 +-  0.0    1.14   4.93   +-0.3                            m i ke

NORTHERN ITALY
Sta     Dist  EvAz     Phase      Date       Time     TRes  Azim  AzRes  Slow  SRes Def   SNR       Amp   Per   Mag1   Mag2       ID
PGF   002.89 221.6 m E Pn      2012/05/24 04:55:19.6  -0.5                          T                                        4961954
PGF   002.89 221.6 m E Sn      2012/05/24 04:55:54.3   0.9                          T               28.4 1.06 Ml 3.1         4961953
SBF   003.11 255.1 m E Pn      2012/05/24 04:55:23.1   0.1                          T                                        4961951
SBF   003.11 255.1 m E Sn      2012/05/24 04:55:59.1   0.5                          T               18.4  .56 Ml 3.0         4961952
MBDF  003.44 271.5 m E Pn      2012/05/24 04:55:28.0   0.4                          T                                        4961940
MBDF  003.44 271.5 m E Sn      2012/05/24 04:56:07.8   1.3                          T                1.5  .26 Ml 2.3         4961939
LPL   003.53 284.4 m E Pn      2012/05/24 04:55:29.2   0.3                          T                                        4961944
LPL   003.53 284.4 m E Sn      2012/05/24 04:56:06.9  -1.8                          T                2.5  .34 Ml 2.4         4961943
LPG   003.51 284.2 m E Pn      2012/05/24 04:55:29.3   0.6                          T                                        4961946
LPG   003.51 284.2 m E Sn      2012/05/24 04:56:09.0   0.6                          T                1.4  .26 Ml 2.3         4961945
FRF   003.75 253.4 m E Pn      2012/05/24 04:55:30.9  -0.7                          T                                        4961947
FRF   003.75 253.4 m E Sn      2012/05/24 04:56:13.5  -0.3                          T                4.2  .36 Ml 2.7         4961948
LMR   003.93 250.8 m E Pn      2012/05/24 04:55:33.9  -0.1                          T                                        4961950
LMR   003.93 250.8 m E Sn      2012/05/24 04:56:16.2  -1.7                          T                3.2  .23 Ml 2.8         4961949
ORIF  004.07 274.5 m E Pn      2012/05/24 04:55:36.6   0.5                          T                                        4961942
ORIF  004.07 274.5 m E Sn      2012/05/24 04:56:20.8  -0.7                          T                1.6  .28 Ml 2.4         4961941
VIVF  004.93 273.8 m E Pn      2012/05/24 04:55:48.4   0.7                          T                                        4961938

.
