EVENT     283598
    Date      Time       Latitude Longitude    Depth    Ndef Nsta Gap    Mag1  N    Mag2  N    Mag3  N   Author         ID
       rms   OT_Error      Smajor Sminor Az        Err   mdist  Mdist     Err        Err        Err      Quality

2012/09/19 10:16:26.8     43.6699    6.9744       .0 f    38   12 085  Ml 2.0  9  Md 2.2  4              bulletin    283698
                                                                                                         _ldg
      0.45   +-  0.10       2.2    1.8  142.89 +-  0.0    0.07   3.74   +-0.2      +-0.1                 m i km

NEAR SOUTH COAST OF FRANCE
Sta     Dist  EvAz     Phase      Date       Time     TRes  Azim  AzRes  Slow  SRes Def   SNR       Amp   Per   Mag1   Mag2       ID
FRF   000.26 245.5 m E Pg      2012/09/19 10:16:31.7  -0.5                          T                                        5073941
FRF   000.26 245.5 m E Sg      2012/09/19 10:16:35.7  -0.2                          T               19.1  .21        Md 2.1  5073947
SBF   000.39 059.8 m E Pg      2012/09/19 10:16:34.5  -0.1                          T                                        5073939
SBF   000.39 059.8 m E Sg      2012/09/19 10:16:39.8  -0.1                          T               16.8  .24        Md 2.3  5073948
LMR   000.48 225.4 m E Pg      2012/09/19 10:16:35.8  -0.3                          T                                        5073940
LMR   000.48 225.4 m E Sg      2012/09/19 10:16:42.6   0.0                          T                8.5  .19        Md 2.1  5073946
SMRF  001.06 287.3 m E Pg      2012/09/19 10:16:47.3   0.4                          T                                        5073938
SMRF  001.06 287.3 m E Sn      2012/09/19 10:17:02.5   0.3                          T                6.2  .23 Ml 2.3 Md 2.3  5073945
MBDF  001.07 352.2 m E Pg      2012/09/19 10:16:47.4   0.2                          T                                        5076560
MBDF  001.07 352.2 m E Sg      2012/09/19 10:17:01.0  -0.2                          T                2.9  .18 Ml 2.1         5073951
ORIF  001.47 328.2 m E Pn      2012/09/19 10:16:53.4   0.2                          T                                        5076562
ORIF  001.47 328.2 m E Pg      2012/09/19 10:16:55.0   0.3                          T                                        5073942
ORIF  001.47 328.2 m E Sn      2012/09/19 10:17:12.2   0.0                          T                                        5073952
ORIF  001.47 328.2 m E Sg      2012/09/19 10:17:14.3   0.4                          T                2.9  .24 Ml 2.1         5076561
LPG   001.83 355.1 m E Pn      2012/09/19 10:16:58.5   0.2                          T                                        5076565
LPG   001.83 355.1 m E Pg      2012/09/19 10:17:02.0   0.4                          T                                        5073944
LPG   001.83 355.1 m E Sg      2012/09/19 10:17:26.2   0.8                          T                 .8  .21 Ml 1.8         5073953
LPL   001.85 354.7 m E Pn      2012/09/19 10:16:58.8   0.3                          T                                        5076563
LPL   001.85 354.7 m E Pg      2012/09/19 10:17:02.1   0.3                          T                                        5073943
LPL   001.85 354.7 m E Sn      2012/09/19 10:17:21.7   0.2                          T                1.4  .27 Ml 1.9         5076564
PGF   001.86 126.4 m E Pn      2012/09/19 10:16:58.9   0.5                          T                                        5076568
PGF   001.86 126.4 m E Sn      2012/09/19 10:17:21.3  -0.1                          T                 .9  .22 Ml 2.0         5076567
VIVF  002.03 306.4 m E Pn      2012/09/19 10:17:00.8   0.0                          T                                        5073950
VIVF  002.03 306.4 m E Sn      2012/09/19 10:17:25.4  -0.1                          T                 .9  .19 Ml 1.9         5073949
LASF  002.29 281.3 m E Pn      2012/09/19 10:17:04.3   0.1                          T                                        5076559
LASF  002.29 281.3 m E Sn      2012/09/19 10:17:31.4  -0.3                          T                1.1  .25 Ml 1.9         5076558
CAF   003.74 291.3 m E Pn      2012/09/19 10:17:24.2   0.1                          T                                        5076557
CAF   003.74 291.3 m E Pg      2012/09/19 10:17:36.3  -0.1                          T                                        5076556

.
EVENT     283588
    Date      Time       Latitude Longitude    Depth    Ndef Nsta Gap    Mag1  N    Mag2  N    Mag3  N   Author         ID
       rms   OT_Error      Smajor Sminor Az        Err   mdist  Mdist     Err        Err        Err      Quality

2012/09/19 11:10:58.6     43.3938    2.3822     25.0      26    7 189  Ml 2.0  5  Md 2.0  2              bulletin    283688
                                                                                                         _ldg
      0.42   +-  0.08       1.5    1.3   98.45 +-  0.0    0.13   2.21   +-0.2      +-0.4                 m i ke

FRANCE
Sta     Dist  EvAz     Phase      Date       Time     TRes  Azim  AzRes  Slow  SRes Def   SNR       Amp   Per   Mag1   Mag2       ID
MTLF  000.13 246.4 m E Pg      2012/09/19 11:11:04.0   0.3                          T                                        5073921
MTLF  000.13 246.4 m E Sg      2012/09/19 11:11:06.2  -0.9                          T                                Md 1.7  5073920
LASF  001.27 057.0 m E Pn      2012/09/19 11:11:19.1   0.0                          T                                        5076582
LASF  001.27 057.0 m E Pg      2012/09/19 11:11:22.9   0.2                          T                                        5073919
LASF  001.27 057.0 m E Sn      2012/09/19 11:11:34.3   0.1                          T                                        5076583
LASF  001.27 057.0 m E Sg      2012/09/19 11:11:39.3   0.0                          T                1.7  .17 Ml 1.9 Md 2.2  5073918
EPF   001.54 257.0 m E Pn      2012/09/19 11:11:23.0   0.2                          T                                        5076580
EPF   001.54 257.0 m E Pg      2012/09/19 11:11:27.7   0.1                          T                                        5073956
EPF   001.54 257.0 m E Sn      2012/09/19 11:11:40.5  -0.1                          T                                        5076581
EPF   001.54 257.0 m E Sg      2012/09/19 11:11:47.6   0.0                          T                3.4  .21 Ml 2.3         5073922
CAF   001.55 351.6 m E Pn      2012/09/19 11:11:23.0   0.1                          T                                        5076577
CAF   001.55 351.6 m E Pg      2012/09/19 11:11:27.5  -0.3                          T                                        5073954
CAF   001.55 351.6 m E Sn      2012/09/19 11:11:40.0  -0.9                          T                                        5076576
CAF   001.55 351.6 m E Sg      2012/09/19 11:11:49.5   1.5                          T                  1  .18 Ml 1.8         5073917
LFF   001.95 323.2 m E Pn      2012/09/19 11:11:28.6   0.3                          T                                        5076574
LFF   001.95 323.2 m E Sn      2012/09/19 11:11:50.1  -0.2                          T                                        5076573
LFF   001.95 323.2 m E Sg      2012/09/19 11:11:59.9  -0.3                          T                2.8  .30 Ml 2.0         5076575
RJF   002.01 342.3 m E Pn      2012/09/19 11:11:28.9  -0.3                          T                                        5076569
RJF   002.01 342.3 m E Pg      2012/09/19 11:11:35.4  -0.8                          T                                        5076570
RJF   002.01 342.3 m E Sn      2012/09/19 11:11:51.5  -0.3                          T                                        5076571
RJF   002.01 342.3 m E Sg      2012/09/19 11:12:01.9  -0.3                          T                                        5076572
ETSF  002.21 258.1 m E Pn      2012/09/19 11:11:32.0   0.1                          T                                        5076579
ETSF  002.21 258.1 m E Sn      2012/09/19 11:11:56.8   0.1                          T                                        5076578
ETSF  002.21 258.1 m E Sg      2012/09/19 11:12:08.2  -0.2                          T                 .7  .20 Ml 1.8         5073955

.
EVENT     283600
    Date      Time       Latitude Longitude    Depth    Ndef Nsta Gap    Mag1  N    Mag2  N    Mag3  N   Author         ID
       rms   OT_Error      Smajor Sminor Az        Err   mdist  Mdist     Err        Err        Err      Quality

2012/09/19 15:46:17.5     45.0484    6.5552      8.0 f    31    9 112  Ml 2.2  5  Md 2.1  3              bulletin    283700
                                                                                                         _ldg
      0.45   +-  0.09       1.7    1.5  106.95 +-  0.0    0.09   1.71   +-0.2      +-0.1                 m i ke

FRANCE
Sta     Dist  EvAz     Phase      Date       Time     TRes  Azim  AzRes  Slow  SRes Def   SNR       Amp   Per   Mag1   Mag2       ID
MBDF  000.36 154.4 m E Pg      2012/09/19 15:46:24.4  -0.4                          T                                        5073983
MBDF  000.36 154.4 m E Sg      2012/09/19 15:46:29.5  -0.1                          T               18.0  .20        Md 2.2  5073989
ORIF  000.50 255.1 m E Pg      2012/09/19 15:46:26.4  -0.9                          T                                        5073982
ORIF  000.50 255.1 m E Sg      2012/09/19 15:46:32.7  -1.1                          T               21.0  .22        Md 2.1  5073988
LPG   000.47 017.1 m E Pg      2012/09/19 15:46:26.8  -0.2                          T                                        5073980
LPG   000.47 017.1 m E Sg      2012/09/19 15:46:33.1  -0.2                          T                9.9  .22        Md 2.1  5073986
LPL   000.48 014.9 m E Pg      2012/09/19 15:46:27.0  -0.1                          T                                        5073981
LPL   000.48 014.9 m E Sg      2012/09/19 15:46:33.4  -0.2                          T                8.6  .24                5073987
SMRF  001.28 213.5 m E Pn      2012/09/19 15:46:41.2   1.1                          T                                        5073998
SMRF  001.28 213.5 m E Sg      2012/09/19 15:46:57.5  -0.6                          T                7.5  .43 Ml 2.2         5076589
VIVF  001.35 262.5 m E Pn      2012/09/19 15:46:41.4   0.3                          T                                        5076586
VIVF  001.35 262.5 m E Pg      2012/09/19 15:46:43.2   0.4                          T                                        5073985
VIVF  001.35 262.5 m E Sn      2012/09/19 15:46:58.6   0.4                          T                5.0  .52 Ml 1.9         5073992
SBF   001.34 151.7 m E Pn      2012/09/19 15:46:41.6   0.6                          T                                        5073990
SBF   001.34 151.7 m E Pg      2012/09/19 15:46:42.7   0.0                          T                                        5076587
SBF   001.34 151.7 m E Sg      2012/09/19 15:46:59.9  -0.2                          T               14.8  .52 Ml 2.4         5073995
FRF   001.49 177.4 m E Pg      2012/09/19 15:46:46.0   0.7                          T                                        5073984
FRF   001.49 177.4 m E Sn      2012/09/19 15:47:02.2   0.8                          T                4.9  .27 Ml 2.3         5073993
LMR   001.71 181.1 m E Pn      2012/09/19 15:46:46.5   0.5                          T                                        5073991
LMR   001.71 181.1 m E Pg      2012/09/19 15:46:49.3  -0.2                          T                                        5076588
LMR   001.71 181.1 m E Sn      2012/09/19 15:47:07.7   1.0                          T                1.8  .20 Ml 2.1         5073994

.
EVENT     283601
    Date      Time       Latitude Longitude    Depth    Ndef Nsta Gap    Mag1  N    Mag2  N    Mag3  N   Author         ID
       rms   OT_Error      Smajor Sminor Az        Err   mdist  Mdist     Err        Err        Err      Quality

2012/09/19 16:28:44.6     43.3631    6.6774      3.0 f    10    5 209  Ml 1.6  2  Md 1.4  2              bulletin    283701
                                                                                                         _ldg
      0.15   +-  0.10       2.3    1.1  151.57 +-  0.0    0.13   1.37   +-0.1      +-0.0                 m i ke

NEAR SOUTH COAST OF FRANCE
Sta     Dist  EvAz     Phase      Date       Time     TRes  Azim  AzRes  Slow  SRes Def   SNR       Amp   Per   Mag1   Mag2       ID
LMR   000.13 256.7 m E Pg      2012/09/19 16:28:47.2  -0.1                          T                                        5074004
LMR   000.13 256.7 m E Sg      2012/09/19 16:28:49.5   0.3                          T               10.8  .18        Md 1.4  5074000
FRF   000.20 353.6 m E Pg      2012/09/19 16:28:48.6  -0.1                          T                                        5074003
FRF   000.20 353.6 m E Sg      2012/09/19 16:28:51.5   0.0                          T                9.2  .24        Md 1.4  5074001
SBF   000.74 047.5 m E Pg      2012/09/19 16:28:58.9   0.2                          T                                        5074002
SBF   000.74 047.5 m E Sg      2012/09/19 16:29:08.1  -0.4                          T                8.6  .26                5074005
SMRF  001.01 307.8 m E Pg      2012/09/19 16:29:03.6   0.0                          T                                        5076594
SMRF  001.01 307.8 m E Sg      2012/09/19 16:29:16.7   0.1                          T                1.5  .22 Ml 1.6         5074006
MBDF  001.37 002.8 m E Pn      2012/09/19 16:29:09.1   0.0                          T                                        5076593
MBDF  001.37 002.8 m E Sn      2012/09/19 16:29:26.7   0.1                          T                 .6  .19 Ml 1.5         5076592

.
EVENT     283602
    Date      Time       Latitude Longitude    Depth    Ndef Nsta Gap    Mag1  N    Mag2  N    Mag3  N   Author         ID
       rms   OT_Error      Smajor Sminor Az        Err   mdist  Mdist     Err        Err        Err      Quality

2012/09/19 18:27:56.7     48.1659    7.0658     10.0      13    6 091  Ml 1.9  1  Md 1.8  3              bulletin    283702
                                                                                                         _ldg
      0.32   +-  0.06       1.3    1.1  147.93 +-  0.0    0.08   1.38   +-         +-0.0                 m i ke

FRANCE
Sta     Dist  EvAz     Phase      Date       Time     TRes  Azim  AzRes  Slow  SRes Def   SNR       Amp   Per   Mag1   Mag2       ID
CDF   000.28 029.6 m E Pg      2012/09/19 18:28:02.6   0.0                          T                                        5074010
CDF   000.28 029.6 m E Sg      2012/09/19 18:28:06.2  -0.4                          T                4.0  .16        Md 1.9  5074011
HINF  000.38 202.3 m E Pg      2012/09/19 18:28:04.1  -0.1                          T                                        5074013
HINF  000.38 202.3 m E Sg      2012/09/19 18:28:08.9  -0.4                          T                2.7  .20        Md 1.8  5074009
HAU   000.51 251.8 m E Pg      2012/09/19 18:28:06.8   0.3                          T                                Md 1.8  5074015
THEF  000.72 275.4 m E Pg      2012/09/19 18:28:11.5   1.1                          T                                        5074515
THEF  000.72 275.4 m E Sg      2012/09/19 18:28:20.6   0.8                          T                                        5074514
PAGF  000.98 294.0 m E Pg      2012/09/19 18:28:14.8  -0.2                          T                                        5074012
PAGF  000.98 294.0 m E Sg      2012/09/19 18:28:27.5  -0.3                          T                                        5074008
SFTF  001.36 272.4 m E Sg      2012/09/19 18:28:39.4  -0.2                          T                2.1  .24 Ml 1.9         5074014

.
