EVENT     281120
    Date      Time       Latitude Longitude    Depth    Ndef Nsta Gap    Mag1  N    Mag2  N    Mag3  N   Author         ID
       rms   OT_Error      Smajor Sminor Az        Err   mdist  Mdist     Err        Err        Err      Quality

2012/08/10 17:13:30.7     48.3720    7.3036      2.0      40   14 042  Ml 2.3  8  Md 2.2  4              bulletin    281220
                                                                                                         _ldg
      0.36   +-  0.05       1.3    1.0  159.02 +-  0.0    0.04   3.11   +-0.2      +-0.1                 m i ke

FRANCE
Sta     Dist  EvAz     Phase      Date       Time     TRes  Azim  AzRes  Slow  SRes Def   SNR       Amp   Per   Mag1   Mag2       ID
CDF   000.04 335.5 m E Pg      2012/08/10 17:13:31.4  -0.7                          T                                        5044110
CDF   000.04 335.5 m E Sg      2012/08/10 17:13:32.6  -0.3                          T              158.8  .22        Md 2.3  5044101
HINF  000.63 208.7 m E Pg      2012/08/10 17:13:42.7   0.0                          T                                        5044107
HINF  000.63 208.7 m E Sg      2012/08/10 17:13:51.0   0.0                          T               18.9  .24        Md 2.0  5044106
LANF  000.69 028.4 m E Pg      2012/08/10 17:13:44.3   0.5                          T                                        5044109
LANF  000.69 028.4 m E Pn      2012/08/10 17:13:46.3   0.4                          T                                        5046242
LANF  000.69 028.4 m E Sg      2012/08/10 17:13:53.3   0.4                          T               12.1  .28        Md 2.3  5044102
HAU   000.74 240.5 m E Pg      2012/08/10 17:13:44.4  -0.2                          T                                        5044108
HAU   000.74 240.5 m E Pn      2012/08/10 17:13:46.5   0.0                          T                                        5046247
HAU   000.74 240.5 m E Sg      2012/08/10 17:13:54.3   0.1                          T               21.5  .30        Md 2.1  5044105
THEF  000.89 261.1 m E Pg      2012/08/10 17:13:47.4   0.1                          T                                        5044096
THEF  000.89 261.1 m E Pn      2012/08/10 17:13:48.6   0.1                          T                                        5046246
THEF  000.89 261.1 m E Sg      2012/08/10 17:13:58.5  -0.4                          T                9.3  .33 Ml 2.2         5044097
PAGF  001.07 280.5 m E Pg      2012/08/10 17:13:51.0   0.3                          T                                        5044103
PAGF  001.07 280.5 m E Sg      2012/08/10 17:14:04.1  -0.3                          T               10.9  .37 Ml 2.3         5044104
MEZF  001.51 275.8 m E Pn      2012/08/10 17:13:56.7  -0.3                          T                                        5046244
MEZF  001.51 275.8 m E Sn      2012/08/10 17:14:15.8  -0.2                          T                6.9  .36 Ml 2.3         5046243
SFTF  001.52 264.5 m E Pn      2012/08/10 17:13:57.4   0.3                          T                                        5044114
SFTF  001.52 264.5 m E Pg      2012/08/10 17:13:59.1   0.0                          T                                        5046245
SFTF  001.52 264.5 m E Sn      2012/08/10 17:14:16.5   0.1                          T               15.1  .41 Ml 2.6         5044113
CABF  001.95 205.5 m E Pn      2012/08/10 17:14:02.6  -0.5                          T                                        5044111
CABF  001.95 205.5 m E Sn      2012/08/10 17:14:26.3  -0.3                          T                                        5044112
GIVF  002.38 317.7 m E Pn      2012/08/10 17:14:09.0   0.3                          T                                        5046241
LOR   002.57 245.8 m E Pn      2012/08/10 17:14:11.5   0.1                          T                                        5044100
LOR   002.57 245.8 m E Sn      2012/08/10 17:14:41.5   0.1                          T                2.4  .27 Ml 2.3         5044099
BAIF  002.64 310.9 m E Pn      2012/08/10 17:14:12.7   0.3                          T                                        5044115
BAIF  002.64 310.9 m E Sn      2012/08/10 17:14:43.6   0.5                          T                2.2  .41 Ml 2.1         5044098
SMF   002.91 234.9 m E Pn      2012/08/10 17:14:16.3   0.1                          T                                        5046250
SMF   002.91 234.9 m E Sn      2012/08/10 17:14:49.6  -0.1                          T                                        5046249
SMF   002.91 234.9 m E Sg      2012/08/10 17:15:01.9  -0.2                          T                1.5  .26 Ml 2.2         5046248
AVF   003.11 240.9 m E Pn      2012/08/10 17:14:19.1   0.3                          T                                        5046252
AVF   003.11 240.9 m E Sn      2012/08/10 17:14:54.3   0.0                          T                 .8  .20 Ml 2.0         5046251

.
EVENT     281121
    Date      Time       Latitude Longitude    Depth    Ndef Nsta Gap    Mag1  N    Mag2  N    Mag3  N   Author         ID
       rms   OT_Error      Smajor Sminor Az        Err   mdist  Mdist     Err        Err        Err      Quality

2012/08/10 17:57:12.0     48.4073    7.2772      2.0      22    9 072  Ml 2.1  5  Md 2.1  2              bulletin    281221
                                                                                                         _ldg
      0.32   +-  0.06       1.4    1.1  172.45 +-  0.0    0.01   2.88   +-0.3      +-0.0                 m i ke

FRANCE
Sta     Dist  EvAz     Phase      Date       Time     TRes  Azim  AzRes  Slow  SRes Def   SNR       Amp   Per   Mag1   Mag2       ID
CDF   000.01 351.2 m E Pg      2012/08/10 17:57:12.9   0.1                          T                                        5044123
CDF   000.01 351.2 m E Sg      2012/08/10 17:57:13.5   0.4                          T               27.6  .20        Md 2.1  5044120
HINF  000.66 205.8 m E Pg      2012/08/10 17:57:24.4  -0.1                          T                                        5044121
HINF  000.66 205.8 m E Sg      2012/08/10 17:57:32.9  -0.2                          T                2.9  .22        Md 2.1  5044118
LANF  000.67 031.2 m E Pg      2012/08/10 17:57:25.0   0.2                          T                                        5046258
LANF  000.67 031.2 m E Sg      2012/08/10 17:57:34.0   0.4                          T                2.5  .25                5046257
HAU   000.74 237.5 m E Pg      2012/08/10 17:57:25.9  -0.1                          T                                        5044122
HAU   000.74 237.5 m E Sg      2012/08/10 17:57:35.9   0.2                          T                3.1  .24                5044119
THEF  000.88 258.7 m E Pg      2012/08/10 17:57:28.5   0.0                          T                                        5046256
THEF  000.88 258.7 m E Sg      2012/08/10 17:57:39.8   0.0                          T                3.5  .36 Ml 1.7         5046255
PAGF  001.04 278.7 m E Pg      2012/08/10 17:57:32.0   0.4                          T                                        5044124
PAGF  001.04 278.7 m E Sg      2012/08/10 17:57:45.1   0.0                          T                5.2  .42 Ml 1.9         5044125
MEZF  001.48 274.5 m E Pn      2012/08/10 17:57:38.1   0.1                          T                                        5044129
MEZF  001.48 274.5 m E Sn      2012/08/10 17:57:56.7  -0.1                          T                8.8  .36 Ml 2.4         5044130
SFTF  001.51 263.1 m E Pn      2012/08/10 17:57:38.3   0.0                          T                                        5044128
SFTF  001.51 263.1 m E Sn      2012/08/10 17:57:57.8   0.4                          T               37.7 1.17 Ml 2.5         5044131
SSF   002.88 243.5 m E Pn      2012/08/10 17:57:57.0   0.0                          T                                        5046254
SSF   002.88 243.5 m E Sn      2012/08/10 17:58:30.1   0.0                          T                1.1  .34 Ml 2.0         5046253

.
EVENT     281122
    Date      Time       Latitude Longitude    Depth    Ndef Nsta Gap    Mag1  N    Mag2  N    Mag3  N   Author         ID
       rms   OT_Error      Smajor Sminor Az        Err   mdist  Mdist     Err        Err        Err      Quality

2012/08/10 17:58:09.2     43.7785    7.3765     10.0 f    36   10 161  Ml 2.2  8  Md 2.0  3              bulletin    281222
                                                                                                         _ldg
      0.61   +-  0.15       3.0    1.9  161.93 +-  0.0    0.05   2.56   +-0.3      +-0.0                 m i ke

NEAR SOUTH COAST OF FRANCE
Sta     Dist  EvAz     Phase      Date       Time     TRes  Azim  AzRes  Slow  SRes Def   SNR       Amp   Per   Mag1   Mag2       ID
SBF   000.09 026.7 m E Pg      2012/08/10 17:58:11.8  -0.2                          T                                        5044137
SBF   000.09 026.7 m E Sg      2012/08/10 17:58:13.8   0.0                          T              400.5  .18        Md 2.1  5044141
FRF   000.57 247.9 m E Pg      2012/08/10 17:58:19.3  -0.9                          T                                        5044136
FRF   000.57 247.9 m E Sg      2012/08/10 17:58:26.4  -1.4                          T               26.8  .24        Md 2.0  5044139
LMR   000.77 235.1 m E Pg      2012/08/10 17:58:23.0  -0.8                          T                                        5044135
LMR   000.77 235.1 m E Sg      2012/08/10 17:58:32.8  -1.1                          T               13.9  .18        Md 2.0  5044140
MBDF  001.04 335.6 m E Pg      2012/08/10 17:58:28.6  -0.4                          T                                        5044134
MBDF  001.04 335.6 m E Sg      2012/08/10 17:58:41.6  -1.0                          T                6.3  .32 Ml 2.1         5044144
SMRF  001.32 279.2 m E Pn      2012/08/10 17:58:32.8   0.7                          T                                        5044133
SMRF  001.32 279.2 m E Sn      2012/08/10 17:58:49.5   0.8                          T               16.0  .30 Ml 2.7         5044138
ORIF  001.57 317.2 m E Pn      2012/08/10 17:58:36.3   0.8                          T                                        5044132
ORIF  001.57 317.2 m E Sn      2012/08/10 17:58:55.6   0.9                          T                4.8  .22 Ml 2.4         5044149
LPG   001.78 345.7 m E Pn      2012/08/10 17:58:39.7   1.0                          T                                        5044146
LPG   001.78 345.7 m E Sn      2012/08/10 17:59:00.8   0.8                          T                5.2  .64 Ml 2.1         5046915
LPL   001.80 345.4 m E Pn      2012/08/10 17:58:40.0   1.1                          T                                        5044145
LPL   001.80 345.4 m E Sn      2012/08/10 17:59:01.8   1.4                          T                2.5  .36 Ml 2.0         5046914
VIVF  002.22 300.0 m E Pn      2012/08/10 17:58:45.0   0.6                          T                                        5044142
VIVF  002.22 300.0 m E Sn      2012/08/10 17:59:11.2   0.9                          T                1.3  .28 Ml 1.9         5044143
LASF  002.56 277.9 m E Pn      2012/08/10 17:58:49.5   0.5                          T                                        5046913
LASF  002.56 277.9 m E Sn      2012/08/10 17:59:18.9   0.6                          T                 .5  .18 Ml 1.8         5046912

.
EVENT     281125
    Date      Time       Latitude Longitude    Depth    Ndef Nsta Gap    Mag1  N    Mag2  N    Mag3  N   Author         ID
       rms   OT_Error      Smajor Sminor Az        Err   mdist  Mdist     Err        Err        Err      Quality

2012/08/10 20:41:37.9     42.4817    2.0610     10.0 f    51    8 035  Ml 2.0  9  Md 2.1  1              bulletin    281225
                                                                                                         _ldg
      0.40   +-  0.05        .9     .8  149.81 +-  0.0    0.06   3.04   +-0.2      +-                    m i ke

PYRENEES
Sta     Dist  EvAz     Phase      Date       Time     TRes  Azim  AzRes  Slow  SRes Def   SNR       Amp   Per   Mag1   Mag2       ID
MTLF  000.87 007.6 m E Pg      2012/08/10 20:41:54.4   0.1                          T                                        5044218
MTLF  000.87 007.6 m E Sg      2012/08/10 20:42:05.4  -0.2                          T                4.4  .16 Ml 2.2 Md 2.1  5044217
EPF   001.38 294.0 m E Pn      2012/08/10 20:42:02.7   1.0                          T                                        5044230
EPF   001.38 294.0 m E Sn      2012/08/10 20:42:19.8   0.9                          T                1.4  .27 Ml 1.7         5044229
ETSF  001.98 283.1 m E Pg      2012/08/10 20:42:15.0   0.2                          T                                        5044216
ETSF  001.98 283.1 m E Sg      2012/08/10 20:42:40.3   0.1                          T                1.7  .30 Ml 1.9         5044215
LASF  002.06 038.8 m E Pg      2012/08/10 20:42:16.3   0.0                          T                                        5044222
LASF  002.06 038.8 m E Sg      2012/08/10 20:42:42.9   0.0                          T                1.4  .26 Ml 1.9         5044221
CAF   002.44 000.1 m E Pn      2012/08/10 20:42:17.5   1.4                          T                                        5044227
CAF   002.44 000.1 m E Sg      2012/08/10 20:42:54.5  -0.3                          T                1.6  .21 Ml 2.2         5044228
LFF   002.64 339.2 m E Pn      2012/08/10 20:42:20.0   1.3                          T                                        5044225
LFF   002.64 339.2 m E Sg      2012/08/10 20:43:01.1   0.4                          T                1.5  .25 Ml 1.9         5044226
RJF   002.85 352.2 m E Pn      2012/08/10 20:42:23.1   1.5                          T                                        5044223
RJF   002.85 352.2 m E Pg      2012/08/10 20:42:30.4  -0.4                          T                                        5046261
RJF   002.85 352.2 m E Sg      2012/08/10 20:43:07.2  -0.2                          T                 .9  .20 Ml 1.7         5044224
VIVF  003.04 037.7 m E Pn      2012/08/10 20:42:24.9   0.7                          T                                        5044220
VIVF  003.04 037.7 m E Sg      2012/08/10 20:43:13.3   0.0                          T                  1  .26 Ml 2.0         5044219

.
EVENT     281126
    Date      Time       Latitude Longitude    Depth    Ndef Nsta Gap    Mag1  N    Mag2  N    Mag3  N   Author         ID
       rms   OT_Error      Smajor Sminor Az        Err   mdist  Mdist     Err        Err        Err      Quality

2012/08/10 20:42:18.2     42.4865    2.0656     10.0 f    37    9 042  Ml 2.1 10  Md 2.0  1              bulletin    281226
                                                                                                         _ldg
      0.45   +-  0.05        .9     .9  119.94 +-  0.0    0.07   4.11   +-0.3      +-                    m i ke

PYRENEES
Sta     Dist  EvAz     Phase      Date       Time     TRes  Azim  AzRes  Slow  SRes Def   SNR       Amp   Per   Mag1   Mag2       ID
MTLF  000.86 007.4 m E Pg      2012/08/10 20:42:34.7   0.2                          T                                        5044239
MTLF  000.86 007.4 m E Sg      2012/08/10 20:42:45.6  -0.1                          T                5.7  .18 Ml 2.3 Md 2.0  5044238
EPF   001.38 293.7 m E Pn      2012/08/10 20:42:43.1   1.2                          T                                        5044243
EPF   001.38 293.7 m E Sn      2012/08/10 20:43:00.2   1.0                          T                1.0  .18 Ml 1.7         5044237
ETSF  001.98 282.9 m E Pn      2012/08/10 20:42:51.5   1.4                          T                                        5044241
ETSF  001.98 282.9 m E Sg      2012/08/10 20:43:20.4  -0.2                          T                1.2  .24 Ml 1.9         5044236
LASF  002.06 038.9 m E Pg      2012/08/10 20:42:56.6   0.1                          T                                        5044240
LASF  002.06 038.9 m E Sg      2012/08/10 20:43:23.4   0.5                          T                1.3  .21 Ml 2.0         5044232
RJF   002.84 352.2 m E Pn      2012/08/10 20:43:02.9   1.1                          T                                        5044242
RJF   002.84 352.2 m E Sg      2012/08/10 20:43:46.6  -0.9                          T                 .9  .20 Ml 1.7         5044233
VIVF  003.03 037.7 m E Pg      2012/08/10 20:43:14.4   0.0                          T                                        5046263
VIVF  003.03 037.7 m E Sg      2012/08/10 20:43:53.6   0.2                          T                 .9  .33 Ml 1.9         5044231
CAF   002.44 360.0 m E Sg      2012/08/10 20:43:34.4  -0.5                          T                2.0  .21 Ml 2.3         5044235
LFF   002.63 339.1 m E Sg      2012/08/10 20:43:40.5  -0.4                          T                1.8  .23 Ml 2.1         5044234
BGF   004.11 007.5 m E Sg      2012/08/10 20:44:26.4  -0.6                          T                4.0  .30 Ml 2.8         5046262

.
