EVENT     284386
    Date      Time       Latitude Longitude    Depth    Ndef Nsta Gap    Mag1  N    Mag2  N    Mag3  N   Author         ID
       rms   OT_Error      Smajor Sminor Az        Err   mdist  Mdist     Err        Err        Err      Quality

2012/10/04 10:44:50.8     43.1796    -.0730      2.0       6    3 210             Md 1.7  2              bulletin    284487
                                                                                                         _ldg
      0.25   +-  0.20       7.2    2.3    3.11 +-  0.0    0.34   0.85              +-0.6                 m i ke

PYRENEES
Sta     Dist  EvAz     Phase      Date       Time     TRes  Azim  AzRes  Slow  SRes Def   SNR       Amp   Per   Mag1   Mag2       ID
EPF   000.34 116.1 m E Pg      2012/10/04 10:44:57.2  -0.2                          T                                        5084070
EPF   000.34 116.1 m E Sg      2012/10/04 10:45:02.1   0.2                          T               10.3  .48        Md 2.1  5084067
ETSF  000.45 231.9 m E Pg      2012/10/04 10:44:59.6   0.1                          T                                        5084069
ETSF  000.45 231.9 m E Sg      2012/10/04 10:45:04.9  -0.7                          T                8.1  .38        Md 1.3  5084068
SJPF  000.85 265.9 m E Pn      2012/10/04 10:45:08.0  -0.1                          T                                        5084073
SJPF  000.85 265.9 m E Sn      2012/10/04 10:45:20.4   0.1                          T                1.1  .29                5084072

.
EVENT     284411
    Date      Time       Latitude Longitude    Depth    Ndef Nsta Gap    Mag1  N    Mag2  N    Mag3  N   Author         ID
       rms   OT_Error      Smajor Sminor Az        Err   mdist  Mdist     Err        Err        Err      Quality

2012/10/04 12:39:25.4     44.5840    7.2244      6.0 f    48   10 114  Ml 2.5 10                         bulletin    284512
                                                                                                         _ldg
      0.38   +-  0.06       1.4     .8   59.51 +-  0.0    0.08   2.41   +-0.4                            m i ke

NORTHERN ITALY
Sta     Dist  EvAz     Phase      Date       Time     TRes  Azim  AzRes  Slow  SRes Def   SNR       Amp   Per   Mag1   Mag2       ID
MBDF  000.35 294.0 m E Pg      2012/10/04 12:39:32.4  -0.2                          T                                        5084174
MBDF  000.35 294.0 m E Sg      2012/10/04 12:39:36.3  -1.0                          T              149.9  .24                5084173
SBF   000.74 168.1 m E Pg      2012/10/04 12:39:39.6   0.2                          T                                        5084159
SBF   000.74 168.1 m E Sg      2012/10/04 12:39:48.8  -0.3                          T               13.4  .19                5084158
LPG   000.97 340.0 m E Pg      2012/10/04 12:39:44.0   0.0                          T                                        5084168
LPG   000.97 340.0 m E Sg      2012/10/04 12:39:57.4   0.7                          T                9.7  .18 Ml 2.5         5084167
LPL   001.00 339.7 m E Pg      2012/10/04 12:39:44.5   0.1                          T                                        5084170
LPL   001.00 339.7 m E Sg      2012/10/04 12:39:57.5   0.1                          T               18.6  .26 Ml 2.7         5084169
ORIF  001.01 289.7 m E Pg      2012/10/04 12:39:44.9   0.3                          T                                        5084172
ORIF  001.01 289.7 m E Sg      2012/10/04 12:39:57.5  -0.3                          T               12.8  .20 Ml 2.6         5084171
FRF   001.10 202.3 m E Pg      2012/10/04 12:39:46.1   0.0                          T                                        5084163
FRF   001.10 202.3 m E Sg      2012/10/04 12:40:00.5   0.0                          T               28.3  .19 Ml 3.1         5084162
SMRF  001.33 243.4 m E Pg      2012/10/04 12:39:50.5   0.2                          T                                        5084164
SMRF  001.33 243.4 m E Sn      2012/10/04 12:40:07.9   1.9                          T                9.0  .26 Ml 2.5         5084165
LMR   001.35 202.7 m E Pg      2012/10/04 12:39:50.8   0.2                          T                                        5084161
LMR   001.35 202.7 m E Sg      2012/10/04 12:40:08.2   0.1                          T               27.2  .26 Ml 3.0         5084160
VIVF  001.84 279.4 m E P       2012/10/04 12:39:58.2   0.2                          T                                        5084155
VIVF  001.84 279.4 m E Sg      2012/10/04 12:40:23.7   0.3                          T                1.3  .26 Ml 1.9         5084154
PGF   002.41 147.0 m E Pn      2012/10/04 12:40:04.2   0.4                          T                                        5084157
PGF   002.41 147.0 m E Sn      2012/10/04 12:40:31.9   0.1                          T                 .8  .16 Ml 2.2         5084156

.
EVENT     284432
    Date      Time       Latitude Longitude    Depth    Ndef Nsta Gap    Mag1  N    Mag2  N    Mag3  N   Author         ID
       rms   OT_Error      Smajor Sminor Az        Err   mdist  Mdist     Err        Err        Err      Quality

2012/10/04 14:49:36.9     44.6357    7.2613     12.0 f    23    4 133  Ml 1.7  2  Md 1.7  2              bulletin    284533
                                                                                                         _ldg
      0.32   +-  0.08       2.0    1.2   70.18 +-  0.0    0.13   1.41   +-0.1      +-0.0                 m i ke

NORTHERN ITALY
Sta     Dist  EvAz     Phase      Date       Time     TRes  Azim  AzRes  Slow  SRes Def   SNR       Amp   Per   Mag1   Mag2       ID
MBDF  000.36 284.8 m E Pg      2012/10/04 14:49:44.5   0.1                          T                                        5084331
MBDF  000.36 284.8 m E Sg      2012/10/04 14:49:49.1  -0.4                          T                4.4  .23        Md 1.7  5084330
SBF   000.78 170.8 m E Pg      2012/10/04 14:49:52.2   0.4                          T                                        5084333
SBF   000.78 170.8 m E Sg      2012/10/04 14:50:02.7   0.5                          T                1.3  .17        Md 1.7  5084332
FRF   001.16 202.6 m E Pg      2012/10/04 14:49:59.1   0.3                          T                                        5084337
FRF   001.16 202.6 m E Sg      2012/10/04 14:50:14.1   0.2                          T                1.2  .17 Ml 1.8         5084336
LMR   001.41 202.9 m E Pg      2012/10/04 14:50:03.5   0.2                          T                                        5084335
LMR   001.41 202.9 m E Sg      2012/10/04 14:50:21.3  -0.2                          T                 .7  .17 Ml 1.6         5084334

.
EVENT     284433
    Date      Time       Latitude Longitude    Depth    Ndef Nsta Gap    Mag1  N    Mag2  N    Mag3  N   Author         ID
       rms   OT_Error      Smajor Sminor Az        Err   mdist  Mdist     Err        Err        Err      Quality

2012/10/04 14:51:17.7     44.6283    7.2616     12.0 f    27    7 155  Ml 1.6  4  Md 1.6  1              bulletin    284534
                                                                                                         _ldg
      0.30   +-  0.09       2.0    1.0   60.95 +-  0.0    0.12   1.40   +-0.2      +-                    m i ke

NORTHERN ITALY
Sta     Dist  EvAz     Phase      Date       Time     TRes  Azim  AzRes  Slow  SRes Def   SNR       Amp   Per   Mag1   Mag2       ID
MBDF  000.36 285.9 m E Pg      2012/10/04 14:51:25.2   0.0                          T                                        5084383
MBDF  000.36 285.9 m E Sg      2012/10/04 14:51:29.7  -0.5                          T                5.9  .25        Md 1.6  5084382
SBF   000.78 170.7 m E Pg      2012/10/04 14:51:32.5   0.0                          T                                        5084369
SBF   000.78 170.7 m E Sg      2012/10/04 14:51:43.2   0.5                          T                1.6  .17                5084368
LPL   000.96 337.3 m E Pg      2012/10/04 14:51:36.3   0.1                          T                                        5084372
LPL   000.96 337.3 m E Sg      2012/10/04 14:51:48.6  -0.1                          T                2.2  .25 Ml 1.8         5084371
ORIF  001.03 286.9 m E Pg      2012/10/04 14:51:37.1   0.0                          T                                        5084370
FRF   001.16 202.8 m E Pg      2012/10/04 14:51:40.1   0.7                          T                                        5084381
FRF   001.16 202.8 m E Sg      2012/10/04 14:51:54.2  -0.2                          T                1.1  .23 Ml 1.6         5084380
LMR   001.40 203.0 m E Pn      2012/10/04 14:51:43.0   1.5                          T                                        5084379
LMR   001.40 203.0 m E Pg      2012/10/04 14:51:44.0   0.1                          T                                        5084378
LMR   001.40 203.0 m E Sn      2012/10/04 14:52:01.0   2.2                          T                                        5084377
LMR   001.40 203.0 m E Sg      2012/10/04 14:52:02.2   0.1                          T                 .4  .19 Ml 1.3         5084376
SMRF  001.38 242.3 m E Pg      2012/10/04 14:51:43.5   0.0                          T                                        5092781
SMRF  001.38 242.3 m E Sg      2012/10/04 14:52:01.8   0.5                          T                 .9  .16 Ml 1.7         5084373

.
EVENT     284502
    Date      Time       Latitude Longitude    Depth    Ndef Nsta Gap    Mag1  N    Mag2  N    Mag3  N   Author         ID
       rms   OT_Error      Smajor Sminor Az        Err   mdist  Mdist     Err        Err        Err      Quality

2012/10/04 17:06:18.0     40.3174   -3.8067      2.0     120   10 027  Ml 3.1 11                         bulletin    284603
                                                                                                         _ldg
      0.75   +-  0.06       1.5    1.2  135.92 +-  0.0    0.42   8.30   +-0.3                            m i ke

SPAIN
Sta     Dist  EvAz     Phase      Date       Time     TRes  Azim  AzRes  Slow  SRes Def   SNR       Amp   Per   Mag1   Mag2       ID
SJPF  003.40 033.8 m E Pn      2012/10/04 17:07:10.3   0.2                          T                                        5084491
SJPF  003.40 033.8 m E Sn      2012/10/04 17:07:47.9  -0.7                          T               14.2  .20 Ml 3.4         5084490
ETSF  003.55 042.3 m E Pn      2012/10/04 17:07:12.1  -0.1                          T                                        5084489
ETSF  003.55 042.3 m E Sn      2012/10/04 17:07:51.8  -0.4                          T               12.0  .26 Ml 3.2         5084488
EPF   004.12 047.5 m E Pn      2012/10/04 17:07:20.2   0.2                          T                                        5084487
EPF   004.12 047.5 m E Sn      2012/10/04 17:08:05.2  -0.7                          T               15.1  .18 Ml 3.6         5084486
MTLF  005.42 054.2 m E Pn      2012/10/04 17:07:37.7   0.0                          T                                        5084485
MTLF  005.42 054.2 m E Sn      2012/10/04 17:08:37.0   0.1                          T                2.4  .26 Ml 2.9         5084484
LFF   005.71 034.5 m E Pn      2012/10/04 17:07:41.7   0.2                          T                                        5084481
LFF   005.71 034.5 m E Sn      2012/10/04 17:08:43.2  -0.6                          T                2.8  .24 Ml 2.9         5084480
CAF   006.32 041.3 m E Pn      2012/10/04 17:07:49.3  -0.6                          T                                        5084483
CAF   006.32 041.3 m E Sn      2012/10/04 17:08:57.3  -1.2                          T                2.7  .29 Ml 3.1         5084482
RJF   006.34 036.4 m E Pn      2012/10/04 17:07:50.4   0.2                          T                                        5084479
RJF   006.34 036.4 m E Sn      2012/10/04 17:08:58.1  -0.7                          T                3.0  .22 Ml 3.0         5084478
TCF   007.41 034.3 m E Pn      2012/10/04 17:08:05.0   0.3                          T                                        5084477
TCF   007.41 034.3 m E Sn      2012/10/04 17:09:23.9  -0.4                          T                 .7  .22 Ml 2.8         5084474
AVF   008.30 036.4 m E Pn      2012/10/04 17:08:17.0   0.2                          T                                        5084476
AVF   008.30 036.4 m E Sn      2012/10/04 17:09:44.1  -1.6                          T                 .4  .23 Ml 2.7         5084475
LASF  006.82 054.1 m E Sn      2012/10/04 17:09:09.7  -0.6                          T                1.2  .27 Ml 2.9         5084473

.
EVENT     284437
    Date      Time       Latitude Longitude    Depth    Ndef Nsta Gap    Mag1  N    Mag2  N    Mag3  N   Author         ID
       rms   OT_Error      Smajor Sminor Az        Err   mdist  Mdist     Err        Err        Err      Quality

2012/10/04 17:27:48.3     44.5739    7.3011     13.0 f    80   23 073  Ml 2.7 23                         bulletin    284538
                                                                                                         _ldg
      0.99   +-  0.11       2.8    1.9   63.32 +-  0.0    0.08   3.97   +-0.3                            m i ke

NORTHERN ITALY
Sta     Dist  EvAz     Phase      Date       Time     TRes  Azim  AzRes  Slow  SRes Def   SNR       Amp   Per   Mag1   Mag2       ID
MBDF  000.41 292.2 m E Pg      2012/10/04 17:27:55.2  -1.4                          T   001.0                                5084565
MBDF  000.41 292.2 m E Sg      2012/10/04 17:27:59.8  -2.4                          T              316.7  .21                5084578
SBF   000.72 172.2 m E Pg      2012/10/04 17:28:02.2   0.1                          T   001.0                                5084552
SBF   000.72 172.2 m E Sn      2012/10/04 17:28:12.6  -0.3                          T   001.0       52.4  .21                5084553
LPG   001.00 337.3 m E Pn      2012/10/04 17:28:05.9  -1.0                          T   001.0                                5084548
LPG   001.00 337.3 m E Sg      2012/10/04 17:28:20.0  -0.7                          T               39.4  .18 Ml 3.2         5084576
LPL   001.03 337.0 m E Pg      2012/10/04 17:28:06.4  -1.5                          T   001.0                                5084549
LPL   001.03 337.0 m E Sg      2012/10/04 17:28:22.4   1.1                          T               37.7  .29 Ml 2.9         5084577
ORIF  001.07 289.3 m E Pn      2012/10/04 17:28:07.0  -0.6                          T   001.0                                5084569
ORIF  001.07 289.3 m E Sn      2012/10/04 17:28:21.6   0.2                          T   001.0       52.2  .30 Ml 3.1         5084570
FRF   001.12 205.2 m E Pg      2012/10/04 17:28:09.5   0.1                          T   001.0                                5084539
FRF   001.12 205.2 m E Sg      2012/10/04 17:28:23.4  -0.5                          T   001.0       88.2  .34 Ml 3.3         5084541
LMR   001.37 205.0 m E Pg      2012/10/04 17:28:13.6  -0.3                          T   001.0                                5084544
LMR   001.37 205.0 m E Sg      2012/10/04 17:28:31.0  -0.6                          T   001.0       65.9  .33 Ml 3.3         5084545
SMRF  001.38 244.9 m E Pg      2012/10/04 17:28:14.1   0.0                          T   001.0                                5084574
SMRF  001.38 244.9 m E Sg      2012/10/04 17:28:31.7  -0.3                          T   001.0       57.7  .38 Ml 3.2         5084575
VIVF  001.89 279.5 m E Pn      2012/10/04 17:28:19.0   0.3                          T   001.0                                5084571
VIVF  001.89 279.5 m E Pg      2012/10/04 17:28:23.6   0.0                          T                                        5092784
VIVF  001.89 279.5 m E Sn      2012/10/04 17:28:40.0   0.0                          T   001.0       10.7  .32 Ml 2.7         5084572
CABF  002.21 337.7 m E Pn      2012/10/04 17:28:24.9   1.8                          T   001.0                                5084561
CABF  002.21 337.7 m E Sn      2012/10/04 17:28:49.4   0.8                          T   001.0       11.6  .48 Ml 2.6         5084562
CABF  002.21 337.7 m E Sg      2012/10/04 17:28:59.1   1.2                          T               10.1  .43 Ml 2.6         5092783
PGF   002.37 148.0 m E Pn      2012/10/04 17:28:25.5   0.2                          T   001.0                                5084550
PGF   002.37 148.0 m E Sn      2012/10/04 17:28:52.8   0.3                          T   001.0        2.3  .25 Ml 2.5         5084551
LASF  002.52 259.8 m E P       2012/10/04 17:28:30.0   0.1                          T                                        5092785
LASF  002.52 259.8 m E Sn      2012/10/04 17:28:55.8  -0.1                          T   001.0        3.3  .24 Ml 2.5         5084543
SMF   003.19 311.7 m E Pn      2012/10/04 17:28:38.2   1.8                          T                                        5084579
SMF   003.19 311.7 m E Sn      2012/10/04 17:29:12.4   0.4                          T   001.0                                5084555
SMF   003.19 311.7 m E Sg      2012/10/04 17:29:28.7   0.2                          T   001.0       10.6  .56 Ml 2.7         5084556
HINF  003.26 354.7 m E Pn      2012/10/04 17:28:39.5   2.2                          T   001.0                                5084563
HINF  003.26 354.7 m E Sn      2012/10/04 17:29:14.1   0.5                          T   001.0        3.4  .28 Ml 2.6         5084564
AVF   003.55 310.1 m E Pn      2012/10/04 17:28:42.7   1.6                          T   001.0                                5084531
AVF   003.55 310.1 m E Sn      2012/10/04 17:29:23.6   3.2                          T   001.0          3  .36 Ml 2.5         5084532
LOR   003.61 319.5 m E Pn      2012/10/04 17:28:42.8   0.7                          T   001.0                                5084546
LOR   003.61 319.5 m E Sn      2012/10/04 17:29:22.7   0.7                          T   001.0        2.6  .24 Ml 2.6         5084547
SSF   003.64 314.5 m E Pn      2012/10/04 17:28:43.1   0.7                          T   001.0                                5084557
SSF   003.64 314.5 m E Sn      2012/10/04 17:29:23.1   0.5                          T   001.0                                5084558
SSF   003.64 314.5 m E Sg      2012/10/04 17:29:44.2   1.8                          T   001.0        3.3  .36 Ml 2.6         5084559
BGF   003.70 303.9 m E Pn      2012/10/04 17:28:43.5   0.2                          T   001.0                                5084533
BGF   003.70 303.9 m E Sn      2012/10/04 17:29:25.1   0.9                          T   001.0        9.4  .40 Ml 3.0         5084534
CAF   003.75 277.2 m E Pn      2012/10/04 17:28:45.5   1.5                          T   001.0                                5084535
CAF   003.75 277.2 m E Sg      2012/10/04 17:29:45.7  -0.2                          T   001.0        2.4  .52 Ml 2.3         5084536
CDF   003.84 359.8 m E Pn      2012/10/04 17:28:46.0   0.7                          T   001.0                                5084537
CDF   003.84 359.8 m E Sn      2012/10/04 17:29:28.7   1.1                          T   001.0        2.0  .20 Ml 2.7         5084538
MTLF  003.87 253.2 m E Pn      2012/10/04 17:28:46.2   0.6                          T   001.0                                5084566
MTLF  003.87 253.2 m E Sg      2012/10/04 17:29:48.7  -1.0                          T   001.0         .7  .28 Ml 2.0         5084568
TCF   003.97 297.4 m E Pn      2012/10/04 17:28:48.5   1.5                          T   001.0                                5084560
SFTF  003.96 337.5 m E Sn      2012/10/04 17:29:31.3   1.1                          T                4.4  .25 Ml 2.9         5092782

.
