BEGIN GSE2.0
MSG_TYPE DATA
MSG_ID 28-APR-1110:55:07  FRA_NDC
E-MAIL
DATA_TYPE BULLETIN
Reviewed Bulletin (REB) # P2011-016  from French NDC for regional phases     PERIOD 20 APR 2011 TO 26 APR 2011 C M., J-P S
EVENT     258436
    Date      Time       Latitude Longitude    Depth    Ndef Nsta Gap    Mag1  N    Mag2  N    Mag3  N   Author         ID
       rms   OT_Error      Smajor Sminor Az        Err   mdist  Mdist     Err        Err        Err      Quality

2011/04/20 01:09:36.9     43.0288   -1.4250      2.0      34    7 159  Ml 1.5  5  Md 1.8  2              js067245    258436

      0.68   +-  0.17       3.6    2.0  123.63 +-  0.0    0.12   3.15   +-0.1      +-0.1                 m i ke

PYRENEES
Sta     Dist  EvAz     Phase      Date       Time     TRes  Azim  AzRes  Slow  SRes Def   SNR       Amp   Per   Mag1   Mag2       ID
SJPF  000.17 060.0 m E Pg      2011/04/20 01:09:40.3  -0.2                          T                                        4676604
SJPF  000.17 060.0 m E Sg      2011/04/20 01:09:43.1   0.3                          T               15.7  .26        Md 1.9  4676599
ETSF  000.65 101.3 m E Pg      2011/04/20 01:09:49.6   0.3                          T                                        4676603
ETSF  000.65 101.3 m E Sg      2011/04/20 01:09:58.1   0.3                          T                3.2  .37        Md 1.7  4676600
EPF   001.29 089.3 m E Pg      2011/04/20 01:10:02.0   0.9                          T                                        4676602
EPF   001.29 089.3 m E Sg      2011/04/20 01:10:18.9   1.0                          T                 .9  .19 Ml 1.6         4676601
LFF   002.47 038.5 m E Pn      2011/04/20 01:10:16.3   0.0                          T                                        4676594
LFF   002.47 038.5 m E Sn      2011/04/20 01:10:45.3   0.1                          T                2.3  .55 Ml 1.8         4676595
MTLF  002.68 082.1 m E Pn      2011/04/20 01:10:19.7   0.4                          T                                        4676598
MTLF  002.68 082.1 m E Sn      2011/04/20 01:10:51.1   0.7                          T                 .3  .22 Ml 1.5         4676597
RJF   003.11 041.9 m E Pn      2011/04/20 01:10:25.2   0.1                          T                                        4676592
RJF   003.11 041.9 m E Sn      2011/04/20 01:11:00.6   0.1                          T                 .4  .19 Ml 1.4         4676591
CAF   003.15 051.8 m E Pn      2011/04/20 01:10:25.9   0.2                          T                                        4676593
CAF   003.15 051.8 m E Sn      2011/04/20 01:11:01.9   0.2                          T                 .2  .19 Ml 1.4         4676596

.
EVENT     258433
    Date      Time       Latitude Longitude    Depth    Ndef Nsta Gap    Mag1  N    Mag2  N    Mag3  N   Author         ID
       rms   OT_Error      Smajor Sminor Az        Err   mdist  Mdist     Err        Err        Err      Quality

2011/04/20 02:11:31.3     43.1030    -.5400      2.0     107   21 048  Ml 2.6 21  Md 2.7  3              js067245    258433

      0.53   +-  0.04       1.0     .7  140.36 +-  0.0    0.11   5.50   +-0.2      +-0.1                 m i ke

PYRENEES
Sta     Dist  EvAz     Phase      Date       Time     TRes  Azim  AzRes  Slow  SRes Def   SNR       Amp   Per   Mag1   Mag2       ID
ETSF  000.20 183.9 m E Pg      2011/04/20 02:11:35.0  -0.5                          T                                        4676612
ETSF  000.20 183.9 m E Sg      2011/04/20 02:11:37.0  -1.4                          T              257.0  .30        Md 2.8  4676607
SJPF  000.50 271.4 m E Pg      2011/04/20 02:11:40.2  -0.6                          T                                        4676610
SJPF  000.50 271.4 m E Sg      2011/04/20 02:11:47.1  -0.4                          T               44.2  .26        Md 2.6  4676608
EPF   000.65 096.1 m E Pg      2011/04/20 02:11:43.1  -0.6                          T                                        4676611
EPF   000.65 096.1 m E Sg      2011/04/20 02:11:52.0  -0.2                          T               36.6  .28        Md 2.7  4676606
LFF   002.06 026.3 m E Pn      2011/04/20 02:12:05.3   0.3                          T                                        4676662
LFF   002.06 026.3 m E Pg      2011/04/20 02:12:09.6   0.1                          T                                        4676667
LFF   002.06 026.3 m E Sg      2011/04/20 02:12:35.9   0.0                          T               17.6  .28 Ml 2.8         4676671
MTLF  002.03 082.3 m E Pn      2011/04/20 02:12:05.8   1.1                          T                                        4676609
MTLF  002.03 082.3 m E Pg      2011/04/20 02:12:09.2   0.2                          T                                        4676659
MTLF  002.03 082.3 m E Sg      2011/04/20 02:12:34.6  -0.5                          T                6.4  .32 Ml 2.5         4676605
CAF   002.62 045.0 m E Pn      2011/04/20 02:12:13.1   0.3                          T                                        4676663
CAF   002.62 045.0 m E Pg      2011/04/20 02:12:20.1   0.2                          T                                        4676664
CAF   002.62 045.0 m E Sg      2011/04/20 02:12:53.8   0.3                          T                7.2  .22 Ml 2.9         4676672
RJF   002.65 033.2 m E Pn      2011/04/20 02:12:13.4   0.2                          T                                        4676661
RJF   002.65 033.2 m E Pg      2011/04/20 02:12:20.5   0.1                          T                                        4676666
RJF   002.65 033.2 m E Sg      2011/04/20 02:12:54.7   0.1                          T                6.4  .20 Ml 2.5         4676670
MFF   003.51 004.4 m E Pn      2011/04/20 02:12:25.0   0.1                          T                                        4676660
MFF   003.51 004.4 m E Pg      2011/04/20 02:12:36.3   0.0                          T                                        4676665
MFF   003.51 004.4 m E Sg      2011/04/20 02:13:21.0  -0.4                          T                3.7  .34 Ml 2.8         4676669
LASF  003.34 071.6 m E Pn      2011/04/20 02:12:25.6   3.0                          T                                        4676657
LASF  003.34 071.6 m E Pg      2011/04/20 02:12:33.2   0.1                          T                                        4676658
LASF  003.34 071.6 m E Sg      2011/04/20 02:13:15.9  -0.2                          T                2.7  .26 Ml 2.5         4676668
TCF   003.74 030.7 m E Pn      2011/04/20 02:12:28.3   0.2                          T                                        4676643
TCF   003.74 030.7 m E Pg      2011/04/20 02:12:40.4  -0.2                          T                                        4676646
TCF   003.74 030.7 m E Sg      2011/04/20 02:13:28.6   0.1                          T                6.1  .32 Ml 2.9         4676623
VIVF  004.15 063.2 m E Pn      2011/04/20 02:12:34.0   0.4                          T                                        4676656
VIVF  004.15 063.2 m E Pg      2011/04/20 02:12:48.7   0.6                          T                                        4676655
VIVF  004.15 063.2 m E Sg      2011/04/20 02:13:40.7  -0.7                          T                4.3  .58 Ml 2.6         4676633
BGF   004.21 033.7 m E Pn      2011/04/20 02:12:34.4   0.0                          T                                        4676639
BGF   004.21 033.7 m E Pg      2011/04/20 02:12:49.4   0.2                          T                                        4676649
BGF   004.21 033.7 m E Sg      2011/04/20 02:13:43.3   0.1                          T               14.6  .36 Ml 3.3         4676627
AVF   004.61 035.5 m E Pn      2011/04/20 02:12:40.0   0.2                          T                                        4676642
AVF   004.61 035.5 m E Pg      2011/04/20 02:12:56.8   0.3                          T                                        4676647
AVF   004.61 035.5 m E Sg      2011/04/20 02:13:55.7   0.1                          T                2.5  .48 Ml 2.5         4676624
SMF   004.72 039.8 m E Pn      2011/04/20 02:12:41.5   0.2                          T                                        4676641
SMF   004.72 039.8 m E Pg      2011/04/20 02:12:58.7   0.2                          T                                        4676648
SMF   004.72 039.8 m E Sg      2011/04/20 02:13:59.2   0.2                          T                2.9  .42 Ml 2.6         4676625
HYF   004.73 027.2 m E Pn      2011/04/20 02:12:41.7   0.1                          T                                        4676640
HYF   004.73 027.2 m E Sg      2011/04/20 02:13:59.3  -0.2                          T                                        4676626
SSF   004.89 034.5 m E Pn      2011/04/20 02:12:43.9   0.2                          T                                        4676644
SSF   004.89 034.5 m E Sg      2011/04/20 02:14:04.2  -0.1                          T                1.6  .31 Ml 2.7         4676622
QUIF  005.16 339.9 m E Pn      2011/04/20 02:12:47.4   0.2                          T                                        4676636
QUIF  005.16 339.9 m E Pg      2011/04/20 02:13:06.2  -0.3                          T                                        4676652
QUIF  005.16 339.9 m E Sg      2011/04/20 02:14:12.3  -0.4                          T                 .8  .28 Ml 2.4         4676630
LOR   005.20 035.2 m E Pn      2011/04/20 02:12:48.0   0.1                          T                                        4676645
LOR   005.20 035.2 m E Sg      2011/04/20 02:14:14.2   0.2                          T                2.3  .39 Ml 2.7         4676621
GRR   005.29 357.7 m E Pn      2011/04/20 02:12:49.4   0.3                          T                                        4676634
GRR   005.29 357.7 m E Pg      2011/04/20 02:13:08.9  -0.2                          T                                        4676654
GRR   005.29 357.7 m E Sg      2011/04/20 02:14:16.5  -0.4                          T                1.1  .28 Ml 2.4         4676632
SGMF  005.34 345.4 m E Pn      2011/04/20 02:12:49.8   0.0                          T                                        4676637
SGMF  005.34 345.4 m E Pg      2011/04/20 02:13:09.9  -0.1                          T                                        4676651
SGMF  005.34 345.4 m E Sg      2011/04/20 02:14:18.0  -0.5                          T                  1  .28 Ml 2.5         4676629
LDF   005.50 002.9 m E Pn      2011/04/20 02:12:52.2   0.2                          T                                        4676635
LDF   005.50 002.9 m E Pg      2011/04/20 02:13:12.8  -0.1                          T                                        4676653
LDF   005.50 002.9 m E Sg      2011/04/20 02:14:23.1  -0.4                          T                1.2  .37 Ml 2.4         4676631

.
EVENT     258437
    Date      Time       Latitude Longitude    Depth    Ndef Nsta Gap    Mag1  N    Mag2  N    Mag3  N   Author         ID
       rms   OT_Error      Smajor Sminor Az        Err   mdist  Mdist     Err        Err        Err      Quality

2011/04/20 03:40:03.1     36.4312   -9.9210     30.0 f    90    7 277                                    js067245    258437

                                               +-         1.12  12.52                                    m i ke

WEST OF GIBRALTAR
Sta     Dist  EvAz     Phase      Date       Time     TRes  Azim  AzRes  Slow  SRes Def   SNR       Amp   Per   Mag1   Mag2       ID
SJPF  009.45 042.4 m E Pn      2011/04/20 03:42:15.9   1.0                          T                                        4676714
SJPF  009.45 042.4 m E Sn      2011/04/20 03:43:54.1   0.1                          T                5.9  .45                4676711
ETSF  009.68 045.3 m E Pn      2011/04/20 03:42:19.0   0.8                          T                                        4676712
ETSF  009.68 045.3 m E Sn      2011/04/20 03:44:00.6   0.9                          T                5.5  .36                4676709
EPF   010.28 047.0 m E Pn      2011/04/20 03:42:27.3   0.9                          T                                        4676713
EPF   010.28 047.0 m E Sn      2011/04/20 03:44:14.6   0.6                          T                5.2  .28                4676710
LFF   011.73 040.3 m E Pn      2011/04/20 03:42:45.8  -0.2                          T                                        4676708
LFF   011.73 040.3 m E Sn      2011/04/20 03:44:48.7   0.3                          T                2.9  .52                4676703
RJF   012.38 040.8 m E Pn      2011/04/20 03:42:54.1  -0.8                          T                                        4676706
RJF   012.38 040.8 m E Sn      2011/04/20 03:45:04.2   0.2                          T                1.2  .28                4676702
CAF   012.43 043.3 m E Pn      2011/04/20 03:42:55.4  -0.1                          T                                        4676705
CAF   012.43 043.3 m E Sn      2011/04/20 03:45:05.6   0.3                          T                1.6  .43                4676704
MFF   012.52 032.7 m E Pn      2011/04/20 03:42:56.5  -0.2                          T                                        4676707
MFF   012.52 032.7 m E Sn      2011/04/20 03:45:07.7   0.4                          T                1.3  .33                4676701

.
EVENT     258434
    Date      Time       Latitude Longitude    Depth    Ndef Nsta Gap    Mag1  N    Mag2  N    Mag3  N   Author         ID
       rms   OT_Error      Smajor Sminor Az        Err   mdist  Mdist     Err        Err        Err      Quality

2011/04/20 06:45:58.2     42.9383   15.5735     10.0 f    71   19 093  Ml 3.6 13                         js067245    258434

      0.52   +-  0.06       2.2    1.1   23.19 +-  0.0    0.68   9.49   +-0.2                            m i ke

ADRIATIC SEA
Sta     Dist  EvAz     Phase      Date       Time     TRes  Azim  AzRes  Slow  SRes Def   SNR       Amp   Per   Mag1   Mag2       ID
PGF   004.86 267.6 m E Pn      2011/04/20 06:47:09.2  -0.1                          T                                        4676746
SBF   006.00 281.6 m E Pn      2011/04/20 06:47:24.9   0.1                          T                                        4676745
FRF   006.55 278.5 m E Pn      2011/04/20 06:47:32.2   0.0                          T                                        4676748
MBDF  006.61 288.7 m E Pn      2011/04/20 06:47:33.4   0.1                          T                                        4676752
MBDF  006.61 288.7 m E Sn      2011/04/20 06:48:44.8   0.5                          T                6.1  .46 Ml 3.3         4676731
LMR   006.64 276.5 m E Pn      2011/04/20 06:47:33.4  -0.1                          T                                        4676747
LPG   006.84 295.0 m E Pn      2011/04/20 06:47:36.5   0.0                          T                                        4676749
LPG   006.84 295.0 m E Sn      2011/04/20 06:48:50.3   0.5                          T               12.0  .56 Ml 3.6         4676732
LPL   006.85 295.1 m E Pn      2011/04/20 06:47:36.7   0.0                          T                                        4676750
LPL   006.85 295.1 m E Sn      2011/04/20 06:48:50.7   0.5                          T               11.9  .40 Ml 3.7         4676733
ORIF  007.27 289.1 m E Pn      2011/04/20 06:47:42.3   0.0                          T                                        4676751
ORIF  007.27 289.1 m E Sn      2011/04/20 06:49:00.5   0.5                          T                7.4  .56 Ml 3.4         4676730
SMRF  007.35 281.5 m E Pn      2011/04/20 06:47:43.0  -0.2                          T                                        4676744
CABF  007.68 301.8 m E Pn      2011/04/20 06:47:47.9   0.1                          T                                        4676742
CABF  007.68 301.8 m E Sn      2011/04/20 06:49:10.3   0.5                          T                3.4  .41 Ml 3.3         4676724
HINF  007.84 311.5 m E Pn      2011/04/20 06:47:49.9   0.0                          T                                        4676741
HINF  007.84 311.5 m E Sn      2011/04/20 06:49:14.1   0.6                          T               15.7  .68 Ml 3.8         4676728
CDF   007.98 316.2 m E Pn      2011/04/20 06:47:51.9   0.0                          T                                        4676739
LANF  008.11 320.9 m E Pn      2011/04/20 06:47:53.3  -0.2                          T                                        4676738
VIVF  008.10 287.4 m E Pn      2011/04/20 06:47:53.3  -0.1                          T                                        4676743
HAU   008.23 311.2 m E Pn      2011/04/20 06:47:55.0  -0.1                          T                                        4676740
HAU   008.23 311.2 m E Sn      2011/04/20 06:49:23.2   0.5                          T               15.1  .56 Ml 3.7         4676727
SMF   009.13 298.0 m E Pn      2011/04/20 06:48:07.6   0.2                          T                                        4676734
SMF   009.13 298.0 m E Sn      2011/04/20 06:49:44.8   0.6                          T                6.0  .42 Ml 3.7         4676729
LOR   009.35 301.6 m E Pn      2011/04/20 06:48:10.3  -0.1 121.7  8.4               T                                        4676737
LOR   009.35 301.6 m E Sn      2011/04/20 06:49:49.8   0.4                          T                7.7  .34 Ml 4.0         4676726
SSF   009.49 299.9 m E Pn      2011/04/20 06:48:12.2  -0.1                          T                                        4676736
SSF   009.49 299.9 m E Sn      2011/04/20 06:49:53.3   0.4                          T                3.6  .42 Ml 3.7         4676725
AVF   009.49 298.1 m E Pn      2011/04/20 06:48:12.3   0.0                          T                                        4676735
AVF   009.49 298.1 m E Sn      2011/04/20 06:49:53.6   0.7                          T                3.7  .68 Ml 3.4         4676723

.
EVENT     258470
    Date      Time       Latitude Longitude    Depth    Ndef Nsta Gap    Mag1  N    Mag2  N    Mag3  N   Author         ID
       rms   OT_Error      Smajor Sminor Az        Err   mdist  Mdist     Err        Err        Err      Quality

2011/04/20 07:56:38.0     48.3563    8.9664     10.0      12    4 086  Ml 1.9  4  Md 2.0  1              js067245    258470

      0.17   +-  0.03        .7     .5  139.53 +-  0.0    0.18   1.79   +-0.2      +-                    m i ke

GERMANY
Sta     Dist  EvAz     Phase      Date       Time     TRes  Azim  AzRes  Slow  SRes Def   SNR       Amp   Per   Mag1   Mag2       ID
LANF  000.99 309.5 m E Pg      2011/04/20 07:56:56.7  -0.1                          T                                        4678053
LANF  000.99 309.5 m E Sg      2011/04/20 07:57:09.3  -0.3                          T                4.1  .23 Ml 2.1 Md 2.0  4678054
CDF   001.13 273.5 m E Pg      2011/04/20 07:56:59.3   0.0                          T                                        4678055
CDF   001.13 273.5 m E Sg      2011/04/20 07:57:14.0   0.0                          T                1.9  .18 Ml 2.0         4678056
HINF  001.52 249.9 m E Pg      2011/04/20 07:57:06.3  -0.1                          T                                        4678051
HINF  001.52 249.9 m E Sg      2011/04/20 07:57:26.0   0.0                          T                1.3  .22 Ml 1.8         4678052
HAU   001.79 259.7 m E Pg      2011/04/20 07:57:11.4   0.1                          T                                        4678049
HAU   001.79 259.7 m E Sg      2011/04/20 07:57:34.3  -0.2                          T                1.7  .32 Ml 1.7         4678050

.
