EVENT     289380
    Date      Time       Latitude Longitude    Depth    Ndef Nsta Gap    Mag1  N    Mag2  N    Mag3  N   Author         ID
       rms   OT_Error      Smajor Sminor Az        Err   mdist  Mdist     Err        Err        Err      Quality

2013/01/02 06:26:47.2     43.0498    -.2123      2.0      32    8 099  Ml 2.2  6  Md 2.3  2              bulletin    289480
                                                                                                         _ldg
      0.42   +-  0.06       1.3    1.0    6.40 +-  0.0    0.13   4.13   +-0.2      +-0.1                 m i ke

PYRENEES
Sta     Dist  EvAz     Phase      Date       Time     TRes  Azim  AzRes  Slow  SRes Def   SNR       Amp   Per   Mag1   Mag2       ID
ETSF  000.30 239.4 m E Pg      2013/01/02 06:26:52.7  -0.4                          T                                        5153419
ETSF  000.30 239.4 m E Sg      2013/01/02 06:26:56.8  -0.3                          T               39.5  .24        Md 2.3  5153418
EPF   000.41 092.6 m E Pg      2013/01/02 06:26:54.8  -0.4                          T                                        5153417
EPF   000.41 092.6 m E Sg      2013/01/02 06:27:00.7   0.2                          T               20.3  .32        Md 2.2  5153416
SJPF  000.74 275.2 m E Pg      2013/01/02 06:27:01.5   0.2                          T                                        5153415
SJPF  000.74 275.2 m E Sg      2013/01/02 06:27:11.2   0.1                          T               10.3  .29                5153412
LFF   002.01 019.7 m E Pn      2013/01/02 06:27:20.9   0.5                          T                                        5153407
LFF   002.01 019.7 m E Pg      2013/01/02 06:27:24.6   0.0                          T                                        5153406
LFF   002.01 019.7 m E Sn      2013/01/02 06:27:44.3  -0.3                          T                                        5153397
LFF   002.01 019.7 m E Sg      2013/01/02 06:27:50.8   0.3                          T                7.5  .31 Ml 2.4         5153405
MTLF  001.80 079.9 m E Pg      2013/01/02 06:27:21.2   0.5                          T                                        5153414
MTLF  001.80 079.9 m E Sg      2013/01/02 06:27:44.4   0.4                          T                1.6  .21 Ml 2.0         5153413
CAF   002.49 040.4 m E Pn      2013/01/02 06:27:27.3   0.2                          T                                        5153411
CAF   002.49 040.4 m E Pg      2013/01/02 06:27:33.5  -0.1                          T                                        5153410
CAF   002.49 040.4 m E Sn      2013/01/02 06:27:56.3   0.1                          T                                        5153409
CAF   002.49 040.4 m E Sg      2013/01/02 06:28:05.7   0.0                          T                2.4  .19 Ml 2.4         5153408
RJF   002.57 028.3 m E Pn      2013/01/02 06:27:28.6   0.5                          T                                        5153404
RJF   002.57 028.3 m E Pg      2013/01/02 06:27:34.5  -0.6                          T                                        5153403
RJF   002.57 028.3 m E Sn      2013/01/02 06:27:58.2   0.0                          T                                        5153402
RJF   002.57 028.3 m E Sg      2013/01/02 06:28:08.1  -0.1                          T                1.6  .19 Ml 1.9         5153401
BGF   004.13 030.8 m E Pn      2013/01/02 06:27:49.2  -0.1                          T                                        5153398
BGF   004.13 030.8 m E Pg      2013/01/02 06:28:03.6   0.0                          T                                        5153399
BGF   004.13 030.8 m E Sn      2013/01/02 06:28:35.6   0.3                          T                 .9  .27 Ml 2.2         5153400

.
EVENT     289381
    Date      Time       Latitude Longitude    Depth    Ndef Nsta Gap    Mag1  N    Mag2  N    Mag3  N   Author         ID
       rms   OT_Error      Smajor Sminor Az        Err   mdist  Mdist     Err        Err        Err      Quality

2013/01/02 06:46:35.6     43.0625    -.2055      2.0      40   10 080  Ml 2.1  8  Md 2.1  2              bulletin    289481
                                                                                                         _ldg
      0.53   +-  0.08       1.7    1.3  175.54 +-  0.0    0.14   3.95   +-0.3      +-0.1                 m i ke

PYRENEES
Sta     Dist  EvAz     Phase      Date       Time     TRes  Azim  AzRes  Slow  SRes Def   SNR       Amp   Per   Mag1   Mag2       ID
ETSF  000.31 237.9 m E Pg      2013/01/02 06:46:41.0  -0.7                          T                                        5153448
ETSF  000.31 237.9 m E Sg      2013/01/02 06:46:45.2  -0.6                          T               50.2  .22        Md 2.2  5153447
EPF   000.40 094.4 m E Pg      2013/01/02 06:46:43.2  -0.2                          T                                        5153446
EPF   000.40 094.4 m E Sg      2013/01/02 06:46:49.1   0.4                          T                7.9  .20        Md 2.1  5153445
SJPF  000.75 274.2 m E Pg      2013/01/02 06:46:49.9   0.2                          T                                        5153444
SJPF  000.75 274.2 m E Sg      2013/01/02 06:46:59.5   0.0                          T                3.6  .21                5153443
MTLF  001.79 080.2 m E Pn      2013/01/02 06:47:05.6  -0.2                          T                                        5153439
MTLF  001.79 080.2 m E Pg      2013/01/02 06:47:09.3   0.3                          T                                        5153440
MTLF  001.79 080.2 m E Sn      2013/01/02 06:47:27.6  -0.3                          T                                        5153441
MTLF  001.79 080.2 m E Sg      2013/01/02 06:47:31.8  -0.3                          T                 .9  .19 Ml 1.8         5153442
LFF   002.00 019.7 m E Pg      2013/01/02 06:47:12.6  -0.1                          T                                        5153432
LFF   002.00 019.7 m E Sn      2013/01/02 06:47:32.1  -0.6                          T                                        5153433
LFF   002.00 019.7 m E Sg      2013/01/02 06:47:38.6   0.1                          T                5.4  .33 Ml 2.2         5153434
CAF   002.48 040.5 m E Pn      2013/01/02 06:47:15.4   0.2                          T                                        5153429
CAF   002.48 040.5 m E Pg      2013/01/02 06:47:21.5  -0.2                          T                                        5153430
CAF   002.48 040.5 m E Sn      2013/01/02 06:47:35.9  -8.4                          T                                        5153428
CAF   002.48 040.5 m E Sg      2013/01/02 06:47:53.9   0.3                          T                1.1  .20 Ml 2.0         5175933
RJF   002.56 028.3 m E Pg      2013/01/02 06:47:22.8  -0.4                          T                                        5153423
RJF   002.56 028.3 m E Sn      2013/01/02 06:47:44.5  -1.7                          T                                        5153421
RJF   002.56 028.3 m E Sg      2013/01/02 06:47:56.0  -0.1                          T                  1  .16 Ml 1.8         5153420
LASF  003.12 069.7 m E Pn      2013/01/02 06:47:24.1   0.2                          T                                        5153436
LASF  003.12 069.7 m E Pg      2013/01/02 06:47:33.9   0.4                          T                                        5153437
LASF  003.12 069.7 m E Sn      2013/01/02 06:47:59.3  -0.3                          T                                        5153438
LASF  003.12 069.7 m E Sg      2013/01/02 06:48:12.8  -0.7                          T                6.6  .26 Ml 2.9         5153435
VIVF  003.95 061.4 m E Pn      2013/01/02 06:47:35.8   0.5                          T                                        5153427
VIVF  003.95 061.4 m E Pg      2013/01/02 06:47:49.1   0.3                          T                                        5153426
VIVF  003.95 061.4 m E Sn      2013/01/02 06:48:19.7   0.2                          T                                        5153425
VIVF  003.95 061.4 m E Sg      2013/01/02 06:48:38.9  -0.6                          T                 .7  .28 Ml 2.1         5153424
MFF   003.54 000.7 m E Sg      2013/01/02 06:48:26.6   0.0                          T                 .8  .23 Ml 2.2         5175932

.
EVENT     289416
    Date      Time       Latitude Longitude    Depth    Ndef Nsta Gap    Mag1  N    Mag2  N    Mag3  N   Author         ID
       rms   OT_Error      Smajor Sminor Az        Err   mdist  Mdist     Err        Err        Err      Quality

2013/01/02 11:48:08.7     45.9954    7.2643      2.0      19    4 070  Ml 1.4  2  Md 1.5  2              bulletin    289516
                                                                                                         _ldg
      0.25   +-  0.04       1.3     .7  129.15 +-  0.0    0.13   1.45   +-0.2      +-0.0                 m i ke

NORTHERN ITALY
Sta     Dist  EvAz     Phase      Date       Time     TRes  Azim  AzRes  Slow  SRes Def   SNR       Amp   Per   Mag1   Mag2       ID
LPL   000.61 218.0 m E Pg      2013/01/02 11:48:20.3  -0.2                          T                                        5154914
LPL   000.61 218.0 m E Sg      2013/01/02 11:48:28.4   0.0                          T                3.0  .26        Md 1.6  5154913
LPG   000.61 216.0 m E Pg      2013/01/02 11:48:20.8   0.1                          T                                        5154912
LPG   000.61 216.0 m E Sg      2013/01/02 11:48:28.8   0.1                          T                2.1  .23        Md 1.5  5154911
MBDF  001.32 195.5 m E Pn      2013/01/02 11:48:32.6   0.1                          T                                        5154908
MBDF  001.32 195.5 m E Sn      2013/01/02 11:48:49.3  -0.3                          T                 .3  .19 Ml 1.2         5154907
ORIF  001.45 222.6 m E Pn      2013/01/02 11:48:34.2  -0.1                          T                                        5154910
ORIF  001.45 222.6 m E Sn      2013/01/02 11:48:53.0   0.1                          T                 .6  .18 Ml 1.5         5154909

.
EVENT     289462
    Date      Time       Latitude Longitude    Depth    Ndef Nsta Gap    Mag1  N    Mag2  N    Mag3  N   Author         ID
       rms   OT_Error      Smajor Sminor Az        Err   mdist  Mdist     Err        Err        Err      Quality

2013/01/02 16:28:48.6     47.7083    7.6376     17.3      12    4 055  Ml 1.2  2  Md 1.4  2              bulletin    289562
                                                                                                         _ldg
      0.15   +-  0.03        .6     .5  136.94 +-  0.4    0.07   1.52   +-0.1      +-0.1                 m i ke

SWITZERLAND
Sta     Dist  EvAz     Phase      Date       Time     TRes  Azim  AzRes  Slow  SRes Def   SNR       Amp   Per   Mag1   Mag2       ID
HINF  000.54 281.9 m E Pg      2013/01/02 16:28:59.5   0.2                          T                                        5154892
HINF  000.54 281.9 m E Sg      2013/01/02 16:29:06.6  -0.1                          T                3.9  .16        Md 1.4  5154891
CDF   000.74 341.1 m E Pg      2013/01/02 16:29:02.8  -0.3                          T                                        5154888
CDF   000.74 341.1 m E Sg      2013/01/02 16:29:12.6  -0.3                          T                 .5  .16        Md 1.4  5154887
HAU   000.92 289.4 m E Pn      2013/01/02 16:29:05.3   0.1                          T                                        5154890
HAU   000.92 289.4 m E Sn      2013/01/02 16:29:17.4   0.2                          T                 .6  .18 Ml 1.1         5154889
CABF  001.52 224.5 m E Pn      2013/01/02 16:29:13.6   0.0                          T                                        5154886
CABF  001.52 224.5 m E Sn      2013/01/02 16:29:31.8   0.0                          T                 .3  .20 Ml 1.3         5154885

.
EVENT     289394
    Date      Time       Latitude Longitude    Depth    Ndef Nsta Gap    Mag1  N    Mag2  N    Mag3  N   Author         ID
       rms   OT_Error      Smajor Sminor Az        Err   mdist  Mdist     Err        Err        Err      Quality

2013/01/02 17:09:54.1     42.9792   -1.0673      2.0      14    3 114  Ml 1.6  1  Md 1.4  2              bulletin    289494
                                                                                                         _ldg
      0.35   +-  0.10       2.7    1.6  174.71 +-  0.0    0.18   1.03   +-         +-0.1                 m i ke

PYRENEES
Sta     Dist  EvAz     Phase      Date       Time     TRes  Azim  AzRes  Slow  SRes Def   SNR       Amp   Per   Mag1   Mag2       ID
SJPF  000.18 319.3 m E Pg      2013/01/02 17:09:57.8   0.0                          T                                        5153747
SJPF  000.18 319.3 m E Sg      2013/01/02 17:10:00.3   0.0                          T               14.2  .29        Md 1.4  5153746
ETSF  000.38 102.0 m E Pg      2013/01/02 17:10:00.9  -0.7                          T                                        5153745
ETSF  000.38 102.0 m E Sg      2013/01/02 17:10:06.4  -0.3                          T                7.5  .24        Md 1.3  5153744
EPF   001.03 086.7 m E Pg      2013/01/02 17:10:13.8   0.2                          T                                        5170109
EPF   001.03 086.7 m E Sg      2013/01/02 17:10:27.7   0.7                          T                1.2  .21 Ml 1.6         5170110

.
EVENT     289395
    Date      Time       Latitude Longitude    Depth    Ndef Nsta Gap    Mag1  N    Mag2  N    Mag3  N   Author         ID
       rms   OT_Error      Smajor Sminor Az        Err   mdist  Mdist     Err        Err        Err      Quality

2013/01/02 18:47:56.6     43.0336    -.2168      2.0      10    4 153  Ml 1.4  1  Md 1.5  2              bulletin    289495
                                                                                                         _ldg
      0.30   +-  0.07       3.1    1.0    2.24 +-  0.0    0.13   1.81   +-         +-0.0                 m i ke

PYRENEES
Sta     Dist  EvAz     Phase      Date       Time     TRes  Azim  AzRes  Slow  SRes Def   SNR       Amp   Per   Mag1   Mag2       ID
ETSF  000.29 241.9 m E Pg      2013/01/02 18:48:02.3   0.0                          T                                        5153751
ETSF  000.29 241.9 m E Sg      2013/01/02 18:48:06.3   0.1                          T                7.6  .24        Md 1.5  5153749
EPF   000.41 090.3 m E Pg      2013/01/02 18:48:04.4  -0.1                          T                                        5153750
EPF   000.41 090.3 m E Sg      2013/01/02 18:48:10.3   0.3                          T                5.0  .26        Md 1.6  5153748
SJPF  000.74 276.5 m E Pg      2013/01/02 18:48:11.1   0.5                          T                                        5153752
SJPF  000.74 276.5 m E Sg      2013/01/02 18:48:20.6   0.2                          T                4.1  .41                5153753
MTLF  001.81 079.4 m E Pg      2013/01/02 18:48:30.6   0.4                          T                                        5172378
MTLF  001.81 079.4 m E Sg      2013/01/02 18:48:53.2  -0.3                          T                 .4  .21 Ml 1.4         5172377

.
EVENT     290764
    Date      Time       Latitude Longitude    Depth    Ndef Nsta Gap    Mag1  N    Mag2  N    Mag3  N   Author         ID
       rms   OT_Error      Smajor Sminor Az        Err   mdist  Mdist     Err        Err        Err      Quality

2013/01/02 18:59:03.0     45.9256    6.8582     10.0      16    7 067  Ml 1.7  5  Md 1.6  2              bulletin    290864
                                                                                                         _ldg
      0.14   +-  0.03       1.0     .6  102.80 +-  0.0    0.20   1.89   +-0.2      +-0.0                 m i ke

FRANCE
Sta     Dist  EvAz     Phase      Date       Time     TRes  Azim  AzRes  Slow  SRes Def   SNR       Amp   Per   Mag1   Mag2       ID
LPL   000.42 192.2 m E Pg      2013/01/02 18:59:11.5   0.0                          T                                        5175961
LPL   000.42 192.2 m E Sg      2013/01/02 18:59:17.2   0.1                          T                4.1  .27        Md 1.6  5175962
LPG   000.43 190.0 m E Pg      2013/01/02 18:59:11.7  -0.1                          T                                        5175959
LPG   000.43 190.0 m E Sg      2013/01/02 18:59:17.5  -0.2                          T                5.8  .21        Md 1.6  5175960
CABF  000.87 322.3 m E Pg      2013/01/02 18:59:19.6   0.1                          T                                        5175967
CABF  000.87 322.3 m E Sg      2013/01/02 18:59:30.8  -0.1                          T                2.3  .27 Ml 1.7         5175968
MBDF  001.20 183.0 m E Sg      2013/01/02 18:59:41.1  -0.1                          T                1.3  .27 Ml 1.6         5175964
ORIF  001.22 214.7 m E Sg      2013/01/02 18:59:41.7  -0.1                          T                  1  .25 Ml 1.5         5175963
VIVF  001.87 236.0 m E Sg      2013/01/02 19:00:02.4   0.3                          T                1.3  .22 Ml 2.0         5175965
HINF  001.89 359.9 m E Sg      2013/01/02 19:00:02.6   0.0                          T                 .9  .24 Ml 1.7         5175966

.
