EVENT     286609
    Date      Time       Latitude Longitude    Depth    Ndef Nsta Gap    Mag1  N    Mag2  N    Mag3  N   Author         ID
       rms   OT_Error      Smajor Sminor Az        Err   mdist  Mdist     Err        Err        Err      Quality

2012/11/09 09:27:46.3     46.2568    1.8191      2.0      31   12 103  Ml 2.3  9  Md 2.2  2              bulletin    286709
                                                                                                         _ldg
      1.41   +-  0.09       2.3    1.7  147.06 +-  0.0    0.27   2.45   +-0.2      +-0.1                 m i ke

FRANCE
Sta     Dist  EvAz     Phase      Date       Time     TRes  Azim  AzRes  Slow  SRes Def   SNR       Amp   Per   Mag1   Mag2       ID
TCF   000.27 083.3 m E Pg      2012/11/09 09:27:51.8   0.0                          T                                        5113253
TCF   000.27 083.3 m E Sg      2012/11/09 09:27:55.6   0.2                          T                7.0  .18        Md 2.3  5113259
BGF   000.77 066.7 m E Pg      2012/11/09 09:28:00.9   0.0                          T                                        5120863
BGF   000.77 066.7 m E Pn      2012/11/09 09:28:02.7   0.0                          T                                        5113252
BGF   000.77 066.7 m E Sg      2012/11/09 09:28:11.8   0.8                          T                8.5  .22                5113245
RJF   000.98 192.6 m E Pg      2012/11/09 09:28:04.5  -0.2                          T                                        5120853
RJF   000.98 192.6 m E Pn      2012/11/09 09:28:05.6   0.2                          T                                        5113244
RJF   000.98 192.6 m E Sg      2012/11/09 09:28:17.0  -0.3                          T               21.6  .28 Ml 2.4         5113257
HYF   001.16 028.8 m E Pn      2012/11/09 09:28:07.8  -0.1                          T                                        5113256
HYF   001.16 028.8 m E Sg      2012/11/09 09:28:23.4   0.3                          T                                        5113258
AVF   001.19 062.7 m E Pn      2012/11/09 09:28:08.3   0.1                          T                                        5113251
AVF   001.19 062.7 m E Sg      2012/11/09 09:28:23.9   0.1                          T                3.2  .26 Ml 2.0         5113248
CAF   001.34 172.5 m E Pn      2012/11/09 09:28:10.4  -0.1                          T                                        5113255
CAF   001.34 172.5 m E Pg      2012/11/09 09:28:11.6   0.2                          T                                        5120852
CAF   001.34 172.5 m E Sg      2012/11/09 09:28:28.9   0.1                          T                3.2  .20 Ml 2.2         5113254
SSF   001.41 054.7 m E Pn      2012/11/09 09:28:11.6   0.2                          T                                        5113263
SSF   001.41 054.7 m E Pg      2012/11/09 09:28:12.4  -0.3                          T                                        5120858
SSF   001.41 054.7 m E Sg      2012/11/09 09:28:30.3  -0.6                          T                5.0  .23 Ml 2.4         5113262
MFF   001.40 285.0 m E Pn      2012/11/09 09:28:11.9   0.6                          T                                        5113250
MFF   001.40 285.0 m E Sn      2012/11/09 09:28:28.7  -0.5                          T                6.4  .18 Ml 2.7         5113249
SMF   001.45 073.7 m E Pn      2012/11/09 09:28:12.3   0.3                          T                                        5113246
SMF   001.45 073.7 m E Sg      2012/11/09 09:28:31.9  -0.2                          T                2.0  .16 Ml 2.1         5113247
LOR   001.73 053.4 m E Pn      2012/11/09 09:28:15.3  -0.4 234.5  -0.4              T                                        5113261
LOR   001.73 053.4 m E Pg      2012/11/09 09:28:18.0  -0.5 235.1  0.1               T                                        5120864
LOR   001.73 053.4 m E Sg      2012/11/09 09:28:40.6  -0.3 211.8  -23.1             T                                        5113260
VIVF  002.45 123.9 m E Pg      2012/11/09 09:28:31.7  -0.1                          T                                        5120862
VIVF  002.45 123.9 m E Sg      2012/11/09 09:29:03.5   0.2                          T                1.6  .25 Ml 2.1         5120850
LFF   001.52 210.3 m E Sg      2012/11/09 09:28:34.3   0.0                          T                9.0  .27 Ml 2.4         5120851

.
EVENT     286636
    Date      Time       Latitude Longitude    Depth    Ndef Nsta Gap    Mag1  N    Mag2  N    Mag3  N   Author         ID
       rms   OT_Error      Smajor Sminor Az        Err   mdist  Mdist     Err        Err        Err      Quality

2012/11/09 16:29:42.1     47.1418   11.4498      2.0      36   11 110  Ml 2.5  4                         bulletin    286736
                                                                                                         _ldg
      1.00   +-  0.25       5.4    4.7   44.93 +-  0.0    0.18   6.41   +-0.2                            m i ke

AUSTRIA
Sta     Dist  EvAz     Phase      Date       Time     TRes  Azim  AzRes  Slow  SRes Def   SNR       Amp   Per   Mag1   Mag2       ID
CDF   003.09 295.8 m E Pn      2012/11/09 16:30:30.5   0.4                          T                                        5114829
CDF   003.09 295.8 m E Pg      2012/11/09 16:30:38.5  -1.0                          T                                        5114828
CDF   003.09 295.8 m E Sg      2012/11/09 16:31:18.5  -0.6                          T                6.2  .41 Ml 2.7         5114830
HINF  003.19 283.9 m E Pn      2012/11/09 16:30:32.3   0.9                          T                                        5114834
HINF  003.19 283.9 m E Pg      2012/11/09 16:30:42.0   0.7                          T                                        5114833
HINF  003.19 283.9 m E Sn      2012/11/09 16:31:07.5  -0.3                          T                                        5114832
HINF  003.19 283.9 m E Sg      2012/11/09 16:31:22.0  -0.2                          T                4.3  .30 Ml 2.6         5114831
CABF  003.72 263.7 m E Pn      2012/11/09 16:30:38.7   0.0                          T                                        5114875
CABF  003.72 263.7 m E Pg      2012/11/09 16:30:51.0  -0.1                          T                                        5114874
LPG   003.65 244.9 m E P       2012/11/09 16:30:41.5   0.3                          T                                        5114872
MBDF  004.06 235.2 m E P       2012/11/09 16:30:47.4   0.4                          T                                        5120866
LPL   003.65 245.3 m E Pg      2012/11/09 16:30:49.8  -0.1                          T                                        5114888
ORIF  004.47 242.2 m E P       2012/11/09 16:30:52.7   0.0                          T                                        5120865
ORIF  004.47 242.2 m E Sn      2012/11/09 16:31:38.4  -0.1                          T                2.0  .37 Ml 2.5         5114889
VIVF  005.25 246.6 m E Pn      2012/11/09 16:30:59.2  -0.2                          T                                        5120867
BGF   005.93 267.5 m E Pn      2012/11/09 16:31:10.1   1.4                          T                                        5114887
TCF   006.41 265.7 m E Pn      2012/11/09 16:31:16.9   1.6                          T                                        5114873
LASF  006.14 242.8 m E Sn      2012/11/09 16:32:17.5  -0.9                          T                 .3  .20 Ml 2.3         5114886

.
EVENT     286667
    Date      Time       Latitude Longitude    Depth    Ndef Nsta Gap    Mag1  N    Mag2  N    Mag3  N   Author         ID
       rms   OT_Error      Smajor Sminor Az        Err   mdist  Mdist     Err        Err        Err      Quality

2012/11/09 21:40:54.4     42.7549   -1.3611      2.0      14    3 199  Ml 1.1  1  Md 1.3  2              bulletin    286767
                                                                                                         _ldg
      0.27   +-  0.14       3.0    1.8    3.46 +-  0.0    0.05   1.28   +-         +-0.1                 m i ke

PYRENEES
Sta     Dist  EvAz     Phase      Date       Time     TRes  Azim  AzRes  Slow  SRes Def   SNR       Amp   Per   Mag1   Mag2       ID
SJPF  000.37 015.5 m E Pg      2012/11/09 21:41:01.5  -0.1                          T                                        5115825
SJPF  000.37 015.5 m E Sg      2012/11/09 21:41:06.5   0.0                          T                5.1  .29        Md 1.4  5115824
ETSF  000.61 076.0 m E Pg      2012/11/09 21:41:05.8  -0.1                          T                                        5115823
ETSF  000.61 076.0 m E Sg      2012/11/09 21:41:13.8  -0.1                          T                 .7  .23        Md 1.2  5115822
EPF   001.28 077.0 m E Pn      2012/11/09 21:41:17.9   0.2                          T                                        5115821
EPF   001.28 077.0 m E Sn      2012/11/09 21:41:34.3  -0.1                          T                 .4  .24 Ml 1.1         5115820

.
EVENT     286637
    Date      Time       Latitude Longitude    Depth    Ndef Nsta Gap    Mag1  N    Mag2  N    Mag3  N   Author         ID
       rms   OT_Error      Smajor Sminor Az        Err   mdist  Mdist     Err        Err        Err      Quality

2012/11/10 01:12:30.9     44.5292    6.7137     10.0      30    7 067  Ml 1.4  3  Md 1.7  1              bulletin    286737
                                                                                                         _ldg
      0.52   +-  0.09       2.2    1.6   66.43 +-  0.0    0.09   2.16   +-0.2      +-                    m i ke

FRANCE
Sta     Dist  EvAz     Phase      Date       Time     TRes  Azim  AzRes  Slow  SRes Def   SNR       Amp   Per   Mag1   Mag2       ID
MBDF  000.20 011.8 m E Pg      2012/11/10 01:12:35.6   0.2                          T                                        5113711
MBDF  000.20 011.8 m E Sg      2012/11/10 01:12:38.4  -0.1                          T                4.2  .24        Md 1.7  5113709
ORIF  000.71 303.5 m E Pg      2012/11/10 01:12:44.0  -0.5                          T                                        5113710
ORIF  000.71 303.5 m E Sg      2012/11/10 01:12:53.0  -0.9                          T                2.4  .22                5113708
SBF   000.84 141.8 m E Pg      2012/11/10 01:12:46.0   0.1                          T                                        5113704
SBF   000.84 141.8 m E Sg      2012/11/10 01:12:58.2   0.2                          T                1.5  .23                5113703
FRF   000.97 182.9 m E Pg      2012/11/10 01:12:49.6   0.5                          T                                        5113706
FRF   000.97 182.9 m E Sg      2012/11/10 01:13:02.3   0.5                          T                 .5  .16 Ml 1.4         5113701
LPL   000.99 000.8 m E Pg      2012/11/10 01:12:49.8   0.1                          T                                        5113698
LPL   000.99 000.8 m E Sg      2012/11/10 01:13:02.7   0.1                          T                 .5  .21 Ml 1.2         5113699
SMRF  000.99 236.3 m E Pg      2012/11/10 01:12:50.0   0.4                          T                                        5113707
SMRF  000.99 236.3 m E Sg      2012/11/10 01:13:02.9   0.5                          T                1.2  .23 Ml 1.5         5113700
LMR   001.20 187.1 m E Pn      2012/11/10 01:12:53.6   1.4                          T                                        5113705
LMR   001.20 187.1 m E Sn      2012/11/10 01:13:07.5  -0.1                          T                                        5113702

.
EVENT     286640
    Date      Time       Latitude Longitude    Depth    Ndef Nsta Gap    Mag1  N    Mag2  N    Mag3  N   Author         ID
       rms   OT_Error      Smajor Sminor Az        Err   mdist  Mdist     Err        Err        Err      Quality

2012/11/10 14:07:11.2     45.1427    6.3728      2.0      17    9 136  Ml 2.5  5  Md 2.3  3              bulletin    286740
                                                                                                         _ldg
      0.49   +-  0.13       3.1    2.1  121.63 +-  0.0    0.42   1.81   +-0.5      +-0.0                 m i ke

FRANCE
Sta     Dist  EvAz     Phase      Date       Time     TRes  Azim  AzRes  Slow  SRes Def   SNR       Amp   Per   Mag1   Mag2       ID
ORIF  000.42 237.5 m E Pg      2012/11/10 14:07:19.4   0.1                          T                                        5113919
ORIF  000.42 237.5 m E Sg      2012/11/10 14:07:24.2  -0.7                          T               53.1  .52        Md 2.3  5113925
LPL   000.45 034.0 m E Pg      2012/11/10 14:07:19.7  -0.5                          T                                        5113920
LPL   000.45 034.0 m E Sn      2012/11/10 14:07:27.8   1.1                          T               48.5  .68                5120871
LPG   000.44 036.8 m E Pg      2012/11/10 14:07:19.9  -0.2                          T                                        5113922
LPG   000.44 036.8 m E Sg      2012/11/10 14:07:26.6   0.6                          T               72.3  .84        Md 2.2  5120872
MBDF  000.50 145.6 m E Pg      2012/11/10 14:07:21.1   0.1                          T                                        5113918
MBDF  000.50 145.6 m E Sg      2012/11/10 14:07:27.8   0.1                          T               55.5  .70        Md 2.3  5113924
VIVF  001.24 257.2 m E Pg      2012/11/10 14:07:34.8   0.3                          T                                        5113917
VIVF  001.24 257.2 m E Sg      2012/11/10 14:07:50.2  -0.3                          T               16.4  .62 Ml 2.3         5113914
SMRF  001.30 206.3 m E Pg      2012/11/10 14:07:36.0   0.5                          T                                        5113921
SMRF  001.30 206.3 m E Sg      2012/11/10 14:07:52.3   0.0                          T                7.3  .45 Ml 2.2         5113911
FRF   001.59 172.8 m E Pg      2012/11/10 14:07:40.1  -0.8                          T                                        5113916
FRF   001.59 172.8 m E Sg      2012/11/10 14:08:01.3  -0.2                          T               18.3  .49 Ml 2.7         5113910
LMR   001.81 176.8 m E Pg      2012/11/10 14:07:44.4  -0.5                          T                                        5113915
LMR   001.81 176.8 m E Sg      2012/11/10 14:08:07.7  -0.6                          T                2.1  .24 Ml 2.1         5113909
SBF   001.49 148.9 m E Sg      2012/11/10 14:07:59.4   1.1                          T              177.2  .94 Ml 3.3         5113923

.
EVENT     286671
    Date      Time       Latitude Longitude    Depth    Ndef Nsta Gap    Mag1  N    Mag2  N    Mag3  N   Author         ID
       rms   OT_Error      Smajor Sminor Az        Err   mdist  Mdist     Err        Err        Err      Quality

2012/11/10 14:49:13.5     37.2119  -12.8821     20.0 f    53    3 296  Ml 3.4  3                         bulletin    286771
                                                                                                         _ldg
      0.89   +-  0.42       8.1    6.6   50.86 +-  0.0    3.24  11.95   +-0.2                            m i ke

NORTH ATLANTIC OCEAN
Sta     Dist  EvAz     Phase      Date       Time     TRes  Azim  AzRes  Slow  SRes Def   SNR       Amp   Per   Mag1   Mag2       ID
SJPF  010.69 052.9 m E Pn      2012/11/10 14:51:43.7   0.8                          T                                        5115833
SJPF  010.69 052.9 m E Sn      2012/11/10 14:53:35.0   0.0                          T                1.7  .37 Ml 3.5         5115828
ETSF  011.02 055.2 m E Pn      2012/11/10 14:51:48.7   1.3                          T                                        5115832
ETSF  011.02 055.2 m E Sn      2012/11/10 14:53:42.8  -0.2                          T                 .7  .30 Ml 3.2         5115827
EPF   011.67 056.0 m E Pn      2012/11/10 14:51:57.4   1.2                          T                                        5115829
EPF   011.67 056.0 m E Sn      2012/11/10 14:53:58.7   0.2                          T                1.6  .36 Ml 3.6         5115826

.
EVENT     286687
    Date      Time       Latitude Longitude    Depth    Ndef Nsta Gap    Mag1  N    Mag2  N    Mag3  N   Author         ID
       rms   OT_Error      Smajor Sminor Az        Err   mdist  Mdist     Err        Err        Err      Quality

2012/11/10 17:58:50.3     42.8415   -1.3369      2.0      15    3 113  Ml 1.2  1  Md 1.1  2              bulletin    286787
                                                                                                         _ldg
      0.32   +-  0.10       2.9    1.9  156.97 +-  0.0    0.04   1.25   +-         +-0.2                 m i ke

PYRENEES
Sta     Dist  EvAz     Phase      Date       Time     TRes  Azim  AzRes  Slow  SRes Def   SNR       Amp   Per   Mag1   Mag2       ID
SJPF  000.28 016.8 m E Pg      2012/11/10 17:58:55.7  -0.2                          T                                        5115840
SJPF  000.28 016.8 m E Sg      2012/11/10 17:58:59.9   0.2                          T                3.4  .23        Md 1.3  5115839
ETSF  000.57 084.0 m E Pg      2012/11/10 17:59:01.5   0.2                          T                                        5115838
ETSF  000.57 084.0 m E Sg      2012/11/10 17:59:09.0   0.1                          T                 .7  .19        Md 1.0  5115837
EPF   001.25 080.7 m E Pn      2012/11/10 17:59:13.2   0.1                          T                                        5115836
EPF   001.25 080.7 m E Sn      2012/11/10 17:59:29.5   0.0                          T                 .4  .20 Ml 1.2         5115835

.
EVENT     286642
    Date      Time       Latitude Longitude    Depth    Ndef Nsta Gap    Mag1  N    Mag2  N    Mag3  N   Author         ID
       rms   OT_Error      Smajor Sminor Az        Err   mdist  Mdist     Err        Err        Err      Quality

2012/11/10 18:32:07.1     42.8490   -1.1325      2.0      16    3 098  Ml 1.8  1  Md 1.7  2              bulletin    286742
                                                                                                         _ldg
      0.46   +-  0.11       2.7    2.0  177.64 +-  0.0    0.08   1.23   +-         +-0.2                 m i ke

PYRENEES
Sta     Dist  EvAz     Phase      Date       Time     TRes  Azim  AzRes  Slow  SRes Def   SNR       Amp   Per   Mag1   Mag2       ID
SJPF  000.27 345.6 m E Pg      2012/11/10 18:32:12.5   0.1                          T                                        5113937
SJPF  000.27 345.6 m E Sg      2012/11/10 18:32:16.2   0.1                          T               10.4  .21        Md 1.8  5113934
ETSF  000.42 083.1 m E Pg      2012/11/10 18:32:15.0  -0.3                          T                                        5113936
ETSF  000.42 083.1 m E Sg      2012/11/10 18:32:20.4  -0.5                          T                3.6  .20        Md 1.5  5113933
EPF   001.10 080.0 m E Pg      2012/11/10 18:32:27.7   0.1                          T                                        5113935
EPF   001.10 080.0 m E Sg      2012/11/10 18:32:43.6   1.8                          T                2.3  .27 Ml 1.8         5113932

.
