EVENT     267525
    Date      Time       Latitude Longitude    Depth    Ndef Nsta Gap    Mag1  N    Mag2  N    Mag3  N   Author         ID
       rms   OT_Error      Smajor Sminor Az        Err   mdist  Mdist     Err        Err        Err      Quality

2011/12/16 18:57:53.3     44.4583    6.7558      3.0 f    19    8 137  Ml 1.9  5  Md 1.9  4              js067245    267545

      1.38   +-  0.16       4.0    2.2   82.69 +-  0.0    0.27   1.14   +-0.2      +-0.1                 m i ke

FRANCE
Sta     Dist  EvAz     Phase      Date       Time     TRes  Azim  AzRes  Slow  SRes Def   SNR       Amp   Per   Mag1   Mag2       ID
MBDF  000.27 002.4 m E Pg      2011/12/16 18:57:58.7  -0.1                          T                                        4801410
MBDF  000.27 002.4 m E Sg      2011/12/16 18:58:02.5   0.0                          T               14.9  .28        Md 1.9  4801409
ORIF  000.78 306.7 m E Pg      2011/12/16 18:58:07.7  -0.4                          T                                        4801408
ORIF  000.78 306.7 m E Sg      2011/12/16 18:58:18.1  -0.1                          T                1.7  .20        Md 1.9  4801405
ORIF  000.78 306.7 m E Sn      2011/12/16 18:58:21.1  -0.1                          T                                        4801411
SBF   000.77 140.4 m E Pg      2011/12/16 18:58:07.8  -0.1                          T                                        4801415
SBF   000.77 140.4 m E Sg      2011/12/16 18:58:17.7  -0.3                          T                                        4801414
FRF   000.90 185.0 m E Pg      2011/12/16 18:58:10.3   0.1                          T                                        4801407
FRF   000.90 185.0 m E Sg      2011/12/16 18:58:22.1   0.1                          T                4.6  .23 Ml 2.1 Md 2.0  4801402
SMRF  000.98 240.8 m E Pg      2011/12/16 18:58:12.6   0.9                          T                                        4801418
SMRF  000.98 240.8 m E Sg      2011/12/16 18:58:25.0   0.6                          T                2.1  .20 Ml 1.8         4801403
LPG   001.04 359.8 m E Pg      2011/12/16 18:58:13.3   0.2                          T                                        4801406
LPG   001.04 359.8 m E Sg      2011/12/16 18:58:27.0   0.4                          T                3.7  .39 Ml 1.8 Md 1.9  4801404
LPL   001.06 359.1 m E Pg      2011/12/16 18:58:13.5   0.0                          T                                        4801417
LPL   001.06 359.1 m E Sg      2011/12/16 18:58:27.3   0.1                          T                1.6  .27 Ml 1.6         4801416
LMR   001.14 189.1 m E Pg      2011/12/16 18:58:14.4  -0.2                          T                                        4801400
LMR   001.14 189.1 m E Sg      2011/12/16 18:58:29.2  -0.1                          T                2.4  .21 Ml 2.0         4801401

.
EVENT     267526
    Date      Time       Latitude Longitude    Depth    Ndef Nsta Gap    Mag1  N    Mag2  N    Mag3  N   Author         ID
       rms   OT_Error      Smajor Sminor Az        Err   mdist  Mdist     Err        Err        Err      Quality

2011/12/16 23:28:20.1     42.7272   13.6289     20.0 f    36    9 139  Ml 3.2  5                         js067245    267546

      0.50   +-  0.11       2.9    2.1   80.62 +-  0.0    0.11   7.36   +-0.5                            m i ke

CENTRAL ITALY
Sta     Dist  EvAz     Phase      Date       Time     TRes  Azim  AzRes  Slow  SRes Def   SNR       Amp   Per   Mag1   Mag2       ID
PGF   003.42 268.6 m E P       2011/12/16 23:29:14.6   0.7                          T                                        4802589
LMR   005.25 279.0 m E P       2011/12/16 23:29:39.3  -0.5                          T                                        4802590
LPG   005.67 301.6 m E Pn      2011/12/16 23:29:41.1  -0.4                          T                                        4802592
LPG   005.67 301.6 m E P       2011/12/16 23:29:45.7  -0.4                          T                                        4802591
LPG   005.67 301.6 m E Sn      2011/12/16 23:30:41.4  -0.7                          T                1.3  .25 Ml 2.7         4802587
LPL   005.69 301.7 m E Pn      2011/12/16 23:29:41.2  -0.5                          T                                        4802594
LPL   005.69 301.7 m E P       2011/12/16 23:29:45.9  -0.3                          T                                        4802593
LPL   005.69 301.7 m E Sn      2011/12/16 23:30:41.5  -1.0                          T                1.2  .29 Ml 2.6         4802588
MBDF  005.36 294.2 m E P       2011/12/16 23:29:41.6   0.2                          T                                        4802595
CABF  006.63 308.4 m E Pn      2011/12/16 23:29:53.5  -0.8                          T                                        4802596
HINF  006.98 319.1 m E P       2011/12/16 23:30:02.1  -2.1                          T                                        4802597
HINF  006.98 319.1 m E Sn      2011/12/16 23:31:12.8  -0.3                          T                7.8  .35 Ml 3.6         4802586
CDF   007.22 324.1 m E P       2011/12/16 23:30:05.3  -2.3                          T                                        4802599
CDF   007.22 324.1 m E Sn      2011/12/16 23:31:19.1   0.2                          T                2.9  .36 Ml 3.3         4802584
HAU   007.36 318.3 m E P       2011/12/16 23:30:07.8  -1.6                          T                                        4802598
HAU   007.36 318.3 m E Sn      2011/12/16 23:31:22.0   0.0                          T               11.4  .40 Ml 3.5         4802585

.
EVENT     267527
    Date      Time       Latitude Longitude    Depth    Ndef Nsta Gap    Mag1  N    Mag2  N    Mag3  N   Author         ID
       rms   OT_Error      Smajor Sminor Az        Err   mdist  Mdist     Err        Err        Err      Quality

2011/12/17 03:04:15.6     42.7219   13.6099     20.0 f    52   14 083  Ml 3.2  5                         js067245    267547

      0.60   +-  0.11       2.7    2.2   88.10 +-  0.0    0.10   8.27   +-0.4                            m i ke

CENTRAL ITALY
Sta     Dist  EvAz     Phase      Date       Time     TRes  Azim  AzRes  Slow  SRes Def   SNR       Amp   Per   Mag1   Mag2       ID
PGF   003.41 268.6 m E P       2011/12/17 03:05:10.3   1.1                          T                                        4801910
SBF   004.65 286.3 m E P       2011/12/17 03:05:26.5  -0.3                          T                                        4801909
FRF   005.16 281.7 m E P       2011/12/17 03:05:33.9  -0.1                          T                                        4801911
LMR   005.24 279.1 m E P       2011/12/17 03:05:35.4   0.4                          T                                        4801912
MBDF  005.35 294.3 m E P       2011/12/17 03:05:36.7   0.0                          T                                        4802603
ORIF  006.01 294.1 m E Pn      2011/12/17 03:05:40.7  -0.6                          T                                        4802604
ORIF  006.01 294.1 m E P       2011/12/17 03:05:45.6  -0.4                          T                                        4801902
LPL   005.68 301.8 m E P       2011/12/17 03:05:41.1  -0.4                          T                                        4801901
LPL   005.68 301.8 m E Sn      2011/12/17 03:06:36.9  -0.9                          T                1.8  .32 Ml 2.8         4802601
LPG   005.66 301.7 m E P       2011/12/17 03:05:41.2  -0.1                          T                                        4801908
LPG   005.66 301.7 m E Sn      2011/12/17 03:06:36.6  -0.8                          T                2.0  .35 Ml 2.8         4802602
CABF  006.62 308.5 m E Pn      2011/12/17 03:05:49.0  -0.6                          T                                        4802606
CABF  006.62 308.5 m E P       2011/12/17 03:05:54.3  -0.3                          T                                        4802605
HINF  006.98 319.2 m E P       2011/12/17 03:05:58.3  -1.2                          T                                        4801907
HINF  006.98 319.2 m E Sn      2011/12/17 03:07:09.0   0.5                          T                6.0  .28 Ml 3.6         4801900
CDF   007.22 324.2 m E P       2011/12/17 03:06:01.1  -1.9                          T                                        4801904
CDF   007.22 324.2 m E Sn      2011/12/17 03:07:13.9  -0.4                          T                2.2  .28 Ml 3.3         4801898
HAU   007.35 318.4 m E P       2011/12/17 03:06:02.8  -1.9                          T                                        4801906
HAU   007.35 318.4 m E Sn      2011/12/17 03:07:17.1  -0.3                          T                6.1  .21 Ml 3.6         4801899
THEF  007.68 318.4 m E P       2011/12/17 03:06:07.9  -1.4                          T                                        4801905
LOR   008.27 306.7 m E P       2011/12/17 03:06:16.1  -1.4                          T                                        4801903

.
EVENT     267528
    Date      Time       Latitude Longitude    Depth    Ndef Nsta Gap    Mag1  N    Mag2  N    Mag3  N   Author         ID
       rms   OT_Error      Smajor Sminor Az        Err   mdist  Mdist     Err        Err        Err      Quality

2011/12/17 06:52:34.8     44.5279    7.2833      2.0      19    8 191  Ml 1.8  7  Md 1.8  3              js067245    267548

      0.89   +-  0.22       4.6    2.1   77.39 +-  0.0    0.42   1.35   +-0.3      +-0.1                 m i ke

NORTHERN ITALY
Sta     Dist  EvAz     Phase      Date       Time     TRes  Azim  AzRes  Slow  SRes Def   SNR       Amp   Per   Mag1   Mag2       ID
MBDF  000.42 298.7 m E Pg      2011/12/17 06:52:42.8  -0.2                          T                                        4801927
MBDF  000.42 298.7 m E Sg      2011/12/17 06:52:48.1  -0.4                          T               13.6  .26        Md 1.7  4801926
SBF   000.67 170.6 m E Pg      2011/12/17 06:52:47.3  -0.3                          T                                        4801921
SBF   000.67 170.6 m E Sg      2011/12/17 06:52:56.8   0.4                          T                2.1  .19        Md 1.7  4801914
LPG   001.04 338.9 m E Pg      2011/12/17 06:52:54.6  -0.1                          T                                        4801919
LPG   001.04 338.9 m E Sg      2011/12/17 06:53:08.9   0.7                          T                1.1  .21 Ml 1.5         4801917
LPL   001.06 338.6 m E Pg      2011/12/17 06:52:54.6  -0.4                          T                                        4801913
LPL   001.06 338.6 m E Sg      2011/12/17 06:53:08.8   0.0                          T                1.9  .28 Ml 1.7 Md 1.9  4801931
FRF   001.07 205.6 m E Pg      2011/12/17 06:52:54.7  -0.2                          T                                        4801925
FRF   001.07 205.6 m E Sg      2011/12/17 06:53:08.5  -0.3                          T                2.8  .18 Ml 2.1         4801924
ORIF  001.07 291.8 m E Pg      2011/12/17 06:52:54.9  -0.1                          T                                        4801918
ORIF  001.07 291.8 m E Sg      2011/12/17 06:53:07.9  -1.1                          T                1.4  .23 Ml 1.6         4801915
LMR   001.32 205.4 m E Pg      2011/12/17 06:52:59.7   0.3                          T                                        4801922
LMR   001.32 205.4 m E Sg      2011/12/17 06:53:15.5  -0.9                          T                5.0  .22 Ml 2.3         4801923
SMRF  001.35 246.4 m E Pg      2011/12/17 06:53:00.8   0.8                          T                                        4801920
SMRF  001.35 246.4 m E Sg      2011/12/17 06:53:17.4   0.0                          T                2.3  .34 Ml 1.8         4801916

.
EVENT     267529
    Date      Time       Latitude Longitude    Depth    Ndef Nsta Gap    Mag1  N    Mag2  N    Mag3  N   Author         ID
       rms   OT_Error      Smajor Sminor Az        Err   mdist  Mdist     Err        Err        Err      Quality

2011/12/17 06:57:00.7     42.9190    -.0697      2.0       5    3 208  Ml 1.2  2  Md 1.3  1              js067245    267549

      0.26   +-  0.65      36.8    4.2  179.22 +-  0.0    0.32   1.73   +-0.3      +-                    m i ke

PYRENEES
Sta     Dist  EvAz     Phase      Date       Time     TRes  Azim  AzRes  Slow  SRes Def   SNR       Amp   Per   Mag1   Mag2       ID
EPF   000.32 069.6 m E Pg      2011/12/17 06:57:06.8  -0.2                          T                                        4801935
EPF   000.32 069.6 m E Sg      2011/12/17 06:57:11.7   0.3                          T               11.3  .20        Md 1.3  4801934
SJPF  000.87 283.3 m E Sg      2011/12/17 06:57:28.4   0.0                          T                 .9  .20 Ml 1.4         4802621
MTLF  001.73 075.1 m E Pg      2011/12/17 06:57:33.0   0.2                          T                                        4801933
MTLF  001.73 075.1 m E Sg      2011/12/17 06:57:54.7  -0.4                          T                 .1  .15 Ml 1.1         4801932

.
EVENT     267530
    Date      Time       Latitude Longitude    Depth    Ndef Nsta Gap    Mag1  N    Mag2  N    Mag3  N   Author         ID
       rms   OT_Error      Smajor Sminor Az        Err   mdist  Mdist     Err        Err        Err      Quality

2011/12/17 14:43:47.5     42.6743    2.0792     10.0      12    3 098  Ml 1.7  2  Md 1.8  2              js067245    267550

      0.97   +-  0.13       2.6    2.3  103.88 +-  0.0    0.21   2.25   +-0.2      +-0.0                 m i ke

PYRENEES
Sta     Dist  EvAz     Phase      Date       Time     TRes  Azim  AzRes  Slow  SRes Def   SNR       Amp   Per   Mag1   Mag2       ID
MTLF  000.67 008.6 m E Pg      2011/12/17 14:44:00.3   0.0                          T                                        4802661
MTLF  000.67 008.6 m E Pn      2011/12/17 14:44:01.6   0.0                          T                                        4801942
MTLF  000.67 008.6 m E Sg      2011/12/17 14:44:08.6  -0.6                          T                1.7  .27        Md 1.8  4801941
MTLF  000.67 008.6 m E Sn      2011/12/17 14:44:11.4  -0.1                          T                                Md 1.8  4801943
EPF   001.33 286.1 m E Pg      2011/12/17 14:44:11.9  -0.5                          T                                        4801940
EPF   001.33 286.1 m E Sg      2011/12/17 14:44:28.5  -1.1                          T                 .8  .23 Ml 1.5         4801939
CAF   002.25 359.7 m E Sg      2011/12/17 14:44:57.4  -0.9                          T                 .6  .16 Ml 1.8         4801938

.
EVENT     267531
    Date      Time       Latitude Longitude    Depth    Ndef Nsta Gap    Mag1  N    Mag2  N    Mag3  N   Author         ID
       rms   OT_Error      Smajor Sminor Az        Err   mdist  Mdist     Err        Err        Err      Quality

2011/12/17 15:52:24.7     44.7627    6.6171      2.0      16    7 103  Ml 1.6  1  Md 1.5  2              js067245    267551

      0.47   +-  0.11       2.4    1.9   47.76 +-  0.0    0.06   1.43   +-         +-0.0                 m i ke

FRANCE
Sta     Dist  EvAz     Phase      Date       Time     TRes  Azim  AzRes  Slow  SRes Def   SNR       Amp   Per   Mag1   Mag2       ID
MBDF  000.12 108.0 m E Pg      2011/12/17 15:52:26.8  -0.5                          T                                        4801980
MBDF  000.12 108.0 m E Sg      2011/12/17 15:52:28.3  -0.8                          T               36.2  .28        Md 1.5  4801979
ORIF  000.55 286.8 m E Pg      2011/12/17 15:52:35.2   0.0                          T                                        4801978
ORIF  000.55 286.8 m E Sg      2011/12/17 15:52:41.9  -0.5                          T                3.7  .24        Md 1.5  4801976
LPG   000.74 007.3 m E Pg      2011/12/17 15:52:39.2   0.1                          T                                        4801977
LPG   000.74 007.3 m E Sg      2011/12/17 15:52:49.7   1.0                          T                  1  .24                4801974
LPL   000.76 006.1 m E Pg      2011/12/17 15:52:39.6   0.3                          T                                        4801975
SBF   001.07 146.6 m E Pg      2011/12/17 15:52:45.3   0.4                          T                                        4801982
SBF   001.07 146.6 m E Sg      2011/12/17 15:52:58.5  -0.3                          T                1.1  .22 Ml 1.6         4801981
FRF   001.20 179.0 m E Sg      2011/12/17 15:53:03.7   1.0                          T                                        4801972
LMR   001.43 183.2 m E Sg      2011/12/17 15:53:09.9   0.1                          T                                        4801973

.
