EVENT     268611
    Date      Time       Latitude Longitude    Depth    Ndef Nsta Gap    Mag1  N    Mag2  N    Mag3  N   Author         ID
       rms   OT_Error      Smajor Sminor Az        Err   mdist  Mdist     Err        Err        Err      Quality

2012/01/16 05:37:58.5     43.1051    -.3810      2.0      64   16 073  Ml 2.6 15  Md 2.8  3              js067245    268631

      1.05   +-  0.08       1.8    1.5  165.52 +-  0.0    0.23   5.49   +-0.2      +-0.1                 m i ke

PYRENEES
Sta     Dist  EvAz     Phase      Date       Time     TRes  Azim  AzRes  Slow  SRes Def   SNR       Amp   Per   Mag1   Mag2       ID
ETSF  000.24 212.4 m E Pg      2012/01/16 05:38:03.2  -0.3                          T                                        4816140
ETSF  000.24 212.4 m E Sg      2012/01/16 05:38:06.2  -0.6                          T   001.0      341.6  .24        Md 2.7  4814346
EPF   000.53 097.8 m E Pg      2012/01/16 05:38:08.7   0.0                          T   001.0                                4814336
EPF   000.53 097.8 m E Sg      2012/01/16 05:38:16.3   0.6                          T               23.3  .18        Md 2.9  4816137
MTLF  001.91 082.0 m E Pn      2012/01/16 05:38:30.5   0.1                          T   001.0                                4814347
MTLF  001.91 082.0 m E Pg      2012/01/16 05:38:34.1   0.0                          T   001.0                                4814348
MTLF  001.91 082.0 m E Sg      2012/01/16 05:38:58.9   0.1                          T   001.0        5.2  .26 Ml 2.5         4814349
LFF   002.00 023.4 m E Pn      2012/01/16 05:38:31.3  -0.3                          T   001.0                                4814342
LFF   002.00 023.4 m E Pg      2012/01/16 05:38:35.3  -0.4                          T                                        4816662
LFF   002.00 023.4 m E Sg      2012/01/16 05:39:02.0   0.4                          T   001.0       15.4  .36 Ml 2.7         4814343
CAF   002.53 043.3 m E Pn      2012/01/16 05:38:38.7  -0.2                          T   001.0                                4814332
CAF   002.53 043.3 m E Pg      2012/01/16 05:38:46.0   0.5                          T   001.0                                4814333
CAF   002.53 043.3 m E Sn      2012/01/16 05:39:07.9  -0.6                          T   001.0                                4814334
CAF   002.53 043.3 m E Sg      2012/01/16 05:39:18.2   0.0                          T   001.0        5.4  .20 Ml 2.8         4814335
RJF   002.59 031.2 m E Pg      2012/01/16 05:38:46.4  -0.2                          T                                        4816661
RJF   002.59 031.2 m E Sn      2012/01/16 05:39:09.7  -0.1                          T   001.0                                4814327
RJF   002.59 031.2 m E Sg      2012/01/16 05:39:20.2   0.4                          T   001.0        6.5  .24 Ml 2.4         4814328
LASF  003.23 071.1 m E Pn      2012/01/16 05:38:48.0  -0.3                          T   001.0                                4814338
LASF  003.23 071.1 m E Pg      2012/01/16 05:38:58.0  -0.4                          T                                        4816664
LASF  003.23 071.1 m E Sg      2012/01/16 05:39:40.0   0.2                          T   001.0        5.3  .28 Ml 2.8         4814339
MFF   003.50 002.7 m E Pn      2012/01/16 05:38:52.7   0.7                          T                                        4816659
MFF   003.50 002.7 m E Pg      2012/01/16 05:39:02.8  -0.5                          T                                        4816658
MFF   003.50 002.7 m E Sn      2012/01/16 05:39:31.0  -0.5                          T                                        4816660
MFF   003.50 002.7 m E Sg      2012/01/16 05:39:48.6   0.3                          T   001.0        2.1  .20 Ml 2.7         4814344
AVF   004.54 034.4 m E Pn      2012/01/16 05:39:06.1   0.0                          T   001.0                                4814329
AVF   004.54 034.4 m E Sg      2012/01/16 05:40:20.8   0.2                          T   001.0         .7  .20 Ml 2.3         4814330
VIVF  004.05 062.6 m E Pg      2012/01/16 05:39:13.0  -0.4                          T                                        4816663
VIVF  004.05 062.6 m E Sg      2012/01/16 05:40:05.4   0.1                          T   001.0        3.3  .29 Ml 2.7         4814350
LDF   005.49 001.8 m E Pn      2012/01/16 05:39:19.0   0.9                          T   001.0                                4814340
LDF   005.49 001.8 m E Sn      2012/01/16 05:40:18.2  -0.9                          T   001.0        4.9  .72 Ml 2.8         4814341
TCF   003.68 029.2 m E Sg      2012/01/16 05:39:54.7   0.8                          T   001.0        1.3  .19 Ml 2.5         4814345
BGF   004.15 032.5 m E Sg      2012/01/16 05:40:08.7   0.3                          T   001.0        7.4  .32 Ml 3.0         4814331
GRR   005.29 356.5 m E Sn      2012/01/16 05:40:14.5   0.1                          T   001.0         .7  .21 Ml 2.4         4814337
SMF   004.64 038.8 m E Sg      2012/01/16 05:40:23.3  -0.6                          T                1.2  .24 Ml 2.5         4816667
SJPF  000.63 272.3 m E Sg                                                                           21.9  .24        Md 2.7  4816139

.
EVENT     268621
    Date      Time       Latitude Longitude    Depth    Ndef Nsta Gap    Mag1  N    Mag2  N    Mag3  N   Author         ID
       rms   OT_Error      Smajor Sminor Az        Err   mdist  Mdist     Err        Err        Err      Quality

2012/01/16 07:57:03.8     47.7273    7.9515     15.5      10    3 067  Ml 1.5  2  Md 1.6  1              js067245    268641

      0.20   +-  0.06       1.1     .8  161.06 +-  0.6    0.14   1.41   +-0.0      +-                    m i ke

SWITZERLAND
Sta     Dist  EvAz     Phase      Date       Time     TRes  Azim  AzRes  Slow  SRes Def   SNR       Amp   Per   Mag1   Mag2       ID
HINF  000.75 277.3 m E Pg      2012/01/16 07:57:17.8  -0.3                          T                                        4816706
HINF  000.75 277.3 m E Sg      2012/01/16 07:57:27.6  -0.4                          T                4.9  .20        Md 1.6  4816707
HAU   001.11 285.1 m E Pg      2012/01/16 07:57:25.1   0.2                          T                                        4816702
HAU   001.11 285.1 m E Sg      2012/01/16 07:57:39.3  -0.1                          T                1.5  .22 Ml 1.5         4816703
THEF  001.41 291.6 m E Pg      2012/01/16 07:57:30.1  -0.2                          T                                        4816704
THEF  001.41 291.6 m E Sg      2012/01/16 07:57:48.4  -0.1                          T                 .7  .19 Ml 1.5         4816705

.
EVENT     268693
    Date      Time       Latitude Longitude    Depth    Ndef Nsta Gap    Mag1  N    Mag2  N    Mag3  N   Author         ID
       rms   OT_Error      Smajor Sminor Az        Err   mdist  Mdist     Err        Err        Err      Quality

2012/01/16 11:01:36.6     47.8114   14.2327      2.0      42   13 076  Ml 3.2  8                         js067245    268713

      0.57   +-  0.12       3.1    2.2  148.93 +-  0.0    1.32   8.14   +-0.2                            m i ke

AUSTRIA
Sta     Dist  EvAz     Phase      Date       Time     TRes  Azim  AzRes  Slow  SRes Def   SNR       Amp   Per   Mag1   Mag2       ID
LANF  004.44 287.7 m E P       2012/01/16 11:02:46.0  -0.6                          T                                        4816735
HINF  004.97 272.8 m E Pn      2012/01/16 11:02:50.0  -0.2                          T                                        4816754
HINF  004.97 272.8 m E Sn      2012/01/16 11:03:45.0   0.2                          T                                        4816741
HINF  004.97 272.8 m E Sg      2012/01/16 11:04:12.7   0.3                          T               15.2  .44 Ml 3.4         4816742
HAU   005.31 275.0 m E Pn      2012/01/16 11:02:54.8   0.2                          T                                        4816755
HAU   005.31 275.0 m E P       2012/01/16 11:02:58.6  -0.3                          T                                        4816756
HAU   005.31 275.0 m E Sn      2012/01/16 11:03:52.5  -0.3                          T                                        4816739
HAU   005.31 275.0 m E Sg      2012/01/16 11:04:22.5  -0.2                          T               13.9  .34 Ml 3.3         4816740
THEF  005.54 277.4 m E Pn      2012/01/16 11:02:57.9   0.0                          T                                        4816757
THEF  005.54 277.4 m E Sg      2012/01/16 11:04:29.9  -0.3                          T                5.7  .29 Ml 3.3         4816738
CABF  005.68 260.8 m E Pn      2012/01/16 11:02:59.8   0.0                          T                                        4816753
PAGF  005.74 280.6 m E Pn      2012/01/16 11:03:00.4  -0.1                          T                                        4816737
PAGF  005.74 280.6 m E Sg      2012/01/16 11:04:36.8   0.5 101.3  7.0               T                5.9  .65 Ml 3.0         4816736
SFTF  006.18 277.1 m E Pn      2012/01/16 11:03:06.5  -0.1  95.5  5.3               T                                        4816758
MBDF  006.02 241.9 m E P       2012/01/16 11:03:08.9  -0.2                          T                                        4816749
ORIF  006.46 246.5 m E P       2012/01/16 11:03:14.6  -0.7                          T                                        4816748
ORIF  006.46 246.5 m E Sn      2012/01/16 11:04:21.2   0.7                          T                3.4  .41 Ml 3.1         4816747
VIVF  007.25 249.5 m E Pn      2012/01/16 11:03:21.4   0.2                          T                                        4816750
VIVF  007.25 249.5 m E Sn      2012/01/16 11:04:39.2   0.0                          T                1.6  .32 Ml 3.0         4816746
AVF   007.47 266.2 m E Pn      2012/01/16 11:03:26.6   2.5                          T                                        4816752
BGF   007.86 265.0 m E Pn      2012/01/16 11:03:29.2  -0.2                          T                                        4816744
BGF   007.86 265.0 m E Sn      2012/01/16 11:04:54.1   0.3                          T                2.9  .25 Ml 3.5         4816743
LASF  008.14 246.5 m E Pn      2012/01/16 11:03:33.7   0.5                          T                                        4816751
LASF  008.14 246.5 m E Sn      2012/01/16 11:05:00.9   0.4                          T                2.0  .32 Ml 3.2         4816745

.
EVENT     268684
    Date      Time       Latitude Longitude    Depth    Ndef Nsta Gap    Mag1  N    Mag2  N    Mag3  N   Author         ID
       rms   OT_Error      Smajor Sminor Az        Err   mdist  Mdist     Err        Err        Err      Quality

2012/01/16 15:00:23.9     48.9405    6.0531       .0 f    13    7 188  Ml 2.2  4  Md 2.2  1              js067245    268704

      0.79   +-  0.14       2.9    1.7   60.98 +-  0.0    0.44   1.41   +-0.2      +-                    m i km

FRANCE
Sta     Dist  EvAz     Phase      Date       Time     TRes  Azim  AzRes  Slow  SRes Def   SNR       Amp   Per   Mag1   Mag2       ID
PAGF  000.44 209.5 m E Pg      2012/01/16 15:00:33.2   0.5  30.2  0.9               T                                        4816767
PAGF  000.44 209.5 m E Sg      2012/01/16 15:00:38.3  -0.4  19.5  -9.7              T               93.5 1.13        Md 2.2  4816768
THEF  000.71 183.2 m E Pg      2012/01/16 15:00:37.7   0.1                          T                                        4816771
THEF  000.71 183.2 m E Sg      2012/01/16 15:00:46.8  -0.3                          T                                        4816772
MEZF  000.80 236.9 m E Pg      2012/01/16 15:00:38.9  -0.2                          T                                        4816773
MEZF  000.80 236.9 m E Sg      2012/01/16 15:00:49.5  -0.2                          T                6.6  .26                4816774
HAU   000.96 168.0 m E Pg      2012/01/16 15:00:42.1   0.0                          T                                        4816770
HAU   000.96 168.0 m E Sg      2012/01/16 15:00:55.0   0.3                          T               15.0  .48 Ml 2.1         4816766
HINF  001.24 154.3 m E Pg      2012/01/16 15:00:47.3  -0.2                          T                                        4816769
HINF  001.24 154.3 m E Sg      2012/01/16 15:01:03.4  -0.4                          T                6.9  .37 Ml 2.2         4816765
GIVF  001.41 325.9 m E Pg      2012/01/16 15:00:50.6   0.1                          T                                        4816775
GIVF  001.41 325.9 m E Sg      2012/01/16 15:01:08.7  -0.3                          T                2.8  .27 Ml 2.0         4816776
SFTF  001.00 222.9 m E Sg      2012/01/16 15:00:56.1   0.1  45.5  3.4               T               15.9  .43 Ml 2.4         4816764

.
EVENT     268685
    Date      Time       Latitude Longitude    Depth    Ndef Nsta Gap    Mag1  N    Mag2  N    Mag3  N   Author         ID
       rms   OT_Error      Smajor Sminor Az        Err   mdist  Mdist     Err        Err        Err      Quality

2012/01/16 15:10:29.2     45.3443    6.4892      2.0       8    5 154  Ml 1.7  1  Md 1.4  3              js067245    268705

      0.14   +-  0.07       2.5    1.0  135.95 +-  0.0    0.24   1.38   +-         +-0.1                 m i ke

FRANCE
Sta     Dist  EvAz     Phase      Date       Time     TRes  Azim  AzRes  Slow  SRes Def   SNR       Amp   Per   Mag1   Mag2       ID
LPL   000.24 044.8 m E Pg      2012/01/16 15:10:34.2  -0.1                          T                                        4816783
LPL   000.24 044.8 m E Sg      2012/01/16 15:10:37.6   0.0                          T               18.5  .42        Md 1.4  4816784
LPG   000.24 050.2 m E Pg      2012/01/16 15:10:35.1   0.9                          T                                        4816781
LPG   000.24 050.2 m E Sg      2012/01/16 15:10:37.6   0.1                          T                8.6  .18        Md 1.4  4816782
ORIF  000.61 225.6 m E Pg      2012/01/16 15:10:40.9   0.1                          T                                        4816779
ORIF  000.61 225.6 m E Sg      2012/01/16 15:10:48.4  -0.3                          T                3.6  .24        Md 1.5  4816780
MBDF  000.65 161.9 m E Sg      2012/01/16 15:10:50.1   0.0                          T                2.3  .24                4816778
VIVF  001.38 249.9 m E Sg      2012/01/16 15:11:12.6   0.0                          T                1.4  .27 Ml 1.7         4816777

.
EVENT     268686
    Date      Time       Latitude Longitude    Depth    Ndef Nsta Gap    Mag1  N    Mag2  N    Mag3  N   Author         ID
       rms   OT_Error      Smajor Sminor Az        Err   mdist  Mdist     Err        Err        Err      Quality

2012/01/16 15:12:37.0     44.5363    6.8119      4.0 f    42    9 049  Ml 2.1  6  Md 1.9  2              js067245    268706

      0.25   +-  0.03        .8     .5   58.85 +-  0.0    0.19   1.56   +-0.4      +-0.5                 m i ke

FRANCE
Sta     Dist  EvAz     Phase      Date       Time     TRes  Azim  AzRes  Slow  SRes Def   SNR       Amp   Per   Mag1   Mag2       ID
MBDF  000.19 351.4 m E Pg      2012/01/16 15:12:41.0  -0.1                          T                                        4816803
MBDF  000.19 351.4 m E Sg      2012/01/16 15:12:43.6  -0.2                          T               29.8  .18        Md 2.2  4816792
ORIF  000.77 300.2 m E Pg      2012/01/16 15:12:51.6   0.1                          T                                        4816802
ORIF  000.77 300.2 m E Sg      2012/01/16 15:13:01.8   0.2                          T               10.0  .23        Md 1.6  4816791
SBF   000.81 146.1 m E Pg      2012/01/16 15:12:52.4   0.1                          T                                        4816794
SBF   000.81 146.1 m E Pn      2012/01/16 15:12:53.8   0.1                          T                                        4816795
SBF   000.81 146.1 m E Sg      2012/01/16 15:13:02.7  -0.1                          T                9.7  .19                4816785
LPG   000.96 357.5 m E Pg      2012/01/16 15:12:55.4   0.0                          T                                        4816800
LPG   000.96 357.5 m E Sg      2012/01/16 15:13:08.0   0.1                          T                5.3  .28 Ml 2.1         4816789
FRF   000.98 187.0 m E Pg      2012/01/16 15:12:55.6   0.1                          T                                        4816797
FRF   000.98 187.0 m E Pn      2012/01/16 15:12:56.8   0.9                          T                                        4816798
FRF   000.98 187.0 m E Sn      2012/01/16 15:13:09.4   0.0                          T                8.8  .22 Ml 2.4         4816787
LPL   000.98 356.7 m E Pg      2012/01/16 15:12:55.7   0.0                          T                                        4816801
LPL   000.98 356.7 m E Sg      2012/01/16 15:13:08.6   0.2                          T                3.2  .24 Ml 1.9         4816790
SMRF  001.05 238.2 m E P       2012/01/16 15:12:58.2  -0.2                          T                                        4816799
SMRF  001.05 238.2 m E Sn      2012/01/16 15:13:11.5   0.4                          T                7.6  .28 Ml 2.3         4816788
LMR   001.22 190.4 m E Pg      2012/01/16 15:12:59.8   0.0                          T                                        4816796
LMR   001.22 190.4 m E Sg      2012/01/16 15:13:15.7   0.1                          T                5.5  .18 Ml 2.4         4816786
VIVF  001.56 282.6 m E Pg      2012/01/16 15:13:05.9  -0.2                          T                                        4816804
VIVF  001.56 282.6 m E Sg      2012/01/16 15:13:26.2   0.0                          T                 .4  .18 Ml 1.5         4816793

.
EVENT     268694
    Date      Time       Latitude Longitude    Depth    Ndef Nsta Gap    Mag1  N    Mag2  N    Mag3  N   Author         ID
       rms   OT_Error      Smajor Sminor Az        Err   mdist  Mdist     Err        Err        Err      Quality

2012/01/16 17:37:12.6     44.6542    6.8277      2.0      26    6 091  Ml 1.3  3  Md 1.2  1              js067245    268714

      0.17   +-  0.03        .7     .5   62.43 +-  0.0    0.08   1.55   +-0.1      +-                    m i ke

FRANCE
Sta     Dist  EvAz     Phase      Date       Time     TRes  Azim  AzRes  Slow  SRes Def   SNR       Amp   Per   Mag1   Mag2       ID
MBDF  000.08 331.1 m E Pg      2012/01/16 17:37:14.7   0.0                          T                                        4816815
MBDF  000.08 331.1 m E Sg      2012/01/16 17:37:15.4  -0.6                          T               61.4  .35        Md 1.2  4816816
ORIF  000.72 291.7 m E Pg      2012/01/16 17:37:26.4   0.0                          T                                        4816813
ORIF  000.72 291.7 m E Sg      2012/01/16 17:37:36.0   0.2                          T                2.4  .29                4816814
LPG   000.85 356.4 m E Pg      2012/01/16 17:37:29.0   0.2                          T                                        4816811
LPG   000.85 356.4 m E Sn      2012/01/16 17:37:42.6   0.0                          T                 .8  .23                4816808
LPL   000.86 355.6 m E Pg      2012/01/16 17:37:30.0   0.8                          T                                        4816812
LPL   000.86 355.6 m E Sn      2012/01/16 17:37:42.7  -0.2                          T                1.2  .29 Ml 1.4         4816809
FRF   001.10 186.9 m E Sn      2012/01/16 17:37:48.2   0.0                          T                 .3  .17 Ml 1.1         4816807
VIVF  001.55 278.2 m E Sg      2012/01/16 17:38:01.5   0.0                          T                 .4  .21 Ml 1.4         4816810

.
