EVENT     300041
    Date      Time       Latitude Longitude    Depth    Ndef Nsta Gap    Mag1  N    Mag2  N    Mag3  N   Author         ID
       rms   OT_Error      Smajor Sminor Az        Err   mdist  Mdist     Err        Err        Err      Quality

2013/05/30 18:36:28.5     42.8179    -.0082      2.0       5    3 231  Ml 1.1  1  Md 1.3  2              bulletin    300141
                                                                                                         _ldg
      0.22   +-  0.35      13.1    1.9  168.33 +-  0.0    0.33   0.94   +-         +-0.0                 m i ke

PYRENEES
Sta     Dist  EvAz     Phase      Date       Time     TRes  Azim  AzRes  Slow  SRes Def   SNR       Amp   Per   Mag1   Mag2       ID
EPF   000.33 050.2 m E Pg      2013/05/30 18:36:34.9  -0.2                          T                                        5298427
EPF   000.33 050.2 m E Sg      2013/05/30 18:36:39.2  -0.3                          T                2.7  .24        Md 1.4  5298426
ETSF  000.41 281.5 m E Pg      2013/05/30 18:36:36.6   0.0                          T                                        5298424
ETSF  000.41 281.5 m E Sg      2013/05/30 18:36:41.7  -0.4                          T                5.2  .24        Md 1.3  5298425
SJPF  000.94 288.7 m E Sg      2013/05/30 18:36:58.7   0.3                          T                 .4  .20 Ml 1.1         5303201

.
EVENT     300042
    Date      Time       Latitude Longitude    Depth    Ndef Nsta Gap    Mag1  N    Mag2  N    Mag3  N   Author         ID
       rms   OT_Error      Smajor Sminor Az        Err   mdist  Mdist     Err        Err        Err      Quality

2013/05/30 19:21:04.5     44.0103    8.7063      2.0      48   10 109  Ml 2.1 10  Md 2.3  1              bulletin    300142
                                                                                                         _ldg
      0.33   +-  0.09       1.7    1.5  168.20 +-  0.0    0.32   3.01   +-0.3      +-                    m i ke

NORTHERN ITALY
Sta     Dist  EvAz     Phase      Date       Time     TRes  Azim  AzRes  Slow  SRes Def   SNR       Amp   Per   Mag1   Mag2       ID
SBF   000.93 261.3 m E Pg      2013/05/30 19:21:22.1   0.1                          T                                        5298448
SBF   000.93 261.3 m E P       2013/05/30 19:21:24.1   0.0                          T                                        5303397
SBF   000.93 261.3 m E Sn      2013/05/30 19:21:36.1  -0.1                          T               14.9  .21 Ml 2.6 Md 2.3  5303363
PGF   001.48 171.6 m E Pn      2013/05/30 19:21:29.6  -0.9                          T                                        5298447
PGF   001.48 171.6 m E Sn      2013/05/30 19:21:48.6  -0.7                          T                1.6  .27 Ml 2.0         5303396
FRF   001.56 253.9 m E Pn      2013/05/30 19:21:31.5   0.0                          T                                        5303400
FRF   001.56 253.9 m E Pg      2013/05/30 19:21:33.7   0.2                          T                                        5298440
FRF   001.56 253.9 m E Sn      2013/05/30 19:21:51.5   0.4                          T                2.2  .26 Ml 2.0         5303399
MBDF  001.56 298.0 m E Pn      2013/05/30 19:21:32.0   0.2                          T                                        5298452
MBDF  001.56 298.0 m E Sn      2013/05/30 19:21:51.7   0.4                          T                3.0  .22 Ml 2.2         5298446
LMR   001.73 247.8 m E Pn      2013/05/30 19:21:33.1  -0.7                          T                                        5303398
LMR   001.73 247.8 m E Pg      2013/05/30 19:21:36.8   0.1                          T                                        5298439
LMR   001.73 247.8 m E Sn      2013/05/30 19:21:54.9  -0.3                          T                1.5  .26 Ml 1.9         5303362
ORIF  002.22 295.1 m E Pn      2013/05/30 19:21:40.7   0.1                          T                                        5298445
ORIF  002.22 295.1 m E P       2013/05/30 19:21:42.9   0.0                          T                                        5303401
ORIF  002.22 295.1 m E Sn      2013/05/30 19:22:06.8  -0.2                          T                                        5303404
ORIF  002.22 295.1 m E Sg      2013/05/30 19:22:14.5   0.1                          T                1.4  .33 Ml 1.9         5298444
LPG   002.04 317.6 m E P       2013/05/30 19:21:40.8   0.2                          T                                        5298450
LPG   002.04 317.6 m E Sn      2013/05/30 19:22:03.1   0.2                          T                                        5303402
LPG   002.04 317.6 m E Sg      2013/05/30 19:22:08.9  -0.1                          T                 .6  .24 Ml 1.7         5298442
LPL   002.06 317.7 m E P       2013/05/30 19:21:41.4   0.5                          T                                        5298451
LPL   002.06 317.7 m E Sn      2013/05/30 19:22:03.4   0.0                          T                                        5303403
LPL   002.06 317.7 m E Sg      2013/05/30 19:22:09.6   0.0                          T                1.9  .39 Ml 1.9         5298443
SMRF  002.26 270.2 m E P       2013/05/30 19:21:43.5   0.0                          T                                        5298449
SMRF  002.26 270.2 m E Sg      2013/05/30 19:22:15.9   0.3                          T                4.1  .29 Ml 2.4         5298441
VIVF  003.01 287.7 m E Pn      2013/05/30 19:21:52.5   1.1                          T                                        5298454
VIVF  003.01 287.7 m E Sn      2013/05/30 19:22:26.3   0.4                          T                1.6  .32 Ml 2.1         5298453

.
EVENT     300047
    Date      Time       Latitude Longitude    Depth    Ndef Nsta Gap    Mag1  N    Mag2  N    Mag3  N   Author         ID
       rms   OT_Error      Smajor Sminor Az        Err   mdist  Mdist     Err        Err        Err      Quality

2013/05/30 22:52:13.2     46.0214    6.8921     13.0 f    32    8 067  Ml 1.8  6  Md 1.7  2              bulletin    300147
                                                                                                         _ldg
      0.22   +-  0.04        .7     .6   87.76 +-  0.0    0.26   2.43   +-0.3      +-0.0                 m i ke

SWITZERLAND
Sta     Dist  EvAz     Phase      Date       Time     TRes  Azim  AzRes  Slow  SRes Def   SNR       Amp   Per   Mag1   Mag2       ID
LPL   000.52 192.5 m E Pg      2013/05/30 22:52:23.6   0.0                          T                                        5303493
LPL   000.52 192.5 m E Sg      2013/05/30 22:52:30.4  -0.1                          T                6.5  .41        Md 1.7  5303494
LPG   000.53 190.7 m E Pg      2013/05/30 22:52:23.9  -0.1                          T                                        5303492
LPG   000.53 190.7 m E Sg      2013/05/30 22:52:31.1   0.0                          T                6.0  .27        Md 1.7  5303495
CABF  000.81 316.9 m E Pg      2013/05/30 22:52:28.8   0.0                          T                                        5303487
CABF  000.81 316.9 m E P       2013/05/30 22:52:29.9   0.1                          T                                        5303497
CABF  000.81 316.9 m E Sg      2013/05/30 22:52:39.6   0.1                          T                2.0  .20                5303498
MBDF  001.30 183.8 m E Pg      2013/05/30 22:52:37.5  -0.3                          T                                        5303490
MBDF  001.30 183.8 m E Sg      2013/05/30 22:52:54.6   0.0                          T                 .8  .23 Ml 1.5         5303496
ORIF  001.31 213.2 m E Pg      2013/05/30 22:52:37.9   0.0                          T                                        5303491
ORIF  001.31 213.2 m E Sg      2013/05/30 22:52:54.9  -0.1                          T                1.7  .28 Ml 1.7         5303480
VIVF  001.95 234.1 m E Pn      2013/05/30 22:52:44.3  -0.1                          T                                        5303489
VIVF  001.95 234.1 m E Pg      2013/05/30 22:52:49.6   0.1                          T                                        5303488
VIVF  001.95 234.1 m E Sg      2013/05/30 22:53:14.0  -0.7                          T                2.2  .22 Ml 2.2         5303481
HINF  001.80 359.2 m E Pg      2013/05/30 22:52:46.7  -0.1                          T                                        5303486
HINF  001.80 359.2 m E Sn      2013/05/30 22:53:03.5  -0.1                          T                                        5303483
HINF  001.80 359.2 m E Sg      2013/05/30 22:53:09.9  -0.1                          T                1.6  .23 Ml 2.0         5303482
LOR   002.43 301.9 m E Pg      2013/05/30 22:52:58.7   0.2                          T                                        5303485
LOR   002.43 301.9 m E Sg      2013/05/30 22:53:29.9   0.1                          T                 .3  .17 Ml 1.6         5303484

.
EVENT     300048
    Date      Time       Latitude Longitude    Depth    Ndef Nsta Gap    Mag1  N    Mag2  N    Mag3  N   Author         ID
       rms   OT_Error      Smajor Sminor Az        Err   mdist  Mdist     Err        Err        Err      Quality

2013/05/30 23:34:15.9     42.8747    -.0161     15.0      11    4 200  Ml 1.5  3  Md 1.4  2              bulletin    300148
                                                                                                         _ldg
      0.53   +-  0.12       7.0    1.1  173.03 +-  0.0    0.30   1.70   +-0.2      +-0.0                 m i ke

PYRENEES
Sta     Dist  EvAz     Phase      Date       Time     TRes  Azim  AzRes  Slow  SRes Def   SNR       Amp   Per   Mag1   Mag2       ID
EPF   000.30 059.1 m E Pg      2013/05/30 23:34:22.4   0.0                          T                                        5298567
EPF   000.30 059.1 m E Sg      2013/05/30 23:34:27.1   0.2                          T                3.2  .24        Md 1.4  5298566
ETSF  000.40 273.6 m E Pg      2013/05/30 23:34:24.2   0.1                          T                                        5298565
ETSF  000.40 273.6 m E Sg      2013/05/30 23:34:29.4  -0.3                          T                1.6  .24        Md 1.4  5298564
SJPF  000.92 285.5 m E Pn      2013/05/30 23:34:32.8   0.0                          T                                        5298571
SJPF  000.92 285.5 m E Sn      2013/05/30 23:34:44.9   0.0                          T                 .7  .25 Ml 1.2         5298570
MTLF  001.70 073.3 m E Pn      2013/05/30 23:34:43.4  -0.1                          T                                        5298574
MTLF  001.70 073.3 m E Sn      2013/05/30 23:35:03.6   0.0                          T                                        5298573
MTLF  001.70 073.3 m E Sg      2013/05/30 23:35:09.8   0.1                          T                 .7  .20 Ml 1.7         5298572

.
EVENT     300049
    Date      Time       Latitude Longitude    Depth    Ndef Nsta Gap    Mag1  N    Mag2  N    Mag3  N   Author         ID
       rms   OT_Error      Smajor Sminor Az        Err   mdist  Mdist     Err        Err        Err      Quality

2013/05/31 00:06:13.9     43.1114    -.0762      2.0      11    4 170  Ml 1.9  2  Md 1.8  3              bulletin    300149
                                                                                                         _ldg
      1.44   +-  0.18      10.0    2.6  172.14 +-  0.0    0.32   1.69   +-0.1      +-0.1                 m i ke

PYRENEES
Sta     Dist  EvAz     Phase      Date       Time     TRes  Azim  AzRes  Slow  SRes Def   SNR       Amp   Per   Mag1   Mag2       ID
EPF   000.32 104.7 m E Pg      2013/05/31 00:06:20.4   0.3                          T                                        5298580
EPF   000.32 104.7 m E Sg      2013/05/31 00:06:24.9   0.6                          T                1.7  .14        Md 1.9  5298579
ETSF  000.41 239.2 m E Pg      2013/05/31 00:06:22.1   0.2                          T                                        5298578
ETSF  000.41 239.2 m E Sg      2013/05/31 00:06:27.4  -0.1                          T                1.8  .14        Md 1.8  5298577
SJPF  000.84 270.5 m E Pg      2013/05/31 00:06:29.7   0.0                          T                                        5298576
SJPF  000.84 270.5 m E Sg      2013/05/31 00:06:40.6  -0.1                          T                 .5  .26        Md 1.7  5298581
MTLF  001.69 081.4 m E Pn      2013/05/31 00:06:42.6  -0.2                          T                                        5298586
MTLF  001.69 081.4 m E Sn      2013/05/31 00:07:03.7   0.0                          T                1.2  .22 Ml 1.8         5298585

.
EVENT     300050
    Date      Time       Latitude Longitude    Depth    Ndef Nsta Gap    Mag1  N    Mag2  N    Mag3  N   Author         ID
       rms   OT_Error      Smajor Sminor Az        Err   mdist  Mdist     Err        Err        Err      Quality

2013/05/31 01:49:28.2     43.5998    6.7871      2.0      12    6 095  Ml 1.2  2  Md 1.1  2              bulletin    300150
                                                                                                         _ldg
      0.15   +-  0.05       1.1     .8  150.30 +-  0.0    0.11   1.93   +-0.0      +-0.1                 m i ke

NEAR SOUTH COAST OF FRANCE
Sta     Dist  EvAz     Phase      Date       Time     TRes  Azim  AzRes  Slow  SRes Def   SNR       Amp   Per   Mag1   Mag2       ID
FRF   000.11 249.1 m E Pg      2013/05/31 01:49:30.7   0.1                          T                                        5298590
FRF   000.11 249.1 m E Sg      2013/05/31 01:49:32.0  -0.2                          T                5.0  .22        Md 1.2  5298589
LMR   000.33 217.4 m E Pg      2013/05/31 01:49:34.8   0.2                          T                                        5298588
LMR   000.33 217.4 m E Sg      2013/05/31 01:49:38.9  -0.2                          T                1.4  .20        Md 1.0  5298587
SBF   000.54 060.5 m E Pg      2013/05/31 01:49:38.6   0.1                          T                                        5298598
SBF   000.54 060.5 m E Sg      2013/05/31 01:49:45.5  -0.1                          T                1.0  .20                5298597
SMRF  000.95 293.6 m E Pg      2013/05/31 01:49:46.1  -0.1                          T                                        5298594
SMRF  000.95 293.6 m E Sg      2013/05/31 01:49:58.4  -0.1                          T                 .6  .22 Ml 1.2         5298593
MBDF  001.13 359.4 m E Pg      2013/05/31 01:49:49.6   0.1                          T                                        5298592
MBDF  001.13 359.4 m E Sg      2013/05/31 01:50:03.8  -0.3                          T                 .5  .20 Ml 1.3         5298591
PGF   001.93 122.2 m E Pn      2013/05/31 01:50:00.3  -0.1                          T                                        5298596
PGF   001.93 122.2 m E Sn      2013/05/31 01:50:23.6  -0.2                          T                                        5298595

.
