EVENT     260700
    Date      Time       Latitude Longitude    Depth    Ndef Nsta Gap    Mag1  N    Mag2  N    Mag3  N   Author         ID
       rms   OT_Error      Smajor Sminor Az        Err   mdist  Mdist     Err        Err        Err      Quality

2011/06/23 22:02:46.5     38.0394   14.8271     10.0 f   154   21 052  Ml 3.9  5                         js067245    260700

      1.12   +-  0.11       3.0    2.7   29.10 +-  0.0    0.15  32.08   +-0.2                            m i ke

SICILY, ITALY
Sta     Dist  EvAz     Phase      Date       Time     TRes  Azim  AzRes  Slow  SRes Def   SNR       Amp   Per   Mag1   Mag2       ID
PGF   006.33 317.1 m E P       2011/06/23 22:04:21.3  -1.2                          T                                        4712620
PGF   006.33 317.1 m E Sn      2011/06/23 22:05:26.9   1.0                          T               28.2  .49 Ml 4.2         4712619
SBF   008.07 318.5 m E Pn      2011/06/23 22:04:41.2  -0.2                          T                                        4712622
SBF   008.07 318.5 m E P       2011/06/23 22:04:46.7  -0.1                          T                                        4712621
SBF   008.07 318.5 m E Sn      2011/06/23 22:06:07.9   0.6                          T               22.3  .67 Ml 4.0         4712618
LMR   008.24 312.5 m E Pn      2011/06/23 22:04:44.2   0.6                          T                                        4712623
FRF   008.30 314.2 m E Pn      2011/06/23 22:04:45.1   0.6                          T                                        4712624
FRF   008.30 314.2 m E Sn      2011/06/23 22:06:12.6  -0.2                          T               15.0  .72 Ml 3.8         4712617
SMRF  009.17 313.2 m E Pn      2011/06/23 22:04:57.1   0.7                          T                                        4712625
MBDF  009.01 320.4 m E P       2011/06/23 22:05:00.0  -0.1                          T                                        4712629
MBDF  009.01 320.4 m E Sn      2011/06/23 22:06:30.5   0.5                          T                6.8  .52 Ml 3.7         4712616
ORIF  009.60 318.5 m E P       2011/06/23 22:05:07.8  -0.4                          T                                        4712628
LPG   009.58 323.6 m E P       2011/06/23 22:05:09.8   1.6                          T                                        4712626
LPL   009.61 323.6 m E P       2011/06/23 22:05:09.8   1.5                          T                                        4712627
LASF  010.24 309.5 m E Pn      2011/06/23 22:05:10.6  -0.3                          T                                        4712632
LASF  010.24 309.5 m E P       2011/06/23 22:05:16.9   0.1                          T                                        4712631
VIVF  010.22 315.0 m E P       2011/06/23 22:05:15.9  -0.6                          T                                        4712630
MTLF  010.94 302.9 m E Pn      2011/06/23 22:05:20.4   0.0                          T                                        4712634
MTLF  010.94 302.9 m E P       2011/06/23 22:05:25.2  -1.1                          T                                        4712633
CABF  010.73 325.8 m E P       2011/06/23 22:05:23.7   0.1                          T                                        4712642
HINF  011.38 331.7 m E P       2011/06/23 22:05:30.8  -1.6                          T                                        4712643
CDF   011.73 334.5 m E Pn      2011/06/23 22:05:30.9  -0.4                          T                                        4712646
CAF   011.78 309.8 m E Pn      2011/06/23 22:05:32.0   0.1                          T                                        4712636
CAF   011.78 309.8 m E P       2011/06/23 22:05:37.8  -0.1                          T                                        4712635
HAU   011.73 330.8 m E P       2011/06/23 22:05:35.6  -1.5                          T                                        4712644
BGF   012.28 317.7 m E Pn      2011/06/23 22:05:38.2  -0.5                          T                                        4712641
BGF   012.28 317.7 m E P       2011/06/23 22:05:44.8   0.2                          T                                        4712640
LOR   012.25 322.3 m E P       2011/06/23 22:05:43.5  -0.6                          T                                        4712647
RJF   012.31 310.3 m E P       2011/06/23 22:05:44.9   0.0                          T                                        4712637
SFTF  012.41 328.1 m E P       2011/06/23 22:05:45.2  -1.1                          T                                        4712645

.
EVENT     260701
    Date      Time       Latitude Longitude    Depth    Ndef Nsta Gap    Mag1  N    Mag2  N    Mag3  N   Author         ID
       rms   OT_Error      Smajor Sminor Az        Err   mdist  Mdist     Err        Err        Err      Quality

2011/06/23 22:19:25.2     47.8046    7.5431     18.7      11    5 052  Ml 1.3  3  Md 1.7  1              js067245    260701

      0.23   +-  0.04        .9     .7  178.45 +-  0.5    0.28   1.73   +-0.6      +-                    m i ke

SWITZERLAND
Sta     Dist  EvAz     Phase      Date       Time     TRes  Azim  AzRes  Slow  SRes Def   SNR       Amp   Per   Mag1   Mag2       ID
HINF  000.47 271.7 m E Pg      2011/06/23 22:19:34.6  -0.1                          T                                        4712649
HINF  000.47 271.7 m E Sg      2011/06/23 22:19:41.0  -0.1                          T                                        4712650
HINF  000.47 271.7 m E Sn      2011/06/23 22:19:42.2  -0.5                          T                5.1  .20        Md 1.7  4712651
CDF   000.63 343.7 m E Pg      2011/06/23 22:19:37.5  -0.2                          T                                        4712662
CDF   000.63 343.7 m E Sg      2011/06/23 22:19:46.3   0.1                          T                 .8  .21                4712648
CABF  001.55 220.3 m E Pg      2011/06/23 22:19:54.3  -0.1                          T                                        4712660
CABF  001.55 220.3 m E Sg      2011/06/23 22:20:14.2  -0.4                          T                 .4  .19 Ml 1.3         4712661
PAGF  001.43 302.4 m E Sg      2011/06/23 22:20:10.6   0.0                          T                 .1  .18 Ml  .7         4712658
SFTF  001.73 284.3 m E Sg      2011/06/23 22:20:20.1   0.2                          T                 .9  .22 Ml 1.7         4712659

.
EVENT     260702
    Date      Time       Latitude Longitude    Depth    Ndef Nsta Gap    Mag1  N    Mag2  N    Mag3  N   Author         ID
       rms   OT_Error      Smajor Sminor Az        Err   mdist  Mdist     Err        Err        Err      Quality

2011/06/23 23:19:20.8     44.3244    7.1701      2.0      49   16 072  Ml 2.7 10  Md 2.4  2              js067245    260702

      0.86   +-  0.08       2.1    1.4   46.72 +-  0.0    0.14   3.77   +-0.2      +-0.0                 m i ke

NORTHERN ITALY
Sta     Dist  EvAz     Phase      Date       Time     TRes  Azim  AzRes  Slow  SRes Def   SNR       Amp   Per   Mag1   Mag2       ID
MBDF  000.49 324.8 m E Pg      2011/06/23 23:19:29.9  -0.5                          T   001.0                                4711258
MBDF  000.49 324.8 m E Sg      2011/06/23 23:19:37.2   0.2                          T   001.0       77.5  .24        Md 2.5  4711259
SBF   000.50 157.4 m E Pg      2011/06/23 23:19:30.3  -0.1                          T                                        4712676
SBF   000.50 157.4 m E Sg      2011/06/23 23:19:37.4   0.4                          T   001.0       37.3  .20        Md 2.4  4711255
FRF   000.85 206.5 m E Pg      2011/06/23 23:19:36.4  -0.5                          T   001.0                                4711245
FRF   000.85 206.5 m E Sg      2011/06/23 23:19:47.8  -0.2                          T   001.0       14.9  .20                4711246
ORIF  001.10 303.3 m E Pg      2011/06/23 23:19:40.9  -0.6                          T   001.0                                4711261
ORIF  001.10 303.3 m E Sg      2011/06/23 23:19:55.2  -0.5                          T   001.0         11  .20 Ml 2.6         4711262
LMR   001.10 206.0 m E Pn      2011/06/23 23:19:41.0  -0.6                          T   001.0                                4711247
LMR   001.10 206.0 m E Pg      2011/06/23 23:19:41.4   0.0                          T                                        4712677
LMR   001.10 206.0 m E Sg      2011/06/23 23:19:55.8   0.1                          T               28.3  .19 Ml 3.0         4712675
LPG   001.21 345.9 m E Pn      2011/06/23 23:19:42.9  -0.5                          T   001.0                                4711249
LPG   001.21 345.9 m E Sg      2011/06/23 23:19:59.2  -0.3                          T   001.0       12.4  .36 Ml 2.4         4711250
LPL   001.23 345.5 m E Pn      2011/06/23 23:19:43.3  -0.4                          T   001.0                                4711251
LPL   001.23 345.5 m E Sg      2011/06/23 23:19:59.8  -0.3                          T   001.0       10.6  .32 Ml 2.4         4711252
SMRF  001.20 253.7 m E Pg      2011/06/23 23:19:43.7   0.3                          T   001.0                                4711265
SMRF  001.20 253.7 m E Sg      2011/06/23 23:19:59.2   0.3                          T   001.0       23.1  .32 Ml 2.8         4711266
VIVF  001.86 287.5 m E Pn      2011/06/23 23:19:52.4   0.4                          T   001.0                                4711263
VIVF  001.86 287.5 m E Sn      2011/06/23 23:20:14.9   0.2                          T   001.0        8.6  .44 Ml 2.5         4711264
VIVF  001.86 287.5 m E Sg      2011/06/23 23:20:19.8   0.2                          T                7.9  .42 Ml 2.5         4712674
PGF   002.22 142.5 m E Pn      2011/06/23 23:19:57.0   0.0                          T   001.0                                4711253
PGF   002.22 142.5 m E Sn      2011/06/23 23:20:22.7  -0.6                          T   001.0        6.5  .20 Ml 3.0         4711254
CABF  002.41 342.0 m E Pn      2011/06/23 23:20:00.5   0.9                          T   001.0                                4711256
CABF  002.41 342.0 m E Pg      2011/06/23 23:20:06.5   0.8                          T   001.0                                4711257
MTLF  003.72 256.4 m E Pn      2011/06/23 23:20:17.5   0.3                          T   001.0                                4711260
CAF   003.69 281.1 m E Pn      2011/06/23 23:20:18.0   1.0                          T   001.0                                4711244
BGF   003.77 307.8 m E Pn      2011/06/23 23:20:18.5   0.5                          T   001.0                                4711243
HAU   003.73 351.5 m E Pn      2011/06/23 23:20:18.9   1.5                          T                                        4712678
LOR   003.75 323.0 m E Pn      2011/06/23 23:20:20.1   2.4                          T   001.0                                4711248

.
EVENT     260704
    Date      Time       Latitude Longitude    Depth    Ndef Nsta Gap    Mag1  N    Mag2  N    Mag3  N   Author         ID
       rms   OT_Error      Smajor Sminor Az        Err   mdist  Mdist     Err        Err        Err      Quality

2011/06/24 01:30:09.2     44.3423    7.2147      2.0      20    8 156  Ml 1.8  5  Md 1.7  3              js067245    260704

      0.31   +-  0.09       2.3    1.2   66.54 +-  0.0    0.13   1.24   +-0.4      +-0.2                 m i ke

NORTHERN ITALY
Sta     Dist  EvAz     Phase      Date       Time     TRes  Azim  AzRes  Slow  SRes Def   SNR       Amp   Per   Mag1   Mag2       ID
MBDF  000.50 320.7 m E Pg      2011/06/24 01:30:18.8  -0.1                          T                                        4712076
MBDF  000.50 320.7 m E Sg      2011/06/24 01:30:25.5   0.0                          T                3.9  .22        Md 1.6  4712072
SBF   000.50 161.6 m E Pg      2011/06/24 01:30:19.2   0.3                          T                                        4712687
SBF   000.50 161.6 m E Sg      2011/06/24 01:30:25.2  -0.3                          T                2.8  .24        Md 1.6  4712065
FRF   000.88 207.9 m E Pg      2011/06/24 01:30:25.8   0.0                          T                                        4712075
FRF   000.88 207.9 m E Sg      2011/06/24 01:30:37.2   0.0                          T                3.2  .16 Ml 2.1 Md 1.9  4712070
ORIF  001.11 301.6 m E Pn      2011/06/24 01:30:30.1  -0.2                          T                                        4712071
ORIF  001.11 301.6 m E Pg      2011/06/24 01:30:30.2   0.1                          T                                        4712112
ORIF  001.11 301.6 m E Sg      2011/06/24 01:30:45.1   0.5                          T                 .7  .25 Ml 1.3         4712061
LMR   001.13 207.1 m E Pn      2011/06/24 01:30:30.5   0.2                          T                                        4712074
LMR   001.13 207.1 m E Sg      2011/06/24 01:30:44.5  -0.4                          T                3.9  .20 Ml 2.2         4712069
LPL   001.22 343.9 m E Pn      2011/06/24 01:30:31.8  -0.1                          T                                        4712063
LPL   001.22 343.9 m E Sg      2011/06/24 01:30:48.1  -0.1                          T                                        4712062
SMRF  001.24 253.3 m E Pn      2011/06/24 01:30:32.5   0.7                          T                                        4712067
SMRF  001.24 253.3 m E Sg      2011/06/24 01:30:49.3   1.0                          T                3.5  .40 Ml 1.9         4712068
LPG   001.20 344.3 m E Sg      2011/06/24 01:30:47.8   0.3                          T                 .8  .21 Ml 1.5         4712064

.
EVENT     260705
    Date      Time       Latitude Longitude    Depth    Ndef Nsta Gap    Mag1  N    Mag2  N    Mag3  N   Author         ID
       rms   OT_Error      Smajor Sminor Az        Err   mdist  Mdist     Err        Err        Err      Quality

2011/06/24 02:09:02.7     44.1766    8.9863     15.0      24   10 228  Ml 2.6  9  Md 2.4  1              js067245    260705

      0.37   +-  0.26       4.3    3.0   86.22 +-  0.0    1.16   3.16   +-0.5      +-                    m i ke

NORTHERN ITALY
Sta     Dist  EvAz     Phase      Date       Time     TRes  Azim  AzRes  Slow  SRes Def   SNR       Amp   Per   Mag1   Mag2       ID
SBF   001.16 254.9 m E Pn      2011/06/24 02:09:23.2   0.3                          T                                        4712305
SBF   001.16 254.9 m E Pg      2011/06/24 02:09:24.9   0.3                          T                                        4712294
SBF   001.16 254.9 m E Sn      2011/06/24 02:09:37.5   0.0                          T                                        4712295
SBF   001.16 254.9 m E Sg      2011/06/24 02:09:39.4  -0.4                          T               45.2  .31 Ml 3.0 Md 2.4  4712296
PGF   001.63 179.7 m E Pn      2011/06/24 02:09:28.3  -1.1                          T                                        4712293
PGF   001.63 179.7 m E Sn      2011/06/24 02:09:47.5  -1.3                          T                                        4712290
MBDF  001.68 289.9 m E Pn      2011/06/24 02:09:29.9  -0.2                          T                                        4712304
MBDF  001.68 289.9 m E Pg      2011/06/24 02:09:33.9  -0.3                          T                                        4712303
MBDF  001.68 289.9 m E Sg      2011/06/24 02:09:55.6  -0.4                          T                6.0  .33 Ml 2.4         4712298
FRF   001.80 250.8 m E Pn      2011/06/24 02:09:31.9   0.4                          T                                        4712301
FRF   001.80 250.8 m E Sn      2011/06/24 02:09:52.9   0.2                          T               29.0  .26 Ml 3.2         4712300
FRF   001.80 250.8 m E Sg      2011/06/24 02:09:59.1  -0.4                          T               11.2  .30 Ml 2.8         4712297
LMR   001.98 245.7 m E Pn      2011/06/24 02:09:34.0   0.0                          T                                        4712302
LMR   001.98 245.7 m E Sn      2011/06/24 02:09:56.7  -0.3                          T               22.9  .26 Ml 3.2         4712299
LPL   002.09 310.7 m E Pg      2011/06/24 02:09:41.6  -0.3                          T                                        4712287
LPG   002.07 310.5 m E Pg      2011/06/24 02:09:41.9   0.4                          T                                        4712288
LPG   002.07 310.5 m E Sn      2011/06/24 02:09:58.7  -0.8                          T                1.5  .38 Ml 1.8         4712292
ORIF  002.34 289.5 m E P       2011/06/24 02:09:42.6   1.0                          T                                        4712283
ORIF  002.34 289.5 m E Sg      2011/06/24 02:10:14.9  -1.6                          T                3.7  .40 Ml 2.3         4712291
SMRF  002.47 266.5 m E P       2011/06/24 02:09:43.3   0.0                          T                                        4712285
SMRF  002.47 266.5 m E Pg      2011/06/24 02:09:48.7   0.1                          T                                        4712286
SMRF  002.47 266.5 m E Sg      2011/06/24 02:10:20.4   0.1                          T                7.7  .38 Ml 2.6         4712289
VIVF  003.16 283.9 m E Pg      2011/06/24 02:10:01.5   0.2                          T                                        4712284
VIVF  003.16 283.9 m E Sn      2011/06/24 02:10:25.2  -0.1                          T                1.4  .43 Ml 2.0         4712306

.
EVENT     260728
    Date      Time       Latitude Longitude    Depth    Ndef Nsta Gap    Mag1  N    Mag2  N    Mag3  N   Author         ID
       rms   OT_Error      Smajor Sminor Az        Err   mdist  Mdist     Err        Err        Err      Quality

2011/06/24 08:51:05.7     47.6413    6.2327       .0 f    13    7 118  Ml 2.1  5  Md 2.1  4              js067245    260728

      0.65   +-  0.13       3.0    2.3  121.38 +-  0.0    0.37   1.65   +-0.3      +-0.1                 m i km

FRANCE
Sta     Dist  EvAz     Phase      Date       Time     TRes  Azim  AzRes  Slow  SRes Def   SNR       Amp   Per   Mag1   Mag2       ID
HAU   000.37 012.0 m E Pg      2011/06/24 08:51:13.0  -0.2                          T                                        4712332
HAU   000.37 012.0 m E Sg      2011/06/24 08:51:18.3   0.0                          T               59.8  .76        Md 2.1  4712326
HINF  000.45 067.0 m E Pg      2011/06/24 08:51:15.0   0.3                          T                                        4712329
HINF  000.45 067.0 m E Sg      2011/06/24 08:51:20.7  -0.2                          T               39.2  .72        Md 2.1  4712327
PAGF  000.98 339.8 m E Pg      2011/06/24 08:51:24.5   0.2                          T                                        4712324
PAGF  000.98 339.8 m E Sn      2011/06/24 08:51:38.9  -0.1                          T                4.8  .69 Ml 1.6         4712321
CDF   001.04 041.9 m E Pg      2011/06/24 08:51:25.3  -0.3                          T                                        4712330
CDF   001.04 041.9 m E Sg      2011/06/24 08:51:39.4   0.1                          T               23.3  .74 Ml 2.4 Md 2.2  4712325
SFTF  000.98 305.5 m E Pn      2011/06/24 08:51:25.4   0.1 129.9  5.2               T                                        4712323
SFTF  000.98 305.5 m E Sn      2011/06/24 08:51:38.9  -0.3                          T               12.8  .48 Ml 2.2         4712322
CABF  001.04 185.5 m E Pg      2011/06/24 08:51:25.9   0.4                          T                                        4712331
CABF  001.04 185.5 m E Sg      2011/06/24 08:51:37.9  -1.2                          T               23.3  .70 Ml 2.4 Md 2.1  4712328
LOR   001.65 257.8 m E Sg      2011/06/24 08:51:58.5   0.2                          T                1.5  .22 Ml 1.9         4712688

.
