EVENT     256478
    Date      Time       Latitude Longitude    Depth    Ndef Nsta Gap    Mag1  N    Mag2  N    Mag3  N   Author         ID
       rms   OT_Error      Smajor Sminor Az        Err   mdist  Mdist     Err        Err        Err      Quality

2011/02/28 11:00:57.6     45.2987    6.4774      2.0      86   24 036  Ml 2.7 21  Md 2.8  3              js067245    256498

      0.62   +-  0.04        .9     .8   83.14 +-  0.0    0.11   3.35   +-0.3      +-0.1                 m i ke

FRANCE
Sta     Dist  EvAz     Phase      Date       Time     TRes  Azim  AzRes  Slow  SRes Def   SNR       Amp   Per   Mag1   Mag2       ID
LPL   000.28 039.4 m E Pg      2011/02/28 11:01:03.1  -0.3                          T                                        4655047
LPL   000.28 039.4 m E Sg      2011/02/28 11:01:07.0  -0.3                          T               95.7  .28        Md 2.8  4655111
LPG   000.28 044.0 m E Pg      2011/02/28 11:01:03.2  -0.3                          T                                        4655046
LPG   000.28 044.0 m E Sg      2011/02/28 11:01:07.0  -0.2                          T              102.4  .22        Md 2.8  4655110
ORIF  000.57 228.2 m E Pg      2011/02/28 11:01:07.9  -0.7                          T                                        4655045
ORIF  000.57 228.2 m E Sg      2011/02/28 11:01:14.5  -1.5                          T               96.4  .18        Md 2.7  4655112
MBDF  000.61 159.9 m E Pg      2011/02/28 11:01:09.1  -0.3                          T                                        4655115
MBDF  000.61 159.9 m E Sg      2011/02/28 11:01:17.7   0.4                          T               31.7  .20                4655109
VIVF  001.35 251.5 m E Pn      2011/02/28 11:01:22.6   0.7                          T                                        4655114
VIVF  001.35 251.5 m E Pg      2011/02/28 11:01:23.5   0.5                          T                                        4655731
VIVF  001.35 251.5 m E Sg      2011/02/28 11:01:40.2  -0.3                          T               72.7  .32 Ml 3.3         4655108
SMRF  001.47 206.3 m E Pg      2011/02/28 11:01:25.4   0.2                          T                                        4655729
SMRF  001.47 206.3 m E Sg      2011/02/28 11:01:44.5   0.3                          T                8.6  .28 Ml 2.5         4655107
SBF   001.59 154.2 m E Pn      2011/02/28 11:01:25.4   0.2                          T                                        4655048
SBF   001.59 154.2 m E Pg      2011/02/28 11:01:27.4   0.1                          T                                        4655053
SBF   001.59 154.2 m E Sg      2011/02/28 11:01:48.3   0.4                          T               54.3  .48 Ml 3.1         4655104
FRF   001.74 175.9 m E Pn      2011/02/28 11:01:27.2   0.1                          T                                        4655050
FRF   001.74 175.9 m E Pg      2011/02/28 11:01:29.9  -0.1                          T                                        4655051
FRF   001.74 175.9 m E Sg      2011/02/28 11:01:52.7   0.1                          T               35.3  .50 Ml 3.0         4655106
LMR   001.96 179.3 m E Pn      2011/02/28 11:01:30.3   0.1                          T                                        4655049
LMR   001.96 179.3 m E Pg      2011/02/28 11:01:34.4   0.3                          T                                        4655052
LMR   001.96 179.3 m E Sg      2011/02/28 11:01:59.8   0.3                          T                9.5  .28 Ml 2.7         4655105
LASF  002.23 237.7 m E Pn      2011/02/28 11:01:35.5   1.6                          T                                        4655088
LASF  002.23 237.7 m E Pg      2011/02/28 11:01:39.7   0.5                          T                                        4655730
LASF  002.23 237.7 m E Sg      2011/02/28 11:02:08.3   0.4                          T                6.5  .33 Ml 2.5         4655089
SMF   002.28 307.2 m E P       2011/02/28 11:01:36.6  -0.3                          T                                        4655084
SMF   002.28 307.2 m E Pg      2011/02/28 11:01:39.4  -0.6                          T                                        4655750
SMF   002.28 307.2 m E Sg      2011/02/28 11:02:09.5   0.2                          T               12.8  .20 Ml 3.1         4655103
HINF  002.53 005.7 m E Pn      2011/02/28 11:01:38.1   0.1                          T                                        4655065
HINF  002.53 005.7 m E Pg      2011/02/28 11:01:44.5  -0.2                          T                                        4655082
HINF  002.53 005.7 m E Sg      2011/02/28 11:02:17.3   0.1                          T                5.1  .30 Ml 2.6         4655099
LOR   002.68 318.3 m E Pn      2011/02/28 11:01:39.8  -0.2 135.9  -0.5              T                                        4655074
LOR   002.68 318.3 m E Pg      2011/02/28 11:01:46.8  -0.6 141.2  4.8               T                                        4655075
LOR   002.68 318.3 m E Sn      2011/02/28 11:02:11.2   0.2 145.8  9.4               T                                        4655060
LOR   002.68 318.3 m E Sg      2011/02/28 11:02:22.1   0.3 146.3  9.9               T                7.6  .38 Ml 2.7         4655097
SSF   002.71 311.6 m E Pn      2011/02/28 11:01:40.4   0.0                          T                                        4655073
SSF   002.71 311.6 m E Pg      2011/02/28 11:01:47.4  -0.6                          T                                        4655076
SSF   002.71 311.6 m E Sg      2011/02/28 11:02:23.1   0.2                          T                4.7  .26 Ml 2.7         4655096
HAU   002.71 358.2 m E Pn      2011/02/28 11:01:40.8   0.4                          T                                        4655066
HAU   002.71 358.2 m E Pg      2011/02/28 11:01:48.2   0.3                          T                                        4655081
HAU   002.71 358.2 m E Sg      2011/02/28 11:02:23.0   0.2                          T                5.4  .24 Ml 2.5         4655098
BGF   002.83 297.7 m E Pn      2011/02/28 11:01:42.5   0.5                          T                                        4655064
BGF   002.83 297.7 m E Pg      2011/02/28 11:01:50.1   0.0                          T                                        4655086
BGF   002.83 297.7 m E Sg      2011/02/28 11:02:26.8   0.3                          T               16.5  .32 Ml 3.1         4655102
AVF   002.64 305.5 m E Pg      2011/02/28 11:01:45.8  -0.8                          T                                        4655083
SFTF  003.07 341.7 m E Pn      2011/02/28 11:01:45.8   0.5                          T                                        4655067
SFTF  003.07 341.7 m E Pg      2011/02/28 11:01:54.4  -0.1 164.3  3.6               T                                        4655080
AVF   002.64 305.5 m E Sg      2011/02/28 11:02:20.9   0.4                          T               13.2  .28 Ml 3.0         4655100
SFTF  003.07 341.7 m E Sg      2011/02/28 11:02:34.2   0.2                          T                8.6  .37 Ml 2.8         4655091
TCF   003.14 289.9 m E Pn      2011/02/28 11:01:46.5   0.2                          T                                        4655072
TCF   003.14 289.9 m E Pg      2011/02/28 11:01:56.0   0.0                          T                                        4655071
TCF   003.14 289.9 m E Sg      2011/02/28 11:02:36.8   0.4                          T                4.3  .24 Ml 2.7         4655095
CAF   003.15 264.8 m E Pn      2011/02/28 11:01:46.5   0.2                          T                                        4655062
CAF   003.15 264.8 m E Sg      2011/02/28 11:02:36.8   0.3                          T                2.7  .20 Ml 2.6         4655061
CDF   003.16 009.7 m E Pn      2011/02/28 11:01:46.7   0.0                          T                                        4655070
CDF   003.16 009.7 m E Pg      2011/02/28 11:01:56.5   0.1                          T                                        4655077
CDF   003.16 009.7 m E Sg      2011/02/28 11:02:36.9  -0.1                          T                1.8  .31 Ml 2.3         4655094
PAGF  003.30 351.3 m E Pn      2011/02/28 11:01:48.2  -0.2                          T                                        4655069
PAGF  003.30 351.3 m E Pg      2011/02/28 11:01:58.9   0.2                          T                                        4655078
PAGF  003.30 351.3 m E Sg      2011/02/28 11:02:41.3   0.2 160.8  -9.9              T                 .6  .26 Ml 1.9         4655093
MEZF  003.35 343.6 m E Pn      2011/02/28 11:01:49.1   0.0 159.9  -2.6              T                                        4655068
MEZF  003.35 343.6 m E Pg      2011/02/28 11:01:59.8   0.1                          T                                        4655079
MEZF  003.35 343.6 m E Sg      2011/02/28 11:02:42.8   0.1                          T                5.1  .33 Ml 2.7         4655092
HYF   003.31 307.9 m E Pg      2011/02/28 11:01:59.0   0.0                          T                                        4655085
HYF   003.31 307.9 m E Sg      2011/02/28 11:02:42.0   0.5                          T                                        4655090

.
EVENT     256520
    Date      Time       Latitude Longitude    Depth    Ndef Nsta Gap    Mag1  N    Mag2  N    Mag3  N   Author         ID
       rms   OT_Error      Smajor Sminor Az        Err   mdist  Mdist     Err        Err        Err      Quality

2011/02/28 19:32:34.2     44.1856    6.8308      2.0      18    8 128  Ml 1.4  5  Md 1.2  3              js067245    256540

      0.40   +-  0.08       2.1    1.2   81.81 +-  0.0    0.54   1.33   +-0.2      +-0.1                 m i ke

FRANCE
Sta     Dist  EvAz     Phase      Date       Time     TRes  Azim  AzRes  Slow  SRes Def   SNR       Amp   Per   Mag1   Mag2       ID
MBDF  000.54 355.5 m E Pg      2011/02/28 19:32:44.4  -0.3                          T                                        4655390
MBDF  000.54 355.5 m E Sg      2011/02/28 19:32:51.2  -0.7                          T                  1  .16        Md 1.3  4655373
SBF   000.54 126.3 m E Pg      2011/02/28 19:32:44.8   0.2                          T                                        4655378
SBF   000.54 126.3 m E Sg      2011/02/28 19:32:52.0   0.3                          T                5.7  .30        Md 1.2  4655375
FRF   000.64 192.1 m E Pg      2011/02/28 19:32:46.2  -0.1                          T                                        4655381
FRF   000.64 192.1 m E Sg      2011/02/28 19:32:54.1  -0.5                          T                2.3  .31        Md 1.2  4655377
LMR   000.88 195.4 m E Pg      2011/02/28 19:32:50.3  -0.4                          T                                        4655380
LMR   000.88 195.4 m E Sg      2011/02/28 19:33:02.9   0.6                          T                1.2  .21 Ml 1.5         4655376
SMRF  000.93 257.4 m E Pg      2011/02/28 19:32:51.7   0.0                          T                                        4655379
SMRF  000.93 257.4 m E Sg      2011/02/28 19:33:03.9   0.2                          T                1.1  .19 Ml 1.5         4655374
ORIF  001.00 317.5 m E Pg      2011/02/28 19:32:53.5   0.4                          T                                        4655389
ORIF  001.00 317.5 m E Sg      2011/02/28 19:33:06.0   0.0                          T                1.1  .24 Ml 1.5         4655386
LPG   001.31 357.6 m E Pg      2011/02/28 19:32:59.3   0.2                          T                                        4655387
LPG   001.31 357.6 m E Sg      2011/02/28 19:33:15.7  -0.4                          T                 .2  .18 Ml 1.1         4655384
LPL   001.33 357.0 m E Pg      2011/02/28 19:32:59.4   0.0                          T                                        4655388
LPL   001.33 357.0 m E Sg      2011/02/28 19:33:16.3  -0.3                          T                 .6  .21 Ml 1.4         4655385

.
EVENT     256524
    Date      Time       Latitude Longitude    Depth    Ndef Nsta Gap    Mag1  N    Mag2  N    Mag3  N   Author         ID
       rms   OT_Error      Smajor Sminor Az        Err   mdist  Mdist     Err        Err        Err      Quality

2011/02/28 21:11:09.4     48.3291    8.9667     10.0      10    5 094  Ml 1.5  5                         js067245    256544

      0.25   +-  0.06       1.2    1.0  175.64 +-  0.0    0.21   2.63   +-0.4                            m i ke

GERMANY
Sta     Dist  EvAz     Phase      Date       Time     TRes  Azim  AzRes  Slow  SRes Def   SNR       Amp   Per   Mag1   Mag2       ID
CDF   001.13 274.8 m E Pg      2011/02/28 21:11:30.8   0.0                          T                                        4655792
CDF   001.13 274.8 m E Sg      2011/02/28 21:11:45.3  -0.2                          T                  1  .29 Ml 1.5         4655793
HINF  001.51 250.9 m E Pg      2011/02/28 21:11:37.5  -0.1                          T                                        4655790
HINF  001.51 250.9 m E Sg      2011/02/28 21:11:57.1   0.0                          T                 .5  .23 Ml 1.4         4655791
HAU   001.78 260.5 m E Sg      2011/02/28 21:12:05.8   0.2                          T                  1  .27 Ml 1.5         4655789
PAGF  002.17 277.2 m E Sg      2011/02/28 21:12:17.6  -0.1                          T                 .1  .22 Ml  .9         4655787
SFTF  002.63 268.8 m E Sn      2011/02/28 21:12:20.2   0.1                          T                1.5  .24 Ml 2.1         4655788

.
EVENT     256545
    Date      Time       Latitude Longitude    Depth    Ndef Nsta Gap    Mag1  N    Mag2  N    Mag3  N   Author         ID
       rms   OT_Error      Smajor Sminor Az        Err   mdist  Mdist     Err        Err        Err      Quality

2011/02/28 21:26:50.3     48.3291    8.9627     10.0      10    6 093  Ml 1.5  6                         js067245    256565

      0.26   +-  0.06       1.2    1.1  161.52 +-  0.0    0.21   2.62   +-0.4                            m i ke

GERMANY
Sta     Dist  EvAz     Phase      Date       Time     TRes  Azim  AzRes  Slow  SRes Def   SNR       Amp   Per   Mag1   Mag2       ID
CDF   001.13 274.9 m E Pg      2011/02/28 21:27:11.6   0.0                          T                                        4655802
CDF   001.13 274.9 m E Sg      2011/02/28 21:27:26.1  -0.2                          T                 .8  .26 Ml 1.5         4655803
HINF  001.50 250.9 m E Pg      2011/02/28 21:27:18.3  -0.1                          T                                        4655800
HINF  001.50 250.9 m E Sg      2011/02/28 21:27:37.7  -0.2                          T                 .7  .27 Ml 1.5         4655801
HAU   001.78 260.5 m E Sg      2011/02/28 21:27:46.5   0.1                          T                 .7  .19 Ml 1.5         4655799
THEF  001.99 268.2 m E Sg      2011/02/28 21:27:53.1   0.2                          T                 .3  .16 Ml 1.5         4655798
PAGF  002.17 277.2 m E Sg      2011/02/28 21:27:58.7   0.1                          T                 .1  .22 Ml 1           4655796
SFTF  002.62 268.7 m E Sg      2011/02/28 21:28:12.2  -0.6                          T                2.9  .34 Ml 2.3         4655797

.
EVENT     256563
    Date      Time       Latitude Longitude    Depth    Ndef Nsta Gap    Mag1  N    Mag2  N    Mag3  N   Author         ID
       rms   OT_Error      Smajor Sminor Az        Err   mdist  Mdist     Err        Err        Err      Quality

2011/03/01 00:48:45.7     43.2292    3.8121      3.0 f    20   10 180  Ml 1.8 10  Md 1.7  1              js067245    256583

      0.59   +-  0.14       3.0    1.6  177.99 +-  0.0    0.85   2.80   +-0.3      +-                    m i ke

NEAR SOUTH COAST OF FRANCE
Sta     Dist  EvAz     Phase      Date       Time     TRes  Azim  AzRes  Slow  SRes Def   SNR       Amp   Per   Mag1   Mag2       ID
LASF  000.85 002.2 m E Pg      2011/03/01 00:49:02.3   0.6                          T                                        4655947
LASF  000.85 002.2 m E Sg      2011/03/01 00:49:12.5  -0.2                          T                3.2  .22        Md 1.7  4655948
MTLF  001.17 276.0 m E Pg      2011/03/01 00:49:07.8   0.2                          T                                        4655945
MTLF  001.17 276.0 m E Sg      2011/03/01 00:49:22.5  -0.2                          T                2.5  .20 Ml 2.0         4655946
SMRF  001.48 059.2 m E Pn      2011/03/01 00:49:11.5  -0.2                          T                                        4655935
SMRF  001.48 059.2 m E Sg      2011/03/01 00:49:32.6   0.0                          T                 .3  .21 Ml 1.1         4655934
VIVF  001.74 020.6 m E Pg      2011/03/01 00:49:17.7  -0.5                          T                                        4655936
VIVF  001.74 020.6 m E Sg      2011/03/01 00:49:41.0   0.4                          T                1.5  .21 Ml 2.0         4655937
CAF   002.11 324.0 m E Pn      2011/03/01 00:49:20.4   0.2                          T                                        4655939
CAF   002.11 324.0 m E Pg      2011/03/01 00:49:25.2   0.1                          T                                        4655938
CAF   002.11 324.0 m E Sg      2011/03/01 00:49:51.3  -0.9                          T                 .8  .16 Ml 1.9         4655943
LMR   001.97 086.0 m E Pg      2011/03/01 00:49:22.4   0.0                          T                                        4655931
LMR   001.97 086.0 m E Sg      2011/03/01 00:49:47.6  -0.2                          T                 .8  .16 Ml 1.9         4655932
RJF   002.65 322.3 m E Pg      2011/03/01 00:49:35.1   0.1                          T                                        4655941
RJF   002.65 322.3 m E Sg      2011/03/01 00:50:08.8  -0.2                          T                 .8  .23 Ml 1.5         4655942
FRF   002.09 079.9 m E Sg      2011/03/01 00:49:51.2  -0.3                          T                 .3  .15 Ml 1.5         4655933
EPF   002.55 266.7 m E Sg      2011/03/01 00:50:04.8  -1.1                          T                 .5  .18 Ml 1.8         4655944
LFF   002.80 308.7 m E Sg      2011/03/01 00:50:12.9  -0.6                          T                1.2  .26 Ml 1.9         4655940

.
