EVENT     283998
    Date      Time       Latitude Longitude    Depth    Ndef Nsta Gap    Mag1  N    Mag2  N    Mag3  N   Author         ID
       rms   OT_Error      Smajor Sminor Az        Err   mdist  Mdist     Err        Err        Err      Quality

2012/09/27 10:15:44.4     44.6981    7.2730      2.0      19    5 151  Ml 1.7  4  Md 1.8  2              bulletin    284098
                                                                                                         _ldg
      0.12   +-  0.04       1.0     .6   68.97 +-  0.0    0.14   1.47   +-0.2      +-0.1                 m i ke

NORTHERN ITALY
Sta     Dist  EvAz     Phase      Date       Time     TRes  Azim  AzRes  Slow  SRes Def   SNR       Amp   Per   Mag1   Mag2       ID
MBDF  000.36 274.8 m E Pg      2012/09/27 10:15:51.4  -0.1                          T                                        5080268
MBDF  000.36 274.8 m E Sg      2012/09/27 10:15:56.3   0.0                          T                2.7  .22        Md 1.7  5080267
SBF   000.84 172.0 m E Pg      2012/09/27 10:16:00.2  -0.1                          T                                        5080258
SBF   000.84 172.0 m E Sg      2012/09/27 10:16:11.3   0.0                          T                2.2  .23        Md 1.8  5080257
ORIF  001.02 283.0 m E Pg      2012/09/27 10:16:03.7   0.1                          T                                        5080266
ORIF  001.02 283.0 m E Sg      2012/09/27 10:16:16.5  -0.3                          T                1.0  .24 Ml 1.4         5080265
FRF   001.22 201.8 m E Pn      2012/09/27 10:16:06.9   0.0                          T                                        5080264
FRF   001.22 201.8 m E Sn      2012/09/27 10:16:23.1   0.0                          T                1.7  .19 Ml 1.9         5080263
LMR   001.47 202.3 m E Pn      2012/09/27 10:16:10.4   0.2                          T                                        5080262
LMR   001.47 202.3 m E Pg      2012/09/27 10:16:11.7  -0.2                          T                                        5080261
LMR   001.47 202.3 m E Sn      2012/09/27 10:16:28.9   0.0                          T                                        5080260
LMR   001.47 202.3 m E Sg      2012/09/27 10:16:31.0   0.1                          T                1.6  .26 Ml 1.8         5080259

.
EVENT     284026
    Date      Time       Latitude Longitude    Depth    Ndef Nsta Gap    Mag1  N    Mag2  N    Mag3  N   Author         ID
       rms   OT_Error      Smajor Sminor Az        Err   mdist  Mdist     Err        Err        Err      Quality

2012/09/27 10:41:50.2     43.4945    6.6130       .0 f    13    5 139  Ml 1.8  2  Md 1.8  2              bulletin    284126
                                                                                                         _ldg
      0.55   +-  0.23       5.8    3.7  136.88 +-  0.0    0.07   1.43   +-0.3      +-0.2                 m i km

NEAR SOUTH COAST OF FRANCE
Sta     Dist  EvAz     Phase      Date       Time     TRes  Azim  AzRes  Slow  SRes Def   SNR       Amp   Per   Mag1   Mag2       ID
FRF   000.07 020.4 m E Pg      2012/09/27 10:41:51.1  -0.8                          T                                        5080363
FRF   000.07 020.4 m E Sg      2012/09/27 10:41:52.2  -0.9                          T              180.7  .18        Md 2.0  5080361
LMR   000.18 205.3 m E Pg      2012/09/27 10:41:53.9  -0.1                          T                                        5080362
LMR   000.18 205.3 m E Sg      2012/09/27 10:41:56.9   0.3                          T               15.1  .20        Md 1.7  5080360
SBF   000.70 058.0 m E Pg      2012/09/27 10:42:03.7   0.0                          T                                        5080359
SBF   000.70 058.0 m E Sg      2012/09/27 10:42:13.2   0.1                          T               15.9  .40                5080367
SMRF  000.89 303.0 m E Pg      2012/09/27 10:42:06.7  -0.5                          T                                        5080358
SMRF  000.89 303.0 m E Sn      2012/09/27 10:42:21.5  -0.1                          T                4.0  .20 Ml 2.1         5080357
MBDF  001.24 005.2 m E Sg      2012/09/27 10:42:30.0   0.0                          T                1.0  .21 Ml 1.6         5081244

.
EVENT     284040
    Date      Time       Latitude Longitude    Depth    Ndef Nsta Gap    Mag1  N    Mag2  N    Mag3  N   Author         ID
       rms   OT_Error      Smajor Sminor Az        Err   mdist  Mdist     Err        Err        Err      Quality

2012/09/27 14:06:54.2     42.9909     .0256      2.0       8    4 177  Ml 1.6  2  Md 1.5  2              bulletin    284140
                                                                                                         _ldg
      0.09   +-  0.04       4.0     .5  173.21 +-  0.0    0.23   1.64   +-0.2      +-0.1                 m i ke

PYRENEES
Sta     Dist  EvAz     Phase      Date       Time     TRes  Azim  AzRes  Slow  SRes Def   SNR       Amp   Per   Mag1   Mag2       ID
EPF   000.23 080.2 m E Pg      2012/09/27 14:06:58.8  -0.1                          T                                        5080470
EPF   000.23 080.2 m E Sg      2012/09/27 14:07:02.2   0.0                          T               16.7  .22        Md 1.5  5080468
ETSF  000.44 258.1 m E Pg      2012/09/27 14:07:02.8   0.0                          T                                        5080469
ETSF  000.44 258.1 m E Sg      2012/09/27 14:07:08.5  -0.1                          T               15.0  .40        Md 1.6  5080467
SJPF  000.92 278.0 m E Pg      2012/09/27 14:07:11.4  -0.2                          T                                        5080473
SJPF  000.92 278.0 m E Sg      2012/09/27 14:07:23.7   0.1                          T                  1  .23 Ml 1.4         5080474
MTLF  001.64 076.9 m E Pg      2012/09/27 14:07:24.7  -0.1                          T                                        5080471
MTLF  001.64 076.9 m E Sg      2012/09/27 14:07:46.0   0.0                          T                 .9  .22 Ml 1.7         5080472

.
EVENT     284046
    Date      Time       Latitude Longitude    Depth    Ndef Nsta Gap    Mag1  N    Mag2  N    Mag3  N   Author         ID
       rms   OT_Error      Smajor Sminor Az        Err   mdist  Mdist     Err        Err        Err      Quality

2012/09/27 17:35:56.0     41.5812    2.6205      6.0 f    49    4 140  Ml 2.2  4                         bulletin    284146
                                                                                                         _ldg
      0.72   +-  0.18       2.9    2.0  139.69 +-  0.0    0.23   3.61   +-0.1                            m i ke

SPAIN
Sta     Dist  EvAz     Phase      Date       Time     TRes  Azim  AzRes  Slow  SRes Def   SNR       Amp   Per   Mag1   Mag2       ID
MTLF  001.78 350.5 m E Pn      2012/09/27 17:36:26.2   0.6                          T                                        5080640
MTLF  001.78 350.5 m E Pg      2012/09/27 17:36:28.9  -0.3                          T                                        5080642
MTLF  001.78 350.5 m E Sn      2012/09/27 17:36:48.1   0.8                          T                                        5080639
MTLF  001.78 350.5 m E Sg      2012/09/27 17:36:51.4  -0.9                          T                2.7  .24 Ml 2.2         5080641
EPF   002.23 311.3 m E Pn      2012/09/27 17:36:32.7   1.0                          T                                        5080638
EPF   002.23 311.3 m E Pg      2012/09/27 17:36:37.0  -0.4                          T                                        5080633
EPF   002.23 311.3 m E Sn      2012/09/27 17:36:58.1   0.2                          T                                        5080637
EPF   002.23 311.3 m E Sg      2012/09/27 17:37:06.1   0.0                          T                2.7  .21 Ml 2.4         5080634
ETSF  002.70 300.2 m E Pn      2012/09/27 17:36:39.3   1.1                          T                                        5080636
ETSF  002.70 300.2 m E Sg      2012/09/27 17:37:19.4  -1.5                          T                2.1  .32 Ml 2.2         5080635
SJPF  003.24 299.5 m E Pn      2012/09/27 17:36:46.4   1.0                          T                                        5080629
SJPF  003.24 299.5 m E Pg      2012/09/27 17:36:55.8  -0.1                          T                                        5080630
SJPF  003.24 299.5 m E Sn      2012/09/27 17:37:23.4   1.4                          T                                        5080631
SJPF  003.24 299.5 m E Sg      2012/09/27 17:37:37.3  -0.2                          T                 .7  .20 Ml 2.0         5080632

.
EVENT     284044
    Date      Time       Latitude Longitude    Depth    Ndef Nsta Gap    Mag1  N    Mag2  N    Mag3  N   Author         ID
       rms   OT_Error      Smajor Sminor Az        Err   mdist  Mdist     Err        Err        Err      Quality

2012/09/27 18:00:12.0     44.5893    4.9634      2.0      75   24 087  Ml 2.7 22  Md 2.6  3              bulletin    284144
                                                                                                         _ldg
      0.67   +-  0.06       1.4    1.1    9.24 +-  0.0    0.34   4.34   +-0.3      +-0.0                 m i ke

FRANCE
Sta     Dist  EvAz     Phase      Date       Time     TRes  Azim  AzRes  Slow  SRes Def   SNR       Amp   Per   Mag1   Mag2       ID
VIVF  000.34 322.3 m E Pg      2012/09/27 18:00:18.5  -0.1                          T                                        5080494
VIVF  000.34 322.3 m E Sg      2012/09/27 18:00:22.9  -0.3                          T               31.4  .20        Md 2.7  5080491
ORIF  000.73 062.9 m E Pg      2012/09/27 18:00:25.9   0.0                          T                                        5080493
ORIF  000.73 062.9 m E Sn      2012/09/27 18:00:39.1   0.1                          T               31.9  .34        Md 2.6  5080511
SMRF  000.75 144.2 m E Pg      2012/09/27 18:00:26.4   0.1                          T                                        5080509
SMRF  000.75 144.2 m E Sg      2012/09/27 18:00:36.3   0.2                          T               38.4  .36        Md 2.6  5080510
LASF  000.95 237.5 m E Pg      2012/09/27 18:00:29.7  -0.1                          T                                        5080492
LASF  000.95 237.5 m E Pn      2012/09/27 18:00:29.9  -0.8                          T   001.0                                5080760
LASF  000.95 237.5 m E Sn      2012/09/27 18:00:43.8  -0.2                          T               25.5  .26 Ml 2.8         5080490
MBDF  001.30 083.3 m E Pg      2012/09/27 18:00:35.9  -0.5                          T   001.0                                5080772
MBDF  001.30 083.3 m E Pn      2012/09/27 18:00:36.2   0.6                          T                                        5080503
MBDF  001.30 083.3 m E Sg      2012/09/27 18:00:53.5   0.3                          T   001.0        7.6  .38 Ml 2.2         5080773
FRF   001.59 129.7 m E Pn      2012/09/27 18:00:38.1  -1.4                          T                                        5080508
FRF   001.59 129.7 m E Sn      2012/09/27 18:00:59.0  -0.4                          T               15.6  .36 Ml 2.8         5080539
LPL   001.56 052.9 m E Pn      2012/09/27 18:00:39.6   0.3                          T                                        5080504
LPL   001.56 052.9 m E Pg      2012/09/27 18:00:40.9  -0.4                          T   001.0                                5080762
LPL   001.56 052.9 m E Sg      2012/09/27 18:01:01.6   0.1                          T   001.0        4.6  .43 Ml 2.1         5080763
LPG   001.56 053.7 m E Pn      2012/09/27 18:00:40.1   0.7                          T                                        5080505
LPG   001.56 053.7 m E Pg      2012/09/27 18:00:41.4   0.0                          T   001.0                                5080761
LPG   001.56 053.7 m E Sg      2012/09/27 18:01:01.9   0.4                          T                2.9  .31 Ml 2.0         5081278
LMR   001.68 137.8 m E Pn      2012/09/27 18:00:41.0   0.4                          T                                        5080507
LMR   001.68 137.8 m E Sn      2012/09/27 18:01:00.9  -0.6                          T                6.0  .26 Ml 2.5         5080538
SBF   001.92 111.4 m E Pn      2012/09/27 18:00:44.6   0.6                          T                                        5080506
SBF   001.92 111.4 m E Pg      2012/09/27 18:00:46.4  -1.4                          T   001.0                                5080764
SBF   001.92 111.4 m E Sn      2012/09/27 18:01:07.5   0.2                          T               15.0  .36 Ml 2.8         5080537
CAF   002.09 280.3 m E Pn      2012/09/27 18:00:46.5   0.1                          T                                        5080501
CAF   002.09 280.3 m E Sn      2012/09/27 18:01:11.5   0.1                          T                                        5080524
CAF   002.09 280.3 m E Sg      2012/09/27 18:01:16.5  -1.4                          T   001.0       26.0  .48 Ml 3.0         5080759
SMF   002.20 339.4 m E Pn      2012/09/27 18:00:47.9   0.1                          T                                        5080498
SMF   002.20 339.4 m E Pg      2012/09/27 18:00:52.5  -0.4                          T   001.0                                5080765
SMF   002.20 339.4 m E Sn      2012/09/27 18:01:14.2   0.2                          T                                        5080528
SMF   002.20 339.4 m E Sg      2012/09/27 18:01:20.1  -1.2                          T   001.0       10.7  .33 Ml 2.8         5080766
MTLF  002.34 238.8 m E Pn      2012/09/27 18:00:49.8   0.1                          T                                        5080502
MTLF  002.34 238.8 m E Pg      2012/09/27 18:00:56.0   0.5                          T   001.0                                5080774
MTLF  002.34 238.8 m E Sn      2012/09/27 18:01:17.2  -0.2                          T                                        5080523
MTLF  002.34 238.8 m E Sg      2012/09/27 18:01:25.8   0.2                          T   001.0        4.5  .28 Ml 2.5         5080775
AVF   002.47 333.4 m E Pn      2012/09/27 18:00:51.3  -0.2                          T                                        5080497
AVF   002.47 333.4 m E Sn      2012/09/27 18:01:21.2   0.7                          T                                        5080529
AVF   002.47 333.4 m E Sg      2012/09/27 18:01:28.6  -1.1                          T   001.0        6.6  .36 Ml 2.6         5080757
CABF  002.17 020.9 m E Pg      2012/09/27 18:00:52.5   0.1                          T   001.0                                5080770
CABF  002.17 020.9 m E Sg      2012/09/27 18:01:20.1  -0.3                          T   001.0       12.8  .68 Ml 2.5         5080771
RJF   002.55 287.5 m E Pn      2012/09/27 18:00:52.7   0.2                          T                                        5080499
RJF   002.55 287.5 m E Sn      2012/09/27 18:01:21.9  -0.4                          T                8.1  .26 Ml 2.5         5080526
RJF   002.55 287.5 m E Sg      2012/09/27 18:01:30.6  -1.5                          T   001.0                                5080756
TCF   002.58 312.2 m E Pn      2012/09/27 18:00:53.0   0.0                          T                                        5080530
TCF   002.58 312.2 m E Pg      2012/09/27 18:00:59.5  -0.4                          T   001.0                                5080769
TCF   002.58 312.2 m E Sg      2012/09/27 18:01:33.4   0.4                          T                8.2  .38 Ml 2.7         5080533
SSF   002.67 338.1 m E Pn      2012/09/27 18:00:54.3   0.1                          T                                        5080496
SSF   002.67 338.1 m E Pg      2012/09/27 18:01:02.5   0.9                          T   001.0                                5080767
SSF   002.67 338.1 m E Sn      2012/09/27 18:01:25.8   0.5                          T                                        5080532
SSF   002.67 338.1 m E Sg      2012/09/27 18:01:33.6  -2.4                          T   001.0        9.3  .48 Ml 2.7         5080768
LOR   002.79 344.3 m E Pn      2012/09/27 18:00:55.3  -0.5 165.1  1.5               T                                        5080495
LOR   002.79 344.3 m E Sn      2012/09/27 18:01:28.4   0.4                          T                6.4  .30 Ml 2.7         5080531
LFF   003.03 278.1 m E Pn      2012/09/27 18:00:59.1   0.1                          T                                        5080500
LFF   003.03 278.1 m E Sg      2012/09/27 18:01:46.9  -0.1                          T               20.7  .40 Ml 3.0         5080525
BGF   002.47 323.7 m E Sn      2012/09/27 18:01:20.4   0.1                          T                                        5080527
BGF   002.47 323.7 m E Sg      2012/09/27 18:01:30.1   0.6                          T   001.0       45.1  .38 Ml 3.4         5080758
EPF   003.69 246.6 m E Sn      2012/09/27 18:01:49.0  -0.7                          T                8.6  .56 Ml 2.8         5080536
MFF   004.11 301.1 m E Sg      2012/09/27 18:02:20.1  -0.7                          T                5.3  .39 Ml 3.0         5080534
ETSF  004.34 249.0 m E Sg      2012/09/27 18:02:27.7  -0.5                          T                3.0  .42 Ml 2.6         5080535

.
