EVENT     267267
    Date      Time       Latitude Longitude    Depth    Ndef Nsta Gap    Mag1  N    Mag2  N    Mag3  N   Author         ID
       rms   OT_Error      Smajor Sminor Az        Err   mdist  Mdist     Err        Err        Err      Quality

2011/12/10 02:31:56.4     36.9557   -3.7251      2.0      55    7 094  Ml 3.2  3                         js067245    267287

      1.03   +-  0.20       4.4    3.3  169.02 +-  0.0    0.28  11.38   +-0.3                            m i ke

STRAIT OF GIBRALTAR
Sta     Dist  EvAz     Phase      Date       Time     TRes  Azim  AzRes  Slow  SRes Def   SNR       Amp   Per   Mag1   Mag2       ID
ETSF  006.41 021.3 m E Pn      2011/12/10 02:33:31.9   2.3                          T                                        4798528
ETSF  006.41 021.3 m E Sn      2011/12/10 02:34:38.7  -0.5                          T                                        4800118
ETSF  006.41 021.3 m E Sg      2011/12/10 02:35:15.8  -1.4                          T                2.2  .43 Ml 2.9         4800117
SJPF  006.44 016.5 m E Pn      2011/12/10 02:33:32.5   2.6                          T                                        4798526
SJPF  006.44 016.5 m E Sg      2011/12/10 02:35:17.2  -0.9                          T               10.4  .58 Ml 3.4         4798523
EPF   006.82 026.0 m E Pn      2011/12/10 02:33:37.2   2.0                          T                                        4798527
EPF   006.82 026.0 m E Sn      2011/12/10 02:34:47.8  -1.1                          T                                        4798524
EPF   006.82 026.0 m E Sg      2011/12/10 02:35:28.8  -1.2                          T                6.1  .61 Ml 3.2         4798525
LFF   008.66 021.5 m E P       2011/12/10 02:34:04.9  -0.8                          T                                        4800119
QUIF  010.96 002.0 m E Pn      2011/12/10 02:34:31.5   0.1                          T                                        4798521
SGMF  011.32 004.0 m E Pn      2011/12/10 02:34:36.4  -0.1                          T                                        4798522
ROSF  011.38 001.5 m E Pn      2011/12/10 02:34:36.4  -0.7                          T                                        4800121

.
EVENT     267270
    Date      Time       Latitude Longitude    Depth    Ndef Nsta Gap    Mag1  N    Mag2  N    Mag3  N   Author         ID
       rms   OT_Error      Smajor Sminor Az        Err   mdist  Mdist     Err        Err        Err      Quality

2011/12/10 04:25:44.6     42.9102    -.3538     15.0       8    4 189  Ml 1.3  1  Md 1.4  2              js067245    267290

      0.22   +-  0.09       6.0    1.0  176.77 +-  0.0    0.15   1.93   +-         +-0.1                 m i ke

PYRENEES
Sta     Dist  EvAz     Phase      Date       Time     TRes  Azim  AzRes  Slow  SRes Def   SNR       Amp   Per   Mag1   Mag2       ID
ETSF  000.15 265.7 m E Pg      2011/12/10 04:25:48.7   0.0                          T                                        4798542
ETSF  000.15 265.7 m E Sg      2011/12/10 04:25:51.5   0.0                          T                7.0  .22        Md 1.4  4798541
EPF   000.52 076.5 m E Pg      2011/12/10 04:25:54.7  -0.3                          T                                        4798537
EPF   000.52 076.5 m E Sg      2011/12/10 04:26:02.1   0.0                          T                1.5  .23                4798540
EPF   000.52 076.5 m E Sn      2011/12/10 04:26:04.4   0.2                          T                                Md 1.3  4798536
SJPF  000.67 287.9 m E Pg      2011/12/10 04:25:57.3  -0.3                          T                                        4798538
SJPF  000.67 287.9 m E Sg      2011/12/10 04:26:06.1  -0.4                          T                1.2  .27                4798539
MTLF  001.93 076.2 m E Sg      2011/12/10 04:26:45.6   0.0                          T                 .3  .22 Ml 1.3         4798535

.
EVENT     267269
    Date      Time       Latitude Longitude    Depth    Ndef Nsta Gap    Mag1  N    Mag2  N    Mag3  N   Author         ID
       rms   OT_Error      Smajor Sminor Az        Err   mdist  Mdist     Err        Err        Err      Quality

2011/12/10 12:02:25.3     48.1794   -3.0226      3.0 f    15    6 119  Ml 2.0  3  Md 1.8  3              js067245    267289

      0.85   +-  0.10       2.2    1.5  168.78 +-  0.0    0.23   1.98   +-0.1      +-0.1                 m i ke

FRANCE
Sta     Dist  EvAz     Phase      Date       Time     TRes  Azim  AzRes  Slow  SRes Def   SNR       Amp   Per   Mag1   Mag2       ID
ROSF  000.23 313.2 m E Pg      2011/12/10 12:02:29.8   0.0                          T                                        4798577
ROSF  000.23 313.2 m E Sg      2011/12/10 12:02:32.7  -0.3                          T               11.4  .24        Md 1.8  4798566
QUIF  000.28 200.1 m E Pg      2011/12/10 12:02:31.1   0.4                          T                                        4798575
QUIF  000.28 200.1 m E Sg      2011/12/10 12:02:34.9   0.4                          T               14.6  .16        Md 1.7  4798574
SGMF  000.32 076.3 m E Pg      2011/12/10 12:02:31.7   0.2                          T                                        4798576
SGMF  000.32 076.3 m E Sg      2011/12/10 12:02:35.6  -0.2                          T                6.5  .20        Md 1.8  4798573
GRR   001.46 081.0 m E Pn      2011/12/10 12:02:50.9   0.1                          T                                        4798578
GRR   001.46 081.0 m E Pg      2011/12/10 12:02:52.5   0.0                          T                                        4798569
GRR   001.46 081.0 m E Sg      2011/12/10 12:03:11.5   0.1                          T                3.9  .19 Ml 2.2         4798570
FLN   001.79 070.0 m E Pg      2011/12/10 12:02:58.2  -0.4 246.1  -5.8              T                                        4798567
FLN   001.79 070.0 m E Sg      2011/12/10 12:03:21.2  -0.4 251.6  -0.3              T                1.7  .19 Ml 1.9         4798572
LDF   001.98 076.8 m E Pg      2011/12/10 12:03:02.0  -0.1                          T                                        4798568
LDF   001.98 076.8 m E Sg      2011/12/10 12:03:26.9  -0.6                          T                1.3  .20 Ml 2.0         4798571

.
EVENT     267275
    Date      Time       Latitude Longitude    Depth    Ndef Nsta Gap    Mag1  N    Mag2  N    Mag3  N   Author         ID
       rms   OT_Error      Smajor Sminor Az        Err   mdist  Mdist     Err        Err        Err      Quality

2011/12/10 12:04:36.5     44.5419    7.2721     10.0      50   11 090  Ml 2.4  9  Md 2.4  5              js067245    267295

      0.30   +-  0.04       1.0     .7   57.64 +-  0.0    0.04   2.50   +-0.3      +-0.1                 m i ke

NORTHERN ITALY
Sta     Dist  EvAz     Phase      Date       Time     TRes  Azim  AzRes  Slow  SRes Def   SNR       Amp   Per   Mag1   Mag2       ID
MBDF  000.40 297.5 m E Pg      2011/12/10 12:04:44.6   0.0                          T                                        4798590
MBDF  000.40 297.5 m E Sg      2011/12/10 12:04:50.2   0.1                          T               63.4  .22        Md 2.3  4798589
SBF   000.69 170.1 m E Pg      2011/12/10 12:04:50.3   0.6                          T                                        4798582
SBF   000.69 170.1 m E Sg      2011/12/10 12:04:58.2  -0.5                          T               27.1  .22        Md 2.4  4798614
LPL   001.05 338.7 m E Pg      2011/12/10 12:04:56.3  -0.1                          T                                        4798587
LPL   001.05 338.7 m E Sg      2011/12/10 12:05:10.2   0.2                          T                9.9  .34 Ml 2.3         4798612
LPG   001.02 339.1 m E Pg      2011/12/10 12:04:56.4   0.3                          T                                        4798586
LPG   001.02 339.1 m E Sg      2011/12/10 12:05:09.6   0.2                          T                5.8  .20 Ml 2.3         4798613
ORIF  001.06 291.3 m E Pg      2011/12/10 12:04:56.5  -0.1                          T                                        4798588
ORIF  001.06 291.3 m E Sg      2011/12/10 12:05:10.2  -0.1                          T                8.0  .24 Ml 2.4 Md 2.5  4798611
FRF   001.08 204.9 m E Pg      2011/12/10 12:04:56.8   0.1                          T                                        4798584
FRF   001.08 204.9 m E Sg      2011/12/10 12:05:10.6  -0.2                          T               16.7  .20 Ml 2.8 Md 2.4  4798581
LMR   001.33 204.8 m E Pg      2011/12/10 12:05:00.8  -0.5                          T                                        4798583
LMR   001.33 204.8 m E Sg      2011/12/10 12:05:18.2  -0.2                          T               11.2  .20 Ml 2.7         4798580
SMRF  001.34 245.7 m E Pg      2011/12/10 12:05:02.1   0.4                          T                                        4798585
SMRF  001.34 245.7 m E Sg      2011/12/10 12:05:19.3   0.2                          T               19.2  .34 Ml 2.7 Md 2.5  4798579
VIVF  001.88 280.5 m E Pn      2011/12/10 12:05:06.9  -0.1                          T                                        4798610
VIVF  001.88 280.5 m E P       2011/12/10 12:05:09.1  -0.1                          T                                        4798602
VIVF  001.88 280.5 m E Pg      2011/12/10 12:05:11.4  -0.1                          T                                        4798601
VIVF  001.88 280.5 m E Sn      2011/12/10 12:05:29.7   0.3                          T                                        4798606
VIVF  001.88 280.5 m E Sg      2011/12/10 12:05:36.4   0.7                          T                2.4  .29 Ml 2.1         4798607
CABF  002.23 338.5 m E Pg      2011/12/10 12:05:17.8  -0.3                          T                                        4798609
CABF  002.23 338.5 m E Sg      2011/12/10 12:05:47.0   0.3                          T                                        4798608
LASF  002.50 260.4 m E Sg      2011/12/10 12:05:55.1   0.1                          T                1.2  .27 Ml 2.0         4800139

.
EVENT     267276
    Date      Time       Latitude Longitude    Depth    Ndef Nsta Gap    Mag1  N    Mag2  N    Mag3  N   Author         ID
       rms   OT_Error      Smajor Sminor Az        Err   mdist  Mdist     Err        Err        Err      Quality

2011/12/10 12:07:43.9     44.6832    6.8165      4.0 f    15    7 153  Ml 1.3  4  Md 1.6  2              js067245    267296

      0.23   +-  0.09       1.9    1.2  117.81 +-  0.0    0.05   1.54   +-0.2      +-0.2                 m i ke

FRANCE
Sta     Dist  EvAz     Phase      Date       Time     TRes  Azim  AzRes  Slow  SRes Def   SNR       Amp   Per   Mag1   Mag2       ID
MBDF  000.05 323.7 m E Pg      2011/12/10 12:07:45.8   0.1                          T                                        4798674
MBDF  000.05 323.7 m E Sg      2011/12/10 12:07:47.0   0.1                          T               18.9  .24        Md 1.4  4798673
ORIF  000.71 289.8 m E Pg      2011/12/10 12:07:57.2  -0.1                          T                                        4798671
ORIF  000.71 289.8 m E Sg      2011/12/10 12:08:05.4  -1.3                          T                1.5  .24        Md 1.7  4798672
LPL   000.84 355.9 m E Pn      2011/12/10 12:08:01.3   0.2                          T                                        4798663
LPL   000.84 355.9 m E Sn      2011/12/10 12:08:13.7   0.6                          T                 .4  .19                4798664
SMRF  001.14 232.0 m E Pg      2011/12/10 12:08:05.4   0.1                          T                                        4800149
SMRF  001.14 232.0 m E Sg      2011/12/10 12:08:19.6  -0.3                          T                 .4  .27 Ml 1.1         4800150
FRF   001.13 186.3 m E Pg      2011/12/10 12:08:05.6   0.6                          T                                        4798670
FRF   001.13 186.3 m E Sg      2011/12/10 12:08:19.6   0.0                          T                 .6  .21 Ml 1.4         4798669
LMR   001.37 189.4 m E Pg      2011/12/10 12:08:08.9  -0.5                          T                                        4798662
LMR   001.37 189.4 m E Sg      2011/12/10 12:08:27.2   0.2                          T                 .5  .19 Ml 1.4         4798667
VIVF  001.54 277.2 m E Sg      2011/12/10 12:08:32.5   0.1                          T                 .7  .21 Ml 1.6         4798661

.
EVENT     267302
    Date      Time       Latitude Longitude    Depth    Ndef Nsta Gap    Mag1  N    Mag2  N    Mag3  N   Author         ID
       rms   OT_Error      Smajor Sminor Az        Err   mdist  Mdist     Err        Err        Err      Quality

2011/12/10 16:24:30.5     47.8823    7.4767     10.0      19    8 052  Ml 1.4  4  Md 1.5  1              js067245    267322

      0.42   +-  0.05       1.2     .8    2.48 +-  0.0    0.23   2.53   +-0.5      +-                    m i ke

SWITZERLAND
Sta     Dist  EvAz     Phase      Date       Time     TRes  Azim  AzRes  Slow  SRes Def   SNR       Amp   Per   Mag1   Mag2       ID
HINF  000.43 261.4 m E Pg      2011/12/10 16:24:38.8  -0.1                          T                                        4798694
HINF  000.43 261.4 m E Sg      2011/12/10 16:24:44.7   0.1                          T                 .6  .21                4798693
CDF   000.55 345.9 m E Pg      2011/12/10 16:24:41.3   0.2                          T                                        4798699
CDF   000.55 345.9 m E Sg      2011/12/10 16:24:48.3  -0.1                          T                 .6  .20        Md 1.5  4798698
HAU   000.77 279.7 m E Pg      2011/12/10 16:24:45.0  -0.1                          T                                        4798703
HAU   000.77 279.7 m E Sg      2011/12/10 16:24:55.4   0.2                          T                1.7  .26                4798702
THEF  001.05 289.7 m E Pg      2011/12/10 16:24:50.1  -0.2                          T                                        4798700
THEF  001.05 289.7 m E Sg      2011/12/10 16:25:04.2   0.2                          T                2.8  .21 Ml 2.0         4798701
CABF  001.59 217.2 m E Pg      2011/12/10 16:24:59.4  -0.8                          T                                        4798691
CABF  001.59 217.2 m E Sg      2011/12/10 16:25:20.8   0.1                          T                 .4  .21 Ml 1.3         4798692
SFTF  001.67 282.1 m E Pg      2011/12/10 16:25:01.4  -0.2                          T                                        4800167
SFTF  001.67 282.1 m E Sg      2011/12/10 16:25:23.1  -0.1                          T                 .9  .20 Ml 1.8         4800165
LOR   002.53 257.3 m E Pn      2011/12/10 16:25:09.6  -0.3                          T                                        4798695
LOR   002.53 257.3 m E Pg      2011/12/10 16:25:17.8   0.5  78.6  4.0               T                                        4798696
LOR   002.53 257.3 m E Sg      2011/12/10 16:25:50.1   0.2                          T                                        4798697
PAGF  001.35 300.5 m E Sg      2011/12/10 16:25:13.2   0.0 114.4  -4.8              T                 .1  .17 Ml  .8         4800166

.
EVENT     267271
    Date      Time       Latitude Longitude    Depth    Ndef Nsta Gap    Mag1  N    Mag2  N    Mag3  N   Author         ID
       rms   OT_Error      Smajor Sminor Az        Err   mdist  Mdist     Err        Err        Err      Quality

2011/12/10 16:42:55.2     42.4168    2.2501      2.0      18    5 082  Ml 1.9  5  Md 2.0  1              js067245    267291

      0.24   +-  0.05       1.0     .8  174.94 +-  0.0    0.21   2.61   +-0.2      +-                    m i ke

PYRENEES
Sta     Dist  EvAz     Phase      Date       Time     TRes  Azim  AzRes  Slow  SRes Def   SNR       Amp   Per   Mag1   Mag2       ID
MTLF  000.92 358.5 m E Pg      2011/12/10 16:43:12.7   0.1                          T                                        4798733
MTLF  000.92 358.5 m E Pn      2011/12/10 16:43:13.6   0.0                          T                                        4798725
MTLF  000.92 358.5 m E Sg      2011/12/10 16:43:25.0   0.4                          T                4.1  .18 Ml 2.1 Md 2.0  4798732
EPF   001.54 294.2 m E Pg      2011/12/10 16:43:23.1  -0.8                          T                                        4798724
EPF   001.54 294.2 m E Sn      2011/12/10 16:43:41.6   0.2                          T                                        4798728
EPF   001.54 294.2 m E Sg      2011/12/10 16:43:43.6  -0.1                          T                 .8  .18 Ml 1.7         4798726
ETSF  002.13 284.0 m E Pg      2011/12/10 16:43:34.4  -0.4                          T                                        4798727
ETSF  002.13 284.0 m E Sg      2011/12/10 16:44:02.1  -0.1                          T                1.7  .32 Ml 2.0         4798730
LASF  002.03 034.8 m E Sg      2011/12/10 16:43:59.1  -0.1                          T                1.3  .32 Ml 1.8         4798731
CAF   002.51 357.0 m E Sg      2011/12/10 16:44:14.1  -0.1                          T                1.1  .20 Ml 2.1         4798729

.
