EVENT     287604
    Date      Time       Latitude Longitude    Depth    Ndef Nsta Gap    Mag1  N    Mag2  N    Mag3  N   Author         ID
       rms   OT_Error      Smajor Sminor Az        Err   mdist  Mdist     Err        Err        Err      Quality

2012/11/28 13:32:50.7     45.9249    7.7560      2.0     134   37 045  Ml 3.2 33  Md 3.1  3              bulletin    287704
                                                                                                         _ldg
      0.97   +-  0.06       1.2     .9   90.17 +-  0.0    0.09   6.68   +-0.3      +-0.1                 m i ke

NORTHERN ITALY
Sta     Dist  EvAz     Phase      Date       Time     TRes  Azim  AzRes  Slow  SRes Def   SNR       Amp   Per   Mag1   Mag2       ID
LPG   000.82 239.1 m E Pg      2012/11/28 13:33:05.7  -0.8                          T                                        5126931
LPG   000.82 239.1 m E Sg      2012/11/28 13:33:17.4   0.1                          T              112.9  .20        Md 3.2  5126951
LPL   000.83 240.7 m E Pg      2012/11/28 13:33:05.9  -0.6                          T                                        5126932
LPL   000.83 240.7 m E Sg      2012/11/28 13:33:17.2  -0.1                          T               89.3  .31        Md 3.1  5126950
MBDF  001.38 210.5 m E Pg      2012/11/28 13:33:16.5  -0.2                          T                                        5126929
MBDF  001.38 210.5 m E Sg      2012/11/28 13:33:34.9   0.3                          T              112.9  .24 Ml 3.7         5126948
CABF  001.35 301.3 m E P       2012/11/28 13:33:16.7   0.0                          T                                        5138714
CABF  001.35 301.3 m E Sn      2012/11/28 13:33:31.9  -0.4                          T                                        5127070
CABF  001.35 301.3 m E Sg      2012/11/28 13:33:33.7   0.4                          T               76.7  .30 Ml 3.4 Md 3.0  5127069
ORIF  001.66 233.4 m E Pg      2012/11/28 13:33:21.4  -0.3  37.0  -15.0             T                                        5127103
ORIF  001.66 233.4 m E Sg      2012/11/28 13:33:43.6   0.4  64.0  12.0              T               55.8  .33 Ml 3.3         5126949
SBF   002.07 186.4 m E Pn      2012/11/28 13:33:24.8   0.0                          T                                        5126926
SBF   002.07 186.4 m E Pg      2012/11/28 13:33:29.3   0.0                          T                                        5127117
SBF   002.07 186.4 m E Sn      2012/11/28 13:33:49.5  -0.2                          T                                        5127116
SBF   002.07 186.4 m E Sg      2012/11/28 13:33:55.9  -0.1                          T               42.9  .27 Ml 3.4         5127115
HINF  001.99 342.2 m E P       2012/11/28 13:33:25.8  -0.1                          T                                        5138715
HINF  001.99 342.2 m E Pg      2012/11/28 13:33:27.6  -0.2                          T                                        5127072
HINF  001.99 342.2 m E Sn      2012/11/28 13:33:47.7   0.0                          T                                        5127073
HINF  001.99 342.2 m E Sg      2012/11/28 13:33:53.4   0.0                          T               54.4  .25 Ml 3.5         5127074
SMRF  002.49 219.2 m E Pn      2012/11/28 13:33:29.9  -0.5                          T                                        5127107
SMRF  002.49 219.2 m E P       2012/11/28 13:33:32.9  -0.1                          T                                        5138703
SMRF  002.49 219.2 m E Pg      2012/11/28 13:33:36.8  -0.1                          T                                        5127106
SMRF  002.49 219.2 m E Sn      2012/11/28 13:33:59.5  -0.1                          T                                        5127105
SMRF  002.49 219.2 m E Sg      2012/11/28 13:34:09.5   0.6                          T               19.2  .40 Ml 3.0         5127104
HAU   002.29 335.7 m E P       2012/11/28 13:33:30.2   0.0                          T                                        5138716
HAU   002.29 335.7 m E Pg      2012/11/28 13:33:33.3   0.0                          T                                        5127094
HAU   002.29 335.7 m E Sg      2012/11/28 13:34:03.0   0.2                          T               85.8  .30 Ml 3.5         5126934
FRF   002.49 198.9 m E Pn      2012/11/28 13:33:30.9   0.5                          T                                        5127110
FRF   002.49 198.9 m E P       2012/11/28 13:33:33.2   0.3                          T                                        5138702
FRF   002.49 198.9 m E Pg      2012/11/28 13:33:37.4   0.5                          T                                        5126927
FRF   002.49 198.9 m E Sn      2012/11/28 13:34:00.0   0.4                          T                                        5127109
FRF   002.49 198.9 m E Sg      2012/11/28 13:34:09.4   0.4                          T               25.2  .29 Ml 3.3         5127108
VIVF  002.42 244.9 m E P       2012/11/28 13:33:32.3   0.3                          T                                        5138704
VIVF  002.42 244.9 m E Sn      2012/11/28 13:33:57.7  -0.3                          T                                        5138701
VIVF  002.42 244.9 m E Sg      2012/11/28 13:34:07.4   0.6                          T               19.9  .34 Ml 3.1         5127102
CDF   002.51 352.7 m E P       2012/11/28 13:33:33.5   0.1                          T                                        5138720
CDF   002.51 352.7 m E Pg      2012/11/28 13:33:37.5   0.2                          T                                        5127087
CDF   002.51 352.7 m E Sn      2012/11/28 13:33:59.8  -0.3                          T                                        5127086
CDF   002.51 352.7 m E Sg      2012/11/28 13:34:09.7   0.0                          T               26.0  .36 Ml 3.3         5126938
LMR   002.74 199.4 m E Pn      2012/11/28 13:33:34.2   0.4                          T                                        5127113
LMR   002.74 199.4 m E Pg      2012/11/28 13:33:41.9   0.5                          T                                        5127114
LMR   002.74 199.4 m E Sn      2012/11/28 13:34:05.6   0.1                          T                                        5127112
LMR   002.74 199.4 m E Sg      2012/11/28 13:34:17.3   0.6                          T                9.8  .24 Ml 3.0         5127111
SMF   002.81 286.3 m E Pn      2012/11/28 13:33:34.9   0.2                          T                                        5126925
SMF   002.81 286.3 m E P       2012/11/28 13:33:37.2  -0.3                          T                                        5138712
SMF   002.81 286.3 m E Pg      2012/11/28 13:33:43.2   0.4                          T                                        5127636
SMF   002.81 286.3 m E Sg      2012/11/28 13:34:19.2   0.3                          T               28.5  .32 Ml 3.3         5126946
SFTF  002.94 321.8 m E P       2012/11/28 13:33:39.4   0.0 135.9  -3.9              T                                        5138717
SFTF  002.94 321.8 m E Sn      2012/11/28 13:34:09.7  -0.6 149.3  9.4               T                                        5127076
SFTF  002.94 321.8 m E Sg      2012/11/28 13:34:23.3   0.3 140.3  0.5               T               77.4  .49 Ml 3.6         5127075
PAGF  002.97 333.0 m E P       2012/11/28 13:33:39.7  -0.1                          T                                        5138719
PAGF  002.97 333.0 m E Pg      2012/11/28 13:33:45.9   0.1                          T                                        5127085
PAGF  002.97 333.0 m E Sn      2012/11/28 13:34:10.9  -0.2 154.1  2.6               T                                        5127083
PAGF  002.97 333.0 m E Sg      2012/11/28 13:34:24.3   0.3 156.4  4.9               T               27.3  .38 Ml 3.3         5127082
SSF   003.15 292.7 m E Pn      2012/11/28 13:33:39.7   0.4                          T                                        5126936
SSF   003.15 292.7 m E P       2012/11/28 13:33:42.4   0.1                          T                                        5138722
SSF   003.15 292.7 m E Pg      2012/11/28 13:33:49.8   0.8                          T                                        5127093
SSF   003.15 292.7 m E Sg      2012/11/28 13:34:29.6   0.2                          T               15.6  .32 Ml 3.2         5126937
LOR   003.00 298.0 m E P       2012/11/28 13:33:40.3   0.0 120.5  5.3               T                                        5138723
LOR   003.00 298.0 m E Pg      2012/11/28 13:33:46.7   0.3 119.4  4.2               T                                        5127092
LOR   003.00 298.0 m E Sn      2012/11/28 13:34:11.8   0.0 134.5  19.3              T                                        5127091
LOR   003.00 298.0 m E Sg      2012/11/28 13:34:24.9   0.0 132.1  16.9              T               21.4  .30 Ml 3.3         5126939
LASF  003.33 237.6 m E Pn      2012/11/28 13:33:41.9   0.1                          T                                        5127101
LASF  003.33 237.6 m E Pg      2012/11/28 13:33:52.4   0.0                          T                                        5138705
LASF  003.33 237.6 m E Sn      2012/11/28 13:34:19.2  -0.4                          T                                        5127100
LASF  003.33 237.6 m E Sg      2012/11/28 13:34:35.1   0.1                          T                5.5  .28 Ml 2.8         5127099
AVF   003.17 287.4 m E P       2012/11/28 13:33:42.2  -0.4                          T                                        5138713
AVF   003.17 287.4 m E Pg      2012/11/28 13:33:49.9   0.5                          T                                        5127062
AVF   003.17 287.4 m E Sn      2012/11/28 13:34:15.6  -0.1                          T                                        5127061
AVF   003.17 287.4 m E Sg      2012/11/28 13:34:30.1   0.0                          T               14.7  .52 Ml 2.9         5126945
MEZF  003.17 325.4 m E P       2012/11/28 13:33:42.7   0.1                          T                                        5138718
MEZF  003.17 325.4 m E Pg      2012/11/28 13:33:49.8   0.4 147.7  4.3               T                                        5127080
MEZF  003.17 325.4 m E Sn      2012/11/28 13:34:15.7  -0.1 146.7  3.3               T                                        5127081
MEZF  003.17 325.4 m E Sg      2012/11/28 13:34:30.2   0.1 149.9  6.5               T               41.1  .33 Ml 3.6         5127078
PGF   003.49 164.7 m E Pn      2012/11/28 13:33:44.7   0.6                          T                                        5127047
PGF   003.49 164.7 m E Sn      2012/11/28 13:34:23.0  -0.6                          T                3.2  .22 Ml 2.9         5127046
BGF   003.47 282.3 m E P       2012/11/28 13:33:46.3  -0.5                          T                                        5138710
BGF   003.47 282.3 m E Sn      2012/11/28 13:34:23.2   0.4                          T                                        5127058
BGF   003.47 282.3 m E Sg      2012/11/28 13:34:39.4   0.1                          T               14.5  .36 Ml 3.1         5127059
TCF   003.87 277.4 m E Pn      2012/11/28 13:33:49.1  -0.1                          T                                        5127066
TCF   003.87 277.4 m E P       2012/11/28 13:33:52.6  -0.1                          T                                        5138721
TCF   003.87 277.4 m E Pg      2012/11/28 13:34:02.6   0.2                          T                                        5127065
TCF   003.87 277.4 m E Sn      2012/11/28 13:34:32.7   0.0                          T                                        5127064
TCF   003.87 277.4 m E Sg      2012/11/28 13:34:52.4   0.2                          T                6.8  .35 Ml 3.0         5127063
HYF   003.77 292.7 m E P       2012/11/28 13:33:51.2   0.0                          T                                        5138711
HYF   003.77 292.7 m E Sg      2012/11/28 13:34:49.0   0.0                          T                                        5127060
CAF   004.13 258.0 m E Pn      2012/11/28 13:33:52.4  -0.3                          T                                        5127053
CAF   004.13 258.0 m E P       2012/11/28 13:33:55.8  -0.5                          T                                        5138706
CAF   004.13 258.0 m E Sg      2012/11/28 13:35:00.5   0.3                          T                7.5  .38 Ml 3.0         5138700
RJF   004.42 264.2 m E Pn      2012/11/28 13:33:56.7   0.0                          T                                        5127057
RJF   004.42 264.2 m E P       2012/11/28 13:34:00.2  -0.3                          T                                        5138707
RJF   004.42 264.2 m E Pg      2012/11/28 13:34:12.6   0.1                          T                                        5127056
RJF   004.42 264.2 m E Sn      2012/11/28 13:34:45.9   0.2                          T                                        5127055
RJF   004.42 264.2 m E Sg      2012/11/28 13:35:08.8  -0.4                          T               10.6  .40 Ml 2.8         5127054
BAIF  004.77 331.4 m E Pn      2012/11/28 13:34:01.5   0.1                          T                                        5126933
BAIF  004.77 331.4 m E Sn      2012/11/28 13:34:54.3   0.2                          T                                        5127089
BAIF  004.77 331.4 m E Sg      2012/11/28 13:35:20.0  -0.1                          T               21.2  .66 Ml 3.3         5127088
MTLF  004.72 238.8 m E Pn      2012/11/28 13:34:01.7   0.9                          T                                        5127098
MTLF  004.72 238.8 m E Pg      2012/11/28 13:34:17.9  -0.1                          T                                        5127097
MTLF  004.72 238.8 m E Sn      2012/11/28 13:34:53.2   0.3                          T                                        5127096
MTLF  004.72 238.8 m E Sg      2012/11/28 13:35:18.8   0.3                          T                4.2  .55 Ml 2.7         5127095
LFF   005.04 261.2 m E Pn      2012/11/28 13:34:04.9  -0.1                          T                                        5127052
LFF   005.04 261.2 m E Sg      2012/11/28 13:35:28.8   0.5                          T               12.6  .44 Ml 3.2         5127051
MFF   005.52 279.9 m E P       2012/11/28 13:34:14.8  -1.1                          T                                        5138708
MFF   005.52 279.9 m E Sn      2012/11/28 13:35:11.2  -0.8                          T                1.3  .26 Ml 2.9         5127067
FLN   006.28 299.9 m E Pn      2012/11/28 13:34:21.9   0.0                          T                                        5138698
FLN   006.28 299.9 m E Sn      2012/11/28 13:35:30.5   0.5 124.6  10.8              T                 .7  .14 Ml 2.7         5138697
LDF   005.99 299.3 m E P       2012/11/28 13:34:22.1  -0.4                          T                                        5138709
ETSF  006.68 246.0 m E Pn      2012/11/28 13:34:28.0   0.5                          T                                        5127049
GIVF  004.62 335.9 m E Sg      2012/11/28 13:35:15.3   0.0                          T               11.7  .41 Ml 3.2         5138696
GRR   006.37 295.9 m E Sn      2012/11/28 13:35:32.6   0.4                          T               21.1  .70 Ml 3.5         5138699
EPF   006.04 244.0 m E Sg      2012/11/28 13:36:02.7   2.9                          T                1.7  .26 Ml 2.9         5127048

.
EVENT     287605
    Date      Time       Latitude Longitude    Depth    Ndef Nsta Gap    Mag1  N    Mag2  N    Mag3  N   Author         ID
       rms   OT_Error      Smajor Sminor Az        Err   mdist  Mdist     Err        Err        Err      Quality

2012/11/28 14:59:40.8     45.6045    2.8601      6.0 f    24   11 100  Ml 2.2  9  Md 2.0  3              bulletin    287705
                                                                                                         _ldg
      0.29   +-  0.06       1.4     .7  129.82 +-  0.0    0.52   2.32   +-0.2      +-0.1                 m i ke

FRANCE
Sta     Dist  EvAz     Phase      Date       Time     TRes  Azim  AzRes  Slow  SRes Def   SNR       Amp   Per   Mag1   Mag2       ID
TCF   000.82 326.7 m E Pg      2012/11/28 14:59:56.5   0.2                          T                                        5126966
TCF   000.82 326.7 m E Sg      2012/11/28 15:00:07.3   0.3                          T                4.7  .18        Md 2.0  5126965
CAF   000.88 219.9 m E Pg      2012/11/28 14:59:57.6   0.1                          T                                        5126981
CAF   000.88 219.9 m E Sg      2012/11/28 15:00:08.3  -0.7                          T                5.9  .17 Ml 2.3         5126982
BGF   000.95 359.4 m E Pg      2012/11/28 14:59:58.8   0.1                          T                                        5126968
BGF   000.95 359.4 m E Sg      2012/11/28 15:00:11.0  -0.1                          T               14.4  .30 Ml 2.5 Md 1.9  5126978
RJF   000.99 252.9 m E Pg      2012/11/28 14:59:59.5   0.0                          T                                        5126969
RJF   000.99 252.9 m E Sn      2012/11/28 15:00:13.3   0.2                          T                4.8  .18 Ml 1.9         5126979
SMF   001.24 032.9 m E Pn      2012/11/28 15:00:03.3   0.1                          T                                        5126976
SMF   001.24 032.9 m E Pg      2012/11/28 15:00:04.3   0.1                          T                                        5138736
SMF   001.24 032.9 m E Sg      2012/11/28 15:00:19.9  -0.3                          T                4.5  .24 Ml 2.2         5126977
AVF   001.23 015.9 m E Pg      2012/11/28 15:00:03.7  -0.1                          T                                        5126967
AVF   001.23 015.9 m E Sg      2012/11/28 15:00:19.3  -0.6                          T                2.2  .16 Ml 2.1         5126964
VIVF  001.48 119.7 m E Pn      2012/11/28 15:00:07.4   1.0                          T                                        5126970
VIVF  001.48 119.7 m E Sn      2012/11/28 15:00:25.0   0.1                          T                                        5126980
SSF   001.52 016.8 m E Pg      2012/11/28 15:00:09.1  -0.1                          T                                        5138728
SSF   001.52 016.8 m E Sg      2012/11/28 15:00:29.0   0.1                          T                2.4  .20 Ml 2.2         5126974
LFF   001.64 246.8 m E Pg      2012/11/28 15:00:11.3   0.0                          T                                        5138733
LFF   001.64 246.8 m E Sg      2012/11/28 15:00:32.4   0.0                          T                2.2  .15 Ml 2.1         5138734
LOR   001.80 022.2 m E Pg      2012/11/28 15:00:14.6   0.2 205.7  2.8               T                                        5138727
LOR   001.80 022.2 m E Sg      2012/11/28 15:00:37.6   0.0 202.3  -0.6              T                3.1  .24 Ml 2.3         5126973
MFF   002.32 296.6 m E Pn      2012/11/28 15:00:17.5  -0.2                          T                                        5126971
MFF   002.32 296.6 m E Pg      2012/11/28 15:00:23.9   0.0                          T                                        5138735
MFF   002.32 296.6 m E Sg      2012/11/28 15:00:53.9   0.2                          T                2.2  .22 Ml 2.4         5126972

.
