BEGIN GSE2.0
MSG_TYPE DATA
MSG_ID 06-FEB-1215:15:59  FRA_NDC
E-MAIL
DATA_TYPE BULLETIN
Reviewed Bulletin (REB) # P2012-004  from French NDC for regional phases     PERIOD 25 JAN 2012 TO 31 JAN 2012 S M., J-P S.
EVENT     269073
    Date      Time       Latitude Longitude    Depth    Ndef Nsta Gap    Mag1  N    Mag2  N    Mag3  N   Author         ID
       rms   OT_Error      Smajor Sminor Az        Err   mdist  Mdist     Err        Err        Err      Quality

2012/01/25 06:15:50.1     45.5445   10.9808     16.9      41   10 095  Ml 2.5  6                         js067245    269093

      0.24   +-  0.06       1.3     .9  165.01 +-  0.5    0.30   5.44   +-0.2                            m i ke

NORTHERN ITALY
Sta     Dist  EvAz     Phase      Date       Time     TRes  Azim  AzRes  Slow  SRes Def   SNR       Amp   Per   Mag1   Mag2       ID
LPL   002.99 271.0 m E Pn      2012/01/25 06:16:35.2   0.0                          T                                        4825270
LPL   002.99 271.0 m E P       2012/01/25 06:16:38.4   0.2                          T                                        4825269
LPL   002.99 271.0 m E Pg      2012/01/25 06:16:45.7  -0.1                          T                                        4825268
LPL   002.99 271.0 m E Sn      2012/01/25 06:17:08.8   0.4                          T                                        4825250
LPL   002.99 271.0 m E Sg      2012/01/25 06:17:24.1  -0.1                          T                4.1  .28 Ml 2.6         4825251
MBDF  003.09 256.1 m E Pn      2012/01/25 06:16:36.2  -0.3                          T                                        4825265
MBDF  003.09 256.1 m E P       2012/01/25 06:16:39.6   0.0                          T                                        4825264
MBDF  003.09 256.1 m E Pg      2012/01/25 06:16:47.6   0.0                          T                                        4825263
LPG   002.97 270.6 m E P       2012/01/25 06:16:38.2   0.1                          T                                        4825272
LPG   002.97 270.6 m E Pg      2012/01/25 06:16:45.7   0.0                          T                                        4825271
LPG   002.97 270.6 m E Sn      2012/01/25 06:17:08.1  -0.1                          T                                        4825248
LPG   002.97 270.6 m E Sg      2012/01/25 06:17:23.9   0.0                          T                3.2  .30 Ml 2.5         4825249
PGF   003.32 206.2 m E Pn      2012/01/25 06:16:39.6   0.0                          T                                        4825267
CABF  003.57 289.1 m E Pn      2012/01/25 06:16:42.7  -0.3                          T                                        4825259
CABF  003.57 289.1 m E P       2012/01/25 06:16:46.4   0.1                          T                                        4825258
CABF  003.57 289.1 m E Pg      2012/01/25 06:16:56.4   0.0                          T                                        4825257
SBF   003.04 237.6 m E Pg      2012/01/25 06:16:46.4  -0.1                          T                                        4825266
SBF   003.04 237.6 m E Sn      2012/01/25 06:17:09.8   0.3                          T                                        4825246
SBF   003.04 237.6 m E Sg      2012/01/25 06:17:25.6   0.1                          T                4.2  .31 Ml 2.6         4825247
HINF  003.64 310.1 m E P       2012/01/25 06:16:47.1  -0.1                          T                                        4825255
HINF  003.64 310.1 m E Sn      2012/01/25 06:17:24.4   0.6                          T                1.2  .16 Ml 2.4         4825254
HAU   004.02 309.4 m E Pn      2012/01/25 06:16:49.1   0.0                          T                                        4825256
HAU   004.02 309.4 m E Sn      2012/01/25 06:17:32.7  -0.3                          T                2.5  .34 Ml 2.3         4825253
SMF   005.09 285.0 m E Pn      2012/01/25 06:17:03.5   0.0                          T                                        4825262
SMF   005.09 285.0 m E Sn      2012/01/25 06:17:59.3   0.9                          T                1.8  .24 Ml 2.8         4825252
AVF   005.44 286.0 m E Pn      2012/01/25 06:17:08.0  -0.3                          T                                        4825261
AVF   005.44 286.0 m E P       2012/01/25 06:17:12.6  -0.1                          T                                        4825260

.
EVENT     269075
    Date      Time       Latitude Longitude    Depth    Ndef Nsta Gap    Mag1  N    Mag2  N    Mag3  N   Author         ID
       rms   OT_Error      Smajor Sminor Az        Err   mdist  Mdist     Err        Err        Err      Quality

2012/01/25 07:26:36.4     45.5367   10.9405     10.0 f    56   20 160  Ml 3.0 12                         js067245    269095

      0.44   +-  0.13       2.8    1.8  105.80 +-  0.0    0.28   6.14   +-0.2                            m i ke

NORTHERN ITALY
Sta     Dist  EvAz     Phase      Date       Time     TRes  Azim  AzRes  Slow  SRes Def   SNR       Amp   Per   Mag1   Mag2       ID
LPG   002.95 270.7 m E Pn      2012/01/25 07:27:21.4  -0.4                          T                                        4825294
LPG   002.95 270.7 m E P       2012/01/25 07:27:24.5  -0.2                          T                                        4825295
LPG   002.95 270.7 m E Sn      2012/01/25 07:27:54.8  -0.3                          T                                        4825283
LPG   002.95 270.7 m E Sg      2012/01/25 07:28:08.5  -0.8                          T               11.3  .30 Ml 3.0         4825284
LPL   002.96 271.1 m E Pn      2012/01/25 07:27:21.4  -0.5                          T                                        4825296
LPL   002.96 271.1 m E Pg      2012/01/25 07:27:31.0  -0.6                          T                                        4825297
LPL   002.96 271.1 m E Sn      2012/01/25 07:27:54.7  -0.6                          T                                        4825281
LPL   002.96 271.1 m E Sg      2012/01/25 07:28:09.6   0.0                          T               14.0  .34 Ml 3.0         4825282
MBDF  003.06 256.1 m E Pn      2012/01/25 07:27:23.0  -0.2                          T                                        4825299
MBDF  003.06 256.1 m E P       2012/01/25 07:27:25.8  -0.4                          T                                        4825300
MBDF  003.06 256.1 m E Sn      2012/01/25 07:27:57.8   0.2                          T                                        4825278
MBDF  003.06 256.1 m E Sg      2012/01/25 07:28:12.6  -0.1                          T                8.9  .32 Ml 2.9         4825279
SBF   003.01 237.4 m E P       2012/01/25 07:27:25.2  -0.2                          T                                        4825293
SBF   003.01 237.4 m E Sn      2012/01/25 07:27:56.1  -0.2                          T                                        4825286
SBF   003.01 237.4 m E Sg      2012/01/25 07:28:10.9   0.0                          T               24.2  .24 Ml 3.4         4825287
PGF   003.30 205.8 m E Pn      2012/01/25 07:27:26.5   0.1                          T                                        4825291
PGF   003.30 205.8 m E P       2012/01/25 07:27:29.5  -0.1                          T                                        4825292
PGF   003.30 205.8 m E Sn      2012/01/25 07:28:03.8   0.5                          T                3.2  .33 Ml 2.7         4825288
ORIF  003.63 262.0 m E Pn      2012/01/25 07:27:30.6  -0.3                          T                                        4825298
ORIF  003.63 262.0 m E Sn      2012/01/25 07:28:11.1  -0.1                          T                8.7  .48 Ml 2.8         4825280
CABF  003.54 289.4 m E Pn      2012/01/25 07:27:30.6   0.9                          T                                        4825307
HINF  003.62 310.5 m E Pn      2012/01/25 07:27:30.9   0.2                          T                                        4825308
HINF  003.62 310.5 m E Sn      2012/01/25 07:28:10.9  -0.1                          T                4.3  .25 Ml 2.8         4825274
FRF   003.65 238.8 m E P       2012/01/25 07:27:34.3  -0.1                          T                                        4825289
FRF   003.65 238.8 m E Sn      2012/01/25 07:28:11.7   0.2                          T                9.2  .40 Ml 3.0         4825285
HAU   004.01 309.7 m E Pn      2012/01/25 07:27:36.7   0.7                          T                                        4825309
LMR   003.86 236.8 m E P       2012/01/25 07:27:37.2  -0.2                          T                                        4825290
THEF  004.33 310.2 m E Pn      2012/01/25 07:27:41.3   0.9                          T                                        4825310
VIVF  004.48 263.5 m E Pn      2012/01/25 07:27:42.8   0.4                          T                                        4825301
VIVF  004.48 263.5 m E Sn      2012/01/25 07:28:31.4  -0.2                          T                3.2  .29 Ml 2.8         4825277
SMF   005.06 285.2 m E Pn      2012/01/25 07:27:50.9   0.6                          T                                        4825305
SMF   005.06 285.2 m E Sn      2012/01/25 07:28:45.3   0.0                          T                4.9  .22 Ml 3.2         4825276
LASF  005.25 256.4 m E Pn      2012/01/25 07:27:52.7  -0.1                          T                                        4825302
LOR   005.20 292.0 m E Pn      2012/01/25 07:27:52.8   0.7                          T                                        4825313
LOR   005.20 292.0 m E Sn      2012/01/25 07:28:48.2  -0.3                          T                2.7  .24 Ml 3.0         4825273
SSF   005.37 289.1 m E Pn      2012/01/25 07:27:55.2   0.7                          T                                        4825312
AVF   005.42 286.1 m E Pn      2012/01/25 07:27:55.8   0.7                          T                                        4825306
BGF   005.73 283.2 m E Pn      2012/01/25 07:27:59.7   0.4                          T                                        4825304
BGF   005.73 283.2 m E Sn      2012/01/25 07:29:00.9  -0.3                          T                3.8  .25 Ml 3.2         4825275
TCF   006.14 280.1 m E Pn      2012/01/25 07:28:06.1   1.1                          T                                        4825311

.
EVENT     269083
    Date      Time       Latitude Longitude    Depth    Ndef Nsta Gap    Mag1  N    Mag2  N    Mag3  N   Author         ID
       rms   OT_Error      Smajor Sminor Az        Err   mdist  Mdist     Err        Err        Err      Quality

2012/01/25 08:06:38.6     44.8700   10.5060 f   20.0 f   107   39 036  Ml 5.4 28                         bulletin    269103
                                                                                                         _ldg
      1.15   +-  0.16    9999.9 9999.9   99.90 +-  0.0    0.17  95.42   +-0.3                            m i ke

NORTHERN ITALY
Sta     Dist  EvAz     Phase      Date       Time     TRes  Azim  AzRes  Slow  SRes Def   SNR       Amp   Per   Mag1   Mag2       ID
SBF   002.42 246.5 m E Pn      2012/01/25 08:07:15.8   0.4                          T   001.0                                4820925
SBF   002.42 246.5 m E Sn      2012/01/25 08:07:45.9   3.2                          T            18576.7  .38 Ml 6.0         4825332
PGF   002.57 205.7 m E Pn      2012/01/25 08:07:17.8   0.3                          T   001.0                                4820924
PGF   002.57 205.7 m E Sn      2012/01/25 08:07:47.9   1.7                          T             4611.3  .33 Ml 5.7         4825333
MBDF  002.66 268.2 m E Pn      2012/01/25 08:07:18.1  -0.7                          T   001.0                                4820937
MBDF  002.66 268.2 m E Sn      2012/01/25 08:07:51.2   2.7                          T   001.0     7455.1  .48 Ml 5.5         4820938
LPG   002.73 284.6 m E Pn      2012/01/25 08:07:19.1  -0.8                          T   001.0                                4820922
LPL   002.75 284.9 m E Pn      2012/01/25 08:07:19.5  -0.5                          T   001.0                                4820923
FRF   003.07 246.1 m E Pn      2012/01/25 08:07:24.6   0.4                          T   001.0                                4820911
FRF   003.07 246.1 m E Sn      2012/01/25 08:08:00.2   2.2                          T   001.0     7295.1  .56 Ml 5.6         4820912
LMR   003.26 243.3 m E Pn      2012/01/25 08:07:27.2   0.4                          T   001.0                                4820919
LMR   003.26 243.3 m E Sn      2012/01/25 08:08:03.3   0.6                          T   001.0     4554.3  .48 Ml 5.5         4820920
ORIF  003.29 272.5 m E Pn      2012/01/25 08:07:28.5   1.2                          T   001.0                                4820944
ORIF  003.29 272.5 m E Sn      2012/01/25 08:08:09.3   5.8                          T            10550.3  .70 Ml 5.7         4825331
CABF  003.55 300.9 m E Pn      2012/01/25 08:07:31.4   0.6                          T   001.0                                4820932
SMRF  003.64 257.5 m E Pn      2012/01/25 08:07:32.9   0.8                          T   001.0                                4820943
HINF  003.88 320.7 m E Pn      2012/01/25 08:07:34.9  -0.4                          T   001.0                                4820935
HINF  003.88 320.7 m E Sn      2012/01/25 08:08:18.0   0.4                          T                                        4825328
HINF  003.88 320.7 m E Sg      2012/01/25 08:08:41.9   1.4                          T   001.0     3812.8  .64 Ml 5.4         4820936
VIVF  004.15 271.9 m E Pn      2012/01/25 08:07:38.9   0.0                          T   001.0                                4820950
VIVF  004.15 271.9 m E Sn      2012/01/25 08:08:24.3   0.4                          T   001.0     1588.7  .60 Ml 5.1         4820942
HAU   004.25 319.0 m E Pn      2012/01/25 08:07:40.2  -0.1                          T   001.0                                4820914
HAU   004.25 319.0 m E Sn      2012/01/25 08:08:26.9   0.5                          T             2895.4  .36 Ml 5.4         4825326
HAU   004.25 319.0 m E Sg      2012/01/25 08:08:53.6   1.5                          T             1791.7  .31 Ml 5.2         4825327
LASF  004.82 262.9 m E Pn      2012/01/25 08:07:47.9  -0.2                          T   001.0                                4820915
LASF  004.82 262.9 m E Sn      2012/01/25 08:08:42.4   2.4                          T   001.0     1636.7  .60 Ml 5.3         4820916
PAGF  004.94 320.0 m E Pn      2012/01/25 08:07:49.9   0.3                          T                                        4825347
SMF   004.99 293.2 m E Pn      2012/01/25 08:07:50.6   0.3                          T   001.0                                4820926
SMF   004.99 293.2 m E Sn      2012/01/25 08:08:46.9   2.9                          T   001.0     1982.2  .52 Ml 5.5         4820927
SFTF  005.04 313.4 m E Pn      2012/01/25 08:07:51.3   0.3                          T                                        4825346
SFTF  005.04 313.4 m E Sn      2012/01/25 08:08:46.5   1.5                          T                                        4825324
SFTF  005.04 313.4 m E Sg      2012/01/25 08:09:17.8   1.4                          T             3267.1  .60 Ml 5.6         4825325
LOR   005.21 299.8 m E Pn      2012/01/25 08:07:53.7   0.3                          T   001.0                                4820921
LOR   005.21 299.8 m E Sn      2012/01/25 08:08:50.5   1.2                          T             1820.1  .46 Ml 5.5         4825321
MEZF  005.22 316.0 m E Pn      2012/01/25 08:07:54.0   0.5                          T   001.0                                4820939
MEZF  005.22 316.0 m E Sg      2012/01/25 08:09:24.5   2.3                          T             2671.5  .62 Ml 5.6         4825323
AVF   005.36 293.5 m E Pn      2012/01/25 08:07:55.3   0.0                          T   001.0                                4820905
SSF   005.35 296.7 m E Pn      2012/01/25 08:07:55.5   0.3                          T   001.0                                4820928
SSF   005.35 296.7 m E Sn      2012/01/25 08:08:53.8   1.2                          T             1905.8  .48 Ml 5.6         4825322
BGF   005.62 290.2 m E Pn      2012/01/25 08:07:59.1   0.2                          T   001.0                                4820906
TCF   005.99 286.6 m E Pn      2012/01/25 08:08:03.7  -0.3                          T   001.0                                4820929
TCF   005.99 286.6 m E Sn      2012/01/25 08:09:09.5   1.5                          T   001.0     1117.6  .60 Ml 5.4         4820930
CAF   006.00 273.5 m E Pn      2012/01/25 08:08:04.1   0.0                          T   001.0                                4820907
CAF   006.00 273.5 m E Sn      2012/01/25 08:09:10.0   2.9                          T   001.0      511.4  .60 Ml 5.0         4820908
MTLF  006.16 258.5 m E Pn      2012/01/25 08:08:06.5   0.2                          T   001.0                                4820940
MTLF  006.16 258.5 m E Sn      2012/01/25 08:09:13.5   1.6                          T   001.0      297.5  .40 Ml 5.0         4820941
RJF   006.38 277.1 m E Pn      2012/01/25 08:08:09.3   0.0                          T   001.0                                4820903
RJF   006.38 277.1 m E Sn      2012/01/25 08:09:17.5   0.3                          T   001.0      403.1  .60 Ml 4.7         4820904
GIVF  006.50 325.7 m E Pn      2012/01/25 08:08:11.1   0.2                          T   001.0                                4820933
GIVF  006.50 325.7 m E Sg      2012/01/25 08:10:01.8  -0.2                          T   001.0      756.4  .60 Ml 5.3         4820934
BAIF  006.72 322.8 m E Pn      2012/01/25 08:08:14.4   0.5                          T   001.0                                4820931
LFF   006.94 274.0 m E Pn      2012/01/25 08:08:17.2   0.4                          T   001.0                                4820918
EPF   007.56 259.5 m E Pn      2012/01/25 08:08:25.1  -0.4                          T   001.0                                4820909
LDF   008.20 300.8 m E Pn      2012/01/25 08:08:33.3  -0.7                          T   001.0                                4820917
FLN   008.48 301.2 m E Pn      2012/01/25 08:08:37.1  -0.8                          T   001.0                                4820910
ETSF  008.23 260.0 m E Pn      2012/01/25 08:08:37.3   2.7                          T                                        4825344
ETSF  008.23 260.0 m E Sn      2012/01/25 08:10:09.9   8.4                          T              242.3  .52 Ml 5.1         4825330
GRR   008.58 298.3 m E Pn      2012/01/25 08:08:38.2  -0.9                          T   001.0                                4820913
SJPF  008.64 262.4 m E Pn      2012/01/25 08:08:39.6  -0.4                          T   001.0                                4820949
SGMF  009.61 295.2 m E Pn      2012/01/25 08:08:54.4   1.1                          T   001.0                                4820947
SGMF  009.61 295.2 m E Sn      2012/01/25 08:10:36.3   1.9                          T   001.0        140  .48 Ml 5.1         4820948
ROSF  010.10 295.0 m E Pn      2012/01/25 08:08:58.6  -1.3                          T   001.0                                4820945
ROSF  010.10 295.0 m E Sn      2012/01/25 08:10:47.3   1.3                          T   001.0      163.2  .56 Ml 5.2         4820946
HYF   005.98 296.4 m E Sn      2012/01/25 08:09:09.0   1.5                          T                                        4825329
LIC   040.81 204.0 m E P       2012/01/25 08:14:19.4  -1.0                          T               32.8  .63                4825343

.
