EVENT     278115
    Date      Time       Latitude Longitude    Depth    Ndef Nsta Gap    Mag1  N    Mag2  N    Mag3  N   Author         ID
       rms   OT_Error      Smajor Sminor Az        Err   mdist  Mdist     Err        Err        Err      Quality

2012/06/14 06:53:45.4     47.8104    5.8835       .0 f    20   11 084  Ml 2.3  6  Md 2.3  2              bulletin    278215
                                                                                                         _ldg
      0.92   +-  0.08       1.8    1.3  149.51 +-  0.0    0.37   2.00   +-0.3      +-0.1                 m i km

FRANCE
Sta     Dist  EvAz     Phase      Date       Time     TRes  Azim  AzRes  Slow  SRes Def   SNR       Amp   Per   Mag1   Mag2       ID
HAU   000.37 057.8 m E Pg      2012/06/14 06:53:52.8   0.0                          T                                        5001124
HAU   000.37 057.8 m E Sg      2012/06/14 06:53:57.4  -0.4                          T               94.2  .76        Md 2.3  5001123
THEF  000.42 010.0 m E Pg      2012/06/14 06:53:53.6  -0.2                          T                                        5001121
THEF  000.42 010.0 m E Sg      2012/06/14 06:53:59.4  -0.2                          T               74.8  .64        Md 2.4  5001122
HINF  000.65 089.1 m E Pg      2012/06/14 06:53:58.1   0.0                          T                                        5001120
HINF  000.65 089.1 m E Sg      2012/06/14 06:54:06.6  -0.1                          T                                        5019528
HINF  000.65 089.1 m E Sn      2012/06/14 06:54:11.3   0.2                          T               43.2 1.00                5001119
SFTF  000.69 305.1 m E Pg      2012/06/14 06:53:58.8   0.1 124.4  -0.1              T                                        5001115
SFTF  000.69 305.1 m E Sg      2012/06/14 06:54:08.0   0.0 119.3  -5.2              T               17.2  .48                5001114
PAGF  000.75 352.0 m E Pg      2012/06/14 06:54:00.4   0.6 179.4  7.5               T                                        5001118
PAGF  000.75 352.0 m E Sn      2012/06/14 06:54:13.1  -0.3 167.7  -4.1              T               36.1  .48                5019529
CDF   001.11 056.7 m E Pg      2012/06/14 06:54:06.3  -0.2                          T                                        5001117
CDF   001.11 056.7 m E Sg      2012/06/14 06:54:20.9  -0.2                          T               12.4  .58 Ml 2.3         5019530
CABF  001.21 173.3 m E Pg      2012/06/14 06:54:08.4   0.1                          T                                        5001116
CABF  001.21 173.3 m E Sg      2012/06/14 06:54:24.6   0.5                          T               18.9  .57 Ml 2.4         5019527
LOR   001.48 249.2 m E Pg      2012/06/14 06:54:12.8  -0.3  69.6  1.9               T                                        5019533
LOR   001.48 249.2 m E Sg      2012/06/14 06:54:32.6   0.3  75.5  7.9               T                7.3  .36 Ml 2.3         5019532
SSF   001.78 246.0 m E Sg      2012/06/14 06:54:41.7  -0.2                          T                9.1  .60 Ml 2.4         5019531
SMF   001.82 230.8 m E Sg      2012/06/14 06:54:43.3   0.3                          T               12.8  .48 Ml 2.6         5019526
AVF   002.00 240.3 m E Sg      2012/06/14 06:54:48.4  -0.4                          T                1.3  .30 Ml 1.8         5019525

.
EVENT     278120
    Date      Time       Latitude Longitude    Depth    Ndef Nsta Gap    Mag1  N    Mag2  N    Mag3  N   Author         ID
       rms   OT_Error      Smajor Sminor Az        Err   mdist  Mdist     Err        Err        Err      Quality

2012/06/14 07:03:24.2     43.5462    6.5529       .0 f    18    5 110  Ml 2.1  1  Md 2.1  2              bulletin    278220
                                                                                                         _ldg
      0.30   +-  0.13       3.1    1.9  179.93 +-  0.0    0.07   1.19   +-         +-0.0                 m i km

NEAR SOUTH COAST OF FRANCE
Sta     Dist  EvAz     Phase      Date       Time     TRes  Azim  AzRes  Slow  SRes Def   SNR       Amp   Per   Mag1   Mag2       ID
FRF   000.07 078.0 m E Pg      2012/06/14 07:03:25.7  -0.2                          T                                        5001218
FRF   000.07 078.0 m E Sg      2012/06/14 07:03:26.8  -0.4                          T              289.1  .34        Md 2.1  5001217
LMR   000.21 188.5 m E Pg      2012/06/14 07:03:28.5  -0.2                          T                                        5001216
LMR   000.21 188.5 m E Sg      2012/06/14 07:03:31.8  -0.1                          T               68.7  .82        Md 2.0  5001214
SBF   000.71 063.4 m E Pg      2012/06/14 07:03:38.1   0.0                          T                                        5019548
SBF   000.71 063.4 m E P       2012/06/14 07:03:39.3  -0.1                          T                                        5001215
SBF   000.71 063.4 m E Sg      2012/06/14 07:03:47.6   0.0                          T                7.5  .15                5001213
SMRF  000.83 301.6 m E Pg      2012/06/14 07:03:40.0  -0.1                          T                                        5019545
SMRF  000.83 301.6 m E Pn      2012/06/14 07:03:41.7  -0.1                          T                                        5019546
SMRF  000.83 301.6 m E Sg      2012/06/14 07:03:51.3   0.2                          T                3.6  .30                5019547
MBDF  001.19 007.5 m E Pg      2012/06/14 07:03:46.9  -0.1                          T                                        5019543
MBDF  001.19 007.5 m E Sg      2012/06/14 07:04:02.6   0.1                          T                7.2  .41 Ml 2.1         5019544

.
EVENT     278121
    Date      Time       Latitude Longitude    Depth    Ndef Nsta Gap    Mag1  N    Mag2  N    Mag3  N   Author         ID
       rms   OT_Error      Smajor Sminor Az        Err   mdist  Mdist     Err        Err        Err      Quality

2012/06/14 07:09:38.3     43.3730    6.3540       .0 f    16    5 203  Ml 2.1  2  Md 1.9  3              bulletin    278221
                                                                                                         _ldg
      0.20   +-  0.13       2.6    1.5   22.62 +-  0.0    0.12   1.39   +-0.2      +-0.4                 m i km

NEAR SOUTH COAST OF FRANCE
Sta     Dist  EvAz     Phase      Date       Time     TRes  Azim  AzRes  Slow  SRes Def   SNR       Amp   Per   Mag1   Mag2       ID
LMR   000.12 109.0 m E Pg      2012/06/14 07:09:40.9  -0.1                          T                                        5001299
LMR   000.12 109.0 m E Sg      2012/06/14 07:09:43.2   0.2                          T              186.4  .62        Md 2.2  5001298
FRF   000.28 048.5 m E Pg      2012/06/14 07:09:44.2   0.0                          T                                        5001294
FRF   000.28 048.5 m E Sg      2012/06/14 07:09:48.3   0.1                          T               27.2  .45        Md 1.5  5001295
SMRF  000.83 317.1 m E Pg      2012/06/14 07:09:54.2   0.0                          T                                        5019557
SMRF  000.83 317.1 m E Pn      2012/06/14 07:09:55.7  -0.1                          T                                        5001293
SMRF  000.83 317.1 m E Sg      2012/06/14 07:10:05.2   0.1                          T                4.8  .52                5019558
SBF   000.93 057.7 m E Pg      2012/06/14 07:09:55.8  -0.2                          T                                        5019559
SBF   000.93 057.7 m E Pn      2012/06/14 07:09:57.3   0.1                          T                                        5001297
SBF   000.93 057.7 m E Sg      2012/06/14 07:10:08.0  -0.2                          T               13.5  .46 Ml 2.3 Md 1.8  5001296
MBDF  001.39 012.4 m E Pg      2012/06/14 07:10:04.7   0.1                          T                                        5019555
MBDF  001.39 012.4 m E Sg      2012/06/14 07:10:23.0   0.3                          T                2.1  .24 Ml 1.9         5019556

.
EVENT     278122
    Date      Time       Latitude Longitude    Depth    Ndef Nsta Gap    Mag1  N    Mag2  N    Mag3  N   Author         ID
       rms   OT_Error      Smajor Sminor Az        Err   mdist  Mdist     Err        Err        Err      Quality

2012/06/14 07:29:24.8     43.5075    6.5963       .0 f    19    6 133  Ml 2.0  3  Md 2.0  2              bulletin    278222
                                                                                                         _ldg
      0.23   +-  0.07       1.8    1.3  149.01 +-  0.0    0.06   1.50   +-0.1      +-0.0                 m i km

NEAR SOUTH COAST OF FRANCE
Sta     Dist  EvAz     Phase      Date       Time     TRes  Azim  AzRes  Slow  SRes Def   SNR       Amp   Per   Mag1   Mag2       ID
FRF   000.06 034.6 m E Pg      2012/06/14 07:29:26.0  -0.4                          T                                        5001321
FRF   000.06 034.6 m E Sg      2012/06/14 07:29:27.3  -0.2                          T              342.1  .20        Md 2.0  5001318
LMR   000.18 200.1 m E Pg      2012/06/14 07:29:28.7   0.0                          T                                        5001320
LMR   000.18 200.1 m E Sg      2012/06/14 07:29:31.8   0.3                          T               76.0  .54        Md 2.0  5001317
SBF   000.70 059.4 m E Pg      2012/06/14 07:29:38.6   0.1                          T                                        5019564
SBF   000.70 059.4 m E Pn      2012/06/14 07:29:40.6  -0.1                          T                                        5001319
SBF   000.70 059.4 m E Sg      2012/06/14 07:29:48.0   0.1                          T                                        5019565
SBF   000.70 059.4 m E Sn      2012/06/14 07:29:51.7  -0.1                          T               17.4  .20                5001316
SMRF  000.88 302.7 m E Pn      2012/06/14 07:29:42.7  -0.3                          T                                        5019568
SMRF  000.88 302.7 m E Sg      2012/06/14 07:29:53.0  -0.2                          T                                        5019569
SMRF  000.88 302.7 m E Sn      2012/06/14 07:29:56.2   0.3                          T                4.9  .26 Ml 2.0         5019570
MBDF  001.23 005.8 m E Sg      2012/06/14 07:30:04.5   0.3                          T                4.2  .40 Ml 1.9         5019566
ORIF  001.50 340.2 m E Sg      2012/06/14 07:30:12.8   0.1                          T                4.0  .36 Ml 2.1         5019567

.
EVENT     278187
    Date      Time       Latitude Longitude    Depth    Ndef Nsta Gap    Mag1  N    Mag2  N    Mag3  N   Author         ID
       rms   OT_Error      Smajor Sminor Az        Err   mdist  Mdist     Err        Err        Err      Quality

2012/06/14 08:22:51.4     42.7452    2.7835       .0 f     6    4 134  Ml 1.8  3  Md 1.9  1              bulletin    278287
                                                                                                         _ldg
      0.19   +-  0.08       2.0    1.2   75.55 +-  0.0    0.26   2.46   +-0.1      +-                    m i km

PYRENEES
Sta     Dist  EvAz     Phase      Date       Time     TRes  Azim  AzRes  Slow  SRes Def   SNR       Amp   Per   Mag1   Mag2       ID
MTLF  000.73 325.3 m E Pg      2012/06/14 08:23:05.5   0.1                          T                                        5019576
MTLF  000.73 325.3 m E Pn      2012/06/14 08:23:07.6   0.1                          T                                        5019577
MTLF  000.73 325.3 m E Sn      2012/06/14 08:23:18.9   0.1                          T                1.8  .25        Md 1.9  5019578
LASF  001.54 030.1 m E Sg      2012/06/14 08:23:40.4  -0.2                          T                1.3  .30 Ml 1.7         5019583
EPF   001.82 279.8 m E Sg      2012/06/14 08:23:48.8  -0.3                          T                1.4  .29 Ml 1.9         5019585
ETSF  002.46 274.7 m E Sn      2012/06/14 08:23:59.1  -1.3                          T                1.8  .43 Ml 1.9         5019584

.
EVENT     278125
    Date      Time       Latitude Longitude    Depth    Ndef Nsta Gap    Mag1  N    Mag2  N    Mag3  N   Author         ID
       rms   OT_Error      Smajor Sminor Az        Err   mdist  Mdist     Err        Err        Err      Quality

2012/06/14 10:20:51.2     46.6494    4.5086       .0 f    44   18 059  Ml 2.2 11  Md 2.3  2              bulletin    278225
                                                                                                         _ldg
      0.64   +-  0.04        .8     .8  163.16 +-  0.0    0.46   3.42   +-0.2      +-0.1                 m i km

FRANCE
Sta     Dist  EvAz     Phase      Date       Time     TRes  Azim  AzRes  Slow  SRes Def   SNR       Amp   Per   Mag1   Mag2       ID
SMF   000.46 269.7 m E Pg      2012/06/14 10:21:00.3   0.0                          T                                        5001624
SMF   000.46 269.7 m E Sg      2012/06/14 10:21:06.5  -0.1                          T               13.3  .18        Md 2.2  5001615
LOR   000.76 324.5 m E Pg      2012/06/14 10:21:05.9   0.1 146.8  2.8               T                                        5019833
LOR   000.76 324.5 m E Pn      2012/06/14 10:21:07.8   0.0 149.6  5.6               T                                        5019834
LOR   000.76 324.5 m E Sg      2012/06/14 10:21:15.9  -0.1 153.8  9.7               T                                        5019863
LOR   000.76 324.5 m E Sn      2012/06/14 10:21:19.1  -0.4 151.1  7.0               T               21.4  .22                5019835
SSF   000.80 301.3 m E Pg      2012/06/14 10:21:06.7   0.1                          T                                        5019832
SSF   000.80 301.3 m E Pn      2012/06/14 10:21:08.3   0.0                          T                                        5001620
SSF   000.80 301.3 m E Sg      2012/06/14 10:21:17.2   0.0                          T                                        5019862
SSF   000.80 301.3 m E Sn      2012/06/14 10:21:20.5   0.1                          T               19.7  .26                5001621
AVF   000.81 280.5 m E Pg      2012/06/14 10:21:06.8   0.1                          T                                        5019831
AVF   000.81 280.5 m E P       2012/06/14 10:21:08.2  -0.1                          T                                        5001623
AVF   000.81 280.5 m E Sg      2012/06/14 10:21:17.2  -0.1                          T                                        5019859
AVF   000.81 280.5 m E Sn      2012/06/14 10:21:20.6   0.1                          T               10.7  .18        Md 2.4  5001616
CABF  001.09 091.4 m E Pn      2012/06/14 10:21:12.4   0.0                          T                                        5001618
CABF  001.09 091.4 m E Sg      2012/06/14 10:21:26.4   0.1                          T                2.5  .20 Ml 2.0         5001617
BGF   001.15 266.0 m E Pg      2012/06/14 10:21:13.2   0.2                          T                                        5001622
BGF   001.15 266.0 m E Sg      2012/06/14 10:21:28.0  -0.1                          T               11.3  .22 Ml 2.6         5001614
TCF   001.63 258.0 m E Pn      2012/06/14 10:21:19.7   0.1                          T                                        5001619
TCF   001.63 258.0 m E Pg      2012/06/14 10:21:21.9   0.0                          T                                        5019864
TCF   001.63 258.0 m E Sg      2012/06/14 10:21:43.1   0.0                          T                2.4  .24 Ml 2.1         5019861
SFTF  001.60 012.8 m E Pg      2012/06/14 10:21:21.0  -0.2                          T                                        5019865
SFTF  001.60 012.8 m E Sg      2012/06/14 10:21:42.2   0.1                          T                9.6  .37 Ml 2.5         5001612
VIVF  001.80 176.3 m E Pn      2012/06/14 10:21:21.8  -0.1                          T                                        5001607
VIVF  001.80 176.3 m E Pg      2012/06/14 10:21:25.0   0.1                          T                                        5019871
VIVF  001.80 176.3 m E Sg      2012/06/14 10:21:48.1  -0.2                          T                3.6  .24 Ml 2.3         5001606
HAU   001.85 042.0 m E Pn      2012/06/14 10:21:22.5  -0.1                          T                                        5019867
HAU   001.85 042.0 m E Pg      2012/06/14 10:21:26.0   0.2                          T                                        5019866
HAU   001.85 042.0 m E Sg      2012/06/14 10:21:50.3   0.4                          T                5.8  .38 Ml 2.1         5019860
HINF  001.98 053.0 m E Pn      2012/06/14 10:21:23.8  -0.6                          T                                        5001611
HINF  001.98 053.0 m E Pg      2012/06/14 10:21:28.2  -0.1                          T                                        5019868
HINF  001.98 053.0 m E Sg      2012/06/14 10:21:54.0   0.0                          T                5.5  .38 Ml 2.4         5001610
MEZF  001.89 011.0 m E Pg      2012/06/14 10:21:27.0   0.4 195.5  4.0               T                                        5019856
MEZF  001.89 011.0 m E Sn      2012/06/14 10:21:51.0   4.6                          T                4.1  .32 Ml 2.3         5001608
PAGF  002.08 022.9 m E Pg      2012/06/14 10:21:30.0  -0.1 202.6  -1.2              T                                        5019855
LASF  002.61 190.4 m E Pn      2012/06/14 10:21:33.1   0.1                          T                                        5019870
LASF  002.61 190.4 m E Pg      2012/06/14 10:21:40.0   0.0                          T                                        5019869
HYF   001.42 296.5 m E Sg      2012/06/14 10:21:36.7   0.1                          T                                        5019858
BAIF  003.42 356.7 m E Pn      2012/06/14 10:21:43.8  -0.2                          T                                        5019857
ORIF  001.98 150.5 m E Sg      2012/06/14 10:21:54.2   0.1                          T                2.4  .22 Ml 2.2         5019853
RJF   002.48 238.3 m E Sg      2012/06/14 10:22:09.6  -0.1                          T                2.8  .35 Ml 1.9         5019854

.
