EVENT     268867
    Date      Time       Latitude Longitude    Depth    Ndef Nsta Gap    Mag1  N    Mag2  N    Mag3  N   Author         ID
       rms   OT_Error      Smajor Sminor Az        Err   mdist  Mdist     Err        Err        Err      Quality

2012/01/20 00:30:29.8     41.6468    1.9321      4.0 f    53    8 109  Ml 2.2  9                         js067245    268887

      0.40   +-  0.07       1.2     .9  157.97 +-  0.0    0.20   3.67   +-0.3                            m i ke

SPAIN
Sta     Dist  EvAz     Phase      Date       Time     TRes  Azim  AzRes  Slow  SRes Def   SNR       Amp   Per   Mag1   Mag2       ID
MTLF  001.71 007.0 m E Pg      2012/01/20 00:31:01.6   0.0                          T                                        4820395
MTLF  001.71 007.0 m E Sg      2012/01/20 00:31:23.6   0.0                          T                1.9  .18 Ml 2.2         4820389
EPF   001.82 320.0 m E Pg      2012/01/20 00:31:03.4  -0.3                          T                                        4820394
EPF   001.82 320.0 m E Sg      2012/01/20 00:31:27.3   0.1                          T               11.4  .22 Ml 2.9         4820388
ETSF  002.23 304.9 m E Pg      2012/01/20 00:31:11.0  -0.4                          T                                        4820393
ETSF  002.23 304.9 m E Sg      2012/01/20 00:31:40.0  -0.1                          T                5.0  .26 Ml 2.5         4820387
SJPF  002.76 303.1 m E Pg      2012/01/20 00:31:20.5  -0.5                          T                                        4820392
SJPF  002.76 303.1 m E Sg      2012/01/20 00:31:56.4  -0.1                          T                2.0  .25 Ml 2.3         4820386
LASF  002.81 029.6 m E Pg      2012/01/20 00:31:21.6  -0.3                          T                                        4820391
LASF  002.81 029.6 m E Sg      2012/01/20 00:31:57.9  -0.1                          T                 .9  .27 Ml 1.9         4820390
CAF   003.28 001.6 m E Pg      2012/01/20 00:31:30.5  -0.1                          T                                        4820382
CAF   003.28 001.6 m E Sg      2012/01/20 00:32:13.2   0.5                          T                 .7  .18 Ml 2.1         4820385
LFF   003.40 345.6 m E Pg      2012/01/20 00:31:32.8  -0.1                          T                                        4820381
LFF   003.40 345.6 m E Sg      2012/01/20 00:32:16.8   0.3                          T                1.3  .23 Ml 2.1         4820384
RJF   003.67 355.4 m E Pg      2012/01/20 00:31:37.8   0.0                          T                                        4820380
RJF   003.67 355.4 m E Sg      2012/01/20 00:32:24.9   0.0                          T                1.1  .22 Ml 1.9         4820383

.
EVENT     268861
    Date      Time       Latitude Longitude    Depth    Ndef Nsta Gap    Mag1  N    Mag2  N    Mag3  N   Author         ID
       rms   OT_Error      Smajor Sminor Az        Err   mdist  Mdist     Err        Err        Err      Quality

2012/01/20 02:12:43.6     44.3096    7.4046     10.0      46    9 084  Ml 2.1  7  Md 2.0  2              js067245    268881

      0.21   +-  0.03        .7     .5   47.35 +-  0.0    0.08   2.03   +-0.4      +-0.1                 m i ke

NORTHERN ITALY
Sta     Dist  EvAz     Phase      Date       Time     TRes  Azim  AzRes  Slow  SRes Def   SNR       Amp   Per   Mag1   Mag2       ID
SBF   000.45 177.2 m E Pg      2012/01/20 02:12:52.4   0.1                          T                                        4821116
SBF   000.45 177.2 m E Sg      2012/01/20 02:12:58.5   0.1                          T               37.4  .22        Md 2.1  4821124
MBDF  000.62 312.9 m E Pg      2012/01/20 02:12:55.2  -0.3                          T                                        4821123
MBDF  000.62 312.9 m E Sg      2012/01/20 02:13:03.6  -0.1                          T               16.7  .22        Md 2.0  4821131
FRF   000.93 216.4 m E Pg      2012/01/20 02:13:01.1   0.0                          T                                        4821118
FRF   000.93 216.4 m E Sg      2012/01/20 02:13:12.7  -0.4                          T                9.6  .20 Ml 2.5         4821126
LMR   001.17 213.9 m E Pg      2012/01/20 02:13:05.6   0.1                          T                                        4821117
LMR   001.17 213.9 m E Sg      2012/01/20 02:13:20.7   0.0                          T               13.1  .21 Ml 2.7         4821125
LPG   001.28 338.9 m E Pn      2012/01/20 02:13:06.1  -0.1                          T                                        4821121
LPG   001.28 338.9 m E Pg      2012/01/20 02:13:07.3  -0.5                          T                                        4821133
LPG   001.28 338.9 m E Sg      2012/01/20 02:13:24.3  -0.1                          T                2.1  .23 Ml 1.9         4821128
LPL   001.30 338.6 m E Pn      2012/01/20 02:13:06.6   0.2                          T                                        4821120
LPL   001.30 338.6 m E Pg      2012/01/20 02:13:08.3   0.2                          T                                        4821134
LPL   001.30 338.6 m E Sg      2012/01/20 02:13:24.7  -0.3                          T                2.7  .29 Ml 1.9         4821129
ORIF  001.25 299.7 m E Pg      2012/01/20 02:13:07.0  -0.1                          T                                        4821122
ORIF  001.25 299.7 m E Sg      2012/01/20 02:13:23.4   0.2                          T                1.7  .19 Ml 1.9         4821130
SMRF  001.36 256.4 m E Pg      2012/01/20 02:13:09.1   0.1                          T                                        4821119
SMRF  001.36 256.4 m E Sg      2012/01/20 02:13:26.7   0.0                          T                2.4  .22 Ml 2.0         4821127
VIVF  002.03 286.6 m E P       2012/01/20 02:13:18.3  -0.1                          T                                        4821135
VIVF  002.03 286.6 m E Sg      2012/01/20 02:13:47.5   0.0                          T                1.6  .37 Ml 1.8         4821132

.
EVENT     268865
    Date      Time       Latitude Longitude    Depth    Ndef Nsta Gap    Mag1  N    Mag2  N    Mag3  N   Author         ID
       rms   OT_Error      Smajor Sminor Az        Err   mdist  Mdist     Err        Err        Err      Quality

2012/01/20 05:35:36.3     42.2828    3.2336      4.0 f    20    3 197  Ml 1.7  3                         js067245    268885

      0.25   +-  0.10       1.7    1.1  115.24 +-  0.0    0.06   2.26   +-0.1                            m i ke

PYRENEES
Sta     Dist  EvAz     Phase      Date       Time     TRes  Azim  AzRes  Slow  SRes Def   SNR       Amp   Per   Mag1   Mag2       ID
MTLF  001.30 325.1 m E Pg      2012/01/20 05:36:00.2  -0.3                          T                                        4821140
MTLF  001.30 325.1 m E Sn      2012/01/20 05:36:16.0  -0.2                          T                1.0  .21 Ml 1.6         4821141
LASF  001.85 014.1 m E Pg      2012/01/20 05:36:10.9   0.1                          T                                        4821136
LASF  001.85 014.1 m E Sg      2012/01/20 05:36:34.8   0.2                          T                1.0  .27 Ml 1.7         4821137
EPF   002.26 290.3 m E Pg      2012/01/20 05:36:18.3  -0.1                          T                                        4821138
EPF   002.26 290.3 m E Sg      2012/01/20 05:36:47.5   0.0                          T                 .8  .31 Ml 1.7         4821139

.
EVENT     268868
    Date      Time       Latitude Longitude    Depth    Ndef Nsta Gap    Mag1  N    Mag2  N    Mag3  N   Author         ID
       rms   OT_Error      Smajor Sminor Az        Err   mdist  Mdist     Err        Err        Err      Quality

2012/01/20 05:43:08.6     43.2883    -.9279      2.0      27    8 100  Ml 2.0  6  Md 2.0  2              js067245    268888

      0.45   +-  0.08       1.8    1.2  140.07 +-  0.0    0.26   3.36   +-0.2      +-0.0                 m i ke

PYRENEES
Sta     Dist  EvAz     Phase      Date       Time     TRes  Azim  AzRes  Slow  SRes Def   SNR       Amp   Per   Mag1   Mag2       ID
SJPF  000.28 231.3 m E Pg      2012/01/20 05:43:14.3   0.2                          T                                        4821157
SJPF  000.28 231.3 m E Sg      2012/01/20 05:43:17.9   0.0                          T               34.9  .24        Md 2.0  4821158
ETSF  000.47 145.1 m E Pg      2012/01/20 05:43:17.3  -0.5                          T                                        4821155
ETSF  000.47 145.1 m E Sg      2012/01/20 05:43:23.1  -0.9                          T                8.9  .22        Md 2.0  4821156
EPF   000.96 105.1 m E Pg      2012/01/20 05:43:27.5   0.8                          T                                        4821153
EPF   000.96 105.1 m E Sn      2012/01/20 05:43:40.7  -0.4                          T                3.2  .28 Ml 1.9         4821154
LFF   002.04 035.5 m E Pg      2012/01/20 05:43:46.5   0.0                          T                                        4821149
LFF   002.04 035.5 m E Sg      2012/01/20 05:44:13.0   0.2                          T                1.4  .25 Ml 1.8         4821144
RJF   002.67 040.2 m E Pn      2012/01/20 05:43:50.8   0.0                          T                                        4821148
RJF   002.67 040.2 m E Pg      2012/01/20 05:43:58.4   0.2                          T                                        4821147
RJF   002.67 040.2 m E Sg      2012/01/20 05:44:32.6   0.0                          T                1.0  .17 Ml 1.8         4821145
CAF   002.71 051.8 m E Pn      2012/01/20 05:43:51.2  -0.2                          T                                        4821151
CAF   002.71 051.8 m E Pg      2012/01/20 05:43:58.5  -0.3                          T                                        4821150
CAF   002.71 051.8 m E Sg      2012/01/20 05:44:33.7   0.1                          T                1.8  .23 Ml 2.2         4821143
MTLF  002.30 087.6 m E Pg      2012/01/20 05:43:51.2  -0.1                          T                                        4821152
MTLF  002.30 087.6 m E Sg      2012/01/20 05:44:20.9   0.1                          T                1.2  .19 Ml 2.1         4821142
MFF   003.36 009.2 m E Sn      2012/01/20 05:44:38.5   0.2                          T                 .7  .23 Ml 2.2         4821146

.
EVENT     268886
    Date      Time       Latitude Longitude    Depth    Ndef Nsta Gap    Mag1  N    Mag2  N    Mag3  N   Author         ID
       rms   OT_Error      Smajor Sminor Az        Err   mdist  Mdist     Err        Err        Err      Quality

2012/01/20 12:54:39.2     44.2732    5.3515      2.0      21   10 108  Ml 2.1  5  Md 2.2  1              js067245    268906

      0.96   +-  0.11       2.2    1.8   59.41 +-  0.0    0.34   1.58   +-0.3      +-                    m i ke

FRANCE
Sta     Dist  EvAz     Phase      Date       Time     TRes  Azim  AzRes  Slow  SRes Def   SNR       Amp   Per   Mag1   Mag2       ID
SMRF  000.34 151.4 m E Pg      2012/01/20 12:54:45.7  -0.1                          T                                        4821179
SMRF  000.34 151.4 m E Sg      2012/01/20 12:54:50.7   0.4                          T               22.1  .31        Md 2.2  4821174
VIVF  000.76 320.5 m E Pg      2012/01/20 12:54:53.4  -0.1                          T                                        4821182
VIVF  000.76 320.5 m E Sg      2012/01/20 12:55:04.0   0.6                          T                8.2  .29                4821173
ORIF  000.75 030.2 m E Pg      2012/01/20 12:54:53.8   0.4                          T                                        4821180
ORIF  000.75 030.2 m E Sg      2012/01/20 12:55:03.1   0.0                          T                                        4821168
ORIF  000.75 030.2 m E Sn      2012/01/20 12:55:06.9   0.3                          T                4.6  .30                4821171
LASF  001.09 260.1 m E Pg      2012/01/20 12:54:59.5  -0.2                          T                                        4821170
LASF  001.09 260.1 m E Sg      2012/01/20 12:55:14.0   0.2                          T                3.7  .26 Ml 2.0         4821169
MBDF  001.11 065.4 m E Pg      2012/01/20 12:55:00.3   0.1                          T                                        4821181
MBDF  001.11 065.4 m E Sn      2012/01/20 12:55:15.6   0.2                          T                5.0  .46 Ml 1.9         4821172
FRF   001.18 126.8 m E Pg      2012/01/20 12:55:00.4  -0.7                          T                                        4821178
FRF   001.18 126.8 m E Sg      2012/01/20 12:55:16.6   0.2                          T                6.9  .29 Ml 2.3         4821175
LMR   001.26 137.8 m E Pg      2012/01/20 12:55:03.3   0.6                          T                                        4821177
LMR   001.26 137.8 m E Sg      2012/01/20 12:55:19.1   0.1                          T                1.9  .23 Ml 1.9         4821176
SBF   001.56 104.5 m E Pg      2012/01/20 12:55:08.2   0.0                          T                                        4821164
SBF   001.56 104.5 m E Sg      2012/01/20 12:55:28.6   0.2                          T               10.4  .32 Ml 2.6         4821165
LPL   001.58 037.8 m E Pg      2012/01/20 12:55:08.6  -0.3                          T                                        4821167
LPG   001.58 038.6 m E Pg      2012/01/20 12:55:08.8  -0.1                          T                                        4821166

.
EVENT     268887
    Date      Time       Latitude Longitude    Depth    Ndef Nsta Gap    Mag1  N    Mag2  N    Mag3  N   Author         ID
       rms   OT_Error      Smajor Sminor Az        Err   mdist  Mdist     Err        Err        Err      Quality

2012/01/20 13:28:08.3     45.4831    6.6690      5.0 f    17    5 128  Ml 1.7  1  Md 1.7  2              js067245    268907

      0.18   +-  0.05       1.1     .7  117.38 +-  0.0    0.06   1.55   +-         +-0.1                 m i ke

FRANCE
Sta     Dist  EvAz     Phase      Date       Time     TRes  Azim  AzRes  Slow  SRes Def   SNR       Amp   Per   Mag1   Mag2       ID
LPL   000.06 053.2 m E Pg      2012/01/20 13:28:10.2  -0.1                          T                                        4821187
LPL   000.06 053.2 m E Sg      2012/01/20 13:28:11.4  -0.2                          T               84.5  .20        Md 1.8  4821188
LPG   000.06 075.9 m E Pg      2012/01/20 13:28:10.5   0.0                          T                                        4821185
LPG   000.06 075.9 m E Sg      2012/01/20 13:28:11.8   0.0                          T              103.4  .19        Md 1.7  4821186
MBDF  000.76 174.5 m E Pg      2012/01/20 13:28:22.7  -0.2                          T                                        4821189
MBDF  000.76 174.5 m E Sg      2012/01/20 13:28:32.9   0.1                          T                2.9  .25                4821192
ORIF  000.79 224.9 m E Pg      2012/01/20 13:28:23.3  -0.1                          T                                        4821190
ORIF  000.79 224.9 m E Sg      2012/01/20 13:28:33.9   0.1                          T                2.4  .23                4821191
VIVF  001.55 246.8 m E Sg      2012/01/20 13:28:57.3   0.1                          T                 .8  .19 Ml 1.7         4821193

.
EVENT     269086
    Date      Time       Latitude Longitude    Depth    Ndef Nsta Gap    Mag1  N    Mag2  N    Mag3  N   Author         ID
       rms   OT_Error      Smajor Sminor Az        Err   mdist  Mdist     Err        Err        Err      Quality

2012/01/20 17:27:37.9     42.9475    2.1874      2.0      26    4 089  Ml 2.0  3  Md 1.6  1              js067245    269106

      0.69   +-  0.07       1.3    1.1  162.44 +-  0.0    0.07   2.02   +-0.1      +-                    m i ke

PYRENEES
Sta     Dist  EvAz     Phase      Date       Time     TRes  Azim  AzRes  Slow  SRes Def   SNR       Amp   Per   Mag1   Mag2       ID
MTLF  000.39 003.2 m E Pg      2012/01/20 17:27:45.7   0.2                          T                                        4821196
MTLF  000.39 003.2 m E Sg      2012/01/20 17:27:50.7   0.0                          T                2.7  .43        Md 1.6  4821197
EPF   001.36 274.1 m E Pg      2012/01/20 17:28:03.4   0.1                          T                                        4821194
EPF   001.36 274.1 m E Sg      2012/01/20 17:28:20.6  -0.3                          T                1.9  .19 Ml 2.0         4821195
LASF  001.66 046.5 m E Pn      2012/01/20 17:28:06.4   0.1                          T                                        4821202
LASF  001.66 046.5 m E Pg      2012/01/20 17:28:08.8   0.0                          T                                        4821201
LASF  001.66 046.5 m E Sg      2012/01/20 17:28:30.2   0.0                          T                2.8  .26 Ml 2.1         4821203
ETSF  002.02 269.5 m E Sg      2012/01/20 17:28:41.0  -0.5                          T                2.0  .29 Ml 2.0         4821200

.
EVENT     269087
    Date      Time       Latitude Longitude    Depth    Ndef Nsta Gap    Mag1  N    Mag2  N    Mag3  N   Author         ID
       rms   OT_Error      Smajor Sminor Az        Err   mdist  Mdist     Err        Err        Err      Quality

2012/01/20 23:04:11.9     42.6480     .7455     10.0      10    3 105  Ml 0.9  2  Md 1.2  1              js067245    269107

      0.12   +-  0.03        .7     .6   56.17 +-  0.0    0.08   1.28   +-0.4      +-                    m i ke

PYRENEES
Sta     Dist  EvAz     Phase      Date       Time     TRes  Azim  AzRes  Slow  SRes Def   SNR       Amp   Per   Mag1   Mag2       ID
EPF   000.48 322.2 m E Pg      2012/01/20 23:04:21.3   0.0                          T                                        4821206
EPF   000.48 322.2 m E Sg      2012/01/20 23:04:27.8   0.0                          T                2.7  .37        Md 1.2  4821207
ETSF  000.99 285.1 m E Sg      2012/01/20 23:04:43.6   0.0                          T                 .1  .15 Ml  .6         4821205
MTLF  001.28 056.8 m E Sg      2012/01/20 23:04:52.6   0.0                          T                 .4  .21 Ml 1.2         4821204

.
EVENT     268931
    Date      Time       Latitude Longitude    Depth    Ndef Nsta Gap    Mag1  N    Mag2  N    Mag3  N   Author         ID
       rms   OT_Error      Smajor Sminor Az        Err   mdist  Mdist     Err        Err        Err      Quality

2012/01/21 05:31:44.9     44.2081    7.5902      2.0      22    3 099  Ml 1.7  1  Md 1.3  2              js067245    268951

      0.13   +-  0.03        .6     .5   39.56 +-  0.0    0.12   0.94   +-         +-0.2                 m i ke

NORTHERN ITALY
Sta     Dist  EvAz     Phase      Date       Time     TRes  Azim  AzRes  Slow  SRes Def   SNR       Amp   Per   Mag1   Mag2       ID
SBF   000.36 198.0 m E Pg      2012/01/21 05:31:52.0   0.0                          T                                        4821212
SBF   000.36 198.0 m E Sg      2012/01/21 05:31:57.0   0.1                          T                3.2  .23        Md 1.4  4821208
MBDF  000.78 311.8 m E Pg      2012/01/21 05:31:59.8  -0.1                          T                                        4821213
MBDF  000.78 311.8 m E Sg      2012/01/21 05:32:10.2   0.1                          T                 .8  .19        Md 1.2  4821210
FRF   000.94 226.8 m E Pg      2012/01/21 05:32:02.6   0.1                          T                                        4821211
FRF   000.94 226.8 m E Sg      2012/01/21 05:32:14.9   0.2                          T                1.7  .21 Ml 1.7         4821209

.
