EVENT     289352
    Date      Time       Latitude Longitude    Depth    Ndef Nsta Gap    Mag1  N    Mag2  N    Mag3  N   Author         ID
       rms   OT_Error      Smajor Sminor Az        Err   mdist  Mdist     Err        Err        Err      Quality

2013/01/02 02:07:15.6     46.7390    7.0951      7.0 f    60   15 047  Ml 2.1 14  Md 2.2  2              bulletin    289452
                                                                                                         _ldg
      0.51   +-  0.05       1.1    1.0   80.89 +-  0.0    0.37   2.93   +-0.3      +-0.0                 m i ke

SWITZERLAND
Sta     Dist  EvAz     Phase      Date       Time     TRes  Azim  AzRes  Slow  SRes Def   SNR       Amp   Per   Mag1   Mag2       ID
CABF  000.71 259.9 m E Pg      2013/01/02 02:07:29.1  -0.1                          T                                        5152966
CABF  000.71 259.9 m E Pn      2013/01/02 02:07:31.2   0.6                          T                                        5170448
CABF  000.71 259.9 m E Sg      2013/01/02 02:07:37.8  -0.5                          T                9.0  .25        Md 2.2  5152951
HINF  001.09 351.4 m E Pg      2013/01/02 02:07:36.1   0.0                          T                                        5152965
HINF  001.09 351.4 m E Sg      2013/01/02 02:07:50.0  -0.3                          T               13.1  .19 Ml 2.7 Md 2.2  5152955
LPL   001.25 191.8 m E Pg      2013/01/02 02:07:38.8  -0.4                          T                                        5170441
LPL   001.25 191.8 m E Sg      2013/01/02 02:07:55.8   0.3                          T                2.4  .28 Ml 1.9         5170438
LPG   001.26 191.0 m E Pg      2013/01/02 02:07:39.9   0.3                          T                                        5170440
LPG   001.26 191.0 m E Sg      2013/01/02 02:07:56.3   0.3                          T                3.2  .31 Ml 1.9         5170439
HAU   001.37 338.4 m E Pg      2013/01/02 02:07:40.6  -0.5                          T                                        5152964
HAU   001.37 338.4 m E Sn      2013/01/02 02:07:57.1   0.4                          T                                        5170449
HAU   001.37 338.4 m E Sg      2013/01/02 02:07:58.7  -0.1                          T                7.0  .23 Ml 2.2         5152956
CDF   001.68 004.1 m E Pn      2013/01/02 02:07:44.5   0.7                          T                                        5170456
CDF   001.68 004.1 m E Pg      2013/01/02 02:07:47.0   0.0                          T                                        5170457
CDF   001.68 004.1 m E Sn      2013/01/02 02:08:05.3   1.0                          T                                        5170459
CDF   001.68 004.1 m E Sg      2013/01/02 02:08:08.4  -0.3                          T                3.1  .26 Ml 2.3         5170458
SFTF  002.02 317.2 m E Pn      2013/01/02 02:07:49.1   0.6                          T                                        5152963
SFTF  002.02 317.2 m E Pg      2013/01/02 02:07:53.2  -0.1 137.7  2.0               T                                        5170450
SFTF  002.02 317.2 m E Sn      2013/01/02 02:08:13.1   0.6                          T                                        5170451
SFTF  002.02 317.2 m E Sg      2013/01/02 02:08:18.9  -0.5                          T                2.0  .20 Ml 2.2         5152954
ORIF  002.01 205.4 m E Pn      2013/01/02 02:07:49.2   0.8                          T                                        5170434
ORIF  002.01 205.4 m E Pg      2013/01/02 02:07:53.2   0.1                          T                                        5170437
ORIF  002.01 205.4 m E Sn      2013/01/02 02:08:13.5   1.2                          T                                        5170436
ORIF  002.01 205.4 m E Sg      2013/01/02 02:08:19.4   0.4                          T                 .7  .19 Ml 1.8         5170435
MEZF  002.24 322.7 m E Pn      2013/01/02 02:07:51.9   0.6                          T                                        5170452
MEZF  002.24 322.7 m E Pg      2013/01/02 02:07:57.2  -0.1 142.2  1.1               T                                        5170453
MEZF  002.24 322.7 m E Sn      2013/01/02 02:08:18.3   0.7                          T                                        5170455
MEZF  002.24 322.7 m E Sg      2013/01/02 02:08:25.7  -0.4                          T                                        5170454
VIVF  002.53 222.9 m E Pn      2013/01/02 02:07:56.0   0.6                          T                                        5170433
VIVF  002.53 222.9 m E Pg      2013/01/02 02:08:02.9   0.2                          T                                        5170432
VIVF  002.53 222.9 m E Sn      2013/01/02 02:08:25.1   0.4                          T                                        5170430
VIVF  002.53 222.9 m E Sg      2013/01/02 02:08:35.3   0.0                          T                1.1  .18 Ml 2.1         5170431
AVF   002.57 272.5 m E Pn      2013/01/02 02:07:56.7   0.8                          T                                        5170446
AVF   002.57 272.5 m E Pg      2013/01/02 02:08:03.5   0.1                          T                                        5152959
AVF   002.57 272.5 m E Sn      2013/01/02 02:08:25.5   0.0                          T                                        5170447
AVF   002.57 272.5 m E Sg      2013/01/02 02:08:36.1  -0.4                          T                 .5  .16 Ml 1.8         5152952
SMF   002.24 268.8 m E Pg      2013/01/02 02:07:56.9  -0.4                          T                                        5152960
SMF   002.24 268.8 m E Sg      2013/01/02 02:08:25.3  -0.8                          T                2.2  .18 Ml 2.3         5152953
LOR   002.28 284.6 m E Pg      2013/01/02 02:07:57.4  -0.6 104.8  2.5               T                                        5152962
LOR   002.28 284.6 m E Sg      2013/01/02 02:08:26.2  -1.1 104.3  2.1               T                1.7  .17 Ml 2.3         5152958
BGF   002.93 268.0 m E Pn      2013/01/02 02:08:01.3   0.5                          T                                        5170445
BGF   002.93 268.0 m E Pg      2013/01/02 02:08:09.9  -0.1                          T                                        5170444
BGF   002.93 268.0 m E Sn      2013/01/02 02:08:34.5   0.3                          T                                        5170443
BGF   002.93 268.0 m E Sg      2013/01/02 02:08:47.6  -0.1                          T                1.9  .26 Ml 2.3         5170442
SSF   002.48 278.8 m E Pg      2013/01/02 02:08:01.6  -0.1                          T                                        5152961
SSF   002.48 278.8 m E Sg      2013/01/02 02:08:33.1  -0.5                          T                1.3  .23 Ml 2.2         5152957

.
EVENT     289353
    Date      Time       Latitude Longitude    Depth    Ndef Nsta Gap    Mag1  N    Mag2  N    Mag3  N   Author         ID
       rms   OT_Error      Smajor Sminor Az        Err   mdist  Mdist     Err        Err        Err      Quality

2013/01/02 02:07:46.3     43.0621    -.2117      2.0      20    8 105  Ml 1.6  4  Md 1.6  3              bulletin    289453
                                                                                                         _ldg
      0.24   +-  0.05       1.1     .8  168.02 +-  0.0    0.13   4.12   +-0.2      +-0.1                 m i ke

PYRENEES
Sta     Dist  EvAz     Phase      Date       Time     TRes  Azim  AzRes  Slow  SRes Def   SNR       Amp   Per   Mag1   Mag2       ID
ETSF  000.30 237.5 m E Pg      2013/01/02 02:07:52.2  -0.1                          T                                        5152930
ETSF  000.30 237.5 m E Sg      2013/01/02 02:07:55.5  -0.8                          T               13.8  .23        Md 1.5  5152929
EPF   000.41 094.3 m E Pg      2013/01/02 02:07:54.3   0.1                          T                                        5152928
EPF   000.41 094.3 m E Sg      2013/01/02 02:07:59.8   0.3                          T                2.9  .18        Md 1.6  5152927
SJPF  000.74 274.3 m E Pg      2013/01/02 02:08:00.6   0.3                          T                                        5169852
SJPF  000.74 274.3 m E Sg      2013/01/02 02:08:10.1   0.0                          T                1.7  .21        Md 1.6  5152926
MTLF  001.80 080.3 m E Pg      2013/01/02 02:08:19.9   0.1                          T                                        5170467
MTLF  001.80 080.3 m E Sn      2013/01/02 02:08:38.7   0.1                          T                                        5170469
MTLF  001.80 080.3 m E Sg      2013/01/02 02:08:43.2   0.3                          T                 .3  .17 Ml 1.3         5170468
LFF   002.00 019.8 m E Pg      2013/01/02 02:08:23.5   0.1                          T                                        5170476
LFF   002.00 019.8 m E Sn      2013/01/02 02:08:43.3  -0.1                          T                                        5170475
LFF   002.00 019.8 m E Sg      2013/01/02 02:08:48.9  -0.2                          T                1.3  .22 Ml 1.8         5170474
CAF   002.48 040.6 m E Pg      2013/01/02 02:08:32.1  -0.3                          T                                        5169851
CAF   002.48 040.6 m E Sg      2013/01/02 02:09:04.0  -0.4                          T                 .4  .17 Ml 1.7         5169850
RJF   002.56 028.4 m E Pg      2013/01/02 02:08:33.9   0.1                          T                                        5170473
RJF   002.56 028.4 m E Sn      2013/01/02 02:08:57.0   0.1                          T                                        5170472
RJF   002.56 028.4 m E Sg      2013/01/02 02:09:06.7  -0.1                          T                 .6  .21 Ml 1.4         5170471
BGF   004.12 030.8 m E Pn      2013/01/02 02:08:48.0  -0.1                          T                                        5170470

.
EVENT     289354
    Date      Time       Latitude Longitude    Depth    Ndef Nsta Gap    Mag1  N    Mag2  N    Mag3  N   Author         ID
       rms   OT_Error      Smajor Sminor Az        Err   mdist  Mdist     Err        Err        Err      Quality

2013/01/02 02:18:56.9     46.7434    7.1092      7.0 f    67   19 036  Ml 2.2 16  Md 2.4  1              bulletin    289454
                                                                                                         _ldg
      0.35   +-  0.04        .8     .7   84.14 +-  0.0    0.36   3.41   +-0.2      +-                    m i ke

SWITZERLAND
Sta     Dist  EvAz     Phase      Date       Time     TRes  Azim  AzRes  Slow  SRes Def   SNR       Amp   Per   Mag1   Mag2       ID
CABF  000.72 259.7 m E Pg      2013/01/02 02:19:10.6   0.0                          T                                        5152978
CABF  000.72 259.7 m E Pn      2013/01/02 02:19:12.5   0.5                          T                                        5170498
CABF  000.72 259.7 m E Sg      2013/01/02 02:19:19.8  -0.2                          T               11.6  .24        Md 2.4  5152972
HINF  001.09 350.9 m E Pg      2013/01/02 02:19:17.3   0.0                          T                                        5152984
HINF  001.09 350.9 m E Sg      2013/01/02 02:19:31.4  -0.1                          T               18.0  .19 Ml 2.8         5152973
LPG   001.27 191.4 m E Pg      2013/01/02 02:19:20.5  -0.5                          T                                        5170487
LPG   001.27 191.4 m E Sg      2013/01/02 02:19:37.5   0.0                          T                7.6  .47 Ml 2.1         5170489
LPL   001.25 192.2 m E Pg      2013/01/02 02:19:20.7   0.0                          T                                        5170488
LPL   001.25 192.2 m E Sg      2013/01/02 02:19:37.0   0.1                          T                7.5  .49 Ml 2.1         5170490
HAU   001.36 338.0 m E Pg      2013/01/02 02:19:22.0  -0.4                          T                                        5152983
HAU   001.36 338.0 m E Sg      2013/01/02 02:19:39.9  -0.2                          T                8.2  .22 Ml 2.3         5152971
THEF  001.67 333.4 m E Pg      2013/01/02 02:19:27.6  -0.4                          T                                        5174486
THEF  001.67 333.4 m E Sg      2013/01/02 02:19:48.5  -1.0                          T                                        5174487
CDF   001.67 003.8 m E Pg      2013/01/02 02:19:28.0  -0.2                          T                                        5152979
CDF   001.67 003.8 m E Sg      2013/01/02 02:19:49.7  -0.1                          T                2.9  .21 Ml 2.4         5152969
ORIF  002.02 205.7 m E Pn      2013/01/02 02:19:30.5   0.7                          T                                        5170485
ORIF  002.02 205.7 m E Pg      2013/01/02 02:19:34.4  -0.1                          T                                        5170486
ORIF  002.02 205.7 m E Sn      2013/01/02 02:19:54.5   0.8                          T                                        5170483
ORIF  002.02 205.7 m E Sg      2013/01/02 02:20:00.5   0.0                          T                1.5  .23 Ml 2.0         5170484
PAGF  002.04 333.2 m E Pn      2013/01/02 02:19:30.7   0.8                          T                                        5170503
PAGF  002.04 333.2 m E Pg      2013/01/02 02:19:34.9   0.1                          T                                        5170504
PAGF  002.04 333.2 m E Sn      2013/01/02 02:19:55.1   0.9                          T                                        5170505
PAGF  002.04 333.2 m E Sg      2013/01/02 02:20:01.0  -0.1                          T                3.0  .24 Ml 2.3         5170506
MEZF  002.24 322.4 m E Pn      2013/01/02 02:19:33.3   0.6                          T                                        5170502
MEZF  002.24 322.4 m E Pg      2013/01/02 02:19:38.5   0.0                          T                                        5170501
MEZF  002.24 322.4 m E Sn      2013/01/02 02:19:59.9   1.0                          T                                        5170500
MEZF  002.24 322.4 m E Sg      2013/01/02 02:20:07.3  -0.1                          T                2.0  .22 Ml 2.2         5170499
SFTF  002.03 316.9 m E Pg      2013/01/02 02:19:35.1   0.5                          T                                        5152982
SFTF  002.03 316.9 m E Sg      2013/01/02 02:20:01.2   0.5                          T                3.1  .23 Ml 2.4         5152970
MBDF  002.03 186.8 m E Pg      2013/01/02 02:19:35.1   0.3                          T                                        5170482
MBDF  002.03 186.8 m E Sg      2013/01/02 02:20:01.4   0.4                          T                 .6  .18 Ml 1.7         5170481
VIVF  002.54 223.0 m E Pn      2013/01/02 02:19:37.2   0.4                          T                                        5170477
VIVF  002.54 223.0 m E Pg      2013/01/02 02:19:44.1   0.0                          T                                        5170478
VIVF  002.54 223.0 m E Sn      2013/01/02 02:20:07.1   0.9                          T                                        5170479
VIVF  002.54 223.0 m E Sg      2013/01/02 02:20:16.4  -0.4                          T                1.6  .20 Ml 2.2         5170480
SMF   002.25 268.7 m E Pg      2013/01/02 02:19:38.6  -0.1                          T                                        5152977
SMF   002.25 268.7 m E Sg      2013/01/02 02:20:07.2  -0.5                          T                2.7  .18 Ml 2.4         5152975
LOR   002.29 284.5 m E Pg      2013/01/02 02:19:39.2  -0.2                          T                                        5152981
LOR   002.29 284.5 m E Sn      2013/01/02 02:20:01.0   1.0                          T                2.3  .17 Ml 2.4         5152968
SSF   002.49 278.6 m E Pg      2013/01/02 02:19:43.1   0.0                          T                                        5152980
SSF   002.49 278.6 m E Sg      2013/01/02 02:20:15.2   0.0                          T                2.3  .26 Ml 2.3         5152967
BGF   002.94 267.9 m E Pn      2013/01/02 02:19:43.1   0.9                          T                                        5170494
BGF   002.94 267.9 m E Pg      2013/01/02 02:19:51.4  -0.1                          T                                        5170495
BGF   002.94 267.9 m E Sn      2013/01/02 02:20:16.4   0.8                          T                                        5170496
BGF   002.94 267.9 m E Sg      2013/01/02 02:20:28.8  -0.5                          T                1.7  .25 Ml 2.2         5170497
AVF   002.58 272.4 m E Pg      2013/01/02 02:19:44.9   0.1                          T                                        5152976
AVF   002.58 272.4 m E Sg      2013/01/02 02:20:17.5  -0.5                          T                                        5152974
TCF   003.41 264.1 m E Pg      2013/01/02 02:20:00.1  -0.1                          T                                        5170491
TCF   003.41 264.1 m E Sn      2013/01/02 02:20:27.7   0.7                          T                                        5170492
TCF   003.41 264.1 m E Sg      2013/01/02 02:20:43.7  -0.3                          T                 .4  .16 Ml 1.9         5170493

.
EVENT     289355
    Date      Time       Latitude Longitude    Depth    Ndef Nsta Gap    Mag1  N    Mag2  N    Mag3  N   Author         ID
       rms   OT_Error      Smajor Sminor Az        Err   mdist  Mdist     Err        Err        Err      Quality

2013/01/02 02:49:35.5     43.0087    -.2043      2.0       7    4 160  Ml 1.3  1  Md 1.4  2              bulletin    289455
                                                                                                         _ldg
      0.15   +-  0.06       4.2     .9  173.69 +-  0.0    0.28   1.80   +-         +-0.1                 m i ke

PYRENEES
Sta     Dist  EvAz     Phase      Date       Time     TRes  Azim  AzRes  Slow  SRes Def   SNR       Amp   Per   Mag1   Mag2       ID
ETSF  000.28 247.2 m E Pg      2013/01/02 02:49:41.1  -0.1                          T                                        5152988
ETSF  000.28 247.2 m E Sg      2013/01/02 02:49:44.8  -0.2                          T                9.1  .24        Md 1.5  5152987
EPF   000.40 086.7 m E Pg      2013/01/02 02:49:43.2  -0.1                          T                                        5152986
EPF   000.40 086.7 m E Sg      2013/01/02 02:49:48.9   0.3                          T                2.7  .25        Md 1.3  5152985
SJPF  000.76 278.3 m E Pg      2013/01/02 02:49:49.9   0.0                          T                                        5169874
SJPF  000.76 278.3 m E Sg      2013/01/02 02:49:59.5  -0.2                          T                 .7  .18                5169873
MTLF  001.80 078.6 m E Sg      2013/01/02 02:50:32.1  -0.2                          T                 .2  .20 Ml 1.3         5175903

.
