EVENT     290484
    Date      Time       Latitude Longitude    Depth    Ndef Nsta Gap    Mag1  N    Mag2  N    Mag3  N   Author         ID
       rms   OT_Error      Smajor Sminor Az        Err   mdist  Mdist     Err        Err        Err      Quality

2013/01/18 05:20:44.9     52.7418   -1.3532     19.0 f    86   32 049  Ml 3.0 35                         bulletin    290584
                                                                                                         _ldg
      0.67   +-  0.11       2.7    2.0   38.17 +-  0.0    0.03   9.86   +-0.3                            m i ke

UNITED KINGDOM
Sta     Dist  EvAz     Phase      Date       Time     TRes  Azim  AzRes  Slow  SRes Def   SNR       Amp   Per   Mag1   Mag2       ID
FLN   004.02 171.8 m E Pn      2013/01/18 05:21:43.6   0.1 356.7  4.2               T                                        5171876
FLN   004.02 171.8 m E Sn      2013/01/18 05:22:27.2  -0.1                          T                3.9  .25 Ml 2.7         5171910
LDF   004.23 168.8 m E Pn      2013/01/18 05:21:46.2  -0.1                          T                                        5171875
LDF   004.23 168.8 m E Sn      2013/01/18 05:22:31.7  -0.5                          T                3.6  .21 Ml 2.9         5171874
GRR   004.37 175.7 m E Pn      2013/01/18 05:21:49.5   1.2                          T                                        5171873
GRR   004.37 175.7 m E Sn      2013/01/18 05:22:35.8   0.2                          T                2.1  .14 Ml 2.8         5171872
BAIF  004.40 125.4 m E Pn      2013/01/18 05:21:49.6   1.0                          T                                        5171882
BAIF  004.40 125.4 m E Sn      2013/01/18 05:22:35.2  -1.1                          T                1.1  .18 Ml 2.5         5171922
BAIF  004.40 125.4 m E Sg      2013/01/18 05:23:00.7  -2.1                          T                4.4  .28 Ml 2.9         5184247
SGMF  004.56 190.2 m E Pn      2013/01/18 05:21:51.6   0.7                          T                                        5171869
SGMF  004.56 190.2 m E Sn      2013/01/18 05:22:40.7   0.6                          T                1.4  .17 Ml 2.7         5171868
ROSF  004.58 196.3 m E Pn      2013/01/18 05:21:51.7   0.6                          T                                        5171871
ROSF  004.58 196.3 m E Sn      2013/01/18 05:22:42.0   1.4                          T                6.6  .33 Ml 3.1         5171870
GIVF  004.68 121.9 m E Pn      2013/01/18 05:21:53.4   0.8                          T                                        5171921
GIVF  004.68 121.9 m E Sn      2013/01/18 05:22:43.1   0.1                          T                2.7  .20 Ml 2.9         5171920
QUIF  004.97 194.2 m E Pn      2013/01/18 05:21:57.1   0.7                          T                                        5171867
QUIF  004.97 194.2 m E Sn      2013/01/18 05:22:51.0   1.1                          T                1.6  .22 Ml 2.7         5171866
MEZF  005.88 133.6 m E Pn      2013/01/18 05:22:09.5   0.6                          T                                        5171915
MEZF  005.88 133.6 m E Sn      2013/01/18 05:23:12.1   0.4                          T                2.4  .16 Ml 3.2         5171914
HYF   006.05 153.3 m E Pn      2013/01/18 05:22:11.8   0.6                          T                                        5171903
HYF   006.05 153.3 m E Sn      2013/01/18 05:23:15.1  -0.7                          T               14.1  .26 Ml 3.8         5171902
SFTF  006.10 135.5 m E Pn      2013/01/18 05:22:12.5   0.6 322.5  2.0               T                                        5171881
SFTF  006.10 135.5 m E Sn      2013/01/18 05:23:16.5  -0.6                          T                2.9  .19 Ml 3.3         5171880
PAGF  006.15 130.2 m E Pn      2013/01/18 05:22:13.2   0.6                          T                                        5171917
PAGF  006.15 130.2 m E Sn      2013/01/18 05:23:18.1  -0.1                          T                5.8  .30 Ml 3.4         5171916
MFF   006.20 172.3 m E Pn      2013/01/18 05:22:13.4   0.3                          T                                        5171865
MFF   006.20 172.3 m E Sn      2013/01/18 05:23:18.1  -1.2                          T                2.2  .23 Ml 3.3         5171864
LOR   006.43 146.4 m E Pn      2013/01/18 05:22:16.4   0.1 331.5  1.1               T                                        5171883
LOR   006.43 146.4 m E Sn      2013/01/18 05:23:23.3  -1.5                          T                2.0  .24 Ml 3.1         5171884
SSF   006.49 149.2 m E Pn      2013/01/18 05:22:17.1  -0.1                          T                                        5171886
SSF   006.49 149.2 m E Sn      2013/01/18 05:23:24.5  -1.8                          T                  1  .27 Ml 2.8         5171885
AVF   006.69 151.1 m E Pn      2013/01/18 05:22:20.7   0.8                          T                                        5171907
AVF   006.69 151.1 m E Sn      2013/01/18 05:23:30.9  -0.2                          T                1.0  .22 Ml 2.9         5171906
BGF   006.76 154.6 m E Pn      2013/01/18 05:22:20.9   0.0                          T                                        5171901
BGF   006.76 154.6 m E Sn      2013/01/18 05:23:33.7   0.9                          T               13.8  .42 Ml 3.7         5171900
HAU   006.83 130.9 m E Pn      2013/01/18 05:22:22.0   0.1                          T                                        5171879
HAU   006.83 130.9 m E Sn      2013/01/18 05:23:33.5  -1.1                          T                2.4  .22 Ml 3.0         5171913
TCF   006.86 158.9 m E Pn      2013/01/18 05:22:22.1  -0.1                          T                                        5171909
TCF   006.86 158.9 m E Sn      2013/01/18 05:23:33.7  -1.5                          T                 .8  .19 Ml 2.9         5171908
CDF   007.00 124.8 m E Pn      2013/01/18 05:22:24.2   0.0                          T                                        5171919
CDF   007.00 124.8 m E Sn      2013/01/18 05:23:37.9  -0.6                          T                 .9  .24 Ml 2.9         5171918
SMF   006.97 149.1 m E Pn      2013/01/18 05:22:24.4   0.7                          T                                        5171905
SMF   006.97 149.1 m E Sn      2013/01/18 05:23:36.9  -0.9                          T                1.1  .21 Ml 3.0         5171904
HINF  007.21 129.9 m E Pn      2013/01/18 05:22:27.4   0.5                          T                                        5171878
HINF  007.21 129.9 m E Sn      2013/01/18 05:23:42.6  -0.9                          T                1.6  .30 Ml 3.0         5171877
RJF   007.68 164.7 m E Pn      2013/01/18 05:22:33.3   0.0                          T                                        5171899
RJF   007.68 164.7 m E Sn      2013/01/18 05:23:52.5  -2.2                          T                2.5  .26 Ml 3.0         5171898
CABF  007.80 138.9 m E Pn      2013/01/18 05:22:35.8   0.6                          T                                        5171912
CABF  007.80 138.9 m E Sn      2013/01/18 05:23:56.9  -0.9                          T                  1  .27 Ml 2.9         5171911
LFF   007.93 169.2 m E Pn      2013/01/18 05:22:36.5  -0.3                          T                                        5171897
LFF   007.93 169.2 m E Sn      2013/01/18 05:23:59.1  -1.6                          T                 .9  .17 Ml 2.9         5171896
CAF   008.14 162.6 m E Pn      2013/01/18 05:22:39.5  -0.1                          T                                        5171895
CAF   008.14 162.6 m E Sn      2013/01/18 05:24:05.6  -0.2                          T                1.6  .19 Ml 3.3         5171894
LASF  009.34 156.2 m E Pn      2013/01/18 05:22:55.6  -0.3                          T                                        5172024
LASF  009.34 156.2 m E Sn      2013/01/18 05:24:33.5  -0.8                          T                 .1  .16 Ml 2.1         5172023
SJPF  009.64 179.4 m E Pn      2013/01/18 05:23:00.0   0.0                          T                                        5171893
SJPF  009.64 179.4 m E Sn      2013/01/18 05:24:40.8  -0.7                          T                 .7  .21 Ml 3.2         5171892
MBDF  009.64 143.0 m E Pn      2013/01/18 05:23:00.3   0.0                          T                                        5172025
MTLF  009.70 164.4 m E Pn      2013/01/18 05:23:01.3   0.3                          T                                        5171888
MTLF  009.70 164.4 m E Sn      2013/01/18 05:24:43.1   0.0                          T                1.0  .29 Ml 3.2         5171887
EPF   009.78 172.7 m E Pn      2013/01/18 05:23:02.2   0.1                          T                                        5171890
EPF   009.78 172.7 m E Sn      2013/01/18 05:24:45.3   0.2                          T                 .3  .17 Ml 3.0         5171889
ETSF  009.86 176.6 m E Pn      2013/01/18 05:23:03.2   0.0                          T                                        5171891

.
EVENT     290516
    Date      Time       Latitude Longitude    Depth    Ndef Nsta Gap    Mag1  N    Mag2  N    Mag3  N   Author         ID
       rms   OT_Error      Smajor Sminor Az        Err   mdist  Mdist     Err        Err        Err      Quality

2013/01/18 07:51:07.7     50.0524    7.4922     10.0 f    25    5 046  Ml 2.3  4                         bulletin    290616
                                                                                                         _ldg
      0.75   +-  0.13       2.6    2.3  147.80 +-  0.0    0.17   6.15   +-0.2                            m i ke

GERMANY
Sta     Dist  EvAz     Phase      Date       Time     TRes  Azim  AzRes  Slow  SRes Def   SNR       Amp   Per   Mag1   Mag2       ID
RUP   000.45 218.7 m E Pg      2013/01/18 07:51:15.9  -0.7                          T                                        5172466
RUP   000.45 218.7 m E Sg      2013/01/18 07:51:21.1  -1.5                          T                                        5172467
CDF   001.65 185.0 m E Pn      2013/01/18 07:51:35.8   0.6                          T                                        5172495
CDF   001.65 185.0 m E Pg      2013/01/18 07:51:37.9  -0.7                          T                                        5172504
CDF   001.65 185.0 m E Sn      2013/01/18 07:51:56.3   1.2                          T                1.7  .23 Ml 2.1         5172494
GIVF  001.72 272.7 m E Pn      2013/01/18 07:51:37.1   1.1                          T                                        5172509
GIVF  001.72 272.7 m E Sn      2013/01/18 07:51:58.1   1.3                          T                                        5172508
GIVF  001.72 272.7 m E Sg      2013/01/18 07:52:01.7  -0.3                          T                6.8  .29 Ml 2.5         5172507
PAGF  001.89 218.3 m E Pn      2013/01/18 07:51:39.1   0.7                          T                                        5172503
PAGF  001.89 218.3 m E Pg      2013/01/18 07:51:42.9   0.0                          T                                        5172493
PAGF  001.89 218.3 m E Sn      2013/01/18 07:52:02.0   1.1                          T                                        5172502
PAGF  001.89 218.3 m E Sg      2013/01/18 07:52:06.4  -0.9                          T                2.8  .18 Ml 2.4         5172492
MEZF  002.23 226.8 m E Pn      2013/01/18 07:51:44.1   1.1                          T                                        5172506
MEZF  002.23 226.8 m E Pg      2013/01/18 07:51:48.7  -0.4                          T                                        5172505
MEZF  002.23 226.8 m E Sn      2013/01/18 07:52:09.4   0.6                          T                                        5184315
MEZF  002.23 226.8 m E Sg      2013/01/18 07:52:16.9  -0.9                          T                                        5184314

.
EVENT     290520
    Date      Time       Latitude Longitude    Depth    Ndef Nsta Gap    Mag1  N    Mag2  N    Mag3  N   Author         ID
       rms   OT_Error      Smajor Sminor Az        Err   mdist  Mdist     Err        Err        Err      Quality

2013/01/18 10:06:40.9     47.6747    6.0063       .0 f    18    9 101  Ml 2.2  6  Md 2.1  5              bulletin    290620
                                                                                                         _ldg
      0.35   +-  0.08       1.6    1.4  148.72 +-  0.0    0.40   1.81   +-0.2      +-0.1                 m i km

FRANCE
Sta     Dist  EvAz     Phase      Date       Time     TRes  Azim  AzRes  Slow  SRes Def   SNR       Amp   Per   Mag1   Mag2       ID
HAU   000.40 034.7 m E Pg      2013/01/18 10:06:48.2  -0.8                          T                                        5172587
HAU   000.40 034.7 m E Sg      2013/01/18 10:06:53.7  -0.8                          T               12.9  .24        Md 2.0  5172586
HINF  000.59 075.7 m E Pg      2013/01/18 10:06:52.4  -0.1                          T                                        5172585
HINF  000.59 075.7 m E Sg      2013/01/18 10:06:59.6  -0.7                          T                4.2  .21        Md 2.1  5172584
SFTF  000.84 309.5 m E Pg      2013/01/18 10:06:57.1   0.1                          T                                        5172583
SFTF  000.84 309.5 m E Sg      2013/01/18 10:07:08.1   0.0                          T                5.6  .17        Md 2.2  5172582
PAGF  000.90 348.0 m E Pg      2013/01/18 10:06:58.3   0.2 169.5  1.6               T                                        5172595
PAGF  000.90 348.0 m E Sg      2013/01/18 10:07:09.8  -0.2                          T                8.6  .19 Ml 2.4 Md 2.3  5172594
MEZF  001.05 322.6 m E Pg      2013/01/18 10:07:00.5  -0.2                          T                                        5172601
MEZF  001.05 322.6 m E Sg      2013/01/18 10:07:14.4  -0.2                          T                2.9  .22 Ml 2.0         5172596
CABF  001.07 177.0 m E Pg      2013/01/18 10:07:01.1  -0.1                          T                                        5172591
CABF  001.07 177.0 m E Sg      2013/01/18 10:07:15.4   0.1                          T                7.0  .26 Ml 2.3 Md 2.0  5172590
CDF   001.13 048.6 m E Pg      2013/01/18 10:07:02.7   0.3                          T                                        5172589
CDF   001.13 048.6 m E Sg      2013/01/18 10:07:17.7   0.5                          T                2.6  .21 Ml 2.1         5172588
LOR   001.51 255.2 m E Pn      2013/01/18 10:07:08.0   0.2                          T                                        5172598
LOR   001.51 255.2 m E Sn      2013/01/18 10:07:27.0  -0.1                          T                1.8  .17 Ml 2.1         5172597
SSF   001.81 251.1 m E Pn      2013/01/18 10:07:11.9   0.1                          T                                        5172600
SSF   001.81 251.1 m E Sg      2013/01/18 10:07:37.7  -0.6                          T                2.1  .30 Ml 2.1         5172599

.
EVENT     290537
    Date      Time       Latitude Longitude    Depth    Ndef Nsta Gap    Mag1  N    Mag2  N    Mag3  N   Author         ID
       rms   OT_Error      Smajor Sminor Az        Err   mdist  Mdist     Err        Err        Err      Quality

2013/01/18 11:36:20.0     38.4434   12.1273     10.0 f    31    9 167  Ml 2.9  7                         bulletin    290637
                                                                                                         _ldg
      0.39   +-  0.11       7.5    1.6   43.61 +-  0.0    0.90   8.96   +-0.2                            m i ke

SICILY, ITALY
Sta     Dist  EvAz     Phase      Date       Time     TRes  Azim  AzRes  Slow  SRes Def   SNR       Amp   Per   Mag1   Mag2       ID
PGF   004.74 330.8 m E Pn      2013/01/18 11:37:29.9   0.3                          T                                        5172709
PGF   004.74 330.8 m E Sn      2013/01/18 11:38:22.2   0.9                          T                                        5172708
LMR   006.48 320.7 m E Pn      2013/01/18 11:37:52.9  -0.2                          T                                        5172705
LMR   006.48 320.7 m E Sn      2013/01/18 11:39:03.0   0.3                          T                                        5172704
SBF   006.47 328.3 m E Pn      2013/01/18 11:37:53.2   0.1                          T                                        5172707
SBF   006.47 328.3 m E Sn      2013/01/18 11:39:02.4  -0.1                          T                                        5172746
FRF   006.58 322.7 m E Pn      2013/01/18 11:37:54.4  -0.1                          T                                        5172748
FRF   006.58 322.7 m E Sn      2013/01/18 11:39:04.9  -0.3                          T                1.1  .22 Ml 2.9         5172747
SMRF  007.41 320.3 m E Pn      2013/01/18 11:38:06.0   0.1                          T                                        5172745
SMRF  007.41 320.3 m E Sn      2013/01/18 11:39:25.3   0.3                          T                2.8  .44 Ml 3.1         5172744
MBDF  007.45 329.1 m E Pn      2013/01/18 11:38:06.8   0.3                          T                                        5172741
MBDF  007.45 329.1 m E Sn      2013/01/18 11:39:26.2   0.1                          T                 .2  .13 Ml 2.6         5172740
ORIF  007.98 326.2 m E Pn      2013/01/18 11:38:13.0  -0.7                          T                                        5172743
ORIF  007.98 326.2 m E Sn      2013/01/18 11:39:39.2   0.5                          T                1.1  .22 Ml 3.1         5172742
LASF  008.39 314.7 m E Pn      2013/01/18 11:38:18.5  -0.7                          T                                        5172739
LASF  008.39 314.7 m E Sn      2013/01/18 11:39:47.9  -0.6                          T                 .7  .30 Ml 2.8         5172738
MTLF  008.96 306.2 m E Pn      2013/01/18 11:38:27.3   0.4                          T                                        5172737
MTLF  008.96 306.2 m E Sn      2013/01/18 11:40:01.7  -0.3                          T                 .9  .26 Ml 3.1         5172736

.
