EVENT     261925
    Date      Time       Latitude Longitude    Depth    Ndef Nsta Gap    Mag1  N    Mag2  N    Mag3  N   Author         ID
       rms   OT_Error      Smajor Sminor Az        Err   mdist  Mdist     Err        Err        Err      Quality

2011/07/29 05:42:30.5     42.7927    -.3091      2.0       6    3 232             Md 1.5  2              js067245    261925

      0.07   +-  0.15       5.2     .7    1.14 +-  0.0    0.21   0.74              +-0.1                 m i ke

PYRENEES
Sta     Dist  EvAz     Phase      Date       Time     TRes  Azim  AzRes  Slow  SRes Def   SNR       Amp   Per   Mag1   Mag2       ID
ETSF  000.21 300.0 m E Pg      2011/07/29 05:42:34.9   0.0                          T                                        4729527
ETSF  000.21 300.0 m E Sg      2011/07/29 05:42:37.8   0.0                          T                5.0  .26        Md 1.5  4729526
EPF   000.53 063.3 m E Pg      2011/07/29 05:42:40.8   0.0                          T                                        4730518
EPF   000.53 063.3 m E Sg      2011/07/29 05:42:47.6  -0.1                          T                2.6  .30        Md 1.6  4730519
SJPF  000.74 295.8 m E Pg      2011/07/29 05:42:44.5  -0.1                          T                                        4730520
SJPF  000.74 295.8 m E Sg      2011/07/29 05:42:54.4   0.1                          T                 .8  .26                4730521

.
EVENT     261931
    Date      Time       Latitude Longitude    Depth    Ndef Nsta Gap    Mag1  N    Mag2  N    Mag3  N   Author         ID
       rms   OT_Error      Smajor Sminor Az        Err   mdist  Mdist     Err        Err        Err      Quality

2011/07/29 09:29:42.8     43.5015   -7.1100     10.0 f    78   20 139  Ml 3.3 18                         js067245    261931

      1.00   +-  0.12       3.1    1.9  130.98 +-  0.0    0.18   8.59   +-0.3                            m i ke

SPAIN
Sta     Dist  EvAz     Phase      Date       Time     TRes  Azim  AzRes  Slow  SRes Def   SNR       Amp   Per   Mag1   Mag2       ID
SJPF  004.31 093.1 m E Pn      2011/07/29 09:30:47.1   0.6                          T                                        4729642
SJPF  004.31 093.1 m E Sn      2011/07/29 09:31:35.1   1.2                          T                6.2  .24 Ml 3.1         4729632
ETSF  004.83 094.9 m E Pn      2011/07/29 09:30:54.5   1.0                          T                                        4729636
ETSF  004.83 094.9 m E Sn      2011/07/29 09:31:47.7   1.5                          T                6.9  .28 Ml 3.2         4729633
QUIF  005.21 030.7 m E Pn      2011/07/29 09:30:58.7   0.1                          T                                        4729640
QUIF  005.21 030.7 m E Sn      2011/07/29 09:31:54.1  -1.1                          T                5.1  .26 Ml 3.2         4729626
ROSF  005.53 027.6 m E Pn      2011/07/29 09:31:03.4   0.5                          T                                        4729637
ROSF  005.53 027.6 m E Sn      2011/07/29 09:32:01.4  -1.4                          T                1.6  .20 Ml 2.9         4729627
SGMF  005.72 032.2 m E Pn      2011/07/29 09:31:05.2  -0.3                          T                                        4729639
SGMF  005.72 032.2 m E Sn      2011/07/29 09:32:06.0  -1.3                          T                2.4  .31 Ml 2.9         4729628
EPF   005.46 092.4 m E P       2011/07/29 09:31:06.3  -0.2                          T                                        4730547
EPF   005.46 092.4 m E Sn      2011/07/29 09:32:01.5   0.2                          T                5.6  .34 Ml 3.2         4730542
MFF   005.83 055.4 m E Pn      2011/07/29 09:31:07.6   0.6                          T                                        4729641
MFF   005.83 055.4 m E Sn      2011/07/29 09:32:08.0  -1.9                          T                5.5  .26 Ml 3.6         4729630
GRR   006.55 039.5 m E Pn      2011/07/29 09:31:16.2  -0.6                          T                                        4730549
GRR   006.55 039.5 m E Sn      2011/07/29 09:32:26.2  -0.9                          T                2.7  .20 Ml 3.2         4729629
CAF   006.75 074.7 m E Pn      2011/07/29 09:31:19.7   0.1                          T                                        4730548
CAF   006.75 074.7 m E Sn      2011/07/29 09:32:31.7  -0.3                          T                2.8  .24 Ml 3.3         4730541
MTLF  006.79 088.2 m E Pn      2011/07/29 09:31:20.5   0.3                          T                                        4729635
MTLF  006.79 088.2 m E Sn      2011/07/29 09:32:33.1   0.0                          T                2.0  .20 Ml 3.2         4730543
TCF   007.18 064.0 m E Pn      2011/07/29 09:31:25.0  -0.5                          T                                        4730555
TCF   007.18 064.0 m E Sn      2011/07/29 09:32:39.1  -3.3                          T                7.5  .30 Ml 3.7         4729622
BGF   007.69 063.1 m E Pn      2011/07/29 09:31:32.4   0.0                          T                                        4730550
BGF   007.69 063.1 m E Sn      2011/07/29 09:32:53.3  -1.2                          T                7.2  .26 Ml 3.8         4729624
LASF  007.96 082.1 m E Pn      2011/07/29 09:31:36.8   0.7                          T                                        4729634
LASF  007.96 082.1 m E Sn      2011/07/29 09:32:59.7  -1.2                          T                3.4  .35 Ml 3.4         4730544
AVF   008.09 062.4 m E Pn      2011/07/29 09:31:38.1   0.2                          T                                        4730552
AVF   008.09 062.4 m E Sn      2011/07/29 09:33:01.3  -2.8                          T                                        4729623
SSF   008.29 060.9 m E Pn      2011/07/29 09:31:40.4  -0.2                          T                                        4730554
SSF   008.29 060.9 m E Sn      2011/07/29 09:33:07.7  -1.0                          T                2.6  .28 Ml 3.5         4730539
SMF   008.36 064.1 m E Pn      2011/07/29 09:31:41.5  -0.1                          T                                        4730551
LOR   008.59 060.2 m E Pn      2011/07/29 09:31:44.3  -0.4 243.8  -4.2              T                                        4730553
VIVF  008.58 076.9 m E Pn      2011/07/29 09:31:44.4  -0.1                          T                                        4730546
VIVF  008.58 076.9 m E Sn      2011/07/29 09:33:16.0   0.3                          T                2.9  .30 Ml 3.5         4730545
LFF   005.82 073.0 m E Sn      2011/07/29 09:32:09.6  -0.2                          T                6.1  .34 Ml 3.1         4730540
RJF   006.44 070.8 m E Sn      2011/07/29 09:32:23.3  -1.3                          T                4.3  .22 Ml 3.1         4729631

.
EVENT     261930
    Date      Time       Latitude Longitude    Depth    Ndef Nsta Gap    Mag1  N    Mag2  N    Mag3  N   Author         ID
       rms   OT_Error      Smajor Sminor Az        Err   mdist  Mdist     Err        Err        Err      Quality

2011/07/29 09:30:24.5     48.4957    5.5341       .0 f    17    9 127  Ml 2.3  3  Md 2.0  1              js067245    261930

      1.33   +-  0.12       1.9    1.5   52.85 +-  0.0    0.14   1.92   +-0.1      +-                    m i km

FRANCE
Sta     Dist  EvAz     Phase      Date       Time     TRes  Azim  AzRes  Slow  SRes Def   SNR       Amp   Per   Mag1   Mag2       ID
PAGF  000.14 064.9 m E Pg      2011/07/29 09:30:27.8   0.2 241.8  -3.2              T                                        4729699
PAGF  000.14 064.9 m E Sg      2011/07/29 09:30:30.7   0.9 255.4  10.4              T              221.6  .92        Md 2.0  4729700
MEZF  000.32 271.3 m E Pg      2011/07/29 09:30:30.9  -0.1  89.8  -1.2              T                                        4729697
MEZF  000.32 271.3 m E Sg      2011/07/29 09:30:35.4  -0.1  86.7  -4.2              T              165.1  .62                4729698
THEF  000.41 130.9 m E Pg      2011/07/29 09:30:32.3  -0.3                          T                                        4729693
THEF  000.41 130.9 m E Sg      2011/07/29 09:30:38.7   0.5                          T              136.1 1.20                4729694
SFTF  000.44 228.8 m E Pg      2011/07/29 09:30:33.2   0.0                          T                                        4729695
SFTF  000.44 228.8 m E Sg      2011/07/29 09:30:39.2   0.0  65.2  16.8              T               75.5  .53                4729696
HAU   000.73 131.7 m E Pg      2011/07/29 09:30:38.6   0.0                          T                                        4729691
HAU   000.73 131.7 m E Sg      2011/07/29 09:30:48.6   0.3                          T                 10  .42                4729692
HINF  001.11 127.1 m E Pg      2011/07/29 09:30:45.8   0.1                          T                                        4729688
HINF  001.11 127.1 m E Sg      2011/07/29 09:31:00.6   0.2                          T               11.1  .38 Ml 2.3         4729689
CDF   001.16 093.5 m E Pg      2011/07/29 09:30:46.0  -0.6                          T                                        4729701
CDF   001.16 093.5 m E Sg      2011/07/29 09:31:02.2   0.3                          T                4.8  .37 Ml 2.1         4729702
CABF  001.92 168.6 m E Pg      2011/07/29 09:31:00.8   0.2                          T                                        4729686
CABF  001.92 168.6 m E Sg      2011/07/29 09:31:25.7   0.1                          T                8.7  .66 Ml 2.3         4729687
RUP   001.57 039.2 m E Sg      2011/07/29 09:31:14.4  -0.1                          T                                        4729690

.
EVENT     261951
    Date      Time       Latitude Longitude    Depth    Ndef Nsta Gap    Mag1  N    Mag2  N    Mag3  N   Author         ID
       rms   OT_Error      Smajor Sminor Az        Err   mdist  Mdist     Err        Err        Err      Quality

2011/07/29 11:22:46.9     42.8307   -7.2129     10.0 f    75   20 089  Ml 3.2 23  Md 3.4  3              js067245    261951

      1.13   +-  0.13       3.1    2.0  116.28 +-  0.0    0.50   9.00   +-0.2      +-0.1                 m i ke

SPAIN
Sta     Dist  EvAz     Phase      Date       Time     TRes  Azim  AzRes  Slow  SRes Def   SNR       Amp   Per   Mag1   Mag2       ID
QUIF  005.83 027.9 m E Pn      2011/07/29 11:24:10.9  -0.3                          T                                        4729730
QUIF  005.83 027.9 m E Sn      2011/07/29 11:25:12.5  -1.6                          T                7.5  .22 Ml 3.6 Md 3.3  4729726
ROSF  006.16 025.3 m E Pn      2011/07/29 11:24:15.7   0.0                          T                                        4729732
ROSF  006.16 025.3 m E Sn      2011/07/29 11:25:20.9  -1.1                          T                7.6  .38 Ml 3.4 Md 3.3  4729728
LFF   000.00 000.0 m E Sn                                                                            5.1  .38 Ml 3.1         4730611
LFF   006.12 067.1 m E Pn      2011/07/29 11:24:15.8   0.7                          T                                        4729709
SGMF  006.33 029.5 m E Pn      2011/07/29 11:24:17.4  -0.6                          T                                        4729731
SGMF  006.33 029.5 m E Sn      2011/07/29 11:25:25.7  -0.4                          T                2.4  .19 Ml 3.3         4729727
MFF   006.29 050.7 m E Pn      2011/07/29 11:24:17.5   0.1                          T                                        4729729
MFF   006.29 050.7 m E Sn      2011/07/29 11:25:24.5  -0.7                          T                3.4  .31 Ml 3.4 Md 3.4  4729722
RJF   006.76 065.6 m E Pn      2011/07/29 11:24:23.7  -0.1                          T                                        4730620
RJF   006.76 065.6 m E Sn      2011/07/29 11:25:36.3   0.0                          T                7.2  .59 Ml 3.0         4729723
MTLF  006.92 082.6 m E Pn      2011/07/29 11:24:24.9  -1.2                          T                                        4730615
MTLF  006.92 082.6 m E Sn      2011/07/29 11:25:39.7  -0.6                          T                2.1  .51 Ml 2.9         4730614
CAF   007.02 069.5 m E Pn      2011/07/29 11:24:26.8  -0.7                          T                                        4730619
GRR   007.12 036.5 m E Pn      2011/07/29 11:24:28.6  -0.2                          T                                        4729710
GRR   007.12 036.5 m E Sn      2011/07/29 11:25:43.5  -1.5                          T                4.1  .28 Ml 3.3         4729719
FLN   007.57 036.1 m E Pn      2011/07/29 11:24:34.6  -0.3 231.5  10.6              T                                        4729720
FLN   007.57 036.1 m E Sn      2011/07/29 11:25:54.6  -1.0                          T                2.2  .23 Ml 3.2         4729725
TCF   007.56 059.6 m E Pn      2011/07/29 11:24:34.7  -0.2                          T                                        4729713
TCF   007.56 059.6 m E Sn      2011/07/29 11:25:52.7  -2.9                          T                3.0  .24 Ml 3.5         4729716
LDF   007.60 038.3 m E Pn      2011/07/29 11:24:34.9  -0.4                          T                                        4729721
LDF   007.60 038.3 m E Sn      2011/07/29 11:25:55.4  -1.1                          T                2.2  .26 Ml 3.2         4729724
SJPF  004.40 084.3 m E Sn      2011/07/29 11:24:39.8  -0.3                          T                8.1  .44 Ml 3.0         4730612
SJPF  004.40 084.3 m E Sg      2011/07/29 11:25:04.9   0.0                          T                8.3  .37 Ml 3.1         4730616
BGF   008.08 059.1 m E Pn      2011/07/29 11:24:41.9   0.1                          T                                        4730621
BGF   008.08 059.1 m E Sn      2011/07/29 11:26:07.7  -0.2                          T                4.8  .36 Ml 3.6         4729718
HYF   008.27 054.2 m E Pn      2011/07/29 11:24:45.5   1.1                          T                                        4730622
AVF   008.49 058.6 m E Pn      2011/07/29 11:24:47.1  -0.3                          T                                        4729712
ETSF  004.89 086.9 m E Sn      2011/07/29 11:24:51.5  -0.3                          T                7.8  .38 Ml 3.2         4729708
ETSF  004.89 086.9 m E Sg      2011/07/29 11:25:20.3   0.0                          T                6.0  .40 Ml 3.0         4730617
LOR   009.00 056.7 m E Pn      2011/07/29 11:24:54.9   0.5 241.5  -3.0              T                                        4730623
LOR   009.00 056.7 m E Sn      2011/07/29 11:26:30.1   0.1                          T                                        4729714
EPF   005.55 085.4 m E Sn      2011/07/29 11:25:07.5   0.0                          T                9.6  .62 Ml 3.2         4730613
EPF   005.55 085.4 m E Sg      2011/07/29 11:25:39.9  -0.8                          T               14.8  .70 Ml 3.3         4730618
SSF   008.70 057.2 m E Sn      2011/07/29 11:26:22.1  -0.6                          T                1.1  .28 Ml 3.2         4729715

.
EVENT     261952
    Date      Time       Latitude Longitude    Depth    Ndef Nsta Gap    Mag1  N    Mag2  N    Mag3  N   Author         ID
       rms   OT_Error      Smajor Sminor Az        Err   mdist  Mdist     Err        Err        Err      Quality

2011/07/29 11:30:20.3     42.8288   -7.2856     10.0 f    66   17 095  Ml 3.0 17  Md 3.2  3              js067245    261952

      1.43   +-  0.15       3.6    2.6  124.29 +-  0.0    0.51   9.05   +-0.1      +-0.1                 m i ke

SPAIN
Sta     Dist  EvAz     Phase      Date       Time     TRes  Azim  AzRes  Slow  SRes Def   SNR       Amp   Per   Mag1   Mag2       ID
SJPF  004.46 084.3 m E Pn      2011/07/29 11:31:26.5   0.6                          T                                        4729760
SJPF  004.46 084.3 m E Sn      2011/07/29 11:32:14.9   0.2                          T                2.7  .25 Ml 2.8 Md 3.2  4729745
SJPF  004.46 084.3 m E Sg      2011/07/29 11:32:40.2   0.2                          T                5.1  .40 Ml 2.9         4730625
ETSF  004.94 086.9 m E Pn      2011/07/29 11:31:33.8   1.2                          T                                        4729748
ETSF  004.94 086.9 m E Sn      2011/07/29 11:32:26.6   0.1                          T                4.7  .39 Ml 2.9 Md 3.1  4729746
ETSF  004.94 086.9 m E Sg      2011/07/29 11:32:55.3   0.1                          T                5.7  .51 Ml 2.9         4730626
EPF   005.60 085.4 m E Pn      2011/07/29 11:31:42.7   1.1                          T                                        4729747
EPF   005.60 085.4 m E Sn      2011/07/29 11:32:42.1   0.0                          T                3.5  .40 Ml 3.0         4730630
EPF   005.60 085.4 m E Sg      2011/07/29 11:33:16.8   1.0                          T                4.5  .49 Ml 3.0         4730627
QUIF  005.86 028.3 m E Pn      2011/07/29 11:31:44.2  -0.8                          T                                        4729762
QUIF  005.86 028.3 m E Sn      2011/07/29 11:32:47.1  -1.1                          T                3.8  .26 Ml 3.2 Md 3.3  4729755
LFF   006.17 067.3 m E Pn      2011/07/29 11:31:48.9  -0.3                          T                                        4729750
LFF   006.17 067.3 m E Sn      2011/07/29 11:32:55.6   0.0                          T                3.0  .24 Ml 3.1         4730629
ROSF  006.18 025.7 m E Pn      2011/07/29 11:31:49.7   0.3                          T                                        4729764
ROSF  006.18 025.7 m E Sn      2011/07/29 11:32:55.5  -0.5                          T                2.5  .29 Ml 3.1         4729757
SGMF  006.36 029.8 m E Pn      2011/07/29 11:31:50.9  -0.9                          T                                        4729763
SGMF  006.36 029.8 m E Sn      2011/07/29 11:32:59.3  -0.9                          T                1.7  .25 Ml 3.0         4729756
MFF   006.33 051.0 m E Pn      2011/07/29 11:31:51.3  -0.1                          T                                        4729761
MFF   006.33 051.0 m E Sn      2011/07/29 11:32:59.4  -0.2                          T                3.0  .42 Ml 3.2         4729753
RJF   006.81 065.7 m E Pn      2011/07/29 11:31:57.8  -0.1                          T                                        4729751
RJF   006.81 065.7 m E Sn      2011/07/29 11:33:10.3  -0.5                          T                2.6  .36 Ml 2.7         4729744
CAF   007.07 069.6 m E Pn      2011/07/29 11:32:00.9  -0.7                          T                                        4729749
GRR   007.16 036.8 m E Pn      2011/07/29 11:32:02.5  -0.1                          T                                        4730631
GRR   007.16 036.8 m E Sn      2011/07/29 11:33:16.4  -2.8                          T                2.3  .33 Ml 3.0         4730628
TCF   007.61 059.7 m E Pn      2011/07/29 11:32:07.9  -0.9                          T                                        4729758
TCF   007.61 059.7 m E Sn      2011/07/29 11:33:27.8  -2.4                          T                2.4  .42 Ml 3.1         4730624
LDF   007.64 038.5 m E Pn      2011/07/29 11:32:08.8  -0.4                          T                                        4729752
BGF   008.12 059.2 m E Pn      2011/07/29 11:32:15.8   0.0                          T                                        4730632
AVF   008.54 058.7 m E Pn      2011/07/29 11:32:20.5  -0.9                          T                                        4730633
LOR   009.05 056.8 m E Pn      2011/07/29 11:32:28.4  -0.1 226.9  -17.8             T                                        4730634
FLN   007.60 036.3 m E Sn      2011/07/29 11:33:29.0  -0.8                          T                1.5  .25 Ml 3.0         4729754

.
