EVENT     269972
    Date      Time       Latitude Longitude    Depth    Ndef Nsta Gap    Mag1  N    Mag2  N    Mag3  N   Author         ID
       rms   OT_Error      Smajor Sminor Az        Err   mdist  Mdist     Err        Err        Err      Quality

2012/02/11 20:33:05.1     43.0237    -.7111      2.0      22    4 078  Ml 1.7  2  Md 1.9  2              js067245    269992

      0.60   +-  0.12       3.0    1.7   12.07 +-  0.0    0.06   2.65   +-0.5      +-0.1                 m i ke

PYRENEES
Sta     Dist  EvAz     Phase      Date       Time     TRes  Azim  AzRes  Slow  SRes Def   SNR       Amp   Per   Mag1   Mag2       ID
SJPF  000.39 283.6 m E Pg      2012/02/11 20:33:13.3   0.7                          T                                        4837361
SJPF  000.39 283.6 m E Sg      2012/02/11 20:33:18.9   1.2                          T               12.7  .28        Md 2.0  4837362
EPF   000.77 089.1 m E Pg      2012/02/11 20:33:20.0   0.3                          T                                        4837359
EPF   000.77 089.1 m E Sg      2012/02/11 20:33:30.4   0.7                          T                4.1  .30        Md 1.9  4837360
MTLF  002.17 080.6 m E Sg      2012/02/11 20:34:13.1  -0.1                          T                 .2  .20 Ml 1.3         4837364
LFF   002.18 028.2 m E Sg      2012/02/11 20:34:13.8   0.1                          T                3.9  .44 Ml 2.0         4837363

.
EVENT     269977
    Date      Time       Latitude Longitude    Depth    Ndef Nsta Gap    Mag1  N    Mag2  N    Mag3  N   Author         ID
       rms   OT_Error      Smajor Sminor Az        Err   mdist  Mdist     Err        Err        Err      Quality

2012/02/11 22:45:27.3     47.1393    8.5772     32.0 f   103   42 059                                    js067245    269997

                                               +-         0.18   8.08                                    m i ke

SWITZERLAND
Sta     Dist  EvAz     Phase      Date       Time     TRes  Azim  AzRes  Slow  SRes Def   SNR       Amp   Per   Mag1   Mag2       ID
HINF  000.00 000.0 m E Sg                                                                          767.2  .22                4837393
HINF  001.35 300.7 m E Pn      2012/02/11 22:45:48.7  -0.5                          T   001.0                                4835528
HINF  001.35 300.7 m E Sn      2012/02/11 22:46:03.6  -1.7                          T   001.0      659.3  .20                4835529
CDF   000.00 000.0 m E Sg                                                                          424.5  .22                4837394
CDF   001.55 325.9 m E Pn      2012/02/11 22:45:51.6  -0.3                          T   001.0                                4835484
CDF   001.55 325.9 m E Sn      2012/02/11 22:46:08.2  -1.7                          T   001.0      512.1  .24                4835486
HAU   001.81 298.9 m E Sg                                                               001.0      510.5  .22                4835494
HAU   001.74 300.7 m E Pn      2012/02/11 22:45:54.3  -0.1                          T   001.0                                4835492
HAU   001.74 300.7 m E Sn      2012/02/11 22:46:12.4  -2.0                          T                                        4835876
CABF  000.00 000.0 m E Sg                                                                          559.8  .33                4837392
CABF  001.79 253.7 m E Pn      2012/02/11 22:45:54.9  -0.2                          T   001.0                                4835524
CABF  001.79 253.7 m E Sn      2012/02/11 22:46:14.1  -1.5                          T   001.0      984.7  .60                4835525
LANF  001.91 344.6 m E Pn      2012/02/11 22:45:56.6  -0.2                          T                                        4835858
LANF  001.91 344.6 m E Sn      2012/02/11 22:46:16.8  -1.8                          T                                        4835878
THEF  002.06 302.9 m E Pn      2012/02/11 22:45:59.2   0.6                          T                                        4835855
LPL   000.00 000.0 m E Sg                                                                          509.7  .74                4837382
LPL   002.07 218.9 m E Pn      2012/02/11 22:46:00.4   1.3                          T   001.0                                4835506
LPL   002.07 218.9 m E Pg      2012/02/11 22:46:04.9   5.9                          T                                        4835843
LPL   002.07 218.9 m E Sn      2012/02/11 22:46:21.5  -0.9                          T              288.9  .51                4835835
LPG   000.00 000.0 m E Sg                                                                          229.9  .43                4837381
LPG   002.07 218.3 m E Pn      2012/02/11 22:46:00.6   1.3                          T   001.0                                4835505
LPG   002.07 218.3 m E Pg      2012/02/11 22:46:05.2   6.0                          T                                        4835842
LPG   002.07 218.3 m E Sn      2012/02/11 22:46:21.6  -1.1                          T              129.2  .34                4835836
PAGF  002.45 306.0 m E Sg                                                                          173.9  .72                4835811
PAGF  002.39 307.5 m E Pn      2012/02/11 22:46:03.9   0.8 137.5  12.2              T                                        4835857
PAGF  002.39 307.5 m E Sn      2012/02/11 22:46:28.0  -1.8                          T                                        4835877
SFTF  002.69 294.3 m E Sg                                                                          206.4  .31                4835814
SFTF  002.62 295.3 m E Pn      2012/02/11 22:46:06.6   0.3 117.9  5.2               T                                        4835856
SFTF  002.62 295.3 m E Sn      2012/02/11 22:46:33.3  -2.0                          T               68.5  .19                4835813
MEZF  002.80 300.0 m E Sg                                                               001.0      156.2  .29                4835514
MEZF  002.74 301.1 m E Pn      2012/02/11 22:46:08.7   0.9 114.1  -4.5              T   001.0                                4835512
MEZF  002.74 301.1 m E Sn      2012/02/11 22:46:36.2  -1.9 117.7  -0.9              T                                        4835812
MBDF  000.00 000.0 m E Sg                                                                          299.8  .46                4837384
MBDF  002.72 208.2 m E Pn      2012/02/11 22:46:09.5   1.6                          T   001.0                                4835530
MBDF  002.72 208.2 m E Sn      2012/02/11 22:46:37.0  -0.9                          T   001.0      203.7  .44                4835532
ORIF  000.00 000.0 m E Sg                                                                          383.9  .72                4837383
ORIF  002.91 221.2 m E Pn      2012/02/11 22:46:11.5   1.2                          T   001.0                                4835517
ORIF  002.91 221.2 m E Sn      2012/02/11 22:46:41.1  -1.2                          T   001.0      114.7  .39                4835518
SMF   003.37 263.1 m E Sg                                                               001.0      205.7  .34                4835519
SMF   003.29 263.1 m E Pn      2012/02/11 22:46:15.5   0.2                          T   001.0                                4835511
SMF   003.29 263.1 m E Sn      2012/02/11 22:46:48.5  -2.7                          T               97.6  .17                4835816
LOR   003.30 273.7 m E Sg                                                               001.0      128.3  .17                4835504
LOR   003.22 274.0 m E Pn      2012/02/11 22:46:15.7   1.3  98.3  7.7               T   001.0                                4835503
SSF   003.55 270.4 m E Sg                                                                          206.2  .58                4835808
SSF   003.46 270.6 m E Pn      2012/02/11 22:46:18.4   0.7                          T   001.0                                4835520
VIVF  003.63 232.2 m E Sg                                                                           91.6  .30                4835832
VIVF  003.55 231.4 m E Pn      2012/02/11 22:46:18.4  -0.5                          T   001.0                                4835537
VIVF  003.55 231.4 m E Sn      2012/02/11 22:46:56.2  -1.3                          T               27.9  .18                4835834
SBF   000.00 000.0 m E Sg                                                                          186.9  .50                4837377
SBF   003.37 194.2 m E P       2012/02/11 22:46:18.5  -0.6                          T   001.0                                4835510
SBF   003.37 194.2 m E Sn      2012/02/11 22:46:52.2  -1.1                          T               75.4  .30                4835838
AVF   003.68 266.3 m E Sg                                                               001.0      120.3  .53                4835479
AVF   003.59 266.3 m E Pn      2012/02/11 22:46:19.6   0.1                          T   001.0                                4835478
AVF   003.59 266.3 m E Sn      2012/02/11 22:46:56.8  -1.7                          T                                        4835815
SMRF  000.00 000.0 m E Sg                                                                          113.1  .66                4837380
SMRF  003.80 214.8 m E Pn      2012/02/11 22:46:22.5   0.1                          T   001.0                                4835538
SMRF  003.80 214.8 m E Sn      2012/02/11 22:47:02.5  -0.9                          T               21.8  .26                4835837
FRF   000.00 000.0 m E Sg                                                                           95.0  .58                4837379
FRF   003.83 201.5 m E Pn      2012/02/11 22:46:22.0   0.3                          T   001.0                                4835489
FRF   003.83 201.5 m E Sn      2012/02/11 22:47:03.1  -1.0                          T   001.0      110.6  .76                4835490
GIVF  000.00 000.0 m E Sg                                                                          159.8  .60                4837395
GIVF  003.87 321.4 m E Pn      2012/02/11 22:46:24.5   1.3                          T   001.0                                4835526
GIVF  003.87 321.4 m E Sn      2012/02/11 22:47:03.5  -1.6                          T   001.0      118.2  .52                4835527
BGF   004.06 263.7 m E Sg                                                               001.0      155.2  .44                4835481
BGF   003.98 263.7 m E Pn      2012/02/11 22:46:24.6  -0.1                          T   001.0                                4835480
BGF   003.98 263.7 m E Sn      2012/02/11 22:47:06.0  -1.5                          T               93.6  .24                4835819
LMR   000.00 000.0 m E Sg                                                                           42.4  .45                4837378
LMR   004.08 201.7 m E Pn      2012/02/11 22:46:26.3   0.3                          T   001.0                                4835501
LMR   004.08 201.7 m E Sn      2012/02/11 22:47:08.6  -1.3                          T   001.0       23.4  .36                4835502
HYF   004.05 274.0 m E Pn      2012/02/11 22:46:26.7   1.0                          T                                        4835851
HYF   004.05 274.0 m E Sn      2012/02/11 22:47:08.1  -1.3                          T                                        4835817
BAIF  004.12 316.8 m E Pn      2012/02/11 22:46:28.2   1.7                          T   001.0                                4835523
BAIF  004.12 316.8 m E Sn      2012/02/11 22:47:09.5  -1.4                          T              133.0  .78                4835810
TCF   004.55 261.4 m E Sg                                                               001.0      104.7  .56                4835522
TCF   004.46 261.3 m E Pn      2012/02/11 22:46:31.2  -0.1                          T   001.0                                4835521
TCF   004.46 261.3 m E Sn      2012/02/11 22:47:16.2  -2.9                          T               24.2  .22                4835809
LASF  004.59 229.6 m E Sg                                                               001.0       83.8  .62                4835496
LASF  004.51 228.9 m E Pn      2012/02/11 22:46:32.0   0.0                          T   001.0                                4835495
LASF  004.51 228.9 m E Sn      2012/02/11 22:47:19.2  -1.2                          T               19.2  .25                4835833
PGF   004.60 176.1 m E P       2012/02/11 22:46:34.5  -2.1                          T   001.0                                4835508
PGF   004.60 176.1 m E Sn      2012/02/11 22:47:21.4  -1.2                          T   001.0       10.1  .47                4835509
CAF   005.13 246.7 m E Sg                                                               001.0      127.0  .74                4835483
CAF   005.05 246.4 m E Pn      2012/02/11 22:46:39.1  -0.1                          T   001.0                                4835482
CAF   005.05 246.4 m E Sn      2012/02/11 22:47:31.6  -1.5                          T               11.7  .24                4835830
RJF   005.32 252.3 m E Sg                                                                          101.0  .76                4835828
RJF   005.23 252.0 m E Pn      2012/02/11 22:46:41.9   0.1                          T                                        4835847
RJF   005.23 252.0 m E Pg      2012/02/11 22:47:05.1  23.3                          T                                        4835846
RJF   005.23 252.0 m E Sn      2012/02/11 22:47:36.2  -1.3                          T   001.0       17.9  .44                4835477
LFF   005.97 251.1 m E Sg                                                                          137.0  .76                4835829
LFF   005.88 250.9 m E Pn      2012/02/11 22:46:50.9   0.3                          T   001.0                                4835499
LFF   005.88 250.9 m E Sn      2012/02/11 22:47:51.1  -2.0                          T   001.0       32.7  .60                4835500
MTLF  005.96 232.6 m E Sg                                                               001.0       30.6  .65                4835516
MTLF  005.88 232.1 m E Pn      2012/02/11 22:46:50.9   0.4                          T   001.0                                4835515
MTLF  005.88 232.1 m E Sn      2012/02/11 22:47:51.9  -1.1                          T                4.0  .26                4835831
MFF   000.00 000.0 m E Sg                                                                           68.0  .72                4837387
MFF   006.01 268.1 m E Pn      2012/02/11 22:46:52.5   0.3                          T   001.0                                4835507
MFF   006.01 268.1 m E Sn      2012/02/11 22:47:53.3  -2.6                          T               15.0  .22                4835827
LDF   006.11 286.9 m E Sg                                                                          140.1  .70                4835825
LDF   006.03 287.1 m E Pn      2012/02/11 22:46:53.2   0.6                          T   001.0                                4835497
LDF   006.03 287.1 m E Sn      2012/02/11 22:47:54.9  -1.7                          T   001.0       18.9  .48                4835498
FLN   006.38 288.0 m E Sg                                                                           68.1  .57                4835823
FLN   006.30 288.3 m E Pn      2012/02/11 22:46:56.8   0.6 111.0  9.5               T   001.0                                4835488
FLN   006.30 288.3 m E Sn      2012/02/11 22:48:01.0  -2.0                          T               22.9  .43                4835824
GRR   000.00 000.0 m E Sg                                                                           31.7  .44                4837388
GRR   006.48 284.6 m E Pn      2012/02/11 22:46:59.2   0.5                          T   001.0                                4835491
GRR   006.48 284.6 m E Sn      2012/02/11 22:48:05.9  -1.4                          T               27.5  .36                4835826
EPF   000.00 000.0 m E Sg                                                                           39.0  .75                4837385
EPF   007.13 237.8 m E Pn      2012/02/11 22:47:08.1   0.4                          T   001.0                                4835487
SGMF  000.00 000.0 m E Sg                                                                           49.7  .64                4837390
SGMF  007.60 282.5 m E Pn      2012/02/11 22:47:14.3   0.4                          T   001.0                                4835535
SGMF  007.60 282.5 m E Sn      2012/02/11 22:48:31.7  -2.2                          T   001.0         23  .84                4835536
QUIF  000.00 000.0 m E Sg                                                                           45.7  .64                4837389
QUIF  007.99 279.9 m E Pn      2012/02/11 22:47:19.2   0.0                          T   001.0                                4835533
QUIF  007.99 279.9 m E Sn      2012/02/11 22:48:40.6  -2.7                          T                7.5  .28                4835822
ROSF  000.00 000.0 m E Sg                                                                           30.4  .59                4837391
ROSF  008.08 282.9 m E Pn      2012/02/11 22:47:20.8   0.4                          T   001.0                                4835534
ROSF  008.08 282.9 m E Sn      2012/02/11 22:48:43.1  -2.4                          T                6.3  .41                4835821
SJPF  000.00 000.0 m E Sg                                                                          107.1 1.28                4837386
SJPF  008.01 243.4 m E Pn      2012/02/11 22:47:23.3   3.7                          T                                        4835845

.
EVENT     269973
    Date      Time       Latitude Longitude    Depth    Ndef Nsta Gap    Mag1  N    Mag2  N    Mag3  N   Author         ID
       rms   OT_Error      Smajor Sminor Az        Err   mdist  Mdist     Err        Err        Err      Quality

2012/02/11 23:17:15.7     43.0932   -1.1539     15.0      10    2 154  Ml 0.8  1  Md 1.0  2              js067245    269993

      0.25   +-  0.09       2.8    1.6     .40 +-  0.0    0.06   1.10   +-         +-0.4                 m i ke

PYRENEES
Sta     Dist  EvAz     Phase      Date       Time     TRes  Azim  AzRes  Slow  SRes Def   SNR       Amp   Per   Mag1   Mag2       ID
SJPF  000.06 291.1 m E Pg      2012/02/11 23:17:19.2   0.4                          T                                        4837618
SJPF  000.06 291.1 m E Sg      2012/02/11 23:17:21.3   0.5                          T                6.8  .20        Md 1.4  4837619
EPF   001.10 092.8 m E Pg      2012/02/11 23:17:36.4   0.0                          T                                        4837616
EPF   001.10 092.8 m E Sg      2012/02/11 23:17:50.7  -0.1                          T                 .2  .23 Ml  .8 Md  .7  4837617

.
