EVENT     280560
    Date      Time       Latitude Longitude    Depth    Ndef Nsta Gap    Mag1  N    Mag2  N    Mag3  N   Author         ID
       rms   OT_Error      Smajor Sminor Az        Err   mdist  Mdist     Err        Err        Err      Quality

2012/08/03 21:44:50.3     44.8294   10.8884      2.0      35    7 068  Ml 2.6  6                         bulletin    280660
                                                                                                         _ldg
      4.20   +-  0.80      19.9   14.5  142.82 +-  0.0    0.13   3.56   +-0.2                            m i ke

NORTHERN ITALY
Sta     Dist  EvAz     Phase      Date       Time     TRes  Azim  AzRes  Slow  SRes Def   SNR       Amp   Per   Mag1   Mag2       ID
PGF   002.66 211.7 m E Pg      2012/08/03 21:45:31.4  -8.4                          T                                        5041877
PGF   002.66 211.7 m E Sg      2012/08/03 21:45:58.5 -15.5                          T                7.4  .94 Ml 2.5         5041876
SBF   002.66 249.9 m E Pn      2012/08/03 21:45:38.4   6.0                          T                                        5041879
SBF   002.66 249.9 m E Sn      2012/08/03 21:46:12.8   9.5                          T               10.7  .76 Ml 2.5         5041878
MBDF  002.93 269.4 m E Pg      2012/08/03 21:45:42.4  -2.4                          T                                        5041873
MBDF  002.93 269.4 m E Sg      2012/08/03 21:46:18.9  -3.7                          T               16.1 1.26 Ml 2.5         5041872
LPG   003.00 284.3 m E Pg      2012/08/03 21:45:44.8  -1.5                          T                                        5041875
LPG   003.00 284.3 m E Sg      2012/08/03 21:46:25.2   0.4                          T               10.2 1.08 Ml 2.4         5041874
FRF   003.30 248.9 m E Pn      2012/08/03 21:45:45.6   4.5                          T                                        5041883
FRF   003.30 248.9 m E Sn      2012/08/03 21:46:24.9   6.3                          T               38.7 1.54 Ml 2.9         5041882
LMR   003.49 246.2 m E Pn      2012/08/03 21:45:47.1   3.4                          T                                        5041881
LMR   003.49 246.2 m E Sn      2012/08/03 21:46:30.2   7.1                          T               10.6  .94 Ml 2.6         5041880
ORIF  003.56 273.2 m E Pg      2012/08/03 21:45:49.3  -7.1                          T                                        5041871

.
EVENT     280561
    Date      Time       Latitude Longitude    Depth    Ndef Nsta Gap    Mag1  N    Mag2  N    Mag3  N   Author         ID
       rms   OT_Error      Smajor Sminor Az        Err   mdist  Mdist     Err        Err        Err      Quality

2012/08/03 22:30:53.1     44.0288   16.8168      2.0      92   20 046  Ml 3.5  2                         bulletin    280661
                                                                                                         _ldg
      1.21   +-  0.12       4.6    2.5   34.40 +-  0.0    0.77  10.56   +-0.3                            m i ke

NORTHWESTERN BALKAN PEN.
Sta     Dist  EvAz     Phase      Date       Time     TRes  Azim  AzRes  Slow  SRes Def   SNR       Amp   Per   Mag1   Mag2       ID
SBF   006.77 271.9 m E Pn      2012/08/03 22:32:31.4   0.1                          T   001.0                                5043893
MBDF  007.23 279.0 m E Pn      2012/08/03 22:32:36.9  -0.7                          T   001.0                                5043899
LPG   007.31 285.1 m E Pn      2012/08/03 22:32:38.9   0.0                          T   001.0                                5043890
LPL   007.33 285.2 m E Pn      2012/08/03 22:32:39.4   0.4                          T   001.0                                5043891
FRF   007.37 269.9 m E Pn      2012/08/03 22:32:39.4   0.1                          T   001.0                                5043885
LMR   007.51 268.3 m E Pn      2012/08/03 22:32:42.4   1.3                          T   001.0                                5043888
ORIF  007.87 280.3 m E Pn      2012/08/03 22:32:46.9   0.6                          T   001.0                                5043900
ORIF  007.87 280.3 m E Sn      2012/08/03 22:34:13.2   2.4                          T   001.0       10.1  .48 Ml 3.7         5043901
HINF  007.91 302.1 m E Pn      2012/08/03 22:32:48.4   1.7                          T   001.0                                5043898
CABF  007.99 292.6 m E Pn      2012/08/03 22:32:48.4   0.5                          T   001.0                                5043897
SMRF  008.11 273.5 m E Pn      2012/08/03 22:32:50.9   1.5                          T   001.0                                5043903
HAU   008.30 302.3 m E Pn      2012/08/03 22:32:52.0   1.0                          T   001.0                                5043886
VIVF  008.73 279.7 m E Pn      2012/08/03 22:32:57.5  -0.3                          T   001.0                                5043902
LASF  009.34 274.8 m E Pn      2012/08/03 22:33:04.5  -1.6                          T   001.0                                5043887
SMF   009.51 290.5 m E Pn      2012/08/03 22:33:09.5   1.1                          T   001.0                                5043894
LOR   009.64 294.2 m E Pn      2012/08/03 22:33:11.5   1.3                          T   001.0                                5043889
SSF   009.82 292.6 m E Pn      2012/08/03 22:33:13.5   0.9                          T   001.0                                5043895
AVF   009.86 291.0 m E Pn      2012/08/03 22:33:13.0   0.8                          T   001.0                                5043883
BGF   010.17 289.3 m E Pn      2012/08/03 22:33:16.5  -0.9                          T   001.0                                5043884
TCF   010.56 287.4 m E Pn      2012/08/03 22:33:24.1   1.3                          T   001.0                                5043896
PGF   005.89 258.2 m E Sn      2012/08/03 22:33:24.1   0.6                          T   001.0        8.5  .96 Ml 3.3         5043892

.
EVENT     280578
    Date      Time       Latitude Longitude    Depth    Ndef Nsta Gap    Mag1  N    Mag2  N    Mag3  N   Author         ID
       rms   OT_Error      Smajor Sminor Az        Err   mdist  Mdist     Err        Err        Err      Quality

2012/08/04 00:26:18.7     47.7715    8.8821     10.0      11    3 119  Ml 1.7  3  Md 1.9  2              bulletin    280678
                                                                                                         _ldg
      0.40   +-  0.09       1.7    1.5   29.80 +-  0.0    0.10   1.72   +-0.3      +-0.0                 m i ke

SWITZERLAND
Sta     Dist  EvAz     Phase      Date       Time     TRes  Azim  AzRes  Slow  SRes Def   SNR       Amp   Per   Mag1   Mag2       ID
CDF   001.25 301.4 m E Pg      2012/08/04 00:26:42.3   0.0                          T                                        5039867
CDF   001.25 301.4 m E Sn      2012/08/04 00:26:57.2   0.5                          T                                        5039868
CDF   001.25 301.4 m E Sg      2012/08/04 00:26:59.1   0.6                          T                1.7  .18 Ml 2.0 Md 1.9  5039869
HINF  001.37 272.6 m E Pg      2012/08/04 00:26:45.0   0.7                          T                                        5039865
HINF  001.37 272.6 m E Sn      2012/08/04 00:27:00.1   0.7                          T                                        5039864
HINF  001.37 272.6 m E Sg      2012/08/04 00:27:02.4   0.3                          T                 .7  .25 Ml 1.4 Md 1.9  5039866
HAU   001.72 278.8 m E Sg      2012/08/04 00:27:13.0  -0.1                          T                1.2  .26 Ml 1.6         5045747

.
EVENT     280512
    Date      Time       Latitude Longitude    Depth    Ndef Nsta Gap    Mag1  N    Mag2  N    Mag3  N   Author         ID
       rms   OT_Error      Smajor Sminor Az        Err   mdist  Mdist     Err        Err        Err      Quality

2012/08/04 11:50:15.5     44.4804    6.6826      2.0      55   17 051  Ml 2.4 10  Md 2.5  3              bulletin    280612
                                                                                                         _ldg
      1.14   +-  0.08       2.1    1.5   36.08 +-  0.0    0.09   3.76   +-0.3      +-0.1                 m i ke

FRANCE
Sta     Dist  EvAz     Phase      Date       Time     TRes  Azim  AzRes  Slow  SRes Def   SNR       Amp   Per   Mag1   Mag2       ID
MBDF  000.25 014.4 m E Pg      2012/08/04 11:50:20.9   0.2                          T                                        5038769
MBDF  000.25 014.4 m E Sg      2012/08/04 11:50:24.2   0.0                          T               70.2  .32        Md 2.4  5038756
ORIF  000.72 307.7 m E Pg      2012/08/04 11:50:29.3   0.0                          T                                        5038768
ORIF  000.72 307.7 m E Sg      2012/08/04 11:50:39.3   0.6                          T               25.9  .28        Md 2.4  5038761
SBF   000.82 138.5 m E Pg      2012/08/04 11:50:31.4   0.3                          T                                        5038764
SBF   000.82 138.5 m E Sg      2012/08/04 11:50:42.6   0.9                          T               32.1  .30        Md 2.5  5038757
FRF   000.92 181.6 m E Pg      2012/08/04 11:50:33.1   0.3                          T                                        5038766
FRF   000.92 181.6 m E Sg      2012/08/04 11:50:45.3   0.5                          T               41.3  .26 Ml 3.0         5039768
FRF   000.92 181.6 m E Sn      2012/08/04 11:50:47.6   0.7                          T                                        5038759
SMRF  000.94 238.0 m E Pn      2012/08/04 11:50:34.7   0.5                          T                                        5038767
SMRF  000.94 238.0 m E P       2012/08/04 11:50:36.1   0.8                          T                                        5039766
SMRF  000.94 238.0 m E Sg      2012/08/04 11:50:46.1   0.6                          T               22.1  .28 Ml 2.7         5038760
LMR   001.15 186.3 m E Pn      2012/08/04 11:50:37.7   0.7                          T                                        5038765
LMR   001.15 186.3 m E Sg      2012/08/04 11:50:52.4   0.4                          T               10.9  .18 Ml 2.7         5039767
VIVF  001.48 285.4 m E Pn      2012/08/04 11:50:42.7   1.2                          T                                        5038763
VIVF  001.48 285.4 m E P       2012/08/04 11:50:44.3   0.8                          T                                        5039765
VIVF  001.48 285.4 m E Sg      2012/08/04 11:51:02.4   0.1                          T                5.2  .32 Ml 2.2         5038762
CABF  002.17 349.1 m E P       2012/08/04 11:50:53.6   0.3                          T                                        5039758
CABF  002.17 349.1 m E Sg      2012/08/04 11:51:24.4   0.4                          T                                        5039757
PGF   002.56 138.1 m E P       2012/08/04 11:50:57.7  -1.3                          T                                        5039764
PGF   002.56 138.1 m E Sn      2012/08/04 11:51:26.5   0.3                          T                2.3  .26 Ml 2.5         5039763
AVF   003.29 315.9 m E P       2012/08/04 11:51:08.4  -0.7                          T                                        5039756
CAF   003.32 279.3 m E P       2012/08/04 11:51:08.9  -0.9                          T                                        5039775
SSF   003.41 320.4 m E P       2012/08/04 11:51:09.4  -1.5                          T                                        5039760
LOR   003.42 325.7 m E P       2012/08/04 11:51:09.4  -1.6 141.7  -2.0              T                                        5039759
MTLF  003.42 252.1 m E P       2012/08/04 11:51:10.5  -0.6                          T                                        5039755
MTLF  003.42 252.1 m E Sn      2012/08/04 11:51:46.7   0.0                          T                 .6  .20 Ml 2.0         5039754
TCF   003.63 301.4 m E P       2012/08/04 11:51:12.8  -1.3                          T                                        5039761
RJF   003.76 284.5 m E Pn      2012/08/04 11:51:12.9   0.3                          T                                        5039776
LASF  002.07 259.7 m E Sn      2012/08/04 11:51:14.8   0.4                          T                2.2  .28 Ml 2.1         5039762

.
EVENT     280579
    Date      Time       Latitude Longitude    Depth    Ndef Nsta Gap    Mag1  N    Mag2  N    Mag3  N   Author         ID
       rms   OT_Error      Smajor Sminor Az        Err   mdist  Mdist     Err        Err        Err      Quality

2012/08/04 15:13:31.5     47.7944    7.5675     10.0      28   11 051  Ml 2.1  8  Md 2.0  2              bulletin    280679
                                                                                                         _ldg
      0.30   +-  0.05       1.3     .9    2.93 +-  0.0    0.14   2.93   +-0.3      +-0.0                 m i ke

SWITZERLAND
Sta     Dist  EvAz     Phase      Date       Time     TRes  Azim  AzRes  Slow  SRes Def   SNR       Amp   Per   Mag1   Mag2       ID
HINF  000.48 272.9 m E Pg      2012/08/04 15:13:41.1   0.2                          T                                        5046319
HINF  000.48 272.9 m E Sg      2012/08/04 15:13:46.8  -0.5                          T                                        5040300
HINF  000.48 272.9 m E Sn      2012/08/04 15:13:49.5  -1.5                          T                2.3  .32        Md 2.0  5040299
CDF   000.65 342.6 m E Pg      2012/08/04 15:13:43.6  -0.3                          T                                        5046320
CDF   000.65 342.6 m E Pn      2012/08/04 15:13:44.6  -0.8                          T                                Md 2.0  5040306
CDF   000.65 342.6 m E Sg      2012/08/04 15:13:52.4  -0.1                          T                 .9  .20                5040305
HAU   000.85 284.9 m E Pg      2012/08/04 15:13:47.7   0.1                          T                                        5040298
HAU   000.85 284.9 m E Sg      2012/08/04 15:13:58.4  -0.2                          T                6.0  .38                5040297
THEF  001.14 292.9 m E Pn      2012/08/04 15:13:52.0   0.0                          T                                        5040296
THEF  001.14 292.9 m E Sn      2012/08/04 15:14:06.4  -0.3                          T                2.8  .20 Ml 2.0         5040295
LANF  001.20 007.5 m E Pn      2012/08/04 15:13:52.9   0.2                          T                                        5040304
LANF  001.20 007.5 m E Sn      2012/08/04 15:14:08.3   0.2                          T                2.5  .25 Ml 1.9         5040303
PAGF  001.45 302.4 m E Pn      2012/08/04 15:13:56.1   0.0                          T                                        5040289
PAGF  001.45 302.4 m E Sn      2012/08/04 15:14:14.2   0.2                          T                3.6  .35 Ml 2.0         5040288
CABF  001.56 221.0 m E Pn      2012/08/04 15:13:57.7   0.0                          T                                        5040294
CABF  001.56 221.0 m E Sn      2012/08/04 15:14:15.2  -1.5                          T                1.0  .24 Ml 1.7         5040293
SFTF  001.75 284.5 m E Pn      2012/08/04 15:14:00.2   0.0                          T                                        5040292
SFTF  001.75 284.5 m E Sn      2012/08/04 15:14:21.3   0.2                          T                7.8  .35 Ml 2.5         5040291
LOR   002.57 259.5 m E Pn      2012/08/04 15:14:11.6   0.2                          T                                        5040286
LOR   002.57 259.5 m E Sn      2012/08/04 15:14:40.7  -0.1                          T                  1  .29 Ml 1.9         5040285
GIVF  002.93 323.0 m E Pn      2012/08/04 15:14:16.8   0.4                          T                                        5040302
GIVF  002.93 323.0 m E Sn      2012/08/04 15:14:49.5   0.0                          T                1.6  .22 Ml 2.3         5040301
MEZF  001.83 293.7 m E Sn      2012/08/04 15:14:23.0   0.0                          T                4.9  .36 Ml 2.3         5040290

.
EVENT     280574
    Date      Time       Latitude Longitude    Depth    Ndef Nsta Gap    Mag1  N    Mag2  N    Mag3  N   Author         ID
       rms   OT_Error      Smajor Sminor Az        Err   mdist  Mdist     Err        Err        Err      Quality

2012/08/04 18:35:50.7     50.6060    6.7005      3.0 f    16    5 118  Ml 2.1  4  Md 2.2  2              bulletin    280674
                                                                                                         _ldg
      0.22   +-  0.05       1.3     .7    9.44 +-  0.0    0.09   2.79   +-0.4      +-0.1                 m i ke

GERMANY
Sta     Dist  EvAz     Phase      Date       Time     TRes  Azim  AzRes  Slow  SRes Def   SNR       Amp   Per   Mag1   Mag2       ID
GIVF  001.30 248.0 m E Pg      2012/08/04 18:36:15.1   0.0                          T                                        5039784
GIVF  001.30 248.0 m E P       2012/08/04 18:36:15.9   0.0                          T                                        5039809
GIVF  001.30 248.0 m E Sg      2012/08/04 18:36:32.1   0.2                          T                8.1  .24 Ml 2.5 Md 2.1  5039783
BAIF  001.69 252.0 m E P       2012/08/04 18:36:21.4   0.0                          T                                        5039817
BAIF  001.69 252.0 m E Pg      2012/08/04 18:36:22.2   0.0                          T                                        5039806
BAIF  001.69 252.0 m E Sn      2012/08/04 18:36:39.7  -0.6                          T                                        5039816
BAIF  001.69 252.0 m E Sg      2012/08/04 18:36:42.7  -1.2                          T                7.1  .28 Ml 2.5 Md 2.3  5039781
LANF  001.78 155.8 m E Sg      2012/08/04 18:36:47.0   0.2                          T                                        5039808
CDF   002.23 170.1 m E Sg      2012/08/04 18:37:01.1   0.2                          T                 .5  .24 Ml 1.7         5039805
HINF  002.79 177.9 m E Sg      2012/08/04 18:37:17.9  -0.6                          T                 .9  .33 Ml 1.8         5039807

.
