EVENT     281206
    Date      Time       Latitude Longitude    Depth    Ndef Nsta Gap    Mag1  N    Mag2  N    Mag3  N   Author         ID
       rms   OT_Error      Smajor Sminor Az        Err   mdist  Mdist     Err        Err        Err      Quality

2012/08/15 18:28:16.4     43.0916   -1.4291      2.0      21    6 084  Ml 1.8  5  Md 2.0  2              bulletin    281306
                                                                                                         _ldg
      0.36   +-  0.08       1.7    1.2   27.81 +-  0.0    0.14   3.12   +-0.5      +-0.1                 m i ke

PYRENEES
Sta     Dist  EvAz     Phase      Date       Time     TRes  Azim  AzRes  Slow  SRes Def   SNR       Amp   Per   Mag1   Mag2       ID
ETSF  000.67 106.5 m E Pg      2012/08/15 18:28:28.6  -0.5                          T                                        5046634
ETSF  000.67 106.5 m E Sg      2012/08/15 18:28:37.1  -0.8                          T               14.6  .24        Md 1.9  5046632
EPF   001.30 092.1 m E Pg      2012/08/15 18:28:40.8   0.1                          T                                        5046633
EPF   001.30 092.1 m E Sg      2012/08/15 18:28:57.4  -0.1                          T                9.0  .22 Ml 2.6 Md 2.1  5046631
LFF   002.42 039.5 m E Sg      2012/08/15 18:29:32.4  -0.1                          T                2.6  .52 Ml 1.8         5054189
RJF   003.06 042.7 m E Sn      2012/08/15 18:29:38.3  -0.7                          T                 .6  .38 Ml 1.3         5054190
CAF   003.12 052.8 m E Sn      2012/08/15 18:29:40.1  -0.2                          T                 .5  .32 Ml 1.7         5054192
MTLF  002.68 083.4 m E Sg      2012/08/15 18:29:40.4   0.0                          T                1.1  .45 Ml 1.8         5054191

.
EVENT     281488
    Date      Time       Latitude Longitude    Depth    Ndef Nsta Gap    Mag1  N    Mag2  N    Mag3  N   Author         ID
       rms   OT_Error      Smajor Sminor Az        Err   mdist  Mdist     Err        Err        Err      Quality

2012/08/15 19:17:38.4     52.9651    6.7778      3.0 f    21   15 291  Ml 2.9  4                         bulletin    281588
                                                                                                         _ldg
      0.90   +-  0.66      13.6    6.4   39.51 +-  0.0    2.01   8.11   +-0.2                            m i ke

THE NETHERLANDS
Sta     Dist  EvAz     Phase      Date       Time     TRes  Azim  AzRes  Slow  SRes Def   SNR       Amp   Per   Mag1   Mag2       ID
GIVF  003.12 203.8 m E P       2012/08/15 19:18:29.1  -0.3                          T                                        5054211
GIVF  003.12 203.8 m E Sn      2012/08/15 19:19:01.3  -0.7                          T                7.4  .27 Ml 2.9         5054194
BAIF  003.32 209.9 m E Pn      2012/08/15 19:18:29.6   0.3                          T                                        5054205
BAIF  003.32 209.9 m E Sn      2012/08/15 19:19:06.7  -0.2                          T                4.4  .27 Ml 2.7         5054195
CDF   004.57 175.8 m E Pn      2012/08/15 19:18:47.4   1.0                          T                                        5054204
CDF   004.57 175.8 m E P       2012/08/15 19:18:50.0  -0.2                          T                                        5054210
MEZF  004.60 194.5 m E P       2012/08/15 19:18:50.3  -0.3  14.0  0.8               T                                        5054203
HAU   004.97 183.3 m E Pn      2012/08/15 19:18:51.9   0.1                          T                                        5054202
LDF   006.19 227.7 m E Pn      2012/08/15 19:19:07.7  -0.6                          T                                        5054208
LOR   006.00 199.4 m E Pn      2012/08/15 19:19:08.6   2.7  18.2  1.1               T                                        5054212
LOR   006.00 199.4 m E Sn      2012/08/15 19:20:10.8  -0.3  27.7  10.6              T                2.1  .40 Ml 2.8         5054193
FLN   006.23 230.4 m E Pn      2012/08/15 19:19:08.9   0.0  47.4  2.6               T                                        5054200
FLN   006.23 230.4 m E Sn      2012/08/15 19:20:16.7   0.3  45.0  0.2               T                4.4  .36 Ml 3.1         5054196
SSF   006.27 200.9 m E Pn      2012/08/15 19:19:11.7   2.2                          T                                        5054207
AVF   006.56 201.0 m E Pn      2012/08/15 19:19:13.9   0.4                          T                                        5054201
SMF   006.61 197.9 m E Pn      2012/08/15 19:19:14.0   0.0                          T                                        5054209
TCF   007.31 205.7 m E Pn      2012/08/15 19:19:25.2   1.6                          T                                        5054206
SGMF  007.58 235.3 m E Pn      2012/08/15 19:19:26.8  -0.5                          T                                        5054198
MFF   007.78 217.9 m E Pn      2012/08/15 19:19:30.8   0.8                          T                                        5054197
QUIF  008.11 235.4 m E Pn      2012/08/15 19:19:34.0  -0.5                          T                                        5054199

.
EVENT     281208
    Date      Time       Latitude Longitude    Depth    Ndef Nsta Gap    Mag1  N    Mag2  N    Mag3  N   Author         ID
       rms   OT_Error      Smajor Sminor Az        Err   mdist  Mdist     Err        Err        Err      Quality

2012/08/15 19:39:58.4     42.4557    1.0967     10.0 f    42    5 043  Ml 1.8  5  Md 1.9  1              bulletin    281308
                                                                                                         _ldg
      0.39   +-  0.05       1.0     .9   15.34 +-  0.0    0.08   2.59   +-0.1      +-                    m i ke

PYRENEES
Sta     Dist  EvAz     Phase      Date       Time     TRes  Azim  AzRes  Slow  SRes Def   SNR       Amp   Per   Mag1   Mag2       ID
EPF   000.80 316.1 m E Pg      2012/08/15 19:40:13.6   0.0                          T                                        5046679
EPF   000.80 316.1 m E Sg      2012/08/15 19:40:23.7  -0.4                          T                4.0  .18        Md 1.9  5046676
MTLF  001.21 042.6 m E Pg      2012/08/15 19:40:21.1   0.0                          T                                        5046678
MTLF  001.21 042.6 m E Sg      2012/08/15 19:40:37.0   0.3                          T                4.7  .62 Ml 1.8         5046675
ETSF  001.30 290.5 m E Pn      2012/08/15 19:40:22.3   1.2                          T                                        5046677
ETSF  001.30 290.5 m E Sn      2012/08/15 19:40:39.4   1.9                          T                5.3  .48 Ml 2.0         5046674
CAF   002.57 015.5 m E Pn      2012/08/15 19:40:39.5   1.2                          T                                        5046765
CAF   002.57 015.5 m E Sn      2012/08/15 19:41:09.7   2.0                          T                 .5  .20 Ml 1.7         5046766
LASF  002.59 050.3 m E Pg      2012/08/15 19:40:46.3  -0.1                          T                                        5046764
LASF  002.59 050.3 m E Sn      2012/08/15 19:41:09.9   1.7                          T                                        5046762
LASF  002.59 050.3 m E Sg      2012/08/15 19:41:20.0   0.2                          T                 .7  .28 Ml 1.8         5046763

.
EVENT     281207
    Date      Time       Latitude Longitude    Depth    Ndef Nsta Gap    Mag1  N    Mag2  N    Mag3  N   Author         ID
       rms   OT_Error      Smajor Sminor Az        Err   mdist  Mdist     Err        Err        Err      Quality

2012/08/15 19:44:30.4     44.6396   13.6060     20.0 f    67   26 180  Ml 3.0 22                         bulletin    281307
                                                                                                         _ldg
      1.15   +-  0.30       6.9    3.3   69.41 +-  0.0    0.97   8.37   +-0.3                            m i ke

ADRIATIC SEA
Sta     Dist  EvAz     Phase      Date       Time     TRes  Azim  AzRes  Slow  SRes Def   SNR       Amp   Per   Mag1   Mag2       ID
PGF   003.95 239.6 m E Pn      2012/08/15 19:45:29.4   1.3                          T                                        5046735
PGF   003.95 239.6 m E Sn      2012/08/15 19:46:12.6   1.7                          T                3.0  .38 Ml 2.8         5046734
SBF   004.50 262.2 m E Pn      2012/08/15 19:45:35.8   0.2                          T                                        5046649
SBF   004.50 262.2 m E Sn      2012/08/15 19:46:25.4   1.3                          T                5.5  .31 Ml 3.0         5046673
MBDF  004.87 273.4 m E Pn      2012/08/15 19:45:38.9  -1.9                          T                                        5046654
MBDF  004.87 273.4 m E Sn      2012/08/15 19:46:32.6  -0.6                          T                2.8  .27 Ml 2.9         5046642
LPG   004.93 282.4 m E Pn      2012/08/15 19:45:42.5   0.8                          T                                        5046645
LPG   004.93 282.4 m E Sn      2012/08/15 19:46:35.1   0.4                          T               10.6  .56 Ml 3.1         5046644
FRF   005.13 260.3 m E Pn      2012/08/15 19:45:42.8  -1.2                          T                                        5046651
FRF   005.13 260.3 m E Sn      2012/08/15 19:46:36.9  -2.2                          T                2.4  .39 Ml 2.7         5046647
LPL   004.95 282.6 m E Pn      2012/08/15 19:45:43.2   1.3                          T                                        5046652
LPL   004.95 282.6 m E Sn      2012/08/15 19:46:35.6   0.6                          T                4.5  .36 Ml 3.0         5046643
LMR   005.28 258.2 m E Pn      2012/08/15 19:45:45.7  -0.5                          T                                        5046650
LMR   005.28 258.2 m E Sn      2012/08/15 19:46:40.6  -2.2                          T                1.5  .22 Ml 2.8         5046646
ORIF  005.51 275.6 m E Pn      2012/08/15 19:45:49.3   0.0                          T                                        5046653
ORIF  005.51 275.6 m E Sn      2012/08/15 19:46:49.1   0.8                          T                6.1  .38 Ml 3.2         5046715
CABF  005.63 293.1 m E Pn      2012/08/15 19:45:51.0   0.0                          T                                        5046637
CABF  005.63 293.1 m E Sn      2012/08/15 19:46:51.6   0.4                          T                5.9  .47 Ml 3.1         5046720
HINF  005.66 306.5 m E Pn      2012/08/15 19:45:51.8   0.4                          T                                        5046636
HINF  005.66 306.5 m E Sn      2012/08/15 19:46:52.2   0.3                          T                3.3  .43 Ml 2.9         5046721
SMRF  005.80 266.2 m E Pn      2012/08/15 19:45:53.8   0.5                          T                                        5046733
CDF   005.77 313.1 m E Pn      2012/08/15 19:45:54.0   1.1                          T                                        5046635
CDF   005.77 313.1 m E Sn      2012/08/15 19:46:54.4  -0.2                          T                1.8  .27 Ml 3.0         5046723
HAU   006.05 306.4 m E Pn      2012/08/15 19:45:56.5  -0.1                          T                                        5046729
HAU   006.05 306.4 m E Sn      2012/08/15 19:47:00.9  -0.2                          T                5.7  .42 Ml 3.0         5046722
VIVF  006.37 275.1 m E Pn      2012/08/15 19:46:00.0  -1.0                          T                                        5046648
VIVF  006.37 275.1 m E Sn      2012/08/15 19:47:07.0  -1.8                          T                 .7  .18 Ml 2.7         5046641
PAGF  006.69 308.6 m E Pn      2012/08/15 19:46:05.4   0.0 132.2  9.3               T                                        5046726
SFTF  006.91 304.1 m E Pn      2012/08/15 19:46:08.3  -0.1 124.8  6.9               T                                        5046728
MEZF  007.05 306.3 m E Pn      2012/08/15 19:46:10.4   0.2 127.3  7.2               T                                        5046727
SMF   007.13 289.8 m E Pn      2012/08/15 19:46:11.4   0.0                          T                                        5046657
SMF   007.13 289.8 m E Sn      2012/08/15 19:47:27.4   0.4                          T                4.4  .46 Ml 3.3         5046656
LOR   007.28 294.6 m E Pn      2012/08/15 19:46:13.4  -0.1 115.3  7.7               T                                        5046640
LOR   007.28 294.6 m E Sn      2012/08/15 19:47:31.0   0.4                          T                9.4  .47 Ml 3.6         5046639
SSF   007.46 292.5 m E Pn      2012/08/15 19:46:16.0   0.2                          T                                        5046730
SSF   007.46 292.5 m E Sn      2012/08/15 19:47:34.8   0.0                          T                4.6  .47 Ml 3.4         5046719
AVF   007.49 290.3 m E Pn      2012/08/15 19:46:16.3   0.1                          T                                        5046655
AVF   007.49 290.3 m E Sn      2012/08/15 19:47:35.6   0.0                          T                 .7  .28 Ml 2.7         5046638
BGF   007.79 288.0 m E Pn      2012/08/15 19:46:20.2  -0.1                          T                                        5046732
BGF   007.79 288.0 m E Sn      2012/08/15 19:47:43.0   0.4                          T                4.3  .44 Ml 3.4         5046716
GIVF  008.08 315.6 m E Pn      2012/08/15 19:46:23.7  -0.6                          T                                        5046725
TCF   008.18 285.6 m E Pn      2012/08/15 19:46:25.1  -0.5                          T                                        5046731
TCF   008.18 285.6 m E Sn      2012/08/15 19:47:52.1   0.0                          T                1.9  .39 Ml 3.2         5046718
BAIF  008.37 313.7 m E Pn      2012/08/15 19:46:28.1  -0.1                          T                                        5046724
HYF   008.08 292.8 m E Sn      2012/08/15 19:47:49.9   0.2                          T                                        5046717

.
EVENT     281209
    Date      Time       Latitude Longitude    Depth    Ndef Nsta Gap    Mag1  N    Mag2  N    Mag3  N   Author         ID
       rms   OT_Error      Smajor Sminor Az        Err   mdist  Mdist     Err        Err        Err      Quality

2012/08/15 20:20:15.3     42.7562     .8348     10.0 f    12    3 096  Ml 1.6  2  Md 1.8  3              bulletin    281309
                                                                                                         _ldg
      0.26   +-  0.06       1.2     .9   19.21 +-  0.0    0.28   1.17   +-0.0      +-0.1                 m i ke

PYRENEES
Sta     Dist  EvAz     Phase      Date       Time     TRes  Azim  AzRes  Slow  SRes Def   SNR       Amp   Per   Mag1   Mag2       ID
EPF   000.46 307.2 m E Pg      2012/08/15 20:20:24.1  -0.1                          T                                        5046685
EPF   000.46 307.2 m E Sg      2012/08/15 20:20:30.2   0.0                          T                6.5  .18        Md 1.9  5046684
ETSF  001.04 278.4 m E Pg      2012/08/15 20:20:34.7  -0.1                          T                                        5046680
ETSF  001.04 278.4 m E Sg      2012/08/15 20:20:48.0  -0.3                          T                1.3  .26 Ml 1.5 Md 1.8  5046681
MTLF  001.17 059.6 m E Pg      2012/08/15 20:20:37.4   0.2                          T                                        5046683
MTLF  001.17 059.6 m E Sg      2012/08/15 20:20:53.1   0.7                          T                 .8  .17 Ml 1.6 Md 1.9  5046682

.
EVENT     281210
    Date      Time       Latitude Longitude    Depth    Ndef Nsta Gap    Mag1  N    Mag2  N    Mag3  N   Author         ID
       rms   OT_Error      Smajor Sminor Az        Err   mdist  Mdist     Err        Err        Err      Quality

2012/08/15 20:25:51.2     42.7701     .8375     10.0      12    3 099  Ml 1.1  2  Md 1.6  3              bulletin    281310
                                                                                                         _ldg
      0.26   +-  0.06       1.3    1.1   32.90 +-  0.0    0.06   1.16   +-0.0      +-0.1                 m i ke

PYRENEES
Sta     Dist  EvAz     Phase      Date       Time     TRes  Azim  AzRes  Slow  SRes Def   SNR       Amp   Per   Mag1   Mag2       ID
EPF   000.45 305.6 m E Pg      2012/08/15 20:25:59.8  -0.2                          T                                        5046691
EPF   000.45 305.6 m E Sg      2012/08/15 20:26:05.8  -0.3                          T                2.3  .18        Md 1.5  5046690
ETSF  001.04 277.6 m E Pg      2012/08/15 20:26:10.7   0.0                          T                                        5046686
ETSF  001.04 277.6 m E Sg      2012/08/15 20:26:24.1  -0.1                          T                 .4  .24 Ml 1.1 Md 1.6  5046687
MTLF  001.16 060.1 m E Pg      2012/08/15 20:26:13.2   0.2                          T                                        5046688
MTLF  001.16 060.1 m E Sg      2012/08/15 20:26:28.4   0.3                          T                 .2  .15 Ml 1.1 Md 1.7  5046689

.
EVENT     281212
    Date      Time       Latitude Longitude    Depth    Ndef Nsta Gap    Mag1  N    Mag2  N    Mag3  N   Author         ID
       rms   OT_Error      Smajor Sminor Az        Err   mdist  Mdist     Err        Err        Err      Quality

2012/08/16 01:16:02.0     42.2823    1.1358      2.0      31    3 041  Ml 1.7  4                         bulletin    281312
                                                                                                         _ldg
      0.72   +-  0.11       2.1    2.0   47.04 +-  0.0    0.09   1.67   +-0.2                            m i ke

PYRENEES
Sta     Dist  EvAz     Phase      Date       Time     TRes  Azim  AzRes  Slow  SRes Def   SNR       Amp   Per   Mag1   Mag2       ID
EPF   000.95 322.1 m E Pg      2012/08/16 01:16:20.6   0.7                          T                                        5046906
EPF   000.95 322.1 m E Sg      2012/08/16 01:16:33.9   1.6                          T                1.8  .20 Ml 1.7         5046911
MTLF  001.32 036.6 m E Pg      2012/08/16 01:16:27.1   0.4                          T                                        5046905
MTLF  001.32 036.6 m E Sn      2012/08/16 01:16:43.9   0.9                          T                 .9  .26 Ml 1.5         5046908
ETSF  001.40 296.8 m E Pg      2012/08/16 01:16:28.8   0.7                          T                                        5046910
ETSF  001.40 296.8 m E Sn      2012/08/16 01:16:45.5   0.7                          T                1.1  .30 Ml 1.6         5046909

.
