EVENT     262108
    Date      Time       Latitude Longitude    Depth    Ndef Nsta Gap    Mag1  N    Mag2  N    Mag3  N   Author         ID
       rms   OT_Error      Smajor Sminor Az        Err   mdist  Mdist     Err        Err        Err      Quality

2011/08/03 05:27:59.9     44.2848    4.4043      6.0 f    33   14 118  Ml 2.0 15  Md 2.2  2              js067245    262108

      0.32   +-  0.06       1.2     .9  147.45 +-  0.0    0.45   3.95   +-0.2      +-0.1                 m i ke

FRANCE
Sta     Dist  EvAz     Phase      Date       Time     TRes  Azim  AzRes  Slow  SRes Def   SNR       Amp   Per   Mag1   Mag2       ID
LASF  000.45 242.3 m E Pg      2011/08/03 05:28:08.5   0.0                          T                                        4732289
LASF  000.45 242.3 m E Sg      2011/08/03 05:28:14.4  -0.1                          T                5.9  .15        Md 2.3  4732296
VIVF  000.60 018.5 m E Pg      2011/08/03 05:28:11.4   0.0                          T                                        4732288
VIVF  000.60 018.5 m E Sg      2011/08/03 05:28:19.2  -0.1                          T                7.5  .21                4732295
VIVF  000.60 018.5 m E Sn      2011/08/03 05:28:22.0  -1.0                          T               12.4  .16        Md 2.2  4733532
ORIF  001.23 058.5 m E Pn      2011/08/03 05:28:22.4   0.3                          T                                        4733527
ORIF  001.23 058.5 m E Sn      2011/08/03 05:28:38.1   0.0                          T                1.5  .31 Ml 1.6         4733528
CAF   001.79 291.8 m E Pn      2011/08/03 05:28:29.6  -0.1                          T                                        4733531
CAF   001.79 291.8 m E Pg      2011/08/03 05:28:33.5   0.3                          T                                        4732291
CAF   001.79 291.8 m E Sg      2011/08/03 05:28:55.5  -0.8                          T                3.6  .19 Ml 2.4         4732299
MTLF  001.84 240.0 m E Pg      2011/08/03 05:28:34.0  -0.2                          T                                        4732290
MTLF  001.84 240.0 m E Sn      2011/08/03 05:28:52.6   0.0                          T                                        4733529
MTLF  001.84 240.0 m E Sg      2011/08/03 05:28:58.1   0.2                          T                2.1  .21 Ml 2.2         4732297
RJF   002.29 297.4 m E Pn      2011/08/03 05:28:36.5   0.1                          T                                        4733530
RJF   002.29 297.4 m E Pg      2011/08/03 05:28:42.9   0.3                          T                                        4732292
RJF   002.29 297.4 m E Sg      2011/08/03 05:29:11.7  -0.3                          T                2.4  .23 Ml 2.0         4732301
BGF   002.52 334.8 m E Pg      2011/08/03 05:28:47.1   0.4                          T                                        4732293
FRF   001.77 113.3 m E Sg      2011/08/03 05:28:55.5  -0.3                          T                1.7  .25 Ml 2.0         4733525
LMR   001.80 121.2 m E Sg      2011/08/03 05:28:56.3  -0.2                          T                1.4  .22 Ml 2.0         4732294
LPL   002.06 052.5 m E Sg      2011/08/03 05:29:04.6  -0.5                          T                1.6  .43 Ml 1.8         4733526
TCF   002.53 323.1 m E Sg      2011/08/03 05:29:19.0  -0.5                          T                1.6  .31 Ml 2.1         4732303
AVF   002.61 343.9 m E Sg      2011/08/03 05:29:21.6  -0.3                          T                 .7  .20 Ml 1.9         4732286
LFF   002.70 285.3 m E Sg      2011/08/03 05:29:24.5   0.0                          T                1.6  .23 Ml 2.0         4732300
EPF   003.20 248.4 m E Sg      2011/08/03 05:29:40.1  -0.4                          T                1.3  .19 Ml 2.3         4732298

.
EVENT     262109
    Date      Time       Latitude Longitude    Depth    Ndef Nsta Gap    Mag1  N    Mag2  N    Mag3  N   Author         ID
       rms   OT_Error      Smajor Sminor Az        Err   mdist  Mdist     Err        Err        Err      Quality

2011/08/03 05:44:30.2     44.2911    4.4061      6.0 f    30   16 118  Ml 2.1 16  Md 2.3  2              js067245    262109

      0.38   +-  0.08       1.3     .9  131.93 +-  0.0    0.45   3.21   +-0.2      +-0.0                 m i ke

FRANCE
Sta     Dist  EvAz     Phase      Date       Time     TRes  Azim  AzRes  Slow  SRes Def   SNR       Amp   Per   Mag1   Mag2       ID
LASF  000.45 241.6 m E Pg      2011/08/03 05:44:39.0   0.1                          T                                        4732346
LASF  000.45 241.6 m E Sg      2011/08/03 05:44:44.7  -0.2                          T                7.7  .19        Md 2.4  4732352
VIVF  000.60 018.6 m E Pg      2011/08/03 05:44:41.9   0.2                          T                                        4732345
VIVF  000.60 018.6 m E Sg      2011/08/03 05:44:49.7   0.2                          T                9.1  .21                4732351
VIVF  000.60 018.6 m E Sn      2011/08/03 05:44:52.5  -0.7                          T               14.1  .18        Md 2.3  4733544
CAF   001.79 291.6 m E Pn      2011/08/03 05:44:59.8  -0.1                          T                                        4733542
CAF   001.79 291.6 m E Pg      2011/08/03 05:45:04.0   0.4                          T                                        4732348
CAF   001.79 291.6 m E Sg      2011/08/03 05:45:25.9  -0.8                          T                4.6  .23 Ml 2.5         4732356
MTLF  001.85 239.8 m E Pn      2011/08/03 05:45:00.8   0.1                          T                                        4733543
MTLF  001.85 239.8 m E Pg      2011/08/03 05:45:04.6   0.0                          T                                        4732347
MTLF  001.85 239.8 m E Sn      2011/08/03 05:45:22.7  -0.4                          T                                        4732354
MTLF  001.85 239.8 m E Sg      2011/08/03 05:45:28.4   0.0                          T                2.2  .23 Ml 2.2         4732353
RJF   002.29 297.2 m E Pn      2011/08/03 05:45:07.1   0.3                          T                                        4733541
RJF   002.29 297.2 m E Pg      2011/08/03 05:45:13.5   0.7                          T                                        4732349
RJF   002.29 297.2 m E Sg      2011/08/03 05:45:42.3   0.0                          T                7.1  .43 Ml 2.2         4732357
ORIF  001.23 058.7 m E Sn      2011/08/03 05:45:08.5   0.2                          T                1.5  .32 Ml 1.6         4733536
FRF   001.78 113.5 m E Sg      2011/08/03 05:45:26.0  -0.2                          T                2.8  .34 Ml 2.1         4733533
LMR   001.80 121.4 m E Sg      2011/08/03 05:45:26.6  -0.3                          T                2.3  .26 Ml 2.1         4732350
LPG   002.06 053.3 m E Sg      2011/08/03 05:45:34.9  -0.5                          T                 .7  .19 Ml 1.8         4733534
LPL   002.06 052.6 m E Sg      2011/08/03 05:45:34.9  -0.3                          T                 .8  .27 Ml 1.7         4733535
BGF   002.52 334.7 m E Sg      2011/08/03 05:45:48.5  -0.8                          T                3.5  .37 Ml 2.3         4733538
TCF   002.53 323.0 m E Sg      2011/08/03 05:45:49.7   0.0                          T                1.2  .26 Ml 2.0         4732359
CABF  002.60 026.4 m E Sg      2011/08/03 05:45:51.6  -0.5                          T                 .9  .23 Ml 1.9         4733540
AVF   002.61 343.9 m E Sg      2011/08/03 05:45:51.9  -0.2                          T                1.3  .33 Ml 2.0         4733539
LFF   002.70 285.2 m E Sg      2011/08/03 05:45:54.7  -0.2                          T                1.8  .26 Ml 2.0         4733537
EPF   003.21 248.3 m E Sg      2011/08/03 05:46:10.4  -0.5                          T                2.2  .25 Ml 2.4         4732355

.
EVENT     262115
    Date      Time       Latitude Longitude    Depth    Ndef Nsta Gap    Mag1  N    Mag2  N    Mag3  N   Author         ID
       rms   OT_Error      Smajor Sminor Az        Err   mdist  Mdist     Err        Err        Err      Quality

2011/08/03 05:56:48.1     47.6318    6.2131       .0 f    14    8 118  Ml 2.1  4  Md 1.9  2              js067245    262115

      0.87   +-  0.14       2.9    2.4   87.82 +-  0.0    0.38   1.64   +-0.3      +-0.0                 m i km

FRANCE
Sta     Dist  EvAz     Phase      Date       Time     TRes  Azim  AzRes  Slow  SRes Def   SNR       Amp   Per   Mag1   Mag2       ID
HAU   000.38 013.6 m E Pg      2011/08/03 05:56:56.3   0.5                          T                                        4732392
HAU   000.38 013.6 m E Sg      2011/08/03 05:57:00.9  -0.2                          T                1.3  .16        Md 1.9  4732389
HINF  000.47 066.6 m E Pg      2011/08/03 05:56:57.3  -0.1                          T                                        4732396
HINF  000.47 066.6 m E Sg      2011/08/03 05:57:03.6  -0.1                          T               26.4  .94        Md 1.9  4732388
THEF  000.61 346.2 m E Pg      2011/08/03 05:56:59.3  -0.7                          T                                        4733062
THEF  000.61 346.2 m E Sg      2011/08/03 05:57:08.7   0.4                          T               60.2  .93                4733063
SFTF  000.98 306.4 m E Pg      2011/08/03 05:57:06.6   0.0 118.2  -7.3              T                                        4732391
SFTF  000.98 306.4 m E Sg      2011/08/03 05:57:19.5   0.0                          T                4.7  .21 Ml 2.2         4732390
PAGF  000.98 340.7 m E Pg      2011/08/03 05:57:06.9   0.2 164.6  4.2               T                                        4732399
PAGF  000.98 340.7 m E Sg      2011/08/03 05:57:19.5  -0.2                          T                2.8  .45 Ml 1.6         4732395
CABF  001.02 184.8 m E Pn      2011/08/03 05:57:08.3  -0.1                          T                                        4732393
CABF  001.02 184.8 m E Sg      2011/08/03 05:57:21.0  -0.1                          T               18.3  .60 Ml 2.3         4732387
LOR   001.64 258.0 m E Pn      2011/08/03 05:57:16.7   0.1                          T                                        4732397
MEZF  001.17 318.6 m E Sg      2011/08/03 05:57:25.4   0.0 137.8  0.1               T                5.6  .25 Ml 2.2         4732394

.
EVENT     262128
    Date      Time       Latitude Longitude    Depth    Ndef Nsta Gap    Mag1  N    Mag2  N    Mag3  N   Author         ID
       rms   OT_Error      Smajor Sminor Az        Err   mdist  Mdist     Err        Err        Err      Quality

2011/08/03 07:30:35.4     44.4785     .8261       .0 f    10    7 124  Ml 2.1  5  Md 2.3  1              js067245    262128

      0.12   +-  0.04       1.1     .7  113.82 +-  0.0    0.47   2.02   +-0.2      +-                    m i km

FRANCE
Sta     Dist  EvAz     Phase      Date       Time     TRes  Azim  AzRes  Slow  SRes Def   SNR       Amp   Per   Mag1   Mag2       ID
LFF   000.47 352.5 m E Pg      2011/08/03 07:30:44.6   0.0                          T                                        4732360
LFF   000.47 352.5 m E Sg      2011/08/03 07:30:51.0   0.1                          T               28.2  .36        Md 2.3  4732364
RJF   000.96 030.5 m E Pg      2011/08/03 07:30:53.6  -0.1                          T                                        4732368
RJF   000.96 030.5 m E Sg      2011/08/03 07:31:06.3  -0.1                          T                7.1  .28 Ml 1.9         4732362
CAF   000.99 062.7 m E Pg      2011/08/03 07:30:54.3   0.0                          T                                        4732361
CAF   000.99 062.7 m E Sg      2011/08/03 07:31:07.7   0.3                          T                9.0  .30 Ml 2.3         4732363
EPF   001.49 193.8 m E Sg      2011/08/03 07:31:22.9  -0.1                          T                3.7  .28 Ml 2.2         4732367
MTLF  001.52 138.0 m E Sg      2011/08/03 07:31:23.7   0.0                          T                5.2  .38 Ml 2.2         4732369
ETSF  001.87 212.9 m E Sg      2011/08/03 07:31:35.1   0.2                          T                2.7  .34 Ml 2.1         4732366
SJPF  002.02 228.1 m E Sg      2011/08/03 07:31:39.3  -0.1                          T                                        4732365

.
EVENT     262172
    Date      Time       Latitude Longitude    Depth    Ndef Nsta Gap    Mag1  N    Mag2  N    Mag3  N   Author         ID
       rms   OT_Error      Smajor Sminor Az        Err   mdist  Mdist     Err        Err        Err      Quality

2011/08/03 08:37:52.6     44.2771    4.4152     12.0 f    15    8 119  Ml 1.8  6  Md 1.7  3              js067245    262172

      0.41   +-  0.12       2.5    1.8  145.16 +-  0.0    0.45   2.06   +-0.3      +-0.2                 m i ke

FRANCE
Sta     Dist  EvAz     Phase      Date       Time     TRes  Azim  AzRes  Slow  SRes Def   SNR       Amp   Per   Mag1   Mag2       ID
LASF  000.45 243.6 m E Pg      2011/08/03 08:38:01.3  -0.1                          T                                        4733186
LASF  000.45 243.6 m E Sg      2011/08/03 08:38:07.4  -0.1                          T                3.2  .18        Md 1.5  4733185
VIVF  000.61 017.6 m E Pg      2011/08/03 08:38:04.3   0.0                          T                                        4733187
VIVF  000.61 017.6 m E Pn      2011/08/03 08:38:05.9   0.3                          T                                        4733550
VIVF  000.61 017.6 m E Sg      2011/08/03 08:38:10.6  -1.7                          T                5.4  .25        Md 1.8  4733184
VIVF  000.61 017.6 m E Sn      2011/08/03 08:38:13.6  -1.1                          T                                Md 1.9  4733549
MTLF  001.85 240.3 m E Pg      2011/08/03 08:38:26.8  -0.1                          T                                        4733181
MTLF  001.85 240.3 m E Sg      2011/08/03 08:38:50.7   0.0                          T                 .6  .23 Ml 1.6         4733183
ORIF  001.23 058.0 m E Sg      2011/08/03 08:38:30.8  -0.9                          T                1.1  .31 Ml 1.5         4733547
FRF   001.76 113.2 m E Sg      2011/08/03 08:38:48.5   0.3                          T                3.6  .29 Ml 2.3         4733548
CAF   001.80 291.9 m E Sg      2011/08/03 08:38:48.6  -0.8                          T                1.3  .23 Ml 1.9         4733546
LMR   001.79 121.2 m E Sg      2011/08/03 08:38:49.2   0.3                          T                 .5  .20 Ml 1.6         4733182
LPG   002.06 052.9 m E Sg      2011/08/03 08:38:57.4  -0.5                          T                  1  .23 Ml 1.8         4733545

.
EVENT     262140
    Date      Time       Latitude Longitude    Depth    Ndef Nsta Gap    Mag1  N    Mag2  N    Mag3  N   Author         ID
       rms   OT_Error      Smajor Sminor Az        Err   mdist  Mdist     Err        Err        Err      Quality

2011/08/03 10:43:51.1     48.1176   -1.0499       .0 f    19    9 106  Ml 2.4  5  Md 2.4  2              js067245    262140

      0.09   +-  0.02        .6     .4    3.77 +-  0.0    0.30   3.85   +-0.2      +-0.0                 m i km

FRANCE
Sta     Dist  EvAz     Phase      Date       Time     TRes  Azim  AzRes  Slow  SRes Def   SNR       Amp   Per   Mag1   Mag2       ID
GRR   000.30 025.2 m E Pg      2011/08/03 10:43:57.3   0.1                          T                                        4732419
GRR   000.30 025.2 m E Sg      2011/08/03 10:44:01.4  -0.1                          T               35.2  .31        Md 2.4  4732412
LDF   000.78 052.1 m E Pg      2011/08/03 10:44:06.0  -0.1                          T                                        4733553
LDF   000.78 052.1 m E Pn      2011/08/03 10:44:08.0   0.0                          T                                        4732418
LDF   000.78 052.1 m E Sg      2011/08/03 10:44:16.5   0.0                          T                2.1  .18        Md 2.4  4732411
SGMF  001.02 278.3 m E Pg      2011/08/03 10:44:10.4  -0.1                          T                                        4733555
SGMF  001.02 278.3 m E Pn      2011/08/03 10:44:11.2   0.0                          T                                        4732417
SGMF  001.02 278.3 m E Sg      2011/08/03 10:44:24.1   0.2                          T               12.4  .25 Ml 2.5         4732409
QUIF  001.43 262.7 m E Pn      2011/08/03 10:44:17.0   0.2                          T                                        4732415
QUIF  001.43 262.7 m E Pg      2011/08/03 10:44:18.0  -0.1                          T                                        4733554
QUIF  001.43 262.7 m E Sg      2011/08/03 10:44:36.8  -0.1                          T                3.5  .14 Ml 2.4         4732410
ROSF  001.50 279.2 m E Pg      2011/08/03 10:44:19.4   0.0                          T                                        4732416
ROSF  001.50 279.2 m E Sg      2011/08/03 10:44:38.9  -0.1                          T                5.1  .23 Ml 2.4         4732408
MFF   001.64 157.6 m E Pn      2011/08/03 10:44:19.7   0.0                          T                                        4732421
MFF   001.64 157.6 m E Pg      2011/08/03 10:44:21.9   0.0                          T                                        4733552
MFF   001.64 157.6 m E Sg      2011/08/03 10:44:43.0  -0.1                          T                4.1  .24 Ml 2.5         4732420
AVF   003.27 112.3 m E Pn      2011/08/03 10:44:41.8  -0.1                          T                                        4732423
CAF   003.85 144.9 m E Pg      2011/08/03 10:45:02.7   0.1                          T                                        4732422
RJF   003.32 147.0 m E Sn      2011/08/03 10:45:20.5  -0.1                          T                1.9  .23 Ml 2.1         4733551

.
