EVENT     257096
    Date      Time       Latitude Longitude    Depth    Ndef Nsta Gap    Mag1  N    Mag2  N    Mag3  N   Author         ID
       rms   OT_Error      Smajor Sminor Az        Err   mdist  Mdist     Err        Err        Err      Quality

2011/03/14 04:37:08.4     47.1245    1.5375      2.0     123   39 066  Ml 3.2 43  Md 3.1  3              js067245    257096

      0.19   +-  0.02        .4     .4    1.73 +-  0.0    0.77   4.60   +-0.4      +-0.1                 m i ke

FRANCE
Sta     Dist  EvAz     Phase      Date       Time     TRes  Azim  AzRes  Slow  SRes Def   SNR       Amp   Per   Mag1   Mag2       ID
HYF   000.77 078.7 m E Pg      2011/03/14 04:37:23.3   0.5                          T                                        4659669
HYF   000.77 078.7 m E Sg      2011/03/14 04:37:32.7  -0.1                          T                                Md 3.2  4659664
TCF   000.96 150.8 m E Pg      2011/03/14 04:37:26.6   0.2                          T                                        4659675
TCF   000.96 150.8 m E Pn      2011/03/14 04:37:27.4   0.1                          T                                        4659722
TCF   000.96 150.8 m E Sg      2011/03/14 04:37:38.9   0.1                          T              143.4  .22 Ml 3.6 Md 3.1  4659660
BGF   001.06 121.8 m E Pg      2011/03/14 04:37:28.9   0.6                          T                                        4659668
BGF   001.06 121.8 m E Sg      2011/03/14 04:37:42.2   0.1                          T              395.4  .28 Ml 4.0 Md 3.1  4659663
MFF   001.27 246.3 m E Pg      2011/03/14 04:37:32.0  -0.1                          T                                        4659667
MFF   001.27 246.3 m E Sg      2011/03/14 04:37:48.6   0.1                          T              110.4  .18 Ml 3.9         4659703
AVF   001.29 104.4 m E Pg      2011/03/14 04:37:32.2  -0.2                          T                                        4659671
AVF   001.29 104.4 m E Sg      2011/03/14 04:37:47.8  -1.3                          T              112.4  .31 Ml 3.5         4659662
SSF   001.35 092.0 m E Pn      2011/03/14 04:37:33.0   0.5                          T                                        4659723
SSF   001.35 092.0 m E Pg      2011/03/14 04:37:33.7   0.2                          T                                        4659674
SSF   001.35 092.0 m E Sg      2011/03/14 04:37:50.8  -0.1                          T               68.7  .26 Ml 3.5         4659659
LOR   001.59 084.0 m E Pn      2011/03/14 04:37:36.4   0.6                          T                                        4659672
LOR   001.59 084.0 m E Pg      2011/03/14 04:37:37.9  -0.1                          T                                        4659673
LOR   001.59 084.0 m E Sg      2011/03/14 04:37:58.4  -0.1                          T               94.2  .22 Ml 3.7         4659658
SMF   001.65 106.0 m E Pn      2011/03/14 04:37:37.0   0.3                          T                                        4659736
SMF   001.65 106.0 m E Pg      2011/03/14 04:37:38.8  -0.4                          T                                        4659670
SMF   001.65 106.0 m E Sg      2011/03/14 04:38:00.2  -0.2                          T               60.8  .22 Ml 3.5         4659661
RJF   001.82 180.5 m E Pn      2011/03/14 04:37:38.7  -0.3                          T                                        4659665
RJF   001.82 180.5 m E Pg      2011/03/14 04:37:42.3   0.0                          T                                        4659666
RJF   001.82 180.5 m E Sg      2011/03/14 04:38:05.8   0.0                          T               57.5  .18 Ml 3.3         4659702
LDF   001.85 323.4 m E Pn      2011/03/14 04:37:39.7   0.3                          T                                        4659741
LDF   001.85 323.4 m E Pg      2011/03/14 04:37:42.7   0.0                          T                                        4659760
LDF   001.85 323.4 m E Sg      2011/03/14 04:38:06.2  -0.3                          T               39.5  .38 Ml 3.2         4659705
GRR   002.05 308.9 m E Pn      2011/03/14 04:37:41.9  -0.2                          T                                        4659742
GRR   002.05 308.9 m E Pg      2011/03/14 04:37:46.4  -0.1                          T                                        4659759
GRR   002.05 308.9 m E Sg      2011/03/14 04:38:12.2  -0.7                          T               24.2  .24 Ml 3.1         4659704
FLN   002.13 321.1 m E Pn      2011/03/14 04:37:43.0  -0.2                          T                                        4659740
FLN   002.13 321.1 m E Pg      2011/03/14 04:37:47.9   0.0                          T                                        4659761
FLN   002.13 321.1 m E Sg      2011/03/14 04:38:15.2  -0.1                          T               20.2  .22 Ml 3.0         4659706
CAF   002.23 170.3 m E Pn      2011/03/14 04:37:44.8   0.2                          T                                        4659744
CAF   002.23 170.3 m E Pg      2011/03/14 04:37:49.7  -0.2                          T                                        4659757
CAF   002.23 170.3 m E Sg      2011/03/14 04:38:18.8   0.3                          T               19.8  .26 Ml 3.1         4659700
LFF   002.25 194.5 m E Pn      2011/03/14 04:37:45.3   0.4                          T                                        4659743
LFF   002.25 194.5 m E Pg      2011/03/14 04:37:49.8  -0.4                          T                                        4659758
LFF   002.25 194.5 m E Sg      2011/03/14 04:38:19.3   0.1                          T               57.4  .34 Ml 3.3         4659701
SFTF  002.60 064.2 m E Pn      2011/03/14 04:37:49.1  -0.6                          T                                        4659731
SFTF  002.60 064.2 m E Pg      2011/03/14 04:37:57.2   0.5                          T                                        4659776
SFTF  002.60 064.2 m E Sg      2011/03/14 04:38:30.2   0.1                          T               22.8  .26 Ml 3.3         4659714
MEZF  002.74 058.5 m E Pn      2011/03/14 04:37:51.4  -0.1                          T                                        4659730
MEZF  002.74 058.5 m E Pg      2011/03/14 04:37:59.8   0.6                          T                                        4659777
MEZF  002.74 058.5 m E Sg      2011/03/14 04:38:34.4   0.0                          T               14.9  .24 Ml 3.2         4659715
SGMF  002.99 293.7 m E Pn      2011/03/14 04:37:55.6   0.7                          T                                        4659738
SGMF  002.99 293.7 m E Pg      2011/03/14 04:38:03.9   0.2                          T                                        4659764
SGMF  002.99 293.7 m E Sg      2011/03/14 04:38:42.2   0.0                          T                9.5  .30 Ml 2.9         4659708
VIVF  003.15 134.9 m E Pn      2011/03/14 04:37:56.5  -0.6                          T                                        4659751
VIVF  003.15 134.9 m E Pg      2011/03/14 04:38:06.8   0.0                          T                                        4659747
VIVF  003.15 134.9 m E Sg      2011/03/14 04:38:47.1  -0.2                          T               20.1  .34 Ml 3.2         4659694
PAGF  003.16 061.6 m E Pn      2011/03/14 04:37:57.1  -0.2                          T                                        4659729
PAGF  003.16 061.6 m E Pg      2011/03/14 04:38:07.1   0.1                          T                                        4659771
PAGF  003.16 061.6 m E Sg      2011/03/14 04:38:47.7   0.1                          T                8.0  .52 Ml 2.6         4659716
CABF  003.16 097.7 m E Pn      2011/03/14 04:37:57.4   0.1                          T                                        4659735
CABF  003.16 097.7 m E Pg      2011/03/14 04:38:07.1   0.0                          T                                        4659772
CABF  003.16 097.7 m E Sg      2011/03/14 04:38:47.5  -0.3                          T               23.3  .42 Ml 3.2         4659710
THEF  003.21 068.2 m E Pn      2011/03/14 04:37:57.8  -0.1                          T                                        4659732
THEF  003.21 068.2 m E Pg      2011/03/14 04:38:08.0   0.1                          T                                        4659775
THEF  003.21 068.2 m E Sn      2011/03/14 04:38:34.3  -0.1                          T                                        4660396
THEF  003.21 068.2 m E Sg      2011/03/14 04:38:49.1   0.0                          T               24.7  .29 Ml 3.4         4659713
QUIF  003.28 285.7 m E Pn      2011/03/14 04:37:59.4   0.5                          T                                        4659739
QUIF  003.28 285.7 m E Pg      2011/03/14 04:38:09.2   0.0                          T                                        4659762
QUIF  003.28 285.7 m E Sg      2011/03/14 04:38:51.1  -0.3                          T               13.1  .30 Ml 3.1         4659707
HAU   003.37 073.1 m E Pn      2011/03/14 04:38:00.2   0.0                          T                                        4659733
HAU   003.37 073.1 m E Pg      2011/03/14 04:38:11.0   0.1                          T                                        4659774
HAU   003.37 073.1 m E Sn      2011/03/14 04:38:38.4   0.0                          T                                        4660395
HAU   003.37 073.1 m E Sg      2011/03/14 04:38:54.2  -0.1                          T               20.8  .30 Ml 3.1         4659712
LASF  003.46 151.1 m E Pn      2011/03/14 04:38:00.7  -0.6                          T                                        4659752
LASF  003.46 151.1 m E Pg      2011/03/14 04:38:12.9   0.4                          T                                        4659746
LASF  003.46 151.1 m E Sg      2011/03/14 04:38:56.7  -0.1                          T                5.0  .27 Ml 2.8         4659695
BAIF  003.43 030.1 m E Pn      2011/03/14 04:38:00.8  -0.1                          T                                        4659725
BAIF  003.43 030.1 m E Pg      2011/03/14 04:38:11.8  -0.1                          T                                        4659767
BAIF  003.43 030.1 m E Sg      2011/03/14 04:38:56.0   0.1                          T                5.9  .31 Ml 2.8         4659720
ROSF  003.47 292.2 m E Pn      2011/03/14 04:38:01.4   0.0                          T                                        4659737
ROSF  003.47 292.2 m E Pg      2011/03/14 04:38:12.7   0.1                          T                                        4659763
ROSF  003.47 292.2 m E Sg      2011/03/14 04:38:57.2   0.1                          T                8.7  .32 Ml 3.0         4659709
GIVF  003.69 035.0 m E Pn      2011/03/14 04:38:04.3  -0.2                          T                                        4659724
GIVF  003.69 035.0 m E Pg      2011/03/14 04:38:16.7   0.0                          T                                        4659766
GIVF  003.69 035.0 m E Sg      2011/03/14 04:39:04.1   0.0                          T               17.8  .50 Ml 3.1         4659721
HINF  003.67 077.2 m E Pn      2011/03/14 04:38:04.4   0.1                          T                                        4659734
HINF  003.67 077.2 m E Pg      2011/03/14 04:38:16.5   0.0                          T                                        4659773
HINF  003.67 077.2 m E Sn      2011/03/14 04:38:45.5  -0.1                          T                                        4660394
HINF  003.67 077.2 m E Sg      2011/03/14 04:39:03.4  -0.1                          T               10.9  .26 Ml 3.2         4659711
ORIF  003.74 124.5 m E Pn      2011/03/14 04:38:04.8  -0.5                          T                                        4659750
ORIF  003.74 124.5 m E Sg      2011/03/14 04:39:05.9   0.0                          T                5.0  .35 Ml 2.8         4659692
MTLF  003.81 172.5 m E Pn      2011/03/14 04:38:05.7  -0.4                          T                                        4659753
MTLF  003.81 172.5 m E Pg      2011/03/14 04:38:18.9  -0.1                          T                                        4659745
MTLF  003.81 172.5 m E Sg      2011/03/14 04:39:08.0   0.0                          T                7.7  .32 Ml 3.0         4659696
LPL   003.94 112.2 m E Pn      2011/03/14 04:38:07.6  -0.6                          T                                        4659749
LPL   003.94 112.2 m E Sg      2011/03/14 04:39:12.1  -0.1                          T                3.5  .46 Ml 2.5         4659691
LPG   003.96 112.3 m E Pn      2011/03/14 04:38:08.1  -0.4                          T                                        4659748
LPG   003.96 112.3 m E Sg      2011/03/14 04:39:12.9  -0.1                          T                4.0  .52 Ml 2.5         4659690
CDF   004.08 069.5 m E Pn      2011/03/14 04:38:09.7  -0.1                          T                                        4659728
CDF   004.08 069.5 m E Pg      2011/03/14 04:38:23.9  -0.1                          T                                        4659770
CDF   004.08 069.5 m E Sg      2011/03/14 04:39:16.5   0.1                          T               12.6  .42 Ml 3.3         4659717
EPF   004.18 192.1 m E Pn      2011/03/14 04:38:10.5  -0.7                          T                                        4659754
EPF   004.18 192.1 m E Sg      2011/03/14 04:39:19.4   0.0                          T                6.4  .22 Ml 3.2         4659697
MBDF  004.37 121.4 m E Pn      2011/03/14 04:38:13.9   0.0                          T                                        4659689
MBDF  004.37 121.4 m E Sg      2011/03/14 04:39:25.3  -0.2                          T                3.6  .56 Ml 2.5         4659693
ETSF  004.48 200.1 m E Pn      2011/03/14 04:38:14.2  -1.1                          T                                        4659756
ETSF  004.48 200.1 m E Sg      2011/03/14 04:39:29.0   0.2                          T               13.9  .64 Ml 3.1         4659698
SJPF  004.46 207.0 m E Pn      2011/03/14 04:38:14.3  -0.6                          T                                        4659755
SJPF  004.46 207.0 m E Sn      2011/03/14 04:39:04.4   0.0                          T                                        4660393
SJPF  004.46 207.0 m E Sg      2011/03/14 04:39:28.4   0.2                          T                8.1  .45 Ml 3.0         4659699
RUP   004.49 052.9 m E Pn      2011/03/14 04:38:15.4   0.0                          T                                        4659726
RUP   004.49 052.9 m E Pg      2011/03/14 04:38:31.6   0.1                          T                                        4659768
RUP   004.49 052.9 m E Sg      2011/03/14 04:39:28.8  -0.4                          T                                        4659719
LANF  004.60 063.9 m E Pn      2011/03/14 04:38:16.7  -0.1                          T                                        4659727
LANF  004.60 063.9 m E Pg      2011/03/14 04:38:33.5   0.1                          T                                        4659769
LANF  004.60 063.9 m E Sg      2011/03/14 04:39:32.2  -0.1                          T               18.8  .63 Ml 3.3         4659718

.
EVENT     257152
    Date      Time       Latitude Longitude    Depth    Ndef Nsta Gap    Mag1  N    Mag2  N    Mag3  N   Author         ID
       rms   OT_Error      Smajor Sminor Az        Err   mdist  Mdist     Err        Err        Err      Quality

2011/03/14 07:34:01.4     47.4417    7.4122     10.0      14    6 074  Ml 1.8  5  Md 1.9  3              cm165940    257152

      0.47   +-  0.10       2.3    2.0  165.59 +-  0.0    0.07   2.00   +-0.2      +-0.0                 m i ke

SWITZERLAND
Sta     Dist  EvAz     Phase      Date       Time     TRes  Azim  AzRes  Slow  SRes Def   SNR       Amp   Per   Mag1   Mag2       ID
HINF  000.53 315.0 m E Pg      2011/03/14 07:34:11.4  -0.3                          T                                        4660088
HINF  000.53 315.0 m E Sg      2011/03/14 07:34:19.0   0.2                          T                6.8  .18        Md 1.9  4660091
HAU   000.91 308.5 m E Pg      2011/03/14 07:34:18.3  -0.4                          T                                        4660087
HAU   000.91 308.5 m E Sg      2011/03/14 07:34:30.9   0.2                          T                6.7  .30 Ml 1.9 Md 1.8  4660090
CDF   000.98 354.7 m E Pg      2011/03/14 07:34:19.9  -0.1                          T                                        4660089
CDF   000.98 354.7 m E Sg      2011/03/14 07:34:33.0   0.4                          T                2.0  .32 Ml 1.7 Md 1.9  4660086
CABF  001.23 228.0 m E Pn      2011/03/14 07:34:23.2   0.0                          T                                        4660096
CABF  001.23 228.0 m E Sn      2011/03/14 07:34:38.6  -0.2                          T                3.0  .26 Ml 2.0         4660085
LPL   001.98 194.0 m E Pn      2011/03/14 07:34:33.9   0.3                          T                                        4660095
LPL   001.98 194.0 m E Sn      2011/03/14 07:34:57.3   0.3                          T                 .9  .31 Ml 1.7         4660092
LPG   002.00 193.5 m E Pn      2011/03/14 07:34:34.2   0.3                          T                                        4660094
LPG   002.00 193.5 m E Sn      2011/03/14 07:34:58.0   0.5                          T                 .7  .31 Ml 1.5         4660093

.
EVENT     257154
    Date      Time       Latitude Longitude    Depth    Ndef Nsta Gap    Mag1  N    Mag2  N    Mag3  N   Author         ID
       rms   OT_Error      Smajor Sminor Az        Err   mdist  Mdist     Err        Err        Err      Quality

2011/03/14 18:43:22.6     43.0682    -.5415      2.0      22    6 103  Ml 2.1  5  Md 2.0  3              js067245    257154

      0.40   +-  0.08       2.1    1.2  177.89 +-  0.0    0.12   2.68   +-0.1      +-0.1                 m i ke

PYRENEES
Sta     Dist  EvAz     Phase      Date       Time     TRes  Azim  AzRes  Slow  SRes Def   SNR       Amp   Per   Mag1   Mag2       ID
ETSF  000.17 184.4 m E Pg      2011/03/14 18:43:25.9  -0.3                          T                                        4660192
ETSF  000.17 184.4 m E Sg      2011/03/14 18:43:28.4  -0.2                          T               95.9  .32        Md 2.0  4660191
EPF   000.65 093.1 m E Pg      2011/03/14 18:43:34.4  -0.5                          T                                        4660189
EPF   000.65 093.1 m E Sg      2011/03/14 18:43:43.4   0.0                          T                4.4  .16        Md 2.0  4660190
LFF   002.09 025.9 m E Pn      2011/03/14 18:43:56.7  -0.1                          T                                        4660398
LFF   002.09 025.9 m E Sn      2011/03/14 18:44:21.9   0.1                          T                4.4  .28 Ml 2.2         4660401
MTLF  002.04 081.4 m E Pg      2011/03/14 18:44:00.5   0.1                          T                                        4660188
MTLF  002.04 081.4 m E Sg      2011/03/14 18:44:26.7   0.1                          T                2.7  .31 Ml 2.2 Md 2.1  4660187
CAF   002.64 044.5 m E Pn      2011/03/14 18:44:04.6   0.2                          T                                        4660397
CAF   002.64 044.5 m E Sn      2011/03/14 18:44:35.1   0.0                          T                  1  .24 Ml 2.0         4660400
RJF   002.68 032.8 m E Pn      2011/03/14 18:44:04.9   0.0                          T                                        4660399
RJF   002.68 032.8 m E Sn      2011/03/14 18:44:35.9  -0.1                          T                3.5  .26 Ml 2.2         4660402

.
