EVENT     272638
    Date      Time       Latitude Longitude    Depth    Ndef Nsta Gap    Mag1  N    Mag2  N    Mag3  N   Author         ID
       rms   OT_Error      Smajor Sminor Az        Err   mdist  Mdist     Err        Err        Err      Quality

2012/03/29 04:54:56.3     44.5107    6.6700      2.0      33    9 038  Ml 2.1  5  Md 2.1  4              js067245    272658

      0.59   +-  0.06       1.4    1.2   77.14 +-  0.0    0.11   1.90   +-0.3      +-0.1                 m i ke

FRANCE
Sta     Dist  EvAz     Phase      Date       Time     TRes  Azim  AzRes  Slow  SRes Def   SNR       Amp   Per   Mag1   Mag2       ID
MBDF  000.23 018.5 m E Pg      2012/03/29 04:55:01.0   0.0                          T                                        4898375
MBDF  000.23 018.5 m E Sg      2012/03/29 04:55:04.2   0.1                          T               26.0  .42        Md 2.1  4898366
ORIF  000.70 306.2 m E Pg      2012/03/29 04:55:09.4  -0.1                          T                                        4898374
ORIF  000.70 306.2 m E Sg      2012/03/29 04:55:18.2  -0.4                          T                9.2  .20                4898367
SBF   000.85 139.4 m E Pg      2012/03/29 04:55:12.6   0.2                          T                                        4898368
SBF   000.85 139.4 m E Sg      2012/03/29 04:55:23.3  -0.1                          T                8.9  .32                4898377
FRF   000.95 181.0 m E Pg      2012/03/29 04:55:14.0  -0.1                          T                                        4898370
FRF   000.95 181.0 m E Sg      2012/03/29 04:55:26.3  -0.2                          T                7.7  .24 Ml 2.3 Md 2.1  4898365
LPG   000.99 003.3 m E Pg      2012/03/29 04:55:15.1  -0.1                          T                                        4898372
LPG   000.99 003.3 m E Sg      2012/03/29 04:55:27.9  -0.1                          T                1.5  .18 Ml 1.7 Md 2.2  4898379
SMRF  000.95 236.2 m E Pn      2012/03/29 04:55:15.2   0.1                          T                                        4898371
SMRF  000.95 236.2 m E Sg      2012/03/29 04:55:27.2   0.7                          T                3.8  .24 Ml 2.0         4898378
LPL   001.01 002.5 m E Pg      2012/03/29 04:55:15.4   0.0                          T                                        4898373
LMR   001.18 185.7 m E Pg      2012/03/29 04:55:18.9   0.6                          T                                        4898369
LMR   001.18 185.7 m E Sg      2012/03/29 04:55:33.7   0.0                          T                9.4  .34 Ml 2.4 Md 2.1  4898364
VIVF  001.47 284.3 m E P       2012/03/29 04:55:23.2  -0.8                          T                                        4898376
VIVF  001.47 284.3 m E Sg      2012/03/29 04:55:42.6   0.0                          T                2.3  .26 Ml 2.0         4898363

.
EVENT     272685
    Date      Time       Latitude Longitude    Depth    Ndef Nsta Gap    Mag1  N    Mag2  N    Mag3  N   Author         ID
       rms   OT_Error      Smajor Sminor Az        Err   mdist  Mdist     Err        Err        Err      Quality

2012/03/29 11:30:56.9     44.6722    7.3296      7.0 f    31    5 142  Ml 2.0  3  Md 1.9  2              js067245    272705

      0.33   +-  0.08       1.8    1.0   61.08 +-  0.0    0.17   1.46   +-0.2      +-0.1                 m i ke

NORTHERN ITALY
Sta     Dist  EvAz     Phase      Date       Time     TRes  Azim  AzRes  Slow  SRes Def   SNR       Amp   Per   Mag1   Mag2       ID
MBDF  000.40 278.0 m E Pg      2012/03/29 11:31:04.7  -0.3                          T                                        4898387
MBDF  000.40 278.0 m E Sg      2012/03/29 11:31:09.9  -0.4                          T                6.4  .22        Md 2.0  4898393
SBF   000.81 174.6 m E Pg      2012/03/29 11:31:12.5   0.2                          T                                        4898386
SBF   000.81 174.6 m E Sg      2012/03/29 11:31:22.6  -0.3                          T                6.2  .24        Md 1.8  4898381
ORIF  001.06 283.9 m E Pg      2012/03/29 11:31:17.2   0.3                          T                                        4898391
ORIF  001.06 283.9 m E Sg      2012/03/29 11:31:30.7   0.0                          T                2.5  .29 Ml 1.8         4898392
FRF   001.22 204.1 m E Pg      2012/03/29 11:31:19.3  -0.4                          T                                        4898384
FRF   001.22 204.1 m E Sg      2012/03/29 11:31:35.1  -0.3                          T                4.3  .32 Ml 2.1         4898382
LMR   001.46 204.2 m E Pg      2012/03/29 11:31:23.5  -0.8                          T                                        4898385
LMR   001.46 204.2 m E Sg      2012/03/29 11:31:43.6   0.5                          T                3.1  .22 Ml 2.2         4898383

.
EVENT     272744
    Date      Time       Latitude Longitude    Depth    Ndef Nsta Gap    Mag1  N    Mag2  N    Mag3  N   Author         ID
       rms   OT_Error      Smajor Sminor Az        Err   mdist  Mdist     Err        Err        Err      Quality

2012/03/29 11:52:47.4     36.5427   -3.0425      2.0      51    3 119  Ml 3.4  2                         js067245    272764

      1.02   +-  0.23       4.6    3.6  131.24 +-  0.0    0.38   6.98   +-0.0                            m i ke

STRAIT OF GIBRALTAR
Sta     Dist  EvAz     Phase      Date       Time     TRes  Azim  AzRes  Slow  SRes Def   SNR       Amp   Per   Mag1   Mag2       ID
SJPF  006.71 011.5 m E P       2012/03/29 11:54:27.8  -1.6                          T                                        4898398
SJPF  006.71 011.5 m E Sg      2012/03/29 11:56:18.7   1.4                          T                8.2  .61 Ml 3.3         4898394
ETSF  006.63 016.0 m E P       2012/03/29 11:54:27.9  -0.4                          T                                        4898397
EPF   006.98 020.8 m E P       2012/03/29 11:54:32.6  -0.8                          T                                        4898396
EPF   006.98 020.8 m E Sg      2012/03/29 11:56:25.7  -0.1                          T                4.0  .28 Ml 3.4         4898395

.
EVENT     272718
    Date      Time       Latitude Longitude    Depth    Ndef Nsta Gap    Mag1  N    Mag2  N    Mag3  N   Author         ID
       rms   OT_Error      Smajor Sminor Az        Err   mdist  Mdist     Err        Err        Err      Quality

2012/03/29 16:39:06.0     45.4293    6.4754      2.0       8    3 204             Md 1.4  2              js067245    272738

      0.38   +-  0.09       4.1     .9  144.03 +-  0.0    0.20   0.66              +-0.2                 m i ke

FRANCE
Sta     Dist  EvAz     Phase      Date       Time     TRes  Azim  AzRes  Slow  SRes Def   SNR       Amp   Per   Mag1   Mag2       ID
LPL   000.20 064.2 m E Pg      2012/03/29 16:39:10.2  -0.1                          T                                        4898404
LPL   000.20 064.2 m E Sg      2012/03/29 16:39:13.1   0.0                          T                3.6  .22        Md 1.2  4898403
LPG   000.21 070.5 m E Pg      2012/03/29 16:39:10.3  -0.2                          T                                        4898401
LPG   000.21 070.5 m E Sg      2012/03/29 16:39:13.3   0.0                          T                7.7  .20                4898402
ORIF  000.66 219.7 m E Pg      2012/03/29 16:39:18.7   0.1                          T                                        4898399
ORIF  000.66 219.7 m E Sg      2012/03/29 16:39:27.0  -0.3                          T                1.6  .24        Md 1.5  4898400

.
EVENT     272719
    Date      Time       Latitude Longitude    Depth    Ndef Nsta Gap    Mag1  N    Mag2  N    Mag3  N   Author         ID
       rms   OT_Error      Smajor Sminor Az        Err   mdist  Mdist     Err        Err        Err      Quality

2012/03/29 17:02:28.3     43.0531    -.0355     10.0 f    30    7 096  Ml 2.1  6  Md 2.0  2              js067245    272739

      0.50   +-  0.07       1.5    1.1  178.56 +-  0.0    0.08   2.51   +-0.1      +-0.3                 m i ke

PYRENEES
Sta     Dist  EvAz     Phase      Date       Time     TRes  Azim  AzRes  Slow  SRes Def   SNR       Amp   Per   Mag1   Mag2       ID
EPF   000.28 094.6 m E Pg      2012/03/29 17:02:33.8  -0.2                          T                                        4898416
EPF   000.28 094.6 m E Sg      2012/03/29 17:02:37.8   0.0                          T               22.0  .18        Md 2.2  4898414
ETSF  000.41 248.3 m E Pg      2012/03/29 17:02:36.3  -0.2                          T                                        4898417
ETSF  000.41 248.3 m E Sg      2012/03/29 17:02:42.0  -0.1                          T               78.7  .24        Md 1.8  4898415
SJPF  000.87 274.4 m E Pg      2012/03/29 17:02:44.9   0.1                          T                                        4898412
SJPF  000.87 274.4 m E Sg      2012/03/29 17:02:56.9   0.7                          T                6.1  .34 Ml 2.0         4898411
MTLF  001.67 079.3 m E Pg      2012/03/29 17:02:59.5   0.1                          T                                        4898413
MTLF  001.67 079.3 m E Sg      2012/03/29 17:03:20.3  -0.8                          T                2.9  .38 Ml 2.0         4898410
LFF   001.97 016.3 m E Pg      2012/03/29 17:03:05.1   0.3                          T                                        4898418
LFF   001.97 016.3 m E Sg      2012/03/29 17:03:29.9  -0.3                          T                6.7  .40 Ml 2.3         4898409
CAF   002.41 038.3 m E Pg      2012/03/29 17:03:13.2   0.1                          T                                        4898420
CAF   002.41 038.3 m E Sg      2012/03/29 17:03:43.8  -0.3                          T                4.7  .50 Ml 2.3         4898408
RJF   002.51 025.8 m E Pg      2012/03/29 17:03:15.1   0.2                          T                                        4898419
RJF   002.51 025.8 m E Sg      2012/03/29 17:03:46.6  -0.7                          T                2.3  .24 Ml 2.0         4898407

.
EVENT     272720
    Date      Time       Latitude Longitude    Depth    Ndef Nsta Gap    Mag1  N    Mag2  N    Mag3  N   Author         ID
       rms   OT_Error      Smajor Sminor Az        Err   mdist  Mdist     Err        Err        Err      Quality

2012/03/29 20:04:32.0     42.8540    -.9036      2.0      15    3 097  Ml 1.4  1  Md 1.4  2              js067245    272740

      0.70   +-  0.19       4.7    2.9   16.78 +-  0.0    0.25   1.58   +-         +-0.1                 m i ke

PYRENEES
Sta     Dist  EvAz     Phase      Date       Time     TRes  Azim  AzRes  Slow  SRes Def   SNR       Amp   Per   Mag1   Mag2       ID
ETSF  000.26 079.9 m E Pg      2012/03/29 20:04:36.5  -0.7                          T                                        4898428
ETSF  000.26 079.9 m E Sg      2012/03/29 20:04:40.0  -0.6                          T                8.9  .20        Md 1.5  4898425
SJPF  000.35 317.8 m E Pg      2012/03/29 20:04:39.0   0.2                          T                                        4898427
SJPF  000.35 317.8 m E Sg      2012/03/29 20:04:44.4   0.9                          T                4.5  .20        Md 1.4  4898426
EPF   000.93 078.7 m E Pg      2012/03/29 20:04:48.6  -0.9                          T                                        4898424
EPF   000.93 078.7 m E Sg      2012/03/29 20:05:00.9  -0.7                          T                 .8  .23 Ml 1.4         4898423

.
EVENT     272721
    Date      Time       Latitude Longitude    Depth    Ndef Nsta Gap    Mag1  N    Mag2  N    Mag3  N   Author         ID
       rms   OT_Error      Smajor Sminor Az        Err   mdist  Mdist     Err        Err        Err      Quality

2012/03/29 23:38:43.6     42.9438   -1.2351      2.0      12    3 097  Ml 0.8  1  Md 1.1  2              js067245    272741

      0.20   +-  0.06       1.2    1.2  156.91 +-  0.0    0.07   1.16   +-         +-0.6                 m i ke

PYRENEES
Sta     Dist  EvAz     Phase      Date       Time     TRes  Azim  AzRes  Slow  SRes Def   SNR       Amp   Per   Mag1   Mag2       ID
SJPF  000.17 002.5 m E Pg      2012/03/29 23:38:47.3   0.1                          T                                        4898430
SJPF  000.17 002.5 m E Sg      2012/03/29 23:38:49.1  -0.4                          T                2.0  .18        Md 1.5  4898429
ETSF  000.50 095.0 m E Pg      2012/03/29 23:38:53.1  -0.1                          T                                        4899110
ETSF  000.50 095.0 m E Sg      2012/03/29 23:38:59.7  -0.1                          T                 .2  .15        Md  .7  4899111
EPF   001.16 085.2 m E Pg      2012/03/29 23:39:05.3  -0.1                          T                                        4899108
EPF   001.16 085.2 m E Sg      2012/03/29 23:39:20.4   0.0                          T                 .1  .14 Ml  .8         4899109

.
EVENT     272722
    Date      Time       Latitude Longitude    Depth    Ndef Nsta Gap    Mag1  N    Mag2  N    Mag3  N   Author         ID
       rms   OT_Error      Smajor Sminor Az        Err   mdist  Mdist     Err        Err        Err      Quality

2012/03/29 23:44:30.6     36.2906    1.5045     25.0      83   23 234  Ml 3.1  6                         js067245    272742

      0.92   +-  0.31       6.8    3.0  156.45 +-  0.0    2.69  12.55   +-0.2                            m i ke

NORTHERN ALGERIA
Sta     Dist  EvAz     Phase      Date       Time     TRes  Azim  AzRes  Slow  SRes Def   SNR       Amp   Per   Mag1   Mag2       ID
EPF   006.79 352.8 m E Pn      2012/03/29 23:46:07.5   1.1                          T                                        4898440
EPF   006.79 352.8 m E Sn      2012/03/29 23:47:17.2  -0.9                          T                4.3  .44 Ml 3.2         4898643
ETSF  006.79 347.1 m E Pn      2012/03/29 23:46:07.7   1.4                          T                                        4898442
ETSF  006.79 347.1 m E Sn      2012/03/29 23:47:19.3   1.2                          T                1.4  .27 Ml 2.9         4898642
MTLF  007.06 004.2 m E Pn      2012/03/29 23:46:11.0   1.0                          T                                        4898435
SJPF  007.13 343.7 m E Pn      2012/03/29 23:46:12.1   1.2                          T                                        4898441
LMR   008.02 027.2 m E Pn      2012/03/29 23:46:22.5  -0.5                          T                                        4898434
LMR   008.02 027.2 m E Sn      2012/03/29 23:47:45.2  -2.1                          T                1.8  .32 Ml 3.2         4898646
LASF  007.98 012.3 m E Pn      2012/03/29 23:46:22.7   0.2                          T                                        4898633
FRF   008.26 027.0 m E Pn      2012/03/29 23:46:26.4   0.0                          T                                        4898433
FRF   008.26 027.0 m E Sn      2012/03/29 23:47:52.0  -1.3                          T                1.7  .29 Ml 3.3         4898645
SMRF  008.28 020.8 m E Pn      2012/03/29 23:46:27.7   1.1                          T                                        4898649
PGF   008.52 040.6 m E Pn      2012/03/29 23:46:29.6  -0.4                          T                                        4898647
PGF   008.52 040.6 m E Sn      2012/03/29 23:47:58.2  -1.4                          T                                        4898634
LFF   008.66 356.4 m E Pn      2012/03/29 23:46:31.4  -0.3                          T                                        4898438
CAF   008.64 002.6 m E Pn      2012/03/29 23:46:31.8   0.3                          T                                        4898439
SBF   008.82 029.2 m E Pn      2012/03/29 23:46:34.1   0.1                          T                                        4898648
VIVF  008.89 014.7 m E Pn      2012/03/29 23:46:35.2   0.3                          T                                        4898632
RJF   009.00 000.1 m E Pn      2012/03/29 23:46:36.2  -0.2                          T                                        4898437
ORIF  009.24 019.7 m E Pn      2012/03/29 23:46:41.1   1.4                          T                                        4898644
MBDF  009.33 023.8 m E Pn      2012/03/29 23:46:43.1   2.1                          T                                        4898650
LPG   010.02 021.7 m E Pn      2012/03/29 23:46:52.6   2.0                          T                                        4898654
LPL   010.03 021.6 m E Pn      2012/03/29 23:46:52.8   2.1                          T                                        4898653
MFF   010.38 353.7 m E Pn      2012/03/29 23:46:54.8  -0.3                          T                                        4898436
SGMF  012.33 347.2 m E Pn      2012/03/29 23:47:21.2  -0.4                          T                                        4898651
LDF   012.35 354.9 m E Pn      2012/03/29 23:47:23.0   0.9                          T                                        4898636
ROSF  012.54 345.2 m E Pn      2012/03/29 23:47:25.0   0.4                          T                                        4898652
FLN   012.55 353.9 m E Pn      2012/03/29 23:47:25.1   0.5                          T                                        4898635

.
