EVENT     256822
    Date      Time       Latitude Longitude    Depth    Ndef Nsta Gap    Mag1  N    Mag2  N    Mag3  N   Author         ID
       rms   OT_Error      Smajor Sminor Az        Err   mdist  Mdist     Err        Err        Err      Quality

2011/03/08 08:17:32.0     45.1634    5.9235      2.0      18    7 115  Ml 2.0  2  Md 1.9  3              js067245    256822

      0.19   +-  0.04        .9     .7  159.63 +-  0.0    0.14   1.89   +-0.5      +-0.0                 m i ke

FRANCE
Sta     Dist  EvAz     Phase      Date       Time     TRes  Azim  AzRes  Slow  SRes Def   SNR       Amp   Per   Mag1   Mag2       ID
ORIF  000.25 187.2 m E Pg      2011/03/08 08:17:36.9  -0.2                          T                                        4657936
ORIF  000.25 187.2 m E Sg      2011/03/08 08:17:40.2  -0.2                          T               27.4  .24        Md 2.0  4657961
LPL   000.67 058.0 m E Pg      2011/03/08 08:17:44.9  -0.1                          T                                        4657963
LPL   000.67 058.0 m E Sg      2011/03/08 08:17:53.7  -0.1                          T                8.5  .26        Md 1.9  4657960
LPG   000.67 059.9 m E Pg      2011/03/08 08:17:45.2   0.1                          T                                        4657962
LPG   000.67 059.9 m E Sg      2011/03/08 08:17:53.6  -0.3                          T                5.9  .24        Md 1.9  4657959
MBDF  000.74 125.6 m E Pg      2011/03/08 08:17:46.3   0.1                          T                                        4657964
MBDF  000.74 125.6 m E Sg      2011/03/08 08:17:55.9  -0.1                          T                4.0  .18                4657957
VIVF  000.94 251.3 m E Pg      2011/03/08 08:17:49.5  -0.2                          T                                        4657935
VIVF  000.94 251.3 m E Sg      2011/03/08 08:18:01.8  -0.1                          T                7.1  .18 Ml 2.4         4657958
SMRF  001.21 192.0 m E Pg      2011/03/08 08:17:54.8   0.1                          T                                        4657990
SMRF  001.21 192.0 m E Sg      2011/03/08 08:18:10.5   0.0                          T                                        4657989
LASF  001.83 234.3 m E Pg      2011/03/08 08:18:06.2   0.1                          T                                        4657988
LASF  001.83 234.3 m E Sg      2011/03/08 08:18:29.8   0.0                          T                 .8  .25 Ml 1.7         4657987

.
EVENT     256818
    Date      Time       Latitude Longitude    Depth    Ndef Nsta Gap    Mag1  N    Mag2  N    Mag3  N   Author         ID
       rms   OT_Error      Smajor Sminor Az        Err   mdist  Mdist     Err        Err        Err      Quality

2011/03/08 16:06:44.6     51.4306    6.6767      1.0 f   120   34 073  Ml 3.5 36                         js067245    256818

      0.54   +-  0.07       1.8    1.2  134.19 +-  0.0    0.37   7.61   +-0.3                            m i sr

GERMANY
Sta     Dist  EvAz     Phase      Date       Time     TRes  Azim  AzRes  Slow  SRes Def   SNR       Amp   Per   Mag1   Mag2       ID
GIVF  001.78 222.2 m E Pn      2011/03/08 16:07:14.0  -0.7                          T                                        4658111
GIVF  001.78 222.2 m E Pg      2011/03/08 16:07:17.2  -0.4                          T                                        4658036
GIVF  001.78 222.2 m E Sg      2011/03/08 16:07:40.1  -0.4                          T              318.5  .45 Ml 4.0         4658034
RUP   001.75 171.8 m E Pn      2011/03/08 16:07:15.2   0.8                          T                                        4658113
RUP   001.75 171.8 m E Pg      2011/03/08 16:07:17.0  -0.3                          T                                        4658035
RUP   001.75 171.8 m E Sg      2011/03/08 16:07:39.7  -0.1                          T                                        4658033
BAIF  002.08 229.8 m E Pn      2011/03/08 16:07:19.1   0.2                          T                                        4658112
BAIF  002.08 229.8 m E Pg      2011/03/08 16:07:22.7  -0.7                          T                                        4658135
BAIF  002.08 229.8 m E Sg      2011/03/08 16:07:49.6  -0.6                          T              188.8  .70 Ml 3.7         4658032
LANF  002.56 163.1 m E Pn      2011/03/08 16:07:27.1   1.8                          T                                        4658114
LANF  002.56 163.1 m E Pg      2011/03/08 16:07:32.2   0.1                          T                                        4658134
LANF  002.56 163.1 m E Sg      2011/03/08 16:08:05.2   0.2                          T                                        4658060
PAGF  002.94 192.4 m E Pn      2011/03/08 16:07:32.3   1.7                          T                                        4658116
PAGF  002.94 192.4 m E Pg      2011/03/08 16:07:39.0  -0.1                          T                                        4658132
PAGF  002.94 192.4 m E Sg      2011/03/08 16:08:17.0   0.0                          T               31.3  .58 Ml 3.1         4658062
CDF   003.05 172.5 m E Pn      2011/03/08 16:07:34.1   2.0                          T                                        4658115
CDF   003.05 172.5 m E Pg      2011/03/08 16:07:41.1  -0.1                          T                                        4658133
CDF   003.05 172.5 m E Sg      2011/03/08 16:08:20.4   0.0                          T               40.5  .52 Ml 3.4         4658061
THEF  003.24 188.1 m E Pn      2011/03/08 16:07:34.3  -0.3                          T                                        4658119
THEF  003.24 188.1 m E Pg      2011/03/08 16:07:44.2  -0.4                          T                                        4658129
THEF  003.24 188.1 m E Sg      2011/03/08 16:08:25.8  -0.3                          T              115.0  .68 Ml 3.7         4658065
MEZF  003.11 200.3 m E Pn      2011/03/08 16:07:34.5   1.6                          T                                        4658117
MEZF  003.11 200.3 m E Pg      2011/03/08 16:07:42.1  -0.1                          T                                        4658131
MEZF  003.11 200.3 m E Sg      2011/03/08 16:08:22.3   0.0                          T               86.5  .48 Ml 3.7         4658063
SFTF  003.40 198.8 m E Pn      2011/03/08 16:07:36.6  -0.2                          T                                        4658118
SFTF  003.40 198.8 m E Pg      2011/03/08 16:07:47.2  -0.3                          T                                        4658130
SFTF  003.40 198.8 m E Sg      2011/03/08 16:08:31.0  -0.2                          T               59.3  .43 Ml 3.7         4658064
HAU   003.44 183.7 m E Pn      2011/03/08 16:07:37.2  -0.2                          T                                        4658120
HAU   003.44 183.7 m E Pg      2011/03/08 16:07:48.1  -0.2                          T                                        4658128
HAU   003.44 183.7 m E Sg      2011/03/08 16:08:32.3  -0.1                          T               49.4  .42 Ml 3.4         4658066
HINF  003.62 178.1 m E Pn      2011/03/08 16:07:41.5   1.6                          T                                        4658121
HINF  003.62 178.1 m E Pg      2011/03/08 16:07:51.6  -0.1                          T                                        4658127
HINF  003.62 178.1 m E Sg      2011/03/08 16:08:37.9  -0.2                          T               36.5  .54 Ml 3.4         4658067
LOR   004.55 204.9 m E Pn      2011/03/08 16:07:53.6   1.1                          T                                        4658110
LOR   004.55 204.9 m E Sn      2011/03/08 16:08:42.2  -0.9                          T                                        4658094
LOR   004.55 204.9 m E Sg      2011/03/08 16:09:07.3   0.0                          T               21.8  .30 Ml 3.6         4658057
SSF   004.84 206.6 m E Pn      2011/03/08 16:07:57.3   0.9                          T                                        4658109
SSF   004.84 206.6 m E Sn      2011/03/08 16:08:49.5  -0.4                          T                                        4658093
SSF   004.84 206.6 m E Sg      2011/03/08 16:09:16.0  -0.2                          T               72.3  .64 Ml 4.0         4658058
HYF   004.93 213.9 m E Pn      2011/03/08 16:07:57.7   0.0                          T                                        4658107
HYF   004.93 213.9 m E Sg      2011/03/08 16:09:19.0  -0.1                          T                                        4658071
CABF  004.84 184.8 m E Pn      2011/03/08 16:07:58.1   1.5                          T                                        4658122
CABF  004.84 184.8 m E Pg      2011/03/08 16:08:14.1  -0.2                          T                                        4658126
CABF  004.84 184.8 m E Sg      2011/03/08 16:09:16.4   0.1                          T               63.8  .76 Ml 3.8         4658068
AVF   005.13 206.5 m E Pn      2011/03/08 16:08:01.2   0.8                          T                                        4658123
AVF   005.13 206.5 m E Pg      2011/03/08 16:08:19.0  -0.5                          T                                        4658125
AVF   005.13 206.5 m E Sg      2011/03/08 16:09:25.2   0.0                          T               36.1  .86 Ml 3.5         4658069
SMF   005.14 202.4 m E Pn      2011/03/08 16:08:01.6   1.1                          T                                        4658124
SMF   005.14 202.4 m E Sg      2011/03/08 16:09:25.4  -0.1                          T               35.0  .48 Ml 3.8         4658070
LDF   005.22 239.7 m E Pn      2011/03/08 16:08:02.5   0.8                          T                                        4658104
LDF   005.22 239.7 m E Sn      2011/03/08 16:08:59.1   0.1                          T                                        4658089
LDF   005.22 239.7 m E Sg      2011/03/08 16:09:28.0  -0.1                          T               27.8  .70 Ml 3.5         4658078
FLN   005.32 242.7 m E Pn      2011/03/08 16:08:04.0   0.9                          T                                        4658105
FLN   005.32 242.7 m E Sn      2011/03/08 16:09:01.0  -0.4                          T                                        4658090
FLN   005.32 242.7 m E Sg      2011/03/08 16:09:31.1  -0.2                          T               31.9  .48 Ml 3.6         4658077
BGF   005.49 208.8 m E Pn      2011/03/08 16:08:06.2   1.0                          T                                        4658108
BGF   005.49 208.8 m E Sn      2011/03/08 16:09:05.2  -0.1                          T                                        4658091
BGF   005.49 208.8 m E Sg      2011/03/08 16:09:36.6   0.1                          T               77.8  .54 Ml 4.1         4658072
GRR   005.74 240.9 m E Pn      2011/03/08 16:08:08.6   0.0                          T                                        4658103
GRR   005.74 240.9 m E Sn      2011/03/08 16:09:11.2  -0.1                          T                                        4658088
GRR   005.74 240.9 m E Sg      2011/03/08 16:09:44.1  -0.2                          T               10.7  .40 Ml 3.3         4658079
LPL   005.92 179.6 m E Pn      2011/03/08 16:08:11.5   0.1                          T                                        4658098
LPL   005.92 179.6 m E Sg      2011/03/08 16:09:50.2   0.0                          T                1.9  .30 Ml 2.9         4658086
LPG   005.94 179.5 m E Pn      2011/03/08 16:08:11.6  -0.2                          T                                        4658096
LPG   005.94 179.5 m E Sg      2011/03/08 16:09:50.7  -0.1                          T                2.0  .32 Ml 2.9         4658085
TCF   005.93 211.5 m E Pn      2011/03/08 16:08:11.6   0.3                          T                                        4658095
TCF   005.93 211.5 m E Sn      2011/03/08 16:09:15.6  -0.3                          T                                        4658092
TCF   005.93 211.5 m E Sg      2011/03/08 16:09:50.1  -0.2                          T               39.0  .84 Ml 3.8         4658059
ORIF  006.54 185.0 m E Pn      2011/03/08 16:08:19.8   0.2                          T                                        4658097
ORIF  006.54 185.0 m E Sg      2011/03/08 16:10:09.4   0.1                          T                4.9  .48 Ml 3.2         4658087
MFF   006.59 225.5 m E Pn      2011/03/08 16:08:20.1  -0.2                          T                                        4658099
MFF   006.59 225.5 m E Sn      2011/03/08 16:09:31.6  -0.1                          T                                        4658080
MFF   006.59 225.5 m E Sg      2011/03/08 16:10:10.8  -0.1                          T               26.3  .88 Ml 3.8         4658084
MBDF  006.71 179.4 m E Pn      2011/03/08 16:08:21.8  -0.2                          T                                        4658050
MBDF  006.71 179.4 m E Sg      2011/03/08 16:10:14.5  -0.2                          T                2.6  .51 Ml 2.9         4658048
VIVF  006.71 192.3 m E Pn      2011/03/08 16:08:22.0   0.0                          T                                        4658051
VIVF  006.71 192.3 m E Sg      2011/03/08 16:10:14.4  -0.3                          T               16.9  .84 Ml 3.5         4658049
SGMF  006.76 245.6 m E Pn      2011/03/08 16:08:22.5  -0.1                          T                                        4658101
SGMF  006.76 245.6 m E Sg      2011/03/08 16:10:16.0  -0.2                          T               34.3  .92 Ml 3.8         4658075
RJF   007.03 211.3 m E Pn      2011/03/08 16:08:26.4   0.2                          T                                        4658082
RJF   007.03 211.3 m E Sn      2011/03/08 16:09:41.4  -0.7                          T                                        4658081
RJF   007.03 211.3 m E Sg      2011/03/08 16:10:24.2  -0.3                          T               16.6  .62 Ml 3.4         4658083
ROSF  007.14 248.2 m E Pn      2011/03/08 16:08:26.6  -1.0                          T                                        4658100
ROSF  007.14 248.2 m E Sn      2011/03/08 16:09:44.4  -0.3                          T                                        4658056
ROSF  007.14 248.2 m E Sg      2011/03/08 16:10:27.6  -0.2                          T               26.7 1.01 Ml 3.7         4658074
CAF   007.20 207.1 m E Pn      2011/03/08 16:08:28.8   0.2                          T                                        4658052
CAF   007.20 207.1 m E Sg      2011/03/08 16:10:29.7  -0.2                          T               13.2  .56 Ml 3.7         4658053
QUIF  007.29 245.0 m E Pn      2011/03/08 16:08:29.7  -0.1                          T                                        4658102
QUIF  007.29 245.0 m E Sg      2011/03/08 16:10:32.3  -0.3                          T               11.5  .62 Ml 3.6         4658076
LFF   007.61 213.7 m E Pn      2011/03/08 16:08:33.9  -0.2                          T                                        4658055
LFF   007.61 213.7 m E Sg      2011/03/08 16:10:42.6   0.0                          T               19.7  .51 Ml 3.8         4658054

.
EVENT     256820
    Date      Time       Latitude Longitude    Depth    Ndef Nsta Gap    Mag1  N    Mag2  N    Mag3  N   Author         ID
       rms   OT_Error      Smajor Sminor Az        Err   mdist  Mdist     Err        Err        Err      Quality

2011/03/08 18:35:12.7     43.2411   -1.2930      2.0      12    3 137  Ml 1.7  2  Md 1.7  2              js067245    256820

      0.48   +-  0.14       3.0    2.1  168.85 +-  0.0    0.14   2.24   +-0.5      +-0.0                 m i ke

PYRENEES
Sta     Dist  EvAz     Phase      Date       Time     TRes  Azim  AzRes  Slow  SRes Def   SNR       Amp   Per   Mag1   Mag2       ID
SJPF  000.14 158.7 m E Pg      2011/03/08 18:35:16.9   1.3                          T                                        4658151
SJPF  000.14 158.7 m E Sg      2011/03/08 18:35:19.3   1.7                          T                6.3  .18        Md 1.7  4658150
EPF   001.21 099.4 m E Pg      2011/03/08 18:35:35.5   0.0                          T                                        4658146
EPF   001.21 099.4 m E Sg      2011/03/08 18:35:51.2   0.1                          T                 .6  .25 Ml 1.3 Md 1.7  4658149
LFF   002.24 040.1 m E Pn      2011/03/08 18:35:48.7  -0.3                          T                                        4658147
LFF   002.24 040.1 m E Sn      2011/03/08 18:36:15.6   0.0                          T                3.2  .36 Ml 2.0         4658148

.
