EVENT     281961
    Date      Time       Latitude Longitude    Depth    Ndef Nsta Gap    Mag1  N    Mag2  N    Mag3  N   Author         ID
       rms   OT_Error      Smajor Sminor Az        Err   mdist  Mdist     Err        Err        Err      Quality

2012/08/25 11:17:51.9     45.6702    6.1546     15.0      27   14 113  Ml 2.1  7  Md 2.0  5              bulletin    282061
                                                                                                         _ldg
      0.51   +-  0.06       1.5    1.0   55.30 +-  0.0    0.43   2.82   +-0.3      +-0.0                 m i ke

FRANCE
Sta     Dist  EvAz     Phase      Date       Time     TRes  Azim  AzRes  Slow  SRes Def   SNR       Amp   Per   Mag1   Mag2       ID
LPL   000.43 110.6 m E Pg      2012/08/25 11:18:00.9   0.1                          T                                        5053468
LPL   000.43 110.6 m E Sg      2012/08/25 11:18:06.2  -0.6                          T                3.0  .28        Md 2.0  5053461
LPG   000.45 112.2 m E Pg      2012/08/25 11:18:01.3   0.1                          T                                        5053464
LPG   000.45 112.2 m E Sg      2012/08/25 11:18:07.2  -0.3                          T                2.8  .18        Md 2.1  5053474
ORIF  000.78 194.6 m E Pg      2012/08/25 11:18:06.6  -0.2                          T                                        5053467
ORIF  000.78 194.6 m E Sg      2012/08/25 11:18:17.3   0.2                          T                8.2  .37        Md 2.0  5053462
CABF  000.94 357.2 m E Pg      2012/08/25 11:18:09.7  -0.1                          T                                        5060136
CABF  000.94 357.2 m E P       2012/08/25 11:18:11.0   0.4                          T                                        5053471
CABF  000.94 357.2 m E Sg      2012/08/25 11:18:22.2   0.0                          T                5.8  .22 Ml 2.2 Md 2.0  5053470
MBDF  001.04 155.0 m E Pg      2012/08/25 11:18:11.9   0.2                          T                                        5053466
MBDF  001.04 155.0 m E Sg      2012/08/25 11:18:24.8  -0.5                          T                3.4  .56 Ml 1.6 Md 2.0  5053473
VIVF  001.33 232.6 m E Pg      2012/08/25 11:18:17.0   0.2                          T                                        5053465
VIVF  001.33 232.6 m E Sg      2012/08/25 11:18:34.2   0.2                          T                5.0  .18 Ml 2.4         5053463
SMF   001.88 302.1 m E P       2012/08/25 11:18:23.9  -0.1                          T                                        5053472
SMF   001.88 302.1 m E Pg      2012/08/25 11:18:26.8  -0.1                          T                                        5060133
SMF   001.88 302.1 m E Sg      2012/08/25 11:18:50.6  -0.6                          T                4.6  .21 Ml 2.5         5053475
AVF   002.24 301.0 m E P       2012/08/25 11:18:29.2   0.0                          T                                        5060135
AVF   002.24 301.0 m E Pg      2012/08/25 11:18:33.6   0.0                          T                                        5060134
BGF   002.47 292.3 m E P       2012/08/25 11:18:32.3  -0.2                          T                                        5060132
BGF   002.47 292.3 m E Pg      2012/08/25 11:18:37.8   0.1                          T                                        5060131
LOR   002.25 316.0 m E Pg      2012/08/25 11:18:33.5  -0.3 139.5  5.1               T                                        5053469
TCF   002.82 284.1 m E Pg      2012/08/25 11:18:44.7   0.5                          T                                        5060137
FRF   002.14 170.4 m E Sg      2012/08/25 11:18:59.4   0.2                          T                1.0  .23 Ml 1.9         5060130
LASF  002.28 226.5 m E Sg      2012/08/25 11:19:03.9   0.2                          T                1.6  .26 Ml 2.1         5060128
LMR   002.35 173.7 m E Sg      2012/08/25 11:19:06.0   0.2                          T                 .6  .21 Ml 1.8         5060129

.
EVENT     281960
    Date      Time       Latitude Longitude    Depth    Ndef Nsta Gap    Mag1  N    Mag2  N    Mag3  N   Author         ID
       rms   OT_Error      Smajor Sminor Az        Err   mdist  Mdist     Err        Err        Err      Quality

2012/08/25 11:18:34.0     45.6778    6.1577     10.0     107   32 049  Ml 2.5 19  Md 2.5  6              bulletin    282060
                                                                                                         _ldg
      0.73   +-  0.04        .9     .8   54.55 +-  0.0    0.33   4.94   +-0.3      +-0.1                 m i ke

FRANCE
Sta     Dist  EvAz     Phase      Date       Time     TRes  Azim  AzRes  Slow  SRes Def   SNR       Amp   Per   Mag1   Mag2       ID
LPL   000.43 111.6 m E Pg      2012/08/25 11:18:43.1   0.3                          T                                        5053407
LPL   000.43 111.6 m E Sg      2012/08/25 11:18:48.3  -0.3                          T               16.3  .23        Md 2.5  5053448
LPG   000.45 113.2 m E Pg      2012/08/25 11:18:43.5   0.2                          T                                        5053406
LPG   000.45 113.2 m E Sg      2012/08/25 11:18:49.3  -0.1                          T               26.4  .28        Md 2.5  5053447
ORIF  000.78 194.6 m E Pg      2012/08/25 11:18:48.7  -0.3                          T                                        5053405
ORIF  000.78 194.6 m E Sg      2012/08/25 11:18:59.4   0.1                          T               26.9  .24        Md 2.6  5053439
CABF  000.93 357.0 m E Pg      2012/08/25 11:18:51.9   0.1                          T                                        5053421
CABF  000.93 357.0 m E P       2012/08/25 11:18:53.1   0.0                          T                                        5060078
CABF  000.93 357.0 m E Sg      2012/08/25 11:19:04.1   0.2                          T               21.2  .17 Ml 2.9 Md 2.4  5053452
CABF  000.93 357.0 m E S       2012/08/25 11:19:07.0  -0.1                          T                                        5060061
MBDF  001.05 155.3 m E Pg      2012/08/25 11:18:53.9   0.0                          T                                        5053404
MBDF  001.05 155.3 m E Sg      2012/08/25 11:19:07.1  -0.4                          T                9.7  .34 Ml 2.3 Md 2.4  5053434
VIVF  001.33 232.4 m E Pg      2012/08/25 11:18:58.9  -0.2                          T                                        5053403
VIVF  001.33 232.4 m E Sg      2012/08/25 11:19:16.3   0.1                          T               14.1  .16 Ml 2.9 Md 2.3  5053433
SMRF  001.75 193.9 m E P       2012/08/25 11:19:05.0   0.0                          T                                        5060070
SMRF  001.75 193.9 m E Pg      2012/08/25 11:19:08.2   1.5                          T                                        5053443
SMRF  001.75 193.9 m E Sg      2012/08/25 11:19:29.7   0.3                          T                1.1  .19 Ml 1.9         5053435
SMF   001.88 301.8 m E P       2012/08/25 11:19:06.1  -0.6                          T                                        5060076
SMF   001.88 301.8 m E Pg      2012/08/25 11:19:09.0  -0.1                          T                                        5053417
SMF   001.88 301.8 m E Sg      2012/08/25 11:19:32.9  -0.4                          T               19.3  .17 Ml 3.2         5053449
FRF   002.15 170.5 m E P       2012/08/25 11:19:10.6   0.0                          T                                        5060069
FRF   002.15 170.5 m E Pg      2012/08/25 11:19:14.1   0.2                          T                                        5053442
FRF   002.15 170.5 m E Sg      2012/08/25 11:19:41.6   0.0                          T                3.4  .21 Ml 2.5         5053436
HINF  002.19 012.3 m E P       2012/08/25 11:19:11.2   0.0                          T                                        5060079
HINF  002.19 012.3 m E Pg      2012/08/25 11:19:14.8   0.0                          T                                        5053422
HINF  002.19 012.3 m E Sn      2012/08/25 11:19:33.8  -0.6                          T                                        5060060
HINF  002.19 012.3 m E Sg      2012/08/25 11:19:42.7  -0.4                          T                                        5053453
AVF   002.24 300.8 m E P       2012/08/25 11:19:11.4  -0.5                          T                                        5060077
AVF   002.24 300.8 m E Pg      2012/08/25 11:19:15.7   0.0                          T                                        5053418
AVF   002.24 300.8 m E Sn      2012/08/25 11:19:35.1  -0.5                          T                                        5060062
AVF   002.24 300.8 m E Sg      2012/08/25 11:19:44.2  -0.4                          T                4.8  .28 Ml 2.5         5060063
HAU   002.33 003.1 m E Pn      2012/08/25 11:19:11.5   0.8                          T                                        5060080
HAU   002.33 003.1 m E Pg      2012/08/25 11:19:17.8   0.4                          T                                        5053423
HAU   002.33 003.1 m E Sn      2012/08/25 11:19:37.6  -0.1                          T                                        5060059
HAU   002.33 003.1 m E Sg      2012/08/25 11:19:47.3  -0.2                          T                                        5053454
SBF   002.03 152.9 m E Pg      2012/08/25 11:19:11.9   0.0                          T                                        5053440
SBF   002.03 152.9 m E Sg      2012/08/25 11:19:37.8  -0.2                          T                2.8  .23 Ml 2.3         5053438
LASF  002.29 226.4 m E P       2012/08/25 11:19:12.2  -0.4                          T                                        5060071
LASF  002.29 226.4 m E Pg      2012/08/25 11:19:16.9   0.3                          T                                        5053444
LASF  002.29 226.4 m E Sn      2012/08/25 11:19:36.9   0.2                          T                                        5060067
LASF  002.29 226.4 m E Sg      2012/08/25 11:19:46.1   0.0                          T                3.3  .18 Ml 2.5         5053432
SSF   002.30 308.0 m E P       2012/08/25 11:19:12.9   0.1                          T                                        5060086
SSF   002.30 308.0 m E Pg      2012/08/25 11:19:17.2   0.5                          T                                        5053420
SSF   002.30 308.0 m E Sg      2012/08/25 11:19:46.4   0.0                          T                6.5  .34 Ml 2.6         5060058
LMR   002.36 173.8 m E P       2012/08/25 11:19:13.1  -0.5                          T                                        5060068
LMR   002.36 173.8 m E Pg      2012/08/25 11:19:18.0   0.2                          T                                        5053441
LMR   002.36 173.8 m E Sg      2012/08/25 11:19:48.2   0.0                          T                2.1  .20 Ml 2.3         5053437
THEF  002.55 357.5 m E Pn      2012/08/25 11:19:13.9   0.2                          T                                        5060081
THEF  002.55 357.5 m E Pg      2012/08/25 11:19:21.4  -0.1                          T                                        5053424
THEF  002.55 357.5 m E Sg      2012/08/25 11:19:54.7   0.3                          T                                        5053455
BGF   002.47 292.1 m E P       2012/08/25 11:19:14.4  -0.7                          T                                        5060075
BGF   002.47 292.1 m E Pg      2012/08/25 11:19:20.0   0.2                          T                                        5053446
BGF   002.47 292.1 m E Sg      2012/08/25 11:19:51.1  -0.5                          T                5.5  .22 Ml 2.7         5053450
SFTF  002.64 343.5 m E Pn      2012/08/25 11:19:15.1   0.1 151.4  -11.4             T                                        5060082
SFTF  002.64 343.5 m E Pg      2012/08/25 11:19:23.1   0.1 159.7  -3.0              T                                        5053425
SFTF  002.64 343.5 m E Sg      2012/08/25 11:19:57.4   0.3                          T                                        5053456
LOR   002.25 315.9 m E Pg      2012/08/25 11:19:15.6  -0.2 141.5  7.3               T                                        5053429
LOR   002.25 315.9 m E Sg      2012/08/25 11:19:43.2  -1.6 145.7  11.5              T                4.3  .15 Ml 2.7         5053459
CDF   002.84 015.2 m E Pn      2012/08/25 11:19:18.0   0.3                          T                                        5060083
CDF   002.84 015.2 m E Pg      2012/08/25 11:19:26.7  -0.2                          T                                        5053428
CDF   002.84 015.2 m E Sg      2012/08/25 11:20:03.5   0.1                          T                3.9  .25 Ml 2.7         5053458
CAF   002.98 256.9 m E Pn      2012/08/25 11:19:20.1   0.4                          T                                        5053431
CAF   002.98 256.9 m E P       2012/08/25 11:19:22.1  -0.5                          T                                        5060072
CAF   002.98 256.9 m E Sg      2012/08/25 11:20:07.9   0.1                          T                2.2  .21 Ml 2.4         5053430
RJF   003.29 265.1 m E Pn      2012/08/25 11:19:23.7   0.0                          T                                        5060073
RJF   003.29 265.1 m E Pg      2012/08/25 11:19:35.1   0.2                          T                                        5053445
RJF   003.29 265.1 m E Sg      2012/08/25 11:20:17.3   0.2                          T                4.5  .33 Ml 2.3         5053451
TCF   002.82 283.9 m E Pg      2012/08/25 11:19:26.9   0.5                          T                                        5053419
PAGF  002.89 354.3 m E Pg      2012/08/25 11:19:27.4  -0.3 164.0  -10.0             T                                        5053427
MEZF  002.92 345.4 m E Pg      2012/08/25 11:19:28.7   0.5 157.6  -7.1              T                                        5053426
MEZF  002.92 345.4 m E Sg      2012/08/25 11:20:05.8   0.0 165.1  0.5               T                                        5053457
MFF   004.48 284.2 m E P       2012/08/25 11:19:42.9  -0.8                          T                                        5060074
GIVF  004.52 349.0 m E P       2012/08/25 11:19:44.2  -0.1                          T                                        5060084
BAIF  004.58 344.0 m E P       2012/08/25 11:19:45.3   0.1                          T                                        5060085
MTLF  003.66 231.7 m E Sg      2012/08/25 11:20:28.9   0.1                          T                1.3  .24 Ml 2.3         5060066
LFF   003.89 261.0 m E Sg      2012/08/25 11:20:36.2   0.1                          T                1.2  .21 Ml 2.2         5060064
EPF   004.94 239.7 m E Sg      2012/08/25 11:21:09.3   0.4                          T                2.2  .35 Ml 2.7         5060065

.
EVENT     281962
    Date      Time       Latitude Longitude    Depth    Ndef Nsta Gap    Mag1  N    Mag2  N    Mag3  N   Author         ID
       rms   OT_Error      Smajor Sminor Az        Err   mdist  Mdist     Err        Err        Err      Quality

2012/08/25 12:53:25.9     44.4814    6.6944      2.0      31    9 051  Ml 2.0  6  Md 2.0  4              bulletin    282062
                                                                                                         _ldg
      0.39   +-  0.04        .9     .7   64.48 +-  0.0    0.08   1.49   +-0.2      +-0.1                 m i ke

FRANCE
Sta     Dist  EvAz     Phase      Date       Time     TRes  Azim  AzRes  Slow  SRes Def   SNR       Amp   Per   Mag1   Mag2       ID
MBDF  000.25 012.6 m E Pg      2012/08/25 12:53:31.1   0.0                          T                                        5053487
MBDF  000.25 012.6 m E Sg      2012/08/25 12:53:34.3  -0.2                          T               21.9  .36        Md 2.1  5053488
ORIF  000.73 307.2 m E Pg      2012/08/25 12:53:39.5  -0.2                          T                                        5053486
ORIF  000.73 307.2 m E Sg      2012/08/25 12:53:48.9  -0.3                          T                6.7  .25        Md 1.9  5053481
SBF   000.82 139.0 m E Pg      2012/08/25 12:53:41.7   0.3                          T                                        5053477
SBF   000.82 139.0 m E Sg      2012/08/25 12:53:52.2   0.2                          T                5.8  .30                5053490
FRF   000.92 182.2 m E Pg      2012/08/25 12:53:43.4   0.1                          T                                        5053483
FRF   000.92 182.2 m E Sg      2012/08/25 12:53:55.4   0.2                          T                8.0  .26 Ml 2.3 Md 2.0  5053479
SMRF  000.95 238.3 m E Pn      2012/08/25 12:53:44.9   0.2                          T                                        5053484
SMRF  000.95 238.3 m E Sg      2012/08/25 12:53:56.3   0.1                          T                7.2  .36 Ml 2.1         5053480
LPG   001.02 002.3 m E Pg      2012/08/25 12:53:45.3  -0.1                          T                                        5060143
LPG   001.02 002.3 m E Sg      2012/08/25 12:53:58.2  -0.4                          T                3.7  .26 Ml 2.0         5060144
LPL   001.04 001.5 m E Pg      2012/08/25 12:53:45.6   0.0                          T                                        5053485
LPL   001.04 001.5 m E Sg      2012/08/25 12:53:58.6  -0.4                          T                3.1  .40 Ml 1.7 Md 2.0  5053491
LMR   001.15 186.7 m E Pg      2012/08/25 12:53:47.6   0.1                          T                                        5053482
LMR   001.15 186.7 m E Sg      2012/08/25 12:54:02.8   0.3                          T                5.4  .26 Ml 2.2         5053478
VIVF  001.49 285.3 m E Pn      2012/08/25 12:53:51.9  -0.2                          T                                        5060146
VIVF  001.49 285.3 m E Pg      2012/08/25 12:53:53.9   0.2                          T                                        5060145
VIVF  001.49 285.3 m E Sg      2012/08/25 12:54:13.1   0.1                          T                1.3  .25 Ml 1.7         5053489

.
