EVENT     292426
    Date      Time       Latitude Longitude    Depth    Ndef Nsta Gap    Mag1  N    Mag2  N    Mag3  N   Author         ID
       rms   OT_Error      Smajor Sminor Az        Err   mdist  Mdist     Err        Err        Err      Quality

2013/02/20 17:07:54.4     44.5600    5.0165      2.0      79   27 094  Ml 2.7 21  Md 2.6  8              bulletin    292526
                                                                                                         _ldg
      0.48   +-  0.06       1.4     .9   23.63 +-  0.0    0.20   6.41   +-0.3      +-0.1                 m i ke

FRANCE
Sta     Dist  EvAz     Phase      Date       Time     TRes  Azim  AzRes  Slow  SRes Def   SNR       Amp   Per   Mag1   Mag2       ID
VIVF  000.38 320.5 m E Pg      2013/02/20 17:08:01.1  -0.8                          T                                        5208038
VIVF  000.38 320.5 m E P       2013/02/20 17:08:02.8   0.0                          T                                        5202779
VIVF  000.38 320.5 m E Sg      2013/02/20 17:08:07.0   0.0                          T                                Md 2.6  5202760
SMRF  000.71 145.3 m E Pg      2013/02/20 17:08:07.7  -0.1                          T                                        5208032
SMRF  000.71 145.3 m E P       2013/02/20 17:08:09.4  -0.1                          T                                        5202773
SMRF  000.71 145.3 m E Sg      2013/02/20 17:08:17.0  -0.1                          T                                        5208033
SMRF  000.71 145.3 m E Sn      2013/02/20 17:08:20.7  -0.1                          T               61.1  .30                5202766
ORIF  000.71 059.5 m E Pg      2013/02/20 17:08:07.9  -0.1                          T                                        5208036
ORIF  000.71 059.5 m E Pn      2013/02/20 17:08:09.9  -0.1                          T                                Md 2.5  5202776
ORIF  000.71 059.5 m E Sn      2013/02/20 17:08:20.7  -0.3                          T                                        5202763
LASF  000.96 240.2 m E Pg      2013/02/20 17:08:12.3  -0.2                          T                                        5208039
LASF  000.96 240.2 m E Pn      2013/02/20 17:08:13.7   0.3                          T                                Md 2.6  5202778
LASF  000.96 240.2 m E Sn      2013/02/20 17:08:26.7  -0.2                          T               37.8  .29 Ml 2.9         5202762
MBDF  001.26 081.8 m E Pg      2013/02/20 17:08:18.1  -0.2                          T                                        5208037
MBDF  001.26 081.8 m E P       2013/02/20 17:08:19.4   0.0                          T                                        5202777
MBDF  001.26 081.8 m E Sg      2013/02/20 17:08:34.3  -0.3                          T                                        5202809
FRF   001.54 129.8 m E Pn      2013/02/20 17:08:20.7  -0.5                          T                                        5202772
FRF   001.54 129.8 m E Pg      2013/02/20 17:08:23.0  -0.2                          T                                        5208049
FRF   001.54 129.8 m E Sn      2013/02/20 17:08:40.7   0.0                          T                                Md 2.7  5202767
LMR   001.63 138.1 m E Pn      2013/02/20 17:08:21.9  -0.5                          T                                Md 2.6  5202771
LMR   001.63 138.1 m E Pg      2013/02/20 17:08:24.7  -0.1                          T                                        5208035
LMR   001.63 138.1 m E Sn      2013/02/20 17:08:43.0   0.2                          T                7.0  .27 Ml 2.5         5202768
LMR   001.63 138.1 m E Sg      2013/02/20 17:08:46.0   0.1                          T                9.8  .24 Ml 2.7         5208034
LPG   001.55 052.1 m E Pg      2013/02/20 17:08:23.0  -0.6                          T                                Md 2.8  5202774
LPG   001.55 052.1 m E Sg      2013/02/20 17:08:43.6   0.0                          T               10.1  .48 Ml 2.4         5202765
LPL   001.55 051.2 m E Pg      2013/02/20 17:08:23.4  -0.1                          T                                        5202775
LPL   001.55 051.2 m E Sg      2013/02/20 17:08:43.6   0.1                          T                9.3  .56 Ml 2.3 Md 2.6  5202764
SBF   001.87 111.0 m E Pn      2013/02/20 17:08:25.9   0.1                          T                                Md 2.6  5202770
SBF   001.87 111.0 m E Pg      2013/02/20 17:08:29.3  -0.1                          T                                        5208048
SBF   001.87 111.0 m E Sg      2013/02/20 17:08:53.5   0.0                          T               23.5  .37 Ml 3.0         5202769
CAF   002.14 280.9 m E Pn      2013/02/20 17:08:29.4   0.0                          T                                        5202789
CAF   002.14 280.9 m E Pg      2013/02/20 17:08:34.2   0.1                          T                                        5202788
CAF   002.14 280.9 m E Sg      2013/02/20 17:09:01.3  -0.3                          T                                        5202790
CABF  002.18 019.8 m E Pn      2013/02/20 17:08:30.6   0.5                          T                                        5202797
CABF  002.18 019.8 m E Pg      2013/02/20 17:08:35.8   0.6                          T                                        5202798
CABF  002.18 019.8 m E Sg      2013/02/20 17:09:03.9   0.6                          T               11.8  .52 Ml 2.6         5202796
MTLF  002.36 239.9 m E Pn      2013/02/20 17:08:32.4   0.1                          T                                        5208041
MTLF  002.36 239.9 m E Pg      2013/02/20 17:08:38.4   0.2                          T                                        5208040
MTLF  002.36 239.9 m E Sg      2013/02/20 17:09:09.1   0.5                          T                6.8  .30 Ml 2.6         5202761
BGF   002.51 323.4 m E Pn      2013/02/20 17:08:34.5   0.0                          T                                        5202781
BGF   002.51 323.4 m E P       2013/02/20 17:08:36.6  -0.4                          T                                        5208045
BGF   002.51 323.4 m E Pg      2013/02/20 17:08:40.5  -0.6                          T                                        5208044
BGF   002.51 323.4 m E Sg      2013/02/20 17:09:13.9   0.5                          T               54.2  .38 Ml 3.5         5202758
AVF   002.52 333.0 m E Pn      2013/02/20 17:08:35.4   0.9                          T                                        5202805
AVF   002.52 333.0 m E Pg      2013/02/20 17:08:42.3   1.1                          T                                        5202806
AVF   002.52 333.0 m E Sg      2013/02/20 17:09:12.4  -1.1                          T                4.8  .26 Ml 2.6         5202807
RJF   002.60 287.9 m E Pn      2013/02/20 17:08:35.8   0.2                          T                                        5202780
RJF   002.60 287.9 m E Pg      2013/02/20 17:08:42.6   0.0                          T                                        5208042
RJF   002.60 287.9 m E Sg      2013/02/20 17:09:15.0  -0.9                          T               11.5  .28 Ml 2.6         5202759
TCF   002.63 312.2 m E Pn      2013/02/20 17:08:36.5   0.4                          T                                        5202804
TCF   002.63 312.2 m E Pg      2013/02/20 17:08:43.6   0.4                          T                                        5202803
TCF   002.63 312.2 m E Sg      2013/02/20 17:09:17.3   0.4                          T                9.9  .34 Ml 2.8         5202808
SMF   002.24 338.8 m E Pn      2013/02/20 17:08:37.1   6.3                          T                                        5202782
SMF   002.24 338.8 m E Sg      2013/02/20 17:09:03.2  -1.8                          T               11.7  .33 Ml 2.8         5202757
LOR   002.83 343.8 m E Pn      2013/02/20 17:08:38.4  -0.4                          T                                        5202783
LOR   002.83 343.8 m E Pg      2013/02/20 17:08:46.7  -0.2                          T                                        5202787
LOR   002.83 343.8 m E Sg      2013/02/20 17:09:22.5  -0.7                          T                7.5  .28 Ml 2.8         5202784
SSF   002.72 337.6 m E Pg      2013/02/20 17:08:44.9   0.1                          T                                        5202786
SSF   002.72 337.6 m E Sg      2013/02/20 17:09:19.0  -0.7                          T                6.8  .35 Ml 2.7         5202785
LFF   003.07 278.6 m E Pg      2013/02/20 17:08:51.2  -0.1                          T                                        5202794
LFF   003.07 278.6 m E Sg      2013/02/20 17:09:32.0   1.2                          T               31.0  .42 Ml 3.1         5202795
HAU   003.57 014.5 m E Pg      2013/02/20 17:09:01.7   1.2                          T                                        5202799
HAU   003.57 014.5 m E Sg      2013/02/20 17:09:45.5  -0.8                          T                6.4  .34 Ml 2.6         5202800
EPF   003.72 247.3 m E Pg      2013/02/20 17:09:04.6   1.3                          T                                        5202793
EPF   003.72 247.3 m E Sg      2013/02/20 17:09:51.3   0.3                          T                4.7  .34 Ml 2.7         5202792
SGMF  006.41 307.9 m E Pn      2013/02/20 17:09:28.3   0.8                          T                                        5208043
HINF  003.50 020.7 m E Sg      2013/02/20 17:09:44.4   0.2                          T                4.8  .35 Ml 2.7         5202801
MFF   004.16 301.2 m E Sg      2013/02/20 17:10:05.7   0.9                          T                3.7  .35 Ml 2.9         5202802
ETSF  004.37 249.6 m E Sg      2013/02/20 17:10:11.9   0.5                          T                2.9  .35 Ml 2.6         5202791

.
EVENT     292428
    Date      Time       Latitude Longitude    Depth    Ndef Nsta Gap    Mag1  N    Mag2  N    Mag3  N   Author         ID
       rms   OT_Error      Smajor Sminor Az        Err   mdist  Mdist     Err        Err        Err      Quality

2013/02/20 19:01:40.8     42.7427   -1.7686      2.0      23    3 105  Ml 1.7  2  Md 1.7  2              bulletin    292528
                                                                                                         _ldg
      0.30   +-  0.08       1.5    1.3  154.31 +-  0.0    0.14   1.93   +-0.2      +-0.1                 m i ke

PYRENEES
Sta     Dist  EvAz     Phase      Date       Time     TRes  Azim  AzRes  Slow  SRes Def   SNR       Amp   Per   Mag1   Mag2       ID
SJPF  000.54 047.0 m E Pg      2013/02/20 19:01:51.2   0.0                          T                                        5202815
SJPF  000.54 047.0 m E Sg      2013/02/20 19:01:58.4   0.1                          T                2.8  .30        Md 1.8  5202814
ETSF  000.90 079.7 m E Pg      2013/02/20 19:01:57.9   0.1                          T                                        5202813
ETSF  000.90 079.7 m E Sg      2013/02/20 19:02:09.4  -0.1                          T                1.6  .29 Ml 1.5 Md 1.7  5202812
ETSF  000.90 079.7 m E Sn      2013/02/20 19:02:11.9   0.1                          T                                        5203698
EPF   001.58 078.8 m E Pn      2013/02/20 19:02:08.2   0.1                          T                                        5203693
EPF   001.58 078.8 m E Pg      2013/02/20 19:02:09.9  -0.3                          T                                        5202810
EPF   001.58 078.8 m E Sn      2013/02/20 19:02:27.9   0.1                          T                                        5203692
EPF   001.58 078.8 m E Sg      2013/02/20 19:02:30.6   0.1                          T                1.2  .21 Ml 1.8         5202811

.
EVENT     292429
    Date      Time       Latitude Longitude    Depth    Ndef Nsta Gap    Mag1  N    Mag2  N    Mag3  N   Author         ID
       rms   OT_Error      Smajor Sminor Az        Err   mdist  Mdist     Err        Err        Err      Quality

2013/02/20 19:30:15.2     42.7102   -1.7473      2.0      32    3 097  Ml 2.0  2  Md 2.2  3              bulletin    292529
                                                                                                         _ldg
      0.61   +-  0.14       2.4    2.3  135.07 +-  0.0    0.14   2.61   +-0.2      +-0.0                 m i ke

PYRENEES
Sta     Dist  EvAz     Phase      Date       Time     TRes  Azim  AzRes  Slow  SRes Def   SNR       Amp   Per   Mag1   Mag2       ID
SJPF  000.56 043.4 m E Pg      2013/02/20 19:30:25.8   0.0                          T                                        5202877
SJPF  000.56 043.4 m E Sg      2013/02/20 19:30:33.4   0.2                          T                8.7  .35        Md 2.2  5202874
ETSF  000.89 077.4 m E Pg      2013/02/20 19:30:32.1   0.0                          T                                        5202876
ETSF  000.89 077.4 m E Sg      2013/02/20 19:30:43.7   0.0                          T                2.4  .21 Ml 1.8 Md 2.1  5202873
EPF   001.57 077.5 m E Pn      2013/02/20 19:30:42.4   0.0                          T                                        5203700
EPF   001.57 077.5 m E Pg      2013/02/20 19:30:44.9   0.4                          T                                        5202875
EPF   001.57 077.5 m E Sn      2013/02/20 19:31:02.0  -0.1                          T                                        5204554
EPF   001.57 077.5 m E Sg      2013/02/20 19:31:04.7   0.0                          T                2.1  .19 Ml 2.1 Md 2.2  5202872

.
EVENT     292430
    Date      Time       Latitude Longitude    Depth    Ndef Nsta Gap    Mag1  N    Mag2  N    Mag3  N   Author         ID
       rms   OT_Error      Smajor Sminor Az        Err   mdist  Mdist     Err        Err        Err      Quality

2013/02/20 21:15:37.2     44.0023   11.6551     10.0 f    71   18 124  Ml 2.5 20                         bulletin    292530
                                                                                                         _ldg
      1.09   +-  0.17       4.1    2.9   58.05 +-  0.0    0.23   6.72   +-0.4                            m i ke

NORTHERN ITALY
Sta     Dist  EvAz     Phase      Date       Time     TRes  Azim  AzRes  Slow  SRes Def   SNR       Amp   Per   Mag1   Mag2       ID
PGF   002.42 234.1 m E P       2013/02/20 21:16:16.9  -0.9                          T                                        5203882
PGF   002.42 234.1 m E Sn      2013/02/20 21:16:42.0  -1.2                          T                3.7  .35 Ml 2.6         5203880
SBF   003.05 268.8 m E P       2013/02/20 21:16:26.3  -0.5                          T                                        5203881
SBF   003.05 268.8 m E Sn      2013/02/20 21:16:57.8  -0.4                          T                2.1  .24 Ml 2.4         5203879
MBDF  003.58 283.4 m E P       2013/02/20 21:16:34.2  -0.1                          T                                        5202881
MBDF  003.58 283.4 m E Sn      2013/02/20 21:17:09.8  -0.9                          T                 .6  .28 Ml 1.9         5202879
LPG   003.80 294.9 m E Pn      2013/02/20 21:16:34.4   0.2                          T                                        5202886
LPG   003.80 294.9 m E P       2013/02/20 21:16:37.9   0.3                          T                                        5203926
LPG   003.80 294.9 m E Sn      2013/02/20 21:17:15.1  -1.2                          T                1.4  .36 Ml 2.2         5203006
LPL   003.82 295.1 m E Pn      2013/02/20 21:16:34.7   0.3                          T                                        5202884
LPL   003.82 295.1 m E P       2013/02/20 21:16:37.9   0.1                          T                                        5203925
LPL   003.82 295.1 m E Sn      2013/02/20 21:17:15.5  -1.1                          T                3.0  .47 Ml 2.4         5202878
FRF   003.65 264.8 m E P       2013/02/20 21:16:35.3   0.1                          T                                        5203927
FRF   003.65 264.8 m E Sn      2013/02/20 21:17:12.3  -0.2                          T                 .6  .17 Ml 2.2         5203047
LMR   003.79 261.6 m E P       2013/02/20 21:16:36.5  -0.6                          T                                        5203046
LMR   003.79 261.6 m E Sn      2013/02/20 21:17:15.3  -0.5                          T                 .6  .23 Ml 2.0         5203878
ORIF  004.23 284.5 m E P       2013/02/20 21:16:43.3  -0.3                          T                                        5202882
ORIF  004.23 284.5 m E Sn      2013/02/20 21:17:29.2   2.8                          T                2.1  .36 Ml 2.5         5203005
CABF  004.71 305.5 m E P       2013/02/20 21:16:49.0  -1.4                          T                                        5203886
CABF  004.71 305.5 m E Sn      2013/02/20 21:17:36.4  -1.5                          T                  1  .22 Ml 2.5         5203980
HINF  005.08 320.4 m E P       2013/02/20 21:16:53.2  -2.2                          T                                        5203052
HINF  005.08 320.4 m E Sn      2013/02/20 21:17:44.6  -1.9                          T                5.9  .46 Ml 3.0         5203051
VIVF  005.07 282.1 m E P       2013/02/20 21:16:55.0  -0.4                          T                                        5202883
VIVF  005.07 282.1 m E Sn      2013/02/20 21:17:45.5  -0.9                          T                 .6  .33 Ml 2.2         5203976
CDF   005.36 327.0 m E Pn      2013/02/20 21:16:56.0   0.9                          T                                        5203053
CDF   005.36 327.0 m E Sn      2013/02/20 21:17:51.7  -1.5                          T                1.7  .28 Ml 2.8         5203972
HAU   005.45 319.1 m E P       2013/02/20 21:16:58.0  -2.6                          T                                        5203975
HAU   005.45 319.1 m E Sn      2013/02/20 21:17:53.9  -1.5                          T                1.1  .23 Ml 2.4         5203974
SMF   006.11 298.4 m E Pn      2013/02/20 21:17:05.7   0.3                          T                                        5203884
SMF   006.11 298.4 m E Sn      2013/02/20 21:18:13.4   2.2                          T                2.4  .30 Ml 3.0         5203978
LOR   006.37 303.6 m E P       2013/02/20 21:17:11.6  -2.0 123.3  5.3               T                                        5203050
LOR   006.37 303.6 m E Sn      2013/02/20 21:18:16.1  -1.2 122.8  4.8               T                  1  .24 Ml 2.8         5203048
SSF   006.49 301.0 m E P       2013/02/20 21:17:12.6  -2.7                          T                                        5203049
SSF   006.49 301.0 m E Sn      2013/02/20 21:18:18.6  -1.6                          T                1.2  .36 Ml 2.8         5203973
BGF   006.72 295.4 m E Pn      2013/02/20 21:17:13.8   0.2                          T                                        5204555
BGF   006.72 295.4 m E P       2013/02/20 21:17:18.7   0.1                          T                                        5203883
AVF   006.48 298.4 m E Sn      2013/02/20 21:18:18.5  -1.4                          T                 .4  .25 Ml 2.4         5203979

.
