BEGIN GSE2.0
MSG_TYPE DATA
MSG_ID 28-JUL-1114:27:42  FRA_NDC
E-MAIL
DATA_TYPE BULLETIN
Reviewed Bulletin (REB) # P2011-029  from French NDC for regional phases     PERIOD 20 JUL 2011 TO 26 JUL 2011 N P., J-P S.
EVENT     261574
    Date      Time       Latitude Longitude    Depth    Ndef Nsta Gap    Mag1  N    Mag2  N    Mag3  N   Author         ID
       rms   OT_Error      Smajor Sminor Az        Err   mdist  Mdist     Err        Err        Err      Quality

2011/07/20 01:15:30.8     43.1651    -.3129      2.0       6    3 199             Md 1.2  3              js067245    261574

      0.24   +-  0.18       6.0    2.3  178.12 +-  0.0    0.32   0.67              +-0.2                 m i ke

PYRENEES
Sta     Dist  EvAz     Phase      Date       Time     TRes  Azim  AzRes  Slow  SRes Def   SNR       Amp   Per   Mag1   Mag2       ID
ETSF  000.32 214.2 m E Pg      2011/07/20 01:15:37.3   0.2                          T                                        4724989
ETSF  000.32 214.2 m E Sg      2011/07/20 01:15:41.1  -0.4                          T                6.6  .22        Md 1.4  4724988
EPF   000.50 105.5 m E Pg      2011/07/20 01:15:40.2  -0.2                          T                                        4724986
EPF   000.50 105.5 m E Sg      2011/07/20 01:15:47.3   0.4                          T                 .9  .22        Md 1.0  4724985
SJPF  000.67 265.9 m E Pg      2011/07/20 01:15:43.5   0.0                          T                                        4724987
SJPF  000.67 265.9 m E Sg      2011/07/20 01:15:52.2  -0.1                          T                2.0  .31        Md 1.2  4724983

.
EVENT     261588
    Date      Time       Latitude Longitude    Depth    Ndef Nsta Gap    Mag1  N    Mag2  N    Mag3  N   Author         ID
       rms   OT_Error      Smajor Sminor Az        Err   mdist  Mdist     Err        Err        Err      Quality

2011/07/20 07:19:18.1     48.7682    5.9692       .0 f    19   10 150  Ml 2.4  4  Md 2.5  1              js067245    261588

      1.13   +-  0.13       2.1    1.7  155.66 +-  0.0    0.27   2.16   +-0.2      +-                    m i km

FRANCE
Sta     Dist  EvAz     Phase      Date       Time     TRes  Azim  AzRes  Slow  SRes Def   SNR       Amp   Per   Mag1   Mag2       ID
PAGF  000.27 217.3 m E Pg      2011/07/20 07:19:23.4  -0.1  32.4  -4.7              T                                        4727330
PAGF  000.27 217.3 m E Sg      2011/07/20 07:19:28.3   0.9  32.7  -4.4              T               24.8  .65        Md 2.5  4727331
THEF  000.54 178.2 m E Pg      2011/07/20 07:19:28.5  -0.1                          T                                        4727316
THEF  000.54 178.2 m E Sg      2011/07/20 07:19:35.9   0.0                          T               25.5  .55                4727317
HAU   000.80 161.5 m E Pg      2011/07/20 07:19:33.4   0.0                          T                                        4727327
HAU   000.80 161.5 m E Sg      2011/07/20 07:19:44.1   0.0                          T                                        4727328
HAU   000.80 161.5 m E Sn      2011/07/20 07:19:46.6  -0.7                          T               48.2  .46                4727329
SFTF  000.84 228.0 m E Pg      2011/07/20 07:19:34.2   0.1                          T                                        4727318
SFTF  000.84 228.0 m E Sg      2011/07/20 07:19:45.5   0.3                          T                9.1  .37                4727319
CDF   000.94 111.8 m E Pg      2011/07/20 07:19:36.2   0.1                          T                                        4727332
CDF   000.94 111.8 m E Sg      2011/07/20 07:19:48.1  -0.3                          T                8.0  .38 Ml 2.2         4727333
HINF  001.12 147.9 m E Pg      2011/07/20 07:19:39.3  -0.1                          T                                        4727315
HINF  001.12 147.9 m E Sg      2011/07/20 07:19:54.0  -0.1                          T               13.9  .50 Ml 2.3         4727326
MEZF  000.66 246.7 m E Sg      2011/07/20 07:19:39.7  -0.1  69.2  3.2               T               10.9  .22                4727320
RUP   001.18 037.0 m E Pg      2011/07/20 07:19:40.4   0.1                          T                                        4727321
RUP   001.18 037.0 m E Sg      2011/07/20 07:19:56.1   0.3                          T                                        4727322
LOR   002.06 224.1 m E Pg      2011/07/20 07:19:56.7   0.0  51.5  9.0               T                                        4727323
LOR   002.06 224.1 m E Sg      2011/07/20 07:20:23.8   0.3  52.7  10.2              T               37.7 1.20 Ml 2.7         4727324
CABF  002.16 177.8 m E Sg      2011/07/20 07:20:26.5  -0.1                          T               11.7  .62 Ml 2.5         4727325

.
EVENT     261589
    Date      Time       Latitude Longitude    Depth    Ndef Nsta Gap    Mag1  N    Mag2  N    Mag3  N   Author         ID
       rms   OT_Error      Smajor Sminor Az        Err   mdist  Mdist     Err        Err        Err      Quality

2011/07/20 08:25:56.0     47.8160    5.8850       .0 f    17   10 083  Ml 2.5  5  Md 2.3  3              js067245    261589

      0.86   +-  0.08       1.6    1.2  148.16 +-  0.0    0.36   1.82   +-0.1      +-0.1                 m i km

FRANCE
Sta     Dist  EvAz     Phase      Date       Time     TRes  Azim  AzRes  Slow  SRes Def   SNR       Amp   Per   Mag1   Mag2       ID
HAU   000.36 058.5 m E Pg      2011/07/20 08:26:03.4   0.0                          T                                        4727356
HAU   000.36 058.5 m E Sg      2011/07/20 08:26:08.7   0.3                          T               48.7  .58        Md 2.2  4727357
THEF  000.42 010.0 m E Pg      2011/07/20 08:26:04.2  -0.2                          T                                        4727354
THEF  000.42 010.0 m E Sg      2011/07/20 08:26:10.5   0.4                          T               92.7  .61        Md 2.3  4727355
HINF  000.65 089.6 m E Pg      2011/07/20 08:26:08.6  -0.1                          T                                        4727349
HINF  000.65 089.6 m E Sg      2011/07/20 08:26:17.4   0.0                          T               26.4  .70                4727350
SFTF  000.69 304.7 m E Pg      2011/07/20 08:26:09.2  -0.1 132.1  8.0               T                                        4727343
SFTF  000.69 304.7 m E Sg      2011/07/20 08:26:18.5   0.0 124.2  0.1               T               21.6  .41        Md 2.5  4727353
CDF   001.11 056.9 m E Pg      2011/07/20 08:26:17.0  -0.1                          T                                        4727345
CDF   001.11 056.9 m E Sn      2011/07/20 08:26:32.7   0.0                          T               13.1  .46 Ml 2.4         4727352
CABF  001.21 173.4 m E Pg      2011/07/20 08:26:19.1   0.0                          T                                        4727341
CABF  001.21 173.4 m E Sg      2011/07/20 08:26:35.3   0.3                          T               19.8  .56 Ml 2.5         4727351
PAGF  000.75 351.8 m E Sg      2011/07/20 08:26:20.2  -0.1 175.9  4.2               T                2.4  .45                4727344
LOR   001.48 249.0 m E Pg      2011/07/20 08:26:24.1   0.2  70.0  2.5               T                                        4727347
LOR   001.48 249.0 m E Sg      2011/07/20 08:26:43.3   0.1  71.8  4.3               T               14.3  .46 Ml 2.5         4727348
SSF   001.78 245.8 m E Sg      2011/07/20 08:26:52.6  -0.1                          T               10.8  .46 Ml 2.6         4727346
SMF   001.82 230.7 m E Sg      2011/07/20 08:26:53.9   0.1                          T               13.0  .44 Ml 2.6         4727342

.
EVENT     261618
    Date      Time       Latitude Longitude    Depth    Ndef Nsta Gap    Mag1  N    Mag2  N    Mag3  N   Author         ID
       rms   OT_Error      Smajor Sminor Az        Err   mdist  Mdist     Err        Err        Err      Quality

2011/07/20 13:13:10.1     47.6807    5.9935       .0 f    16    8 100  Ml 1.9  4  Md 2.0  1              js067245    261618

      0.68   +-  0.08       1.5    1.3  134.65 +-  0.0    0.40   1.51   +-0.3      +-                    m i km

FRANCE
Sta     Dist  EvAz     Phase      Date       Time     TRes  Azim  AzRes  Slow  SRes Def   SNR       Amp   Per   Mag1   Mag2       ID
HAU   000.40 036.2 m E Pg      2011/07/20 13:13:17.8  -0.4                          T                                        4727652
HAU   000.40 036.2 m E Sg      2011/07/20 13:13:23.2  -0.5                          T               30.3  .64        Md 2.0  4727653
THEF  000.55 000.0 m E Pg      2011/07/20 13:13:20.7  -0.1                          T                                        4727662
THEF  000.55 000.0 m E Sg      2011/07/20 13:13:28.2   0.0                          T               68.6  .97                4727663
HINF  000.60 076.5 m E Pg      2011/07/20 13:13:21.7   0.0                          T                                        4727648
HINF  000.60 076.5 m E Sg      2011/07/20 13:13:30.0   0.2                          T                4.7  .27                4727649
SFTF  000.83 309.6 m E Pg      2011/07/20 13:13:26.0   0.0 132.6  3.7               T                                        4727650
SFTF  000.83 309.6 m E Sg      2011/07/20 13:13:37.2   0.3                          T               10.5  .40                4727651
PAGF  000.89 348.5 m E Pg      2011/07/20 13:13:27.3   0.1 165.5  -2.8              T                                        4727664
PAGF  000.89 348.5 m E Sg      2011/07/20 13:13:39.0   0.0 165.8  -2.5              T                3.2  .48 Ml 1.6         4727665
CABF  001.07 176.5 m E Pg      2011/07/20 13:13:30.8   0.2                          T                                        4727646
CABF  001.07 176.5 m E Sg      2011/07/20 13:13:44.5  -0.2                          T               15.2  .61 Ml 2.2         4727647
CDF   001.13 049.1 m E Pg      2011/07/20 13:13:31.8   0.2                          T                                        4727666
CDF   001.13 049.1 m E Sg      2011/07/20 13:13:46.9   0.4                          T                3.6  .40 Ml 1.9         4727669
LOR   001.51 254.9 m E Pg      2011/07/20 13:13:38.4   0.0  75.0  1.7               T                                        4727667
LOR   001.51 254.9 m E Sg      2011/07/20 13:13:57.7  -0.4  80.2  6.8               T                1.8  .25 Ml 1.9         4727668

.
EVENT     261619
    Date      Time       Latitude Longitude    Depth    Ndef Nsta Gap    Mag1  N    Mag2  N    Mag3  N   Author         ID
       rms   OT_Error      Smajor Sminor Az        Err   mdist  Mdist     Err        Err        Err      Quality

2011/07/20 13:24:38.6     51.4920    6.5516      1.0 f    48   18 234  Ml 3.1 14  Md 3.0  4              js067245    261619

      0.65   +-  0.21       3.7    2.4    2.39 +-  0.0    0.31   5.92   +-0.3      +-0.4                 m i sr

GERMANY
Sta     Dist  EvAz     Phase      Date       Time     TRes  Azim  AzRes  Slow  SRes Def   SNR       Amp   Per   Mag1   Mag2       ID
GIVF  001.77 218.9 m E Pn      2011/07/20 13:25:08.6   0.0                          T                                        4725105
GIVF  001.77 218.9 m E Sn      2011/07/20 13:25:30.5   0.0                          T               91.2  .30 Ml 3.6 Md 3.0  4725117
RUP   001.82 169.6 m E Pn      2011/07/20 13:25:09.5   0.2                          T                                        4725112
RUP   001.82 169.6 m E P       2011/07/20 13:25:11.6   0.2                          T                                        4727688
RUP   001.82 169.6 m E Sn      2011/07/20 13:25:30.8  -1.0                          T                                        4725111
RUP   001.82 169.6 m E Sg      2011/07/20 13:25:36.1   0.1                          T                                Md 3.5  4727670
BAIF  002.07 227.0 m E P       2011/07/20 13:25:14.9   0.0                          T                                        4725113
BAIF  002.07 227.0 m E Sn      2011/07/20 13:25:37.7   0.2                          T               28.4  .28 Ml 3.2 Md 2.7  4725116
LANF  002.64 161.8 m E Pn      2011/07/20 13:25:20.9   0.4                          T                                        4727687
LANF  002.64 161.8 m E Pg      2011/07/20 13:25:27.7   0.1                          T                                        4727686
LANF  002.64 161.8 m E Sg      2011/07/20 13:26:02.5   1.0                          T                                        4727676
PAGF  002.99 190.6 m E Pn      2011/07/20 13:25:25.0  -0.2                          T                                        4727684
PAGF  002.99 190.6 m E Pg      2011/07/20 13:25:33.9  -0.1                          T                                        4727683
PAGF  002.99 190.6 m E Sg      2011/07/20 13:26:12.7   0.4  12.6  2.6               T                8.3  .62 Ml 2.5         4727674
CDF   003.12 171.1 m E Pn      2011/07/20 13:25:27.3   0.2                          T                                        4725110
CDF   003.12 171.1 m E Pg      2011/07/20 13:25:36.7   0.2                          T                                        4727685
CDF   003.12 171.1 m E Sn      2011/07/20 13:26:02.4  -0.4                          T                                Md 2.8  4725098
CDF   003.12 171.1 m E Sg      2011/07/20 13:26:16.4  -0.1                          T               17.2  .54 Ml 3.1         4727675
SFTF  003.43 197.2 m E Pg      2011/07/20 13:25:41.9  -0.2                          T                                        4727682
SFTF  003.43 197.2 m E Sg      2011/07/20 13:26:25.5  -0.7                          T               19.0  .33 Ml 3.3         4727672
HAU   003.49 182.2 m E Pg      2011/07/20 13:25:43.0  -0.3                          T                                        4727681
HAU   003.49 182.2 m E Sg      2011/07/20 13:26:28.3   0.1                          T               15.7  .44 Ml 2.9         4727671
LOR   004.58 203.6 m E Pn      2011/07/20 13:25:46.7  -0.2  37.6  16.1              T                                        4725119
LOR   004.58 203.6 m E Sn      2011/07/20 13:26:38.5   0.9                          T                                        4725121
LOR   004.58 203.6 m E Sg      2011/07/20 13:27:02.0   0.0  27.2  5.6               T               17.2  .50 Ml 3.3         4727678
SSF   004.86 205.4 m E Pn      2011/07/20 13:25:50.6   0.0                          T                                        4725118
SSF   004.86 205.4 m E Sn      2011/07/20 13:26:44.9   0.6                          T                                        4725120
SSF   004.86 205.4 m E Sg      2011/07/20 13:27:10.9   0.1                          T               14.6  .52 Ml 3.4         4727677
CABF  004.89 183.8 m E Pn      2011/07/20 13:25:51.2   0.0                          T                                        4727680
AVF   005.15 205.3 m E Pn      2011/07/20 13:25:54.3  -0.4                          T                                        4725109
AVF   005.15 205.3 m E Sn      2011/07/20 13:26:52.5   1.3                          T                2.7  .33 Ml 2.8         4725099
SMF   005.17 201.2 m E Pn      2011/07/20 13:25:54.8  -0.1                          T                                        4725108
SMF   005.17 201.2 m E Sn      2011/07/20 13:26:51.8   0.2                          T                5.0  .40 Ml 3.0         4725100
FLN   005.28 241.6 m E Pn      2011/07/20 13:25:57.3   0.9  63.1  6.9               T                                        4725104
BGF   005.51 207.7 m E Pn      2011/07/20 13:25:59.5   0.1                          T                                        4725107
BGF   005.51 207.7 m E Sn      2011/07/20 13:26:58.5  -1.2                          T                                        4727679
MEZF  003.15 198.5 m E Sg      2011/07/20 13:26:17.1  -0.1  18.3  0.9               T               25.6  .44 Ml 3.2         4727673
LDF   005.19 238.6 m E Sn      2011/07/20 13:26:51.3  -0.7                          T                1.8  .20 Ml 2.8         4725102
GRR   005.70 239.9 m E Sn      2011/07/20 13:27:03.9  -0.5                          T               10.1  .22 Ml 3.5         4725103

.
EVENT     261733
    Date      Time       Latitude Longitude    Depth    Ndef Nsta Gap    Mag1  N    Mag2  N    Mag3  N   Author         ID
       rms   OT_Error      Smajor Sminor Az        Err   mdist  Mdist     Err        Err        Err      Quality

2011/07/20 17:00:18.4     42.8052   -1.0563      2.0      23    3 097  Ml 1.2  1  Md 1.3  2              js067245    261733

      0.11   +-  0.02        .5     .4   20.34 +-  0.0    0.11   1.05   +-         +-0.0                 m i ke

PYRENEES
Sta     Dist  EvAz     Phase      Date       Time     TRes  Azim  AzRes  Slow  SRes Def   SNR       Amp   Per   Mag1   Mag2       ID
SJPF  000.33 338.1 m E Pg      2011/07/20 17:00:24.8   0.0                          T                                        4727693
SJPF  000.33 338.1 m E Sg      2011/07/20 17:00:29.5   0.1                          T                2.0  .25        Md 1.3  4727694
ETSF  000.38 075.5 m E Pg      2011/07/20 17:00:25.8   0.0                          T                                        4727691
ETSF  000.38 075.5 m E Sg      2011/07/20 17:00:30.8   0.0                          T                1.8  .25        Md 1.4  4727692
EPF   001.05 077.2 m E Pg      2011/07/20 17:00:38.1   0.0                          T                                        4727689
EPF   001.05 077.2 m E Sg      2011/07/20 17:00:51.6  -0.2                          T                 .6  .25 Ml 1.2         4727690

.
