EVENT     269953
    Date      Time       Latitude Longitude    Depth    Ndef Nsta Gap    Mag1  N    Mag2  N    Mag3  N   Author         ID
       rms   OT_Error      Smajor Sminor Az        Err   mdist  Mdist     Err        Err        Err      Quality

2012/02/10 16:31:53.2     42.3718    1.7974      4.0 f   181   27 023  Ml 3.4 33  Md 3.2  3              js067245    269973

      0.85   +-  0.06       1.3    1.0  136.80 +-  0.0    0.17   7.62   +-0.3      +-0.1                 m i ke

PYRENEES
Sta     Dist  EvAz     Phase      Date       Time     TRes  Azim  AzRes  Slow  SRes Def   SNR       Amp   Per   Mag1   Mag2       ID
MTLF  001.02 017.5 m E Pg      2012/02/10 16:32:12.3   0.0                          T   001.0                                4834764
MTLF  001.02 017.5 m E Sg      2012/02/10 16:32:25.3  -0.2                          T   001.0      102.5  .18 Ml 3.6 Md 3.3  4834765
MTLF  001.02 017.5 m E Sn      2012/02/10 16:32:26.7   0.1                          T                                        4836233
EPF   001.26 302.0 m E Pg      2012/02/10 16:32:15.4  -1.4                          T   001.0                                4834774
EPF   001.26 302.0 m E Pn      2012/02/10 16:32:15.4  -0.6                          T   001.0                                4834775
EPF   001.26 302.0 m E Sg      2012/02/10 16:32:32.7  -0.5                          T   001.0      281.6  .28 Ml 3.9 Md 3.2  4834776
LASF  002.27 040.8 m E Pn      2012/02/10 16:32:29.9   0.1                          T   001.0                                4834783
LASF  002.27 040.8 m E Pg      2012/02/10 16:32:35.3  -0.2                          T                                        4836257
LASF  002.27 040.8 m E Sn      2012/02/10 16:32:57.1   0.5                          T               16.0  .30 Ml 3.0         4836234
LASF  002.27 040.8 m E Sg      2012/02/10 16:33:04.8   0.1                          T   001.0       39.6  .29 Ml 3.4         4834784
CAF   002.56 004.2 m E Pn      2012/02/10 16:32:34.9   1.2                          T   001.0                                4834770
CAF   002.56 004.2 m E Pg      2012/02/10 16:32:41.4   0.6                          T   001.0                                4834771
CAF   002.56 004.2 m E Sn      2012/02/10 16:33:04.7   1.3                          T   001.0       15.0  .20 Ml 3.2         4834772
CAF   002.56 004.2 m E Sg      2012/02/10 16:33:12.8  -0.9                          T   001.0       94.8  .26 Ml 3.9         4834773
SJPF  002.35 289.4 m E Pg      2012/02/10 16:32:35.7  -1.1                          T   001.0                                4834791
SJPF  002.35 289.4 m E Sg      2012/02/10 16:33:06.3  -0.7                          T   001.0       49.2  .26 Ml 3.6 Md 3.1  4834792
LFF   002.68 343.7 m E Pn      2012/02/10 16:32:35.8   0.6                          T   001.0                                4834785
LFF   002.68 343.7 m E Pg      2012/02/10 16:32:42.8  -0.1                          T                                        4836254
LFF   002.68 343.7 m E Sn      2012/02/10 16:33:06.6   0.4                          T   001.0       21.9  .24 Ml 3.1         4834786
LFF   002.68 343.7 m E Sg      2012/02/10 16:33:16.9  -0.4                          T   001.0       95.3  .32 Ml 3.7         4834787
RJF   002.94 356.1 m E Pn      2012/02/10 16:32:40.5   1.6                          T                                        4836252
RJF   002.94 356.1 m E Pg      2012/02/10 16:32:47.0  -0.7                          T                                        4836253
RJF   002.94 356.1 m E Sn      2012/02/10 16:33:13.4   1.0                          T               12.1  .18 Ml 2.9         4836232
RJF   002.94 356.1 m E Sg      2012/02/10 16:33:24.7  -0.8                          T   001.0       38.1  .20 Ml 3.4         4834754
SMRF  003.19 058.6 m E Pn      2012/02/10 16:32:41.4  -1.0                          T   001.0                                4834794
SMRF  003.19 058.6 m E Pg      2012/02/10 16:32:53.5   1.0                          T                                        4836237
VIVF  003.24 039.1 m E Pn      2012/02/10 16:32:43.7   0.7                          T                                        4836255
VIVF  003.24 039.1 m E Pg      2012/02/10 16:32:53.3   0.0                          T                                        4836256
VIVF  003.24 039.1 m E Sn      2012/02/10 16:33:20.7   0.9                          T               10.2  .34 Ml 3.0         4836235
VIVF  003.24 039.1 m E Sg      2012/02/10 16:33:35.4   0.4                          T   001.0       18.8  .26 Ml 3.3         4834793
LMR   003.60 072.9 m E Pn      2012/02/10 16:32:49.5   1.8                          T   001.0                                4834788
LMR   003.60 072.9 m E Sn      2012/02/10 16:33:30.2   2.1                          T   001.0       14.9  .34 Ml 3.2         4834789
FRF   003.75 069.9 m E Pn      2012/02/10 16:32:51.5   1.6                          T   001.0                                4834779
FRF   003.75 069.9 m E Pg      2012/02/10 16:33:02.7   0.0                          T                                        4836236
FRF   003.75 069.9 m E Sn      2012/02/10 16:33:33.6   1.7                          T   001.0        7.7  .30 Ml 3.0         4834780
TCF   003.93 004.2 m E Pn      2012/02/10 16:32:52.6   0.3                          T                                        4836249
TCF   003.93 004.2 m E Pg      2012/02/10 16:33:05.7  -0.3                          T                                        4836248
TCF   003.93 004.2 m E Sn      2012/02/10 16:33:35.6  -0.5                          T   001.0                                4834762
TCF   003.93 004.2 m E Sg      2012/02/10 16:33:56.3  -0.1                          T   001.0        6.9  .18 Ml 3.3         4834763
ORIF  003.91 047.9 m E Pn      2012/02/10 16:32:54.5   2.4                          T   001.0                                4834766
ORIF  003.91 047.9 m E Sn      2012/02/10 16:33:36.7   1.0                          T   001.0        4.6  .34 Ml 2.8         4834767
MFF   004.45 342.5 m E Pn      2012/02/10 16:33:00.5   1.1                          T   001.0                                4834756
SBF   004.39 068.2 m E Pn      2012/02/10 16:33:00.5   1.9                          T   001.0                                4834760
MFF   004.45 342.5 m E Pg      2012/02/10 16:33:14.9  -0.7                          T                                        4836227
MFF   004.45 342.5 m E Sn      2012/02/10 16:33:49.0   0.4                          T   001.0        9.5  .34 Ml 3.4         4834757
MFF   004.45 342.5 m E Sg      2012/02/10 16:34:13.1   0.4                          T               20.7  .41 Ml 3.6         4836231
LPL   004.75 046.9 m E Pn      2012/02/10 16:33:04.2   0.4                          T                                        4836239
LPL   004.75 046.9 m E P       2012/02/10 16:33:06.5  -1.2                          T   001.0                                4834755
LPG   004.75 047.2 m E P       2012/02/10 16:33:06.7  -1.1                          T                                        4836238
PGF   005.33 085.7 m E Pn      2012/02/10 16:33:11.6   0.1                          T   001.0                                4834758
PGF   005.33 085.7 m E Sn      2012/02/10 16:34:10.3   0.6                          T   001.0        6.9  .29 Ml 3.6         4834759
BGF   004.25 009.8 m E Pg      2012/02/10 16:33:12.1   0.2                          T                                        4836247
BGF   004.25 009.8 m E Sg      2012/02/10 16:34:06.2  -0.3                          T   001.0       78.7  .40 Ml 4.0         4834769
SMF   004.52 018.2 m E Pg      2012/02/10 16:33:16.8   0.0                          T                                        4836244
SMF   004.52 018.2 m E Sg      2012/02/10 16:34:14.8   0.1                          T               12.8  .33 Ml 3.4         4836241
AVF   004.56 013.6 m E Pg      2012/02/10 16:33:17.8   0.3                          T                                        4836246
AVF   004.56 013.6 m E Sg      2012/02/10 16:34:15.5  -0.4                          T   001.0        8.1  .30 Ml 3.2         4834768
SSF   004.84 014.0 m E Pg      2012/02/10 16:33:22.9   0.1                          T                                        4836250
SSF   004.84 014.0 m E Sg      2012/02/10 16:34:24.8  -0.2                          T   001.0       14.5  .31 Ml 3.6         4834761
LOR   005.11 016.0 m E Pg      2012/02/10 16:33:28.4   0.7 202.9  5.5               T                                        4836251
LOR   005.11 016.0 m E Sg      2012/02/10 16:34:33.2  -0.1 192.5  -4.9              T   001.0        9.4  .35 Ml 3.3         4834790
CABF  005.23 034.4 m E Pg      2012/02/10 16:33:30.0   0.0                          T                                        4836245
HINF  006.51 031.6 m E Pg      2012/02/10 16:33:54.0   0.3                          T                                        4836229
HYF   004.93 006.7 m E Sg      2012/02/10 16:34:27.8   0.1                          T                                        4836240
GRR   006.30 343.7 m E Sn      2012/02/10 16:34:32.9   0.1                          T   001.0        4.5  .32 Ml 3.2         4834782
GRR   006.30 343.7 m E Sg      2012/02/10 16:35:11.3   1.0                          T                3.9  .25 Ml 3.2         4836230

.
EVENT     270000
    Date      Time       Latitude Longitude    Depth    Ndef Nsta Gap    Mag1  N    Mag2  N    Mag3  N   Author         ID
       rms   OT_Error      Smajor Sminor Az        Err   mdist  Mdist     Err        Err        Err      Quality

2012/02/10 16:32:52.3     48.0867   -1.9959       .0 f    19    6 190  Ml 2.2  4  Md 2.2  3              js067245    270020

      1.86   +-  0.26      10.7    2.6  170.23 +-  0.0    0.41   1.35   +-0.3      +-0.0                 m i km

FRANCE
Sta     Dist  EvAz     Phase      Date       Time     TRes  Azim  AzRes  Slow  SRes Def   SNR       Amp   Per   Mag1   Mag2       ID
SGMF  000.41 294.3 m E Pg      2012/02/10 16:32:59.9  -0.6                          T                                        4836276
SGMF  000.41 294.3 m E Sg      2012/02/10 16:33:05.5  -0.6                          T                8.0  .22        Md 2.3  4836275
QUIF  000.80 258.2 m E Pg      2012/02/10 16:33:07.9   0.2                          T                                        4836270
QUIF  000.80 258.2 m E Pn      2012/02/10 16:33:09.8   0.4                          T                                        4836269
QUIF  000.80 258.2 m E Sg      2012/02/10 16:33:18.7   0.3                          T                6.5  .28        Md 2.2  4836268
QUIF  000.80 258.2 m E Sn      2012/02/10 16:33:21.9   0.3                          T               17.9  .22                4836267
GRR   000.82 067.9 m E Pg      2012/02/10 16:33:08.0   0.0                          T                                        4836261
GRR   000.82 067.9 m E Pn      2012/02/10 16:33:09.6   0.0                          T                                        4836260
GRR   000.82 067.9 m E Sg      2012/02/10 16:33:18.9   0.1                          T                4.5  .22                4836259
GRR   000.82 067.9 m E Sn      2012/02/10 16:33:21.4  -0.5                          T                6.0  .24                4836258
ROSF  000.89 286.8 m E Pg      2012/02/10 16:33:09.2  -0.1                          T                                        4836273
ROSF  000.89 286.8 m E P       2012/02/10 16:33:11.2   0.0                          T                                        4836274
ROSF  000.89 286.8 m E Sg      2012/02/10 16:33:20.8  -0.3                          T                2.2  .21 Ml 1.8         4836272
ROSF  000.89 286.8 m E Sn      2012/02/10 16:33:23.7   0.0                          T               15.4  .36 Ml 2.4 Md 2.3  4836271
FLN   001.21 055.6 m E Pg      2012/02/10 16:33:15.2  -0.1 233.0  -3.7              T                                        4836264
FLN   001.21 055.6 m E P       2012/02/10 16:33:16.6   0.0 214.8  -22.0             T                                        4836263
FLN   001.21 055.6 m E Sg      2012/02/10 16:33:30.9  -0.3                          T               15.4  .34 Ml 2.4         4836265
LDF   001.35 067.2 m E Pg      2012/02/10 16:33:18.3   0.5                          T                                        4836266
LDF   001.35 067.2 m E Sg      2012/02/10 16:33:35.2  -0.2                          T                7.0  .28 Ml 2.3         4836262

.
EVENT     269960
    Date      Time       Latitude Longitude    Depth    Ndef Nsta Gap    Mag1  N    Mag2  N    Mag3  N   Author         ID
       rms   OT_Error      Smajor Sminor Az        Err   mdist  Mdist     Err        Err        Err      Quality

2012/02/10 18:13:14.8     42.3656    1.7710      3.0 f    33    3 058  Ml 1.8  3  Md 1.8  2              js067245    269980

      0.36   +-  0.05       1.0     .8    1.67 +-  0.0    0.18   2.29   +-0.1      +-0.1                 m i ke

PYRENEES
Sta     Dist  EvAz     Phase      Date       Time     TRes  Azim  AzRes  Slow  SRes Def   SNR       Amp   Per   Mag1   Mag2       ID
MTLF  001.03 018.5 m E Pg      2012/02/10 18:13:34.4   0.3                          T                                        4836282
MTLF  001.03 018.5 m E Sg      2012/02/10 18:13:47.4   0.0                          T                1.6  .20 Ml 1.7 Md 1.8  4836281
MTLF  001.03 018.5 m E Sn      2012/02/10 18:13:48.6   0.0                          T                                        4836278
EPF   001.25 302.7 m E P       2012/02/10 18:13:39.8   0.6                          T                                        4836280
EPF   001.25 302.7 m E Sg      2012/02/10 18:13:54.4   0.1                          T                2.1  .21 Ml 1.9 Md 1.9  4836279
LASF  002.29 041.0 m E Sg      2012/02/10 18:14:26.9   0.0                          T                                        4836277

.
EVENT     269961
    Date      Time       Latitude Longitude    Depth    Ndef Nsta Gap    Mag1  N    Mag2  N    Mag3  N   Author         ID
       rms   OT_Error      Smajor Sminor Az        Err   mdist  Mdist     Err        Err        Err      Quality

2012/02/10 23:15:24.5     42.3712    1.7693      5.0 f    54    8 027  Ml 2.0  9  Md 2.1  2              js067245    269981

      0.51   +-  0.04        .9     .7  179.29 +-  0.0    0.18   3.82   +-0.1      +-0.1                 m i ke

PYRENEES
Sta     Dist  EvAz     Phase      Date       Time     TRes  Azim  AzRes  Slow  SRes Def   SNR       Amp   Per   Mag1   Mag2       ID
MTLF  001.02 018.6 m E Pg      2012/02/10 23:15:43.8   0.0                          T                                        4836328
MTLF  001.02 018.6 m E P       2012/02/10 23:15:45.4  -0.2                          T                                        4836316
MTLF  001.02 018.6 m E Sg      2012/02/10 23:15:57.2   0.2                          T                3.2  .20 Ml 2.0 Md 2.1  4836330
MTLF  001.02 018.6 m E Sn      2012/02/10 23:15:58.3   0.5                          T                                        4836315
EPF   001.24 302.5 m E Pn      2012/02/10 23:15:47.2   0.2                          T                                        4836327
EPF   001.24 302.5 m E P       2012/02/10 23:15:48.9   0.2                          T                                        4836314
EPF   001.24 302.5 m E Sg      2012/02/10 23:16:03.7  -0.3                          T                5.5  .28 Ml 2.2 Md 2.2  4836329
LASF  002.29 041.1 m E Pn      2012/02/10 23:16:01.7   0.5                          T                                        4836317
LASF  002.29 041.1 m E Pg      2012/02/10 23:16:07.2   0.2                          T                                        4836325
LASF  002.29 041.1 m E Sg      2012/02/10 23:16:37.5   1.0                          T                1.0  .22 Ml 2.0         4836326
SJPF  002.33 289.6 m E P       2012/02/10 23:16:03.8  -0.4                          T                                        4836313
SJPF  002.33 289.6 m E Pg      2012/02/10 23:16:07.7  -0.1                          T                                        4836318
SJPF  002.33 289.6 m E Sg      2012/02/10 23:16:38.9   1.2                          T                1.3  .25 Ml 2.0         4836324
CAF   002.56 004.7 m E Pg      2012/02/10 23:16:11.9  -0.2                          T                                        4836319
CAF   002.56 004.7 m E Sg      2012/02/10 23:16:44.9  -0.2                          T                1.8  .21 Ml 2.3         4836323
LFF   002.67 344.1 m E Pg      2012/02/10 23:16:14.1   0.0                          T                                        4836320
LFF   002.67 344.1 m E Sg      2012/02/10 23:16:48.5   0.0                          T                2.3  .27 Ml 2.1         4836322
RJF   002.94 356.5 m E Sg      2012/02/10 23:16:56.5  -0.3                          T                1.2  .22 Ml 1.8         4836321
VIVF  003.26 039.3 m E Sg      2012/02/10 23:17:06.4  -0.4                          T                 .7  .23 Ml 1.9         4836311

.
