EVENT     292637
    Date      Time       Latitude Longitude    Depth    Ndef Nsta Gap    Mag1  N    Mag2  N    Mag3  N   Author         ID
       rms   OT_Error      Smajor Sminor Az        Err   mdist  Mdist     Err        Err        Err      Quality

2013/02/20 08:01:20.7     43.0043    -.5675      4.0 f     6    3 164             Md 1.4  2              bulletin    292737
                                                                                                         _ldg
      0.14   +-  0.06       1.8    1.1    9.65 +-  0.0    0.11   0.67              +-0.3                 m i ke

PYRENEES
Sta     Dist  EvAz     Phase      Date       Time     TRes  Azim  AzRes  Slow  SRes Def   SNR       Amp   Per   Mag1   Mag2       ID
ETSF  000.11 176.7 m E Pg      2013/02/20 08:01:23.2  -0.1                          T                                        5207379
ETSF  000.11 176.7 m E Sg      2013/02/20 08:01:25.0   0.1                          T               10.3  .38        Md 1.6  5207380
SJPF  000.49 283.0 m E Pg      2013/02/20 08:01:30.2   0.0                          T                                        5207377
SJPF  000.49 283.0 m E Sg      2013/02/20 08:01:36.4  -0.3                          T                1.5  .25        Md 1.2  5207378
EPF   000.67 087.5 m E Pg      2013/02/20 08:01:33.4   0.0                          T                                        5207375
EPF   000.67 087.5 m E Sg      2013/02/20 08:01:41.9  -0.2                          T                1.7  .28                5207376

.
EVENT     292415
    Date      Time       Latitude Longitude    Depth    Ndef Nsta Gap    Mag1  N    Mag2  N    Mag3  N   Author         ID
       rms   OT_Error      Smajor Sminor Az        Err   mdist  Mdist     Err        Err        Err      Quality

2013/02/20 11:41:53.9     48.2727   -1.8863      2.0     115   31 074  Ml 3.2 37  Md 3.2  3              bulletin    292515
                                                                                                         _ldg
      0.67   +-  0.05       1.1     .9   22.02 +-  0.0    0.45   6.32   +-0.4      +-0.0                 m i ke

FRANCE
Sta     Dist  EvAz     Phase      Date       Time     TRes  Azim  AzRes  Slow  SRes Def   SNR       Amp   Per   Mag1   Mag2       ID
SGMF  000.45 267.9 m E Pg      2013/02/20 11:42:02.7   0.3                          T   001.0                        Md 3.2  5202433
SGMF  000.45 267.9 m E Sg      2013/02/20 11:42:08.5   0.1                          T   001.0      236.2  .18                5202434
GRR   000.70 080.0 m E Pg      2013/02/20 11:42:07.3   0.3                          T   001.0                                5202416
GRR   000.70 080.0 m E Sg      2013/02/20 11:42:16.0  -0.1                          T              350.7  .18        Md 3.2  5202485
ROSF  000.93 274.5 m E Pg      2013/02/20 11:42:11.4   0.1                          T   001.0                                5202431
ROSF  000.93 274.5 m E Sg      2013/02/20 11:42:23.5   0.1                          T   001.0                                5202432
ROSF  000.93 274.5 m E Sn      2013/02/20 11:42:25.7   0.2                          T              493.2  .20 Ml 4.2         5208022
QUIF  000.93 247.9 m E Pg      2013/02/20 11:42:11.7   0.4                          T   001.0                                5202429
QUIF  000.93 247.9 m E Sg      2013/02/20 11:42:23.7   0.4                          T   001.0       77.6  .22 Ml 3.3 Md 3.2  5202430
QUIF  000.93 247.9 m E Sn      2013/02/20 11:42:26.5   1.0                          T              127.2  .16 Ml 3.7         5208021
FLN   001.05 061.8 m E Pg      2013/02/20 11:42:13.7   0.1 239.7  -3.1              T   001.0                                5202414
FLN   001.05 061.8 m E Sg      2013/02/20 11:42:27.4   0.1 240.2  -2.7              T   001.0      120.8  .22 Ml 3.4         5202415
LDF   001.22 074.1 m E Pg      2013/02/20 11:42:16.9   0.2                          T   001.0                                5202421
LDF   001.22 074.1 m E Sg      2013/02/20 11:42:32.1  -0.3                          T               93.6  .24 Ml 3.5         5202484
MFF   002.05 144.1 m E Pn      2013/02/20 11:42:27.6   0.0                          T   001.0                                5202388
MFF   002.05 144.1 m E Pg      2013/02/20 11:42:31.6  -0.3                          T   001.0                                5202389
MFF   002.05 144.1 m E Sg      2013/02/20 11:42:58.6   0.3                          T   001.0       30.5  .22 Ml 3.5         5202390
HYF   003.21 106.5 m E Pn      2013/02/20 11:42:43.7   0.2                          T                                        5202454
HYF   003.21 106.5 m E Pg      2013/02/20 11:42:53.2  -0.2                          T                                        5202455
HYF   003.21 106.5 m E Sn      2013/02/20 11:43:20.4   0.3                          T                                        5202456
HYF   003.21 106.5 m E Sg      2013/02/20 11:43:34.6  -0.1                          T               98.2  .31 Ml 4.0         5202457
TCF   003.42 123.9 m E Pn      2013/02/20 11:42:46.5   0.2                          T   001.0                                5202397
TCF   003.42 123.9 m E Pg      2013/02/20 11:42:57.3   0.0                          T                                        5202460
TCF   003.42 123.9 m E Sn      2013/02/20 11:43:25.0  -0.1                          T   001.0                                5202398
TCF   003.42 123.9 m E Sg      2013/02/20 11:43:41.1  -0.2                          T   001.0        7.9  .22 Ml 3.1         5202399
BGF   003.64 116.3 m E Pn      2013/02/20 11:42:49.4   0.1                          T   001.0                                5202408
BGF   003.64 116.3 m E Pg      2013/02/20 11:43:01.3   0.0                          T                                        5202453
BGF   003.64 116.3 m E Sn      2013/02/20 11:43:30.0  -0.3                          T   001.0                                5202409
BGF   003.64 116.3 m E Sg      2013/02/20 11:43:47.6  -0.5                          T   001.0       27.8  .36 Ml 3.5         5202410
SSF   003.84 106.4 m E Pn      2013/02/20 11:42:52.2   0.2                          T   001.0                                5202394
SSF   003.84 106.4 m E Pg      2013/02/20 11:43:05.0   0.0                          T                                        5202483
SSF   003.84 106.4 m E Sn      2013/02/20 11:43:33.9  -1.2                          T   001.0                                5202395
SSF   003.84 106.4 m E Sg      2013/02/20 11:43:52.2  -2.1                          T   001.0        8.4  .28 Ml 3.2         5202396
AVF   003.85 110.7 m E Pn      2013/02/20 11:42:52.6   0.6                          T   001.0                                5202405
AVF   003.85 110.7 m E Pg      2013/02/20 11:43:05.0  -0.1                          T                                        5202459
AVF   003.85 110.7 m E Sn      2013/02/20 11:43:33.9  -1.3                          T   001.0                                5202406
AVF   003.85 110.7 m E Sg      2013/02/20 11:43:54.1  -0.4                          T   001.0        4.4  .24 Ml 2.9         5202407
LOR   004.00 102.4 m E Pn      2013/02/20 11:42:54.5   0.3 282.0  -4.6              T   001.0                                5202425
LOR   004.00 102.4 m E Pg      2013/02/20 11:43:07.7  -0.3 282.0  -4.7              T                                        5202482
LOR   004.00 102.4 m E Sn      2013/02/20 11:43:38.8  -0.2                          T   001.0                                5202386
LOR   004.00 102.4 m E Sg      2013/02/20 11:43:58.2  -1.1 284.1  -2.5              T   001.0       17.2  .44 Ml 3.3         5202387
SMF   004.21 110.6 m E Pn      2013/02/20 11:42:57.1   0.1                          T   001.0                                5202391
SMF   004.21 110.6 m E Pg      2013/02/20 11:43:11.9   0.0                          T                                        5202458
SMF   004.21 110.6 m E Sn      2013/02/20 11:43:43.8  -0.1                          T   001.0                                5202392
SMF   004.21 110.6 m E Sg      2013/02/20 11:44:04.5  -1.4                          T   001.0        5.4  .30 Ml 3.0         5202393
BAIF  004.38 063.6 m E Pn      2013/02/20 11:42:59.5   0.2                          T   001.0                                5202400
BAIF  004.38 063.6 m E Pg      2013/02/20 11:43:15.2   0.3                          T                                        5202481
BAIF  004.38 063.6 m E Sn      2013/02/20 11:43:48.5   0.6                          T   001.0        5.1  .28 Ml 3.0         5202401
BAIF  004.38 063.6 m E Sg      2013/02/20 11:44:11.2   0.1                          T                5.1  .28 Ml 3.0         5202480
CAF   004.32 139.4 m E Pn      2013/02/20 11:42:59.7   1.2                          T   001.0                                5202411
CAF   004.32 139.4 m E Pg      2013/02/20 11:43:13.8   0.0                          T                                        5202450
CAF   004.32 139.4 m E Sn      2013/02/20 11:43:45.7  -0.7                          T   001.0        2.5  .16 Ml 2.9         5202412
CAF   004.32 139.4 m E Sg      2013/02/20 11:44:09.5   0.4                          T               15.0  .50 Ml 3.2         5202449
MEZF  004.63 084.6 m E Pn      2013/02/20 11:43:02.3  -0.4                          T                                        5202475
MEZF  004.63 084.6 m E Pg      2013/02/20 11:43:19.6   0.1                          T                                        5202474
MEZF  004.63 084.6 m E Sn      2013/02/20 11:43:53.9   0.0 263.2  -6.5              T                                        5202473
MEZF  004.63 084.6 m E Sg      2013/02/20 11:44:19.3   0.5                          T               11.4  .39 Ml 3.3         5202472
SFTF  004.63 088.3 m E Pn      2013/02/20 11:43:02.8   0.1 267.9  -5.5              T                                        5202471
SFTF  004.63 088.3 m E Pg      2013/02/20 11:43:19.9   0.4 268.5  -5.0              T                                        5202470
SFTF  004.63 088.3 m E Sn      2013/02/20 11:43:53.2  -0.7                          T                                        5202469
SFTF  004.63 088.3 m E Sg      2013/02/20 11:44:19.0   0.1                          T               14.2  .30 Ml 3.5         5202468
RJF   003.78 140.5 m E Pg      2013/02/20 11:43:03.6  -0.3                          T                                        5202452
RJF   003.78 140.5 m E Sn      2013/02/20 11:43:33.2  -0.4                          T   001.0                                5202403
RJF   003.78 140.5 m E Sg      2013/02/20 11:43:52.7   0.3                          T   001.0       15.7  .28 Ml 3.0         5202404
LFF   003.79 150.5 m E Pg      2013/02/20 11:43:04.0  -0.1                          T                                        5202451
LFF   003.79 150.5 m E Sn      2013/02/20 11:43:33.7  -0.2                          T   001.0                                5202423
LFF   003.79 150.5 m E Sg      2013/02/20 11:43:52.7  -0.1                          T   001.0       20.2  .32 Ml 3.2         5202424
GIVF  004.77 064.9 m E Pn      2013/02/20 11:43:05.0   0.4                          T                                        5202479
GIVF  004.77 064.9 m E Pg      2013/02/20 11:43:22.3   0.3                          T                                        5202478
GIVF  004.77 064.9 m E Sn      2013/02/20 11:43:57.3   0.1                          T                                        5202477
GIVF  004.77 064.9 m E Sg      2013/02/20 11:44:23.8   0.6                          T                8.1  .38 Ml 3.1         5202476
SJPF  005.18 174.6 m E Pn      2013/02/20 11:43:10.4   0.1                          T                                        5202448
SJPF  005.18 174.6 m E Pg      2013/02/20 11:43:29.5  -0.2                          T                                        5202447
SJPF  005.18 174.6 m E Sn      2013/02/20 11:44:06.1  -1.0                          T   001.0        1.5  .16 Ml 2.9         5202435
SJPF  005.18 174.6 m E Sg      2013/02/20 11:44:35.7  -0.5                          T                2.6  .34 Ml 2.8         5202446
EPF   005.47 162.6 m E Pn      2013/02/20 11:43:14.5   0.3                          T                                        5202443
EPF   005.47 162.6 m E Pg      2013/02/20 11:43:34.9  -0.2                          T                                        5202442
EPF   005.47 162.6 m E Sn      2013/02/20 11:44:12.4  -1.7                          T                                        5202445
EPF   005.47 162.6 m E Sg      2013/02/20 11:44:44.7  -0.5                          T                3.1  .26 Ml 3.1         5202444
HAU   005.52 089.7 m E Pn      2013/02/20 11:43:15.1   0.2                          T                                        5202466
HAU   005.52 089.7 m E Pg      2013/02/20 11:43:36.1   0.2                          T                                        5202467
HAU   005.52 089.7 m E Sn      2013/02/20 11:44:13.3  -1.9                          T   001.0                                5202417
HAU   005.52 089.7 m E Sg      2013/02/20 11:44:47.0   0.3                          T   001.0        9.3  .24 Ml 3.4         5202418
MTLF  005.70 148.3 m E Pn      2013/02/20 11:43:17.3  -0.1                          T                                        5202440
MTLF  005.70 148.3 m E Sn      2013/02/20 11:44:19.3  -0.3                          T   001.0        2.5  .52 Ml 2.7         5202428
MTLF  005.70 148.3 m E Sg      2013/02/20 11:44:52.2  -0.3                          T                2.0  .36 Ml 2.8         5202441
CABF  005.66 104.1 m E Pn      2013/02/20 11:43:17.5   0.6                          T   001.0                                5202402
CABF  005.66 104.1 m E Pg      2013/02/20 11:43:38.5  -0.1                          T                                        5202462
CABF  005.66 104.1 m E Sn      2013/02/20 11:44:18.7   0.1                          T   001.0        4.1  .56 Ml 2.9         5202426
CABF  005.66 104.1 m E Sg      2013/02/20 11:44:50.8  -0.4                          T                2.1  .29 Ml 2.9         5202461
LASF  005.79 134.3 m E Pn      2013/02/20 11:43:19.8   1.3                          T   001.0                                5202419
LASF  005.79 134.3 m E Sn      2013/02/20 11:44:21.3  -0.3                          T                                        5202438
LASF  005.79 134.3 m E Sg      2013/02/20 11:44:55.0  -0.1                          T                2.6  .44 Ml 2.8         5202439
HINF  005.88 091.2 m E Pn      2013/02/20 11:43:20.4   0.6                          T                                        5202465
HINF  005.88 091.2 m E Pg      2013/02/20 11:43:42.7   0.1                          T                                        5202464
HINF  005.88 091.2 m E Sn      2013/02/20 11:44:23.6  -0.2                          T                                        5202463
HINF  005.88 091.2 m E Sg      2013/02/20 11:44:57.9  -0.1                          T   001.0        2.2  .22 Ml 3.1         5202427
ORIF  006.32 119.2 m E Pn      2013/02/20 11:43:25.7  -0.1                          T                                        5202437
ORIF  006.32 119.2 m E Pg      2013/02/20 11:43:50.6  -0.2                          T                                        5202436
PAGF  005.08 084.0 m E Sn      2013/02/20 11:44:03.7  -0.9                          T                                        5202538
PAGF  005.08 084.0 m E Sg      2013/02/20 11:44:34.7   1.8                          T                                        5202539
CDF   006.11 085.3 m E Sg      2013/02/20 11:45:07.1   1.9                          T                4.8  .43 Ml 3.3         5202533

.
EVENT     292423
    Date      Time       Latitude Longitude    Depth    Ndef Nsta Gap    Mag1  N    Mag2  N    Mag3  N   Author         ID
       rms   OT_Error      Smajor Sminor Az        Err   mdist  Mdist     Err        Err        Err      Quality

2013/02/20 13:21:25.9     48.2690   -1.8781      2.0      19    7 146  Ml 3.0  7  Md 2.4  2              bulletin    292523
                                                                                                         _ldg
      0.62   +-  0.07       2.1    1.0  179.22 +-  0.0    0.45   2.04   +-0.3      +-0.1                 m i ke

FRANCE
Sta     Dist  EvAz     Phase      Date       Time     TRes  Azim  AzRes  Slow  SRes Def   SNR       Amp   Per   Mag1   Mag2       ID
SGMF  000.45 268.4 m E Pg      2013/02/20 13:21:34.5   0.0                          T                                        5202738
SGMF  000.45 268.4 m E Sg      2013/02/20 13:21:40.4  -0.2                          T               47.0  .18        Md 2.4  5202727
GRR   000.69 079.7 m E Pg      2013/02/20 13:21:39.3   0.3                          T                                        5202736
GRR   000.69 079.7 m E Sg      2013/02/20 13:21:47.9  -0.1                          T               68.2  .18        Md 2.5  5202729
ROSF  000.93 274.7 m E Pg      2013/02/20 13:21:43.3  -0.1                          T                                        5202737
ROSF  000.93 274.7 m E Sg      2013/02/20 13:21:55.3  -0.3                          T              102.6  .22 Ml 3.5         5202728
QUIF  000.93 248.3 m E Pg      2013/02/20 13:21:43.9   0.5                          T                                        5202733
QUIF  000.93 248.3 m E Sg      2013/02/20 13:21:55.5   0.0                          T               25.1  .18 Ml 2.9         5202726
FLN   001.05 061.5 m E Pg      2013/02/20 13:21:45.5   0.0 244.4  1.8               T                                        5202734
FLN   001.05 061.5 m E Sg      2013/02/20 13:21:59.1  -0.1 242.8  0.3               T               18.4  .20 Ml 2.7         5202730
LDF   001.21 073.8 m E Pg      2013/02/20 13:21:48.7   0.1                          T                                        5202735
LDF   001.21 073.8 m E Sg      2013/02/20 13:22:04.0  -0.3                          T               18.6  .24 Ml 2.8         5202731
MFF   002.04 144.2 m E Pg      2013/02/20 13:22:03.6  -0.2                          T                                        5202732
MFF   002.04 144.2 m E Sg      2013/02/20 13:22:30.7   0.6                          T                6.7  .20 Ml 2.9         5202725

.
