BEGIN GSE2.0
MSG_TYPE DATA
MSG_ID 13-JUN-1213:51:54  FRA_NDC
E-MAIL
DATA_TYPE BULLETIN
Reviewed Bulletin (REB) # P2012-021  from French NDC for regional phases     PERIOD 23 MAY 2012 TO 29 MAY 2012 S M., J-P S
EVENT     277179
    Date      Time       Latitude Longitude    Depth    Ndef Nsta Gap    Mag1  N    Mag2  N    Mag3  N   Author         ID
       rms   OT_Error      Smajor Sminor Az        Err   mdist  Mdist     Err        Err        Err      Quality

2012/05/23 00:08:07.9     44.4710    6.6552      2.0      19    8 071  Ml 1.2  5  Md 1.5  1              bulletin    277279
                                                                                                         _ldg
      0.22   +-  0.05       1.3     .9   81.88 +-  0.0    0.08   1.14   +-0.2      +-                    m i ke

FRANCE
Sta     Dist  EvAz     Phase      Date       Time     TRes  Azim  AzRes  Slow  SRes Def   SNR       Amp   Per   Mag1   Mag2       ID
MBDF  000.27 017.9 m E Pg      2012/05/23 00:08:13.4   0.0                          T                                        4989690
MBDF  000.27 017.9 m E Sg      2012/05/23 00:08:16.6  -0.5                          T                2.3  .22        Md 1.5  4989691
ORIF  000.71 309.2 m E Pg      2012/05/23 00:08:21.2  -0.2                          T                                        4989689
ORIF  000.71 309.2 m E Sg      2012/05/23 00:08:30.7   0.0                          T                 .7  .22                4989679
FRF   000.91 180.4 m E Pn      2012/05/23 00:08:26.1   0.1                          T                                        4989687
FRF   000.91 180.4 m E Sg      2012/05/23 00:08:36.9   0.1                          T                1.3  .23 Ml 1.5         4989683
LPL   001.05 003.0 m E Pg      2012/05/23 00:08:27.7  -0.1                          T                                        4989688
LPL   001.05 003.0 m E Sg      2012/05/23 00:08:41.2  -0.1                          T                 .7  .27 Ml 1.2         4989680
LMR   001.14 185.4 m E P       2012/05/23 00:08:30.6  -0.2                          T                                        4989686
LMR   001.14 185.4 m E Sg      2012/05/23 00:08:44.1   0.1                          T                 .3  .16 Ml 1.1         4989684
SBF   000.83 137.0 m E Sg      2012/05/23 00:08:34.5   0.2                          T                 .5  .20                4989685
SMRF  000.92 237.9 m E Sg      2012/05/23 00:08:37.2   0.0                          T                 .4  .24 Ml 1.0         4989682
LPG   001.03 003.8 m E Sg      2012/05/23 00:08:40.8  -0.1                          T                 .8  .28 Ml 1.3         4989681

.
EVENT     276684
    Date      Time       Latitude Longitude    Depth    Ndef Nsta Gap    Mag1  N    Mag2  N    Mag3  N   Author         ID
       rms   OT_Error      Smajor Sminor Az        Err   mdist  Mdist     Err        Err        Err      Quality

2012/05/23 04:11:11.9     44.4832    6.7050      2.0      42    8 054  Ml 1.8  4  Md 2.2  5              bulletin    276784
                                                                                                         _ldg
      0.31   +-  0.04        .9     .8   75.01 +-  0.0    0.08   1.73   +-0.3      +-0.2                 m i ke

FRANCE
Sta     Dist  EvAz     Phase      Date       Time     TRes  Azim  AzRes  Slow  SRes Def   SNR       Amp   Per   Mag1   Mag2       ID
MBDF  000.25 011.0 m E Pg      2012/05/23 04:11:17.1   0.1                          T                                        4959167
MBDF  000.25 011.0 m E Sg      2012/05/23 04:11:20.3  -0.1                          T               17.7  .32        Md 2.1  4959166
ORIF  000.73 306.8 m E Pg      2012/05/23 04:11:25.3  -0.5                          T                                        4959164
ORIF  000.73 306.8 m E Sg      2012/05/23 04:11:35.1  -0.3                          T                6.9  .22        Md 2.1  4959165
SBF   000.81 139.5 m E Pg      2012/05/23 04:11:27.4   0.1                          T                                        4959155
SBF   000.81 139.5 m E Sg      2012/05/23 04:11:37.7  -0.1                          T                                Md 2.4  4959156
FRF   000.92 182.6 m E Pg      2012/05/23 04:11:29.1  -0.1                          T                                        4959160
FRF   000.92 182.6 m E Sg      2012/05/23 04:11:41.2   0.0                          T                                Md 2.2  4959159
SMRF  000.96 238.4 m E Pg      2012/05/23 04:11:30.3   0.4                          T                                        4959161
SMRF  000.96 238.4 m E Sg      2012/05/23 04:11:42.2  -0.2                          T                2.7  .25 Ml 1.8         4959153
LPG   001.02 001.8 m E Pg      2012/05/23 04:11:31.1  -0.2                          T                                        4959162
LPG   001.02 001.8 m E Sg      2012/05/23 04:11:44.9   0.4                          T                 .9  .17 Ml 1.5         4959154
LPL   001.03 001.1 m E Pg      2012/05/23 04:11:31.7   0.2                          T                                        4959163
LPL   001.03 001.1 m E Sg      2012/05/23 04:11:44.7  -0.2                          T                1.8  .24 Ml 1.7 Md 2.3  4959152
LMR   001.16 187.1 m E Pg      2012/05/23 04:11:34.0   0.4                          T                                        4959158
LMR   001.16 187.1 m E Sg      2012/05/23 04:11:48.6   0.1                          T                4.6  .27 Ml 2.1         4959157

.
EVENT     276685
    Date      Time       Latitude Longitude    Depth    Ndef Nsta Gap    Mag1  N    Mag2  N    Mag3  N   Author         ID
       rms   OT_Error      Smajor Sminor Az        Err   mdist  Mdist     Err        Err        Err      Quality

2012/05/23 05:40:52.1     44.9057   11.3157      2.0      31   18 253  Ml 3.0  9                         bulletin    276785
                                                                                                         _ldg
      0.63   +-  0.33       7.3    2.8   90.86 +-  0.0    2.89   5.87   +-0.2                            m i ke

NORTHERN ITALY
Sta     Dist  EvAz     Phase      Date       Time     TRes  Azim  AzRes  Slow  SRes Def   SNR       Amp   Per   Mag1   Mag2       ID
PGF   002.89 216.3 m E Pn      2012/05/23 05:41:37.5   0.1                          T                                        4959837
PGF   002.89 216.3 m E Sn      2012/05/23 05:42:10.8   0.0                          T                5.1  .23 Ml 3.0         4960313
SBF   002.97 250.8 m E Pn      2012/05/23 05:41:39.0   0.6                          T                                        4959836
SBF   002.97 250.8 m E Sn      2012/05/23 05:42:12.8   0.3                          T               21.3  .30 Ml 3.3         4960314
MBDF  003.24 268.4 m E Pn      2012/05/23 05:41:41.8  -0.4                          T                                        4960072
LPL   003.30 282.3 m E Pn      2012/05/23 05:41:43.1   0.0                          T                                        4960082
LPG   003.28 282.0 m E Pn      2012/05/23 05:41:43.2   0.3                          T                                        4960083
FRF   003.61 249.8 m E Pn      2012/05/23 05:41:46.8  -0.4                          T                                        4960071
FRF   003.61 249.8 m E Sn      2012/05/23 05:42:27.8  -0.1                          T                2.9  .17 Ml 2.8         4960316
LMR   003.80 247.3 m E Pn      2012/05/23 05:41:49.4  -0.3                          T                                        4959835
LMR   003.80 247.3 m E Sn      2012/05/23 05:42:32.2  -0.1                          T               14.7  .30 Ml 3.3         4960315
ORIF  003.86 272.1 m E Pn      2012/05/23 05:41:51.1   0.5                          T                                        4960081
CABF  004.04 296.8 m E Pn      2012/05/23 05:41:52.7  -0.3                          T                                        4960322
HINF  004.24 314.9 m E Pn      2012/05/23 05:41:55.7  -0.1                          T                                        4960078
HINF  004.24 314.9 m E Sn      2012/05/23 05:42:43.0   0.0                          T                6.7  .32 Ml 3.0         4960317
SMRF  004.21 259.3 m E Pn      2012/05/23 05:41:55.7   0.4                          T                                        4960080
CDF   004.48 323.0 m E Pn      2012/05/23 05:41:58.6  -0.4                          T                                        4960077
CDF   004.48 323.0 m E Sn      2012/05/23 05:42:48.5  -0.1                          T                7.1  .33 Ml 3.2         4960321
HAU   004.63 313.9 m E Pn      2012/05/23 05:42:01.2   0.2                          T                                        4960079
HAU   004.63 313.9 m E Sn      2012/05/23 05:42:52.0  -0.1                          T                3.9  .29 Ml 2.7         4960318
VIVF  004.72 271.7 m E Pn      2012/05/23 05:42:02.0  -0.3                          T                                        4960323
THEF  004.95 314.1 m E Pn      2012/05/23 05:42:06.1   0.8                          T                                        4960076
THEF  004.95 314.1 m E Sn      2012/05/23 05:42:59.9   0.1                          T                5.2  .24 Ml 3.2         4960319
LOR   005.70 297.1 m E Pn      2012/05/23 05:42:15.3  -0.2 117.9  6.1               T                                        4960075
LOR   005.70 297.1 m E Sn      2012/05/23 05:43:17.6  -0.1                          T                1.3  .24 Ml 2.8         4960320
SSF   005.85 294.4 m E Pn      2012/05/23 05:42:17.2  -0.4                          T                                        4960073
AVF   005.87 291.5 m E Pn      2012/05/23 05:42:17.5  -0.4                          T                                        4960074

.
EVENT     276686
    Date      Time       Latitude Longitude    Depth    Ndef Nsta Gap    Mag1  N    Mag2  N    Mag3  N   Author         ID
       rms   OT_Error      Smajor Sminor Az        Err   mdist  Mdist     Err        Err        Err      Quality

2012/05/23 06:51:52.6     44.8789   11.2953      2.0      88   21 085  Ml 3.7 20                         bulletin    276786
                                                                                                         _ldg
      0.77   +-  0.11       3.1    2.2   59.84 +-  0.0    0.18   6.56   +-0.2                            m i ke

NORTHERN ITALY
Sta     Dist  EvAz     Phase      Date       Time     TRes  Azim  AzRes  Slow  SRes Def   SNR       Amp   Per   Mag1   Mag2       ID
PGF   002.86 216.3 m E Pn      2012/05/23 06:52:38.1   0.6                          T   001.0                                4959252
PGF   002.86 216.3 m E Sn      2012/05/23 06:53:10.8   0.3                          T   001.0      126.8  .52 Ml 4.0         4959253
MBDF  003.22 268.9 m E Pn      2012/05/23 06:52:42.4  -0.1                          T   001.0                                4959265
MBDF  003.22 268.9 m E Sn      2012/05/23 06:53:18.7  -0.5                          T   001.0      108.5  .60 Ml 3.7         4959266
LPG   003.27 282.5 m E Pn      2012/05/23 06:52:43.4   0.1                          T   001.0                                4959248
LPG   003.27 282.5 m E Sn      2012/05/23 06:53:20.5   0.0                          T   001.0       44.5  .36 Ml 3.6         4959249
LPL   003.29 282.8 m E Pn      2012/05/23 06:52:44.3   0.8                          T   001.0                                4959250
LPL   003.29 282.8 m E Sn      2012/05/23 06:53:21.9   1.1                          T   001.0       58.1  .48 Ml 3.6         4959251
FRF   003.59 250.1 m E Pn      2012/05/23 06:52:47.6   0.3                          T   001.0                                4959243
FRF   003.59 250.1 m E Sn      2012/05/23 06:53:28.6   0.8                          T   001.0       30.7  .32 Ml 3.6         4959244
LMR   003.78 247.5 m E Pn      2012/05/23 06:52:50.0   0.2                          T   001.0                                4959246
LMR   003.78 247.5 m E Sn      2012/05/23 06:53:32.3   0.1                          T               47.2  .42 Ml 3.7         4959336
ORIF  003.85 272.5 m E Pn      2012/05/23 06:52:50.9   0.0                          T   001.0                                4959267
ORIF  003.85 272.5 m E Sn      2012/05/23 06:53:34.4   0.4                          T   001.0       61.2  .52 Ml 3.7         4959268
CABF  004.04 297.3 m E Pn      2012/05/23 06:52:53.9   0.4                          T   001.0                                4959262
CABF  004.04 297.3 m E Sn      2012/05/23 06:53:39.1   0.6                          T              345.3 1.56 Ml 4.0         4959337
SMRF  004.20 259.6 m E Pn      2012/05/23 06:52:56.3   0.8                          T   001.0                                4959271
SMRF  004.20 259.6 m E Sn      2012/05/23 06:53:42.7   0.4                          T   001.0         24  .52 Ml 3.4         4959272
HINF  004.25 315.3 m E Pn      2012/05/23 06:52:56.8   0.4                          T   001.0                                4959263
HINF  004.25 315.3 m E Sn      2012/05/23 06:53:45.1   1.4                          T   001.0       27.1  .28 Ml 3.7         4959264
CDF   004.49 323.4 m E Pn      2012/05/23 06:53:00.5   0.9                          T   001.0                                4959241
CDF   004.49 323.4 m E Sn      2012/05/23 06:53:49.2  -0.2                          T   001.0       14.9  .24 Ml 3.7         4959242
HAU   004.63 314.2 m E Pn      2012/05/23 06:53:01.0   0.5                          T   001.0                                4959245
HAU   004.63 314.2 m E Sn      2012/05/23 06:53:54.1   1.4                          T               52.2  .36 Ml 3.7         4959338
VIVF  004.71 272.1 m E Pn      2012/05/23 06:53:03.0   0.5                          T   001.0                                4959269
VIVF  004.71 272.1 m E Sn      2012/05/23 06:53:55.1   0.6                          T   001.0       12.9  .36 Ml 3.4         4959270
SBF   002.95 251.2 m E Sn      2012/05/23 06:53:12.9   0.4                          T              145.0  .57 Ml 3.8         4959335
SMF   005.51 291.3 m E Pn      2012/05/23 06:53:13.0   0.6                          T   001.0                                4959254
SMF   005.51 291.3 m E Sn      2012/05/23 06:54:14.7   1.1                          T   001.0       39.1  .44 Ml 3.9         4959256
LOR   005.70 297.4 m E Pn      2012/05/23 06:53:16.8   0.8                          T   001.0                                4959247
LOR   005.70 297.4 m E Sn      2012/05/23 06:54:18.2   0.0                          T               27.3  .34 Ml 3.9         4959340
SSF   005.85 294.7 m E Pn      2012/05/23 06:53:18.1   0.0                          T   001.0                                4959257
SSF   005.85 294.7 m E Sn      2012/05/23 06:54:21.8   0.0                          T   001.0       13.9  .52 Ml 3.6         4959260
AVF   005.87 291.8 m E Pn      2012/05/23 06:53:18.6   0.3                          T   001.0                                4959255
AVF   005.87 291.8 m E Sn      2012/05/23 06:54:22.7   0.5                          T   001.0       12.3  .64 Ml 3.3         4959258
BGF   006.15 288.8 m E Pn      2012/05/23 06:53:22.5   0.4                          T   001.0                                4959259
BGF   006.15 288.8 m E Sn      2012/05/23 06:54:29.4   0.5                          T   001.0       62.9  .48 Ml 4.2         4959273
TCF   006.53 285.7 m E Pn      2012/05/23 06:53:27.9   0.5                          T                                        4959339
TCF   006.53 285.7 m E Sn      2012/05/23 06:54:38.8   0.8                          T   001.0       31.6  .76 Ml 3.8         4959261
CAF   006.56 273.7 m E Pn      2012/05/23 06:53:28.5   0.8                          T   001.0                                4959274

.
