EVENT     290470
    Date      Time       Latitude Longitude    Depth    Ndef Nsta Gap    Mag1  N    Mag2  N    Mag3  N   Author         ID
       rms   OT_Error      Smajor Sminor Az        Err   mdist  Mdist     Err        Err        Err      Quality

2013/01/17 13:21:52.3     43.8068   16.4755     10.0 f   122   24 104  Ml 4.1 16                         bulletin    290570
                                                                                                         _ldg
      1.21   +-  0.11       4.1    2.2   17.57 +-  0.0    1.07  10.78   +-0.2                            m i ke

NORTHWESTERN BALKAN PEN.
Sta     Dist  EvAz     Phase      Date       Time     TRes  Azim  AzRes  Slow  SRes Def   SNR       Amp   Per   Mag1   Mag2       ID
PGF   005.61 259.6 m E Pn      2013/01/17 13:23:13.7  -0.1                          T                                        5171344
PGF   005.61 259.6 m E Sn      2013/01/17 13:24:12.6  -1.8                          T                                        5171444
SBF   006.54 273.6 m E Pn      2013/01/17 13:23:26.4   0.1                          T                                        5171343
SBF   006.54 273.6 m E Sn      2013/01/17 13:24:36.9   0.4                          T               18.2  .31 Ml 4.0         5171445
MBDF  007.03 280.9 m E Pn      2013/01/17 13:23:32.5  -0.6                          T                                        5171340
MBDF  007.03 280.9 m E Sn      2013/01/17 13:24:48.9   0.5                          T               15.2  .35 Ml 3.9         5171439
FRF   007.13 271.4 m E Pn      2013/01/17 13:23:34.2  -0.1                          T                                        5171341
FRF   007.13 271.4 m E Sn      2013/01/17 13:24:51.3   0.6                          T               26.8  .57 Ml 4.0         5171442
LPL   007.16 287.2 m E Pn      2013/01/17 13:23:35.4   0.5                          T                                        5171338
LPL   007.16 287.2 m E Sn      2013/01/17 13:24:52.2   0.7                          T               63.7  .37 Ml 4.5         5171441
LMR   007.26 269.7 m E Pn      2013/01/17 13:23:35.7  -0.2                          T                                        5171342
LMR   007.26 269.7 m E Sn      2013/01/17 13:24:53.6   0.0                          T                                        5171443
ORIF  007.68 282.0 m E Pn      2013/01/17 13:23:41.9   0.1                          T                                        5171339
ORIF  007.68 282.0 m E Sn      2013/01/17 13:25:04.6   0.8                          T               25.3  .38 Ml 4.2         5171440
SMRF  007.88 275.0 m E Pn      2013/01/17 13:23:43.4  -1.1                          T                                        5171514
SMRF  007.88 275.0 m E Sn      2013/01/17 13:25:09.8   1.3                          T                                        5171513
CABF  007.85 294.5 m E Pn      2013/01/17 13:23:44.3   0.0                          T                                        5171332
CABF  007.85 294.5 m E Sn      2013/01/17 13:25:09.4   1.4                          T                                        5171518
HINF  007.83 304.2 m E Pn      2013/01/17 13:23:44.6   0.8                          T                                        5171331
HINF  007.83 304.2 m E Sn      2013/01/17 13:25:08.0   0.7                          T               18.5  .54 Ml 3.9         5171504
CDF   007.88 309.0 m E Pn      2013/01/17 13:23:44.9   0.4                          T                                        5171329
CDF   007.88 309.0 m E Sn      2013/01/17 13:25:08.4  -0.1                          T                                        5171517
HAU   008.21 304.3 m E Pn      2013/01/17 13:23:49.2   0.1                          T                                        5171330
HAU   008.21 304.3 m E Sn      2013/01/17 13:25:17.2   0.7                          T               26.3  .49 Ml 4.0         5171503
VIVF  008.53 281.2 m E Pn      2013/01/17 13:23:51.7  -1.7                          T                                        5171337
VIVF  008.53 281.2 m E Sn      2013/01/17 13:25:24.9   0.8                          T                7.5  .42 Ml 3.8         5171446
PAGF  008.84 306.2 m E Pn      2013/01/17 13:23:58.5   0.9                          T                                        5171516
PAGF  008.84 306.2 m E Sn      2013/01/17 13:25:31.2  -0.3                          T                                        5171515
LASF  009.11 276.1 m E Pn      2013/01/17 13:24:01.5   0.2                          T                                        5171336
SMF   009.36 292.0 m E Pn      2013/01/17 13:24:04.0  -0.6                          T                                        5171472
SMF   009.36 292.0 m E Sn      2013/01/17 13:25:43.7  -0.1                          T               13.8  .36 Ml 4.2         5171471
AVF   009.72 292.4 m E Pn      2013/01/17 13:24:09.6   0.1                          T                                        5171333
AVF   009.72 292.4 m E Sn      2013/01/17 13:25:52.1  -0.3                          T               21.3  .96 Ml 4.0         5171481
BGF   010.01 290.7 m E Pn      2013/01/17 13:24:13.7   0.2                          T                                        5171334
BGF   010.01 290.7 m E Sn      2013/01/17 13:25:57.7  -1.7                          T               19.0  .46 Ml 4.3         5171475
HYF   010.31 294.4 m E Pn      2013/01/17 13:24:17.2  -0.4                          T                                        5171473
MTLF  010.36 272.4 m E Pn      2013/01/17 13:24:17.4  -0.8                          T                                        5171335
MTLF  010.36 272.4 m E Sn      2013/01/17 13:26:08.9   1.1                          T                                        5171480
CAF   010.38 281.2 m E Pn      2013/01/17 13:24:18.7   0.1                          T                                        5171479
CAF   010.38 281.2 m E Sn      2013/01/17 13:26:08.7   0.3                          T                                        5171478
TCF   010.40 288.8 m E Pn      2013/01/17 13:24:19.1   0.3                          T                                        5171506
TCF   010.40 288.8 m E Sn      2013/01/17 13:26:09.8   1.1                          T                8.5  .45 Ml 4.1         5171505
RJF   010.78 283.2 m E Pn      2013/01/17 13:24:24.1   0.1                          T                                        5171477
RJF   010.78 283.2 m E Sn      2013/01/17 13:26:18.6   0.7                          T                                        5171476
LPG   007.14 287.1 m E Sn      2013/01/17 13:24:51.9   0.8                          T               45.0  .48 Ml 4.3         5171447

.
EVENT     290492
    Date      Time       Latitude Longitude    Depth    Ndef Nsta Gap    Mag1  N    Mag2  N    Mag3  N   Author         ID
       rms   OT_Error      Smajor Sminor Az        Err   mdist  Mdist     Err        Err        Err      Quality

2013/01/17 13:45:39.1     35.7531   -1.3503     30.0      81    3 171  Ml 3.0  3                         bulletin    290592
                                                                                                         _ldg
      2.01   +-  0.47      10.1    5.8  156.01 +-  0.0    1.38   8.11   +-0.1                            m i ke

NORTHERN ALGERIA
Sta     Dist  EvAz     Phase      Date       Time     TRes  Azim  AzRes  Slow  SRes Def   SNR       Amp   Per   Mag1   Mag2       ID
ETSF  007.16 004.7 m E Pn      2013/01/17 13:47:19.9   0.1                          T                                        5172825
ETSF  007.16 004.7 m E P       2013/01/17 13:47:25.3   0.7                          T                                        5172824
ETSF  007.16 004.7 m E Sn      2013/01/17 13:48:36.0   0.5                          T                1.2  .23 Ml 3.0         5172822
SJPF  007.35 000.7 m E Pn      2013/01/17 13:47:22.1  -0.2                          T                                        5172827
SJPF  007.35 000.7 m E P       2013/01/17 13:47:28.4   1.2                          T                                        5172826
SJPF  007.35 000.7 m E Sn      2013/01/17 13:48:40.5   0.6                          T                 .7  .22 Ml 2.8         5172823
EPF   007.38 009.7 m E Pn      2013/01/17 13:47:22.8  -0.1                          T                                        5172830
EPF   007.38 009.7 m E P       2013/01/17 13:47:27.9   0.2                          T                                        5172829
EPF   007.38 009.7 m E Sn      2013/01/17 13:48:41.3   0.5                          T                1.4  .24 Ml 3.1         5172828

.
EVENT     290476
    Date      Time       Latitude Longitude    Depth    Ndef Nsta Gap    Mag1  N    Mag2  N    Mag3  N   Author         ID
       rms   OT_Error      Smajor Sminor Az        Err   mdist  Mdist     Err        Err        Err      Quality

2013/01/17 14:45:12.9     47.5310    8.2073       .0 f     8    4 322  Ml 2.0  3                         bulletin    290576
                                                                                                         _ldg
      0.19   +-  0.34       6.0    5.5  151.63 +-  0.0    0.96   1.96   +-0.1                            m i km

SWITZERLAND
Sta     Dist  EvAz     Phase      Date       Time     TRes  Azim  AzRes  Slow  SRes Def   SNR       Amp   Per   Mag1   Mag2       ID
HINF  000.96 287.8 m E Pg      2013/01/17 14:45:31.5   0.3                          T                                        5171672
HINF  000.96 287.8 m E Sn      2013/01/17 14:45:46.0   0.1                          T                3.0  .15 Ml 2.1         5171670
CDF   001.08 325.0 m E Pg      2013/01/17 14:45:33.6   0.0                          T                                        5171668
CDF   001.08 325.0 m E Sn      2013/01/17 14:45:49.0   0.1                          T                3.6  .29 Ml 2.1         5171667
HAU   001.34 291.4 m E Pn      2013/01/17 14:45:37.2  -0.3                          T                                        5171674
HAU   001.34 291.4 m E Pg      2013/01/17 14:45:38.2   0.0                          T                                        5171671
HAU   001.34 291.4 m E Sg      2013/01/17 14:45:55.6  -0.2                          T                3.7  .28 Ml 1.9         5171669
PAGF  001.96 302.5 m E Sg      2013/01/17 14:46:14.7  -0.2                          T                                        5187467

.
EVENT     290475
    Date      Time       Latitude Longitude    Depth    Ndef Nsta Gap    Mag1  N    Mag2  N    Mag3  N   Author         ID
       rms   OT_Error      Smajor Sminor Az        Err   mdist  Mdist     Err        Err        Err      Quality

2013/01/17 15:03:46.8     47.2392    7.3043       .0 f    18    6 046  Ml 2.2  3  Md 2.4  1              bulletin    290575
                                                                                                         _ldg
      0.59   +-  0.12       2.9    2.2   56.73 +-  0.0    0.16   1.81   +-0.2      +-                    m i km

SWITZERLAND
Sta     Dist  EvAz     Phase      Date       Time     TRes  Azim  AzRes  Slow  SRes Def   SNR       Amp   Per   Mag1   Mag2       ID
HINF  000.65 332.3 m E Pg      2013/01/17 15:03:59.9   0.3                          T                                        5171663
HINF  000.65 332.3 m E Sg      2013/01/17 15:04:09.1   0.9                          T               10.5  .20        Md 2.4  5171660
HAU   001.00 320.2 m E Pg      2013/01/17 15:04:05.8  -0.2                          T                                        5171662
HAU   001.00 320.2 m E Sg      2013/01/17 15:04:20.2   1.1                          T                5.1  .22 Ml 2.0         5171658
CABF  001.04 233.4 m E Pg      2013/01/17 15:04:06.6  -0.2                          T                                        5171661
CABF  001.04 233.4 m E Sg      2013/01/17 15:04:20.6   0.1                          T                6.1  .23 Ml 2.3         5171659
CDF   001.17 359.1 m E Pn      2013/01/17 15:04:08.5  -0.7                          T                                        5171666
CDF   001.17 359.1 m E Sg      2013/01/17 15:04:24.7   0.2                          T                4.1  .24 Ml 2.2         5171664
THEF  001.33 318.7 m E Pg      2013/01/17 15:04:11.5  -0.4                          T                                        5172541
THEF  001.33 318.7 m E Sg      2013/01/17 15:04:31.4   2.1                          T                                        5172542
SFTF  001.81 303.1 m E Pn      2013/01/17 15:04:17.9   0.2                          T                                        5171665

.
EVENT     290477
    Date      Time       Latitude Longitude    Depth    Ndef Nsta Gap    Mag1  N    Mag2  N    Mag3  N   Author         ID
       rms   OT_Error      Smajor Sminor Az        Err   mdist  Mdist     Err        Err        Err      Quality

2013/01/17 18:27:04.6     44.5180    6.6904      2.0      15    8 125  Ml 1.6  5  Md 1.5  3              bulletin    290577
                                                                                                         _ldg
      0.22   +-  0.06       1.9     .9   86.43 +-  0.0    0.22   1.19   +-0.4      +-0.1                 m i ke

FRANCE
Sta     Dist  EvAz     Phase      Date       Time     TRes  Azim  AzRes  Slow  SRes Def   SNR       Amp   Per   Mag1   Mag2       ID
MBDF  000.22 015.4 m E Pg      2013/01/17 18:27:09.1   0.0                          T                                        5171678
MBDF  000.22 015.4 m E Sg      2013/01/17 18:27:12.1   0.0                          T                3.2  .22        Md 1.4  5171681
ORIF  000.70 305.0 m E Pg      2013/01/17 18:27:18.0   0.0                          T                                        5171677
ORIF  000.70 305.0 m E Sg      2013/01/17 18:27:27.3   0.2                          T                                Md 1.5  5171682
SBF   000.85 140.4 m E Pg      2013/01/17 18:27:20.8   0.2                          T                                        5171687
SBF   000.85 140.4 m E Sg      2013/01/17 18:27:31.2  -0.4                          T                                Md 1.6  5171688
FRF   000.96 181.9 m E Pg      2013/01/17 18:27:22.2  -0.3                          T                                        5171676
FRF   000.96 181.9 m E Sg      2013/01/17 18:27:34.8  -0.1                          T                3.2  .18 Ml 2.1         5171679
LPG   000.98 002.5 m E Pg      2013/01/17 18:27:23.2  -0.1                          T                                        5171686
LPG   000.98 002.5 m E Sg      2013/01/17 18:27:36.1   0.1                          T                 .4  .18 Ml 1.2         5171689
LPL   001.00 001.7 m E Pg      2013/01/17 18:27:23.7   0.1                          T                                        5171685
LPL   001.00 001.7 m E Sg      2013/01/17 18:27:36.1  -0.5                          T                 .6  .22 Ml 1.2         5171684
LMR   001.19 186.4 m E Pg      2013/01/17 18:27:27.1   0.3                          T                                        5171675
LMR   001.19 186.4 m E Sg      2013/01/17 18:27:42.2   0.0                          T                1.1  .17 Ml 1.7         5171680
SMRF  000.97 236.3 m E Sg      2013/01/17 18:27:35.1  -0.2                          T                1.3  .15 Ml 1.8         5171683

.
EVENT     290478
    Date      Time       Latitude Longitude    Depth    Ndef Nsta Gap    Mag1  N    Mag2  N    Mag3  N   Author         ID
       rms   OT_Error      Smajor Sminor Az        Err   mdist  Mdist     Err        Err        Err      Quality

2013/01/17 19:46:20.3     50.9558   12.3765      5.0 f    54    4 089  Ml 2.7  3                         bulletin    290578
                                                                                                         _ldg
      1.02   +-  0.19       3.6    3.3   25.87 +-  0.0    0.14   4.91   +-0.1                            m i ke

GERMANY
Sta     Dist  EvAz     Phase      Date       Time     TRes  Azim  AzRes  Slow  SRes Def   SNR       Amp   Per   Mag1   Mag2       ID
CDF   004.18 234.4 m E Pn      2013/01/17 19:47:21.0  -1.7                          T                                        5171708
CDF   004.18 234.4 m E Pg      2013/01/17 19:47:37.2  -0.5                          T                                        5171707
CDF   004.18 234.4 m E Sn      2013/01/17 19:48:06.6  -2.4                          T                                        5171702
CDF   004.18 234.4 m E Sg      2013/01/17 19:48:30.3  -1.0                          T                2.0  .23 Ml 2.8         5171701
HINF  004.78 231.1 m E Pn      2013/01/17 19:47:29.1  -1.9                          T                                        5171706
HINF  004.78 231.1 m E Pg      2013/01/17 19:47:48.7  -0.1                          T                                        5171700
HINF  004.78 231.1 m E Sg      2013/01/17 19:48:48.6  -1.6                          T                2.7  .28 Ml 2.8         5171699
GIVF  004.89 262.9 m E Pn      2013/01/17 19:47:30.0  -2.4                          T                                        5171712
GIVF  004.89 262.9 m E Pg      2013/01/17 19:47:50.3  -0.6                          T                                        5171711
GIVF  004.89 262.9 m E Sn      2013/01/17 19:48:23.8  -2.2                          T                                        5171710
GIVF  004.89 262.9 m E Sg      2013/01/17 19:48:53.4  -0.2                          T                                        5171709
HAU   004.91 235.4 m E Pn      2013/01/17 19:47:31.0  -1.7                          T                                        5171704
HAU   004.91 235.4 m E Pg      2013/01/17 19:47:49.4  -1.8                          T                                        5171705
HAU   004.91 235.4 m E Sg      2013/01/17 19:48:53.0  -1.2                          T                2.3  .29 Ml 2.5         5171703

.
