EVENT     270689
    Date      Time       Latitude Longitude    Depth    Ndef Nsta Gap    Mag1  N    Mag2  N    Mag3  N   Author         ID
       rms   OT_Error      Smajor Sminor Az        Err   mdist  Mdist     Err        Err        Err      Quality

2012/02/25 02:49:19.7     43.9183    8.5380      3.0 f    79   17 165  Ml 2.5 21  Md 2.7  2              js067245    270710

      0.79   +-  0.11       2.0    1.6   87.86 +-  0.0    0.39   6.03   +-0.3      +-0.1                 m i ke

CORSICA, FRANCE
Sta     Dist  EvAz     Phase      Date       Time     TRes  Azim  AzRes  Slow  SRes Def   SNR       Amp   Per   Mag1   Mag2       ID
SBF   000.80 266.4 m E Pg      2012/02/25 02:49:34.9   0.1                          T                                        4854967
SBF   000.80 266.4 m E Pn      2012/02/25 02:49:36.4   0.0                          T   001.0                                4849374
SBF   000.80 266.4 m E Sg      2012/02/25 02:49:44.6  -0.7                          T   001.0      248.7  .28        Md 2.8  4849375
FRF   001.42 256.0 m E Pn      2012/02/25 02:49:44.7   0.0                          T   001.0                                4849364
FRF   001.42 256.0 m E Pg      2012/02/25 02:49:46.1  -0.1                          T                                        4854969
FRF   001.42 256.0 m E Sg      2012/02/25 02:50:03.9  -0.6                          T               12.4  .24 Ml 2.8         4854965
PGF   001.41 166.0 m E Pn      2012/02/25 02:49:44.9   0.2                          T   001.0                                4849372
PGF   001.41 166.0 m E Sn      2012/02/25 02:50:01.9  -0.8                          T   001.0        5.5  .20 Ml 2.7         4849373
MBDF  001.50 303.1 m E Pn      2012/02/25 02:49:46.2   0.1                          T   001.0                                4849379
MBDF  001.50 303.1 m E Pg      2012/02/25 02:49:47.6  -0.3                          T                                        4854974
MBDF  001.50 303.1 m E Sn      2012/02/25 02:50:05.2   0.2                          T   001.0       57.7  .40 Ml 3.2         4849380
MBDF  001.50 303.1 m E Sg      2012/02/25 02:50:07.5   0.1                          T               61.9  .42 Ml 3.2 Md 2.7  4854959
LMR   001.58 249.1 m E Pn      2012/02/25 02:49:46.6  -0.4                          T   001.0                                4849367
LMR   001.58 249.1 m E Pg      2012/02/25 02:49:49.2   0.0                          T                                        4854968
LMR   001.58 249.1 m E Sn      2012/02/25 02:50:05.0  -1.8                          T   001.0        6.2  .20 Ml 2.6         4849368
LMR   001.58 249.1 m E Sg      2012/02/25 02:50:09.7   0.0                          T                8.2  .26 Ml 2.6         4854966
LPG   002.03 321.7 m E P       2012/02/25 02:49:55.8   0.1                          T   001.0                                4849369
LPG   002.03 321.7 m E Pg      2012/02/25 02:49:57.8   0.0                          T                                        4854971
LPG   002.03 321.7 m E Sn      2012/02/25 02:50:17.9   0.1                          T                7.1  .35 Ml 2.5         4854964
LPG   002.03 321.7 m E Sg      2012/02/25 02:50:24.2   0.3                          T                6.9  .31 Ml 2.6         4854963
LPL   002.05 321.8 m E P       2012/02/25 02:49:56.0   0.1                          T   001.0                                4849370
LPL   002.05 321.8 m E Pg      2012/02/25 02:49:57.9  -0.2                          T                                        4854972
LPL   002.05 321.8 m E Sn      2012/02/25 02:50:18.0  -0.2                          T   001.0        3.6  .29 Ml 2.3         4849371
LPL   002.05 321.8 m E Sg      2012/02/25 02:50:25.2   0.6                          T                6.3  .30 Ml 2.5         4854962
SMRF  002.14 272.6 m E P       2012/02/25 02:49:57.0   0.1                          T   001.0                                4849385
SMRF  002.14 272.6 m E Pg      2012/02/25 02:49:59.8   0.2                          T                                        4854970
SMRF  002.14 272.6 m E Sg      2012/02/25 02:50:27.7   0.6                          T   001.0       22.9  .36 Ml 3.0         4849386
ORIF  002.15 298.6 m E P       2012/02/25 02:49:57.2   0.0                          T   001.0                                4849381
ORIF  002.15 298.6 m E Pg      2012/02/25 02:49:59.8   0.0                          T                                        4854973
ORIF  002.15 298.6 m E Sn      2012/02/25 02:50:20.6   0.1                          T                                        4854961
ORIF  002.15 298.6 m E Sg      2012/02/25 02:50:27.5   0.0                          T               13.2  .52 Ml 2.6         4854960
VIVF  002.93 290.0 m E P       2012/02/25 02:50:08.2   0.0                          T   001.0                                4849382
VIVF  002.93 290.0 m E Sn      2012/02/25 02:50:39.3   0.4                          T   001.0                                4849383
VIVF  002.93 290.0 m E Sg      2012/02/25 02:50:51.5  -0.1                          T   001.0        2.1  .28 Ml 2.3         4849384
CABF  003.20 328.1 m E Pn      2012/02/25 02:50:09.4   0.3                          T   001.0                                4849377
CABF  003.20 328.1 m E Pg      2012/02/25 02:50:19.3   0.1                          T                                        4854979
CABF  003.20 328.1 m E Sn      2012/02/25 02:50:46.4   0.9                          T   001.0        1.7  .48 Ml 2.0         4849378
LASF  003.38 274.3 m E Pn      2012/02/25 02:50:11.2  -0.3                          T   001.0                                4849365
LASF  003.38 274.3 m E P       2012/02/25 02:50:14.7   0.1                          T                                        4854975
LASF  003.38 274.3 m E Sn      2012/02/25 02:50:50.3   0.6                          T   001.0        2.8  .52 Ml 2.2         4849366
LASF  003.38 274.3 m E Sg      2012/02/25 02:51:05.6  -0.2                          T                 .6  .22 Ml 2.0         4854958
AVF   004.65 310.0 m E Pn      2012/02/25 02:50:28.9   0.2                          T   001.0                                4849362
CAF   004.75 284.5 m E Pn      2012/02/25 02:50:30.3   0.2                          T                                        4854977
CAF   004.75 284.5 m E P       2012/02/25 02:50:33.4  -0.6                          T   001.0                                4849363
CAF   004.75 284.5 m E Sn      2012/02/25 02:51:21.9  -0.5                          T                 .3  .23 Ml 2.0         4854957
SSF   004.73 313.4 m E Pn      2012/02/25 02:50:30.3   0.4                          T   001.0                                4849376
BGF   004.81 305.3 m E Pn      2012/02/25 02:50:31.4   0.5                          T                                        4854978
BGF   004.81 305.3 m E Sn      2012/02/25 02:51:24.3   0.5                          T                1.1  .29 Ml 2.4         4854956
EPF   006.03 264.4 m E Pn      2012/02/25 02:50:47.6   0.0                          T                                        4854976

.
EVENT     270690
    Date      Time       Latitude Longitude    Depth    Ndef Nsta Gap    Mag1  N    Mag2  N    Mag3  N   Author         ID
       rms   OT_Error      Smajor Sminor Az        Err   mdist  Mdist     Err        Err        Err      Quality

2012/02/25 02:53:21.9     45.7192    6.9891      2.0      22    5 086  Ml 1.5  3  Md 1.5  2              js067245    270711

      0.30   +-  0.06       1.2     .9  128.55 +-  0.0    0.08   1.85   +-0.1      +-0.1                 m i ke

FRANCE
Sta     Dist  EvAz     Phase      Date       Time     TRes  Azim  AzRes  Slow  SRes Def   SNR       Amp   Per   Mag1   Mag2       ID
LPL   000.27 221.7 m E Pg      2012/02/25 02:53:27.5   0.0                          T                                        4855016
LPL   000.27 221.7 m E Sg      2012/02/25 02:53:30.4  -0.8                          T                4.2  .24        Md 1.6  4855017
LPG   000.28 217.1 m E Pg      2012/02/25 02:53:27.7   0.0                          T                                        4855014
LPG   000.28 217.1 m E Sg      2012/02/25 02:53:31.7   0.2                          T                8.0  .18        Md 1.4  4855015
MBDF  001.00 188.9 m E Pg      2012/02/25 02:53:40.8  -0.1                          T                                        4855009
MBDF  001.00 188.9 m E Sg      2012/02/25 02:53:54.2   0.2                          T                  1  .27 Ml 1.4         4855013
ORIF  001.12 224.7 m E Pg      2012/02/25 02:53:42.9  -0.1                          T                                        4855010
ORIF  001.12 224.7 m E Sg      2012/02/25 02:53:57.6   0.1                          T                1.4  .31 Ml 1.5         4855011
VIVF  001.85 243.0 m E Sg      2012/02/25 02:54:20.3   0.1                          T                 .8  .30 Ml 1.6         4855012

.
EVENT     270683
    Date      Time       Latitude Longitude    Depth    Ndef Nsta Gap    Mag1  N    Mag2  N    Mag3  N   Author         ID
       rms   OT_Error      Smajor Sminor Az        Err   mdist  Mdist     Err        Err        Err      Quality

2012/02/25 03:22:59.3     42.9358   -1.3478      2.0      29    5 056  Ml 1.8  4  Md 1.9  2              js067245    270704

      0.70   +-  0.13       2.4    2.4  121.36 +-  0.0    0.05   3.17   +-0.2      +-0.2                 m i ke

PYRENEES
Sta     Dist  EvAz     Phase      Date       Time     TRes  Azim  AzRes  Slow  SRes Def   SNR       Amp   Per   Mag1   Mag2       ID
SJPF  000.20 026.9 m E Pg      2012/02/25 03:23:03.8   0.5                          T                                        4855026
SJPF  000.20 026.9 m E Sg      2012/02/25 03:23:06.3   0.2                          T               19.2  .16        Md 2.1  4855027
EPF   001.24 085.1 m E Pg      2012/02/25 03:23:23.1   0.6                          T                                        4855024
EPF   001.24 085.1 m E Sg      2012/02/25 03:23:38.8   0.1                          T                2.2  .19 Ml 2.0 Md 1.8  4855025
RJF   003.14 040.1 m E Pn      2012/02/25 03:23:47.8  -0.1                          T                                        4855020
RJF   003.14 040.1 m E Sn      2012/02/25 03:24:23.8   0.1                          T                 .7  .25 Ml 1.6         4855021
MTLF  002.64 080.0 m E Pg      2012/02/25 03:23:48.3   0.0                          T                                        4855018
MTLF  002.64 080.0 m E Sg      2012/02/25 03:24:21.5  -0.7                          T                 .8  .35 Ml 1.7         4855019
CAF   003.17 049.9 m E P       2012/02/25 03:23:51.2  -0.1                          T                                        4855022
CAF   003.17 049.9 m E Sg      2012/02/25 03:24:24.0 -14.7                          T                 .6  .25 Ml 1.9         4855023

.
