EVENT     287010
    Date      Time       Latitude Longitude    Depth    Ndef Nsta Gap    Mag1  N    Mag2  N    Mag3  N   Author         ID
       rms   OT_Error      Smajor Sminor Az        Err   mdist  Mdist     Err        Err        Err      Quality

2012/11/16 02:37:13.1     45.8440   10.9164      2.0     134   32 045  Ml 2.9 34                         bulletin    287110
                                                                                                         _ldg
      1.00   +-  0.11       2.1    1.9   85.73 +-  0.0    0.21   9.87   +-0.3                            m i ke

NORTHERN ITALY
Sta     Dist  EvAz     Phase      Date       Time     TRes  Azim  AzRes  Slow  SRes Def   SNR       Amp   Per   Mag1   Mag2       ID
LPL   002.95 265.1 m E Pn      2012/11/16 02:37:59.3  -0.1                          T   001.0                                5118106
LPL   002.95 265.1 m E Sn      2012/11/16 02:38:33.2  -0.1                          T   001.0                                5118114
LPL   002.95 265.1 m E Sg      2012/11/16 02:38:45.3  -0.7                          T               18.7  .40 Ml 3.1         5123364
LPG   002.94 264.7 m E Pn      2012/11/16 02:37:59.5   0.2                          T   001.0                                5118105
LPG   002.94 264.7 m E Sn      2012/11/16 02:38:33.0  -0.1                          T               17.5  .33 Ml 3.1         5118195
MBDF  003.13 250.6 m E Pn      2012/11/16 02:38:00.7  -1.0                          T   001.0                                5118109
MBDF  003.13 250.6 m E Sn      2012/11/16 02:38:37.0  -0.5                          T   001.0                                5118110
MBDF  003.13 250.6 m E Sg      2012/11/16 02:38:51.0  -0.5                          T               19.5  .48 Ml 3.1         5123361
SBF   003.17 232.6 m E Pn      2012/11/16 02:38:01.8  -0.3                          T   001.0                                5118118
SBF   003.17 232.6 m E Pg      2012/11/16 02:38:11.6  -0.3                          T                                        5123369
SBF   003.17 232.6 m E Sn      2012/11/16 02:38:37.5  -0.8                          T   001.0                                5118119
SBF   003.17 232.6 m E Sg      2012/11/16 02:38:52.1  -0.5                          T   001.0       28.1  .32 Ml 3.4         5118120
CABF  003.44 284.6 m E Pn      2012/11/16 02:38:06.1   0.2                          T   001.0                                5118088
CABF  003.44 284.6 m E Pg      2012/11/16 02:38:16.8  -0.1                          T                                        5123357
CABF  003.44 284.6 m E Sn      2012/11/16 02:38:44.3  -0.5                          T   001.0       11.2  .51 Ml 2.9         5118089
HINF  003.42 306.7 m E Pn      2012/11/16 02:38:06.2   0.7                          T   001.0                                5118107
HINF  003.42 306.7 m E Sn      2012/11/16 02:38:44.4   0.3                          T   001.0                                5118108
HINF  003.42 306.7 m E Sg      2012/11/16 02:39:00.2  -0.1                          T               14.8  .36 Ml 3.1         5123356
PGF   003.57 203.4 m E Pn      2012/11/16 02:38:07.7   0.0                          T   001.0                                5118116
PGF   003.57 203.4 m E Sn      2012/11/16 02:38:46.3  -1.7                          T   001.0        6.7  .32 Ml 3.1         5118117
CDF   003.57 317.3 m E Pn      2012/11/16 02:38:08.7   1.0                          T   001.0                                5118095
CDF   003.57 317.3 m E Sg      2012/11/16 02:39:05.1  -0.2                          T               19.5  .46 Ml 3.3         5123355
FRF   003.80 234.6 m E Pn      2012/11/16 02:38:10.0  -0.7                          T   001.0                                5118096
FRF   003.80 234.6 m E Sn      2012/11/16 02:38:52.5  -0.8                          T   001.0                                5118097
FRF   003.80 234.6 m E Sg      2012/11/16 02:39:11.8  -0.5                          T                6.6  .33 Ml 2.9         5123366
ORIF  003.67 257.2 m E Pn      2012/11/16 02:38:10.1   1.2                          T                                        5118194
ORIF  003.67 257.2 m E Pg      2012/11/16 02:38:20.8  -0.3                          T                                        5123363
ORIF  003.67 257.2 m E Sn      2012/11/16 02:38:50.0  -0.2                          T   001.0                                5118112
ORIF  003.67 257.2 m E Sg      2012/11/16 02:39:07.5  -0.7                          T               12.3  .46 Ml 3.0         5123362
HAU   003.80 306.3 m E Pn      2012/11/16 02:38:11.5   0.8                          T   001.0                                5118098
HAU   003.80 306.3 m E Pg      2012/11/16 02:38:24.2   0.7                          T                                        5123353
HAU   003.80 306.3 m E Sn      2012/11/16 02:38:54.0   0.6                          T                                        5118171
HAU   003.80 306.3 m E Sg      2012/11/16 02:39:12.7   0.3                          T   001.0       31.8  .43 Ml 3.3         5118099
LMR   004.03 233.0 m E Pn      2012/11/16 02:38:13.0  -0.7                          T   001.0                                5118101
LMR   004.03 233.0 m E Pg      2012/11/16 02:38:27.4  -0.2                          T                                        5123368
LMR   004.03 233.0 m E Sn      2012/11/16 02:38:56.8  -1.9                          T   001.0                                5118102
LMR   004.03 233.0 m E Sg      2012/11/16 02:39:18.9  -0.3                          T                4.8  .28 Ml 2.9         5123367
SMRF  004.23 245.7 m E Pn      2012/11/16 02:38:16.7   0.1                          T   001.0                                5118124
SMRF  004.23 245.7 m E Pg      2012/11/16 02:38:31.4   0.0                          T                                        5123365
SMRF  004.23 245.7 m E Sn      2012/11/16 02:39:03.4  -0.1                          T   001.0        6.6  .33 Ml 3.0         5118125
VIVF  004.51 259.6 m E Pn      2012/11/16 02:38:20.4   0.0                          T   001.0                                5118113
VIVF  004.51 259.6 m E Sn      2012/11/16 02:39:10.0  -0.4                          T                 .7  .17 Ml 2.4         5118193
PAGF  004.46 309.3 m E Pn      2012/11/16 02:38:20.5   0.9                          T                                        5118174
PAGF  004.46 309.3 m E Sn      2012/11/16 02:39:09.1   0.1                          T                3.2  .38 Ml 2.7         5118173
SFTF  004.66 302.6 m E Pn      2012/11/16 02:38:23.3   0.9 123.3  5.0               T                                        5118178
SFTF  004.66 302.6 m E Sn      2012/11/16 02:39:14.1   0.2                          T                2.6  .20 Ml 2.9         5118177
MEZF  004.80 305.7 m E Pn      2012/11/16 02:38:25.0   0.7                          T                                        5118176
MEZF  004.80 305.7 m E Sn      2012/11/16 02:39:17.5   0.3 136.9  15.5              T                3.5  .39 Ml 2.8         5118175
SMF   004.97 281.8 m E Pn      2012/11/16 02:38:27.0   0.4                          T   001.0                                5118121
SMF   004.97 281.8 m E Sn      2012/11/16 02:39:20.9  -0.5                          T   001.0       11.3  .46 Ml 3.3         5118122
LOR   005.07 288.8 m E Pn      2012/11/16 02:38:28.0   0.1 109.3  5.6               T   001.0                                5118103
LOR   005.07 288.8 m E Sn      2012/11/16 02:39:23.8   0.1                          T   001.0        6.3  .28 Ml 3.3         5118104
SSF   005.26 286.0 m E Pn      2012/11/16 02:38:30.5  -0.1                          T   001.0                                5118123
LASF  005.31 253.1 m E Pn      2012/11/16 02:38:30.5  -0.8                          T   001.0                                5118100
SSF   005.26 286.0 m E Pg      2012/11/16 02:38:50.4   0.0                          T                                        5123354
SSF   005.26 286.0 m E Sn      2012/11/16 02:39:27.0  -1.3                          T   001.0          2  .32 Ml 2.8         5118085
LASF  005.31 253.1 m E Sn      2012/11/16 02:39:28.4  -1.1                          T                1.0  .30 Ml 2.5         5118192










AVF   005.33 283.0 m E Pn      2012/11/16 02:38:31.5   0.1                          T   001.0                                5118091
AVF   005.33 283.0 m E Pg      2012/11/16 02:38:51.6   0.1                          T                                        5123358
AVF   005.33 283.0 m E Sn      2012/11/16 02:39:29.4  -0.3                          T   001.0        2.1  .36 Ml 2.7         5118092
BGF   005.65 280.2 m E Pn      2012/11/16 02:38:36.1   0.3                          T   001.0                                5118093
BGF   005.65 280.2 m E Pg      2012/11/16 02:38:57.4  -0.1                          T                                        5123359
BGF   005.65 280.2 m E Sn      2012/11/16 02:39:37.2  -0.2                          T                4.4  .33 Ml 3.1         5118186
HYF   005.88 287.0 m E Pn      2012/11/16 02:38:39.4   0.4                          T                                        5118185
HYF   005.88 287.0 m E Sn      2012/11/16 02:39:42.8  -0.3                          T                                        5118184
TCF   006.08 277.3 m E Pn      2012/11/16 02:38:41.1  -0.6                          T   001.0                                5118086
TCF   006.08 277.3 m E Sn      2012/11/16 02:39:45.3  -2.4                          T   001.0        2.8  .32 Ml 3.1         5118087
CAF   006.30 264.8 m E Pn      2012/11/16 02:38:44.6  -0.2                          T   001.0                                5118094
CAF   006.30 264.8 m E Pg      2012/11/16 02:39:09.2  -0.4                          T                                        5123360
CAF   006.30 264.8 m E Sn      2012/11/16 02:39:52.5  -0.6                          T                 .5  .20 Ml 2.5         5118190
RJF   006.62 268.7 m E Pn      2012/11/16 02:38:49.1   0.1                          T   001.0                                5118090
RJF   006.62 268.7 m E Sn      2012/11/16 02:39:57.6  -3.1                          T                 .6  .28 Ml 2.2         5118187
MTLF  006.70 251.2 m E Pn      2012/11/16 02:38:50.1   0.0                          T   001.0                                5118111
MTLF  006.70 251.2 m E Sn      2012/11/16 02:40:01.5  -0.9                          T                 .3  .26 Ml 2.2         5118191
LFF   007.22 266.4 m E Pn      2012/11/16 02:38:56.9  -0.3                          T                                        5118189
LFF   007.22 266.4 m E Sn      2012/11/16 02:40:12.3  -2.8                          T                1.1  .27 Ml 2.7         5118188
MFF   007.71 279.6 m E Pn      2012/11/16 02:39:04.6   0.7                          T   001.0                                5118115
MFF   007.71 279.6 m E Sn      2012/11/16 02:40:24.4  -2.3                          T                1.2  .33 Ml 3.1         5118183
SGMF  009.51 289.5 m E Pn      2012/11/16 02:39:28.5   0.1                          T                                        5118180
SGMF  009.51 289.5 m E Sn      2012/11/16 02:41:08.1  -1.6                          T                 .4  .23 Ml 2.8         5118179
QUIF  009.87 287.2 m E Pn      2012/11/16 02:39:33.5   0.4                          T                                        5118182
QUIF  009.87 287.2 m E Sn      2012/11/16 02:41:16.4  -1.7                          T                 .9  .29 Ml 3.2         5118181

.
EVENT     287012
    Date      Time       Latitude Longitude    Depth    Ndef Nsta Gap    Mag1  N    Mag2  N    Mag3  N   Author         ID
       rms   OT_Error      Smajor Sminor Az        Err   mdist  Mdist     Err        Err        Err      Quality

2012/11/16 03:53:42.0     42.0557    9.9382      2.0      10    4 342  Ml 1.5  3  Md 2.2  1              bulletin    287112
                                                                                                         _ldg
      0.59   +-  0.25       5.8    4.8   34.51 +-  0.0    0.85   2.85   +-0.3      +-                    m i ke

CORSICA, FRANCE
Sta     Dist  EvAz     Phase      Date       Time     TRes  Azim  AzRes  Slow  SRes Def   SNR       Amp   Per   Mag1   Mag2       ID
PGF   000.85 305.6 m E Pn      2012/11/16 03:53:59.5  -0.1                          T                                        5118209
PGF   000.85 305.6 m E Sn      2012/11/16 03:54:11.9   0.0                          T                9.6  .29        Md 2.2  5118208
SBF   002.58 315.4 m E Pn      2012/11/16 03:54:22.8  -0.2                          T                                        5118215
SBF   002.58 315.4 m E Sn      2012/11/16 03:54:53.1   0.1                          T                 .6  .18 Ml 1.8         5118214
LMR   002.83 298.0 m E Pn      2012/11/16 03:54:26.3  -0.1                          T                                        5118206
LMR   002.83 298.0 m E Sn      2012/11/16 03:54:58.8  -0.3                          T                 .1  .12 Ml 1.4         5118207
FRF   002.85 302.9 m E Pn      2012/11/16 03:54:26.7   0.1                          T                                        5118213
FRF   002.85 302.9 m E Sn      2012/11/16 03:54:59.2  -0.4                          T                 .1  .18 Ml 1.3         5118212

.
EVENT     287011
    Date      Time       Latitude Longitude    Depth    Ndef Nsta Gap    Mag1  N    Mag2  N    Mag3  N   Author         ID
       rms   OT_Error      Smajor Sminor Az        Err   mdist  Mdist     Err        Err        Err      Quality

2012/11/16 03:57:19.5     42.6722     .5351      5.0 f    21    5 099  Ml 1.5  4  Md 1.5  2              bulletin    287111
                                                                                                         _ldg
      0.71   +-  0.08       1.9    1.2   18.32 +-  0.0    0.21   2.51   +-0.3      +-0.1                 m i ke

PYRENEES
Sta     Dist  EvAz     Phase      Date       Time     TRes  Azim  AzRes  Slow  SRes Def   SNR       Amp   Per   Mag1   Mag2       ID
EPF   000.39 338.2 m E Pg      2012/11/16 03:57:26.9  -0.1                          T                                        5118201
EPF   000.39 338.2 m E Sg      2012/11/16 03:57:32.2   0.0                          T                2.0  .19        Md 1.6  5118200
ETSF  000.84 286.1 m E Pg      2012/11/16 03:57:35.6   0.2                          T                                        5118197
ETSF  000.84 286.1 m E Sg      2012/11/16 03:57:46.6   0.3                          T                 .4  .17        Md 1.4  5118196
SJPF  001.37 289.4 m E Pg      2012/11/16 03:57:45.4   0.3                          T                                        5133204
SJPF  001.37 289.4 m E Sg      2012/11/16 03:58:03.1   0.4                          T                 .4  .22 Ml 1.2         5118204
MTLF  001.40 061.0 m E Pg      2012/11/16 03:57:46.0   0.3                          T                                        5133206
MTLF  001.40 061.0 m E Sg      2012/11/16 03:58:04.1   0.3                          T                 .9  .18 Ml 1.7         5118198
CAF   002.51 025.7 m E Pn      2012/11/16 03:57:59.2   0.0                          T                                        5118203
CAF   002.51 025.7 m E Sn      2012/11/16 03:58:28.5   0.1                          T                 .2  .19 Ml 1.4         5118202

.
EVENT     287030
    Date      Time       Latitude Longitude    Depth    Ndef Nsta Gap    Mag1  N    Mag2  N    Mag3  N   Author         ID
       rms   OT_Error      Smajor Sminor Az        Err   mdist  Mdist     Err        Err        Err      Quality

2012/11/16 09:19:42.0     44.2800    8.0238      5.0 f    21    5 142  Ml 1.7  3  Md 1.7  2              bulletin    287130
                                                                                                         _ldg
      0.20   +-  0.04        .8     .6    1.45 +-  0.0    0.14   1.87   +-0.3      +-0.1                 m i ke

NORTHERN ITALY
Sta     Dist  EvAz     Phase      Date       Time     TRes  Azim  AzRes  Slow  SRes Def   SNR       Amp   Per   Mag1   Mag2       ID
SBF   000.59 225.7 m E Pg      2012/11/16 09:19:53.3   0.0                          T                                        5118777
SBF   000.59 225.7 m E Pn      2012/11/16 09:19:55.7   0.1                          T                                        5123400
SBF   000.59 225.7 m E Sg      2012/11/16 09:20:01.1  -0.1                          T                3.8  .19        Md 1.6  5118769
MBDF  001.00 296.9 m E Pg      2012/11/16 09:20:00.9  -0.1                          T                                        5118774
MBDF  001.00 296.9 m E Sg      2012/11/16 09:20:13.9   0.0                          T                 .9  .22 Ml 1.4 Md 1.7  5118773
FRF   001.23 234.6 m E Pn      2012/11/16 09:20:04.1  -0.1                          T                                        5118775
FRF   001.23 234.6 m E Pg      2012/11/16 09:20:05.1   0.1                          T                                        5123401
FRF   001.23 234.6 m E Sg      2012/11/16 09:20:20.8   0.0                          T                1.6  .18 Ml 1.9         5118772
LMR   001.45 229.7 m E Pg      2012/11/16 09:20:09.0   0.0                          T                                        5118776
LMR   001.45 229.7 m E Sn      2012/11/16 09:20:25.3  -0.1                          T                                        5118770
LMR   001.45 229.7 m E Sg      2012/11/16 09:20:27.6  -0.1                          T                 .9  .18 Ml 1.7         5118771
PGF   001.87 157.3 m E Pn      2012/11/16 09:20:13.0  -0.1                          T                                        5118768

.
