EVENT     256418
    Date      Time       Latitude Longitude    Depth    Ndef Nsta Gap    Mag1  N    Mag2  N    Mag3  N   Author         ID
       rms   OT_Error      Smajor Sminor Az        Err   mdist  Mdist     Err        Err        Err      Quality

2011/02/25 17:54:24.0     44.4538    9.6440      2.0      48   19 114  Ml 2.5 23                         js067245    256438

      0.29   +-  0.06       1.5    1.0   44.83 +-  0.0    0.34   5.22   +-0.3                            m i ke

NORTHERN ITALY
Sta     Dist  EvAz     Phase      Date       Time     TRes  Azim  AzRes  Slow  SRes Def   SNR       Amp   Per   Mag1   Mag2       ID
SBF   001.70 250.4 m E Pn      2011/02/25 17:54:53.2   0.2                          T                                        4654547
SBF   001.70 250.4 m E Sn      2011/02/25 17:55:14.3   0.3                          T               22.6  .34 Ml 2.9         4654509
PGF   001.96 194.1 m E Pn      2011/02/25 17:54:56.5  -0.1                          T                                        4654543
PGF   001.96 194.1 m E Sn      2011/02/25 17:55:20.7   0.3                          T                3.0  .29 Ml 2.4         4654508
MBDF  002.07 278.6 m E Pn      2011/02/25 17:54:58.4   0.2                          T                                        4654544
MBDF  002.07 278.6 m E Sn      2011/02/25 17:55:23.2   0.2                          T               20.1  .74 Ml 2.7         4654514
LPG   002.30 298.0 m E Pn      2011/02/25 17:55:01.6   0.0                          T                                        4654538
LPG   002.30 298.0 m E Sn      2011/02/25 17:55:28.6  -0.2                          T                8.6  .46 Ml 2.5         4654511
LPL   002.32 298.2 m E Pn      2011/02/25 17:55:01.6  -0.1                          T                                        4654537
LPL   002.32 298.2 m E Sn      2011/02/25 17:55:28.9  -0.3                          T                9.1  .48 Ml 2.6         4654512
FRF   002.34 248.6 m E Pn      2011/02/25 17:55:01.6   0.0                          T                                        4654545
FRF   002.34 248.6 m E Sn      2011/02/25 17:55:29.4   0.1                          T                9.5  .28 Ml 2.9         4654540
LMR   002.53 244.8 m E Pn      2011/02/25 17:55:04.1  -0.1                          T                                        4654546
LMR   002.53 244.8 m E Sn      2011/02/25 17:55:33.7  -0.1                          T               10.4  .32 Ml 2.9         4654541
ORIF  002.72 281.1 m E Pn      2011/02/25 17:55:06.9  -0.1                          T                                        4654542
ORIF  002.72 281.1 m E Sn      2011/02/25 17:55:38.3  -0.3                          T                8.1  .58 Ml 2.5         4654513
SMRF  002.96 262.1 m E Pn      2011/02/25 17:55:10.3   0.1                          T                                        4654539
SMRF  002.96 262.1 m E Sn      2011/02/25 17:55:44.3   0.1                          T                4.5  .44 Ml 2.4         4654510
CABF  003.30 312.0 m E Pn      2011/02/25 17:55:15.4   0.6                          T                                        4654530
CABF  003.30 312.0 m E Sn      2011/02/25 17:55:52.2  -0.2                          T                1.1  .24 Ml 2.2         4654523
VIVF  003.57 278.2 m E Pn      2011/02/25 17:55:18.4  -0.1                          T                                        4654536
VIVF  003.57 278.2 m E Sn      2011/02/25 17:55:58.7   0.0                          T                1.7  .40 Ml 2.2         4654515
HINF  003.88 331.0 m E Pn      2011/02/25 17:55:24.1   1.4                          T                                        4654531
HINF  003.88 331.0 m E Sn      2011/02/25 17:56:05.9  -0.3                          T                2.6  .32 Ml 2.5         4654524
LASF  004.17 266.8 m E Pn      2011/02/25 17:55:26.5  -0.2                          T                                        4654535
LASF  004.17 266.8 m E Sn      2011/02/25 17:56:13.2   0.0                          T                1.2  .35 Ml 2.2         4654516
HAU   004.22 328.4 m E Pn      2011/02/25 17:55:28.2   0.8                          T                                        4654522
HAU   004.22 328.4 m E Sn      2011/02/25 17:56:14.1  -0.3                          T                4.7  .28 Ml 2.7         4654525
CDF   004.28 338.4 m E Pn      2011/02/25 17:55:28.7   0.4                          T                                        4654529
CDF   004.28 338.4 m E Sn      2011/02/25 17:56:15.4  -0.4                          T                2.0  .29 Ml 2.7         4654526
SMF   004.63 300.3 m E Pn      2011/02/25 17:55:33.0   0.2                          T                                        4654534
SMF   004.63 300.3 m E Sn      2011/02/25 17:56:23.8  -0.1                          T                3.8  .43 Ml 2.7         4654519
LOR   004.92 306.9 m E Pn      2011/02/25 17:55:37.3   0.5                          T                                        4654528
LOR   004.92 306.9 m E Sn      2011/02/25 17:56:30.7  -0.3                          T                2.7  .42 Ml 2.7         4654527
AVF   004.99 300.1 m E Pn      2011/02/25 17:55:37.7  -0.1                          T                                        4654521
AVF   004.99 300.1 m E Sn      2011/02/25 17:56:32.6   0.0                          T                 .7  .36 Ml 2.2         4654520
BGF   005.22 296.2 m E Pn      2011/02/25 17:55:41.2   0.3                          T                                        4654533
BGF   005.22 296.2 m E Sn      2011/02/25 17:56:37.9  -0.3                          T                2.4  .40 Ml 2.7         4654518

.
EVENT     256419
    Date      Time       Latitude Longitude    Depth    Ndef Nsta Gap    Mag1  N    Mag2  N    Mag3  N   Author         ID
       rms   OT_Error      Smajor Sminor Az        Err   mdist  Mdist     Err        Err        Err      Quality

2011/02/25 19:00:56.4     47.1204    1.5322      3.0 f    28   12 117  Ml 1.8 14  Md 1.9  3              js067245    256439

      0.29   +-  0.07       1.4     .8  164.64 +-  0.0    0.77   2.25   +-0.2      +-0.1                 m i ke

FRANCE
Sta     Dist  EvAz     Phase      Date       Time     TRes  Azim  AzRes  Slow  SRes Def   SNR       Amp   Per   Mag1   Mag2       ID
HYF   000.77 078.5 m E Pg      2011/02/25 19:01:11.1   0.2                          T                                        4654567
HYF   000.77 078.5 m E Sg      2011/02/25 19:01:20.7  -0.3                          T                                Md 1.9  4654566
TCF   000.95 150.5 m E Pg      2011/02/25 19:01:14.8   0.5                          T                                        4654557
TCF   000.95 150.5 m E Sg      2011/02/25 19:01:26.3  -0.4                          T                2.0  .28 Ml 1.7 Md 1.9  4654552
BGF   001.06 121.5 m E Pg      2011/02/25 19:01:16.1  -0.2                          T                                        4655676
BGF   001.06 121.5 m E Pn      2011/02/25 19:01:16.7   0.2                          T                                        4654575
BGF   001.06 121.5 m E Sg      2011/02/25 19:01:30.2   0.2                          T                5.0  .30 Ml 2.1 Md 1.8  4654569
MFF   001.26 246.4 m E Pg      2011/02/25 19:01:19.9  -0.1                          T                                        4654558
MFF   001.26 246.4 m E Sg      2011/02/25 19:01:36.4   0.1                          T                2.0  .22 Ml 2.1         4654565
AVF   001.29 104.2 m E Pg      2011/02/25 19:01:20.6   0.2                          T                                        4654573
AVF   001.29 104.2 m E Sg      2011/02/25 19:01:37.0  -0.2                          T                 .9  .25 Ml 1.5         4654570
SSF   001.35 091.8 m E Pg      2011/02/25 19:01:21.5   0.0                          T                                        4654556
SSF   001.35 091.8 m E Sg      2011/02/25 19:01:39.2   0.2                          T                  1  .27 Ml 1.6         4654553
LOR   001.59 083.8 m E Pg      2011/02/25 19:01:25.9  -0.2 262.7  -2.8              T                                        4654555
LOR   001.59 083.8 m E Sg      2011/02/25 19:01:46.7   0.0                          T                1.6  .34 Ml 1.8         4654554
SMF   001.65 105.9 m E Pg      2011/02/25 19:01:27.0  -0.1                          T                                        4654572
SMF   001.65 105.9 m E Sg      2011/02/25 19:01:48.2  -0.3                          T                1.8  .33 Ml 1.8         4654571
RJF   001.82 180.4 m E Pg      2011/02/25 19:01:29.9  -0.2                          T                                        4654559
RJF   001.82 180.4 m E Sg      2011/02/25 19:01:53.0  -0.6                          T                 .8  .18 Ml 1.5         4654564
CAF   002.23 170.2 m E Pn      2011/02/25 19:01:32.4   0.0                          T                                        4654561
CAF   002.23 170.2 m E Sg      2011/02/25 19:02:06.3  -0.1                          T                 .9  .25 Ml 1.8         4654562
LFF   002.25 194.5 m E Pn      2011/02/25 19:01:32.9   0.3                          T                                        4654560
LFF   002.25 194.5 m E Sg      2011/02/25 19:02:07.2   0.1                          T                2.8  .35 Ml 2.0         4654563
FLN   002.13 321.2 m E Sg      2011/02/25 19:02:03.1  -0.2                          T                 .5  .19 Ml 1.5         4655675

.
EVENT     256422
    Date      Time       Latitude Longitude    Depth    Ndef Nsta Gap    Mag1  N    Mag2  N    Mag3  N   Author         ID
       rms   OT_Error      Smajor Sminor Az        Err   mdist  Mdist     Err        Err        Err      Quality

2011/02/26 00:54:37.4     44.6216    7.2360      2.0      18    8 190  Ml 1.7  7  Md 1.7  3              js067245    256442

      0.22   +-  0.09       1.9     .9   75.05 +-  0.0    0.35   1.39   +-0.3      +-0.0                 m i ke

NORTHERN ITALY
Sta     Dist  EvAz     Phase      Date       Time     TRes  Azim  AzRes  Slow  SRes Def   SNR       Amp   Per   Mag1   Mag2       ID
MBDF  000.35 287.8 m E Pg      2011/02/26 00:54:44.5   0.2                          T                                        4654591
MBDF  000.35 287.8 m E Sg      2011/02/26 00:54:48.5  -0.5                          T                5.6  .18        Md 1.7  4654585
SBF   000.77 169.2 m E Pg      2011/02/26 00:54:52.0   0.0                          T                                        4654579
SBF   000.77 169.2 m E Sg      2011/02/26 00:55:01.8  -0.3                          T                1.9  .21        Md 1.7  4654586
LPG   000.94 338.8 m E Pg      2011/02/26 00:54:55.4   0.0                          T                                        4654588
LPG   000.94 338.8 m E Sg      2011/02/26 00:55:07.4  -0.3                          T                1.6  .35 Ml 1.4 Md 1.7  4654584
LPL   000.96 338.4 m E Pg      2011/02/26 00:54:55.7  -0.1                          T                                        4654589
LPL   000.96 338.4 m E Sg      2011/02/26 00:55:08.0  -0.3                          T                1.4  .23 Ml 1.6         4654583
ORIF  001.01 287.5 m E Pg      2011/02/26 00:54:56.6   0.1                          T                                        4654590
ORIF  001.01 287.5 m E Sg      2011/02/26 00:55:09.5  -0.1                          T                1.8  .32 Ml 1.6         4654578
FRF   001.14 202.0 m E Pg      2011/02/26 00:54:58.9   0.1                          T                                        4654587
FRF   001.14 202.0 m E Sg      2011/02/26 00:55:13.5   0.0                          T                2.8  .25 Ml 2.0         4654582
SMRF  001.36 242.1 m E Pg      2011/02/26 00:55:02.8   0.1                          T                                        4654576
SMRF  001.36 242.1 m E Sg      2011/02/26 00:55:19.6  -0.7                          T                2.0  .47 Ml 1.6         4654577
LMR   001.39 202.4 m E Pg      2011/02/26 00:55:03.3   0.0                          T                                        4654580
LMR   001.39 202.4 m E Sg      2011/02/26 00:55:19.8  -1.5                          T                3.9  .26 Ml 2.2         4654581

.
EVENT     256420
    Date      Time       Latitude Longitude    Depth    Ndef Nsta Gap    Mag1  N    Mag2  N    Mag3  N   Author         ID
       rms   OT_Error      Smajor Sminor Az        Err   mdist  Mdist     Err        Err        Err      Quality

2011/02/26 02:35:32.4     37.0687    3.4880     10.0 f   101   32 082  Ml 3.6 12                         js067245    256440

      1.17   +-  0.27       6.3    3.4  147.19 +-  0.0    0.91  11.67   +-0.4                            m i ke

WESTERN MEDITERRANEAN SEA
Sta     Dist  EvAz     Phase      Date       Time     TRes  Azim  AzRes  Slow  SRes Def   SNR       Amp   Per   Mag1   Mag2       ID
MTLF  006.34 351.6 m E P       2011/02/26 02:37:08.6   0.2                          T                                        4654624
EPF   006.42 338.9 m E P       2011/02/26 02:37:09.7   0.0                          T                                        4654623
EPF   006.42 338.9 m E Sn      2011/02/26 02:38:13.9   0.0                          T                9.3  .32 Ml 3.6         4654600
ETSF  006.60 333.2 m E P       2011/02/26 02:37:12.0  -0.1                          T                                        4654622
ETSF  006.60 333.2 m E Sn      2011/02/26 02:38:17.8  -0.3                          T               11.4  .66 Ml 3.4         4654601
LMR   006.67 019.3 m E P       2011/02/26 02:37:12.4  -0.6                          T                                        4654633
LMR   006.67 019.3 m E Sn      2011/02/26 02:38:19.4  -0.4                          T               15.4  .28 Ml 4.0         4654596
PGF   006.92 036.1 m E P       2011/02/26 02:37:15.3  -1.4                          T                                        4654635
PGF   006.92 036.1 m E Sn      2011/02/26 02:38:25.3  -0.6                          T               14.3  .30 Ml 4.2         4654594
FRF   006.92 019.4 m E P       2011/02/26 02:37:16.0  -0.6                          T                                        4654632
FRF   006.92 019.4 m E Sn      2011/02/26 02:38:25.0  -0.7                          T               14.8  .26 Ml 4.0         4654597
LASF  007.01 002.2 m E P       2011/02/26 02:37:18.0   0.2                          T                                        4654625
LASF  007.01 002.2 m E Sn      2011/02/26 02:38:27.4  -0.3                          T                6.8  .38 Ml 3.5         4654599
SJPF  007.03 330.6 m E P       2011/02/26 02:37:18.4   0.2                          T                                        4654621
SJPF  007.03 330.6 m E Sn      2011/02/26 02:38:28.4   0.0                          T                6.8  .48 Ml 3.4         4654602
SBF   007.42 022.7 m E Pn      2011/02/26 02:37:18.7   0.2                          T                                        4654634
SBF   007.42 022.7 m E Sn      2011/02/26 02:38:37.2  -0.6                          T               18.0  .36 Ml 4.0         4654595
SMRF  007.08 012.3 m E P       2011/02/26 02:37:18.8  -0.1                          T                                        4654631
VIVF  007.83 006.2 m E P       2011/02/26 02:37:29.2  -0.1                          T                                        4654626
CAF   007.92 352.6 m E P       2011/02/26 02:37:30.8   0.1                          T                                        4654620
MBDF  008.04 017.0 m E P       2011/02/26 02:37:32.1  -0.3                          T                                        4654627
MBDF  008.04 017.0 m E Sn      2011/02/26 02:38:52.4  -0.4                          T               12.7  .70 Ml 3.7         4654598
ORIF  008.05 012.2 m E P       2011/02/26 02:37:32.4  -0.1                          T                                        4654628
ORIF  008.05 012.2 m E Sn      2011/02/26 02:38:52.3  -0.4                          T                  1  .27 Ml 3.0         4654643
LFF   008.13 346.1 m E P       2011/02/26 02:37:33.5   0.0                          T                                        4654619
RJF   008.36 350.4 m E P       2011/02/26 02:37:36.6  -0.2                          T                                        4654618
LPL   008.79 015.1 m E P       2011/02/26 02:37:42.6  -0.2                          T                                        4654629
LPG   008.77 015.2 m E P       2011/02/26 02:37:42.8   0.0                          T                                        4654630
TCF   009.26 354.5 m E Pn      2011/02/26 02:37:44.0   0.5                          T                                        4654608
BGF   009.49 357.3 m E P       2011/02/26 02:37:52.3  -0.1                          T                                        4654615
SMF   009.57 001.5 m E P       2011/02/26 02:37:53.7   0.2                          T                                        4654614
SSF   009.99 000.1 m E Pn      2011/02/26 02:37:54.2   0.9                          T                                        4654607
AVF   009.72 359.4 m E P       2011/02/26 02:37:55.5   0.0                          T                                        4654613
CABF  009.73 010.7 m E P       2011/02/26 02:37:55.5  -0.3                          T                                        4654612
LOR   010.20 001.4 m E Pn      2011/02/26 02:37:56.0  -0.2                          T                                        4654606
MFF   009.90 345.3 m E P       2011/02/26 02:37:58.1   0.1                          T                                        4654617
HINF  011.02 011.9 m E Pn      2011/02/26 02:38:07.8   0.3                          T                                        4654611
HAU   011.13 010.0 m E Pn      2011/02/26 02:38:09.2   0.3                          T                                        4654610
SFTF  011.19 005.4 m E Pn      2011/02/26 02:38:10.1   0.4                          T                                        4654609
MEZF  011.48 005.2 m E Pn      2011/02/26 02:38:13.7   0.0                          T                                        4654603
PAGF  011.60 007.4 m E Pn      2011/02/26 02:38:15.8   0.6                          T                                        4654604
CDF   011.67 012.6 m E Pn      2011/02/26 02:38:16.4   0.0                          T                                        4654605

.
