EVENT     295868
    Date      Time       Latitude Longitude    Depth    Ndef Nsta Gap    Mag1  N    Mag2  N    Mag3  N   Author         ID
       rms   OT_Error      Smajor Sminor Az        Err   mdist  Mdist     Err        Err        Err      Quality

2013/04/11 22:33:16.3     44.7321    7.6411     30.0      46    9 075  Ml 1.4  9  Md 2.1  2              bulletin    295968
                                                                                                         _ldg
      0.89   +-  0.10       2.6    1.9   71.36 +-  0.0    0.29   2.12   +-0.2      +-0.0                 m i ke

NORTHERN ITALY
Sta     Dist  EvAz     Phase      Date       Time     TRes  Azim  AzRes  Slow  SRes Def   SNR       Amp   Per   Mag1   Mag2       ID
MBDF  000.62 269.8 m E P       2013/04/11 22:33:29.3  -0.3                          T                                        5254008
MBDF  000.62 269.8 m E Sn      2013/04/11 22:33:37.9   0.9                          T                4.2  .17        Md 2.1  5254007
SBF   000.88 189.7 m E Pn      2013/04/11 22:33:31.8   0.0                          T                                        5254014
SBF   000.88 189.7 m E Sn      2013/04/11 22:33:43.7   0.7                          T                2.0  .27 Ml 1.6 Md 2.1  5254013
LPG   000.99 320.9 m E P       2013/04/11 22:33:33.9  -0.7                          T                                        5254006
LPG   000.99 320.9 m E Sn      2013/04/11 22:33:46.6   0.7                          T                 .5  .23 Ml 1.2         5254005
LPL   001.01 321.0 m E Pn      2013/04/11 22:33:33.9   0.1                          T                                        5254004
LPL   001.01 321.0 m E Sn      2013/04/11 22:33:47.3   0.9                          T                1.4  .34 Ml 1.4         5254003
ORIF  001.27 279.1 m E Pn      2013/04/11 22:33:37.0  -0.1                          T                                        5254002
ORIF  001.27 279.1 m E Sn      2013/04/11 22:33:52.7   0.5                          T                 .5  .21 Ml 1.3         5254001
FRF   001.37 211.8 m E Pn      2013/04/11 22:33:38.1  -0.2                          T                                        5254012
FRF   001.37 211.8 m E Sn      2013/04/11 22:33:55.1   0.5                          T                1.1  .27 Ml 1.6         5254011
LMR   001.62 210.7 m E P       2013/04/11 22:33:42.4  -0.8                          T                                        5255015
LMR   001.62 210.7 m E Sn      2013/04/11 22:34:00.8   0.5                          T                 .2  .14 Ml 1.2         5254009
SMRF  001.66 243.7 m E P       2013/04/11 22:33:42.7  -1.2                          T                                        5255016
SMRF  001.66 243.7 m E Sn      2013/04/11 22:34:01.9   0.4                          T                 .3  .17 Ml 1.4         5254015
VIVF  002.12 274.4 m E P       2013/04/11 22:33:49.1  -1.3                          T                                        5254020
VIVF  002.12 274.4 m E Sn      2013/04/11 22:34:12.9   0.6                          T                 .6  .31 Ml 1.5         5254019

.
EVENT     295866
    Date      Time       Latitude Longitude    Depth    Ndef Nsta Gap    Mag1  N    Mag2  N    Mag3  N   Author         ID
       rms   OT_Error      Smajor Sminor Az        Err   mdist  Mdist     Err        Err        Err      Quality

2013/04/11 22:37:59.3     42.7335   -1.7654      2.0      35    4 156  Ml 1.7  4  Md 1.9  1              bulletin    295966
                                                                                                         _ldg
      0.87   +-  0.21       3.9    2.8   25.56 +-  0.0    0.14   2.98   +-0.1      +-                    m i ke

PYRENEES
Sta     Dist  EvAz     Phase      Date       Time     TRes  Azim  AzRes  Slow  SRes Def   SNR       Amp   Per   Mag1   Mag2       ID
SJPF  000.55 046.1 m E Pg      2013/04/11 22:38:09.9   0.1                          T                                        5253955
SJPF  000.55 046.1 m E Sg      2013/04/11 22:38:16.6  -0.4                          T                2.7  .17        Md 1.9  5253954
ETSF  000.90 079.1 m E Pg      2013/04/11 22:38:16.7   0.3                          T                                        5253951
ETSF  000.90 079.1 m E Sg      2013/04/11 22:38:28.4   0.2                          T                2.3  .19 Ml 1.8         5253950
EPF   001.58 078.4 m E Pg      2013/04/11 22:38:29.5   0.7                          T                                        5253953
EPF   001.58 078.4 m E Sg      2013/04/11 22:38:49.4   0.3                          T                 .6  .18 Ml 1.6         5253952
MTLF  002.98 076.9 m E Pn      2013/04/11 22:38:45.6  -0.1                          T                                        5253958
MTLF  002.98 076.9 m E Pg      2013/04/11 22:38:54.2  -0.4                          T                                        5253957
MTLF  002.98 076.9 m E Sn      2013/04/11 22:39:20.3   0.3                          T                 .3  .20 Ml 1.6         5253956

.
EVENT     295867
    Date      Time       Latitude Longitude    Depth    Ndef Nsta Gap    Mag1  N    Mag2  N    Mag3  N   Author         ID
       rms   OT_Error      Smajor Sminor Az        Err   mdist  Mdist     Err        Err        Err      Quality

2013/04/11 22:42:02.0     42.7579   -1.9139      2.0      26    4 259  Ml 1.6  4  Md 1.9  1              bulletin    295967
                                                                                                         _ldg
      0.75   +-  0.37       5.4    3.8   78.94 +-  0.0    0.25   3.08   +-0.1      +-                    m i ke

PYRENEES
Sta     Dist  EvAz     Phase      Date       Time     TRes  Azim  AzRes  Slow  SRes Def   SNR       Amp   Per   Mag1   Mag2       ID
SJPF  000.62 054.7 m E Pg      2013/04/11 22:42:13.4  -0.3                          T                                        5253986
SJPF  000.62 054.7 m E Sg      2013/04/11 22:42:21.6  -0.2                          T                6.4  .29        Md 1.9  5253985
ETSF  001.01 081.5 m E Pg      2013/04/11 22:42:20.3  -0.6                          T                                        5253984
ETSF  001.01 081.5 m E Sg      2013/04/11 22:42:34.2   0.2                          T                2.1  .27 Ml 1.7         5253983
EPF   001.68 079.9 m E Pg      2013/04/11 22:42:33.2  -0.1                          T                                        5253981
EPF   001.68 079.9 m E Sg      2013/04/11 22:42:55.1   0.2                          T                 .7  .21 Ml 1.6         5253982
MTLF  003.08 077.7 m E Pn      2013/04/11 22:42:49.8   0.0                          T                                        5253980
MTLF  003.08 077.7 m E Sn      2013/04/11 22:43:25.1   0.1                          T                 .2  .17 Ml 1.5         5253979

.
EVENT     295869
    Date      Time       Latitude Longitude    Depth    Ndef Nsta Gap    Mag1  N    Mag2  N    Mag3  N   Author         ID
       rms   OT_Error      Smajor Sminor Az        Err   mdist  Mdist     Err        Err        Err      Quality

2013/04/11 23:12:20.6     41.5892    2.6083      6.0 f    83   14 164  Ml 2.6 15                         bulletin    295969
                                                                                                         _ldg
      0.72   +-  0.15       2.6    1.6  144.41 +-  0.0    0.22   7.23   +-0.3                            m i ke

SPAIN
Sta     Dist  EvAz     Phase      Date       Time     TRes  Azim  AzRes  Slow  SRes Def   SNR       Amp   Per   Mag1   Mag2       ID
FBR   000.40 244.5 m E Pg      2013/04/11 23:12:27.9  -0.5                          T                                        5258689
FBR   000.40 244.5 m E Sg      2013/04/11 23:12:33.5  -0.3                          T                                        5258690
MTLF  001.77 350.8 m E Pg      2013/04/11 23:12:52.9  -0.8                          T                                        5254061
MTLF  001.77 350.8 m E Sg      2013/04/11 23:13:15.9  -0.6                          T                9.6  .23 Ml 2.8         5254060
EPF   002.21 311.3 m E Pn      2013/04/11 23:12:57.2   1.0                          T                                        5254070
EPF   002.21 311.3 m E Pg      2013/04/11 23:13:01.3  -0.5                          T                                        5254069
EPF   002.21 311.3 m E Sg      2013/04/11 23:13:30.0  -0.3                          T                5.8  .15 Ml 2.8         5254068
LASF  002.65 019.9 m E Pn      2013/04/11 23:13:02.7   0.7                          T                                        5254083
LASF  002.65 019.9 m E Sn      2013/04/11 23:13:32.2  -0.4                          T                                        5254082
LASF  002.65 019.9 m E Sg      2013/04/11 23:13:42.9  -0.9                          T                1.5  .23 Ml 2.2         5254081
ETSF  002.69 300.1 m E Pn      2013/04/11 23:13:03.6   0.9                          T                                        5254067
ETSF  002.69 300.1 m E Pg      2013/04/11 23:13:11.4   0.8                          T                                        5254066
ETSF  002.69 300.1 m E Sg      2013/04/11 23:13:45.7   0.5                          T                6.6  .33 Ml 2.7         5254065
SJPF  003.22 299.5 m E Pn      2013/04/11 23:13:11.1   1.2                          T                                        5254064
SJPF  003.22 299.5 m E Sn      2013/04/11 23:13:46.7   0.4                          T                                        5254063
SJPF  003.22 299.5 m E Sg      2013/04/11 23:14:00.8  -0.9                          T                3.2  .24 Ml 2.6         5254062
CAF   003.36 353.4 m E Pn      2013/04/11 23:13:12.2   0.5                          T                                        5254091
CAF   003.36 353.4 m E Sg      2013/04/11 23:14:05.3  -0.7                          T                2.9  .21 Ml 2.6         5254090
VIVF  003.60 024.1 m E Pn      2013/04/11 23:13:15.6   0.6                          T                                        5254080
VIVF  003.60 024.1 m E Sg      2013/04/11 23:14:13.2  -0.3                          T                1.1  .26 Ml 2.2         5254079
LFF   003.62 338.5 m E Pn      2013/04/11 23:13:15.7   0.6                          T                                        5254089
LFF   003.62 338.5 m E Pg      2013/04/11 23:13:27.3  -0.3                          T                                        5254088
LFF   003.62 338.5 m E Sg      2013/04/11 23:14:13.9  -0.1                          T                3.6  .24 Ml 2.6         5254087
RJF   003.80 348.3 m E Pn      2013/04/11 23:13:18.3   0.7                          T                                        5254086
RJF   003.80 348.3 m E Sn      2013/04/11 23:14:00.0   0.0                          T                                        5254085
RJF   003.80 348.3 m E Sg      2013/04/11 23:14:19.5  -0.1                          T                1.8  .17 Ml 2.3         5254084
TCF   004.71 356.6 m E Pn      2013/04/11 23:13:31.0   0.9                          T                                        5254076
TCF   004.71 356.6 m E Sg      2013/04/11 23:14:48.0   0.0                          T                 .7  .25 Ml 2.3         5254075
BGF   004.97 001.9 m E Pn      2013/04/11 23:13:34.5   0.9                          T                                        5254078
BGF   004.97 001.9 m E Sg      2013/04/11 23:14:56.0  -0.3                          T                3.1  .36 Ml 2.8         5254077
MFF   005.39 339.3 m E Pn      2013/04/11 23:13:39.3   0.0                          T                                        5254074
MFF   005.39 339.3 m E Sn      2013/04/11 23:14:39.2   1.2                          T                 .7  .23 Ml 2.6         5254073
GRR   007.23 341.3 m E Pn      2013/04/11 23:14:05.6   1.2                          T                                        5254072
GRR   007.23 341.3 m E Sn      2013/04/11 23:15:22.1   0.1                          T                2.7  .28 Ml 3.1         5254071

.
EVENT     295870
    Date      Time       Latitude Longitude    Depth    Ndef Nsta Gap    Mag1  N    Mag2  N    Mag3  N   Author         ID
       rms   OT_Error      Smajor Sminor Az        Err   mdist  Mdist     Err        Err        Err      Quality

2013/04/11 23:28:54.4     46.3404   13.1767      2.0      68   13 040  Ml 2.4 13                         bulletin    295970
                                                                                                         _ldg
      1.24   +-  0.12       3.0    2.5   19.67 +-  0.0    0.11   7.05   +-0.4                            m i ke

AUSTRIA
Sta     Dist  EvAz     Phase      Date       Time     TRes  Azim  AzRes  Slow  SRes Def   SNR       Amp   Per   Mag1   Mag2       ID
CDF   004.51 299.5 m E Pn      2013/04/11 23:30:00.8  -0.9                          T                                        5254098
CDF   004.51 299.5 m E Sn      2013/04/11 23:30:49.8  -1.9                          T                1.9  .27 Ml 2.7         5254097
HINF  004.57 291.2 m E Pn      2013/04/11 23:30:01.6  -0.8                          T                                        5254099
HINF  004.57 291.2 m E Sn      2013/04/11 23:30:51.7  -1.2                          T                3.3  .20 Ml 3.0         5254100
LPG   004.56 261.7 m E Pn      2013/04/11 23:30:01.7  -1.0                          T                                        5254106
LPG   004.56 261.7 m E Sn      2013/04/11 23:30:53.0  -0.1                          T                 .5  .26 Ml 2.1         5254105
LPL   004.57 261.9 m E Pn      2013/04/11 23:30:02.9   0.2                          T                                        5254108
LPL   004.57 261.9 m E Sn      2013/04/11 23:30:52.4  -0.9                          T                 .3  .20 Ml 2.0         5254107
SBF   004.76 240.7 m E Pn      2013/04/11 23:30:05.0   0.0                          T                                        5254104
SBF   004.76 240.7 m E Sn      2013/04/11 23:30:58.1   0.6                          T                1.4  .23 Ml 2.6         5254103
CABF  004.91 275.7 m E Pn      2013/04/11 23:30:05.6  -1.5                          T                                        5254156
MBDF  004.78 252.6 m E Pn      2013/04/11 23:30:05.8   0.3                          T                                        5254112
MBDF  004.78 252.6 m E Sn      2013/04/11 23:30:57.4  -0.7                          T                 .7  .27 Ml 2.2         5254111
HAU   004.95 292.2 m E Pn      2013/04/11 23:30:06.3  -1.3                          T                                        5254102
HAU   004.95 292.2 m E Sn      2013/04/11 23:31:00.1  -1.8                          T                8.8  .39 Ml 3.0         5254101
ORIF  005.31 257.1 m E Pn      2013/04/11 23:30:12.5  -0.2                          T                                        5254110
ORIF  005.31 257.1 m E Sn      2013/04/11 23:31:11.0   0.2                          T                 .3  .23 Ml 2.0         5254109
FRF   005.40 241.4 m E Pn      2013/04/11 23:30:12.9  -0.8                          T                                        5254150
FRF   005.40 241.4 m E Sn      2013/04/11 23:31:12.2  -0.6                          T                 .6  .20 Ml 2.5         5254151
LMR   005.61 240.0 m E Pn      2013/04/11 23:30:15.4  -1.1                          T                                        5254147
LMR   005.61 240.0 m E Sn      2013/04/11 23:31:18.1   0.3                          T                 .7  .29 Ml 2.4         5254146
SMRF  005.87 249.0 m E Pn      2013/04/11 23:30:20.4   0.2                          T                                        5254149
SMRF  005.87 249.0 m E Sn      2013/04/11 23:31:22.4  -1.7                          T                 .4  .30 Ml 2.2         5254148
BAIF  007.05 305.1 m E Pn      2013/04/11 23:30:35.5  -0.7                          T                                        5254157

.
EVENT     295875
    Date      Time       Latitude Longitude    Depth    Ndef Nsta Gap    Mag1  N    Mag2  N    Mag3  N   Author         ID
       rms   OT_Error      Smajor Sminor Az        Err   mdist  Mdist     Err        Err        Err      Quality

2013/04/12 00:35:39.9     41.5599    2.6304      5.0 f    16    5 241  Ml 1.3  6                         bulletin    295975
                                                                                                         _ldg
      0.56   +-  0.20       3.4    2.1  145.87 +-  0.0    0.25   3.25   +-0.2                            m i ke

SPAIN
Sta     Dist  EvAz     Phase      Date       Time     TRes  Azim  AzRes  Slow  SRes Def   SNR       Amp   Per   Mag1   Mag2       ID
MTLF  001.81 350.4 m E Pn      2013/04/12 00:36:10.1   0.1                          T                                        5254186
MTLF  001.81 350.4 m E Sg      2013/04/12 00:36:36.1  -0.8                          T                 .2  .16 Ml 1.2         5254185
EPF   002.25 311.6 m E Pn      2013/04/12 00:36:15.4  -0.6                          T                                        5254184
EPF   002.25 311.6 m E Sg      2013/04/12 00:36:50.3  -0.3                          T                 .2  .14 Ml 1.3         5254183
LASF  002.67 019.3 m E Pn      2013/04/12 00:36:21.9   0.1                          T                                        5254178
LASF  002.67 019.3 m E Sg      2013/04/12 00:37:03.9   0.0                          T                 .1  .15 Ml 1           5254177
ETSF  002.72 300.5 m E Pn      2013/04/12 00:36:22.5   0.0                          T                                        5254182
ETSF  002.72 300.5 m E Sg      2013/04/12 00:37:05.5   0.1                          T                 .2  .13 Ml 1.5         5254181
SJPF  003.25 299.8 m E Pn      2013/04/12 00:36:29.6  -0.1                          T                                        5254180
SJPF  003.25 299.8 m E Sg      2013/04/12 00:37:22.2   0.2                          T                 .2  .19 Ml 1.5         5254179

.
