EVENT     298689
    Date      Time       Latitude Longitude    Depth    Ndef Nsta Gap    Mag1  N    Mag2  N    Mag3  N   Author         ID
       rms   OT_Error      Smajor Sminor Az        Err   mdist  Mdist     Err        Err        Err      Quality

2013/05/18 04:47:04.7     42.7517   -1.8137      2.0      21    4 157  Ml 1.4  4  Md 1.4  2              bulletin    298789
                                                                                                         _ldg
      0.49   +-  0.17       3.5    2.4   13.21 +-  0.0    0.17   3.01   +-0.2      +-0.1                 m i ke

PYRENEES
Sta     Dist  EvAz     Phase      Date       Time     TRes  Azim  AzRes  Slow  SRes Def   SNR       Amp   Per   Mag1   Mag2       ID
SJPF  000.56 049.9 m E Pg      2013/05/18 04:47:15.3  -0.1                          T                                        5285026
SJPF  000.56 049.9 m E Sg      2013/05/18 04:47:22.6  -0.2                          T                 .8  .18        Md 1.5  5285025
ETSF  000.93 080.5 m E Pg      2013/05/18 04:47:22.3   0.0                          T                                        5285024
ETSF  000.93 080.5 m E Sg      2013/05/18 04:47:34.1  -0.4                          T                 .4  .18 Ml 1.2 Md 1.4  5285023
EPF   001.61 079.3 m E Pn      2013/05/18 04:47:32.3  -0.2                          T                                        5285022
EPF   001.61 079.3 m E Pg      2013/05/18 04:47:34.5  -0.2                          T                                        5285020
EPF   001.61 079.3 m E Sg      2013/05/18 04:47:55.2  -0.2                          T                 .4  .24 Ml 1.3         5285021
MTLF  003.01 077.4 m E Pn      2013/05/18 04:47:51.7   0.2                          T                                        5285028
MTLF  003.01 077.4 m E Sn      2013/05/18 04:48:25.7  -0.4                          T                 .2  .18 Ml 1.5         5285027

.
EVENT     298759
    Date      Time       Latitude Longitude    Depth    Ndef Nsta Gap    Mag1  N    Mag2  N    Mag3  N   Author         ID
       rms   OT_Error      Smajor Sminor Az        Err   mdist  Mdist     Err        Err        Err      Quality

2013/05/18 05:51:07.1     50.9529    6.4121     10.0      62    9 079  Ml 2.5 10  Md 2.5  2              bulletin    298859
                                                                                                         _ldg
      0.44   +-  0.07       1.4    1.1  150.38 +-  0.0    0.04   4.34   +-0.3      +-0.0                 m i ke

GERMANY
Sta     Dist  EvAz     Phase      Date       Time     TRes  Azim  AzRes  Slow  SRes Def   SNR       Amp   Per   Mag1   Mag2       ID
GIVF  001.32 230.6 m E Pn      2013/05/18 05:51:30.2   0.2                          T                                        5285322
GIVF  001.32 230.6 m E Pg      2013/05/18 05:51:31.8   0.0                          T                                        5285319
GIVF  001.32 230.6 m E Sg      2013/05/18 05:51:49.2   0.2                          T               40.2  .24 Ml 3.2 Md 2.6  5285303
BAIF  001.67 238.4 m E Pg      2013/05/18 05:51:38.1   0.0                          T                                        5285302
BAIF  001.67 238.4 m E Sg      2013/05/18 05:51:59.4  -0.3                          T               12.4  .22 Ml 2.9 Md 2.5  5285301
PAGF  002.44 190.8 m E Pn      2013/05/18 05:51:45.4   0.1                          T                                        5285308
PAGF  002.44 190.8 m E Pg      2013/05/18 05:51:52.3  -0.1  12.7  2.4               T                                        5285307
PAGF  002.44 190.8 m E Sn      2013/05/18 05:52:13.4   0.1                          T                                        5285310
PAGF  002.44 190.8 m E Sg      2013/05/18 05:52:23.9   0.0  12.2  2.0               T                2.9  .29 Ml 2.3         5285309
CDF   002.60 167.2 m E Pn      2013/05/18 05:51:47.7   0.1                          T                                        5285338
CDF   002.60 167.2 m E Pg      2013/05/18 05:51:55.3  -0.2                          T                                        5285321
CDF   002.60 167.2 m E Sn      2013/05/18 05:52:17.3  -0.1                          T                                        5285337
CDF   002.60 167.2 m E Sg      2013/05/18 05:52:29.3   0.3                          T                 .9  .20 Ml 2.1         5285336
SFTF  002.89 198.5 m E Pn      2013/05/18 05:51:51.6   0.3                          T                                        5285332
SFTF  002.89 198.5 m E Pg      2013/05/18 05:52:00.9   0.2                          T                                        5285331
SFTF  002.89 198.5 m E Sn      2013/05/18 05:52:24.3   0.1  19.9  2.5               T                                        5285334
SFTF  002.89 198.5 m E Sg      2013/05/18 05:52:37.8  -0.1  19.9  2.4               T                2.7  .19 Ml 2.5         5285333
HAU   002.95 180.8 m E Pn      2013/05/18 05:51:52.2   0.0                          T                                        5285328
HAU   002.95 180.8 m E Pg      2013/05/18 05:52:01.6  -0.2                          T                                        5285327
HAU   002.95 180.8 m E Sn      2013/05/18 05:52:25.5   0.0                          T                                        5285330
HAU   002.95 180.8 m E Sg      2013/05/18 05:52:39.6  -0.2                          T                3.0  .26 Ml 2.3         5285329
MEZF  002.61 200.3 m E Pg      2013/05/18 05:51:55.7   0.3                          T                                        5285320
MEZF  002.61 200.3 m E Sg      2013/05/18 05:52:28.9  -0.1                          T                3.9  .27 Ml 2.5         5285335
LOR   004.05 205.4 m E Pn      2013/05/18 05:52:06.9  -0.2                          T                                        5285305
LOR   004.05 205.4 m E Pg      2013/05/18 05:52:22.1   0.1                          T                                        5285341
LOR   004.05 205.4 m E Sg      2013/05/18 05:53:13.3  -0.8  28.5  5.0               T                2.2  .31 Ml 2.5         5285342
SSF   004.34 207.3 m E Pn      2013/05/18 05:52:11.8   0.8                          T                                        5285306
SSF   004.34 207.3 m E Sn      2013/05/18 05:53:00.4   1.7                          T                                        5285339
SSF   004.34 207.3 m E Sg      2013/05/18 05:53:24.0   0.9                          T                1.7  .34 Ml 2.5         5285340

.
EVENT     298693
    Date      Time       Latitude Longitude    Depth    Ndef Nsta Gap    Mag1  N    Mag2  N    Mag3  N   Author         ID
       rms   OT_Error      Smajor Sminor Az        Err   mdist  Mdist     Err        Err        Err      Quality

2013/05/18 11:02:10.4     42.7701     .0069      2.0      11    4 217  Ml 1.3  3  Md 1.3  2              bulletin    298793
                                                                                                         _ldg
      0.19   +-  0.08       2.8     .7  177.28 +-  0.0    0.36   1.72   +-0.2      +-0.1                 m i ke

PYRENEES
Sta     Dist  EvAz     Phase      Date       Time     TRes  Azim  AzRes  Slow  SRes Def   SNR       Amp   Per   Mag1   Mag2       ID
EPF   000.36 043.2 m E Pg      2013/05/18 11:02:17.2  -0.1                          T                                        5285041
EPF   000.36 043.2 m E Sg      2013/05/18 11:02:21.9  -0.2                          T                2.2  .21        Md 1.3  5285040
ETSF  000.44 287.3 m E Pg      2013/05/18 11:02:18.6  -0.2                          T                                        5285039
ETSF  000.44 287.3 m E Sg      2013/05/18 11:02:24.4  -0.2                          T                2.3  .25        Md 1.3  5285038
SJPF  000.97 291.2 m E Pg      2013/05/18 11:02:28.7   0.2                          T                                        5285045
SJPF  000.97 291.2 m E Sg      2013/05/18 11:02:41.2   0.1                          T                 .7  .27 Ml 1.2         5285044
MTLF  001.72 069.8 m E Pn      2013/05/18 11:02:39.5  -0.1                          T                                        5285043
MTLF  001.72 069.8 m E Sg      2013/05/18 11:03:04.6   0.1                          T                 .2  .19 Ml 1.2         5285042

.
EVENT     298694
    Date      Time       Latitude Longitude    Depth    Ndef Nsta Gap    Mag1  N    Mag2  N    Mag3  N   Author         ID
       rms   OT_Error      Smajor Sminor Az        Err   mdist  Mdist     Err        Err        Err      Quality

2013/05/18 11:38:08.9     42.7316   -1.7023      2.0      84   22 057  Ml 2.6 24  Md 2.7  2              bulletin    298794
                                                                                                         _ldg
      0.70   +-  0.07       1.5    1.3  141.29 +-  0.0    0.10   7.24   +-0.2      +-0.1                 m i ke

PYRENEES
Sta     Dist  EvAz     Phase      Date       Time     TRes  Azim  AzRes  Slow  SRes Def   SNR       Amp   Per   Mag1   Mag2       ID
SJPF  000.52 042.4 m E Pg      2013/05/18 11:38:18.2  -0.6                          T   001.0                                5285068
SJPF  000.52 042.4 m E Sg      2013/05/18 11:38:26.8   1.2                          T              102.4  .28        Md 2.7  5285093
ETSF  000.86 078.4 m E Pg      2013/05/18 11:38:24.6  -0.5                          T   001.0                                5285063
ETSF  000.86 078.4 m E Sg      2013/05/18 11:38:37.7   1.5                          T   001.0       55.6  .40 Ml 2.9 Md 2.6  5285064
EPF   001.53 078.1 m E Pg      2013/05/18 11:38:36.8  -0.6                          T   001.0                                5285056
EPF   001.53 078.1 m E Sg      2013/05/18 11:38:58.2   0.9                          T   001.0       45.8  .44 Ml 3.1         5285057
LFF   002.83 037.9 m E Pn      2013/05/18 11:38:53.5   0.3                          T   001.0                                5285059
LFF   002.83 037.9 m E Sn      2013/05/18 11:39:26.2   0.5                          T   001.0       11.6  .44 Ml 2.6         5285060
MTLF  002.94 076.7 m E Pn      2013/05/18 11:38:54.8   0.1                          T   001.0                                5285065
MTLF  002.94 076.7 m E Sn      2013/05/18 11:39:28.9   0.4                          T                3.2  .23 Ml 2.6         5285072
RJF   003.46 041.0 m E Pn      2013/05/18 11:39:02.3   0.4                          T   001.0                                5285049
RJF   003.46 041.0 m E Sn      2013/05/18 11:39:42.0   1.0                          T   001.0        3.7  .20 Ml 2.5         5285050
CAF   003.50 049.9 m E Pn      2013/05/18 11:39:02.8   0.4                          T   001.0                                5285053
CAF   003.50 049.9 m E Sn      2013/05/18 11:39:43.0   1.1                          T   001.0        5.8  .32 Ml 2.8         5285054
MFF   004.03 015.5 m E Pn      2013/05/18 11:39:08.7  -0.7                          T                                        5285084
MFF   004.03 015.5 m E Sn      2013/05/18 11:39:54.6   0.2                          T                 .8  .18 Ml 2.5         5285083
LASF  004.27 069.8 m E Pn      2013/05/18 11:39:12.9   0.1                          T   001.0                                5285058
LASF  004.27 069.8 m E Sn      2013/05/18 11:40:01.7   1.5                          T                2.5  .29 Ml 2.6         5285071
TCF   004.52 036.9 m E Pn      2013/05/18 11:39:16.0  -0.3                          T                                        5285086
TCF   004.52 036.9 m E Sn      2013/05/18 11:40:07.3   0.9                          T                3.0  .36 Ml 2.7         5285085
BGF   005.02 038.7 m E Pn      2013/05/18 11:39:22.4  -0.5                          T                                        5285092
BGF   005.02 038.7 m E Sn      2013/05/18 11:40:18.3   0.2                          T                9.3  .41 Ml 3.2         5285091
QUIF  005.29 349.3 m E Pn      2013/05/18 11:39:26.6   0.0                          T                                        5285082
QUIF  005.29 349.3 m E Sn      2013/05/18 11:40:24.2  -0.3                          T                1.2  .29 Ml 2.6         5285081
AVF   005.42 039.8 m E Pn      2013/05/18 11:39:27.9  -0.6                          T   001.0                                5285051
AVF   005.42 039.8 m E Sn      2013/05/18 11:40:28.7   0.9                          T   001.0        2.3  .68 Ml 2.5         5285052
HYF   005.48 032.7 m E Pn      2013/05/18 11:39:29.5   0.2                          T                                        5285090
HYF   005.48 032.7 m E Sn      2013/05/18 11:40:30.8   1.6                          T                                        5285089
SGMF  005.56 354.1 m E Pn      2013/05/18 11:39:30.1  -0.2                          T   001.0                                5285067
SGMF  005.56 354.1 m E Sn      2013/05/18 11:40:30.4  -0.6                          T                 .4  .20 Ml 2.3         5285080
SMF   005.56 043.4 m E Pn      2013/05/18 11:39:30.8   0.4                          T                                        5285088
SMF   005.56 043.4 m E Sn      2013/05/18 11:40:31.7   0.5                          T                 .7  .21 Ml 2.5         5285087
GRR   005.69 005.7 m E Pn      2013/05/18 11:39:31.2  -0.9                          T                                        5285078
GRR   005.69 005.7 m E Sn      2013/05/18 11:40:34.7   0.5                          T                1.3  .20 Ml 2.7         5285077
SSF   005.69 038.7 m E Pn      2013/05/18 11:39:31.9  -0.3                          T   001.0                                5285061
ROSF  005.71 349.4 m E Pn      2013/05/18 11:39:31.9  -0.5                          T   001.0                                5285066
ROSF  005.71 349.4 m E Sn      2013/05/18 11:40:34.4  -0.3                          T                1.1  .24 Ml 2.7         5285079
SSF   005.69 038.7 m E Sn      2013/05/18 11:40:35.2   0.9                          T   001.0        1.5  .36 Ml 2.7         5285062
LDF   005.97 010.1 m E Pn      2013/05/18 11:39:35.1  -0.8                          T                                        5285076
LDF   005.97 010.1 m E Sn      2013/05/18 11:40:40.8   0.0                          T                 .3  .18 Ml 2.2         5285075
LOR   006.01 039.1 m E Pn      2013/05/18 11:39:36.4  -0.1                          T                                        5285070
LOR   006.01 039.1 m E Sn      2013/05/18 11:40:42.2   0.3                          T                 .6  .25 Ml 2.5         5285069
SFTF  007.24 038.6 m E Pn      2013/05/18 11:39:52.8  -0.5                          T                                        5285074
SFTF  007.24 038.6 m E Sn      2013/05/18 11:41:11.6   0.4                          T                1.9  .33 Ml 3.1         5285073

.
EVENT     298695
    Date      Time       Latitude Longitude    Depth    Ndef Nsta Gap    Mag1  N    Mag2  N    Mag3  N   Author         ID
       rms   OT_Error      Smajor Sminor Az        Err   mdist  Mdist     Err        Err        Err      Quality

2013/05/18 12:19:25.4     46.4317     .6484      2.0      33   14 110  Ml 2.0 13  Md 1.9  3              bulletin    298795
                                                                                                         _ldg
      0.34   +-  0.04        .9     .6   23.64 +-  0.0    0.57   2.45   +-0.3      +-0.2                 m i ke

FRANCE
Sta     Dist  EvAz     Phase      Date       Time     TRes  Azim  AzRes  Slow  SRes Def   SNR       Amp   Per   Mag1   Mag2       ID
MFF   000.57 287.6 m E Pg      2013/05/18 12:19:36.1  -0.2                          T                                        5285157
MFF   000.57 287.6 m E Sg      2013/05/18 12:19:43.7  -0.1                          T                4.4  .22        Md 1.8  5285155
TCF   001.09 097.0 m E Pg      2013/05/18 12:19:45.9   0.0                          T                                        5285156
TCF   001.09 097.0 m E Sg      2013/05/18 12:20:00.1   0.1                          T                2.3  .18 Ml 2.0 Md 1.7  5285154
RJF   001.28 151.4 m E Pn      2013/05/18 12:19:48.6  -0.1                          T                                        5285929
RJF   001.28 151.4 m E Sn      2013/05/18 12:20:05.3  -0.1                          T                                        5285928
LFF   001.49 177.5 m E Pn      2013/05/18 12:19:51.7   0.2                          T                                        5285927
LFF   001.49 177.5 m E Sn      2013/05/18 12:20:10.6   0.1                          T                1.4  .20 Ml 1.7         5285926
BGF   001.52 084.5 m E Pn      2013/05/18 12:19:51.9  -0.1                          T                                        5285811
BGF   001.52 084.5 m E Sn      2013/05/18 12:20:11.1  -0.1                          T                                        5285812
HYF   001.60 057.8 m E Pn      2013/05/18 12:19:52.7  -0.3                          T                                        5285931
HYF   001.60 057.8 m E Sn      2013/05/18 12:20:12.8  -0.3                          T               14.2  .22 Ml 2.9         5285930
CAF   001.80 146.1 m E Pn      2013/05/18 12:19:55.9   0.1                          T                                        5285925
CAF   001.80 146.1 m E Sn      2013/05/18 12:20:18.0   0.1                          T                                        5285924
CAF   001.80 146.1 m E Sg      2013/05/18 12:20:22.1  -0.2                          T                1.5  .26 Ml 1.9         5285923
AVF   001.90 078.1 m E Pn      2013/05/18 12:19:57.1   0.1                          T                                        5285161
AVF   001.90 078.1 m E Sn      2013/05/18 12:20:19.9  -0.2                          T                 .7  .23 Ml 1.7         5285169
SSF   002.06 071.2 m E Pn      2013/05/18 12:19:59.4   0.1                          T                                        5285806
SSF   002.06 071.2 m E Sn      2013/05/18 12:20:24.2   0.1                          T                 .8  .22 Ml 1.8         5285813
GRR   002.21 333.0 m E Pn      2013/05/18 12:20:01.3   0.0                          T                                        5285809
GRR   002.21 333.0 m E Sn      2013/05/18 12:20:27.7   0.2                          T                1.3  .22 Ml 1.9         5285810
SMF   002.21 083.3 m E Pn      2013/05/18 12:20:01.6   0.2                          T                                        5289856
SMF   002.21 083.3 m E Sg      2013/05/18 12:20:35.3   0.3                          T                 .6  .15 Ml 1.9         5289855
LDF   002.23 346.7 m E Pn      2013/05/18 12:20:01.8   0.3                          T                                        5285933
LDF   002.23 346.7 m E Sn      2013/05/18 12:20:28.2   0.2                          T                 .7  .18 Ml 1.8         5285932
LOR   002.36 068.0 m E Pn      2013/05/18 12:20:03.3   0.0                          T                                        5285807
LOR   002.36 068.0 m E Sn      2013/05/18 12:20:31.3   0.2                          T                 .9  .24 Ml 1.9         5285808
FLN   002.45 342.3 m E Pn      2013/05/18 12:20:04.3  -0.3                          T                                        5285935
FLN   002.45 342.3 m E Sn      2013/05/18 12:20:33.4   0.0                          T                1.7  .21 Ml 2.0         5285934

.
