BEGIN GSE2.0
MSG_TYPE DATA
MSG_ID 25-OCT-1108:39:17  FRA_NDC
E-MAIL
DATA_TYPE BULLETIN
Reviewed Bulletin (REB) # P2011-041  from French NDC for regional phases     PERIOD 12 OCT 2011 TO 18 OCT 2011 S M., J-P S.
EVENT     264972
    Date      Time       Latitude Longitude    Depth    Ndef Nsta Gap    Mag1  N    Mag2  N    Mag3  N   Author         ID
       rms   OT_Error      Smajor Sminor Az        Err   mdist  Mdist     Err        Err        Err      Quality

2011/10/12 05:52:59.0     44.4895    6.9686      2.0      28   10 150  Ml 2.4  8  Md 2.4  2              js067245    264992

      0.69   +-  0.06       1.6     .8   74.39 +-  0.0    0.11   2.44   +-0.3      +-0.1                 m i ke

FRANCE
Sta     Dist  EvAz     Phase      Date       Time     TRes  Azim  AzRes  Slow  SRes Def   SNR       Amp   Per   Mag1   Mag2       ID
MBDF  000.28 329.4 m E Pg      2011/10/12 05:53:04.3  -0.2                          T                                        4769624
MBDF  000.28 329.4 m E P       2011/10/12 05:53:05.1  -0.1                          T                                        4770474
MBDF  000.28 329.4 m E Sg      2011/10/12 05:53:08.3   0.0                          T               79.3  .30        Md 2.4  4769623
SBF   000.71 151.6 m E Pg      2011/10/12 05:53:12.3  -0.2                          T                                        4769620
SBF   000.71 151.6 m E Sg      2011/10/12 05:53:21.7  -0.1                          T               44.6  .52        Md 2.5  4769619
ORIF  000.89 299.3 m E Pg      2011/10/12 05:53:15.4  -0.4                          T                                        4769622
ORIF  000.89 299.3 m E Sg      2011/10/12 05:53:27.3   0.0                          T                9.1  .30 Ml 2.2         4769621
FRF   000.96 194.1 m E Pg      2011/10/12 05:53:16.7  -0.2                          T                                        4769614
FRF   000.96 194.1 m E Pn      2011/10/12 05:53:17.7  -0.1                          T                                        4770479
FRF   000.96 194.1 m E P       2011/10/12 05:53:19.0   0.0                          T                                        4770475
FRF   000.96 194.1 m E Sg      2011/10/12 05:53:28.7  -0.6                          T               17.1  .23 Ml 2.7         4770477
LPG   001.02 351.4 m E Pg      2011/10/12 05:53:18.4   0.0                          T                                        4770472
LPG   001.02 351.4 m E Sg      2011/10/12 05:53:31.2  -0.5                          T               10.4  .46 Ml 2.2         4770470
LPL   001.04 350.8 m E Pg      2011/10/12 05:53:18.9   0.2                          T                                        4770480
LPL   001.04 350.8 m E Sg      2011/10/12 05:53:32.1  -0.1                          T                7.8  .32 Ml 2.2         4772925
SMRF  001.13 243.3 m E Pg      2011/10/12 05:53:20.2   0.1                          T                                        4769618
SMRF  001.13 243.3 m E P       2011/10/12 05:53:21.8   0.0                          T                                        4770473
SMRF  001.13 243.3 m E Sg      2011/10/12 05:53:34.9   0.2                          T               17.6  .31 Ml 2.6         4770476
LMR   001.20 196.2 m E Pg      2011/10/12 05:53:21.6   0.2                          T                                        4770478
LMR   001.20 196.2 m E Sg      2011/10/12 05:53:36.9  -0.1                          T               30.1  .34 Ml 2.9         4770471
VIVF  001.68 283.4 m E P       2011/10/12 05:53:29.5  -0.1                          T                                        4772926
VIVF  001.68 283.4 m E Sg      2011/10/12 05:53:52.2   0.3                          T                4.4  .41 Ml 2.1         4770481
PGF   002.44 142.0 m E Sn      2011/10/12 05:54:07.0   0.3                          T                1.7  .22 Ml 2.4         4772924

.
EVENT     264977
    Date      Time       Latitude Longitude    Depth    Ndef Nsta Gap    Mag1  N    Mag2  N    Mag3  N   Author         ID
       rms   OT_Error      Smajor Sminor Az        Err   mdist  Mdist     Err        Err        Err      Quality

2011/10/12 09:27:28.0     48.4936    5.5257       .0 f    11    7 153  Ml 2.0  3  Md 2.0  1              js067245    264997

      1.00   +-  0.12       1.4    1.2  159.24 +-  0.0    0.15   1.92   +-0.2      +-                    m i km

FRANCE
Sta     Dist  EvAz     Phase      Date       Time     TRes  Azim  AzRes  Slow  SRes Def   SNR       Amp   Per   Mag1   Mag2       ID
PAGF  000.15 065.0 m E Pg      2011/10/12 09:27:31.1  -0.2 242.4  -2.7              T                                        4772941
PAGF  000.15 065.0 m E Sg      2011/10/12 09:27:33.7   0.2                          T                                        4772936
PAGF  000.15 065.0 m E Sn      2011/10/12 09:27:37.7   0.3 242.5  -2.7              T               97.9  .61        Md 2.0  4772942
HAU   000.74 131.3 m E Pg      2011/10/12 09:27:42.4   0.3                          T                                        4772933
HAU   000.74 131.3 m E Sn      2011/10/12 09:27:55.8   0.2                          T               27.4  .52                4772940
MEZF  000.32 271.7 m E Sn      2011/10/12 09:27:47.9  -0.3  85.8  -5.5              T               17.7  .40                4772935
CDF   001.17 093.3 m E Pg      2011/10/12 09:27:49.9  -0.3                          T                                        4772938
CDF   001.17 093.3 m E Sg      2011/10/12 09:28:05.1  -0.4                          T                3.6  .36 Ml 2.0         4772939
SFTF  000.43 228.6 m E Sn      2011/10/12 09:27:56.1   0.1  39.2  -9.0              T               25.6  .82                4772934
LOR   001.66 223.1 m E Sg      2011/10/12 09:28:21.0   0.2  40.7  -1.1              T                1.4  .30 Ml 1.8         4772937
CABF  001.92 168.4 m E Sg      2011/10/12 09:28:29.4   0.4                          T                3.4  .38 Ml 2.1         4772932

.
EVENT     264978
    Date      Time       Latitude Longitude    Depth    Ndef Nsta Gap    Mag1  N    Mag2  N    Mag3  N   Author         ID
       rms   OT_Error      Smajor Sminor Az        Err   mdist  Mdist     Err        Err        Err      Quality

2011/10/12 09:30:59.8     45.2127    -.3878       .0 f    36   13 170  Ml 2.7 14  Md 2.6  4              js067245    264998

      1.67   +-  0.14       3.0    1.7  111.16 +-  0.0    0.84   3.61   +-0.3      +-0.2                 m i km

FRANCE
Sta     Dist  EvAz     Phase      Date       Time     TRes  Azim  AzRes  Slow  SRes Def   SNR       Amp   Per   Mag1   Mag2       ID
LFF   000.84 108.5 m E Pg      2011/10/12 09:31:16.4   0.4                          T                                        4769984
LFF   000.84 108.5 m E Sg      2011/10/12 09:31:27.2   0.1                          T               14.0  .22        Md 2.7  4769983
RJF   001.35 085.4 m E Pg      2011/10/12 09:31:25.4   0.1                          T                                        4769982
RJF   001.35 085.4 m E Sg      2011/10/12 09:31:43.0   0.1                          T               29.3  .20 Ml 2.8 Md 2.6  4769981
MFF   001.40 006.8 m E Pg      2011/10/12 09:31:26.3   0.1                          T                                        4769980
MFF   001.40 006.8 m E Sg      2011/10/12 09:31:44.6   0.1                          T               18.6  .24 Ml 3.1 Md 2.8  4769979
CAF   001.76 098.5 m E Pg      2011/10/12 09:31:32.4  -0.5                          T                                        4769978
CAF   001.76 098.5 m E Sg      2011/10/12 09:31:55.1  -0.6                          T                7.4  .24 Ml 2.6 Md 2.4  4769977
TCF   002.11 058.5 m E Pn      2011/10/12 09:31:34.6  -0.3                          T                                        4772964
TCF   002.11 058.5 m E Pg      2011/10/12 09:31:39.4   0.0                          T                                        4772963
TCF   002.11 058.5 m E Sn      2011/10/12 09:31:59.2  -1.2                          T                                        4772965
TCF   002.11 058.5 m E Sg      2011/10/12 09:32:06.8   0.0                          T                5.8  .24 Ml 2.7         4772966
SJPF  002.18 196.3 m E Pn      2011/10/12 09:31:35.8   0.0                          T                                        4772946
SJPF  002.18 196.3 m E Pg      2011/10/12 09:31:40.8   0.2                          T                                        4772945
SJPF  002.18 196.3 m E Sg      2011/10/12 09:32:09.4   0.4                          T                4.1  .32 Ml 2.4         4769976
EPF   002.24 166.2 m E Pn      2011/10/12 09:31:36.3  -0.3                          T                                        4772949
EPF   002.24 166.2 m E Pg      2011/10/12 09:31:41.9   0.1                          T                                        4772948
EPF   002.24 166.2 m E Sn      2011/10/12 09:32:03.2  -0.4                          T                                        4772955
EPF   002.24 166.2 m E Sg      2011/10/12 09:32:11.1   0.2                          T                4.7  .24 Ml 2.6         4772954
ETSF  002.32 183.1 m E Pn      2011/10/12 09:31:37.2  -0.4                          T                                        4769975
ETSF  002.32 183.1 m E Pg      2011/10/12 09:31:43.1  -0.1                          T                                        4772947
ETSF  002.32 183.1 m E Sg      2011/10/12 09:32:13.3   0.1                          T                4.3  .40 Ml 2.3         4769974
BGF   002.63 058.1 m E Pn      2011/10/12 09:31:41.8   0.0                          T                                        4769970
BGF   002.63 058.1 m E Pg      2011/10/12 09:31:49.2   0.4                          T                                        4772957
BGF   002.63 058.1 m E Sg      2011/10/12 09:32:23.3   0.4                          T               26.3  .36 Ml 3.2         4769971
MTLF  002.65 134.1 m E Pn      2011/10/12 09:31:42.1   0.0                          T                                        4772951
MTLF  002.65 134.1 m E Pg      2011/10/12 09:31:49.5   0.3                          T                                        4772950
MTLF  002.65 134.1 m E Sg      2011/10/12 09:32:24.1   0.7                          T                2.0  .36 Ml 2.1         4772953
SSF   003.28 054.3 m E Pn      2011/10/12 09:31:50.3  -0.3                          T                                        4772960
SSF   003.28 054.3 m E Pg      2011/10/12 09:32:00.8   0.0                          T                                        4772959
SSF   003.28 054.3 m E Sn      2011/10/12 09:32:28.0  -0.2                          T                4.2  .29 Ml 2.7         4772961
LOR   003.59 053.6 m E Pg      2011/10/12 09:32:06.6   0.0 221.8  -14.9             T                                        4772958
LOR   003.59 053.6 m E Sn      2011/10/12 09:32:35.4  -0.3 202.5  -34.1             T                2.1  .21 Ml 2.6         4772962
VIVF  003.61 093.9 m E Sg      2011/10/12 09:32:53.3  -0.1                          T                2.3  .30 Ml 2.4         4772952

.
EVENT     264997
    Date      Time       Latitude Longitude    Depth    Ndef Nsta Gap    Mag1  N    Mag2  N    Mag3  N   Author         ID
       rms   OT_Error      Smajor Sminor Az        Err   mdist  Mdist     Err        Err        Err      Quality

2011/10/12 10:13:01.8     42.8234    2.8964       .0 f    12    3 152  Ml 2.0  2  Md 1.8  1              js067245    265017

      1.31   +-  0.21       4.3    3.0   99.28 +-  0.0    0.37   1.89   +-0.2      +-                    m i km

PYRENEES
Sta     Dist  EvAz     Phase      Date       Time     TRes  Azim  AzRes  Slow  SRes Def   SNR       Amp   Per   Mag1   Mag2       ID
MTLF  000.72 316.4 m E Pg      2011/10/12 10:13:15.6   0.0                          T                                        4772992
MTLF  000.72 316.4 m E P       2011/10/12 10:13:16.9  -0.1                          T                                        4772993
MTLF  000.72 316.4 m E Sg      2011/10/12 10:13:24.8  -0.4                          T                                        4770605
MTLF  000.72 316.4 m E Sn      2011/10/12 10:13:28.7  -0.3                          T                1.9  .18        Md 1.8  4770604
LASF  001.43 028.9 m E Pg      2011/10/12 10:13:29.1   0.2                          T                                        4772991
LASF  001.43 028.9 m E Sg      2011/10/12 10:13:47.9   0.3                          T                1.6  .27 Ml 1.8         4772990
EPF   001.89 277.2 m E Pg      2011/10/12 10:13:37.6   0.3                          T                                        4772988
EPF   001.89 277.2 m E Sg      2011/10/12 10:14:01.7  -0.1                          T                2.1  .24 Ml 2.1         4772989

.
EVENT     264999
    Date      Time       Latitude Longitude    Depth    Ndef Nsta Gap    Mag1  N    Mag2  N    Mag3  N   Author         ID
       rms   OT_Error      Smajor Sminor Az        Err   mdist  Mdist     Err        Err        Err      Quality

2011/10/12 10:54:35.5     42.7610    2.8106       .0 f     9    3 139  Ml 1.7  2  Md 1.7  1              js067245    265019

      0.67   +-  0.16       3.6    1.9   69.66 +-  0.0    0.28   1.84   +-0.1      +-                    m i km

PYRENEES
Sta     Dist  EvAz     Phase      Date       Time     TRes  Azim  AzRes  Slow  SRes Def   SNR       Amp   Per   Mag1   Mag2       ID
MTLF  000.72 323.3 m E Pg      2011/10/12 10:54:49.7   0.2                          T                                        4770449
MTLF  000.72 323.3 m E Sg      2011/10/12 10:54:59.1  -0.1                          T                5.5  .18        Md 1.7  4770446
EPF   001.84 279.3 m E Pg      2011/10/12 10:55:09.9  -0.1                          T                                        4773008
EPF   001.84 279.3 m E Sg      2011/10/12 10:55:33.7  -0.1                          T                1.2  .29 Ml 1.8         4773009
LASF  001.52 029.8 m E Sg      2011/10/12 10:55:24.1   0.1                          T                1.1  .30 Ml 1.6         4773010

.
EVENT     264996
    Date      Time       Latitude Longitude    Depth    Ndef Nsta Gap    Mag1  N    Mag2  N    Mag3  N   Author         ID
       rms   OT_Error      Smajor Sminor Az        Err   mdist  Mdist     Err        Err        Err      Quality

2011/10/12 14:34:41.1     48.7234    6.0091       .0 f     7    5 241  Ml 2.0  3  Md 1.9  1              js067245    265016

      1.62   +-  0.43       5.2    3.3    8.55 +-  0.0    0.25   2.05   +-0.3      +-                    m i km

FRANCE
Sta     Dist  EvAz     Phase      Date       Time     TRes  Azim  AzRes  Slow  SRes Def   SNR       Amp   Per   Mag1   Mag2       ID
PAGF  000.25 228.3 m E Pg      2011/10/12 14:34:46.0  -0.4  53.6  5.5               T                                        4773034
PAGF  000.25 228.3 m E Sg      2011/10/12 14:34:50.5   0.5                          T                                        4773030
PAGF  000.25 228.3 m E Sn      2011/10/12 14:34:57.8   0.4  38.9  -9.2              T               45.5 1.02        Md 1.9  4773035
HAU   000.75 162.4 m E Sg      2011/10/12 14:35:05.5  -0.2                          T               17.4  .44                4773033
CDF   000.90 109.8 m E Sg      2011/10/12 14:35:10.6   0.4                          T                6.8  .24 Ml 2.3         4773031
HINF  001.07 147.8 m E Sg      2011/10/12 14:35:16.1   0.6                          T                3.3  .50 Ml 1.7         4773032
LOR   002.05 225.6 m E Sg      2011/10/12 14:35:45.9  -0.2  36.1  -7.9              T                3.9  .54 Ml 2.1         4773029

.
EVENT     265000
    Date      Time       Latitude Longitude    Depth    Ndef Nsta Gap    Mag1  N    Mag2  N    Mag3  N   Author         ID
       rms   OT_Error      Smajor Sminor Az        Err   mdist  Mdist     Err        Err        Err      Quality

2011/10/12 16:25:33.1     40.9934    1.6193     20.0 f    45    5 168  Ml 2.6  6  Md 2.6  3              js067245    265020

      0.91   +-  0.15       3.0    1.8  142.75 +-  0.0    0.34   3.94   +-0.2      +-0.1                 m i ke

BALEARIC ISLANDS, SPAIN
Sta     Dist  EvAz     Phase      Date       Time     TRes  Azim  AzRes  Slow  SRes Def   SNR       Amp   Per   Mag1   Mag2       ID
MTLF  002.39 010.5 m E Pn      2011/10/12 16:26:08.9  -0.5                          T                                        4773038
MTLF  002.39 010.5 m E Pg      2011/10/12 16:26:18.0   0.5                          T                                        4770517
MTLF  002.39 010.5 m E Sg      2011/10/12 16:26:48.1  -0.2                          T                3.0  .24 Ml 2.4 Md 2.5  4770516
EPF   002.25 335.3 m E P       2011/10/12 16:26:09.5  -0.5                          T                                        4773039
EPF   002.25 335.3 m E Pg      2011/10/12 16:26:14.5  -0.5                          T                                        4770519
EPF   002.25 335.3 m E Sg      2011/10/12 16:26:44.3   0.3                          T                6.4  .23 Ml 2.7 Md 2.5  4770518
ETSF  002.50 320.2 m E P       2011/10/12 16:26:13.4  -0.4                          T                                        4773040
ETSF  002.50 320.2 m E Pg      2011/10/12 16:26:19.7   0.0                          T                                        4770515
ETSF  002.50 320.2 m E Sg      2011/10/12 16:26:51.7  -0.3                          T                9.2  .28 Ml 2.8 Md 2.7  4770514
SJPF  003.00 315.9 m E Sg      2011/10/12 16:27:07.3   0.1                          T                6.5  .30 Ml 2.8         4770513
CAF   003.94 004.6 m E Sg      2011/10/12 16:27:36.4  -0.4                          T                 .7  .19 Ml 2.2         4773037

.
EVENT     265004
    Date      Time       Latitude Longitude    Depth    Ndef Nsta Gap    Mag1  N    Mag2  N    Mag3  N   Author         ID
       rms   OT_Error      Smajor Sminor Az        Err   mdist  Mdist     Err        Err        Err      Quality

2011/10/12 18:26:12.1     42.8247    -.8175      2.0       6    3 238  Ml 1.2  1  Md 1.1  2              js067245    265024

      0.14   +-  0.28       9.1    1.4   12.69 +-  0.0    0.20   0.87   +-         +-0.1                 m i ke

PYRENEES
Sta     Dist  EvAz     Phase      Date       Time     TRes  Azim  AzRes  Slow  SRes Def   SNR       Amp   Per   Mag1   Mag2       ID
ETSF  000.20 068.7 m E Pg      2011/10/12 18:26:16.2   0.0                          T                                        4770567
ETSF  000.20 068.7 m E Sg      2011/10/12 18:26:19.1   0.0                          T               10.8  .20        Md 1.2  4770566
SJPF  000.42 314.1 m E Pg      2011/10/12 18:26:19.9  -0.1                          T                                        4770565
SJPF  000.42 314.1 m E Sg      2011/10/12 18:26:25.8   0.2                          T                 .6  .19        Md 1.0  4770564
EPF   000.87 076.0 m E Pg      2011/10/12 18:26:28.7   0.1                          T                                        4773041
EPF   000.87 076.0 m E Sg      2011/10/12 18:26:39.6  -0.3                          T                 .9  .36 Ml 1.2         4773042

.
