EVENT     254061
    Date      Time       Latitude Longitude    Depth    Ndef Nsta Gap    Mag1  N    Mag2  N    Mag3  N   Author         ID
       rms   OT_Error      Smajor Sminor Az        Err   mdist  Mdist     Err        Err        Err      Quality

2011/01/21 16:29:46.1     46.6865    -.6178      2.0      32   13 155  Ml 2.3 14  Md 2.4  3              js067245    254081

      0.13   +-  0.03        .6     .4   51.82 +-  0.0    0.34   3.12   +-0.2      +-0.0                 m i ke

FRANCE
Sta     Dist  EvAz     Phase      Date       Time     TRes  Azim  AzRes  Slow  SRes Def   SNR       Amp   Per   Mag1   Mag2       ID
MFF   000.34 104.4 m E Pg      2011/01/21 16:29:52.6   0.0                          T                                        4585255
MFF   000.34 104.4 m E Sg      2011/01/21 16:29:57.4   0.3                          T               23.1  .18        Md 2.4  4585254
GRR   001.71 354.6 m E Pg      2011/01/21 16:30:17.8  -0.1                          T                                        4585265
GRR   001.71 354.6 m E Sg      2011/01/21 16:30:40.1   0.1                          T                5.3  .16 Ml 2.5 Md 2.4  4585253
LFF   001.99 151.0 m E Pn      2011/01/21 16:30:19.0   0.0                          T                                        4585262
LFF   001.99 151.0 m E Pg      2011/01/21 16:30:23.1   0.0                          T                                        4585263
LFF   001.99 151.0 m E Sg      2011/01/21 16:30:48.6  -0.1                          T                5.9  .44 Ml 2.2         4585245
LDF   001.94 009.8 m E Pg      2011/01/21 16:30:22.1   0.0                          T                                        4585266
LDF   001.94 009.8 m E Sg      2011/01/21 16:30:46.9  -0.2                          T                4.3  .35 Ml 2.3 Md 2.4  4585252
TCF   001.99 100.5 m E Pg      2011/01/21 16:30:23.3   0.1                          T                                        4585272
TCF   001.99 100.5 m E Sg      2011/01/21 16:30:48.6  -0.3                          T                4.4  .29 Ml 2.4         4585247
RJF   002.03 132.1 m E Pg      2011/01/21 16:30:23.8   0.0                          T                                        4585264
RJF   002.03 132.1 m E Sg      2011/01/21 16:30:50.0   0.0                          T                4.0  .20 Ml 2.2         4585246
FLN   002.08 002.5 m E Pg      2011/01/21 16:30:24.6  -0.1                          T                                        4585267
FLN   002.08 002.5 m E Sg      2011/01/21 16:30:51.7   0.2                          T                5.7  .30 Ml 2.4         4585251
QUIF  002.13 306.3 m E Pg      2011/01/21 16:30:25.7   0.1                          T                                        4585268
QUIF  002.13 306.3 m E Sg      2011/01/21 16:30:52.7  -0.3                          T                2.4  .23 Ml 2.2         4585250
CAF   002.57 132.2 m E Pn      2011/01/21 16:30:26.9  -0.1                          T                                        4585261
CAF   002.57 132.2 m E Pg      2011/01/21 16:30:33.9   0.0                          T                                        4585260
CAF   002.57 132.2 m E Sg      2011/01/21 16:31:06.9   0.0                          T                3.2  .28 Ml 2.4         4585244
AVF   002.73 086.4 m E Pn      2011/01/21 16:30:29.1   0.0                          T                                        4585271
AVF   002.73 086.4 m E Sg      2011/01/21 16:31:11.9   0.1                          T                 .9  .29 Ml 1.9         4585277
BGF   002.39 091.8 m E Pg      2011/01/21 16:30:30.4  -0.1                          T                                        4585270
BGF   002.39 091.8 m E Sg      2011/01/21 16:31:01.3   0.1                          T                9.9  .28 Ml 2.8         4585248
SSF   002.85 080.9 m E Pn      2011/01/21 16:30:30.9   0.1                          T                                        4585273
SSF   002.85 080.9 m E Sg      2011/01/21 16:31:15.7   0.0                          T                1.2  .33 Ml 2.1         4585275
LOR   003.12 077.6 m E Pn      2011/01/21 16:30:34.5   0.1                          T                                        4585274
LOR   003.12 077.6 m E Sg      2011/01/21 16:31:24.0   0.0                          T                1.5  .28 Ml 2.2         4585276

.
EVENT     254062
    Date      Time       Latitude Longitude    Depth    Ndef Nsta Gap    Mag1  N    Mag2  N    Mag3  N   Author         ID
       rms   OT_Error      Smajor Sminor Az        Err   mdist  Mdist     Err        Err        Err      Quality

2011/01/21 23:12:35.0     43.0755    -.3697      2.0      33    7 102  Ml 1.9  5  Md 1.7  3              js067245    254082

      0.52   +-  0.09       2.2    1.2  170.63 +-  0.0    0.22   2.61   +-0.2      +-0.1                 m i ke

PYRENEES
Sta     Dist  EvAz     Phase      Date       Time     TRes  Azim  AzRes  Slow  SRes Def   SNR       Amp   Per   Mag1   Mag2       ID
ETSF  000.22 218.2 m E Pg      2011/01/21 23:12:39.2  -0.4                          T                                        4585291
ETSF  000.22 218.2 m E Sg      2011/01/21 23:12:42.0  -0.7                          T                9.1  .16        Md 1.7  4585288
EPF   000.52 094.7 m E Pg      2011/01/21 23:12:44.6  -0.5                          T                                        4585289
EPF   000.52 094.7 m E Sg      2011/01/21 23:12:51.7  -0.2                          T                8.7  .35        Md 1.7  4585286
SJPF  000.63 273.7 m E Pg      2011/01/21 23:12:47.5   0.5                          T                                        4585290
SJPF  000.63 273.7 m E Sg      2011/01/21 23:12:55.4   0.2                          T                1.2  .16        Md 1.6  4585287
LFF   002.03 022.9 m E Pn      2011/01/21 23:13:08.9   0.5                          T                                        4585284
LFF   002.03 022.9 m E Sg      2011/01/21 23:13:39.2   0.4                          T                2.2  .24 Ml 2.0         4585285
MTLF  001.91 081.1 m E Pg      2011/01/21 23:13:10.6   0.0                          T                                        4585281
MTLF  001.91 081.1 m E Sg      2011/01/21 23:13:35.3   0.2                          T                1.6  .23 Ml 2.0         4585282
CAF   002.55 042.7 m E Sg      2011/01/21 23:13:55.5   0.2                          T                  1  .19 Ml 2.0         4587043
RJF   002.61 030.7 m E Sg      2011/01/21 23:13:56.9   0.0                          T                1.1  .25 Ml 1.6         4585283

.
EVENT     254063
    Date      Time       Latitude Longitude    Depth    Ndef Nsta Gap    Mag1  N    Mag2  N    Mag3  N   Author         ID
       rms   OT_Error      Smajor Sminor Az        Err   mdist  Mdist     Err        Err        Err      Quality

2011/01/22 00:48:46.0     43.2196   18.7926     10.0 f   172   29 020  Ml 4.4 25                         js067245    254083

      0.92   +-  0.06       1.9    1.4   25.50 +-  0.0    0.09  18.48   +-0.4                            m i ke

NORTHWESTERN BALKAN PEN.
Sta     Dist  EvAz     Phase      Date       Time     TRes  Azim  AzRes  Slow  SRes Def   SNR       Amp   Per   Mag1   Mag2       ID
PGF   007.23 268.0 m E Pn      2011/01/22 00:50:29.2  -0.1                          T                                        4585488
PGF   007.23 268.0 m E Sn      2011/01/22 00:51:47.1   0.4                          T               34.6  .85 Ml 4.1         4585443
SBF   008.28 278.3 m E Pn      2011/01/22 00:50:43.7   0.1                          T                                        4585489
SBF   008.28 278.3 m E Sn      2011/01/22 00:52:12.6   0.8                          T              100.7  .93 Ml 4.5         4585444
MBDF  008.80 284.0 m E Pn      2011/01/22 00:50:50.9   0.0                          T                                        4585495
MBDF  008.80 284.0 m E Sn      2011/01/22 00:52:25.2   0.8                          T               39.7  .64 Ml 4.3         4585449
FRF   008.85 276.4 m E Pn      2011/01/22 00:50:51.4   0.0                          T                                        4585490
FRF   008.85 276.4 m E Sn      2011/01/22 00:52:26.0   0.6                          T              135.9 1.34 Ml 4.6         4585445
LPG   008.92 288.9 m E Pn      2011/01/22 00:50:52.8   0.0                          T                                        4585492
LPG   008.92 288.9 m E Sn      2011/01/22 00:52:28.2   0.7                          T              117.7  .98 Ml 4.6         4585446
LMR   008.96 274.9 m E Pn      2011/01/22 00:50:52.9   0.0                          T                                        4585487
LMR   008.96 274.9 m E Sn      2011/01/22 00:52:28.7   0.7                          T                2.3  .35 Ml 3.4         4585442
LPL   008.94 289.0 m E Pn      2011/01/22 00:50:53.0   0.1                          T                                        4585493
LPL   008.94 289.0 m E Sn      2011/01/22 00:52:28.4   0.6                          T               99.1  .74 Ml 4.7         4585447
ORIF  009.45 284.8 m E Pn      2011/01/22 00:50:59.7   0.0                          T                                        4585494
ORIF  009.45 284.8 m E Sn      2011/01/22 00:52:40.4   0.5                          T               53.9  .72 Ml 4.5         4585448
HINF  009.56 302.9 m E Pn      2011/01/22 00:51:01.2   0.1                          T                                        4585479
HINF  009.56 302.9 m E Sn      2011/01/22 00:52:43.1   0.8                          T               29.8  .60 Ml 4.4         4585455
LANF  009.56 310.9 m E Pn      2011/01/22 00:51:01.2   0.2                          T                                        4585472
CDF   009.57 306.8 m E Pn      2011/01/22 00:51:01.3   0.0                          T                                        4585473
CDF   009.57 306.8 m E Sn      2011/01/22 00:52:43.7   1.0                          T               76.5 1.20 Ml 4.6         4585460
SMRF  009.62 279.0 m E Pn      2011/01/22 00:51:02.0   0.1                          T                                        4585486
CABF  009.63 295.0 m E Pn      2011/01/22 00:51:02.2   0.1                          T                                        4585480
CABF  009.63 295.0 m E Sn      2011/01/22 00:52:44.6   0.5                          T              123.0 1.32 Ml 4.6         4585454
HAU   009.94 303.1 m E Pn      2011/01/22 00:51:06.4   0.1                          T                                        4585478
HAU   009.94 303.1 m E Sn      2011/01/22 00:52:51.9   0.4                          T               81.9  .92 Ml 4.4         4585456
THEF  010.25 303.7 m E Pn      2011/01/22 00:51:10.7   0.3                          T                                        4585477
THEF  010.25 303.7 m E Sn      2011/01/22 00:52:59.9   1.0                          T               50.1 1.00 Ml 4.5         4585457
VIVF  010.30 284.0 m E Pn      2011/01/22 00:51:11.0  -0.1                          T                                        4585491
VIVF  010.30 284.0 m E Sn      2011/01/22 00:53:01.0   0.9                          T               12.8  .73 Ml 4.0         4585450
RUP   010.36 312.8 m E Pn      2011/01/22 00:51:12.1   0.1                          T                                        4585471
RUP   010.36 312.8 m E Sn      2011/01/22 00:53:02.7   1.1                          T                                        4585462
PAGF  010.55 304.9 m E Pn      2011/01/22 00:51:14.8   0.2 123.7  8.2               T                                        4585474
PAGF  010.55 304.9 m E Sn      2011/01/22 00:53:06.6   0.5                          T                8.6  .80 Ml 3.8         4585459
SFTF  010.83 302.2 m E Pn      2011/01/22 00:51:18.2  -0.1 120.6  8.3               T                                        4585476
LASF  010.86 279.6 m E Pn      2011/01/22 00:51:18.6  -0.2                          T                                        4585485
MEZF  010.94 303.6 m E Pn      2011/01/22 00:51:20.0   0.2 125.4  11.6              T                                        4585475
MEZF  010.94 303.6 m E Sn      2011/01/22 00:53:16.2   1.0                          T              149.5 1.66 Ml 4.8         4585458
SMF   011.14 293.1 m E Pn      2011/01/22 00:51:22.6   0.1                          T                                        4585482
SMF   011.14 293.1 m E Sn      2011/01/22 00:53:21.0   0.9                          T               12.6  .66 Ml 4.2         4585452
LOR   011.28 296.2 m E Pn      2011/01/22 00:51:24.5   0.1 115.9  10.3              T                                        4585470
LOR   011.28 296.2 m E Sn      2011/01/22 00:53:24.3   0.9                          T               32.9  .90 Ml 4.5         4585465
SSF   011.46 294.9 m E Pn      2011/01/22 00:51:26.8  -0.1                          T                                        4585469
SSF   011.46 294.9 m E Sn      2011/01/22 00:53:28.4   0.7                          T               33.1  .98 Ml 4.5         4585464
AVF   011.50 293.4 m E Pn      2011/01/22 00:51:27.5   0.0                          T                                        4585481
AVF   011.50 293.4 m E Sn      2011/01/22 00:53:29.4   0.8                          T               22.5  .84 Ml 4.4         4585453
GIVF  011.80 310.5 m E Pn      2011/01/22 00:51:31.5   0.0                          T                                        4585467
BGF   011.79 291.9 m E Pn      2011/01/22 00:51:31.6   0.2                          T                                        4585484
BGF   011.79 291.9 m E Sn      2011/01/22 00:53:36.6   0.9                          T               68.7 1.06 Ml 4.8         4585451
BAIF  012.12 309.4 m E Pn      2011/01/22 00:51:35.9  -0.1                          T                                        4585466
TCF   012.18 290.3 m E Pn      2011/01/22 00:51:36.7  -0.1                          T                                        4585468
TCF   012.18 290.3 m E Sn      2011/01/22 00:53:45.7   0.7                          T              109.2 1.68 Ml 4.9         4585463

.
EVENT     254103
    Date      Time       Latitude Longitude    Depth    Ndef Nsta Gap    Mag1  N    Mag2  N    Mag3  N   Author         ID
       rms   OT_Error      Smajor Sminor Az        Err   mdist  Mdist     Err        Err        Err      Quality

2011/01/22 01:02:03.1     43.1447   18.7476     10.0 f    58    9 038  Ml 3.3  3                         js067245    254123

      0.67   +-  0.08       2.4    1.8   22.88 +-  0.0    0.13  10.29   +-0.2                            m i ke

NORTHWESTERN BALKAN PEN.
Sta     Dist  EvAz     Phase      Date       Time     TRes  Azim  AzRes  Slow  SRes Def   SNR       Amp   Per   Mag1   Mag2       ID
PGF   007.19 268.6 m E Pn      2011/01/22 01:03:46.0   0.0                          T                                        4587059
MBDF  008.79 284.5 m E Pn      2011/01/22 01:04:08.2   0.4                          T                                        4587051
LPG   008.92 289.4 m E Pn      2011/01/22 01:04:09.5  -0.2                          T                                        4587056
LPG   008.92 289.4 m E P       2011/01/22 01:04:15.2  -0.3                          T                                        4587057
LPG   008.92 289.4 m E Sn      2011/01/22 01:05:45.1   0.7                          T                4.4  .47 Ml 3.5         4587049
LPL   008.93 289.5 m E Pn      2011/01/22 01:04:09.9   0.0                          T                                        4587054
LPL   008.93 289.5 m E P       2011/01/22 01:04:15.5  -0.1                          T                                        4587055
LPL   008.93 289.5 m E Sn      2011/01/22 01:05:45.2   0.4                          T                2.7  .41 Ml 3.4         4587048
FRF   008.83 276.8 m E P       2011/01/22 01:04:13.9   0.0                          T                                        4587058
ORIF  009.44 285.2 m E Pn      2011/01/22 01:04:16.4  -0.2                          T                                        4587052
ORIF  009.44 285.2 m E P       2011/01/22 01:04:22.7   0.2                          T                                        4587053
HINF  009.57 303.3 m E Pn      2011/01/22 01:04:18.2  -0.2                          T                                        4587046
VIVF  010.29 284.4 m E Pn      2011/01/22 01:04:28.4   0.3                          T                                        4587050
HAU   009.96 303.5 m E Sn      2011/01/22 01:06:09.3   0.3                          T                1.0  .28 Ml 3.1         4587047

.
EVENT     254072
    Date      Time       Latitude Longitude    Depth    Ndef Nsta Gap    Mag1  N    Mag2  N    Mag3  N   Author         ID
       rms   OT_Error      Smajor Sminor Az        Err   mdist  Mdist     Err        Err        Err      Quality

2011/01/22 02:30:08.9     44.8307    6.7062      2.0      18    8 148  Ml 1.3  4  Md 1.3  3              js067245    254092

      0.31   +-  0.08       1.9    1.2   80.42 +-  0.0    0.11   1.50   +-0.2      +-0.1                 m i ke

FRANCE
Sta     Dist  EvAz     Phase      Date       Time     TRes  Azim  AzRes  Slow  SRes Def   SNR       Amp   Per   Mag1   Mag2       ID
MBDF  000.11 155.9 m E Pg      2011/01/22 02:30:10.9  -0.7                          T                                        4585513
MBDF  000.11 155.9 m E Sg      2011/01/22 02:30:12.5  -0.8                          T               12.1  .21        Md 1.3  4585506
ORIF  000.59 278.8 m E Pg      2011/01/22 02:30:20.4   0.1                          T                                        4585512
ORIF  000.59 278.8 m E Sg      2011/01/22 02:30:27.3  -0.7                          T                1.6  .21        Md 1.3  4585509
LPG   000.67 002.7 m E Pg      2011/01/22 02:30:21.7  -0.2                          T                                        4585511
LPG   000.67 002.7 m E Sg      2011/01/22 02:30:30.6   0.0                          T                1.4  .27                4585508
LPL   000.69 001.5 m E Pg      2011/01/22 02:30:22.3   0.1                          T                                        4585504
LPL   000.69 001.5 m E Sg      2011/01/22 02:30:31.3   0.2                          T                1.1  .27        Md 1.1  4585507
SBF   001.10 151.3 m E Pg      2011/01/22 02:30:29.5   0.0                          T                                        4585503
SBF   001.10 151.3 m E Sg      2011/01/22 02:30:43.5  -0.3                          T                 .6  .24 Ml 1.3         4585498
SMRF  001.18 223.9 m E Pg      2011/01/22 02:30:31.1   0.2                          T                                        4585501
SMRF  001.18 223.9 m E Sg      2011/01/22 02:30:46.6   0.4                          T                 .3  .24 Ml 1           4585500
FRF   001.27 181.9 m E Pg      2011/01/22 02:30:32.9   0.3                          T                                        4585510
FRF   001.27 181.9 m E Sg      2011/01/22 02:30:48.9  -0.1                          T                 .5  .15 Ml 1.5         4585505
LMR   001.50 185.5 m E Pg      2011/01/22 02:30:36.8  -0.1                          T                                        4585502
LMR   001.50 185.5 m E Sg      2011/01/22 02:30:56.3   0.0                          T                 .5  .28 Ml 1.3         4585499

.
