EVENT     291711
    Date      Time       Latitude Longitude    Depth    Ndef Nsta Gap    Mag1  N    Mag2  N    Mag3  N   Author         ID
       rms   OT_Error      Smajor Sminor Az        Err   mdist  Mdist     Err        Err        Err      Quality

2013/02/07 23:19:09.3     53.4078    6.5299      3.0 f   142   31 060  Ml 3.5 32  Md 3.5  2              bulletin    291811
                                                                                                         _ldg
      0.75   +-  0.07       1.8    1.3  111.86 +-  0.0    0.03  11.17   +-0.3      +-0.0                 m i si

THE NETHERLANDS
Sta     Dist  EvAz     Phase      Date       Time     TRes  Azim  AzRes  Slow  SRes Def   SNR       Amp   Per   Mag1   Mag2       ID
GIVF  003.48 198.4 m E Pn      2013/02/07 23:20:02.8   0.5                          T   001.0                                5191432
GIVF  003.48 198.4 m E Sn      2013/02/07 23:20:41.9   0.4                          T                                        5191481
GIVF  003.48 198.4 m E Sg      2013/02/07 23:20:58.7   0.4                          T               57.0  .47 Ml 3.6 Md 3.5  5191480
BAIF  003.65 204.2 m E Pn      2013/02/07 23:20:05.1   0.5                          T   001.0                                5191430
BAIF  003.65 204.2 m E Sn      2013/02/07 23:20:45.4  -0.3                          T                                        5191483
BAIF  003.65 204.2 m E Sg      2013/02/07 23:21:03.3  -0.4                          T               67.5  .80 Ml 3.5 Md 3.5  5191482
PAGF  004.89 186.3 m E Pn      2013/02/07 23:20:21.6   0.1                          T                                        5191494
PAGF  004.89 186.3 m E Pg      2013/02/07 23:20:39.4  -0.2                          T                                        5191453
PAGF  004.89 186.3 m E Sg      2013/02/07 23:21:42.9   0.7   3.9  -1.7              T              115.4  .78 Ml 4.0         5191478
MEZF  005.00 191.4 m E Pn      2013/02/07 23:20:23.0   0.0   9.5  -0.7              T   001.0                                5191433
MEZF  005.00 191.4 m E Sn      2013/02/07 23:21:18.8   0.9   9.6  -0.7              T                                        5191477
MEZF  005.00 191.4 m E Sg      2013/02/07 23:21:45.6  -0.2                          T               35.9  .73 Ml 3.6         5191476
CDF   005.02 174.3 m E Pn      2013/02/07 23:20:23.3  -0.2                          T   001.0                                5191415
CDF   005.02 174.3 m E Pg      2013/02/07 23:20:42.9   0.7                          T                                        5191452
CDF   005.02 174.3 m E Sn      2013/02/07 23:21:19.3   0.7                          T   001.0        9.8  .60 Ml 3.2         5191416
CDF   005.02 174.3 m E Sg      2013/02/07 23:21:47.4   0.7                          T               12.6  .55 Ml 3.3         5191479
SFTF  005.29 190.9 m E Pn      2013/02/07 23:20:27.7   0.6   9.5  -0.2              T                                        5191493
SFTF  005.29 190.9 m E Pg      2013/02/07 23:20:46.8  -0.3                          T                                        5191455
SFTF  005.29 190.9 m E Sn      2013/02/07 23:21:25.1   0.1                          T                                        5191475
SFTF  005.29 190.9 m E Sg      2013/02/07 23:21:55.2   0.1                          T                7.3  .30 Ml 3.3         5191474
HAU   005.41 181.3 m E Pn      2013/02/07 23:20:28.4  -0.2                          T                                        5191492
HAU   005.41 181.3 m E Pg      2013/02/07 23:20:49.4   0.1                          T                                        5191454
HAU   005.41 181.3 m E Sg      2013/02/07 23:21:59.6   0.9                          T                8.5  .40 Ml 3.1         5191473
HINF  005.60 177.8 m E Pn      2013/02/07 23:20:32.0   0.7                          T                                        5191491
HINF  005.60 177.8 m E Pg      2013/02/07 23:20:53.8   0.9                          T                                        5191472
HINF  005.60 177.8 m E Sg      2013/02/07 23:22:04.7   0.1                          T                6.8  .53 Ml 3.1         5191471
LDF   006.39 223.7 m E Pn      2013/02/07 23:20:41.2  -0.8                          T   001.0                                5191420
LDF   006.39 223.7 m E Pg      2013/02/07 23:21:06.3  -1.0                          T                                        5191451
LDF   006.39 223.7 m E Sn      2013/02/07 23:21:51.4   0.3                          T   001.0        9.2  .52 Ml 3.4         5191421
LDF   006.39 223.7 m E Sg      2013/02/07 23:22:28.1  -1.1                          T                5.3  .35 Ml 3.3         5191456
FLN   006.41 226.3 m E Pn      2013/02/07 23:20:41.7  -0.5  43.7  2.8               T   001.0                                5191417
FLN   006.41 226.3 m E Sn      2013/02/07 23:21:52.0   0.3                          T   001.0       12.3  .40 Ml 3.5         5191418
FLN   006.41 226.3 m E Sg      2013/02/07 23:22:28.7  -1.2                          T                5.2  .33 Ml 3.2         5191457
LOR   006.38 196.6 m E Pn      2013/02/07 23:20:41.8   0.0  21.5  7.0               T   001.0                                5191423
LOR   006.38 196.6 m E Sn      2013/02/07 23:21:50.8  -0.2                          T   001.0        7.5  .44 Ml 3.4         5191424
LOR   006.38 196.6 m E Sg      2013/02/07 23:22:29.1   0.2                          T               32.4  .83 Ml 3.8         5191485
HYF   006.63 203.6 m E Pn      2013/02/07 23:20:45.0  -0.2                          T                                        5191490
HYF   006.63 203.6 m E Sn      2013/02/07 23:21:56.9   0.0                          T                                        5191462
SSF   006.64 198.2 m E Pn      2013/02/07 23:20:45.1  -0.3                          T   001.0                                5191427
SSF   006.64 198.2 m E Sn      2013/02/07 23:21:57.2   0.0                          T   001.0        7.7  .60 Ml 3.4         5191428
SSF   006.64 198.2 m E Sg      2013/02/07 23:22:36.9  -0.2                          T               17.7  .72 Ml 3.7         5191484
GRR   006.86 225.9 m E Pn      2013/02/07 23:20:47.8  -0.5                          T   001.0                                5191419
GRR   006.86 225.9 m E Sn      2013/02/07 23:22:01.3  -1.1                          T                                        5191470
GRR   006.86 225.9 m E Sg      2013/02/07 23:22:42.5  -1.3                          T                8.4  .39 Ml 3.4         5191469
CABF  006.81 182.6 m E Pn      2013/02/07 23:20:47.8   0.0                          T   001.0                                5191431
CABF  006.81 182.6 m E Sn      2013/02/07 23:22:01.8   0.5                          T                7.7  .61 Ml 3.3         5191450
AVF   006.93 198.4 m E Pn      2013/02/07 23:20:49.1  -0.2                          T   001.0                                5191412
AVF   006.93 198.4 m E Sn      2013/02/07 23:22:03.4  -0.6                          T                2.1  .36 Ml 3.0         5191464
SMF   006.99 195.4 m E Pn      2013/02/07 23:20:49.8  -0.3                          T   001.0                                5191426
SMF   006.99 195.4 m E Sn      2013/02/07 23:22:05.6   0.2                          T                6.1  .56 Ml 3.3         5191463
BGF   007.26 200.5 m E Pn      2013/02/07 23:20:53.6  -0.2                          T   001.0                                5191413
BGF   007.26 200.5 m E Sn      2013/02/07 23:22:11.2  -0.6                          T   001.0       13.0  .41 Ml 3.8         5191414
TCF   007.65 203.1 m E Pn      2013/02/07 23:20:59.0  -0.2                          T   001.0                                5191429
TCF   007.65 203.1 m E Sn      2013/02/07 23:22:20.9  -0.5                          T                3.2  .45 Ml 3.3         5191465
SGMF  007.72 231.7 m E Pn      2013/02/07 23:20:59.3  -0.8                          T   001.0                                5191436
SGMF  007.72 231.7 m E Sn      2013/02/07 23:22:23.2   0.1                          T   001.0        4.0  .30 Ml 3.5         5191437
ROSF  008.01 234.6 m E Pn      2013/02/07 23:21:02.9  -1.1                          T                                        5191467
ROSF  008.01 234.6 m E Sn      2013/02/07 23:22:30.0   0.2                          T               14.4  .40 Ml 4.0         5191468
LPG   007.92 178.9 m E Pn      2013/02/07 23:21:03.0  -0.1                          T                                        5191486
MFF   008.05 214.9 m E Pn      2013/02/07 23:21:04.1  -0.4                          T   001.0                                5191425
MFF   008.05 214.9 m E Sn      2013/02/07 23:22:30.5  -0.4                          T                9.0  .53 Ml 3.8         5191466
QUIF  008.25 232.1 m E Pn      2013/02/07 23:21:06.2  -1.1                          T   001.0                                5191434
QUIF  008.25 232.1 m E Sn      2013/02/07 23:22:34.8  -0.8                          T   001.0       11.7  .56 Ml 3.8         5191435
ORIF  008.51 183.1 m E Pn      2013/02/07 23:21:10.9   0.0                          T                                        5191459
RJF   008.74 203.9 m E Pn      2013/02/07 23:21:13.4  -0.6                          T   001.0                                5191411
RJF   008.74 203.9 m E Sn      2013/02/07 23:22:46.7  -0.7                          T                3.0  .36 Ml 3.1         5191461
MBDF  008.69 178.9 m E Pn      2013/02/07 23:21:13.8   0.3                          T                                        5198064
CAF   008.98 200.8 m E Pn      2013/02/07 23:21:16.8  -0.4                          T                                        5191489
LFF   009.28 206.4 m E Pn      2013/02/07 23:21:20.7  -0.6                          T   001.0                                5191422
LFF   009.28 206.4 m E Sn      2013/02/07 23:22:58.6  -1.6                          T                3.1  .28 Ml 3.5         5191460
MTLF  010.47 197.6 m E Pn      2013/02/07 23:21:37.3  -0.2                          T                                        5191487
EPF   011.17 204.1 m E Pn      2013/02/07 23:21:46.3  -0.8                          T                                        5191488

.
EVENT     291712
    Date      Time       Latitude Longitude    Depth    Ndef Nsta Gap    Mag1  N    Mag2  N    Mag3  N   Author         ID
       rms   OT_Error      Smajor Sminor Az        Err   mdist  Mdist     Err        Err        Err      Quality

2013/02/08 01:15:02.1     44.5495    7.2212      2.0      86   25 047  Ml 2.7 21  Md 2.7  2              bulletin    291812
                                                                                                         _ldg
      0.73   +-  0.08       2.1    1.4   75.20 +-  0.0    0.05   5.88   +-0.5      +-0.0                 m i ke

NORTHERN ITALY
Sta     Dist  EvAz     Phase      Date       Time     TRes  Azim  AzRes  Slow  SRes Def   SNR       Amp   Per   Mag1   Mag2       ID
MBDF  000.37 299.1 m E Pg      2013/02/08 01:15:09.3  -0.1                          T                                        5191584
MBDF  000.37 299.1 m E Sg      2013/02/08 01:15:14.5   0.2                          T              269.1  .26        Md 2.7  5191580
SBF   000.70 167.3 m E Pg      2013/02/08 01:15:15.5   0.0                          T   001.0                                5191511
SBF   000.70 167.3 m E Sg      2013/02/08 01:15:24.8   0.1                          T   001.0       53.3  .19        Md 2.7  5191512
LPG   001.00 340.8 m E Pg      2013/02/08 01:15:21.4   0.1                          T                                        5191586
LPG   001.00 340.8 m E Sg      2013/02/08 01:15:34.1  -0.2                          T              102.6  .38 Ml 3.2         5191583
ORIF  001.02 291.6 m E Pg      2013/02/08 01:15:21.4   0.0                          T                                        5191585
ORIF  001.02 291.6 m E Sg      2013/02/08 01:15:34.2  -0.6                          T               42.2  .22 Ml 3.1         5191581
LPL   001.03 340.4 m E Pg      2013/02/08 01:15:21.8   0.2                          T                                        5191587
LPL   001.03 340.4 m E Sg      2013/02/08 01:15:34.8  -0.2                          T               63.5  .34 Ml 3.1         5191582
FRF   001.07 202.9 m E Pg      2013/02/08 01:15:21.8  -0.3                          T   001.0                                5191499
FRF   001.07 202.9 m E Sg      2013/02/08 01:15:35.7  -0.4                          T   001.0       90.3  .22 Ml 3.5         5191500
LMR   001.32 203.2 m E Pg      2013/02/08 01:15:26.4  -0.4                          T   001.0                                5191505
LMR   001.32 203.2 m E Sg      2013/02/08 01:15:43.4  -0.4                          T   001.0       71.2  .18 Ml 3.6         5191506
SMRF  001.31 244.7 m E Pg      2013/02/08 01:15:27.6   0.9                          T                                        5191576
SMRF  001.31 244.7 m E Sg      2013/02/08 01:15:46.5   2.8                          T              139.2  .40 Ml 3.5         5191575
VIVF  001.84 280.5 m E Pg      2013/02/08 01:15:34.8  -1.6                          T   001.0                                5191524
VIVF  001.84 280.5 m E Sg      2013/02/08 01:16:01.1   1.0                          T               12.0  .50 Ml 2.6         5191574
PGF   002.38 146.5 m E Pn      2013/02/08 01:15:40.3  -0.2                          T                                        5191577
PGF   002.38 146.5 m E Sn      2013/02/08 01:16:07.7  -0.9                          T   001.0        6.2  .23 Ml 3.0         5191510
CABF  002.21 339.3 m E P       2013/02/08 01:15:40.4  -0.1                          T   001.0                                5191518
CABF  002.21 339.3 m E Sn      2013/02/08 01:16:03.5  -0.9                          T   001.0        2.9  .25 Ml 2.3         5191519
LASF  002.46 260.1 m E P       2013/02/08 01:15:43.1  -0.8                          T   001.0                                5191503
LASF  002.46 260.1 m E Sn      2013/02/08 01:16:10.2  -0.1                          T   001.0        1.7  .20 Ml 2.2         5191504
SMF   003.17 312.6 m E P       2013/02/08 01:15:53.8  -0.2                          T   001.0                                5191513
SMF   003.17 312.6 m E Sn      2013/02/08 01:16:26.8  -0.3                          T                                        5191570
SMF   003.17 312.6 m E Sg      2013/02/08 01:16:41.5   0.1                          T                1.7  .22 Ml 2.4         5191569
HINF  003.28 355.7 m E P       2013/02/08 01:15:54.4  -1.3                          T   001.0                                5191520
HINF  003.28 355.7 m E Sn      2013/02/08 01:16:28.4  -1.4                          T   001.0        1.5  .26 Ml 2.2         5191521
HAU   003.51 350.4 m E P       2013/02/08 01:15:57.8  -1.2                          T                                        5191579
HAU   003.51 350.4 m E Sn      2013/02/08 01:16:34.7  -0.7                          T   001.0        2.1  .22 Ml 2.3         5191502
AVF   003.52 310.9 m E P       2013/02/08 01:15:59.0   0.0                          T   001.0                                5191495
LOR   003.59 320.4 m E P       2013/02/08 01:16:00.0  -0.1 139.6  1.7               T   001.0                                5191507
LOR   003.59 320.4 m E Sn      2013/02/08 01:16:37.8   0.5 141.2  3.2               T   001.0        2.0  .35 Ml 2.3         5191508
SSF   003.61 315.3 m E P       2013/02/08 01:16:00.5   0.1                          T   001.0                                5191514
SSF   003.61 315.3 m E Sn      2013/02/08 01:16:38.6   0.7                          T   001.0        1.4  .27 Ml 2.4         5191515
CAF   003.69 277.7 m E P       2013/02/08 01:16:00.5  -1.1                          T   001.0                                5191497
CAF   003.69 277.7 m E Sn      2013/02/08 01:16:39.8   0.0                          T                1.4  .25 Ml 2.3         5191572
BGF   003.67 304.7 m E P       2013/02/08 01:16:00.9  -0.3                          T   001.0                                5191496
BGF   003.67 304.7 m E Sn      2013/02/08 01:16:39.1  -0.1                          T                2.1  .25 Ml 2.5         5191571
MTLF  003.81 253.3 m E P       2013/02/08 01:16:02.3  -0.9                          T                                        5191573
CDF   003.86 000.5 m E P       2013/02/08 01:16:03.7  -0.3                          T   001.0                                5191498
CDF   003.86 000.5 m E Sn      2013/02/08 01:16:43.7  -0.2                          T                 .8  .20 Ml 2.3         5191566
TCF   003.93 298.0 m E P       2013/02/08 01:16:04.6  -0.3                          T   001.0                                5191516
SFTF  003.96 338.3 m E P       2013/02/08 01:16:05.1  -0.1 156.3  -0.4              T                                        5191578
SFTF  003.96 338.3 m E Sn      2013/02/08 01:16:45.5  -0.5                          T                                        5191567
SFTF  003.96 338.3 m E S       2013/02/08 01:16:51.7  -1.2                          T                2.7  .27                5191568
BAIF  005.88 340.7 m E P       2013/02/08 01:16:32.0  -0.5                          T   001.0                                5191517

.
EVENT     291750
    Date      Time       Latitude Longitude    Depth    Ndef Nsta Gap    Mag1  N    Mag2  N    Mag3  N   Author         ID
       rms   OT_Error      Smajor Sminor Az        Err   mdist  Mdist     Err        Err        Err      Quality

2013/02/08 02:00:09.0     48.0244    7.3851     12.0 f    16    6 054  Ml 1.7  3                         bulletin    291850
                                                                                                         _ldg
      0.27   +-  0.05       1.2     .8  165.08 +-  0.0    0.24   1.67   +-0.2                            m i ke

FRANCE
Sta     Dist  EvAz     Phase      Date       Time     TRes  Azim  AzRes  Slow  SRes Def   SNR       Amp   Per   Mag1   Mag2       ID
CDF   000.39 349.4 m E Pg      2013/02/08 02:00:16.8  -0.1                          T                                        5192334
CDF   000.39 349.4 m E Sg      2013/02/08 02:00:22.1  -0.3                          T                 .5  .16                5192335
HINF  000.41 240.1 m E Pg      2013/02/08 02:00:17.1  -0.1                          T                                        5192328
HINF  000.41 240.1 m E Sg      2013/02/08 02:00:22.7  -0.1                          T                 .6  .19                5192329
HAU   000.70 268.8 m E Pg      2013/02/08 02:00:22.4   0.1                          T                                        5192327
HAU   000.70 268.8 m E Sg      2013/02/08 02:00:31.7   0.2                          T                2.2  .28                5192326
PAGF  001.23 296.2 m E Pn      2013/02/08 02:00:30.4   0.0                          T                                        5192333
PAGF  001.23 296.2 m E Sn      2013/02/08 02:00:46.1   0.1                          T                1.2  .21 Ml 1.7         5192332
MEZF  001.63 287.9 m E Pn      2013/02/08 02:00:35.9   0.0                          T                                        5192330
MEZF  001.63 287.9 m E Sn      2013/02/08 02:00:55.2  -0.3                          T                1.2  .23 Ml 1.8         5192331
CABF  001.67 212.5 m E Pn      2013/02/08 02:00:36.6   0.2                          T                                        5192324
CABF  001.67 212.5 m E Pg      2013/02/08 02:00:40.3   0.1                          T                                        5192325
CABF  001.67 212.5 m E Sg      2013/02/08 02:01:01.7   0.0                          T                 .5  .21 Ml 1.5         5192323

.
