EVENT     257330
    Date      Time       Latitude Longitude    Depth    Ndef Nsta Gap    Mag1  N    Mag2  N    Mag3  N   Author         ID
       rms   OT_Error      Smajor Sminor Az        Err   mdist  Mdist     Err        Err        Err      Quality

2011/03/19 01:21:39.0     38.4083   11.2396      2.0      29   12 330  Ml 3.7 14                         js067245    257330

      0.33   +-  0.28       7.4    4.8   60.09 +-  0.0    4.47   8.42   +-0.3                            m i ke

SICILY, ITALY
Sta     Dist  EvAz     Phase      Date       Time     TRes  Azim  AzRes  Slow  SRes Def   SNR       Amp   Per   Mag1   Mag2       ID
PGF   004.47 338.3 m E Pn      2011/03/19 01:22:45.1  -0.7                          T                                        4661707
PGF   004.47 338.3 m E Sn      2011/03/19 01:23:35.3   0.0                          T               31.7  .26 Ml 4.1         4661701
LMR   006.09 325.4 m E Pn      2011/03/19 01:23:06.5  -1.1                          T                                        4661706
LMR   006.09 325.4 m E Sn      2011/03/19 01:24:13.6  -0.1                          T               20.1  .26 Ml 4.0         4661689
SBF   006.16 333.4 m E Pn      2011/03/19 01:23:07.4  -1.3                          T                                        4661704
SBF   006.16 333.4 m E Sn      2011/03/19 01:24:15.6   0.0                          T               76.0  .52 Ml 4.3         4661688
FRF   006.21 327.4 m E Pn      2011/03/19 01:23:08.3  -1.0                          T                                        4661705
FRF   006.21 327.4 m E Sn      2011/03/19 01:24:16.6  -0.1                          T               12.2  .32 Ml 3.8         4661690
SMRF  007.01 324.3 m E Pn      2011/03/19 01:23:20.3   0.1                          T                                        4661699
SMRF  007.01 324.3 m E Sn      2011/03/19 01:24:35.8  -0.1                          T                6.1  .44 Ml 3.4         4661691
MBDF  007.15 333.5 m E Pn      2011/03/19 01:23:23.5   1.3                          T                                        4661703
MBDF  007.15 333.5 m E Sn      2011/03/19 01:24:40.1   0.9                          T               17.0  .42 Ml 3.9         4661694
ORIF  007.64 330.1 m E Pn      2011/03/19 01:23:29.3   0.4                          T                                        4661702
ORIF  007.64 330.1 m E Sn      2011/03/19 01:24:51.2   0.2                          T                3.9  .34 Ml 3.4         4661693
LPG   007.83 336.2 m E Pn      2011/03/19 01:23:31.9   0.1                          T                                        4661698
LPG   007.83 336.2 m E Sn      2011/03/19 01:24:55.7  -0.2                          T                5.5  .68 Ml 3.3         4661692
LPL   007.85 336.2 m E Pn      2011/03/19 01:23:32.0   0.0                          T                                        4661700
LASF  007.93 317.9 m E Pn      2011/03/19 01:23:33.3   0.5                          T                                        4661696
LASF  007.93 317.9 m E Sn      2011/03/19 01:24:57.7  -0.3                          T                5.6  .51 Ml 3.5         4661687
VIVF  008.10 324.8 m E Pn      2011/03/19 01:23:35.1   0.0                          T                                        4661697
VIVF  008.10 324.8 m E Sn      2011/03/19 01:25:01.8  -0.2                          T                3.7  .44 Ml 3.4         4661685
MTLF  008.42 308.6 m E Pn      2011/03/19 01:23:39.6   0.2                          T                                        4661695
MTLF  008.42 308.6 m E Sn      2011/03/19 01:25:09.5  -0.2                          T                7.4  .38 Ml 3.8         4661686

.
EVENT     257331
    Date      Time       Latitude Longitude    Depth    Ndef Nsta Gap    Mag1  N    Mag2  N    Mag3  N   Author         ID
       rms   OT_Error      Smajor Sminor Az        Err   mdist  Mdist     Err        Err        Err      Quality

2011/03/19 08:24:52.0     43.4561    -.5724      2.0      93   17 087  Ml 2.8 18  Md 2.7  3              js067245    257331

      0.48   +-  0.05       1.5     .8  125.97 +-  0.0    0.38   4.94   +-0.2      +-0.0                 m i ke

PYRENEES
Sta     Dist  EvAz     Phase      Date       Time     TRes  Azim  AzRes  Slow  SRes Def   SNR       Amp   Per   Mag1   Mag2       ID
ETSF  000.56 179.0 m E Pg      2011/03/19 08:25:02.1  -0.5                          T                                        4661808
ETSF  000.56 179.0 m E Sg      2011/03/19 08:25:09.7  -0.3                          T               46.1  .20        Md 2.7  4661805
SJPF  000.59 234.5 m E Pg      2011/03/19 08:25:02.6  -0.5                          T                                        4661809
SJPF  000.59 234.5 m E Sg      2011/03/19 08:25:09.3  -1.5                          T               28.5  .24        Md 2.7  4661804
EPF   000.79 122.2 m E Pg      2011/03/19 08:25:06.8  -0.1                          T                                        4661807
EPF   000.79 122.2 m E Sg      2011/03/19 08:25:18.4   1.2                          T               53.3  .26        Md 2.7  4661806
LFF   001.76 032.0 m E Pn      2011/03/19 08:25:21.6  -0.1                          T                                        4661779
LFF   001.76 032.0 m E Pg      2011/03/19 08:25:25.1   0.4                          T                                        4661802
LFF   001.76 032.0 m E Sg      2011/03/19 08:25:47.4   0.1                          T               24.8  .36 Ml 2.8         4661770
MTLF  002.04 092.3 m E Pn      2011/03/19 08:25:25.2  -0.3                          T                                        4661777
MTLF  002.04 092.3 m E Pg      2011/03/19 08:25:29.9   0.1                          T                                        4661799
MTLF  002.04 092.3 m E Sg      2011/03/19 08:25:56.3   0.2                          T               14.8  .38 Ml 2.8         4661772
RJF   002.38 038.3 m E Pn      2011/03/19 08:25:29.4  -0.8                          T                                        4661780
RJF   002.38 038.3 m E Pg      2011/03/19 08:25:36.4   0.3                          T                                        4661803
RJF   002.38 038.3 m E Sg      2011/03/19 08:26:07.1   0.4                          T               10.5  .30 Ml 2.5         4661769
CAF   002.40 051.3 m E Pn      2011/03/19 08:25:30.0  -0.5                          T                                        4661778
CAF   002.40 051.3 m E Pg      2011/03/19 08:25:36.5  -0.1                          T                                        4661801
CAF   002.40 051.3 m E Sg      2011/03/19 08:26:07.7   0.3                          T                6.9  .22 Ml 2.8         4661771
MFF   003.16 005.3 m E Pn      2011/03/19 08:25:40.5  -0.3                          T                                        4661781
MFF   003.16 005.3 m E Pg      2011/03/19 08:25:50.8   0.2                          T                                        4661800
MFF   003.16 005.3 m E Sg      2011/03/19 08:26:31.5   0.4                          T                5.7  .28 Ml 2.9         4661768
LASF  003.27 077.5 m E Pn      2011/03/19 08:25:41.8  -0.5                          T                                        4661775
LASF  003.27 077.5 m E Pg      2011/03/19 08:25:52.9   0.4                          T                                        4661798
LASF  003.27 077.5 m E Sg      2011/03/19 08:26:34.8   0.3                          T                3.1  .25 Ml 2.6         4661773
TCF   003.45 034.0 m E Pn      2011/03/19 08:25:43.5  -1.3                          T                                        4661787
TCF   003.45 034.0 m E Pg      2011/03/19 08:25:56.5   0.5                          T                                        4661792
TCF   003.45 034.0 m E Sg      2011/03/19 08:26:40.7   0.3                          T                5.7  .48 Ml 2.6         4661762
BGF   003.94 036.8 m E Pn      2011/03/19 08:25:50.9  -0.5                          T                                        4661784
BGF   003.94 036.8 m E Pg      2011/03/19 08:26:05.1   0.3                          T                                        4661795
BGF   003.94 036.8 m E Sg      2011/03/19 08:26:55.7   0.4                          T               14.3  .38 Ml 3.2         4661765
VIVF  004.03 067.9 m E Pn      2011/03/19 08:25:52.6   0.0                          T                                        4661776
VIVF  004.03 067.9 m E Pg      2011/03/19 08:26:06.7   0.2                          T                                        4661797
VIVF  004.03 067.9 m E Sg      2011/03/19 08:26:58.4   0.3                          T                3.2  .36 Ml 2.6         4661774
AVF   004.34 038.4 m E Pn      2011/03/19 08:25:55.5  -1.3                          T                                        4661786
AVF   004.34 038.4 m E Pg      2011/03/19 08:26:12.6   0.4                          T                                        4661794
AVF   004.34 038.4 m E Sg      2011/03/19 08:27:08.1   0.2                          T                8.6  .72 Ml 2.8         4661764
SMF   004.47 042.9 m E Pn      2011/03/19 08:25:57.9  -0.7                          T                                        4661785
SMF   004.47 042.9 m E Pg      2011/03/19 08:26:14.8   0.2                          T                                        4661793
SMF   004.47 042.9 m E Sg      2011/03/19 08:27:12.2   0.3                          T                4.6  .62 Ml 2.6         4661763
SSF   004.61 037.2 m E Pn      2011/03/19 08:25:59.4  -1.2                          T                                        4661788
SSF   004.61 037.2 m E Pg      2011/03/19 08:26:17.5   0.2                          T                                        4661791
SSF   004.61 037.2 m E Sg      2011/03/19 08:27:16.7   0.2                          T                5.7  .59 Ml 2.9         4661761
LOR   004.93 037.8 m E Pn      2011/03/19 08:26:04.1  -0.8                          T                                        4661789
LOR   004.93 037.8 m E Pg      2011/03/19 08:26:23.5   0.4                          T                                        4661790
LOR   004.93 037.8 m E Sg      2011/03/19 08:27:26.5   0.2                          T                6.5  .59 Ml 2.9         4661760
GRR   004.94 357.8 m E Pn      2011/03/19 08:26:05.1   0.2                          T                                        4661782
GRR   004.94 357.8 m E Sg      2011/03/19 08:27:27.0   0.4                          T                2.3  .40 Ml 2.5         4661767

.
EVENT     257344
    Date      Time       Latitude Longitude    Depth    Ndef Nsta Gap    Mag1  N    Mag2  N    Mag3  N   Author         ID
       rms   OT_Error      Smajor Sminor Az        Err   mdist  Mdist     Err        Err        Err      Quality

2011/03/19 10:06:58.0     43.0783    -.8187      2.0      22    4 104  Ml 1.4  1  Md 1.5  3              js067245    257344

      0.34   +-  0.08       1.6    1.2  161.01 +-  0.0    0.09   2.17   +-         +-0.0                 m i ke

PYRENEES
Sta     Dist  EvAz     Phase      Date       Time     TRes  Azim  AzRes  Slow  SRes Def   SNR       Amp   Per   Mag1   Mag2       ID
ETSF  000.26 133.2 m E Pg      2011/03/19 10:07:03.2   0.0                          T                                        4661828
ETSF  000.26 133.2 m E Sg      2011/03/19 10:07:06.0  -0.8                          T                8.2  .20        Md 1.6  4661827
SJPF  000.30 276.8 m E Pg      2011/03/19 10:07:03.8  -0.1                          T                                        4661829
SJPF  000.30 276.8 m E Sg      2011/03/19 10:07:08.0   0.1                          T                7.7  .20        Md 1.6  4661826
EPF   000.85 092.8 m E Pg      2011/03/19 10:07:14.0   0.0                          T                                        4661833
EPF   000.85 092.8 m E Sg      2011/03/19 10:07:25.4   0.3                          T                 .7  .22        Md 1.5  4661832
LFF   002.17 030.6 m E Pn      2011/03/19 10:07:33.3   0.0                          T                                        4661831
LFF   002.17 030.6 m E Sn      2011/03/19 10:07:59.2   0.0                          T                 .4  .19 Ml 1.4         4661830

.
EVENT     257332
    Date      Time       Latitude Longitude    Depth    Ndef Nsta Gap    Mag1  N    Mag2  N    Mag3  N   Author         ID
       rms   OT_Error      Smajor Sminor Az        Err   mdist  Mdist     Err        Err        Err      Quality

2011/03/19 11:22:00.3     44.2431    8.6188      2.0      29    9 216  Ml 2.4 11  Md 2.4  3              js067245    257332

      0.16   +-  0.07       1.4     .8   62.50 +-  0.0    0.93   2.21   +-0.3      +-0.0                 m i ke

NORTHERN ITALY
Sta     Dist  EvAz     Phase      Date       Time     TRes  Azim  AzRes  Slow  SRes Def   SNR       Amp   Per   Mag1   Mag2       ID
SBF   000.93 246.4 m E Pg      2011/03/19 11:22:18.2   0.2                          T                                        4661862
SBF   000.93 246.4 m E Sg      2011/03/19 11:22:30.0   0.0                          T               40.4  .22 Ml 3.0 Md 2.5  4661856
MBDF  001.41 290.7 m E Pn      2011/03/19 11:22:25.0  -0.5                          T                                        4661855
MBDF  001.41 290.7 m E Pg      2011/03/19 11:22:27.2   0.4                          T                                        4661861
MBDF  001.41 290.7 m E Sg      2011/03/19 11:22:44.8  -0.2                          T               15.0  .36 Ml 2.6 Md 2.4  4661857
FRF   001.58 245.1 m E Pn      2011/03/19 11:22:27.7   0.1                          T                                        4661849
FRF   001.58 245.1 m E Pg      2011/03/19 11:22:29.7   0.0                          T                                        4661859
FRF   001.58 245.1 m E Sg      2011/03/19 11:22:50.1  -0.1                          T                8.3  .22 Ml 2.7 Md 2.5  4661839
PGF   001.72 170.6 m E Pn      2011/03/19 11:22:29.6  -0.1                          T                                        4661847
PGF   001.72 170.6 m E Sn      2011/03/19 11:22:50.9   0.0                          T                1.9  .20 Ml 2.4         4661846
LMR   001.78 240.0 m E Pn      2011/03/19 11:22:30.3   0.0                          T                                        4661848
LMR   001.78 240.0 m E Pg      2011/03/19 11:22:33.4   0.0                          T                                        4661860
LMR   001.78 240.0 m E Sg      2011/03/19 11:22:55.9  -0.4                          T                5.5  .26 Ml 2.5         4661854
LPG   001.83 314.0 m E Pn      2011/03/19 11:22:31.3  -0.1                          T                                        4661851
LPG   001.83 314.0 m E Pg      2011/03/19 11:22:34.7   0.0                          T                                        4661844
LPG   001.83 314.0 m E Sg      2011/03/19 11:22:58.1  -0.1                          T                4.7  .36 Ml 2.3         4661841
LPL   001.85 314.2 m E Pn      2011/03/19 11:22:31.6   0.0                          T                                        4661852
LPL   001.85 314.2 m E Pg      2011/03/19 11:22:35.0   0.0                          T                                        4661845
LPL   001.85 314.2 m E Sg      2011/03/19 11:22:58.9   0.0                          T                4.4  .32 Ml 2.3         4661842
ORIF  002.07 290.0 m E Pn      2011/03/19 11:22:34.5   0.1                          T                                        4661853
ORIF  002.07 290.0 m E Pg      2011/03/19 11:22:38.9   0.0                          T                                        4661858
ORIF  002.07 290.0 m E Sg      2011/03/19 11:23:05.5   0.0                          T                4.9  .44 Ml 2.3         4661843
SMRF  002.21 264.1 m E Pn      2011/03/19 11:22:36.2   0.0                          T                                        4661850
SMRF  002.21 264.1 m E Sg      2011/03/19 11:23:09.8   0.0                          T               10.1  .39 Ml 2.7         4661840

.
EVENT     257333
    Date      Time       Latitude Longitude    Depth    Ndef Nsta Gap    Mag1  N    Mag2  N    Mag3  N   Author         ID
       rms   OT_Error      Smajor Sminor Az        Err   mdist  Mdist     Err        Err        Err      Quality

2011/03/19 11:27:33.0     41.3942    8.9833      2.0      23   12 292  Ml 2.7  8                         js067245    257333

      0.18   +-  0.21       4.2    2.4  149.02 +-  0.0    1.15   5.38   +-0.4                            m i ke

CORSICA, FRANCE
Sta     Dist  EvAz     Phase      Date       Time     TRes  Azim  AzRes  Slow  SRes Def   SNR       Amp   Per   Mag1   Mag2       ID
PGF   001.15 000.6 m E Pn      2011/03/19 11:27:54.5  -0.1                          T                                        4661885
PGF   001.15 000.6 m E Sn      2011/03/19 11:28:09.7  -0.3                          T               41.8  .24 Ml 3.4         4661879
LMR   002.67 317.4 m E Pn      2011/03/19 11:28:14.5  -0.6                          T                                        4661883
LMR   002.67 317.4 m E Sn      2011/03/19 11:28:45.1  -0.9                          T                1.6  .31 Ml 2.1         4661869
SBF   002.72 335.7 m E Pn      2011/03/19 11:28:16.0   0.1                          T                                        4661884
FRF   002.77 322.2 m E Pn      2011/03/19 11:28:16.0  -0.5                          T                                        4661882
SBF   002.72 335.7 m E Sn      2011/03/19 11:28:47.2  -0.2                          T                 10  .32 Ml 2.9         4661870
SMRF  003.60 316.9 m E Pn      2011/03/19 11:28:27.9   0.1                          T                                        4661876
MBDF  003.70 334.8 m E Pn      2011/03/19 11:28:29.6   0.2                          T                                        4661878
MBDF  003.70 334.8 m E Sn      2011/03/19 11:29:11.1   0.0                          T                3.3  .42 Ml 2.5         4661868
ORIF  004.19 328.2 m E Pn      2011/03/19 11:28:35.9  -0.1                          T                                        4661881
LPG   004.41 339.1 m E Pn      2011/03/19 11:28:39.3   0.1                          T                                        4661877
LPL   004.43 339.1 m E Pn      2011/03/19 11:28:39.5   0.1                          T                                        4661880
LASF  004.63 307.1 m E Pn      2011/03/19 11:28:42.0   0.1                          T                                        4661874
VIVF  004.68 319.1 m E Pn      2011/03/19 11:28:42.7   0.2                          T                                        4661875
VIVF  004.68 319.1 m E Sn      2011/03/19 11:29:34.2  -0.1                          T                1.3  .36 Ml 2.4         4661871
MTLF  005.38 293.5 m E Pn      2011/03/19 11:28:51.4  -0.6                          T                                        4661873
MTLF  005.38 293.5 m E Sn      2011/03/19 11:29:51.2   0.4                          T                2.5  .39 Ml 2.8         4661872

.
