EVENT     259822
    Date      Time       Latitude Longitude    Depth    Ndef Nsta Gap    Mag1  N    Mag2  N    Mag3  N   Author         ID
       rms   OT_Error      Smajor Sminor Az        Err   mdist  Mdist     Err        Err        Err      Quality

2011/05/26 21:29:21.5     42.5729   -1.1840      2.0      29    3 156  Ml 2.1  1  Md 1.8  2              js067245    259822

      0.28   +-  0.13       2.4    1.1   27.89 +-  0.0    0.04   1.21   +-         +-0.1                 m i ke

PYRENEES
Sta     Dist  EvAz     Phase      Date       Time     TRes  Azim  AzRes  Slow  SRes Def   SNR       Amp   Per   Mag1   Mag2       ID
SJPF  000.54 356.8 m E Pg      2011/05/26 21:29:31.9   0.0                          T                                        4702480
SJPF  000.54 356.8 m E Sg      2011/05/26 21:29:38.9  -0.1                          T                1.2  .24        Md 1.7  4702481
ETSF  000.56 054.5 m E Pg      2011/05/26 21:29:32.5   0.1                          T                                        4702482
ETSF  000.56 054.5 m E Sg      2011/05/26 21:29:40.1   0.4                          T                2.8  .32        Md 1.9  4702483
EPF   001.21 067.3 m E Pg      2011/05/26 21:29:44.5   0.3                          T                                        4702484
EPF   001.21 067.3 m E Sg      2011/05/26 21:30:00.1   0.2                          T                3.5  .23 Ml 2.1         4702485

.
EVENT     259765
    Date      Time       Latitude Longitude    Depth    Ndef Nsta Gap    Mag1  N    Mag2  N    Mag3  N   Author         ID
       rms   OT_Error      Smajor Sminor Az        Err   mdist  Mdist     Err        Err        Err      Quality

2011/05/27 02:31:13.3     43.0694    -.6761      2.0      18    3 176             Md 1.2  2              js067245    259765

      0.62   +-  0.27       5.2    3.2  175.40 +-  0.0    0.19   0.75              +-0.1                 m i ke

PYRENEES
Sta     Dist  EvAz     Phase      Date       Time     TRes  Azim  AzRes  Slow  SRes Def   SNR       Amp   Per   Mag1   Mag2       ID
ETSF  000.19 153.3 m E Pg      2011/05/27 02:31:17.3   0.1                          T                                        4702490
ETSF  000.19 153.3 m E Sg      2011/05/27 02:31:20.4   0.5                          T                9.5  .28        Md 1.3  4702491
SJPF  000.40 276.4 m E Pg      2011/05/27 02:31:21.0  -0.1                          T                                        4702488
SJPF  000.40 276.4 m E Sg      2011/05/27 02:31:26.6   0.2                          T                1.9  .20        Md 1.2  4702489
EPF   000.75 092.7 m E Pg      2011/05/27 02:31:28.1   0.7                          T                                        4702486
EPF   000.75 092.7 m E Sg      2011/05/27 02:31:36.5  -0.7                          T                 .4  .16                4702487

.
EVENT     259766
    Date      Time       Latitude Longitude    Depth    Ndef Nsta Gap    Mag1  N    Mag2  N    Mag3  N   Author         ID
       rms   OT_Error      Smajor Sminor Az        Err   mdist  Mdist     Err        Err        Err      Quality

2011/05/27 04:55:56.4     40.9797    1.5876      5.0 f    24    3 216  Ml 1.7  3                         js067245    259766

      0.43   +-  0.20       3.4    1.6  141.51 +-  0.0    0.54   2.71   +-0.0                            m i ke

BALEARIC ISLANDS, SPAIN
Sta     Dist  EvAz     Phase      Date       Time     TRes  Azim  AzRes  Slow  SRes Def   SNR       Amp   Per   Mag1   Mag2       ID
EPF   002.25 336.0 m E Pn      2011/05/27 04:56:32.6   0.0                          T                                        4702494
EPF   002.25 336.0 m E Pg      2011/05/27 04:56:38.0  -0.2                          T                                        4702493
EPF   002.25 336.0 m E Sg      2011/05/27 04:57:07.0  -0.2                          T                 .6  .23 Ml 1.7         4702499
ETSF  002.50 320.8 m E Pn      2011/05/27 04:56:36.0   0.0                          T                                        4702496
ETSF  002.50 320.8 m E Pg      2011/05/27 04:56:42.5  -0.3                          T                                        4702495
ETSF  002.50 320.8 m E Sg      2011/05/27 04:57:14.6  -0.3                          T                 .6  .28 Ml 1.7         4702498
MTLF  002.41 011.0 m E Pg      2011/05/27 04:56:40.9  -0.1                          T                                        4702492
MTLF  002.41 011.0 m E Sg      2011/05/27 04:57:11.5  -0.4                          T                 .9  .32 Ml 1.7         4702497

.
EVENT     259776
    Date      Time       Latitude Longitude    Depth    Ndef Nsta Gap    Mag1  N    Mag2  N    Mag3  N   Author         ID
       rms   OT_Error      Smajor Sminor Az        Err   mdist  Mdist     Err        Err        Err      Quality

2011/05/27 09:36:26.4     46.6348    4.4726       .0 f    20    7 156  Ml 2.3  3  Md 2.3  1              js067245    259776

      1.51   +-  0.18       4.3    2.7  175.78 +-  0.0    0.44   1.60   +-0.2      +-                    m i km

FRANCE
Sta     Dist  EvAz     Phase      Date       Time     TRes  Azim  AzRes  Slow  SRes Def   SNR       Amp   Per   Mag1   Mag2       ID
SMF   000.44 271.6 m E Pg      2011/05/27 09:36:35.1   0.1                          T                                        4702520
SMF   000.44 271.6 m E Sg      2011/05/27 09:36:41.6   0.6                          T               14.5  .16        Md 2.3  4702521
LOR   000.76 326.7 m E Pg      2011/05/27 09:36:40.7  -0.3 147.6  1.4               T                                        4702506
LOR   000.76 326.7 m E Pn      2011/05/27 09:36:42.4  -0.6 147.9  1.7               T                                        4702507
LOR   000.76 326.7 m E Sg      2011/05/27 09:36:51.2   0.1 163.9  17.7              T                                        4702508
LOR   000.76 326.7 m E Sn      2011/05/27 09:36:54.2  -0.5 165.5  19.3              T               15.9  .20                4702509
AVF   000.79 281.8 m E Pg      2011/05/27 09:36:41.6   0.2                          T                                        4702516
AVF   000.79 281.8 m E Pn      2011/05/27 09:36:42.7  -0.6                          T                                        4702517
AVF   000.79 281.8 m E Sg      2011/05/27 09:36:52.4   0.5                          T                                        4702519
AVF   000.79 281.8 m E Sn      2011/05/27 09:36:55.4   0.2                          T                                        4702518
SSF   000.79 303.1 m E Pg      2011/05/27 09:36:41.8   0.3                          T                                        4702502
SSF   000.79 303.1 m E Pn      2011/05/27 09:36:43.4   0.0                          T                                        4702503
SSF   000.79 303.1 m E Sg      2011/05/27 09:36:52.7   0.7                          T                                        4702504
SSF   000.79 303.1 m E Sn      2011/05/27 09:36:55.7   0.4                          T                                        4702505
CABF  001.11 090.6 m E Pg      2011/05/27 09:36:47.7   0.1                          T                                        4702514
CABF  001.11 090.6 m E Sg      2011/05/27 09:37:02.3   0.0                          T                                        4702515
BGF   001.12 266.7 m E Pg      2011/05/27 09:36:48.2   0.5                          T                                        4702512
BGF   001.12 266.7 m E Sg      2011/05/27 09:37:02.1  -0.3                          T                9.4  .24 Ml 2.5         4702513
TCF   001.60 258.3 m E Pn      2011/05/27 09:36:54.9   0.4                          T                                        4702500
TCF   001.60 258.3 m E Sg      2011/05/27 09:37:16.1  -1.3                          T                1.7  .20 Ml 2.1         4702501

.
EVENT     259777
    Date      Time       Latitude Longitude    Depth    Ndef Nsta Gap    Mag1  N    Mag2  N    Mag3  N   Author         ID
       rms   OT_Error      Smajor Sminor Az        Err   mdist  Mdist     Err        Err        Err      Quality

2011/05/27 10:54:35.5     42.6076   -1.1129      2.0      24    3 099  Ml 1.0  1  Md 1.4  2              js067245    259777

      0.15   +-  0.05       1.1     .6   30.99 +-  0.0    0.03   1.15   +-         +-0.0                 m i ke

PYRENEES
Sta     Dist  EvAz     Phase      Date       Time     TRes  Azim  AzRes  Slow  SRes Def   SNR       Amp   Per   Mag1   Mag2       ID
ETSF  000.50 054.3 m E Pg      2011/05/27 10:54:45.2   0.0                          T                                        4702528
SJPF  000.51 350.8 m E Pg      2011/05/27 10:54:45.2  -0.1                          T                                        4702530
SJPF  000.51 350.8 m E Sg      2011/05/27 10:54:51.7  -0.4                          T                1.4  .19        Md 1.4  4702531
ETSF  000.50 054.3 m E Sg      2011/05/27 10:54:51.7  -0.1                          T                1.4  .19        Md 1.4  4702529
EPF   001.15 067.9 m E Pg      2011/05/27 10:54:57.2   0.1                          T                                        4702526
EPF   001.15 067.9 m E Sg      2011/05/27 10:55:12.1   0.1                          T                 .2  .14 Ml 1           4702527

.
EVENT     259779
    Date      Time       Latitude Longitude    Depth    Ndef Nsta Gap    Mag1  N    Mag2  N    Mag3  N   Author         ID
       rms   OT_Error      Smajor Sminor Az        Err   mdist  Mdist     Err        Err        Err      Quality

2011/05/27 14:21:54.0     44.4914    7.3049      2.0      18    9 192  Ml 2.7  7  Md 2.3  2              js067245    259779

      0.43   +-  0.19       4.2    1.9   80.84 +-  0.0    0.45   1.91   +-0.2      +-0.1                 m i ke

NORTHERN ITALY
Sta     Dist  EvAz     Phase      Date       Time     TRes  Azim  AzRes  Slow  SRes Def   SNR       Amp   Per   Mag1   Mag2       ID
MBDF  000.45 301.9 m E Pg      2011/05/27 14:22:02.8   0.0                          T                                        4702548
MBDF  000.45 301.9 m E Sg      2011/05/27 14:22:08.4  -0.3                          T              229.5  .24        Md 2.3  4702549
SBF   000.64 171.5 m E Pg      2011/05/27 14:22:06.5   0.4                          T                                        4702540
SBF   000.64 171.5 m E Sg      2011/05/27 14:22:14.6   0.2                          T               49.8  .24        Md 2.2  4702532
FRF   001.04 207.3 m E Pg      2011/05/27 14:22:13.4  -0.2                          T                                        4702542
FRF   001.04 207.3 m E Sg      2011/05/27 14:22:26.2  -0.9                          T               25.0  .20 Ml 3.0         4702534
ORIF  001.10 293.3 m E Pg      2011/05/27 14:22:14.3  -0.4                          T                                        4702546
ORIF  001.10 293.3 m E Sg      2011/05/27 14:22:27.5  -1.6                          T               13.0  .20 Ml 2.7         4702538
LPG   001.08 338.9 m E Pg      2011/05/27 14:22:14.4  -0.2                          T                                        4702544
LPG   001.08 338.9 m E Sg      2011/05/27 14:22:29.1   0.6                          T               12.2  .26 Ml 2.5         4702536
LPL   001.10 338.6 m E Pg      2011/05/27 14:22:14.8  -0.1                          T                                        4702545
LPL   001.10 338.6 m E Sg      2011/05/27 14:22:29.7   0.5                          T               14.0  .32 Ml 2.5         4702537
LMR   001.29 206.7 m E Pg      2011/05/27 14:22:17.9  -0.2                          T                                        4702541
LMR   001.29 206.7 m E Sg      2011/05/27 14:22:34.1  -0.7                          T               40.0  .25 Ml 3.2         4702533
SMRF  001.35 248.1 m E Pg      2011/05/27 14:22:19.6   0.5                          T                                        4702543
SMRF  001.35 248.1 m E Sg      2011/05/27 14:22:37.5   0.9                          T               12.5  .21 Ml 2.7         4702535
VIVF  001.91 281.9 m E Pn      2011/05/27 14:22:26.8   0.9                          T                                        4702547
VIVF  001.91 281.9 m E Sg      2011/05/27 14:22:54.6   0.4                          T                9.7  .34 Ml 2.6         4702539

.
EVENT     259780
    Date      Time       Latitude Longitude    Depth    Ndef Nsta Gap    Mag1  N    Mag2  N    Mag3  N   Author         ID
       rms   OT_Error      Smajor Sminor Az        Err   mdist  Mdist     Err        Err        Err      Quality

2011/05/27 17:18:37.0     43.0014     .3002     15.0      56    8 083  Ml 2.1  7                         js067245    259780

      0.35   +-  0.04        .8     .6    3.10 +-  0.0    0.04   2.80   +-0.2                            m i ke

FRANCE
Sta     Dist  EvAz     Phase      Date       Time     TRes  Azim  AzRes  Slow  SRes Def   SNR       Amp   Per   Mag1   Mag2       ID
EPF   000.04 045.3 m E Pg      2011/05/27 17:18:40.2   0.2                          T                                        4702550
EPF   000.04 045.3 m E Sg      2011/05/27 17:18:42.3   0.2                          T               29.4  .20                4702551
ETSF  000.64 261.0 m E Pg      2011/05/27 17:18:49.3  -0.2                          T                                        4702552
ETSF  000.64 261.0 m E Sg      2011/05/27 17:18:57.4  -0.6                          T               18.7  .25                4702557
SJPF  001.12 276.2 m E Pg      2011/05/27 17:18:58.1  -0.1                          T                                        4702574
SJPF  001.12 276.2 m E Sg      2011/05/27 17:19:13.0   0.2                          T                3.3  .24 Ml 2.0         4702558
MTLF  001.44 075.7 m E Pn      2011/05/27 17:19:00.6  -0.4                          T                                        4702567
MTLF  001.44 075.7 m E Pg      2011/05/27 17:19:04.0  -0.1                          T                                        4702566
MTLF  001.44 075.7 m E Sg      2011/05/27 17:19:22.6  -0.1                          T                 .8  .11 Ml 1.9         4702556
LFF   001.96 009.2 m E Pn      2011/05/27 17:19:08.0   0.0                          T                                        4702571
LFF   001.96 009.2 m E Pg      2011/05/27 17:19:13.6   0.0                          T                                        4702570
LFF   001.96 009.2 m E Sg      2011/05/27 17:19:39.0   0.1                          T                5.1  .27 Ml 2.3         4702560
CAF   002.31 032.9 m E Pn      2011/05/27 17:19:12.7  -0.1                          T                                        4702573
CAF   002.31 032.9 m E Pg      2011/05/27 17:19:19.9  -0.1                          T                                        4702572
CAF   002.31 032.9 m E Sn      2011/05/27 17:19:39.1  -0.1                          T                                        4702562
CAF   002.31 032.9 m E Sg      2011/05/27 17:19:49.8   0.1                          T                2.3  .20 Ml 2.3         4702559
RJF   002.46 020.4 m E Pn      2011/05/27 17:19:14.7  -0.2                          T                                        4702569
RJF   002.46 020.4 m E Pg      2011/05/27 17:19:22.6  -0.2                          T                                        4702568
RJF   002.46 020.4 m E Sn      2011/05/27 17:19:43.0   0.0                          T                                        4702563
RJF   002.46 020.4 m E Sg      2011/05/27 17:19:54.6   0.1                          T                2.1  .19 Ml 2.0         4702561
LASF  002.80 066.2 m E Pn      2011/05/27 17:19:18.1  -1.4                          T                                        4702565
LASF  002.80 066.2 m E P       2011/05/27 17:19:22.5   0.1                          T                                        4702564
LASF  002.80 066.2 m E Sg      2011/05/27 17:20:05.2   0.2                          T                 .7  .17 Ml 2.0         4702555

.
EVENT     259781
    Date      Time       Latitude Longitude    Depth    Ndef Nsta Gap    Mag1  N    Mag2  N    Mag3  N   Author         ID
       rms   OT_Error      Smajor Sminor Az        Err   mdist  Mdist     Err        Err        Err      Quality

2011/05/27 17:18:57.7     42.9994     .2954     15.0      22    8 082  Ml 1.8  6                         js067245    259781

      0.47   +-  0.09       1.8    1.3    9.13 +-  0.0    0.04   2.80   +-0.2                            m i ke

PYRENEES
Sta     Dist  EvAz     Phase      Date       Time     TRes  Azim  AzRes  Slow  SRes Def   SNR       Amp   Per   Mag1   Mag2       ID
EPF   000.04 046.6 m E Pg      2011/05/27 17:19:00.8   0.1                          T                                        4702583
EPF   000.04 046.6 m E Sg      2011/05/27 17:19:02.9   0.2                          T               15.0  .18                4702584
ETSF  000.64 261.2 m E Pg      2011/05/27 17:19:09.9  -0.1                          T                                        4702582
ETSF  000.64 261.2 m E Sg      2011/05/27 17:19:18.1  -0.5                          T               10.1  .20                4702577
SJPF  001.12 276.4 m E Sg      2011/05/27 17:19:33.7   0.3                          T                 .9  .19 Ml 1.5         4702581
MTLF  001.45 075.7 m E Sg      2011/05/27 17:19:43.3  -0.2                          T                1.2  .24 Ml 1.7         4702576
LFF   001.97 009.2 m E Sg      2011/05/27 17:19:59.7   0.0                          T                2.5  .27 Ml 2.0         4702579
CAF   002.31 032.9 m E Sg      2011/05/27 17:20:10.5   0.0                          T                1.1  .18 Ml 2.1         4702580
RJF   002.47 020.5 m E Sg      2011/05/27 17:20:15.3   0.0                          T                1.2  .21 Ml 1.7         4702578
LASF  002.80 066.2 m E Sg      2011/05/27 17:20:25.8   0.0                          T                 .3  .18 Ml 1.6         4702575

.
