EVENT     296998
    Date      Time       Latitude Longitude    Depth    Ndef Nsta Gap    Mag1  N    Mag2  N    Mag3  N   Author         ID
       rms   OT_Error      Smajor Sminor Az        Err   mdist  Mdist     Err        Err        Err      Quality

2013/04/25 16:20:09.5     43.1277   11.0043      2.0      57   13 052  Ml 2.4  9                         bulletin    297098
                                                                                                         _ldg
      1.03   +-  0.10       2.5    2.0    5.02 +-  0.0    0.35   6.42   +-0.3                            m i ke

CENTRAL ITALY
Sta     Dist  EvAz     Phase      Date       Time     TRes  Azim  AzRes  Slow  SRes Def   SNR       Amp   Per   Mag1   Mag2       ID
PGF   001.58 249.2 m E Pn      2013/04/25 16:20:36.5  -0.5                          T                                        5269328
PGF   001.58 249.2 m E Sn      2013/04/25 16:20:56.8  -0.1                          T               17.6  .31 Ml 3.1         5269329
SBF   002.70 287.0 m E Pn      2013/04/25 16:20:51.2  -1.0                          T                                        5269327
SBF   002.70 287.0 m E Sn      2013/04/25 16:21:21.6  -1.9                          T                4.2  .27 Ml 2.5         5269332
FRF   003.21 279.2 m E Pn      2013/04/25 16:20:58.3  -0.7                          T                                        5269325
FRF   003.21 279.2 m E Sn      2013/04/25 16:21:35.5  -0.1                          T                3.8  .33 Ml 2.6         5269359
LMR   003.29 275.1 m E Pn      2013/04/25 16:20:59.4  -0.7                          T                                        5269326
LMR   003.29 275.1 m E Sn      2013/04/25 16:21:37.5  -0.1                          T                  1  .21 Ml 2.2         5269358
MBDF  003.45 299.0 m E Pn      2013/04/25 16:21:03.2   0.7                          T                                        5269370
MBDF  003.45 299.0 m E Sn      2013/04/25 16:21:41.5   0.0                          T                1.1  .26 Ml 2.2         5269369
LPL   003.89 309.4 m E Pn      2013/04/25 16:21:08.6   0.1                          T                                        5269374
LPL   003.89 309.4 m E Sn      2013/04/25 16:21:52.0  -0.1                          T                 .6  .25 Ml 2.0         5269373
SMRF  004.04 284.0 m E Pn      2013/04/25 16:21:10.8   0.4                          T                                        5269331
SMRF  004.04 284.0 m E Sn      2013/04/25 16:21:55.0  -0.4                          T                1.5  .28 Ml 2.4         5269375
ORIF  004.11 297.6 m E Pn      2013/04/25 16:21:12.8   1.5                          T                                        5269372
ORIF  004.11 297.6 m E Sn      2013/04/25 16:21:57.0  -0.2                          T                2.1  .36 Ml 2.4         5269371
VIVF  004.88 292.9 m E Pn      2013/04/25 16:21:21.7  -0.2                          T                                        5269368
VIVF  004.88 292.9 m E Sn      2013/04/25 16:22:16.0   0.3                          T                 .6  .22 Ml 2.3         5269367
LASF  005.28 282.8 m E Pn      2013/04/25 16:21:26.7  -0.6                          T                                        5269366
LASF  005.28 282.8 m E Sn      2013/04/25 16:22:25.2   0.2                          T                                        5269365
HINF  005.52 329.5 m E Pn      2013/04/25 16:21:30.1  -0.5                          T                                        5269330
HINF  005.52 329.5 m E Sn      2013/04/25 16:22:30.3  -0.7                          T                                        5269362
HAU   005.87 327.8 m E Pn      2013/04/25 16:21:34.7  -0.7                          T                                        5269361
HAU   005.87 327.8 m E Sn      2013/04/25 16:22:39.2   0.0                          T                                        5269360
MTLF  006.42 274.9 m E Pn      2013/04/25 16:21:42.5  -0.3                          T                                        5269364
MTLF  006.42 274.9 m E Sn      2013/04/25 16:22:52.5   0.1                          T                                        5269363

.
EVENT     297001
    Date      Time       Latitude Longitude    Depth    Ndef Nsta Gap    Mag1  N    Mag2  N    Mag3  N   Author         ID
       rms   OT_Error      Smajor Sminor Az        Err   mdist  Mdist     Err        Err        Err      Quality

2013/04/25 18:38:07.6     46.3021    7.3742      5.0 f    34   10 068  Ml 1.6 11  Md 1.7  2              bulletin    297101
                                                                                                         _ldg
      0.84   +-  0.07       1.5    1.3  121.42 +-  0.0    0.08   3.03   +-0.3      +-0.1                 m i ke

SWITZERLAND
Sta     Dist  EvAz     Phase      Date       Time     TRes  Azim  AzRes  Slow  SRes Def   SNR       Amp   Per   Mag1   Mag2       ID
LPL   000.90 209.9 m E Pg      2013/04/25 18:38:24.6  -0.3                          T                                        5269407
LPL   000.90 209.9 m E Sg      2013/04/25 18:38:36.1  -0.6                          T                 .7  .21 Ml 1.3 Md 1.6  5269413
CABF  000.94 289.6 m E Pg      2013/04/25 18:38:24.9  -0.5                          T                                        5269406
CABF  000.94 289.6 m E Sg      2013/04/25 18:38:37.7   0.0                          T                1.2  .28 Ml 1.4         5269405
LPG   000.91 208.6 m E Pg      2013/04/25 18:38:25.2   0.0                          T                                        5269408
LPG   000.91 208.6 m E Sg      2013/04/25 18:38:36.8  -0.2                          T                 .6  .24 Ml 1.2 Md 1.8  5269414
HINF  001.56 347.0 m E Pg      2013/04/25 18:38:36.7   0.1                          T                                        5269573
HINF  001.56 347.0 m E Sg      2013/04/25 18:38:57.0   0.2                          T                 .9  .19 Ml 1.8         5269572
HAU   001.84 338.0 m E Pg      2013/04/25 18:38:42.2   0.3                          T                                        5269601
HAU   001.84 338.0 m E Sg      2013/04/25 18:39:06.0   0.3                          T                2.3  .21 Ml 2.0         5269600
PAGF  002.52 334.2 m E Pn      2013/04/25 18:38:46.7  -0.6                          T                                        5269603
PAGF  002.52 334.2 m E Sg      2013/04/25 18:39:27.0   0.3                          T                1.6  .38 Ml 1.9         5269602
CDF   002.11 358.2 m E Pg      2013/04/25 18:38:47.4   0.4                          T                                        5269599
CDF   002.11 358.2 m E Sg      2013/04/25 18:39:14.8   0.7                          T                 .8  .26 Ml 1.8         5269598
LOR   002.60 293.1 m E Pn      2013/04/25 18:38:49.0   0.5 115.9  5.4               T                                        5269597
LOR   002.60 293.1 m E Pg      2013/04/25 18:38:55.8  -0.1                          T                                        5269596
LOR   002.60 293.1 m E Sg      2013/04/25 18:39:29.4   0.1 127.0  16.5              T                 .3  .18 Ml 1.6         5269595
FRF   002.79 190.9 m E Pn      2013/04/25 18:38:51.4   0.3                          T                                        5269410
FRF   002.79 190.9 m E Sn      2013/04/25 18:39:23.2   0.1                          T                 .3  .13 Ml 1.8         5269409
LMR   003.03 192.0 m E Pn      2013/04/25 18:38:54.6   0.3                          T                                        5269412
LMR   003.03 192.0 m E Sn      2013/04/25 18:39:28.9   0.1                          T                 .3  .19 Ml 1.6         5269411

.
EVENT     298117
    Date      Time       Latitude Longitude    Depth    Ndef Nsta Gap    Mag1  N    Mag2  N    Mag3  N   Author         ID
       rms   OT_Error      Smajor Sminor Az        Err   mdist  Mdist     Err        Err        Err      Quality

2013/04/25 21:13:54.4     44.9440   11.0015      8.0 f    36   10 083  Ml 2.2  8                         bulletin    298217
                                                                                                         _ldg
      0.78   +-  0.14       3.7    2.3  130.76 +-  0.0    0.12   5.65   +-0.2                            m i ke

NORTHERN ITALY
Sta     Dist  EvAz     Phase      Date       Time     TRes  Azim  AzRes  Slow  SRes Def   SNR       Amp   Per   Mag1   Mag2       ID
SBF   002.78 248.3 m E Pn      2013/04/25 21:14:37.3  -0.1                          T                                        5281763
SBF   002.78 248.3 m E P       2013/04/25 21:14:40.2   0.0                          T                                        5281764
SBF   002.78 248.3 m E Sn      2013/04/25 21:15:08.8  -0.3                          T                1.2  .24 Ml 2.1         5281750
PGF   002.80 211.9 m E Pn      2013/04/25 21:14:37.6  -0.2                          T                                        5281762
MBDF  003.02 267.4 m E Pn      2013/04/25 21:14:40.5  -0.2                          T                                        5281754
MBDF  003.02 267.4 m E Sn      2013/04/25 21:15:15.3   0.4                          T                 .8  .21 Ml 2.0         5281753
LPG   003.05 281.9 m E Pn      2013/04/25 21:14:41.2  -0.2                          T                                        5281761
FRF   003.42 247.7 m E Pn      2013/04/25 21:14:46.0  -0.1                          T                                        5281766
FRF   003.42 247.7 m E Sn      2013/04/25 21:15:24.7   0.3                          T                1.1  .25 Ml 2.2         5281752
LMR   003.61 245.1 m E Pn      2013/04/25 21:14:48.8   0.1                          T                                        5281765
LMR   003.61 245.1 m E Sn      2013/04/25 21:15:29.2   0.2                          T                1.3  .32 Ml 2.2         5281751
CDF   004.31 324.9 m E Pn      2013/04/25 21:14:58.0   0.6                          T                                        5281759
CDF   004.31 324.9 m E Sn      2013/04/25 21:15:46.1   0.2                          T                 .7  .28 Ml 2.2         5281758
AVF   005.65 291.8 m E Pn      2013/04/25 21:15:16.4   0.0                          T                                        5281760
LPL   003.07 282.2 m E Sn      2013/04/25 21:15:16.5   0.2                          T                 .8  .27 Ml 1.9         5281755
LPL   003.07 282.2 m E Sg      2013/04/25 21:15:31.4   0.4                          T                3.7  .32 Ml 2.5         5281756
HAU   004.44 315.3 m E Sn      2013/04/25 21:15:49.3   0.5                          T                4.0  .34 Ml 2.6         5281757

.
EVENT     297044
    Date      Time       Latitude Longitude    Depth    Ndef Nsta Gap    Mag1  N    Mag2  N    Mag3  N   Author         ID
       rms   OT_Error      Smajor Sminor Az        Err   mdist  Mdist     Err        Err        Err      Quality

2013/04/25 22:20:10.5     48.4830    8.0315     17.0 f    15    4 089  Ml 1.4  3  Md 1.6  1              bulletin    297144
                                                                                                         _ldg
      0.59   +-  0.09       1.8    1.4   16.43 +-  0.0    0.10   1.98   +-0.2      +-                    m i ke

GERMANY
Sta     Dist  EvAz     Phase      Date       Time     TRes  Azim  AzRes  Slow  SRes Def   SNR       Amp   Per   Mag1   Mag2       ID
CDF   000.51 262.3 m E Pg      2013/04/25 22:20:20.7   0.0                          T                                        5269696
CDF   000.51 262.3 m E Sg      2013/04/25 22:20:27.5  -0.2                          T                1.6  .19        Md 1.6  5269695
HINF  001.03 230.2 m E Pn      2013/04/25 22:20:28.7  -0.1                          T                                        5269694
HINF  001.03 230.2 m E Sn      2013/04/25 22:20:41.8  -0.1                          T                                        5269693
HINF  001.03 230.2 m E Sg      2013/04/25 22:20:43.6   0.0                          T                 .5  .14 Ml 1.4         5269692
MEZF  001.98 271.7 m E Pn      2013/04/25 22:20:41.9   0.3                          T                                        5269699
MEZF  001.98 271.7 m E Sg      2013/04/25 22:21:13.0   0.0                          T                 .5  .18 Ml 1.6         5269698
PAGF  001.54 273.6 m E Sg      2013/04/25 22:20:58.9  -0.3 100.7  8.8               T                 .4  .22 Ml 1.3         5269697

.
EVENT     297016
    Date      Time       Latitude Longitude    Depth    Ndef Nsta Gap    Mag1  N    Mag2  N    Mag3  N   Author         ID
       rms   OT_Error      Smajor Sminor Az        Err   mdist  Mdist     Err        Err        Err      Quality

2013/04/25 23:38:19.8     44.8786   11.2082      2.0      50    9 105  Ml 2.2  9                         bulletin    297116
                                                                                                         _ldg
      1.02   +-  0.20       4.9    2.9  118.81 +-  0.0    0.14   5.64   +-0.3                            m i ke

NORTHERN ITALY
Sta     Dist  EvAz     Phase      Date       Time     TRes  Azim  AzRes  Slow  SRes Def   SNR       Amp   Per   Mag1   Mag2       ID
PGF   002.83 215.3 m E Pn      2013/04/25 23:39:03.7  -0.5                          T                                        5269492
PGF   002.83 215.3 m E Sn      2013/04/25 23:39:37.5   0.6                          T                1.9  .27 Ml 2.5         5269489
SBF   002.89 250.8 m E Pn      2013/04/25 23:39:05.1   0.1                          T                                        5269493
SBF   002.89 250.8 m E Sn      2013/04/25 23:39:40.7   2.4                          T                5.8  .36 Ml 2.6         5269488
MBDF  003.16 268.8 m E Pn      2013/04/25 23:39:08.9   0.1                          T                                        5269564
MBDF  003.16 268.8 m E Pg      2013/04/25 23:39:18.5  -0.1                          T                                        5269563
LPG   003.21 282.7 m E Pn      2013/04/25 23:39:09.7   0.1                          T                                        5269490
LPG   003.21 282.7 m E Sn      2013/04/25 23:39:46.3   0.0                          T                 .6  .28 Ml 1.8         5269568
LPL   003.23 283.0 m E Pn      2013/04/25 23:39:09.9   0.1                          T                                        5269567
FRF   003.53 249.7 m E Pn      2013/04/25 23:39:13.8   0.1                          T                                        5269491
FRF   003.53 249.7 m E Sn      2013/04/25 23:39:54.2   0.6                          T                1.6  .28 Ml 2.4         5269486
LMR   003.72 247.1 m E Pn      2013/04/25 23:39:15.7  -0.6                          T                                        5269494
LMR   003.72 247.1 m E Sn      2013/04/25 23:39:55.6  -2.5                          T                 .8  .22 Ml 2.2         5269487
ORIF  003.79 272.5 m E Pn      2013/04/25 23:39:17.0  -0.3                          T                                        5269566
ORIF  003.79 272.5 m E Sn      2013/04/25 23:40:00.2   0.4                          T                1.1  .27 Ml 2.2         5269565
LOR   005.64 297.6 m E Pn      2013/04/25 23:39:42.7   0.2                          T                                        5269571
LOR   005.64 297.6 m E Sn      2013/04/25 23:40:44.1   0.0                          T                 .3  .15 Ml 2.4         5269570

.
EVENT     297017
    Date      Time       Latitude Longitude    Depth    Ndef Nsta Gap    Mag1  N    Mag2  N    Mag3  N   Author         ID
       rms   OT_Error      Smajor Sminor Az        Err   mdist  Mdist     Err        Err        Err      Quality

2013/04/26 00:38:19.0     47.7292    7.4897     21.3      37    6 044  Ml 1.6  4  Md 1.7  3              bulletin    297117
                                                                                                         _ldg
      0.64   +-  0.07       1.7    1.4   10.44 +-  0.8    0.17   2.50   +-0.2      +-0.1                 m i ke

SWITZERLAND
Sta     Dist  EvAz     Phase      Date       Time     TRes  Azim  AzRes  Slow  SRes Def   SNR       Amp   Per   Mag1   Mag2       ID
HINF  000.44 281.8 m E Pg      2013/04/26 00:38:28.3   0.2                          T                                        5269499
HINF  000.44 281.8 m E Sg      2013/04/26 00:38:33.9  -0.6                          T                1.7  .17        Md 1.7  5269495
HINF  000.44 281.8 m E Sn      2013/04/26 00:38:35.9   0.7                          T                3.2  .20                5281768
CDF   000.70 348.2 m E Pg      2013/04/26 00:38:33.2   0.5                          T                                        5269498
CDF   000.70 348.2 m E Sg      2013/04/26 00:38:42.5   0.3                          T                  1  .18        Md 1.7  5269497
HAU   000.82 290.2 m E Pn      2013/04/26 00:38:33.6  -0.2                          T                                        5269519
HAU   000.82 290.2 m E Pg      2013/04/26 00:38:35.0   0.2                          T                                        5269518
HAU   000.82 290.2 m E Sg      2013/04/26 00:38:45.9   0.2                          T                3.7  .24        Md 1.8  5269496
PAGF  001.44 305.6 m E Pn      2013/04/26 00:38:42.0  -0.3                          T                                        5269521
PAGF  001.44 305.6 m E Pg      2013/04/26 00:38:46.6   0.5                          T                                        5269501
PAGF  001.44 305.6 m E Sn      2013/04/26 00:38:58.3  -1.0                          T                                        5269520
PAGF  001.44 305.6 m E Sg      2013/04/26 00:39:05.3   0.4 117.6  -6.7              T                 .6  .21 Ml 1.4         5269500
SFTF  001.71 287.0 m E Pn      2013/04/26 00:38:46.0   0.0                          T                                        5269527
SFTF  001.71 287.0 m E Sn      2013/04/26 00:39:05.7  -0.2                          T                                        5269526
SFTF  001.71 287.0 m E Sg      2013/04/26 00:39:13.8   0.4 113.4  8.2               T                 .6  .16 Ml 1.7         5269525
MEZF  001.81 296.2 m E Pn      2013/04/26 00:38:46.5  -0.7                          T                                        5269530
MEZF  001.81 296.2 m E Sn      2013/04/26 00:39:07.3  -0.8                          T                                        5269528
MEZF  001.81 296.2 m E Sg      2013/04/26 00:39:16.6   0.4 117.0  2.6               T                 .7  .24 Ml 1.6         5269529

.
