EVENT     276622
    Date      Time       Latitude Longitude    Depth    Ndef Nsta Gap    Mag1  N    Mag2  N    Mag3  N   Author         ID
       rms   OT_Error      Smajor Sminor Az        Err   mdist  Mdist     Err        Err        Err      Quality

2012/05/16 22:05:33.9     42.8322     .1691      2.0       6    4 206  Ml 0.7  2  Md 1.0  2              js067245    276722

      0.31   +-  0.36      11.0    2.6  163.17 +-  0.0    0.23   1.58   +-0.0      +-0.0                 m i ke

PYRENEES
Sta     Dist  EvAz     Phase      Date       Time     TRes  Azim  AzRes  Slow  SRes Def   SNR       Amp   Per   Mag1   Mag2       ID
EPF   000.23 032.3 m E Pg      2012/05/16 22:05:38.7   0.1                          T                                        4958747
EPF   000.23 032.3 m E Sg      2012/05/16 22:05:41.3  -0.5                          T                6.0  .24        Md 1.0  4958746
ETSF  000.54 277.3 m E Pg      2012/05/16 22:05:44.1  -0.1                          T                                        4965432
ETSF  000.54 277.3 m E Sg      2012/05/16 22:05:51.8   0.5                          T                 .6  .17        Md 1.0  4958745
SJPF  001.06 285.8 m E Sg      2012/05/16 22:06:07.1  -0.4                          T                 .1  .16 Ml  .7         4979079
MTLF  001.58 070.6 m E Sg      2012/05/16 22:06:23.6  -0.2                          T                 .1  .11 Ml  .7         4979080

.
EVENT     276623
    Date      Time       Latitude Longitude    Depth    Ndef Nsta Gap    Mag1  N    Mag2  N    Mag3  N   Author         ID
       rms   OT_Error      Smajor Sminor Az        Err   mdist  Mdist     Err        Err        Err      Quality

2012/05/17 00:32:41.2     48.3568    7.7262      7.0 f    19    7 076  Ml 1.1  4  Md 1.5  2              js067245    276723

      0.26   +-  0.05       1.0     .8    2.74 +-  0.0    0.25   1.80   +-0.2      +-0.1                 m i ke

FRANCE
Sta     Dist  EvAz     Phase      Date       Time     TRes  Azim  AzRes  Slow  SRes Def   SNR       Amp   Per   Mag1   Mag2       ID
CDF   000.31 280.6 m E Pg      2012/05/17 00:32:47.3  -0.1                          T                                        4958777
CDF   000.31 280.6 m E Sg      2012/05/17 00:32:51.4  -0.2                          T                2.0  .22        Md 1.4  4958776
LANF  000.63 004.8 m E Pg      2012/05/17 00:32:53.2   0.1                          T                                        4958772
LANF  000.63 004.8 m E Sg      2012/05/17 00:33:01.4   0.0                          T                 .7  .19                4958771
HINF  000.80 227.6 m E Pg      2012/05/17 00:32:56.4   0.1                          T                                        4958769
HINF  000.80 227.6 m E Sg      2012/05/17 00:33:06.8   0.0                          T                1.9  .22        Md 1.6  4958770
HAU   000.99 249.7 m E Pg      2012/05/17 00:32:59.9   0.0                          T                                        4958768
HAU   000.99 249.7 m E Sg      2012/05/17 00:33:12.7   0.0                          T                 .8  .21 Ml 1.2         4958767
THEF  001.16 264.3 m E Pg      2012/05/17 00:33:03.6   0.6                          T                                        4969646
THEF  001.16 264.3 m E Sg      2012/05/17 00:33:18.6   0.5                          T                 .3  .14 Ml 1.1         4969647
PAGF  001.35 279.2 m E Pg      2012/05/17 00:33:05.8  -0.6                          T                                        4969644
PAGF  001.35 279.2 m E Sg      2012/05/17 00:33:23.1  -0.8                          T                 .2  .22 Ml  .9         4969645
SFTF  001.80 266.2 m E Pn      2012/05/17 00:33:11.1   0.1                          T                                        4958774
SFTF  001.80 266.2 m E Pg      2012/05/17 00:33:14.6  -0.2                          T                                        4958775
SFTF  001.80 266.2 m E Sn      2012/05/17 00:33:32.7  -0.1                          T                 .3  .19 Ml 1.4         4958773

.
EVENT     276624
    Date      Time       Latitude Longitude    Depth    Ndef Nsta Gap    Mag1  N    Mag2  N    Mag3  N   Author         ID
       rms   OT_Error      Smajor Sminor Az        Err   mdist  Mdist     Err        Err        Err      Quality

2012/05/17 03:01:14.1     43.0557   17.0424      2.0      57    9 144  Ml 3.0  6                         js067245    276724

      1.20   +-  0.19       8.0    3.3   11.38 +-  0.0    1.11   9.10   +-0.2                            m i ke

NORTHWESTERN BALKAN PEN.
Sta     Dist  EvAz     Phase      Date       Time     TRes  Azim  AzRes  Slow  SRes Def   SNR       Amp   Per   Mag1   Mag2       ID
PGF   005.94 267.8 m E Pn      2012/05/17 03:02:40.0  -0.9                          T                                        4958840
SBF   007.04 279.9 m E Pn      2012/05/17 03:02:56.0   0.2                          T                                        4958841
SBF   007.04 279.9 m E Sn      2012/05/17 03:04:11.6  -0.1                          T                4.9  .40 Ml 3.3         4969648
MBDF  007.61 286.2 m E Pn      2012/05/17 03:03:03.4  -0.3                          T                                        4958831
MBDF  007.61 286.2 m E P       2012/05/17 03:03:08.0  -0.9                          T                                        4958836
MBDF  007.61 286.2 m E Sn      2012/05/17 03:04:24.5  -0.9                          T                 .7  .22 Ml 2.9         4958829
FRF   007.60 277.4 m E Pn      2012/05/17 03:03:04.8   1.5                          T                                        4969651
FRF   007.60 277.4 m E Sn      2012/05/17 03:04:24.5  -0.5                          T                 .5  .17 Ml 2.9         4958830
LPL   007.80 291.9 m E Pn      2012/05/17 03:03:06.0  -0.3                          T                                        4958832
LPL   007.80 291.9 m E Sn      2012/05/17 03:04:29.4  -0.6                          T                1.4  .26 Ml 3.1         4958834
LPG   007.78 291.8 m E Pn      2012/05/17 03:03:06.0  -0.2                          T                                        4958839
LPG   007.78 291.8 m E Sn      2012/05/17 03:04:29.1  -0.6                          T                 .5  .20 Ml 2.8         4958833
LMR   007.70 275.7 m E Pn      2012/05/17 03:03:07.5   2.7                          T                                        4969650
LMR   007.70 275.7 m E Sn      2012/05/17 03:04:30.2   2.7                          T                1.3  .26 Ml 3.1         4969649
ORIF  008.26 286.8 m E Pn      2012/05/17 03:03:12.3  -0.2                          T                                        4958838
VIVF  009.10 285.6 m E P       2012/05/17 03:03:29.0  -0.6                          T                                        4958837

.
EVENT     276176
    Date      Time       Latitude Longitude    Depth    Ndef Nsta Gap    Mag1  N    Mag2  N    Mag3  N   Author         ID
       rms   OT_Error      Smajor Sminor Az        Err   mdist  Mdist     Err        Err        Err      Quality

2012/05/17 05:07:31.4     36.7478  -12.3707     10.0 f    74    9 292  Ml 3.3  3                         bulletin    276276
                                                                                                         _ldg
      0.35   +-  0.16       3.3    2.2   39.07 +-  0.0    2.87  13.57   +-0.0                            m i ke

NORTH ATLANTIC OCEAN
Sta     Dist  EvAz     Phase      Date       Time     TRes  Azim  AzRes  Slow  SRes Def   SNR       Amp   Per   Mag1   Mag2       ID
SJPF  010.66 050.0 m E Pn      2012/05/17 05:10:02.1   0.7                          T                                        4947866
SJPF  010.66 050.0 m E Sn      2012/05/17 05:11:54.5   0.5                          T                 .6  .23 Ml 3.2         4962977
ETSF  010.96 052.3 m E Pn      2012/05/17 05:10:06.2   0.6                          T                                        4947863
ETSF  010.96 052.3 m E Sn      2012/05/17 05:12:01.0  -0.3                          T                 .9  .37 Ml 3.3         4981107
EPF   011.60 053.4 m E Pn      2012/05/17 05:10:15.4   1.1                          T                                        4947862
EPF   011.60 053.4 m E Sn      2012/05/17 05:12:16.8   0.2                          T                 .7  .29 Ml 3.3         4962978
LFF   012.85 046.4 m E Pn      2012/05/17 05:10:31.1  -0.2                          T                                        4947870
QUIF  013.06 028.4 m E Pn      2012/05/17 05:10:33.9  -0.2                          T                                        4962961
ROSF  013.37 027.1 m E Pn      2012/05/17 05:10:38.1  -0.2                          T                                        4962963
MFF   013.42 039.0 m E Pn      2012/05/17 05:10:38.9  -0.1                          T                                        4962960
RJF   013.51 046.5 m E Pn      2012/05/17 05:10:39.9  -0.4                          T                                        4947867
SGMF  013.57 029.0 m E Pn      2012/05/17 05:10:41.3   0.2                          T                                        4962962

.
EVENT     276180
    Date      Time       Latitude Longitude    Depth    Ndef Nsta Gap    Mag1  N    Mag2  N    Mag3  N   Author         ID
       rms   OT_Error      Smajor Sminor Az        Err   mdist  Mdist     Err        Err        Err      Quality

2012/05/17 07:39:02.4     43.9003    7.3642      2.0      12    6 141  Ml 1.5  3  Md 1.5  3              bulletin    276280
                                                                                                         _ldg
      0.20   +-  0.07       1.5    1.2   97.79 +-  0.0    0.06   1.66   +-0.1      +-0.1                 m i ke

NEAR SOUTH COAST OF FRANCE
Sta     Dist  EvAz     Phase      Date       Time     TRes  Azim  AzRes  Slow  SRes Def   SNR       Amp   Per   Mag1   Mag2       ID
SBF   000.06 125.9 m E Pg      2012/05/17 07:39:04.0  -0.1                          T                                        4947943
SBF   000.06 125.9 m E Sg      2012/05/17 07:39:05.3   0.1                          T               40.8  .19        Md 1.5  4947942
FRF   000.62 237.1 m E Pg      2012/05/17 07:39:14.1  -0.1                          T                                        4947939
FRF   000.62 237.1 m E Sg      2012/05/17 07:39:22.5   0.2                          T                 .8  .18        Md 1.7  4947938
LMR   000.84 227.9 m E Pg      2012/05/17 07:39:18.4   0.2                          T                                        4947940
LMR   000.84 227.9 m E Sg      2012/05/17 07:39:28.5  -0.7                          T                1.6  .29        Md 1.4  4947941
MBDF  000.93 333.0 m E Pg      2012/05/17 07:39:20.1   0.0                          T                                        4947946
MBDF  000.93 333.0 m E Sg      2012/05/17 07:39:32.0  -0.2                          T                1.2  .26 Ml 1.4         4947947
SMRF  001.29 274.0 m E Pg      2012/05/17 07:39:26.7   0.1                          T                                        4947945
SMRF  001.29 274.0 m E Sg      2012/05/17 07:39:43.6   0.1                          T                1.1  .19 Ml 1.7         4947944
LPG   001.66 344.9 m E Pg      2012/05/17 07:39:33.7   0.0                          T                                        4947948
LPG   001.66 344.9 m E Sg      2012/05/17 07:39:54.8  -0.2                          T                 .5  .21 Ml 1.5         4947949

.
EVENT     276181
    Date      Time       Latitude Longitude    Depth    Ndef Nsta Gap    Mag1  N    Mag2  N    Mag3  N   Author         ID
       rms   OT_Error      Smajor Sminor Az        Err   mdist  Mdist     Err        Err        Err      Quality

2012/05/17 07:48:27.9     45.5737    2.9316       .0 f    24   12 089  Ml 1.8 12  Md 1.8  1              bulletin    276281
                                                                                                         _ldg
      0.27   +-  0.06       1.4    1.0   97.35 +-  0.0    0.87   2.38   +-0.2      +-                    m i km

FRANCE
Sta     Dist  EvAz     Phase      Date       Time     TRes  Azim  AzRes  Slow  SRes Def   SNR       Amp   Per   Mag1   Mag2       ID
TCF   000.87 325.1 m E Pg      2012/05/17 07:48:44.6   0.0                          T                                        4947961
TCF   000.87 325.1 m E Sg      2012/05/17 07:48:55.5  -0.6                          T                1.3  .15 Ml 1.7 Md 1.8  4947960
CAF   000.89 223.7 m E Pg      2012/05/17 07:48:45.1   0.2                          T                                        4947950
CAF   000.89 223.7 m E Sg      2012/05/17 07:48:55.2  -1.5                          T                1.9  .16 Ml 1.8         4947951
BGF   000.99 356.6 m E Pg      2012/05/17 07:48:46.7   0.1                          T                                        4947954
BGF   000.99 356.6 m E Sg      2012/05/17 07:48:59.5  -0.1                          T                3.1  .27 Ml 1.9         4947955
RJF   001.03 255.4 m E Pg      2012/05/17 07:48:47.8   0.4                          T                                        4947953
RJF   001.03 255.4 m E Sg      2012/05/17 07:49:00.8  -0.3                          T                3.4  .22 Ml 1.7         4947952
SMF   001.24 030.2 m E Pg      2012/05/17 07:48:51.6   0.2                          T                                        4947957
SMF   001.24 030.2 m E Sg      2012/05/17 07:49:07.0  -0.7                          T                 .8  .15 Ml 1.6         4947956
AVF   001.25 013.4 m E Pg      2012/05/17 07:48:51.7   0.3                          T                                        4947958
AVF   001.25 013.4 m E Sg      2012/05/17 07:49:08.0   0.1                          T                2.1  .19 Ml 2.0         4947959
VIVF  001.42 119.6 m E Pg      2012/05/17 07:48:54.8   0.1                          T                                        4947972
VIVF  001.42 119.6 m E Sg      2012/05/17 07:49:13.0  -0.3                          T                1.7  .24 Ml 1.8         4947971
SSF   001.54 014.8 m E Pg      2012/05/17 07:48:56.8  -0.1                          T                                        4947970
SSF   001.54 014.8 m E Sg      2012/05/17 07:49:17.1   0.2                          T                1.2  .27 Ml 1.8         4947973
LASF  001.64 155.9 m E Pg      2012/05/17 07:48:58.5  -0.1                          T                                        4947969
LASF  001.64 155.9 m E Sg      2012/05/17 07:49:19.5  -0.4                          T                 .7  .17 Ml 1.7         4947968
LOR   001.81 020.4 m E Pg      2012/05/17 07:49:01.9   0.0                          T                                        4947962
LOR   001.81 020.4 m E Sg      2012/05/17 07:49:25.2  -0.3                          T               19.6 1.32 Ml 2.3         4947963
MTLF  002.29 193.2 m E Pn      2012/05/17 07:49:05.3   0.0                          T                                        4947967
MTLF  002.29 193.2 m E Sn      2012/05/17 07:49:32.5  -0.2                          T                 .4  .19 Ml 1.6         4947966
MFF   002.38 296.8 m E Pn      2012/05/17 07:49:06.1  -0.3                          T                                        4947965
MFF   002.38 296.8 m E Sn      2012/05/17 07:49:34.1  -0.6                          T                1.1  .24 Ml 2.1         4947964

.
EVENT     276182
    Date      Time       Latitude Longitude    Depth    Ndef Nsta Gap    Mag1  N    Mag2  N    Mag3  N   Author         ID
       rms   OT_Error      Smajor Sminor Az        Err   mdist  Mdist     Err        Err        Err      Quality

2012/05/17 08:05:04.9     43.9058    7.3637      2.0      14    7 144  Ml 1.5  4  Md 1.6  3              bulletin    276282
                                                                                                         _ldg
      0.27   +-  0.11       2.2    1.8   77.70 +-  0.0    0.07   2.15   +-0.1      +-0.2                 m i ke

NEAR SOUTH COAST OF FRANCE
Sta     Dist  EvAz     Phase      Date       Time     TRes  Azim  AzRes  Slow  SRes Def   SNR       Amp   Per   Mag1   Mag2       ID
SBF   000.07 129.6 m E Pg      2012/05/17 08:05:06.5  -0.2                          T                                        4947979
SBF   000.07 129.6 m E Sg      2012/05/17 08:05:07.8   0.0                          T               28.4  .18        Md 1.7  4947978
FRF   000.62 236.7 m E Pg      2012/05/17 08:05:16.6  -0.1                          T                                        4947975
FRF   000.62 236.7 m E Sg      2012/05/17 08:05:24.9  -0.1                          T                1.4  .24        Md 1.7  4947974
LMR   000.84 227.6 m E Pg      2012/05/17 08:05:21.3   0.5                          T                                        4947976
LMR   000.84 227.6 m E Sg      2012/05/17 08:05:31.2  -0.5                          T                1.3  .20        Md 1.3  4947977
SMRF  001.29 273.7 m E Pg      2012/05/17 08:05:29.1  -0.1                          T                                        4947987
SMRF  001.29 273.7 m E Sg      2012/05/17 08:05:45.3  -0.5                          T                  1  .27 Ml 1.5         4947986
ORIF  001.47 314.1 m E Pg      2012/05/17 08:05:32.4   0.0                          T                                        4947983
ORIF  001.47 314.1 m E Sg      2012/05/17 08:05:51.5   0.1                          T                 .9  .29 Ml 1.5         4947982
LPG   001.65 344.9 m E Pg      2012/05/17 08:05:36.1   0.1                          T                                        4947984
LPG   001.65 344.9 m E Sg      2012/05/17 08:05:57.1  -0.2                          T                 .5  .24 Ml 1.4         4947985
VIVF  002.15 297.1 m E Pn      2012/05/17 08:05:40.4   0.3                          T                                        4947981
VIVF  002.15 297.1 m E Sn      2012/05/17 08:06:05.4  -0.4                          T                 .7  .22 Ml 1.7         4947980

.
