EVENT     297036
    Date      Time       Latitude Longitude    Depth    Ndef Nsta Gap    Mag1  N    Mag2  N    Mag3  N   Author         ID
       rms   OT_Error      Smajor Sminor Az        Err   mdist  Mdist     Err        Err        Err      Quality

2013/04/26 05:22:44.4     47.1737    7.2214       .0 f    19    7 201  Ml 1.7  8  Md 1.8  1              bulletin    297136
                                                                                                         _ldg
      0.58   +-  0.15       3.1    1.6  102.58 +-  0.0    0.69   2.44   +-0.2      +-                    m i km

SWITZERLAND
Sta     Dist  EvAz     Phase      Date       Time     TRes  Azim  AzRes  Slow  SRes Def   SNR       Amp   Per   Mag1   Mag2       ID
HINF  000.69 338.9 m E Pg      2013/04/26 05:22:57.9   0.1                          T                                        5269536
HINF  000.69 338.9 m E Sg      2013/04/26 05:23:07.3   0.3                          T                6.6  .33        Md 1.8  5269535
CABF  000.96 234.5 m E Pg      2013/04/26 05:23:03.0   0.1                          T                                        5269540
CABF  000.96 234.5 m E Sg      2013/04/26 05:23:16.0   0.5                          T                 .9  .26 Ml 1.3         5269539
HAU   001.02 324.9 m E Pg      2013/04/26 05:23:03.9   0.1                          T                                        5269534
HAU   001.02 324.9 m E Sg      2013/04/26 05:23:17.7   0.4                          T                2.8  .25 Ml 1.7         5269533
CDF   001.24 001.7 m E Pg      2013/04/26 05:23:08.0   0.0                          T                                        5269532
CDF   001.24 001.7 m E Sg      2013/04/26 05:23:23.9  -0.3                          T                1.2  .20 Ml 1.8         5269531
PAGF  001.71 324.5 m E Pn      2013/04/26 05:23:13.8  -0.1                          T                                        5269542
PAGF  001.71 324.5 m E Sn      2013/04/26 05:23:34.5  -0.9                          T                1.9  .35 Ml 1.9         5269541
SFTF  001.80 305.8 m E Pg      2013/04/26 05:23:18.2   0.0 127.7  3.6               T                                        5269544
SFTF  001.80 305.8 m E Sg      2013/04/26 05:23:41.7   0.1                          T                1.4  .29 Ml 1.9         5269543
LOR   002.29 273.6 m E Pn      2013/04/26 05:23:21.7  -0.2  96.2  5.0               T                                        5269549
LOR   002.29 273.6 m E Sn      2013/04/26 05:23:48.9  -0.4                          T                 .9  .27 Ml 1.8         5269548

.
EVENT     297037
    Date      Time       Latitude Longitude    Depth    Ndef Nsta Gap    Mag1  N    Mag2  N    Mag3  N   Author         ID
       rms   OT_Error      Smajor Sminor Az        Err   mdist  Mdist     Err        Err        Err      Quality

2013/04/26 06:50:15.0     47.8090    5.8800       .0 f    16    8 084  Ml 2.2  4  Md 2.1  2              bulletin    297137
                                                                                                         _ldg
      0.42   +-  0.06       1.2    1.1    5.46 +-  0.0    0.37   1.47   +-0.1      +-0.0                 m i km

FRANCE
Sta     Dist  EvAz     Phase      Date       Time     TRes  Azim  AzRes  Slow  SRes Def   SNR       Amp   Per   Mag1   Mag2       ID
HAU   000.37 057.8 m E Pg      2013/04/26 06:50:21.5  -1.0                          T                                        5269613
HAU   000.37 057.8 m E Sg      2013/04/26 06:50:26.8  -0.8                          T              105.9  .76        Md 2.1  5269612
HINF  000.66 089.0 m E Pg      2013/04/26 06:50:27.7   0.0                          T                                        5269611
HINF  000.66 089.0 m E Sg      2013/04/26 06:50:36.5   0.1                          T                8.8  .34        Md 2.1  5269610
SFTF  000.69 305.4 m E Pg      2013/04/26 06:50:28.3   0.0 127.0  2.3               T                                        5269618
SFTF  000.69 305.4 m E Sg      2013/04/26 06:50:37.4  -0.1                          T               23.5  .47                5269621
PAGF  000.75 352.2 m E Pg      2013/04/26 06:50:29.5   0.0 172.2  0.2               T                                        5269619
PAGF  000.75 352.2 m E Sg      2013/04/26 06:50:39.3  -0.1                          T                9.5  .43                5269620
MEZF  000.89 321.7 m E Pg      2013/04/26 06:50:31.9   0.0                          T                                        5269617
MEZF  000.89 321.7 m E Sg      2013/04/26 06:50:43.4  -0.3                          T                7.7  .26 Ml 2.2         5269616
CDF   001.11 056.7 m E Pg      2013/04/26 06:50:36.5   0.3                          T                                        5269607
CDF   001.11 056.7 m E Sg      2013/04/26 06:50:50.6  -0.2                          T               10.0  .48 Ml 2.3         5269606
CABF  001.21 173.2 m E Pg      2013/04/26 06:50:37.7  -0.2                          T                                        5269609
CABF  001.21 173.2 m E Sg      2013/04/26 06:50:54.0   0.3                          T                6.7  .41 Ml 2.1         5269608
LOR   001.47 249.2 m E Pg      2013/04/26 06:50:42.9   0.2  70.6  2.9               T                                        5269615
LOR   001.47 249.2 m E Sg      2013/04/26 06:51:01.8  -0.2  68.7  1.0               T                6.9  .38 Ml 2.3         5269614

.
EVENT     297078
    Date      Time       Latitude Longitude    Depth    Ndef Nsta Gap    Mag1  N    Mag2  N    Mag3  N   Author         ID
       rms   OT_Error      Smajor Sminor Az        Err   mdist  Mdist     Err        Err        Err      Quality

2013/04/26 11:32:28.6     46.2709    7.0187       .0 f    40   12 096  Ml 2.2 13  Md 1.9  3              bulletin    297178
                                                                                                         _ldg
      0.62   +-  0.07       1.5     .8   86.79 +-  0.0    0.45   2.60   +-0.3      +-0.3                 m i km

SWITZERLAND
Sta     Dist  EvAz     Phase      Date       Time     TRes  Azim  AzRes  Slow  SRes Def   SNR       Amp   Per   Mag1   Mag2       ID
CABF  000.73 298.2 m E Pg      2013/04/26 11:32:42.4  -0.2                          T                                        5269926
CABF  000.73 298.2 m E Pn      2013/04/26 11:32:44.6  -0.2                          T                                        5269947
CABF  000.73 298.2 m E Sg      2013/04/26 11:32:52.2  -0.2                          T                                        5269927
CABF  000.73 298.2 m E Sn      2013/04/26 11:32:56.2   0.0                          T               77.7 1.02        Md 2.2  5269946
LPL   000.78 194.9 m E Pg      2013/04/26 11:32:43.9   0.1                          T                                        5269928
LPL   000.78 194.9 m E Sg      2013/04/26 11:32:54.0  -0.2                          T                6.5  .43        Md 1.8  5269930
LPG   000.80 193.7 m E Pg      2013/04/26 11:32:44.1   0.0                          T                                        5269929
LPG   000.80 193.7 m E Sg      2013/04/26 11:32:54.8   0.1                          T               12.3  .55        Md 1.7  5269954
HINF  001.55 355.9 m E Pn      2013/04/26 11:32:56.0   0.1                          T                                        5269924
HINF  001.55 355.9 m E Sg      2013/04/26 11:33:18.5   0.5                          T                2.3  .26 Ml 2.0         5269945
MBDF  001.55 186.5 m E Pg      2013/04/26 11:32:58.1   0.1                          T                                        5269933
MBDF  001.55 186.5 m E Sg      2013/04/26 11:33:18.3   0.0                          T               18.7  .74 Ml 2.5         5269931
ORIF  001.57 211.0 m E Pg      2013/04/26 11:32:58.2  -0.1                          T                                        5269937
ORIF  001.57 211.0 m E Sg      2013/04/26 11:33:18.7   0.0                          T               30.0  .64 Ml 2.7         5269935
HAU   001.79 345.5 m E Pn      2013/04/26 11:32:59.2   0.0                          T                                        5269962
HAU   001.79 345.5 m E Pg      2013/04/26 11:33:02.3   0.0                          T                                        5269961
HAU   001.79 345.5 m E Sn      2013/04/26 11:33:21.6   0.1                          T                4.6  .56 Ml 1.9         5269960
HAU   001.79 345.5 m E Sg      2013/04/26 11:33:25.7   0.1                          T                8.2  .42 Ml 2.2         5269959
VIVF  002.17 230.2 m E Pn      2013/04/26 11:33:04.4   0.0                          T                                        5269953
VIVF  002.17 230.2 m E Pg      2013/04/26 11:33:09.1  -0.1                          T                                        5269952
VIVF  002.17 230.2 m E Sn      2013/04/26 11:33:30.6   0.0                          T                8.4  .46 Ml 2.5         5269942
VIVF  002.17 230.2 m E Sg      2013/04/26 11:33:37.3   0.0                          T                4.5  .42 Ml 2.3         5269941
SMF   002.23 280.8 m E Pn      2013/04/26 11:33:05.0  -0.2                          T                                        5269951
SMF   002.23 280.8 m E Pg      2013/04/26 11:33:10.1  -0.1                          T                                        5269950
SMF   002.23 280.8 m E Sg      2013/04/26 11:33:38.9  -0.2                          T                1.5  .21 Ml 2.1         5269948
SFTF  002.36 325.8 m E Pn      2013/04/26 11:33:06.6  -0.3 144.8  0.4               T                                        5269958
SFTF  002.36 325.8 m E Pg      2013/04/26 11:33:12.7   0.1 149.8  5.4               T                                        5269957
SFTF  002.36 325.8 m E Sn      2013/04/26 11:33:35.1   0.0 142.2  -2.2              T                3.4  .36 Ml 2.3         5269956
SFTF  002.36 325.8 m E Sg      2013/04/26 11:33:43.4   0.2                          T                3.2  .32 Ml 2.3         5269955
LOR   002.39 295.8 m E Pn      2013/04/26 11:33:07.4   0.0                          T                                        5281793
LOR   002.39 295.8 m E Sg      2013/04/26 11:33:44.1  -0.1 125.1  11.6              T                 .9  .18 Ml 2.0         5281794
MEZF  002.60 329.8 m E Pn      2013/04/26 11:33:10.1  -0.1                          T                                        5281792

.
EVENT     297086
    Date      Time       Latitude Longitude    Depth    Ndef Nsta Gap    Mag1  N    Mag2  N    Mag3  N   Author         ID
       rms   OT_Error      Smajor Sminor Az        Err   mdist  Mdist     Err        Err        Err      Quality

2013/04/26 15:16:49.2     45.4766    6.5891      2.0      18    7 096  Ml 1.8  5  Md 1.9  2              bulletin    297186
                                                                                                         _ldg
      0.19   +-  0.05       1.1     .8  132.33 +-  0.0    0.11   2.35   +-0.3      +-0.0                 m i ke

FRANCE
Sta     Dist  EvAz     Phase      Date       Time     TRes  Azim  AzRes  Slow  SRes Def   SNR       Amp   Per   Mag1   Mag2       ID
LPL   000.11 068.4 m E Pg      2013/04/26 15:16:51.7  -0.2                          T                                        5269994
LPL   000.11 068.4 m E Sg      2013/04/26 15:16:53.7   0.2                          T              115.0  .54        Md 1.9  5269985
LPG   000.12 079.5 m E Pg      2013/04/26 15:16:52.0  -0.1                          T                                        5269993
LPG   000.12 079.5 m E Sg      2013/04/26 15:16:54.1   0.3                          T               90.6  .54        Md 2.0  5269986
ORIF  000.75 222.2 m E Pg      2013/04/26 15:17:03.4  -0.1                          T                                        5269992
ORIF  000.75 222.2 m E Sg      2013/04/26 15:17:13.4   0.2                          T                5.3  .26                5269991
MBDF  000.76 170.2 m E Pg      2013/04/26 15:17:03.9   0.2                          T                                        5269996
MBDF  000.76 170.2 m E Sg      2013/04/26 15:17:13.5  -0.2                          T                1.3  .21                5269995
CABF  001.19 343.1 m E Pg      2013/04/26 15:17:11.7   0.2                          T                                        5269988
CABF  001.19 343.1 m E Sg      2013/04/26 15:17:26.9   0.0                          T                2.5  .24 Ml 1.9         5269987
VIVF  001.49 246.1 m E Pn      2013/04/26 15:17:15.1  -0.2                          T                                        5270002
VIVF  001.49 246.1 m E Pg      2013/04/26 15:17:17.0  -0.1                          T                                        5269990
VIVF  001.49 246.1 m E Sn      2013/04/26 15:17:34.2   0.0                          T                 .9  .30 Ml 1.5         5270001
VIVF  001.49 246.1 m E Sg      2013/04/26 15:17:36.9   0.6                          T                3.0  .23 Ml 2.1         5269989
HINF  002.35 004.3 m E Pn      2013/04/26 15:17:27.1   0.0                          T                                        5269999
HINF  002.35 004.3 m E Pg      2013/04/26 15:17:34.3   1.4                          T                                        5270000
HINF  002.35 004.3 m E Sn      2013/04/26 15:17:54.7  -0.1                          T                 .2  .16 Ml 1.4         5269998
HINF  002.35 004.3 m E Sg      2013/04/26 15:18:03.0  -0.1                          T                 .7  .17 Ml 1.9         5269997

.
EVENT     297088
    Date      Time       Latitude Longitude    Depth    Ndef Nsta Gap    Mag1  N    Mag2  N    Mag3  N   Author         ID
       rms   OT_Error      Smajor Sminor Az        Err   mdist  Mdist     Err        Err        Err      Quality

2013/04/26 20:23:23.2     44.5336    6.6426      2.0      14    7 154  Ml 1.5  5  Md 1.5  1              bulletin    297188
                                                                                                         _ldg
      0.36   +-  0.13       4.9    1.9   98.32 +-  0.0    0.21   1.20   +-0.1      +-                    m i ke

FRANCE
Sta     Dist  EvAz     Phase      Date       Time     TRes  Azim  AzRes  Slow  SRes Def   SNR       Amp   Per   Mag1   Mag2       ID
MBDF  000.21 025.4 m E Pg      2013/04/26 20:23:28.0   0.3                          T                                        5270035
MBDF  000.21 025.4 m E Sg      2013/04/26 20:23:30.8   0.2                          T                4.2  .20        Md 1.5  5270036
ORIF  000.67 305.6 m E Pg      2013/04/26 20:23:34.9  -1.0                          T                                        5270034
ORIF  000.67 305.6 m E Sg      2013/04/26 20:23:44.5  -0.2                          T                2.2  .24                5270024
LPL   000.98 003.7 m E Pg      2013/04/26 20:23:41.5  -0.4                          T                                        5270033
LPL   000.98 003.7 m E Sg      2013/04/26 20:23:54.7   0.0                          T                1.1  .27 Ml 1.4         5270027
FRF   000.97 179.8 m E Pg      2013/04/26 20:23:41.8   0.4                          T                                        5270030
FRF   000.97 179.8 m E Sg      2013/04/26 20:23:53.8  -0.3                          T                1.5  .22 Ml 1.7         5270037
SMRF  000.95 234.4 m E Pg      2013/04/26 20:23:42.1   1.0                          T                                        5270031
SMRF  000.95 234.4 m E Sg      2013/04/26 20:23:54.1   0.7                          T                 .9  .29 Ml 1.3         5270025
LPG   000.97 004.5 m E Pg      2013/04/26 20:23:43.4   1.7                          T                                        5270032
LPG   000.97 004.5 m E Sg      2013/04/26 20:23:54.4   0.2                          T                1.1  .21 Ml 1.5         5270026
LMR   001.20 184.6 m E Pg      2013/04/26 20:23:45.3  -0.4                          T                                        5270029
LMR   001.20 184.6 m E Sg      2013/04/26 20:24:01.0  -0.2                          T                 .6  .18 Ml 1.5         5270028

.
EVENT     297089
    Date      Time       Latitude Longitude    Depth    Ndef Nsta Gap    Mag1  N    Mag2  N    Mag3  N   Author         ID
       rms   OT_Error      Smajor Sminor Az        Err   mdist  Mdist     Err        Err        Err      Quality

2013/04/26 21:23:16.1     44.5321    6.6807      2.0      21    8 068  Ml 1.5  5  Md 1.6  2              bulletin    297189
                                                                                                         _ldg
      0.36   +-  0.08       1.7    1.4   70.20 +-  0.0    0.21   1.20   +-0.2      +-0.0                 m i ke

FRANCE
Sta     Dist  EvAz     Phase      Date       Time     TRes  Azim  AzRes  Slow  SRes Def   SNR       Amp   Per   Mag1   Mag2       ID
MBDF  000.21 018.4 m E Pg      2013/04/26 21:23:21.3   0.9                          T                                Md 1.6  5270053
MBDF  000.21 018.4 m E Sg      2013/04/26 21:23:23.9   0.7                          T                                        5270038
ORIF  000.69 304.4 m E Pg      2013/04/26 21:23:28.9  -0.4                          T                                Md 1.6  5270042
ORIF  000.69 304.4 m E Sg      2013/04/26 21:23:37.9  -0.3                          T                                        5270041
SBF   000.86 140.7 m E Pg      2013/04/26 21:23:32.5   0.1                          T                                        5270046
SBF   000.86 140.7 m E Sg      2013/04/26 21:23:43.5  -0.1                          T                1.0  .20 Ml 1.5         5270047
LPG   000.97 002.9 m E Pg      2013/04/26 21:23:34.3  -0.3                          T                                        5270049
LPG   000.97 002.9 m E Sg      2013/04/26 21:23:47.2   0.0                          T                 .9  .24 Ml 1.4         5270050
LPL   000.98 002.1 m E Pg      2013/04/26 21:23:34.6  -0.2                          T                                        5270052
LPL   000.98 002.1 m E Sg      2013/04/26 21:23:48.4   0.8                          T                1.3  .29 Ml 1.5         5270051
SMRF  000.97 235.4 m E Pg      2013/04/26 21:23:34.9   0.6                          T                                        5270043
SMRF  000.97 235.4 m E Sg      2013/04/26 21:23:47.5   0.6                          T                                        5270048
FRF   000.97 181.5 m E Pg      2013/04/26 21:23:35.2   0.9                          T                                        5270045
FRF   000.97 181.5 m E Sg      2013/04/26 21:23:46.9   0.0                          T                2.3  .27 Ml 1.8         5270040
LMR   001.20 186.0 m E Pg      2013/04/26 21:23:38.3  -0.3                          T                                        5270044
LMR   001.20 186.0 m E Sg      2013/04/26 21:23:54.1  -0.1                          T                1.1  .21 Ml 1.7         5270039

.
