EVENT     293784
    Date      Time       Latitude Longitude    Depth    Ndef Nsta Gap    Mag1  N    Mag2  N    Mag3  N   Author         ID
       rms   OT_Error      Smajor Sminor Az        Err   mdist  Mdist     Err        Err        Err      Quality

2013/03/13 11:54:31.2     43.6603    7.7895     13.0 f    45    9 110  Ml 2.0  8  Md 1.9  2              bulletin    293884
                                                                                                         _ldg
      0.52   +-  0.09       1.7    1.5   61.69 +-  0.0    0.20   2.00   +-0.2      +-0.2                 m i ke

NEAR SOUTH COAST OF FRANCE
Sta     Dist  EvAz     Phase      Date       Time     TRes  Azim  AzRes  Slow  SRes Def   SNR       Amp   Per   Mag1   Mag2       ID
SBF   000.33 308.4 m E Pg      2013/03/13 11:54:38.5   0.5                          T                                        5223687
SBF   000.33 308.4 m E Sg      2013/03/13 11:54:43.0   0.4                          T               22.1  .16        Md 1.8  5223684
FRF   000.84 263.6 m E Pg      2013/03/13 11:54:47.1   0.1                          T                                        5223685
FRF   000.84 263.6 m E Sg      2013/03/13 11:54:58.0   0.0                          T                6.5  .15        Md 2.1  5223682
LMR   000.99 251.1 m E Pg      2013/03/13 11:54:49.3  -0.4                          T                                        5223686
LMR   000.99 251.1 m E Sg      2013/03/13 11:55:02.2  -0.5                          T                2.3  .18 Ml 1.9         5223681
PGF   001.42 141.0 m E Pn      2013/03/13 11:54:54.8  -0.5                          T                                        5223683
PGF   001.42 141.0 m E Sn      2013/03/13 11:55:12.2  -0.5                          T                1.2  .19 Ml 2.1         5223691
MBDF  001.29 325.9 m E Pg      2013/03/13 11:54:55.5  -0.1                          T                                        5223690
MBDF  001.29 325.9 m E Sg      2013/03/13 11:55:11.8  -0.6                          T                4.0  .21 Ml 2.2         5223688
SMRF  001.63 281.9 m E Pn      2013/03/13 11:54:58.8   0.8                          T                                        5223694
SMRF  001.63 281.9 m E Sn      2013/03/13 11:55:18.0   0.3                          T                                        5223693
SMRF  001.63 281.9 m E Sg      2013/03/13 11:55:23.2   0.4                          T                 .9  .16 Ml 1.9         5223695
ORIF  001.86 313.2 m E Pn      2013/03/13 11:55:01.3   0.1                          T                                        5223727
ORIF  001.86 313.2 m E Sn      2013/03/13 11:55:23.7   0.6                          T                1.1  .22 Ml 1.9         5223726
LPL   002.00 338.2 m E Pn      2013/03/13 11:55:03.3   0.0                          T                                        5223732
LPL   002.00 338.2 m E Pg      2013/03/13 11:55:08.5  -0.2                          T                                        5223731
LPL   002.00 338.2 m E Sn      2013/03/13 11:55:26.8   0.1                          T                2.9  .20 Ml 2.4         5223730
LPG   001.98 338.4 m E Pn      2013/03/13 11:55:03.5   0.4                          T                                        5223729
LPG   001.98 338.4 m E Sn      2013/03/13 11:55:26.7   0.4                          T                1.6  .19 Ml 2.1         5223728

.
EVENT     293799
    Date      Time       Latitude Longitude    Depth    Ndef Nsta Gap    Mag1  N    Mag2  N    Mag3  N   Author         ID
       rms   OT_Error      Smajor Sminor Az        Err   mdist  Mdist     Err        Err        Err      Quality

2013/03/13 14:35:08.9     45.8030    8.4458     58.3      28   12 071                                    bulletin    293899
                                                                                                         _ldg
                                               +-         0.42   3.96                                    m i ke

NORTHERN ITALY
Sta     Dist  EvAz     Phase      Date       Time     TRes  Azim  AzRes  Slow  SRes Def   SNR       Amp   Per   Mag1   Mag2       ID
LPL   001.24 257.2 m E Pn      2013/03/13 14:35:30.3  -0.8                          T                                        5223949
LPL   001.24 257.2 m E Sn      2013/03/13 14:35:46.3  -1.0                          T               13.0  .28                5223970
LPG   001.23 256.2 m E Pn      2013/03/13 14:35:31.3   0.1                          T                                        5223948
LPG   001.23 256.2 m E Sn      2013/03/13 14:35:45.8  -1.4                          T               25.2  .42                5223969
MBDF  001.60 228.3 m E Pn      2013/03/13 14:35:36.2   0.5                          T                                        5223947
MBDF  001.60 228.3 m E Sn      2013/03/13 14:35:54.2  -1.1                          T                6.2  .40                5223971
CABF  001.83 297.1 m E Pn      2013/03/13 14:35:38.2  -0.3                          T                                        5223957
CABF  001.83 297.1 m E Sn      2013/03/13 14:36:00.2  -0.2                          T                3.4  .25                5223967
ORIF  002.01 244.9 m E Pn      2013/03/13 14:35:40.8  -0.1                          T                                        5223946
ORIF  002.01 244.9 m E Sn      2013/03/13 14:36:03.3  -1.4                          T                3.6  .28                5223968
HINF  002.29 332.1 m E Pn      2013/03/13 14:35:43.6  -1.0                          T                                        5223965
HINF  002.29 332.1 m E Sn      2013/03/13 14:36:10.2  -0.8                          T                5.7  .34                5223956
HAU   002.63 327.6 m E Pn      2013/03/13 14:35:48.5  -0.5                          T                                        5223964
HAU   002.63 327.6 m E Sn      2013/03/13 14:36:18.5  -0.4                          T                6.9  .27                5223955
LOR   003.49 296.5 m E Pn      2013/03/13 14:36:00.8   0.4                          T                                        5223960
LOR   003.49 296.5 m E Sn      2013/03/13 14:36:39.6   0.8                          T                3.5  .31                5223958
SSF   003.64 292.0 m E Pn      2013/03/13 14:36:03.1   0.7                          T                                        5223961
SSF   003.64 292.0 m E Sn      2013/03/13 14:36:42.1  -0.3                          T                2.7  .35                5223959
FRF   002.58 210.4 m E Sn      2013/03/13 14:36:17.1  -0.5                          T                3.6  .38                5224452
SFTF  003.35 317.1 m E Sn      2013/03/13 14:36:35.4  -0.2                          T                5.7  .27                5224454
BGF   003.96 283.0 m E Sn      2013/03/13 14:36:49.6  -0.3                          T                4.1  .35                5224453

.
EVENT     293797
    Date      Time       Latitude Longitude    Depth    Ndef Nsta Gap    Mag1  N    Mag2  N    Mag3  N   Author         ID
       rms   OT_Error      Smajor Sminor Az        Err   mdist  Mdist     Err        Err        Err      Quality

2013/03/13 14:44:13.7     47.5392    6.0338       .0 f    23   10 114  Ml 2.2  7  Md 2.1  2              bulletin    293897
                                                                                                         _ldg
      1.86   +-  0.13       2.8    2.1  126.17 +-  0.0    0.51   1.79   +-0.1      +-0.1                 m i km

FRANCE
Sta     Dist  EvAz     Phase      Date       Time     TRes  Azim  AzRes  Slow  SRes Def   SNR       Amp   Per   Mag1   Mag2       ID
HAU   000.51 024.3 m E Pg      2013/03/13 14:44:23.0  -0.8                          T                                        5223855
HAU   000.51 024.3 m E Sg      2013/03/13 14:44:30.0  -0.7                          T                9.9  .22        Md 2.1  5223854
HINF  000.62 063.1 m E Pg      2013/03/13 14:44:26.3   0.6                          T                                        5223853
HINF  000.62 063.1 m E Sg      2013/03/13 14:44:34.1   0.0                          T                2.5  .18        Md 2.0  5223852
CABF  000.93 177.7 m E Pg      2013/03/13 14:44:31.6   0.0                          T                                        5223851
CABF  000.93 177.7 m E Pn      2013/03/13 14:44:32.8   0.1                          T                                        5223838
CABF  000.93 177.7 m E Sg      2013/03/13 14:44:44.1   0.3                          T                7.1  .24 Ml 2.3         5223850
CABF  000.93 177.7 m E Sn      2013/03/13 14:44:46.2   0.1                          T                                        5223837
SFTF  000.95 315.2 m E Pg      2013/03/13 14:44:32.2   0.5 141.1  6.7               T                                        5223840
SFTF  000.95 315.2 m E Sg      2013/03/13 14:44:43.9  -0.3 137.2  2.8               T                6.9  .26 Ml 2.2         5223839
PAGF  001.04 348.6 m E Pg      2013/03/13 14:44:33.9   0.4                          T                                        5223845
PAGF  001.04 348.6 m E Sg      2013/03/13 14:44:46.7  -0.4 164.4  -3.9              T                4.6  .19 Ml 2.2         5223842
MEZF  001.17 326.0 m E Pg      2013/03/13 14:44:35.8   0.0 150.2  4.9               T                                        5223841
MEZF  001.17 326.0 m E Sg      2013/03/13 14:44:51.4   0.3                          T                9.3  .32 Ml 2.4         5223836
CDF   001.21 043.2 m E Pg      2013/03/13 14:44:36.4  -0.3                          T                                        5223849
CDF   001.21 043.2 m E Sg      2013/03/13 14:44:52.3  -0.2                          T                2.3  .24 Ml 2.0         5223848
LOR   001.50 260.4 m E Pg      2013/03/13 14:44:41.8  -0.2  85.4  6.6               T                                        5223847
LOR   001.50 260.4 m E Sn      2013/03/13 14:44:59.7   0.0                          T                                        5223843
LOR   001.50 260.4 m E Sg      2013/03/13 14:45:01.7   0.1 108.5  29.7              T                5.1  .24 Ml 2.4         5223846
SMF   001.74 240.0 m E Pg      2013/03/13 14:44:46.5   0.0                          T                                        5223834
SMF   001.74 240.0 m E Sn      2013/03/13 14:45:05.4  -0.1                          T                                        5223833
SMF   001.74 240.0 m E Sg      2013/03/13 14:45:09.0  -0.2                          T                3.9  .28 Ml 2.3         5223835
SSF   001.79 255.4 m E Sg      2013/03/13 14:45:10.0  -0.4                          T                                        5223844

.
EVENT     293798
    Date      Time       Latitude Longitude    Depth    Ndef Nsta Gap    Mag1  N    Mag2  N    Mag3  N   Author         ID
       rms   OT_Error      Smajor Sminor Az        Err   mdist  Mdist     Err        Err        Err      Quality

2013/03/13 16:59:47.6     49.2112    6.0549       .0 f    22   10 175  Ml 2.2  9  Md 2.1  1              bulletin    293898
                                                                                                         _ldg
      0.54   +-  0.09       2.0    1.2   51.38 +-  0.0    0.69   2.75   +-0.2      +-                    m i km

GERMANY
Sta     Dist  EvAz     Phase      Date       Time     TRes  Azim  AzRes  Slow  SRes Def   SNR       Amp   Per   Mag1   Mag2       ID
PAGF  000.69 198.5 m E Pg      2013/03/13 17:00:00.9  -0.1  18.8  0.6               T                                        5223874
PAGF  000.69 198.5 m E Sg      2013/03/13 17:00:10.0  -0.2  20.2  2.0               T              135.8  .84        Md 2.1  5223870
MEZF  000.97 223.4 m E Pn      2013/03/13 17:00:06.9  -0.1  46.2  3.6               T                                        5223871
MEZF  000.97 223.4 m E Sn      2013/03/13 17:00:20.3  -0.6                          T               10.2  .51 Ml 2.1         5223867
CDF   001.14 134.3 m E Pg      2013/03/13 17:00:09.1  -0.2                          T                                        5223873
CDF   001.14 134.3 m E Sg      2013/03/13 17:00:24.4   0.3                          T                2.6  .28 Ml 2.0         5223869
GIVF  001.20 318.6 m E Pn      2013/03/13 17:00:10.0  -0.2                          T                                        5223872
GIVF  001.20 318.6 m E Sn      2013/03/13 17:00:26.3   0.0                          T               29.8  .46 Ml 2.7         5223868
HAU   001.22 170.7 m E Pn      2013/03/13 17:00:10.6   0.1                          T                                        5223861
HAU   001.22 170.7 m E Sn      2013/03/13 17:00:26.3  -0.6                          T                6.5  .18 Ml 2.3         5223856
SFTF  001.21 214.2 m E Pn      2013/03/13 17:00:10.6   0.3                          T                                        5223866
SFTF  001.21 214.2 m E Sn      2013/03/13 17:00:26.5  -0.1  33.1  -0.3              T                6.0  .34 Ml 2.2         5223865
HINF  001.49 158.9 m E Pn      2013/03/13 17:00:14.3   0.1                          T                                        5223860
HINF  001.49 158.9 m E Pg      2013/03/13 17:00:15.9   0.1                          T                                        5224456
HINF  001.49 158.9 m E Sn      2013/03/13 17:00:33.3  -0.1                          T                1.6  .19 Ml 1.9         5223875
BAIF  001.47 306.0 m E Pg      2013/03/13 17:00:15.2  -0.1                          T                                        5224457
BAIF  001.47 306.0 m E Sg      2013/03/13 17:00:34.4  -0.1                          T               12.6  .59 Ml 2.4         5223859
LOR   002.44 217.9 m E Pn      2013/03/13 17:00:27.2   0.2                          T                                        5223863
LOR   002.44 217.9 m E Sn      2013/03/13 17:00:55.6  -0.4  34.2  -2.0              T                                        5224455
LOR   002.44 217.9 m E Sg      2013/03/13 17:01:04.1  -0.5  42.3  6.0               T                2.6  .35 Ml 2.2         5223858
SSF   002.75 219.4 m E Pn      2013/03/13 17:00:31.5   0.3                          T                                        5223862
SSF   002.75 219.4 m E Sn      2013/03/13 17:01:04.1   0.8                          T                1.2  .29 Ml 2.1         5223857

.
EVENT     293801
    Date      Time       Latitude Longitude    Depth    Ndef Nsta Gap    Mag1  N    Mag2  N    Mag3  N   Author         ID
       rms   OT_Error      Smajor Sminor Az        Err   mdist  Mdist     Err        Err        Err      Quality

2013/03/13 22:17:33.7     47.4792    7.7502     16.7      26    5 091  Ml 1.6  4  Md 1.7  1              bulletin    293901
                                                                                                         _ldg
      0.23   +-  0.04        .9     .7  136.06 +-  0.4    0.12   2.10   +-0.2      +-                    m i ke

SWITZERLAND
Sta     Dist  EvAz     Phase      Date       Time     TRes  Azim  AzRes  Slow  SRes Def   SNR       Amp   Per   Mag1   Mag2       ID
HINF  000.69 299.4 m E Pg      2013/03/13 22:17:46.2  -0.9                          T                                        5223982
HINF  000.69 299.4 m E Pn      2013/03/13 22:17:47.3   0.0                          T                                        5223977
HINF  000.69 299.4 m E Sg      2013/03/13 22:17:56.1  -0.3                          T                 .9  .20        Md 1.7  5223976
CDF   000.99 341.3 m E Pn      2013/03/13 22:17:51.7   0.4                          T                                        5223978
CDF   000.99 341.3 m E Sn      2013/03/13 22:18:04.3   0.2                          T                3.2  .38 Ml 1.8         5223974
HAU   001.08 299.6 m E Pn      2013/03/13 22:17:52.7   0.1                          T                                        5223979
HAU   001.08 299.6 m E Sn      2013/03/13 22:18:06.3   0.0                          T                3.2  .29 Ml 1.7         5223975
LPL   002.09 200.1 m E Pn      2013/03/13 22:18:06.3  -0.2                          T                                        5223980
LPL   002.09 200.1 m E Sn      2013/03/13 22:18:30.4  -0.1                          T                 .3  .21 Ml 1.4         5223972
LPG   002.10 199.6 m E Pn      2013/03/13 22:18:07.1   0.3                          T                                        5223981
LPG   002.10 199.6 m E Sn      2013/03/13 22:18:31.0   0.1                          T                 .7  .27 Ml 1.7         5223973

.
