EVENT     280071
    Date      Time       Latitude Longitude    Depth    Ndef Nsta Gap    Mag1  N    Mag2  N    Mag3  N   Author         ID
       rms   OT_Error      Smajor Sminor Az        Err   mdist  Mdist     Err        Err        Err      Quality

2012/07/22 07:05:17.3     44.9481   11.1729      2.0      46   18 150  Ml 2.5 17                         bulletin    280171
                                                                                                         _ldg
      0.47   +-  0.14       2.9    2.0   89.94 +-  0.0    0.20   7.40   +-0.3                            m i ke

NORTHERN ITALY
Sta     Dist  EvAz     Phase      Date       Time     TRes  Azim  AzRes  Slow  SRes Def   SNR       Amp   Per   Mag1   Mag2       ID
SBF   002.89 249.3 m E Pn      2012/07/22 07:06:02.7   0.1                          T                                        5032702
SBF   002.89 249.3 m E P       2012/07/22 07:06:05.8   0.4                          T                                        5038325
SBF   002.89 249.3 m E Sn      2012/07/22 07:06:35.8  -0.1                          T                5.0  .20 Ml 2.8         5032705
PGF   002.87 214.0 m E Pn      2012/07/22 07:06:02.8   0.4                          T                                        5032703
PGF   002.87 214.0 m E Sn      2012/07/22 07:06:36.1   0.7                          T                5.3  .33 Ml 2.8         5032704
MBDF  003.14 267.5 m E Pn      2012/07/22 07:06:06.0  -0.1                          T                                        5037764
MBDF  003.14 267.5 m E Sn      2012/07/22 07:06:41.1  -0.9                          T                1.3  .27 Ml 2.1         5037763
LPL   003.19 281.8 m E Pn      2012/07/22 07:06:06.5  -0.3                          T                                        5037757
LPL   003.19 281.8 m E Sn      2012/07/22 07:06:41.3  -1.8                          T                1.3  .24 Ml 2.2         5032708
LPG   003.17 281.5 m E Pn      2012/07/22 07:06:07.0   0.3                          T                                        5037756
LPG   003.17 281.5 m E Sn      2012/07/22 07:06:42.0  -0.8                          T                1.3  .25 Ml 2.2         5032706
FRF   003.54 248.5 m E Pn      2012/07/22 07:06:10.8  -0.5                          T                                        5032700
FRF   003.54 248.5 m E P       2012/07/22 07:06:13.9  -0.5                          T                                        5038326
FRF   003.54 248.5 m E Sn      2012/07/22 07:06:51.2   0.1                          T                2.5  .19 Ml 2.7         5032707
LMR   003.72 246.0 m E Pn      2012/07/22 07:06:13.7  -0.2                          T                                        5032701
LMR   003.72 246.0 m E Sn      2012/07/22 07:06:56.5   0.9                          T                3.2  .24 Ml 2.7         5037778
ORIF  003.76 271.4 m E Pn      2012/07/22 07:06:14.8   0.4                          T                                        5032699
ORIF  003.76 271.4 m E Sn      2012/07/22 07:06:56.6  -0.1                          T                1.7  .34 Ml 2.3         5037762
CABF  003.93 296.9 m E Pn      2012/07/22 07:06:17.5   0.8                          T                                        5037769
CABF  003.93 296.9 m E Sn      2012/07/22 07:07:00.5  -0.1                          T                1.4  .37 Ml 2.2         5037768
SMRF  004.12 258.3 m E Pn      2012/07/22 07:06:19.1  -0.2                          T                                        5037761
HINF  004.14 315.4 m E Pn      2012/07/22 07:06:19.6   0.0                          T                                        5037775
HINF  004.14 315.4 m E Sn      2012/07/22 07:07:06.0   0.2                          T                4.2  .40 Ml 2.7         5037774
CDF   004.38 323.7 m E Pn      2012/07/22 07:06:23.7   0.7                          T                                        5037777
CDF   004.38 323.7 m E Sn      2012/07/22 07:07:11.2  -0.3                          T                 .9  .26 Ml 2.4         5037776
HAU   004.52 314.3 m E Pn      2012/07/22 07:06:25.1   0.3                          T                                        5037773
HAU   004.52 314.3 m E Sn      2012/07/22 07:07:14.8  -0.1                          T               10.5  .50 Ml 2.9         5037772
VIVF  004.62 271.1 m E Pn      2012/07/22 07:06:26.1   0.1                          T                                        5037766
VIVF  004.62 271.1 m E Sn      2012/07/22 07:07:17.0  -0.1                          T                 .7  .25 Ml 2.2         5037765
THEF  004.85 314.4 m E Pn      2012/07/22 07:06:28.9  -0.2                          T                                        5037770
THEF  004.85 314.4 m E Sn      2012/07/22 07:07:22.3  -0.3                          T                1.9  .23 Ml 2.7         5037771
LOR   005.59 297.1 m E Pn      2012/07/22 07:06:39.1  -0.2                          T                                        5037759
LOR   005.59 297.1 m E Sn      2012/07/22 07:07:40.3   0.0                          T                 .8  .24 Ml 2.6         5037758
AVF   005.76 291.4 m E Pn      2012/07/22 07:06:41.8   0.2                          T                                        5037767
LFF   007.40 273.6 m E Pn      2012/07/22 07:07:03.8  -0.2                          T                                        5037760

.
EVENT     279865
    Date      Time       Latitude Longitude    Depth    Ndef Nsta Gap    Mag1  N    Mag2  N    Mag3  N   Author         ID
       rms   OT_Error      Smajor Sminor Az        Err   mdist  Mdist     Err        Err        Err      Quality

2012/07/22 07:08:52.2     44.6009    7.2356      2.0      36    8 086  Ml 1.7  7  Md 1.7  5              bulletin    279965
                                                                                                         _ldg
      0.80   +-  0.09       2.2    1.3   74.58 +-  0.0    0.14   2.75   +-0.2      +-0.1                 m i ke

NORTHERN ITALY
Sta     Dist  EvAz     Phase      Date       Time     TRes  Azim  AzRes  Slow  SRes Def   SNR       Amp   Per   Mag1   Mag2       ID
MBDF  000.35 291.0 m E Pg      2012/07/22 07:08:59.2   0.0                          T                                        5031073
MBDF  000.35 291.0 m E Sg      2012/07/22 07:09:03.9  -0.1                          T               13.1  .20        Md 1.6  5031072
SBF   000.75 168.9 m E Pg      2012/07/22 07:09:06.6   0.1                          T                                        5032712
SBF   000.75 168.9 m E Sg      2012/07/22 07:09:16.3   0.1                          T                 .9  .16        Md 1.8  5032711
LPL   000.98 338.9 m E Pg      2012/07/22 07:09:10.7  -0.1                          T                                        5031069
LPL   000.98 338.9 m E Sg      2012/07/22 07:09:23.1  -0.5                          T                1.1  .26 Ml 1.4 Md 1.8  5031068
LPG   000.96 339.2 m E Pg      2012/07/22 07:09:11.3   0.7                          T                                        5037842
LPG   000.96 339.2 m E Sg      2012/07/22 07:09:23.1   0.1                          T                1.3  .21 Ml 1.6 Md 1.8  5037841
ORIF  001.02 288.7 m E Pg      2012/07/22 07:09:11.3   0.0                          T                                        5031070
ORIF  001.02 288.7 m E Sg      2012/07/22 07:09:23.6  -0.9                          T                1.0  .18 Ml 1.6 Md 1.8  5031071
FRF   001.12 202.4 m E Pn      2012/07/22 07:09:13.4   0.2                          T                                        5031067
FRF   001.12 202.4 m E Sg      2012/07/22 07:09:27.6  -0.1                          T                2.5  .21 Ml 2.0         5031066
LMR   001.37 202.7 m E P       2012/07/22 07:09:17.9  -0.5                          T                                        5032713
LMR   001.37 202.7 m E Sg      2012/07/22 07:09:35.2  -0.2                          T                2.8  .24 Ml 2.1         5037838
SMRF  001.35 242.9 m E P       2012/07/22 07:09:18.4   0.3                          T                                        5037840
SMRF  001.35 242.9 m E Sn      2012/07/22 07:09:34.2   0.5                          T                1.7  .31 Ml 1.7         5037839

.
EVENT     280072
    Date      Time       Latitude Longitude    Depth    Ndef Nsta Gap    Mag1  N    Mag2  N    Mag3  N   Author         ID
       rms   OT_Error      Smajor Sminor Az        Err   mdist  Mdist     Err        Err        Err      Quality

2012/07/22 07:11:01.2     44.5090    7.0230      2.0      16    8 166  Ml 1.4  6  Md 1.7  1              bulletin    280172
                                                                                                         _ldg
      1.48   +-  0.32       6.9    3.1   81.41 +-  0.0    0.28   1.23   +-0.1      +-                    m i ke

NORTHERN ITALY
Sta     Dist  EvAz     Phase      Date       Time     TRes  Azim  AzRes  Slow  SRes Def   SNR       Amp   Per   Mag1   Mag2       ID
MBDF  000.28 320.6 m E Pg      2012/07/22 07:11:06.8  -0.1                          T                                        5032719
MBDF  000.28 320.6 m E Sg      2012/07/22 07:11:11.1   0.3                          T                                Md 1.7  5032717
ORIF  000.91 297.1 m E Pg      2012/07/22 07:11:18.4   0.0                          T                                        5038781
ORIF  000.91 297.1 m E Sg      2012/07/22 07:11:30.6   0.2                          T                                        5032721
FRF   000.99 196.1 m E Pg      2012/07/22 07:11:19.6  -0.1                          T                                        5032718
FRF   000.99 196.1 m E Sg      2012/07/22 07:11:33.4   0.9                          T                 .9  .21 Ml 1.5         5032716
LPL   001.03 348.5 m E Pg      2012/07/22 07:11:20.4  -0.4                          T                                        5038779
LPL   001.03 348.5 m E Sg      2012/07/22 07:11:34.1   0.0                          T                2.3  .51 Ml 1.5         5038780
SMRF  001.17 243.4 m E Pg      2012/07/22 07:11:22.7  -0.5                          T                                        5038777
SMRF  001.17 243.4 m E Sg      2012/07/22 07:11:38.3   0.0                          T                1.1  .39 Ml 1.3         5038778
LMR   001.23 197.7 m E Pg      2012/07/22 07:11:23.8  -0.4                          T                                        5038776
LMR   001.23 197.7 m E Sg      2012/07/22 07:11:41.1   0.9                          T                 .8  .21 Ml 1.5         5032715
SBF   000.71 155.2 m E Sg      2012/07/22 07:11:25.0   1.0                          T                1.3  .23                5038775
LPG   001.01 349.1 m E Sg      2012/07/22 07:11:33.3  -0.3                          T                 .9  .21 Ml 1.5         5032724

.
EVENT     279965
    Date      Time       Latitude Longitude    Depth    Ndef Nsta Gap    Mag1  N    Mag2  N    Mag3  N   Author         ID
       rms   OT_Error      Smajor Sminor Az        Err   mdist  Mdist     Err        Err        Err      Quality

2012/07/22 07:21:17.3     42.3626    1.6132      4.0 f    46    8 027  Ml 1.9  6  Md 2.1  3              bulletin    280065
                                                                                                         _ldg
      0.46   +-  0.05       1.0     .8   10.89 +-  0.0    0.10   2.94   +-0.2      +-0.1                 m i ke

PYRENEES
Sta     Dist  EvAz     Phase      Date       Time     TRes  Azim  AzRes  Slow  SRes Def   SNR       Amp   Per   Mag1   Mag2       ID
MTLF  001.07 024.2 m E Pg      2012/07/22 07:21:37.9   0.5                          T                                        5031603
MTLF  001.07 024.2 m E Sg      2012/07/22 07:21:51.4   0.1                          T                2.8  .22 Ml 2.0 Md 2.0  5031604
EPF   001.15 305.8 m E Pg      2012/07/22 07:21:38.4  -0.5                          T                                        5031602
EPF   001.15 305.8 m E Sg      2012/07/22 07:21:53.8  -0.1                          T                1.1  .17 Ml 1.7 Md 2.1  5031607
ETSF  001.69 289.2 m E Pg      2012/07/22 07:21:48.0  -0.9                          T                                        5031606
ETSF  001.69 289.2 m E Sn      2012/07/22 07:22:07.2   0.4                          T                                        5038331
ETSF  001.69 289.2 m E Sg      2012/07/22 07:22:11.5   0.8                          T                 .8  .18 Ml 1.8 Md 2.2  5031605
SJPF  002.22 290.7 m E Pn      2012/07/22 07:21:55.3   2.1                          T                                        5033637
SJPF  002.22 290.7 m E Sn      2012/07/22 07:22:19.4   0.0                          T                                        5038332
SJPF  002.22 290.7 m E Sg      2012/07/22 07:22:27.7   0.5                          T                                        5033638
CAF   002.58 007.1 m E Sn      2012/07/22 07:22:29.4   1.4                          T                                        5038333
CAF   002.58 007.1 m E Sg      2012/07/22 07:22:38.3  -0.1                          T                1.2  .22 Ml 2.1         5031610
LASF  002.37 043.0 m E Sg      2012/07/22 07:22:32.0   0.1                          T                                        5038329
LFF   002.65 346.5 m E Sg      2012/07/22 07:22:40.6   0.0                          T                                        5038330
RJF   002.94 358.7 m E Sg      2012/07/22 07:22:49.5  -0.2                          T                 .7  .16 Ml 1.7         5031609

.
EVENT     280073
    Date      Time       Latitude Longitude    Depth    Ndef Nsta Gap    Mag1  N    Mag2  N    Mag3  N   Author         ID
       rms   OT_Error      Smajor Sminor Az        Err   mdist  Mdist     Err        Err        Err      Quality

2012/07/22 08:54:42.4     43.1217    -.6924      2.0       6    3 187             Md 1.7  3              bulletin    280173
                                                                                                         _ldg
      0.13   +-  0.08       2.8    1.2   11.23 +-  0.0    0.24   0.76              +-0.1                 m i ke

PYRENEES
Sta     Dist  EvAz     Phase      Date       Time     TRes  Azim  AzRes  Slow  SRes Def   SNR       Amp   Per   Mag1   Mag2       ID
ETSF  000.24 156.3 m E Pg      2012/07/22 08:54:47.4   0.1                          T                                        5032729
ETSF  000.24 156.3 m E Sg      2012/07/22 08:54:50.4  -0.2                          T                8.3  .30        Md 1.7  5032726
SJPF  000.39 269.0 m E Pg      2012/07/22 08:54:50.0   0.0                          T                                        5032728
SJPF  000.39 269.0 m E Sg      2012/07/22 08:54:55.0  -0.1                          T                2.8  .28        Md 1.8  5032727
EPF   000.76 096.5 m E Pg      2012/07/22 08:54:56.7  -0.1                          T                                        5032730
EPF   000.76 096.5 m E Sg      2012/07/22 08:55:07.0   0.3                          T                 .8  .22        Md 1.7  5032725

.
