EVENT     272257
    Date      Time       Latitude Longitude    Depth    Ndef Nsta Gap    Mag1  N    Mag2  N    Mag3  N   Author         ID
       rms   OT_Error      Smajor Sminor Az        Err   mdist  Mdist     Err        Err        Err      Quality

2012/03/22 05:15:15.6     43.9856    7.6078      2.0      30    9 072  Ml 1.6  5  Md 1.6  1              js067245    272277

      0.33   +-  0.06       1.2    1.2   64.20 +-  0.0    0.04   3.07   +-0.2      +-                    m i ke

NEAR SOUTH COAST OF FRANCE
Sta     Dist  EvAz     Phase      Date       Time     TRes  Azim  AzRes  Slow  SRes Def   SNR       Amp   Per   Mag1   Mag2       ID
SBF   000.17 225.6 m E Pg      2012/03/22 05:15:19.2  -0.1                          T                                        4882794
SBF   000.17 225.6 m E Sg      2012/03/22 05:15:22.5   0.8                          T               10.5  .21        Md 1.6  4882788
FRF   000.82 238.9 m E Pg      2012/03/22 05:15:31.0   0.1                          T                                        4882793
FRF   000.82 238.9 m E Pn      2012/03/22 05:15:32.6   0.1                          T                                        4882786
FRF   000.82 238.9 m E Sg      2012/03/22 05:15:41.7   0.2                          T                                        4882782
FRF   000.82 238.9 m E Sn      2012/03/22 05:15:44.4   0.0                          T                1.3  .18                4882792
MBDF  000.95 321.3 m E Pg      2012/03/22 05:15:34.0   0.3                          T                                        4882784
MBDF  000.95 321.3 m E Sg      2012/03/22 05:15:46.1   0.0                          T                1.6  .34 Ml 1.5         4882783
LMR   001.03 231.1 m E Pg      2012/03/22 05:15:34.6  -0.2                          T                                        4882789
LMR   001.03 231.1 m E Sg      2012/03/22 05:15:48.3   0.1                          T                 .8  .15 Ml 1.6         4882787
SMRF  001.47 270.3 m E Pg      2012/03/22 05:15:42.9  -0.1                          T                                        4882790
SMRF  001.47 270.3 m E Sg      2012/03/22 05:16:02.1   0.2                          T                1.8  .26 Ml 1.9         4882791
ORIF  001.55 307.6 m E Pg      2012/03/22 05:15:44.4  -0.2                          T                                        4882785
LPG   001.63 338.3 m E P       2012/03/22 05:15:46.0   0.1                          T                                        4894926
LPG   001.63 338.3 m E Sg      2012/03/22 05:16:07.6   0.3                          T                 .5  .26 Ml 1.4         4894928
LPL   001.65 338.1 m E P       2012/03/22 05:15:46.1   0.0                          T                                        4894927
LPL   001.65 338.1 m E Sg      2012/03/22 05:16:07.9   0.0                          T                 .8  .32 Ml 1.5         4894929
PGF   001.76 144.2 m E Sn      2012/03/22 05:16:06.3  -0.8                          T                                        4882781

.
EVENT     272264
    Date      Time       Latitude Longitude    Depth    Ndef Nsta Gap    Mag1  N    Mag2  N    Mag3  N   Author         ID
       rms   OT_Error      Smajor Sminor Az        Err   mdist  Mdist     Err        Err        Err      Quality

2012/03/22 05:26:20.4     44.4822    6.6532      2.0      19    5 149  Ml 1.1  2  Md 1.1  1              js067245    272284

      0.22   +-  0.07       1.6     .8   43.38 +-  0.0    0.11   1.46   +-0.0      +-                    m i ke

FRANCE
Sta     Dist  EvAz     Phase      Date       Time     TRes  Azim  AzRes  Slow  SRes Def   SNR       Amp   Per   Mag1   Mag2       ID
MBDF  000.26 019.0 m E Pg      2012/03/22 05:26:25.8   0.1                          T                                        4882928
MBDF  000.26 019.0 m E Sg      2012/03/22 05:26:29.0  -0.3                          T                  1  .19        Md 1.1  4882925
ORIF  000.70 308.6 m E Pg      2012/03/22 05:26:33.6  -0.2                          T                                        4882927
ORIF  000.70 308.6 m E Sg      2012/03/22 05:26:43.2   0.2                          T                 .5  .17                4882926
LPL   001.04 003.1 m E Pg      2012/03/22 05:26:39.8  -0.3                          T                                        4882924
LPL   001.04 003.1 m E Sg      2012/03/22 05:26:53.2  -0.3                          T                 .5  .24 Ml 1.1         4882922
LPG   001.02 003.9 m E Pg      2012/03/22 05:26:40.3   0.4                          T                                        4882923
LPG   001.02 003.9 m E Sg      2012/03/22 05:26:53.1   0.0                          T                 .4  .19 Ml 1.1         4882921
VIVF  001.46 285.5 m E Pn      2012/03/22 05:26:46.2   0.0                          T                                        4882920

.
EVENT     272268
    Date      Time       Latitude Longitude    Depth    Ndef Nsta Gap    Mag1  N    Mag2  N    Mag3  N   Author         ID
       rms   OT_Error      Smajor Sminor Az        Err   mdist  Mdist     Err        Err        Err      Quality

2012/03/22 07:55:51.0     44.6891    8.4490      2.0      44    8 168  Ml 2.4  8  Md 2.6  2              js067245    272288

      0.58   +-  0.13       2.1    1.3   72.51 +-  0.0    0.16   2.18   +-0.4      +-0.0                 m i ke

NORTHERN ITALY
Sta     Dist  EvAz     Phase      Date       Time     TRes  Azim  AzRes  Slow  SRes Def   SNR       Amp   Per   Mag1   Mag2       ID
SBF   001.10 221.8 m E Pg      2012/03/22 07:56:12.0   0.3                          T                                        4882939
SBF   001.10 221.8 m E Sg      2012/03/22 07:56:25.8  -0.1                          T               36.8  .34 Ml 2.9 Md 2.6  4882938
MBDF  001.20 272.4 m E Pg      2012/03/22 07:56:13.2  -0.3                          T                                        4882945
MBDF  001.20 272.4 m E Sg      2012/03/22 07:56:28.3  -0.8                          T                8.9  .22 Ml 2.5 Md 2.6  4882944
LPG   001.45 304.5 m E Pg      2012/03/22 07:56:18.2  -0.1                          T                                        4882940
LPG   001.45 304.5 m E Sn      2012/03/22 07:56:34.9  -0.4                          T                1.0  .17 Ml 1.8         4882934
LPL   001.47 304.8 m E Pg      2012/03/22 07:56:18.9   0.3                          T                                        4882941
LPL   001.47 304.8 m E Sg      2012/03/22 07:56:37.4  -0.3                          T                4.2  .33 Ml 2.1         4882929
FRF   001.72 229.6 m E Pn      2012/03/22 07:56:19.6  -0.6                          T                                        4882935
FRF   001.72 229.6 m E Sn      2012/03/22 07:56:41.4   0.0                          T                                        4882931
FRF   001.72 229.6 m E Sg      2012/03/22 07:56:45.2   0.0                          T               10.2  .36 Ml 2.6         4882936
LMR   001.95 226.6 m E Pn      2012/03/22 07:56:23.0  -0.3                          T                                        4882930
LMR   001.95 226.6 m E Sg      2012/03/22 07:56:52.0  -0.2                          T               12.8  .29 Ml 2.9         4882937
ORIF  001.84 278.0 m E P       2012/03/22 07:56:24.0  -0.1                          T                                        4882943
ORIF  001.84 278.0 m E S       2012/03/22 07:56:47.7  -0.6                          T                                        4882942
SMRF  002.18 251.9 m E Pn      2012/03/22 07:56:26.8   0.2                          T                                        4882933
SMRF  002.18 251.9 m E Sg      2012/03/22 07:57:00.3   0.6                          T                1.8  .23 Ml 2.1         4882932

.
EVENT     272618
    Date      Time       Latitude Longitude    Depth    Ndef Nsta Gap    Mag1  N    Mag2  N    Mag3  N   Author         ID
       rms   OT_Error      Smajor Sminor Az        Err   mdist  Mdist     Err        Err        Err      Quality

2012/03/22 08:59:26.0     43.9398    7.1999      2.0      24    7 105  Ml 1.7  3  Md 1.5  1              js067245    272638

      0.21   +-  0.05        .9     .8  138.05 +-  0.0    0.19   1.59   +-0.2      +-                    m i ke

NEAR SOUTH COAST OF FRANCE
Sta     Dist  EvAz     Phase      Date       Time     TRes  Azim  AzRes  Slow  SRes Def   SNR       Amp   Per   Mag1   Mag2       ID
SBF   000.19 114.2 m E Pg      2012/03/22 08:59:30.2   0.2                          T                                        4895002
SBF   000.19 114.2 m E Sg      2012/03/22 08:59:32.3  -0.2                          T               68.2  .70        Md 1.5  4895003
FRF   000.55 226.8 m E Pg      2012/03/22 08:59:36.8   0.3                          T                                        4895000
FRF   000.55 226.8 m E Sg      2012/03/22 08:59:44.0   0.2                          T                3.5  .33                4894991
LMR   000.79 219.9 m E Pg      2012/03/22 08:59:40.7  -0.2                          T                                        4895001
LMR   000.79 219.9 m E Sg      2012/03/22 08:59:50.9  -0.2                          T                1.7  .22                4894990
MBDF  000.84 338.8 m E Pg      2012/03/22 08:59:42.2   0.1                          T                                        4894999
MBDF  000.84 338.8 m E Sg      2012/03/22 08:59:53.2   0.1                          T                9.0  .68                4894995
SMRF  001.17 272.3 m E Pg      2012/03/22 08:59:48.0   0.0                          T                                        4894996
SMRF  001.17 272.3 m E Sg      2012/03/22 09:00:03.4   0.1                          T                3.3  .31 Ml 1.9         4894992
ORIF  001.36 316.4 m E Pg      2012/03/22 08:59:51.6   0.0                          T                                        4894998
ORIF  001.36 316.4 m E Sg      2012/03/22 09:00:09.1  -0.1                          T                1.5  .32 Ml 1.7         4894994
LPG   001.59 348.6 m E Pg      2012/03/22 08:59:56.0  -0.1                          T                                        4894997
LPG   001.59 348.6 m E Sg      2012/03/22 09:00:16.6   0.0                          T                 .6  .28 Ml 1.4         4894993

.
EVENT     272290
    Date      Time       Latitude Longitude    Depth    Ndef Nsta Gap    Mag1  N    Mag2  N    Mag3  N   Author         ID
       rms   OT_Error      Smajor Sminor Az        Err   mdist  Mdist     Err        Err        Err      Quality

2012/03/22 12:25:12.7     45.7784   11.0255      2.0      62   12 038  Ml 2.8  9                         js067245    272310

      0.77   +-  0.11       2.8    1.9  173.38 +-  0.0    0.14   5.41   +-0.2                            m i ke

NORTHERN ITALY
Sta     Dist  EvAz     Phase      Date       Time     TRes  Azim  AzRes  Slow  SRes Def   SNR       Amp   Per   Mag1   Mag2       ID
MBDF  003.18 252.2 m E Pn      2012/03/22 12:26:01.9  -0.2                          T                                        4895038
MBDF  003.18 252.2 m E P       2012/03/22 12:26:05.0  -0.1                          T                                        4895039
MBDF  003.18 252.2 m E Sn      2012/03/22 12:26:38.0  -0.4                          T                4.1  .28 Ml 2.6         4895032
HINF  003.52 306.9 m E Pn      2012/03/22 12:26:06.6   0.1                          T                                        4895043
HINF  003.52 306.9 m E Sn      2012/03/22 12:26:46.2   0.1                          T                7.1  .36 Ml 2.8         4895030
LPG   003.01 266.2 m E Pg      2012/03/22 12:26:08.5  -0.4                          T                                        4895037
LPG   003.01 266.2 m E Sn      2012/03/22 12:26:34.6   0.2                          T               11.6  .52 Ml 2.8         4895033
CDF   003.67 317.2 m E Pn      2012/03/22 12:26:09.4   0.8                          T                                        4895045
CDF   003.67 317.2 m E Sn      2012/03/22 12:26:50.2   0.2                          T                                        4895027
CDF   003.67 317.2 m E Sg      2012/03/22 12:27:07.6  -0.5                          T               14.4  .62 Ml 3.1         4895028
HAU   003.90 306.5 m E Pn      2012/03/22 12:26:11.9   0.2                          T                                        4895044
HAU   003.90 306.5 m E Sn      2012/03/22 12:26:55.2  -0.2                          T               10.1  .42 Ml 2.8         4895029
VIVF  004.57 260.6 m E Pn      2012/03/22 12:26:20.7  -0.1                          T                                        4895040
VIVF  004.57 260.6 m E Sn      2012/03/22 12:27:11.7   0.2                          T                1.6  .33 Ml 2.4         4895031
SMF   005.06 282.4 m E Pn      2012/03/22 12:26:27.8   0.4                          T                                        4895042
LOR   005.17 289.3 m E Pn      2012/03/22 12:26:28.4  -0.4                          T                                        4895046
AVF   005.41 283.5 m E Pn      2012/03/22 12:26:32.1  -0.1                          T                                        4895041
LPL   003.02 266.6 m E Sn      2012/03/22 12:26:35.0   0.4                          T                6.7  .32 Ml 2.8         4895034
SBF   003.19 234.4 m E Sn      2012/03/22 12:26:38.5   0.1                          T                6.0  .23 Ml 2.9         4895036
PGF   003.54 205.0 m E Sn      2012/03/22 12:26:46.9   0.0                          T                2.4  .31 Ml 2.7         4895035

.
EVENT     272304
    Date      Time       Latitude Longitude    Depth    Ndef Nsta Gap    Mag1  N    Mag2  N    Mag3  N   Author         ID
       rms   OT_Error      Smajor Sminor Az        Err   mdist  Mdist     Err        Err        Err      Quality

2012/03/22 16:04:02.7     48.0499    6.4324       .0 f    15    7 099  Ml 1.5  2  Md 1.4  1              js067245    272324

      0.23   +-  0.04       1.0     .8   15.69 +-  0.0    0.07   1.46   +-0.0      +-                    m i km

FRANCE
Sta     Dist  EvAz     Phase      Date       Time     TRes  Azim  AzRes  Slow  SRes Def   SNR       Amp   Per   Mag1   Mag2       ID
HAU   000.07 232.0 m E Pg      2012/03/22 16:04:04.6   0.1                          T                                        4895065
HAU   000.07 232.0 m E Sg      2012/03/22 16:04:05.3  -0.4                          T               84.4  .32        Md 1.4  4895066
THEF  000.34 301.4 m E Pg      2012/03/22 16:04:09.6   0.0                          T                                        4895055
THEF  000.34 301.4 m E Sg      2012/03/22 16:04:14.4   0.0                          T               21.7  .77                4895056
HINF  000.37 129.4 m E Pg      2012/03/22 16:04:10.2   0.1                          T                                        4895057
HINF  000.37 129.4 m E Sg      2012/03/22 16:04:14.6  -0.6                          T                4.0  .20                4895058
CDF   000.67 057.0 m E Pg      2012/03/22 16:04:15.7   0.0                          T                                        4895061
CDF   000.67 057.0 m E Pn      2012/03/22 16:04:18.1   0.0                          T                                        4895062
CDF   000.67 057.0 m E Sg      2012/03/22 16:04:24.8   0.2                          T                                        4895063
CDF   000.67 057.0 m E Sn      2012/03/22 16:04:28.9   0.0                          T                4.3  .30                4895064
PAGF  000.69 317.2 m E Pg      2012/03/22 16:04:16.0   0.0                          T                                        4895054
PAGF  000.69 317.2 m E Pn      2012/03/22 16:04:18.2  -0.1                          T                                        4895059
PAGF  000.69 317.2 m E Sn      2012/03/22 16:04:29.2  -0.1 139.1  2.4               T                 .7  .26                4895060
MEZF  001.03 296.6 m E Sn      2012/03/22 16:04:37.3   0.1                          T                  1  .19 Ml 1.5         4895053
CABF  001.46 189.4 m E Sg      2012/03/22 16:04:49.5   0.2                          T                 .7  .23 Ml 1.5         4895052

.
