BEGIN GSE2.0
MSG_TYPE DATA
MSG_ID 24-JUN-1111:35:01  FRA_NDC
E-MAIL
DATA_TYPE BULLETIN
Reviewed Bulletin (REB) # P2011-024  from French NDC for regional phases     PERIOD 15 JUN 2011 TO 21 JUN 2011 P R., J-P S
EVENT     260326
    Date      Time       Latitude Longitude    Depth    Ndef Nsta Gap    Mag1  N    Mag2  N    Mag3  N   Author         ID
       rms   OT_Error      Smajor Sminor Az        Err   mdist  Mdist     Err        Err        Err      Quality

2011/06/15 00:21:07.1     46.0390    6.8620      5.0 f    12    4 083  Ml 1.8  1  Md 1.8  2              js067245    260326

      0.14   +-  0.04       1.2     .6  109.23 +-  0.0    0.04   1.94   +-         +-0.0                 m i ke

SWITZERLAND
Sta     Dist  EvAz     Phase      Date       Time     TRes  Azim  AzRes  Slow  SRes Def   SNR       Amp   Per   Mag1   Mag2       ID
LPL   000.53 189.9 m E Pg      2011/06/15 00:21:17.4  -0.1                          T                                        4707074
LPL   000.53 189.9 m E Sg      2011/06/15 00:21:24.6   0.1                          T                1.9  .26        Md 1.8  4707071
LPG   000.55 188.2 m E Pg      2011/06/15 00:21:17.8  -0.1                          T                                        4707073
LPG   000.55 188.2 m E Sg      2011/06/15 00:21:25.0  -0.1                          T                2.1  .22        Md 1.7  4707072
CABF  000.78 317.1 m E Pn      2011/06/15 00:21:23.4   0.1                          T                                        4707094
VIVF  001.94 233.3 m E Sg      2011/06/15 00:22:08.0  -0.3                          T                1.3  .35 Ml 1.8         4707095

.
EVENT     260327
    Date      Time       Latitude Longitude    Depth    Ndef Nsta Gap    Mag1  N    Mag2  N    Mag3  N   Author         ID
       rms   OT_Error      Smajor Sminor Az        Err   mdist  Mdist     Err        Err        Err      Quality

2011/06/15 01:20:26.3     45.2137    6.5496      2.0      10    5 211  Ml 1.6  2  Md 1.6  3              js067245    260327

      0.19   +-  0.13       4.1    1.0  132.79 +-  0.0    0.32   1.43   +-0.2      +-0.1                 m i ke

FRANCE
Sta     Dist  EvAz     Phase      Date       Time     TRes  Azim  AzRes  Slow  SRes Def   SNR       Amp   Per   Mag1   Mag2       ID
LPG   000.32 026.5 m E Pg      2011/06/15 01:20:32.7  -0.2                          T                                        4707104
LPG   000.32 026.5 m E Sg      2011/06/15 01:20:36.9  -0.2                          T                3.3  .29        Md 1.5  4707100
LPL   000.33 023.0 m E Pg      2011/06/15 01:20:33.1   0.1                          T                                        4707105
LPL   000.33 023.0 m E Sg      2011/06/15 01:20:37.3  -0.2                          T                1.7  .18        Md 1.6  4707101
ORIF  000.56 238.3 m E Pg      2011/06/15 01:20:37.1   0.0                          T                                        4707103
ORIF  000.56 238.3 m E Sg      2011/06/15 01:20:43.9  -0.5                          T                4.2  .23        Md 1.6  4707102
VIVF  001.38 255.6 m E Pg      2011/06/15 01:20:52.1   0.0                          T                                        4707098
VIVF  001.38 255.6 m E Sg      2011/06/15 01:21:10.1   0.2                          T                2.0  .38 Ml 1.7         4707099
CABF  001.43 347.2 m E Pg      2011/06/15 01:20:53.1  -0.1                          T                                        4707097
CABF  001.43 347.2 m E Sn      2011/06/15 01:21:10.2   0.1                          T                 .8  .28 Ml 1.4         4707096

.
EVENT     260329
    Date      Time       Latitude Longitude    Depth    Ndef Nsta Gap    Mag1  N    Mag2  N    Mag3  N   Author         ID
       rms   OT_Error      Smajor Sminor Az        Err   mdist  Mdist     Err        Err        Err      Quality

2011/06/15 02:13:08.4     44.9986    6.4087      4.0 f    21   10 119  Ml 2.2  5  Md 2.5  4              js067245    260329

      0.58   +-  0.15       3.7    2.8  103.36 +-  0.0    0.37   2.04   +-0.3      +-0.0                 m i ke

FRANCE
Sta     Dist  EvAz     Phase      Date       Time     TRes  Azim  AzRes  Slow  SRes Def   SNR       Amp   Per   Mag1   Mag2       ID
MBDF  000.37 136.4 m E Pg      2011/06/15 02:13:14.4  -1.5                          T                                        4707179
MBDF  000.37 136.4 m E Sg      2011/06/15 02:13:20.4  -0.5                          T               26.9  .62        Md 2.5  4707173
ORIF  000.38 258.1 m E Pg      2011/06/15 02:13:14.4  -1.6                          T                                        4707180
ORIF  000.38 258.1 m E Sg      2011/06/15 02:13:20.6  -0.5                          T               22.0  .40        Md 2.5  4707172
LPG   000.55 025.8 m E Pn      2011/06/15 02:13:22.2   0.3                          T                                        4707176
LPG   000.55 025.8 m E Sg      2011/06/15 02:13:25.8  -0.9                          T                3.8  .38        Md 2.4  4707163
LPL   000.57 023.7 m E Pn      2011/06/15 02:13:22.3   0.3                          T                                        4707177
LPL   000.57 023.7 m E Sg      2011/06/15 02:13:26.1  -0.8                          T                5.1  .39        Md 2.5  4707171
SMRF  001.18 210.6 m E Pn      2011/06/15 02:13:29.4  -0.8                          T                                        4707178
SMRF  001.18 210.6 m E Sg      2011/06/15 02:13:46.9   0.9                          T               10.4  .52 Ml 2.2         4707170
VIVF  001.24 264.0 m E Pn      2011/06/15 02:13:30.8  -0.1                          T                                        4707167
VIVF  001.24 264.0 m E Sg      2011/06/15 02:13:48.5   0.8                          T                7.2  .42 Ml 2.2         4707166
FRF   001.45 173.1 m E Pn      2011/06/15 02:13:34.1   0.5                          T                                        4707175
FRF   001.45 173.1 m E Sg      2011/06/15 02:13:54.0  -0.2                          T                4.5  .43 Ml 2.1         4707169
SBF   001.35 146.7 m E Pg      2011/06/15 02:13:34.3   0.6                          T                                        4707174
SBF   001.35 146.7 m E Sn      2011/06/15 02:13:49.5  -0.3                          T               25.7  .54 Ml 2.6         4707168
LMR   001.67 177.5 m E Pn      2011/06/15 02:13:36.9   0.3                          T                                        4707164
LMR   001.67 177.5 m E Pg      2011/06/15 02:13:39.1  -0.3                          T                                        4707162
LMR   001.67 177.5 m E Sn      2011/06/15 02:13:55.7  -1.5                          T                                        4707165
LASF  002.04 244.1 m E Pn      2011/06/15 02:13:42.9   1.0                          T                                        4707161
LASF  002.04 244.1 m E Sn      2011/06/15 02:14:06.4   0.1                          T                2.9  .57 Ml 1.9         4707160

.
EVENT     260333
    Date      Time       Latitude Longitude    Depth    Ndef Nsta Gap    Mag1  N    Mag2  N    Mag3  N   Author         ID
       rms   OT_Error      Smajor Sminor Az        Err   mdist  Mdist     Err        Err        Err      Quality

2011/06/15 03:37:54.2     44.4877    7.0879      5.0 f    30   12 156  Ml 2.4  9  Md 2.4  4              js067245    260333

      0.34   +-  0.08       2.0    1.1   70.07 +-  0.0    0.33   3.70   +-0.4      +-0.1                 m i ke

NORTHERN ITALY
Sta     Dist  EvAz     Phase      Date       Time     TRes  Azim  AzRes  Slow  SRes Def   SNR       Amp   Per   Mag1   Mag2       ID
MBDF  000.33 316.7 m E Pg      2011/06/15 03:38:00.6  -0.3                          T                                        4707217
MBDF  000.33 316.7 m E Sg      2011/06/15 03:38:05.1  -0.2                          T               78.0  .26        Md 2.4  4707208
SBF   000.67 158.1 m E Pg      2011/06/15 03:38:07.4   0.4                          T                                        4707209
SBF   000.67 158.1 m E Sg      2011/06/15 03:38:14.2  -1.7                          T               15.0  .20        Md 2.4  4707205
ORIF  000.96 297.0 m E Pn      2011/06/15 03:38:11.8  -1.1                          T                                        4707216
ORIF  000.96 297.0 m E Sg      2011/06/15 03:38:24.9  -0.1                          T                5.5  .22 Ml 2.2 Md 2.5  4707201
FRF   000.98 199.1 m E Pn      2011/06/15 03:38:11.9  -1.1                          T                                        4707211
FRF   000.98 199.1 m E Pg      2011/06/15 03:38:13.0   0.4                          T                                        4709246
FRF   000.98 199.1 m E Sg      2011/06/15 03:38:24.3  -1.1                          T               19.5  .18 Ml 2.9 Md 2.3  4707207
LPG   001.04 346.8 m E Pn      2011/06/15 03:38:13.9  -0.3                          T                                        4707213
LPG   001.04 346.8 m E Sg      2011/06/15 03:38:27.8   0.3                          T               14.2  .30 Ml 2.5         4707203
LPL   001.06 346.3 m E Pn      2011/06/15 03:38:14.4   0.0                          T                                        4707215
LPL   001.06 346.3 m E Sg      2011/06/15 03:38:28.2   0.1                          T                8.4  .26 Ml 2.4         4707202
LMR   001.23 200.1 m E Pn      2011/06/15 03:38:16.2  -0.2                          T                                        4707210
LMR   001.23 200.1 m E Sn      2011/06/15 03:38:31.8  -0.5                          T               18.1  .22 Ml 2.9         4707206
SMRF  001.20 245.3 m E Pn      2011/06/15 03:38:17.0   0.9                          T                                        4707214
SMRF  001.20 245.3 m E Sg      2011/06/15 03:38:32.7   0.3                          T               14.7  .24 Ml 2.7         4707204
VIVF  001.76 282.9 m E Pn      2011/06/15 03:38:25.0   1.3                          T                                        4707212
VIVF  001.76 282.9 m E Sn      2011/06/15 03:38:45.3   0.1                          T                                        4707200
VIVF  001.76 282.9 m E Sg      2011/06/15 03:38:49.6  -0.2                          T                                        4707199
LASF  002.36 261.1 m E Pn      2011/06/15 03:38:32.3   0.5                          T                                        4709243
LASF  002.36 261.1 m E Sn      2011/06/15 03:38:59.8   0.3                          T                 .9  .25 Ml 1.8         4707198
PGF   002.39 143.7 m E Pn      2011/06/15 03:38:32.5   0.2                          T                                        4709244
PGF   002.39 143.7 m E Sn      2011/06/15 03:39:00.3   0.1                          T                1.9  .18 Ml 2.6         4709245
MTLF  003.70 253.7 m E Pn      2011/06/15 03:38:50.6   0.5                          T                                        4709242
MTLF  003.70 253.7 m E Sn      2011/06/15 03:39:31.6   0.1                          T                 .4  .26 Ml 1.8         4707197

.
EVENT     260337
    Date      Time       Latitude Longitude    Depth    Ndef Nsta Gap    Mag1  N    Mag2  N    Mag3  N   Author         ID
       rms   OT_Error      Smajor Sminor Az        Err   mdist  Mdist     Err        Err        Err      Quality

2011/06/15 06:33:59.9     43.0061   -1.3184      2.0      24    3 076  Ml 1.4  1  Md 1.2  2              js067245    260337

      0.31   +-  0.07       1.4    1.1  124.53 +-  0.0    0.11   1.22   +-         +-0.1                 m i ke

PYRENEES
Sta     Dist  EvAz     Phase      Date       Time     TRes  Azim  AzRes  Slow  SRes Def   SNR       Amp   Per   Mag1   Mag2       ID
SJPF  000.13 032.6 m E Pg      2011/06/15 06:34:02.9   0.3                          T                                        4707221
SJPF  000.13 032.6 m E Sg      2011/06/15 06:34:04.8   0.4                          T               28.7  .22        Md 1.2  4707220
ETSF  000.57 100.7 m E Pg      2011/06/15 06:34:10.2  -0.6                          T                                        4707218
ETSF  000.57 100.7 m E Sg      2011/06/15 06:34:17.2  -1.0                          T                1.6  .22        Md 1.1  4707219
EPF   001.22 088.3 m E Pg      2011/06/15 06:34:22.6  -0.1                          T                                        4709247
EPF   001.22 088.3 m E Sg      2011/06/15 06:34:38.5   0.1                          T                 .7  .22 Ml 1.4         4709248

.
EVENT     260384
    Date      Time       Latitude Longitude    Depth    Ndef Nsta Gap    Mag1  N    Mag2  N    Mag3  N   Author         ID
       rms   OT_Error      Smajor Sminor Az        Err   mdist  Mdist     Err        Err        Err      Quality

2011/06/15 08:42:10.6     48.7642    5.9852       .0 f    14    7 243  Ml 2.3  4  Md 2.1  1              js067245    260384

      0.28   +-  0.15       2.7    1.3  177.19 +-  0.0    0.27   2.16   +-0.1      +-                    m i km

FRANCE
Sta     Dist  EvAz     Phase      Date       Time     TRes  Azim  AzRes  Slow  SRes Def   SNR       Amp   Per   Mag1   Mag2       ID
PAGF  000.27 219.6 m E Pg      2011/06/15 08:42:15.9  -0.3                          T                                        4709261
PAGF  000.27 219.6 m E Sg      2011/06/15 08:42:20.3   0.3  40.7  1.3               T               28.8  .64        Md 2.1  4709262
HAU   000.80 162.2 m E Pg      2011/06/15 08:42:25.9   0.0                          T                                        4709257
HAU   000.80 162.2 m E Sg      2011/06/15 08:42:36.3  -0.2                          T                                        4709258
HAU   000.80 162.2 m E Sn      2011/06/15 08:42:39.0  -0.7                          T               49.6  .46                4709259
SFTF  000.84 228.7 m E Pg      2011/06/15 08:42:26.8   0.1                          T                                        4709252
SFTF  000.84 228.7 m E Sg      2011/06/15 08:42:38.4   0.5  48.4  0.4               T               11.5  .56                4709253
CDF   000.93 111.9 m E Pg      2011/06/15 08:42:28.5   0.1                          T                                        4709254
CDF   000.93 111.9 m E Sg      2011/06/15 08:42:40.7   0.1                          T               15.0  .54 Ml 2.3         4709260
HINF  001.11 148.2 m E Pg      2011/06/15 08:42:31.8   0.1                          T                                        4709249
HINF  001.11 148.2 m E Sg      2011/06/15 08:42:46.8   0.4                          T               12.1  .52 Ml 2.2         4709256
CABF  002.16 178.1 m E Pn      2011/06/15 08:42:46.3   0.0                          T                                        4709250
CABF  002.16 178.1 m E Sg      2011/06/15 08:43:19.1   0.1                          T                8.2  .56 Ml 2.4         4709251
LOR   002.07 224.4 m E Sg      2011/06/15 08:43:16.2   0.0  42.0  -0.8              T                7.2  .60 Ml 2.3         4709255

.
