BEGIN GSE2.0
MSG_TYPE DATA
MSG_ID 12-OCT-1211:43:46  FRA_NDC
E-MAIL
DATA_TYPE BULLETIN
Reviewed Bulletin (REB) # P2012-040  from French NDC for regional phases     PERIOD 03 OCT 2012 TO 09 OCT 2012 Cenalt JP S
EVENT     284453
    Date      Time       Latitude Longitude    Depth    Ndef Nsta Gap    Mag1  N    Mag2  N    Mag3  N   Author         ID
       rms   OT_Error      Smajor Sminor Az        Err   mdist  Mdist     Err        Err        Err      Quality

2012/10/03 00:10:23.9     50.5588    5.4553     20.8      59   11 101  Ml 2.1 11  Md 2.2  2              bulletin    284554
                                                                                                         _ldg
      0.57   +-  0.06       1.5     .9  152.31 +-  0.5    0.07   4.06   +-0.2      +-0.1                 m i ke

BELGIUM
Sta     Dist  EvAz     Phase      Date       Time     TRes  Azim  AzRes  Slow  SRes Def   SNR       Amp   Per   Mag1   Mag2       ID
GIVF  000.61 221.8 m E Pg      2012/10/03 00:10:35.9  -0.1                          T                                        5085148
GIVF  000.61 221.8 m E Sg      2012/10/03 00:10:44.3   0.0                          T               11.0  .20        Md 2.3  5085146
BAIF  000.94 238.5 m E Pg      2012/10/03 00:10:41.4  -0.5                          T                                        5085147
BAIF  000.94 238.5 m E Sn      2012/10/03 00:10:52.2  -0.2                          T                                        5085145
BAIF  000.94 238.5 m E Sg      2012/10/03 00:10:53.8  -0.6                          T                4.1  .20 Ml 2.1 Md 2.2  5085140
PAGF  002.01 174.9 m E Pn      2012/10/03 00:10:55.2   0.2                          T                                        5085119
PAGF  002.01 174.9 m E Sn      2012/10/03 00:11:18.0   0.0                          T                                        5085118
PAGF  002.01 174.9 m E Sg      2012/10/03 00:11:26.9  -0.6                          T                1.3  .19 Ml 2.1         5085117
MEZF  002.08 187.4 m E Pn      2012/10/03 00:10:56.0   0.2                          T                                        5085139
MEZF  002.08 187.4 m E Pg      2012/10/03 00:11:02.9   0.3   8.3  1.1               T                                        5085138
MEZF  002.08 187.4 m E Sn      2012/10/03 00:11:19.6   0.1                          T                                        5085137
MEZF  002.08 187.4 m E Sg      2012/10/03 00:11:29.2  -0.2                          T                2.0  .20 Ml 2.2         5085136
SFTF  002.37 186.8 m E Pn      2012/10/03 00:10:59.8  -0.1                          T                                        5085135
SFTF  002.37 186.8 m E Sn      2012/10/03 00:11:26.7   0.1                          T                                        5085134
SFTF  002.37 186.8 m E Sg      2012/10/03 00:11:38.1  -0.6                          T                3.0  .20 Ml 2.5         5085133
CDF   002.45 150.4 m E Pn      2012/10/03 00:11:01.3   0.2                          T                                        5085123
CDF   002.45 150.4 m E Sn      2012/10/03 00:11:28.3  -0.3                          T                                        5085122
CDF   002.45 150.4 m E Sg      2012/10/03 00:11:40.6  -0.8                          T                1.2  .24 Ml 2.1         5085120
HINF  002.89 161.0 m E Pn      2012/10/03 00:11:07.1   0.0                          T                                        5085127
HINF  002.89 161.0 m E Pg      2012/10/03 00:11:17.5  -0.2                          T                                        5085126
HINF  002.89 161.0 m E Sn      2012/10/03 00:11:39.2   0.1                          T                                        5085125
HINF  002.89 161.0 m E Sg      2012/10/03 00:11:53.6  -1.4                          T                 .8  .18 Ml 2.0         5085124
LOR   003.46 198.3 m E Pn      2012/10/03 00:11:15.1   0.4  23.8  6.7               T                                        5085143
LOR   003.46 198.3 m E Sn      2012/10/03 00:11:52.6   0.1                          T                                        5085142
LOR   003.46 198.3 m E Sg      2012/10/03 00:12:12.7   0.2  10.2  -6.9              T                1.4  .29 Ml 2.2         5085121
SSF   003.73 200.9 m E Pn      2012/10/03 00:11:19.5   1.1                          T                                        5085144
SSF   003.73 200.9 m E Sn      2012/10/03 00:11:58.7  -0.3                          T                1.2  .28 Ml 2.3         5085141
AVF   004.02 201.1 m E Pn      2012/10/03 00:11:22.7   0.3                          T                                        5085130
AVF   004.02 201.1 m E Pg      2012/10/03 00:11:38.8   0.4                          T                                        5085129
AVF   004.02 201.1 m E Sn      2012/10/03 00:12:06.4   0.4                          T                 .2  .21 Ml 1.7         5085128
SMF   004.06 195.9 m E Pn      2012/10/03 00:11:23.3   0.4                          T                                        5085132
SMF   004.06 195.9 m E Sn      2012/10/03 00:12:06.9   0.0                          T                 .9  .24 Ml 2.2         5085131

.
EVENT     284496
    Date      Time       Latitude Longitude    Depth    Ndef Nsta Gap    Mag1  N    Mag2  N    Mag3  N   Author         ID
       rms   OT_Error      Smajor Sminor Az        Err   mdist  Mdist     Err        Err        Err      Quality

2012/10/03 07:30:15.3     43.1724    -.7124      2.0     143   28 058  Ml 3.3 28  Md 3.3  4              bulletin    284597
                                                                                                         _ldg
      0.84   +-  0.06       1.3    1.1  133.57 +-  0.0    0.09   7.91   +-0.3      +-0.0                 m i ke

PYRENEES
Sta     Dist  EvAz     Phase      Date       Time     TRes  Azim  AzRes  Slow  SRes Def   SNR       Amp   Per   Mag1   Mag2       ID
ETSF  000.30 157.6 m E Pg      2012/10/03 07:30:20.2  -0.9                          T   001.0                                5082624
ETSF  000.30 157.6 m E Sg      2012/10/03 07:30:23.9  -1.2                          T             2847.6  .24        Md 3.3  5082759
SJPF  000.38 261.2 m E Pg      2012/10/03 07:30:22.3  -0.3                          T   001.0                                5082633
SJPF  000.38 261.2 m E Sg      2012/10/03 07:30:27.2  -0.4                          T              738.1  .22        Md 3.2  5082758
EPF   000.78 100.1 m E Pg      2012/10/03 07:30:30.3   0.2                          T                                        5090505
EPF   000.78 100.1 m E Pn      2012/10/03 07:30:31.8   0.0                          T   001.0                                5082597
EPF   000.78 100.1 m E Sg      2012/10/03 07:30:40.1  -0.2                          T   001.0      329.7  .30        Md 3.3  5082599
LFF   002.05 030.2 m E Pn      2012/10/03 07:30:48.9  -0.1                          T   001.0                                5082610
LFF   002.05 030.2 m E P       2012/10/03 07:30:51.2  -0.1                          T   001.0                                5082611
LFF   002.05 030.2 m E Pg      2012/10/03 07:30:53.7   0.3                          T                                        5090503
LFF   002.05 030.2 m E Sn      2012/10/03 07:31:13.0  -0.7                          T                                        5090488
LFF   002.05 030.2 m E Sg      2012/10/03 07:31:19.8  -0.1                          T   001.0      144.2  .36 Ml 3.6 Md 3.3  5082612
MTLF  002.15 084.5 m E Pn      2012/10/03 07:30:50.2  -0.1                          T   001.0                                5082626
MTLF  002.15 084.5 m E Pg      2012/10/03 07:30:54.7  -0.4                          T                                        5090511
MTLF  002.15 084.5 m E Sn      2012/10/03 07:31:15.5  -0.5                          T   001.0       56.3  .28 Ml 3.5         5082627
MTLF  002.15 084.5 m E Sg      2012/10/03 07:31:19.0  -2.8                          T   001.0       46.4  .24 Ml 3.5         5082628
RJF   002.67 036.2 m E Pn      2012/10/03 07:30:56.9  -0.5                          T   001.0                                5082589
RJF   002.67 036.2 m E Pg      2012/10/03 07:31:04.6  -0.1                          T                                        5090502
RJF   002.67 036.2 m E Sn      2012/10/03 07:31:27.8  -0.6                          T                                        5090490
RJF   002.67 036.2 m E Sg      2012/10/03 07:31:39.1   0.1                          T   001.0       55.5  .24 Ml 3.4         5082590
CAF   002.66 047.8 m E Pn      2012/10/03 07:30:57.0  -0.3                          T   001.0                                5082594
CAF   002.66 047.8 m E Pg      2012/10/03 07:31:04.5  -0.1                          T                                        5090504
CAF   002.66 047.8 m E Sn      2012/10/03 07:31:28.0  -0.2                          T   001.0                                5082595
CAF   002.66 047.8 m E Sg      2012/10/03 07:31:39.1   0.2                          T   001.0         41  .32 Ml 3.5         5082596
LASF  003.44 073.2 m E Pn      2012/10/03 07:31:07.9  -0.1                          T   001.0                                5082604
LASF  003.44 073.2 m E Pg      2012/10/03 07:31:19.1   0.1                          T                                        5090506
LASF  003.44 073.2 m E Sn      2012/10/03 07:31:46.6  -0.2                          T   001.0                                5082605
LASF  003.44 073.2 m E Sg      2012/10/03 07:32:03.0  -0.1                          T   001.0       16.8  .32 Ml 3.2         5082606
MFF   003.45 006.5 m E Pn      2012/10/03 07:31:07.9  -0.2                          T                                        5090501
MFF   003.45 006.5 m E Pg      2012/10/03 07:31:19.2   0.0                          T                                        5090500
MFF   003.45 006.5 m E Sn      2012/10/03 07:31:47.2   0.0                          T                                        5090489
MFF   003.45 006.5 m E Sg      2012/10/03 07:32:04.1   0.6                          T   001.0       26.8  .36 Ml 3.6         5082617
TCF   003.75 032.8 m E Pn      2012/10/03 07:31:12.0  -0.1                          T   001.0                                5082622
TCF   003.75 032.8 m E Sn      2012/10/03 07:31:53.6  -0.6                          T   001.0       12.9  .20 Ml 3.4         5082623
TCF   003.75 032.8 m E Sg      2012/10/03 07:32:12.7  -0.1                          T               15.3  .27 Ml 3.4         5090497
VIVF  004.23 064.7 m E Pn      2012/10/03 07:31:18.0  -0.8                          T   001.0                                5082634
VIVF  004.23 064.7 m E P       2012/10/03 07:31:22.5   0.2                          T                                        5090507
VIVF  004.23 064.7 m E Sn      2012/10/03 07:32:04.7  -1.1                          T   001.0        4.4  .28 Ml 2.9         5082635
VIVF  004.23 064.7 m E Sg      2012/10/03 07:32:28.1   0.2                          T                3.6  .24 Ml 2.9         5090487
BGF   004.23 035.5 m E Pn      2012/10/03 07:31:18.3  -0.3                          T   001.0                                5082592
BGF   004.23 035.5 m E Sn      2012/10/03 07:32:05.1  -0.5                          T   001.0       48.1  .44 Ml 3.7         5082593
BGF   004.23 035.5 m E Sg      2012/10/03 07:32:27.2  -0.5                          T               90.4  .40 Ml 4.1         5090493
AVF   004.63 037.2 m E Pn      2012/10/03 07:31:23.8  -0.2                          T   001.0                                5082591
AVF   004.63 037.2 m E Sn      2012/10/03 07:32:15.0  -0.2                          T                                        5090496
AVF   004.63 037.2 m E Sg      2012/10/03 07:32:40.2   0.1                          T                8.6  .32 Ml 3.2         5090495
SMRF  004.64 077.9 m E Pn      2012/10/03 07:31:24.8   0.5                          T   001.0                                5082636
SMRF  004.64 077.9 m E P       2012/10/03 07:31:28.2   0.1                          T                                        5090509
SMF   004.74 041.4 m E Pn      2012/10/03 07:31:25.5  -0.2                          T   001.0                                5082618
SMF   004.74 041.4 m E Sn      2012/10/03 07:32:17.7  -0.3                          T   001.0        2.5  .20 Ml 2.9         5082619
SMF   004.74 041.4 m E Sg      2012/10/03 07:32:44.0   0.1                          T               10.6  .38 Ml 3.3         5090494
SSF   004.90 036.1 m E Pn      2012/10/03 07:31:27.3  -0.5                          T   001.0                                5082620
SSF   004.90 036.1 m E P       2012/10/03 07:31:31.7  -0.2                          T                                        5090499
SSF   004.90 036.1 m E Sn      2012/10/03 07:32:20.7  -1.1                          T   001.0        6.1  .28 Ml 3.3         5082621
SSF   004.90 036.1 m E Sg      2012/10/03 07:32:49.1   0.3                          T               12.8  .48 Ml 3.4         5090498
QUIF  005.05 340.9 m E Pn      2012/10/03 07:31:29.9   0.1                          T   001.0                                5082629
QUIF  005.05 340.9 m E Sn      2012/10/03 07:32:24.7  -0.5                          T                                        5090491
ORIF  005.06 067.6 m E Pn      2012/10/03 07:31:31.0   0.9                          T                                        5090508
ORIF  005.06 067.6 m E Sn      2012/10/03 07:32:26.0   0.2                          T                2.5  .29 Ml 2.8         5090485
LOR   005.21 036.7 m E Pn      2012/10/03 07:31:31.5  -0.6 224.5  4.6               T   001.0                                5082614
LOR   005.21 036.7 m E Sn      2012/10/03 07:32:28.7  -0.6 216.2  -3.7              T   001.0                                5082615
LOR   005.21 036.7 m E Sg      2012/10/03 07:32:56.3  -2.3 209.3  -10.6             T   001.0       12.9  .48 Ml 3.4         5082616
GRR   005.22 358.9 m E Pn      2012/10/03 07:31:31.0  -0.1                          T   001.0                                5082602
SGMF  005.24 346.4 m E Pn      2012/10/03 07:31:31.0  -0.5                          T   001.0                                5082632
GRR   005.22 358.9 m E Sn      2012/10/03 07:32:28.8  -0.5                          T   001.0        8.4  .28 Ml 3.3         5082603
SGMF  005.24 346.4 m E Sn      2012/10/03 07:32:29.5  -0.4                          T                                        5090492
LMR   005.28 085.8 m E Pn      2012/10/03 07:31:33.4   0.5                          T   001.0                                5082613
LMR   005.28 085.8 m E Sn      2012/10/03 07:32:30.8   0.1                          T                1.5  .22 Ml 2.8         5090484
FRF   005.38 083.4 m E Pn      2012/10/03 07:31:34.3   0.0                          T                                        5090510
LDF   005.44 004.1 m E Pn      2012/10/03 07:31:35.1   0.0                          T   001.0                                5082607
LDF   005.44 004.1 m E Sn      2012/10/03 07:32:33.9  -0.7                          T   001.0                                5082608
LDF   005.44 004.1 m E Sg      2012/10/03 07:33:05.5   0.0                          T   001.0       12.2  .48 Ml 3.3         5082609
ROSF  005.47 341.8 m E Pn      2012/10/03 07:31:35.5   0.0                          T   001.0                                5082630
ROSF  005.47 341.8 m E Sn      2012/10/03 07:32:35.3   0.0                          T   001.0       23.8  .80 Ml 3.4         5082631
FLN   005.59 001.6 m E Pn      2012/10/03 07:31:36.7  -0.5 175.1  -6.7              T   001.0                                5082600
FLN   005.59 001.6 m E Sn      2012/10/03 07:32:38.3   0.0                          T   001.0        7.8  .48 Ml 3.1         5082601
GIVF  007.91 026.8 m E Pn      2012/10/03 07:32:09.2   0.4                          T   001.0                                5082625
MBDF  005.62 071.4 m E Sn      2012/10/03 07:32:39.3   0.1                          T                2.0  .24 Ml 2.9         5090486

.
EVENT     284500
    Date      Time       Latitude Longitude    Depth    Ndef Nsta Gap    Mag1  N    Mag2  N    Mag3  N   Author         ID
       rms   OT_Error      Smajor Sminor Az        Err   mdist  Mdist     Err        Err        Err      Quality

2012/10/03 07:33:35.4     43.1135    -.7290      2.0       6    3 185             Md 1.6  2              bulletin    284601
                                                                                                         _ldg
      0.19   +-  0.12       4.4    1.8   12.11 +-  0.0    0.25   0.79              +-0.1                 m i ke

PYRENEES
Sta     Dist  EvAz     Phase      Date       Time     TRes  Azim  AzRes  Slow  SRes Def   SNR       Amp   Per   Mag1   Mag2       ID
ETSF  000.25 149.8 m E Pg      2012/10/03 07:33:40.3  -0.1                          T                                        5090516
ETSF  000.25 149.8 m E Sg      2012/10/03 07:33:44.0   0.2                          T                5.3  .26        Md 1.6  5090517
SJPF  000.36 270.1 m E Pg      2012/10/03 07:33:42.4   0.0                          T                                        5090515
SJPF  000.36 270.1 m E Sg      2012/10/03 07:33:47.3   0.0                          T                5.2  .24        Md 1.5  5090514
EPF   000.79 095.7 m E Pg      2012/10/03 07:33:50.4   0.2                          T                                        5090512
EPF   000.79 095.7 m E Sg      2012/10/03 07:34:00.1  -0.5                          T                1.3  .27                5090513

.
