BEGIN GSE2.0
MSG_TYPE DATA
MSG_ID 16-NOV-1115:33:37  FRA_NDC
E-MAIL
DATA_TYPE BULLETIN
Reviewed Bulletin (REB) # P2011-045  from French NDC for regional phases     PERIOD 09 NOV 2011 TO 15 NOV 2011 S M., J-P S.
EVENT     266131
    Date      Time       Latitude Longitude    Depth    Ndef Nsta Gap    Mag1  N    Mag2  N    Mag3  N   Author         ID
       rms   OT_Error      Smajor Sminor Az        Err   mdist  Mdist     Err        Err        Err      Quality

2011/11/09 05:30:50.4     44.3110    7.6066       .0 f    16    7 222  Ml 2.1  6  Md 2.2  4              js067245    266151

      0.68   +-  0.37       6.9    2.7   82.01 +-  0.0    0.46   1.50   +-0.3      +-0.1                 m i sm

NORTHERN ITALY
Sta     Dist  EvAz     Phase      Date       Time     TRes  Azim  AzRes  Slow  SRes Def   SNR       Amp   Per   Mag1   Mag2       ID
SBF   000.46 195.5 m E Pg      2011/11/09 05:30:59.9   0.3                          T                                        4784195
SBF   000.46 195.5 m E Sg      2011/11/09 05:31:05.7  -0.2                          T               20.8  .30        Md 2.1  4784194
MBDF  000.73 305.1 m E Pg      2011/11/09 05:31:04.2  -0.4                          T                                        4784197
MBDF  000.73 305.1 m E Sg      2011/11/09 05:31:14.1  -0.1                          T                5.0  .22        Md 2.1  4784196
FRF   001.02 223.1 m E Pg      2011/11/09 05:31:10.5   0.7                          T                                        4784191
FRF   001.02 223.1 m E Sg      2011/11/09 05:31:23.0  -0.2                          T                6.1  .20 Ml 2.3         4784190
LMR   001.26 219.5 m E Pg      2011/11/09 05:31:13.3  -0.8                          T                                        4784192
LMR   001.26 219.5 m E Sg      2011/11/09 05:31:29.8  -0.8                          T               12.9  .35 Ml 2.5         4784193
LPL   001.36 333.0 m E Pg      2011/11/09 05:31:16.2   0.0                          T                                        4784214
LPL   001.36 333.0 m E Sg      2011/11/09 05:31:33.4  -0.5                          T                1.5  .33 Ml 1.6 Md 2.2  4784213
ORIF  001.37 296.8 m E Pg      2011/11/09 05:31:16.4   0.0                          T                                        4784187
ORIF  001.37 296.8 m E Sg      2011/11/09 05:31:35.9   1.6                          T                3.6  .31 Ml 2.0         4784212
SMRF  001.50 257.8 m E Pg      2011/11/09 05:31:18.8   0.2                          T                                        4784188
SMRF  001.50 257.8 m E Sg      2011/11/09 05:31:38.2   0.0                          T                2.7  .22 Ml 2.1 Md 2.2  4784189

.
EVENT     266132
    Date      Time       Latitude Longitude    Depth    Ndef Nsta Gap    Mag1  N    Mag2  N    Mag3  N   Author         ID
       rms   OT_Error      Smajor Sminor Az        Err   mdist  Mdist     Err        Err        Err      Quality

2011/11/09 08:40:53.3     42.8039    -.8207     15.0       7    3 241  Ml 1.8  1  Md 2.0  3              js067245    266152

      0.14   +-  0.24       7.9    1.3   11.31 +-  0.0    0.21   0.88   +-         +-0.0                 m i ke

PYRENEES
Sta     Dist  EvAz     Phase      Date       Time     TRes  Azim  AzRes  Slow  SRes Def   SNR       Amp   Per   Mag1   Mag2       ID
ETSF  000.21 063.7 m E Pg      2011/11/09 08:40:58.4   0.0                          T                                        4784224
ETSF  000.21 063.7 m E Sg      2011/11/09 08:41:01.7  -0.1                          T               21.0  .24        Md 2.0  4784222
SJPF  000.43 316.3 m E Pg      2011/11/09 08:41:02.0   0.0                          T                                        4784223
SJPF  000.43 316.3 m E Pn      2011/11/09 08:41:03.2  -0.1                          T                                        4784218
SJPF  000.43 316.3 m E Sg      2011/11/09 08:41:08.0   0.2                          T               20.4  .36        Md 2.0  4784220
EPF   000.88 074.7 m E Pg      2011/11/09 08:41:10.3   0.2                          T                                        4784221
EPF   000.88 074.7 m E Sg      2011/11/09 08:41:21.4  -0.3                          T                2.0  .18 Ml 1.8 Md 2.0  4784219

.
EVENT     266136
    Date      Time       Latitude Longitude    Depth    Ndef Nsta Gap    Mag1  N    Mag2  N    Mag3  N   Author         ID
       rms   OT_Error      Smajor Sminor Az        Err   mdist  Mdist     Err        Err        Err      Quality

2011/11/09 12:21:01.9     45.3768    6.5236      2.0      96   30 040  Ml 2.7 26  Md 2.7  7              js067245    266156

      0.51   +-  0.04       1.0     .8   83.18 +-  0.0    0.20   5.57   +-0.3      +-0.1                 m i ke

FRANCE
Sta     Dist  EvAz     Phase      Date       Time     TRes  Azim  AzRes  Slow  SRes Def   SNR       Amp   Per   Mag1   Mag2       ID
LPL   000.20 046.4 m E Pg      2011/11/09 12:21:06.2  -0.1                          T   001.0                                4782670
LPL   000.20 046.4 m E Sg      2011/11/09 12:21:09.2   0.1                          T              244.6  .20        Md 2.9  4784506
LPG   000.20 052.9 m E Pg      2011/11/09 12:21:06.4   0.0                          T   001.0                                4782668
LPG   000.20 052.9 m E Sg      2011/11/09 12:21:09.4   0.3                          T   001.0      193.1  .20        Md 2.6  4782669
ORIF  000.65 225.0 m E Pg      2011/11/09 12:21:13.9  -0.4                          T   001.0                                4782641
ORIF  000.65 225.0 m E Sg      2011/11/09 12:21:22.1  -0.6                          T   001.0      120.2  .25        Md 2.9  4782642
MBDF  000.67 164.8 m E Pg      2011/11/09 12:21:14.6  -0.3                          T   001.0                                4782639
MBDF  000.67 164.8 m E Sg      2011/11/09 12:21:24.0   0.3                          T   001.0       56.6  .32        Md 2.5  4782640
MBDF  000.67 164.8 m E Sn      2011/11/09 12:21:27.6   0.0                          T                                        4784488
CABF  001.27 346.3 m E Pg      2011/11/09 12:21:26.0   0.2                          T   001.0                                4782680
CABF  001.27 346.3 m E P       2011/11/09 12:21:27.2   0.4                          T                                        4784490
CABF  001.27 346.3 m E Sg      2011/11/09 12:21:42.2   0.0                          T               27.9  .20 Ml 3.1 Md 2.7  4784505
VIVF  001.41 249.0 m E Pn      2011/11/09 12:21:27.1   0.1                          T                                        4784507
VIVF  001.41 249.0 m E Pg      2011/11/09 12:21:28.6   0.3                          T   001.0                                4782643
VIVF  001.41 249.0 m E Sn      2011/11/09 12:21:45.6   0.5                          T   001.0       21.2  .24 Ml 2.9         4782644
VIVF  001.41 249.0 m E Sg      2011/11/09 12:21:47.5   1.0                          T               22.6  .24 Ml 3.0 Md 2.6  4784521
SMRF  001.56 206.1 m E Pg      2011/11/09 12:21:31.1   0.2                          T   001.0                                4782645
SMRF  001.56 206.1 m E Sg      2011/11/09 12:21:50.7  -0.3                          T   001.0       13.0  .42 Ml 2.6         4782646
SBF   001.65 156.4 m E Pg      2011/11/09 12:21:33.2   0.5                          T   001.0                                4782671
SBF   001.65 156.4 m E Sg      2011/11/09 12:21:54.2   0.3                          T               26.5  .29 Ml 3.1         4785623
FRF   001.82 177.2 m E Pn      2011/11/09 12:21:33.6   1.1                          T   001.0                                4782654
FRF   001.82 177.2 m E Pg      2011/11/09 12:21:35.9   0.2                          T   001.0                                4782655
FRF   001.82 177.2 m E Sg      2011/11/09 12:21:59.2   0.0                          T   001.0       14.1  .27 Ml 2.9         4782656
LMR   002.04 180.3 m E Pn      2011/11/09 12:21:35.7   0.2                          T                                        4784510
LMR   002.04 180.3 m E P       2011/11/09 12:21:37.6  -0.1                          T                                        4784509
LMR   002.04 180.3 m E Pg      2011/11/09 12:21:40.4   0.5                          T   001.0                                4782663
LMR   002.04 180.3 m E Sg      2011/11/09 12:22:06.0  -0.2                          T   001.0       11.1  .26 Ml 2.9         4782664
SMF   002.26 305.1 m E Pn      2011/11/09 12:21:39.0   0.5                          T   001.0                                4782673
SMF   002.26 305.1 m E P       2011/11/09 12:21:40.9   0.0                          T                                        4784514
SMF   002.26 305.1 m E Pg      2011/11/09 12:21:44.1   0.2                          T                                        4784520
SMF   002.26 305.1 m E Sg      2011/11/09 12:22:12.3  -0.7                          T               17.2  .22 Ml 3.2 Md 2.7  4784519
LASF  002.30 236.6 m E Pn      2011/11/09 12:21:39.2   0.1                          T   001.0                                4782660
LASF  002.30 236.6 m E Pg      2011/11/09 12:21:44.8   0.1                          T   001.0                                4782661
LASF  002.30 236.6 m E Sg      2011/11/09 12:22:14.3  -0.1                          T                4.4  .34 Ml 2.4         4784489
HINF  002.45 005.2 m E Pn      2011/11/09 12:21:41.3   0.1                          T   001.0                                4782682
HINF  002.45 005.2 m E Pg      2011/11/09 12:21:48.3   0.8                          T   001.0                                4782683
HINF  002.45 005.2 m E Sn      2011/11/09 12:22:10.1   0.2                          T   001.0                                4782684
HINF  002.45 005.2 m E Sg      2011/11/09 12:22:18.9  -0.1                          T   001.0        7.5  .24 Ml 2.8         4782685
LOR   002.64 316.6 m E Pn      2011/11/09 12:21:43.0  -0.8                          T   001.0                                4782665
LOR   002.64 316.6 m E P       2011/11/09 12:21:46.2  -0.2                          T                                        4784498
LOR   002.64 316.6 m E Pg      2011/11/09 12:21:50.7  -0.2                          T   001.0                                4782666
LOR   002.64 316.6 m E Sg      2011/11/09 12:22:24.6  -0.4                          T   001.0         10  .34 Ml 2.8         4782667
HAU   002.63 357.4 m E Pn      2011/11/09 12:21:44.2   0.6                          T   001.0                                4782657
HAU   002.63 357.4 m E Pg      2011/11/09 12:21:51.0   0.2                          T   001.0                                4782658
HAU   002.63 357.4 m E Sg      2011/11/09 12:22:24.9   0.3                          T   001.0        7.9  .24 Ml 2.6         4782659
AVF   002.62 303.8 m E Pn      2011/11/09 12:21:44.6   1.2                          T   001.0                                4782647
AVF   002.62 303.8 m E Pg      2011/11/09 12:21:50.5  -0.1                          T   001.0                                4782648
AVF   002.62 303.8 m E Sg      2011/11/09 12:22:24.0  -0.2                          T   001.0        6.8  .30 Ml 2.7         4782649
SSF   002.69 309.9 m E Pn      2011/11/09 12:21:45.6   1.3                          T   001.0                                4782674
SSF   002.69 309.9 m E Pg      2011/11/09 12:21:52.1   0.3                          T   001.0                                4782675
SSF   002.69 309.9 m E Sg      2011/11/09 12:22:25.9  -0.4                          T   001.0        7.5  .28 Ml 2.9         4782676
THEF  002.88 352.9 m E Pn      2011/11/09 12:21:46.9   0.0                          T                                        4784515
THEF  002.88 352.9 m E Pg      2011/11/09 12:21:55.3   0.0                          T                                        4784508
THEF  002.88 352.9 m E Sg      2011/11/09 12:22:31.8  -0.4                          T               10.8  .23 Ml 3.1         4784516
SFTF  003.01 340.7 m E Pn      2011/11/09 12:21:47.5  -1.2                          T                                        4784501
SFTF  003.01 340.7 m E P       2011/11/09 12:21:51.0  -0.5                          T                                        4784502
SFTF  003.01 340.7 m E Pg      2011/11/09 12:21:58.3   0.6                          T                                        4784503
SFTF  003.01 340.7 m E S       2011/11/09 12:22:36.0   7.2                          T                6.8  .26                4784504
CAF   003.19 263.4 m E Pn      2011/11/09 12:21:50.9  -0.3                          T   001.0                                4782651
CAF   003.19 263.4 m E Sg      2011/11/09 12:22:41.7  -0.3                          T                1.6  .21 Ml 2.4         4785620
HYF   003.29 306.5 m E Pn      2011/11/09 12:21:52.3  -0.2                          T                                        4784513
TCF   003.15 288.4 m E P       2011/11/09 12:21:54.0   0.4                          T                                        4784497
TCF   003.15 288.4 m E Pg      2011/11/09 12:22:00.7   0.4                          T                                        4784499
TCF   003.15 288.4 m E Sn      2011/11/09 12:22:26.1  -0.5                          T   001.0        6.7  .36 Ml 2.8         4782677
TCF   003.15 288.4 m E Sg      2011/11/09 12:22:40.3  -0.5                          T                1.9  .19 Ml 2.5         4784500
EPF   005.03 244.4 m E Pn      2011/11/09 12:22:16.5   0.3                          T                                        4784511
BGF   002.82 296.0 m E Sg      2011/11/09 12:22:30.6   0.1                          T   001.0       17.2  .26 Ml 3.2         4782650
PAGF  003.23 350.5 m E Sg      2011/11/09 12:22:42.8  -0.4                          T                 .7  .23 Ml 1.9         4785617
MEZF  003.28 342.7 m E Sg      2011/11/09 12:22:44.1  -0.9                          T                9.0  .24 Ml 3.1         4785618
RJF   003.53 270.6 m E Sg      2011/11/09 12:22:52.6  -0.1                          T                4.8  .36 Ml 2.3         4785619
MTLF  003.70 238.1 m E Sg      2011/11/09 12:22:57.1  -0.8                          T                 .8  .27 Ml 2.1         4785621
LFF   004.11 265.9 m E Sg      2011/11/09 12:23:10.6  -0.2                          T                2.2  .23 Ml 2.5         4785616
LDF   005.57 307.7 m E Sn      2011/11/09 12:23:25.8   1.4                          T   001.0        6.6  .80 Ml 2.9         4782662

.
EVENT     266139
    Date      Time       Latitude Longitude    Depth    Ndef Nsta Gap    Mag1  N    Mag2  N    Mag3  N   Author         ID
       rms   OT_Error      Smajor Sminor Az        Err   mdist  Mdist     Err        Err        Err      Quality

2011/11/09 13:07:20.7     47.5211    6.1093       .0 f    27   11 121  Ml 2.3  8  Md 2.3  3              js067245    266159

      1.59   +-  0.13       2.5    1.7  128.09 +-  0.0    0.51   1.83   +-0.3      +-0.1                 m i km

FRANCE
Sta     Dist  EvAz     Phase      Date       Time     TRes  Azim  AzRes  Slow  SRes Def   SNR       Amp   Per   Mag1   Mag2       ID
HAU   000.51 018.3 m E Pg      2011/11/09 13:07:30.4  -0.4                          T                                        4784866
HAU   000.51 018.3 m E Sg      2011/11/09 13:07:37.6  -0.1                          T               14.8  .26        Md 2.2  4784863
HINF  000.58 059.3 m E Pg      2011/11/09 13:07:32.2   0.1                          T                                        4784848
HINF  000.58 059.3 m E Sg      2011/11/09 13:07:40.0   0.1                          T                7.3  .28        Md 2.3  4784862
THEF  000.71 353.8 m E Pg      2011/11/09 13:07:34.1  -0.3                          T                                        4784860
THEF  000.71 353.8 m E Pn      2011/11/09 13:07:36.9   0.3                          T                                        4784849
THEF  000.71 353.8 m E Sg      2011/11/09 13:07:43.5  -0.4                          T               12.4  .25                4784861
THEF  000.71 353.8 m E Sn      2011/11/09 13:07:47.4  -0.4                          T                                        4784851
THEF  000.71 353.8 m E S       2011/11/09 13:07:49.1  -0.4                          T                                        4784850
CABF  000.91 180.9 m E Pg      2011/11/09 13:07:38.5   0.3                          T                                        4784865
CABF  000.91 180.9 m E Sg      2011/11/09 13:07:50.1  -0.1                          T                8.1  .30 Ml 2.2 Md 2.4  4784864
SFTF  000.99 313.9 m E Pg      2011/11/09 13:07:39.5  -0.1 131.1  -2.0              T                                        4784888
SFTF  000.99 313.9 m E Sg      2011/11/09 13:07:53.1   0.4 133.2  0.1               T               16.4  .54 Ml 2.3         4784853
SFTF  000.99 313.9 m E Sn      2011/11/09 13:07:54.8   0.3                          T                                        4784852
PAGF  001.07 346.1 m E Pg      2011/11/09 13:07:41.1   0.2 167.9  2.1               T                                        4784891
PAGF  001.07 346.1 m E Sg      2011/11/09 13:07:55.5   0.6                          T                2.1  .42 Ml 1.5         4784855
MEZF  001.21 324.5 m E Pg      2011/11/09 13:07:43.9   0.3                          T                                        4784889
MEZF  001.21 324.5 m E Sg      2011/11/09 13:07:59.7   0.2 152.2  8.4               T               14.2  .32 Ml 2.6         4784854
LOR   001.55 261.4 m E Pg      2011/11/09 13:07:49.7  -0.2  87.5  7.7               T                                        4784858
LOR   001.55 261.4 m E Sg      2011/11/09 13:08:09.6  -0.5                          T                6.5  .32 Ml 2.4         4784859
SSF   001.83 256.4 m E Pg      2011/11/09 13:07:55.4   0.4                          T                                        4784890
SSF   001.83 256.4 m E Sg      2011/11/09 13:08:18.8   0.0                          T                5.1  .42 Ml 2.3         4784856
CDF   001.19 040.9 m E Sg      2011/11/09 13:07:58.5  -0.3                          T                9.3  .32 Ml 2.5         4784846
SMF   001.78 241.4 m E Sn      2011/11/09 13:08:13.3  -0.1                          T                                        4784847
SMF   001.78 241.4 m E Sg      2011/11/09 13:08:17.2  -0.1                          T                5.5  .37 Ml 2.3         4784857

.
