EVENT     286173
    Date      Time       Latitude Longitude    Depth    Ndef Nsta Gap    Mag1  N    Mag2  N    Mag3  N   Author         ID
       rms   OT_Error      Smajor Sminor Az        Err   mdist  Mdist     Err        Err        Err      Quality

2012/11/01 02:58:33.3     43.4142    5.5471      2.0      24   10 202  Ml 2.2  5  Md 2.2  3              bulletin    286273
                                                                                                         _ldg
      0.30   +-  0.15       2.8    1.5   22.30 +-  0.0    0.26   2.27   +-0.4      +-0.0                 m i si

NEAR SOUTH COAST OF FRANCE
Sta     Dist  EvAz     Phase      Date       Time     TRes  Azim  AzRes  Slow  SRes Def   SNR       Amp   Per   Mag1   Mag2       ID
SMRF  000.56 002.1 m E Pg      2012/11/01 02:58:43.5  -0.5                          T                                        5107216
SMRF  000.56 002.1 m E Sg      2012/11/01 02:58:50.8  -0.6                          T               33.9  .51        Md 2.2  5107220
LMR   000.71 096.2 m E Pg      2012/11/01 02:58:46.4  -0.3                          T                                        5107214
LMR   000.71 096.2 m E Sg      2012/11/01 02:58:56.1   0.3                          T               26.0  .30        Md 2.2  5107222
FRF   000.81 079.3 m E Pg      2012/11/01 02:58:48.6   0.0                          T                                        5107215
FRF   000.81 079.3 m E Sg      2012/11/01 02:58:59.1  -0.2                          T                                Md 2.2  5107221
FRF   000.81 079.3 m E Sn      2012/11/01 02:59:02.4   0.2                          T               17.8  .27                5107236
SBF   001.44 071.2 m E Pn      2012/11/01 02:58:59.1   0.2                          T                                        5107212
SBF   001.44 071.2 m E Sg      2012/11/01 02:59:19.0   0.1                          T                8.8  .23 Ml 2.6         5107225
LASF  001.39 299.0 m E Pg      2012/11/01 02:58:59.3   0.0                          T                                        5118538
LASF  001.39 299.0 m E Sg      2012/11/01 02:59:17.3  -0.1                          T                5.4  .38 Ml 2.1         5107238
VIVF  001.57 336.7 m E Pn      2012/11/01 02:59:00.5  -0.1                          T                                        5107331
VIVF  001.57 336.7 m E Pg      2012/11/01 02:59:03.0   0.3                          T                                        5118537
VIVF  001.57 336.7 m E Sn      2012/11/01 02:59:19.9  -0.4                          T                                        5107334
ORIF  001.52 008.9 m E Pg      2012/11/01 02:59:01.8  -0.1                          T                                        5107218
ORIF  001.52 008.9 m E Sn      2012/11/01 02:59:19.8   0.5                          T                 .7  .21 Ml 1.6         5107235
MBDF  001.58 033.5 m E Pg      2012/11/01 02:59:02.9  -0.1                          T                                        5107217
MBDF  001.58 033.5 m E Sg      2012/11/01 02:59:22.9  -0.5                          T               11.4  .53 Ml 2.4         5107336
LPL   002.27 021.6 m E Pg      2012/11/01 02:59:15.5  -0.2                          T                                        5107219
LPG   002.25 022.1 m E Pg      2012/11/01 02:59:16.0   0.4                          T                                        5118536
LPG   002.25 022.1 m E Sg      2012/11/01 02:59:45.1   0.5                          T                3.4  .34 Ml 2.3         5107240

.
EVENT     286174
    Date      Time       Latitude Longitude    Depth    Ndef Nsta Gap    Mag1  N    Mag2  N    Mag3  N   Author         ID
       rms   OT_Error      Smajor Sminor Az        Err   mdist  Mdist     Err        Err        Err      Quality

2012/11/01 05:25:42.1     45.6407    5.9892      2.0      87   26 032  Ml 2.6 22  Md 2.6  8              bulletin    286274
                                                                                                         _ldg
      0.58   +-  0.05       1.1     .9   66.42 +-  0.0    0.45   4.53   +-0.3      +-0.2                 m i ke

FRANCE
Sta     Dist  EvAz     Phase      Date       Time     TRes  Azim  AzRes  Slow  SRes Def   SNR       Amp   Per   Mag1   Mag2       ID
LPL   000.54 103.1 m E Pg      2012/11/01 05:25:52.3  -0.4                          T                                Md 2.7  5107248
LPL   000.54 103.1 m E Sg      2012/11/01 05:25:58.8  -0.9                          T                 10  .23        Md 2.5  5107247
LPG   000.55 104.7 m E Pg      2012/11/01 05:25:52.6  -0.4                          T                                Md 2.7  5107246
LPG   000.55 104.7 m E Sg      2012/11/01 05:25:59.9  -0.4                          T                8.9  .17        Md 2.4  5107245
ORIF  000.73 186.1 m E Pg      2012/11/01 05:25:55.0  -0.9                          T                                Md 2.7  5107250
ORIF  000.73 186.1 m E Sg      2012/11/01 05:26:04.4  -1.0                          T               12.4  .19                5107249
CABF  000.97 004.0 m E Pg      2012/11/01 05:25:59.8  -0.7                          T                                        5107260
CABF  000.97 004.0 m E Sg      2012/11/01 05:26:13.4   0.2                          T                                        5118616
CABF  000.97 004.0 m E Sn      2012/11/01 05:26:15.5   0.6                          T               21.0  .20 Ml 2.8 Md 2.4  5107259
MBDF  001.07 148.5 m E Pg      2012/11/01 05:26:01.7  -0.7                          T                                        5118637
MBDF  001.07 148.5 m E Sg      2012/11/01 05:26:16.2   0.0                          T               11.9  .42 Ml 2.3         5118625
VIVF  001.22 230.3 m E Pn      2012/11/01 05:26:04.1  -0.5                          T                                Md 2.7  5107252
VIVF  001.22 230.3 m E Pg      2012/11/01 05:26:04.8  -0.1                          T                                        5118638
VIVF  001.22 230.3 m E Sg      2012/11/01 05:26:20.3  -0.4                          T               29.9  .29 Ml 2.9         5107251
SMRF  001.69 190.2 m E Pn      2012/11/01 05:26:11.4   0.4                          T                                        5118636
SMRF  001.69 190.2 m E Pg      2012/11/01 05:26:13.7   0.0                          T                                        5118635
SMRF  001.69 190.2 m E Sn      2012/11/01 05:26:31.9   0.0                          T                                        5118627
SMRF  001.69 190.2 m E Sg      2012/11/01 05:26:35.8   0.3                          T                3.3  .32 Ml 2.1         5118626
SMF   001.80 304.7 m E Pn      2012/11/01 05:26:12.0  -0.5                          T                                        5107256
SMF   001.80 304.7 m E P       2012/11/01 05:26:14.8   0.2                          T                                        5118643
SMF   001.80 304.7 m E Sn      2012/11/01 05:26:35.0   0.4                          T               21.2  .23 Ml 3.1         5107255
FRF   002.13 167.0 m E Pn      2012/11/01 05:26:17.3   0.4                          T                                        5107244
FRF   002.13 167.0 m E Pg      2012/11/01 05:26:21.7   0.0                          T                                        5118634
FRF   002.13 167.0 m E Sn      2012/11/01 05:26:42.4   0.0                          T                                        5107243
FRF   002.13 167.0 m E Sg      2012/11/01 05:26:49.2   0.0                          T                3.7  .18 Ml 2.6         5118628
LOR   002.20 318.6 m E Pn      2012/11/01 05:26:17.6  -0.2                          T                                        5107264
LOR   002.20 318.6 m E Pg      2012/11/01 05:26:22.7  -0.2                          T                                        5118654
LOR   002.20 318.6 m E Sn      2012/11/01 05:26:44.3   0.4                          T                5.6  .23 Ml 2.6         5107263
HINF  002.26 015.0 m E Pn      2012/11/01 05:26:17.6  -1.1                          T                                        5107254
HINF  002.26 015.0 m E Pg      2012/11/01 05:26:24.1   0.0                          T                                        5118645
HINF  002.26 015.0 m E Sn      2012/11/01 05:26:46.0   0.5                          T               13.2  .21 Ml 3.1         5107253
LASF  002.18 224.9 m E Pn      2012/11/01 05:26:17.8   0.1                          T                                        5107293
LASF  002.18 224.9 m E Pg      2012/11/01 05:26:22.8   0.2                          T                                        5118639
LASF  002.18 224.9 m E Sn      2012/11/01 05:26:43.6   0.1                          T                7.4  .27 Ml 2.7         5107292
LASF  002.18 224.9 m E Sg      2012/11/01 05:26:51.2   0.5                          T                6.0  .24 Ml 2.6         5118624
AVF   002.16 303.1 m E Pn      2012/11/01 05:26:18.0   0.7                          T                                        5107258
AVF   002.16 303.1 m E Pg      2012/11/01 05:26:22.5   0.2                          T                                        5118644
AVF   002.16 303.1 m E Sn      2012/11/01 05:26:43.1  -0.1                          T                                        5107257
AVF   002.16 303.1 m E Sg      2012/11/01 05:26:50.6   0.5                          T                6.2  .31 Ml 2.5         5118617
SSF   002.23 310.5 m E Pn      2012/11/01 05:26:18.2  -0.2                          T                                        5107262
SSF   002.23 310.5 m E Pg      2012/11/01 05:26:23.8   0.2                          T                                        5118653
SSF   002.23 310.5 m E Sn      2012/11/01 05:26:44.9   0.1                          T                8.5  .26 Ml 2.9         5107261
LMR   002.34 170.7 m E Pn      2012/11/01 05:26:19.9   0.2                          T                                        5107242
LMR   002.34 170.7 m E Pg      2012/11/01 05:26:25.3  -0.2                          T                                        5118633
LMR   002.34 170.7 m E Sn      2012/11/01 05:26:47.2  -0.1                          T                                        5107241
LMR   002.34 170.7 m E Sg      2012/11/01 05:26:55.6   0.1                          T                2.8  .22 Ml 2.4         5118629
BGF   002.37 293.9 m E Pn      2012/11/01 05:26:20.4   0.1                          T                                        5107295
BGF   002.37 293.9 m E Pg      2012/11/01 05:26:25.8  -0.4                          T                                        5118641
BGF   002.37 293.9 m E Sn      2012/11/01 05:26:47.5  -0.7                          T                                        5107294
BGF   002.37 293.9 m E Sg      2012/11/01 05:26:57.1   0.4                          T               36.0  .51 Ml 3.1         5118618
SBF   002.05 149.4 m E Pg      2012/11/01 05:26:20.5   0.1                          T                                        5118632
SBF   002.05 149.4 m E Sn      2012/11/01 05:26:40.6  -0.1                          T                                        5118631
SBF   002.05 149.4 m E Sg      2012/11/01 05:26:46.9   0.1                          T                7.7  .36 Ml 2.5         5118630
SFTF  002.65 346.1 m E Pn      2012/11/01 05:26:24.1   0.1                          T                                        5118647
SFTF  002.65 346.1 m E Pg      2012/11/01 05:26:31.1  -0.1                          T                                        5118646
SFTF  002.65 346.1 m E Sg      2012/11/01 05:27:05.2   0.0                          T                8.1  .27 Ml 2.8         5118615
CDF   002.91 017.1 m E Pn      2012/11/01 05:26:26.6  -1.1                          T                                        5118651
CDF   002.91 017.1 m E Pg      2012/11/01 05:26:35.8  -0.4                          T                                        5118650
CDF   002.91 017.1 m E Sg      2012/11/01 05:27:13.7   0.1                          T                6.8  .36 Ml 2.8         5118613
MEZF  002.93 347.7 m E Pn      2012/11/01 05:26:27.7  -0.2                          T                                        5118649
MEZF  002.93 347.7 m E Pg      2012/11/01 05:26:36.2  -0.3                          T                                        5118648
MEZF  002.93 347.7 m E Sg      2012/11/01 05:27:14.7   0.5                          T                5.2  .30 Ml 2.6         5118614
CAF   002.86 256.9 m E Pn      2012/11/01 05:26:27.8   0.9                          T                                        5118622
CAF   002.86 256.9 m E Pg      2012/11/01 05:26:35.4   0.2                          T                                        5118621
CAF   002.86 256.9 m E Sg      2012/11/01 05:27:12.1   0.1                          T                1.5  .24 Ml 2.2         5118620
HYF   002.83 306.3 m E Pg      2012/11/01 05:26:34.9   0.2                          T                                        5118642
RJF   003.16 265.5 m E Pg      2012/11/01 05:26:40.9   0.1                          T                                        5118640
RJF   003.16 265.5 m E Sg      2012/11/01 05:27:20.6  -0.8                          T                3.1  .37 Ml 2.1         5118619
GIVF  004.53 350.5 m E Pn      2012/11/01 05:26:49.6  -0.1                          T                                        5118652
TCF   002.71 285.2 m E Sn      2012/11/01 05:26:56.3  -0.1                          T                                        5118612
TCF   002.71 285.2 m E Sg      2012/11/01 05:27:07.3  -0.1                          T                3.5  .31 Ml 2.5         5118611
MTLF  003.55 230.9 m E Sg      2012/11/01 05:27:33.4   0.1                          T                1.9  .25 Ml 2.4         5118623

.
EVENT     286175
    Date      Time       Latitude Longitude    Depth    Ndef Nsta Gap    Mag1  N    Mag2  N    Mag3  N   Author         ID
       rms   OT_Error      Smajor Sminor Az        Err   mdist  Mdist     Err        Err        Err      Quality

2012/11/01 06:16:39.3     44.5328    6.9151      2.0      41    8 057  Ml 2.0  6  Md 2.2  1              bulletin    286275
                                                                                                         _ldg
      0.36   +-  0.05       1.2     .9   75.19 +-  0.0    0.09   1.85   +-0.1      +-                    m i ke

FRANCE
Sta     Dist  EvAz     Phase      Date       Time     TRes  Azim  AzRes  Slow  SRes Def   SNR       Amp   Per   Mag1   Mag2       ID
MBDF  000.22 332.2 m E Pg      2012/11/01 06:16:43.4  -0.5                          T                                        5107306
MBDF  000.22 332.2 m E Sg      2012/11/01 06:16:47.3   0.4                          T               22.4  .18        Md 2.2  5107305
SBF   000.77 150.6 m E Pg      2012/11/01 06:16:54.2   0.3                          T                                        5118688
SBF   000.77 150.6 m E Sg      2012/11/01 06:17:03.7  -0.1                          T               14.3  .30                5118687
LPG   000.97 353.2 m E Pg      2012/11/01 06:16:57.4  -0.5                          T                                        5118689
LPG   000.97 353.2 m E Sg      2012/11/01 06:17:10.9   0.4                          T                2.4  .18 Ml 1.9         5118686
FRF   000.99 191.4 m E Pg      2012/11/01 06:16:57.6  -0.3                          T                                        5107304
FRF   000.99 191.4 m E Sg      2012/11/01 06:17:11.1   0.3                          T                2.9  .18 Ml 2.0         5107303
LPL   000.99 352.6 m E Pg      2012/11/01 06:16:58.1  -0.1                          T                                        5107300
LPL   000.99 352.6 m E Sn      2012/11/01 06:17:12.9   0.2                          T                5.2  .39 Ml 1.9         5118685
SMRF  001.11 240.4 m E Pg      2012/11/01 06:17:00.8   0.6                          T                                        5107299
SMRF  001.11 240.4 m E Sg      2012/11/01 06:17:15.1   0.5                          T                3.5  .29 Ml 1.9         5107298
LMR   001.23 193.9 m E Pg      2012/11/01 06:17:02.6   0.3                          T                                        5107302
LMR   001.23 193.9 m E Sg      2012/11/01 06:17:18.7   0.4                          T                3.0  .19 Ml 2.1         5107301
VIVF  001.63 282.2 m E Pg      2012/11/01 06:17:10.0   0.3                          T                                        5107297
VIVF  001.63 282.2 m E Sg      2012/11/01 06:17:31.6   0.8                          T                2.2  .35 Ml 1.9         5107296

.
EVENT     286220
    Date      Time       Latitude Longitude    Depth    Ndef Nsta Gap    Mag1  N    Mag2  N    Mag3  N   Author         ID
       rms   OT_Error      Smajor Sminor Az        Err   mdist  Mdist     Err        Err        Err      Quality

2012/11/01 11:54:23.9     50.9390    6.4783      7.0 f    27    3 240  Ml 2.4  3  Md 2.3  2              bulletin    286320
                                                                                                         _ldg
      0.40   +-  0.19       3.5    2.1    5.73 +-  0.0    0.00   4.35   +-0.3      +-0.1                 m i ke

GERMANY
Sta     Dist  EvAz     Phase      Date       Time     TRes  Azim  AzRes  Slow  SRes Def   SNR       Amp   Per   Mag1   Mag2       ID
GIVF  001.35 232.2 m E Pn      2012/11/01 11:54:47.6   0.2                          T                                        5109220
GIVF  001.35 232.2 m E Pg      2012/11/01 11:54:49.2   0.2                          T                                        5109219
GIVF  001.35 232.2 m E Sn      2012/11/01 11:55:04.7   0.2                          T                                        5109218
GIVF  001.35 232.2 m E Sg      2012/11/01 11:55:06.6   0.1                          T               15.3  .28 Ml 2.7 Md 2.3  5109217
BAIF  001.70 239.6 m E Pn      2012/11/01 11:54:52.2   0.0                          T                                        5109216
BAIF  001.70 239.6 m E Sn      2012/11/01 11:55:13.1   0.3                          T                                        5109215
BAIF  001.70 239.6 m E Sg      2012/11/01 11:55:17.0  -0.4                          T                4.6  .24 Ml 2.4 Md 2.4  5109214
SSF   004.35 207.9 m E Pn      2012/11/01 11:55:28.5   0.2                          T                                        5109213
SSF   004.35 207.9 m E Sn      2012/11/01 11:56:16.2   0.0                          T                 .4  .22 Ml 2.1         5109212

.
