EVENT     266198
    Date      Time       Latitude Longitude    Depth    Ndef Nsta Gap    Mag1  N    Mag2  N    Mag3  N   Author         ID
       rms   OT_Error      Smajor Sminor Az        Err   mdist  Mdist     Err        Err        Err      Quality

2011/11/12 02:04:28.4     46.1078    7.4220      2.0      29   11 060  Ml 1.9  9  Md 1.9  3              js067245    266218

      0.23   +-  0.04        .9     .7  122.69 +-  0.0    0.03   2.71   +-0.2      +-0.1                 m i ke

SWITZERLAND
Sta     Dist  EvAz     Phase      Date       Time     TRes  Azim  AzRes  Slow  SRes Def   SNR       Amp   Per   Mag1   Mag2       ID
LPL   000.76 219.4 m E Pg      2011/11/12 02:04:43.1   0.0                          T                                        4785864
LPL   000.76 219.4 m E Sg      2011/11/12 02:04:53.0   0.0                          T                3.1  .26        Md 2.0  4785861
LPG   000.77 217.8 m E Pg      2011/11/12 02:04:43.2  -0.1                          T                                        4785863
LPG   000.77 217.8 m E Sg      2011/11/12 02:04:53.2  -0.2                          T                3.3  .20        Md 2.0  4785862
CABF  001.05 299.1 m E Pn      2011/11/12 02:04:49.0   0.3                          T                                        4785867
CABF  001.05 299.1 m E Sn      2011/11/12 02:05:03.8   0.7                          T                1.6  .21 Ml 1.7 Md 1.8  4785856
MBDF  001.46 198.6 m E Pg      2011/11/12 02:04:55.8   0.1                          T                                        4785866
MBDF  001.46 198.6 m E Sg      2011/11/12 02:05:14.7   0.1                          T                 .6  .20 Ml 1.5         4785859
ORIF  001.61 222.9 m E Pg      2011/11/12 02:04:58.4  -0.1                          T                                        4785865
ORIF  001.61 222.9 m E Sg      2011/11/12 02:05:19.3   0.0                          T                1.6  .27 Ml 1.8         4785860
HINF  001.75 347.4 m E Pg      2011/11/12 02:05:01.2   0.1                          T                                        4785868
HINF  001.75 347.4 m E Sg      2011/11/12 02:05:23.8   0.0                          T                5.3  .28 Ml 2.4         4785855
HAU   002.04 339.2 m E Pg      2011/11/12 02:05:06.5   0.2                          T                                        4785869
HAU   002.04 339.2 m E Sg      2011/11/12 02:05:32.9   0.4                          T                2.3  .24 Ml 2.0         4785854
VIVF  002.30 238.1 m E Sg      2011/11/12 02:05:40.9   0.0                          T                1.1  .25 Ml 1.9         4785858
CDF   002.31 357.6 m E Sg      2011/11/12 02:05:41.3   0.3                          T                 .6  .20 Ml 1.9         4785853
SMF   002.54 283.5 m E Sg      2011/11/12 02:05:48.0  -0.2                          T                 .8  .18 Ml 2.0         4785857
LOR   002.71 296.6 m E Sg      2011/11/12 02:05:53.4  -0.2                          T                 .8  .24 Ml 1.9         4785852

.
EVENT     266228
    Date      Time       Latitude Longitude    Depth    Ndef Nsta Gap    Mag1  N    Mag2  N    Mag3  N   Author         ID
       rms   OT_Error      Smajor Sminor Az        Err   mdist  Mdist     Err        Err        Err      Quality

2011/11/12 02:58:02.0     46.1077    7.4193      2.0      22    8 094  Ml 1.5  6  Md 1.7  3              js067245    266248

      0.23   +-  0.05       1.2     .8  127.33 +-  0.0    0.03   2.30   +-0.4      +-0.1                 m i ke

SWITZERLAND
Sta     Dist  EvAz     Phase      Date       Time     TRes  Azim  AzRes  Slow  SRes Def   SNR       Amp   Per   Mag1   Mag2       ID
LPL   000.76 219.3 m E Pg      2011/11/12 02:58:16.6  -0.1                          T                                        4785889
LPL   000.76 219.3 m E Sg      2011/11/12 02:58:26.5  -0.1                          T                2.1  .29        Md 1.8  4785884
LPG   000.77 217.7 m E Pg      2011/11/12 02:58:16.8  -0.1                          T                                        4785888
LPG   000.77 217.7 m E Sg      2011/11/12 02:58:26.7  -0.2                          T                1.3  .19        Md 1.8  4785885
CABF  001.05 299.1 m E Pn      2011/11/12 02:58:22.5   0.3                          T                                        4785890
CABF  001.05 299.1 m E Sn      2011/11/12 02:58:37.3   0.7                          T                 .4  .22 Ml 1.1 Md 1.6  4785878
MBDF  001.45 198.5 m E Pg      2011/11/12 02:58:29.4   0.0                          T                                        4785887
MBDF  001.45 198.5 m E Sg      2011/11/12 02:58:48.2   0.1                          T                 .3  .25 Ml 1.1         4785882
ORIF  001.61 222.8 m E Pg      2011/11/12 02:58:31.9  -0.2                          T                                        4785886
ORIF  001.61 222.8 m E Sg      2011/11/12 02:58:52.9   0.0                          T                 .6  .26 Ml 1.5         4785883
HINF  001.75 347.4 m E Pg      2011/11/12 02:58:34.9   0.2                          T                                        4785891
HINF  001.75 347.4 m E Sg      2011/11/12 02:58:57.4   0.0                          T                2.1  .24 Ml 2.1         4785880
HAU   002.04 339.3 m E Sg      2011/11/12 02:59:06.5   0.3                          T                1.1  .26 Ml 1.6         4785879
VIVF  002.30 238.0 m E Sg      2011/11/12 02:59:14.6   0.1                          T                 .6  .25 Ml 1.7         4785881

.
EVENT     266232
    Date      Time       Latitude Longitude    Depth    Ndef Nsta Gap    Mag1  N    Mag2  N    Mag3  N   Author         ID
       rms   OT_Error      Smajor Sminor Az        Err   mdist  Mdist     Err        Err        Err      Quality

2011/11/12 03:04:09.1     42.8440   -1.0940      2.0      22    3 071  Ml 0.5  1  Md 0.8  2              js067245    266252

      0.36   +-  0.07       1.4    1.3   15.44 +-  0.0    0.10   1.07   +-         +-0.1                 m i ke

PYRENEES
Sta     Dist  EvAz     Phase      Date       Time     TRes  Azim  AzRes  Slow  SRes Def   SNR       Amp   Per   Mag1   Mag2       ID
SJPF  000.29 340.4 m E Pg      2011/11/12 03:04:14.8   0.1                          T                                        4786162
SJPF  000.29 340.4 m E Sg      2011/11/12 03:04:18.6   0.1                          T                 .5  .21        Md  .9  4786163
ETSF  000.40 081.9 m E Pg      2011/11/12 03:04:16.8   0.0                          T                                        4786160
ETSF  000.40 081.9 m E Sg      2011/11/12 03:04:22.1   0.0                          T                 .4  .23        Md  .8  4786161
EPF   001.07 079.5 m E Pg      2011/11/12 03:04:29.1  -0.1                          T                                        4786158
EPF   001.07 079.5 m E Sg      2011/11/12 03:04:42.9  -0.2                          T                 .1  .18 Ml  .5         4786159

.
EVENT     266203
    Date      Time       Latitude Longitude    Depth    Ndef Nsta Gap    Mag1  N    Mag2  N    Mag3  N   Author         ID
       rms   OT_Error      Smajor Sminor Az        Err   mdist  Mdist     Err        Err        Err      Quality

2011/11/12 03:56:46.0     47.7249    7.6265     15.5      18    8 056  Ml 1.5  6  Md 1.7  2              js067245    266223

      0.30   +-  0.06       1.3     .8    2.73 +-  0.8    0.08   1.80   +-0.5      +-0.0                 m i ke

SWITZERLAND
Sta     Dist  EvAz     Phase      Date       Time     TRes  Azim  AzRes  Slow  SRes Def   SNR       Amp   Per   Mag1   Mag2       ID
HINF  000.53 280.3 m E Pg      2011/11/12 03:56:56.7   0.2                          T                                        4786329
HINF  000.53 280.3 m E Sg      2011/11/12 03:57:03.6  -0.1                          T                2.9  .18        Md 1.7  4786332
CDF   000.73 341.3 m E Pg      2011/11/12 03:57:00.0  -0.1                          T                                        4786335
CDF   000.73 341.3 m E Sg      2011/11/12 03:57:09.7  -0.1                          T                 .3  .21        Md 1.7  4786336
HAU   000.91 288.5 m E Pg      2011/11/12 03:57:03.2   0.0                          T                                        4786328
HAU   000.91 288.5 m E Sg      2011/11/12 03:57:15.2   0.1                          T                2.8  .22 Ml 1.7         4786333
THEF  001.21 295.3 m E Pg      2011/11/12 03:57:08.6  -0.2                          T                                        4786327
THEF  001.21 295.3 m E Sg      2011/11/12 03:57:24.5   0.0                          T                1.9  .22 Ml 1.8         4786334
CABF  001.53 223.9 m E Pg      2011/11/12 03:57:14.8   0.0                          T                                        4786330
CABF  001.53 223.9 m E Sg      2011/11/12 03:57:34.7   0.0                          T                 .3  .23 Ml 1.2         4786331
LANF  001.26 005.4 m E Sg      2011/11/12 03:57:26.2   0.0                          T                1.3  .15 Ml 1.8         4786324
PAGF  001.52 303.8 m E Sg      2011/11/12 03:57:34.2   0.0                          T                 .1  .17 Ml  .6         4786325
SFTF  001.80 286.4 m E Sg      2011/11/12 03:57:43.0  -0.1                          T                 .7  .20 Ml 1.7         4786326

.
