EVENT     256686
    Date      Time       Latitude Longitude    Depth    Ndef Nsta Gap    Mag1  N    Mag2  N    Mag3  N   Author         ID
       rms   OT_Error      Smajor Sminor Az        Err   mdist  Mdist     Err        Err        Err      Quality

2011/03/05 07:02:43.7     47.0317     .2477      2.0      63   23 089  Ml 2.5 25  Md 2.7  2              js067245    256686

      0.28   +-  0.03        .8     .6   23.82 +-  0.0    0.51   4.17   +-0.3      +-0.0                 m i ke

FRANCE
Sta     Dist  EvAz     Phase      Date       Time     TRes  Azim  AzRes  Slow  SRes Def   SNR       Amp   Per   Mag1   Mag2       ID
MFF   000.51 212.3 m E Pg      2011/03/05 07:02:53.4   0.1                          T                                        4657177
MFF   000.51 212.3 m E Sg      2011/03/05 07:03:00.0  -0.1                          T               24.9  .24        Md 2.8  4657176
GRR   001.55 331.6 m E Pn      2011/03/05 07:03:10.3  -0.2                          T                                        4657163
GRR   001.55 331.6 m E Sn      2011/03/05 07:03:30.2   0.1                          T               25.4  .18 Ml 3.1         4657162
LDF   001.58 351.1 m E Pn      2011/03/05 07:03:11.1   0.1                          T                                        4657164
LDF   001.58 351.1 m E Sn      2011/03/05 07:03:31.0   0.1                          T                6.2  .18 Ml 2.6         4657161
HYF   001.65 080.9 m E Pn      2011/03/05 07:03:12.2   0.2                          T                                        4657168
HYF   001.65 080.9 m E Pg      2011/03/05 07:03:14.5   0.1                          T                                        4657180
HYF   001.65 080.9 m E Sg      2011/03/05 07:03:35.9   0.2                          T                                        4657156
TCF   001.54 118.1 m E Pg      2011/03/05 07:03:12.3  -0.2                          T                                        4657183
TCF   001.54 118.1 m E Sg      2011/03/05 07:03:32.3  -0.1                          T               15.5  .20 Ml 3.0 Md 2.7  4657173
FLN   001.80 344.4 m E Pn      2011/03/05 07:03:14.1   0.1                          T                                        4657165
FLN   001.80 344.4 m E Sn      2011/03/05 07:03:36.2   0.1                          T                6.6  .20 Ml 2.5         4657160
BGF   001.85 103.9 m E Pn      2011/03/05 07:03:14.6  -0.1                          T                                        4657167
BGF   001.85 103.9 m E Pg      2011/03/05 07:03:17.8  -0.2                          T                                        4657179
BGF   001.85 103.9 m E Sg      2011/03/05 07:03:41.9   0.1                          T               27.6  .28 Ml 3.2         4657174
AVF   002.14 095.3 m E Pn      2011/03/05 07:03:18.6   0.0                          T                                        4657170
AVF   002.14 095.3 m E Pg      2011/03/05 07:03:23.6   0.1                          T                                        4657127
AVF   002.14 095.3 m E Sg      2011/03/05 07:03:51.0   0.0                          T                3.6  .24 Ml 2.4         4657155
RJF   001.94 152.5 m E Pg      2011/03/05 07:03:19.0  -0.8                          T                                        4657132
RJF   001.94 152.5 m E Sg      2011/03/05 07:03:44.8   0.1                          T                 10  .22 Ml 2.5         4657149
SSF   002.23 088.0 m E Pn      2011/03/05 07:03:19.7  -0.1                          T                                        4657171
SSF   002.23 088.0 m E Pg      2011/03/05 07:03:24.2  -0.8                          T                                        4657181
SSF   002.23 088.0 m E Sn      2011/03/05 07:03:45.7  -0.6                          T                                        4657150
SSF   002.23 088.0 m E Sg      2011/03/05 07:03:53.1  -0.6                          T                3.7  .26 Ml 2.5         4657152
SGMF  002.26 303.8 m E Pn      2011/03/05 07:03:20.3   0.1                          T                                        4657130
SGMF  002.26 303.8 m E Sn      2011/03/05 07:03:46.9   0.0                          T                4.3  .29 Ml 2.4         4657158
LFF   002.12 170.5 m E Pg      2011/03/05 07:03:23.0   0.0                          T                                        4657133
LFF   002.12 170.5 m E Sg      2011/03/05 07:03:50.3  -0.1                          T               13.3  .42 Ml 2.6         4657148
QUIF  002.48 292.2 m E Pn      2011/03/05 07:03:23.1  -0.1                          T                                        4657131
QUIF  002.48 292.2 m E Sn      2011/03/05 07:03:52.4   0.2                          T               10.8  .45 Ml 2.7         4657159
SMF   002.50 097.6 m E Pn      2011/03/05 07:03:23.5   0.0                          T                                        4657169
SMF   002.50 097.6 m E Pg      2011/03/05 07:03:30.3   0.3                          T                                        4657128
SMF   002.50 097.6 m E Sg      2011/03/05 07:04:02.0  -0.2                          T                3.3  .16 Ml 2.6         4657154
LOR   002.48 083.2 m E Pn      2011/03/05 07:03:23.6   0.4                          T                                        4657172
LOR   002.48 083.2 m E Pg      2011/03/05 07:03:29.3  -0.3                          T                                        4657182
LOR   002.48 083.2 m E Sn      2011/03/05 07:03:51.4  -0.8                          T                                        4657151
LOR   002.48 083.2 m E Sg      2011/03/05 07:04:01.3  -0.2                          T                3.6  .22 Ml 2.5         4657153
ROSF  002.71 300.0 m E Pn      2011/03/05 07:03:26.4   0.0                          T                                        4657129
ROSF  002.71 300.0 m E Sn      2011/03/05 07:03:58.0   0.1                          T                4.4  .32 Ml 2.5         4657157
CAF   002.46 148.3 m E Pg      2011/03/05 07:03:29.2  -0.1                          T                                        4657134
CAF   002.46 148.3 m E Sg      2011/03/05 07:04:00.9   0.0                          T                6.5  .22 Ml 2.8         4657147
VIVF  003.78 123.6 m E Pn      2011/03/05 07:03:40.9   0.0                          T                                        4657140
VIVF  003.78 123.6 m E Sg      2011/03/05 07:04:42.0  -0.1                          T                2.2  .27 Ml 2.5         4657144
LASF  003.89 138.1 m E Pn      2011/03/05 07:03:42.5   0.0                          T                                        4657139
LASF  003.89 138.1 m E Sg      2011/03/05 07:04:45.7   0.0                          T                 .8  .20 Ml 2.2         4657143
MTLF  003.94 158.6 m E Pn      2011/03/05 07:03:43.2   0.0                          T                                        4657138
MTLF  003.94 158.6 m E Sg      2011/03/05 07:04:47.1  -0.2                          T                 .4  .20 Ml 1.9         4657142
EPF   004.00 179.0 m E Pn      2011/03/05 07:03:43.9  -0.1                          T                                        4657137
EPF   004.00 179.0 m E Sg      2011/03/05 07:04:49.2   0.0                          T                2.0  .28 Ml 2.5         4657146
SJPF  004.05 195.4 m E Pn      2011/03/05 07:03:44.7   0.0                          T                                        4657135
SJPF  004.05 195.4 m E Sg      2011/03/05 07:04:50.7   0.0                          T                  1  .22 Ml 2.3         4657145
ETSF  004.17 188.2 m E Pn      2011/03/05 07:03:46.4   0.0                          T                                        4657136
ETSF  004.17 188.2 m E Sg      2011/03/05 07:04:54.4  -0.1                          T                 .5  .20 Ml 2.1         4657141

.
EVENT     256696
    Date      Time       Latitude Longitude    Depth    Ndef Nsta Gap    Mag1  N    Mag2  N    Mag3  N   Author         ID
       rms   OT_Error      Smajor Sminor Az        Err   mdist  Mdist     Err        Err        Err      Quality

2011/03/05 09:51:09.7     48.2528   -4.4087      2.0      12    6 325  Ml 2.2  5  Md 2.1  3              js067245    256696

      0.15   +-  0.16       4.0    2.5  179.30 +-  0.0    0.76   2.88   +-0.1      +-0.0                 m i ke

FRANCE
Sta     Dist  EvAz     Phase      Date       Time     TRes  Azim  AzRes  Slow  SRes Def   SNR       Amp   Per   Mag1   Mag2       ID
ROSF  000.76 083.3 m E Pg      2011/03/05 09:51:24.1   0.0                          T                                        4657195
ROSF  000.76 083.3 m E Sg      2011/03/05 09:51:34.1   0.1                          T                3.2  .27        Md 2.1  4657193
QUIF  000.90 111.5 m E Pg      2011/03/05 09:51:26.6   0.1                          T                                        4657194
QUIF  000.90 111.5 m E Sg      2011/03/05 09:51:38.4   0.1                          T               11.1  .30 Ml 2.3 Md 2.1  4657192
SGMF  001.24 089.2 m E Pg      2011/03/05 09:51:32.6  -0.2                          T                                        4657189
SGMF  001.24 089.2 m E Sg      2011/03/05 09:51:48.5  -0.3                          T                2.8  .22 Ml 2.0 Md 2.2  4657191
GRR   002.37 085.4 m E Pn      2011/03/05 09:51:47.6  -0.2                          T                                        4657186
GRR   002.37 085.4 m E Sg      2011/03/05 09:52:24.4   0.1                          T                2.7  .25 Ml 2.2         4657187
FLN   002.66 077.5 m E Pn      2011/03/05 09:51:51.8   0.1                          T                                        4657184
FLN   002.66 077.5 m E Sg      2011/03/05 09:52:33.4   0.2                          T                1.7  .25 Ml 2.0         4657188
LDF   002.88 081.6 m E Pn      2011/03/05 09:51:54.8   0.2                          T                                        4657185
LDF   002.88 081.6 m E Sg      2011/03/05 09:52:40.0   0.0                          T                2.7  .39 Ml 2.2         4657190

.
EVENT     256697
    Date      Time       Latitude Longitude    Depth    Ndef Nsta Gap    Mag1  N    Mag2  N    Mag3  N   Author         ID
       rms   OT_Error      Smajor Sminor Az        Err   mdist  Mdist     Err        Err        Err      Quality

2011/03/05 11:05:54.1     35.3620   -8.0229      2.0      40    4 271  Ml 3.2  2                         js067245    256697

      1.06   +-  0.59      11.0    6.3   42.15 +-  0.0    1.87  10.03   +-0.6                            m i ke

WEST OF GIBRALTAR
Sta     Dist  EvAz     Phase      Date       Time     TRes  Azim  AzRes  Slow  SRes Def   SNR       Amp   Per   Mag1   Mag2       ID
EVOP  003.16 358.6 m E Pn      2011/03/05 11:06:42.6  -0.3                          T                                        4657200
EVOP  003.16 358.6 m E Sn      2011/03/05 11:07:18.5  -0.4                          T                5.5  .26 Ml 2.8         4657201
SJPF  009.36 032.2 m E Pn      2011/03/05 11:08:07.4   0.0                          T                                        4657199
SJPF  009.36 032.2 m E Sn      2011/03/05 11:09:46.8  -0.4                          T                3.4  .31 Ml 3.7         4657196
ETSF  009.50 035.4 m E Pn      2011/03/05 11:08:09.3   0.0                          T                                        4657198
EPF   010.03 037.7 m E Pn      2011/03/05 11:08:16.7   0.1                          T                                        4657197

.
EVENT     256688
    Date      Time       Latitude Longitude    Depth    Ndef Nsta Gap    Mag1  N    Mag2  N    Mag3  N   Author         ID
       rms   OT_Error      Smajor Sminor Az        Err   mdist  Mdist     Err        Err        Err      Quality

2011/03/05 16:39:04.8     45.3463    6.4681      2.0      14    6 108  Ml 1.8  2  Md 1.9  3              js067245    256688

      0.21   +-  0.06       1.7    1.0  129.56 +-  0.0    0.25   1.36   +-0.1      +-0.0                 m i ke

FRANCE
Sta     Dist  EvAz     Phase      Date       Time     TRes  Azim  AzRes  Slow  SRes Def   SNR       Amp   Per   Mag1   Mag2       ID
LPG   000.25 052.7 m E Pg      2011/03/05 16:39:09.8  -0.3                          T                                        4657224
LPG   000.25 052.7 m E Sg      2011/03/05 16:39:13.7   0.2                          T                7.4  .46        Md 1.9  4657218
LPL   000.25 047.5 m E Pg      2011/03/05 16:39:09.9  -0.2                          T                                        4657225
LPL   000.25 047.5 m E Sg      2011/03/05 16:39:13.7   0.2                          T                6.5  .31        Md 1.9  4657239
ORIF  000.60 224.4 m E Pg      2011/03/05 16:39:16.2  -0.1                          T                                        4657223
ORIF  000.60 224.4 m E Sg      2011/03/05 16:39:24.1   0.0                          T                3.2  .20        Md 1.9  4657219
MBDF  000.66 160.7 m E Pg      2011/03/05 16:39:17.5   0.1                          T                                        4657222
MBDF  000.66 160.7 m E Sg      2011/03/05 16:39:26.4   0.4                          T                2.2  .29                4657220
CABF  001.29 348.3 m E Pg      2011/03/05 16:39:29.3   0.3                          T                                        4657237
CABF  001.29 348.3 m E Sg      2011/03/05 16:39:46.0   0.2                          T                2.5  .41 Ml 1.7         4657236
VIVF  001.36 249.6 m E Pg      2011/03/05 16:39:30.2  -0.1                          T                                        4657238
VIVF  001.36 249.6 m E Sg      2011/03/05 16:39:47.7  -0.2                          T                2.8  .34 Ml 1.9         4657221

.
EVENT     256698
    Date      Time       Latitude Longitude    Depth    Ndef Nsta Gap    Mag1  N    Mag2  N    Mag3  N   Author         ID
       rms   OT_Error      Smajor Sminor Az        Err   mdist  Mdist     Err        Err        Err      Quality

2011/03/05 17:19:08.5     43.2566   -1.5395      2.0       6    3 336  Ml 1.7  1  Md 1.8  3              js067245    256698

      0.35   +-  0.36       8.3    6.0   24.71 +-  0.0    0.27   1.39   +-         +-0.0                 m i ke

PYRENEES
Sta     Dist  EvAz     Phase      Date       Time     TRes  Azim  AzRes  Slow  SRes Def   SNR       Amp   Per   Mag1   Mag2       ID
SJPF  000.27 121.8 m E Pg      2011/03/05 17:19:13.4  -0.5                          T                                        4657245
SJPF  000.27 121.8 m E Sg      2011/03/05 17:19:17.3  -0.3                          T                5.6  .20        Md 1.8  4657241
ETSF  000.80 116.1 m E Pg      2011/03/05 17:19:23.6  -0.1                          T                                        4657244
ETSF  000.80 116.1 m E Sg      2011/03/05 17:19:33.6  -0.5                          T                2.2  .26        Md 1.8  4657242
EPF   001.39 098.7 m E Pg      2011/03/05 17:19:34.4  -0.2                          T                                        4657240
EPF   001.39 098.7 m E Sg      2011/03/05 17:19:52.2  -0.5                          T                1.3  .24 Ml 1.7 Md 1.7  4657243

.
