EVENT     269119
    Date      Time       Latitude Longitude    Depth    Ndef Nsta Gap    Mag1  N    Mag2  N    Mag3  N   Author         ID
       rms   OT_Error      Smajor Sminor Az        Err   mdist  Mdist     Err        Err        Err      Quality

2012/01/25 13:42:26.4     47.6732    5.9846       .0 f    17    9 100  Ml 2.0  6  Md 2.0  1              js067245    269139

      0.66   +-  0.11       1.9    1.7  148.45 +-  0.0    0.41   2.00   +-0.2      +-                    m i km

FRANCE
Sta     Dist  EvAz     Phase      Date       Time     TRes  Azim  AzRes  Slow  SRes Def   SNR       Amp   Per   Mag1   Mag2       ID
HAU   000.41 036.2 m E Pg      2012/01/25 13:42:33.4  -1.3                          T                                        4825745
HAU   000.41 036.2 m E Sg      2012/01/25 13:42:39.4  -0.9                          T               67.4 1.02        Md 2.0  4825746
HINF  000.60 075.9 m E Pg      2012/01/25 13:42:38.0  -0.1                          T                                        4825738
HINF  000.60 075.9 m E Sg      2012/01/25 13:42:45.9  -0.4                          T               37.0  .98                4825739
SFTF  000.83 310.3 m E Pg      2012/01/25 13:42:42.6   0.3 127.7  -1.9              T                                        4825742
SFTF  000.83 310.3 m E Sg      2012/01/25 13:42:52.9  -0.3 127.3  -2.2              T                                        4825843
SFTF  000.83 310.3 m E Sn      2012/01/25 13:42:56.1  -0.2                          T                6.9  .25                4825743
PAGF  000.90 348.9 m E Pg      2012/01/25 13:42:43.9   0.4                          T                                        4825740
PAGF  000.90 348.9 m E Sg      2012/01/25 13:42:55.3  -0.1                          T                                        4825847
PAGF  000.90 348.9 m E Sn      2012/01/25 13:42:57.7  -0.2                          T                3.4  .50 Ml 1.6         4825741
CABF  001.06 176.2 m E Pg      2012/01/25 13:42:46.9   0.2                          T                                        4825736
CABF  001.06 176.2 m E Sn      2012/01/25 13:43:02.1   0.1                          T                9.7  .48 Ml 2.1         4825737
CDF   001.14 049.1 m E Sg      2012/01/25 13:43:03.1   0.1                          T                                        4825844
CDF   001.14 049.1 m E Sn      2012/01/25 13:43:04.1   0.4                          T               12.3  .76 Ml 2.2         4825744
LOR   001.50 255.1 m E Sg      2012/01/25 13:43:14.0  -0.1  80.2  6.7               T                1.4  .21 Ml 1.9         4825846
SSF   001.79 250.9 m E Sg      2012/01/25 13:43:22.1  -1.2                          T                3.5  .38 Ml 2.2         4825845
AVF   002.00 244.8 m E Sg      2012/01/25 13:43:29.6  -0.1                          T                2.8  .41 Ml 2.0         4825842

.
EVENT     269124
    Date      Time       Latitude Longitude    Depth    Ndef Nsta Gap    Mag1  N    Mag2  N    Mag3  N   Author         ID
       rms   OT_Error      Smajor Sminor Az        Err   mdist  Mdist     Err        Err        Err      Quality

2012/01/25 17:43:36.9     44.8550   10.6215     20.0 f   179   35 037  Ml 3.8 31                         js067245    269144

      1.12   +-  0.10       2.4    2.0  106.21 +-  0.0    0.09  10.01   +-0.3                            m i ke

NORTHERN ITALY
Sta     Dist  EvAz     Phase      Date       Time     TRes  Azim  AzRes  Slow  SRes Def   SNR       Amp   Per   Mag1   Mag2       ID
SBF   002.49 247.7 m E Pn      2012/01/25 17:44:15.0   0.3                          T   001.0                                4821997
SBF   002.49 247.7 m E P       2012/01/25 17:44:17.3  -0.1                          T                                        4825879
SBF   002.49 247.7 m E Sn      2012/01/25 17:44:42.8   0.2                          T   001.0      517.8  .40 Ml 4.4         4821998
PGF   002.59 207.6 m E Pn      2012/01/25 17:44:16.6   0.6                          T   001.0                                4821995
PGF   002.59 207.6 m E Sn      2012/01/25 17:44:46.5   1.5                          T   001.0      118.1  .32 Ml 4.1         4821996
MBDF  002.74 268.7 m E Pn      2012/01/25 17:44:17.4  -0.8                          T   001.0                                4822009
MBDF  002.74 268.7 m E Sn      2012/01/25 17:44:48.3  -0.5                          T   001.0      169.9  .48 Ml 3.9         4822010
LPG   002.81 284.6 m E Pn      2012/01/25 17:44:18.2  -1.1                          T   001.0                                4821992
LPG   002.81 284.6 m E P       2012/01/25 17:44:21.7  -0.5                          T                                        4825883
LPG   002.81 284.6 m E Pg      2012/01/25 17:44:28.4  -1.1                          T   001.0                                4821993
LPG   002.81 284.6 m E Sn      2012/01/25 17:44:50.0  -0.5                          T                                        4825876
LPG   002.81 284.6 m E Sg      2012/01/25 17:45:05.9   0.2                          T              131.7  .57 Ml 3.7         4825877
LPL   002.83 284.9 m E Pn      2012/01/25 17:44:18.5  -1.0                          T   001.0                                4821994
LPL   002.83 284.9 m E P       2012/01/25 17:44:21.9  -0.5                          T                                        4825884
LPL   002.83 284.9 m E Pg      2012/01/25 17:44:29.3  -0.4                          T                                        4825885
LPL   002.83 284.9 m E Sn      2012/01/25 17:44:49.2  -1.6                          T                                        4825874
LPL   002.83 284.9 m E Sg      2012/01/25 17:45:05.9  -0.2                          T              122.5  .40 Ml 3.9         4825875
FRF   003.14 247.0 m E Pn      2012/01/25 17:44:23.8   0.4                          T   001.0                                4821983
FRF   003.14 247.0 m E P       2012/01/25 17:44:26.3  -0.3                          T                                        4825880
FRF   003.14 247.0 m E Sn      2012/01/25 17:44:57.8  -0.2                          T               96.5  .32 Ml 4.0         4825878
LMR   003.33 244.3 m E Pn      2012/01/25 17:44:25.9  -0.1                          T   001.0                                4821989
LMR   003.33 244.3 m E Sn      2012/01/25 17:45:02.4  -0.2                          T   001.0      162.5  .36 Ml 4.2         4821990
ORIF  003.37 272.7 m E Pn      2012/01/25 17:44:27.7   1.0                          T   001.0                                4822014
ORIF  003.37 272.7 m E Sn      2012/01/25 17:45:02.9  -0.8                          T              158.7  .46 Ml 4.0         4825873
CABF  003.63 300.5 m E Pn      2012/01/25 17:44:30.7   0.5                          T   001.0                                4822006
CABF  003.63 300.5 m E Sn      2012/01/25 17:45:10.1   0.3                          T   001.0       51.3  .48 Ml 3.6         4822007
SMRF  003.72 258.1 m E Pn      2012/01/25 17:44:32.2   0.8                          T   001.0                                4822018
SMRF  003.72 258.1 m E P       2012/01/25 17:44:34.5  -0.4                          T                                        4825881
SMRF  003.72 258.1 m E Pg      2012/01/25 17:44:45.6  -0.3                          T                                        4825882
SMRF  003.72 258.1 m E Sn      2012/01/25 17:45:12.6   0.6                          T   001.0       70.9  .52 Ml 3.7         4822019
HINF  003.95 320.0 m E Pn      2012/01/25 17:44:34.4  -0.1                          T   001.0                                4822008
HINF  003.95 320.0 m E Sn      2012/01/25 17:45:17.0  -0.4                          T               48.9  .30 Ml 3.9         4825868
VIVF  004.23 272.1 m E Pn      2012/01/25 17:44:37.0  -0.3                          T   001.0                                4822016
VIVF  004.23 272.1 m E Sn      2012/01/25 17:45:23.6  -0.5                          T   001.0       38.1  .56 Ml 3.5         4822017
CDF   004.24 328.3 m E Pn      2012/01/25 17:44:38.6   0.1                          T   001.0                                4821981
CDF   004.24 328.3 m E Sn      2012/01/25 17:45:23.4  -1.0                          T               16.9  .20 Ml 3.7         4825862
CDF   004.24 328.3 m E Sg      2012/01/25 17:45:49.2  -0.8                          T               90.2  .72 Ml 3.9         4825863
HAU   004.32 318.4 m E Pn      2012/01/25 17:44:39.8   0.2                          T   001.0                                4821985
HAU   004.32 318.4 m E P       2012/01/25 17:44:43.1  -0.3                          T                                        4825888
HAU   004.32 318.4 m E Sn      2012/01/25 17:45:25.1  -1.2                          T               49.4  .26 Ml 3.8         4825867
LANF  004.56 335.9 m E Pn      2012/01/25 17:44:43.2   0.4                          T                                        4825893
LANF  004.56 335.9 m E Sn      2012/01/25 17:45:31.2  -0.6                          T                                        4825861
THEF  004.64 318.2 m E Pn      2012/01/25 17:44:44.3   0.3                          T                                        4825889
THEF  004.64 318.2 m E Pg      2012/01/25 17:45:02.2  -0.7                          T                                        4825890
THEF  004.64 318.2 m E Sn      2012/01/25 17:45:33.7  -0.3                          T                                        4825866
LASF  004.90 263.2 m E Pn      2012/01/25 17:44:47.0  -0.5                          T   001.0                                4821986
LASF  004.90 263.2 m E Sn      2012/01/25 17:45:40.2   0.0                          T   001.0       24.8  .56 Ml 3.5         4821987
PAGF  005.00 319.4 m E Pn      2012/01/25 17:44:49.5   0.7                          T                                        4825892
PAGF  005.00 319.4 m E Sn      2012/01/25 17:45:41.7  -0.9                          T                9.7  .39 Ml 3.3         4825864
SMF   005.07 293.1 m E Pn      2012/01/25 17:44:49.8   0.0                          T   001.0                                4821999
SMF   005.07 293.1 m E Sn      2012/01/25 17:45:43.7  -0.5                          T               37.1  .36 Ml 3.9         4825869
SFTF  005.11 313.0 m E Pn      2012/01/25 17:44:50.8   0.6 131.8  2.8               T                                        4825891
SFTF  005.11 313.0 m E Sn      2012/01/25 17:45:44.9  -0.1                          T               19.8  .31 Ml 3.7         4825865
LOR   005.29 299.5 m E Pn      2012/01/25 17:44:53.1   0.4 123.1  8.4               T   001.0                                4821991
LOR   005.29 299.5 m E Sn      2012/01/25 17:45:49.3  -0.1                          T               49.5  .42 Ml 4.0         4825860
MEZF  005.29 315.6 m E Pn      2012/01/25 17:44:53.8   1.1 119.8  -11.7             T   001.0                                4822011
MEZF  005.29 315.6 m E Sn      2012/01/25 17:45:49.7   0.3                          T   001.0       21.4  .36 Ml 3.7         4822012
SSF   005.43 296.5 m E Pn      2012/01/25 17:44:55.0   0.4                          T   001.0                                4822000
SSF   005.43 296.5 m E Sn      2012/01/25 17:45:51.7  -1.1                          T   001.0       37.4  .44 Ml 4.0         4822001
AVF   005.44 293.4 m E Pn      2012/01/25 17:44:55.0   0.3                          T   001.0                                4821976
AVF   005.44 293.4 m E Sn      2012/01/25 17:45:53.2   0.3                          T   001.0       18.5  .60 Ml 3.5         4821977
BGF   005.71 290.1 m E Pn      2012/01/25 17:44:58.6   0.2                          T   001.0                                4821978
BGF   005.71 290.1 m E Sn      2012/01/25 17:45:59.0  -0.4                          T   001.0       55.4  .44 Ml 4.1         4821979
TCF   006.08 286.6 m E Pn      2012/01/25 17:45:03.5   0.0                          T   001.0                                4822002
TCF   006.08 286.6 m E Sn      2012/01/25 17:46:07.8  -0.4                          T   001.0        9.6  .27 Ml 3.7         4822003
TCF   006.08 286.6 m E Sg      2012/01/25 17:46:45.9  -1.3                          T   001.0        8.6  .44 Ml 3.4         4822004
HYF   006.06 296.3 m E Pn      2012/01/25 17:45:03.7   0.6                          T                                        4825887
HYF   006.06 296.3 m E Sn      2012/01/25 17:46:07.1  -0.6                          T                                        4825870
CAF   006.08 273.7 m E Pn      2012/01/25 17:45:03.8   0.3                          T   001.0                                4821980
CAF   006.08 273.7 m E Sn      2012/01/25 17:46:08.0  -0.3                          T               14.6  .56 Ml 3.5         4825871
MTLF  006.24 258.9 m E Pn      2012/01/25 17:45:06.3   0.7                          T   001.0                                4822013
MTLF  006.24 258.9 m E Sn      2012/01/25 17:46:12.1   0.0                          T                8.5  .42 Ml 3.4         4825872
GIVF  006.56 325.3 m E Pn      2012/01/25 17:45:09.4  -0.5                          T                                        4825897
GIVF  006.56 325.3 m E P       2012/01/25 17:45:14.4  -0.5                          T                                        4825896
BAIF  006.78 322.4 m E Pn      2012/01/25 17:45:12.2  -0.8                          T                                        4825895
BAIF  006.78 322.4 m E P       2012/01/25 17:45:17.5  -0.5                          T                                        4825894
BAIF  006.78 322.4 m E Sn      2012/01/25 17:46:23.8  -1.2                          T   001.0        6.4  .52 Ml 3.3         4822005
LDF   008.27 300.7 m E Pn      2012/01/25 17:45:33.8   0.5                          T   001.0                                4821988
FLN   008.56 301.1 m E Pn      2012/01/25 17:45:38.0   0.8 124.5  11.5              T   001.0                                4821982
GRR   008.65 298.2 m E Pn      2012/01/25 17:45:39.1   0.6                          T   001.0                                4821984
QUIF  010.01 292.7 m E Pn      2012/01/25 17:45:58.0   1.1                          T   001.0                                4822015

.
EVENT     269121
    Date      Time       Latitude Longitude    Depth    Ndef Nsta Gap    Mag1  N    Mag2  N    Mag3  N   Author         ID
       rms   OT_Error      Smajor Sminor Az        Err   mdist  Mdist     Err        Err        Err      Quality

2012/01/25 20:40:47.0     44.8940   10.5055     25.0      67   19 047  Ml 2.7 10                         js067245    269141

      0.40   +-  0.06       1.4    1.3   74.13 +-  0.0    0.18   5.99   +-0.3                            m i ke

NORTHERN ITALY
Sta     Dist  EvAz     Phase      Date       Time     TRes  Azim  AzRes  Slow  SRes Def   SNR       Amp   Per   Mag1   Mag2       ID
SBF   002.43 246.0 m E P       2012/01/25 20:41:26.3   0.1                          T                                        4825913
SBF   002.43 246.0 m E Sn      2012/01/25 20:41:50.4   0.1                          T               18.6  .28 Ml 3.1         4825910
MBDF  002.66 267.7 m E Pn      2012/01/25 20:41:26.7   0.1                          T                                        4825925
MBDF  002.66 267.7 m E Pg      2012/01/25 20:41:36.2  -0.5                          T                                        4825924
LPL   002.74 284.5 m E Pn      2012/01/25 20:41:27.3  -0.5                          T                                        4825922
LPL   002.74 284.5 m E P       2012/01/25 20:41:30.7   0.0                          T                                        4825921
LPL   002.74 284.5 m E Sg      2012/01/25 20:42:13.7   0.2                          T                4.4  .37 Ml 2.4         4825906
LPG   002.72 284.1 m E Pn      2012/01/25 20:41:27.7   0.0                          T                                        4825920
LPG   002.72 284.1 m E P       2012/01/25 20:41:30.6   0.0                          T                                        4825918
LPG   002.72 284.1 m E Pg      2012/01/25 20:41:38.2   0.2                          T                                        4825919
LPG   002.72 284.1 m E Sn      2012/01/25 20:41:58.4   0.8                          T                2.4  .35 Ml 2.2         4825907
PGF   002.59 205.5 m E P       2012/01/25 20:41:27.8  -0.6                          T                                        4825912
PGF   002.59 205.5 m E Sn      2012/01/25 20:41:53.6  -0.5                          T               10.9  .31 Ml 3.1         4825911
FRF   003.08 245.7 m E P       2012/01/25 20:41:35.3   0.1                          T                                        4825915
FRF   003.08 245.7 m E Pg      2012/01/25 20:41:44.7   0.6                          T                                        4825916
FRF   003.08 245.7 m E Sn      2012/01/25 20:42:06.2   0.4                          T                5.3  .31 Ml 2.7         4825908
LMR   003.27 242.9 m E P       2012/01/25 20:41:38.1   0.1                          T                                        4825914
LMR   003.27 242.9 m E Sn      2012/01/25 20:42:10.8   0.4                          T                4.8  .23 Ml 2.8         4825909
ORIF  003.29 272.1 m E P       2012/01/25 20:41:38.4   0.0                          T                                        4825923
CABF  003.54 300.6 m E P       2012/01/25 20:41:41.6  -0.3                          T                                        4825928
HINF  003.87 320.4 m E Pn      2012/01/25 20:41:42.7  -0.3                          T                                        4825903
HINF  003.87 320.4 m E Sn      2012/01/25 20:42:24.5  -0.1                          T                1.9  .26 Ml 2.5         4825901
SMRF  003.65 257.2 m E P       2012/01/25 20:41:43.4   0.0                          T                                        4825917
VIVF  004.15 271.5 m E Pn      2012/01/25 20:41:46.4  -0.3                          T                                        4825905
VIVF  004.15 271.5 m E Sg      2012/01/25 20:42:57.3   0.2                          T                1.5  .32 Ml 2.4         4825904
CDF   004.16 328.9 m E P       2012/01/25 20:41:49.2  -1.6                          T                                        4825932
CDF   004.16 328.9 m E Sn      2012/01/25 20:42:32.2   0.4                          T                 .9  .21 Ml 2.4         4825900
HAU   004.24 318.8 m E P       2012/01/25 20:41:50.4  -1.3                          T                                        4825929
HAU   004.24 318.8 m E Sn      2012/01/25 20:42:34.2   0.7                          T                7.6  .32 Ml 2.9         4825902
THEF  004.56 318.6 m E P       2012/01/25 20:41:55.2  -1.2                          T                                        4825930
SMF   004.98 292.9 m E P       2012/01/25 20:42:01.1  -1.2                          T                                        4825927
SFTF  005.02 313.2 m E P       2012/01/25 20:42:01.5  -1.3                          T                                        4825931
BGF   005.61 289.9 m E P       2012/01/25 20:42:09.4  -1.8                          T                                        4825926
TCF   005.99 286.4 m E P       2012/01/25 20:42:15.7  -0.8                          T                                        4825933

.
