EVENT     260236
    Date      Time       Latitude Longitude    Depth    Ndef Nsta Gap    Mag1  N    Mag2  N    Mag3  N   Author         ID
       rms   OT_Error      Smajor Sminor Az        Err   mdist  Mdist     Err        Err        Err      Quality

2011/06/12 02:57:34.0     44.4255    9.3780      2.0      52   23 129  Ml 2.8 19                         js067245    260236

      0.64   +-  0.19       4.0    3.1   74.69 +-  0.0    0.15   5.24   +-0.3                            m i ke

NORTHERN ITALY
Sta     Dist  EvAz     Phase      Date       Time     TRes  Azim  AzRes  Slow  SRes Def   SNR       Amp   Per   Mag1   Mag2       ID
SBF   001.51 248.8 m E Pn      2011/06/12 02:57:59.7  -0.7                          T   001.0                                4705810
SBF   001.51 248.8 m E P       2011/06/12 02:58:01.7  -0.6                          T                                        4706797
SBF   001.51 248.8 m E Sn      2011/06/12 02:58:20.6   1.1                          T   001.0       42.4  .28 Ml 3.2         4705811
PGF   001.90 188.5 m E Pn      2011/06/12 02:58:04.4  -1.4                          T                                        4706784
PGF   001.90 188.5 m E Sn      2011/06/12 02:58:29.3   0.4                          T                3.5  .25 Ml 2.6         4706783
MBDF  001.89 280.1 m E Pn      2011/06/12 02:58:05.1  -0.6                          T                                        4706786
MBDF  001.89 280.1 m E Sn      2011/06/12 02:58:29.0   0.4                          T               19.3  .35 Ml 2.9         4706822
FRF   002.15 247.3 m E Pn      2011/06/12 02:58:08.2  -0.9                          T                                        4706785
FRF   002.15 247.3 m E P       2011/06/12 02:58:11.7   0.3                          T   001.0                                4705801
FRF   002.15 247.3 m E Sn      2011/06/12 02:58:34.7  -0.1                          T               10.4  .31 Ml 2.8         4706819
LPL   002.17 301.1 m E Pn      2011/06/12 02:58:09.6   0.0                          T   001.0                                4705808
LPL   002.17 301.1 m E Sn      2011/06/12 02:58:35.6   0.0                          T               10.9  .32 Ml 2.8         4706818
LPG   002.15 300.8 m E Pn      2011/06/12 02:58:09.8   0.3                          T   001.0                                4705806
LPG   002.15 300.8 m E Sn      2011/06/12 02:58:35.3   0.2                          T               14.8  .48 Ml 2.7         4706823
LMR   002.34 243.2 m E Pn      2011/06/12 02:58:10.7  -1.0                          T   001.0                                4705803
LMR   002.34 243.2 m E Sn      2011/06/12 02:58:39.3  -0.1                          T                8.7  .24 Ml 2.9         4706824
ORIF  002.54 282.4 m E Pn      2011/06/12 02:58:15.9   1.3                          T   001.0                                4705819
ORIF  002.54 282.4 m E Sn      2011/06/12 02:58:45.1   0.8                          T               16.9  .44 Ml 2.9         4706821
SMRF  002.77 262.0 m E Pn      2011/06/12 02:58:18.2   0.6                          T   001.0                                4705821
SMRF  002.77 262.0 m E Sn      2011/06/12 02:58:49.8   0.2                          T                4.5  .36 Ml 2.5         4706820
CABF  003.18 314.5 m E Pn      2011/06/12 02:58:23.8   0.5                          T   001.0                                4705814
CABF  003.18 314.5 m E Sn      2011/06/12 02:58:59.0  -0.5                          T                3.1  .30 Ml 2.5         4706813
VIVF  003.39 278.9 m E Pn      2011/06/12 02:58:27.1   1.1                          T                                        4706787
VIVF  003.39 278.9 m E Sn      2011/06/12 02:59:04.7   0.3                          T                2.8  .38 Ml 2.4         4706817
HINF  003.82 333.5 m E Pn      2011/06/12 02:58:31.4  -0.5                          T   001.0                                4705815
HINF  003.82 333.5 m E Sn      2011/06/12 02:59:14.2  -0.6                          T                5.1  .34 Ml 2.8         4706812
HAU   004.15 330.6 m E Pn      2011/06/12 02:58:36.1  -0.4                          T                                        4706791
HAU   004.15 330.6 m E Sn      2011/06/12 02:59:23.2   0.6                          T               18.7  .38 Ml 3.2         4706811
CDF   004.24 340.7 m E Pn      2011/06/12 02:58:36.4  -1.3                          T   001.0                                4705800
CDF   004.24 340.7 m E Sn      2011/06/12 02:59:23.5  -1.4                          T                3.3  .30 Ml 2.9         4706809
SMF   004.48 301.7 m E Pn      2011/06/12 02:58:41.6   0.7                          T                                        4706790
SMF   004.48 301.7 m E Sn      2011/06/12 02:59:30.8   0.4                          T                7.9  .42 Ml 3.0         4706815
LOR   004.79 308.3 m E Pn      2011/06/12 02:58:45.8   0.7                          T                                        4706796
LOR   004.79 308.3 m E Sn      2011/06/12 02:59:37.4  -0.5                          T                8.0  .32 Ml 3.2         4706808
PAGF  004.84 329.9 m E Pn      2011/06/12 02:58:45.8   0.1                          T                                        4706794
PAGF  004.84 329.9 m E Sn      2011/06/12 02:59:38.2  -0.9                          T                 .6  .32 Ml 2.1         4706810
SFTF  004.83 323.0 m E Pn      2011/06/12 02:58:46.0   0.4                          T                                        4706792
AVF   004.84 301.3 m E Pn      2011/06/12 02:58:46.5   0.7                          T   001.0                                4705797
AVF   004.84 301.3 m E Sn      2011/06/12 02:59:38.5  -0.6                          T                  1  .27 Ml 2.4         4706814
SSF   004.88 304.7 m E Pn      2011/06/12 02:58:46.9   0.6                          T                                        4706795
MEZF  005.05 325.3 m E Pn      2011/06/12 02:58:48.8   0.2                          T                                        4706793
BGF   005.06 297.2 m E Pn      2011/06/12 02:58:49.3   0.5                          T   001.0                                4705798
BGF   005.06 297.2 m E Sn      2011/06/12 02:59:45.1   0.7                          T                7.4  .41 Ml 3.1         4706816
CAF   005.24 278.0 m E Pn      2011/06/12 02:58:52.7   1.4                          T                                        4706788

.
EVENT     260237
    Date      Time       Latitude Longitude    Depth    Ndef Nsta Gap    Mag1  N    Mag2  N    Mag3  N   Author         ID
       rms   OT_Error      Smajor Sminor Az        Err   mdist  Mdist     Err        Err        Err      Quality

2011/06/12 04:24:10.6     44.4096    9.4904      2.0      21   14 211  Ml 2.2  9                         js067245    260237

      0.39   +-  0.23       4.9    2.9   77.81 +-  0.0    1.58   4.56   +-0.2                            m i ke

NORTHERN ITALY
Sta     Dist  EvAz     Phase      Date       Time     TRes  Azim  AzRes  Slow  SRes Def   SNR       Amp   Per   Mag1   Mag2       ID
SBF   001.58 250.5 m E Pn      2011/06/12 04:24:37.5  -0.5                          T                                        4706845
SBF   001.58 250.5 m E Sn      2011/06/12 04:24:58.8   1.1                          T                8.2  .34 Ml 2.5         4706825
PGF   001.89 191.0 m E Pn      2011/06/12 04:24:42.4   0.1                          T                                        4706844
MBDF  001.97 280.2 m E Pn      2011/06/12 04:24:42.5  -0.9                          T                                        4706838
MBDF  001.97 280.2 m E Sn      2011/06/12 04:25:07.1  -0.1                          T                3.0  .28 Ml 2.2         4706831
FRF   002.22 248.5 m E Pn      2011/06/12 04:24:46.6   0.0                          T                                        4706842
FRF   002.22 248.5 m E Sn      2011/06/12 04:25:12.8  -0.2                          T                2.1  .24 Ml 2.2         4706826
LPL   002.25 300.4 m E Pn      2011/06/12 04:24:47.6   0.3                          T                                        4706839
LPL   002.25 300.4 m E Sn      2011/06/12 04:25:13.9  -0.1                          T                                        4706828
LPL   002.25 300.4 m E Sg      2011/06/12 04:25:20.8  -0.7                          T                1.8  .33 Ml 2.0         4706829
LPG   002.23 300.2 m E Pn      2011/06/12 04:24:47.6   0.6                          T                                        4706840
LPG   002.23 300.2 m E Sn      2011/06/12 04:25:13.4  -0.2                          T                1.5  .37 Ml 1.9         4706827
LMR   002.41 244.5 m E Pn      2011/06/12 04:24:48.9  -0.2                          T                                        4706843
SMRF  002.85 262.6 m E Pn      2011/06/12 04:24:56.4   1.2                          T                                        4706841
CABF  003.25 313.8 m E Pn      2011/06/12 04:25:02.0   1.3                          T                                        4706836
CDF   004.29 339.9 m E Pn      2011/06/12 04:25:14.5  -0.3                          T                                        4706835
SMF   004.56 301.4 m E Pn      2011/06/12 04:25:19.7   1.3                          T                                        4706837
SMF   004.56 301.4 m E Sn      2011/06/12 04:26:08.7  -0.1                          T                 .9  .28 Ml 2.3         4706832
ORIF  002.63 282.4 m E Sn      2011/06/12 04:25:23.2   0.4                          T                1.9  .37 Ml 2.1         4706830
HINF  003.87 332.6 m E Sn      2011/06/12 04:25:52.4  -0.1                          T                  1  .34 Ml 2.1         4706833
HAU   004.21 329.9 m E Sn      2011/06/12 04:26:00.9   0.4                          T                2.7  .31 Ml 2.4         4706834

.
EVENT     260238
    Date      Time       Latitude Longitude    Depth    Ndef Nsta Gap    Mag1  N    Mag2  N    Mag3  N   Author         ID
       rms   OT_Error      Smajor Sminor Az        Err   mdist  Mdist     Err        Err        Err      Quality

2011/06/12 04:30:51.8     44.4610    9.4394      2.0      30   13 157  Ml 2.3 12                         js067245    260238

      0.77   +-  0.31       6.5    4.4   85.32 +-  0.0    0.16   4.50   +-0.2                            m i ke

NORTHERN ITALY
Sta     Dist  EvAz     Phase      Date       Time     TRes  Azim  AzRes  Slow  SRes Def   SNR       Amp   Per   Mag1   Mag2       ID
SBF   001.56 248.2 m E Pn      2011/06/12 04:31:17.9  -1.0                          T                                        4706887
SBF   001.56 248.2 m E Sn      2011/06/12 04:31:39.3   0.8                          T               15.2  .30 Ml 2.8         4706884
PGF   001.94 189.7 m E Pn      2011/06/12 04:31:22.5  -1.6                          T                                        4706886
PGF   001.94 189.7 m E Sn      2011/06/12 04:31:47.9   0.2                          T                1.0  .22 Ml 2.1         4706885
MBDF  001.92 278.9 m E Pn      2011/06/12 04:31:23.5  -0.5                          T                                        4706895
MBDF  001.92 278.9 m E Sn      2011/06/12 04:31:47.3   0.0                          T                3.4  .27 Ml 2.3         4706877
FRF   002.21 246.9 m E Pn      2011/06/12 04:31:26.8  -0.9                          T                                        4706889
FRF   002.21 246.9 m E P       2011/06/12 04:31:30.4   0.4                          T                                        4706890
FRF   002.21 246.9 m E Sn      2011/06/12 04:31:53.2  -0.7                          T                2.0  .26 Ml 2.2         4706882
LPG   002.17 299.5 m E Pn      2011/06/12 04:31:28.0   0.5                          T                                        4706892
LPG   002.17 299.5 m E Sn      2011/06/12 04:31:53.9   0.5                          T                2.1  .33 Ml 2.0         4706880
LPL   002.19 299.7 m E Pn      2011/06/12 04:31:28.3   0.6                          T                                        4706893
LPL   002.19 299.7 m E Sn      2011/06/12 04:31:54.2   0.4                          T                2.9  .36 Ml 2.2         4706879
LMR   002.40 243.0 m E Pn      2011/06/12 04:31:29.2  -1.0                          T                                        4706888
LMR   002.40 243.0 m E Sn      2011/06/12 04:31:57.7  -0.7                          T                3.8  .27 Ml 2.5         4706883
ORIF  002.58 281.5 m E Pn      2011/06/12 04:31:34.0   1.1                          T                                        4706894
ORIF  002.58 281.5 m E Sn      2011/06/12 04:32:03.6   0.7                          T                1.8  .29 Ml 2.1         4706878
SMRF  002.82 261.4 m E Pn      2011/06/12 04:31:36.7   0.6                          T                                        4706891
SMRF  002.82 261.4 m E Sn      2011/06/12 04:32:08.3  -0.3                          T                1.6  .30 Ml 2.1         4706881
CABF  003.19 313.6 m E Pn      2011/06/12 04:31:42.3   1.1                          T                                        4706897
HAU   004.14 329.9 m E Pn      2011/06/12 04:31:53.8  -0.2                          T                                        4706875
HAU   004.14 329.9 m E Sn      2011/06/12 04:32:41.1   0.9                          T                2.7  .30 Ml 2.4         4706874
CDF   004.23 340.0 m E Pn      2011/06/12 04:31:55.0  -0.3                          T                                        4706898
CDF   004.23 340.0 m E Sn      2011/06/12 04:32:41.7  -0.6                          T                 .8  .30 Ml 2.2         4706873
SMF   004.50 301.0 m E Pn      2011/06/12 04:31:59.9   1.1                          T                                        4706896
SMF   004.50 301.0 m E Sn      2011/06/12 04:32:48.8   0.2                          T                1.4  .31 Ml 2.4         4706876

.
EVENT     260438
    Date      Time       Latitude Longitude    Depth    Ndef Nsta Gap    Mag1  N    Mag2  N    Mag3  N   Author         ID
       rms   OT_Error      Smajor Sminor Az        Err   mdist  Mdist     Err        Err        Err      Quality

2011/06/12 04:53:04.8     47.4340    8.6861     10.0      18    5 130  Ml 1.6  5  Md 1.8  1              js067245    260438

      0.17   +-  0.05       1.1     .8  166.67 +-  0.0    0.10   2.28   +-0.2      +-                    m i ke

SWITZERLAND
Sta     Dist  EvAz     Phase      Date       Time     TRes  Azim  AzRes  Slow  SRes Def   SNR       Amp   Per   Mag1   Mag2       ID
CDF   001.36 316.4 m E Pn      2011/06/12 04:53:28.8   0.4                          T                                        4707911
CDF   001.36 316.4 m E Pg      2011/06/12 04:53:30.5   0.1                          T                                        4707910
CDF   001.36 316.4 m E Sg      2011/06/12 04:53:47.8  -0.2                          T                1.6  .26 Ml 1.9 Md 1.8  4707912
HINF  001.30 287.8 m E Pg      2011/06/12 04:53:29.2   0.1                          T                                        4707906
HINF  001.30 287.8 m E Sn      2011/06/12 04:53:43.8   0.0                          T                                        4707908
HINF  001.30 287.8 m E Sg      2011/06/12 04:53:46.0   0.1                          T                1.7  .21 Ml 1.8         4707907
HAU   001.68 290.8 m E Pg      2011/06/12 04:53:36.0  -0.1                          T                                        4707902
HAU   001.68 290.8 m E Sg      2011/06/12 04:53:57.7  -0.1                          T                 .8  .17 Ml 1.6         4707903
CABF  001.96 246.1 m E Pg      2011/06/12 04:53:41.3  -0.1                          T                                        4707904
CABF  001.96 246.1 m E Sg      2011/06/12 04:54:06.4  -0.2                          T                 .5  .24 Ml 1.5         4707905
PAGF  002.28 300.5 m E Sg      2011/06/12 04:54:16.6   0.0                          T                 .3  .23 Ml 1.4         4707909

.
EVENT     260245
    Date      Time       Latitude Longitude    Depth    Ndef Nsta Gap    Mag1  N    Mag2  N    Mag3  N   Author         ID
       rms   OT_Error      Smajor Sminor Az        Err   mdist  Mdist     Err        Err        Err      Quality

2011/06/12 04:54:56.8     43.1062    -.4279      2.0      19    4 171  Ml 1.3  1  Md 1.4  3              js067245    260245

      0.33   +-  0.12       3.2    1.4  165.80 +-  0.0    0.23   1.95   +-         +-0.2                 m i ke

PYRENEES
Sta     Dist  EvAz     Phase      Date       Time     TRes  Azim  AzRes  Slow  SRes Def   SNR       Amp   Per   Mag1   Mag2       ID
ETSF  000.23 204.9 m E Pg      2011/06/12 04:55:00.8  -0.7                          T                                        4706939
ETSF  000.23 204.9 m E Sg      2011/06/12 04:55:03.7  -0.8                          T                4.8  .22        Md 1.7  4706940
EPF   000.57 097.4 m E Pg      2011/06/12 04:55:07.5  -0.1                          T                                        4706935
EPF   000.57 097.4 m E Sg      2011/06/12 04:55:14.8  -0.3                          T                1.3  .17        Md 1.3  4706937
SJPF  000.58 271.0 m E Pg      2011/06/12 04:55:07.8  -0.1                          T                                        4706936
SJPF  000.58 271.0 m E Sg      2011/06/12 04:55:15.9   0.3                          T                 .9  .24        Md 1.3  4706938
MTLF  001.95 082.2 m E Sg      2011/06/12 04:55:58.5   0.3                          T                 .3  .22 Ml 1.3         4706934

.
EVENT     260246
    Date      Time       Latitude Longitude    Depth    Ndef Nsta Gap    Mag1  N    Mag2  N    Mag3  N   Author         ID
       rms   OT_Error      Smajor Sminor Az        Err   mdist  Mdist     Err        Err        Err      Quality

2011/06/12 06:42:14.5     42.8773     .1924      2.0       7    4 200  Ml 1.1  2  Md 1.3  2              js067245    260246

      0.17   +-  0.20       6.6    1.7  164.09 +-  0.0    0.19   1.55   +-0.3      +-0.2                 m i ke

PYRENEES
Sta     Dist  EvAz     Phase      Date       Time     TRes  Azim  AzRes  Slow  SRes Def   SNR       Amp   Per   Mag1   Mag2       ID
EPF   000.19 035.3 m E Pg      2011/06/12 06:42:18.2  -0.1                          T                                        4706959
EPF   000.19 035.3 m E Sg      2011/06/12 06:42:20.8  -0.1                          T                3.0  .18        Md 1.4  4706960
ETSF  000.55 272.5 m E Pg      2011/06/12 06:42:25.0  -0.1                          T                                        4706957
ETSF  000.55 272.5 m E Sg      2011/06/12 06:42:32.0  -0.4                          T                  1  .20        Md 1.1  4706958
SJPF  001.07 283.3 m E Pg      2011/06/12 06:42:34.6   0.1                          T                                        4706954
SJPF  001.07 283.3 m E Sg      2011/06/12 06:42:48.5   0.2                          T                 .2  .21 Ml  .9         4706955
MTLF  001.55 072.0 m E Sg      2011/06/12 06:43:03.5   0.0                          T                 .4  .21 Ml 1.4         4706956

.
