EVENT     291741
    Date      Time       Latitude Longitude    Depth    Ndef Nsta Gap    Mag1  N    Mag2  N    Mag3  N   Author         ID
       rms   OT_Error      Smajor Sminor Az        Err   mdist  Mdist     Err        Err        Err      Quality

2013/02/07 08:28:46.9     42.6055     .6704     10.0      18    3 113  Ml 1.5  3  Md 1.4  2              bulletin    291841
                                                                                                         _ldg
      0.38   +-  0.07       1.4    1.0   50.47 +-  0.0    0.29   1.35   +-0.3      +-0.1                 m i ke

PYRENEES
Sta     Dist  EvAz     Phase      Date       Time     TRes  Azim  AzRes  Slow  SRes Def   SNR       Amp   Per   Mag1   Mag2       ID
EPF   000.49 330.3 m E Pg      2013/02/07 08:28:56.5   0.0                          T                                        5192992
EPF   000.49 330.3 m E Sg      2013/02/07 08:29:03.0   0.0                          T                2.9  .22        Md 1.5  5192993
ETSF  000.95 288.3 m E Pg      2013/02/07 08:29:04.9  -0.1                          T                                        5192989
ETSF  000.95 288.3 m E Sg      2013/02/07 08:29:17.5   0.1                          T                 .6  .20 Ml 1.3 Md 1.4  5192988
MTLF  001.35 056.6 m E Pn      2013/02/07 08:29:10.4   0.2                          T                                        5192991
MTLF  001.35 056.6 m E Sn      2013/02/07 08:29:27.6   0.4                          T                1.3  .19 Ml 1.8         5192990

.
EVENT     291695
    Date      Time       Latitude Longitude    Depth    Ndef Nsta Gap    Mag1  N    Mag2  N    Mag3  N   Author         ID
       rms   OT_Error      Smajor Sminor Az        Err   mdist  Mdist     Err        Err        Err      Quality

2013/02/07 13:23:31.0     48.8470    -.0792       .0 f    21    8 232  Ml 2.6  4  Md 2.0  3              bulletin    291795
                                                                                                         _ldg
      0.25   +-  0.16       2.9    1.4   24.39 +-  0.0    0.26   2.41   +-0.2      +-0.1                 m i km

FRANCE
Sta     Dist  EvAz     Phase      Date       Time     TRes  Azim  AzRes  Slow  SRes Def   SNR       Amp   Per   Mag1   Mag2       ID
LDF   000.26 186.4 m E Pg      2013/02/07 13:23:36.2   0.0                          T                                        5191250
LDF   000.26 186.4 m E Sg      2013/02/07 13:23:40.2   0.3                          T               58.2  .43        Md 2.0  5191248
FLN   000.28 252.5 m E Pg      2013/02/07 13:23:36.4  -0.3                          T                                        5191251
FLN   000.28 252.5 m E Sg      2013/02/07 13:23:40.5  -0.2                          T               46.6  .32        Md 1.8  5191249
GRR   000.69 228.7 m E Pg      2013/02/07 13:23:44.4   0.1                          T                                        5191247
GRR   000.69 228.7 m E Sg      2013/02/07 13:23:53.2  -0.3                          T                                        5191246
GRR   000.69 228.7 m E Sn      2013/02/07 13:23:57.2  -0.4                          T                7.3  .21        Md 2.1  5191256
SGMF  001.75 251.1 m E Pn      2013/02/07 13:24:00.8  -0.3                          T                                        5191254
SGMF  001.75 251.1 m E Sn      2013/02/07 13:24:22.5  -0.3                          T                                        5197687
SGMF  001.75 251.1 m E Sg      2013/02/07 13:24:26.6   0.1                          T                8.4  .32 Ml 2.6         5191253
ROSF  002.18 257.6 m E Pn      2013/02/07 13:24:07.1   0.2                          T                                        5191255
ROSF  002.18 257.6 m E Sg      2013/02/07 13:24:40.3   0.3                          T               13.6  .37 Ml 2.8         5191252
MFF   002.25 181.2 m E Pn      2013/02/07 13:24:07.8   0.0                          T                                        5197681
MFF   002.25 181.2 m E Pg      2013/02/07 13:24:13.2   0.2                          T                                        5197680
MFF   002.25 181.2 m E Sn      2013/02/07 13:24:35.1   0.4                          T                                        5197679
MFF   002.25 181.2 m E Sg      2013/02/07 13:24:41.8  -0.3                          T                2.2  .30 Ml 2.3         5197678
QUIF  002.26 246.8 m E Pn      2013/02/07 13:24:08.2   0.3                          T                                        5197686
QUIF  002.26 246.8 m E Sn      2013/02/07 13:24:35.3   0.3                          T                                        5197685
QUIF  002.26 246.8 m E Sg      2013/02/07 13:24:42.5   0.1                          T                7.3  .34 Ml 2.6         5197684
HYF   002.41 129.9 m E Sn      2013/02/07 13:24:38.6  -0.1                          T                                        5197683
HYF   002.41 129.9 m E Sg      2013/02/07 13:24:46.9  -0.4                          T                                        5197682

.
EVENT     291702
    Date      Time       Latitude Longitude    Depth    Ndef Nsta Gap    Mag1  N    Mag2  N    Mag3  N   Author         ID
       rms   OT_Error      Smajor Sminor Az        Err   mdist  Mdist     Err        Err        Err      Quality

2013/02/07 14:44:29.0     47.5357    8.1708       .0 f    20    3 061  Ml 2.3  4                         bulletin    291802
                                                                                                         _ldg
      0.54   +-  0.10       2.6    2.0   26.13 +-  0.0    0.04   2.94   +-0.3                            m i km

SWITZERLAND
Sta     Dist  EvAz     Phase      Date       Time     TRes  Azim  AzRes  Slow  SRes Def   SNR       Amp   Per   Mag1   Mag2       ID
HINF  000.93 288.0 m E Pg      2013/02/07 14:44:47.4   0.6                          T                                        5191210
HINF  000.93 288.0 m E Sg      2013/02/07 14:44:59.9   0.7                          T               23.3  .42 Ml 2.5         5191207
CDF   001.06 325.9 m E Pg      2013/02/07 14:44:49.3   0.1                          T                                        5191206
CDF   001.06 325.9 m E Sg      2013/02/07 14:45:03.5   0.3                          T               11.4  .32 Ml 2.5         5191205
HAU   001.32 291.6 m E Pn      2013/02/07 14:44:52.7  -0.5                          T                                        5191244
HAU   001.32 291.6 m E Pg      2013/02/07 14:44:53.9   0.1                          T                                        5191209
HAU   001.32 291.6 m E Sn      2013/02/07 14:45:09.9  -0.6                          T                                        5191245
HAU   001.32 291.6 m E Sg      2013/02/07 14:45:11.0   0.0                          T                9.4  .24 Ml 2.3         5191208

.
EVENT     291703
    Date      Time       Latitude Longitude    Depth    Ndef Nsta Gap    Mag1  N    Mag2  N    Mag3  N   Author         ID
       rms   OT_Error      Smajor Sminor Az        Err   mdist  Mdist     Err        Err        Err      Quality

2013/02/07 15:10:26.6     43.1001    -.7425     10.0 f    38    7 097  Ml 2.2  4  Md 2.2  3              bulletin    291803
                                                                                                         _ldg
      0.72   +-  0.10       2.4    1.6  175.89 +-  0.0    0.03   2.74   +-0.3      +-0.0                 m i ke

PYRENEES
Sta     Dist  EvAz     Phase      Date       Time     TRes  Azim  AzRes  Slow  SRes Def   SNR       Amp   Per   Mag1   Mag2       ID
ETSF  000.24 146.2 m E Pg      2013/02/07 15:10:31.6  -0.1                          T                                        5191294
ETSF  000.24 146.2 m E Sg      2013/02/07 15:10:35.3   0.1                          T              172.7  .18        Md 2.2  5191293
SJPF  000.35 272.3 m E Pg      2013/02/07 15:10:33.4  -0.3                          T                                        5191292
SJPF  000.35 272.3 m E Sg      2013/02/07 15:10:38.3  -0.2                          T               85.1  .24        Md 2.2  5191291
EPF   000.80 094.7 m E Pg      2013/02/07 15:10:41.5  -0.2                          T                                        5191290
EPF   000.80 094.7 m E Sg      2013/02/07 15:10:52.7   0.5                          T               12.5  .22        Md 2.3  5191289
MTLF  002.18 082.6 m E Pn      2013/02/07 15:11:01.7   0.6                          T                                        5197701
MTLF  002.18 082.6 m E Sn      2013/02/07 15:11:27.6   1.0                          T                                        5197700
MTLF  002.18 082.6 m E Sg      2013/02/07 15:11:34.5  -0.7                          T                  1  .18 Ml 2.0         5197699
LFF   002.13 029.7 m E Pn      2013/02/07 15:11:01.9   1.5                          T                                        5191298
LFF   002.13 029.7 m E Sg      2013/02/07 15:11:34.3   0.8                          T                6.9  .28 Ml 2.5         5191297
CAF   002.73 047.0 m E Pn      2013/02/07 15:11:09.6   0.9                          T                                        5197705
CAF   002.73 047.0 m E Pg      2013/02/07 15:11:16.9  -0.4                          T                                        5197704
CAF   002.73 047.0 m E Sn      2013/02/07 15:11:40.6   0.9                          T                                        5197703
CAF   002.73 047.0 m E Sg      2013/02/07 15:11:51.6  -0.7                          T                1.8  .18 Ml 2.4         5197702
RJF   002.74 035.6 m E Pn      2013/02/07 15:11:09.6   0.8                          T                                        5191295
RJF   002.74 035.6 m E Sg      2013/02/07 15:11:50.8  -1.8                          T                                        5191296

.
EVENT     291718
    Date      Time       Latitude Longitude    Depth    Ndef Nsta Gap    Mag1  N    Mag2  N    Mag3  N   Author         ID
       rms   OT_Error      Smajor Sminor Az        Err   mdist  Mdist     Err        Err        Err      Quality

2013/02/07 16:19:17.6     44.1887    6.8158      2.0      33   10 062  Ml 1.6  9  Md 1.5  2              bulletin    291818
                                                                                                         _ldg
      0.30   +-  0.04        .9     .8   49.84 +-  0.0    0.17   2.29   +-0.3      +-0.0                 m i ke

FRANCE
Sta     Dist  EvAz     Phase      Date       Time     TRes  Azim  AzRes  Slow  SRes Def   SNR       Amp   Per   Mag1   Mag2       ID
MBDF  000.54 356.6 m E Pg      2013/02/07 16:19:27.9  -0.1                          T                                        5197715
MBDF  000.54 356.6 m E Sg      2013/02/07 16:19:34.7  -0.4                          T                2.7  .26        Md 1.5  5197714
SBF   000.55 125.9 m E Pg      2013/02/07 16:19:28.5   0.3                          T                                        5197708
SBF   000.55 125.9 m E Sg      2013/02/07 16:19:36.0   0.5                          T                6.3  .24        Md 1.5  5197709
FRF   000.64 191.1 m E Pg      2013/02/07 16:19:29.8   0.0                          T                                        5197713
FRF   000.64 191.1 m E Sg      2013/02/07 16:19:37.8  -0.3                          T                5.8  .23                5197712
LMR   000.88 194.7 m E Pg      2013/02/07 16:19:34.0  -0.2                          T                                        5197711
LMR   000.88 194.7 m E Sg      2013/02/07 16:19:45.7   0.0                          T                1.9  .18 Ml 1.8         5197710
SMRF  000.92 257.0 m E Pg      2013/02/07 16:19:34.8  -0.1                          T                                        5197720
SMRF  000.92 257.0 m E Sg      2013/02/07 16:19:46.2  -0.6                          T                4.2  .28 Ml 1.9         5197719
ORIF  000.99 317.8 m E Pg      2013/02/07 16:19:36.6   0.3                          T                                        5197726
ORIF  000.99 317.8 m E Sg      2013/02/07 16:19:48.4  -0.7                          T                 .5  .20 Ml 1.2         5197725
LPL   001.33 357.5 m E Pn      2013/02/07 16:19:41.8   0.0                          T                                        5197724
LPL   001.33 357.5 m E Sn      2013/02/07 16:19:59.3   0.3                          T                 .7  .22 Ml 1.4         5197723
LPG   001.31 358.0 m E Pn      2013/02/07 16:19:41.9   0.2                          T                                        5197722
LPG   001.31 358.0 m E Sn      2013/02/07 16:19:58.5  -0.1                          T                 .5  .20 Ml 1.4         5197721
VIVF  001.67 294.3 m E Pn      2013/02/07 16:19:46.4   0.2                          T                                        5197745
VIVF  001.67 294.3 m E Sn      2013/02/07 16:20:06.6  -0.4                          T                1.0  .27 Ml 1.7         5197744
PGF   002.29 135.1 m E Pn      2013/02/07 16:19:54.4  -0.3                          T                                        5197738
PGF   002.29 135.1 m E Pg      2013/02/07 16:20:00.1  -0.1                          T                                        5197737
PGF   002.29 135.1 m E Sn      2013/02/07 16:20:20.9  -0.9                          T                 .6  .25 Ml 1.9         5197736

.
EVENT     291706
    Date      Time       Latitude Longitude    Depth    Ndef Nsta Gap    Mag1  N    Mag2  N    Mag3  N   Author         ID
       rms   OT_Error      Smajor Sminor Az        Err   mdist  Mdist     Err        Err        Err      Quality

2013/02/07 16:57:08.3     44.1515    8.6174      5.0 f    44    9 094  Ml 2.1 10  Md 2.2  1              bulletin    291806
                                                                                                         _ldg
      0.28   +-  0.06       1.1    1.0   29.58 +-  0.0    0.21   2.91   +-0.4      +-                    m i ke

NORTHERN ITALY
Sta     Dist  EvAz     Phase      Date       Time     TRes  Azim  AzRes  Slow  SRes Def   SNR       Amp   Per   Mag1   Mag2       ID
SBF   000.90 251.7 m E Pg      2013/02/07 16:57:25.4   0.1                          T                                        5191316
SBF   000.90 251.7 m E Sg      2013/02/07 16:57:36.8  -0.2                          T               44.6  .30 Ml 2.9 Md 2.2  5191315
MBDF  001.44 294.2 m E Pn      2013/02/07 16:57:33.7   0.1                          T                                        5191321
MBDF  001.44 294.2 m E Sn      2013/02/07 16:57:52.2   0.4                          T                9.9  .30 Ml 2.5         5191320
PGF   001.63 170.0 m E Pn      2013/02/07 16:57:36.1   0.1                          T                                        5197829
PGF   001.63 170.0 m E Sn      2013/02/07 16:57:56.1   0.0                          T                 .6  .22 Ml 1.8         5197828
LMR   001.73 242.6 m E Pn      2013/02/07 16:57:37.4   0.0                          T                                        5191314
LMR   001.73 242.6 m E Pg      2013/02/07 16:57:40.0  -0.5                          T                                        5197827
LMR   001.73 242.6 m E Sg      2013/02/07 16:58:03.0   0.1                          T                3.4  .21 Ml 2.4         5191313
LPG   001.89 316.0 m E Pn      2013/02/07 16:57:39.9   0.1                          T                                        5191317
LPG   001.89 316.0 m E Pg      2013/02/07 16:57:43.6  -0.2                          T                                        5197821
LPG   001.89 316.0 m E Sn      2013/02/07 16:58:03.4   0.7                          T                                        5197820
LPG   001.89 316.0 m E Sg      2013/02/07 16:58:08.0  -0.2                          T                1.6  .27 Ml 2.0         5197822
LPL   001.91 316.2 m E Pn      2013/02/07 16:57:40.3   0.2                          T                                        5191318
LPL   001.91 316.2 m E Pg      2013/02/07 16:57:43.9  -0.3                          T                                        5197819
LPL   001.91 316.2 m E Sn      2013/02/07 16:58:03.4   0.3                          T                                        5197818
LPL   001.91 316.2 m E Sg      2013/02/07 16:58:08.7  -0.1                          T                1.6  .31 Ml 1.9         5197817
ORIF  002.10 292.3 m E Pn      2013/02/07 16:57:43.0   0.5                          T                                        5191319
ORIF  002.10 292.3 m E Pg      2013/02/07 16:57:47.3  -0.2                          T                                        5197816
ORIF  002.10 292.3 m E Sg      2013/02/07 16:58:13.8  -0.8                          T                 .8  .27 Ml 1.7         5197815
SMRF  002.20 266.5 m E Pn      2013/02/07 16:57:44.0   0.3                          T                                        5197826
SMRF  002.20 266.5 m E Pg      2013/02/07 16:57:49.5   0.3                          T                                        5197825
SMRF  002.20 266.5 m E Sn      2013/02/07 16:58:10.0   0.3                          T                                        5197824
SMRF  002.20 266.5 m E Sg      2013/02/07 16:58:17.8   0.3                          T                3.2  .24 Ml 2.4         5197823
VIVF  002.91 285.4 m E Pn      2013/02/07 16:57:53.6   0.2                          T                                        5197814
VIVF  002.91 285.4 m E Pg      2013/02/07 16:58:02.0  -0.2                          T                                        5197813

.
