EVENT     300158
    Date      Time       Latitude Longitude    Depth    Ndef Nsta Gap    Mag1  N    Mag2  N    Mag3  N   Author         ID
       rms   OT_Error      Smajor Sminor Az        Err   mdist  Mdist     Err        Err        Err      Quality

2013/05/31 16:13:33.1     44.3619    7.3042     12.0 f    42    9 110  Ml 1.9  6  Md 2.0  2              bulletin    300258
                                                                                                         _ldg
      0.27   +-  0.04       1.1     .6   52.87 +-  0.0    0.12   2.19   +-0.4      +-0.1                 m i ke

NORTHERN ITALY
Sta     Dist  EvAz     Phase      Date       Time     TRes  Azim  AzRes  Slow  SRes Def   SNR       Amp   Per   Mag1   Mag2       ID
SBF   000.51 169.2 m E Pg      2013/05/31 16:13:43.1   0.0                          T                                        5299585
SBF   000.51 169.2 m E Sg      2013/05/31 16:13:49.9   0.0                          T               16.8  .22        Md 2.0  5299580
MBDF  000.53 313.9 m E Pg      2013/05/31 16:13:43.8   0.3                          T                                        5299595
MBDF  000.53 313.9 m E Sg      2013/05/31 16:13:50.8   0.2                          T               16.8  .24        Md 1.9  5299592
FRF   000.93 210.9 m E Pg      2013/05/31 16:13:50.4  -0.3                          T                                        5299583
FRF   000.93 210.9 m E Sg      2013/05/31 16:14:03.0   0.1                          T                5.2  .20 Ml 2.2         5299582
LMR   001.18 209.5 m E Pg      2013/05/31 16:13:54.9  -0.3                          T                                        5299584
LMR   001.18 209.5 m E Sg      2013/05/31 16:14:10.9   0.4                          T                5.8  .22 Ml 2.3         5299581
ORIF  001.16 299.2 m E Pg      2013/05/31 16:13:55.4   0.4                          T                                        5299594
ORIF  001.16 299.2 m E Sg      2013/05/31 16:14:09.7  -0.3                          T                                        5299591
LPG   001.20 341.1 m E Pg      2013/05/31 16:13:55.8  -0.2                          T                                        5299588
LPG   001.20 341.1 m E Sg      2013/05/31 16:14:11.2  -0.4                          T                 .7  .20 Ml 1.4         5299589
LPL   001.22 340.8 m E Pg      2013/05/31 16:13:56.1  -0.2                          T                                        5299593
LPL   001.22 340.8 m E Sg      2013/05/31 16:14:11.2  -1.0                          T                 .7  .20 Ml 1.5         5299590
SMRF  001.30 253.4 m E Pg      2013/05/31 16:13:57.9   0.4                          T                                        5299587
SMRF  001.30 253.4 m E Sg      2013/05/31 16:14:14.8   0.3                          T                3.7  .21 Ml 2.2         5299586
PGF   002.19 145.2 m E Sn      2013/05/31 16:14:35.0   1.8                          T                                        5299579

.
EVENT     300166
    Date      Time       Latitude Longitude    Depth    Ndef Nsta Gap    Mag1  N    Mag2  N    Mag3  N   Author         ID
       rms   OT_Error      Smajor Sminor Az        Err   mdist  Mdist     Err        Err        Err      Quality

2013/05/31 18:34:33.1     48.9646    -.6576      3.0 f    51   18 203  Ml 2.6 17  Md 2.8  2              bulletin    300266
                                                                                                         _ldg
      0.85   +-  0.14       2.9    1.3    4.74 +-  0.0    0.23   5.80   +-0.3      +-0.0                 m i ke

FRANCE
Sta     Dist  EvAz     Phase      Date       Time     TRes  Azim  AzRes  Slow  SRes Def   SNR       Amp   Per   Mag1   Mag2       ID
FLN   000.23 150.1 m E Pg      2013/05/31 18:34:38.3   0.6 336.6  6.4               T   001.0                        Md 2.8  5299609
FLN   000.23 150.1 m E Sg      2013/05/31 18:34:41.9   0.9 327.1  -3.1              T               80.0  .22                5299641
LDF   000.51 136.2 m E Pg      2013/05/31 18:34:43.0   0.2                          T   001.0                        Md 2.8  5299612
LDF   000.51 136.2 m E Sg      2013/05/31 18:34:50.2   0.6                          T               14.8  .16                5299640
GRR   000.59 193.1 m E Pg      2013/05/31 18:34:45.3   1.0                          T   001.0                                5299610
GRR   000.59 193.1 m E Sg      2013/05/31 18:34:54.0   1.9                          T               52.6  .18                5299639
SGMF  001.45 241.3 m E Pn      2013/05/31 18:34:58.6   0.1                          T   001.0                                5299623
SGMF  001.45 241.3 m E Pg      2013/05/31 18:35:00.4   0.4                          T   001.0                                5299624
SGMF  001.45 241.3 m E Sg      2013/05/31 18:35:18.5  -0.2                          T   001.0       10.8  .20 Ml 2.7         5299625
ROSF  001.85 251.1 m E Pn      2013/05/31 18:35:03.6  -0.3                          T                                        5303533
ROSF  001.85 251.1 m E Pg      2013/05/31 18:35:07.2  -0.2                          T   001.0                                5299621
ROSF  001.85 251.1 m E Sg      2013/05/31 18:35:30.0  -1.2                          T   001.0       10.2  .20 Ml 2.9         5299622
QUIF  001.97 238.8 m E Pn      2013/05/31 18:35:05.1  -0.5                          T   001.0                                5299619
QUIF  001.97 238.8 m E Pg      2013/05/31 18:35:10.1   0.4                          T                                        5299638
QUIF  001.97 238.8 m E Sn      2013/05/31 18:35:29.2  -0.1                          T                                        5303528
QUIF  001.97 238.8 m E Sg      2013/05/31 18:35:35.0  -0.1                          T   001.0        8.8  .20 Ml 2.8         5299620
MFF   002.39 171.5 m E Pn      2013/05/31 18:35:11.0  -0.3                          T                                        5303532
MFF   002.39 171.5 m E Pg      2013/05/31 18:35:17.3  -0.2                          T                                        5299637
MFF   002.39 171.5 m E Sn      2013/05/31 18:35:39.2  -0.2                          T                                        5303529
MFF   002.39 171.5 m E Sg      2013/05/31 18:35:48.0  -0.1                          T   001.0        3.3  .18 Ml 2.7         5299615
HYF   002.79 126.3 m E Pg      2013/05/31 18:35:24.6  -0.1                          T                                        5299628
HYF   002.79 126.3 m E Sg      2013/05/31 18:35:59.9  -0.6                          T                                        5299634
SSF   003.38 122.7 m E Pn      2013/05/31 18:35:24.8   0.0                          T                                        5303534
SSF   003.38 122.7 m E Pg      2013/05/31 18:35:35.7   0.0                          T                                        5299643
SSF   003.38 122.7 m E Sg      2013/05/31 18:36:18.1  -1.1                          T   001.0        3.0  .28 Ml 2.6         5299617
AVF   003.47 127.4 m E Pn      2013/05/31 18:35:26.4   0.4                          T   001.0                                5299605
AVF   003.47 127.4 m E Sn      2013/05/31 18:36:05.2   0.1                          T   001.0                                5299606
AVF   003.47 127.4 m E Sg      2013/05/31 18:36:21.5  -0.3                          T   001.0        1.2  .28 Ml 2.2         5299607
LOR   003.47 117.6 m E P       2013/05/31 18:35:29.1  -0.1                          T                                        5303535
LOR   003.47 117.6 m E Pg      2013/05/31 18:35:37.4   0.1                          T                                        5299642
LOR   003.47 117.6 m E Sn      2013/05/31 18:36:04.5  -0.7                          T   001.0                                5299613
LOR   003.47 117.6 m E Sg      2013/05/31 18:36:21.1  -0.8                          T   001.0        2.2  .24 Ml 2.5         5299614
RJF   003.95 157.1 m E Pn      2013/05/31 18:35:32.5  -0.1                          T                                        5303531
RJF   003.95 157.1 m E Pg      2013/05/31 18:35:45.8  -0.4                          T                                        5299630
RJF   003.95 157.1 m E Sn      2013/05/31 18:36:16.5  -0.2                          T                                        5303530
RJF   003.95 157.1 m E Sg      2013/05/31 18:36:36.2  -0.7                          T                2.8  .30 Ml 2.3         5299633
TCF   003.31 143.0 m E Pg      2013/05/31 18:35:34.3  -0.1                          T                                        5299636
TCF   003.31 143.0 m E Sg      2013/05/31 18:36:16.5  -0.4                          T                1.0  .20 Ml 2.3         5299635
BGF   003.37 134.2 m E Pg      2013/05/31 18:35:35.1  -0.4                          T                                        5299629
BGF   003.37 134.2 m E Sg      2013/05/31 18:36:18.6  -0.3                          T   001.0        8.0  .36 Ml 2.9         5299608
LFF   004.14 166.1 m E Pn      2013/05/31 18:35:35.4   0.3                          T                                        5299631
LFF   004.14 166.1 m E Sg      2013/05/31 18:36:42.1  -0.6                          T                3.5  .35 Ml 2.5         5299632
SMF   003.82 125.7 m E Sg      2013/05/31 18:36:32.8   0.0                          T   001.0         .9  .18 Ml 2.3         5299616
MEZF  003.81 094.8 m E Sg      2013/05/31 18:36:34.2   1.8                          T   001.0        8.4  .32 Ml 3.0         5299618
LASF  005.80 145.8 m E Sg      2013/05/31 18:37:33.4  -1.2                          T   001.0        6.9  .88 Ml 2.9         5299611

.
EVENT     300224
    Date      Time       Latitude Longitude    Depth    Ndef Nsta Gap    Mag1  N    Mag2  N    Mag3  N   Author         ID
       rms   OT_Error      Smajor Sminor Az        Err   mdist  Mdist     Err        Err        Err      Quality

2013/05/31 19:22:24.9     50.5233    7.0564     11.0 f    48    9 043  Ml 2.0  7  Md 2.2  1              bulletin    300324
                                                                                                         _ldg
      0.43   +-  0.07       1.4    1.1   28.03 +-  0.0    0.02   2.71   +-0.2      +-                    m i ke

GERMANY
Sta     Dist  EvAz     Phase      Date       Time     TRes  Azim  AzRes  Slow  SRes Def   SNR       Amp   Per   Mag1   Mag2       ID
RUP   000.82 179.8 m E Pg      2013/05/31 19:22:40.6   0.1                          T                                        5301896
GIVF  001.49 254.5 m E Pn      2013/05/31 19:22:50.0   0.0                          T                                        5303579
GIVF  001.49 254.5 m E Pg      2013/05/31 19:22:53.0   0.2                          T                                        5303578
GIVF  001.49 254.5 m E Sg      2013/05/31 19:23:12.3   0.2                          T                5.2  .28 Ml 2.3 Md 2.2  5303562
CDF   002.12 176.0 m E Pn      2013/05/31 19:22:58.7   0.0                          T                                        5303576
CDF   002.12 176.0 m E Pg      2013/05/31 19:23:04.4   0.0                          T                                        5303575
CDF   002.12 176.0 m E Sg      2013/05/31 19:23:31.5  -0.3                          T                 .9  .28 Ml 1.8         5303565
BAIF  001.89 256.8 m E Pg      2013/05/31 19:23:00.0   0.0                          T                                        5303577
BAIF  001.89 256.8 m E Sn      2013/05/31 19:23:17.7   0.0                          T                                        5303564
BAIF  001.89 256.8 m E Sg      2013/05/31 19:23:23.9  -0.4                          T                2.9  .26 Ml 2.2         5303563
PAGF  002.15 204.3 m E Pg      2013/05/31 19:23:04.9   0.0                          T                                        5303573
PAGF  002.15 204.3 m E Sg      2013/05/31 19:23:32.8   0.1                          T                 .9  .19 Ml 1.9         5303566
MEZF  002.41 213.6 m E Pg      2013/05/31 19:23:09.7   0.1                          T                                        5303574
HAU   002.56 190.7 m E Pg      2013/05/31 19:23:12.4  -0.2                          T                                        5303571
HAU   002.56 190.7 m E Sg      2013/05/31 19:23:45.4  -0.1                          T                  1  .20 Ml 1.8         5303568
SFTF  002.67 210.4 m E Pg      2013/05/31 19:23:13.6  -0.9                          T                                        5303572
SFTF  002.67 210.4 m E Sg      2013/05/31 19:23:48.7  -0.1                          T                1.3  .24 Ml 2.1         5303567
HINF  002.71 182.9 m E Pg      2013/05/31 19:23:15.1  -0.2                          T                                        5303570
HINF  002.71 182.9 m E Sg      2013/05/31 19:23:50.3   0.1                          T                1.3  .28 Ml 2.0         5303569

.
EVENT     300222
    Date      Time       Latitude Longitude    Depth    Ndef Nsta Gap    Mag1  N    Mag2  N    Mag3  N   Author         ID
       rms   OT_Error      Smajor Sminor Az        Err   mdist  Mdist     Err        Err        Err      Quality

2013/05/31 20:03:31.1     50.5263    7.0615     12.0 f    38    5 077  Ml 2.1  6                         bulletin    300322
                                                                                                         _ldg
      0.38   +-  0.06       1.4    1.0   15.51 +-  0.0    0.02   2.57   +-0.2                            m i ke

GERMANY
Sta     Dist  EvAz     Phase      Date       Time     TRes  Azim  AzRes  Slow  SRes Def   SNR       Amp   Per   Mag1   Mag2       ID
GIVF  001.50 254.4 m E Pn      2013/05/31 20:03:56.1  -0.1                          T                                        5303700
GIVF  001.50 254.4 m E P       2013/05/31 20:03:58.0  -0.1                          T                                        5303699
GIVF  001.50 254.4 m E Pg      2013/05/31 20:03:59.0  -0.1                          T                                        5303698
GIVF  001.50 254.4 m E Sg      2013/05/31 20:04:18.4   0.0                          T                4.9  .24 Ml 2.3         5303694
BAIF  001.89 256.8 m E Pg      2013/05/31 20:04:06.3   0.0                          T                                        5303697
BAIF  001.89 256.8 m E Sg      2013/05/31 20:04:30.6   0.0                          T                2.9  .32 Ml 2.1         5303693
CDF   002.12 176.1 m E P       2013/05/31 20:04:07.2   0.0                          T                                        5303696
CDF   002.12 176.1 m E Pg      2013/05/31 20:04:10.7   0.0                          T                                        5303695
CDF   002.12 176.1 m E Sg      2013/05/31 20:04:38.3   0.3                          T                 .8  .27 Ml 1.8         5303692
PAGF  002.16 204.3 m E Sn      2013/05/31 20:04:30.1  -0.1                          T                4.5  .36 Ml 2.3         5303691
PAGF  002.16 204.3 m E Sg      2013/05/31 20:04:39.1   0.1                          T                1.1  .21 Ml 1.9         5303690
HAU   002.57 190.8 m E Sg      2013/05/31 20:04:51.8   0.0                          T                1.5  .22 Ml 2.0         5303689

.
