BEGIN GSE2.0
MSG_TYPE DATA
MSG_ID 09-NOV-1109:00:48  FRA_NDC
E-MAIL
DATA_TYPE BULLETIN
Reviewed Bulletin (REB) # P2011-043  from French NDC for regional phases     PERIOD 26 OCT 2011 TO 01 NOV 2011 S M., J-P S.
EVENT     265579
    Date      Time       Latitude Longitude    Depth    Ndef Nsta Gap    Mag1  N    Mag2  N    Mag3  N   Author         ID
       rms   OT_Error      Smajor Sminor Az        Err   mdist  Mdist     Err        Err        Err      Quality

2011/10/26 00:00:03.7     42.9151    -.5071     15.0       5    3 167             Md 1.2  2              js067245    265599

      0.42   +-  0.29      24.5    6.2  178.20 +-  0.0    0.04   0.63              +-0.2                 m i ke

PYRENEES
Sta     Dist  EvAz     Phase      Date       Time     TRes  Azim  AzRes  Slow  SRes Def   SNR       Amp   Per   Mag1   Mag2       ID
ETSF  000.04 246.7 m E Pg      2011/10/26 00:00:06.5  -0.3                          T                                        4777121
ETSF  000.04 246.7 m E Sg      2011/10/26 00:00:09.0   0.2                          T                6.5  .23        Md 1.3  4777122
EPF   000.63 079.2 m E Pg      2011/10/26 00:00:16.3   0.3                          T                                        4777119
EPF   000.63 079.2 m E Sg      2011/10/26 00:00:23.6  -0.9                          T                1.2  .26        Md 1.0  4777120
SJPF  000.56 290.9 m E Sg      2011/10/26 00:00:22.2  -0.1                          T                                        4777118

.
EVENT     265587
    Date      Time       Latitude Longitude    Depth    Ndef Nsta Gap    Mag1  N    Mag2  N    Mag3  N   Author         ID
       rms   OT_Error      Smajor Sminor Az        Err   mdist  Mdist     Err        Err        Err      Quality

2011/10/26 08:34:47.7     47.6357    6.2206       .0 f    14    7 118  Ml 2.2  4  Md 2.0  2              js067245    265607

      0.65   +-  0.08       2.0    1.4  110.53 +-  0.0    0.38   1.64   +-0.5      +-0.1                 m i km

FRANCE
Sta     Dist  EvAz     Phase      Date       Time     TRes  Azim  AzRes  Slow  SRes Def   SNR       Amp   Per   Mag1   Mag2       ID
HAU   000.38 013.0 m E Pg      2011/10/26 08:34:55.0  -0.3                          T                                        4778349
HAU   000.38 013.0 m E Sg      2011/10/26 08:35:00.5  -0.1                          T               69.2  .84        Md 2.0  4778348
HINF  000.46 066.8 m E Pg      2011/10/26 08:34:57.0   0.1                          T                                        4778487
HINF  000.46 066.8 m E Sg      2011/10/26 08:35:03.0  -0.2                          T               51.4  .84        Md 2.1  4778347
SFTF  000.98 306.1 m E Pg      2011/10/26 08:35:06.3   0.0 131.3  6.1               T                                        4778486
CABF  001.03 185.1 m E Pn      2011/10/26 08:35:08.0   0.0                          T                                        4778484
CABF  001.03 185.1 m E P       2011/10/26 08:35:09.4   0.1                          T                                        4778488
CABF  001.03 185.1 m E Sg      2011/10/26 08:35:21.0   0.1                          T               15.7  .59 Ml 2.3         4778490
CABF  001.03 185.1 m E Sn      2011/10/26 08:35:22.5   0.0                          T                                        4778489
PAGF  000.98 340.3 m E Sg      2011/10/26 08:35:19.4   0.2                          T                3.0  .47 Ml 1.6         4778491
PAGF  000.98 340.3 m E Sn      2011/10/26 08:35:21.7   0.5                          T                                        4778485
CDF   001.05 042.0 m E Sg      2011/10/26 08:35:21.5  -0.1                          T               12.5  .22 Ml 2.7         4778492
CDF   001.05 042.0 m E Sn      2011/10/26 08:35:23.3   0.3                          T                                        4778346
LOR   001.64 258.0 m E Sg      2011/10/26 08:35:40.1   0.1                          T                3.9  .36 Ml 2.1         4778483

.
EVENT     265602
    Date      Time       Latitude Longitude    Depth    Ndef Nsta Gap    Mag1  N    Mag2  N    Mag3  N   Author         ID
       rms   OT_Error      Smajor Sminor Az        Err   mdist  Mdist     Err        Err        Err      Quality

2011/10/26 11:30:57.5     46.4175    2.6177       .0 f    20    9 115  Ml 2.0  4  Md 1.8  3              js067245    265622

      1.29   +-  0.21       6.5    3.1  129.25 +-  0.0    0.21   1.54   +-0.1      +-0.1                 m i km

FRANCE
Sta     Dist  EvAz     Phase      Date       Time     TRes  Azim  AzRes  Slow  SRes Def   SNR       Amp   Per   Mag1   Mag2       ID
BGF   000.21 048.3 m E Pg      2011/10/26 11:31:01.9  -0.1                          T                                        4778827
BGF   000.21 048.3 m E Sg      2011/10/26 11:31:05.1   0.0                          T               15.7  .22        Md 1.7  4778815
TCF   000.31 245.5 m E Pg      2011/10/26 11:31:04.2   0.4                          T                                        4778824
TCF   000.31 245.5 m E Sg      2011/10/26 11:31:08.7   0.6                          T                6.2  .18        Md 2.0  4778810
AVF   000.63 053.4 m E Pg      2011/10/26 11:31:09.5  -0.2                          T                                        4778820
AVF   000.63 053.4 m E Sg      2011/10/26 11:31:18.0  -0.1                          T                1.4  .19                4778811
SMF   000.87 074.5 m E Pn      2011/10/26 11:31:14.2  -1.4                          T                                        4778821
SMF   000.87 074.5 m E Pg      2011/10/26 11:31:15.5   1.3                          T                                        4778825
SMF   000.87 074.5 m E Sg      2011/10/26 11:31:25.8   0.1                          T                3.8  .16 Ml 2.1         4778812
SSF   000.89 043.2 m E Pn      2011/10/26 11:31:14.4  -1.4                          T                                        4778823
SSF   000.89 043.2 m E Pg      2011/10/26 11:31:15.9   1.5                          T                                        4778822
SSF   000.89 043.2 m E Sg      2011/10/26 11:31:26.1  -0.1                          T                3.0  .20 Ml 2.0         4778809
LOR   001.20 044.6 m E Pg      2011/10/26 11:31:20.1  -0.2 236.3  10.8              T                                        4778807
LOR   001.20 044.6 m E Sg      2011/10/26 11:31:35.9  -0.2 217.6  -7.9              T                2.3  .21 Ml 1.9         4778808
RJF   001.35 215.1 m E Pg      2011/10/26 11:31:23.0   0.0                          T                                        4778865
HYF   000.85 001.0 m E Sg      2011/10/26 11:31:24.7  -0.4                          T                                        4778813
CAF   001.54 194.8 m E Pg      2011/10/26 11:31:26.7   0.2                          T                                        4778814

.
EVENT     265604
    Date      Time       Latitude Longitude    Depth    Ndef Nsta Gap    Mag1  N    Mag2  N    Mag3  N   Author         ID
       rms   OT_Error      Smajor Sminor Az        Err   mdist  Mdist     Err        Err        Err      Quality

2011/10/26 13:35:04.3     50.5700    3.4411       .0 f    22   15 232  Ml 3.0 12  Md 2.7  2              js067245    265624

      0.52   +-  0.23       3.1    2.0  161.79 +-  0.0    0.71   4.48   +-0.2      +-0.1                 m i km

BELGIUM
Sta     Dist  EvAz     Phase      Date       Time     TRes  Azim  AzRes  Slow  SRes Def   SNR       Amp   Per   Mag1   Mag2       ID
BAIF  000.71 135.8 m E Pg      2011/10/26 13:35:18.4   0.4                          T                                        4778876
BAIF  000.71 135.8 m E Sg      2011/10/26 13:35:27.6   0.2                          T               51.8  .36        Md 2.8  4778875
GIVF  001.00 117.3 m E Pg      2011/10/26 13:35:23.5   0.1                          T                                        4778877
GIVF  001.00 117.3 m E Pn      2011/10/26 13:35:24.4   0.2                          T                                        4778872
GIVF  001.00 117.3 m E Sg      2011/10/26 13:35:36.5   0.0                          T              143.6  .44 Ml 3.3 Md 2.7  4778874
PAGF  002.51 142.7 m E Pg      2011/10/26 13:35:50.7  -0.4 322.1  -2.3              T                                        4778882
PAGF  002.51 142.7 m E Sg      2011/10/26 13:36:23.4  -0.2 329.8  5.4               T                5.8  .41 Ml 2.5         4778870
LOR   003.32 175.1 m E Pg      2011/10/26 13:36:05.5  -0.5                          T                                        4778910
LOR   003.32 175.1 m E Sg      2011/10/26 13:36:48.9   0.1                          T               13.0  .44 Ml 3.0         4778884
MEZF  002.32 152.5 m E Sg      2011/10/26 13:36:18.2   0.5                          T               34.6  .38 Ml 3.2         4778885
RUP   002.49 109.1 m E Sg      2011/10/26 13:36:22.4  -0.6                          T                                        4778878
SFTF  002.59 155.6 m E Sg      2011/10/26 13:36:25.9  -0.2                          T               27.2  .43 Ml 3.1         4778867
HAU   003.20 142.3 m E Sn      2011/10/26 13:36:28.4  -2.3                          T                                        4778909
HAU   003.20 142.3 m E Sg      2011/10/26 13:36:45.5   0.5                          T               14.6  .38 Ml 2.8         4778873
THEF  002.88 143.6 m E Sg      2011/10/26 13:36:35.4   0.3                          T               11.0  .21 Ml 3.1         4778868
LDF   003.05 230.9 m E Sg      2011/10/26 13:36:40.3  -0.1                          T               11.5  .50 Ml 2.8         4778886
FLN   003.13 236.1 m E Sg      2011/10/26 13:36:43.2   0.4                          T               27.2  .39 Ml 3.2         4778887
CDF   003.30 129.4 m E Sg      2011/10/26 13:36:48.7   0.1                          T                                        4778881
HINF  003.55 139.6 m E Sg      2011/10/26 13:36:55.3  -0.8                          T               16.3  .44 Ml 3.1         4778871
SSF   003.51 179.3 m E Sg      2011/10/26 13:36:55.5   0.6                          T                6.9  .44 Ml 2.8         4778883
SMF   003.94 176.0 m E Sg      2011/10/26 13:37:08.4   0.2                          T                                        4778888

.
EVENT     265605
    Date      Time       Latitude Longitude    Depth    Ndef Nsta Gap    Mag1  N    Mag2  N    Mag3  N   Author         ID
       rms   OT_Error      Smajor Sminor Az        Err   mdist  Mdist     Err        Err        Err      Quality

2011/10/26 16:26:28.5     44.1449   10.7856     10.0 f    49   12 062  Ml 2.9  4  Md 2.8  3              js067245    265625

      0.66   +-  0.09       2.3    1.6  179.01 +-  0.0    0.16   5.77   +-0.3      +-0.1                 m i ke

NORTHERN ITALY
Sta     Dist  EvAz     Phase      Date       Time     TRes  Azim  AzRes  Slow  SRes Def   SNR       Amp   Per   Mag1   Mag2       ID
PGF   002.06 219.8 m E Pn      2011/10/26 16:27:01.6   0.0                          T                                        4777462
PGF   002.06 219.8 m E P       2011/10/26 16:27:03.7  -0.2                          T                                        4777439
PGF   002.06 219.8 m E Pg      2011/10/26 16:27:07.1   0.2                          T                                        4777440
PGF   002.06 219.8 m E Sn      2011/10/26 16:27:25.7  -0.1                          T                                Md 2.7  4777448
SBF   002.43 264.5 m E Pn      2011/10/26 16:27:06.2  -0.4                          T                                        4777459
SBF   002.43 264.5 m E P       2011/10/26 16:27:09.3   0.1                          T                                        4777444
SBF   002.43 264.5 m E Sn      2011/10/26 16:27:35.2   0.5                          T               23.3  .46 Ml 3.0 Md 2.8  4777449
SBF   002.43 264.5 m E S       2011/10/26 16:27:39.7   0.2                          T                                        4777450
SBF   002.43 264.5 m E Sg      2011/10/26 16:27:44.4  -0.7                          T                                        4777451
MBDF  002.93 282.8 m E Pn      2011/10/26 16:27:13.9   0.3                          T                                        4777443
MBDF  002.93 282.8 m E Pg      2011/10/26 16:27:22.1  -1.0                          T                                        4777432
MBDF  002.93 282.8 m E Sg      2011/10/26 16:28:00.1  -0.6                          T                                        4777433
FRF   003.05 260.4 m E Pn      2011/10/26 16:27:14.9   0.0                          T                                        4777460
FRF   003.05 260.4 m E P       2011/10/26 16:27:18.1   0.2                          T                                        4777457
FRF   003.05 260.4 m E Sn      2011/10/26 16:27:49.4   0.1                          T                9.2  .29 Ml 3.0 Md 2.8  4777454
FRF   003.05 260.4 m E S       2011/10/26 16:27:55.2   0.2                          T                                        4777455
LMR   003.20 256.8 m E Pn      2011/10/26 16:27:16.7  -0.3                          T                                        4777461
LMR   003.20 256.8 m E P       2011/10/26 16:27:19.9  -0.2                          T                                        4777456
LMR   003.20 256.8 m E Sn      2011/10/26 16:27:52.6  -0.3                          T               11.5  .30 Ml 3.1         4777453
LMR   003.20 256.8 m E S       2011/10/26 16:27:59.1   0.1                          T                                        4777452
LPL   003.19 296.8 m E Pn      2011/10/26 16:27:19.4   2.2                          T                                        4777438
LPL   003.19 296.8 m E S       2011/10/26 16:28:00.2   1.3                          T                                        4777436
LPL   003.19 296.8 m E Sg      2011/10/26 16:28:08.1  -0.9                          T                                        4777434
ORIF  003.59 284.1 m E Pn      2011/10/26 16:27:22.9   0.5                          T                                        4777446
ORIF  003.59 284.1 m E P       2011/10/26 16:27:25.4  -0.3                          T                                        4777447
SMRF  003.76 269.2 m E Pn      2011/10/26 16:27:26.5   1.9                          T                                        4777458
CABF  004.13 308.3 m E Pn      2011/10/26 16:27:30.4   0.7                          T                                        4777441
VIVF  004.43 281.4 m E P       2011/10/26 16:27:37.4  -0.2                          T                                        4777437
HAU   004.94 322.9 m E Pn      2011/10/26 16:27:42.3   1.5                          T                                        4777445
HAU   004.94 322.9 m E Pg      2011/10/26 16:27:59.4  -0.6                          T                                        4777442
LPG   003.17 296.6 m E Sg      2011/10/26 16:28:06.7  -1.7                          T                                        4777435

.
EVENT     265668
    Date      Time       Latitude Longitude    Depth    Ndef Nsta Gap    Mag1  N    Mag2  N    Mag3  N   Author         ID
       rms   OT_Error      Smajor Sminor Az        Err   mdist  Mdist     Err        Err        Err      Quality

2011/10/26 17:58:29.1     42.9759    -.8661      2.0       5    3 188  Ml 1.2  1  Md 1.3  2              js067245    265688

      0.15   +-  0.11       9.5    1.5   19.72 +-  0.0    0.24   0.89   +-         +-0.4                 m i ke

PYRENEES
Sta     Dist  EvAz     Phase      Date       Time     TRes  Azim  AzRes  Slow  SRes Def   SNR       Amp   Per   Mag1   Mag2       ID
ETSF  000.24 108.8 m E Pg      2011/10/26 17:58:33.9   0.0                          T                                        4777473
ETSF  000.24 108.8 m E Sg      2011/10/26 17:58:36.9  -0.3                          T                1.5  .19        Md 1.5  4777471
SJPF  000.30 297.7 m E Pg      2011/10/26 17:58:35.0   0.1                          T                                        4777470
SJPF  000.30 297.7 m E Sg      2011/10/26 17:58:38.6  -0.3                          T                4.6  .21        Md 1.0  4777472
EPF   000.89 086.1 m E Sg      2011/10/26 17:58:57.4   0.1                          T                 .7  .23 Ml 1.2         4777469

.
EVENT     265612
    Date      Time       Latitude Longitude    Depth    Ndef Nsta Gap    Mag1  N    Mag2  N    Mag3  N   Author         ID
       rms   OT_Error      Smajor Sminor Az        Err   mdist  Mdist     Err        Err        Err      Quality

2011/10/26 22:09:43.6     44.3220    4.3415      2.0      27   10 113  Ml 1.9  6  Md 2.0  3              js067245    265632

      0.75   +-  0.07       1.9    1.3  164.19 +-  0.0    0.43   3.89   +-0.2      +-0.1                 m i ke

FRANCE
Sta     Dist  EvAz     Phase      Date       Time     TRes  Azim  AzRes  Slow  SRes Def   SNR       Amp   Per   Mag1   Mag2       ID
LASF  000.43 235.0 m E Pg      2011/10/26 22:09:51.7  -0.1                          T                                        4777517
LASF  000.43 235.0 m E Sg      2011/10/26 22:09:57.2  -0.3                          T                8.0  .24        Md 1.9  4777516
VIVF  000.58 023.8 m E Pg      2011/10/26 22:09:54.4  -0.3                          T                                        4777514
VIVF  000.58 023.8 m E P       2011/10/26 22:09:55.8  -0.3                          T                                        4777494
VIVF  000.58 023.8 m E Pn      2011/10/26 22:09:57.5   0.0                          T                                        4777513
VIVF  000.58 023.8 m E Sg      2011/10/26 22:10:02.5   0.0                          T                5.7  .18        Md 2.0  4777515
VIVF  000.58 023.8 m E Sn      2011/10/26 22:10:07.1   0.1                          T                                        4777493
SMRF  000.95 110.8 m E Pg      2011/10/26 22:10:02.2   0.7                          T                                        4777508
SMRF  000.95 110.8 m E Sg      2011/10/26 22:10:13.8  -0.1                          T                2.0  .28 Ml 1.6 Md 2.1  4777495
SMRF  000.95 110.8 m E Sn      2011/10/26 22:10:15.9   0.1                          T                                        4777510
SMRF  000.95 110.8 m E S       2011/10/26 22:10:17.4  -1.0                          T                                        4777498
FRF   001.83 113.8 m E Pn      2011/10/26 22:10:14.4   0.0                          T                                        4777497
FRF   001.83 113.8 m E Pg      2011/10/26 22:10:17.7   0.0                          T                                        4777496
FRF   001.83 113.8 m E Sg      2011/10/26 22:10:41.1  -0.2                          T                 .6  .21 Ml 1.7         4777505
LMR   001.85 121.4 m E Pn      2011/10/26 22:10:16.3   1.6                          T                                        4777506
LMR   001.85 121.4 m E Sg      2011/10/26 22:10:41.3  -0.7                          T                1.5  .27 Ml 1.9         4777509
MTLF  001.82 238.2 m E Pg      2011/10/26 22:10:17.9   0.4                          T                                        4777511
MTLF  001.82 238.2 m E Sg      2011/10/26 22:10:40.6  -0.4                          T                2.1  .27 Ml 2.1         4777512
LPL   002.08 054.1 m E Pn      2011/10/26 22:10:18.0   0.0                          T                                        4777504
ORIF  001.25 061.0 m E Sg      2011/10/26 22:10:23.5   0.2                          T                                        4777502
CAF   001.73 291.2 m E Sg      2011/10/26 22:10:38.4   0.1                          T                1.9  .22 Ml 2.1         4777503
EPF   003.18 247.4 m E Sg      2011/10/26 22:11:23.6   0.2                          T                                        4777507

.
