EVENT     265687
    Date      Time       Latitude Longitude    Depth    Ndef Nsta Gap    Mag1  N    Mag2  N    Mag3  N   Author         ID
       rms   OT_Error      Smajor Sminor Az        Err   mdist  Mdist     Err        Err        Err      Quality

2011/10/28 10:29:15.5     47.6801    5.9897       .0 f    24   11 099  Ml 2.1  6  Md 2.2  2              js067245    265707

      0.72   +-  0.09       1.8    1.5  141.56 +-  0.0    0.41   1.80   +-0.3      +-0.1                 m i km

FRANCE
Sta     Dist  EvAz     Phase      Date       Time     TRes  Azim  AzRes  Slow  SRes Def   SNR       Amp   Per   Mag1   Mag2       ID
HAU   000.41 036.4 m E Pg      2011/10/28 10:29:23.2  -0.4                          T                                        4779432
HAU   000.41 036.4 m E Sg      2011/10/28 10:29:29.1  -0.1                          T                6.2  .25        Md 2.1  4779418
THEF  000.55 000.3 m E Pg      2011/10/28 10:29:25.9  -0.3                          T                                        4779433
THEF  000.55 000.3 m E Sg      2011/10/28 10:29:33.7   0.0                          T               69.1  .95        Md 2.3  4779419
HINF  000.60 076.5 m E Pg      2011/10/28 10:29:26.8  -0.4                          T                                        4779431
HINF  000.60 076.5 m E P       2011/10/28 10:29:28.8   0.5                          T                                        4779415
HINF  000.60 076.5 m E Sg      2011/10/28 10:29:35.4   0.1                          T                5.1  .22                4779429
SFTF  000.83 309.7 m E Pg      2011/10/28 10:29:31.5   0.1 130.4  1.4               T                                        4779424
SFTF  000.83 309.7 m E Pn      2011/10/28 10:29:32.7  -0.3                          T                                        4779414
SFTF  000.83 309.7 m E Sg      2011/10/28 10:29:42.7   0.3                          T                5.2  .20                4779423
PAGF  000.89 348.6 m E Pg      2011/10/28 10:29:33.2   0.6 162.8  -5.7              T                                        4779427
PAGF  000.89 348.6 m E Sg      2011/10/28 10:29:44.1  -0.3                          T                5.1  .60 Ml 1.7         4779426
PAGF  000.89 348.6 m E Sn      2011/10/28 10:29:46.9   0.0                          T                                        4779422
MEZF  001.04 322.9 m E Pg      2011/10/28 10:29:35.4   0.2 138.5  -3.8              T                                        4779420
MEZF  001.04 322.9 m E Sg      2011/10/28 10:29:48.4  -0.4 138.5  -3.8              T               11.5  .44 Ml 2.3         4779413
CABF  001.07 176.4 m E Pg      2011/10/28 10:29:36.2   0.2                          T                                        4779430
CABF  001.07 176.4 m E Sg      2011/10/28 10:29:50.0  -0.1                          T               11.3  .34 Ml 2.4         4779428
CABF  001.07 176.4 m E Sn      2011/10/28 10:29:51.2  -0.2                          T                                        4779416
CDF   001.13 049.2 m E Pg      2011/10/28 10:29:37.5   0.3                          T                                        4779421
CDF   001.13 049.2 m E Sg      2011/10/28 10:29:51.4  -0.6                          T               13.7  .54 Ml 2.4         4779425
LOR   001.50 254.9 m E Pg      2011/10/28 10:29:43.8   0.0  76.3  3.0               T                                        4779412
LOR   001.50 254.9 m E Sg      2011/10/28 10:30:03.2  -0.3  69.6  -3.7              T                2.5  .20 Ml 2.1         4779411
SSF   001.80 250.8 m E Sg      2011/10/28 10:30:11.9  -0.7                          T                                        4779410
SMF   001.79 235.6 m E Sg      2011/10/28 10:30:12.0  -0.6                          T                1.1  .22 Ml 1.8         4779417

.
EVENT     265733
    Date      Time       Latitude Longitude    Depth    Ndef Nsta Gap    Mag1  N    Mag2  N    Mag3  N   Author         ID
       rms   OT_Error      Smajor Sminor Az        Err   mdist  Mdist     Err        Err        Err      Quality

2011/10/28 12:01:28.4     45.5610    6.6350       .0 f     8    5 239  Ml 1.8  1  Md 1.8  2              js067245    265753

      0.18   +-  0.21       4.4    1.5  173.78 +-  0.0    0.08   1.56   +-         +-0.0                 m i km

FRANCE
Sta     Dist  EvAz     Phase      Date       Time     TRes  Azim  AzRes  Slow  SRes Def   SNR       Amp   Per   Mag1   Mag2       ID
LPL   000.08 123.0 m E Pg      2011/10/28 12:01:30.6  -0.1                          T                                        4779456
LPL   000.08 123.0 m E Sg      2011/10/28 12:01:32.5   0.4                          T               42.8  .24        Md 1.8  4779457
LPG   000.10 127.7 m E Pg      2011/10/28 12:01:31.1  -0.2                          T                                        4779455
LPG   000.10 127.7 m E Sg      2011/10/28 12:01:32.8  -0.2                          T               78.8  .54        Md 1.8  4779458
ORIF  000.84 220.0 m E Pg      2011/10/28 12:01:44.6   0.1                          T                                        4779454
ORIF  000.84 220.0 m E Sg      2011/10/28 12:01:55.2  -0.3                          T                5.3  .42                4779453
MBDF  000.84 173.3 m E Sg      2011/10/28 12:01:55.8   0.1                          T                8.8  .53                4779452
VIVF  001.56 243.8 m E Sg      2011/10/28 12:02:18.0   0.1                          T                1.6  .26 Ml 1.8         4779451

.
EVENT     265734
    Date      Time       Latitude Longitude    Depth    Ndef Nsta Gap    Mag1  N    Mag2  N    Mag3  N   Author         ID
       rms   OT_Error      Smajor Sminor Az        Err   mdist  Mdist     Err        Err        Err      Quality

2011/10/28 20:01:15.5     42.9336    -.6906      2.0      21    3 095             Md 1.0  2              js067245    265754

      0.65   +-  0.17       3.2    2.6  161.17 +-  0.0    0.10   0.76              +-0.7                 m i ke

PYRENEES
Sta     Dist  EvAz     Phase      Date       Time     TRes  Azim  AzRes  Slow  SRes Def   SNR       Amp   Per   Mag1   Mag2       ID
ETSF  000.10 109.9 m E Pg      2011/10/28 20:01:17.5  -0.4                          T                                        4777519
ETSF  000.10 109.9 m E Sg      2011/10/28 20:01:19.3  -0.1                          T                7.4  .20        Md 1.5  4777518
SJPF  000.43 294.8 m E Pg      2011/10/28 20:01:24.0   0.2                          T                                        4779459
SJPF  000.43 294.8 m E Sg      2011/10/28 20:01:29.2  -0.3                          T                1.7  .26        Md  .5  4779460
EPF   000.76 082.4 m E Sg      2011/10/28 20:01:39.9   0.1                          T                 .7  .22                4779461

.
EVENT     265735
    Date      Time       Latitude Longitude    Depth    Ndef Nsta Gap    Mag1  N    Mag2  N    Mag3  N   Author         ID
       rms   OT_Error      Smajor Sminor Az        Err   mdist  Mdist     Err        Err        Err      Quality

2011/10/28 20:24:05.5     43.1239    -.6082      2.0      39    3 178             Md 2.1  2              js067245    265755

      0.43   +-  0.14       2.6    1.3    5.22 +-  0.0    0.08   2.63              +-0.0                 m i ke

PYRENEES
Sta     Dist  EvAz     Phase      Date       Time     TRes  Azim  AzRes  Slow  SRes Def   SNR       Amp   Per   Mag1   Mag2       ID
ETSF  000.23 170.9 m E Pg      2011/10/28 20:24:09.7  -0.5                          T                                        4779465
ETSF  000.23 170.9 m E Sg      2011/10/28 20:24:12.3  -1.0                          T               39.3  .22        Md 2.1  4779464
SJPF  000.45 268.9 m E Pg      2011/10/28 20:24:14.3   0.1                          T                                        4779463
SJPF  000.45 268.9 m E Sg      2011/10/28 20:24:19.7  -0.5                          T                9.7  .28        Md 2.1  4779462
EPF   000.70 097.3 m E Pg      2011/10/28 20:24:19.4   0.5                          T                                        4780442
EPF   000.70 097.3 m E Sg      2011/10/28 20:24:28.8   0.8                          T                2.5  .31                4779466

.
EVENT     265737
    Date      Time       Latitude Longitude    Depth    Ndef Nsta Gap    Mag1  N    Mag2  N    Mag3  N   Author         ID
       rms   OT_Error      Smajor Sminor Az        Err   mdist  Mdist     Err        Err        Err      Quality

2011/10/28 20:52:27.6     43.1447   -1.1160     15.0      21    3 170  Ml 1.0  1  Md 1.2  2              js067245    265757

      0.29   +-  0.09       1.6    1.2    2.14 +-  0.0    0.09   1.07   +-         +-0.4                 m i ke

PYRENEES
Sta     Dist  EvAz     Phase      Date       Time     TRes  Azim  AzRes  Slow  SRes Def   SNR       Amp   Per   Mag1   Mag2       ID
SJPF  000.09 248.5 m E Pg      2011/10/28 20:52:31.0   0.1                          T                                        4779470
SJPF  000.09 248.5 m E Sg      2011/10/28 20:52:33.1   0.1                          T                4.6  .18        Md 1.4  4779469
ETSF  000.48 120.9 m E Pg      2011/10/28 20:52:37.3   0.1                          T                                        4779468
ETSF  000.48 120.9 m E Sg      2011/10/28 20:52:43.5  -0.1                          T                 .7  .19        Md  .9  4779467
EPF   001.07 095.6 m E Sg      2011/10/28 20:53:01.8  -0.1                          T                 .4  .23 Ml 1.0         4780443

.
EVENT     265738
    Date      Time       Latitude Longitude    Depth    Ndef Nsta Gap    Mag1  N    Mag2  N    Mag3  N   Author         ID
       rms   OT_Error      Smajor Sminor Az        Err   mdist  Mdist     Err        Err        Err      Quality

2011/10/28 21:48:40.8     47.4997    7.3127     10.0      26    9 076  Ml 2.1  6  Md 2.2  3              js067245    265758

      0.34   +-  0.05       1.1     .8  163.15 +-  0.0    0.12   2.63   +-0.4      +-0.1                 m i ke

SWITZERLAND
Sta     Dist  EvAz     Phase      Date       Time     TRes  Azim  AzRes  Slow  SRes Def   SNR       Amp   Per   Mag1   Mag2       ID
HINF  000.44 315.8 m E Pg      2011/10/28 21:48:49.4  -0.1                          T                                        4779488
HINF  000.44 315.8 m E Sg      2011/10/28 21:48:55.4  -0.1                          T                6.5  .22        Md 2.2  4779485
HAU   000.82 308.2 m E Pg      2011/10/28 21:48:56.1  -0.4                          T                                        4779487
HAU   000.82 308.2 m E Sg      2011/10/28 21:49:07.1  -0.2                          T               19.0  .22        Md 2.1  4779486
HAU   000.82 308.2 m E S       2011/10/28 21:49:10.7  -0.5                          T                                        4779472
CDF   000.91 358.5 m E Pg      2011/10/28 21:48:58.1   0.0                          T                                        4779473
CDF   000.91 358.5 m E Sg      2011/10/28 21:49:09.9  -0.2                          T               14.1  .25 Ml 2.6         4779481
CDF   000.91 358.5 m E S       2011/10/28 21:49:12.9  -0.5                          T                                        4779480
CABF  001.22 223.7 m E Pn      2011/10/28 21:49:02.5   0.1                          T                                        4779484
CABF  001.22 223.7 m E Sn      2011/10/28 21:49:17.6  -0.4                          T                2.7  .31 Ml 1.9 Md 2.2  4779483
CABF  001.22 223.7 m E Sg      2011/10/28 21:49:19.9   0.2                          T                                        4779471
THEF  001.15 309.9 m E Sn      2011/10/28 21:49:16.0  -0.2                          T                5.9  .23 Ml 2.3         4779482
THEF  001.15 309.9 m E Sg      2011/10/28 21:49:17.2  -0.1                          T                                        4779478
LOR   002.36 265.6 m E Pg      2011/10/28 21:49:24.5  -0.1                          T                                        4779476
LOR   002.36 265.6 m E Sg      2011/10/28 21:49:54.8  -0.2                          T                2.0  .22 Ml 2.2         4779477
PAGF  001.50 315.3 m E Sg      2011/10/28 21:49:28.1  -0.1                          T                 .4  .19 Ml 1.4         4779474
SFTF  001.69 295.6 m E S       2011/10/28 21:49:33.9   1.1                          T                2.3  .19                4779479
SSF   002.63 261.8 m E Sg      2011/10/28 21:50:02.9  -0.5                          T                 .9  .21 Ml 2.1         4779475

.
EVENT     265739
    Date      Time       Latitude Longitude    Depth    Ndef Nsta Gap    Mag1  N    Mag2  N    Mag3  N   Author         ID
       rms   OT_Error      Smajor Sminor Az        Err   mdist  Mdist     Err        Err        Err      Quality

2011/10/28 22:11:59.8     43.1423    -.4131      2.0      24    3 185             Md 1.3  2              js067245    265759

      0.68   +-  0.25       5.1    2.3  174.27 +-  0.0    0.22   1.42              +-0.1                 m i ke

PYRENEES
Sta     Dist  EvAz     Phase      Date       Time     TRes  Azim  AzRes  Slow  SRes Def   SNR       Amp   Per   Mag1   Mag2       ID
ETSF  000.27 203.8 m E Pg      2011/10/28 22:12:03.8  -1.4                          T                                        4779491
ETSF  000.27 203.8 m E Sg      2011/10/28 22:12:07.0  -1.7                          T                3.5  .18        Md 1.2  4779490
EPF   000.56 101.2 m E Pg      2011/10/28 22:12:10.5   0.0                          T                                        4779492
EPF   000.56 101.2 m E Sg      2011/10/28 22:12:17.7  -0.3                          T                1.3  .22        Md 1.4  4779489
SJPF  000.60 267.5 m E Sn      2011/10/28 22:12:23.3  -0.1                          T                 .5  .21                4780444

.
EVENT     265741
    Date      Time       Latitude Longitude    Depth    Ndef Nsta Gap    Mag1  N    Mag2  N    Mag3  N   Author         ID
       rms   OT_Error      Smajor Sminor Az        Err   mdist  Mdist     Err        Err        Err      Quality

2011/10/29 01:01:46.6     46.1477    1.5284      2.0      22   10 122  Ml 1.8  9  Md 1.9  3              js067245    265761

      0.19   +-  0.05       1.1     .8  155.20 +-  0.0    0.49   1.96   +-0.2      +-0.1                 m i ke

FRANCE
Sta     Dist  EvAz     Phase      Date       Time     TRes  Azim  AzRes  Slow  SRes Def   SNR       Amp   Per   Mag1   Mag2       ID
TCF   000.49 073.2 m E Pg      2011/10/29 01:01:56.3   0.2                          T                                        4777431
TCF   000.49 073.2 m E Sg      2011/10/29 01:02:02.7   0.1                          T                3.4  .24        Md 1.9  4777430
RJF   000.84 180.6 m E Pg      2011/10/29 01:02:02.6   0.1                          T                                        4777423
RJF   000.84 180.6 m E Sg      2011/10/29 01:02:13.0  -0.4                          T                5.1  .22                4777419
BGF   001.00 065.3 m E Pg      2011/10/29 01:02:05.6   0.3                          T                                        4777427
BGF   001.00 065.3 m E Sg      2011/10/29 01:02:18.5   0.1                          T                5.0  .32 Ml 2.0 Md 1.9  4777426
MFF   001.25 292.0 m E Pg      2011/10/29 01:02:10.1   0.2                          T                                        4777422
MFF   001.25 292.0 m E Sg      2011/10/29 01:02:25.9   0.0                          T                 .8  .17 Ml 1.8         4777420
CAF   001.28 162.7 m E Pg      2011/10/29 01:02:10.7   0.2                          T                                        4777421
CAF   001.28 162.7 m E Sg      2011/10/29 01:02:27.0  -0.1                          T                1.8  .18 Ml 1.9         4777416
LFF   001.33 204.9 m E Pg      2011/10/29 01:02:11.2  -0.2                          T                                        4777412
LFF   001.33 204.9 m E Sn      2011/10/29 01:02:25.9  -1.8                          T                                        4779519
AVF   001.42 062.3 m E Pg      2011/10/29 01:02:12.8  -0.1                          T                                        4777424
AVF   001.42 062.3 m E Sg      2011/10/29 01:02:31.3   0.0                          T                 .8  .24 Ml 1.5         4777425
SMF   001.68 071.9 m E Pn      2011/10/29 01:02:15.2  -0.1                          T                                        4779518
SMF   001.68 071.9 m E Sg      2011/10/29 01:02:39.6   0.1                          T                  1  .24 Ml 1.7         4777418
SSF   001.64 055.4 m E Pg      2011/10/29 01:02:17.2   0.0                          T                                        4779516
SSF   001.64 055.4 m E Sg      2011/10/29 01:02:38.1  -0.3                          T                 .9  .24 Ml 1.8         4777413
LOR   001.96 054.2 m E Pg      2011/10/29 01:02:22.6  -0.4                          T                                        4779517
LOR   001.96 054.2 m E Sg      2011/10/29 01:02:47.2  -1.1                          T                 .4  .19 Ml 1.6         4777417

.
