EVENT     263635
    Date      Time       Latitude Longitude    Depth    Ndef Nsta Gap    Mag1  N    Mag2  N    Mag3  N   Author         ID
       rms   OT_Error      Smajor Sminor Az        Err   mdist  Mdist     Err        Err        Err      Quality

2011/09/07 18:38:02.3     43.1968    -.8395      2.0      12    3 187  Ml 1.6  1  Md 1.5  2              js067245    263635

      0.64   +-  0.31       7.1    2.7    7.90 +-  0.0    0.15   1.67   +-         +-0.0                 m i ke

PYRENEES
Sta     Dist  EvAz     Phase      Date       Time     TRes  Azim  AzRes  Slow  SRes Def   SNR       Amp   Per   Mag1   Mag2       ID
SJPF  000.29 253.7 m E Pg      2011/09/07 18:38:08.6   0.4                          T                                        4751895
SJPF  000.29 253.7 m E Sg      2011/09/07 18:38:13.3   1.3                          T                6.5  .20        Md 1.6  4751894
ETSF  000.36 145.3 m E Pg      2011/09/07 18:38:08.8  -0.6                          T                                        4751896
ETSF  000.36 145.3 m E Sg      2011/09/07 18:38:14.1  -0.2                          T               15.8  .26        Md 1.5  4751897
EPF   000.88 100.5 m E Sg      2011/09/07 18:38:30.6   0.2                          T                1.3  .21 Ml 1.6         4759511

.
EVENT     264453
    Date      Time       Latitude Longitude    Depth    Ndef Nsta Gap    Mag1  N    Mag2  N    Mag3  N   Author         ID
       rms   OT_Error      Smajor Sminor Az        Err   mdist  Mdist     Err        Err        Err      Quality

2011/09/07 18:38:05.2     42.8837     .3903      2.0       6    4 201  Ml 1.5  2  Md 1.4  1              js067245    264473

      0.49   +-  0.39       9.9    4.2    2.72 +-  0.0    0.15   1.41   +-0.1      +-                    m i ke

PYRENEES
Sta     Dist  EvAz     Phase      Date       Time     TRes  Azim  AzRes  Slow  SRes Def   SNR       Amp   Per   Mag1   Mag2       ID
EPF   000.15 345.9 m E Pg      2011/09/07 18:38:08.3  -0.2                          T                                        4759516
EPF   000.15 345.9 m E Sg      2011/09/07 18:38:10.1  -0.5                          T               23.0  .18        Md 1.4  4759517
ETSF  000.70 271.5 m E Sg      2011/09/07 18:38:26.8  -0.9                          T                2.0  .16                4759515
MTLF  001.41 070.5 m E Pg      2011/09/07 18:38:31.7   0.1                          T                                        4759512
MTLF  001.41 070.5 m E Sg      2011/09/07 18:38:49.5  -0.4                          T                 .9  .21 Ml 1.6         4759513
SJPF  001.21 281.5 m E Sg      2011/09/07 18:38:44.2   0.7                          T                 .6  .19 Ml 1.4         4759514

.
EVENT     263636
    Date      Time       Latitude Longitude    Depth    Ndef Nsta Gap    Mag1  N    Mag2  N    Mag3  N   Author         ID
       rms   OT_Error      Smajor Sminor Az        Err   mdist  Mdist     Err        Err        Err      Quality

2011/09/07 19:54:53.6     41.7518    2.9222     10.0      31    4 230  Ml 1.8  4                         js067245    263636

      0.32   +-  0.15       2.3    1.2  144.03 +-  0.0    0.13   3.27   +-0.1                            m i ke

SPAIN
Sta     Dist  EvAz     Phase      Date       Time     TRes  Azim  AzRes  Slow  SRes Def   SNR       Amp   Per   Mag1   Mag2       ID
MTLF  001.67 342.1 m E P       2011/09/07 19:55:23.1  -0.2                          T                                        4759572
MTLF  001.67 342.1 m E Pg      2011/09/07 19:55:24.9   0.2                          T                                        4759571
MTLF  001.67 342.1 m E Sg      2011/09/07 19:55:45.9  -0.5                          T                 .7  .22 Ml 1.6         4759573
EPF   002.30 304.6 m E Pg      2011/09/07 19:55:36.2  -0.2                          T                                        4759565
EPF   002.30 304.6 m E Sn      2011/09/07 19:55:56.2  -0.4                          T                                        4759570
EPF   002.30 304.6 m E Sg      2011/09/07 19:56:05.3  -0.7                          T                 .9  .21 Ml 1.9         4759569
LASF  002.42 016.2 m E Pg      2011/09/07 19:55:38.5  -0.1                          T                                        4759566
LASF  002.42 016.2 m E Sg      2011/09/07 19:56:09.7  -0.1                          T                1.3  .46 Ml 1.8         4759567
ETSF  002.82 295.1 m E Sg      2011/09/07 19:56:22.6   0.3                          T                 .7  .24 Ml 1.9         4759568

.
EVENT     264460
    Date      Time       Latitude Longitude    Depth    Ndef Nsta Gap    Mag1  N    Mag2  N    Mag3  N   Author         ID
       rms   OT_Error      Smajor Sminor Az        Err   mdist  Mdist     Err        Err        Err      Quality

2011/09/07 21:10:20.2     42.4239   13.3654     10.0 f    28    8 053  Ml 2.8  4                         js067245    264480

      0.57   +-  0.12       3.0    2.4   52.32 +-  0.0    0.08   7.46   +-0.3                            m i ke

CENTRAL ITALY
Sta     Dist  EvAz     Phase      Date       Time     TRes  Azim  AzRes  Slow  SRes Def   SNR       Amp   Per   Mag1   Mag2       ID
PGF   003.23 273.7 m E Pn      2011/09/07 21:11:11.3   2.0                          T                                        4759603
PGF   003.23 273.7 m E Sn      2011/09/07 21:11:45.6   0.0                          T                1.6  .32 Ml 2.4         4759594
SBF   004.57 290.3 m E Pn      2011/09/07 21:11:26.8  -0.7                          T                                        4759602
SBF   004.57 290.3 m E Sn      2011/09/07 21:12:17.7   0.2                          T                5.3  .52 Ml 2.8         4759593
FRF   005.06 285.2 m E Pn      2011/09/07 21:11:33.7  -0.3                          T                                        4759599
LMR   005.12 282.5 m E Pn      2011/09/07 21:11:35.9   1.0                          T                                        4759601
ORIF  005.97 297.2 m E P       2011/09/07 21:11:51.9   0.7                          T                                        4759600
HINF  007.09 321.7 m E Pn      2011/09/07 21:12:01.9   0.2                          T                                        4759597
HINF  007.09 321.7 m E Sn      2011/09/07 21:13:17.6   0.0                          T                1.8  .34 Ml 3.0         4759595
CDF   007.36 326.5 m E Pn      2011/09/07 21:12:06.8   1.3                          T                                        4759596
HAU   007.46 320.8 m E Pn      2011/09/07 21:12:07.4   0.6                          T                                        4759598
HAU   007.46 320.8 m E Sn      2011/09/07 21:13:26.5   0.0                          T                2.7  .37 Ml 3.0         4759592

.
EVENT     263638
    Date      Time       Latitude Longitude    Depth    Ndef Nsta Gap    Mag1  N    Mag2  N    Mag3  N   Author         ID
       rms   OT_Error      Smajor Sminor Az        Err   mdist  Mdist     Err        Err        Err      Quality

2011/09/08 02:34:18.8     43.1217   -1.2567     25.0      12    3 155  Ml 1.2  1  Md 1.0  2              js067245    263638

      0.28   +-  0.09       2.7    1.8    4.29 +-  0.0    0.02   1.17   +-         +-0.2                 m i ke

PYRENEES
Sta     Dist  EvAz     Phase      Date       Time     TRes  Azim  AzRes  Slow  SRes Def   SNR       Amp   Per   Mag1   Mag2       ID
SJPF  000.02 110.0 m E Pg      2011/09/08 02:34:23.1  -0.1                          T                                        4751903
SJPF  000.02 110.0 m E Sg      2011/09/08 02:34:25.4  -0.9                          T                2.0  .17        Md 1.1  4751902
ETSF  000.56 113.3 m E Pg      2011/09/08 02:34:30.0  -0.3                          T                                        4752068
ETSF  000.56 113.3 m E Sg      2011/09/08 02:34:38.0  -0.1                          T                                Md  .8  4752069
EPF   001.17 093.9 m E Pg      2011/09/08 02:34:41.3   0.2                          T                                        4759942
EPF   001.17 093.9 m E Sg      2011/09/08 02:34:56.3  -0.4                          T                 .5  .22 Ml 1.2         4759943

.
EVENT     263640
    Date      Time       Latitude Longitude    Depth    Ndef Nsta Gap    Mag1  N    Mag2  N    Mag3  N   Author         ID
       rms   OT_Error      Smajor Sminor Az        Err   mdist  Mdist     Err        Err        Err      Quality

2011/09/08 05:16:53.3     43.2799   -1.1138     18.8      12    3 204  Ml 1.3  1  Md 1.6  2              js067245    263640

      0.27   +-  0.18       2.4    1.4    1.24 +-  1.3    0.11   1.09   +-         +-0.1                 m i ke

PYRENEES
Sta     Dist  EvAz     Phase      Date       Time     TRes  Azim  AzRes  Slow  SRes Def   SNR       Amp   Per   Mag1   Mag2       ID
SJPF  000.19 206.1 m E Pg      2011/09/08 05:16:58.3   0.1                          T                                        4751910
SJPF  000.19 206.1 m E Sg      2011/09/08 05:17:01.6   0.1                          T                6.7  .26        Md 1.5  4751909
ETSF  000.56 133.0 m E Pg      2011/09/08 05:17:05.4   1.0                          T                                        4751907
ETSF  000.56 133.0 m E Sg      2011/09/08 05:17:11.6  -0.4                          T                1.9  .29        Md 1.7  4751908
EPF   001.09 102.7 m E Pg      2011/09/08 05:17:13.9  -0.1                          T                                        4759944
EPF   001.09 102.7 m E Sg      2011/09/08 05:17:28.7   0.4                          T                 .7  .24 Ml 1.3         4759945

.
EVENT     263642
    Date      Time       Latitude Longitude    Depth    Ndef Nsta Gap    Mag1  N    Mag2  N    Mag3  N   Author         ID
       rms   OT_Error      Smajor Sminor Az        Err   mdist  Mdist     Err        Err        Err      Quality

2011/09/08 05:34:58.9     43.1497   -1.1272     15.0      13    3 108  Ml 1.7  1  Md 2.0  2              js067245    263642

      0.21   +-  0.05       1.3    1.0   16.10 +-  0.0    0.08   1.51   +-         +-0.1                 m i ke

PYRENEES
Sta     Dist  EvAz     Phase      Date       Time     TRes  Azim  AzRes  Slow  SRes Def   SNR       Amp   Per   Mag1   Mag2       ID
SJPF  000.08 243.1 m E Pg      2011/09/08 05:35:02.2   0.0                          T                                        4752086
SJPF  000.08 243.1 m E Sg      2011/09/08 05:35:04.3   0.0                          T               33.5  .18        Md 2.0  4752085
ETSF  000.49 120.9 m E Pg      2011/09/08 05:35:08.2  -0.4                          T                                        4752083
ETSF  000.49 120.9 m E Sg      2011/09/08 05:35:15.2   0.0                          T                5.3  .21        Md 2.1  4752084
EPF   001.08 095.8 m E Sg      2011/09/08 05:35:35.1   1.6                          T                1.8  .24 Ml 1.7         4752082

.
EVENT     263689
    Date      Time       Latitude Longitude    Depth    Ndef Nsta Gap    Mag1  N    Mag2  N    Mag3  N   Author         ID
       rms   OT_Error      Smajor Sminor Az        Err   mdist  Mdist     Err        Err        Err      Quality

2011/09/08 06:51:06.9                             .0            1 001                                    js067245    263689

      0.00   +-  0.00        .0     .0     .00 +-  0.0    1.00   1.00                                    m i km

Not determinated region
Sta     Dist  EvAz     Phase      Date       Time     TRes  Azim  AzRes  Slow  SRes Def   SNR       Amp   Per   Mag1   Mag2       ID
PAGF  999.00 180.0 m E Pg      2011/09/08                    1.1                                                             4752025
PAGF  999.00 180.0 m E Sg      2011/09/08                                                          117.5  .82                4752024

.
EVENT     263741
    Date      Time       Latitude Longitude    Depth    Ndef Nsta Gap    Mag1  N    Mag2  N    Mag3  N   Author         ID
       rms   OT_Error      Smajor Sminor Az        Err   mdist  Mdist     Err        Err        Err      Quality

2011/09/08 09:58:51.7     47.3413    6.3497       .0 f    19    8 148  Ml 2.1  5  Md 2.0  2              js067245    263741

      0.66   +-  0.13       2.9    1.9  120.11 +-  0.0    0.59   1.70   +-0.3      +-0.1                 m i km

FRANCE
Sta     Dist  EvAz     Phase      Date       Time     TRes  Azim  AzRes  Slow  SRes Def   SNR       Amp   Per   Mag1   Mag2       ID
HINF  000.59 035.4 m E Pg      2011/09/08 09:59:03.0  -0.1                          T                                        4759984
HINF  000.59 035.4 m E Sg      2011/09/08 09:59:10.4  -0.6                          T                1.7  .17        Md 2.0  4752041
HAU   000.66 359.9 m E Pg      2011/09/08 09:59:04.3  -0.3                          T                                        4752052
HAU   000.66 359.9 m E Pn      2011/09/08 09:59:06.1  -0.9                          T                                        4752038
HAU   000.66 359.9 m E Sg      2011/09/08 09:59:14.1   0.6                          T                                        4752042
HAU   000.66 359.9 m E Sn      2011/09/08 09:59:16.7  -1.0                          T               13.5  .20                4752037
CABF  000.75 193.9 m E Pg      2011/09/08 09:59:07.0   0.7                          T                                        4759983
CABF  000.75 193.9 m E Pn      2011/09/08 09:59:07.7  -0.5                          T                                        4752053
CABF  000.75 193.9 m E Sn      2011/09/08 09:59:19.9   0.0                          T                1.8  .14        Md 2.1  4752049
THEF  000.92 345.0 m E Pg      2011/09/08 09:59:09.8   0.5                          T                                        4752047
THEF  000.92 345.0 m E Sg      2011/09/08 09:59:21.9   0.5                          T                7.3  .19 Ml 2.4         4752048
CDF   001.24 029.9 m E Pg      2011/09/08 09:59:14.8  -0.5                          T                                        4752051
CDF   001.24 029.9 m E Sg      2011/09/08 09:59:31.3  -0.2                          T                2.0  .16 Ml 2.1         4752050
SFTF  001.24 314.8 m E Pg      2011/09/08 09:59:15.0  -0.1                          T                                        4752039
SFTF  001.24 314.8 m E Sg      2011/09/08 09:59:31.2  -0.1 137.1  3.3               T                3.6  .17 Ml 2.3         4752040
PAGF  001.29 341.2 m E Pg      2011/09/08 09:59:16.1   0.1 159.0  -1.7              T                                        4752046
PAGF  001.29 341.2 m E Sg      2011/09/08 09:59:33.2   0.4                          T                1.1  .26 Ml 1.6         4752043
LOR   001.70 268.4 m E Pg      2011/09/08 09:59:23.6   0.0  82.6  -4.1              T                                        4752045
LOR   001.70 268.4 m E Sg      2011/09/08 09:59:44.9  -0.8  90.3  3.7               T                3.1  .20 Ml 2.3         4752044

.
EVENT     263693
    Date      Time       Latitude Longitude    Depth    Ndef Nsta Gap    Mag1  N    Mag2  N    Mag3  N   Author         ID
       rms   OT_Error      Smajor Sminor Az        Err   mdist  Mdist     Err        Err        Err      Quality

2011/09/08 13:01:09.9     44.6651   10.3827     17.6      24    3 061  Ml 3.2  2                         js067245    263693

      1.08   +-  0.25       6.1    5.3  132.93 +-  2.4    0.11   3.55   +-0.0                            m i ke

NORTHERN ITALY
Sta     Dist  EvAz     Phase      Date       Time     TRes  Azim  AzRes  Slow  SRes Def   SNR       Amp   Per   Mag1   Mag2       ID
SBF   002.26 250.3 m E Pn      2011/09/08 13:01:45.5   0.7                          T                                        4752091
FRF   002.91 249.0 m E Pn      2011/09/08 13:01:54.5   0.9                          T                                        4752087
FRF   002.91 249.0 m E Sn      2011/09/08 13:02:27.6   1.7                          T               22.6  .42 Ml 3.2         4752088
LMR   003.10 245.9 m E Pn      2011/09/08 13:01:56.8   0.7                          T                                        4752090
LMR   003.10 245.9 m E Sn      2011/09/08 13:02:31.4   0.9                          T               14.9  .27 Ml 3.2         4752089

.
