BEGIN GSE2.0
MSG_TYPE DATA
MSG_ID 30-SEP-1113:23:46  FRA_NDC
E-MAIL
DATA_TYPE BULLETIN
Reviewed Bulletin (REB) # P2011-036  from French NDC for regional phases     PERIOD 07 SEP 2011 TO 13 SEP 2011 S M., J-P S.
EVENT     263589
    Date      Time       Latitude Longitude    Depth    Ndef Nsta Gap    Mag1  N    Mag2  N    Mag3  N   Author         ID
       rms   OT_Error      Smajor Sminor Az        Err   mdist  Mdist     Err        Err        Err      Quality

2011/09/07 00:21:57.9     46.8712    -.4990      3.0 f    31   17 112  Ml 2.3 14  Md 2.4  1              js067245    263589

      0.30   +-  0.05       1.4     .7   51.21 +-  0.0    0.36   3.89   +-0.1      +-                    m i ke

FRANCE
Sta     Dist  EvAz     Phase      Date       Time     TRes  Azim  AzRes  Slow  SRes Def   SNR       Amp   Per   Mag1   Mag2       ID
MFF   000.36 137.8 m E Pg      2011/09/07 00:22:05.0   0.1                          T   001.0                                4745264
MFF   000.36 137.8 m E Sg      2011/09/07 00:22:09.5  -0.2                          T   001.0        4.3  .14        Md 2.4  4745265
GRR   001.54 351.0 m E Pg      2011/09/07 00:22:26.4  -0.1                          T   001.0                                4745255
GRR   001.54 351.0 m E Sn      2011/09/07 00:22:44.2   0.5                          T   001.0                                4745256
GRR   001.54 351.0 m E Sg      2011/09/07 00:22:46.4   0.0                          T   001.0        5.2  .24 Ml 2.2         4745257
LDF   001.74 008.3 m E Pg      2011/09/07 00:22:29.9  -0.4                          T   001.0                                4745258
LDF   001.74 008.3 m E Sg      2011/09/07 00:22:52.9   0.2                          T   001.0        2.7  .20 Ml 2.2         4745260
LFF   002.12 155.4 m E Pn      2011/09/07 00:22:32.3   0.0                          T   001.0                                4745261
LFF   002.12 155.4 m E Sg      2011/09/07 00:23:04.1  -0.4                          T   001.0        8.5  .40 Ml 2.4         4745262
SGMF  001.96 315.5 m E Pg      2011/09/07 00:22:34.4   0.0                          T   001.0                                4745242
SGMF  001.96 315.5 m E Sn      2011/09/07 00:22:54.0   0.0                          T   001.0                                4745243
SGMF  001.96 315.5 m E Sg      2011/09/07 00:23:00.0   0.3                          T   001.0         15  .84 Ml 2.4         4745244
TCF   001.96 106.4 m E Pg      2011/09/07 00:22:35.3   0.9                          T   001.0                                4745267
TCF   001.96 106.4 m E Sg      2011/09/07 00:22:59.5   0.0                          T   001.0        6.2  .36 Ml 2.5         4745268
ROSF  002.38 309.0 m E Pn      2011/09/07 00:22:36.0   0.0                          T   001.0                                4745241
QUIF  002.09 301.0 m E Pg      2011/09/07 00:22:36.7   0.0                          T   001.0                                4745269
QUIF  002.09 301.0 m E Sn      2011/09/07 00:22:57.3   0.3                          T   001.0                                4745270
RJF   002.10 137.4 m E Pg      2011/09/07 00:22:36.9  -0.1                          T   001.0                                4745246
RJF   002.10 137.4 m E Sg      2011/09/07 00:23:03.6  -0.4                          T   001.0        5.8  .40 Ml 2.1         4745247
AVF   002.65 090.3 m E Pn      2011/09/07 00:22:39.7   0.1                          T   001.0                                4745248
AVF   002.65 090.3 m E Sg      2011/09/07 00:23:20.2  -0.8                          T   001.0        5.4  .80 Ml 2.2         4745249
CAF   002.64 136.5 m E Pg      2011/09/07 00:22:47.5   0.5                          T   001.0                                4745251
CAF   002.64 136.5 m E Sg      2011/09/07 00:23:20.8  -0.1                          T   001.0        2.6  .28 Ml 2.3         4745252
FLN   001.89 000.3 m E Sg      2011/09/07 00:22:57.5   0.0                          T   001.0        4.9  .24 Ml 2.3         4745254
BGF   002.32 096.5 m E Sg      2011/09/07 00:23:10.8  -0.1                          T   001.0        4.5  .28 Ml 2.5         4745250
SSF   002.75 084.6 m E Sg      2011/09/07 00:23:22.9  -1.3                          T   001.0        1.7  .28 Ml 2.2         4745266
LOR   003.00 080.8 m E Sg      2011/09/07 00:23:30.9  -1.3                          T   001.0        5.9  .68 Ml 2.4         4745263
SJPF  003.79 188.1 m E Sn      2011/09/07 00:23:37.2  -0.5                          T   001.0        4.7  .88 Ml 2.3         4745245
EPF   003.89 170.9 m E Sn      2011/09/07 00:23:38.7  -1.3                          T   001.0        3.5  .76 Ml 2.3         4745253

.
EVENT     263590
    Date      Time       Latitude Longitude    Depth    Ndef Nsta Gap    Mag1  N    Mag2  N    Mag3  N   Author         ID
       rms   OT_Error      Smajor Sminor Az        Err   mdist  Mdist     Err        Err        Err      Quality

2011/09/07 03:20:40.6     44.1416   10.9226      2.0      29   12 211  Ml 2.6  6                         js067245    263590

      0.32   +-  0.18       4.1    2.2  107.63 +-  0.0    0.21   5.01   +-0.2                            m i ke

NORTHERN ITALY
Sta     Dist  EvAz     Phase      Date       Time     TRes  Azim  AzRes  Slow  SRes Def   SNR       Amp   Per   Mag1   Mag2       ID
PGF   002.12 222.0 m E Pn      2011/09/07 03:21:15.5   0.1                          T                                        4757904
PGF   002.12 222.0 m E P       2011/09/07 03:21:17.6  -0.1                          T                                        4757905
PGF   002.12 222.0 m E Sn      2011/09/07 03:21:41.2   0.4                          T                4.2  .22 Ml 2.7         4751730
SBF   002.53 264.9 m E Pn      2011/09/07 03:21:21.1   0.1                          T                                        4751733
SBF   002.53 264.9 m E Sn      2011/09/07 03:21:50.5  -0.1                          T               15.9  .53 Ml 2.8         4751727
FRF   003.15 260.8 m E Pn      2011/09/07 03:21:29.2   0.0                          T                                        4751735
FRF   003.15 260.8 m E P       2011/09/07 03:21:32.4   0.2                          T                                        4757902
FRF   003.15 260.8 m E Sn      2011/09/07 03:22:04.8  -0.4                          T                 .6  .08 Ml 2.3         4751729
MBDF  003.03 282.6 m E P       2011/09/07 03:21:30.6  -0.2                          T                                        4757901
LMR   003.30 257.4 m E Pn      2011/09/07 03:21:31.1  -0.1                          T                                        4751734
LMR   003.30 257.4 m E P       2011/09/07 03:21:34.4   0.0                          T                                        4757903
LMR   003.30 257.4 m E Sn      2011/09/07 03:22:08.3  -0.4                          T                2.3  .28 Ml 2.4         4751728
LPL   003.28 296.2 m E P       2011/09/07 03:21:34.4  -0.1                          T                                        4751724
SMRF  003.86 269.4 m E Pn      2011/09/07 03:21:39.2   0.3                          T                                        4751732
ORIF  003.69 283.9 m E P       2011/09/07 03:21:40.1   0.1                          T                                        4751731
VIVF  004.53 281.2 m E Pn      2011/09/07 03:21:48.0   0.0                          T                                        4757900
HINF  004.64 323.8 m E Pn      2011/09/07 03:21:50.0   0.3                          T                                        4751725
HINF  004.64 323.8 m E Sn      2011/09/07 03:22:40.6  -0.4                          T                1.2  .22 Ml 2.5         4757907
CDF   004.96 330.7 m E Pn      2011/09/07 03:21:54.1   0.0                          T                                        4757908
CDF   004.96 330.7 m E P       2011/09/07 03:21:58.3   0.1                          T                                        4751723
HAU   005.01 322.1 m E Pn      2011/09/07 03:21:54.8   0.2                          T                                        4751726
HAU   005.01 322.1 m E Sn      2011/09/07 03:22:49.2  -0.4                          T                5.1  .31 Ml 2.9         4757906

.
EVENT     263595
    Date      Time       Latitude Longitude    Depth    Ndef Nsta Gap    Mag1  N    Mag2  N    Mag3  N   Author         ID
       rms   OT_Error      Smajor Sminor Az        Err   mdist  Mdist     Err        Err        Err      Quality

2011/09/07 03:57:09.6     44.1134    6.9826      2.0      16    9 133  Ml 1.8  5  Md 1.8  3              js067245    263595

      0.48   +-  0.16       3.7    2.3   83.55 +-  0.0    0.41   1.81   +-0.1      +-0.5                 m i ke

FRANCE
Sta     Dist  EvAz     Phase      Date       Time     TRes  Azim  AzRes  Slow  SRes Def   SNR       Amp   Per   Mag1   Mag2       ID
SBF   000.41 127.3 m E Pg      2011/09/07 03:57:18.1   0.5                          T                                        4752060
SBF   000.41 127.3 m E Sg      2011/09/07 03:57:23.7   0.6                          T                7.1  .28        Md 1.6  4752061
FRF   000.60 203.9 m E Pg      2011/09/07 03:57:20.4  -0.7                          T                                        4752067
FRF   000.60 203.9 m E Sg      2011/09/07 03:57:28.5  -0.4                          T                3.8  .24        Md 2.4  4752066
MBDF  000.63 346.2 m E Pg      2011/09/07 03:57:21.8   0.1                          T                                        4752056
MBDF  000.63 346.2 m E Sg      2011/09/07 03:57:30.3   0.2                          T                2.2  .21        Md 1.5  4752057
LMR   000.85 203.9 m E Pg      2011/09/07 03:57:25.4  -0.2                          T                                        4752063
LMR   000.85 203.9 m E Sg      2011/09/07 03:57:36.4  -0.3                          T                3.7  .28                4752062
SMRF  001.02 262.8 m E Pg      2011/09/07 03:57:29.6   0.7                          T                                        4752064
SMRF  001.02 262.8 m E Sg      2011/09/07 03:57:42.9   0.8                          T                3.1  .23 Ml 2.0         4752065
ORIF  001.13 316.0 m E Pg      2011/09/07 03:57:30.6  -0.2                          T                                        4752059
ORIF  001.13 316.0 m E Sg      2011/09/07 03:57:47.2   1.8                          T                5.1  .53 Ml 1.9         4752058
LPL   001.41 352.9 m E Pg      2011/09/07 03:57:35.7  -0.6                          T                                        4752054
LPL   001.41 352.9 m E Sg      2011/09/07 03:57:54.4  -0.1                          T                1.4  .29 Ml 1.7         4757910
LPG   001.39 353.3 m E Sg      2011/09/07 03:57:53.9  -0.1                          T                1.3  .27 Ml 1.7         4757909
VIVF  001.81 295.0 m E Sn      2011/09/07 03:58:03.0   0.7                          T                 .9  .25 Ml 1.7         4752055

.
EVENT     263611
    Date      Time       Latitude Longitude    Depth    Ndef Nsta Gap    Mag1  N    Mag2  N    Mag3  N   Author         ID
       rms   OT_Error      Smajor Sminor Az        Err   mdist  Mdist     Err        Err        Err      Quality

2011/09/07 10:30:33.6     47.6471    6.2482       .0 f    14    8 118  Ml 2.0  5  Md 2.1  1              js067245    263611

      0.48   +-  0.08       1.6    1.2  100.84 +-  0.0    0.37   1.67   +-0.3      +-                    m i km

FRANCE
Sta     Dist  EvAz     Phase      Date       Time     TRes  Azim  AzRes  Slow  SRes Def   SNR       Amp   Per   Mag1   Mag2       ID
HAU   000.37 010.6 m E Pg      2011/09/07 10:30:40.7  -0.3                          T                                        4751751
HAU   000.37 010.6 m E Sg      2011/09/07 10:30:46.2   0.2                          T               40.2  .74        Md 2.1  4751750
HINF  000.44 067.2 m E Pg      2011/09/07 10:30:42.4   0.1                          T                                        4757911
HINF  000.44 067.2 m E Sg      2011/09/07 10:30:48.1  -0.3                          T               25.7  .84                4751749
THEF  000.61 343.7 m E Pg      2011/09/07 10:30:45.2  -0.2                          T                                        4757912
THEF  000.61 343.7 m E Sg      2011/09/07 10:30:53.8   0.3                          T                                        4751745
THEF  000.61 343.7 m E Sn      2011/09/07 10:31:01.0  -0.3                          T               51.2 1.23                4751746
CDF   001.03 041.6 m E Pg      2011/09/07 10:30:53.4   0.1                          T                                        4757915
CDF   001.03 041.6 m E Sn      2011/09/07 10:31:08.5   0.1                          T               13.6  .76 Ml 2.2         4751743
CABF  001.04 186.1 m E Pg      2011/09/07 10:30:53.7   0.2                          T                                        4751747
CABF  001.04 186.1 m E Sg      2011/09/07 10:31:06.7  -0.5                          T               16.0  .67 Ml 2.2         4751748
PAGF  000.97 339.1 m E Sn      2011/09/07 10:31:06.9   0.0 155.7  -3.0              T                1.9  .41 Ml 1.5         4751744
SFTF  000.99 304.9 m E Sn      2011/09/07 10:31:07.3   0.1                          T               14.8  .57 Ml 2.2         4757913
LOR   001.67 257.7 m E Sg      2011/09/07 10:31:26.5  -0.1  81.0  5.0               T                 .9  .17 Ml 1.8         4757914

.
EVENT     263631
    Date      Time       Latitude Longitude    Depth    Ndef Nsta Gap    Mag1  N    Mag2  N    Mag3  N   Author         ID
       rms   OT_Error      Smajor Sminor Az        Err   mdist  Mdist     Err        Err        Err      Quality

2011/09/07 16:19:57.3     43.0873    -.7166      2.0      31    4 134             Md 1.8  4              js067245    263631

      0.38   +-  0.08       1.7    1.1  178.84 +-  0.0    0.01   2.16              +-0.3                 m i ke

PYRENEES
Sta     Dist  EvAz     Phase      Date       Time     TRes  Azim  AzRes  Slow  SRes Def   SNR       Amp   Per   Mag1   Mag2       ID
ETSF  000.22 148.5 m E Pg      2011/09/07 16:20:01.3  -0.4                          T                                        4751779
ETSF  000.22 148.5 m E Sg      2011/09/07 16:20:04.3  -0.6                          T               22.2  .17        Md 1.9  4751778
SJPF  000.37 274.2 m E Pg      2011/09/07 16:20:04.4  -0.1                          T                                Md 2.1  4751777
SJPF  000.37 274.2 m E Sg      2011/09/07 16:20:09.8   0.3                          T                7.0  .22        Md 1.7  4751776
EPF   000.78 093.9 m E Pg      2011/09/07 16:20:12.5   0.6                          T                                        4751775
EPF   000.78 093.9 m E Sg      2011/09/07 16:20:23.3   1.2                          T                1.6  .17        Md 1.4  4751774
MTLF  002.16 082.3 m E Pg      2011/09/07 16:20:37.3  -0.1                          T                                        4751772
MTLF  002.16 082.3 m E Sg      2011/09/07 16:21:04.4  -0.8                          T                                        4751773

.
EVENT     263633
    Date      Time       Latitude Longitude    Depth    Ndef Nsta Gap    Mag1  N    Mag2  N    Mag3  N   Author         ID
       rms   OT_Error      Smajor Sminor Az        Err   mdist  Mdist     Err        Err        Err      Quality

2011/09/07 17:29:50.7     42.9213     .3771      3.0 f    18    8 196  Ml 2.1  7  Md 2.2  2              js067245    263633

      0.95   +-  0.16       3.7    1.8  167.75 +-  0.0    0.11   2.78   +-0.2      +-0.3                 m i ke

PYRENEES
Sta     Dist  EvAz     Phase      Date       Time     TRes  Azim  AzRes  Slow  SRes Def   SNR       Amp   Per   Mag1   Mag2       ID
EPF   000.11 346.0 m E Pg      2011/09/07 17:29:53.5   0.2                          T                                        4751833
EPF   000.11 346.0 m E Sg      2011/09/07 17:29:55.3   0.3                          T               75.7  .20        Md 2.4  4751832
ETSF  000.69 268.4 m E Pg      2011/09/07 17:30:03.3  -0.5                          T                                        4751830
ETSF  000.69 268.4 m E Sg      2011/09/07 17:30:12.2  -0.7                          T                8.1  .22        Md 2.0  4751831
SJPF  001.19 279.8 m E Pg      2011/09/07 17:30:13.0   0.0                          T                                        4751826
SJPF  001.19 279.8 m E Sg      2011/09/07 17:30:29.4   0.9                          T                2.7  .25 Ml 1.9         4751828
MTLF  001.41 072.1 m E Pg      2011/09/07 17:30:17.2   0.1                          T                                        4751827
MTLF  001.41 072.1 m E Sg      2011/09/07 17:30:34.8  -0.5                          T                1.8  .17 Ml 2.0         4751829
LFF   002.03 007.3 m E P       2011/09/07 17:30:26.4   0.1                          T                                        4759500
LFF   002.03 007.3 m E Sg      2011/09/07 17:30:54.4  -0.3                          T                3.9  .27 Ml 2.2         4751822
RJF   002.52 018.6 m E Pn      2011/09/07 17:30:30.6  -0.1                          T                                        4759499
RJF   002.52 018.6 m E Pg      2011/09/07 17:30:37.7   0.2                          T                                        4759498
RJF   002.52 018.6 m E Sg      2011/09/07 17:31:09.6  -0.4                          T                1.7  .20 Ml 1.9         4751823
CAF   002.35 030.7 m E P       2011/09/07 17:30:30.9   0.0                          T                                        4759497
CAF   002.35 030.7 m E Sg      2011/09/07 17:31:04.2  -0.3                          T                2.9  .33 Ml 2.2         4751824
LASF  002.78 064.3 m E Sg      2011/09/07 17:31:18.0  -0.1                          T                2.2  .27 Ml 2.3         4751825

.
EVENT     263634
    Date      Time       Latitude Longitude    Depth    Ndef Nsta Gap    Mag1  N    Mag2  N    Mag3  N   Author         ID
       rms   OT_Error      Smajor Sminor Az        Err   mdist  Mdist     Err        Err        Err      Quality

2011/09/07 17:31:18.5     42.8796     .3822      2.0       7    4 201  Ml 1.3  2  Md 1.4  1              js067245    263634

      0.45   +-  0.29       7.9    3.5  172.55 +-  0.0    0.15   1.42   +-0.1      +-                    m i ke

PYRENEES
Sta     Dist  EvAz     Phase      Date       Time     TRes  Azim  AzRes  Slow  SRes Def   SNR       Amp   Per   Mag1   Mag2       ID
EPF   000.15 348.4 m E Pg      2011/09/07 17:31:21.7   0.0                          T                                        4751862
EPF   000.15 348.4 m E Sg      2011/09/07 17:31:23.6  -0.4                          T                8.5  .20        Md 1.4  4751865
ETSF  000.69 271.9 m E Pg      2011/09/07 17:31:31.4  -0.3                          T                                        4751863
ETSF  000.69 271.9 m E Sg      2011/09/07 17:31:40.2  -0.4                          T                 .6  .20                4751864
MTLF  001.42 070.4 m E Pg      2011/09/07 17:31:45.2   0.2                          T                                        4751861
MTLF  001.42 070.4 m E Sg      2011/09/07 17:32:02.9  -0.5                          T                 .6  .26 Ml 1.4         4751860
SJPF  001.20 281.8 m E Sg      2011/09/07 17:31:57.6   1.1                          T                 .5  .26 Ml 1.2         4759510

.
