BEGIN GSE2.0
MSG_TYPE DATA
MSG_ID 11-OCT-1114:18:31  FRA_NDC
E-MAIL
DATA_TYPE BULLETIN
Reviewed Bulletin (REB) # P2011-038  from French NDC for regional phases     PERIOD 21 SEP 2011 TO 27 SEP 2011 S M., J-P S.
EVENT     264190
    Date      Time       Latitude Longitude    Depth    Ndef Nsta Gap    Mag1  N    Mag2  N    Mag3  N   Author         ID
       rms   OT_Error      Smajor Sminor Az        Err   mdist  Mdist     Err        Err        Err      Quality

2011/09/21 13:18:14.6     39.2115    5.7711     25.0      46   11 226  Ml 3.0  7  Md 2.9  2              js067245    264210

      0.97   +-  0.33       7.1    3.8  151.12 +-  0.0    2.35   9.22   +-0.3      +-0.0                 m i ke

WESTERN MEDITERRANEAN SEA
Sta     Dist  EvAz     Phase      Date       Time     TRes  Azim  AzRes  Slow  SRes Def   SNR       Amp   Per   Mag1   Mag2       ID
PGF   004.14 035.2 m E Pn      2011/09/21 13:19:13.9  -0.3                          T                                        4759471
PGF   004.14 035.2 m E Sn      2011/09/21 13:19:56.8  -1.9                          T                7.0  .18 Ml 3.5 Md 2.9  4759470
LMR   004.16 007.5 m E Pn      2011/09/21 13:19:14.7   0.3                          T                                        4759469
LMR   004.16 007.5 m E Sn      2011/09/21 13:19:59.2   0.2                          T                4.7  .19 Ml 3.1 Md 2.9  4759467
FRF   004.40 008.3 m E Pn      2011/09/21 13:19:18.6   0.9                          T                                        4759483
FRF   004.40 008.3 m E Sn      2011/09/21 13:20:05.1   0.3                          T                3.3  .18 Ml 3.0         4759486
SBF   004.81 014.5 m E Pn      2011/09/21 13:19:23.2  -0.2                          T                                        4759468
SBF   004.81 014.5 m E Sn      2011/09/21 13:20:14.0  -0.9                          T                5.0  .26 Ml 3.1         4759466
MTLF  004.92 328.2 m E Pn      2011/09/21 13:19:23.9  -0.8                          T                                        4759463
MTLF  004.92 328.2 m E Sn      2011/09/21 13:20:17.2   0.0                          T                1.5  .20 Ml 2.7         4759484
LASF  005.07 344.2 m E Pn      2011/09/21 13:19:26.8   0.0                          T                                        4759464
LASF  005.07 344.2 m E Sn      2011/09/21 13:20:22.0   1.1                          T                2.6  .35 Ml 2.7         4759485
EPF   005.60 314.7 m E Pn      2011/09/21 13:19:35.0   0.9                          T                                        4759480
VIVF  005.70 352.1 m E Pn      2011/09/21 13:19:35.9   0.5                          T                                        4759465
VIVF  005.70 352.1 m E Sn      2011/09/21 13:20:36.8   0.8                          T                1.4  .24 Ml 2.8         4759479
MBDF  005.56 007.4 m E Pn      2011/09/21 13:19:36.0   2.3                          T                                        4759462
ETSF  006.04 309.6 m E Pn      2011/09/21 13:19:40.8   0.7                          T                                        4759482
SJPF  006.56 308.7 m E Pn      2011/09/21 13:19:48.1   1.0                          T                                        4759481

.
EVENT     264188
    Date      Time       Latitude Longitude    Depth    Ndef Nsta Gap    Mag1  N    Mag2  N    Mag3  N   Author         ID
       rms   OT_Error      Smajor Sminor Az        Err   mdist  Mdist     Err        Err        Err      Quality

2011/09/21 14:39:00.9     44.6723    6.7367      2.0      21    8 123  Ml 2.2  4  Md 2.2  1              js067245    264208

      0.70   +-  0.09       2.4    1.4   79.18 +-  0.0    0.06   1.35   +-0.2      +-                    m i ke

FRANCE
Sta     Dist  EvAz     Phase      Date       Time     TRes  Azim  AzRes  Slow  SRes Def   SNR       Amp   Per   Mag1   Mag2       ID
MBDF  000.06 024.4 m E Pg      2011/09/21 14:39:02.6   0.0                          T                                        4759509
MBDF  000.06 024.4 m E Sg      2011/09/21 14:39:03.6  -0.1                          T               47.3  .17        Md 2.2  4759505
ORIF  000.66 292.3 m E Pg      2011/09/21 14:39:13.4   0.0                          T                                        4759508
ORIF  000.66 292.3 m E Sg      2011/09/21 14:39:21.6  -0.5                          T                6.9  .26                4767641
LPG   000.83 000.7 m E Pg      2011/09/21 14:39:16.0  -0.8                          T                                        4767649
LPG   000.83 000.7 m E Sg      2011/09/21 14:39:27.1  -0.4                          T                7.6  .40                4767643
LPL   000.84 359.8 m E Pg      2011/09/21 14:39:17.6   0.6                          T                                        4759507
LPL   000.84 359.8 m E Sg      2011/09/21 14:39:28.0   0.0                          T                6.8  .40                4767642
SBF   000.95 147.9 m E Pg      2011/09/21 14:39:19.0   0.2                          T                                        4767647
SBF   000.95 147.9 m E Sg      2011/09/21 14:39:31.4   0.2                          T                6.4  .25 Ml 2.2         4767646
SMRF  001.09 230.5 m E Pg      2011/09/21 14:39:21.4   0.1                          T                                        4759501
SMRF  001.09 230.5 m E Sn      2011/09/21 14:39:36.3   0.1                          T                4.2  .36 Ml 1.9         4767644
FRF   001.11 183.4 m E Pg      2011/09/21 14:39:21.8   0.1                          T                                        4759506
FRF   001.11 183.4 m E Sg      2011/09/21 14:39:36.4   0.3                          T                6.1  .24 Ml 2.3         4759504
LMR   001.35 187.1 m E Pg      2011/09/21 14:39:25.9  -0.1                          T                                        4767648
LMR   001.35 187.1 m E Sg      2011/09/21 14:39:43.7   0.3                          T                4.2  .24 Ml 2.2         4767645

.
EVENT     264189
    Date      Time       Latitude Longitude    Depth    Ndef Nsta Gap    Mag1  N    Mag2  N    Mag3  N   Author         ID
       rms   OT_Error      Smajor Sminor Az        Err   mdist  Mdist     Err        Err        Err      Quality

2011/09/21 15:06:05.3     46.2208    6.9842       .0 f    25   10 059  Ml 2.3  7  Md 2.3  3              js067245    264209

      0.26   +-  0.05       1.2     .8   97.21 +-  0.0    0.07   2.38   +-0.2      +-0.2                 m i km

SWITZERLAND
Sta     Dist  EvAz     Phase      Date       Time     TRes  Azim  AzRes  Slow  SRes Def   SNR       Amp   Per   Mag1   Mag2       ID
LPL   000.73 194.1 m E Pg      2011/09/21 15:06:19.6   0.0                          T                                        4759527
LPL   000.73 194.1 m E Sg      2011/09/21 15:06:29.1  -0.1                          T                9.2  .50        Md 2.2  4759524
CABF  000.73 302.5 m E Pg      2011/09/21 15:06:20.0   0.4                          T                                        4767657
CABF  000.73 302.5 m E Sg      2011/09/21 15:06:29.7   0.4                          T               21.0  .79        Md 2.5  4767658
LPG   000.74 192.8 m E Pg      2011/09/21 15:06:20.1   0.2                          T                                        4759526
LPG   000.74 192.8 m E Sg      2011/09/21 15:06:29.9   0.1                          T               14.5  .50        Md 2.1  4759525
MBDF  001.50 185.8 m E Pg      2011/09/21 15:06:33.8   0.1                          T                                        4767670
MBDF  001.50 185.8 m E Sg      2011/09/21 15:06:53.3   0.0                          T               16.8  .64 Ml 2.5         4767654
ORIF  001.52 211.2 m E Pg      2011/09/21 15:06:33.9  -0.1                          T                                        4759523
ORIF  001.52 211.2 m E Sg      2011/09/21 15:06:53.5  -0.2                          T               12.1  .42 Ml 2.5         4767671
HINF  001.60 356.8 m E Pg      2011/09/21 15:06:35.6   0.2                          T                                        4767673
HINF  001.60 356.8 m E Sg      2011/09/21 15:06:56.9   0.6                          T                4.0  .43 Ml 2.0         4767674
HAU   001.84 346.6 m E Pg      2011/09/21 15:06:40.0   0.2                          T                                        4767675
HAU   001.84 346.6 m E Sg      2011/09/21 15:07:03.6  -0.1                          T                5.9  .45 Ml 2.1         4767656
SMF   002.21 282.2 m E Pg      2011/09/21 15:06:46.6  -0.2                          T                                        4767672
SMF   002.21 282.2 m E Sg      2011/09/21 15:07:15.2  -0.2                          T                2.4  .25 Ml 2.2         4767655
VIVF  002.12 230.8 m E Sg      2011/09/21 15:07:12.8   0.3                          T                6.4  .44 Ml 2.4         4767653
SBF   002.38 172.1 m E Sg      2011/09/21 15:07:20.4  -0.2                          T                9.4  .50 Ml 2.6         4767669

.
EVENT     264191
    Date      Time       Latitude Longitude    Depth    Ndef Nsta Gap    Mag1  N    Mag2  N    Mag3  N   Author         ID
       rms   OT_Error      Smajor Sminor Az        Err   mdist  Mdist     Err        Err        Err      Quality

2011/09/21 22:57:02.5     40.1260    -.7625      2.0      26    3 154  Ml 1.8  3                         js067245    264211

      0.40   +-  0.08       2.5    1.1  114.98 +-  0.0    0.33   3.02   +-0.1                            m i ke

SPAIN
Sta     Dist  EvAz     Phase      Date       Time     TRes  Azim  AzRes  Slow  SRes Def   SNR       Amp   Per   Mag1   Mag2       ID
EPF   003.02 015.5 m E Pn      2011/09/21 22:57:49.3  -0.1                          T                                        4759530
EPF   003.02 015.5 m E Pg      2011/09/21 22:57:58.3  -0.1                          T                                        4767681
EPF   003.02 015.5 m E Sg      2011/09/21 22:58:36.6  -0.6                          T                 .5  .21 Ml 1.8         4759529
ETSF  002.77 003.1 m E Pg      2011/09/21 22:57:53.7  -0.3                          T                                        4767679
ETSF  002.77 003.1 m E Sg      2011/09/21 22:58:29.7   0.0                          T                 .4  .20 Ml 1.6         4767680
SJPF  003.00 353.5 m E Pg      2011/09/21 22:57:57.9  -0.2                          T                                        4767676
SJPF  003.00 353.5 m E Sn      2011/09/21 22:58:23.3  -0.3                          T                 .8  .26 Ml 1.9         4767677
SJPF  003.00 353.5 m E Sg      2011/09/21 22:58:36.8   0.0                          T                                        4767678

.
EVENT     264192
    Date      Time       Latitude Longitude    Depth    Ndef Nsta Gap    Mag1  N    Mag2  N    Mag3  N   Author         ID
       rms   OT_Error      Smajor Sminor Az        Err   mdist  Mdist     Err        Err        Err      Quality

2011/09/22 00:01:10.0     47.1246    1.5154      2.0      58   21 094  Ml 2.5 21  Md 2.4  4              js067245    264212

      0.88   +-  0.06       1.2    1.0   17.92 +-  0.0    0.78   4.47   +-0.3      +-0.1                 m i ke

FRANCE
Sta     Dist  EvAz     Phase      Date       Time     TRes  Azim  AzRes  Slow  SRes Def   SNR       Amp   Per   Mag1   Mag2       ID
HYF   000.78 079.0 m E Pg      2011/09/22 00:01:24.9   0.2                          T                                        4759546
HYF   000.78 079.0 m E Sg      2011/09/22 00:01:34.4  -0.5                          T                                        4767687
HYF   000.78 079.0 m E Sn      2011/09/22 00:01:37.4  -0.7                          T                                Md 2.3  4759552
TCF   000.96 150.0 m E Pg      2011/09/22 00:01:28.4   0.3                          T   001.0                                4755508
TCF   000.96 150.0 m E Sg      2011/09/22 00:01:40.3  -0.4                          T   001.0       13.3  .18 Ml 2.7 Md 2.5  4755509
BGF   001.08 121.3 m E Pg      2011/09/22 00:01:29.9  -0.2                          T                                        4759549
BGF   001.08 121.3 m E Pn      2011/09/22 00:01:30.5   0.0                          T   001.0                                4755482
BGF   001.08 121.3 m E Sg      2011/09/22 00:01:44.1   0.0                          T   001.0       45.5  .26 Ml 3.1         4755483
MFF   001.25 246.0 m E Pg      2011/09/22 00:01:33.5   0.1                          T                                        4767683
MFF   001.25 246.0 m E Sn      2011/09/22 00:01:49.2  -0.1                          T   001.0        6.8  .16 Ml 2.7         4755503
AVF   001.30 104.2 m E Pn      2011/09/22 00:01:33.7   0.1                          T   001.0                                4755480
AVF   001.30 104.2 m E Pg      2011/09/22 00:01:34.7   0.3                          T                                        4759547
AVF   001.30 104.2 m E Sg      2011/09/22 00:01:51.1   0.0                          T               14.3  .21 Ml 2.8         4759554
SSF   001.36 091.9 m E Pn      2011/09/22 00:01:34.5   0.1                          T   001.0                                4755506
SSF   001.36 091.9 m E Pg      2011/09/22 00:01:35.3  -0.2                          T                                        4767689
SSF   001.36 091.9 m E Sg      2011/09/22 00:01:53.3   0.3                          T                8.8  .20 Ml 2.7 Md 2.3  4759544
LOR   001.60 084.0 m E Pn      2011/09/22 00:01:37.9   0.1 262.4  -3.3              T   001.0                                4755500
LOR   001.60 084.0 m E Pg      2011/09/22 00:01:39.5  -0.4 266.8  1.0               T                                        4759540
LOR   001.60 084.0 m E Sg      2011/09/22 00:02:00.6   0.0 248.8  -16.9             T               17.7  .23 Ml 3.0 Md 2.5  4759545
SMF   001.67 105.9 m E Pn      2011/09/22 00:01:39.7   1.2                          T   001.0                                4755504
SMF   001.67 105.9 m E Pg      2011/09/22 00:01:41.5   0.4                          T                                        4759548
SMF   001.67 105.9 m E Sn      2011/09/22 00:02:00.0   0.8                          T   001.0                                4755505
SMF   001.67 105.9 m E Sg      2011/09/22 00:02:02.3  -0.3                          T                5.2  .14 Ml 2.7         4759553
RJF   001.82 180.0 m E Pn      2011/09/22 00:01:40.5  -0.1                          T   001.0                                4755481
RJF   001.82 180.0 m E Pg      2011/09/22 00:01:43.7  -0.2                          T                                        4759550
RJF   001.82 180.0 m E Sn      2011/09/22 00:02:03.0   0.1                          T   001.0                                4755479
RJF   001.82 180.0 m E Sg      2011/09/22 00:02:07.1  -0.3                          T               11.8  .20 Ml 2.6         4759543
LDF   001.84 323.7 m E Pn      2011/09/22 00:01:40.6  -0.2                          T   001.0                                4755496
LDF   001.84 323.7 m E Pg      2011/09/22 00:01:44.3   0.1                          T                                        4767684
LDF   001.84 323.7 m E Sg      2011/09/22 00:02:07.6  -0.3                          T                5.2  .24 Ml 2.5         4759542
FLN   002.12 321.4 m E Pn      2011/09/22 00:01:44.5  -0.2 132.5  -7.4              T   001.0                                4755490
FLN   002.12 321.4 m E Pg      2011/09/22 00:01:49.2  -0.2 146.3  6.4               T                                        4767685
FLN   002.12 321.4 m E Sn      2011/09/22 00:02:09.9  -0.2                          T   001.0                                4755491
FLN   002.12 321.4 m E Sg      2011/09/22 00:02:16.7   0.0                          T   001.0        4.0  .27 Ml 2.2         4755492
CAF   002.23 169.9 m E Pn      2011/09/22 00:01:46.2   0.0                          T   001.0                                4755484
CAF   002.23 169.9 m E Pg      2011/09/22 00:01:51.0  -0.5                          T   001.0                                4755485
CAF   002.23 169.9 m E Sn      2011/09/22 00:02:12.2  -0.6                          T   001.0                                4755486
CAF   002.23 169.9 m E Sg      2011/09/22 00:02:20.4   0.1                          T   001.0        3.3  .22 Ml 2.4         4755487
LFF   002.25 194.2 m E Pn      2011/09/22 00:01:46.9   0.4                          T   001.0                                4755498
LFF   002.25 194.2 m E Sn      2011/09/22 00:02:13.0  -0.2                          T                                        4767682
LFF   002.25 194.2 m E Sg      2011/09/22 00:02:20.6  -0.2                          T   001.0        6.1  .30 Ml 2.4         4755499
GRR   002.04 309.2 m E Pg      2011/09/22 00:01:48.0   0.0                          T   001.0                                4755493
GRR   002.04 309.2 m E Sg      2011/09/22 00:02:14.5   0.3                          T   001.0        5.7  .34 Ml 2.3         4755494
MEZF  002.75 058.7 m E P       2011/09/22 00:01:56.2   0.1                          T                                        4759541
MEZF  002.75 058.7 m E Pg      2011/09/22 00:02:01.5   0.4 245.3  4.0               T                                        4767688
MEZF  002.75 058.7 m E Sg      2011/09/22 00:02:35.1  -1.4                          T   001.0        3.9  .36 Ml 2.4         4755513
CABF  003.18 097.6 m E Sg      2011/09/22 00:02:50.2   0.3                          T   001.0          1  .22 Ml 2.1         4755510
QUIF  003.27 285.7 m E Sg      2011/09/22 00:02:52.7   0.1                          T   001.0         .9  .24 Ml 2.1         4755516
EPF   004.18 191.9 m E Sn      2011/09/22 00:02:57.7  -1.6                          T   001.0                                4755488
EPF   004.18 191.9 m E Sg      2011/09/22 00:03:22.3   1.3                          T   001.0         .6  .18 Ml 2.2         4755489
HINF  003.69 077.2 m E Sg      2011/09/22 00:03:05.4  -0.2                          T   001.0        2.4  .33 Ml 2.4         4755512
MTLF  003.82 172.3 m E Sg      2011/09/22 00:03:09.8   0.2                          T   001.0        1.3  .31 Ml 2.2         4755514
ETSF  004.47 199.9 m E Sg      2011/09/22 00:03:30.8   0.5                          T   001.0         .4  .31 Ml 1.8         4755511

.
EVENT     264193
    Date      Time       Latitude Longitude    Depth    Ndef Nsta Gap    Mag1  N    Mag2  N    Mag3  N   Author         ID
       rms   OT_Error      Smajor Sminor Az        Err   mdist  Mdist     Err        Err        Err      Quality

2011/09/22 01:19:37.0     44.8913    7.2067      2.0       7    3 270  Ml 1.6  2  Md 1.9  1              js067245    264213

      0.14   +-  0.21       3.9    1.8  113.13 +-  0.0    0.35   0.94   +-0.1      +-                    m i ke

NORTHERN ITALY
Sta     Dist  EvAz     Phase      Date       Time     TRes  Azim  AzRes  Slow  SRes Def   SNR       Amp   Per   Mag1   Mag2       ID
MBDF  000.35 242.2 m E Pg      2011/09/22 01:19:44.1   0.1                          T                                        4759560
MBDF  000.35 242.2 m E Sg      2011/09/22 01:19:48.5  -0.2                          T                4.8  .25        Md 1.9  4759561
LPL   000.71 332.0 m E Pg      2011/09/22 01:19:50.7   0.1                          T                                        4767695
LPL   000.71 332.0 m E Sg      2011/09/22 01:19:59.8  -0.2                          T                1.4  .32                4760300
ORIF  000.94 272.1 m E Pg      2011/09/22 01:19:54.7  -0.2                          T                                        4767694
ORIF  000.94 272.1 m E Sg      2011/09/22 01:20:07.3   0.2                          T                1.2  .23 Ml 1.5         4759559

.
