EVENT     286198
    Date      Time       Latitude Longitude    Depth    Ndef Nsta Gap    Mag1  N    Mag2  N    Mag3  N   Author         ID
       rms   OT_Error      Smajor Sminor Az        Err   mdist  Mdist     Err        Err        Err      Quality

2012/11/03 06:10:00.0     37.1289  -12.9597     20.0 f    64    3 286  Ml 3.6  3                         bulletin    286298
                                                                                                         _ldg
      0.75   +-  0.32       6.2    4.8   64.82 +-  0.0    3.30  12.76   +-0.2                            m i ke

NORTH ATLANTIC OCEAN
Sta     Dist  EvAz     Phase      Date       Time     TRes  Azim  AzRes  Slow  SRes Def   SNR       Amp   Per   Mag1   Mag2       ID
SJPF  010.79 052.7 m E Pn      2012/11/03 06:12:30.9   0.2                          T                                        5108570
SJPF  010.79 052.7 m E Sn      2012/11/03 06:14:25.3   1.4                          T                1.9  .33 Ml 3.6         5108567
ETSF  011.11 054.9 m E Pn      2012/11/03 06:12:35.6   0.4                          T                                        5108569
ETSF  011.11 054.9 m E Sn      2012/11/03 06:14:32.1   0.3                          T                1.4  .35 Ml 3.5         5108566
EPF   011.76 055.8 m E Pn      2012/11/03 06:12:44.7   0.6                          T                                        5108568
EPF   011.76 055.8 m E Sn      2012/11/03 06:14:47.5   0.3                          T                2.9  .40 Ml 3.8         5108565

.
EVENT     286199
    Date      Time       Latitude Longitude    Depth    Ndef Nsta Gap    Mag1  N    Mag2  N    Mag3  N   Author         ID
       rms   OT_Error      Smajor Sminor Az        Err   mdist  Mdist     Err        Err        Err      Quality

2012/11/03 07:04:48.0     43.0284   -1.1823      4.0 f     6    3 234  Ml 1.0  1  Md 1.0  2              bulletin    286299
                                                                                                         _ldg
      0.14   +-  0.26       9.4    1.5   39.93 +-  0.0    0.09   1.12   +-         +-0.1                 m i ke

PYRENEES
Sta     Dist  EvAz     Phase      Date       Time     TRes  Azim  AzRes  Slow  SRes Def   SNR       Amp   Per   Mag1   Mag2       ID
SJPF  000.09 339.8 m E Pg      2012/11/03 07:04:50.2   0.0                          T                                        5108574
SJPF  000.09 339.8 m E Sg      2012/11/03 07:04:51.4  -0.3                          T               10.5  .18        Md 1.1  5108572
ETSF  000.48 105.6 m E Pg      2012/11/03 07:04:57.2   0.0                          T                                        5108573
ETSF  000.48 105.6 m E Sg      2012/11/03 07:05:03.4  -0.1                          T                 .8  .13        Md  .9  5108571
EPF   001.12 089.4 m E Pn      2012/11/03 07:05:08.8  -0.1                          T                                        5108575
EPF   001.12 089.4 m E Sn      2012/11/03 07:05:24.0   0.3                          T                 .2  .19 Ml 1           5108576

.
EVENT     286200
    Date      Time       Latitude Longitude    Depth    Ndef Nsta Gap    Mag1  N    Mag2  N    Mag3  N   Author         ID
       rms   OT_Error      Smajor Sminor Az        Err   mdist  Mdist     Err        Err        Err      Quality

2012/11/03 08:17:39.2     45.5302    6.4761      2.0      10    4 211  Ml 2.1  1  Md 1.7  2              bulletin    286300
                                                                                                         _ldg
      0.51   +-  0.28       7.2    3.1  167.67 +-  0.0    0.18   1.44   +-         +-0.0                 m i ke

FRANCE
Sta     Dist  EvAz     Phase      Date       Time     TRes  Azim  AzRes  Slow  SRes Def   SNR       Amp   Per   Mag1   Mag2       ID
LPL   000.18 094.3 m E Pg      2012/11/03 08:17:43.1  -0.1                          T                                        5120295
LPL   000.18 094.3 m E Sg      2012/11/03 08:17:44.9  -0.8                          T                                        5108580
LPL   000.18 094.3 m E Sn      2012/11/03 08:17:46.8   1.1                          T               10.0  .23        Md 1.7  5108578
LPG   000.20 099.4 m E Pg      2012/11/03 08:17:43.4  -0.1                          T                                        5120294
LPG   000.20 099.4 m E Sg      2012/11/03 08:17:45.6  -0.7                          T                                        5108579
LPG   000.20 099.4 m E Sn      2012/11/03 08:17:47.3   1.0                          T               26.5  .30        Md 1.7  5108577
MBDF  000.83 165.3 m E Pg      2012/11/03 08:17:54.9  -0.1                          T                                        5120302
MBDF  000.83 165.3 m E Sg      2012/11/03 08:18:06.0   0.2                          T                 .5  .24                5120303
VIVF  001.44 242.8 m E Pn      2012/11/03 08:18:04.9   0.2                          T                                        5108581
VIVF  001.44 242.8 m E Sn      2012/11/03 08:18:22.8  -0.3                          T                3.2  .24 Ml 2.1         5108582

.
EVENT     286201
    Date      Time       Latitude Longitude    Depth    Ndef Nsta Gap    Mag1  N    Mag2  N    Mag3  N   Author         ID
       rms   OT_Error      Smajor Sminor Az        Err   mdist  Mdist     Err        Err        Err      Quality

2012/11/03 10:32:19.7     42.8670    -.6483      5.6       7    4 223  Ml 1.5  1  Md 1.3  2              bulletin    286301
                                                                                                         _ldg
      0.19   +-  0.45      20.4    2.2    9.23 +-  1.3    0.07   2.15   +-         +-0.1                 m i ke

PYRENEES
Sta     Dist  EvAz     Phase      Date       Time     TRes  Azim  AzRes  Slow  SRes Def   SNR       Amp   Per   Mag1   Mag2       ID
ETSF  000.07 064.2 m E Pg      2012/11/03 10:32:21.6  -0.2                          T                                        5108589
ETSF  000.07 064.2 m E Sg      2012/11/03 10:32:23.6   0.4                          T               15.7  .26        Md 1.4  5108588
SJPF  000.49 300.4 m E Pg      2012/11/03 10:32:29.1   0.1                          T                                        5108587
SJPF  000.49 300.4 m E Sg      2012/11/03 10:32:35.4  -0.2                          T                1.4  .25        Md 1.2  5108585
EPF   000.74 077.0 m E Pg      2012/11/03 10:32:33.8   0.0                          T                                        5108586
MTLF  002.15 076.3 m E Pn      2012/11/03 10:32:54.5   0.1                          T                                        5108583
MTLF  002.15 076.3 m E Sn      2012/11/03 10:33:19.5  -0.3                          T                 .5  .26 Ml 1.5         5108584

.
EVENT     286203
    Date      Time       Latitude Longitude    Depth    Ndef Nsta Gap    Mag1  N    Mag2  N    Mag3  N   Author         ID
       rms   OT_Error      Smajor Sminor Az        Err   mdist  Mdist     Err        Err        Err      Quality

2012/11/03 12:00:45.8     44.0854    6.3673      2.0       9    5 110  Ml 1.2  1  Md 1.3  2              bulletin    286303
                                                                                                         _ldg
      0.30   +-  0.10       2.2    2.1  109.93 +-  0.0    0.56   1.45   +-         +-0.1                 m i ke

FRANCE
Sta     Dist  EvAz     Phase      Date       Time     TRes  Azim  AzRes  Slow  SRes Def   SNR       Amp   Per   Mag1   Mag2       ID
FRF   000.56 158.8 m E Pg      2012/11/03 12:00:56.4   0.0                          T                                        5108610
FRF   000.56 158.8 m E Sg      2012/11/03 12:01:04.4   0.5                          T                 .9  .30        Md 1.2  5108617
SMRF  000.58 259.4 m E Pg      2012/11/03 12:00:56.6  -0.2                          T                                        5108613
SMRF  000.58 259.4 m E Sg      2012/11/03 12:01:05.0   0.5                          T                2.6  .27        Md 1.4  5108611
MBDF  000.70 024.2 m E Pg      2012/11/03 12:00:59.3   0.0                          T                                        5108614
MBDF  000.70 024.2 m E Sg      2012/11/03 12:01:08.8   0.3                          T                 .3  .22                5108616
SBF   000.80 105.7 m E Pg      2012/11/03 12:01:01.1   0.1                          T                                        5108609
SBF   000.80 105.7 m E Sg      2012/11/03 12:01:10.8  -0.7                          T                 .8  .23                5108618
LPL   001.45 010.2 m E Sg      2012/11/03 12:01:32.0   0.0                          T                 .4  .28 Ml 1.2         5120305

.
EVENT     286202
    Date      Time       Latitude Longitude    Depth    Ndef Nsta Gap    Mag1  N    Mag2  N    Mag3  N   Author         ID
       rms   OT_Error      Smajor Sminor Az        Err   mdist  Mdist     Err        Err        Err      Quality

2012/11/03 12:10:00.6     43.4340    5.5362      2.0 f    17    7 217  Ml 2.2  4  Md 2.0  2              bulletin    286302
                                                                                                         _ldg
      0.35   +-  0.18       3.9    1.7   10.22 +-  0.0    0.54   2.25   +-0.4      +-0.2                 m i si

NEAR SOUTH COAST OF FRANCE
Sta     Dist  EvAz     Phase      Date       Time     TRes  Azim  AzRes  Slow  SRes Def   SNR       Amp   Per   Mag1   Mag2       ID
SMRF  000.54 003.0 m E Pg      2012/11/03 12:10:10.9  -0.1                          T                                        5108594
SMRF  000.54 003.0 m E Sg      2012/11/03 12:10:18.3   0.2                          T               26.5  .45        Md 2.2  5108592
FRF   000.82 080.7 m E Pg      2012/11/03 12:10:15.9  -0.1                          T                                        5108593
FRF   000.82 080.7 m E Sg      2012/11/03 12:10:26.2  -0.4                          T                                        5120316
FRF   000.82 080.7 m E Sn      2012/11/03 12:10:29.6   0.1                          T               11.1  .22        Md 1.9  5108591
LASF  001.38 298.4 m E Pn      2012/11/03 12:10:23.5  -1.6                          T                                        5108598
LASF  001.38 298.4 m E Pg      2012/11/03 12:10:26.4   0.1                          T                                        5120313
LASF  001.38 298.4 m E Sn      2012/11/03 12:10:41.6  -1.2                          T                2.7  .26 Ml 2.0         5108597
LASF  001.38 298.4 m E Sg      2012/11/03 12:10:44.8   0.7                          T                6.6  .33 Ml 2.3         5120312
SBF   001.44 072.1 m E Pn      2012/11/03 12:10:26.4   0.3                          T                                        5108595
SBF   001.44 072.1 m E Sg      2012/11/03 12:10:46.3   0.0                          T               15.0  .33 Ml 2.7         5108590
VIVF  001.55 336.7 m E Pn      2012/11/03 12:10:27.6   0.0                          T                                        5108599
VIVF  001.55 336.7 m E Pg      2012/11/03 12:10:30.3   0.7                          T                                        5120314
VIVF  001.55 336.7 m E Sn      2012/11/03 12:10:47.0  -0.1                          T                 .9  .22 Ml 1.7         5108601
MBDF  001.57 034.1 m E Pg      2012/11/03 12:10:30.1   0.1                          T                                        5120315
MBDF  001.57 034.1 m E Sg      2012/11/03 12:10:50.3   0.0                          T                                        5108605
LPL   002.25 021.9 m E Pn      2012/11/03 12:10:36.0  -1.3                          T                                        5108603

.
EVENT     286970
    Date      Time       Latitude Longitude    Depth    Ndef Nsta Gap    Mag1  N    Mag2  N    Mag3  N   Author         ID
       rms   OT_Error      Smajor Sminor Az        Err   mdist  Mdist     Err        Err        Err      Quality

2012/11/03 14:30:28.9     43.4352    5.5437      2.0 f    12    6 217  Ml 1.3  4  Md 1.6  2              bulletin    287070
                                                                                                         _ldg
      0.30   +-  0.17       3.5    1.9   10.25 +-  0.0    0.54   2.24   +-0.4      +-0.1                 m i si

NEAR SOUTH COAST OF FRANCE
Sta     Dist  EvAz     Phase      Date       Time     TRes  Azim  AzRes  Slow  SRes Def   SNR       Amp   Per   Mag1   Mag2       ID
SMRF  000.54 002.4 m E Pg      2012/11/03 14:30:38.8  -0.4                          T                                        5120342
SMRF  000.54 002.4 m E Sg      2012/11/03 14:30:46.2  -0.1                          T                2.4  .34        Md 1.6  5120343
FRF   000.81 080.7 m E Pg      2012/11/03 14:30:44.0  -0.2                          T                                        5120339
FRF   000.81 080.7 m E Sg      2012/11/03 14:30:54.4  -0.4                          T                                        5120340
FRF   000.81 080.7 m E Sn      2012/11/03 14:30:57.7   0.1                          T                1.1  .16        Md 1.6  5120341
LASF  001.38 298.2 m E Pg      2012/11/03 14:30:54.6   0.0                          T                                        5120335
LASF  001.38 298.2 m E Sg      2012/11/03 14:31:12.1  -0.4                          T                 .5  .23 Ml 1.3         5120336
SBF   001.44 072.0 m E Pn      2012/11/03 14:30:54.6   0.3                          T                                        5120337
SBF   001.44 072.0 m E Sg      2012/11/03 14:31:14.2  -0.2                          T                2.1  .28 Ml 1.9         5120338
MBDF  001.57 034.0 m E Pg      2012/11/03 14:30:58.2   0.0                          T                                        5120334
MBDF  001.57 034.0 m E Sg      2012/11/03 14:31:18.2  -0.2                          T                 .1  .16 Ml  .8         5120332
LPG   002.24 022.3 m E Sg      2012/11/03 14:31:40.3   0.8                          T                 .2  .20 Ml 1.3         5120333

.
EVENT     286204
    Date      Time       Latitude Longitude    Depth    Ndef Nsta Gap    Mag1  N    Mag2  N    Mag3  N   Author         ID
       rms   OT_Error      Smajor Sminor Az        Err   mdist  Mdist     Err        Err        Err      Quality

2012/11/03 16:21:08.4     43.4405    5.5496      2.0 f     8    5 216  Ml 1.5  3  Md 1.6  2              bulletin    286304
                                                                                                         _ldg
      0.17   +-  0.16       3.1    1.4   22.96 +-  0.0    0.54   1.56   +-0.4      +-0.2                 m i si

NEAR SOUTH COAST OF FRANCE
Sta     Dist  EvAz     Phase      Date       Time     TRes  Azim  AzRes  Slow  SRes Def   SNR       Amp   Per   Mag1   Mag2       ID
SMRF  000.54 002.0 m E Pg      2012/11/03 16:21:18.5  -0.1                          T                                        5108619
SMRF  000.54 002.0 m E Sg      2012/11/03 16:21:25.9   0.1                          T                1.2  .21        Md 1.7  5108620
FRF   000.81 081.1 m E Pg      2012/11/03 16:21:23.6  -0.1                          T                                        5108622
FRF   000.81 081.1 m E Sg      2012/11/03 16:21:34.0  -0.2                          T                                        5108621
FRF   000.81 081.1 m E Sn      2012/11/03 16:21:37.4   0.3                          T                1.7  .22        Md 1.4  5120356
LASF  001.38 298.0 m E Sg      2012/11/03 16:21:52.3   0.2                          T                 .9  .30 Ml 1.5         5120355
SBF   001.43 072.2 m E Sg      2012/11/03 16:21:54.0   0.3                          T                2.0  .23 Ml 1.9         5120354
MBDF  001.56 034.0 m E Sg      2012/11/03 16:21:57.8   0.0                          T                 .3  .23 Ml 1.2         5120353

.
EVENT     286217
    Date      Time       Latitude Longitude    Depth    Ndef Nsta Gap    Mag1  N    Mag2  N    Mag3  N   Author         ID
       rms   OT_Error      Smajor Sminor Az        Err   mdist  Mdist     Err        Err        Err      Quality

2012/11/03 22:20:45.6     42.2961    1.2566      2.0      22    3 052  Ml 1.6  4  Md 1.7  3              bulletin    286317
                                                                                                         _ldg
      0.55   +-  0.07       1.5    1.3   66.80 +-  0.0    0.08   1.92   +-0.1      +-0.0                 m i ke

PYRENEES
Sta     Dist  EvAz     Phase      Date       Time     TRes  Azim  AzRes  Slow  SRes Def   SNR       Amp   Per   Mag1   Mag2       ID
EPF   001.00 317.7 m E Pg      2012/11/03 22:21:04.8   0.3                          T                                        5108985
EPF   001.00 317.7 m E Sg      2012/11/03 22:21:17.5   0.1                          T                1.1  .20 Ml 1.5 Md 1.7  5108982
MTLF  001.26 033.8 m E Pg      2012/11/03 22:21:09.6   0.4                          T                                        5108984
MTLF  001.26 033.8 m E Sg      2012/11/03 22:21:25.8   0.2                          T                  1  .22 Ml 1.6 Md 1.8  5108983
ETSF  001.47 294.8 m E Pn      2012/11/03 22:21:11.9   0.3                          T                                        5108981
ETSF  001.47 294.8 m E Sn      2012/11/03 22:21:30.4   0.2                          T                 .7  .21 Ml 1.5 Md 1.7  5108980

.
EVENT     286216
    Date      Time       Latitude Longitude    Depth    Ndef Nsta Gap    Mag1  N    Mag2  N    Mag3  N   Author         ID
       rms   OT_Error      Smajor Sminor Az        Err   mdist  Mdist     Err        Err        Err      Quality

2012/11/03 23:01:11.2     45.8529    7.0968      4.5       8    4 311  Ml 1.3  2  Md 1.5  2              bulletin    286316
                                                                                                         _ldg
      0.09   +-  0.16       3.3    2.7  127.69 +-  0.9    0.42   1.98   +-0.2      +-0.0                 m i ke

NORTHERN ITALY
Sta     Dist  EvAz     Phase      Date       Time     TRes  Azim  AzRes  Slow  SRes Def   SNR       Amp   Per   Mag1   Mag2       ID
LPL   000.42 217.3 m E Pg      2012/11/03 23:01:19.6   0.0                          T                                        5108993
LPL   000.42 217.3 m E Sg      2012/11/03 23:01:25.1  -0.1                          T                1.2  .25        Md 1.5  5108992
LPG   000.43 214.4 m E Pg      2012/11/03 23:01:19.9   0.1                          T                                        5108991
LPG   000.43 214.4 m E Sg      2012/11/03 23:01:25.5  -0.1                          T                1.5  .16        Md 1.5  5108990
MBDF  001.15 191.6 m E Pg      2012/11/03 23:01:32.8  -0.1                          T                                        5108989
MBDF  001.15 191.6 m E Sg      2012/11/03 23:01:48.0   0.2                          T                 .4  .20 Ml 1.2         5108988
VIVF  001.98 240.6 m E Pn      2012/11/03 23:01:43.7   0.0                          T                                        5108987
VIVF  001.98 240.6 m E Sn      2012/11/03 23:02:07.5   0.0                          T                 .3  .18 Ml 1.4         5108986

.
