EVENT     259260
    Date      Time       Latitude Longitude    Depth    Ndef Nsta Gap    Mag1  N    Mag2  N    Mag3  N   Author         ID
       rms   OT_Error      Smajor Sminor Az        Err   mdist  Mdist     Err        Err        Err      Quality

2011/05/13 16:23:03.2     43.0917    -.1915      2.0     159   31 054  Ml 3.3 32  Md 3.2  3              js067245    259260

      0.58   +-  0.04        .9     .8  159.30 +-  0.0    0.26   6.84   +-0.3      +-0.0                 m i ke

PYRENEES
Sta     Dist  EvAz     Phase      Date       Time     TRes  Azim  AzRes  Slow  SRes Def   SNR       Amp   Per   Mag1   Mag2       ID
ETSF  000.33 234.5 m E Pg      2011/05/13 16:23:09.3  -0.4                          T                                        4691198
ETSF  000.33 234.5 m E Sg      2011/05/13 16:23:12.6  -1.6                          T             1286.1  .24        Md 3.2  4691190
EPF   000.39 098.8 m E Pg      2011/05/13 16:23:10.8  -0.1                          T                                        4691197
EPF   000.39 098.8 m E Sg      2011/05/13 16:23:15.7  -0.4                          T              489.4  .34        Md 3.2  4691189
SJPF  000.76 272.0 m E Pg      2011/05/13 16:23:16.2  -1.3                          T                                        4691196
SJPF  000.76 272.0 m E Sg      2011/05/13 16:23:26.7  -0.6                          T              114.8  .24        Md 3.2  4691191
MTLF  001.78 081.1 m E Pn      2011/05/13 16:23:33.3   0.1                          T                                        4691164
MTLF  001.78 081.1 m E Pg      2011/05/13 16:23:36.4   0.1                          T                                        4691192
MTLF  001.78 081.1 m E Sg      2011/05/13 16:24:00.3   1.1                          T               33.8  .22 Ml 3.3         4691124
LFF   001.97 019.7 m E Pn      2011/05/13 16:23:35.6  -0.1                          T                                        4691162
LFF   001.97 019.7 m E Pg      2011/05/13 16:23:40.5   0.9                          T                                        4691194
LFF   001.97 019.7 m E Sg      2011/05/13 16:24:05.0   0.0                          T              153.8  .36 Ml 3.7         4691126
CAF   002.45 040.8 m E Pn      2011/05/13 16:23:42.3  -0.1                          T                                        4691163
CAF   002.45 040.8 m E Pg      2011/05/13 16:23:48.9   0.2                          T                                        4691195
CAF   002.45 040.8 m E Sg      2011/05/13 16:24:20.9   0.6                          T               73.6  .22 Ml 3.8         4691125
RJF   002.53 028.5 m E Pn      2011/05/13 16:23:43.4  -0.1                          T                                        4691161
RJF   002.53 028.5 m E Pg      2011/05/13 16:23:50.2   0.1                          T                                        4691193
RJF   002.53 028.5 m E Sg      2011/05/13 16:24:23.1   0.5                          T               66.2  .20 Ml 3.5         4691127
LASF  003.10 070.1 m E Pn      2011/05/13 16:23:51.5   0.3                          T                                        4691165
LASF  003.10 070.1 m E Pg      2011/05/13 16:24:01.0   0.3                          T                                        4691172
LASF  003.10 070.1 m E Sg      2011/05/13 16:24:41.4   0.9                          T               20.1  .24 Ml 3.4         4691123
MFF   003.51 000.5 m E Pn      2011/05/13 16:23:56.5  -0.3                          T                                        4691160
MFF   003.51 000.5 m E Pg      2011/05/13 16:24:07.7  -0.5                          T                                        4691173
MFF   003.51 000.5 m E Sg      2011/05/13 16:24:52.8  -0.4                          T               24.2  .26 Ml 3.7         4691128
TCF   003.63 027.4 m E Pn      2011/05/13 16:23:58.5   0.1                          T                                        4691147
TCF   003.63 027.4 m E Pg      2011/05/13 16:24:10.4   0.1                          T                                        4691188
TCF   003.63 027.4 m E Sg      2011/05/13 16:24:57.2   0.3                          T               28.5  .26 Ml 3.6         4691142
VIVF  003.93 061.7 m E Pn      2011/05/13 16:24:02.7   0.2                          T                                        4691166
VIVF  003.93 061.7 m E Pg      2011/05/13 16:24:16.2   0.2                          T                                        4691171
VIVF  003.93 061.7 m E Sg      2011/05/13 16:25:07.3   0.9                          T               18.6  .30 Ml 3.4         4691122
BGF   004.08 030.9 m E Pn      2011/05/13 16:24:04.3  -0.3                          T                                        4691152
BGF   004.08 030.9 m E Pg      2011/05/13 16:24:18.9   0.1                          T                                        4691181
BGF   004.08 030.9 m E Sg      2011/05/13 16:25:11.6   0.5                          T              113.0  .38 Ml 4.1         4691136
SMRF  004.29 076.1 m E Pn      2011/05/13 16:24:07.5   0.1                          T                                        4691170
SMRF  004.29 076.1 m E Sg      2011/05/13 16:25:18.2   0.7                          T                6.1  .40 Ml 2.9         4691118
AVF   004.47 033.0 m E Pn      2011/05/13 16:24:10.1   0.2                          T                                        4691149
AVF   004.47 033.0 m E Pg      2011/05/13 16:24:25.6  -0.3                          T                                        4691185
AVF   004.47 033.0 m E Sg      2011/05/13 16:25:23.8   0.5                          T               12.9  .41 Ml 3.2         4691141
SMF   004.56 037.5 m E Pn      2011/05/13 16:24:11.6   0.4                          T                                        4691150
SMF   004.56 037.5 m E Pg      2011/05/13 16:24:27.8   0.2                          T                                        4691184
SMF   004.56 037.5 m E Sg      2011/05/13 16:25:26.7   0.5                          T               16.5  .36 Ml 3.4         4691138
HYF   004.63 024.6 m E Pn      2011/05/13 16:24:12.1   0.0                          T                                        4691151
HYF   004.63 024.6 m E Pg      2011/05/13 16:24:29.1   0.2                          T                                        4691183
HYF   004.63 024.6 m E Sg      2011/05/13 16:25:28.5   0.3                          T                                        4691137
SSF   004.76 032.1 m E Pn      2011/05/13 16:24:13.8   0.1                          T                                        4691146
SSF   004.76 032.1 m E Pg      2011/05/13 16:24:31.1   0.0                          T                                        4691187
SSF   004.76 032.1 m E Sg      2011/05/13 16:25:32.6   0.5                          T               21.3  .56 Ml 3.5         4691143
ORIF  004.75 065.3 m E Pn      2011/05/13 16:24:13.9   0.2                          T                                        4691168
ORIF  004.75 065.3 m E Sg      2011/05/13 16:25:32.8   0.9                          T                6.3  .56 Ml 2.9         4691120
LMR   004.90 084.9 m E Pn      2011/05/13 16:24:15.8   0.1                          T                                        4691115
LMR   004.90 084.9 m E Sg      2011/05/13 16:25:37.7   1.0                          T                2.6  .33 Ml 2.8         4691116
FRF   005.01 082.3 m E Pn      2011/05/13 16:24:17.5   0.3                          T                                        4691114
FRF   005.01 082.3 m E Sg      2011/05/13 16:25:40.8   0.7                          T                2.5  .29 Ml 2.8         4691117
LOR   005.06 033.0 m E Pn      2011/05/13 16:24:17.8  -0.1                          T                                        4691145
LOR   005.06 033.0 m E Pg      2011/05/13 16:24:37.0   0.2                          T                                        4691186
LOR   005.06 033.0 m E Sg      2011/05/13 16:25:42.2   0.4                          T                7.4  .24 Ml 3.4         4691144
GRR   005.32 355.2 m E Pn      2011/05/13 16:24:18.7  -2.6                          T                                        4691159
GRR   005.32 355.2 m E Pg      2011/05/13 16:24:41.0  -0.4                          T                                        4691174
GRR   005.32 355.2 m E Sg      2011/05/13 16:25:49.3  -0.3                          T                8.1  .28 Ml 3.3         4691129
QUIF  005.26 337.6 m E Pn      2011/05/13 16:24:19.7  -0.9                          T                                        4691156
QUIF  005.26 337.6 m E Pg      2011/05/13 16:24:39.8  -0.6                          T                                        4691177
QUIF  005.26 337.6 m E Sg      2011/05/13 16:25:47.0  -0.8                          T                4.8  .29 Ml 3.1         4691132
MBDF  005.29 069.6 m E Pn      2011/05/13 16:24:21.4   0.2                          T                                        4691167
MBDF  005.29 069.6 m E Sg      2011/05/13 16:25:50.0   1.1                          T                1.4  .25 Ml 2.7         4691121
SGMF  005.42 343.0 m E Pn      2011/05/13 16:24:22.5  -0.3                          T                                        4691155
SGMF  005.42 343.0 m E Pg      2011/05/13 16:24:42.8  -0.6                          T                                        4691178
SGMF  005.42 343.0 m E Sg      2011/05/13 16:25:52.2  -0.7                          T                7.1  .39 Ml 3.2         4691133
LDF   005.50 000.5 m E Pn      2011/05/13 16:24:24.8   0.9                          T                                        4691158
LDF   005.50 000.5 m E Pg      2011/05/13 16:24:44.6  -0.3                          T                                        4691175
LDF   005.50 000.5 m E Sg      2011/05/13 16:25:55.3  -0.1                          T                9.7  .46 Ml 3.3         4691130
LPG   005.53 061.9 m E Pn      2011/05/13 16:24:24.9   0.2                          T                                        4691169
LPG   005.53 061.9 m E Sg      2011/05/13 16:25:57.6   0.9                          T                8.0  .70 Ml 3.1         4691119
ROSF  005.67 338.7 m E Pn      2011/05/13 16:24:25.6  -0.6                          T                                        4691154
ROSF  005.67 338.7 m E Pg      2011/05/13 16:24:47.4  -0.6                          T                                        4691179
ROSF  005.67 338.7 m E Sg      2011/05/13 16:25:59.9  -0.8                          T                6.8  .49 Ml 3.2         4691134
FLN   005.68 358.1 m E Pn      2011/05/13 16:24:25.8  -0.5                          T                                        4691157
FLN   005.68 358.1 m E Pg      2011/05/13 16:24:47.6  -0.4                          T                                        4691176
FLN   005.68 358.1 m E Sg      2011/05/13 16:26:00.4  -0.4                          T               12.4  .49 Ml 3.3         4691131
CABF  005.68 049.6 m E Pn      2011/05/13 16:24:26.5   0.0                          T                                        4691148
CABF  005.68 049.6 m E Pg      2011/05/13 16:24:48.4   0.1                          T                                        4691182
CABF  005.68 049.6 m E Sg      2011/05/13 16:26:01.9   0.7                          T               14.0  .78 Ml 3.3         4691140
HINF  006.84 043.9 m E Sg      2011/05/13 16:26:38.3   0.9                          T                3.1  .44 Ml 3.1         4691139

.
EVENT     259281
    Date      Time       Latitude Longitude    Depth    Ndef Nsta Gap    Mag1  N    Mag2  N    Mag3  N   Author         ID
       rms   OT_Error      Smajor Sminor Az        Err   mdist  Mdist     Err        Err        Err      Quality

2011/05/13 16:38:55.2     42.9969    -.1708      2.0      10    4 166  Ml 1.7  2  Md 1.5  3              js067245    259281

      0.09   +-  0.03       3.1     .6  173.22 +-  0.0    0.30   1.78   +-0.1      +-0.0                 m i ke

PYRENEES
Sta     Dist  EvAz     Phase      Date       Time     TRes  Azim  AzRes  Slow  SRes Def   SNR       Amp   Per   Mag1   Mag2       ID
ETSF  000.30 251.1 m E Pg      2011/05/13 16:39:01.3   0.1                          T                                        4691208
ETSF  000.30 251.1 m E Sg      2011/05/13 16:39:05.0  -0.2                          T                2.3  .18        Md 1.6  4691205
EPF   000.38 084.7 m E Pg      2011/05/13 16:39:02.4  -0.1                          T                                        4691207
EPF   000.38 084.7 m E Sg      2011/05/13 16:39:07.6   0.1                          T                1.9  .20        Md 1.5  4691206
SJPF  000.78 278.9 m E Pg      2011/05/13 16:39:09.9   0.0                          T                                        4691203
SJPF  000.78 278.9 m E Sg      2011/05/13 16:39:20.1   0.0                          T                 .6  .23        Md 1.5  4691204
MTLF  001.78 078.0 m E Pn      2011/05/13 16:39:25.3   0.1                          T                                        4691202
MTLF  001.78 078.0 m E Sn      2011/05/13 16:39:47.1   0.0                          T                 .9  .32 Ml 1.6         4691201

.
EVENT     259261
    Date      Time       Latitude Longitude    Depth    Ndef Nsta Gap    Mag1  N    Mag2  N    Mag3  N   Author         ID
       rms   OT_Error      Smajor Sminor Az        Err   mdist  Mdist     Err        Err        Err      Quality

2011/05/13 17:09:29.0     46.0152    7.0097      2.0      38   12 092  Ml 2.1 13  Md 2.1  3              js067245    259261

      0.18   +-  0.03        .7     .5   97.88 +-  0.0    0.09   2.94   +-0.2      +-0.0                 m i ke

SWITZERLAND
Sta     Dist  EvAz     Phase      Date       Time     TRes  Azim  AzRes  Slow  SRes Def   SNR       Amp   Per   Mag1   Mag2       ID
LPL   000.54 201.4 m E Pg      2011/05/13 17:09:39.5   0.0                          T                                        4691240
LPL   000.54 201.4 m E Sg      2011/05/13 17:09:46.5  -0.1                          T                7.3  .33        Md 2.1  4691237
LPG   000.55 199.4 m E Pg      2011/05/13 17:09:39.8   0.0                          T                                        4691239
LPG   000.55 199.4 m E Sg      2011/05/13 17:09:46.8  -0.2                          T                6.0  .25        Md 2.1  4691236
CABF  000.87 313.3 m E Pg      2011/05/13 17:09:45.5   0.0                          T                                        4691230
CABF  000.87 313.3 m E P       2011/05/13 17:09:47.5   0.0                          T                                        4692593
CABF  000.87 313.3 m E Sg      2011/05/13 17:09:57.0   0.1                          T                6.3  .26 Ml 2.1 Md 2.1  4691223
MBDF  001.30 187.5 m E Pg      2011/05/13 17:09:53.5   0.1                          T                                        4691233
MBDF  001.30 187.5 m E Sg      2011/05/13 17:10:10.2  -0.1                          T                1.3  .18 Ml 1.8         4691235
ORIF  001.35 216.3 m E Pg      2011/05/13 17:09:54.3  -0.1                          T                                        4691232
ORIF  001.35 216.3 m E Sg      2011/05/13 17:10:11.7  -0.2                          T                3.0  .26 Ml 2.0         4691238
HINF  001.81 356.6 m E Pn      2011/05/13 17:09:59.7   0.3                          T                                        4691218
HINF  001.81 356.6 m E Pg      2011/05/13 17:10:02.7   0.0                          T                                        4691229
HINF  001.81 356.6 m E Sg      2011/05/13 17:10:26.0   0.1                          T                1.8  .20 Ml 2.1         4691225
HAU   002.04 347.4 m E Pn      2011/05/13 17:10:02.8   0.2                          T                                        4691217
HAU   002.04 347.4 m E Pg      2011/05/13 17:10:07.2   0.2                          T                                        4691228
HAU   002.04 347.4 m E Sg      2011/05/13 17:10:33.6   0.3                          T                1.5  .25 Ml 1.8         4691224
SMF   002.28 287.2 m E Pn      2011/05/13 17:10:06.0   0.1                          T                                        4691219
SMF   002.28 287.2 m E Sg      2011/05/13 17:10:40.1  -0.7                          T                2.5  .18 Ml 2.4         4691222
VIVF  002.01 235.7 m E Pg      2011/05/13 17:10:06.3  -0.1                          T                                        4691231
VIVF  002.01 235.7 m E Sg      2011/05/13 17:10:32.2  -0.2                          T                3.3  .32 Ml 2.2         4691234
LOR   002.51 301.1 m E Pn      2011/05/13 17:10:08.9   0.0                          T                                        4691227
LOR   002.51 301.1 m E Sg      2011/05/13 17:10:47.7  -0.1                          T                1.8  .28 Ml 2.1         4691226
AVF   002.65 288.4 m E Pn      2011/05/13 17:10:10.9   0.1                          T                                        4691220
AVF   002.65 288.4 m E Sg      2011/05/13 17:10:51.9  -0.2                          T                 .9  .29 Ml 1.9         4691221
BGF   002.94 282.1 m E Pn      2011/05/13 17:10:14.8   0.0                          T                                        4691215
BGF   002.94 282.1 m E Sn      2011/05/13 17:10:48.5  -0.1                          T                4.5  .40 Ml 2.5         4691214

.
