EVENT     288902
    Date      Time       Latitude Longitude    Depth    Ndef Nsta Gap    Mag1  N    Mag2  N    Mag3  N   Author         ID
       rms   OT_Error      Smajor Sminor Az        Err   mdist  Mdist     Err        Err        Err      Quality

2012/12/23 07:42:47.9     45.4380    6.7611      3.0 f    11    5 185  Ml 1.6  1  Md 1.3  4              bulletin    289002
                                                                                                         _ldg
      0.09   +-  0.04       1.1     .5  104.33 +-  0.0    0.06   1.59   +-         +-0.1                 m i ke

FRANCE
Sta     Dist  EvAz     Phase      Date       Time     TRes  Azim  AzRes  Slow  SRes Def   SNR       Amp   Per   Mag1   Mag2       ID
LPG   000.06 353.5 m E Pg      2012/12/23 07:42:49.9   0.0                          T                                        5145598
LPG   000.06 353.5 m E Sg      2012/12/23 07:42:51.0   0.0                          T                  1  .15        Md 1.3  5145597
LPL   000.08 345.6 m E Pg      2012/12/23 07:42:50.1   0.0                          T                                        5145596
LPL   000.08 345.6 m E Sg      2012/12/23 07:42:51.4   0.0                          T                1.9  .19        Md 1.3  5145595
MBDF  000.71 179.4 m E Pg      2012/12/23 07:43:01.6   0.1                          T                                        5145600
MBDF  000.71 179.4 m E Sg      2012/12/23 07:43:10.6  -0.2                          T                 .3  .17        Md 1.2  5145599
ORIF  000.81 230.5 m E Pg      2012/12/23 07:43:03.3   0.0                          T                                        5145602
ORIF  000.81 230.5 m E Sg      2012/12/23 07:43:13.7  -0.2                          T                 .1  .17        Md 1.4  5145601
VIVF  001.59 249.2 m E Sg      2012/12/23 07:43:38.2   0.1                          T                1.2  .36 Ml 1.6         5163883

.
EVENT     288903
    Date      Time       Latitude Longitude    Depth    Ndef Nsta Gap    Mag1  N    Mag2  N    Mag3  N   Author         ID
       rms   OT_Error      Smajor Sminor Az        Err   mdist  Mdist     Err        Err        Err      Quality

2012/12/23 08:42:34.8     46.9150    6.9862      2.0      58   15 102  Ml 1.9 16  Md 2.0  1              bulletin    289003
                                                                                                         _ldg
      0.34   +-  0.05       1.2     .8   79.72 +-  0.0    0.10   2.62   +-0.4      +-                    m i ke

SWITZERLAND
Sta     Dist  EvAz     Phase      Date       Time     TRes  Azim  AzRes  Slow  SRes Def   SNR       Amp   Per   Mag1   Mag2       ID
CABF  000.69 244.1 m E Pg      2012/12/23 08:42:48.3   0.4                          T                                        5145640
CABF  000.69 244.1 m E Sg      2012/12/23 08:42:57.7   0.7                          T                2.6  .14        Md 2.0  5145639
HINF  000.91 354.3 m E Pg      2012/12/23 08:42:51.9   0.0                          T                                        5145610
HINF  000.91 354.3 m E Sg      2012/12/23 08:43:03.6  -0.1                          T                6.9  .20 Ml 2.3         5145609
HAU   001.17 338.6 m E Pg      2012/12/23 08:42:57.1   0.2                          T                                        5145608
HAU   001.17 338.6 m E Sg      2012/12/23 08:43:12.4   0.4                          T                8.7  .24 Ml 2.2         5145607
LPG   001.43 186.6 m E Pn      2012/12/23 08:43:00.3  -0.1                          T                                        5145642
LPG   001.43 186.6 m E Sg      2012/12/23 08:43:19.8  -0.5                          T                1.3  .18 Ml 1.9         5145641
CDF   001.51 007.3 m E Pn      2012/12/23 08:43:01.0  -0.3                          T                                        5145623
CDF   001.51 007.3 m E Pg      2012/12/23 08:43:03.3   0.2                          T                                        5145624
CDF   001.51 007.3 m E Sn      2012/12/23 08:43:20.0  -0.4                          T                                        5145622
CDF   001.51 007.3 m E Sg      2012/12/23 08:43:22.4  -0.2                          T                3.1  .23 Ml 2.3         5145605
SFTF  001.85 315.1 m E Pn      2012/12/23 08:43:05.7  -0.1                          T                                        5145638
SFTF  001.85 315.1 m E Pg      2012/12/23 08:43:09.7   0.5                          T                                        5145637
SFTF  001.85 315.1 m E Sg      2012/12/23 08:43:33.3   0.3                          T                2.1  .21 Ml 2.2         5145636
PAGF  001.85 333.0 m E Pn      2012/12/23 08:43:05.9   0.1                          T                                        5145635
PAGF  001.85 333.0 m E Pg      2012/12/23 08:43:08.8  -0.4                          T                                        5145634
PAGF  001.85 333.0 m E Sn      2012/12/23 08:43:28.3  -0.1                          T                                        5145633
PAGF  001.85 333.0 m E Sg      2012/12/23 08:43:33.3   0.3                          T                1.8  .19 Ml 2.1         5145632
MEZF  002.06 321.3 m E Pn      2012/12/23 08:43:08.7   0.1                          T                                        5145631
MEZF  002.06 321.3 m E Pg      2012/12/23 08:43:13.1   0.0                          T                                        5145630
MEZF  002.06 321.3 m E Sn      2012/12/23 08:43:33.3  -0.1                          T                                        5145629
MEZF  002.06 321.3 m E Sg      2012/12/23 08:43:39.1  -0.4                          T                 .6  .17 Ml 1.8         5145628
ORIF  002.14 201.5 m E Pn      2012/12/23 08:43:10.0   0.1                          T                                        5145645
ORIF  002.14 201.5 m E Sn      2012/12/23 08:43:34.7  -0.8                          T                                        5145644
ORIF  002.14 201.5 m E Sg      2012/12/23 08:43:43.0   0.7                          T                  1  .22 Ml 1.9         5145643
MBDF  002.19 184.0 m E Pn      2012/12/23 08:43:10.3  -0.4                          T                                        5145648
MBDF  002.19 184.0 m E Sn      2012/12/23 08:43:36.1  -0.7                          T                                        5145647
MBDF  002.19 184.0 m E Sg      2012/12/23 08:43:43.3  -0.7                          T                 .2  .28 Ml 1.2         5145646
LOR   002.17 280.5 m E Pn      2012/12/23 08:43:10.3   0.2                          T                                        5145620
LOR   002.17 280.5 m E Pg      2012/12/23 08:43:14.9  -0.2                          T                                        5145619
LOR   002.17 280.5 m E Sn      2012/12/23 08:43:36.5   0.5                          T                                        5145618
LOR   002.17 280.5 m E Sg      2012/12/23 08:43:42.7  -0.3                          T                1.1  .17 Ml 2.0         5145621
SMF   002.18 264.0 m E Pn      2012/12/23 08:43:10.6   0.3                          T                                        5145655
SMF   002.18 264.0 m E Pg      2012/12/23 08:43:15.9   0.6                          T                                        5145654
SMF   002.18 264.0 m E Sn      2012/12/23 08:43:35.7  -0.6                          T                                        5145653
SMF   002.18 264.0 m E Sg      2012/12/23 08:43:43.5   0.2                          T                1.5  .26 Ml 2.0         5145652
SSF   002.39 274.8 m E Pn      2012/12/23 08:43:13.3   0.1                          T                                        5145627
SSF   002.39 274.8 m E Sn      2012/12/23 08:43:41.1  -0.1                          T                                        5145626
SSF   002.39 274.8 m E Sg      2012/12/23 08:43:49.6  -0.2                          T                 .5  .16 Ml 1.9         5145625
AVF   002.50 268.5 m E Pn      2012/12/23 08:43:14.1  -0.5                          T                                        5145658
AVF   002.50 268.5 m E Sn      2012/12/23 08:43:43.2  -0.6                          T                                        5145657
AVF   002.50 268.5 m E Sg      2012/12/23 08:43:52.9  -0.3                          T                 .3  .21 Ml 1.5         5145656
VIVF  002.62 219.0 m E Pn      2012/12/23 08:43:16.6   0.3                          T                                        5145651
VIVF  002.62 219.0 m E Sn      2012/12/23 08:43:46.1  -0.7                          T                                        5145650
VIVF  002.62 219.0 m E Sg      2012/12/23 08:43:57.1   0.0                          T                 .9  .22 Ml 1.9         5145649

.
EVENT     288904
    Date      Time       Latitude Longitude    Depth    Ndef Nsta Gap    Mag1  N    Mag2  N    Mag3  N   Author         ID
       rms   OT_Error      Smajor Sminor Az        Err   mdist  Mdist     Err        Err        Err      Quality

2012/12/23 10:03:08.2     43.7424    7.3529      2.0      29    5 169  Ml 1.7  4  Md 1.8  1              bulletin    289004
                                                                                                         _ldg
      0.24   +-  0.07       1.3     .8  159.86 +-  0.0    0.09   1.58   +-0.3      +-                    m i ke

NEAR SOUTH COAST OF FRANCE
Sta     Dist  EvAz     Phase      Date       Time     TRes  Azim  AzRes  Slow  SRes Def   SNR       Amp   Per   Mag1   Mag2       ID
SBF   000.13 026.3 m E Pg      2012/12/23 10:03:10.8  -0.4                          T                                        5145670
SBF   000.13 026.3 m E Sg      2012/12/23 10:03:13.4   0.3                          T                                Md 1.8  5145669
LMR   000.74 236.6 m E Pg      2012/12/23 10:03:22.1   0.0                          T                                        5145668
LMR   000.74 236.6 m E Pn      2012/12/23 10:03:23.8  -0.2                          T                                        5145683
LMR   000.74 236.6 m E Sg      2012/12/23 10:03:32.4   0.7                          T               14.0  .24                5145667
MBDF  001.07 337.2 m E Pn      2012/12/23 10:03:28.7   0.0                          T                                        5145681
MBDF  001.07 337.2 m E Sn      2012/12/23 10:03:43.8   0.5                          T                2.8  .49 Ml 1.6         5145680
SMRF  001.31 280.9 m E Pg      2012/12/23 10:03:32.6   0.0                          T                                        5163888
SMRF  001.31 280.9 m E Sg      2012/12/23 10:03:50.0   0.4                          T                3.5  .24 Ml 2.1         5145665
ORIF  001.58 318.6 m E Pg      2012/12/23 10:03:38.2   0.4                          T                                        5145678
ORIF  001.58 318.6 m E Sg      2012/12/23 10:03:58.4   0.2                          T                2.2  .43 Ml 1.8         5145676

.
EVENT     288913
    Date      Time       Latitude Longitude    Depth    Ndef Nsta Gap    Mag1  N    Mag2  N    Mag3  N   Author         ID
       rms   OT_Error      Smajor Sminor Az        Err   mdist  Mdist     Err        Err        Err      Quality

2012/12/23 19:27:52.1     42.2733     .3402      2.0       7    4 254  Ml 1.7  3  Md 1.6  2              bulletin    289013
                                                                                                         _ldg
      0.28   +-  0.43       8.0    3.2  167.80 +-  0.0    0.76   1.75   +-0.3      +-0.1                 m i ke

PYRENEES
Sta     Dist  EvAz     Phase      Date       Time     TRes  Azim  AzRes  Slow  SRes Def   SNR       Amp   Per   Mag1   Mag2       ID
EPF   000.76 360.0 m E Pg      2012/12/23 19:28:06.0  -0.5                          T                                        5145870
EPF   000.76 360.0 m E Sg      2012/12/23 19:28:16.1  -0.2                          T                3.5  .28        Md 1.5  5145869
ETSF  000.91 313.6 m E Pg      2012/12/23 19:28:09.4   0.1                          T                                        5145868
ETSF  000.91 313.6 m E Sg      2012/12/23 19:28:20.8  -0.4                          T                2.4  .29 Ml 1.7 Md 1.7  5145865
SJPF  001.43 306.6 m E Pg      2012/12/23 19:28:18.7   0.0                          T                                        5145867
SJPF  001.43 306.6 m E Sg      2012/12/23 19:28:37.6   0.4                          T                3.0  .28 Ml 2.0         5145866
MTLF  001.75 051.7 m E Sg      2012/12/23 19:28:47.1   0.0                          T                 .4  .26 Ml 1.3         5163889

.
EVENT     288914
    Date      Time       Latitude Longitude    Depth    Ndef Nsta Gap    Mag1  N    Mag2  N    Mag3  N   Author         ID
       rms   OT_Error      Smajor Sminor Az        Err   mdist  Mdist     Err        Err        Err      Quality

2012/12/23 19:49:33.2     46.2372    7.1131      2.0      35    8 066  Ml 1.8  5  Md 1.7  2              bulletin    289014
                                                                                                         _ldg
      0.23   +-  0.04       1.0     .7  100.00 +-  0.0    0.01   2.20   +-0.3      +-0.0                 m i ke

SWITZERLAND
Sta     Dist  EvAz     Phase      Date       Time     TRes  Azim  AzRes  Slow  SRes Def   SNR       Amp   Per   Mag1   Mag2       ID
LPL   000.77 200.4 m E Pg      2012/12/23 19:49:47.6  -0.3                          T                                        5145882
LPL   000.77 200.4 m E Sg      2012/12/23 19:49:57.6  -0.4                          T                1.1  .24        Md 1.7  5145878
LPG   000.78 199.0 m E Pg      2012/12/23 19:49:48.0  -0.2                          T                                        5145881
LPG   000.78 199.0 m E Sg      2012/12/23 19:49:58.2  -0.3                          T                1.5  .23        Md 1.7  5145877
CABF  000.80 298.2 m E Pg      2012/12/23 19:49:48.5   0.1                          T                                        5145891
CABF  000.80 298.2 m E Pn      2012/12/23 19:49:50.0   0.0                          T                                        5145896
CABF  000.80 298.2 m E Sg      2012/12/23 19:49:59.5   0.6                          T                 .8  .21                5145890
ORIF  001.58 213.7 m E Pn      2012/12/23 19:50:00.5  -0.1                          T                                        5145876
ORIF  001.58 213.7 m E Sn      2012/12/23 19:50:20.2  -0.1                          T                 .5  .22 Ml 1.4         5145875
HINF  001.59 353.7 m E Pn      2012/12/23 19:50:00.7   0.0                          T                                        5145893
HINF  001.59 353.7 m E Pg      2012/12/23 19:50:02.6  -0.3                          T                                        5145894
HINF  001.59 353.7 m E Sn      2012/12/23 19:50:20.6   0.0                          T                                        5145892
HINF  001.59 353.7 m E Sg      2012/12/23 19:50:23.5   0.2                          T                3.3  .24 Ml 2.2         5145895
HAU   001.84 343.8 m E Pn      2012/12/23 19:50:04.1   0.0                          T                                        5145889
HAU   001.84 343.8 m E Pg      2012/12/23 19:50:07.4  -0.1                          T                                        5145888
HAU   001.84 343.8 m E Sn      2012/12/23 19:50:26.7   0.0                          T                                        5145887
HAU   001.84 343.8 m E Sg      2012/12/23 19:50:31.2  -0.1                          T                1.8  .22 Ml 1.9         5145886
CDF   002.18 002.9 m E Pn      2012/12/23 19:50:08.9   0.1                          T                                        5145885
CDF   002.18 002.9 m E Pg      2012/12/23 19:50:13.6  -0.2                          T                                        5145884
CDF   002.18 002.9 m E Sn      2012/12/23 19:50:34.8   0.1                          T                 .8  .28 Ml 1.8         5145883
VIVF  002.20 232.0 m E Pn      2012/12/23 19:50:09.2   0.2                          T                                        5145873
VIVF  002.20 232.0 m E Pg      2012/12/23 19:50:14.2   0.1                          T                                        5145874
VIVF  002.20 232.0 m E Sn      2012/12/23 19:50:35.0  -0.2                          T                                        5145872
VIVF  002.20 232.0 m E Sg      2012/12/23 19:50:42.6   0.1                          T                 .9  .22 Ml 1.9         5145871

.
