EVENT     293445
    Date      Time       Latitude Longitude    Depth    Ndef Nsta Gap    Mag1  N    Mag2  N    Mag3  N   Author         ID
       rms   OT_Error      Smajor Sminor Az        Err   mdist  Mdist     Err        Err        Err      Quality

2013/03/08 05:03:03.7     47.5702    7.6021     10.0      28    9 068  Ml 1.5 10  Md 1.7  1              bulletin    293545
                                                                                                         _ldg
      0.77   +-  0.07       1.5    1.1  153.34 +-  0.0    0.17   2.91   +-0.1      +-                    m i ke

SWITZERLAND
Sta     Dist  EvAz     Phase      Date       Time     TRes  Azim  AzRes  Slow  SRes Def   SNR       Amp   Per   Mag1   Mag2       ID
HINF  000.56 296.3 m E Pg      2013/03/08 05:03:14.2  -0.4                          T                                        5219349
HINF  000.56 296.3 m E Sg      2013/03/08 05:03:21.9  -0.2                          T                1.4  .18        Md 1.7  5219348
CDF   000.87 345.5 m E Pg      2013/03/08 05:03:20.4   0.1                          T                                        5219351
CDF   000.87 345.5 m E Sg      2013/03/08 05:03:31.6   0.0                          T                1.3  .19 Ml 1.7         5219350
HAU   000.95 297.7 m E Pg      2013/03/08 05:03:21.7   0.1                          T                                        5219347
HAU   000.95 297.7 m E Sg      2013/03/08 05:03:33.6  -0.5                          T                1.7  .18 Ml 1.5         5219346
CABF  001.41 227.7 m E Pg      2013/03/08 05:03:30.2   0.0                          T                                        5219353
CABF  001.41 227.7 m E Sg      2013/03/08 05:03:48.6   0.1                          T                 .8  .31 Ml 1.4         5219352
PAGF  001.60 308.7 m E Pn      2013/03/08 05:03:30.4   0.0 124.3  -3.1              T                                        5219360
PAGF  001.60 308.7 m E Sn      2013/03/08 05:03:50.0   0.1 126.1  -1.2              T                1.1  .26 Ml 1.7         5219355
SFTF  001.84 291.2 m E Pn      2013/03/08 05:03:33.7   0.1 112.7  3.5               T                                        5219357
SFTF  001.84 291.2 m E Sn      2013/03/08 05:03:55.2  -0.4 120.2  11.0              T                1.1  .29 Ml 1.7         5219356
MEZF  001.95 299.5 m E Pn      2013/03/08 05:03:35.1   0.0 122.9  5.3               T                                        5219359
MEZF  001.95 299.5 m E Sn      2013/03/08 05:03:57.8  -0.4 119.7  2.1               T                 .4  .17 Ml 1.6         5219358
LOR   002.56 264.6 m E Pn      2013/03/08 05:03:44.0   0.5  84.1  2.2               T                                        5219364
LOR   002.56 264.6 m E Sg      2013/03/08 05:04:23.8  -0.4  79.1  -2.7              T                 .2  .17 Ml 1.5         5219363
SSF   002.83 261.2 m E Pn      2013/03/08 05:03:47.1  -0.1                          T                                        5219362
SSF   002.83 261.2 m E Sg      2013/03/08 05:04:32.3  -0.4                          T                 .2  .18 Ml 1.5         5219361

.
EVENT     293590
    Date      Time       Latitude Longitude    Depth    Ndef Nsta Gap    Mag1  N    Mag2  N    Mag3  N   Author         ID
       rms   OT_Error      Smajor Sminor Az        Err   mdist  Mdist     Err        Err        Err      Quality

2013/03/08 08:35:48.5     44.4188    7.2716     14.4      39    9 114  Ml 1.5  9  Md 1.6  2              bulletin    293690
                                                                                                         _ldg
      0.30   +-  0.04       1.1     .7   65.76 +-  0.4    0.09   2.25   +-0.1      +-0.1                 m i ke

NORTHERN ITALY
Sta     Dist  EvAz     Phase      Date       Time     TRes  Azim  AzRes  Slow  SRes Def   SNR       Amp   Per   Mag1   Mag2       ID
MBDF  000.47 310.9 m E Pg      2013/03/08 08:35:58.4   0.3                          T                                        5221634
MBDF  000.47 310.9 m E Sg      2013/03/08 08:36:04.9   0.4                          T                1.9  .21        Md 1.7  5221633
SBF   000.57 168.0 m E Pg      2013/03/08 08:35:59.7   0.1                          T                                        5221660
SBF   000.57 168.0 m E Sg      2013/03/08 08:36:07.2  -0.1                          T                1.1  .17        Md 1.5  5221659
FRF   000.97 207.9 m E Pn      2013/03/08 08:36:06.3   0.2                          T                                        5221645
FRF   000.97 207.9 m E Sg      2013/03/08 08:36:19.5   0.0                          T                 .5  .17 Ml 1.3         5221644
LPG   001.14 341.3 m E Pn      2013/03/08 08:36:08.7  -0.1                          T                                        5221650
LPG   001.14 341.3 m E Pg      2013/03/08 08:36:10.1  -0.3                          T                                        5221649
LPG   001.14 341.3 m E Sg      2013/03/08 08:36:25.0  -0.3                          T                 .9  .18 Ml 1.6         5221648
LPL   001.16 341.0 m E Pn      2013/03/08 08:36:08.9  -0.2                          T                                        5221653
LPL   001.16 341.0 m E Pg      2013/03/08 08:36:11.1   0.4                          T                                        5221652
LPL   001.16 341.0 m E Sg      2013/03/08 08:36:26.0   0.2                          T                1.0  .19 Ml 1.6         5221651
LMR   001.22 207.2 m E Pn      2013/03/08 08:36:09.7   0.2                          T                                        5221658
LMR   001.22 207.2 m E Pg      2013/03/08 08:36:11.6   0.2                          T                                        5221657
LMR   001.22 207.2 m E Sn      2013/03/08 08:36:24.5  -0.2                          T                                        5221656
LMR   001.22 207.2 m E Sg      2013/03/08 08:36:27.1  -0.1                          T                 .8  .21 Ml 1.5         5221655
SMRF  001.30 250.6 m E Pn      2013/03/08 08:36:10.8   0.1                          T                                        5221647
SMRF  001.30 250.6 m E Sn      2013/03/08 08:36:26.9   0.2                          T                 .8  .28 Ml 1.4         5221646
VIVF  001.91 284.2 m E Pn      2013/03/08 08:36:18.8  -0.1                          T                                        5221663
VIVF  001.91 284.2 m E Pg      2013/03/08 08:36:23.9  -0.2                          T                                        5221662
VIVF  001.91 284.2 m E Sg      2013/03/08 08:36:48.5  -0.2                          T                1.0  .36 Ml 1.7         5221661
ORIF  001.11 297.2 m E Sg      2013/03/08 08:36:23.8  -0.3                          T                 .8  .23 Ml 1.4         5221654

.
EVENT     293422
    Date      Time       Latitude Longitude    Depth    Ndef Nsta Gap    Mag1  N    Mag2  N    Mag3  N   Author         ID
       rms   OT_Error      Smajor Sminor Az        Err   mdist  Mdist     Err        Err        Err      Quality

2013/03/08 09:06:36.7     37.2555    5.0787      2.0      25   10 295  Ml 2.8 12                         bulletin    293522
                                                                                                         _ldg
      0.67   +-  0.27       5.1    3.7  174.18 +-  0.0    6.08   7.68   +-0.3                            m i ke

WESTERN MEDITERRANEAN SEA
Sta     Dist  EvAz     Phase      Date       Time     TRes  Azim  AzRes  Slow  SRes Def   SNR       Amp   Per   Mag1   Mag2       ID
PGF   006.08 028.5 m E Pn      2013/03/08 09:08:05.1  -0.4                          T                                        5219288
PGF   006.08 028.5 m E Sn      2013/03/08 09:09:12.3   0.6                          T                 .9  .16 Ml 3.1         5219287
LMR   006.17 009.8 m E Pn      2013/03/08 09:08:06.7   0.2                          T                                        5219286
LMR   006.17 009.8 m E Sn      2013/03/08 09:09:13.4   0.0                          T                1.2  .19 Ml 2.9         5219285
MTLF  006.46 341.1 m E Pn      2013/03/08 09:08:10.5   0.1                          T                                        5219294
MTLF  006.46 341.1 m E Sn      2013/03/08 09:09:20.4  -0.1                          T                1.3  .34 Ml 2.7         5219293
SMRF  006.72 003.1 m E Pn      2013/03/08 09:08:14.2   0.1                          T                                        5219303
SMRF  006.72 003.1 m E Sn      2013/03/08 09:09:27.3   0.5                          T                 .2  .20 Ml 2.2         5219302
SBF   006.84 014.5 m E Pn      2013/03/08 09:08:15.8   0.0                          T                                        5219300
SBF   006.84 014.5 m E Sn      2013/03/08 09:09:29.4  -0.2                          T                1.2  .19 Ml 3.0         5219299
EPF   006.81 329.3 m E Pn      2013/03/08 09:08:15.9   0.5                          T                                        5219292
EPF   006.81 329.3 m E Sn      2013/03/08 09:09:28.2  -0.8                          T                1.7  .17 Ml 3.2         5219291
ETSF  007.10 324.3 m E Pn      2013/03/08 09:08:19.4   0.1                          T                                        5219290
ETSF  007.10 324.3 m E Sn      2013/03/08 09:09:35.3  -0.6                          T                1.7  .20 Ml 3.2         5219289
VIVF  007.60 357.8 m E Pn      2013/03/08 09:08:25.8  -0.3                          T                                        5219296
VIVF  007.60 357.8 m E Sn      2013/03/08 09:09:48.0   0.3                          T                 .7  .28 Ml 2.8         5219295
MBDF  007.57 009.2 m E Pn      2013/03/08 09:08:25.8  -0.1                          T                                        5219297
MBDF  007.57 009.2 m E Sn      2013/03/08 09:09:46.9  -0.3                          T                 .5  .27 Ml 2.6         5219301
ORIF  007.68 004.3 m E Pn      2013/03/08 09:08:27.2   0.0                          T                                        5219298

.
EVENT     293421
    Date      Time       Latitude Longitude    Depth    Ndef Nsta Gap    Mag1  N    Mag2  N    Mag3  N   Author         ID
       rms   OT_Error      Smajor Sminor Az        Err   mdist  Mdist     Err        Err        Err      Quality

2013/03/08 09:09:29.6     37.1083    5.0350      2.0      46   13 250  Ml 3.1 14                         bulletin    293521
                                                                                                         _ldg
      0.55   +-  0.30       6.0    3.1  157.37 +-  0.0    3.18   8.13   +-0.2                            m i ke

WESTERN MEDITERRANEAN SEA
Sta     Dist  EvAz     Phase      Date       Time     TRes  Azim  AzRes  Slow  SRes Def   SNR       Amp   Per   Mag1   Mag2       ID
PGF   006.23 028.1 m E Pn      2013/03/08 09:11:00.2  -0.2                          T                                        5219263
PGF   006.23 028.1 m E Sn      2013/03/08 09:12:08.3   0.2                          T                7.8  .35 Ml 3.7         5219262
LMR   006.32 009.8 m E Pn      2013/03/08 09:11:01.9   0.5                          T                                        5219259
LMR   006.32 009.8 m E Sn      2013/03/08 09:12:10.5   0.5                          T                 .9  .15 Ml 3.0         5219258
MTLF  006.59 341.8 m E Pn      2013/03/08 09:11:04.7  -0.4                          T                                        5219275
MTLF  006.59 341.8 m E Sn      2013/03/08 09:12:15.9  -0.6                          T                2.2  .37 Ml 3.0         5219274
FRF   006.56 010.3 m E Pn      2013/03/08 09:11:05.0   0.2                          T                                        5219257
FRF   006.56 010.3 m E Sn      2013/03/08 09:12:15.7  -0.1                          T                1.5  .21 Ml 3.1         5219256
EPF   006.92 330.1 m E Pn      2013/03/08 09:11:10.4   0.6                          T                                        5219273
EPF   006.92 330.1 m E Sn      2013/03/08 09:12:23.9  -0.6                          T                1.6  .22 Ml 3.1         5219272
LASF  007.02 353.0 m E Pn      2013/03/08 09:11:10.8  -0.3                          T                                        5219277
LASF  007.02 353.0 m E Sn      2013/03/08 09:12:26.9   0.1                          T                1.9  .39 Ml 3.0         5219276
SBF   006.99 014.4 m E Pn      2013/03/08 09:11:10.8   0.1                          T                                        5219261
SBF   006.99 014.4 m E Sn      2013/03/08 09:12:25.8  -0.4                          T                2.6  .18 Ml 3.4         5219260
ETSF  007.20 325.1 m E Pn      2013/03/08 09:11:14.3   0.7                          T                                        5219271
ETSF  007.20 325.1 m E P       2013/03/08 09:11:19.0   0.3                          T                                        5219270
SJPF  007.68 323.3 m E Pn      2013/03/08 09:11:19.3  -0.7                          T                                        5219268
SJPF  007.68 323.3 m E Sn      2013/03/08 09:12:43.2   0.7                          T                 .9  .24 Ml 2.9         5219269
MBDF  007.72 009.2 m E Pn      2013/03/08 09:11:20.3  -0.5                          T                                        5219254
MBDF  007.72 009.2 m E Sn      2013/03/08 09:12:42.7  -1.1                          T                1.6  .30 Ml 3.1         5219253
VIVF  007.75 358.1 m E Pn      2013/03/08 09:11:20.7  -0.2                          T                                        5219265
VIVF  007.75 358.1 m E Sn      2013/03/08 09:12:44.4   0.3                          T                1.1  .27 Ml 3.0         5219264
ORIF  007.83 004.4 m E Pn      2013/03/08 09:11:21.6  -0.6                          T                                        5219266
ORIF  007.83 004.4 m E Sn      2013/03/08 09:12:46.2   0.0                          T                1.3  .32 Ml 3.0         5219255
CAF   008.13 344.9 m E Pn      2013/03/08 09:11:26.8   0.7                          T                                        5219267

.
EVENT     293591
    Date      Time       Latitude Longitude    Depth    Ndef Nsta Gap    Mag1  N    Mag2  N    Mag3  N   Author         ID
       rms   OT_Error      Smajor Sminor Az        Err   mdist  Mdist     Err        Err        Err      Quality

2013/03/08 10:26:23.9     43.9307    7.1879       .0 f    34    8 084  Ml 1.8  6  Md 2.0  4              bulletin    293691
                                                                                                         _ldg
      0.57   +-  0.04        .8     .7   52.71 +-  0.0    0.17   2.03   +-0.2      +-0.1                 m i km

NEAR SOUTH COAST OF FRANCE
Sta     Dist  EvAz     Phase      Date       Time     TRes  Azim  AzRes  Slow  SRes Def   SNR       Amp   Per   Mag1   Mag2       ID
SBF   000.19 110.6 m E Pg      2013/03/08 10:26:28.0   0.0                          T                                        5221668
SBF   000.19 110.6 m E Sg      2013/03/08 10:26:31.0   0.1                          T                                Md 2.1  5221667
FRF   000.54 226.9 m E Pg      2013/03/08 10:26:34.5   0.1                          T                                        5221687
FRF   000.54 226.9 m E Sg      2013/03/08 10:26:41.8   0.1                          T                1.6  .15        Md 2.1  5221697
LMR   000.77 219.8 m E Pg      2013/03/08 10:26:38.7   0.0                          T                                        5221700
LMR   000.77 219.8 m E Sg      2013/03/08 10:26:48.8  -0.2                          T                1.5  .20        Md 2.0  5221698
MBDF  000.85 339.6 m E Pg      2013/03/08 10:26:40.5   0.2                          T                                        5221695
MBDF  000.85 339.6 m E Sg      2013/03/08 10:26:51.7   0.1                          T                 .9  .17        Md 1.9  5221694
SMRF  001.17 272.8 m E Pg      2013/03/08 10:26:45.7  -0.2                          T                                        5221689
SMRF  001.17 272.8 m E Sg      2013/03/08 10:27:01.4   0.2                          T                1.4  .11 Ml 2.0         5221696
ORIF  001.36 317.0 m E Pn      2013/03/08 10:26:48.8   0.1                          T                                        5221693
ORIF  001.36 317.0 m E Sn      2013/03/08 10:27:06.5  -0.1                          T                 .9  .19 Ml 1.6         5221692
PGF   001.91 135.6 m E Pn      2013/03/08 10:26:56.6   0.3                          T                                        5221686
PGF   001.91 135.6 m E Sn      2013/03/08 10:27:19.6  -0.2                          T                 .6  .21 Ml 1.9         5221699
VIVF  002.03 298.0 m E Pn      2013/03/08 10:26:57.6  -0.2                          T                                        5221691
VIVF  002.03 298.0 m E Sn      2013/03/08 10:27:22.6   0.2                          T                 .8  .25 Ml 1.7         5221690

.
EVENT     293449
    Date      Time       Latitude Longitude    Depth    Ndef Nsta Gap    Mag1  N    Mag2  N    Mag3  N   Author         ID
       rms   OT_Error      Smajor Sminor Az        Err   mdist  Mdist     Err        Err        Err      Quality

2013/03/08 11:23:54.2     37.1980    5.0084      2.0      13    5 313  Ml 2.7  6                         bulletin    293549
                                                                                                         _ldg
      1.04   +-  0.47       9.6    7.2  164.22 +-  0.0    6.16   6.91   +-0.2                            m i ke

WESTERN MEDITERRANEAN SEA
Sta     Dist  EvAz     Phase      Date       Time     TRes  Azim  AzRes  Slow  SRes Def   SNR       Amp   Per   Mag1   Mag2       ID
PGF   006.16 028.6 m E Pn      2013/03/08 11:25:23.9  -0.2                          T                                        5219404
PGF   006.16 028.6 m E Sn      2013/03/08 11:26:30.9   0.0                          T                 .7  .20 Ml 2.9         5219403
LMR   006.24 010.1 m E Pn      2013/03/08 11:25:25.5   0.6                          T                                        5219405
LMR   006.24 010.1 m E Sn      2013/03/08 11:26:32.9   0.4                          T                 .7  .19 Ml 2.7         5219409
MTLF  006.50 341.7 m E Pn      2013/03/08 11:25:28.2  -0.2                          T                                        5219406
FRF   006.48 010.6 m E Pn      2013/03/08 11:25:28.5   0.3                          T                                        5219408
FRF   006.48 010.6 m E Sn      2013/03/08 11:26:38.1  -0.2                          T                 .7  .21 Ml 2.7         5219407
SBF   006.91 014.8 m E Pn      2013/03/08 11:25:34.3   0.2                          T                                        5219402
SBF   006.91 014.8 m E Sn      2013/03/08 11:26:48.5  -0.3                          T                 .3  .16 Ml 2.4         5219401

.
