EVENT     271953
    Date      Time       Latitude Longitude    Depth    Ndef Nsta Gap    Mag1  N    Mag2  N    Mag3  N   Author         ID
       rms   OT_Error      Smajor Sminor Az        Err   mdist  Mdist     Err        Err        Err      Quality

2012/03/15 03:29:06.5     42.8917   13.3221      2.0     126   35 042  Ml 3.9 16                         js067245    271973

      1.19   +-  0.10       3.4    2.0   21.16 +-  0.0    0.23  74.53   +-0.3                            m i ke

CENTRAL ITALY
Sta     Dist  EvAz     Phase      Date       Time     TRes  Azim  AzRes  Slow  SRes Def   SNR       Amp   Per   Mag1   Mag2       ID
PGF   003.20 265.3 m E Pn      2012/03/15 03:29:56.3   0.3                          T   001.0                                4873614
PGF   003.20 265.3 m E Sn      2012/03/15 03:30:33.1   0.6                          T               28.1  .41 Ml 3.6         4882958
SBF   004.40 284.8 m E Pn      2012/03/15 03:30:12.9   0.6                          T   001.0                                4873615
SBF   004.40 284.8 m E Sn      2012/03/15 03:31:01.4   0.3                          T   001.0       39.3  .44 Ml 3.7         4873616
FRF   004.92 280.1 m E Pn      2012/03/15 03:30:19.4   0.1                          T   001.0                                4873604
FRF   004.92 280.1 m E Sn      2012/03/15 03:31:13.8   0.3                          T               26.2  .55 Ml 3.6         4882957
LMR   005.01 277.4 m E Pn      2012/03/15 03:30:19.9  -0.5                          T   001.0                                4873609
MBDF  005.08 293.4 m E Pn      2012/03/15 03:30:22.6   0.9                          T   001.0                                4873623
MBDF  005.08 293.4 m E Sn      2012/03/15 03:31:17.7   0.2                          T               43.2  .60 Ml 3.7         4882955
LPG   005.39 301.1 m E Pn      2012/03/15 03:30:27.9   1.8                          T   001.0                                4873611
LPG   005.39 301.1 m E Sn      2012/03/15 03:31:24.9  -0.2                          T               50.0  .64 Ml 3.9         4882956
LPL   005.41 301.2 m E Pn      2012/03/15 03:30:28.0   1.7                          T   001.0                                4873612
SMRF  005.74 283.5 m E Pn      2012/03/15 03:30:32.4   1.9                          T   001.0                                4873629
ORIF  005.75 293.2 m E Pn      2012/03/15 03:30:32.6   1.9                          T                                        4882959
CABF  006.35 308.3 m E Pn      2012/03/15 03:30:39.8   0.9                          T   001.0                                4873621
CABF  006.35 308.3 m E Sn      2012/03/15 03:31:48.9   1.1                          T               39.1  .75 Ml 3.9         4882954
VIVF  006.55 290.4 m E Pn      2012/03/15 03:30:42.9   1.4                          T   001.0                                4873628
HINF  006.71 319.5 m E Pn      2012/03/15 03:30:44.8   1.1                          T   001.0                                4873622
HINF  006.71 319.5 m E Sn      2012/03/15 03:31:56.4   0.1                          T              100.1  .65 Ml 4.4         4882953
LASF  006.99 283.0 m E Pn      2012/03/15 03:30:48.0   0.6                          T   001.0                                4873607
CDF   006.96 324.6 m E Pn      2012/03/15 03:30:48.6   1.5                          T   001.0                                4873602
CDF   006.96 324.6 m E Sn      2012/03/15 03:32:01.7  -0.5                          T               33.1  .47 Ml 4.2         4882949
HAU   007.08 318.6 m E Pn      2012/03/15 03:30:49.5   0.7                          T   001.0                                4873606
HAU   007.08 318.6 m E Sn      2012/03/15 03:32:04.6  -0.5                          T               70.7  .38 Ml 4.3         4882952
SMF   007.72 302.3 m E Pn      2012/03/15 03:30:58.5   1.1                          T   001.0                                4873617
SMF   007.72 302.3 m E Sn      2012/03/15 03:32:21.1   0.8                          T   001.0         15  .44 Ml 3.9         4873618
PAGF  007.76 319.4 m E Pn      2012/03/15 03:30:58.7   0.7                          T                                        4882966
PAGF  007.76 319.4 m E Sn      2012/03/15 03:32:20.4  -1.0                          T                8.7  .64 Ml 3.5         4882950
SFTF  007.87 315.3 m E Pn      2012/03/15 03:31:01.6   2.1 132.4  3.0               T                                        4882965
SFTF  007.87 315.3 m E Sn      2012/03/15 03:32:24.2   0.2                          T               21.4  .52 Ml 4.0         4882951
LOR   008.00 306.4 m E Pn      2012/03/15 03:31:01.0   0.8 127.4  7.7               T   001.0                                4873610
LOR   008.00 306.4 m E Sn      2012/03/15 03:32:27.0   0.0 137.2  17.5              T               23.7  .62 Ml 4.0         4882948
MEZF  008.06 317.0 m E Pn      2012/03/15 03:31:03.1   1.1 138.3  7.3               T   001.0                                4873624
MEZF  008.06 317.0 m E Sn      2012/03/15 03:32:27.6  -0.8 132.9  1.9               T   001.0         19  .52 Ml 4.0         4873625
AVF   008.08 302.2 m E Pn      2012/03/15 03:31:03.2   0.8                          T   001.0                                4873598
AVF   008.08 302.2 m E Sn      2012/03/15 03:32:29.1   0.0                          T   001.0         13  .80 Ml 3.6         4873599
SSF   008.11 304.3 m E Pn      2012/03/15 03:31:03.7   1.0                          T   001.0                                4873619
MTLF  008.14 276.9 m E Pn      2012/03/15 03:31:04.0   1.9                          T   001.0                                4873626
BGF   008.31 299.8 m E Pn      2012/03/15 03:31:06.4   1.0                          T                                        4882964
BGF   008.31 299.8 m E Sn      2012/03/15 03:32:34.2  -0.2                          T   001.0        8.1  .32 Ml 3.9         4873600
CAF   008.38 287.9 m E Pn      2012/03/15 03:31:07.5   1.1                          T   001.0                                4873601
TCF   008.63 297.0 m E Pn      2012/03/15 03:31:10.6   0.8                          T   001.0                                4873620
RJF   008.83 289.9 m E Pn      2012/03/15 03:31:14.6   2.1                          T                                        4882962
LFF   009.31 287.0 m E Pn      2012/03/15 03:31:21.0   2.0                          T   001.0                                4873608
GIVF  009.29 323.9 m E P       2012/03/15 03:31:24.2  -0.3                          T                                        4882968
BAIF  009.53 321.9 m E P       2012/03/15 03:31:26.9  -0.9                          T                                        4882967
EPF   009.52 275.2 m E P       2012/03/15 03:31:27.6  -0.2                          T                                        4882960
MFF   010.27 295.8 m E Pn      2012/03/15 03:31:33.5   1.3                          T   001.0                                4873613
ETSF  010.19 274.8 m E P       2012/03/15 03:31:37.0   0.0                          T                                        4882961
FLN   011.27 306.1 m E Pn      2012/03/15 03:31:45.7  -0.1 129.1  12.8              T   001.0                                4873603
GRR   011.34 303.9 m E Pn      2012/03/15 03:31:47.7   1.0                          T   001.0                                4873605

.
EVENT     271954
    Date      Time       Latitude Longitude    Depth    Ndef Nsta Gap    Mag1  N    Mag2  N    Mag3  N   Author         ID
       rms   OT_Error      Smajor Sminor Az        Err   mdist  Mdist     Err        Err        Err      Quality

2012/03/15 03:38:22.3     44.4977    6.6792      2.0      19    7 072  Ml 1.5  3  Md 1.6  1              js067245    271974

      0.46   +-  0.08       2.0    1.4   52.56 +-  0.0    0.10   1.17   +-0.3      +-                    m i ke

FRANCE
Sta     Dist  EvAz     Phase      Date       Time     TRes  Azim  AzRes  Slow  SRes Def   SNR       Amp   Per   Mag1   Mag2       ID
MBDF  000.24 016.0 m E Pg      2012/03/15 03:38:27.2   0.0                          T                                        4882973
MBDF  000.24 016.0 m E Sg      2012/03/15 03:38:30.8   0.4                          T                2.8  .17        Md 1.6  4882969
ORIF  000.71 306.7 m E Pg      2012/03/15 03:38:35.6  -0.1                          T                                        4882974
ORIF  000.71 306.7 m E Sg      2012/03/15 03:38:45.2   0.2                          T                2.0  .24                4882970
FRF   000.94 181.4 m E Pn      2012/03/15 03:38:40.6  -0.2                          T                                        4882976
FRF   000.94 181.4 m E Sg      2012/03/15 03:38:52.1   0.1                          T                1.8  .20 Ml 1.8         4882971
SMRF  000.95 237.1 m E Pn      2012/03/15 03:38:41.3   0.3                          T                                        4882975
SMRF  000.95 237.1 m E Sn      2012/03/15 03:38:53.6  -0.8                          T                                        4882977
SBF   000.84 139.1 m E Sg      2012/03/15 03:38:49.0   0.0                          T                                        4882978
LPG   001.00 002.9 m E Sg      2012/03/15 03:38:54.9   0.5                          T                 .8  .31 Ml 1.2         4882979
LMR   001.17 186.1 m E Sg      2012/03/15 03:38:59.5   0.2                          T                1.2  .23 Ml 1.6         4882972

.
EVENT     271955
    Date      Time       Latitude Longitude    Depth    Ndef Nsta Gap    Mag1  N    Mag2  N    Mag3  N   Author         ID
       rms   OT_Error      Smajor Sminor Az        Err   mdist  Mdist     Err        Err        Err      Quality

2012/03/15 05:31:33.6     44.4900    6.6986      2.0      27    9 074  Ml 1.3  6  Md 1.7  1              js067245    271975

      0.55   +-  0.07       1.6    1.2   68.60 +-  0.0    0.08   1.72   +-0.2      +-                    m i ke

FRANCE
Sta     Dist  EvAz     Phase      Date       Time     TRes  Azim  AzRes  Slow  SRes Def   SNR       Amp   Per   Mag1   Mag2       ID
MBDF  000.24 012.4 m E Pg      2012/03/15 05:31:38.9   0.3                          T                                        4882981
MBDF  000.24 012.4 m E Sg      2012/03/15 05:31:42.0   0.0                          T                7.1  .32        Md 1.7  4882980
ORIF  000.72 306.6 m E Pg      2012/03/15 05:31:47.3  -0.1                          T                                        4882984
ORIF  000.72 306.6 m E Sg      2012/03/15 05:31:56.7  -0.2                          T                1.5  .28                4882982
SMRF  000.96 237.9 m E Pn      2012/03/15 05:31:52.8   0.3                          T                                        4882983
SMRF  000.96 237.9 m E Sn      2012/03/15 05:32:05.3  -0.6                          T                 .8  .21 Ml 1.4         4882990
LPG   001.01 002.1 m E Pg      2012/03/15 05:31:52.9   0.0                          T                                        4882986
LPG   001.01 002.1 m E Sg      2012/03/15 05:32:06.5   0.5                          T                 .6  .24 Ml 1.2         4882989
LPL   001.03 001.3 m E Pg      2012/03/15 05:31:53.3   0.1                          T                                        4882985
LPL   001.03 001.3 m E Sg      2012/03/15 05:32:06.7   0.2                          T                 .5  .25 Ml 1.1         4882988
LMR   001.16 186.8 m E P       2012/03/15 05:31:56.7  -0.3                          T                                        4882987
LMR   001.16 186.8 m E Sg      2012/03/15 05:32:10.9   0.5                          T                1.1  .23 Ml 1.6         4882992
SBF   000.82 139.5 m E Sg      2012/03/15 05:32:00.4   0.5                          T                1.0  .20                4882993
FRF   000.93 182.3 m E Sg      2012/03/15 05:32:03.5   0.4                          T                 .6  .21 Ml 1.3         4882991
VIVF  001.49 284.9 m E Sg      2012/03/15 05:32:20.7  -0.1                          T                 .3  .23 Ml 1.2         4882994

.
EVENT     271956
    Date      Time       Latitude Longitude    Depth    Ndef Nsta Gap    Mag1  N    Mag2  N    Mag3  N   Author         ID
       rms   OT_Error      Smajor Sminor Az        Err   mdist  Mdist     Err        Err        Err      Quality

2012/03/15 05:47:42.9     44.4931    6.6950      2.0      37    9 056  Ml 1.7  6  Md 2.1  1              js067245    271976

      0.44   +-  0.06       1.3    1.0   64.41 +-  0.0    0.09   1.49   +-0.2      +-                    m i ke

FRANCE
Sta     Dist  EvAz     Phase      Date       Time     TRes  Azim  AzRes  Slow  SRes Def   SNR       Amp   Per   Mag1   Mag2       ID
MBDF  000.24 013.1 m E Pg      2012/03/15 05:47:48.0   0.2                          T                                        4882997
MBDF  000.24 013.1 m E Sg      2012/03/15 05:47:51.1   0.0                          T               11.1  .28        Md 2.1  4883011
ORIF  000.72 306.5 m E Pg      2012/03/15 05:47:56.5  -0.1                          T                                        4882996
ORIF  000.72 306.5 m E Sg      2012/03/15 05:48:05.9  -0.1                          T                2.9  .26                4883010
SBF   000.82 139.5 m E Pg      2012/03/15 05:47:59.3   0.8                          T                                        4883003
SBF   000.82 139.5 m E Sg      2012/03/15 05:48:10.0   0.8                          T                1.3  .17                4883004
FRF   000.93 182.2 m E Pg      2012/03/15 05:48:00.6   0.2                          T                                        4883001
FRF   000.93 182.2 m E Sg      2012/03/15 05:48:12.7   0.2                          T                1.9  .20 Ml 1.8         4883006
LPG   001.01 002.3 m E Pg      2012/03/15 05:48:02.0   0.0                          T                                        4882999
LPG   001.01 002.3 m E Sg      2012/03/15 05:48:15.7   0.6                          T                1.1  .22 Ml 1.5         4883008
SMRF  000.96 237.7 m E Pn      2012/03/15 05:48:02.1   0.4                          T                                        4883000
SMRF  000.96 237.7 m E Sn      2012/03/15 05:48:14.6  -0.6                          T                3.3  .34 Ml 1.8         4883007
LPL   001.02 001.5 m E Pg      2012/03/15 05:48:02.5   0.2                          T                                        4882998
LPL   001.02 001.5 m E Sg      2012/03/15 05:48:15.9   0.3                          T                1.0  .25 Ml 1.4         4883009
LMR   001.17 186.7 m E P       2012/03/15 05:48:05.7  -0.5                          T                                        4883002
LMR   001.17 186.7 m E Sg      2012/03/15 05:48:20.1   0.3                          T                2.5  .20 Ml 2.0         4883005
VIVF  001.49 284.8 m E Sg      2012/03/15 05:48:29.7  -0.1                          T                1.2  .30 Ml 1.6         4883012

.
EVENT     271957
    Date      Time       Latitude Longitude    Depth    Ndef Nsta Gap    Mag1  N    Mag2  N    Mag3  N   Author         ID
       rms   OT_Error      Smajor Sminor Az        Err   mdist  Mdist     Err        Err        Err      Quality

2012/03/15 10:00:18.9     44.5012    6.6753      4.0 f    39    9 056  Ml 2.2  6  Md 2.4  1              js067245    271977

      0.43   +-  0.06       1.3     .9   49.45 +-  0.0    0.10   1.47   +-0.2      +-                    m i ke

FRANCE
Sta     Dist  EvAz     Phase      Date       Time     TRes  Azim  AzRes  Slow  SRes Def   SNR       Amp   Per   Mag1   Mag2       ID
MBDF  000.24 016.9 m E Pg      2012/03/15 10:00:23.8  -0.1                          T                                        4883015
MBDF  000.24 016.9 m E Sg      2012/03/15 10:00:27.0  -0.2                          T               25.2  .27        Md 2.4  4883030
ORIF  000.70 306.6 m E Pg      2012/03/15 10:00:32.3   0.0                          T                                        4883014
ORIF  000.70 306.6 m E Sg      2012/03/15 10:00:41.4  -0.1                          T               11.0  .26                4883029
SBF   000.84 139.1 m E Pg      2012/03/15 10:00:35.1   0.3                          T                                        4883022
SBF   000.84 139.1 m E Sg      2012/03/15 10:00:45.6  -0.2                          T                8.5  .28                4883023
FRF   000.94 181.3 m E Pn      2012/03/15 10:00:37.1  -0.2                          T                                        4883020
FRF   000.94 181.3 m E Sg      2012/03/15 10:00:48.9   0.0                          T               12.3  .20 Ml 2.6         4883025
SMRF  000.95 236.8 m E Pn      2012/03/15 10:00:37.6   0.1                          T                                        4883019
SMRF  000.95 236.8 m E Sn      2012/03/15 10:00:50.1  -0.6                          T                6.0  .26 Ml 2.2         4883026
LPG   001.00 003.1 m E Pg      2012/03/15 10:00:37.8  -0.2                          T                                        4883018
LPG   001.00 003.1 m E Sg      2012/03/15 10:00:51.2   0.3                          T                4.8  .26 Ml 2.1         4883027
LPL   001.02 002.3 m E Pg      2012/03/15 10:00:38.3   0.0                          T                                        4883016
LPL   001.02 002.3 m E Sg      2012/03/15 10:00:51.6   0.2                          T                3.7  .24 Ml 2.0         4883028
LMR   001.17 185.9 m E P       2012/03/15 10:00:41.7  -0.4                          T                                        4883021
LMR   001.17 185.9 m E Sg      2012/03/15 10:00:56.2   0.1                          T                7.6  .22 Ml 2.4         4883024
VIVF  001.47 284.7 m E Pg      2012/03/15 10:00:46.0  -0.4                          T                                        4883017
VIVF  001.47 284.7 m E Sg      2012/03/15 10:01:05.5   0.1                          T                3.4  .32 Ml 2.1         4883031

.
