EVENT     267927
    Date      Time       Latitude Longitude    Depth    Ndef Nsta Gap    Mag1  N    Mag2  N    Mag3  N   Author         ID
       rms   OT_Error      Smajor Sminor Az        Err   mdist  Mdist     Err        Err        Err      Quality

2011/12/30 17:51:22.1     44.4111    6.8440      2.0      34    9 052  Ml 1.7  7  Md 1.8  1              js067245    267947

      0.21   +-  0.04        .8     .6   62.39 +-  0.0    0.21   1.61   +-0.3      +-                    m i ke

FRANCE
Sta     Dist  EvAz     Phase      Date       Time     TRes  Azim  AzRes  Slow  SRes Def   SNR       Amp   Per   Mag1   Mag2       ID
MBDF  000.32 350.7 m E Pg      2011/12/30 17:51:28.7   0.2                          T                                        4808518
MBDF  000.32 350.7 m E Sg      2011/12/30 17:51:32.9   0.1                          T                7.8  .22        Md 1.8  4808519
SBF   000.69 141.9 m E Pg      2011/12/30 17:51:35.3   0.0                          T                                        4808511
SBF   000.69 141.9 m E Sg      2011/12/30 17:51:44.2  -0.2                          T                7.2  .23                4808509
ORIF  000.85 306.7 m E Pg      2011/12/30 17:51:38.1  -0.2                          T                                        4808517
ORIF  000.85 306.7 m E Sg      2011/12/30 17:51:49.5   0.1                          T                4.1  .32 Ml 1.9         4808502
FRF   000.86 189.6 m E Pg      2011/12/30 17:51:38.5   0.2                          T                                        4808513
FRF   000.86 189.6 m E Sg      2011/12/30 17:51:49.4  -0.2                          T                3.4  .24 Ml 1.9         4808506
FRF   000.86 189.6 m E S       2011/12/30 17:51:54.3  -0.2                          T                                        4808507
SMRF  001.01 245.0 m E Pn      2011/12/30 17:51:42.1   0.4                          T                                        4808514
SMRF  001.01 245.0 m E Sn      2011/12/30 17:51:55.7   0.0                          T                4.0  .31 Ml 1.9         4808505
LPG   001.09 356.6 m E Pg      2011/12/30 17:51:42.7  -0.2                          T                                        4808515
LPG   001.09 356.6 m E Sg      2011/12/30 17:51:56.9   0.0                          T                 .8  .28 Ml 1.3         4808504
LMR   001.10 192.8 m E Pg      2011/12/30 17:51:42.7   0.0                          T                                        4808512
LMR   001.10 192.8 m E Sn      2011/12/30 17:51:57.7  -0.1                          T                4.4  .24 Ml 2.1         4808508
LPL   001.11 355.9 m E Pg      2011/12/30 17:51:43.2   0.1                          T                                        4808516
LPL   001.11 355.9 m E Sg      2011/12/30 17:51:57.4  -0.1                          T                 .9  .25 Ml 1.4         4808503
VIVF  001.61 286.8 m E Pg      2011/12/30 17:51:52.0  -0.2                          T                                        4808510
VIVF  001.61 286.8 m E Sg      2011/12/30 17:52:12.9  -0.1                          T                 .5  .24 Ml 1.4         4808501

.
EVENT     267928
    Date      Time       Latitude Longitude    Depth    Ndef Nsta Gap    Mag1  N    Mag2  N    Mag3  N   Author         ID
       rms   OT_Error      Smajor Sminor Az        Err   mdist  Mdist     Err        Err        Err      Quality

2011/12/30 23:21:27.3     44.4133    7.2728      3.0 f    64   13 035  Ml 2.6 11  Md 2.4  2              js067245    267948

      0.76   +-  0.06       1.6    1.1   56.09 +-  0.0    0.09   3.64   +-0.4      +-0.0                 m i ke

NORTHERN ITALY
Sta     Dist  EvAz     Phase      Date       Time     TRes  Azim  AzRes  Slow  SRes Def   SNR       Amp   Per   Mag1   Mag2       ID
MBDF  000.48 311.4 m E Pg      2011/12/30 23:21:36.4  -0.2                          T   001.0                                4805943
MBDF  000.48 311.4 m E Sg      2011/12/30 23:21:42.9   0.0                          T   001.0      105.5  .24        Md 2.4  4805944
SBF   000.56 167.9 m E Pg      2011/12/30 23:21:38.1   0.0                          T   001.0                                4805938
SBF   000.56 167.9 m E Sg      2011/12/30 23:21:45.4  -0.1                          T   001.0       28.3  .16        Md 2.4  4805939
FRF   000.96 208.1 m E Pg      2011/12/30 23:21:45.3  -0.1                          T   001.0                                4805928
FRF   000.96 208.1 m E Pn      2011/12/30 23:21:46.1   0.0                          T   001.0                                4805929
FRF   000.96 208.1 m E Sg      2011/12/30 23:21:57.9   0.0                          T   001.0       45.7  .20 Ml 3.2         4805930
ORIF  001.11 297.4 m E Pg      2011/12/30 23:21:48.1  -0.1                          T                                        4808555
ORIF  001.11 297.4 m E Sg      2011/12/30 23:22:02.6  -0.1                          T               15.0  .28 Ml 2.6         4808553
LPG   001.15 341.3 m E Pn      2011/12/30 23:21:48.2  -0.8                          T   001.0                                4805933
LPG   001.15 341.3 m E Sg      2011/12/30 23:22:03.9   0.0                          T               13.0  .22 Ml 2.7         4808551
LPL   001.17 341.0 m E Pn      2011/12/30 23:21:48.5  -0.6                          T   001.0                                4805935
LPL   001.17 341.0 m E Sg      2011/12/30 23:22:04.5   0.0                          T               24.2  .34 Ml 2.7         4808552
LMR   001.21 207.4 m E Pn      2011/12/30 23:21:49.5   0.0                          T   001.0                                4805931
LMR   001.21 207.4 m E Pg      2011/12/30 23:21:49.8  -0.1                          T                                        4808554
LMR   001.21 207.4 m E Sn      2011/12/30 23:22:05.4   0.0                          T   001.0       53.5  .22 Ml 3.3         4805932
SMRF  001.30 250.9 m E Pg      2011/12/30 23:21:52.0   0.4                          T   001.0                                4805948
SMRF  001.30 250.9 m E Sg      2011/12/30 23:22:08.4   0.1                          T   001.0       26.6  .37 Ml 2.8         4805950
VIVF  001.91 284.3 m E P       2011/12/30 23:22:00.7  -0.4                          T   001.0                                4805946
VIVF  001.91 284.3 m E Sn      2011/12/30 23:22:22.3   0.2                          T   001.0        2.9  .28 Ml 2.2         4805947
VIVF  001.91 284.3 m E Sg      2011/12/30 23:22:27.4   0.0                          T                2.1  .26 Ml 2.1         4808550
PGF   002.25 145.4 m E Pn      2011/12/30 23:22:03.3  -0.4                          T   001.0                                4805936
PGF   002.25 145.4 m E Sn      2011/12/30 23:22:28.7  -1.6                          T   001.0        2.7  .23 Ml 2.6         4805937
CABF  002.35 339.7 m E Pn      2011/12/30 23:22:06.0   0.9                          T   001.0                                4805941
CABF  002.35 339.7 m E Sn      2011/12/30 23:22:34.6   1.8                          T   001.0          7  .72 Ml 2.3         4805942
SMF   003.29 314.0 m E Pn      2011/12/30 23:22:18.8   1.1                          T   001.0                                4805940
AVF   003.64 312.2 m E Pn      2011/12/30 23:22:23.5   1.1                          T   001.0                                4805927

.
EVENT     267935
    Date      Time       Latitude Longitude    Depth    Ndef Nsta Gap    Mag1  N    Mag2  N    Mag3  N   Author         ID
       rms   OT_Error      Smajor Sminor Az        Err   mdist  Mdist     Err        Err        Err      Quality

2011/12/31 03:24:10.7     42.8561     .4883      2.0      38    5 045  Ml 2.0  4  Md 2.2  1              js067245    267955

      0.45   +-  0.06       1.3    1.0   22.30 +-  0.0    0.12   2.78   +-0.1      +-                    m i ke

PYRENEES
Sta     Dist  EvAz     Phase      Date       Time     TRes  Azim  AzRes  Slow  SRes Def   SNR       Amp   Per   Mag1   Mag2       ID
EPF   000.21 328.0 m E Pg      2011/12/31 03:24:15.1   0.2                          T                                        4808615
EPF   000.21 328.0 m E Sg      2011/12/31 03:24:18.1   0.4                          T               33.8  .18        Md 2.2  4808616
MTLF  001.36 068.5 m E Pg      2011/12/31 03:24:35.8  -0.2                          T                                        4808613
MTLF  001.36 068.5 m E Sg      2011/12/31 03:24:53.4  -0.1                          T                1.6  .20 Ml 1.9         4808614
LFF   002.09 004.9 m E Pg      2011/12/31 03:24:49.4  -0.1                          T                                        4808608
LFF   002.09 004.9 m E Sg      2011/12/31 03:25:16.3  -0.1                          T                2.4  .22 Ml 2.1         4808611
RJF   002.56 016.5 m E Pg      2011/12/31 03:24:57.7  -0.4                          T                                        4808609
RJF   002.56 016.5 m E Sg      2011/12/31 03:25:30.7  -0.4                          T                2.9  .26 Ml 2.0         4808612
LASF  002.74 062.4 m E Sg      2011/12/31 03:25:36.6  -0.1                          T                 .5  .17 Ml 1.8         4808610

.
EVENT     267934
    Date      Time       Latitude Longitude    Depth    Ndef Nsta Gap    Mag1  N    Mag2  N    Mag3  N   Author         ID
       rms   OT_Error      Smajor Sminor Az        Err   mdist  Mdist     Err        Err        Err      Quality

2011/12/31 03:32:52.7     43.2458   -1.2188      2.0      26    5 128  Ml 1.9  5  Md 2.4  1              js067245    267954

      0.68   +-  0.15       2.8    2.0  130.45 +-  0.0    0.36   3.08   +-0.2      +-                    m i ke

PYRENEES
Sta     Dist  EvAz     Phase      Date       Time     TRes  Azim  AzRes  Slow  SRes Def   SNR       Amp   Per   Mag1   Mag2       ID
EPF   001.16 100.2 m E Pg      2011/12/31 03:33:13.9  -0.6                          T                                        4808626
EPF   001.16 100.2 m E Sg      2011/12/31 03:33:29.4  -0.1                          T                2.2  .21 Ml 1.9 Md 2.4  4808627
MTLF  002.51 086.7 m E Pn      2011/12/31 03:33:32.8   0.1                          T                                        4808618
MTLF  002.51 086.7 m E Pg      2011/12/31 03:33:39.5   0.2                          T                                        4808617
MTLF  002.51 086.7 m E Sg      2011/12/31 03:34:11.8   0.2                          T                1.2  .30 Ml 1.9         4808622
LFF   002.20 039.1 m E Pg      2011/12/31 03:33:33.5  -0.1                          T                                        4808620
LFF   002.20 039.1 m E Sg      2011/12/31 03:34:02.1   0.1                          T                3.0  .31 Ml 2.1         4808625
RJF   002.85 042.7 m E Pg      2011/12/31 03:33:45.5   0.1                          T                                        4808621
RJF   002.85 042.7 m E Sg      2011/12/31 03:34:22.5   0.5                          T                 .9  .21 Ml 1.7         4808623
CAF   002.90 053.5 m E Pg      2011/12/31 03:33:46.6   0.1                          T                                        4808619
CAF   002.90 053.5 m E Sg      2011/12/31 03:34:24.4   0.6                          T                1.1  .22 Ml 2.1         4808624

.
EVENT     267936
    Date      Time       Latitude Longitude    Depth    Ndef Nsta Gap    Mag1  N    Mag2  N    Mag3  N   Author         ID
       rms   OT_Error      Smajor Sminor Az        Err   mdist  Mdist     Err        Err        Err      Quality

2011/12/31 04:32:49.8     43.9264   11.8241      2.0      70   25 095  Ml 3.4 20                         js067245    267956

      1.07   +-  0.09       2.3    1.8   55.57 +-  0.0    0.03   7.10   +-0.3                            m i ke

CENTRAL ITALY
Sta     Dist  EvAz     Phase      Date       Time     TRes  Azim  AzRes  Slow  SRes Def   SNR       Amp   Per   Mag1   Mag2       ID
PGF   002.48 237.3 m E Pn      2011/12/31 04:33:28.9  -0.6                          T   001.0                                4806240
PGF   002.48 237.3 m E Sn      2011/12/31 04:33:58.0  -0.6                          T   001.0       23.6  .32 Ml 3.4         4806241
SBF   003.17 270.4 m E Pn      2011/12/31 04:33:38.6  -0.3                          T   001.0                                4806242
SBF   003.17 270.4 m E Pg      2011/12/31 04:33:49.4   0.8                          T   001.0                                4806243
SBF   003.17 270.4 m E Sn      2011/12/31 04:34:15.0  -0.1                          T   001.0       46.4  .40 Ml 3.5         4806244
MBDF  003.71 284.2 m E Pn      2011/12/31 04:33:46.4   0.0                          T                                        4808652
MBDF  003.71 284.2 m E P       2011/12/31 04:33:50.0   0.3                          T                                        4808651
MBDF  003.71 284.2 m E Sn      2011/12/31 04:34:29.1   1.0                          T               23.7  .53 Ml 3.2         4808650
FRF   003.77 266.2 m E Pn      2011/12/31 04:33:47.1   0.2                          T   001.0                                4806229
FRF   003.77 266.2 m E Sn      2011/12/31 04:34:29.1  -0.1                          T               13.8  .33 Ml 3.3         4808631
LMR   003.90 263.1 m E Pn      2011/12/31 04:33:47.6  -1.1                          T   001.0                                4806232
LMR   003.90 263.1 m E Sn      2011/12/31 04:34:32.3  -0.2                          T   001.0        4.7  .28 Ml 2.9         4806233
LPL   003.96 295.4 m E Pn      2011/12/31 04:33:49.5  -0.3                          T   001.0                                4806238
LPL   003.96 295.4 m E Sn      2011/12/31 04:34:34.4   0.3                          T   001.0       18.8  .48 Ml 3.2         4806239
LPG   003.94 295.2 m E Pn      2011/12/31 04:33:50.0   0.4                          T   001.0                                4806236
LPG   003.94 295.2 m E Sn      2011/12/31 04:34:34.0   0.2                          T   001.0       11.1  .32 Ml 3.2         4806237
ORIF  004.37 285.2 m E Pn      2011/12/31 04:33:55.4   0.1                          T   001.0                                4806251
ORIF  004.37 285.2 m E P       2011/12/31 04:33:58.9  -0.1                          T                                        4808653
ORIF  004.37 285.2 m E Sn      2011/12/31 04:34:43.8   0.1                          T                9.2  .41 Ml 3.1         4808632
SMRF  004.51 272.8 m E Pn      2011/12/31 04:33:57.3   0.2                          T   001.0                                4806252
SMRF  004.51 272.8 m E P       2011/12/31 04:34:01.1   0.2                          T                                        4808654
SMRF  004.51 272.8 m E Sn      2011/12/31 04:34:48.2   1.1                          T   001.0        4.5  .33 Ml 2.9         4806253
CABF  004.86 305.5 m E Pn      2011/12/31 04:34:02.3   0.4                          T   001.0                                4806248
CABF  004.86 305.5 m E Sn      2011/12/31 04:34:55.1  -0.3                          T               11.7  .50 Ml 3.2         4808635
VIVF  005.21 282.8 m E P       2011/12/31 04:34:10.1  -0.6                          T                                        4808649
CDF   005.49 326.5 m E Pn      2011/12/31 04:34:10.7   0.3                          T   001.0                                4806228
CDF   005.49 326.5 m E Sn      2011/12/31 04:35:09.4  -1.0                          T               22.3  .40 Ml 3.8         4808640
HAU   005.59 318.8 m E Pn      2011/12/31 04:34:12.0   0.3                          T   001.0                                4806230
HAU   005.59 318.8 m E Sn      2011/12/31 04:35:11.5  -1.2                          T   001.0       53.5  .40 Ml 3.9         4806231
LANF  005.77 332.6 m E Pn      2011/12/31 04:34:14.9   0.8                          T                                        4808642
THEF  005.91 318.7 m E Pn      2011/12/31 04:34:16.3   0.2                          T                                        4808646
THEF  005.91 318.7 m E Sn      2011/12/31 04:35:19.9  -0.5                          T               11.5  .30 Ml 3.7         4808636
SMF   006.25 298.5 m E Pn      2011/12/31 04:34:21.5   0.7                          T   001.0                                4806245
SMF   006.25 298.5 m E Sn      2011/12/31 04:35:28.9   0.3                          T                8.3  .38 Ml 3.5         4808634
SFTF  006.37 314.6 m E Pn      2011/12/31 04:34:22.9   0.6 142.0  12.3              T                                        4808645
SFTF  006.37 314.6 m E Sn      2011/12/31 04:35:31.0  -0.4                          T                7.7  .33 Ml 3.5         4808637
PAGF  006.27 319.7 m E P       2011/12/31 04:34:24.0  -1.7 123.5  -11.9             T                                        4808643
PAGF  006.27 319.7 m E Sn      2011/12/31 04:35:28.5  -0.5                          T                6.6  .62 Ml 3.2         4808639
MEZF  006.56 316.6 m E Pn      2011/12/31 04:34:24.2  -0.6                          T                                        4808644
MEZF  006.56 316.6 m E P       2011/12/31 04:34:28.2  -1.5 131.9  0.1               T   001.0                                4806249
MEZF  006.56 316.6 m E Sn      2011/12/31 04:35:35.4  -0.5                          T                7.7  .37 Ml 3.5         4808638
LOR   006.51 303.7 m E Pn      2011/12/31 04:34:25.1   0.8 124.8  6.9               T   001.0                                4806234
LOR   006.51 303.7 m E Sn      2011/12/31 04:35:35.1   0.4                          T   001.0       16.1  .44 Ml 3.8         4806235
AVF   006.62 298.6 m E Pn      2011/12/31 04:34:26.1   0.4                          T   001.0                                4806226
SSF   006.63 301.1 m E Pn      2011/12/31 04:34:26.6   0.6                          T   001.0                                4806246
SSF   006.63 301.1 m E Sn      2011/12/31 04:35:38.1   0.4                          T                3.6  .35 Ml 3.3         4808641
BGF   006.86 295.7 m E Pn      2011/12/31 04:34:28.9  -0.2                          T   001.0                                4806227
BGF   006.86 295.7 m E Sn      2011/12/31 04:35:43.7   0.5                          T                6.6  .34 Ml 3.5         4808633
MTLF  007.00 268.5 m E Pn      2011/12/31 04:34:31.1   0.2                          T   001.0                                4806250
CAF   007.06 281.5 m E Pn      2011/12/31 04:34:31.9   0.2                          T                                        4808648

.
