EVENT     255603
    Date      Time       Latitude Longitude    Depth    Ndef Nsta Gap    Mag1  N    Mag2  N    Mag3  N   Author         ID
       rms   OT_Error      Smajor Sminor Az        Err   mdist  Mdist     Err        Err        Err      Quality

2011/02/03 18:51:08.4     46.8649   -1.0093      2.0      36   14 159  Ml 2.2 16  Md 2.3  2              js067245    255623

      1.04   +-  0.08       2.1    1.0   44.60 +-  0.0    0.65   3.35   +-0.2      +-0.0                 m i ke

FRANCE
Sta     Dist  EvAz     Phase      Date       Time     TRes  Azim  AzRes  Slow  SRes Def   SNR       Amp   Per   Mag1   Mag2       ID
MFF   000.65 113.6 m E Pg      2011/02/03 18:51:20.9   0.2                          T                                        4642784
MFF   000.65 113.6 m E Sg      2011/02/03 18:51:29.1  -0.1                          T                                Md 2.3  4642783
GRR   001.53 003.8 m E Pg      2011/02/03 18:51:37.0   0.1                          T                                        4642763
GRR   001.53 003.8 m E Sg      2011/02/03 18:51:56.5  -0.1                          T                7.8  .37 Ml 2.2 Md 2.3  4642782
SGMF  001.74 323.5 m E Pg      2011/02/03 18:51:40.8   0.0                          T                                        4642767
SGMF  001.74 323.5 m E Sg      2011/02/03 18:52:03.4   0.2                          T                2.4  .24 Ml 2.1         4642779
QUIF  001.80 306.5 m E Pg      2011/02/03 18:51:42.1   0.1                          T                                        4642766
QUIF  001.80 306.5 m E Sg      2011/02/03 18:52:05.0  -0.2                          T                2.9  .27 Ml 2.2         4642778
LDF   001.83 018.8 m E Pg      2011/02/03 18:51:42.1  -0.4                          T                                        4642764
LDF   001.83 018.8 m E Sg      2011/02/03 18:52:05.9  -0.2                          T                4.8  .33 Ml 2.3         4642781
FLN   001.93 010.4 m E Pg      2011/02/03 18:51:43.9  -0.5 178.1  -12.7             T                                        4642765
FLN   001.93 010.4 m E Sg      2011/02/03 18:52:09.2   0.0 204.6  13.8              T                5.0  .38 Ml 2.2         4642780
LFF   002.28 147.0 m E Pn      2011/02/03 18:51:45.3   0.1                          T                                        4642755
LFF   002.28 147.0 m E Pg      2011/02/03 18:51:50.2  -0.5                          T                                        4642761
LFF   002.28 147.0 m E Sg      2011/02/03 18:52:20.2   0.1                          T                3.3  .33 Ml 2.1         4642758
TCF   002.29 103.4 m E Pn      2011/02/03 18:51:45.6   0.1                          T                                        4642774
TCF   002.29 103.4 m E Sn      2011/02/03 18:52:12.6   0.0                          T                4.6  .29 Ml 2.5         4642775
RJF   002.35 130.7 m E Pn      2011/02/03 18:51:46.3   0.0                          T                                        4642756
RJF   002.35 130.7 m E Pg      2011/02/03 18:51:51.9  -0.2                          T                                        4642762
RJF   002.35 130.7 m E Sg      2011/02/03 18:52:22.5   0.1                          T                3.8  .24 Ml 2.1         4642757
ROSF  002.12 314.7 m E Pg      2011/02/03 18:51:47.9   0.0                          T                                        4642754
ROSF  002.12 314.7 m E Sg      2011/02/03 18:52:15.3   0.0                          T                2.8  .22 Ml 2.3         4642753
BGF   002.67 095.2 m E Pn      2011/02/03 18:51:50.6   0.0                          T                                        4642769
BGF   002.67 095.2 m E Sg      2011/02/03 18:52:32.5   0.2                          T                4.1  .33 Ml 2.4         4642776
SSF   003.10 084.7 m E Pn      2011/02/03 18:51:56.5   0.1                          T                                        4642770
SSF   003.10 084.7 m E Sg      2011/02/03 18:52:45.6   0.0                          T                 .9  .36 Ml 1.9         4642771
LOR   003.35 081.3 m E Pn      2011/02/03 18:52:00.1   0.2                          T                                        4642773
LOR   003.35 081.3 m E Sg      2011/02/03 18:52:53.6   0.0                          T                1.5  .33 Ml 2.2         4642772
CAF   002.89 131.0 m E Pg      2011/02/03 18:52:01.8  -0.3                          T                                        4642760
CAF   002.89 131.0 m E Sg      2011/02/03 18:52:39.5   0.2                          T                1.6  .29 Ml 2.2         4642759

.
EVENT     255604
    Date      Time       Latitude Longitude    Depth    Ndef Nsta Gap    Mag1  N    Mag2  N    Mag3  N   Author         ID
       rms   OT_Error      Smajor Sminor Az        Err   mdist  Mdist     Err        Err        Err      Quality

2011/02/03 23:22:51.3     37.0055  -10.3505     30.0 f    87   11 265  Ml 3.6  8                         js067245    255624

      0.51   +-  0.17       3.3    2.2   45.54 +-  0.0    1.23  13.79   +-0.3                            m i ke

NORTH ATLANTIC OCEAN
Sta     Dist  EvAz     Phase      Date       Time     TRes  Azim  AzRes  Slow  SRes Def   SNR       Amp   Per   Mag1   Mag2       ID
EVOP  002.33 048.6 m E Pn      2011/02/03 23:23:26.4   0.2                          T                                        4642786
EVOP  002.33 048.6 m E Sn      2011/02/03 23:23:52.1  -0.1                          T              149.7  .20 Ml 4.2         4642785
SJPF  009.28 046.1 m E Pn      2011/02/03 23:25:01.5   0.7                          T                                        4642800
SJPF  009.28 046.1 m E Sn      2011/02/03 23:26:37.4  -0.8                          T                2.7  .26 Ml 3.6         4642789
ETSF  009.54 048.9 m E Pn      2011/02/03 23:25:05.4   0.9                          T                                        4642799
ETSF  009.54 048.9 m E Sn      2011/02/03 23:26:44.0  -0.5                          T                2.3  .38 Ml 3.4         4642788
EPF   010.17 050.4 m E Pn      2011/02/03 23:25:14.0   1.1                          T                                        4642798
EPF   010.17 050.4 m E Sn      2011/02/03 23:26:58.7  -0.7                          T                7.5  .63 Ml 3.8         4642787
LFF   011.53 043.1 m E Pn      2011/02/03 23:25:31.5   0.2                          T                                        4642796
LFF   011.53 043.1 m E Sn      2011/02/03 23:27:31.2  -0.6                          T                2.1  .38 Ml 3.5         4642791
QUIF  012.12 023.6 m E Pn      2011/02/03 23:25:39.2  -0.2                          T                                        4642982
QUIF  012.12 023.6 m E P       2011/02/03 23:25:44.8  -0.1                          T                                        4642983
RJF   012.18 043.4 m E Pn      2011/02/03 23:25:40.2  -0.2                          T                                        4642797
RJF   012.18 043.4 m E Sn      2011/02/03 23:27:47.5   0.0                          T                1.5  .27 Ml 3.4         4642792
CAF   012.26 046.0 m E Pn      2011/02/03 23:25:40.2  -1.3                          T                                        4642795
CAF   012.26 046.0 m E Sn      2011/02/03 23:27:48.9  -0.6                          T                2.8  .58 Ml 3.7         4642790
MFF   012.23 035.2 m E Pn      2011/02/03 23:25:40.5  -0.5                          T                                        4642794
MFF   012.23 035.2 m E Sn      2011/02/03 23:27:48.2  -0.4                          T                 .4  .25 Ml 3.4         4642793
ROSF  012.46 022.4 m E Pn      2011/02/03 23:25:44.6   0.6                          T                                        4642984
LDF   013.79 029.7 m E Pn      2011/02/03 23:26:02.1  -0.1                          T                                        4642981

.
EVENT     255606
    Date      Time       Latitude Longitude    Depth    Ndef Nsta Gap    Mag1  N    Mag2  N    Mag3  N   Author         ID
       rms   OT_Error      Smajor Sminor Az        Err   mdist  Mdist     Err        Err        Err      Quality

2011/02/04 01:23:07.7     44.5158    6.9913      2.0      18    8 163  Ml 1.3  7  Md 1.3  2              js067245    255626

      0.11   +-  0.04        .9     .4   77.83 +-  0.0    0.26   1.23   +-0.2      +-0.1                 m i ke

FRANCE
Sta     Dist  EvAz     Phase      Date       Time     TRes  Azim  AzRes  Slow  SRes Def   SNR       Amp   Per   Mag1   Mag2       ID
MBDF  000.26 323.4 m E Pg      2011/02/04 01:23:13.1   0.0                          T                                        4642816
MBDF  000.26 323.4 m E Sg      2011/02/04 01:23:16.9   0.3                          T                4.5  .20        Md 1.4  4642811
SBF   000.73 153.8 m E Pg      2011/02/04 01:23:21.5   0.0                          T                                        4642807
SBF   000.73 153.8 m E Sg      2011/02/04 01:23:31.0   0.0                          T                1.7  .30        Md 1.1  4642808
ORIF  000.89 297.3 m E Pg      2011/02/04 01:23:24.4  -0.1                          T                                        4642813
ORIF  000.89 297.3 m E Sg      2011/02/04 01:23:36.0  -0.1                          T                 .7  .29 Ml 1.2         4642812
FRF   000.99 194.7 m E Pg      2011/02/04 01:23:26.3   0.1                          T                                        4642815
FRF   000.99 194.7 m E Sg      2011/02/04 01:23:39.2   0.2                          T                 .5  .25 Ml 1.2         4642810
LPG   001.00 350.2 m E Pg      2011/02/04 01:23:26.9   0.1                          T                                        4642805
LPG   001.00 350.2 m E Sg      2011/02/04 01:23:39.8   0.1                          T                 .9  .39 Ml 1.2         4642802
LPL   001.02 349.7 m E Pg      2011/02/04 01:23:26.9  -0.1                          T                                        4642806
LPL   001.02 349.7 m E Sg      2011/02/04 01:23:40.3   0.0                          T                 .4  .19 Ml 1.1         4642801
SMRF  001.15 242.6 m E Pg      2011/02/04 01:23:29.3   0.0                          T                                        4642804
SMRF  001.15 242.6 m E Sg      2011/02/04 01:23:44.3   0.1                          T                 .7  .21 Ml 1.4         4642803
LMR   001.23 196.6 m E Pg      2011/02/04 01:23:30.6  -0.1                          T                                        4642814
LMR   001.23 196.6 m E Sg      2011/02/04 01:23:46.6   0.0                          T                1.5  .25 Ml 1.7         4642809

.
EVENT     255607
    Date      Time       Latitude Longitude    Depth    Ndef Nsta Gap    Mag1  N    Mag2  N    Mag3  N   Author         ID
       rms   OT_Error      Smajor Sminor Az        Err   mdist  Mdist     Err        Err        Err      Quality

2011/02/04 02:11:41.4     44.9798    6.6597      2.0      18    8 146  Ml 1.8  4  Md 1.8  3              js067245    255627

      1.95   +-  0.18       4.1    2.6   85.93 +-  0.0    0.27   1.65   +-0.2      +-0.0                 m i ke

FRANCE
Sta     Dist  EvAz     Phase      Date       Time     TRes  Azim  AzRes  Slow  SRes Def   SNR       Amp   Per   Mag1   Mag2       ID
MBDF  000.27 162.5 m E Pg      2011/02/04 02:11:46.7  -0.1                          T                                        4642826
MBDF  000.27 162.5 m E Sg      2011/02/04 02:11:50.3  -0.1                          T                7.3  .18        Md 1.8  4642822
LPG   000.52 007.1 m E Pg      2011/02/04 02:11:51.5  -0.2                          T                                        4642823
LPG   000.52 007.1 m E Sg      2011/02/04 02:11:59.0   0.5                          T                4.4  .20        Md 1.9  4642819
ORIF  000.56 263.9 m E Pg      2011/02/04 02:11:52.2   0.1                          T                                        4642825
ORIF  000.56 263.9 m E Sg      2011/02/04 02:11:59.1  -0.3                          T                6.2  .22                4642821
LPL   000.54 005.4 m E Pg      2011/02/04 02:11:52.3   0.4                          T                                        4642824
LPL   000.54 005.4 m E Sg      2011/02/04 02:11:59.4   0.4                          T                4.1  .22        Md 1.8  4642820
SBF   001.25 153.3 m E Pg      2011/02/04 02:12:04.6  -0.2                          T                                        4642834
SBF   001.25 153.3 m E Sg      2011/02/04 02:12:20.8  -0.1                          T                3.6  .42 Ml 1.9         4642829
SMRF  001.27 218.1 m E Pg      2011/02/04 02:12:05.0  -0.1                          T                                        4642833
SMRF  001.27 218.1 m E Sg      2011/02/04 02:12:21.6   0.0                          T                1.4  .36 Ml 1.5         4642831
FRF   001.42 180.4 m E Pg      2011/02/04 02:12:07.8  -0.1                          T                                        4642835
FRF   001.42 180.4 m E Sg      2011/02/04 02:12:26.0  -0.2                          T                2.0  .27 Ml 1.9         4642836
LMR   001.65 183.8 m E Pg      2011/02/04 02:12:12.1   0.1                          T                                        4642832
LMR   001.65 183.8 m E Sg      2011/02/04 02:12:33.0  -0.3                          T                2.0  .28 Ml 2.0         4642830

.
