EVENT     291707
    Date      Time       Latitude Longitude    Depth    Ndef Nsta Gap    Mag1  N    Mag2  N    Mag3  N   Author         ID
       rms   OT_Error      Smajor Sminor Az        Err   mdist  Mdist     Err        Err        Err      Quality

2013/02/07 19:06:27.0     44.2619   10.2061      2.0      67   20 071  Ml 2.5 20                         bulletin    291807
                                                                                                         _ldg
      0.51   +-  0.06       1.8    1.1   31.83 +-  0.0    0.10   6.00   +-0.3                            m i ke

NORTHERN ITALY
Sta     Dist  EvAz     Phase      Date       Time     TRes  Azim  AzRes  Slow  SRes Def   SNR       Amp   Per   Mag1   Mag2       ID
PGF   001.93 207.6 m E Pn      2013/02/07 19:06:58.7  -0.5                          T                                        5191338
SBF   002.04 259.7 m E Pn      2013/02/07 19:07:00.3  -0.3                          T                                        5191329
SBF   002.04 259.7 m E Sn      2013/02/07 19:07:25.0  -0.1                          T               10.1  .27 Ml 2.8         5191323
MBDF  002.50 281.9 m E Pn      2013/02/07 19:07:07.4   0.4                          T                                        5191332
MBDF  002.50 281.9 m E Pg      2013/02/07 19:07:13.5  -0.1                          T                                        5197917
MBDF  002.50 281.9 m E Sn      2013/02/07 19:07:37.0   0.7                          T                9.9  .49 Ml 2.6         5197916
FRF   002.67 256.0 m E Pn      2013/02/07 19:07:08.8  -0.3                          T                                        5191331
FRF   002.67 256.0 m E Sn      2013/02/07 19:07:39.2  -0.9                          T                                        5191325
LPG   002.75 297.9 m E Pn      2013/02/07 19:07:10.9   0.3                          T                                        5191328
LPG   002.75 297.9 m E Sn      2013/02/07 19:07:42.7   0.3                          T                                        5197920
LPG   002.75 297.9 m E Sg      2013/02/07 19:07:53.2  -0.5                          T                2.0  .31 Ml 2.2         5197919
LMR   002.83 252.2 m E Pn      2013/02/07 19:07:10.9  -0.4                          T                                        5191330
LMR   002.83 252.2 m E Sn      2013/02/07 19:07:43.9  -0.2                          T                1.8  .20 Ml 2.4         5191324
ORIF  003.16 283.5 m E Pn      2013/02/07 19:07:16.6   0.7                          T                                        5191327
ORIF  003.16 283.5 m E Sn      2013/02/07 19:07:51.7  -0.3                          T                2.9  .37 Ml 2.4         5197918
SMRF  003.35 266.7 m E Pn      2013/02/07 19:07:18.1  -0.3                          T                                        5191339
SMRF  003.35 266.7 m E Sn      2013/02/07 19:07:56.9   0.4                          T                4.1  .39 Ml 2.5         5197921
CABF  003.73 310.5 m E Pn      2013/02/07 19:07:23.5  -0.2                          T                                        5197913
CABF  003.73 310.5 m E Sn      2013/02/07 19:08:05.7   0.1                          T                1.0  .28 Ml 2.2         5197912
VIVF  004.00 280.5 m E Pn      2013/02/07 19:07:27.6   0.3                          T                                        5191337
VIVF  004.00 280.5 m E Sn      2013/02/07 19:08:11.6  -0.3                          T                1.2  .35 Ml 2.2         5197932
HINF  004.25 327.9 m E Pn      2013/02/07 19:07:31.1   0.3                          T                                        5191334
HINF  004.25 327.9 m E Sn      2013/02/07 19:08:18.5   0.4                          T                3.4  .33 Ml 2.7         5197914
CDF   004.62 335.0 m E Pn      2013/02/07 19:07:35.7  -0.2                          T                                        5191333
CDF   004.62 335.0 m E Sn      2013/02/07 19:08:27.1   0.2                          T                2.7  .30 Ml 2.8         5197915
HAU   004.61 325.8 m E Pn      2013/02/07 19:07:35.9   0.4                          T                                        5197925
HAU   004.61 325.8 m E Sn      2013/02/07 19:08:26.7   0.2                          T                3.7  .33 Ml 2.6         5197924
SMF   005.07 300.3 m E Pn      2013/02/07 19:07:42.4   0.5                          T                                        5191335
SMF   005.07 300.3 m E Sn      2013/02/07 19:08:37.6   0.0                          T                9.5  .54 Ml 3.1         5197910
SFTF  005.33 319.6 m E Pn      2013/02/07 19:07:44.7  -0.6 134.8  -1.0              T                                        5197931
SFTF  005.33 319.6 m E Sn      2013/02/07 19:08:43.0  -0.7                          T                1.8  .23 Ml 2.8         5197930
LOR   005.36 306.3 m E Pn      2013/02/07 19:07:45.4  -0.4 125.8  4.0               T                                        5197927
LOR   005.36 306.3 m E Sn      2013/02/07 19:08:44.3  -0.2                          T                1.0  .27 Ml 2.5         5197926
AVF   005.44 300.1 m E Pn      2013/02/07 19:07:46.8  -0.1                          T                                        5197911
SSF   005.47 303.1 m E Pn      2013/02/07 19:07:47.1  -0.1                          T                                        5197929
SSF   005.47 303.1 m E Sn      2013/02/07 19:08:46.7  -0.3                          T                1.3  .37 Ml 2.6         5197928
BGF   005.67 296.5 m E Pn      2013/02/07 19:07:50.3   0.3                          T                                        5191336
BGF   005.67 296.5 m E Sn      2013/02/07 19:08:51.7  -0.1                          T                1.3  .30 Ml 2.7         5197909
TCF   006.00 292.5 m E Pn      2013/02/07 19:07:54.3  -0.2                          T                                        5197923
TCF   006.00 292.5 m E Sn      2013/02/07 19:09:00.0   0.3                          T                 .8  .28 Ml 2.6         5197922

.
EVENT     291708
    Date      Time       Latitude Longitude    Depth    Ndef Nsta Gap    Mag1  N    Mag2  N    Mag3  N   Author         ID
       rms   OT_Error      Smajor Sminor Az        Err   mdist  Mdist     Err        Err        Err      Quality

2013/02/07 21:17:00.2     45.0833    7.3563     20.0 f    62   21 124  Ml 2.3  7  Md 2.3  3              bulletin    291808
                                                                                                         _ldg
      0.60   +-  0.08       2.0    1.1   93.30 +-  0.0    0.10   3.80   +-0.3      +-0.0                 m i ke

NORTHERN ITALY
Sta     Dist  EvAz     Phase      Date       Time     TRes  Azim  AzRes  Slow  SRes Def   SNR       Amp   Per   Mag1   Mag2       ID
MBDF  000.55 229.6 m E Pg      2013/02/07 21:17:11.5   0.2                          T                                        5191375
MBDF  000.55 229.6 m E Sg      2013/02/07 21:17:18.7  -0.1                          T               51.5  .28        Md 2.3  5191374
LPG   000.60 314.4 m E Pg      2013/02/07 21:17:12.1  -0.2                          T                                        5191371
LPG   000.60 314.4 m E Sg      2013/02/07 21:17:19.2  -1.2                          T               25.0  .20        Md 2.3  5191370
LPL   000.62 314.7 m E Pg      2013/02/07 21:17:12.5  -0.1                          T                                        5191373
LPL   000.62 314.7 m E Sg      2013/02/07 21:17:20.0  -1.1                          T               36.6  .30        Md 2.3  5191372
ORIF  001.06 261.6 m E Pg      2013/02/07 21:17:20.4   0.0                          T                                        5191369
ORIF  001.06 261.6 m E Sg      2013/02/07 21:17:33.6  -0.7                          T               23.7  .44 Ml 2.6         5191368
SBF   001.22 177.3 m E Pg      2013/02/07 21:17:23.4   0.1                          T                                        5191366
SBF   001.22 177.3 m E Sg      2013/02/07 21:17:39.1  -0.2                          T               10.8  .21 Ml 2.6         5191365
FRF   001.61 198.7 m E Pg      2013/02/07 21:17:30.3   0.0                          T                                        5191367
FRF   001.61 198.7 m E Sg      2013/02/07 21:17:51.0  -0.1                          T                6.6  .27 Ml 2.5         5191364
CABF  001.77 330.3 m E P       2013/02/07 21:17:30.6   0.3                          T                                        5191354
CABF  001.77 330.3 m E Pg      2013/02/07 21:17:34.2   0.8                          T                                        5191359
SMRF  001.69 229.6 m E Pg      2013/02/07 21:17:31.3  -0.5                          T                                        5197956
SMRF  001.69 229.6 m E Sn      2013/02/07 21:17:46.2  -0.4                          T                1.3  .24 Ml 1.9         5197955
LMR   001.85 199.5 m E Pg      2013/02/07 21:17:34.8   0.0                          T                                        5197954
LMR   001.85 199.5 m E Sn      2013/02/07 21:17:50.9   0.3                          T                                        5197953
LMR   001.85 199.5 m E Sg      2013/02/07 21:17:58.2  -0.5                          T                2.4  .23 Ml 2.2         5191363
VIVF  001.92 264.1 m E Pg      2013/02/07 21:17:36.5   0.5                          T                                        5191347
VIVF  001.92 264.1 m E Sn      2013/02/07 21:17:52.3   0.1                          T                                        5191348
VIVF  001.92 264.1 m E Sg      2013/02/07 21:18:01.2   0.3                          T                1.9  .22 Ml 2.1         5191349
HINF  002.76 352.9 m E P       2013/02/07 21:17:44.8   0.3                          T                                        5191353
SMF   002.91 303.7 m E P       2013/02/07 21:17:47.3   0.7                          T                                        5191361
HAU   003.00 347.0 m E P       2013/02/07 21:17:48.2   0.2                          T                                        5191355
LOR   003.27 313.2 m E P       2013/02/07 21:17:52.0   0.3 133.4  2.7               T                                        5191358
AVF   003.27 302.9 m E P       2013/02/07 21:17:52.2   0.4                          T                                        5191360
CDF   003.33 359.1 m E P       2013/02/07 21:17:52.4  -0.3                          T                                        5191356
SSF   003.33 307.8 m E P       2013/02/07 21:17:53.0   0.4                          T                                        5191357
BGF   003.48 296.7 m E P       2013/02/07 21:17:55.0   0.2                          T                                        5191362
SFTF  003.51 333.7 m E P       2013/02/07 21:17:55.4   0.3 153.8  1.8               T                                        5191350
PAGF  003.65 342.7 m E P       2013/02/07 21:17:57.2   0.1                          T                                        5197952
TCF   003.80 290.3 m E P       2013/02/07 21:18:00.0   0.7                          T                                        5191351

.
EVENT     291710
    Date      Time       Latitude Longitude    Depth    Ndef Nsta Gap    Mag1  N    Mag2  N    Mag3  N   Author         ID
       rms   OT_Error      Smajor Sminor Az        Err   mdist  Mdist     Err        Err        Err      Quality

2013/02/07 22:31:58.1     53.4424    6.5991      3.0 f    75   23 135  Ml 3.0 17                         bulletin    291810
                                                                                                         _ldg
      0.69   +-  0.15       3.0    2.1  167.03 +-  0.0    0.08   8.79   +-0.4                            m i si

THE NETHERLANDS
Sta     Dist  EvAz     Phase      Date       Time     TRes  Azim  AzRes  Slow  SRes Def   SNR       Amp   Per   Mag1   Mag2       ID
GIVF  003.52 199.0 m E Pn      2013/02/07 22:32:51.3  -0.4                          T                                        5191410
GIVF  003.52 199.0 m E Sn      2013/02/07 22:33:32.5   1.1                          T               10.8  .41 Ml 3.0         5191409
BAIF  003.70 204.6 m E Pn      2013/02/07 22:32:54.8   0.7                          T                                        5191407
BAIF  003.70 204.6 m E Sn      2013/02/07 22:33:37.8   2.1                          T                5.9  .36 Ml 2.8         5191392
PAGF  004.93 186.8 m E Pn      2013/02/07 22:33:11.4   0.5                          T                                        5198037
PAGF  004.93 186.8 m E Pg      2013/02/07 22:33:29.2   0.0                          T                                        5198036
MEZF  005.04 191.8 m E Pn      2013/02/07 22:33:12.4  -0.1                          T                                        5191391
MEZF  005.04 191.8 m E Pg      2013/02/07 22:33:31.1  -0.2                          T              289.6 2.30 Ml 4.0         5198035
CDF   005.06 174.9 m E Pn      2013/02/07 22:33:12.5  -0.3                          T                                        5191408
CDF   005.06 174.9 m E Sn      2013/02/07 22:34:09.6   1.4                          T                                        5191377
SFTF  005.34 191.3 m E Pn      2013/02/07 22:33:16.8   0.4                          T                                        5191390
SFTF  005.34 191.3 m E Sg      2013/02/07 22:34:44.3  -0.9                          T                  1  .27 Ml 2.5         5198038
HAU   005.45 181.8 m E Pn      2013/02/07 22:33:18.3   0.3                          T                                        5198034
HAU   005.45 181.8 m E Pg      2013/02/07 22:33:39.0   0.2                          T                                        5198033
HAU   005.45 181.8 m E Sn      2013/02/07 22:34:17.0  -0.4                          T                                        5198032
HAU   005.45 181.8 m E Sg      2013/02/07 22:34:49.1   0.4                          T                1.6  .30 Ml 2.5         5198031
HINF  005.64 178.3 m E Pn      2013/02/07 22:33:20.2  -0.4                          T                                        5191389
LDF   006.44 223.8 m E Pn      2013/02/07 22:33:30.6  -0.9                          T                                        5191403
LDF   006.44 223.8 m E Sn      2013/02/07 22:34:41.5   0.2                          T                2.0  .30 Ml 3.0         5191401
LOR   006.42 196.9 m E Pn      2013/02/07 22:33:30.8  -0.5  18.7  3.9               T                                        5191406
LOR   006.42 196.9 m E Sn      2013/02/07 22:34:41.1   0.2                          T                1.1  .23 Ml 2.9         5191376
FLN   006.47 226.4 m E Pn      2013/02/07 22:33:30.9  -0.9  45.2  4.3               T                                        5191404
FLN   006.47 226.4 m E Sn      2013/02/07 22:34:42.7   0.9                          T                1.5  .23 Ml 2.8         5191400
SSF   006.69 198.5 m E Pn      2013/02/07 22:33:34.4  -0.5                          T                                        5191405
SSF   006.69 198.5 m E Sn      2013/02/07 22:34:47.3   0.2                          T                 .6  .19 Ml 2.8         5191393
CABF  006.85 183.0 m E Pn      2013/02/07 22:33:37.3   0.1                          T                                        5198040
GRR   006.91 225.9 m E Pn      2013/02/07 22:33:38.1   0.1                          T                                        5191402
GRR   006.91 225.9 m E Sn      2013/02/07 22:34:52.6   0.1                          T                3.1  .32 Ml 3.1         5191378
AVF   006.98 198.7 m E Pn      2013/02/07 22:33:39.0   0.2                          T                                        5191398
AVF   006.98 198.7 m E Sn      2013/02/07 22:34:53.5  -0.5                          T                 .3  .22 Ml 2.3         5198063
SMF   007.03 195.7 m E Pn      2013/02/07 22:33:39.1  -0.4                          T                                        5191399
SMF   007.03 195.7 m E Sn      2013/02/07 22:34:56.5   1.1                          T                  1  .27 Ml 2.8         5191384
BGF   007.30 200.8 m E Pn      2013/02/07 22:33:42.9  -0.3                          T                                        5191396
BGF   007.30 200.8 m E Sn      2013/02/07 22:35:02.1   0.3                          T                4.2  .35 Ml 3.4         5191383
TCF   007.70 203.3 m E Pn      2013/02/07 22:33:48.3  -0.4                          T                                        5191386
SGMF  007.78 231.8 m E Pn      2013/02/07 22:33:48.6  -1.1                          T                                        5191388
SGMF  007.78 231.8 m E Sn      2013/02/07 22:35:13.6   0.4                          T                1.0  .30 Ml 2.9         5191380
ROSF  008.06 234.6 m E Pn      2013/02/07 22:33:53.2  -0.4                          T                                        5198039
ROSF  008.06 234.6 m E Sn      2013/02/07 22:35:20.5   0.5                          T                7.0  .40 Ml 3.7         5191379
MFF   008.11 215.1 m E Pn      2013/02/07 22:33:53.9  -0.3                          T                                        5191397
MFF   008.11 215.1 m E Sn      2013/02/07 22:35:21.9   0.9                          T                1.6  .38 Ml 3.2         5191382
QUIF  008.31 232.2 m E Pn      2013/02/07 22:33:56.1  -0.7                          T                                        5191387
QUIF  008.31 232.2 m E Sn      2013/02/07 22:35:25.4  -0.3                          T                1.8  .36 Ml 3.2         5191381
RJF   008.79 204.1 m E Pn      2013/02/07 22:34:03.1  -0.4                          T                                        5191385

.
