EVENT     276156
    Date      Time       Latitude Longitude    Depth    Ndef Nsta Gap    Mag1  N    Mag2  N    Mag3  N   Author         ID
       rms   OT_Error      Smajor Sminor Az        Err   mdist  Mdist     Err        Err        Err      Quality

2012/05/16 15:26:29.8     46.2891    7.5311      6.0 f    56   13 046  Ml 2.1 12  Md 2.1  2              bulletin    276256
                                                                                                         _ldg
      0.57   +-  0.07       1.6    1.4  105.67 +-  0.0    0.09 143.43   +-0.2      +-0.2                 m i ke

SWITZERLAND
Sta     Dist  EvAz     Phase      Date       Time     TRes  Azim  AzRes  Slow  SRes Def   SNR       Amp   Per   Mag1   Mag2       ID
LPL   000.95 216.1 m E Pg      2012/05/16 15:26:48.2   0.3                          T                                        4947814
LPG   000.96 214.8 m E Pg      2012/05/16 15:26:48.2   0.1                          T                                        4947812
LPG   000.96 214.8 m E Sg      2012/05/16 15:27:00.5  -0.2                          T                2.8  .25 Ml 1.8         4947811
LPL   000.95 216.1 m E Sg      2012/05/16 15:27:00.5   0.2                          T                2.7  .25 Ml 1.8         4947813
CABF  001.05 288.4 m E Pg      2012/05/16 15:26:49.7   0.2                          T                                        4947827
CABF  001.05 288.4 m E Sg      2012/05/16 15:27:03.2   0.1                          T                3.5  .22 Ml 2.0 Md 2.0  4947826
HINF  001.60 343.4 m E Pn      2012/05/16 15:26:57.2   0.3                          T                                        4947825
HINF  001.60 343.4 m E Pg      2012/05/16 15:26:59.4  -0.1                          T                                        4947804
HINF  001.60 343.4 m E Sn      2012/05/16 15:27:17.3   0.6                          T                                        4947824
HINF  001.60 343.4 m E Sg      2012/05/16 15:27:19.9  -0.3                          T                4.4  .26 Ml 2.3 Md 2.3  4947823
MBDF  001.65 199.1 m E Pn      2012/05/16 15:26:58.4   0.6                          T                                        4947808
MBDF  001.65 199.1 m E Pg      2012/05/16 15:27:00.8   0.1                          T                                        4965309
MBDF  001.65 199.1 m E Sn      2012/05/16 15:27:18.6   0.6                          T                1.5  .22 Ml 2.0         4947807
ORIF  001.80 220.8 m E Pn      2012/05/16 15:27:00.4   0.7                          T                                        4947810
ORIF  001.80 220.8 m E Pg      2012/05/16 15:27:02.9  -0.4                          T                                        4965310
ORIF  001.80 220.8 m E Sn      2012/05/16 15:27:22.3   0.9                          T                1.3  .30 Ml 1.8         4947809
HAU   001.90 335.2 m E Pn      2012/05/16 15:27:01.4   0.4                          T                                        4947821
HAU   001.90 335.2 m E Sn      2012/05/16 15:27:24.2   0.4                          T                                        4947820
HAU   001.90 335.2 m E Sg      2012/05/16 15:27:29.0  -0.6                          T                6.6  .28 Ml 2.3         4947822
CDF   002.13 355.4 m E Pn      2012/05/16 15:27:04.5   0.2                          T                                        4947815
CDF   002.13 355.4 m E Sn      2012/05/16 15:27:30.0   0.6                          T                                        4947816
CDF   002.13 355.4 m E Sg      2012/05/16 15:27:36.4  -0.5                          T                1.4  .24 Ml 2.1         4947817
THEF  002.20 332.2 m E Pn      2012/05/16 15:27:05.7   0.6                          T                                        4947818
THEF  002.20 332.2 m E Sg      2012/05/16 15:27:38.7  -0.5                          T                3.5  .22 Ml 2.4         4947819
SMF   002.58 279.3 m E Pn      2012/05/16 15:27:10.9   0.7                          T                                        4947828
SMF   002.58 279.3 m E Pg      2012/05/16 15:27:17.2  -0.4                          T                                        4947799
SMF   002.58 279.3 m E Sn      2012/05/16 15:27:40.4   0.5                          T                                        4947829
SMF   002.58 279.3 m E Sg      2012/05/16 15:27:50.4  -0.3                          T                1.1  .16 Ml 2.2         4947800
LOR   002.71 292.5 m E Pn      2012/05/16 15:27:12.7   0.7                          T                                        4947798
LOR   002.71 292.5 m E Sn      2012/05/16 15:27:43.8   0.7                          T                1.5  .34 Ml 2.0         4947797
LOR   002.71 292.5 m E Sg      2012/05/16 15:27:52.2  -2.6                          T                                        4965308
VIVF  002.47 235.5 m E Pg      2012/05/16 15:27:15.8   0.2                          T                                        4947806
VIVF  002.47 235.5 m E Sg      2012/05/16 15:27:46.6  -0.7                          T                2.1  .28 Ml 2.2         4947805

.
EVENT     276155
    Date      Time       Latitude Longitude    Depth    Ndef Nsta Gap    Mag1  N    Mag2  N    Mag3  N   Author         ID
       rms   OT_Error      Smajor Sminor Az        Err   mdist  Mdist     Err        Err        Err      Quality

2012/05/16 18:16:14.7     44.4988    6.7099      2.0      34    9 055  Ml 1.5  6  Md 1.7  3              bulletin    276255
                                                                                                         _ldg
      0.63   +-  0.09       1.8    1.4   46.06 +-  0.0    0.08   1.50   +-0.1      +-0.1                 m i ke

FRANCE
Sta     Dist  EvAz     Phase      Date       Time     TRes  Azim  AzRes  Slow  SRes Def   SNR       Amp   Per   Mag1   Mag2       ID
MBDF  000.23 010.9 m E Pg      2012/05/16 18:16:19.4  -0.1                          T                                        4947761
MBDF  000.23 010.9 m E Sg      2012/05/16 18:16:22.6  -0.1                          T                4.0  .24        Md 1.7  4947760
ORIF  000.73 305.6 m E Pg      2012/05/16 18:16:27.9  -0.6                          T                                        4947759
ORIF  000.73 305.6 m E Sg      2012/05/16 18:16:37.0  -0.9                          T                1.4  .22        Md 1.7  4947753
SBF   000.82 140.4 m E Pg      2012/05/16 18:16:30.6   0.4                          T                                        4947756
SBF   000.82 140.4 m E Sg      2012/05/16 18:16:41.1   0.1                          T                1.8  .16        Md 1.8  4947743
FRF   000.94 182.8 m E Pg      2012/05/16 18:16:33.2   1.0                          T                                        4947758
FRF   000.94 182.8 m E Sg      2012/05/16 18:16:43.9  -0.6                          T                  1  .20 Ml 1.5         4947749
SMRF  000.97 237.7 m E Pg      2012/05/16 18:16:33.7   0.9                          T                                        4947757
SMRF  000.97 237.7 m E Sg      2012/05/16 18:16:45.7   0.2                          T                1.2  .22 Ml 1.5         4947748
LPG   001.00 001.7 m E Pg      2012/05/16 18:16:33.9   0.1                          T                                        4947751
LPG   001.00 001.7 m E Sg      2012/05/16 18:16:46.7   0.0                          T                1.0  .26 Ml 1.4         4947747
LPL   001.02 000.9 m E Pg      2012/05/16 18:16:34.4   0.4                          T                                        4947752
LPL   001.02 000.9 m E Sg      2012/05/16 18:16:47.2   0.0                          T                 .5  .20 Ml 1.3         4947755
LMR   001.17 187.2 m E Pg      2012/05/16 18:16:37.1   0.5                          T                                        4947750
LMR   001.17 187.2 m E Sg      2012/05/16 18:16:50.8  -1.0                          T                 .8  .18 Ml 1.5         4947744
VIVF  001.50 284.5 m E Pn      2012/05/16 18:16:41.4   0.5                          T                                        4947746
VIVF  001.50 284.5 m E Sn      2012/05/16 18:17:00.2   0.3                          T                 .8  .20 Ml 1.6         4947745

.
EVENT     276157
    Date      Time       Latitude Longitude    Depth    Ndef Nsta Gap    Mag1  N    Mag2  N    Mag3  N   Author         ID
       rms   OT_Error      Smajor Sminor Az        Err   mdist  Mdist     Err        Err        Err      Quality

2012/05/16 18:34:26.9     46.2974    7.5354      5.0 f    21    5 057  Ml 1.5  5  Md 1.8  3              bulletin    276257
                                                                                                         _ldg
      0.26   +-  0.06       1.3    1.1  112.67 +-  0.0    0.10   2.12   +-0.3      +-0.1                 m i ke

SWITZERLAND
Sta     Dist  EvAz     Phase      Date       Time     TRes  Azim  AzRes  Slow  SRes Def   SNR       Amp   Per   Mag1   Mag2       ID
LPL   000.96 216.0 m E Pg      2012/05/16 18:34:45.5   0.3                          T                                        4947833
LPL   000.96 216.0 m E Sg      2012/05/16 18:34:57.4  -0.3                          T                 .8  .25 Ml 1.3 Md 1.8  4947832
LPG   000.97 214.7 m E Pg      2012/05/16 18:34:45.6   0.2                          T                                        4947835
LPG   000.97 214.7 m E Sg      2012/05/16 18:34:57.6  -0.4                          T                 .5  .18 Ml 1.2 Md 1.8  4947834
CABF  001.05 287.9 m E Pn      2012/05/16 18:34:47.0   0.3                          T                                        4947841
CABF  001.05 287.9 m E Sn      2012/05/16 18:35:01.0   0.1                          T                1.8  .27 Ml 1.7 Md 1.9  4947840
HINF  001.59 343.2 m E Pn      2012/05/16 18:34:54.2   0.1                          T                                        4947839
HINF  001.59 343.2 m E Sn      2012/05/16 18:35:14.7   1.0                          T                1.2  .21 Ml 1.8         4947838
CDF   002.12 355.3 m E Pn      2012/05/16 18:35:01.6   0.2                          T                                        4947837
CDF   002.12 355.3 m E Sn      2012/05/16 18:35:26.3  -0.2                          T                 .2  .15 Ml 1.5         4947836

.
EVENT     276158
    Date      Time       Latitude Longitude    Depth    Ndef Nsta Gap    Mag1  N    Mag2  N    Mag3  N   Author         ID
       rms   OT_Error      Smajor Sminor Az        Err   mdist  Mdist     Err        Err        Err      Quality

2012/05/16 18:59:09.4     46.2956    7.5359      5.0 f    22    6 051  Ml 1.6  6  Md 1.8  3              bulletin    276258
                                                                                                         _ldg
      0.27   +-  0.06       1.2    1.1  121.30 +-  0.0    0.09   1.89   +-0.2      +-0.0                 m i ke

SWITZERLAND
Sta     Dist  EvAz     Phase      Date       Time     TRes  Azim  AzRes  Slow  SRes Def   SNR       Amp   Per   Mag1   Mag2       ID
LPL   000.96 216.0 m E Pg      2012/05/16 18:59:27.9   0.2                          T                                        4947848
LPL   000.96 216.0 m E Sg      2012/05/16 18:59:40.4   0.1                          T                 .6  .20 Ml 1.3 Md 1.7  4947847
LPG   000.97 214.8 m E Pg      2012/05/16 18:59:28.0   0.0                          T                                        4947850
LPG   000.97 214.8 m E Sg      2012/05/16 18:59:40.8   0.2                          T                  1  .24 Ml 1.4 Md 1.7  4947849
CABF  001.05 288.0 m E Pg      2012/05/16 18:59:29.0  -0.3                          T                                        4947846
CABF  001.05 288.0 m E Sg      2012/05/16 18:59:42.6  -0.3                          T                 .9  .20 Ml 1.5 Md 1.8  4947845
HINF  001.59 343.2 m E Pn      2012/05/16 18:59:37.0   0.3                          T                                        4947843
HINF  001.59 343.2 m E Sn      2012/05/16 18:59:56.7   0.4                          T                1.2  .22 Ml 1.8         4947842
MBDF  001.66 199.2 m E Pn      2012/05/16 18:59:38.1   0.4                          T                                        4958692
MBDF  001.66 199.2 m E Sn      2012/05/16 18:59:58.5   0.4                          T                1.7  .32 Ml 1.8         4958691
HAU   001.89 335.1 m E Pn      2012/05/16 18:59:40.9   0.2                          T                                        4958693
HAU   001.89 335.1 m E Sn      2012/05/16 19:00:03.9   0.4                          T                1.7  .25 Ml 1.8         4958694

.
