EVENT     267598
    Date      Time       Latitude Longitude    Depth    Ndef Nsta Gap    Mag1  N    Mag2  N    Mag3  N   Author         ID
       rms   OT_Error      Smajor Sminor Az        Err   mdist  Mdist     Err        Err        Err      Quality

2011/12/19 15:36:48.4     49.0943    8.2956     15.2      29   12 059  Ml 2.3 10                         js067245    267618

      0.59   +-  0.07       1.5    1.3   97.04 +-  1.0    0.14   4.04   +-0.3                            m i ke

GERMANY
Sta     Dist  EvAz     Phase      Date       Time     TRes  Azim  AzRes  Slow  SRes Def   SNR       Amp   Per   Mag1   Mag2       ID
LANF  000.34 250.8 m E Pg      2011/12/19 15:36:55.3  -0.2                          T                                        4803136
LANF  000.34 250.8 m E Sg      2011/12/19 15:37:00.0  -0.5                          T                8.6  .15                4803137
CDF   000.96 225.0 m E Pn      2011/12/19 15:37:05.6  -0.4                          T                                        4803130
CDF   000.96 225.0 m E Pg      2011/12/19 15:37:06.7   0.0                          T                                        4803129
HAU   001.69 230.6 m E Pn      2011/12/19 15:37:15.6  -0.3                          T                                        4803117
HAU   001.69 230.6 m E Pg      2011/12/19 15:37:19.8  -0.3                          T                                        4803116
HAU   001.69 230.6 m E Sg      2011/12/19 15:37:41.8  -0.1                          T                8.4  .20 Ml 2.5         4803121
THEF  001.75 241.3 m E Pn      2011/12/19 15:37:16.5  -0.1                          T                                        4803119
THEF  001.75 241.3 m E Pg      2011/12/19 15:37:20.7  -0.5                          T                                        4803118
THEF  001.75 241.3 m E Sg      2011/12/19 15:37:44.1   0.2                          T                3.2  .19 Ml 2.4         4803122
HINF  001.60 217.4 m E Pg      2011/12/19 15:37:18.4   0.0                          T                                        4803115
HINF  001.60 217.4 m E Sg      2011/12/19 15:37:39.1   0.0                          T                4.8  .18 Ml 2.5         4803120
PAGF  001.78 253.3 m E Pg      2011/12/19 15:37:21.7   0.0 186.4  *****             T                                        4803127
PAGF  001.78 253.3 m E Sg      2011/12/19 15:37:44.8   0.0  75.9  4.5               T                 .4  .18 Ml 1.5         4803128
MEZF  002.23 255.8 m E Pg      2011/12/19 15:37:29.8   0.0                          T                                        4803123
MEZF  002.23 255.8 m E Sg      2011/12/19 15:37:58.5   0.0                          T                7.6  .25 Ml 2.7         4803126
SFTF  002.34 248.8 m E Pg      2011/12/19 15:37:31.5  -0.4                          T                                        4803124
SFTF  002.34 248.8 m E Sg      2011/12/19 15:38:01.8  -0.2                          T                2.3  .19 Ml 2.4         4803125
GIVF  002.47 295.4 m E Pg      2011/12/19 15:37:34.6   0.2                          T                                        4803131
GIVF  002.47 295.4 m E Sg      2011/12/19 15:38:06.2  -0.1                          T                2.9  .20 Ml 2.5         4803132
LOR   003.49 240.1 m E Pn      2011/12/19 15:37:40.2   0.0                          T                                        4803135
LOR   003.49 240.1 m E Pg      2011/12/19 15:37:53.1   0.0  64.7  8.0               T                                        4803133
LOR   003.49 240.1 m E Sg      2011/12/19 15:38:37.7  -0.2                          T                1.7  .23 Ml 2.4         4803134
SMF   003.87 232.4 m E Sg      2011/12/19 15:38:50.0   0.1                          T                1.6  .25 Ml 2.4         4803113
AVF   004.04 237.1 m E Sg      2011/12/19 15:38:55.3   0.1                          T                 .5  .23 Ml 2.0         4803114

.
EVENT     267609
    Date      Time       Latitude Longitude    Depth    Ndef Nsta Gap    Mag1  N    Mag2  N    Mag3  N   Author         ID
       rms   OT_Error      Smajor Sminor Az        Err   mdist  Mdist     Err        Err        Err      Quality

2011/12/19 15:36:59.2     49.0950    8.2912     15.7      41   15 038  Ml 2.6 13  Md 2.5  2              js067245    267629

      0.71   +-  0.05        .9     .8   85.98 +-  0.6    0.14   4.04   +-0.3      +-0.1                 m i ke

GERMANY
Sta     Dist  EvAz     Phase      Date       Time     TRes  Azim  AzRes  Slow  SRes Def   SNR       Amp   Per   Mag1   Mag2       ID
LANF  000.34 250.5 m E Pg      2011/12/19 15:37:06.0  -0.3                          T                                        4803093
LANF  000.34 250.5 m E Sg      2011/12/19 15:37:10.7  -0.5                          T               42.6  .21        Md 2.6  4803094
CDF   000.96 224.9 m E Pg      2011/12/19 15:37:17.4   0.0                          T                                        4803091
CDF   000.96 224.9 m E Sg      2011/12/19 15:37:30.1   0.1                          T               25.4  .20 Ml 3.0 Md 2.5  4803092
HAU   001.69 230.6 m E Pn      2011/12/19 15:37:26.5   0.0                          T                                        4803082
HAU   001.69 230.6 m E Pg      2011/12/19 15:37:30.6  -0.1                          T                                        4803081
HAU   001.69 230.6 m E Sg      2011/12/19 15:37:52.6   0.0                          T               19.9  .20 Ml 2.9         4803073
THEF  001.75 241.2 m E Pn      2011/12/19 15:37:27.3   0.0                          T                                        4803084
THEF  001.75 241.2 m E Pg      2011/12/19 15:37:31.8  -0.1                          T                                        4803083
THEF  001.75 241.2 m E Sg      2011/12/19 15:37:54.6   0.1                          T               11.3  .21 Ml 2.9         4803072
PAGF  001.78 253.3 m E Pn      2011/12/19 15:37:27.8   0.1                          T                                        4803090
PAGF  001.78 253.3 m E Pg      2011/12/19 15:37:32.4   0.0  68.6  -2.8              T                                        4803089
PAGF  001.78 253.3 m E Sg      2011/12/19 15:37:55.5   0.1  57.9  -13.5             T                1.7  .22 Ml 2.0         4803069
HINF  001.60 217.3 m E Pg      2011/12/19 15:37:29.1   0.0                          T                                        4803080
HINF  001.60 217.3 m E Sg      2011/12/19 15:37:49.8   0.0                          T               11.6  .16 Ml 2.9         4803074
MEZF  002.22 255.7 m E Pn      2011/12/19 15:37:33.5  -0.2                          T                                        4803088
MEZF  002.22 255.7 m E Pg      2011/12/19 15:37:40.5   0.0                          T                                        4803087
MEZF  002.22 255.7 m E Sg      2011/12/19 15:38:09.3   0.2                          T               10.1  .31 Ml 2.8         4803070
SFTF  002.33 248.8 m E Pn      2011/12/19 15:37:35.2   0.0                          T                                        4803086
SFTF  002.33 248.8 m E Pg      2011/12/19 15:37:42.4  -0.2                          T                                        4803085
SFTF  002.33 248.8 m E Sg      2011/12/19 15:38:12.5  -0.2                          T                4.2  .17 Ml 2.7         4803071
GIVF  002.47 295.4 m E Pg      2011/12/19 15:37:45.0  -0.1                          T                                        4803096
GIVF  002.47 295.4 m E Sg      2011/12/19 15:38:17.0   0.0                          T                4.0  .23 Ml 2.5         4803068
LOR   003.48 240.0 m E Pn      2011/12/19 15:37:50.9   0.0  64.0  7.3               T                                        4803100
LOR   003.48 240.0 m E Pg      2011/12/19 15:38:03.7   0.0  62.3  5.6               T                                        4803099
LOR   003.48 240.0 m E Sg      2011/12/19 15:38:48.5   0.0  67.5  10.8              T                3.2  .18 Ml 2.8         4803066
BAIF  002.83 291.5 m E Pg      2011/12/19 15:37:51.7   0.0                          T                                        4803095
BAIF  002.83 291.5 m E Sg      2011/12/19 15:38:28.2   0.2                          T                3.1  .32 Ml 2.4         4803067
SSF   003.80 239.4 m E Pn      2011/12/19 15:37:55.2   0.1                          T                                        4803098
SSF   003.80 239.4 m E Pg      2011/12/19 15:38:09.4  -0.1                          T                                        4803097
SMF   003.87 232.4 m E Pg      2011/12/19 15:38:10.9   0.0                          T                                        4803078
SMF   003.87 232.4 m E Sg      2011/12/19 15:39:00.8   0.2                          T                6.5  .35 Ml 2.9         4803077
AVF   004.04 237.1 m E Pg      2011/12/19 15:38:14.0   0.0                          T                                        4803079
AVF   004.04 237.1 m E Sg      2011/12/19 15:39:06.0   0.2                          T                  1  .25 Ml 2.2         4803076
CABF  002.89 211.7 m E Sg      2011/12/19 15:38:30.4   0.2                          T                2.7  .30 Ml 2.4         4803075

.
EVENT     267608
    Date      Time       Latitude Longitude    Depth    Ndef Nsta Gap    Mag1  N    Mag2  N    Mag3  N   Author         ID
       rms   OT_Error      Smajor Sminor Az        Err   mdist  Mdist     Err        Err        Err      Quality

2011/12/19 17:07:06.1     43.7658    8.4214      2.0      24    5 154  Ml 1.7  4  Md 1.8  1              js067245    267628

      0.43   +-  0.15       2.7    2.3   43.47 +-  0.0    0.41   1.53   +-0.2      +-                    m i ke

CORSICA, FRANCE
Sta     Dist  EvAz     Phase      Date       Time     TRes  Azim  AzRes  Slow  SRes Def   SNR       Amp   Per   Mag1   Mag2       ID
SBF   000.72 278.1 m E Pg      2011/12/19 17:07:20.8   1.0                          T                                        4803189
SBF   000.72 278.1 m E Sg      2011/12/19 17:07:30.2   1.0                          T               40.5  .38        Md 1.8  4803190
FRF   001.30 261.6 m E Pg      2011/12/19 17:07:29.0  -1.5                          T                                        4803187
FRF   001.30 261.6 m E Sg      2011/12/19 17:07:47.2  -0.1                          T                1.5  .18 Ml 1.9         4803188
PGF   001.29 160.6 m E Pn      2011/12/19 17:07:29.4  -0.1                          T                                        4803183
PGF   001.29 160.6 m E Sn      2011/12/19 17:07:46.4   0.0                          T                 .9  .24 Ml 1.7         4803184
MBDF  001.53 309.6 m E Pn      2011/12/19 17:07:32.9   0.0                          T                                        4803185
MBDF  001.53 309.6 m E Pg      2011/12/19 17:07:34.7   0.0                          T                                        4803182
MBDF  001.53 309.6 m E Sg      2011/12/19 17:07:53.8  -0.6                          T                 .7  .27 Ml 1.4         4803186
LMR   001.46 253.4 m E Sg      2011/12/19 17:07:52.0   0.0                          T                1.1  .28 Ml 1.6         4803181

.
EVENT     267610
    Date      Time       Latitude Longitude    Depth    Ndef Nsta Gap    Mag1  N    Mag2  N    Mag3  N   Author         ID
       rms   OT_Error      Smajor Sminor Az        Err   mdist  Mdist     Err        Err        Err      Quality

2011/12/19 18:47:57.7     43.0517    -.6461     10.0      10    5 198  Ml 1.8  4  Md 1.9  1              js067245    267630

      0.23   +-  0.10       2.1    1.2   18.59 +-  0.0    0.05   2.74   +-0.2      +-                    m i ke

PYRENEES
Sta     Dist  EvAz     Phase      Date       Time     TRes  Azim  AzRes  Slow  SRes Def   SNR       Amp   Per   Mag1   Mag2       ID
EPF   000.72 091.4 m E Pg      2011/12/19 18:48:11.4   0.0                          T                                        4803199
EPF   000.72 091.4 m E Sg      2011/12/19 18:48:21.2   0.3                          T                3.0  .15        Md 1.9  4803200
MTLF  002.11 081.2 m E Pg      2011/12/19 18:48:36.5  -0.5                          T                                        4803191
MTLF  002.11 081.2 m E Sg      2011/12/19 18:49:04.1  -0.1                          T                1.4  .30 Ml 1.9         4803198
LFF   002.14 027.5 m E Pg      2011/12/19 18:48:37.3   0.0                          T                                        4803193
LFF   002.14 027.5 m E Sg      2011/12/19 18:49:04.9   0.1                          T                1.9  .23 Ml 2.0         4803196
RJF   002.74 033.9 m E Pg      2011/12/19 18:48:47.8  -0.7                          T                                        4803194
RJF   002.74 033.9 m E Sg      2011/12/19 18:49:23.9   0.2                          T                 .5  .19 Ml 1.5         4803195
CAF   002.71 045.3 m E Pg      2011/12/19 18:48:47.8  -0.1                          T                                        4803192
CAF   002.71 045.3 m E Sg      2011/12/19 18:49:23.1   0.3                          T                1.1  .23 Ml 2.0         4803197

.
EVENT     267600
    Date      Time       Latitude Longitude    Depth    Ndef Nsta Gap    Mag1  N    Mag2  N    Mag3  N   Author         ID
       rms   OT_Error      Smajor Sminor Az        Err   mdist  Mdist     Err        Err        Err      Quality

2011/12/19 18:50:06.4     40.7118   -1.3883      2.0      57    4 067  Ml 2.5  3                         js067245    267620

      0.76   +-  0.09       2.2    1.5  139.74 +-  0.0    0.52   4.92   +-0.3                            m i ke

SPAIN
Sta     Dist  EvAz     Phase      Date       Time     TRes  Azim  AzRes  Slow  SRes Def   SNR       Amp   Per   Mag1   Mag2       ID
EPF   002.65 028.6 m E Pn      2011/12/19 18:50:48.2  -0.1                          T                                        4803210
EPF   002.65 028.6 m E P       2011/12/19 18:50:51.2   0.2                          T                                        4803211
EPF   002.65 028.6 m E Pg      2011/12/19 18:50:55.5  -0.1                          T                                        4803209
EPF   002.65 028.6 m E Sn      2011/12/19 18:51:18.9  -0.3                          T                                        4803217
EPF   002.65 028.6 m E Sg      2011/12/19 18:51:29.3  -0.4                          T                6.7  .28 Ml 2.7         4803216
MTLF  003.76 044.4 m E Pn      2011/12/19 18:51:03.2  -0.1                          T                                        4803213
MTLF  003.76 044.4 m E Pg      2011/12/19 18:51:16.1   0.2                          T                                        4803212
MTLF  003.76 044.4 m E Sn      2011/12/19 18:51:45.4  -0.1                          T                                        4803214
MTLF  003.76 044.4 m E Sg      2011/12/19 18:52:04.0  -0.1                          T                1.3  .33 Ml 2.2         4803215
LFF   004.51 019.6 m E Pn      2011/12/19 18:51:13.1  -0.4                          T                                        4803207
LFF   004.51 019.6 m E Sn      2011/12/19 18:52:03.1  -0.3                          T                1.5  .21 Ml 2.4         4803208
CAF   004.92 029.9 m E Pn      2011/12/19 18:51:20.6   1.4                          T                                        4803218

.
