EVENT     293465
    Date      Time       Latitude Longitude    Depth    Ndef Nsta Gap    Mag1  N    Mag2  N    Mag3  N   Author         ID
       rms   OT_Error      Smajor Sminor Az        Err   mdist  Mdist     Err        Err        Err      Quality

2013/03/08 13:07:04.1     47.7605    6.8125       .0 f    12    6 177  Ml 1.9  3  Md 1.8  2              bulletin    293565
                                                                                                         _ldg
      0.21   +-  0.10       2.0    1.6  118.39 +-  0.0    0.06   1.27   +-0.6      +-0.1                 m i km

FRANCE
Sta     Dist  EvAz     Phase      Date       Time     TRes  Azim  AzRes  Slow  SRes Def   SNR       Amp   Per   Mag1   Mag2       ID
HINF  000.06 025.9 m E Pg      2013/03/08 13:07:05.4  -0.3                          T                                        5219537
HINF  000.06 025.9 m E Sg      2013/03/08 13:07:06.8   0.0                          T              108.1  .29        Md 1.8  5219536
HAU   000.40 308.3 m E Pg      2013/03/08 13:07:12.0   0.0                          T                                        5219535
HAU   000.40 308.3 m E Sg      2013/03/08 13:07:17.8   0.3                          T                4.1  .22        Md 1.7  5219534
CDF   000.72 025.3 m E Pg      2013/03/08 13:07:18.4   0.2                          T                                        5219538
CDF   000.72 025.3 m E Sg      2013/03/08 13:07:27.8   0.1                          T                1.6  .26                5219539
PAGF  001.08 317.9 m E Pg      2013/03/08 13:07:24.7   0.1                          T                                        5219541
PAGF  001.08 317.9 m E Sg      2013/03/08 13:07:39.1   0.4                          T                7.5  .27 Ml 2.3         5219540
SFTF  001.27 291.1 m E Pg      2013/03/08 13:07:27.8  -0.3                          T                                        5219533
SFTF  001.27 291.1 m E Sg      2013/03/08 13:07:44.8   0.0                          T                1.8  .14 Ml 2.0         5219532
CABF  001.25 203.5 m E Pg      2013/03/08 13:07:28.0   0.1                          T                                        5219531
CABF  001.25 203.5 m E Sg      2013/03/08 13:07:44.3   0.1                          T                 .4  .17 Ml 1.2         5219530

.
EVENT     293462
    Date      Time       Latitude Longitude    Depth    Ndef Nsta Gap    Mag1  N    Mag2  N    Mag3  N   Author         ID
       rms   OT_Error      Smajor Sminor Az        Err   mdist  Mdist     Err        Err        Err      Quality

2013/03/08 13:15:57.1     44.6251    6.4815      2.0       8    4 240  Ml 1.3  2  Md 1.4  2              bulletin    293562
                                                                                                         _ldg
      0.40   +-  0.41       8.1    4.0     .43 +-  0.0    0.23   0.91   +-0.0      +-0.3                 m i ke

FRANCE
Sta     Dist  EvAz     Phase      Date       Time     TRes  Azim  AzRes  Slow  SRes Def   SNR       Amp   Per   Mag1   Mag2       ID
MBDF  000.23 063.7 m E Pg      2013/03/08 13:16:02.2   0.3                          T                                        5219464
MBDF  000.23 063.7 m E Sg      2013/03/08 13:16:04.1  -1.0                          T                4.0  .17        Md 1.2  5219463
ORIF  000.52 304.6 m E Pg      2013/03/08 13:16:06.8  -0.4                          T                                        5219462
ORIF  000.52 304.6 m E Sg      2013/03/08 13:16:14.5   0.6                          T                 .4  .20        Md 1.5  5219461
LPG   000.89 012.3 m E Pg      2013/03/08 13:16:14.2  -0.1                          T                                        5219543
LPG   000.89 012.3 m E Sg      2013/03/08 13:16:25.8  -0.1                          T                 .5  .15 Ml 1.3         5219542
LPL   000.91 011.2 m E Pg      2013/03/08 13:16:14.7   0.3                          T                                        5219507
LPL   000.91 011.2 m E Sg      2013/03/08 13:16:26.1  -0.2                          T                 .8  .22 Ml 1.3         5219506

.
EVENT     293467
    Date      Time       Latitude Longitude    Depth    Ndef Nsta Gap    Mag1  N    Mag2  N    Mag3  N   Author         ID
       rms   OT_Error      Smajor Sminor Az        Err   mdist  Mdist     Err        Err        Err      Quality

2013/03/08 17:01:26.3     43.0166    -.9663      2.0      10    4 185  Ml 1.4  3  Md 1.4  2              bulletin    293567
                                                                                                         _ldg
      0.18   +-  0.09       2.2    1.2   20.74 +-  0.0    0.21   2.28   +-0.4      +-0.0                 m i ke

PYRENEES
Sta     Dist  EvAz     Phase      Date       Time     TRes  Azim  AzRes  Slow  SRes Def   SNR       Amp   Per   Mag1   Mag2       ID
SJPF  000.21 297.1 m E Pg      2013/03/08 17:01:30.3  -0.2                          T                                        5219567
SJPF  000.21 297.1 m E Sg      2013/03/08 17:01:33.7   0.2                          T                                Md 1.4  5219566
ETSF  000.32 111.4 m E Pg      2013/03/08 17:01:32.5  -0.1                          T                                        5219565
ETSF  000.32 111.4 m E Sg      2013/03/08 17:01:37.1   0.1                          T                                Md 1.3  5219564
EPF   000.96 088.7 m E Pg      2013/03/08 17:01:44.5   0.2                          T                                        5219571
EPF   000.96 088.7 m E Sg      2013/03/08 17:01:56.6  -0.2                          T                 .2  .14 Ml  .9         5219570
LFF   002.28 032.1 m E Pn      2013/03/08 17:02:03.0  -0.2                          T                                        5219569
LFF   002.28 032.1 m E Pg      2013/03/08 17:02:08.5  -0.1                          T                                        5219573
LFF   002.28 032.1 m E Sn      2013/03/08 17:02:30.2   0.0                          T                 .7  .19 Ml 1.6         5219568
LFF   002.28 032.1 m E Sg      2013/03/08 17:02:38.4   0.3                          T                 .4  .15 Ml 1.5         5219572

.
EVENT     293468
    Date      Time       Latitude Longitude    Depth    Ndef Nsta Gap    Mag1  N    Mag2  N    Mag3  N   Author         ID
       rms   OT_Error      Smajor Sminor Az        Err   mdist  Mdist     Err        Err        Err      Quality

2013/03/08 23:21:48.8     51.6063    6.8144      1.0 f    37   15 270  Ml 2.7 10  Md 2.7  1              bulletin    293568
                                                                                                         _ldg
      0.45   +-  0.16       2.6    1.8   21.27 +-  0.0    0.28   5.90   +-0.3      +-                    m i sr

GERMANY
Sta     Dist  EvAz     Phase      Date       Time     TRes  Azim  AzRes  Slow  SRes Def   SNR       Amp   Per   Mag1   Mag2       ID
GIVF  001.96 220.7 m E Pg      2013/03/08 23:22:24.9  -0.4                          T                                        5219594
GIVF  001.96 220.7 m E Sg      2013/03/08 23:22:49.8  -0.8                          T               20.3  .29 Ml 3.0 Md 2.7  5219597
BAIF  002.27 227.9 m E Pn      2013/03/08 23:22:25.4  -0.1                          T                                        5219604
BAIF  002.27 227.9 m E Pg      2013/03/08 23:22:30.6  -0.2                          T                                        5221711
BAIF  002.27 227.9 m E Sg      2013/03/08 23:22:59.9   0.0                          T               12.8  .42 Ml 2.8         5219605
CDF   003.21 174.5 m E Pn      2013/03/08 23:22:38.4  -0.1                          T                                        5219585
CDF   003.21 174.5 m E Pg      2013/03/08 23:22:48.6   0.2                          T                                        5221710
CDF   003.21 174.5 m E Sn      2013/03/08 23:23:15.1  -0.1                          T                                        5219579
CDF   003.21 174.5 m E Sg      2013/03/08 23:23:29.3  -0.3                          T                4.8  .46 Ml 2.6         5219607
SFTF  003.59 199.3 m E Pn      2013/03/08 23:22:43.8   0.1                          T                                        5221707
SFTF  003.59 199.3 m E Pg      2013/03/08 23:22:55.1  -0.3  16.4  -1.6              T                                        5221706
SFTF  003.59 199.3 m E Sg      2013/03/08 23:23:41.7   0.2                          T                6.7  .43 Ml 2.8         5219606
HAU   003.62 185.0 m E Pn      2013/03/08 23:22:44.2   0.2                          T                                        5219598
HAU   003.62 185.0 m E Pg      2013/03/08 23:22:55.7  -0.1                          T                                        5221705
HAU   003.62 185.0 m E Sg      2013/03/08 23:23:42.3   0.1                          T                5.5  .38 Ml 2.5         5221709
PAGF  003.13 193.4 m E Pg      2013/03/08 23:22:47.2   0.4  10.9  -1.6              T                                        5219595
PAGF  003.13 193.4 m E Sg      2013/03/08 23:23:27.6   0.4                          T                                        5219596
LOR   004.75 205.1 m E Pn      2013/03/08 23:22:59.2  -0.2  27.7  4.8               T                                        5219582
LOR   004.75 205.1 m E Sn      2013/03/08 23:23:51.8  -0.1                          T                                        5219575
LOR   004.75 205.1 m E Sg      2013/03/08 23:24:17.9   0.3  22.2  -0.6              T                5.2  .44 Ml 2.9         5219602
SSF   005.04 206.7 m E Pn      2013/03/08 23:23:03.3   0.0                          T                                        5219583
SSF   005.04 206.7 m E Sn      2013/03/08 23:23:58.7   0.0                          T                                        5219574
SSF   005.04 206.7 m E Sg      2013/03/08 23:24:26.0  -0.4                          T                4.0  .37 Ml 3.0         5219603
AVF   005.33 206.5 m E Pn      2013/03/08 23:23:07.2   0.0                          T                                        5219600
SMF   005.33 202.6 m E Pn      2013/03/08 23:23:07.3   0.0                          T                                        5219599
LDF   005.39 238.7 m E Pn      2013/03/08 23:23:08.1   0.1                          T                                        5219592
LDF   005.39 238.7 m E Sn      2013/03/08 23:24:06.8  -0.2                          T                 .5  .21 Ml 2.3         5219589
FLN   005.48 241.6 m E Pn      2013/03/08 23:23:10.2   0.8                          T                                        5219593
FLN   005.48 241.6 m E Sn      2013/03/08 23:24:09.9   0.6  60.0  4.1               T                                        5219588
BGF   005.68 208.8 m E Pn      2013/03/08 23:23:12.4   0.3                          T                                        5219601
GRR   005.90 239.9 m E Pn      2013/03/08 23:23:13.6  -1.4                          T                                        5219591
GRR   005.90 239.9 m E Sn      2013/03/08 23:24:19.3  -0.1                          T                2.1  .24 Ml 2.9         5219590
HINF  003.79 179.6 m E Sg      2013/03/08 23:23:47.5  -0.3                          T                1.4  .24 Ml 2.4         5221708

.
EVENT     293470
    Date      Time       Latitude Longitude    Depth    Ndef Nsta Gap    Mag1  N    Mag2  N    Mag3  N   Author         ID
       rms   OT_Error      Smajor Sminor Az        Err   mdist  Mdist     Err        Err        Err      Quality

2013/03/09 01:29:32.6     42.8297    2.8270      2.0      55    9 121  Ml 1.7  8  Md 1.8  1              bulletin    293570
                                                                                                         _ldg
      0.61   +-  0.07       1.4    1.0   88.28 +-  0.0    0.01   2.99   +-0.3      +-                    m i ke

PYRENEES
Sta     Dist  EvAz     Phase      Date       Time     TRes  Azim  AzRes  Slow  SRes Def   SNR       Amp   Per   Mag1   Mag2       ID
MTLF  000.68 319.1 m E Pg      2013/03/09 01:29:45.3  -0.1                          T                                        5221715
MTLF  000.68 319.1 m E Pn      2013/03/09 01:29:47.9   0.3                          T                                        5221716
MTLF  000.68 319.1 m E Sg      2013/03/09 01:29:54.4   0.1                          T                                        5219613
MTLF  000.68 319.1 m E Sn      2013/03/09 01:29:58.5   0.3                          T               10.3  .16        Md 1.8  5219612
LASF  001.45 030.7 m E Pg      2013/03/09 01:29:59.9   0.2                          T                                        5219610
LASF  001.45 030.7 m E Sg      2013/03/09 01:30:18.7   0.2                          T                1.4  .23 Ml 1.8         5219611
EPF   001.84 277.1 m E Pn      2013/03/09 01:30:03.3  -0.1                          T                                        5221023
EPF   001.84 277.1 m E Pg      2013/03/09 01:30:06.6  -0.2                          T                                        5219609
EPF   001.84 277.1 m E Sn      2013/03/09 01:30:25.9  -0.1                          T                                        5221018
EPF   001.84 277.1 m E Sg      2013/03/09 01:30:30.3  -0.2                          T                1.5  .22 Ml 2.0         5219608
CAF   002.17 345.5 m E Pn      2013/03/09 01:30:07.8  -0.1                          T                                        5221039
CAF   002.17 345.5 m E Pg      2013/03/09 01:30:12.8   0.0                          T                                        5221038
CAF   002.17 345.5 m E Sn      2013/03/09 01:30:33.8   0.0                          T                                        5221037
CAF   002.17 345.5 m E Sg      2013/03/09 01:30:40.9   0.2                          T                 .6  .15 Ml 1.8         5221036
VIVF  002.43 032.8 m E Pn      2013/03/09 01:30:11.6   0.1                          T                                        5221028
VIVF  002.43 032.8 m E Sn      2013/03/09 01:30:40.3   0.3                          T                                        5221027
VIVF  002.43 032.8 m E Sg      2013/03/09 01:30:49.0   0.1                          T                 .2  .19 Ml 1.4         5221026
ETSF  002.49 272.7 m E Pn      2013/03/09 01:30:12.3  -0.1                          T                                        5221022
ETSF  002.49 272.7 m E Pg      2013/03/09 01:30:18.3  -0.6                          T                                        5221021
ETSF  002.49 272.7 m E Sn      2013/03/09 01:30:41.1  -0.5                          T                                        5221020
ETSF  002.49 272.7 m E Sg      2013/03/09 01:30:50.6  -0.3                          T                1.9  .30 Ml 2.1         5221019
LFF   002.59 325.1 m E Pn      2013/03/09 01:30:13.3  -0.4                          T                                        5221035
LFF   002.59 325.1 m E Pg      2013/03/09 01:30:20.7   0.0                          T                                        5221034
LFF   002.59 325.1 m E Sg      2013/03/09 01:30:54.2   0.2                          T                 .8  .25 Ml 1.7         5221033
RJF   002.65 339.6 m E Pn      2013/03/09 01:30:14.8   0.3                          T                                        5221032
RJF   002.65 339.6 m E Pg      2013/03/09 01:30:22.5   0.8                          T                                        5221031
RJF   002.65 339.6 m E Sn      2013/03/09 01:30:44.8  -0.4                          T                                        5221030
RJF   002.65 339.6 m E Sg      2013/03/09 01:30:56.3   0.5                          T                1.0  .21 Ml 1.7         5221029
SJPF  002.99 276.8 m E Pn      2013/03/09 01:30:19.0   0.0                          T                                        5221042
SJPF  002.99 276.8 m E Pg      2013/03/09 01:30:27.8  -0.2                          T                                        5221041
SJPF  002.99 276.8 m E Sn      2013/03/09 01:30:52.4  -0.9                          T                 .1  .16 Ml 1.2         5221040

.
