EVENT     297739
    Date      Time       Latitude Longitude    Depth    Ndef Nsta Gap    Mag1  N    Mag2  N    Mag3  N   Author         ID
       rms   OT_Error      Smajor Sminor Az        Err   mdist  Mdist     Err        Err        Err      Quality

2013/05/09 00:07:51.9     44.4732    6.4844      2.0      24   10 092  Ml 1.6  7  Md 1.7  2              bulletin    297839
                                                                                                         _ldg
      1.10   +-  0.08       1.9    1.4   86.87 +-  0.0    0.33   1.93   +-0.4      +-0.3                 m i ke

FRANCE
Sta     Dist  EvAz     Phase      Date       Time     TRes  Azim  AzRes  Slow  SRes Def   SNR       Amp   Per   Mag1   Mag2       ID
MBDF  000.33 038.8 m E Pg      2013/05/09 00:07:58.4   0.0                          T                                        5278260
MBDF  000.33 038.8 m E Sg      2013/05/09 00:08:02.5  -0.3                          T               19.1  .66        Md 1.5  5278259
ORIF  000.62 316.1 m E Pg      2013/05/09 00:08:03.0  -0.8                          T                                        5278264
ORIF  000.62 316.1 m E Pn      2013/05/09 00:08:06.3   0.0                          T                                        5278271
ORIF  000.62 316.1 m E Sg      2013/05/09 00:08:12.1   0.3                          T                1.3  .29                5278263
SMRF  000.82 233.1 m E Pg      2013/05/09 00:08:07.5   0.1                          T                                        5278270
SMRF  000.82 233.1 m E Pn      2013/05/09 00:08:08.9   0.0                          T                                        5278254
SMRF  000.82 233.1 m E Sg      2013/05/09 00:08:18.1   0.1                          T                 .8  .20                5278269
FRF   000.92 172.6 m E Pg      2013/05/09 00:08:09.3   0.1                          T                                        5278268
FRF   000.92 172.6 m E Sg      2013/05/09 00:08:20.9  -0.2                          T                5.0  .24 Ml 2.1         5278267
SBF   000.92 131.4 m E Pg      2013/05/09 00:08:09.3   0.1                          T                                        5278262
SBF   000.92 131.4 m E Sg      2013/05/09 00:08:21.1   0.0                          T                4.0  .36 Ml 1.8         5278261
LPG   001.04 010.4 m E Pg      2013/05/09 00:08:11.8   0.1                          T                                        5278256
LPG   001.04 010.4 m E Sg      2013/05/09 00:08:25.2  -0.1                          T                 .4  .25 Ml 1.1         5278255
LPL   001.06 009.5 m E Pg      2013/05/09 00:08:11.9   0.0                          T                                        5278258
LPL   001.06 009.5 m E Sg      2013/05/09 00:08:25.6  -0.1                          T                 .9  .31 Ml 1.3         5278257
LMR   001.14 179.1 m E Pg      2013/05/09 00:08:12.9  -0.3                          T                                        5278266
LMR   001.14 179.1 m E Sg      2013/05/09 00:08:27.7  -0.3                          T                1.8  .19 Ml 1.9         5278265
VIVF  001.35 287.1 m E Pn      2013/05/09 00:08:16.1   0.1                          T                                        5278277
VIVF  001.35 287.1 m E Sn      2013/05/09 00:08:33.8   0.3                          T                1.4  .32 Ml 1.6         5278276
LASF  001.93 259.0 m E Pn      2013/05/09 00:08:24.3   0.3                          T                                        5278275
LASF  001.93 259.0 m E Sn      2013/05/09 00:08:47.2  -0.1                          T                 .3  .19 Ml 1.4         5278274

.
EVENT     297756
    Date      Time       Latitude Longitude    Depth    Ndef Nsta Gap    Mag1  N    Mag2  N    Mag3  N   Author         ID
       rms   OT_Error      Smajor Sminor Az        Err   mdist  Mdist     Err        Err        Err      Quality

2013/05/09 05:54:40.6     43.0462    -.2073      2.0      46   10 079  Ml 2.6  6  Md 2.3  2              bulletin    297856
                                                                                                         _ldg
      0.55   +-  0.08       1.6    1.2    3.01 +-  0.0    0.13   3.67   +-0.2      +-0.0                 m i ke

PYRENEES
Sta     Dist  EvAz     Phase      Date       Time     TRes  Azim  AzRes  Slow  SRes Def   SNR       Amp   Per   Mag1   Mag2       ID
ETSF  000.30 240.4 m E Pg      2013/05/09 05:54:46.2  -0.3                          T                                        5278301
ETSF  000.30 240.4 m E Sg      2013/05/09 05:54:50.4  -0.1                          T              124.7  .34        Md 2.3  5278293
EPF   000.40 092.1 m E Pg      2013/05/09 05:54:48.1  -0.3                          T                                        5278300
EPF   000.40 092.1 m E Sg      2013/05/09 05:54:53.6  -0.2                          T               61.7  .20        Md 2.3  5278294
SJPF  000.75 275.5 m E Pg      2013/05/09 05:54:54.4  -0.3                          T                                        5278299
SJPF  000.75 275.5 m E Sg      2013/05/09 05:55:05.2   0.6                          T               25.8  .24                5278292
MTLF  001.80 079.7 m E Pg      2013/05/09 05:55:14.8   0.7                          T                                        5278296
MTLF  001.80 079.7 m E Sg      2013/05/09 05:55:37.8   0.6                          T                3.6  .24 Ml 2.3         5278295
LFF   002.01 019.5 m E Pg      2013/05/09 05:55:18.4   0.4                          T                                        5278298
LFF   002.01 019.5 m E Sg      2013/05/09 05:55:44.6   0.6                          T               15.5  .26 Ml 2.8         5278291
CAF   002.49 040.3 m E Pg      2013/05/09 05:55:26.7  -0.2                          T                                        5278297
CAF   002.49 040.3 m E Sg      2013/05/09 05:55:59.1   0.1                          T                3.3  .20 Ml 2.5         5278290
RJF   002.58 028.2 m E Pg      2013/05/09 05:55:28.0  -0.4                          T                                        5278303
RJF   002.58 028.2 m E Sg      2013/05/09 05:56:02.3   0.8                          T                5.6  .22 Ml 2.4         5278289
MFF   003.56 000.7 m E Pg      2013/05/09 05:55:46.4   0.0                          T                                        5278305
MFF   003.56 000.7 m E Sg      2013/05/09 05:56:31.6  -0.4                          T                2.4  .27 Ml 2.7         5278304
TCF   003.67 027.2 m E Pg      2013/05/09 05:55:48.5  -0.1                          T                                        5278306
TCF   003.67 027.2 m E Sg      2013/05/09 05:56:36.1   0.4                          T                1.8  .21 Ml 2.6         5278307
LASF  003.13 069.4 m E Sg      2013/05/09 05:56:19.0   0.2                          T                                        5278302

.
EVENT     297757
    Date      Time       Latitude Longitude    Depth    Ndef Nsta Gap    Mag1  N    Mag2  N    Mag3  N   Author         ID
       rms   OT_Error      Smajor Sminor Az        Err   mdist  Mdist     Err        Err        Err      Quality

2013/05/09 06:10:23.8     46.2342    1.0382      2.0      82   27 086  Ml 2.9 29  Md 2.9  4              bulletin    297857
                                                                                                         _ldg
      1.18   +-  0.05       1.1    1.0   25.50 +-  0.0    0.81   4.28   +-0.3      +-0.2                 m i ke

FRANCE
Sta     Dist  EvAz     Phase      Date       Time     TRes  Azim  AzRes  Slow  SRes Def   SNR       Amp   Per   Mag1   Mag2       ID
TCF   000.81 085.8 m E Pg      2013/05/09 06:10:39.4   0.2                          T                                        5278356
TCF   000.81 085.8 m E P       2013/05/09 06:10:40.8  -0.1                          T                                        5289802
TCF   000.81 085.8 m E Sg      2013/05/09 06:10:49.7  -0.1                          T               92.3  .20        Md 2.8  5278351
MFF   000.90 294.6 m E Pg      2013/05/09 06:10:40.7   0.0                          T                                        5278357
MFF   000.90 294.6 m E Pn      2013/05/09 06:10:41.6  -0.2                          T                                        5289731
MFF   000.90 294.6 m E Sg      2013/05/09 06:10:53.1   0.8                          T               58.5  .21 Ml 3.4 Md 3.0  5278358
RJF   000.99 160.0 m E Pg      2013/05/09 06:10:42.3   0.0                          T                                        5278376
RJF   000.99 160.0 m E Pn      2013/05/09 06:10:43.1   0.1                          T                                        5289730
RJF   000.99 160.0 m E P       2013/05/09 06:10:44.5   0.0                          T                                        5289796
RJF   000.99 160.0 m E Sg      2013/05/09 06:10:54.9  -0.2                          T              159.8  .20 Ml 3.4         5278381
BGF   001.29 074.8 m E Pn      2013/05/09 06:10:47.1  -0.1                          T                                        5289739
BGF   001.29 074.8 m E Pg      2013/05/09 06:10:48.1   0.2                          T                                        5278377
BGF   001.29 074.8 m E P       2013/05/09 06:10:48.9   0.0                          T                                        5289800
BGF   001.29 074.8 m E Sg      2013/05/09 06:11:04.5  -0.2                          T              218.6  .40 Ml 3.7 Md 2.6  5278347
LFF   001.31 189.3 m E Pn      2013/05/09 06:10:47.3  -0.1                          T                                        5289729
LFF   001.31 189.3 m E Pg      2013/05/09 06:10:48.6   0.3                          T                                        5278352
LFF   001.31 189.3 m E Sg      2013/05/09 06:11:05.9   0.7                          T               63.7  .34 Ml 3.1         5278346
CAF   001.49 150.8 m E Pn      2013/05/09 06:10:49.6  -0.3                          T                                        5289728
CAF   001.49 150.8 m E Pg      2013/05/09 06:10:51.7   0.0                          T                                        5278375
CAF   001.49 150.8 m E P       2013/05/09 06:10:52.0   0.2                          T                                        5289795
CAF   001.49 150.8 m E Sg      2013/05/09 06:11:10.5  -0.5                          T               60.1  .16 Ml 3.6         5278345
HYF   001.51 046.2 m E Pg      2013/05/09 06:10:52.2   0.2                          T                                        5278353
HYF   001.51 046.2 m E Sg      2013/05/09 06:11:11.8   0.3                          T                                        5278348
AVF   001.69 070.0 m E Pn      2013/05/09 06:10:52.8   0.2                          T                                        5289741
AVF   001.69 070.0 m E Pg      2013/05/09 06:10:55.6   0.3                          T                                        5278355
AVF   001.69 070.0 m E Sg      2013/05/09 06:11:15.7  -1.4                          T               23.9  .32 Ml 3.0         5278350
SSF   001.89 063.2 m E Pn      2013/05/09 06:10:55.4   0.1                          T                                        5289743
SSF   001.89 063.2 m E P       2013/05/09 06:10:57.5   0.0                          T                                        5289803
SSF   001.89 063.2 m E Pg      2013/05/09 06:10:59.1   0.2                          T                                        5278340
SSF   001.89 063.2 m E Sg      2013/05/09 06:11:23.1  -0.2                          T               15.4  .20 Ml 3.2         5278337
SMF   001.98 077.0 m E Pn      2013/05/09 06:10:57.1   0.5                          T                                        5289740
SMF   001.98 077.0 m E Pg      2013/05/09 06:11:00.8   0.1                          T                                        5278354
SMF   001.98 077.0 m E Sg      2013/05/09 06:11:24.7  -1.5                          T               16.4  .24 Ml 3.0         5278349
LOR   002.20 060.9 m E Pn      2013/05/09 06:10:59.7   0.1 237.6  -5.3              T                                        5289742
LOR   002.20 060.9 m E Pg      2013/05/09 06:11:04.5  -0.2 242.4  -0.5              T                                        5278339
LOR   002.20 060.9 m E Sg      2013/05/09 06:11:32.9   0.0 233.8  -9.1              T                8.8  .21 Ml 2.9         5278338
LDF   002.49 342.0 m E P       2013/05/09 06:11:03.5  -2.6                          T                                        5289797
LDF   002.49 342.0 m E Pg      2013/05/09 06:11:10.3   0.4                          T                                        5278374
LDF   002.49 342.0 m E Sg      2013/05/09 06:11:40.7  -1.3                          T                7.6  .27 Ml 2.7         5278335
GRR   002.51 329.8 m E Pn      2013/05/09 06:11:04.2   0.4                          T                                        5289798
GRR   002.51 329.8 m E Pg      2013/05/09 06:11:09.9  -0.5                          T                                        5278373
GRR   002.51 329.8 m E Sg      2013/05/09 06:11:40.8  -1.8                          T               11.3  .22 Ml 2.9         5278336
FLN   002.73 338.4 m E Pn      2013/05/09 06:11:06.7  -0.1                          T                                        5289799
FLN   002.73 338.4 m E Pg      2013/05/09 06:11:14.3  -0.1 156.7  -0.6              T                                        5278372
FLN   002.73 338.4 m E Sg      2013/05/09 06:11:48.3  -1.3 152.1  -5.2              T               11.4  .24 Ml 2.9         5278334
SGMF  003.18 310.8 m E Pn      2013/05/09 06:11:13.4   0.6                          T                                        5289733
SGMF  003.18 310.8 m E Pg      2013/05/09 06:11:22.7   0.1                          T                                        5278363
SGMF  003.18 310.8 m E Sg      2013/05/09 06:12:03.2  -0.2                          T                4.7  .33 Ml 2.6         5278364
QUIF  003.33 301.9 m E Pn      2013/05/09 06:11:15.5   0.6                          T                                        5289732
QUIF  003.33 301.9 m E Pg      2013/05/09 06:11:25.5   0.1                          T                                        5278362
QUIF  003.33 301.9 m E Sg      2013/05/09 06:12:07.7  -0.5                          T                8.7  .34 Ml 2.9         5278361
SJPF  003.51 208.2 m E Pn      2013/05/09 06:11:17.4   0.0                          T                                        5289727
SJPF  003.51 208.2 m E Pg      2013/05/09 06:11:28.3  -0.6                          T                                        5278359
SJPF  003.51 208.2 m E Sg      2013/05/09 06:12:14.0   0.1                          T                 .8  .18 Ml 2.2         5278360
VIVF  002.90 117.0 m E Pg      2013/05/09 06:11:17.5  -0.1                          T                                        5278380
VIVF  002.90 117.0 m E Sg      2013/05/09 06:11:55.6   0.6                          T                2.1  .21 Ml 2.4         5278342
LASF  002.94 136.3 m E Pg      2013/05/09 06:11:18.4   0.2                          T                                        5278379
LASF  002.94 136.3 m E Sg      2013/05/09 06:11:55.7  -0.3                          T                8.9  .24 Ml 3.0         5278344
ROSF  003.61 307.2 m E Pn      2013/05/09 06:11:19.2   0.5                          T                                        5289734
ROSF  003.61 307.2 m E Pg      2013/05/09 06:11:29.9  -0.8                          T                                        5289735
EPF   003.24 189.1 m E Pg      2013/05/09 06:11:24.2   0.3                          T                                        5278378
EPF   003.24 189.1 m E Sn      2013/05/09 06:11:49.0  -1.7                          T                                        5289726
EPF   003.24 189.1 m E Sg      2013/05/09 06:12:05.9   0.4                          T                4.4  .24 Ml 2.7         5278341
SFTF  003.36 052.7 m E Pg      2013/05/09 06:11:26.2   0.1                          T                                        5289801
SFTF  003.36 052.7 m E Sg      2013/05/09 06:12:08.2  -1.1 224.9  -10.7             T                3.1  .18 Ml 2.7         5278370
MEZF  003.55 048.8 m E Pg      2013/05/09 06:11:30.0   0.5                          T                                        5278367
MEZF  003.55 048.8 m E Sg      2013/05/09 06:12:14.4  -0.6 227.2  -4.6              T                4.5  .29 Ml 2.7         5278368
PAGF  003.94 052.2 m E Pg      2013/05/09 06:11:37.3   0.6                          T                                        5278366
PAGF  003.94 052.2 m E Sg      2013/05/09 06:12:26.7  -0.6 224.8  -10.9             T                2.1  .23 Ml 2.6         5278365
MTLF  003.01 163.4 m E Sn      2013/05/09 06:11:44.5  -0.6                          T                                        5289725
MTLF  003.01 163.4 m E Sg      2013/05/09 06:11:58.0  -0.3                          T                4.1  .20 Ml 2.7         5278343
HAU   004.04 062.0 m E Sg      2013/05/09 06:12:29.8  -0.5                          T                4.7  .30 Ml 2.6         5278369
HINF  004.28 066.2 m E Sg      2013/05/09 06:12:37.0  -1.0                          T                4.2  .31 Ml 2.8         5278371

.
EVENT     297758
    Date      Time       Latitude Longitude    Depth    Ndef Nsta Gap    Mag1  N    Mag2  N    Mag3  N   Author         ID
       rms   OT_Error      Smajor Sminor Az        Err   mdist  Mdist     Err        Err        Err      Quality

2013/05/09 09:32:27.5     41.0072    9.3804      2.0      16    8 306  Ml 2.6  5  Md 2.6  1              bulletin    297858
                                                                                                         _ldg
      0.48   +-  0.25       5.3    3.6  133.52 +-  0.0    1.57   6.64   +-0.7      +-                    m i ke

CORSICA, FRANCE
Sta     Dist  EvAz     Phase      Date       Time     TRes  Azim  AzRes  Slow  SRes Def   SNR       Amp   Per   Mag1   Mag2       ID
PGF   001.57 349.6 m E Pn      2013/05/09 09:32:54.9   0.1                          T                                        5278387
PGF   001.57 349.6 m E Sn      2013/05/09 09:33:14.4   0.0                          T               31.4  .22 Ml 3.5 Md 2.6  5278386
SBF   003.20 333.9 m E Pn      2013/05/09 09:33:16.3  -0.7                          T                                        5278384
SBF   003.20 333.9 m E Sn      2013/05/09 09:33:53.4   0.0                          T                2.5  .38 Ml 2.3         5289849
LMR   003.16 318.4 m E Pn      2013/05/09 09:33:16.4   0.2                          T                                        5278388
LMR   003.16 318.4 m E Sn      2013/05/09 09:33:52.4   0.1                          T                  1  .28 Ml 2.0         5289850
FRF   003.26 322.4 m E Pn      2013/05/09 09:33:17.6  -0.1                          T                                        5289843
FRF   003.26 322.4 m E Sn      2013/05/09 09:33:54.8   0.0                          T                 .8  .21 Ml 2.1         5289844
ORIF  004.68 327.9 m E Pn      2013/05/09 09:33:37.2   0.1                          T                                        5289847
ORIF  004.68 327.9 m E P       2013/05/09 09:33:40.8  -0.2                          T                                        5289848
LASF  005.10 308.8 m E Pn      2013/05/09 09:33:43.2   0.3                          T                                        5289842
MTLF  005.81 296.0 m E Pn      2013/05/09 09:33:52.3  -0.1                          T                                        5289845
CAF   006.64 308.5 m E Pn      2013/05/09 09:34:03.8  -0.1                          T                                        5289846

.
