EVENT     253232
    Date      Time       Latitude Longitude    Depth    Ndef Nsta Gap    Mag1  N    Mag2  N    Mag3  N   Author         ID
       rms   OT_Error      Smajor Sminor Az        Err   mdist  Mdist     Err        Err        Err      Quality

2011/01/01 22:01:55.1     44.8168    5.7081      5.0 f    14    6 132  Ml 1.1  2  Md 1.3  3              js067245    253252

      0.77   +-  0.07       1.2    1.1   28.22 +-  0.0    0.16   1.01   +-0.1      +-0.0                 m i ke

FRANCE
Sta     Dist  EvAz     Phase      Date       Time     TRes  Azim  AzRes  Slow  SRes Def   SNR       Amp   Per   Mag1   Mag2       ID
ORIF  000.16 050.2 m E Pg      2011/01/01 22:01:58.6  -0.1                          T                                        4576076
ORIF  000.16 050.2 m E Sg      2011/01/01 22:02:00.9  -0.1                          T               18.7  .20        Md 1.3  4576071
VIVF  000.74 273.4 m E Pg      2011/01/01 22:02:09.0  -0.1                          T                                        4576075
VIVF  000.74 273.4 m E Sg      2011/01/01 22:02:18.7  -0.1                          T                2.1  .45        Md 1.3  4576072
MBDF  000.76 096.4 m E Pg      2011/01/01 22:02:09.7   0.0                          T                                        4576074
MBDF  000.76 096.4 m E Sg      2011/01/01 22:02:19.8   0.0                          T                  1  .24        Md 1.3  4576073
SMRF  000.85 186.5 m E Pg      2011/01/01 22:02:11.3   0.1                          T                                        4576068
SMRF  000.85 186.5 m E Sg      2011/01/01 22:02:22.4   0.3                          T                 .4  .21                4576065
LPG   001.00 046.9 m E Pg      2011/01/01 22:02:14.3  -0.1                          T                                        4576070
LPL   001.01 045.6 m E Pg      2011/01/01 22:02:14.3   0.0                          T                                        4576069
LPG   001.00 046.9 m E Sg      2011/01/01 22:02:27.5   0.1                          T                 .5  .30 Ml 1.0         4576066
LPL   001.01 045.6 m E Sg      2011/01/01 22:02:27.6   0.1                          T                 .5  .26 Ml 1.1         4576067

.
EVENT     253233
    Date      Time       Latitude Longitude    Depth    Ndef Nsta Gap    Mag1  N    Mag2  N    Mag3  N   Author         ID
       rms   OT_Error      Smajor Sminor Az        Err   mdist  Mdist     Err        Err        Err      Quality

2011/01/02 06:05:57.1     47.4139   -3.5817     12.0 f    15    5 311  Ml 1.8  5  Md 2.0  3              js067245    253253

      0.96   +-  0.31       5.0    4.2   23.04 +-  0.0    0.58   2.48   +-0.3      +-0.0                 m i ke

FRANCE
Sta     Dist  EvAz     Phase      Date       Time     TRes  Azim  AzRes  Slow  SRes Def   SNR       Amp   Per   Mag1   Mag2       ID
QUIF  000.58 029.1 m E Pg      2011/01/02 06:06:08.2   0.0                          T                                        4576247
QUIF  000.58 029.1 m E Sg      2011/01/02 06:06:15.8  -0.1                          T                6.8  .24        Md 2.0  4576242
QUIF  000.58 029.1 m E Sn      2011/01/02 06:06:18.8   0.4                          T                                        4577995
ROSF  000.95 012.5 m E Pn      2011/01/02 06:06:14.7   0.0                          T                                        4577993
ROSF  000.95 012.5 m E Pg      2011/01/02 06:06:15.0   0.0                          T                                        4576246
ROSF  000.95 012.5 m E Sg      2011/01/02 06:06:27.3   0.0                          T                4.6  .24 Ml 2.1 Md 2.0  4576244
SGMF  001.09 039.0 m E Pn      2011/01/02 06:06:16.5  -0.1                          T                                        4577994
SGMF  001.09 039.0 m E Pg      2011/01/02 06:06:17.9   0.3                          T                                        4576245
SGMF  001.09 039.0 m E Sg      2011/01/02 06:06:31.5  -0.3                          T                2.3  .28 Ml 1.8 Md 2.0  4576243
FLN   002.48 055.9 m E Pn      2011/01/02 06:06:35.5  -0.1                          T                                        4577998
FLN   002.48 055.9 m E Pg      2011/01/02 06:06:43.1   0.0                          T                                        4577997
FLN   002.48 055.9 m E Sg      2011/01/02 06:07:15.4   0.3                          T                  1  .32 Ml 1.6         4577999
GRR   002.08 061.0 m E Sg      2011/01/02 06:07:02.8   0.3                          T                 .5  .21 Ml 1.4         4577996

.
EVENT     253418
    Date      Time       Latitude Longitude    Depth    Ndef Nsta Gap    Mag1  N    Mag2  N    Mag3  N   Author         ID
       rms   OT_Error      Smajor Sminor Az        Err   mdist  Mdist     Err        Err        Err      Quality

2011/01/02 06:20:27.3     42.7562    1.0288      4.0 f    16    7 073  Ml 1.4  6  Md 1.6  1              js067245    253438

      0.21   +-  0.04        .9     .7   46.45 +-  0.0    0.23   2.57   +-0.2      +-                    m i ke

PYRENEES
Sta     Dist  EvAz     Phase      Date       Time     TRes  Azim  AzRes  Slow  SRes Def   SNR       Amp   Per   Mag1   Mag2       ID
EPF   000.58 298.7 m E Pg      2011/01/02 06:20:38.3   0.0                          T                                        4578001
EPF   000.58 298.7 m E Sg      2011/01/02 06:20:45.9  -0.1                          T                1.9  .18        Md 1.6  4578002
MTLF  001.05 055.7 m E Pg      2011/01/02 06:20:46.9  -0.1                          T                                        4578003
MTLF  001.05 055.7 m E Sg      2011/01/02 06:21:00.5  -0.1                          T                 .8  .24 Ml 1.3         4578004
ETSF  001.18 277.5 m E Pg      2011/01/02 06:20:49.4  -0.1                          T                                        4578009
ETSF  001.18 277.5 m E Sg      2011/01/02 06:21:04.8   0.1                          T                 .7  .21 Ml 1.4         4578000
SJPF  001.69 282.9 m E Sg      2011/01/02 06:21:20.7   0.0                          T                 .5  .21 Ml 1.5         4578008
LFF   002.19 354.6 m E Sg      2011/01/02 06:21:36.3   0.0                          T                 .7  .25 Ml 1.5         4578006
CAF   002.29 018.7 m E Sg      2011/01/02 06:21:39.5   0.0                          T                 .5  .20 Ml 1.7         4578007
RJF   002.57 007.7 m E Sg      2011/01/02 06:21:48.3   0.2                          T                 .3  .21 Ml 1.1         4578005

.
EVENT     253234
    Date      Time       Latitude Longitude    Depth    Ndef Nsta Gap    Mag1  N    Mag2  N    Mag3  N   Author         ID
       rms   OT_Error      Smajor Sminor Az        Err   mdist  Mdist     Err        Err        Err      Quality

2011/01/02 14:27:22.4     43.0628   -1.2782      2.0      10    3 126  Ml 1.2  1  Md 1.2  3              js067245    253254

      0.43   +-  0.12       3.4    1.9   28.14 +-  0.0    0.06   1.19   +-         +-0.0                 m i ke

PYRENEES
Sta     Dist  EvAz     Phase      Date       Time     TRes  Azim  AzRes  Slow  SRes Def   SNR       Amp   Per   Mag1   Mag2       ID
SJPF  000.06 037.6 m E Pg      2011/01/02 14:27:24.3   0.3                          T                                        4576253
SJPF  000.06 037.6 m E Sg      2011/01/02 14:27:25.6   0.6                          T                2.7  .23        Md 1.3  4576252
ETSF  000.55 107.0 m E Pg      2011/01/02 14:27:33.1   0.1                          T                                        4576250
ETSF  000.55 107.0 m E Sg      2011/01/02 14:27:40.3   0.1                          T                 .5  .31        Md 1.2  4576251
EPF   001.19 091.0 m E Pg      2011/01/02 14:27:44.7   0.0                          T                                        4576249
EPF   001.19 091.0 m E Sg      2011/01/02 14:28:00.0   0.0                          T                 .5  .25 Ml 1.2 Md 1.2  4576248

.
EVENT     253235
    Date      Time       Latitude Longitude    Depth    Ndef Nsta Gap    Mag1  N    Mag2  N    Mag3  N   Author         ID
       rms   OT_Error      Smajor Sminor Az        Err   mdist  Mdist     Err        Err        Err      Quality

2011/01/02 15:00:38.2     45.4858    6.4965      2.0      12    5 194  Ml 1.7  1  Md 1.7  3              js067245    253255

      0.32   +-  0.10       2.6    1.0  155.78 +-  0.0    0.17   1.44   +-         +-0.0                 m i ke

FRANCE
Sta     Dist  EvAz     Phase      Date       Time     TRes  Azim  AzRes  Slow  SRes Def   SNR       Amp   Per   Mag1   Mag2       ID
LPG   000.18 086.1 m E Pg      2011/01/02 15:00:42.0  -0.2                          T                                        4576264
LPG   000.18 086.1 m E Sg      2011/01/02 15:00:44.5  -0.3                          T                7.2  .24        Md 1.7  4576261
LPL   000.17 079.5 m E Pg      2011/01/02 15:00:42.0   0.1                          T                                        4576265
LPL   000.17 079.5 m E Sg      2011/01/02 15:00:44.3   0.0                          T                7.0  .18        Md 1.7  4576262
ORIF  000.72 217.7 m E Pg      2011/01/02 15:00:51.9   0.1                          T                                        4576260
ORIF  000.72 217.7 m E Sg      2011/01/02 15:01:01.0  -0.1                          T                3.3  .30        Md 1.7  4576263
MBDF  000.78 165.5 m E Pg      2011/01/02 15:00:52.8  -0.3                          T                                        4576259
MBDF  000.78 165.5 m E Sg      2011/01/02 15:01:03.8   0.4                          T                 .5  .19                4576258
VIVF  001.44 244.6 m E Pg      2011/01/02 15:01:05.1   0.1                          T                                        4576256
VIVF  001.44 244.6 m E Sg      2011/01/02 15:01:23.5   0.0                          T                2.5  .48 Ml 1.7         4576257

.
EVENT     253236
    Date      Time       Latitude Longitude    Depth    Ndef Nsta Gap    Mag1  N    Mag2  N    Mag3  N   Author         ID
       rms   OT_Error      Smajor Sminor Az        Err   mdist  Mdist     Err        Err        Err      Quality

2011/01/02 16:47:58.9     48.0541   -2.7273      5.0 f    22    7 116  Ml 2.0  5  Md 1.8  3              js067245    253256

      0.64   +-  0.09       2.0    1.4    8.65 +-  0.0    0.23   2.28   +-0.2      +-0.1                 m i ke

FRANCE
Sta     Dist  EvAz     Phase      Date       Time     TRes  Azim  AzRes  Slow  SRes Def   SNR       Amp   Per   Mag1   Mag2       ID
SGMF  000.23 029.6 m E Pg      2011/01/02 16:48:04.0   0.4                          T                                        4576279
SGMF  000.23 029.6 m E Sg      2011/01/02 16:48:06.8   0.0                          T               28.0  .24        Md 1.9  4576274
QUIF  000.32 245.1 m E Pg      2011/01/02 16:48:05.6   0.4                          T                                        4576277
QUIF  000.32 245.1 m E Sg      2011/01/02 16:48:10.0   0.3                          T                6.6  .26        Md 1.8  4576273
ROSF  000.46 307.9 m E Pg      2011/01/02 16:48:07.8   0.0                          T                                        4576278
ROSF  000.46 307.9 m E Sg      2011/01/02 16:48:13.4  -0.5                          T               10.0  .20        Md 1.8  4576275
GRR   001.29 074.3 m E Pn      2011/01/02 16:48:21.9  -0.1                          T                                        4576276
GRR   001.29 074.3 m E Pg      2011/01/02 16:48:23.3   0.2                          T                                        4578046
GRR   001.29 074.3 m E Sg      2011/01/02 16:48:39.9   0.1                          T                2.3  .21 Ml 1.9         4576271
FLN   001.66 063.8 m E Pn      2011/01/02 16:48:27.0   0.1                          T                                        4576267
FLN   001.66 063.8 m E Pg      2011/01/02 16:48:29.5  -0.3 245.5  0.0               T                                        4578044
FLN   001.66 063.8 m E Sg      2011/01/02 16:48:50.3  -0.8 245.8  0.3               T                2.2  .32 Ml 1.8         4576266
LDF   001.82 071.8 m E Pn      2011/01/02 16:48:29.0  -0.1                          T                                        4576268
LDF   001.82 071.8 m E Pg      2011/01/02 16:48:33.2   0.4                          T                                        4578045
LDF   001.82 071.8 m E Sg      2011/01/02 16:48:55.6  -0.7                          T                1.5  .26 Ml 1.9         4576272
MFF   002.28 128.6 m E Pn      2011/01/02 16:48:35.5   0.1                          T                                        4576269
MFF   002.28 128.6 m E Pg      2011/01/02 16:48:40.9  -0.3                          T                                        4578043
MFF   002.28 128.6 m E Sg      2011/01/02 16:49:10.7   0.2                          T                1.1  .20 Ml 2.2         4576270

.
EVENT     253237
    Date      Time       Latitude Longitude    Depth    Ndef Nsta Gap    Mag1  N    Mag2  N    Mag3  N   Author         ID
       rms   OT_Error      Smajor Sminor Az        Err   mdist  Mdist     Err        Err        Err      Quality

2011/01/02 18:24:29.5     42.9125     .2476      5.0 f     9    4 196  Ml 1.3  2  Md 1.4  3              js067245    253257

      0.24   +-  0.13       5.0    1.4  169.56 +-  0.0    0.14   1.50   +-0.2      +-0.2                 m i ke

PYRENEES
Sta     Dist  EvAz     Phase      Date       Time     TRes  Azim  AzRes  Slow  SRes Def   SNR       Amp   Per   Mag1   Mag2       ID
EPF   000.14 029.9 m E Pg      2011/01/02 18:24:32.5  -0.1                          T                                        4576288
EPF   000.14 029.9 m E Sg      2011/01/02 18:24:34.5  -0.1                          T               11.0  .18        Md 1.6  4576291
ETSF  000.59 268.9 m E Pg      2011/01/02 18:24:41.0   0.2                          T                                        4576290
ETSF  000.59 268.9 m E Sg      2011/01/02 18:24:47.9  -0.7                          T                3.0  .31        Md 1.3  4576293
SJPF  001.10 281.0 m E Pg      2011/01/02 18:24:50.1   0.0                          T                                        4576287
SJPF  001.10 281.0 m E Sg      2011/01/02 18:25:04.2  -0.1                          T                1.2  .29 Ml 1.5 Md 1.2  4576286
MTLF  001.50 072.8 m E Pg      2011/01/02 18:24:57.4  -0.1                          T                                        4576289
MTLF  001.50 072.8 m E Sg      2011/01/02 18:25:16.6  -0.3                          T                 .4  .25 Ml 1.2         4576292

.
EVENT     253238
    Date      Time       Latitude Longitude    Depth    Ndef Nsta Gap    Mag1  N    Mag2  N    Mag3  N   Author         ID
       rms   OT_Error      Smajor Sminor Az        Err   mdist  Mdist     Err        Err        Err      Quality

2011/01/02 21:03:18.0     43.0911    -.4529      5.0 f    27    7 095  Ml 1.9  5  Md 1.9  3              js067245    253258

      0.44   +-  0.06       1.4    1.0  178.45 +-  0.0    0.05   2.73   +-0.2      +-0.0                 m i ke

PYRENEES
Sta     Dist  EvAz     Phase      Date       Time     TRes  Azim  AzRes  Slow  SRes Def   SNR       Amp   Per   Mag1   Mag2       ID
ETSF  000.21 202.1 m E Pg      2011/01/02 21:03:22.2  -0.2                          T                                        4576309
ETSF  000.21 202.1 m E Sg      2011/01/02 21:03:24.5  -0.8                          T               22.4  .32        Md 1.9  4576303
SJPF  000.57 272.5 m E Pg      2011/01/02 21:03:28.8  -0.1                          T                                        4576308
SJPF  000.57 272.5 m E Sg      2011/01/02 21:03:36.9   0.6                          T                3.6  .28        Md 2.0  4576304
EPF   000.58 095.7 m E Pg      2011/01/02 21:03:28.8  -0.4                          T                                        4576307
EPF   000.58 095.7 m E Sg      2011/01/02 21:03:37.2   0.2                          T                5.7  .18        Md 1.9  4576302
MTLF  001.97 081.8 m E Pg      2011/01/02 21:03:54.7   0.0                          T                                        4576300
MTLF  001.97 081.8 m E Sg      2011/01/02 21:04:19.8  -0.2                          T                3.2  .41 Ml 2.1         4576301
LFF   002.04 024.6 m E Pg      2011/01/02 21:03:56.1   0.2                          T                                        4576306
LFF   002.04 024.6 m E Sg      2011/01/02 21:04:21.2  -0.9                          T                3.0  .39 Ml 1.9         4576305
CAF   002.58 043.9 m E Pg      2011/01/02 21:04:06.1   0.1                          T                                        4576298
CAF   002.58 043.9 m E Sg      2011/01/02 21:04:39.1  -0.1                          T                1.6  .33 Ml 2.0         4576297
RJF   002.63 031.9 m E Pg      2011/01/02 21:04:06.8   0.0                          T                                        4576299
RJF   002.63 031.9 m E Sg      2011/01/02 21:04:40.6   0.0                          T                1.2  .28 Ml 1.6         4576296

.
EVENT     253239
    Date      Time       Latitude Longitude    Depth    Ndef Nsta Gap    Mag1  N    Mag2  N    Mag3  N   Author         ID
       rms   OT_Error      Smajor Sminor Az        Err   mdist  Mdist     Err        Err        Err      Quality

2011/01/03 02:39:21.7     41.8322    2.9278      7.0 f    19    3 249  Ml 1.8  3  Md 1.9  3              js067245    253259

      0.32   +-  0.18       2.8    1.5  135.79 +-  0.0    0.05   2.96   +-0.1      +-0.0                 m i ke

SPAIN
Sta     Dist  EvAz     Phase      Date       Time     TRes  Azim  AzRes  Slow  SRes Def   SNR       Amp   Per   Mag1   Mag2       ID
MTLF  001.60 341.1 m E Pg      2011/01/03 02:39:51.5   0.0                          T                                        4576476
MTLF  001.60 341.1 m E Sg      2011/01/03 02:40:11.2  -0.9                          T                1.3  .28 Ml 1.8 Md 2.0  4576479
EPF   002.26 302.9 m E Pg      2011/01/03 02:40:03.6  -0.2                          T                                        4576475
EPF   002.26 302.9 m E Sg      2011/01/03 02:40:32.7  -0.1                          T                1.8  .33 Ml 2.0 Md 1.9  4576478
ETSF  002.80 293.6 m E Pg      2011/01/03 02:40:13.5  -0.2                          T                                        4576474
ETSF  002.80 293.6 m E Sg      2011/01/03 02:40:49.4  -0.2                          T                1.0  .46 Ml 1.7 Md 1.9  4576477

.
