EVENT     279208
    Date      Time       Latitude Longitude    Depth    Ndef Nsta Gap    Mag1  N    Mag2  N    Mag3  N   Author         ID
       rms   OT_Error      Smajor Sminor Az        Err   mdist  Mdist     Err        Err        Err      Quality

2012/07/06 10:13:58.6     45.3032    3.2023       .0 f    38   21 046  Ml 2.6 21  Md 2.5  4              bulletin    279308
                                                                                                         _ldg
      0.24   +-  0.04        .7     .7  120.56 +-  0.0    0.87   3.56   +-0.3      +-0.1                 m i km

FRANCE
Sta     Dist  EvAz     Phase      Date       Time     TRes  Azim  AzRes  Slow  SRes Def   SNR       Amp   Per   Mag1   Mag2       ID
CAF   000.89 245.3 m E Pg      2012/07/06 10:14:15.7   0.1                          T                                        5020908
CAF   000.89 245.3 m E Pn      2012/07/06 10:14:16.8  -0.1                          T                                        5020928
CAF   000.89 245.3 m E Sg      2012/07/06 10:14:27.3  -0.1                          T                                        5020916
CAF   000.89 245.3 m E Sn      2012/07/06 10:14:29.9   0.0                          T               28.8  .36 Ml 2.7 Md 2.4  5020915
VIVF  001.13 112.7 m E Pg      2012/07/06 10:14:20.3   0.2                          T                                        5020905
VIVF  001.13 112.7 m E Sg      2012/07/06 10:14:34.8  -0.1                          T               27.1  .32 Ml 2.8 Md 2.6  5020919
RJF   001.19 270.7 m E Pn      2012/07/06 10:14:21.0   0.0                          T                                        5020906
RJF   001.19 270.7 m E Sn      2012/07/06 10:14:36.9  -0.1                          T               38.7  .40 Ml 2.6 Md 2.5  5020921
TCF   001.21 325.2 m E Pg      2012/07/06 10:14:21.3  -0.1                          T                                        5020902
TCF   001.21 325.2 m E Sg      2012/07/06 10:14:37.5   0.3                          T               13.6  .45 Ml 2.4         5027849
BGF   001.28 348.9 m E Pn      2012/07/06 10:14:22.0  -0.2                          T                                        5020922
BGF   001.28 348.9 m E Pg      2012/07/06 10:14:22.7   0.0                          T                                        5020907
BGF   001.28 348.9 m E Sn      2012/07/06 10:14:39.5   0.3                          T               52.9  .28 Ml 3.2         5020927
LASF  001.31 158.9 m E Pn      2012/07/06 10:14:22.9   0.2                          T                                        5020904
LASF  001.31 158.9 m E Sg      2012/07/06 10:14:40.4  -0.1                          T               45.4  .46 Ml 2.9         5027841
SMF   001.41 018.1 m E Pn      2012/07/06 10:14:23.8  -0.2                          T                                        5020903
SMF   001.41 018.1 m E Sn      2012/07/06 10:14:42.3  -0.2                          T               19.3  .36 Ml 2.7         5020926
LFF   001.78 259.1 m E Pn      2012/07/06 10:14:29.2   0.3                          T                                        5020918
LFF   001.78 259.1 m E Pg      2012/07/06 10:14:31.9   0.0                          T                                        5020917
ORIF  001.93 100.5 m E Pn      2012/07/06 10:14:31.0  -0.2                          T                                        5020913
ORIF  001.93 100.5 m E Pg      2012/07/06 10:14:35.0   0.1                          T                                        5020914
ORIF  001.93 100.5 m E Sg      2012/07/06 10:15:00.2   0.1                          T               20.8  .62 Ml 2.7         5027840
MTLF  002.09 200.2 m E Pn      2012/07/06 10:14:32.9  -0.2                          T                                        5020909
MTLF  002.09 200.2 m E Pg      2012/07/06 10:14:37.6   0.1                          T                                        5020910
MTLF  002.09 200.2 m E Sn      2012/07/06 10:14:58.4  -0.1                          T                1.4  .30 Ml 1.9         5020920
AVF   001.49 004.0 m E Sn      2012/07/06 10:14:44.2  -0.1                          T                                        5020925
AVF   001.49 004.0 m E Sg      2012/07/06 10:14:46.3   0.3                          T               13.2  .34 Ml 2.6         5027845
EPF   003.07 223.2 m E Pn      2012/07/06 10:14:46.6   0.0                          T                                        5020911
SSF   001.77 006.7 m E Sn      2012/07/06 10:14:50.9  -0.1                          T                2.2  .32 Ml 2.1         5020924
SSF   001.77 006.7 m E Sg      2012/07/06 10:14:54.3  -0.5                          T               14.1  .46 Ml 2.7         5020923
LOR   002.02 012.8 m E Sg      2012/07/06 10:15:02.1  -0.4                          T                7.3  .32 Ml 2.6         5027848
CABF  002.40 056.0 m E Sg      2012/07/06 10:15:14.8   0.2                          T                9.3  .36 Ml 2.7         5027846
LPL   002.50 083.8 m E Sg      2012/07/06 10:15:17.1  -0.6                          T                5.9  .48 Ml 2.4         5027838
MBDF  002.60 101.6 m E Sg      2012/07/06 10:15:20.8   0.1                          T                7.6  .60 Ml 2.4         5027839
MFF   002.67 300.3 m E Sg      2012/07/06 10:15:23.4   0.4                          T               12.1  .60 Ml 2.8         5027842
MEZF  003.44 021.0 m E Sg      2012/07/06 10:15:47.3   0.3                          T               13.2  .40 Ml 3.0         5027843
HAU   003.46 037.6 m E Sg      2012/07/06 10:15:48.7   1.0                          T                7.1  .38 Ml 2.6         5027847
HINF  003.56 043.7 m E Sg      2012/07/06 10:15:50.9   0.2                          T                4.9  .40 Ml 2.6         5027844

.
EVENT     279198
    Date      Time       Latitude Longitude    Depth    Ndef Nsta Gap    Mag1  N    Mag2  N    Mag3  N   Author         ID
       rms   OT_Error      Smajor Sminor Az        Err   mdist  Mdist     Err        Err        Err      Quality

2012/07/06 10:24:39.9     48.5809   -1.6786       .0 f    16    7 179  Ml 2.6  4  Md 2.0  3              bulletin    279298
                                                                                                         _ldg
      1.17   +-  0.31       9.3    4.1  174.49 +-  0.0    0.58   2.24   +-0.4      +-0.1                 m i km

FRANCE
Sta     Dist  EvAz     Phase      Date       Time     TRes  Azim  AzRes  Slow  SRes Def   SNR       Amp   Per   Mag1   Mag2       ID
GRR   000.58 109.1 m E Pg      2012/07/06 10:24:51.7   0.5                          T                4.3  .15        Md 2.2  5020756
GRR   000.58 109.1 m E Sg      2012/07/06 10:25:01.3   2.3                          T   001.0        6.7  .16                5020765
SGMF  000.67 241.1 m E Pg      2012/07/06 10:24:52.8  -0.1                          T                                        5020761
SGMF  000.67 241.1 m E Sg      2012/07/06 10:24:59.8  -2.0                          T   001.0        2.6  .22        Md 1.9  5020776
FLN   000.81 076.6 m E Pn      2012/07/06 10:24:56.0  -1.2 265.2  7.7               T                                        5020760
FLN   000.81 076.6 m E Sn      2012/07/06 10:25:09.4   0.0                          T                6.2  .17        Md 2.0  5020759
LDF   001.03 088.7 m E Pn      2012/07/06 10:25:00.7   0.5                          T                                        5020758
LDF   001.03 088.7 m E Sn      2012/07/06 10:25:14.4  -0.3                          T               49.2  .27 Ml 3.1         5020757
ROSF  001.09 257.6 m E Pg      2012/07/06 10:25:01.0   0.5                          T                                        5020755
ROSF  001.09 257.6 m E Pn      2012/07/06 10:25:01.2   0.2                          T   001.0                                5020774
ROSF  001.09 257.6 m E Sn      2012/07/06 10:25:15.2  -0.8                          T   001.0        8.0  .30 Ml 2.3         5020775
QUIF  001.20 236.8 m E Pg      2012/07/06 10:25:03.2   0.7                          T   001.0                                5020773
QUIF  001.20 236.8 m E Sg      2012/07/06 10:25:18.7   0.5                          T                6.8  .27 Ml 2.3         5020777
MFF   002.24 151.8 m E Pg      2012/07/06 10:25:20.9  -0.8                          T                                        5020778
MFF   002.24 151.8 m E Sn      2012/07/06 10:25:44.4   1.0                          T   001.0                                5020769
MFF   002.24 151.8 m E Sg      2012/07/06 10:25:48.9  -1.8                          T   001.0        3.9  .24 Ml 2.6         5020770

.
EVENT     279212
    Date      Time       Latitude Longitude    Depth    Ndef Nsta Gap    Mag1  N    Mag2  N    Mag3  N   Author         ID
       rms   OT_Error      Smajor Sminor Az        Err   mdist  Mdist     Err        Err        Err      Quality

2012/07/06 10:29:21.0     44.4637    6.9425      2.0      18    7 094  Ml 1.5  5  Md 1.7  2              bulletin    279313
                                                                                                         _ldg
      0.29   +-  0.07       1.7    1.2   83.69 +-  0.0    0.12   1.17   +-0.4      +-0.1                 m i ke

FRANCE
Sta     Dist  EvAz     Phase      Date       Time     TRes  Azim  AzRes  Slow  SRes Def   SNR       Amp   Per   Mag1   Mag2       ID
MBDF  000.29 335.1 m E Pg      2012/07/06 10:29:26.5  -0.4                          T                                Md 1.7  5020991
MBDF  000.29 335.1 m E Sg      2012/07/06 10:29:31.6   0.8                          T                3.3  .26        Md 1.6  5020989
FRF   000.93 193.4 m E Pg      2012/07/06 10:29:38.7   0.2                          T                                        5020992
FRF   000.93 193.4 m E Sg      2012/07/06 10:29:50.5   0.0                          T                2.8  .20 Ml 2.0         5020990
SMRF  001.10 244.1 m E Pg      2012/07/06 10:29:41.3  -0.3                          T                                        5020993
SMRF  001.10 244.1 m E Sg      2012/07/06 10:29:56.7   0.8                          T                 .5  .31 Ml 1.0         5027872
LPL   001.06 352.0 m E Pg      2012/07/06 10:29:41.4   0.1                          T                                        5020997
LMR   001.17 195.6 m E Pn      2012/07/06 10:29:42.9   0.1                          T                                        5020988
LMR   001.17 195.6 m E Sg      2012/07/06 10:29:58.1   0.0                          T                 .9  .17 Ml 1.6         5020994
ORIF  000.88 301.3 m E Sg      2012/07/06 10:29:49.3   0.1                          T                1.2  .31 Ml 1.4         5027871
LPG   001.04 352.6 m E Sg      2012/07/06 10:29:54.1  -0.4                          T                 .6  .19 Ml 1.3         5020995

.
EVENT     279204
    Date      Time       Latitude Longitude    Depth    Ndef Nsta Gap    Mag1  N    Mag2  N    Mag3  N   Author         ID
       rms   OT_Error      Smajor Sminor Az        Err   mdist  Mdist     Err        Err        Err      Quality

2012/07/06 10:40:18.7     43.0785   -1.1437      2.0      21    9 187  Ml 2.3 11  Md 2.4  2              bulletin    279304
                                                                                                         _ldg
      0.39   +-  0.14       2.6    1.6   30.46 +-  0.0    0.07   3.77   +-0.2      +-0.5                 m i ke

PYRENEES
Sta     Dist  EvAz     Phase      Date       Time     TRes  Azim  AzRes  Slow  SRes Def   SNR       Amp   Per   Mag1   Mag2       ID
SJPF  000.07 300.3 m E Pg      2012/07/06 10:40:20.7   0.3                          T                                        5020810
SJPF  000.07 300.3 m E Sg      2012/07/06 10:40:21.8   0.3                          T              386.3  .17        Md 2.8  5020809
ETSF  000.47 112.6 m E Pg      2012/07/06 10:40:27.3  -0.3                          T                                        5020808
ETSF  000.47 112.6 m E Sg      2012/07/06 10:40:33.6  -0.2                          T               81.6  .28        Md 2.0  5020807
EPF   001.09 092.0 m E Pg      2012/07/06 10:40:39.1   0.0                          T                                        5020806
EPF   001.09 092.0 m E Sg      2012/07/06 10:40:53.8   0.6                          T               12.5  .23 Ml 2.6         5020805
LFF   002.30 035.5 m E Pn      2012/07/06 10:40:56.1   0.3                          T                                        5020818
LFF   002.30 035.5 m E Sn      2012/07/06 10:41:23.0  -0.1                          T                5.0  .36 Ml 2.2         5020817
LFF   002.30 035.5 m E Sg      2012/07/06 10:41:31.4   0.3                          T                7.8  .30 Ml 2.5         5027877
CAF   002.96 050.3 m E Pn      2012/07/06 10:41:04.3  -0.5                          T                                        5020813
CAF   002.96 050.3 m E Sn      2012/07/06 10:41:39.2   0.3                          T                 .9  .18 Ml 2.1         5020814
CAF   002.96 050.3 m E Sg      2012/07/06 10:41:52.0   0.3                          T                3.6  .23 Ml 2.6         5027878
MTLF  002.47 082.8 m E Pg      2012/07/06 10:41:04.5   0.0                          T                                        5020812
MTLF  002.47 082.8 m E Sn      2012/07/06 10:41:26.0  -1.1                          T                1.9  .37 Ml 2.0         5020811
MTLF  002.47 082.8 m E Sg      2012/07/06 10:41:36.8   0.4                          T                2.6  .29 Ml 2.3         5027879
RJF   002.93 039.8 m E Pn      2012/07/06 10:41:04.8   0.4                          T                                        5020816
RJF   002.93 039.8 m E Sn      2012/07/06 10:41:38.3   0.1                          T                4.0  .33 Ml 2.2         5020815
RJF   002.93 039.8 m E Sg      2012/07/06 10:41:51.4   0.6                          T                5.8  .35 Ml 2.3         5027876
LASF  003.77 072.9 m E Sn      2012/07/06 10:41:56.4  -1.7                          T                                        5027874
LASF  003.77 072.9 m E Sg      2012/07/06 10:42:16.8   0.0                          T                2.0  .35 Ml 2.4         5027873
MFF   003.59 011.0 m E Sg      2012/07/06 10:42:11.6   0.2                          T                1.3  .25 Ml 2.5         5027875

.
EVENT     279224
    Date      Time       Latitude Longitude    Depth    Ndef Nsta Gap    Mag1  N    Mag2  N    Mag3  N   Author         ID
       rms   OT_Error      Smajor Sminor Az        Err   mdist  Mdist     Err        Err        Err      Quality

2012/07/06 11:16:58.9     48.3501    8.9536     14.3      19    5 061  Ml 1.9  5  Md 2.0  1              bulletin    279325
                                                                                                         _ldg
      0.32   +-  0.07       1.3    1.2   31.06 +-  0.7    0.19   2.16   +-0.2      +-                    m i ke

GERMANY
Sta     Dist  EvAz     Phase      Date       Time     TRes  Azim  AzRes  Slow  SRes Def   SNR       Amp   Per   Mag1   Mag2       ID
CDF   001.12 273.8 m E Pg      2012/07/06 11:17:19.9  -0.2                          T                                        5021333
CDF   001.12 273.8 m E Sg      2012/07/06 11:17:34.6  -0.1                          T                2.7  .18 Ml 2.1 Md 2.0  5021332
HINF  001.51 250.0 m E Pn      2012/07/06 11:17:23.7  -0.2                          T                                        5021331
HINF  001.51 250.0 m E Sn      2012/07/06 11:17:41.9  -0.2                          T                 .6  .18 Ml 1.5         5021330
HAU   001.78 259.8 m E Pn      2012/07/06 11:17:27.5  -0.1                          T                                        5021329
HAU   001.78 259.8 m E Sn      2012/07/06 11:17:48.1  -0.5                          T                3.1  .32 Ml 1.9         5021328
THEF  001.98 267.6 m E Pn      2012/07/06 11:17:29.4  -0.9                          T                                        5021327
THEF  001.98 267.6 m E Sn      2012/07/06 11:17:52.8  -0.6                          T                 .7  .17 Ml 1.8         5021326
PAGF  002.16 276.7 m E Pg      2012/07/06 11:17:39.6   0.5                          T                                        5021325
PAGF  002.16 276.7 m E Sg      2012/07/06 11:18:06.6  -0.3                          T                 .9  .22 Ml 1.9         5021324

.
EVENT     279211
    Date      Time       Latitude Longitude    Depth    Ndef Nsta Gap    Mag1  N    Mag2  N    Mag3  N   Author         ID
       rms   OT_Error      Smajor Sminor Az        Err   mdist  Mdist     Err        Err        Err      Quality

2012/07/06 11:25:17.7     44.4802    6.8676      2.0 f    18    5 112  Ml 1.9  1  Md 1.7  3              bulletin    279312
                                                                                                         _ldg
      0.16   +-  0.04       1.1     .6   55.80 +-  0.0    0.17   1.04   +-         +-0.1                 m i ke

FRANCE
Sta     Dist  EvAz     Phase      Date       Time     TRes  Azim  AzRes  Slow  SRes Def   SNR       Amp   Per   Mag1   Mag2       ID
MBDF  000.26 344.5 m E Pg      2012/07/06 11:25:23.1   0.1                          T                                Md 1.7  5020971
MBDF  000.26 344.5 m E Sg      2012/07/06 11:25:26.4  -0.1                          T                                        5020972
SBF   000.74 146.3 m E Pg      2012/07/06 11:25:31.8   0.0                          T                                Md 1.8  5020974
SBF   000.74 146.3 m E Sg      2012/07/06 11:25:41.5   0.1                          T                                        5020973
ORIF  000.83 302.2 m E Pg      2012/07/06 11:25:33.7   0.2                          T                                Md 1.7  5020980
ORIF  000.83 302.2 m E Sg      2012/07/06 11:25:44.1  -0.2                          T                                        5020979
FRF   000.93 189.9 m E Pg      2012/07/06 11:25:35.2   0.0                          T                                        5020976
FRF   000.93 189.9 m E Sg      2012/07/06 11:25:47.3  -0.1                          T                                        5020975
LPL   001.04 354.8 m E Pn      2012/07/06 11:25:36.9  -1.0                          T                                        5020978
LPL   001.04 354.8 m E Sg      2012/07/06 11:25:50.5  -0.5                          T                3.2  .27 Ml 1.9         5020977

.
