EVENT     263986
    Date      Time       Latitude Longitude    Depth    Ndef Nsta Gap    Mag1  N    Mag2  N    Mag3  N   Author         ID
       rms   OT_Error      Smajor Sminor Az        Err   mdist  Mdist     Err        Err        Err      Quality

2011/09/14 21:20:26.7     48.2115    7.1338     10.0      43   15 035  Ml 2.1 10  Md 2.2  3              js067245    263987

      0.52   +-  0.04        .8     .7  156.66 +-  0.0    0.02   3.63   +-0.2      +-0.2                 m i ke

FRANCE
Sta     Dist  EvAz     Phase      Date       Time     TRes  Azim  AzRes  Slow  SRes Def   SNR       Amp   Per   Mag1   Mag2       ID
CDF   000.22 025.3 m E Pg      2011/09/14 21:20:31.2  -0.4                          T                                        4757390
CDF   000.22 025.3 m E Sg      2011/09/14 21:20:34.3  -0.5                          T               37.5  .21        Md 2.3  4757389
HINF  000.44 205.6 m E Pg      2011/09/14 21:20:35.0  -0.3                          T                                        4757379
HINF  000.44 205.6 m E Sg      2011/09/14 21:20:40.6  -0.6                          T               26.6  .22        Md 2.3  4757380
HAU   000.57 248.9 m E Pg      2011/09/14 21:20:37.6   0.0                          T                                        4765015
HAU   000.57 248.9 m E Pn      2011/09/14 21:20:39.3   0.0                          T                                        4757388
HAU   000.57 248.9 m E Sg      2011/09/14 21:20:44.9  -0.2                          T                                        4757377
HAU   000.57 248.9 m E Sn      2011/09/14 21:20:48.1  -0.1                          T               19.1  .24        Md 1.9  4757376
THEF  000.76 271.7 m E Pg      2011/09/14 21:20:41.1   0.0                          T                                        4765016
THEF  000.76 271.7 m E Pn      2011/09/14 21:20:42.0   0.0                          T                                        4757385
THEF  000.76 271.7 m E Sg      2011/09/14 21:20:51.1  -0.1                          T                                        4757369
THEF  000.76 271.7 m E Sn      2011/09/14 21:20:52.9   0.0                          T                8.1  .15                4757366
LANF  000.89 029.8 m E Pg      2011/09/14 21:20:43.4  -0.1                          T                                        4757383
LANF  000.89 029.8 m E Sn      2011/09/14 21:20:55.9   0.0                          T                3.7  .22 Ml 2.0         4757384
PAGF  001.00 290.6 m E Pg      2011/09/14 21:20:45.5   0.0 113.3  3.7               T                                        4757387
PAGF  001.00 290.6 m E Sg      2011/09/14 21:20:58.7   0.2 108.6  -1.0              T                2.2  .20 Ml 1.8         4757382
SFTF  001.40 270.5 m E Pn      2011/09/14 21:20:50.8   0.1                          T                                        4757386
SFTF  001.40 270.5 m E Pg      2011/09/14 21:20:53.1   0.2  95.0  6.1               T                                        4765017
SFTF  001.40 270.5 m E Sg      2011/09/14 21:21:11.3   0.2                          T                                        4757370
MEZF  001.42 282.6 m E Pg      2011/09/14 21:20:53.3   0.1 107.9  6.8               T                                        4757378
MEZF  001.42 282.6 m E Sg      2011/09/14 21:21:12.0   0.4                          T                4.4  .29 Ml 2.2         4757381
CABF  001.75 204.3 m E Pg      2011/09/14 21:20:59.4   0.0                          T                                        4765013
CABF  001.75 204.3 m E Sg      2011/09/14 21:21:21.9  -0.2                          T                2.1  .21 Ml 2.2         4765014
LOR   002.40 248.1 m E Pg      2011/09/14 21:21:11.6   0.2  66.9  1.2               T                                        4757372
LOR   002.40 248.1 m E Sg      2011/09/14 21:21:41.7  -0.6  63.9  -1.8              T                2.8  .32 Ml 2.2         4757373
SSF   002.71 246.2 m E Pg      2011/09/14 21:21:16.9  -0.1                          T                                        4765019
SSF   002.71 246.2 m E Sg      2011/09/14 21:21:51.5  -0.4                          T                1.1  .24 Ml 2.1         4757371
SMF   002.73 236.2 m E Pg      2011/09/14 21:21:17.7   0.3                          T                                        4757375
SMF   002.73 236.2 m E Sg      2011/09/14 21:21:52.6   0.1                          T                1.9  .20 Ml 2.3         4757374
AVF   002.93 242.4 m E Pg      2011/09/14 21:21:20.9  -0.2                          T                                        4765011
AVF   002.93 242.4 m E Sg      2011/09/14 21:21:58.6  -0.1                          T                 .7  .24 Ml 1.9         4765012
BGF   003.35 242.0 m E Pg      2011/09/14 21:21:29.0   0.2                          T                                        4765009
BGF   003.35 242.0 m E Sg      2011/09/14 21:22:11.5  -0.3                          T                3.5  .30 Ml 2.6         4765010
BAIF  002.67 315.0 m E Sg      2011/09/14 21:21:50.5   0.0                          T                                        4765018

.
EVENT     263987
    Date      Time       Latitude Longitude    Depth    Ndef Nsta Gap    Mag1  N    Mag2  N    Mag3  N   Author         ID
       rms   OT_Error      Smajor Sminor Az        Err   mdist  Mdist     Err        Err        Err      Quality

2011/09/14 21:56:35.5     46.2913    6.8115      2.0      32   12 054  Ml 1.9  8  Md 1.8  3              js067245    263988

      0.22   +-  0.03        .8     .7   74.24 +-  0.0    0.08   2.26   +-0.2      +-0.1                 m i ke

SWITZERLAND
Sta     Dist  EvAz     Phase      Date       Time     TRes  Azim  AzRes  Slow  SRes Def   SNR       Amp   Per   Mag1   Mag2       ID
CABF  000.59 302.8 m E Pg      2011/09/14 21:56:46.8  -0.1                          T                                        4757562
CABF  000.59 302.8 m E P       2011/09/14 21:56:48.3   0.0                          T                                        4757555
CABF  000.59 302.8 m E Pn      2011/09/14 21:56:49.3  -0.2                          T                                        4757554
CABF  000.59 302.8 m E Sg      2011/09/14 21:56:54.4  -0.4                          T                                        4757558
CABF  000.59 302.8 m E Sn      2011/09/14 21:56:59.0  -0.2                          T                3.2  .29        Md 1.7  4757557
LPL   000.78 184.1 m E Pg      2011/09/14 21:56:50.4   0.0                          T                                        4757552
LPL   000.78 184.1 m E Sg      2011/09/14 21:57:00.3  -0.3                          T                 .9  .27        Md 1.9  4757546
LPG   000.79 183.0 m E Pg      2011/09/14 21:56:51.0   0.1                          T                                        4757551
LPG   000.79 183.0 m E Sg      2011/09/14 21:57:01.0  -0.2                          T                  1  .19        Md 1.9  4765076
HINF  001.53 001.1 m E Pg      2011/09/14 21:57:04.0   0.0                          T                                        4757561
HINF  001.53 001.1 m E Sg      2011/09/14 21:57:23.4  -0.3                          T                2.5  .27 Ml 2.0         4757560
ORIF  001.52 205.8 m E Pg      2011/09/14 21:57:04.1   0.1                          T                                        4757547
ORIF  001.52 205.8 m E Sg      2011/09/14 21:57:23.4  -0.2                          T                2.0  .32 Ml 1.8         4757548
HAU   001.74 349.7 m E Pg      2011/09/14 21:57:08.1   0.1                          T                                        4757553
HAU   001.74 349.7 m E Sg      2011/09/14 21:57:30.0  -0.5                          T                4.3  .29 Ml 2.1         4757559
CDF   002.15 008.3 m E Pn      2011/09/14 21:57:10.8   0.2                          T                                        4765081
CDF   002.15 008.3 m E Pg      2011/09/14 21:57:15.6   0.1                          T                                        4765080
CDF   002.15 008.3 m E Sg      2011/09/14 21:57:43.1   0.0                          T                1.4  .40 Ml 1.9         4765082
SFTF  002.26 328.4 m E Pn      2011/09/14 21:57:12.6   0.4                          T                                        4765079
VIVF  002.08 227.1 m E Pg      2011/09/14 21:57:14.5   0.4                          T                                        4757550
VIVF  002.08 227.1 m E Sg      2011/09/14 21:57:40.8  -0.2                          T                 .6  .19 Ml 1.7         4757549
LOR   002.25 296.8 m E Pg      2011/09/14 21:57:17.3  -0.1                          T                                        4765083
LOR   002.25 296.8 m E Sg      2011/09/14 21:57:46.2  -0.2                          T                 .8  .23 Ml 1.8         4765084
MBDF  001.56 181.0 m E Sg      2011/09/14 21:57:24.9  -0.2                          T                 .7  .28 Ml 1.4         4765077
SMF   002.08 280.9 m E Sg      2011/09/14 21:57:40.9  -0.2                          T                1.3  .20 Ml 2.0         4765078

.
EVENT     263992
    Date      Time       Latitude Longitude    Depth    Ndef Nsta Gap    Mag1  N    Mag2  N    Mag3  N   Author         ID
       rms   OT_Error      Smajor Sminor Az        Err   mdist  Mdist     Err        Err        Err      Quality

2011/09/15 00:19:38.2     48.3301    6.6819      3.0 f    13    6 148  Ml 1.8  2  Md 1.6  3              js067245    263993

      0.31   +-  0.09       2.2    1.4    4.13 +-  0.0    0.39   1.11   +-0.1      +-0.2                 m i ke

FRANCE
Sta     Dist  EvAz     Phase      Date       Time     TRes  Azim  AzRes  Slow  SRes Def   SNR       Amp   Per   Mag1   Mag2       ID
HAU   000.39 214.7 m E Pg      2011/09/15 00:19:45.9   0.1                          T                                        4757566
HAU   000.39 214.7 m E Sg      2011/09/15 00:19:50.3  -0.9                          T                1.0  .21        Md 1.4  4757565
CDF   000.40 078.1 m E Pg      2011/09/15 00:19:46.3   0.2                          T                                        4757575
CDF   000.40 078.1 m E Sg      2011/09/15 00:19:50.6  -0.9                          T                                        4757574
CDF   000.40 078.1 m E Sn      2011/09/15 00:19:52.0   0.0                          T                3.7  .25        Md 1.7  4757571
HINF  000.53 167.3 m E Pg      2011/09/15 00:19:48.4   0.1                          T                                        4757563
HINF  000.53 167.3 m E Sg      2011/09/15 00:19:55.4   0.2                          T                3.3  .14        Md 1.7  4757564
PAGF  000.68 289.8 m E Pg      2011/09/15 00:19:51.0   0.0                          T                                        4757572
PAGF  000.68 289.8 m E P       2011/09/15 00:19:52.5   0.0                          T                                        4757567
PAGF  000.68 289.8 m E Sg      2011/09/15 00:19:59.8   0.0                          T                 .3  .24                4757573
SFTF  001.11 264.1 m E Pg      2011/09/15 00:19:59.0   0.1                          T                                        4757568
SFTF  001.11 264.1 m E Sg      2011/09/15 00:20:13.0  -0.3                          T                2.1  .22 Ml 1.8         4757569
MEZF  001.10 279.6 m E Sg      2011/09/15 00:20:13.2   0.2                          T                1.4  .22 Ml 1.7         4757570

.
