EVENT     261620
    Date      Time       Latitude Longitude    Depth    Ndef Nsta Gap    Mag1  N    Mag2  N    Mag3  N   Author         ID
       rms   OT_Error      Smajor Sminor Az        Err   mdist  Mdist     Err        Err        Err      Quality

2011/07/20 17:53:28.5     46.4076   13.0300      2.0      49   11 044  Ml 2.9  5  Md 3.0  3              js067245    261620

      0.68   +-  0.09       2.7    1.6   24.82 +-  0.0    0.10   6.68   +-0.3      +-0.1                 m i ke

AUSTRIA
Sta     Dist  EvAz     Phase      Date       Time     TRes  Azim  AzRes  Slow  SRes Def   SNR       Amp   Per   Mag1   Mag2       ID
CDF   004.39 299.3 m E Pn      2011/07/20 17:54:33.9  -0.3                          T                                        4725133
CDF   004.39 299.3 m E Pg      2011/07/20 17:54:51.0   1.2                          T                                        4725132
CDF   004.39 299.3 m E Sg      2011/07/20 17:55:47.3   1.0                          T                                Md 3.0  4725122
LPG   004.47 260.5 m E Pn      2011/07/20 17:54:34.0  -1.6                          T                                        4727695
HINF  004.45 290.7 m E Pn      2011/07/20 17:54:34.1  -0.8                          T                                        4725135
HINF  004.45 290.7 m E Sn      2011/07/20 17:55:24.3   0.1                          T                5.0  .26 Ml 3.0 Md 2.9  4725134
HAU   004.83 291.8 m E Pn      2011/07/20 17:54:40.3   0.2                          T                                        4725136
HAU   004.83 291.8 m E Sn      2011/07/20 17:55:34.6   1.3                          T                8.4  .51 Ml 2.8 Md 2.9  4725124
PAGF  005.40 296.1 m E P       2011/07/20 17:54:51.6  -0.5                          T                                        4727696
CABF  004.80 274.9 m E Pg      2011/07/20 17:54:57.4   0.0                          T                                        4725123
AVF   006.68 276.8 m E Pn      2011/07/20 17:55:06.2   1.0                          T                                        4725126
AVF   006.68 276.8 m E Pg      2011/07/20 17:55:32.5   0.6                          T                                        4725137
LOR   006.35 281.1 m E Pg      2011/07/20 17:55:25.6  -0.3                          T                                        4725130
LOR   006.35 281.1 m E Sn      2011/07/20 17:56:09.3  -0.4                          T                1.2  .34 Ml 2.7         4725129
SMF   006.35 275.5 m E Pg      2011/07/20 17:55:26.0   0.2                          T                                        4725127
SSF   006.58 279.1 m E Pg      2011/07/20 17:55:30.1   0.0                          T                                        4725131
SSF   006.58 279.1 m E Sn      2011/07/20 17:56:13.4  -1.7                          T                 .4  .19 Ml 2.6         4725128
THEF  005.12 293.4 m E Sn      2011/07/20 17:55:41.3   1.0                          T                7.3  .22 Ml 3.4         4725125

.
EVENT     261621
    Date      Time       Latitude Longitude    Depth    Ndef Nsta Gap    Mag1  N    Mag2  N    Mag3  N   Author         ID
       rms   OT_Error      Smajor Sminor Az        Err   mdist  Mdist     Err        Err        Err      Quality

2011/07/20 20:38:59.7     47.9859    8.1252      4.0 f    18    8 049  Ml 1.7  4  Md 1.7  2              js067245    261621

      0.41   +-  0.06       1.3    1.2  153.50 +-  0.0    0.14   2.08   +-0.4      +-0.1                 m i ke

SWITZERLAND
Sta     Dist  EvAz     Phase      Date       Time     TRes  Azim  AzRes  Slow  SRes Def   SNR       Amp   Per   Mag1   Mag2       ID
CDF   000.71 307.2 m E Pg      2011/07/20 20:39:13.7   0.5                          T                                        4725000
CDF   000.71 307.2 m E Sg      2011/07/20 20:39:22.8   0.2                          T                1.3  .23        Md 1.8  4724999
HINF  000.87 259.3 m E Pg      2011/07/20 20:39:16.4   0.2                          T                                        4724994
HINF  000.87 259.3 m E Sg      2011/07/20 20:39:27.9   0.3                          T                3.5  .23 Ml 2.0 Md 1.7  4724998
LANF  001.02 348.0 m E Pg      2011/07/20 20:39:18.7  -0.1                          T                                        4727699
LANF  001.02 348.0 m E Sg      2011/07/20 20:39:31.8  -0.2                          T                3.4  .25 Ml 2.0         4727700
HAU   001.19 271.6 m E Pg      2011/07/20 20:39:22.1   0.1                          T                                        4724993
HAU   001.19 271.6 m E Sg      2011/07/20 20:39:37.2  -0.3                          T                3.2  .28 Ml 1.7         4724997
THEF  001.45 280.4 m E Pg      2011/07/20 20:39:26.9   0.2                          T                                        4724992
RUP   001.86 338.1 m E Pn      2011/07/20 20:39:30.4  -0.2                          T                                        4727698
PAGF  001.70 290.4 m E Pg      2011/07/20 20:39:31.2  -0.2                          T                                        4724991
PAGF  001.70 290.4 m E Sg      2011/07/20 20:39:53.4   0.0                          T                 .2  .24 Ml 1.1         4724995
SFTF  002.08 277.2 m E Pg      2011/07/20 20:39:38.3   0.0                          T                                        4727697

.
EVENT     261622
    Date      Time       Latitude Longitude    Depth    Ndef Nsta Gap    Mag1  N    Mag2  N    Mag3  N   Author         ID
       rms   OT_Error      Smajor Sminor Az        Err   mdist  Mdist     Err        Err        Err      Quality

2011/07/20 20:58:23.4     47.6059    8.8648     25.0      30    7 042  Ml 2.1  6  Md 2.0  1              js067245    261622

      0.46   +-  0.08       1.7    1.4  147.22 +-  0.0    0.06   2.71   +-0.2      +-                    m i ke

SWITZERLAND
Sta     Dist  EvAz     Phase      Date       Time     TRes  Azim  AzRes  Slow  SRes Def   SNR       Amp   Per   Mag1   Mag2       ID
CDF   001.34 307.7 m E Pn      2011/07/20 20:58:44.9   0.0                          T                                        4725009
CDF   001.34 307.7 m E Pg      2011/07/20 20:58:48.9   0.1                          T                                        4727705
CDF   001.34 307.7 m E Sg      2011/07/20 20:59:06.5   0.2                          T                2.8  .23 Ml 2.1         4725006
HINF  001.37 279.6 m E Pn      2011/07/20 20:58:45.4   0.0                          T                                        4727703
HINF  001.37 279.6 m E Pg      2011/07/20 20:58:49.4   0.1                          T                                        4727702
HINF  001.37 279.6 m E Sn      2011/07/20 20:59:00.7  -0.8                          T                                        4725008
HINF  001.37 279.6 m E Sg      2011/07/20 20:59:07.6   0.2                          T                4.3  .19 Ml 2.3 Md 2.0  4725004
HAU   001.74 284.2 m E Pn      2011/07/20 20:58:50.4   0.1                          T                                        4725007
HAU   001.74 284.2 m E Pg      2011/07/20 20:58:56.0  -0.1                          T                                        4727704
HAU   001.74 284.2 m E Sg      2011/07/20 20:59:18.7   0.0                          T                4.2  .29 Ml 2.1         4725005
THEF  002.03 288.9 m E P       2011/07/20 20:58:56.7   0.0                          T                                        4725001
THEF  002.03 288.9 m E Sg      2011/07/20 20:59:27.8   0.3                          T                1.6  .20 Ml 2.1         4725003
LANF  001.55 333.2 m E Sg      2011/07/20 20:59:12.6  -0.1                          T                1.8  .18 Ml 2.1         4727706
MEZF  002.71 290.7 m E Pg      2011/07/20 20:59:14.0   0.3                          T                                        4725002
CABF  002.14 243.3 m E Sg      2011/07/20 20:59:31.2   0.0                          T                 .5  .18 Ml 1.6         4727701

.
EVENT     261628
    Date      Time       Latitude Longitude    Depth    Ndef Nsta Gap    Mag1  N    Mag2  N    Mag3  N   Author         ID
       rms   OT_Error      Smajor Sminor Az        Err   mdist  Mdist     Err        Err        Err      Quality

2011/07/20 21:49:33.3     42.2671    1.1264      5.0 f    20    4 065  Ml 1.3  4  Md 1.7  2              js067245    261628

      0.48   +-  0.09       1.9    1.6  138.61 +-  0.0    0.11   1.93   +-0.4      +-0.1                 m i ke

PYRENEES
Sta     Dist  EvAz     Phase      Date       Time     TRes  Azim  AzRes  Slow  SRes Def   SNR       Amp   Per   Mag1   Mag2       ID
EPF   000.96 323.0 m E Pg      2011/07/20 21:49:51.6   0.3                          T                                        4725017
EPF   000.96 323.0 m E Sg      2011/07/20 21:50:03.7  -0.1                          T                 .9  .30 Ml 1.3 Md 1.6  4725012
MTLF  001.34 036.4 m E Pn      2011/07/20 21:49:56.8  -0.2                          T                                        4725016
MTLF  001.34 036.4 m E Pg      2011/07/20 21:49:58.2  -0.1                          T                                        4727707
MTLF  001.34 036.4 m E Sg      2011/07/20 21:50:15.7   0.0                          T                 .1  .23 Ml  .8 Md 1.7  4725013
ETSF  001.40 297.5 m E Pg      2011/07/20 21:49:59.5   0.0                          T                                        4725015
ETSF  001.40 297.5 m E Sg      2011/07/20 21:50:17.7   0.2                          T                 .6  .26 Ml 1.3         4725011
SJPF  001.93 296.8 m E Pg      2011/07/20 21:50:09.5   0.3                          T                                        4725014
SJPF  001.93 296.8 m E Sg      2011/07/20 21:50:34.3   0.2                          T                 .6  .19 Ml 1.7         4725010

.
EVENT     261625
    Date      Time       Latitude Longitude    Depth    Ndef Nsta Gap    Mag1  N    Mag2  N    Mag3  N   Author         ID
       rms   OT_Error      Smajor Sminor Az        Err   mdist  Mdist     Err        Err        Err      Quality

2011/07/20 22:49:23.8     42.2443     .3483      2.0      91    9 035  Ml 2.6  8  Md 2.6  3              js067245    261625

      0.73   +-  0.07       1.7    1.1   13.71 +-  0.0    0.33   4.37   +-0.2      +-0.1                 m i ke

PYRENEES
Sta     Dist  EvAz     Phase      Date       Time     TRes  Azim  AzRes  Slow  SRes Def   SNR       Amp   Per   Mag1   Mag2       ID
EPF   000.79 359.6 m E Pg      2011/07/20 22:49:37.9  -0.8                          T                                        4725068
EPF   000.79 359.6 m E Sg      2011/07/20 22:49:48.5  -0.4                          T               25.0  .23        Md 2.7  4725058
ETSF  000.94 314.6 m E Pg      2011/07/20 22:49:40.8  -0.6                          T                                        4725067
ETSF  000.94 314.6 m E Sg      2011/07/20 22:49:53.8   0.2                          T               20.7  .25 Ml 2.7 Md 2.6  4725053
SJPF  001.45 307.3 m E Pg      2011/07/20 22:49:51.0   0.1                          T                                        4725066
SJPF  001.45 307.3 m E Sg      2011/07/20 22:50:09.7   0.1                          T               15.0  .23 Ml 2.8 Md 2.5  4725057
MTLF  001.76 050.8 m E Pg      2011/07/20 22:49:56.7   0.2                          T                                        4725061
MTLF  001.76 050.8 m E Sg      2011/07/20 22:50:19.9   0.7                          T                6.3  .21 Ml 2.6         4725060
LFF   002.71 005.9 m E P       2011/07/20 22:50:08.8  -0.4                          T                                        4725065
LFF   002.71 005.9 m E Sn      2011/07/20 22:50:38.4   0.5                          T                                        4725047
CAF   002.96 024.4 m E Pn      2011/07/20 22:50:10.3   0.4                          T                                        4725062
CAF   002.96 024.4 m E Sn      2011/07/20 22:50:44.8   0.9                          T                                        4725048
CAF   002.96 024.4 m E Sg      2011/07/20 22:50:56.3  -0.3                          T                4.5  .30 Ml 2.6         4725056
RJF   003.17 015.1 m E Pn      2011/07/20 22:50:14.0   1.2                          T                                        4725064
RJF   003.17 015.1 m E Sn      2011/07/20 22:50:50.5   1.5                          T                                        4725049
RJF   003.17 015.1 m E Sg      2011/07/20 22:51:03.3  -0.1                          T                1.8  .21 Ml 2.1         4725055
LASF  003.15 053.3 m E Pg      2011/07/20 22:50:21.0  -1.3                          T                                        4725046
LASF  003.15 053.3 m E Sg      2011/07/20 22:51:04.6   1.9                          T                4.0  .37 Ml 2.5         4725059
MFF   004.37 355.5 m E Pn      2011/07/20 22:50:30.0   0.9                          T                                        4725063
MFF   004.37 355.5 m E Sn      2011/07/20 22:51:19.0   1.4                          T                                        4725050
MFF   004.37 355.5 m E Sg      2011/07/20 22:51:39.2  -1.5                          T                1.1  .26 Ml 2.5         4725054

.
EVENT     261626
    Date      Time       Latitude Longitude    Depth    Ndef Nsta Gap    Mag1  N    Mag2  N    Mag3  N   Author         ID
       rms   OT_Error      Smajor Sminor Az        Err   mdist  Mdist     Err        Err        Err      Quality

2011/07/21 03:25:02.5     43.1401   -1.1399     15.0      12    3 168  Ml 0.9  1  Md 1.1  2              js067245    261626

      0.26   +-  0.09       2.4    1.3  179.90 +-  0.0    0.07   1.09   +-         +-0.1                 m i ke

PYRENEES
Sta     Dist  EvAz     Phase      Date       Time     TRes  Azim  AzRes  Slow  SRes Def   SNR       Amp   Per   Mag1   Mag2       ID
SJPF  000.07 246.8 m E Pg      2011/07/21 03:25:05.4  -0.2                          T                                        4725074
SJPF  000.07 246.8 m E Sg      2011/07/21 03:25:07.3  -0.5                          T                1.5  .19        Md 1.2  4725073
ETSF  000.49 119.3 m E Pg      2011/07/21 03:25:12.6   0.3                          T                                        4725071
ETSF  000.49 119.3 m E Sg      2011/07/21 03:25:18.2  -0.8                          T                 .2  .21        Md 1.0  4725072
EPF   001.09 095.3 m E Pg      2011/07/21 03:25:23.1   0.0                          T                                        4725163
EPF   001.09 095.3 m E Sg      2011/07/21 03:25:37.3   0.0                          T                 .4  .31 Ml  .9         4725162

.
EVENT     261627
    Date      Time       Latitude Longitude    Depth    Ndef Nsta Gap    Mag1  N    Mag2  N    Mag3  N   Author         ID
       rms   OT_Error      Smajor Sminor Az        Err   mdist  Mdist     Err        Err        Err      Quality

2011/07/21 06:18:22.2     43.3645   -1.2883       .0 f     6    3 295  Ml 1.9  1  Md 1.7  3              js067245    261627

      0.18   +-  0.42       7.8    4.0  139.57 +-  0.0    0.26   1.24   +-         +-0.0                 m i km

PYRENEES
Sta     Dist  EvAz     Phase      Date       Time     TRes  Azim  AzRes  Slow  SRes Def   SNR       Amp   Per   Mag1   Mag2       ID
SJPF  000.26 169.5 m E Pg      2011/07/21 06:18:27.6   0.2                          T                                        4725085
SJPF  000.26 169.5 m E Sg      2011/07/21 06:18:30.9  -0.2                          T               19.7  .23        Md 1.8  4725083
ETSF  000.71 130.9 m E Pg      2011/07/21 06:18:35.6  -0.3                          T                                        4725084
ETSF  000.71 130.9 m E Sg      2011/07/21 06:18:45.5   0.2                          T                2.3  .24        Md 1.7  4725082
EPF   001.24 105.1 m E Pg      2011/07/21 06:18:45.6   0.0                          T                                        4725080
EPF   001.24 105.1 m E Sg      2011/07/21 06:19:02.0   0.2                          T                2.1  .21 Ml 1.9 Md 1.8  4725081

.
EVENT     261638
    Date      Time       Latitude Longitude    Depth    Ndef Nsta Gap    Mag1  N    Mag2  N    Mag3  N   Author         ID
       rms   OT_Error      Smajor Sminor Az        Err   mdist  Mdist     Err        Err        Err      Quality

2011/07/21 09:28:10.9     48.0072    6.6494       .0 f    17    8 098  Ml 1.8  3  Md 2.0  2              js067245    261638

      0.34   +-  0.06       1.3    1.0   14.67 +-  0.0    0.20   2.03   +-0.0      +-0.2                 m i km

FRANCE
Sta     Dist  EvAz     Phase      Date       Time     TRes  Azim  AzRes  Slow  SRes Def   SNR       Amp   Per   Mag1   Mag2       ID
HAU   000.20 269.6 m E Pg      2011/07/21 09:28:15.1  -0.2                          T                                        4727718
HAU   000.20 269.6 m E Sg      2011/07/21 09:28:18.1  -0.1                          T              150.6  .60        Md 2.2  4727719
HINF  000.23 144.2 m E Pg      2011/07/21 09:28:15.9   0.0                          T                                        4727716
HINF  000.23 144.2 m E Sg      2011/07/21 09:28:18.7  -0.6                          T               42.0  .70        Md 1.9  4727717
THEF  000.49 297.0 m E Pg      2011/07/21 09:28:20.6   0.1                          T                                        4727714
THEF  000.49 297.0 m E Sg      2011/07/21 09:28:27.2  -0.1                          T                9.0  .49                4727715
CDF   000.58 045.7 m E Pg      2011/07/21 09:28:22.1  -0.3                          T                                        4727710
CDF   000.58 045.7 m E P       2011/07/21 09:28:23.7   0.3                          T                                        4727711
CDF   000.58 045.7 m E Sg      2011/07/21 09:28:30.2   0.0                          T                2.8  .28                4727713
PAGF  000.83 311.9 m E Pg      2011/07/21 09:28:26.7   0.0                          T                                        4727722
PAGF  000.83 311.9 m E Pn      2011/07/21 09:28:28.4   0.0 134.4  3.1               T                                        4727724
PAGF  000.83 311.9 m E Sg      2011/07/21 09:28:37.6  -0.1 132.5  1.2               T                2.5  .45                4727723
SFTF  001.10 281.0 m E Pg      2011/07/21 09:28:31.8   0.1                          T                                        4727708
SFTF  001.10 281.0 m E Sg      2011/07/21 09:28:46.1   0.0                          T                2.0  .20 Ml 1.8         4727709
CABF  001.45 195.5 m E Pn      2011/07/21 09:28:37.1   0.2                          T                                        4727720
CABF  001.45 195.5 m E Sg      2011/07/21 09:28:57.4   0.2                          T                2.8  .45 Ml 1.8         4727721
LOR   002.03 249.6 m E Sg      2011/07/21 09:29:15.3   0.1                          T                 .7  .20 Ml 1.8         4727725

.
