EVENT     273539
    Date      Time       Latitude Longitude    Depth    Ndef Nsta Gap    Mag1  N    Mag2  N    Mag3  N   Author         ID
       rms   OT_Error      Smajor Sminor Az        Err   mdist  Mdist     Err        Err        Err      Quality

2012/04/12 10:58:04.0     49.5573    6.6113       .0 f    25   11 190  Ml 2.5  8  Md 2.4  1              js067245    273559

      1.09   +-  0.20       3.7    2.0   39.17 +-  0.0    0.97   3.25   +-0.3      +-                    m i km

GERMANY
Sta     Dist  EvAz     Phase      Date       Time     TRes  Azim  AzRes  Slow  SRes Def   SNR       Amp   Per   Mag1   Mag2       ID
LANF  000.97 126.0 m E Pg      2012/04/12 10:58:22.7   0.2                          T                                        4910242
LANF  000.97 126.0 m E Sg      2012/04/12 10:58:35.9   0.5                          T               15.5  .25 Ml 2.6 Md 2.4  4910241
PAGF  001.16 210.5 m E Pg      2012/04/12 10:58:26.5   0.5  33.8  3.9               T                                        4910229
PAGF  001.16 210.5 m E Sg      2012/04/12 10:58:41.4   0.2  24.1  -5.7              T                3.7  .40 Ml 1.9         4910237
CDF   001.23 158.8 m E Pg      2012/04/12 10:58:27.3   0.0                          T                                        4910230
CDF   001.23 158.8 m E Sg      2012/04/12 10:58:44.0   0.6                          T                8.8  .22 Ml 2.6         4910238
GIVF  001.28 295.9 m E Pg      2012/04/12 10:58:29.0   0.8                          T                                        4910231
GIVF  001.28 295.9 m E Sg      2012/04/12 10:58:45.8   0.8                          T               18.2  .23 Ml 2.8         4910240
THEF  001.39 197.3 m E Pg      2012/04/12 10:58:30.0  -0.2                          T                                        4910228
THEF  001.39 197.3 m E Sg      2012/04/12 10:58:48.1  -0.3                          T               17.9  .21 Ml 2.9         4910235
MEZF  001.47 224.8 m E Pg      2012/04/12 10:58:31.6  -0.1  38.8  -4.8              T                                        4912534
HAU   001.56 186.5 m E Pg      2012/04/12 10:58:33.2  -0.3                          T                                        4910227
HAU   001.56 186.5 m E Sg      2012/04/12 10:58:53.7  -0.2                          T               16.6  .32 Ml 2.6         4910236
BAIF  001.64 288.8 m E Pg      2012/04/12 10:58:34.3  -0.5                          T                                        4910232
BAIF  001.64 288.8 m E Sg      2012/04/12 10:58:54.9  -1.1                          T                7.7  .32 Ml 2.5         4910239
HINF  001.75 174.7 m E Pg      2012/04/12 10:58:36.8  -0.1                          T                                        4910233
HINF  001.75 174.7 m E Sg      2012/04/12 10:58:58.7  -1.0                          T                5.6  .28 Ml 2.5         4910234
LOR   002.93 219.7 m E Pn      2012/04/12 10:58:50.2  -0.1  78.6  41.0              T                                        4912542
LOR   002.93 219.7 m E Pg      2012/04/12 10:58:58.5  -0.2  51.1  13.5              T                                        4912541
LOR   002.93 219.7 m E Sn      2012/04/12 10:59:24.5   0.3  33.8  -3.9              T                                        4912537
LOR   002.93 219.7 m E Sg      2012/04/12 10:59:37.0   0.4  35.8  -1.8              T                                        4912538
SSF   003.25 220.9 m E Pn      2012/04/12 10:58:54.4   0.0                          T                                        4912539
SSF   003.25 220.9 m E Pg      2012/04/12 10:59:04.1  -0.3                          T                                        4912540
SSF   003.25 220.9 m E Sn      2012/04/12 10:59:32.2   0.6                          T                                        4912536
SSF   003.25 220.9 m E Sg      2012/04/12 10:59:46.9   0.6                          T                                        4912535

.
EVENT     273540
    Date      Time       Latitude Longitude    Depth    Ndef Nsta Gap    Mag1  N    Mag2  N    Mag3  N   Author         ID
       rms   OT_Error      Smajor Sminor Az        Err   mdist  Mdist     Err        Err        Err      Quality

2012/04/12 12:03:08.9     45.8703    4.4058       .0 f    12    6 184  Ml 2.1  6  Md 2.0  1              js067245    273560

      0.59   +-  0.12       3.3    1.5   69.34 +-  0.0    0.87   1.45   +-0.2      +-                    m i km

FRANCE
Sta     Dist  EvAz     Phase      Date       Time     TRes  Azim  AzRes  Slow  SRes Def   SNR       Amp   Per   Mag1   Mag2       ID
SMF   000.87 333.4 m E Pg      2012/04/12 12:03:25.7   0.1                          T                                        4911219
SMF   000.87 333.4 m E Sg      2012/04/12 12:03:36.8  -0.3                          T                5.2  .24 Ml 2.1 Md 2.0  4911215
VIVF  001.03 169.4 m E Pg      2012/04/12 12:03:28.8   0.2                          T                                        4912543
VIVF  001.03 169.4 m E Sg      2012/04/12 12:03:41.9  -0.2                          T                8.2  .20 Ml 2.4         4912544
AVF   001.17 322.0 m E Pg      2012/04/12 12:03:31.0  -0.1                          T                                        4911218
AVF   001.17 322.0 m E Sg      2012/04/12 12:03:47.2   0.6                          T                2.1  .21 Ml 1.9         4911216
BGF   001.28 303.0 m E Pg      2012/04/12 12:03:33.1   0.0                          T                                        4911217
BGF   001.28 303.0 m E Sg      2012/04/12 12:03:49.9  -0.1                          T                6.3  .32 Ml 2.2         4911214
SSF   001.34 332.8 m E Pg      2012/04/12 12:03:34.1  -0.2                          T                                        4911213
SSF   001.34 332.8 m E Sg      2012/04/12 12:03:52.5   0.7                          T                1.9  .20 Ml 2.0         4911211
LOR   001.45 345.1 m E Pg      2012/04/12 12:03:36.1  -0.2 164.7  0.0               T                                        4911212
LOR   001.45 345.1 m E Sg      2012/04/12 12:03:55.6   0.4 157.0  -7.7              T                2.3  .21 Ml 2.1         4911210

.
EVENT     273497
    Date      Time       Latitude Longitude    Depth    Ndef Nsta Gap    Mag1  N    Mag2  N    Mag3  N   Author         ID
       rms   OT_Error      Smajor Sminor Az        Err   mdist  Mdist     Err        Err        Err      Quality

2012/04/12 12:26:06.3     42.3110    -.2616       .0 f     6    3 287  Ml 2.1  1  Md 1.8  2              bulletin    273517
                                                                                                         _ldg
      1.20   +-  2.40      46.2   19.7  178.97 +-  0.0    0.63   1.07   +-         +-0.2                 m i km

PYRENEES
Sta     Dist  EvAz     Phase      Date       Time     TRes  Azim  AzRes  Slow  SRes Def   SNR       Amp   Per   Mag1   Mag2       ID
ETSF  000.63 339.6 m E Pg      2012/04/12 12:26:17.4  -1.2                          T                                        4909161
ETSF  000.63 339.6 m E Sg      2012/04/12 12:26:25.4  -1.6                          T               11.1  .48        Md 2.0  4909166
EPF   000.84 031.5 m E Pg      2012/04/12 12:26:22.8   0.2                          T                                        4909162
EPF   000.84 031.5 m E Sg      2012/04/12 12:26:34.8   1.1                          T                7.7  .36        Md 1.7  4909164
SJPF  001.07 318.8 m E Pg      2012/04/12 12:26:27.1   0.4                          T                                        4909163
SJPF  001.07 318.8 m E Sg      2012/04/12 12:26:43.2   2.5                          T                6.2  .33 Ml 2.1         4914086

.
EVENT     273498
    Date      Time       Latitude Longitude    Depth    Ndef Nsta Gap    Mag1  N    Mag2  N    Mag3  N   Author         ID
       rms   OT_Error      Smajor Sminor Az        Err   mdist  Mdist     Err        Err        Err      Quality

2012/04/12 12:33:33.7     47.1940    7.5058      3.0 f    40   16 057  Ml 2.5 16  Md 2.3  3              bulletin    273518
                                                                                                         _ldg
      0.30   +-  0.05       1.0     .8   53.76 +-  0.0    0.01   3.06   +-0.4      +-0.2                 m i ke

SWITZERLAND
Sta     Dist  EvAz     Phase      Date       Time     TRes  Azim  AzRes  Slow  SRes Def   SNR       Amp   Per   Mag1   Mag2       ID
HINF  000.76 324.9 m E Pg      2012/04/12 12:33:48.1  -0.1                          T                                        4909192
HINF  000.76 324.9 m E Pn      2012/04/12 12:33:49.6  -0.2                          T                                        4912567
HINF  000.76 324.9 m E Sg      2012/04/12 12:33:58.1   0.0                          T                                        4914090
HINF  000.76 324.9 m E Sn      2012/04/12 12:34:01.2   0.0                          T               59.2  .22        Md 2.2  4909188
HAU   001.13 316.4 m E Pg      2012/04/12 12:33:55.0   0.1                          T                                        4909191
HAU   001.13 316.4 m E Sn      2012/04/12 12:34:09.9   0.1                          T               44.8  .22 Ml 3.0 Md 2.5  4912548
CABF  001.13 239.6 m E Pg      2012/04/12 12:33:55.9   0.9                          T                                        4909189
CABF  001.13 239.6 m E Sg      2012/04/12 12:34:09.9   0.2                          T               25.1  .60 Ml 2.5         4912547
CDF   001.23 352.8 m E Pn      2012/04/12 12:33:56.2   0.0                          T                                        4909270
CDF   001.23 352.8 m E Pg      2012/04/12 12:33:57.2   0.4                          T                                        4912566
CDF   001.23 352.8 m E Sg      2012/04/12 12:34:12.7   0.1                          T               38.8  .25 Ml 3.2 Md 2.4  4909269
THEF  001.45 315.9 m E Pg      2012/04/12 12:34:00.9   0.1                          T                                        4909190
THEF  001.45 315.9 m E Sg      2012/04/12 12:34:20.1   0.5                          T               17.2  .21 Ml 2.9         4912549
SFTF  001.95 302.2 m E Pg      2012/04/12 12:34:09.7  -0.2                          T                                        4914088
SFTF  001.95 302.2 m E Sg      2012/04/12 12:34:35.5   0.4                          T                6.5  .24 Ml 2.6         4912559
LOR   002.49 273.0 m E Pg      2012/04/12 12:34:19.9   0.1                          T                                        4912573
LOR   002.49 273.0 m E Sg      2012/04/12 12:34:51.4  -0.5                          T                6.5  .28 Ml 2.7         4909268
AVF   002.87 263.4 m E P       2012/04/12 12:34:20.8  -0.4                          T                                        4914089
AVF   002.87 263.4 m E Sg      2012/04/12 12:35:03.5  -0.3                          T                 .6  .24 Ml 1.8         4912565
MBDF  002.52 192.0 m E Pg      2012/04/12 12:34:21.0   0.4                          T                                        4912568
MBDF  002.52 192.0 m E Sg      2012/04/12 12:34:53.2   0.2                          T                1.4  .32 Ml 2.0         4914087
ORIF  002.54 207.0 m E Pg      2012/04/12 12:34:21.3   0.3                          T                                        4912556
ORIF  002.54 207.0 m E Sg      2012/04/12 12:34:53.1  -0.6                          T                4.8  .32 Ml 2.5         4912557
SMF   002.57 259.0 m E Pg      2012/04/12 12:34:21.4   0.0                          T                                        4912564
SMF   002.57 259.0 m E Sg      2012/04/12 12:34:54.4  -0.1                          T                7.7  .42 Ml 2.6         4912558
LPL   001.76 198.0 m E Sg      2012/04/12 12:34:29.5   0.1                          T                6.1  .42 Ml 2.3         4912552
LPG   001.78 197.4 m E Sg      2012/04/12 12:34:29.8  -0.1                          T                4.3  .23 Ml 2.4         4912555
PAGF  001.81 319.3 m E Sg      2012/04/12 12:34:30.6  -0.2                          T                1.6  .28 Ml 1.9         4912560
SSF   002.73 268.7 m E Sg      2012/04/12 12:34:58.7  -0.8                          T                5.3  .38 Ml 2.6         4912553
VIVF  003.06 221.2 m E Sg      2012/04/12 12:35:09.3  -0.4                          T                6.1  .36 Ml 2.7         4912554

.
EVENT     273514
    Date      Time       Latitude Longitude    Depth    Ndef Nsta Gap    Mag1  N    Mag2  N    Mag3  N   Author         ID
       rms   OT_Error      Smajor Sminor Az        Err   mdist  Mdist     Err        Err        Err      Quality

2012/04/12 14:30:51.1     48.8551    -.1203       .0 f     7    4 289  Ml 2.0  1  Md 2.0  2              bulletin    273534
                                                                                                         _ldg
      1.00   +-  0.35       5.7    2.6   54.54 +-  0.0    0.26   1.73   +-         +-0.0                 m i km

FRANCE
Sta     Dist  EvAz     Phase      Date       Time     TRes  Azim  AzRes  Slow  SRes Def   SNR       Amp   Per   Mag1   Mag2       ID
LDF   000.26 180.3 m E Pg      2012/04/12 14:30:56.5   0.0                          T                                        4909276
LDF   000.26 180.3 m E Sg      2012/04/12 14:31:00.0  -0.3                          T               57.0  .54        Md 2.0  4909272
FLN   000.26 248.9 m E Pg      2012/04/12 14:30:56.6   0.1  69.3  0.6               T                                        4909277
FLN   000.26 248.9 m E Sg      2012/04/12 14:31:00.2   0.1  58.8  -9.9              T              151.5  .98        Md 2.0  4909273
GRR   000.68 226.6 m E Pg      2012/04/12 14:31:04.3   0.1                          T                                        4914093
GRR   000.68 226.6 m E Sg      2012/04/12 14:31:12.7  -0.6                          T               25.4  .94                4914094
SGMF  001.73 250.5 m E Sg      2012/04/12 14:31:46.0   0.0                          T                2.1  .31 Ml 2.0         4914092

.
EVENT     273515
    Date      Time       Latitude Longitude    Depth    Ndef Nsta Gap    Mag1  N    Mag2  N    Mag3  N   Author         ID
       rms   OT_Error      Smajor Sminor Az        Err   mdist  Mdist     Err        Err        Err      Quality

2012/04/12 14:43:19.0     48.3303   -2.6661       .0 f     7    4 175  Ml 1.9  1  Md 1.5  3              bulletin    273535
                                                                                                         _ldg
      0.32   +-  0.23       5.9    2.7    9.25 +-  0.0    0.11   1.21   +-         +-0.3                 m i ke

FRANCE
Sta     Dist  EvAz     Phase      Date       Time     TRes  Azim  AzRes  Slow  SRes Def   SNR       Amp   Per   Mag1   Mag2       ID
SGMF  000.11 136.2 m E Pg      2012/04/12 14:43:21.7   0.2                          T                                        4909286
SGMF  000.11 136.2 m E Sg      2012/04/12 14:43:22.9  -0.3                          T              144.3  .70        Md 1.8  4909278
ROSF  000.41 271.1 m E Pg      2012/04/12 14:43:26.9  -0.1                          T                                        4912628
ROSF  000.41 271.1 m E Sg      2012/04/12 14:43:32.7   0.2                          T                4.6  .25        Md 1.4  4912627
QUIF  000.53 219.1 m E Pg      2012/04/12 14:43:29.5   0.2                          T                                        4909284
QUIF  000.53 219.1 m E Sg      2012/04/12 14:43:35.8  -0.7                          T                                Md 1.3  4912626
GRR   001.21 086.6 m E Sg      2012/04/12 14:43:57.2  -0.4                          T                2.6  .18 Ml 1.9         4914095

.
EVENT     273543
    Date      Time       Latitude Longitude    Depth    Ndef Nsta Gap    Mag1  N    Mag2  N    Mag3  N   Author         ID
       rms   OT_Error      Smajor Sminor Az        Err   mdist  Mdist     Err        Err        Err      Quality

2012/04/12 15:21:17.4     48.0053    7.8902     18.7      11    4 078  Ml 1.6  2  Md 1.6  1              js067245    273563

      0.11   +-  0.03        .5     .5  179.22 +-  0.4    0.05   1.86   +-0.2      +-                    m i ke

FRANCE
Sta     Dist  EvAz     Phase      Date       Time     TRes  Azim  AzRes  Slow  SRes Def   SNR       Amp   Per   Mag1   Mag2       ID
CDF   000.58 315.0 m E Pg      2012/04/12 15:21:28.8  -0.1                          T                                        4912670
CDF   000.58 315.0 m E Sg      2012/04/12 15:21:36.6  -0.1                          T                2.2  .18        Md 1.6  4912669
HINF  000.72 255.2 m E Pg      2012/04/12 15:21:31.5   0.1                          T                                        4912667
HINF  000.72 255.2 m E Sg      2012/04/12 15:21:40.7  -0.4                          T                 .9  .21                4912668
HAU   001.04 270.6 m E Pg      2012/04/12 15:21:37.1   0.1                          T                                        4914102
HAU   001.04 270.6 m E Sg      2012/04/12 15:21:50.7   0.1                          T                1.7  .26 Ml 1.4         4914103
CABF  001.86 222.0 m E Sg      2012/04/12 15:22:16.3   0.1                          T                 .9  .26 Ml 1.7         4914101

.
EVENT     273545
    Date      Time       Latitude Longitude    Depth    Ndef Nsta Gap    Mag1  N    Mag2  N    Mag3  N   Author         ID
       rms   OT_Error      Smajor Sminor Az        Err   mdist  Mdist     Err        Err        Err      Quality

2012/04/12 15:58:08.8     43.4859    2.7998       .0 f    14    5 124  Ml 2.2  4  Md 2.3  1              js067245    273565

      0.98   +-  0.13       3.2    2.1  115.67 +-  0.0    0.45   1.92   +-0.3      +-                    m i km

FRANCE
Sta     Dist  EvAz     Phase      Date       Time     TRes  Azim  AzRes  Slow  SRes Def   SNR       Amp   Per   Mag1   Mag2       ID
MTLF  000.45 251.4 m E Pg      2012/04/12 15:58:16.8  -0.8                          T                                        4912677
MTLF  000.45 251.4 m E Sg      2012/04/12 15:58:24.2   0.5                          T               55.1 1.40        Md 2.3  4912686
LASF  000.97 052.0 m E Pg      2012/04/12 15:58:26.9  -0.3                          T                                        4912676
LASF  000.97 052.0 m E Sg      2012/04/12 15:58:40.7   0.8                          T               11.4  .40 Ml 2.3         4912681
CAF   001.53 340.1 m E Pn      2012/04/12 15:58:36.3   0.4                          T                                        4912682
CAF   001.53 340.1 m E Pg      2012/04/12 15:58:37.7   0.0                          T                                        4912675
CAF   001.53 340.1 m E Sg      2012/04/12 15:58:57.9   0.2                          T                5.6  .20 Ml 2.5         4912687
VIVF  001.92 043.9 m E Pg      2012/04/12 15:58:44.7  -0.1                          T                                        4912684
VIVF  001.92 043.9 m E Sg      2012/04/12 15:59:10.0   0.2                          T                1.7  .30 Ml 1.9         4912685
EPF   001.85 256.6 m E Sg      2012/04/12 15:59:07.8   0.2                          T                1.5  .25 Ml 1.9         4912683

.
