EVENT     254003
    Date      Time       Latitude Longitude    Depth    Ndef Nsta Gap    Mag1  N    Mag2  N    Mag3  N   Author         ID
       rms   OT_Error      Smajor Sminor Az        Err   mdist  Mdist     Err        Err        Err      Quality

2011/01/19 19:48:03.0     46.3081    7.5077      4.0 f    14    3 115  Ml 1.3  3  Md 1.8  3              js067245    254023

      0.12   +-  0.03        .7     .6  142.92 +-  0.0    0.11   1.03   +-0.2      +-0.0                 m i ke

SWITZERLAND
Sta     Dist  EvAz     Phase      Date       Time     TRes  Azim  AzRes  Slow  SRes Def   SNR       Amp   Per   Mag1   Mag2       ID
LPL   000.96 214.6 m E Pg      2011/01/19 19:48:21.3   0.0                          T                                        4584771
LPL   000.96 214.6 m E Sg      2011/01/19 19:48:33.7   0.0                          T                 .6  .27 Ml 1.2 Md 1.8  4584767
LPG   000.97 213.4 m E Pg      2011/01/19 19:48:21.5   0.0                          T                                        4584770
LPG   000.97 213.4 m E Sg      2011/01/19 19:48:34.1   0.0                          T                 .8  .27 Ml 1.3 Md 1.8  4584766
CABF  001.03 287.7 m E Pg      2011/01/19 19:48:22.5   0.1                          T                                        4584769
CABF  001.03 287.7 m E Sg      2011/01/19 19:48:35.7   0.0                          T                1.4  .31 Ml 1.5 Md 1.8  4584768

.
EVENT     254007
    Date      Time       Latitude Longitude    Depth    Ndef Nsta Gap    Mag1  N    Mag2  N    Mag3  N   Author         ID
       rms   OT_Error      Smajor Sminor Az        Err   mdist  Mdist     Err        Err        Err      Quality

2011/01/19 20:29:15.3     43.1053   -1.0684      2.0      10    3 163  Ml 1.3  1  Md 1.3  2              js067245    254027

      0.24   +-  0.07       2.5    1.0    9.36 +-  0.0    0.11   1.03   +-         +-0.0                 m i ke

PYRENEES
Sta     Dist  EvAz     Phase      Date       Time     TRes  Azim  AzRes  Slow  SRes Def   SNR       Amp   Per   Mag1   Mag2       ID
SJPF  000.11 274.1 m E Pg      2011/01/19 20:29:17.9   0.1                          T                                        4584777
SJPF  000.11 274.1 m E Sg      2011/01/19 20:29:19.2  -0.4                          T               34.2  .37        Md 1.3  4584774
ETSF  000.43 118.8 m E Pg      2011/01/19 20:29:23.2  -0.4                          T                                        4584776
ETSF  000.43 118.8 m E Sg      2011/01/19 20:29:29.2  -0.1                          T                2.2  .23        Md 1.3  4584775
EPF   001.03 093.7 m E Pg      2011/01/19 20:29:34.7  -0.1                          T                                        4584772
EPF   001.03 093.7 m E Sg      2011/01/19 20:29:48.4   0.2                          T                 .7  .22 Ml 1.3         4584773

.
EVENT     254008
    Date      Time       Latitude Longitude    Depth    Ndef Nsta Gap    Mag1  N    Mag2  N    Mag3  N   Author         ID
       rms   OT_Error      Smajor Sminor Az        Err   mdist  Mdist     Err        Err        Err      Quality

2011/01/19 22:44:42.8     43.1132   -1.1401     15.0      10    3 088  Ml 1.1  1  Md 1.3  2              js067245    254028

      0.18   +-  0.04       1.3     .8   12.27 +-  0.0    0.06   1.09   +-         +-0.1                 m i ke

PYRENEES
Sta     Dist  EvAz     Phase      Date       Time     TRes  Azim  AzRes  Slow  SRes Def   SNR       Amp   Per   Mag1   Mag2       ID
SJPF  000.06 270.1 m E Pg      2011/01/19 22:44:46.0   0.1                          T                                        4584783
SJPF  000.06 270.1 m E Sg      2011/01/19 22:44:47.6  -0.4                          T               10.1  .20        Md 1.3  4584781
ETSF  000.48 116.5 m E Pg      2011/01/19 22:44:51.7  -0.6                          T                                        4584782
ETSF  000.48 116.5 m E Sg      2011/01/19 22:44:57.7  -1.1                          T                1.7  .20        Md 1.2  4584780
EPF   001.09 093.9 m E Pg      2011/01/19 22:45:04.1   0.8                          T                                        4584778
EPF   001.09 093.9 m E Sg      2011/01/19 22:45:18.0   0.4                          T                 .5  .24 Ml 1.1         4584779

.
EVENT     254004
    Date      Time       Latitude Longitude    Depth    Ndef Nsta Gap    Mag1  N    Mag2  N    Mag3  N   Author         ID
       rms   OT_Error      Smajor Sminor Az        Err   mdist  Mdist     Err        Err        Err      Quality

2011/01/20 05:00:43.9     53.1003   15.5145      1.0 f    54   24 322  Ml 4.3 25                         js067245    254024

      0.92   +-  0.17       6.0    2.8  143.87 +-  0.0    6.29  11.46   +-0.3                            m i sr

POLAND
Sta     Dist  EvAz     Phase      Date       Time     TRes  Azim  AzRes  Slow  SRes Def   SNR       Amp   Per   Mag1   Mag2       ID
RUP   006.29 240.6 m E Pn      2011/01/20 05:02:15.2  -0.3                          T                                        4584830
RUP   006.29 240.6 m E Sg      2011/01/20 05:04:00.8   0.0                          T                                        4584824
LANF  006.37 232.8 m E Pn      2011/01/20 05:02:16.7   0.1                          T                                        4584829
LANF  006.37 232.8 m E Sg      2011/01/20 05:04:03.5   0.1                          T              252.4 1.03 Ml 4.6         4584826
CDF   007.02 231.3 m E Pn      2011/01/20 05:02:25.8   0.2                          T                                        4584828
CDF   007.02 231.3 m E P       2011/01/20 05:02:32.8   2.2                          T                                        4586889
CDF   007.02 231.3 m E Sg      2011/01/20 05:04:23.7   0.0                          T               79.8  .78 Ml 4.4         4584825
GIVF  007.30 250.0 m E Pn      2011/01/20 05:02:29.1  -0.1                          T                                        4584815
GIVF  007.30 250.0 m E Sg      2011/01/20 05:04:32.5   0.1                          T               56.0  .88 Ml 4.1         4584801
HINF  007.65 229.7 m E Pn      2011/01/20 05:02:33.9  -0.1                          T                                        4584816
HINF  007.65 229.7 m E Sg      2011/01/20 05:04:43.1  -0.1                          T               47.3  .72 Ml 4.2         4584794
BAIF  007.67 251.1 m E Pn      2011/01/20 05:02:34.1  -0.1                          T                                        4584814
BAIF  007.67 251.1 m E Sg      2011/01/20 05:04:44.4   0.5                          T              101.7 1.38 Ml 4.2         4584800
PAGF  007.69 237.6 m E Pn      2011/01/20 05:02:34.5   0.0  53.6  3.6               T                                        4584821
PAGF  007.69 237.6 m E Sg      2011/01/20 05:04:44.2  -0.1                          T               34.3 1.25 Ml 3.8         4584799
HAU   007.75 232.5 m E Pn      2011/01/20 05:02:35.3   0.0                          T                                        4584817
HAU   007.75 232.5 m E P       2011/01/20 05:02:42.3   1.6                          T                                        4586888
HAU   007.75 232.5 m E Sg      2011/01/20 05:04:46.3   0.0                          T               47.4  .77 Ml 3.9         4584795
THEF  007.77 234.9 m E Pn      2011/01/20 05:02:35.5  -0.1                          T                                        4584818
THEF  007.77 234.9 m E Sg      2011/01/20 05:04:47.0   0.1                          T               90.2 1.31 Ml 4.2         4584796
MEZF  008.07 239.4 m E Pn      2011/01/20 05:02:39.4  -0.2  63.1  11.8              T                                        4584820
MEZF  008.07 239.4 m E Sg      2011/01/20 05:04:56.1  -0.1                          T              155.3 1.38 Ml 4.5         4584798
SFTF  008.26 237.8 m E Pn      2011/01/20 05:02:42.2  -0.1                          T                                        4584819
SFTF  008.26 237.8 m E Sg      2011/01/20 05:05:02.2  -0.1                          T              165.7 1.38 Ml 4.5         4584797
CABF  008.90 226.9 m E Pn      2011/01/20 05:02:50.8  -0.3                          T                                        4584812
CABF  008.90 226.9 m E Sg      2011/01/20 05:05:22.2  -0.1                          T              176.8 1.30 Ml 4.7         4584793
LOR   009.48 236.7 m E Pn      2011/01/20 05:02:59.0   0.1                          T                                        4584827
LOR   009.48 236.7 m E P       2011/01/20 05:03:06.1   1.4  59.4  11.7              T                                        4586890
LOR   009.48 236.7 m E Sg      2011/01/20 05:05:40.3   0.0                          T               62.4 1.34 Ml 4.3         4584822
LPL   009.51 220.5 m E Pn      2011/01/20 05:02:59.5  -0.1                          T                                        4584808
LPL   009.51 220.5 m E Sg      2011/01/20 05:05:41.3  -0.1                          T               23.7 1.06 Ml 4.0         4584788
LPG   009.52 220.4 m E Pn      2011/01/20 05:02:59.8   0.0                          T                                        4584807
LPG   009.52 220.4 m E Sg      2011/01/20 05:05:41.6  -0.2                          T               90.0 1.38 Ml 4.5         4584787
SSF   009.80 236.7 m E Pn      2011/01/20 05:03:03.8   0.6                          T                                        4584823
SSF   009.80 236.7 m E Sg      2011/01/20 05:05:50.2   0.0                          T               16.7  .70 Ml 4.2         4584803
AVF   010.06 236.0 m E Pn      2011/01/20 05:03:06.3  -0.5                          T                                        4584811
AVF   010.06 236.0 m E Sg      2011/01/20 05:05:57.7  -0.7                          T               31.4  .98 Ml 4.2         4584792
MBDF  010.16 217.9 m E Pn      2011/01/20 05:03:08.1  -0.3                          T                                        4584810
MBDF  010.16 217.9 m E Sg      2011/01/20 05:06:01.9   0.2                          T               16.0  .80 Ml 4.0         4584790
ORIF  010.34 221.5 m E Pn      2011/01/20 05:03:11.0   0.2                          T                                        4584809
ORIF  010.34 221.5 m E Sg      2011/01/20 05:06:07.5   0.2                          T               69.6 1.32 Ml 4.5         4584789
SBF   010.68 213.3 m E Pn      2011/01/20 05:03:15.7   0.4                          T                                        4584804
SBF   010.68 213.3 m E Sn      2011/01/20 05:05:08.5  -0.2                          T               11.6  .56 Ml 4.2         4584784
TCF   010.98 236.9 m E Pn      2011/01/20 05:03:18.7  -0.6                          T                                        4584813
TCF   010.98 236.9 m E Sg      2011/01/20 05:06:27.2   0.1                          T               69.7 1.48 Ml 4.6         4584802
FRF   011.21 215.2 m E Pn      2011/01/20 05:03:22.7   0.2                          T                                        4584806
FRF   011.21 215.2 m E Sn      2011/01/20 05:05:21.6   0.2                          T               10.6  .56 Ml 4.2         4584786
LMR   011.46 215.1 m E Pn      2011/01/20 05:03:25.6  -0.2                          T                                        4584805
LMR   011.46 215.1 m E Sn      2011/01/20 05:05:27.1  -0.2                          T                3.8  .56 Ml 3.8         4584785
SMF   009.92 234.0 m E Sg      2011/01/20 05:05:54.0   0.0                          T               10.8  .90 Ml 3.8         4584791

.
EVENT     254016
    Date      Time       Latitude Longitude    Depth    Ndef Nsta Gap    Mag1  N    Mag2  N    Mag3  N   Author         ID
       rms   OT_Error      Smajor Sminor Az        Err   mdist  Mdist     Err        Err        Err      Quality

2011/01/20 10:04:18.7     45.5287    3.1610       .0 f    22   10 098  Ml 2.1 11  Md 2.2  3              js067245    254036

      0.18   +-  0.04       1.0     .7   92.97 +-  0.0    0.65   1.81   +-0.3      +-0.0                 m i km

FRANCE
Sta     Dist  EvAz     Phase      Date       Time     TRes  Azim  AzRes  Slow  SRes Def   SNR       Amp   Per   Mag1   Mag2       ID
CAF   000.98 232.5 m E Pg      2011/01/20 10:04:37.4   0.0                          T                                        4584922
CAF   000.98 232.5 m E Sg      2011/01/20 10:04:50.3  -0.1                          T                3.1  .19 Ml 2.0 Md 2.2  4584916
TCF   001.01 319.2 m E Pg      2011/01/20 10:04:37.9   0.0                          T                                        4584928
TCF   001.01 319.2 m E Sg      2011/01/20 10:04:51.3   0.1                          T                7.9  .42 Ml 2.1 Md 2.1  4584924
BGF   001.05 348.1 m E Pg      2011/01/20 10:04:39.1   0.4                          T                                        4584911
BGF   001.05 348.1 m E Sg      2011/01/20 10:04:52.4  -0.1                          T               33.4  .40 Ml 2.8         4584909
RJF   001.18 259.6 m E Pg      2011/01/20 10:04:40.9  -0.1                          T                                        4584919
RJF   001.18 259.6 m E Sg      2011/01/20 10:04:56.4  -0.1                          T                2.3  .26 Ml 1.5         4584915
SMF   001.21 022.7 m E Pg      2011/01/20 10:04:41.7   0.0                          T                                        4584910
SMF   001.21 022.7 m E Sg      2011/01/20 10:04:57.6   0.0                          T                4.6  .18 Ml 2.3         4584907
VIVF  001.26 121.6 m E Pg      2011/01/20 10:04:42.5  -0.1                          T                                        4584921
VIVF  001.26 121.6 m E Sg      2011/01/20 10:04:59.1   0.0                          T                3.2  .26 Ml 2.0         4584918
AVF   001.27 006.0 m E Pg      2011/01/20 10:04:42.5  -0.2                          T                                        4584905
AVF   001.27 006.0 m E Sg      2011/01/20 10:04:59.3   0.0                          T                2.1  .19 Ml 2.0         4584906
LASF  001.53 160.9 m E Pg      2011/01/20 10:04:47.7   0.1                          T                                        4584920
LASF  001.53 160.9 m E Sg      2011/01/20 10:05:07.6   0.0                          T                6.6  .46 Ml 2.2         4584917
SSF   001.55 008.7 m E Pg      2011/01/20 10:04:47.9   0.0                          T                                        4584927
SSF   001.55 008.7 m E Sg      2011/01/20 10:05:08.2   0.1                          T                4.6  .47 Ml 2.1         4584923
LOR   001.81 015.3 m E Pg      2011/01/20 10:04:52.6   0.0                          T                                        4584926
LOR   001.81 015.3 m E Sg      2011/01/20 10:05:15.3  -0.8                          T                3.4  .31 Ml 2.2         4584925

.
EVENT     254031
    Date      Time       Latitude Longitude    Depth    Ndef Nsta Gap    Mag1  N    Mag2  N    Mag3  N   Author         ID
       rms   OT_Error      Smajor Sminor Az        Err   mdist  Mdist     Err        Err        Err      Quality

2011/01/20 15:35:44.0     45.0568    3.5804       .0 f    24   11 097  Ml 2.1 11  Md 2.1  3              js067245    254051

      0.22   +-  0.05       1.2     .9   81.91 +-  0.0    0.80   2.22   +-0.2      +-0.0                 m i km

FRANCE
Sta     Dist  EvAz     Phase      Date       Time     TRes  Azim  AzRes  Slow  SRes Def   SNR       Amp   Per   Mag1   Mag2       ID
VIVF  000.80 104.1 m E Pg      2011/01/20 15:35:58.9  -0.5                          T                                        4586999
VIVF  000.80 104.1 m E Pn      2011/01/20 15:36:01.3   0.1                          T                                        4584968
VIVF  000.80 104.1 m E Sg      2011/01/20 15:36:10.5   0.5                          T                4.6  .25        Md 2.1  4584963
LASF  001.00 168.5 m E Pg      2011/01/20 15:36:02.7  -0.4                          T                                        4584967
LASF  001.00 168.5 m E Sg      2011/01/20 15:36:16.6   0.4                          T                5.9  .34 Ml 2.1 Md 2.1  4584962
CAF   001.08 263.6 m E Pg      2011/01/20 15:36:04.6   0.0                          T                                        4584966
CAF   001.08 263.6 m E Sg      2011/01/20 15:36:18.7  -0.1                          T                5.4  .30 Ml 2.1 Md 2.1  4584971
RJF   001.48 280.4 m E Pg      2011/01/20 15:36:12.0   0.1                          T                                        4584965
RJF   001.48 280.4 m E Sg      2011/01/20 15:36:31.1  -0.1                          T                5.6  .36 Ml 1.9         4584970
TCF   001.56 322.5 m E Pg      2011/01/20 15:36:13.3  -0.1                          T                                        4584984
TCF   001.56 322.5 m E Sg      2011/01/20 15:36:33.6  -0.1                          T                6.5  .56 Ml 2.2         4584987
BGF   001.59 341.4 m E Pg      2011/01/20 15:36:13.7  -0.1                          T                                        4584982
BGF   001.59 341.4 m E Sg      2011/01/20 15:36:34.3  -0.2                          T                6.5  .32 Ml 2.4         4584990
AVF   001.74 354.8 m E Pn      2011/01/20 15:36:13.9   0.1                          T                                        4584983
AVF   001.74 354.8 m E Sg      2011/01/20 15:36:39.2   0.0                          T                3.3  .66 Ml 1.8         4584988
SMF   001.60 006.4 m E Pg      2011/01/20 15:36:14.4   0.3                          T                                        4584979
SMF   001.60 006.4 m E Sg      2011/01/20 15:36:34.8   0.0                          T                7.0  .28 Ml 2.5         4584989
MTLF  001.98 210.2 m E Pn      2011/01/20 15:36:17.2   0.1                          T                                        4584981
MTLF  001.98 210.2 m E Pg      2011/01/20 15:36:21.2   0.2                          T                                        4584980
MTLF  001.98 210.2 m E Sg      2011/01/20 15:36:46.5  -0.1                          T                2.9  .41 Ml 2.1         4584991
SSF   002.01 358.5 m E Pg      2011/01/20 15:36:21.6   0.0                          T                                        4584978
SSF   002.01 358.5 m E Sg      2011/01/20 15:36:47.4  -0.2                          T                1.9  .28 Ml 2.1         4584986
LOR   002.22 004.9 m E Pg      2011/01/20 15:36:25.8   0.3                          T                                        4584977
LOR   002.22 004.9 m E Sg      2011/01/20 15:36:54.2  -0.1                          T                1.2  .25 Ml 1.9         4584985

.
