EVENT     267450
    Date      Time       Latitude Longitude    Depth    Ndef Nsta Gap    Mag1  N    Mag2  N    Mag3  N   Author         ID
       rms   OT_Error      Smajor Sminor Az        Err   mdist  Mdist     Err        Err        Err      Quality

2011/12/14 12:37:22.5     47.4261   13.4413     10.0 f   101   21 043  Ml 3.6 18                         js067245    267470

      0.81   +-  0.09       2.0    1.6   31.63 +-  0.0    0.35   7.49   +-0.2                            m i ke

AUSTRIA
Sta     Dist  EvAz     Phase      Date       Time     TRes  Azim  AzRes  Slow  SRes Def   SNR       Amp   Per   Mag1   Mag2       ID
CDF   004.26 285.7 m E Pn      2011/12/14 12:38:26.6   1.1                          T   001.0                                4799957
CDF   004.26 285.7 m E Pg      2011/12/14 12:38:41.7   0.3                          T                                        4801234
CDF   004.26 285.7 m E Sg      2011/12/14 12:39:36.3   0.2                          T               53.2  .45 Ml 3.9         4801208
HINF  004.47 277.4 m E Pn      2011/12/14 12:38:29.4   1.1                          T                                        4800681
HINF  004.47 277.4 m E Pg      2011/12/14 12:38:45.6   0.3                          T                                        4801227
HINF  004.47 277.4 m E Sn      2011/12/14 12:39:17.3   0.0                          T                                        4801215
HINF  004.47 277.4 m E Sg      2011/12/14 12:39:42.8   0.2                          T               46.3  .46 Ml 3.8         4801216
HAU   004.82 279.5 m E Pn      2011/12/14 12:38:33.7   0.6                          T   001.0                                4799959
HAU   004.82 279.5 m E Pg      2011/12/14 12:38:52.2   0.5                          T                                        4801228
HAU   004.82 279.5 m E Sn      2011/12/14 12:39:25.6  -0.1                          T                                        4801213
HAU   004.82 279.5 m E Sg      2011/12/14 12:39:53.9   0.3                          T               65.2  .44 Ml 3.8         4801214
CABF  005.10 263.5 m E Pn      2011/12/14 12:38:37.4   0.6                          T   001.0                                4799962
CABF  005.10 263.5 m E Pg      2011/12/14 12:38:57.1   0.3                          T                                        4801226
CABF  005.10 263.5 m E Sn      2011/12/14 12:39:31.5  -0.7                          T   001.0                                4799963
CABF  005.10 263.5 m E Sg      2011/12/14 12:40:02.2   0.0                          T   001.0       28.4  .52 Ml 3.6         4799964
PAGF  005.30 285.1 m E Pn      2011/12/14 12:38:39.2  -0.4 101.6  2.2               T                                        4801233
PAGF  005.30 285.1 m E Pg      2011/12/14 12:39:00.3  -0.3 109.6  10.2              T                                        4801232
PAGF  005.30 285.1 m E Sn      2011/12/14 12:39:36.5  -0.6                          T                                        4801209
PAGF  005.30 285.1 m E Sg      2011/12/14 12:40:09.2   0.7                          T                9.7  .48 Ml 3.2         4801210
LPG   005.01 249.8 m E P       2011/12/14 12:38:39.7  -0.3                          T                                        4800683
LPG   005.01 249.8 m E Pg      2011/12/14 12:38:56.2   0.7                          T                                        4801222
LPG   005.01 249.8 m E Sn      2011/12/14 12:39:31.2   0.8                          T   001.0       18.2  .60 Ml 3.4         4799960
LPL   005.01 250.1 m E P       2011/12/14 12:38:40.4   0.4                          T                                        4800682
LPL   005.01 250.1 m E Pg      2011/12/14 12:38:55.5   0.0                          T                                        4801223
LPL   005.01 250.1 m E Sg      2011/12/14 12:39:59.9   0.2                          T               11.3  .41 Ml 3.3         4801219
MBDF  005.37 242.2 m E Pn      2011/12/14 12:38:41.8   1.1                          T   001.0                                4799967
MBDF  005.37 242.2 m E Pg      2011/12/14 12:39:02.0   0.1                          T                                        4801225
MBDF  005.37 242.2 m E Sn      2011/12/14 12:39:39.3   0.5                          T   001.0       15.9  .50 Ml 3.5         4799968
SFTF  005.71 280.9 m E Pn      2011/12/14 12:38:45.2   0.0                          T                                        4800675
SFTF  005.71 280.9 m E Pg      2011/12/14 12:39:07.8  -0.3                          T                                        4801229
SFTF  005.71 280.9 m E Sn      2011/12/14 12:39:47.0   0.1                          T                                        4801211
SFTF  005.71 280.9 m E Sg      2011/12/14 12:40:21.3   0.0                          T               21.5  .42 Ml 3.7         4801212
MEZF  005.74 283.9 m E Pn      2011/12/14 12:38:45.3  -0.2                          T                                        4801231
MEZF  005.74 283.9 m E Pg      2011/12/14 12:39:07.7  -0.8                          T                                        4801230
MEZF  005.74 283.9 m E Sn      2011/12/14 12:39:46.0  -1.5 109.5  11.8              T   001.0       12.6  .32 Ml 3.6         4799969
PGF   005.81 214.5 m E Pn      2011/12/14 12:38:47.6   1.0                          T                                        4801221
ORIF  005.82 247.2 m E P       2011/12/14 12:38:50.2  -1.0                          T   001.0                                4799970
ORIF  005.82 247.2 m E Pg      2011/12/14 12:39:10.6   0.4                          T                                        4801224
ORIF  005.82 247.2 m E Sn      2011/12/14 12:39:49.9   0.4                          T   001.0       15.5  .48 Ml 3.6         4799971
GIVF  006.29 298.4 m E Pn      2011/12/14 12:38:53.3   0.2                          T   001.0                                4799965
GIVF  006.29 298.4 m E Pg      2011/12/14 12:39:18.8   0.0                          T                                        4801235
GIVF  006.29 298.4 m E Sn      2011/12/14 12:40:01.0   0.2                          T   001.0       21.9  .48 Ml 3.8         4799966
FRF   006.14 233.5 m E P       2011/12/14 12:38:56.2   0.6                          T   001.0                                4799958
SMRF  006.50 240.8 m E Pn      2011/12/14 12:38:57.2   1.3                          T                                        4800680
SMRF  006.50 240.8 m E Sn      2011/12/14 12:40:06.5   0.7                          T   001.0        2.6  .29 Ml 3.1         4799973
SSF   006.77 270.6 m E Pn      2011/12/14 12:38:59.7   0.0                          T                                        4801237
SSF   006.77 270.6 m E Pg      2011/12/14 12:39:27.2  -0.5                          T                                        4801236
LOR   006.51 272.1 m E P       2011/12/14 12:39:01.0   0.1  92.2  7.1               T                                        4801239
LOR   006.51 272.1 m E Pg      2011/12/14 12:39:22.7  -0.2  88.7  3.7               T                                        4801238
LOR   006.51 272.1 m E Sg      2011/12/14 12:40:46.7   0.4                          T               12.7  .45 Ml 3.6         4801207
SMF   006.61 266.7 m E P       2011/12/14 12:39:02.0  -0.3                          T                                        4800679
SMF   006.61 266.7 m E Sn      2011/12/14 12:40:08.6   0.3                          T   001.0       12.5  .40 Ml 3.7         4799961
AVF   006.92 268.4 m E P       2011/12/14 12:39:06.5   0.0                          T   001.0                                4799956
SBF   005.52 231.9 m E Sn      2011/12/14 12:39:42.1  -0.1                          T               33.2  .68 Ml 3.7         4801220
LASF  007.49 247.0 m E Sn      2011/12/14 12:40:30.1   0.6                          T                3.3  .28 Ml 3.4         4801218

.
EVENT     267461
    Date      Time       Latitude Longitude    Depth    Ndef Nsta Gap    Mag1  N    Mag2  N    Mag3  N   Author         ID
       rms   OT_Error      Smajor Sminor Az        Err   mdist  Mdist     Err        Err        Err      Quality

2011/12/14 16:07:17.1     43.9698    5.8585      2.0      27   11 128  Ml 1.9  6  Md 2.0  1              js067245    267481

      0.31   +-  0.07       1.8    1.3   36.94 +-  0.0    0.20   2.70   +-0.2      +-                    m i ke

NEAR SOUTH COAST OF FRANCE
Sta     Dist  EvAz     Phase      Date       Time     TRes  Azim  AzRes  Slow  SRes Def   SNR       Amp   Per   Mag1   Mag2       ID
SMRF  000.20 271.8 m E Pg      2011/12/14 16:07:21.7   0.4                          T                                        4801240
SMRF  000.20 271.8 m E Sg      2011/12/14 16:07:24.5   0.3                          T                                        4800431
SMRF  000.20 271.8 m E Sn      2011/12/14 16:07:26.8   2.6                          T               65.9  .27        Md 2.0  4800430
FRF   000.70 125.3 m E Pg      2011/12/14 16:07:29.9  -0.5                          T                                        4800438
FRF   000.70 125.3 m E Sg      2011/12/14 16:07:39.8   0.3                          T                6.6  .25                4800704
LMR   000.79 143.2 m E Pg      2011/12/14 16:07:32.1   0.0                          T                                        4800443
LMR   000.79 143.2 m E Pn      2011/12/14 16:07:33.8   0.1                          T                                        4800703
ORIF  000.95 000.9 m E Pg      2011/12/14 16:07:34.8  -0.3                          T                                        4800429
ORIF  000.95 000.9 m E Pn      2011/12/14 16:07:35.9  -0.1                          T                                        4800709
ORIF  000.95 000.9 m E Sg      2011/12/14 16:07:47.8   0.4                          T                2.8  .29 Ml 1.8         4800711
MBDF  001.00 040.6 m E Pg      2011/12/14 16:07:36.0  -0.1                          T                                        4800428
MBDF  001.00 040.6 m E Pn      2011/12/14 16:07:36.8   0.0                          T                                        4800706
MBDF  001.00 040.6 m E Sn      2011/12/14 16:07:51.2   0.5                          T                6.2  .27 Ml 2.2         4800439
SBF   001.14 094.8 m E Pg      2011/12/14 16:07:38.5  -0.1                          T                                        4800441
SBF   001.14 094.8 m E Sg      2011/12/14 16:07:54.0   0.6                          T                8.1  .30 Ml 2.3         4800684
VIVF  001.23 316.6 m E Pn      2011/12/14 16:07:38.5  -1.2                          T                                        4800440
VIVF  001.23 316.6 m E Pg      2011/12/14 16:07:39.5  -0.7                          T                                        4801241
VIVF  001.23 316.6 m E Sg      2011/12/14 16:07:56.1   0.1                          T                1.8  .26 Ml 1.8         4800705
LASF  001.45 274.9 m E Pg      2011/12/14 16:07:44.1  -0.1                          T                                        4800712
LASF  001.45 274.9 m E Sg      2011/12/14 16:08:03.0   0.1                          T                 .8  .17 Ml 1.7         4800713
LPL   001.67 021.6 m E Pn      2011/12/14 16:07:45.9   0.0                          T                                        4800707
LPL   001.67 021.6 m E Pg      2011/12/14 16:07:47.5  -1.0                          T                                        4800710
LPG   001.65 022.3 m E Pn      2011/12/14 16:07:46.7   0.9                          T                                        4800708
PGF   002.70 120.7 m E Pn      2011/12/14 16:08:00.0   0.1                          T                                        4800702

.
EVENT     267462
    Date      Time       Latitude Longitude    Depth    Ndef Nsta Gap    Mag1  N    Mag2  N    Mag3  N   Author         ID
       rms   OT_Error      Smajor Sminor Az        Err   mdist  Mdist     Err        Err        Err      Quality

2011/12/14 19:47:13.4     42.9236   17.9145      2.0     144   16 033  Ml 4.1 12                         js067245    267482

      0.87   +-  0.08       2.3    1.9   11.78 +-  0.0    0.38  11.04   +-0.2                            m i ke

ADRIATIC SEA
Sta     Dist  EvAz     Phase      Date       Time     TRes  Azim  AzRes  Slow  SRes Def   SNR       Amp   Per   Mag1   Mag2       ID
PGF   006.58 269.8 m E P       2011/12/14 19:48:52.4  -1.2                          T                                        4800731
SBF   007.69 280.6 m E Pn      2011/12/14 19:49:03.7  -0.3                          T                                        4801248
SBF   007.69 280.6 m E P       2011/12/14 19:49:09.2  -0.1                          T                                        4800730
SBF   007.69 280.6 m E Sn      2011/12/14 19:50:26.6   0.0                          T               10.0  .32 Ml 3.9         4801247
LMR   008.35 276.7 m E Pn      2011/12/14 19:49:13.2   0.3                          T                                        4800726
LPG   008.42 291.6 m E Pn      2011/12/14 19:49:13.8  -0.4                          T                                        4801249
LPG   008.42 291.6 m E P       2011/12/14 19:49:18.8  -0.9                          T                                        4800716
LPG   008.42 291.6 m E Sn      2011/12/14 19:50:43.8  -0.6                          T               38.7  .70 Ml 4.2         4801246
MBDF  008.26 286.4 m E P       2011/12/14 19:49:13.8  -3.4                          T                                        4800714
MBDF  008.26 286.4 m E Sn      2011/12/14 19:50:39.7  -0.6                          T               27.4  .62 Ml 4.1         4801252
LPL   008.44 291.7 m E Pn      2011/12/14 19:49:14.3   0.0                          T                                        4800715
LPL   008.44 291.7 m E P       2011/12/14 19:49:19.8  -0.1                          T                                        4801250
LPL   008.44 291.7 m E Sn      2011/12/14 19:50:45.3   0.6                          T               38.3  .72 Ml 4.2         4801245
FRF   008.25 278.3 m E P       2011/12/14 19:49:15.7  -1.3                          T                                        4800729
FRF   008.25 278.3 m E Sn      2011/12/14 19:50:40.0   0.1                          T               12.4  .63 Ml 3.8         4801244
CABF  009.18 297.7 m E Pn      2011/12/14 19:49:24.6   0.2                          T                                        4800727
CABF  009.18 297.7 m E Sn      2011/12/14 19:51:02.9   0.6                          T               19.3  .78 Ml 4.0         4801253
CDF   009.25 310.1 m E Pn      2011/12/14 19:49:25.0  -0.2                          T                                        4801257
CDF   009.25 310.1 m E Sn      2011/12/14 19:51:04.4   0.6                          T               18.4  .79 Ml 4.1         4801256
ORIF  008.91 287.0 m E P       2011/12/14 19:49:25.9  -0.5                          T                                        4800728
ORIF  008.91 287.0 m E Sn      2011/12/14 19:50:55.4  -0.4                          T               30.1  .83 Ml 4.1         4801251
HINF  009.19 306.0 m E P       2011/12/14 19:49:30.1   0.0                          T                                        4800718
HINF  009.19 306.0 m E Sn      2011/12/14 19:51:02.4  -0.1                          T               35.9  .98 Ml 4.2         4801254
VIVF  009.76 285.9 m E Pn      2011/12/14 19:49:33.5   1.5                          T                                        4800722
HAU   009.58 306.0 m E P       2011/12/14 19:49:36.2   0.7                          T                                        4800717
HAU   009.58 306.0 m E Sn      2011/12/14 19:51:12.2   0.5                          T               25.6  .70 Ml 4.0         4801255
SMF   010.67 295.2 m E Pn      2011/12/14 19:49:45.3   0.7                          T                                        4800721
SMF   010.67 295.2 m E Sn      2011/12/14 19:51:38.0   0.2                          T               19.3  .58 Ml 4.4         4800723
LOR   010.84 298.4 m E Pn      2011/12/14 19:49:48.3   1.5                          T                                        4800725
LOR   010.84 298.4 m E Sn      2011/12/14 19:51:42.3   0.5                          T               29.2  .79 Ml 4.4         4800724
AVF   011.04 295.5 m E Pn      2011/12/14 19:49:49.9   0.5                          T                                        4800720
AVF   011.04 295.5 m E P       2011/12/14 19:49:55.0  -0.4                          T                                        4800719

.
EVENT     267472
    Date      Time       Latitude Longitude    Depth    Ndef Nsta Gap    Mag1  N    Mag2  N    Mag3  N   Author         ID
       rms   OT_Error      Smajor Sminor Az        Err   mdist  Mdist     Err        Err        Err      Quality

2011/12/15 01:29:03.8     47.8639    8.5119     10.0      11    3 067  Ml 1.5  3                         js067245    267492

      0.24   +-  0.05       1.1     .8  155.53 +-  0.0    0.10   1.46   +-0.2                            m i ke

SWITZERLAND
Sta     Dist  EvAz     Phase      Date       Time     TRes  Azim  AzRes  Slow  SRes Def   SNR       Amp   Per   Mag1   Mag2       ID
CDF   000.99 304.0 m E Pg      2011/12/15 01:29:22.5  -0.1                          T                                        4801268
CDF   000.99 304.0 m E Sg      2011/12/15 01:29:35.5   0.0                          T                1.5  .31 Ml 1.6         4801269
HINF  001.12 268.2 m E Pg      2011/12/15 01:29:24.8   0.0                          T                                        4801266
HINF  001.12 268.2 m E Sg      2011/12/15 01:29:39.5   0.1                          T                1.2  .24 Ml 1.6         4801267
HAU   001.46 276.4 m E Pg      2011/12/15 01:29:31.0  -0.1                          T                                        4801264
HAU   001.46 276.4 m E Sg      2011/12/15 01:29:50.0   0.0                          T                 .5  .21 Ml 1.2         4801265

.
EVENT     267464
    Date      Time       Latitude Longitude    Depth    Ndef Nsta Gap    Mag1  N    Mag2  N    Mag3  N   Author         ID
       rms   OT_Error      Smajor Sminor Az        Err   mdist  Mdist     Err        Err        Err      Quality

2011/12/15 02:35:26.3     42.9539     .2852      5.0 f    24    4 105  Ml 1.7  2  Md 1.8  2              js067245    267484

      0.41   +-  0.07       1.8    1.1   13.50 +-  0.0    0.09   2.00   +-0.1      +-0.0                 m i ke

PYRENEES
Sta     Dist  EvAz     Phase      Date       Time     TRes  Azim  AzRes  Slow  SRes Def   SNR       Amp   Per   Mag1   Mag2       ID
EPF   000.09 027.7 m E Pg      2011/12/15 02:35:28.7   0.2                          T                                        4800739
EPF   000.09 027.7 m E Sg      2011/12/15 02:35:30.9   0.9                          T               50.4  .20        Md 1.8  4800738
ETSF  000.62 265.2 m E Pg      2011/12/15 02:35:37.8  -0.4                          T                                        4800736
ETSF  000.62 265.2 m E Sg      2011/12/15 02:35:46.0  -0.4                          T               13.8  .24        Md 1.8  4800737
SJPF  001.12 278.7 m E Pn      2011/12/15 02:35:47.1   0.1                          T                                        4800732
SJPF  001.12 278.7 m E Sn      2011/12/15 02:36:02.3   0.4                          T                1.4  .20 Ml 1.7         4800733
MTLF  001.47 074.0 m E Pg      2011/12/15 02:35:53.0  -0.6                          T                                        4800734
MTLF  001.47 074.0 m E Sg      2011/12/15 02:36:13.2   0.6                          T                 .8  .19 Ml 1.6         4800735

.
