EVENT     258344
    Date      Time       Latitude Longitude    Depth    Ndef Nsta Gap    Mag1  N    Mag2  N    Mag3  N   Author         ID
       rms   OT_Error      Smajor Sminor Az        Err   mdist  Mdist     Err        Err        Err      Quality

2011/04/16 23:49:29.2     44.2687    6.2483      3.0 f   138   39 065  Ml 2.8 37  Md 3.1  4              js067245    258344

      0.66   +-  0.04       1.0     .8   75.27 +-  0.0    0.57   6.46   +-0.3      +-0.1                 m i ke

FRANCE
Sta     Dist  EvAz     Phase      Date       Time     TRes  Azim  AzRes  Slow  SRes Def   SNR       Amp   Per   Mag1   Mag2       ID
SMRF  000.57 239.1 m E Pg      2011/04/16 23:49:39.7  -0.3                          T                                        4674503
SMRF  000.57 239.1 m E Sg      2011/04/16 23:49:46.9  -0.6                          T              154.5  .40        Md 3.2  4674498
MBDF  000.59 039.1 m E Pg      2011/04/16 23:49:40.6   0.0                          T                                        4674505
MBDF  000.59 039.1 m E Pn      2011/04/16 23:49:43.0  -0.1                          T                                        4674452
MBDF  000.59 039.1 m E Sg      2011/04/16 23:49:48.3  -0.1                          T               83.7  .46        Md 3.0  4674497
ORIF  000.70 338.1 m E Pg      2011/04/16 23:49:41.9  -0.6                          T                                        4674504
ORIF  000.70 338.1 m E Pn      2011/04/16 23:49:44.7   0.1                          T                                        4674453
ORIF  000.70 338.1 m E Sg      2011/04/16 23:49:51.5  -0.2                          T              174.9  .46        Md 3.1  4674444
FRF   000.76 157.7 m E Pg      2011/04/16 23:49:43.4  -0.2                          T                                        4675621
FRF   000.76 157.7 m E Pn      2011/04/16 23:49:45.4   0.2                          T                                        4674502
FRF   000.76 157.7 m E Sg      2011/04/16 23:49:53.2  -0.4                          T               99.0  .30        Md 3.1  4674446
LMR   000.95 168.5 m E Pg      2011/04/16 23:49:46.5  -0.5                          T                                        4674501
LMR   000.95 168.5 m E Pn      2011/04/16 23:49:47.5  -0.3                          T                                        4674451
LMR   000.95 168.5 m E Sg      2011/04/16 23:49:59.0  -0.5                          T               60.7  .20 Ml 3.3         4674447
SBF   000.95 114.9 m E Pg      2011/04/16 23:49:47.0  -0.1                          T                                        4674500
SBF   000.95 114.9 m E Pn      2011/04/16 23:49:47.8   0.0                          T                                        4674450
SBF   000.95 114.9 m E Sg      2011/04/16 23:49:59.1  -0.3                          T              115.0  .23 Ml 3.5         4674448
VIVF  001.27 298.1 m E Pn      2011/04/16 23:49:52.2   0.0                          T                                        4674490
VIVF  001.27 298.1 m E Sg      2011/04/16 23:50:09.0  -0.4                          T               34.3  .28 Ml 3.0         4674443
LPG   001.28 016.0 m E Pg      2011/04/16 23:49:53.6   0.2                          T                                        4674494
LPG   001.28 016.0 m E Sg      2011/04/16 23:50:09.9  -0.2                          T               34.7  .46 Ml 2.8         4674445
LPL   001.29 015.2 m E Pg      2011/04/16 23:49:53.8   0.2                          T                                        4674495
LPL   001.29 015.2 m E Sg      2011/04/16 23:50:10.1  -0.2                          T               57.6  .56 Ml 3.0         4674496
LASF  001.73 264.4 m E Pn      2011/04/16 23:49:57.7  -0.7                          T                                        4674491
LASF  001.73 264.4 m E Pg      2011/04/16 23:50:00.7  -0.7                          T                                        4674492
LASF  001.73 264.4 m E Sn      2011/04/16 23:50:19.5  -0.3                          T                                        4674441
LASF  001.73 264.4 m E Sg      2011/04/16 23:50:23.3  -0.5                          T               11.2  .22 Ml 2.8         4674442
CABF  002.35 357.3 m E Pn      2011/04/16 23:50:07.0   0.1                          T                                        4674474
CABF  002.35 357.3 m E Pg      2011/04/16 23:50:12.7  -0.2                          T                                        4674457
CABF  002.35 357.3 m E Sg      2011/04/16 23:50:42.9  -0.1                          T               26.0  .74 Ml 2.8         4674424
PGF   002.64 129.7 m E Pn      2011/04/16 23:50:10.5  -0.4                          T                                        4674499
PGF   002.64 129.7 m E Sn      2011/04/16 23:50:41.5  -0.1                          T                6.3  .22 Ml 3.0         4674449
SMF   002.92 325.4 m E Pn      2011/04/16 23:50:15.0   0.4                          T                                        4674476
SMF   002.92 325.4 m E Sn      2011/04/16 23:50:48.1  -0.1                          T                                        4674401
SMF   002.92 325.4 m E Sg      2011/04/16 23:51:00.4  -0.4                          T                5.8  .30 Ml 2.7         4674426
MTLF  003.06 253.8 m E Pn      2011/04/16 23:50:16.5  -0.1                          T                                        4674489
MTLF  003.06 253.8 m E Sn      2011/04/16 23:50:51.3  -0.2                          T                8.0  .38 Ml 2.8         4674440
CAF   003.06 283.9 m E Pn      2011/04/16 23:50:17.0   0.5                          T                                        4674485
CAF   003.06 283.9 m E Sn      2011/04/16 23:50:51.4  -0.1                          T                3.0  .27 Ml 2.5         4674435
AVF   003.24 322.1 m E Pn      2011/04/16 23:50:19.8   0.8                          T                                        4674475
AVF   003.24 322.1 m E Sg      2011/04/16 23:51:10.6  -0.2                          T               10.9  .74 Ml 2.6         4674425
BGF   003.31 314.9 m E Pn      2011/04/16 23:50:20.7   0.7                          T                                        4674477
BGF   003.31 314.9 m E Pg      2011/04/16 23:50:30.2  -0.3                          T                                        4674455
BGF   003.31 314.9 m E Sg      2011/04/16 23:51:12.9  -0.2                          T               12.1  .46 Ml 2.9         4674428
SSF   003.39 326.4 m E Pn      2011/04/16 23:50:21.0  -0.1                          T                                        4674465
SSF   003.39 326.4 m E Pg      2011/04/16 23:50:31.2  -0.8                          T                                        4674462
SSF   003.39 326.4 m E Sn      2011/04/16 23:50:59.3  -0.1                          T                                        4674413
SSF   003.39 326.4 m E Sg      2011/04/16 23:51:15.2  -0.3                          T                9.0  .61 Ml 2.8         4674409
LOR   003.43 331.7 m E Pn      2011/04/16 23:50:21.5  -0.2 152.6  2.6               T                                        4674466
LOR   003.43 331.7 m E Pg      2011/04/16 23:50:32.0  -0.8                          T                                        4674463
LOR   003.43 331.7 m E Sn      2011/04/16 23:51:00.4   0.0 145.5  -4.5              T                                        4674414
LOR   003.43 331.7 m E Sg      2011/04/16 23:51:16.5  -0.4 151.7  1.7               T                6.8  .30 Ml 2.9         4674410
TCF   003.49 306.7 m E Pn      2011/04/16 23:50:22.4   0.0                          T                                        4674464
TCF   003.49 306.7 m E Pg      2011/04/16 23:50:33.2  -0.7                          T                                        4674461
TCF   003.49 306.7 m E Sn      2011/04/16 23:51:01.8   0.0                          T                                        4674412
TCF   003.49 306.7 m E Sg      2011/04/16 23:51:18.4  -0.4                          T                5.2  .49 Ml 2.6         4674408
RJF   003.52 288.7 m E Pn      2011/04/16 23:50:22.8  -0.1                          T                                        4674484
RJF   003.52 288.7 m E Sn      2011/04/16 23:51:02.3  -0.3                          T                                        4674432
RJF   003.52 288.7 m E Sg      2011/04/16 23:51:19.4  -0.3                          T                4.3  .45 Ml 2.2         4674433
HINF  003.57 006.6 m E Pn      2011/04/16 23:50:23.5  -0.1                          T                                        4674458
HINF  003.57 006.6 m E Pg      2011/04/16 23:50:35.3  -0.1                          T                                        4674459
HINF  003.57 006.6 m E Sg      2011/04/16 23:51:21.3   0.0                          T                6.7  .42 Ml 2.8         4674423
HAU   003.74 001.0 m E Pn      2011/04/16 23:50:25.4  -0.4                          T                                        4674473
HAU   003.74 001.0 m E Pg      2011/04/16 23:50:38.3  -0.1                          T                                        4674460
HAU   003.74 001.0 m E Sn      2011/04/16 23:51:07.6  -0.1                          T                                        4674402
HAU   003.74 001.0 m E Sg      2011/04/16 23:51:26.2  -0.2                          T                5.6  .36 Ml 2.6         4674422
HYF   003.92 321.2 m E Pn      2011/04/16 23:50:28.1  -0.2                          T                                        4674454
HYF   003.92 321.2 m E Sg      2011/04/16 23:51:31.7  -0.4                          T                                        4674427
THEF  003.96 357.5 m E Pn      2011/04/16 23:50:28.6  -0.3                          T                                        4674472
THEF  003.96 357.5 m E Sn      2011/04/16 23:51:13.1   0.0                          T                                        4674403
THEF  003.96 357.5 m E Sg      2011/04/16 23:51:33.2  -0.2                          T               16.9  .76 Ml 3.0         4674421
LFF   003.99 281.6 m E Pn      2011/04/16 23:50:28.9  -0.3                          T                                        4674483
LFF   003.99 281.6 m E Sn      2011/04/16 23:51:13.6  -0.1                          T                4.0  .30 Ml 2.6         4674434
SFTF  004.03 348.4 m E Pn      2011/04/16 23:50:29.7   0.0 169.3  1.8               T                                        4674471
SFTF  004.03 348.4 m E Sn      2011/04/16 23:51:14.5  -0.1                          T                                        4674404
SFTF  004.03 348.4 m E Sg      2011/04/16 23:51:35.2  -0.1 165.5  -2.0              T                9.3  .58 Ml 2.9         4674420
CDF   004.21 009.4 m E Pn      2011/04/16 23:50:32.0  -0.2                          T                                        4674468
CDF   004.21 009.4 m E Sn      2011/04/16 23:51:19.0   0.0                          T                                        4674407
CDF   004.21 009.4 m E Sg      2011/04/16 23:51:41.0  -0.1                          T                4.7  .67 Ml 2.6         4674417
PAGF  004.30 355.4 m E Pn      2011/04/16 23:50:33.3  -0.1 170.8  -4.1              T                                        4674469
PAGF  004.30 355.4 m E Sn      2011/04/16 23:51:21.2   0.0                          T                                        4674406
PAGF  004.30 355.4 m E Sg      2011/04/16 23:51:43.7  -0.3 174.8  -0.2              T                2.6  .67 Ml 2.3         4674418
MEZF  004.31 349.4 m E Pn      2011/04/16 23:50:33.5  -0.1 172.3  3.8               T                                        4674470
MEZF  004.31 349.4 m E Sn      2011/04/16 23:51:21.5   0.0 166.2  -2.3              T                                        4674405
MEZF  004.31 349.4 m E Sg      2011/04/16 23:51:44.3  -0.1 163.9  -4.6              T                5.5  .38 Ml 2.9         4674419
EPF   004.46 255.9 m E Pn      2011/04/16 23:50:35.4  -0.3                          T                                        4674488
EPF   004.46 255.9 m E Sn      2011/04/16 23:51:24.8  -0.3                          T                                        4674439
EPF   004.46 255.9 m E Sg      2011/04/16 23:51:48.6  -0.4                          T                3.1  .46 Ml 2.6         4674438
LANF  004.83 012.3 m E Pn      2011/04/16 23:50:40.5  -0.2                          T                                        4674467
LANF  004.83 012.3 m E Sg      2011/04/16 23:52:00.5  -0.1                          T                2.5  .34 Ml 2.7         4674416
MFF   005.07 299.6 m E Pn      2011/04/16 23:50:43.6  -0.2                          T                                        4674480
MFF   005.07 299.6 m E Sg      2011/04/16 23:52:07.5  -0.4                          T                3.2  .59 Ml 2.8         4674431
ETSF  005.13 256.9 m E Pn      2011/04/16 23:50:44.8   0.0                          T                                        4674487
ETSF  005.13 256.9 m E Sn      2011/04/16 23:51:41.0  -0.1                          T                7.0  .52 Ml 3.0         4674437
SJPF  005.54 260.6 m E Pn      2011/04/16 23:50:50.0  -0.3                          T                                        4674486
SJPF  005.54 260.6 m E Sn      2011/04/16 23:51:50.5  -0.3                          T                 .5  .27 Ml 2.3         4674436
BAIF  005.96 347.2 m E Pn      2011/04/16 23:50:55.9   0.0                          T                                        4674415
BAIF  005.96 347.2 m E Sn      2011/04/16 23:52:00.6  -0.1                          T                2.0  .53 Ml 2.7         4674411
LDF   006.17 316.7 m E Pn      2011/04/16 23:50:58.9   0.0                          T                                        4674482
GRR   006.42 312.4 m E Pn      2011/04/16 23:51:02.1  -0.2                          T                                        4674481
GRR   006.42 312.4 m E Sn      2011/04/16 23:52:11.5  -0.2                          T                 .5  .24 Ml 2.4         4674430
FLN   006.46 316.4 m E Pn      2011/04/16 23:51:02.8  -0.1 141.2  9.7               T                                        4674479

.
EVENT     258358
    Date      Time       Latitude Longitude    Depth    Ndef Nsta Gap    Mag1  N    Mag2  N    Mag3  N   Author         ID
       rms   OT_Error      Smajor Sminor Az        Err   mdist  Mdist     Err        Err        Err      Quality

2011/04/17 01:27:10.5     48.9291    7.8040      2.0      22    9 070  Ml 1.6  6  Md 1.7  2              js067245    258358

      0.39   +-  0.06       1.4    1.2  103.14 +-  0.0    0.05   1.97   +-0.3      +-0.0                 m i ke

FRANCE
Sta     Dist  EvAz     Phase      Date       Time     TRes  Azim  AzRes  Slow  SRes Def   SNR       Amp   Per   Mag1   Mag2       ID
LANF  000.05 000.9 m E Pg      2011/04/17 01:27:11.8  -0.1                          T                                        4674536
LANF  000.05 000.9 m E Sg      2011/04/17 01:27:12.8  -0.1                          T               26.0  .20        Md 1.7  4674535
CDF   000.62 214.3 m E Pg      2011/04/17 01:27:22.3  -0.2                          T                                        4675636
CDF   000.62 214.3 m E Sg      2011/04/17 01:27:30.9   0.2                          T                                        4674533
CDF   000.62 214.3 m E Sn      2011/04/17 01:27:33.7  -1.3                          T                3.3  .22        Md 1.7  4674534
RUP   000.91 328.1 m E Pg      2011/04/17 01:27:27.7   0.0                          T                                        4674520
RUP   000.91 328.1 m E Sg      2011/04/17 01:27:40.1   0.5                          T                                        4674519
HINF  001.28 210.0 m E Pn      2011/04/17 01:27:33.4  -0.4                          T                                        4674531
HINF  001.28 210.0 m E Sg      2011/04/17 01:27:51.0  -0.1                          T                2.3  .34 Ml 1.8         4674532
HAU   001.34 226.9 m E Pn      2011/04/17 01:27:34.2  -0.4                          T                                        4674529
HAU   001.34 226.9 m E Sg      2011/04/17 01:27:53.0   0.2                          T                1.8  .28 Ml 1.6         4674530
THEF  001.39 240.4 m E Pn      2011/04/17 01:27:35.2  -0.1                          T                                        4674528
THEF  001.39 240.4 m E Sg      2011/04/17 01:27:55.0   0.5                          T                2.0  .33 Ml 1.8         4674521
PAGF  001.43 255.6 m E Pn      2011/04/17 01:27:35.8   0.0                          T                                        4674525
PAGF  001.43 255.6 m E Sg      2011/04/17 01:27:56.2   0.7                          T                 .4  .29 Ml 1.1         4674524
MEZF  001.87 257.8 m E Pn      2011/04/17 01:27:41.9   0.1                          T                                        4674526
MEZF  001.87 257.8 m E Sg      2011/04/17 01:28:10.1   0.7                          T                1.5  .44 Ml 1.7         4674523
SFTF  001.97 249.5 m E Pn      2011/04/17 01:27:43.2   0.0                          T                                        4674527
SFTF  001.97 249.5 m E Sg      2011/04/17 01:28:13.2   0.5                          T                1.1  .20 Ml 1.9         4674522

.
