EVENT     269966
    Date      Time       Latitude Longitude    Depth    Ndef Nsta Gap    Mag1  N    Mag2  N    Mag3  N   Author         ID
       rms   OT_Error      Smajor Sminor Az        Err   mdist  Mdist     Err        Err        Err      Quality

2012/02/11 12:28:58.8     43.4769    -.7040      2.0      63   16 094  Ml 2.7 19  Md 2.7  2              js067245    269986

      0.52   +-  0.06       1.5     .9  127.67 +-  0.0    0.31   5.13   +-0.2      +-0.1                 m i ke

PYRENEES
Sta     Dist  EvAz     Phase      Date       Time     TRes  Azim  AzRes  Slow  SRes Def   SNR       Amp   Per   Mag1   Mag2       ID
SJPF  000.53 226.5 m E Pg      2012/02/11 12:29:08.8   0.0                          T   001.0                                4835064
SJPF  000.53 226.5 m E Sg      2012/02/11 12:29:15.4  -0.4                          T   001.0       25.2  .20        Md 2.8  4835065
EPF   000.88 120.0 m E Pg      2012/02/11 12:29:15.4  -0.1                          T   001.0                                4835047
EPF   000.88 120.0 m E Sg      2012/02/11 12:29:27.0   0.0                          T               49.7  .28 Ml 3.0 Md 2.6  4837276
LFF   001.79 034.9 m E Pn      2012/02/11 12:29:29.4   0.4                          T   001.0                                4835052
LFF   001.79 034.9 m E Sg      2012/02/11 12:29:55.1  -0.2                          T   001.0       22.3  .32 Ml 2.8         4835053
MTLF  002.13 092.6 m E Pn      2012/02/11 12:29:34.1   0.5                          T   001.0                                4835062
MTLF  002.13 092.6 m E Pg      2012/02/11 12:29:38.7   0.2                          T   001.0                                4835063
RJF   002.42 040.3 m E Pn      2012/02/11 12:29:37.5  -0.1                          T   001.0                                4835040
RJF   002.42 040.3 m E Pg      2012/02/11 12:29:44.3   0.5                          T                                        4837278
RJF   002.42 040.3 m E Sn      2012/02/11 12:30:05.6  -0.5                          T   001.0        5.9  .16 Ml 2.5         4835041
RJF   002.42 040.3 m E Sg      2012/02/11 12:30:15.2   0.2                          T                6.9  .18 Ml 2.6         4837274
CAF   002.46 053.0 m E Pn      2012/02/11 12:29:37.0  -0.2                          T   001.0                                4835044
CAF   002.46 053.0 m E Pg      2012/02/11 12:29:45.0   0.4                          T   001.0                                4835045
CAF   002.46 053.0 m E Sn      2012/02/11 12:30:07.2   0.2                          T   001.0        5.2  .26 Ml 2.6         4835046
CAF   002.46 053.0 m E Sg      2012/02/11 12:30:16.7   0.5                          T                8.6  .20 Ml 2.9         4837275
MFF   003.15 007.0 m E Pn      2012/02/11 12:29:47.3  -0.2                          T                                        4837280
MFF   003.15 007.0 m E Pg      2012/02/11 12:29:57.0  -0.2                          T                                        4837279
MFF   003.15 007.0 m E Sn      2012/02/11 12:30:23.1  -0.4                          T   001.0                                4835054
MFF   003.15 007.0 m E Sg      2012/02/11 12:30:37.3  -0.3                          T   001.0        6.2  .32 Ml 2.9         4835055
LASF  003.36 078.2 m E Pn      2012/02/11 12:29:50.6   0.3                          T   001.0                                4835048
LASF  003.36 078.2 m E Sg      2012/02/11 12:30:45.2   1.1                          T   001.0        5.2  .36 Ml 2.7         4835049
TCF   003.49 035.4 m E Pn      2012/02/11 12:29:51.5  -0.7                          T   001.0                                4835060
TCF   003.49 035.4 m E Sn      2012/02/11 12:30:30.6  -1.1                          T   001.0        5.2  .40 Ml 2.7         4835061
TCF   003.49 035.4 m E Sg      2012/02/11 12:30:48.4   0.0                          T                3.0  .23 Ml 2.7         4837268
BGF   003.98 038.0 m E Pn      2012/02/11 12:29:58.5  -0.3                          T   001.0                                4835043
BGF   003.98 038.0 m E Sg      2012/02/11 12:31:03.7   0.2                          T               13.5  .36 Ml 3.2         4837271
VIVF  004.11 068.5 m E Pn      2012/02/11 12:30:00.5  -0.1                          T   001.0                                4835066
VIVF  004.11 068.5 m E Pg      2012/02/11 12:30:14.7  -0.1                          T                                        4837277
VIVF  004.11 068.5 m E Sn      2012/02/11 12:30:46.5   0.1                          T   001.0                                4835067
VIVF  004.11 068.5 m E Sg      2012/02/11 12:31:07.9   0.4                          T   001.0          3  .32 Ml 2.6         4835068
AVF   004.38 039.5 m E Pn      2012/02/11 12:30:04.0  -0.3                          T   001.0                                4835042
AVF   004.38 039.5 m E Sg      2012/02/11 12:31:16.3   0.2                          T                2.8  .34 Ml 2.7         4837269
SSF   004.66 038.2 m E Pn      2012/02/11 12:30:08.6   0.6                          T   001.0                                4835057
SSF   004.66 038.2 m E Sn      2012/02/11 12:30:59.7   0.3                          T   001.0                                4835058
SSF   004.66 038.2 m E Sg      2012/02/11 12:31:24.8   0.2                          T   001.0        2.6  .36 Ml 2.7         4835059
LDF   005.13 004.3 m E Pn      2012/02/11 12:30:14.1  -0.4                          T   001.0                                4835050
LDF   005.13 004.3 m E Sn      2012/02/11 12:31:09.8  -1.1                          T   001.0        6.8  .84 Ml 2.8         4835051
SMF   004.52 043.9 m E Sn      2012/02/11 12:30:55.2  -0.9                          T   001.0        1.5  .24 Ml 2.6         4835056
SMF   004.52 043.9 m E Sg      2012/02/11 12:31:20.4   0.1                          T                2.8  .34 Ml 2.7         4837270
GRR   004.91 358.8 m E Sg      2012/02/11 12:31:32.7   0.1                          T                1.7  .28 Ml 2.5         4837273

.
EVENT     269967
    Date      Time       Latitude Longitude    Depth    Ndef Nsta Gap    Mag1  N    Mag2  N    Mag3  N   Author         ID
       rms   OT_Error      Smajor Sminor Az        Err   mdist  Mdist     Err        Err        Err      Quality

2012/02/11 13:31:12.4     42.3749    1.7717      4.0 f    52    8 027  Ml 2.3  9                         js067245    269987

      0.39   +-  0.04        .9     .7    3.37 +-  0.0    0.18   3.81   +-0.2                            m i ke

PYRENEES
Sta     Dist  EvAz     Phase      Date       Time     TRes  Azim  AzRes  Slow  SRes Def   SNR       Amp   Per   Mag1   Mag2       ID
MTLF  001.02 018.6 m E Pg      2012/02/11 13:31:31.6   0.1                          T                                        4837292
MTLF  001.02 018.6 m E Sg      2012/02/11 13:31:45.0   0.2                          T                6.9  .22 Ml 2.3         4837288
EPF   001.24 302.3 m E Pn      2012/02/11 13:31:34.9  -0.1                          T                                        4837294
EPF   001.24 302.3 m E Pg      2012/02/11 13:31:35.9   0.2                          T                                        4837293
EPF   001.24 302.3 m E Sg      2012/02/11 13:31:52.0   0.2                          T               15.6  .30 Ml 2.6         4837287
LASF  002.28 041.2 m E Pg      2012/02/11 13:31:54.9   0.1                          T                                        4837291
LASF  002.28 041.2 m E Sg      2012/02/11 13:32:24.4   0.2                          T                2.7  .27 Ml 2.3         4837289
CAF   002.56 004.7 m E Pg      2012/02/11 13:31:59.7  -0.2                          T                                        4837295
CAF   002.56 004.7 m E Sg      2012/02/11 13:32:32.9   0.0                          T                3.8  .20 Ml 2.6         4837285
LFF   002.67 344.1 m E Pg      2012/02/11 13:32:01.7  -0.2                          T                                        4837296
LFF   002.67 344.1 m E Sg      2012/02/11 13:32:36.4   0.1                          T                3.3  .26 Ml 2.3         4837284
RJF   002.93 356.5 m E Pg      2012/02/11 13:32:06.2  -0.6                          T                                        4837297
RJF   002.93 356.5 m E Sg      2012/02/11 13:32:44.8   0.3                          T                1.6  .18 Ml 2.0         4837283
SJPF  002.33 289.5 m E Sg      2012/02/11 13:32:25.7   0.1                          T                3.2  .29 Ml 2.3         4837286
VIVF  003.25 039.4 m E Sg      2012/02/11 13:32:54.7   0.2                          T                1.5  .26 Ml 2.3         4837290

.
EVENT     269968
    Date      Time       Latitude Longitude    Depth    Ndef Nsta Gap    Mag1  N    Mag2  N    Mag3  N   Author         ID
       rms   OT_Error      Smajor Sminor Az        Err   mdist  Mdist     Err        Err        Err      Quality

2012/02/11 16:21:34.5     42.9053     .2522      5.0 f     6    3 208  Ml 1.5  2  Md 1.5  1              js067245    269988

      0.22   +-  0.18       6.0    1.9  171.14 +-  0.0    0.14   1.50   +-0.1      +-                    m i ke

PYRENEES
Sta     Dist  EvAz     Phase      Date       Time     TRes  Azim  AzRes  Slow  SRes Def   SNR       Amp   Per   Mag1   Mag2       ID
EPF   000.14 027.2 m E Pg      2012/02/11 16:21:37.4  -0.3                          T                                        4837312
EPF   000.14 027.2 m E Sg      2012/02/11 16:21:40.0   0.2                          T               18.7  .30        Md 1.5  4837313
SJPF  001.10 281.4 m E Pg      2012/02/11 16:21:55.2  -0.1                          T                                        4837308
SJPF  001.10 281.4 m E Sg      2012/02/11 16:22:09.3  -0.3                          T                1.1  .31 Ml 1.4         4837311
MTLF  001.50 072.5 m E Pg      2012/02/11 16:22:02.6   0.0                          T                                        4837309
MTLF  001.50 072.5 m E Sg      2012/02/11 16:22:21.6  -0.4                          T                 .8  .27 Ml 1.5         4837310

.
EVENT     269969
    Date      Time       Latitude Longitude    Depth    Ndef Nsta Gap    Mag1  N    Mag2  N    Mag3  N   Author         ID
       rms   OT_Error      Smajor Sminor Az        Err   mdist  Mdist     Err        Err        Err      Quality

2012/02/11 16:23:09.9     42.3794    1.7692      5.0 f    35    6 027  Ml 1.9  6                         js067245    269989

      0.36   +-  0.05       1.0     .7    4.74 +-  0.0    0.18   2.67   +-0.3                            m i ke

PYRENEES
Sta     Dist  EvAz     Phase      Date       Time     TRes  Azim  AzRes  Slow  SRes Def   SNR       Amp   Per   Mag1   Mag2       ID
MTLF  001.02 018.8 m E Pg      2012/02/11 16:23:29.0   0.0                          T                                        4837321
MTLF  001.02 018.8 m E Sn      2012/02/11 16:23:43.0   0.0                          T                2.3  .19 Ml 1.9         4837315
EPF   001.24 302.2 m E Pg      2012/02/11 16:23:33.1   0.0                          T                                        4837320
EPF   001.24 302.2 m E Sg      2012/02/11 16:23:49.0  -0.1                          T                5.0  .30 Ml 2.1         4837316
LASF  002.28 041.3 m E Sg      2012/02/11 16:24:21.8   0.1                          T                 .5  .25 Ml 1.6         4837314
SJPF  002.32 289.4 m E Sg      2012/02/11 16:24:23.1   0.1                          T                 .5  .21 Ml 1.7         4837317
CAF   002.55 004.7 m E Sg      2012/02/11 16:24:29.9  -0.3                          T                1.8  .27 Ml 2.1         4837318
LFF   002.67 344.1 m E Sg      2012/02/11 16:24:33.9   0.2                          T                3.3  .37 Ml 2.1         4837319

.
EVENT     269970
    Date      Time       Latitude Longitude    Depth    Ndef Nsta Gap    Mag1  N    Mag2  N    Mag3  N   Author         ID
       rms   OT_Error      Smajor Sminor Az        Err   mdist  Mdist     Err        Err        Err      Quality

2012/02/11 17:55:50.2     42.3711    1.7745      4.0 f    28    6 049  Ml 1.7  6                         js067245    269990

      0.28   +-  0.04        .8     .6    5.35 +-  0.0    0.18   2.67   +-0.2                            m i ke

PYRENEES
Sta     Dist  EvAz     Phase      Date       Time     TRes  Azim  AzRes  Slow  SRes Def   SNR       Amp   Per   Mag1   Mag2       ID
MTLF  001.02 018.4 m E Pg      2012/02/11 17:56:09.3  -0.1                          T                                        4837330
MTLF  001.02 018.4 m E Sg      2012/02/11 17:56:22.5  -0.2                          T                                        4837323
MTLF  001.02 018.4 m E Sn      2012/02/11 17:56:23.8   0.1                          T                1.5  .23 Ml 1.6         4837324
EPF   001.25 302.4 m E Pg      2012/02/11 17:56:13.6   0.1                          T                                        4837329
EPF   001.25 302.4 m E Sg      2012/02/11 17:56:29.9   0.2                          T                1.5  .20 Ml 1.8         4837325
LASF  002.29 041.1 m E Sg      2012/02/11 17:57:02.2   0.1                          T                 .6  .24 Ml 1.7         4837322
SJPF  002.33 289.6 m E Sg      2012/02/11 17:57:03.7   0.3                          T                 .6  .28 Ml 1.6         4837326
CAF   002.56 004.6 m E Sg      2012/02/11 17:57:10.9   0.2                          T                1.2  .20 Ml 2.1         4837327
LFF   002.67 344.1 m E Sg      2012/02/11 17:57:14.4   0.2                          T                 .6  .21 Ml 1.7         4837328

.
EVENT     269971
    Date      Time       Latitude Longitude    Depth    Ndef Nsta Gap    Mag1  N    Mag2  N    Mag3  N   Author         ID
       rms   OT_Error      Smajor Sminor Az        Err   mdist  Mdist     Err        Err        Err      Quality

2012/02/11 18:01:33.2     42.3813    1.7651      4.0 f    27    5 048  Ml 1.8  5                         js067245    269991

      0.36   +-  0.05       1.1     .8   14.41 +-  0.0    0.18   2.66   +-0.3                            m i ke

PYRENEES
Sta     Dist  EvAz     Phase      Date       Time     TRes  Azim  AzRes  Slow  SRes Def   SNR       Amp   Per   Mag1   Mag2       ID
MTLF  001.02 019.0 m E Pn      2012/02/11 18:01:52.6   0.0                          T                                        4837339
MTLF  001.02 019.0 m E Sn      2012/02/11 18:02:06.5   0.0                          T                1.6  .23 Ml 1.6         4837331
EPF   001.23 302.2 m E Pg      2012/02/11 18:01:56.4   0.0                          T                                        4837338
EPF   001.23 302.2 m E Sg      2012/02/11 18:02:12.4   0.1                          T                3.2  .26 Ml 2.0         4837332
CAF   002.55 004.8 m E Pg      2012/02/11 18:02:20.7   0.1                          T                                        4837337
CAF   002.55 004.8 m E Sg      2012/02/11 18:02:53.5   0.1                          T                 .6  .17 Ml 1.9         4837334
LFF   002.66 344.1 m E Pg      2012/02/11 18:02:22.4  -0.2                          T                                        4837336
LFF   002.66 344.1 m E Sg      2012/02/11 18:02:56.5  -0.3                          T                2.9  .40 Ml 2.0         4837335
SJPF  002.32 289.4 m E Sg      2012/02/11 18:02:45.9  -0.3                          T                 .4  .25 Ml 1.5         4837333

.
EVENT     269976
    Date      Time       Latitude Longitude    Depth    Ndef Nsta Gap    Mag1  N    Mag2  N    Mag3  N   Author         ID
       rms   OT_Error      Smajor Sminor Az        Err   mdist  Mdist     Err        Err        Err      Quality

2012/02/11 18:14:55.1     45.5294   10.9889      2.0      47   14 085  Ml 2.4  5                         js067245    269996

      0.44   +-  0.07       1.8    1.2  129.25 +-  0.0    0.13   5.45   +-0.2                            m i ke

NORTHERN ITALY
Sta     Dist  EvAz     Phase      Date       Time     TRes  Azim  AzRes  Slow  SRes Def   SNR       Amp   Per   Mag1   Mag2       ID
LPG   002.98 270.9 m E Pn      2012/02/11 18:15:41.7  -0.1                          T                                        4837350
LPG   002.98 270.9 m E Sn      2012/02/11 18:16:16.3   0.3                          T                2.3  .29 Ml 2.3         4837343
SBF   003.03 237.9 m E Pn      2012/02/11 18:15:42.4   0.2                          T                                        4837348
SBF   003.03 237.9 m E Sn      2012/02/11 18:16:17.1   0.1                          T                                        4837344
SBF   003.03 237.9 m E Sg      2012/02/11 18:16:30.4   0.1                          T                7.9  .35 Ml 2.8         4837345
MBDF  003.09 256.5 m E Pn      2012/02/11 18:15:42.9  -0.2                          T                                        4837352
MBDF  003.09 256.5 m E Sn      2012/02/11 18:16:18.4  -0.1                          T                1.6  .29 Ml 2.2         4837341
PGF   003.31 206.4 m E Pn      2012/02/11 18:15:46.0   0.0                          T                                        4837346
CABF  003.58 289.3 m E Pn      2012/02/11 18:15:49.5  -0.2                          T                                        4837355
HINF  003.65 310.3 m E Pn      2012/02/11 18:15:50.6  -0.1                          T                                        4837357
HINF  003.65 310.3 m E Sn      2012/02/11 18:16:31.7  -0.1                          T                  1  .16 Ml 2.4         4837340
FRF   003.68 239.2 m E Pn      2012/02/11 18:15:51.0   0.1                          T                                        4837349
LMR   003.89 237.2 m E Pn      2012/02/11 18:15:53.3  -0.5                          T                                        4837347
CDF   003.84 319.9 m E Pn      2012/02/11 18:15:53.3   0.0                          T                                        4837356
ORIF  003.66 262.2 m E P       2012/02/11 18:15:54.0  -0.1                          T                                        4837351
VIVF  004.52 263.7 m E Pn      2012/02/11 18:16:02.4   0.0                          T                                        4837353
LOR   005.23 292.0 m E Pn      2012/02/11 18:16:11.9  -0.2                          T                                        4837358
AVF   005.45 286.1 m E Pn      2012/02/11 18:16:15.1   0.0                          T                                        4837354
LPL   002.99 271.3 m E Sn      2012/02/11 18:16:16.7   0.5                          T                3.8  .35 Ml 2.5         4837342

.
