EVENT     260905
    Date      Time       Latitude Longitude    Depth    Ndef Nsta Gap    Mag1  N    Mag2  N    Mag3  N   Author         ID
       rms   OT_Error      Smajor Sminor Az        Err   mdist  Mdist     Err        Err        Err      Quality

2011/06/29 19:23:53.7     49.0145   -1.5299      5.0 f    21    7 229  Ml 2.4  6  Md 2.2  5              js067245    260905

      0.72   +-  0.14       3.1    1.2  177.96 +-  0.0    0.74   2.59   +-0.2      +-0.1                 m i ke

FRANCE
Sta     Dist  EvAz     Phase      Date       Time     TRes  Azim  AzRes  Slow  SRes Def   SNR       Amp   Per   Mag1   Mag2       ID
FLN   000.74 109.6 m E Pg      2011/06/29 19:24:07.5  -0.1 289.0  -1.4              T                                        4713963
FLN   000.74 109.6 m E Sg      2011/06/29 19:24:16.7  -0.5 295.0  4.6               T                7.0  .16        Md 2.3  4713958
GRR   000.77 144.4 m E Pg      2011/06/29 19:24:08.4   0.2                          T                                        4713960
GRR   000.77 144.4 m E Sg      2011/06/29 19:24:18.1  -0.2                          T               14.8  .20        Md 2.1  4713972
LDF   001.02 113.8 m E Pn      2011/06/29 19:24:12.9  -0.2                          T                                        4713962
LDF   001.02 113.8 m E Pg      2011/06/29 19:24:13.0   0.2                          T                                        4713961
LDF   001.02 113.8 m E Sg      2011/06/29 19:24:26.2   0.1                          T                3.5  .20 Ml 2.0 Md 2.2  4713973
SGMF  001.02 222.2 m E Pg      2011/06/29 19:24:13.1   0.3                          T                                        4713966
SGMF  001.02 222.2 m E Sg      2011/06/29 19:24:26.0  -0.1                          T                5.5  .18 Ml 2.3 Md 2.1  4713971
ROSF  001.34 240.2 m E Pn      2011/06/29 19:24:17.5   0.1                          T                                        4713968
ROSF  001.34 240.2 m E Pg      2011/06/29 19:24:18.7   0.0                          T                                        4713967
ROSF  001.34 240.2 m E Sg      2011/06/29 19:24:36.1   0.0                          T                8.0  .21 Ml 2.5         4713959
QUIF  001.55 225.4 m E Pn      2011/06/29 19:24:20.2   0.0                          T                                        4713965
QUIF  001.55 225.4 m E Pg      2011/06/29 19:24:22.3  -0.2                          T                                        4713964
QUIF  001.55 225.4 m E Sg      2011/06/29 19:24:41.8  -0.7                          T                8.2  .24 Ml 2.6 Md 2.2  4713974
MFF   002.59 158.4 m E Pn      2011/06/29 19:24:34.4   0.0                          T                                        4713978
MFF   002.59 158.4 m E Pg      2011/06/29 19:24:41.5  -0.2                          T                                        4713977
MFF   002.59 158.4 m E Sn      2011/06/29 19:25:03.8  -0.5                          T                                        4713976
MFF   002.59 158.4 m E Sg      2011/06/29 19:25:15.1   0.1                          T                1.8  .16 Ml 2.6         4713975

.
EVENT     260911
    Date      Time       Latitude Longitude    Depth    Ndef Nsta Gap    Mag1  N    Mag2  N    Mag3  N   Author         ID
       rms   OT_Error      Smajor Sminor Az        Err   mdist  Mdist     Err        Err        Err      Quality

2011/06/29 22:16:23.8     42.9248    -.1580      2.0       8    4 189  Ml 1.5  1  Md 1.6  2              js067245    260911

      0.16   +-  0.07       5.0     .6  174.41 +-  0.0    0.30   1.79   +-         +-0.1                 m i ke

PYRENEES
Sta     Dist  EvAz     Phase      Date       Time     TRes  Azim  AzRes  Slow  SRes Def   SNR       Amp   Per   Mag1   Mag2       ID
ETSF  000.30 265.1 m E Pg      2011/06/29 22:16:29.6  -0.1                          T                                        4714219
ETSF  000.30 265.1 m E Sg      2011/06/29 22:16:33.8   0.1                          T                9.2  .31        Md 1.7  4714220
EPF   000.38 073.7 m E Pg      2011/06/29 22:16:31.0  -0.2                          T                                        4714217
EPF   000.38 073.7 m E Sg      2011/06/29 22:16:36.4   0.1                          T                6.2  .25        Md 1.5  4714218
SJPF  000.80 283.9 m E Pg      2011/06/29 22:16:38.8  -0.2                          T                                        4714215
SJPF  000.80 283.9 m E Sg      2011/06/29 22:16:49.1  -0.4                          T                2.2  .30                4714216
MTLF  001.79 075.7 m E Pg      2011/06/29 22:16:56.9  -0.1                          T                                        4714213
MTLF  001.79 075.7 m E Sg      2011/06/29 22:17:20.1   0.0                          T                 .4  .21 Ml 1.5         4714214

.
EVENT     260910
    Date      Time       Latitude Longitude    Depth    Ndef Nsta Gap    Mag1  N    Mag2  N    Mag3  N   Author         ID
       rms   OT_Error      Smajor Sminor Az        Err   mdist  Mdist     Err        Err        Err      Quality

2011/06/29 22:27:14.2     46.4309    7.0347      6.0 f    37   16 091  Ml 2.1 14  Md 2.2  5              js067245    260910

      0.22   +-  0.04        .9     .6   74.85 +-  0.0    0.11   2.56   +-0.2      +-0.2                 m i ke

SWITZERLAND
Sta     Dist  EvAz     Phase      Date       Time     TRes  Azim  AzRes  Slow  SRes Def   SNR       Amp   Per   Mag1   Mag2       ID
CABF  000.68 285.8 m E Pg      2011/06/29 22:27:27.4   0.3                          T                                        4714227
CABF  000.68 285.8 m E Sg      2011/06/29 22:27:36.5   0.5                          T                6.5  .32        Md 2.1  4714228
LPL   000.94 193.1 m E Pg      2011/06/29 22:27:32.0  -0.1                          T                                        4714249
LPL   000.94 193.1 m E Sg      2011/06/29 22:27:44.2  -0.1                          T                2.3  .22 Ml 1.8 Md 2.1  4714246
LPG   000.95 192.1 m E Pg      2011/06/29 22:27:32.4  -0.1                          T                                        4714250
LPG   000.95 192.1 m E Sg      2011/06/29 22:27:44.6  -0.2                          T                2.7  .20 Ml 1.9 Md 2.0  4714247
HINF  001.39 355.0 m E Pg      2011/06/29 22:27:39.8  -0.4                          T                                        4714262
HINF  001.39 355.0 m E Sg      2011/06/29 22:27:57.9  -0.4                          T                2.8  .18 Ml 2.2 Md 2.2  4714240
HAU   001.64 343.7 m E Pn      2011/06/29 22:27:42.1   0.1                          T                                        4714261
HAU   001.64 343.7 m E Pg      2011/06/29 22:27:44.4  -0.4                          T                                        4714260
HAU   001.64 343.7 m E Sg      2011/06/29 22:28:05.7  -0.4                          T                3.6  .20 Ml 2.1         4714239
THEF  001.93 338.9 m E Pn      2011/06/29 22:27:45.8  -0.1                          T                                        4714259
THEF  001.93 338.9 m E Pg      2011/06/29 22:27:50.1   0.0                          T                                        4714258
THEF  001.93 338.9 m E Sg      2011/06/29 22:28:15.3   0.3                          T                3.7  .24 Ml 2.4         4714238
CDF   001.99 004.6 m E Pn      2011/06/29 22:27:46.8   0.0                          T                                        4714255
CDF   001.99 004.6 m E Pg      2011/06/29 22:27:51.3   0.0                          T                                        4714254
CDF   001.99 004.6 m E Sg      2011/06/29 22:28:17.2   0.3                          T                2.1  .34 Ml 2.1         4714236
VIVF  002.29 227.3 m E Pn      2011/06/29 22:27:51.0   0.3                          T                                        4714248
VIVF  002.29 227.3 m E Sg      2011/06/29 22:28:25.9  -0.2                          T                2.0  .23 Ml 2.2 Md 2.6  4714243
LOR   002.34 292.2 m E Pn      2011/06/29 22:27:51.5   0.1                          T                                        4714253
LOR   002.34 292.2 m E Pg      2011/06/29 22:27:57.6   0.1                          T                                        4714252
LOR   002.34 292.2 m E Sg      2011/06/29 22:28:27.9   0.3                          T                2.0  .20 Ml 2.3         4714234
SMF   002.21 276.7 m E Pg      2011/06/29 22:27:55.3   0.0                          T                                        4714251
SMF   002.21 276.7 m E Sg      2011/06/29 22:28:23.8   0.0                          T                3.7  .20 Ml 2.5         4714242
SFTF  002.23 323.3 m E Pg      2011/06/29 22:27:55.6  -0.1                          T                                        4714257
SFTF  002.23 323.3 m E Sg      2011/06/29 22:28:24.3  -0.1                          T                2.6  .26 Ml 2.3         4714237
MEZF  002.47 327.7 m E Pg      2011/06/29 22:28:00.0   0.0                          T                                        4714256
ORIF  001.72 208.6 m E Sg      2011/06/29 22:28:08.2  -0.2                          T                2.5  .29 Ml 2.1         4714245
MBDF  001.71 186.3 m E Sg      2011/06/29 22:28:08.2  -0.2                          T                 .8  .25 Ml 1.6         4714244
SSF   002.51 285.8 m E Sg      2011/06/29 22:28:33.1   0.2                          T                2.9  .35 Ml 2.3         4714235
AVF   002.56 279.4 m E Sg      2011/06/29 22:28:34.7   0.0                          T                1.2  .26 Ml 2.0         4714241

.
EVENT     260953
    Date      Time       Latitude Longitude    Depth    Ndef Nsta Gap    Mag1  N    Mag2  N    Mag3  N   Author         ID
       rms   OT_Error      Smajor Sminor Az        Err   mdist  Mdist     Err        Err        Err      Quality

2011/06/30 03:41:04.8     42.7419   -1.7091      2.0      24    2 282  Ml 0.9  1  Md 1.3  2              js067245    260953

      0.17   +-  0.16       2.3    1.4   69.38 +-  0.0    0.10   0.86   +-         +-0.0                 m i ke

PYRENEES
Sta     Dist  EvAz     Phase      Date       Time     TRes  Azim  AzRes  Slow  SRes Def   SNR       Amp   Per   Mag1   Mag2       ID
SJPF  000.51 043.6 m E Pg      2011/06/30 03:41:15.3   0.7                          T                                        4714315
SJPF  000.51 043.6 m E Sg      2011/06/30 03:41:21.4   0.0                          T                1.6  .33        Md 1.2  4714316
ETSF  000.86 079.1 m E Pg      2011/06/30 03:41:21.0   0.0                          T                                        4714313
ETSF  000.86 079.1 m E Sg      2011/06/30 03:41:34.2   1.9                          T                 .6  .36 Ml  .9 Md 1.3  4714314

.
EVENT     260925
    Date      Time       Latitude Longitude    Depth    Ndef Nsta Gap    Mag1  N    Mag2  N    Mag3  N   Author         ID
       rms   OT_Error      Smajor Sminor Az        Err   mdist  Mdist     Err        Err        Err      Quality

2011/06/30 09:16:59.0     48.0182    6.6485       .0 f    16    8 099  Ml 2.2  3  Md 2.1  2              js067245    260925

      1.25   +-  0.11       2.3    2.0    9.51 +-  0.0    0.20   2.03   +-0.1      +-0.1                 m i km

FRANCE
Sta     Dist  EvAz     Phase      Date       Time     TRes  Azim  AzRes  Slow  SRes Def   SNR       Amp   Per   Mag1   Mag2       ID
HAU   000.20 266.5 m E Pg      2011/06/30 09:17:03.5   0.1                          T                                        4716459
HAU   000.20 266.5 m E Sg      2011/06/30 09:17:06.4   0.1                          T              277.4  .60        Md 2.2  4716460
HINF  000.24 145.6 m E Pg      2011/06/30 09:17:04.4   0.2                          T                                        4716457
HINF  000.24 145.6 m E Sg      2011/06/30 09:17:07.5  -0.1                          T               18.1  .32        Md 2.0  4716458
THEF  000.49 295.8 m E Pg      2011/06/30 09:17:08.8   0.2                          T                                        4716452
THEF  000.49 295.8 m E Sg      2011/06/30 09:17:15.3   0.1                          T                                        4716453
CDF   000.58 046.6 m E Pg      2011/06/30 09:17:10.3   0.0                          T                                        4716454
CDF   000.58 046.6 m E Pn      2011/06/30 09:17:13.0  -0.2                          T                                        4716455
CDF   000.58 046.6 m E Sg      2011/06/30 09:17:18.2   0.1                          T               11.6  .32                4716456
PAGF  000.82 311.4 m E Pg      2011/06/30 09:17:14.6  -0.1 129.4  -1.3              T                                        4716463
PAGF  000.82 311.4 m E Sn      2011/06/30 09:17:28.5  -0.2 137.2  6.5               T                3.1  .42                4716464
SFTF  001.10 280.4 m E Pg      2011/06/30 09:17:19.7  -0.1 111.0  11.8              T                                        4716450
SFTF  001.10 280.4 m E Sg      2011/06/30 09:17:34.1  -0.1                          T               14.0  .54 Ml 2.3         4716451
CABF  001.46 195.4 m E Pg      2011/06/30 09:17:26.7   0.1                          T                                        4716461
CABF  001.46 195.4 m E Sg      2011/06/30 09:17:45.8   0.1                          T                5.6  .41 Ml 2.2         4716462
LOR   002.03 249.3 m E Sg      2011/06/30 09:18:03.2  -0.2  59.9  -7.4              T                2.2  .26 Ml 2.2         4716465

.
EVENT     261024
    Date      Time       Latitude Longitude    Depth    Ndef Nsta Gap    Mag1  N    Mag2  N    Mag3  N   Author         ID
       rms   OT_Error      Smajor Sminor Az        Err   mdist  Mdist     Err        Err        Err      Quality

2011/06/30 12:46:36.3     42.9004   -2.7901       .0 f    21    5 138  Ml 2.9  5  Md 2.5  3              js067245    261024

      0.35   +-  0.19       3.6    3.2   31.34 +-  0.0    0.58   5.19   +-0.2      +-0.1                 m i km

SPAIN
Sta     Dist  EvAz     Phase      Date       Time     TRes  Azim  AzRes  Slow  SRes Def   SNR       Amp   Per   Mag1   Mag2       ID
SJPF  001.17 079.0 m E Pg      2011/06/30 12:46:57.9  -0.5                          T                                        4716235
SJPF  001.17 079.0 m E Sg      2011/06/30 12:47:13.0  -0.8                          T              101.0  .80 Ml 3.0 Md 2.6  4716232
ETSF  001.64 089.3 m E Pn      2011/06/30 12:47:06.1   1.2                          T                                        4716234
ETSF  001.64 089.3 m E Sn      2011/06/30 12:47:25.8   0.1                          T               53.4  .56 Ml 3.1 Md 2.4  4716231
EPF   002.30 085.7 m E P       2011/06/30 12:47:15.9  -0.3                          T                                        4716233
EPF   002.30 085.7 m E Pg      2011/06/30 12:47:19.5   0.2                          T                                        4716397
EPF   002.30 085.7 m E Sn      2011/06/30 12:47:41.6   0.1                          T               35.6  .69 Ml 3.0 Md 2.5  4716230
LFF   003.27 050.2 m E Pg      2011/06/30 12:47:37.5   0.4                          T                                        4716395
LFF   003.27 050.2 m E Sg      2011/06/30 12:48:20.1   1.0                          T               13.7  .58 Ml 2.7         4716396
MTLF  003.69 081.4 m E Sg      2011/06/30 12:48:32.2  -0.3                          T                6.3  .66 Ml 2.6         4716394

.
EVENT     260937
    Date      Time       Latitude Longitude    Depth    Ndef Nsta Gap    Mag1  N    Mag2  N    Mag3  N   Author         ID
       rms   OT_Error      Smajor Sminor Az        Err   mdist  Mdist     Err        Err        Err      Quality

2011/06/30 12:56:27.3     47.6720    7.7307     20.0 f    18    7 065  Ml 2.1  3  Md 2.1  3              js067245    260937

      0.25   +-  0.04        .9     .7  170.43 +-  0.0    0.28   1.98   +-0.4      +-0.3                 m i ke

SWITZERLAND
Sta     Dist  EvAz     Phase      Date       Time     TRes  Azim  AzRes  Slow  SRes Def   SNR       Amp   Per   Mag1   Mag2       ID
HINF  000.61 284.1 m E Pg      2011/06/30 12:56:39.5   0.1                          T                                        4716241
HINF  000.61 284.1 m E Sg      2011/06/30 12:56:47.1  -0.6                          T                7.2  .20        Md 1.9  4716238
CDF   000.80 337.8 m E Pn      2011/06/30 12:56:42.1   0.0                          T                                        4716381
CDF   000.80 337.8 m E Pg      2011/06/30 12:56:42.8  -0.1                          T                                        4716380
CDF   000.80 337.8 m E Sg      2011/06/30 12:56:53.3  -0.2                          T                8.0  .24                4716382
HAU   000.99 290.2 m E Pn      2011/06/30 12:56:44.5  -0.1                          T                                        4716240
HAU   000.99 290.2 m E Pg      2011/06/30 12:56:46.1  -0.1                          T                                        4716383
HAU   000.99 290.2 m E Sg      2011/06/30 12:56:59.1  -0.2                          T               18.5  .40 Ml 2.3 Md 2.0  4716237
THEF  001.29 296.1 m E Pg      2011/06/30 12:56:51.5  -0.2                          T                                        4716239
THEF  001.29 296.1 m E Sg      2011/06/30 12:57:08.2  -0.4                          T                7.1  .23 Ml 2.4 Md 2.5  4716236
SFTF  001.89 287.4 m E Pg      2011/06/30 12:57:02.4  -0.2                          T                                        4716378
MEZF  001.98 295.8 m E Pg      2011/06/30 12:57:04.3   0.1                          T                                        4716379
CABF  001.54 227.2 m E Sg      2011/06/30 12:57:16.3  -0.2                          T                 .9  .20 Ml 1.7         4716377

.
