EVENT     264891
    Date      Time       Latitude Longitude    Depth    Ndef Nsta Gap    Mag1  N    Mag2  N    Mag3  N   Author         ID
       rms   OT_Error      Smajor Sminor Az        Err   mdist  Mdist     Err        Err        Err      Quality

2011/10/10 02:20:13.3     47.1729    6.4353     12.0 f    16    7 178  Ml 1.8  4  Md 1.9  2              js067245    264911

      0.21   +-  0.08       1.7     .9  128.69 +-  0.0    0.61   1.86   +-0.1      +-0.0                 m i ke

FRANCE
Sta     Dist  EvAz     Phase      Date       Time     TRes  Azim  AzRes  Slow  SRes Def   SNR       Amp   Per   Mag1   Mag2       ID
CABF  000.61 203.1 m E Pg      2011/10/10 02:20:25.3   0.2                          T                                        4769065
CABF  000.61 203.1 m E Sg      2011/10/10 02:20:32.8  -0.5                          T                5.1  .20        Md 1.9  4769063
HINF  000.70 023.6 m E Pg      2011/10/10 02:20:26.8   0.0                          T                                        4769064
HINF  000.70 023.6 m E Sg      2011/10/10 02:20:36.0  -0.1                          T                7.8  .20        Md 1.9  4769062
HAU   000.84 356.0 m E Pg      2011/10/10 02:20:29.0  -0.1                          T                                        4772268
HAU   000.84 356.0 m E Pn      2011/10/10 02:20:29.4   0.0                          T                                        4769061
HAU   000.84 356.0 m E Sg      2011/10/10 02:20:40.6   0.5                          T                5.2  .24                4769060
CDF   001.36 024.3 m E Pg      2011/10/10 02:20:38.9   0.0                          T                                        4772267
CDF   001.36 024.3 m E Sg      2011/10/10 02:20:56.5  -0.1                          T                1.2  .22 Ml 1.8         4769150
SFTF  001.40 318.1 m E Pg      2011/10/10 02:20:39.5   0.0                          T                                        4772265
SFTF  001.40 318.1 m E Sg      2011/10/10 02:20:57.6   0.0                          T                 .9  .21 Ml 1.6         4772266
LOR   001.76 274.1 m E Pg      2011/10/10 02:20:46.3   0.1                          T                                        4769148
LOR   001.76 274.1 m E Sg      2011/10/10 02:21:08.3  -0.5                          T                1.2  .24 Ml 1.9         4769149
SMF   001.86 254.4 m E Sg      2011/10/10 02:21:11.6  -0.2                          T                 .8  .21 Ml 1.7         4772264

.
EVENT     264892
    Date      Time       Latitude Longitude    Depth    Ndef Nsta Gap    Mag1  N    Mag2  N    Mag3  N   Author         ID
       rms   OT_Error      Smajor Sminor Az        Err   mdist  Mdist     Err        Err        Err      Quality

2011/10/10 04:26:29.3     45.5591    6.6329      2.0      20    9 141  Ml 2.1  5  Md 1.9  2              js067245    264912

      0.46   +-  0.12       2.4    1.9   39.23 +-  0.0    0.08   2.59   +-0.3      +-0.0                 m i ke

FRANCE
Sta     Dist  EvAz     Phase      Date       Time     TRes  Azim  AzRes  Slow  SRes Def   SNR       Amp   Per   Mag1   Mag2       ID
LPL   000.08 121.4 m E Pg      2011/10/10 04:26:30.9  -0.6                          T                                        4769084
LPL   000.08 121.4 m E Sg      2011/10/10 04:26:33.1   0.3                          T               64.2  .24        Md 1.9  4769077
LPG   000.10 126.4 m E Pg      2011/10/10 04:26:31.4  -0.5                          T                                        4769083
LPG   000.10 126.4 m E Sg      2011/10/10 04:26:34.3   0.8                          T               49.1  .21        Md 2.0  4769082
ORIF  000.83 220.0 m E Pg      2011/10/10 04:26:44.8  -0.3                          T                                        4769080
ORIF  000.83 220.0 m E Sg      2011/10/10 04:26:55.9   0.0                          T                4.5  .22                4769108
MBDF  000.84 173.2 m E Pg      2011/10/10 04:26:45.4   0.2                          T                                        4769081
MBDF  000.84 173.2 m E Sg      2011/10/10 04:26:56.4   0.3                          T                6.2  .43                4769107
CABF  001.12 340.4 m E Pg      2011/10/10 04:26:50.6   0.3                          T                                        4769110
CABF  001.12 340.4 m E Sg      2011/10/10 04:27:05.9   1.0                          T                3.8  .22 Ml 2.1         4769109
VIVF  001.55 243.8 m E Pn      2011/10/10 04:26:56.5   0.3                          T                                        4769104
VIVF  001.55 243.8 m E Pg      2011/10/10 04:26:58.7   0.5                          T                                        4769079
VIVF  001.55 243.8 m E Sg      2011/10/10 04:27:18.7   0.4                          T                7.5  .24 Ml 2.6         4769078
SMF   002.23 300.2 m E Pg      2011/10/10 04:27:10.3  -0.4                          T                                        4769101
SMF   002.23 300.2 m E Sg      2011/10/10 04:27:38.8  -0.5                          T                2.7  .25 Ml 2.3         4769103
LASF  002.47 234.1 m E Pg      2011/10/10 04:27:15.1  -0.1                          T                                        4769106
LASF  002.47 234.1 m E Sg      2011/10/10 04:27:47.2   0.3                          T                 .9  .22 Ml 1.9         4769105
AVF   002.59 299.6 m E Sg      2011/10/10 04:27:49.9  -0.7                          T                 .8  .26 Ml 1.8         4769102

.
EVENT     264893
    Date      Time       Latitude Longitude    Depth    Ndef Nsta Gap    Mag1  N    Mag2  N    Mag3  N   Author         ID
       rms   OT_Error      Smajor Sminor Az        Err   mdist  Mdist     Err        Err        Err      Quality

2011/10/10 04:33:21.3     45.5451    6.6481      2.0      17    6 135  Ml 2.3  2  Md 2.1  4              js067245    264913

      0.90   +-  0.17       3.6    3.4   72.91 +-  0.0    0.07   1.56   +-0.2      +-0.1                 m i ke

FRANCE
Sta     Dist  EvAz     Phase      Date       Time     TRes  Azim  AzRes  Slow  SRes Def   SNR       Amp   Per   Mag1   Mag2       ID
LPL   000.07 115.8 m E Pg      2011/10/10 04:33:22.7  -0.6                          T                                        4769098
LPL   000.07 115.8 m E Sg      2011/10/10 04:33:24.9   0.5                          T               76.4  .32        Md 2.1  4769095
LPG   000.09 123.1 m E Pg      2011/10/10 04:33:23.2  -0.5                          T                                        4769097
LPG   000.09 123.1 m E Sg      2011/10/10 04:33:26.2   1.2                          T               69.0  .38        Md 2.0  4769096
ORIF  000.83 221.2 m E Pg      2011/10/10 04:33:36.6  -0.5                          T                                        4769092
ORIF  000.83 221.2 m E Sg      2011/10/10 04:33:47.8   0.0                          T                8.4  .34        Md 2.1  4769091
MBDF  000.82 173.9 m E Pg      2011/10/10 04:33:37.2   0.2                          T                                        4769090
MBDF  000.82 173.9 m E Sg      2011/10/10 04:33:49.4   1.7                          T                3.8  .35                4769089
CABF  001.14 340.1 m E Pn      2011/10/10 04:33:42.8   0.1                          T                                        4769088
CABF  001.14 340.1 m E P       2011/10/10 04:33:44.0  -0.4                          T                                        4769147
CABF  001.14 340.1 m E Sg      2011/10/10 04:33:57.8   0.3                          T                                        4769800
CABF  001.14 340.1 m E Sn      2011/10/10 04:33:59.2   1.2                          T               14.4  .72 Ml 2.2 Md 2.2  4769087
VIVF  001.56 244.4 m E Pn      2011/10/10 04:33:49.3   0.9                          T                                        4769801
VIVF  001.56 244.4 m E Pg      2011/10/10 04:33:50.4   0.0                          T                                        4769094
VIVF  001.56 244.4 m E Sg      2011/10/10 04:34:10.0  -0.5                          T                4.5  .21 Ml 2.4         4769093

.
EVENT     264898
    Date      Time       Latitude Longitude    Depth    Ndef Nsta Gap    Mag1  N    Mag2  N    Mag3  N   Author         ID
       rms   OT_Error      Smajor Sminor Az        Err   mdist  Mdist     Err        Err        Err      Quality

2011/10/10 10:19:12.5     47.6777    5.9993       .0 f    16    7 127  Ml 1.9  6  Md 2.0  2              js067245    264918

      0.84   +-  0.11       2.4    1.7  116.06 +-  0.0    0.40   1.51   +-0.3      +-0.2                 m i km

FRANCE
Sta     Dist  EvAz     Phase      Date       Time     TRes  Azim  AzRes  Slow  SRes Def   SNR       Amp   Per   Mag1   Mag2       ID
HAU   000.40 035.5 m E Pg      2011/10/10 10:19:21.0   0.5                          T                                        4769453
HAU   000.40 035.5 m E Sg      2011/10/10 10:19:25.5  -0.6                          T                8.0  .35        Md 2.1  4769450
THEF  000.55 359.6 m E Pg      2011/10/10 10:19:22.7  -0.6                          T                                        4769458
THEF  000.55 359.6 m E Sg      2011/10/10 10:19:30.4  -0.2                          T               84.2 1.00        Md 1.9  4769449
SFTF  000.83 309.6 m E Pg      2011/10/10 10:19:28.8   0.3 125.9  -3.0              T                                        4769457
SFTF  000.83 309.6 m E Sg      2011/10/10 10:19:39.5   0.0 123.5  -5.4              T                5.8  .25                4769456
PAGF  000.90 348.3 m E Pg      2011/10/10 10:19:29.9   0.3 164.7  -3.4              T                3.3  .53 Ml 1.6         4769452
PAGF  000.90 348.3 m E Sg      2011/10/10 10:19:42.0   0.5 169.3  1.2               T                3.5  .55 Ml 1.6         4769451
CABF  001.07 176.7 m E Pg      2011/10/10 10:19:33.0   0.1                          T                                        4769455
CABF  001.07 176.7 m E Sg      2011/10/10 10:19:47.1   0.2                          T                9.2  .43 Ml 2.2         4769806
CABF  001.07 176.7 m E Sn      2011/10/10 10:19:48.1  -0.1                          T               10.5  .61 Ml 2.1         4769454
CDF   001.13 048.9 m E Pg      2011/10/10 10:19:33.8  -0.3                          T                                        4769805
CDF   001.13 048.9 m E Sg      2011/10/10 10:19:49.5   0.7                          T                6.4  .46 Ml 2.1         4769487
LOR   001.51 255.0 m E Pn      2011/10/10 10:19:39.2   0.0                          T                                        4769802
LOR   001.51 255.0 m E Pg      2011/10/10 10:19:40.8  -0.2  71.2  -2.3              T                                        4769804
LOR   001.51 255.0 m E Sg      2011/10/10 10:20:00.1  -0.5  81.3  7.8               T                2.8  .36 Ml 1.9         4769803

.
EVENT     264916
    Date      Time       Latitude Longitude    Depth    Ndef Nsta Gap    Mag1  N    Mag2  N    Mag3  N   Author         ID
       rms   OT_Error      Smajor Sminor Az        Err   mdist  Mdist     Err        Err        Err      Quality

2011/10/10 10:24:54.1     42.3210    3.0992       .0 f    17    6 214  Ml 2.1  7  Md 2.0  1              js067245    264936

      0.50   +-  0.21       3.5    2.1  140.61 +-  0.0    0.20   2.78   +-0.3      +-                    m i km

PYRENEES
Sta     Dist  EvAz     Phase      Date       Time     TRes  Azim  AzRes  Slow  SRes Def   SNR       Amp   Per   Mag1   Mag2       ID
MTLF  001.21 327.8 m E Pg      2011/10/10 10:25:16.9  -0.1                          T                                        4769491
MTLF  001.21 327.8 m E P       2011/10/10 10:25:18.5   0.2                          T                                        4769807
MTLF  001.21 327.8 m E Sn      2011/10/10 10:25:33.0  -0.1                          T                6.4  .38 Ml 2.1 Md 2.0  4769490
LASF  001.84 017.3 m E Pg      2011/10/10 10:25:28.2  -0.4                          T                                        4772277
LASF  001.84 017.3 m E Sg      2011/10/10 10:25:52.1  -0.4                          T                 .7  .28 Ml 1.6         4772271
EPF   002.15 290.1 m E Pg      2011/10/10 10:25:34.7   0.3                          T                                        4769489
EPF   002.15 290.1 m E Sg      2011/10/10 10:26:02.2  -0.2                          T                2.1  .31 Ml 2.1         4769488
CAF   002.71 344.3 m E Pn      2011/10/10 10:25:37.5   0.2                          T                                        4772276
CAF   002.71 344.3 m E Sg      2011/10/10 10:26:19.4  -0.3                          T                1.4  .27 Ml 2.1         4772273
VIVF  002.78 023.7 m E Sg      2011/10/10 10:26:21.5  -0.4                          T                1.0  .29 Ml 1.9         4772272
ETSF  002.76 283.3 m E Sg      2011/10/10 10:26:21.6   0.2                          T                4.7  .43 Ml 2.4         4772274

.
EVENT     264899
    Date      Time       Latitude Longitude    Depth    Ndef Nsta Gap    Mag1  N    Mag2  N    Mag3  N   Author         ID
       rms   OT_Error      Smajor Sminor Az        Err   mdist  Mdist     Err        Err        Err      Quality

2011/10/10 10:33:31.5     43.0125     .1764     10.0      51   13 061  Ml 2.7 12  Md 3.0  8              js067245    264919

      0.59   +-  0.06       1.2    1.0    6.32 +-  0.0    0.08   4.40   +-0.2      +-0.1                 m i ke

FRANCE
Sta     Dist  EvAz     Phase      Date       Time     TRes  Azim  AzRes  Slow  SRes Def   SNR       Amp   Per   Mag1   Mag2       ID
EPF   000.12 081.5 m E Pg      2011/10/10 10:33:35.0   0.3                          T   001.0                                4767565
EPF   000.12 081.5 m E Sg      2011/10/10 10:33:36.9   0.1                          T              208.8  .28        Md 3.1  4769266
ETSF  000.55 258.3 m E Pg      2011/10/10 10:33:41.8  -0.4                          T   001.0                                4767574
ETSF  000.55 258.3 m E Sg      2011/10/10 10:33:49.1  -0.5                          T   001.0       53.0  .22        Md 2.9  4767575
SJPF  001.03 276.1 m E Pg      2011/10/10 10:33:51.5   0.5                          T                                        4769265
SJPF  001.03 276.1 m E Sg      2011/10/10 10:34:05.4   1.0                          T   001.0        8.9  .22 Ml 2.4 Md 3.0  4767581
MTLF  001.53 076.9 m E Pg      2011/10/10 10:34:00.2   0.1                          T   001.0                                4767577
MTLF  001.53 076.9 m E Sg      2011/10/10 10:34:20.2   0.4                          T   001.0        8.3  .22 Ml 2.6 Md 2.9  4767579
LFF   001.97 011.7 m E Pg      2011/10/10 10:34:08.1   0.0                          T   001.0                                4767568
LFF   001.97 011.7 m E Sg      2011/10/10 10:34:34.4   0.8                          T   001.0       16.3  .32 Ml 2.7 Md 3.1  4767570
CAF   002.35 034.8 m E Pg      2011/10/10 10:34:15.3   0.0                          T                                        4769271
CAF   002.35 034.8 m E Sg      2011/10/10 10:34:44.7  -0.7                          T               10.9  .24 Ml 2.9 Md 3.0  4769270
RJF   002.49 022.4 m E Pg      2011/10/10 10:34:17.4  -0.3                          T   001.0                                4767559
RJF   002.49 022.4 m E Sg      2011/10/10 10:34:50.6   0.9                          T   001.0        3.4  .16 Ml 2.3 Md 2.9  4767561
LASF  002.88 067.1 m E Pg      2011/10/10 10:34:25.6   0.7                          T                                        4769269
LASF  002.88 067.1 m E Sg      2011/10/10 10:35:01.0   0.0                          T   001.0        6.2  .32 Ml 2.7 Md 3.0  4767567
VIVF  003.73 058.9 m E Pg      2011/10/10 10:34:39.7  -1.0                          T                                        4769810
VIVF  003.73 058.9 m E Sg      2011/10/10 10:35:28.5  -0.2                          T   001.0        3.4  .36 Ml 2.6         4767582
TCF   003.58 023.2 m E Sg      2011/10/10 10:35:23.4  -0.6                          T   001.0        2.9  .30 Ml 2.6         4767573
MFF   003.60 356.5 m E Sg      2011/10/10 10:35:24.8   0.5                          T   001.0        2.1  .22 Ml 2.7         4767572
BGF   004.02 027.3 m E Sg      2011/10/10 10:35:37.7   0.1                          T   001.0       10.6  .36 Ml 3.1         4767563
AVF   004.40 029.8 m E Sg      2011/10/10 10:35:48.7  -0.7                          T   001.0        2.1  .40 Ml 2.5         4767562

.
EVENT     264917
    Date      Time       Latitude Longitude    Depth    Ndef Nsta Gap    Mag1  N    Mag2  N    Mag3  N   Author         ID
       rms   OT_Error      Smajor Sminor Az        Err   mdist  Mdist     Err        Err        Err      Quality

2011/10/10 12:00:26.7     48.7595    5.9794       .0 f    11    7 223  Ml 2.1  4  Md 2.1  1              js067245    264937

      0.36   +-  0.17       2.9    1.3   16.08 +-  0.0    0.27   2.15   +-0.4      +-                    m i km

FRANCE
Sta     Dist  EvAz     Phase      Date       Time     TRes  Azim  AzRes  Slow  SRes Def   SNR       Amp   Per   Mag1   Mag2       ID
PAGF  000.27 219.6 m E Pg      2011/10/10 12:00:32.4   0.3  39.1  -0.3              T                                        4772320
PAGF  000.27 219.6 m E Sg      2011/10/10 12:00:36.2   0.3  35.7  -3.7              T               85.1  .91        Md 2.1  4772321
HAU   000.79 161.8 m E Pg      2011/10/10 12:00:41.9   0.0                          T                                        4772315
HAU   000.79 161.8 m E Sn      2011/10/10 12:00:55.7   0.0                          T               10.9  .30                4772318
HINF  001.11 147.9 m E Pg      2011/10/10 12:00:47.6  -0.1                          T                                        4772313
HINF  001.11 147.9 m E Sn      2011/10/10 12:01:03.4   0.1                          T                4.8  .34 Ml 2.0         4772314
MEZF  000.67 247.6 m E Sn      2011/10/10 12:00:52.5  -0.1                          T               18.8  .47                4772316
CDF   000.93 111.5 m E Sg      2011/10/10 12:00:57.1   0.4                          T               29.3  .54 Ml 2.6         4772319
CABF  002.15 178.0 m E Pg      2011/10/10 12:01:06.8  -0.2                          T                                        4772311
CABF  002.15 178.0 m E Sg      2011/10/10 12:01:34.6  -0.3                          T                4.5  .48 Ml 2.2         4772312
LOR   002.06 224.4 m E Sg      2011/10/10 12:01:32.0   0.0                          T                 .8  .27 Ml 1.7         4772317

.
