EVENT     261175
    Date      Time       Latitude Longitude    Depth    Ndef Nsta Gap    Mag1  N    Mag2  N    Mag3  N   Author         ID
       rms   OT_Error      Smajor Sminor Az        Err   mdist  Mdist     Err        Err        Err      Quality

2011/07/07 15:15:30.9     44.3509   11.2418     20.0 f    15    8 255  Ml 2.7  4  Md 2.7  3              js067245    261175

      0.98   +-  0.79      18.7    8.1  113.48 +-  0.0    0.19   4.99   +-0.1      +-0.3                 m i ke

NORTHERN ITALY
Sta     Dist  EvAz     Phase      Date       Time     TRes  Azim  AzRes  Slow  SRes Def   SNR       Amp   Per   Mag1   Mag2       ID
PGF   002.43 223.0 m E Pn      2011/07/07 15:16:07.9   0.0                          T                                        4717079
PGF   002.43 223.0 m E Sn      2011/07/07 15:16:37.7   2.4                          T                4.4  .32 Ml 2.7 Md 2.3  4717076
SBF   002.78 261.2 m E Pn      2011/07/07 15:16:12.6  -0.1                          T                                        4720939
SBF   002.78 261.2 m E Sn      2011/07/07 15:16:44.4   0.8                          T                8.1  .24 Ml 2.9         4720940
MBDF  003.22 278.3 m E Pn      2011/07/07 15:16:19.2   0.5                          T                                        4720938
FRF   003.41 258.2 m E Pn      2011/07/07 15:16:20.7  -0.4                          T                                        4717080
FRF   003.41 258.2 m E Sn      2011/07/07 15:16:59.7   1.2                          T                2.2  .20 Ml 2.6 Md 2.8  4717078
LMR   003.57 255.1 m E Pn      2011/07/07 15:16:23.6   0.3                          T                                        4717081
LMR   003.57 255.1 m E Sn      2011/07/07 15:17:02.9   0.6                          T                5.7  .34 Ml 2.8 Md 2.8  4717077
HINF  004.62 320.2 m E Pn      2011/07/07 15:16:37.3  -0.3                          T                                        4720935
CDF   004.90 327.4 m E Pn      2011/07/07 15:16:41.7   0.2                          T                                        4720937
HAU   004.99 318.8 m E Pn      2011/07/07 15:16:42.6  -0.1                          T                                        4720936

.
EVENT     261192
    Date      Time       Latitude Longitude    Depth    Ndef Nsta Gap    Mag1  N    Mag2  N    Mag3  N   Author         ID
       rms   OT_Error      Smajor Sminor Az        Err   mdist  Mdist     Err        Err        Err      Quality

2011/07/07 19:21:46.8     41.9481    7.6979     10.9     316   44 040  Ml 5.3 43  Md 5.0  3  ms 4.2 5    bulletin    261192
                                                                                                         _ldg
      1.76   +-  0.13       3.8    2.5   13.96 +-  0.0    1.14  92.32   +-0.4      +-0.1      +-         m i ke

WESTERN MEDITERRANEAN SEA
Sta     Dist  EvAz     Phase      Date       Time     TRes  Azim  AzRes  Slow  SRes Def   SNR       Amp   Per   Mag1   Mag2       ID
PGF   001.14 057.7 m E Pn      2011/07/07 19:22:08.4   1.2                          T   001.0                                4717029
PGF   001.14 057.7 m E Sn      2011/07/07 19:22:22.5   0.6                          T            19455.4  .21 Ml 6.1 Md 5.1  4717086
LMR   001.64 328.1 m E Pn      2011/07/07 19:22:13.8  -0.1                          T   001.0                                4717021
LMR   001.64 328.1 m E Sn      2011/07/07 19:22:31.2  -2.6                          T            57478.5  .40 Ml 6.3 Md 5.0  4717087
FRF   001.79 334.7 m E Pn      2011/07/07 19:22:16.0   0.1                          T   001.0                                4717011
FRF   001.79 334.7 m E Sn      2011/07/07 19:22:34.7  -2.5                          T            20151.9  .38 Ml 5.9         4717088
SBF   001.92 354.3 m E Pn      2011/07/07 19:22:17.5  -0.4                          T   001.0                                4717031
SBF   001.92 354.3 m E Pg      2011/07/07 19:22:21.3  -1.4                          T                                        4717115
SBF   001.92 354.3 m E Sn      2011/07/07 19:22:38.3  -2.3                          T            28671.4  .42 Ml 6.0         4717089
SMRF  002.56 323.2 m E Pn      2011/07/07 19:22:27.8   1.3                          T   001.0                                4717046
SMRF  002.56 323.2 m E Sn      2011/07/07 19:22:57.6   1.9                          T   001.0    11305.1  .52 Ml 5.7         4717047
MBDF  002.86 346.6 m E Pn      2011/07/07 19:22:32.8   2.0                          T   001.0                                4717051
MBDF  002.86 346.6 m E Sn      2011/07/07 19:23:02.8  -0.3                          T   001.0     5583.2  .37 Ml 5.6         4717052
ORIF  003.25 336.6 m E Pn      2011/07/07 19:22:37.3   1.4                          T   001.0                                4717039
ORIF  003.25 336.6 m E Sn      2011/07/07 19:23:12.4   0.0                          T   001.0     5531.2  .57 Ml 5.5         4717040
LASF  003.53 308.3 m E Pn      2011/07/07 19:22:39.5  -0.2                          T   001.0                                4717016
LASF  003.53 308.3 m E Sn      2011/07/07 19:23:17.0  -2.0                          T   001.0     2974.7  .31 Ml 5.5         4717017
VIVF  003.65 323.8 m E Pn      2011/07/07 19:22:41.7   0.4                          T   001.0                                4717044
VIVF  003.65 323.8 m E Sn      2011/07/07 19:23:19.8  -1.9                          T   001.0     1133.4  .28 Ml 5.2 Md 4.9  4717045
LPL   003.64 349.2 m E Pn      2011/07/07 19:22:44.3   2.9                          T   001.0                                4717026
LPL   003.64 349.2 m E Sn      2011/07/07 19:23:24.8   3.1                          T   001.0     2964.6  .47 Ml 5.4         4717027
LPG   003.61 349.4 m E Pn      2011/07/07 19:22:45.1   3.9                          T   001.0                                4717025
LPG   003.61 349.4 m E Sn      2011/07/07 19:23:25.0   3.7                          T             4287.8  .56 Ml 5.4         4717114
MTLF  004.28 290.8 m E Pn      2011/07/07 19:22:49.7  -0.2                          T                                        4717091
MTLF  004.28 290.8 m E Sn      2011/07/07 19:23:35.2  -1.5                          T             3020.4  .44 Ml 5.5         4717090
CABF  004.80 346.6 m E Pn      2011/07/07 19:22:58.6   1.4                          T   001.0                                4717036
CABF  004.80 346.6 m E Sn      2011/07/07 19:23:44.2  -5.2                          T   001.0     1061.6  .54 Ml 5.1         4717037
CAF   005.07 307.9 m E Pn      2011/07/07 19:23:01.5   0.9                          T   001.0                                4717005
CAF   005.07 307.9 m E Sn      2011/07/07 19:23:53.3  -2.4                          T   001.0     1443.0  .41 Ml 5.4         4717006
SMF   005.45 330.8 m E Pn      2011/07/07 19:23:06.9   1.1                          T   001.0                                4717032
SMF   005.45 330.8 m E Sn      2011/07/07 19:24:00.1  -4.7                          T              300.4  .21 Ml 5.1         4717102
EPF   005.55 283.7 m E Pn      2011/07/07 19:23:06.9  -0.3                          T                                        4717092
EPF   005.55 283.7 m E Sn      2011/07/07 19:24:06.4  -0.8                          T   001.0     1218.8  .59 Ml 5.3         4717009
RJF   005.60 308.9 m E Pn      2011/07/07 19:23:08.8   0.9                          T   001.0                                4717002
RJF   005.60 308.9 m E Sn      2011/07/07 19:24:06.5  -1.9                          T              607.7  .36 Ml 4.9         4717097
AVF   005.76 328.7 m E Pn      2011/07/07 19:23:11.4   1.5                          T   001.0                                4717003
AVF   005.76 328.7 m E Sn      2011/07/07 19:24:09.4  -2.7                          T              574.4  .50 Ml 5.1         4717118
BGF   005.78 324.6 m E Pn      2011/07/07 19:23:11.6   1.3                          T   001.0                                4717004
BGF   005.78 324.6 m E Sn      2011/07/07 19:24:11.7  -0.9                          T             1191.8  .49 Ml 5.4         4717100
LFF   005.88 302.9 m E Pn      2011/07/07 19:23:12.6   1.0                          T   001.0                                4717019
LFF   005.88 302.9 m E Sn      2011/07/07 19:24:13.2  -1.8                          T   001.0      758.1  .43 Ml 5.1         4717020
TCF   005.87 319.5 m E Pn      2011/07/07 19:23:12.7   1.2                          T   001.0                                4717034
TCF   005.87 319.5 m E Sn      2011/07/07 19:24:13.1  -1.7                          T              687.4  .80 Ml 5.0         4717116
HINF  005.90 354.5 m E Pn      2011/07/07 19:23:12.7   0.7                          T   001.0                                4717049
HINF  005.90 354.5 m E Sn      2011/07/07 19:24:11.7  -3.9                          T   001.0      443.7  .43 Ml 5.1         4717050
SSF   005.93 331.0 m E Pn      2011/07/07 19:23:13.5   1.3                          T   001.0                                4717033
SSF   005.93 331.0 m E Sn      2011/07/07 19:24:13.8  -2.3                          T              812.4  .54 Ml 5.3         4717117
LOR   005.98 334.1 m E Pn      2011/07/07 19:23:14.4   1.3                          T   001.0                                4717023
LOR   005.98 334.1 m E Sn      2011/07/07 19:24:16.0  -1.6                          T   001.0     1048.0  .58 Ml 5.4         4717024
HAU   006.13 351.5 m E Pn      2011/07/07 19:23:16.1   1.0                          T   001.0                                4717014
HAU   006.13 351.5 m E Sn      2011/07/07 19:24:19.2  -1.9                          T   001.0     1130.6  .36 Ml 5.4         4717015
ETSF  006.18 281.6 m E Pn      2011/07/07 19:23:17.7   1.8                          T                                        4717093
ETSF  006.18 281.6 m E Sn      2011/07/07 19:24:25.4   2.9                          T              439.8  .37 Ml 5.2         4717095
THEF  006.39 349.7 m E Pn      2011/07/07 19:23:19.8   1.1                          T                                        4717109
CDF   006.47 357.5 m E Pn      2011/07/07 19:23:20.7   0.8                          T   001.0                                4717007
CDF   006.47 357.5 m E Sn      2011/07/07 19:24:25.8  -3.5                          T   001.0      279.7  .49 Ml 5.0         4717008
HYF   006.43 327.6 m E Pn      2011/07/07 19:23:21.1   2.0                          T                                        4717108
HYF   006.43 327.6 m E Sn      2011/07/07 19:24:28.5   0.4                          T                                        4717101
SFTF  006.53 344.2 m E Pn      2011/07/07 19:23:21.9   1.4                          T                                        4717110
SFTF  006.53 344.2 m E Sn      2011/07/07 19:24:29.1  -1.6                          T              725.7  .36 Ml 5.5         4717103
SJPF  006.69 283.0 m E Pn      2011/07/07 19:23:22.9   0.1                          T                                        4717094
SJPF  006.69 283.0 m E Sn      2011/07/07 19:24:35.0   0.4                          T              489.8  .45 Ml 5.2         4717096
PAGF  006.75 348.8 m E Pn      2011/07/07 19:23:25.1   1.6                          T                                        4717111
PAGF  006.75 348.8 m E Sn      2011/07/07 19:24:33.7  -2.2                          T              222.9  .59 Ml 4.8         4717104
MEZF  006.81 345.0 m E Pn      2011/07/07 19:23:25.9   1.5                          T   001.0                                4717053
MEZF  006.81 345.0 m E Sn      2011/07/07 19:24:32.7  -4.7                          T   001.0      507.1  .37 Ml 5.4         4717038
LANF  007.03 000.6 m E Pn      2011/07/07 19:23:30.1   2.7                          T                                        4717112
MFF   007.30 312.2 m E Pn      2011/07/07 19:23:32.1   1.1                          T   001.0                                4717028
MFF   007.30 312.2 m E Sn      2011/07/07 19:24:48.1  -1.0                          T              309.2  .60 Ml 5.2         4717098
RUP   007.77 356.9 m E Pn      2011/07/07 19:23:38.9   1.5                          T                                        4717113
GIVF  008.40 347.2 m E Pn      2011/07/07 19:23:47.4   1.5                          T   001.0                                4717048
GIVF  008.40 347.2 m E Sn      2011/07/07 19:25:13.8  -1.4                          T              209.4  .51 Ml 5.1         4717106
BAIF  008.47 344.5 m E Pn      2011/07/07 19:23:48.2   1.4                          T   001.0                                4717035
BAIF  008.47 344.5 m E Sn      2011/07/07 19:25:14.5  -2.4                          T              122.6  .41 Ml 5.0         4717105
LDF   008.63 323.0 m E Pn      2011/07/07 19:23:51.0   1.9                          T   001.0                                4717018
LDF   008.63 323.0 m E Sn      2011/07/07 19:25:18.7  -2.1                          T               85.1  .56 Ml 4.7         4717120
GRR   008.83 319.7 m E Pn      2011/07/07 19:23:53.7   1.9                          T   001.0                                4717013
GRR   008.83 319.7 m E Sn      2011/07/07 19:25:23.2  -2.3                          T               45.0  .45 Ml 4.4         4717119
FLN   000.00 000.0 m E R                                                                          5119.015.23                4717443
FLN   008.92 322.6 m E Pn      2011/07/07 19:23:55.2   2.2                          T   001.0                                4717010
FLN   008.92 322.6 m E Sn      2011/07/07 19:25:24.7  -3.0                          T               89.9  .40 Ml 4.7         4717121
SGMF  009.60 314.5 m E Pn      2011/07/07 19:24:03.4   1.0                          T   001.0                                4717043
SGMF  009.60 314.5 m E Sn      2011/07/07 19:25:42.2  -1.9                          T               80.8  .69 Ml 4.7         4717123
QUIF  009.74 311.5 m E Pn      2011/07/07 19:24:05.1   0.9                          T   001.0                                4717041
QUIF  009.74 311.5 m E Sn      2011/07/07 19:25:45.4  -1.8                          T               79.9  .32 Ml 5.1         4717122
ROSF  010.04 313.2 m E Pn      2011/07/07 19:24:09.7   1.4                          T   001.0                                4717042
ROSF  010.04 313.2 m E Sn      2011/07/07 19:25:55.0   0.6                          T              208.5  .64 Ml 5.2         4717099

.
EVENT     261163
    Date      Time       Latitude Longitude    Depth    Ndef Nsta Gap    Mag1  N    Mag2  N    Mag3  N   Author         ID
       rms   OT_Error      Smajor Sminor Az        Err   mdist  Mdist     Err        Err        Err      Quality

2011/07/07 19:32:14.2     42.1470    7.6738     10.0 f    19    9 221  Ml 2.6  8  Md 2.5  3              js067245    261163

      1.55   +-  0.39      10.2    4.8    7.22 +-  0.0    1.06   4.93   +-0.4      +-0.1                 m i ke

WESTERN MEDITERRANEAN SEA
Sta     Dist  EvAz     Phase      Date       Time     TRes  Azim  AzRes  Slow  SRes Def   SNR       Amp   Per   Mag1   Mag2       ID
PGF   001.06 067.4 m E Pn      2011/07/07 19:32:33.6  -0.1                          T                                        4717146
PGF   001.06 067.4 m E Sn      2011/07/07 19:32:47.4  -0.2                          T               32.4  .24 Ml 3.2 Md 2.6  4717145
LMR   001.46 324.5 m E Pn      2011/07/07 19:32:39.0  -0.1                          T                                        4717143
LMR   001.46 324.5 m E Sn      2011/07/07 19:32:56.6  -0.5                          T               11.6  .19 Ml 2.8 Md 2.5  4717134
FRF   001.60 332.2 m E Pn      2011/07/07 19:32:41.2   0.3                          T                                        4717142
FRF   001.60 332.2 m E Sn      2011/07/07 19:33:00.3  -0.1                          T                5.5  .21 Ml 2.5 Md 2.5  4717133
SBF   001.72 354.3 m E Pn      2011/07/07 19:32:42.7   0.0                          T                                        4717144
SBF   001.72 354.3 m E Pg      2011/07/07 19:32:45.7  -0.8                          T                                        4717136
SBF   001.72 354.3 m E Sn      2011/07/07 19:33:03.8   0.4                          T                5.8  .16 Ml 2.7         4717135
SMRF  002.39 320.6 m E Pn      2011/07/07 19:32:52.7   1.0                          T                                        4717141
SMRF  002.39 320.6 m E Sn      2011/07/07 19:33:24.6   5.3                          T                 .9  .18 Ml 2.0         4717130
LASF  003.40 305.9 m E Pn      2011/07/07 19:33:05.4   0.0                          T                                        4717139
LASF  003.40 305.9 m E Sn      2011/07/07 19:33:42.4  -0.9                          T                1.9  .22 Ml 2.4         4717132
VIVF  003.48 322.1 m E Pn      2011/07/07 19:33:07.2   0.7                          T                                        4717140
MTLF  004.19 288.4 m E Pn      2011/07/07 19:33:15.5  -0.7                          T                                        4717138
MTLF  004.19 288.4 m E Sn      2011/07/07 19:34:00.4  -1.9                          T                1.3  .30 Ml 2.3         4717131
CAF   004.93 306.2 m E Pn      2011/07/07 19:33:26.9   0.6                          T                                        4717137

.
EVENT     261164
    Date      Time       Latitude Longitude    Depth    Ndef Nsta Gap    Mag1  N    Mag2  N    Mag3  N   Author         ID
       rms   OT_Error      Smajor Sminor Az        Err   mdist  Mdist     Err        Err        Err      Quality

2011/07/07 19:36:08.3     42.1506    7.6590     15.0      10    5 253  Ml 2.0  6  Md 2.2  2              js067245    261164

      0.24   +-  0.22       5.5    2.0   26.49 +-  0.0    1.07   2.38   +-0.2      +-0.0                 m i ke

WESTERN MEDITERRANEAN SEA
Sta     Dist  EvAz     Phase      Date       Time     TRes  Azim  AzRes  Slow  SRes Def   SNR       Amp   Per   Mag1   Mag2       ID
PGF   001.07 067.8 m E Pn      2011/07/07 19:36:27.4   0.0                          T                                        4717264
PGF   001.07 067.8 m E Sn      2011/07/07 19:36:40.9  -0.1                          T                2.7  .17 Ml 2.3 Md 2.2  4717260
LMR   001.45 324.8 m E Pn      2011/07/07 19:36:32.5   0.0                          T                                        4717263
LMR   001.45 324.8 m E Sn      2011/07/07 19:36:50.0   0.0                          T                4.6  .36 Ml 2.1 Md 2.2  4717261
SBF   001.72 354.6 m E Pg      2011/07/07 19:36:40.2  -0.3                          T                                        4723137
SBF   001.72 354.6 m E Sn      2011/07/07 19:36:57.0   0.5                          T                1.6  .21 Ml 2.0         4723138
FRF   001.59 332.5 m E Sn      2011/07/07 19:36:53.7   0.3                          T                 .8  .17 Ml 1.8         4717262
SMRF  002.38 320.8 m E Sn      2011/07/07 19:37:18.3   6.0                          T                1.2  .31 Ml 1.9         4723136

.
