EVENT     293936
    Date      Time       Latitude Longitude    Depth    Ndef Nsta Gap    Mag1  N    Mag2  N    Mag3  N   Author         ID
       rms   OT_Error      Smajor Sminor Az        Err   mdist  Mdist     Err        Err        Err      Quality

2013/03/15 06:13:26.2     45.8457    7.3511      2.0      38    6 054  Ml 1.8  4  Md 1.8  2              bulletin    294036
                                                                                                         _ldg
      0.29   +-  0.05       1.1     .8  118.72 +-  0.0    0.14   2.34   +-0.2      +-0.0                 m i ke

NORTHERN ITALY
Sta     Dist  EvAz     Phase      Date       Time     TRes  Azim  AzRes  Slow  SRes Def   SNR       Amp   Per   Mag1   Mag2       ID
LPL   000.54 233.0 m E Pg      2013/03/15 06:13:36.8   0.0                          T                                        5225064
LPL   000.54 233.0 m E Sg      2013/03/15 06:13:43.8  -0.2                          T                3.2  .27        Md 1.7  5225061
LPG   000.55 230.6 m E Pg      2013/03/15 06:13:36.8  -0.1                          T                                        5225065
LPG   000.55 230.6 m E Sg      2013/03/15 06:13:44.0  -0.1                          T                1.6  .17        Md 1.8  5225062
CABF  001.16 311.6 m E Pg      2013/03/15 06:13:47.9  -0.1                          T                                        5225388
CABF  001.16 311.6 m E Sg      2013/03/15 06:14:03.2   0.1                          T                  1  .19 Ml 1.6         5225387
MBDF  001.19 200.3 m E Pg      2013/03/15 06:13:49.4   0.8                          T                                        5225063
MBDF  001.19 200.3 m E Sg      2013/03/15 06:14:04.0   0.0                          T                1.0  .22 Ml 1.6         5225060
SMRF  002.26 214.6 m E Pn      2013/03/15 06:14:02.7   0.0                          T                                        5225391
SMRF  002.26 214.6 m E Sn      2013/03/15 06:14:29.2  -0.3                          T                                        5225390
SMRF  002.26 214.6 m E Sg      2013/03/15 06:14:37.0  -0.1                          T                 .7  .17 Ml 1.9         5225389
FRF   002.34 192.6 m E Pn      2013/03/15 06:14:03.7  -0.1                          T                                        5225395
FRF   002.34 192.6 m E Pg      2013/03/15 06:14:09.6   0.0                          T                                        5225394
FRF   002.34 192.6 m E Sn      2013/03/15 06:14:31.5   0.0                          T                                        5225393
FRF   002.34 192.6 m E Sg      2013/03/15 06:14:39.7   0.0                          T                  1  .23 Ml 1.9         5225392

.
EVENT     293937
    Date      Time       Latitude Longitude    Depth    Ndef Nsta Gap    Mag1  N    Mag2  N    Mag3  N   Author         ID
       rms   OT_Error      Smajor Sminor Az        Err   mdist  Mdist     Err        Err        Err      Quality

2013/03/15 06:52:54.3     42.7081   -1.7320      2.0      37    5 084  Ml 2.2  3  Md 2.2  1              bulletin    294037
                                                                                                         _ldg
      1.07   +-  0.19       3.9    3.1  145.55 +-  0.0    0.13   3.79   +-0.2      +-                    m i ke

PYRENEES
Sta     Dist  EvAz     Phase      Date       Time     TRes  Azim  AzRes  Slow  SRes Def   SNR       Amp   Per   Mag1   Mag2       ID
SJPF  000.55 042.4 m E Pg      2013/03/15 06:53:03.7  -1.0                          T                                        5225398
SJPF  000.55 042.4 m E Sg      2013/03/15 06:53:12.0   0.0                          T               24.7  .21        Md 2.2  5225401
ETSF  000.88 077.2 m E Pg      2013/03/15 06:53:11.0   0.0                          T                                        5225397
ETSF  000.88 077.2 m E Sg      2013/03/15 06:53:22.2  -0.3                          T                6.3  .23 Ml 2.2         5225400
EPF   001.56 077.4 m E Pg      2013/03/15 06:53:23.1  -0.2                          T                                        5225396
EPF   001.56 077.4 m E Sg      2013/03/15 06:53:43.7   0.3                          T                                        5225399
MTLF  002.96 076.3 m E Pn      2013/03/15 06:53:41.0   0.6                          T                                        5225406
MTLF  002.96 076.3 m E Pg      2013/03/15 06:53:48.3  -0.9                          T                                        5225405
MTLF  002.96 076.3 m E Sg      2013/03/15 06:54:14.8 -12.5                          T                 .6  .16 Ml 2.0         5225404
CAF   003.53 049.8 m E Pn      2013/03/15 06:53:48.6   0.5                          T                                        5225403
CAF   003.53 049.8 m E Sn      2013/03/15 06:54:28.2   0.1                          T                1.4  .22 Ml 2.3         5225402

.
EVENT     293959
    Date      Time       Latitude Longitude    Depth    Ndef Nsta Gap    Mag1  N    Mag2  N    Mag3  N   Author         ID
       rms   OT_Error      Smajor Sminor Az        Err   mdist  Mdist     Err        Err        Err      Quality

2013/03/15 09:41:34.3     42.7544   -1.7242      2.0      25    5 103  Ml 2.1  4  Md 2.0  1              bulletin    294059
                                                                                                         _ldg
      0.41   +-  0.11       1.9    1.8  117.40 +-  0.0    0.11   3.46   +-0.3      +-                    m i ke

PYRENEES
Sta     Dist  EvAz     Phase      Date       Time     TRes  Azim  AzRes  Slow  SRes Def   SNR       Amp   Per   Mag1   Mag2       ID
SJPF  000.51 045.5 m E Pg      2013/03/15 09:41:43.7  -0.4                          T                                        5225458
SJPF  000.51 045.5 m E Sg      2013/03/15 09:41:51.3   0.4                          T               16.5  .25        Md 2.0  5225455
ETSF  000.87 080.1 m E Pg      2013/03/15 09:41:50.8   0.0                          T                                        5225457
ETSF  000.87 080.1 m E Sg      2013/03/15 09:42:02.2   0.1                          T                4.3  .25 Ml 2.0         5225454
EPF   001.54 079.0 m E Pg      2013/03/15 09:42:02.8  -0.3                          T                                        5225456
EPF   001.54 079.0 m E Sg      2013/03/15 09:42:23.4   0.4                          T                4.5  .17 Ml 2.5         5225453
MTLF  002.95 077.2 m E Pn      2013/03/15 09:42:20.2   0.0                          T                                        5225488
MTLF  002.95 077.2 m E Sn      2013/03/15 09:42:54.5   0.3                          T                1.5  .24 Ml 2.2         5225487
RJF   003.46 041.4 m E Pn      2013/03/15 09:42:27.4   0.2                          T                                        5225484
RJF   003.46 041.4 m E Sn      2013/03/15 09:43:06.8   0.5                          T                1.2  .27 Ml 1.8         5225483

.
EVENT     293994
    Date      Time       Latitude Longitude    Depth    Ndef Nsta Gap    Mag1  N    Mag2  N    Mag3  N   Author         ID
       rms   OT_Error      Smajor Sminor Az        Err   mdist  Mdist     Err        Err        Err      Quality

2013/03/15 15:01:00.4     47.6371    6.2402       .0 f    16    8 119  Ml 2.3  5  Md 2.2  2              bulletin    294094
                                                                                                         _ldg
      1.14   +-  0.11       2.1    1.8  140.81 +-  0.0    0.38   1.66   +-0.2      +-0.2                 m i km

FRANCE
Sta     Dist  EvAz     Phase      Date       Time     TRes  Azim  AzRes  Slow  SRes Def   SNR       Amp   Per   Mag1   Mag2       ID
HAU   000.38 011.1 m E Pg      2013/03/15 15:01:07.5  -0.4                          T                                        5227379
HAU   000.38 011.1 m E Sg      2013/03/15 15:01:12.7  -0.4                          T              109.1  .82        Md 2.4  5225584
HINF  000.45 066.3 m E Pg      2013/03/15 15:01:09.1  -0.2                          T                                        5225585
HINF  000.45 066.3 m E Sg      2013/03/15 15:01:15.3  -0.2                          T               47.7  .76        Md 2.1  5225581
PAGF  000.98 339.6 m E Pg      2013/03/15 15:01:19.3   0.2 166.0  6.8               T                                        5225587
PAGF  000.98 339.6 m E Sg      2013/03/15 15:01:32.0   0.0 170.2  10.9              T                                        5225588
SFTF  000.99 305.5 m E Pg      2013/03/15 15:01:19.3   0.1 125.9  1.3               T                                        5225586
SFTF  000.99 305.5 m E Sn      2013/03/15 15:01:34.2   0.1                          T                7.9  .43 Ml 2.1         5225589
CABF  001.03 185.9 m E Pg      2013/03/15 15:01:20.2   0.1                          T                                        5225583
CABF  001.03 185.9 m E Sn      2013/03/15 15:01:35.2   0.0                          T               21.3  .57 Ml 2.4         5225582
CDF   001.04 041.5 m E Pg      2013/03/15 15:01:20.5   0.2                          T                                        5225591
CDF   001.04 041.5 m E Sg      2013/03/15 15:01:34.6   0.6                          T               27.8  .78 Ml 2.5         5225590
MEZF  001.18 317.8 m E Pg      2013/03/15 15:01:22.7   0.1 135.0  -1.9              T                                        5227382
MEZF  001.18 317.8 m E Sg      2013/03/15 15:01:38.1   0.0 130.6  -6.3              T               24.2  .77 Ml 2.4         5227383
LOR   001.66 258.0 m E Pg      2013/03/15 15:01:31.4  -0.1  73.2  -3.1              T                                        5227380
LOR   001.66 258.0 m E Sg      2013/03/15 15:01:53.0  -0.1  82.0  5.8               T                5.2  .41 Ml 2.2         5227381

.
EVENT     293995
    Date      Time       Latitude Longitude    Depth    Ndef Nsta Gap    Mag1  N    Mag2  N    Mag3  N   Author         ID
       rms   OT_Error      Smajor Sminor Az        Err   mdist  Mdist     Err        Err        Err      Quality

2013/03/15 22:13:06.6     42.7352   -1.7522      2.0      22    3 105  Ml 1.7  2  Md 2.0  1              bulletin    294095
                                                                                                         _ldg
      0.53   +-  0.14       2.4    2.2  136.19 +-  0.0    0.13   2.56   +-0.3      +-                    m i ke

PYRENEES
Sta     Dist  EvAz     Phase      Date       Time     TRes  Azim  AzRes  Slow  SRes Def   SNR       Amp   Per   Mag1   Mag2       ID
SJPF  000.54 045.5 m E Pg      2013/03/15 22:13:17.5   0.6                          T                                        5225608
SJPF  000.54 045.5 m E Sg      2013/03/15 22:13:24.3   0.3                          T                5.3  .34        Md 2.0  5225607
ETSF  000.89 079.1 m E Pg      2013/03/15 22:13:23.6   0.1                          T                                        5227385
ETSF  000.89 079.1 m E Sg      2013/03/15 22:13:35.1   0.0                          T                 .9  .18 Ml 1.5         5225605
EPF   001.57 078.4 m E Pg      2013/03/15 22:13:36.0   0.1                          T                                        5227384
EPF   001.57 078.4 m E Sg      2013/03/15 22:13:56.2   0.1                          T                2.2  .32 Ml 1.9         5225603

.
EVENT     293997
    Date      Time       Latitude Longitude    Depth    Ndef Nsta Gap    Mag1  N    Mag2  N    Mag3  N   Author         ID
       rms   OT_Error      Smajor Sminor Az        Err   mdist  Mdist     Err        Err        Err      Quality

2013/03/15 23:16:17.8     42.8988     .1892      2.0       5    3 230  Ml 0.8  1  Md 1.2  2              bulletin    294097
                                                                                                         _ldg
      0.13   +-  0.23       8.6    1.4  158.31 +-  0.0    0.17   1.06   +-         +-0.1                 m i ke

PYRENEES
Sta     Dist  EvAz     Phase      Date       Time     TRes  Azim  AzRes  Slow  SRes Def   SNR       Amp   Per   Mag1   Mag2       ID
EPF   000.17 040.0 m E Pg      2013/03/15 23:16:21.4   0.0                          T                                        5225624
EPF   000.17 040.0 m E Sg      2013/03/15 23:16:23.9   0.1                          T                4.4  .18        Md 1.3  5225623
ETSF  000.55 270.2 m E Pg      2013/03/15 23:16:28.3   0.0                          T                                        5225622
ETSF  000.55 270.2 m E Sg      2013/03/15 23:16:35.9   0.3                          T                1.2  .22        Md 1.1  5225621
SJPF  001.06 282.2 m E Sg      2013/03/15 23:16:51.2  -0.2                          T                 .2  .17 Ml  .8         5227386

.
EVENT     294058
    Date      Time       Latitude Longitude    Depth    Ndef Nsta Gap    Mag1  N    Mag2  N    Mag3  N   Author         ID
       rms   OT_Error      Smajor Sminor Az        Err   mdist  Mdist     Err        Err        Err      Quality

2013/03/15 23:18:14.6     42.7168   -1.7706      2.0      20    3 158  Ml 1.3  2  Md 1.5  2              bulletin    294158
                                                                                                         _ldg
      0.46   +-  0.16       3.1    2.2   11.56 +-  0.0    0.15   1.58   +-0.3      +-0.1                 m i ke

PYRENEES
Sta     Dist  EvAz     Phase      Date       Time     TRes  Azim  AzRes  Slow  SRes Def   SNR       Amp   Per   Mag1   Mag2       ID
SJPF  000.56 045.1 m E Pg      2013/03/15 23:18:25.3  -0.1                          T                                        5226999
SJPF  000.56 045.1 m E Sg      2013/03/15 23:18:32.5  -0.2                          T                1.7  .30        Md 1.6  5226998
ETSF  000.91 078.1 m E Pg      2013/03/15 23:18:31.6  -0.2                          T                                        5226997
ETSF  000.91 078.1 m E Sg      2013/03/15 23:18:43.6   0.0                          T                 .3  .15 Ml 1.1 Md 1.4  5226996
EPF   001.58 077.9 m E Pn      2013/03/15 23:18:42.1   0.1                          T                                        5226995
EPF   001.58 077.9 m E Pg      2013/03/15 23:18:44.3   0.1                          T                                        5226994
EPF   001.58 077.9 m E Sg      2013/03/15 23:19:04.6   0.0                          T                 .6  .20 Ml 1.6         5226992

.
EVENT     293998
    Date      Time       Latitude Longitude    Depth    Ndef Nsta Gap    Mag1  N    Mag2  N    Mag3  N   Author         ID
       rms   OT_Error      Smajor Sminor Az        Err   mdist  Mdist     Err        Err        Err      Quality

2013/03/15 23:51:06.9     43.0688    -.5854      2.0      19    4 158  Ml 1.4  1  Md 1.5  3              bulletin    294098
                                                                                                         _ldg
      0.56   +-  0.16       3.8    1.9   13.25 +-  0.0    0.09   2.07   +-         +-0.0                 m i ke

PYRENEES
Sta     Dist  EvAz     Phase      Date       Time     TRes  Azim  AzRes  Slow  SRes Def   SNR       Amp   Per   Mag1   Mag2       ID
ETSF  000.17 173.5 m E Pg      2013/03/15 23:51:10.0  -0.6                          T                                        5225650
ETSF  000.17 173.5 m E Sg      2013/03/15 23:51:12.3  -0.7                          T               20.5  .24        Md 1.5  5225649
SJPF  000.47 275.6 m E Pg      2013/03/15 23:51:15.5  -0.5                          T                                        5225646
SJPF  000.47 275.6 m E Sg      2013/03/15 23:51:23.4   1.2                          T                2.3  .24        Md 1.4  5225645
EPF   000.68 092.9 m E Pg      2013/03/15 23:51:20.1   0.3                          T                                        5225648
EPF   000.68 092.9 m E Sg      2013/03/15 23:51:29.5   0.7                          T                  1  .22        Md 1.5  5225647
MTLF  002.07 081.5 m E Sg      2013/03/15 23:52:12.1   0.1                          T                 .3  .22 Ml 1.4         5227387

.
EVENT     293999
    Date      Time       Latitude Longitude    Depth    Ndef Nsta Gap    Mag1  N    Mag2  N    Mag3  N   Author         ID
       rms   OT_Error      Smajor Sminor Az        Err   mdist  Mdist     Err        Err        Err      Quality

2013/03/16 00:39:14.9     43.4401    -.6083      2.0      22    7 140  Ml 1.8  4  Md 2.0  3              bulletin    294099
                                                                                                         _ldg
      0.35   +-  0.09       1.9    1.2  131.95 +-  0.0    0.36   2.43   +-0.2      +-0.1                 m i ke

PYRENEES
Sta     Dist  EvAz     Phase      Date       Time     TRes  Azim  AzRes  Slow  SRes Def   SNR       Amp   Per   Mag1   Mag2       ID
ETSF  000.54 176.2 m E Pg      2013/03/16 00:39:24.9  -0.4                          T                                        5225656
ETSF  000.54 176.2 m E Sg      2013/03/16 00:39:32.3  -0.1                          T                3.3  .21        Md 2.0  5225652
SJPF  000.56 234.3 m E Pg      2013/03/16 00:39:25.8   0.3                          T                                        5225654
SJPF  000.56 234.3 m E Sg      2013/03/16 00:39:33.7   0.9                          T                4.3  .29        Md 2.0  5225653
EPF   000.81 120.3 m E Pg      2013/03/16 00:39:30.6   0.4                          T                                        5225655
EPF   000.81 120.3 m E Sg      2013/03/16 00:39:40.8   0.2                          T                3.1  .23        Md 1.8  5225651
LFF   001.79 032.4 m E Pg      2013/03/16 00:39:48.3   0.2                          T                                        5227391
LFF   001.79 032.4 m E Sg      2013/03/16 00:40:11.3   0.2                          T                1.9  .20 Ml 2.0         5227394
MTLF  002.06 091.8 m E Pg      2013/03/16 00:39:53.2   0.0                          T                                        5227388
MTLF  002.06 091.8 m E Sg      2013/03/16 00:40:19.8   0.0                          T                 .8  .23 Ml 1.8         5227392
RJF   002.41 038.5 m E Pg      2013/03/16 00:39:59.2  -0.3                          T                                        5227390
RJF   002.41 038.5 m E Sg      2013/03/16 00:40:30.4  -0.1                          T                 .6  .15 Ml 1.6         5227395
CAF   002.43 051.4 m E Pg      2013/03/16 00:40:00.0   0.0                          T                                        5227389
CAF   002.43 051.4 m E Sg      2013/03/16 00:40:31.4   0.1                          T                 .6  .23 Ml 1.7         5227393

.
