EVENT     265428
    Date      Time       Latitude Longitude    Depth    Ndef Nsta Gap    Mag1  N    Mag2  N    Mag3  N   Author         ID
       rms   OT_Error      Smajor Sminor Az        Err   mdist  Mdist     Err        Err        Err      Quality

2011/10/22 02:47:22.0     43.0832    -.3019      6.0 f    94   18 052  Ml 2.8 16  Md 2.8  5              js067245    265448

      0.74   +-  0.06       1.3    1.0    7.01 +-  0.0    0.07   5.51   +-0.2      +-0.1                 m i ke

PYRENEES
Sta     Dist  EvAz     Phase      Date       Time     TRes  Azim  AzRes  Slow  SRes Def   SNR       Amp   Per   Mag1   Mag2       ID
ETSF  000.26 225.7 m E Pg      2011/10/22 02:47:26.8  -0.6                          T   001.0                                4774659
ETSF  000.26 225.7 m E Sg      2011/10/22 02:47:30.2  -0.8                          T               91.5  .22        Md 2.7  4775675
EPF   000.47 096.2 m E Pg      2011/10/22 02:47:30.8  -0.3                          T   001.0                                4774641
EPF   000.47 096.2 m E Pn      2011/10/22 02:47:32.8   0.0                          T                                        4775791
EPF   000.47 096.2 m E Sg      2011/10/22 02:47:37.0  -0.4                          T               50.0  .20        Md 2.8  4775674
SJPF  000.68 272.9 m E Pg      2011/10/22 02:47:34.6  -0.3                          T   001.0                                4774664
SJPF  000.68 272.9 m E Sg      2011/10/22 02:47:42.7  -1.0                          T   001.0       18.3  .24        Md 2.7  4774665
MTLF  001.86 081.2 m E Pn      2011/10/22 02:47:53.0   0.4                          T   001.0                                4774660
MTLF  001.86 081.2 m E Pg      2011/10/22 02:47:56.7   0.1                          T   001.0                                4774661
MTLF  001.86 081.2 m E Sn      2011/10/22 02:48:15.8   0.7                          T                                Md 3.0  4775663
MTLF  001.86 081.2 m E Sg      2011/10/22 02:48:20.6   0.0                          T   001.0        8.0  .22 Ml 2.7         4774662
LFF   002.00 021.7 m E Pn      2011/10/22 02:47:54.8   0.2                          T   001.0                                4774648
LFF   002.00 021.7 m E Pg      2011/10/22 02:47:59.2   0.1                          T   001.0                                4774649
LFF   002.00 021.7 m E Sn      2011/10/22 02:48:18.6   0.2                          T   001.0                        Md 2.9  4774650
LFF   002.00 021.7 m E Sg      2011/10/22 02:48:26.3   1.3                          T   001.0       33.2  .34 Ml 3.0         4774651
CAF   002.51 042.0 m E Pn      2011/10/22 02:48:01.9   0.3                          T                                        4775678
CAF   002.51 042.0 m E Pg      2011/10/22 02:48:08.4  -0.2                          T   001.0                                4774638
CAF   002.51 042.0 m E Sn      2011/10/22 02:48:29.2  -1.5                          T   001.0                                4774639
CAF   002.51 042.0 m E Sg      2011/10/22 02:48:41.0   0.0                          T   001.0        5.6  .20 Ml 2.8         4774640
RJF   002.58 029.9 m E Pn      2011/10/22 02:48:02.1  -0.4                          T                                        4775677
RJF   002.58 029.9 m E Pg      2011/10/22 02:48:08.6  -1.2                          T   001.0                                4774631
RJF   002.58 029.9 m E Sg      2011/10/22 02:48:43.5   0.6                          T   001.0        9.3  .18 Ml 2.7         4774632
LASF  003.18 070.4 m E Pn      2011/10/22 02:48:11.6   0.9                          T   001.0                                4774642
LASF  003.18 070.4 m E Pg      2011/10/22 02:48:20.5  -0.5                          T                                        4775665
LASF  003.18 070.4 m E Sn      2011/10/22 02:48:44.6  -2.1                          T   001.0                                4774643
LASF  003.18 070.4 m E Sg      2011/10/22 02:49:02.7   0.9                          T   001.0        4.1  .24 Ml 2.7         4774644
TCF   003.67 028.3 m E Pn      2011/10/22 02:48:17.8   0.5                          T                                        4775679
TCF   003.67 028.3 m E Pg      2011/10/22 02:48:29.9  -0.1                          T                                        4775660
TCF   003.67 028.3 m E Sn      2011/10/22 02:48:56.5  -1.9                          T   001.0                                4774657
TCF   003.67 028.3 m E Sg      2011/10/22 02:49:17.5   0.4                          T   001.0        4.5  .23 Ml 2.9         4774658
BGF   004.13 031.7 m E Pn      2011/10/22 02:48:23.7   0.1                          T                                        4775673
BGF   004.13 031.7 m E Pg      2011/10/22 02:48:37.8  -0.6                          T                                        4775667
BGF   004.13 031.7 m E Sn      2011/10/22 02:49:08.1  -1.3                          T   001.0                                4774636
BGF   004.13 031.7 m E Sg      2011/10/22 02:49:31.2  -0.3                          T   001.0       13.6  .34 Ml 3.3         4774637
MFF   003.52 001.8 m E Pg      2011/10/22 02:48:27.1  -0.1                          T                                        4775662
MFF   003.52 001.8 m E Sg      2011/10/22 02:49:12.1  -0.3                          T   001.0        4.3  .28 Ml 2.9         4774655
AVF   004.52 033.7 m E Pn      2011/10/22 02:48:28.0   0.1                          T   001.0                                4774633
AVF   004.52 033.7 m E Sn      2011/10/22 02:49:18.6  -0.1                          T   001.0                                4774634
AVF   004.52 033.7 m E Sg      2011/10/22 02:49:41.7  -2.0                          T   001.0        5.5  .40 Ml 2.9         4774635
VIVF  004.00 062.0 m E Pg      2011/10/22 02:48:35.7  -0.4                          T                                        4775664
VIVF  004.00 062.0 m E Sn      2011/10/22 02:49:08.6   2.2                          T   001.0                                4774666
VIVF  004.00 062.0 m E Sg      2011/10/22 02:49:27.5   0.0                          T   001.0        1.6  .20 Ml 2.6         4774667
GRR   005.32 356.0 m E Pn      2011/10/22 02:48:39.7  -0.1                          T                                        4775661
LDF   005.51 001.2 m E Pn      2011/10/22 02:48:42.0  -0.4                          T   001.0                                4774645
LDF   005.51 001.2 m E Sn      2011/10/22 02:49:42.2  -0.1                          T   001.0                                4774646
LDF   005.51 001.2 m E Sg      2011/10/22 02:50:15.8   1.3                          T   001.0        5.4  .80 Ml 2.8         4774647
QUIF  005.24 338.4 m E Sn      2011/10/22 02:49:35.7   0.0                          T   001.0        5.7  .72 Ml 2.8         4774663
SMF   004.62 038.2 m E Sg      2011/10/22 02:49:48.2   1.5                          T   001.0        2.2  .28 Ml 2.7         4774656
LOR   005.11 033.7 m E Sg      2011/10/22 02:50:03.8   1.6                          T   001.0        2.7  .36 Ml 2.8         4774652

.
EVENT     265427
    Date      Time       Latitude Longitude    Depth    Ndef Nsta Gap    Mag1  N    Mag2  N    Mag3  N   Author         ID
       rms   OT_Error      Smajor Sminor Az        Err   mdist  Mdist     Err        Err        Err      Quality

2011/10/22 03:04:30.1     42.0142    7.6429     20.0 f    35   15 221  Ml 2.7 12  Md 2.7  5              js067245    265447

      0.63   +-  0.22       5.2    2.8     .24 +-  0.0    1.14   5.70   +-0.3      +-0.1                 m i ke

WESTERN MEDITERRANEAN SEA
Sta     Dist  EvAz     Phase      Date       Time     TRes  Azim  AzRes  Slow  SRes Def   SNR       Amp   Per   Mag1   Mag2       ID
PGF   001.14 061.6 m E Pn      2011/10/22 03:04:49.6   0.1                          T                                        4775875
PGF   001.14 061.6 m E Sn      2011/10/22 03:05:03.6   0.0                          T               29.1  .20 Ml 3.3 Md 2.7  4775874
LMR   001.56 328.0 m E Pn      2011/10/22 03:04:54.8  -0.4                          T                                        4775873
LMR   001.56 328.0 m E Sn      2011/10/22 03:05:12.2  -1.4                          T               16.8  .21 Ml 3.0 Md 2.6  4775871
FRF   001.71 335.0 m E Pn      2011/10/22 03:04:57.0  -0.2                          T                                        4775872
FRF   001.71 335.0 m E P       2011/10/22 03:04:59.4   0.0                          T                                        4775846
FRF   001.71 335.0 m E Pg      2011/10/22 03:05:02.3   0.1                          T                                        4775845
FRF   001.71 335.0 m E Sn      2011/10/22 03:05:16.0  -1.1                          T                9.3  .24 Ml 2.8 Md 2.7  4775862
SBF   001.85 355.4 m E Pn      2011/10/22 03:04:59.1  -0.2                          T                                        4775869
SBF   001.85 355.4 m E Sn      2011/10/22 03:05:20.1  -0.6                          T                9.1  .26 Ml 2.7 Md 2.7  4775870
SMRF  002.48 323.0 m E P       2011/10/22 03:05:09.9  -0.6                          T                                        4775868
SMRF  002.48 323.0 m E Sn      2011/10/22 03:05:35.8   0.3                          T                4.9  .30 Ml 2.5         4776389
MBDF  002.79 347.1 m E P       2011/10/22 03:05:14.2  -0.7                          T                                        4775856
MBDF  002.79 347.1 m E Sn      2011/10/22 03:05:43.2   0.2                          T                3.8  .41 Ml 2.4         4775850
ORIF  003.17 336.7 m E Pn      2011/10/22 03:05:17.9   0.6                          T                                        4775865
LASF  003.46 307.9 m E Pn      2011/10/22 03:05:20.7  -0.3                          T                                        4775867
LASF  003.46 307.9 m E Sn      2011/10/22 03:05:58.7  -0.2                          T                5.8  .20 Ml 3.0 Md 2.7  4775861
LPG   003.54 349.8 m E Pn      2011/10/22 03:05:22.8   0.3                          T                                        4775864
LPG   003.54 349.8 m E P       2011/10/22 03:05:26.5   0.6                          T                                        4775849
LPL   003.56 349.6 m E Pn      2011/10/22 03:05:23.1   0.4                          T                                        4775863
LPL   003.56 349.6 m E P       2011/10/22 03:05:26.0  -0.1                          T                                        4775848
VIVF  003.57 323.7 m E Pn      2011/10/22 03:05:23.4   0.8                          T                                        4775866
VIVF  003.57 323.7 m E P       2011/10/22 03:05:26.2   0.2                          T                                        4776388
VIVF  003.57 323.7 m E Sn      2011/10/22 03:06:01.8   0.2                          T                 .9  .24 Ml 2.1         4775859
MTLF  004.21 290.2 m E Pn      2011/10/22 03:05:30.9  -0.4                          T                                        4775860
MTLF  004.21 290.2 m E Sn      2011/10/22 03:06:17.5   0.5                          T                2.7  .34 Ml 2.6         4775858
CAF   004.99 307.5 m E Pn      2011/10/22 03:05:42.6   0.6                          T                                        4775857
CAF   004.99 307.5 m E Sn      2011/10/22 03:06:36.4   0.7                          T                 .5  .19 Ml 2.3         4775855
EPF   005.49 283.1 m E Pn      2011/10/22 03:05:48.9   0.1                          T                                        4775847
BGF   005.70 324.5 m E Pn      2011/10/22 03:05:51.2  -0.3                          T                                        4776387

.
EVENT     265426
    Date      Time       Latitude Longitude    Depth    Ndef Nsta Gap    Mag1  N    Mag2  N    Mag3  N   Author         ID
       rms   OT_Error      Smajor Sminor Az        Err   mdist  Mdist     Err        Err        Err      Quality

2011/10/22 03:07:49.8     48.0123   -4.4003     15.0      16    6 330  Ml 2.3  4  Md 2.2  3              js067245    265446

      0.45   +-  0.31       6.9    4.8  172.61 +-  0.0    0.82   2.91   +-0.1      +-0.2                 m i ke

FRANCE
Sta     Dist  EvAz     Phase      Date       Time     TRes  Azim  AzRes  Slow  SRes Def   SNR       Amp   Per   Mag1   Mag2       ID
ROSF  000.82 066.3 m E Pn      2011/10/22 03:08:04.8  -0.4                          T                                        4775879
ROSF  000.82 066.3 m E Pg      2011/10/22 03:08:05.4   0.0                          T                                        4775889
ROSF  000.82 066.3 m E Sg      2011/10/22 03:08:16.4   0.2                          T                4.6  .27        Md 2.1  4775886
QUIF  000.84 096.1 m E Pg      2011/10/22 03:08:05.4  -0.2                          T                                        4775887
QUIF  000.84 096.1 m E Sg      2011/10/22 03:08:16.8   0.1                          T                9.3  .22        Md 2.0  4775892
SGMF  001.26 078.2 m E Pg      2011/10/22 03:08:13.2  -0.2                          T                                        4775888
SGMF  001.26 078.2 m E Sg      2011/10/22 03:08:29.9   0.1                          T                5.3  .20 Ml 2.4 Md 2.4  4775891
GRR   002.40 079.7 m E Pn      2011/10/22 03:08:27.3   0.5                          T                                        4775883
GRR   002.40 079.7 m E P       2011/10/22 03:08:29.6   0.2                          T                                        4775882
GRR   002.40 079.7 m E Pg      2011/10/22 03:08:34.9   0.5                          T                                        4775881
GRR   002.40 079.7 m E Sg      2011/10/22 03:09:05.4   0.2                          T                3.5  .26 Ml 2.3         4775885
FLN   002.72 072.5 m E Sg      2011/10/22 03:09:14.3  -0.9                          T                4.6  .30 Ml 2.4         4775880
LDF   002.91 076.9 m E Sg      2011/10/22 03:09:21.4   0.0                          T                1.7  .24 Ml 2.2         4775884

.
EVENT     265425
    Date      Time       Latitude Longitude    Depth    Ndef Nsta Gap    Mag1  N    Mag2  N    Mag3  N   Author         ID
       rms   OT_Error      Smajor Sminor Az        Err   mdist  Mdist     Err        Err        Err      Quality

2011/10/22 03:12:19.1     42.8200     .2413      2.0       6    3 258  Ml 1.3  1  Md 1.5  2              js067245    265445

      0.42   +-  0.85      21.3    4.8  151.44 +-  0.0    0.22   1.12   +-         +-0.0                 m i ke

PYRENEES
Sta     Dist  EvAz     Phase      Date       Time     TRes  Azim  AzRes  Slow  SRes Def   SNR       Amp   Per   Mag1   Mag2       ID
EPF   000.22 019.0 m E Pg      2011/10/22 03:12:23.8   0.2                          T                                        4775900
EPF   000.22 019.0 m E Sg      2011/10/22 03:12:26.1  -0.5                          T               16.6  .22        Md 1.5  4775897
ETSF  000.59 277.9 m E Pg      2011/10/22 03:12:30.6   0.1                          T                                        4775899
ETSF  000.59 277.9 m E Sg      2011/10/22 03:12:37.8  -0.5                          T                3.2  .24        Md 1.5  4775898
SJPF  001.12 285.7 m E Pg      2011/10/22 03:12:39.6  -0.3                          T                                        4775896
SJPF  001.12 285.7 m E Sg      2011/10/22 03:12:55.3   0.9                          T                 .7  .24 Ml 1.3         4775895

.
EVENT     265424
    Date      Time       Latitude Longitude    Depth    Ndef Nsta Gap    Mag1  N    Mag2  N    Mag3  N   Author         ID
       rms   OT_Error      Smajor Sminor Az        Err   mdist  Mdist     Err        Err        Err      Quality

2011/10/22 10:37:06.4     42.7659    -.8319      2.0       6    3 247  Ml 1.1  1  Md 1.2  2              js067245    265444

      0.23   +-  0.44      11.6    2.6   12.46 +-  0.0    0.24   0.90   +-         +-0.1                 m i ke

PYRENEES
Sta     Dist  EvAz     Phase      Date       Time     TRes  Azim  AzRes  Slow  SRes Def   SNR       Amp   Per   Mag1   Mag2       ID
ETSF  000.24 056.4 m E Pg      2011/10/22 10:37:11.4   0.2                          T                                        4775904
ETSF  000.24 056.4 m E Sg      2011/10/22 10:37:14.2  -0.3                          T                8.6  .23        Md 1.3  4775903
SJPF  000.45 320.4 m E Pg      2011/10/22 10:37:14.8  -0.2                          T                                        4775901
SJPF  000.45 320.4 m E Sg      2011/10/22 10:37:21.3   0.3                          T                1.6  .22        Md 1.1  4775902
EPF   000.90 072.5 m E Pg      2011/10/22 10:37:23.4   0.0                          T                                        4776403
EPF   000.90 072.5 m E Sg      2011/10/22 10:37:34.8  -0.3                          T                 .5  .22 Ml 1.1         4776404

.
