EVENT     264536
    Date      Time       Latitude Longitude    Depth    Ndef Nsta Gap    Mag1  N    Mag2  N    Mag3  N   Author         ID
       rms   OT_Error      Smajor Sminor Az        Err   mdist  Mdist     Err        Err        Err      Quality

2011/09/29 18:18:37.9     43.0491    -.6702     10.0 f     5    3 171             Md 1.5  2              js067245    264556

      0.12   +-  0.11       4.3    1.5   23.53 +-  0.0    0.17   0.74              +-0.2                 m i ke

PYRENEES
Sta     Dist  EvAz     Phase      Date       Time     TRes  Azim  AzRes  Slow  SRes Def   SNR       Amp   Per   Mag1   Mag2       ID
ETSF  000.17 151.5 m E Pg      2011/09/29 18:18:41.7  -0.1                          T                                        4762765
ETSF  000.17 151.5 m E Sg      2011/09/29 18:18:44.6   0.1                          T                8.8  .34        Md 1.7  4762764
SJPF  000.41 279.2 m E Pg      2011/09/29 18:18:46.0   0.1                          T                                        4762762
SJPF  000.41 279.2 m E Sg      2011/09/29 18:18:51.3  -0.2                          T                2.1  .24        Md 1.4  4762763
EPF   000.74 091.1 m E Sg      2011/09/29 18:19:01.7   0.0                          T                 .4  .16                4762769

.
EVENT     264537
    Date      Time       Latitude Longitude    Depth    Ndef Nsta Gap    Mag1  N    Mag2  N    Mag3  N   Author         ID
       rms   OT_Error      Smajor Sminor Az        Err   mdist  Mdist     Err        Err        Err      Quality

2011/09/29 20:37:37.7     43.1466    -.5025      2.0       5    3 193             Md 1.1  2              js067245    264557

      0.35   +-  0.34       8.3    4.7   19.77 +-  0.0    0.25   0.63              +-0.1                 m i ke

PYRENEES
Sta     Dist  EvAz     Phase      Date       Time     TRes  Azim  AzRes  Slow  SRes Def   SNR       Amp   Per   Mag1   Mag2       ID
ETSF  000.25 189.5 m E Pg      2011/09/29 20:37:42.9   0.2                          T                                        4762774
ETSF  000.25 189.5 m E Sg      2011/09/29 20:37:45.5  -0.7                          T                3.2  .18        Md 1.2  4762773
SJPF  000.53 266.7 m E Pg      2011/09/29 20:37:47.7  -0.1                          T                                        4762771
SJPF  000.53 266.7 m E Sg      2011/09/29 20:37:54.4  -0.4                          T                 .5  .21        Md 1.1  4762772
EPF   000.63 100.4 m E Sg      2011/09/29 20:37:57.5  -0.4                          T                 .3  .23                4762770

.
EVENT     264538
    Date      Time       Latitude Longitude    Depth    Ndef Nsta Gap    Mag1  N    Mag2  N    Mag3  N   Author         ID
       rms   OT_Error      Smajor Sminor Az        Err   mdist  Mdist     Err        Err        Err      Quality

2011/09/30 00:41:26.9     45.5109    9.2668     30.0      40   19 238                                    js067245    264558

                                               +-         1.42   4.99                                    m i ke

NORTHERN ITALY
Sta     Dist  EvAz     Phase      Date       Time     TRes  Azim  AzRes  Slow  SRes Def   SNR       Amp   Per   Mag1   Mag2       ID
LPG   001.77 270.5 m E Pn      2011/09/30 00:41:53.4  -1.3                          T   001.0                                4762416
LPG   001.77 270.5 m E Sn      2011/09/30 00:42:15.5   0.5                          T   001.0                                4762417
LPG   001.77 270.5 m E Sg      2011/09/30 00:42:16.5   1.5                          T   001.0        6.1  .32                4762418
LPL   001.78 271.1 m E Pn      2011/09/30 00:41:54.9   0.1                          T   001.0                                4762419
LPL   001.78 271.1 m E Sn      2011/09/30 00:42:15.5   0.3                          T   001.0       11.5  .48                4762420
MBDF  001.93 247.0 m E Pn      2011/09/30 00:41:55.9  -0.8                          T   001.0                                4762433
MBDF  001.93 247.0 m E Sn      2011/09/30 00:42:19.0   0.3                          T   001.0        4.4  .24                4762434
SBF   002.10 219.1 m E Pn      2011/09/30 00:41:58.9   0.0                          T   001.0                                4762421
SBF   002.10 219.1 m E Sn      2011/09/30 00:42:23.5   0.9                          T   001.0        7.8  .32                4762422
CABF  002.47 297.6 m E Pn      2011/09/30 00:42:04.4   0.4                          T   001.0                                4762429
CABF  002.47 297.6 m E Sn      2011/09/30 00:42:30.0  -1.4                          T   001.0        2.5  .24                4762430
ORIF  002.47 257.3 m E Pn      2011/09/30 00:42:05.9   2.0                          T   001.0                                4762435
ORIF  002.47 257.3 m E Sn      2011/09/30 00:42:33.5   2.2                          T   001.0        9.2  .36                4762436
FRF   002.70 224.8 m E Pn      2011/09/30 00:42:06.4  -0.6                          T   001.0                                4762409
FRF   002.70 224.8 m E Sn      2011/09/30 00:42:37.0   1.2                          T   001.0        2.8  .24                4762410
HINF  002.84 325.1 m E Pn      2011/09/30 00:42:08.4  -0.6                          T   001.0                                4762431
HINF  002.84 325.1 m E Sn      2011/09/30 00:42:40.1  -0.1                          T   001.0        7.4  .20                4762432
LMR   002.94 223.2 m E Pn      2011/09/30 00:42:10.4   0.2                          T   001.0                                4762413
SMRF  003.05 241.0 m E Pn      2011/09/30 00:42:12.5   0.8                          T   001.0                                4762439
SMRF  003.05 241.0 m E Sn      2011/09/30 00:42:45.6   0.6                          T   001.0        1.4  .24                4762440
CDF   003.21 335.6 m E Pn      2011/09/30 00:42:13.0   0.1                          T   001.0                                4762407
CDF   003.21 335.6 m E Sn      2011/09/30 00:42:47.6  -1.3                          T   001.0        8.9  .28                4762408
HAU   003.20 322.3 m E Pn      2011/09/30 00:42:15.0   1.2                          T   001.0                                4762411
VIVF  003.31 260.2 m E Pn      2011/09/30 00:42:15.0  -0.3                          T   001.0                                4762437
HAU   003.20 322.3 m E Sn      2011/09/30 00:42:47.1  -1.6                          T   001.0       28.1  .20                4762412
VIVF  003.31 260.2 m E Sn      2011/09/30 00:42:52.1   0.7                          T   001.0        2.3  .48                4762438
SMF   003.94 288.7 m E Pn      2011/09/30 00:42:25.0   1.2                          T   001.0                                4762423
SMF   003.94 288.7 m E Sn      2011/09/30 00:43:05.6  -0.8                          T   001.0        2.8  .28                4762424
LOR   004.13 297.1 m E Pn      2011/09/30 00:42:27.0   0.5                          T   001.0                                4762414
LOR   004.13 297.1 m E Sn      2011/09/30 00:43:09.2  -1.8                          T   001.0        3.3  .24                4762415
SSF   004.28 293.3 m E Pn      2011/09/30 00:42:28.5   0.0                          T   001.0                                4762425
SSF   004.28 293.3 m E Sn      2011/09/30 00:43:12.2  -2.3                          T   001.0        1.8  .32                4762426
AVF   004.30 289.4 m E Pn      2011/09/30 00:42:29.5   0.8                          T   001.0                                4762403
AVF   004.30 289.4 m E Sn      2011/09/30 00:43:15.7   0.7                          T   001.0        1.5  .52                4762404
BGF   004.59 285.5 m E Pn      2011/09/30 00:42:32.5  -0.2                          T   001.0                                4762405
BGF   004.59 285.5 m E Sn      2011/09/30 00:43:22.2   0.3                          T   001.0        2.5  .36                4762406
TCF   004.99 281.5 m E Pn      2011/09/30 00:42:37.5  -0.6                          T   001.0                                4762427
TCF   004.99 281.5 m E Sn      2011/09/30 00:43:31.7   0.4                          T   001.0        1.5  .36                4762428

.
EVENT     264555
    Date      Time       Latitude Longitude    Depth    Ndef Nsta Gap    Mag1  N    Mag2  N    Mag3  N   Author         ID
       rms   OT_Error      Smajor Sminor Az        Err   mdist  Mdist     Err        Err        Err      Quality

2011/09/30 04:28:31.0     42.8841   -1.2002      2.0      15    3 086  Ml 0.8  1  Md 1.0  2              js067245    264575

      0.44   +-  0.12       2.7    2.3  138.56 +-  0.0    0.05   1.14   +-         +-0.0                 m i ke

PYRENEES
Sta     Dist  EvAz     Phase      Date       Time     TRes  Azim  AzRes  Slow  SRes Def   SNR       Amp   Per   Mag1   Mag2       ID
SJPF  000.23 355.5 m E Pg      2011/09/30 04:28:35.8   0.2                          T                                        4762821
SJPF  000.23 355.5 m E Sg      2011/09/30 04:28:38.9   0.2                          T                 .5  .29        Md 1.0  4762808
ETSF  000.47 088.0 m E Pg      2011/09/30 04:28:39.6  -0.5                          T                                        4762820
ETSF  000.47 088.0 m E Sg      2011/09/30 04:28:46.5   0.2                          T                 .4  .29        Md 1.0  4762819
EPF   001.14 082.1 m E Sg      2011/09/30 04:29:07.2   0.0                          T                 .2  .21 Ml  .8         4769969

.
EVENT     264587
    Date      Time       Latitude Longitude    Depth    Ndef Nsta Gap    Mag1  N    Mag2  N    Mag3  N   Author         ID
       rms   OT_Error      Smajor Sminor Az        Err   mdist  Mdist     Err        Err        Err      Quality

2011/09/30 07:48:20.2     45.7027    7.7594      2.0       9    3 160  Ml 1.9  1  Md 1.9  2              js067245    264607

      0.34   +-  0.13       3.5    1.9  112.28 +-  0.0    0.19   1.20   +-         +-0.0                 m i ke

NORTHERN ITALY
Sta     Dist  EvAz     Phase      Date       Time     TRes  Azim  AzRes  Slow  SRes Def   SNR       Amp   Per   Mag1   Mag2       ID
LPG   000.74 254.2 m E Pg      2011/09/30 07:48:34.6   0.2                          T                                        4762951
LPG   000.74 254.2 m E Sg      2011/09/30 07:48:43.4  -0.7                          T                3.4  .20        Md 1.9  4762949
LPL   000.74 255.9 m E Pg      2011/09/30 07:48:34.7   0.2                          T                                        4762953
LPL   000.74 255.9 m E Sg      2011/09/30 07:48:43.4  -0.8                          T                4.8  .30        Md 1.9  4762952
MBDF  001.20 215.9 m E Pg      2011/09/30 07:48:42.5  -0.3                          T                                        4762950
MBDF  001.20 215.9 m E Sg      2011/09/30 07:48:58.8   0.4                          T                3.5  .33 Ml 1.9         4762948

.
EVENT     264557
    Date      Time       Latitude Longitude    Depth    Ndef Nsta Gap    Mag1  N    Mag2  N    Mag3  N   Author         ID
       rms   OT_Error      Smajor Sminor Az        Err   mdist  Mdist     Err        Err        Err      Quality

2011/09/30 09:58:51.1     47.5618    6.0001       .0 f    19   11 110  Ml 2.0  7  Md 2.1  2              js067245    264577

      0.86   +-  0.09       1.9    1.3  130.82 +-  0.0    0.50   1.96   +-0.2      +-0.1                 m i km

FRANCE
Sta     Dist  EvAz     Phase      Date       Time     TRes  Azim  AzRes  Slow  SRes Def   SNR       Amp   Per   Mag1   Mag2       ID
HAU   000.50 027.7 m E Pg      2011/09/30 09:59:00.9  -0.1                          T                                        4762783
HAU   000.50 027.7 m E Sg      2011/09/30 09:59:07.9   0.1                          T               15.9  .46        Md 2.0  4762782
HINF  000.63 065.8 m E Pg      2011/09/30 09:59:03.3  -0.1                          T                                        4769684
HINF  000.63 065.8 m E Sg      2011/09/30 09:59:11.5  -0.3                          T               35.8  .90                4762781
THEF  000.67 359.6 m E Pg      2011/09/30 09:59:04.3   0.3                          T                                        4762776
THEF  000.67 359.6 m E Sg      2011/09/30 09:59:12.7  -0.2                          T                8.8  .23        Md 2.2  4762777
CABF  000.95 176.4 m E Pg      2011/09/30 09:59:09.4   0.1                          T                                        4762779
CABF  000.95 176.4 m E Sg      2011/09/30 09:59:21.4  -0.5                          T                5.3  .29 Ml 2.1         4762780
PAGF  001.01 349.6 m E Pg      2011/09/30 09:59:10.4   0.1                          T                                        4769683
PAGF  001.01 349.6 m E Sn      2011/09/30 09:59:25.3   0.0 158.8  -10.6             T                2.9  .48 Ml 1.6         4769689
MEZF  001.14 326.3 m E Pg      2011/09/30 09:59:11.9  -0.6 147.4  1.8               T                                        4769682
MEZF  001.14 326.3 m E Sn      2011/09/30 09:59:28.1  -0.2 142.2  -3.4              T                4.9  .30 Ml 2.1         4769688
CDF   001.21 044.7 m E Pg      2011/09/30 09:59:14.1   0.1                          T                                        4769681
CDF   001.21 044.7 m E Sg      2011/09/30 09:59:30.3   0.4                          T                2.7  .26 Ml 2.0         4762778
LOR   001.48 259.4 m E Pg      2011/09/30 09:59:19.2   0.2  83.5  5.7               T                                        4769680
LOR   001.48 259.4 m E Sg      2011/09/30 09:59:38.2  -0.2  79.3  1.5               T                2.3  .18 Ml 2.2         4769690
SFTF  000.91 315.2 m E Sn      2011/09/30 09:59:23.0   0.0                          T                9.9  .41 Ml 2.2         4769687
AVF   001.96 247.8 m E Pg      2011/09/30 09:59:28.0   0.2                          T                                        4769685
SMF   001.74 238.9 m E Sg      2011/09/30 09:59:46.3   0.0                          T                3.0  .38 Ml 2.1         4769686

.
EVENT     264588
    Date      Time       Latitude Longitude    Depth    Ndef Nsta Gap    Mag1  N    Mag2  N    Mag3  N   Author         ID
       rms   OT_Error      Smajor Sminor Az        Err   mdist  Mdist     Err        Err        Err      Quality

2011/09/30 15:02:24.5     46.2068    7.2189       .0 f    16   10 200  Ml 2.4  8  Md 2.1  3              js067245    264608

      0.29   +-  0.15       3.3    1.2   90.87 +-  0.0    0.77   2.38   +-0.1      +-0.1                 m i km

SWITZERLAND
Sta     Dist  EvAz     Phase      Date       Time     TRes  Azim  AzRes  Slow  SRes Def   SNR       Amp   Per   Mag1   Mag2       ID
LPL   000.77 206.4 m E Pg      2011/09/30 15:02:39.6   0.0                          T                                        4762943
LPL   000.77 206.4 m E Sg      2011/09/30 15:02:50.0   0.2                          T                9.2  .54        Md 2.0  4769986
LPG   000.78 204.9 m E Pg      2011/09/30 15:02:39.8   0.0                          T                                        4762944
LPG   000.78 204.9 m E Sg      2011/09/30 15:02:50.3   0.1                          T               23.5  .72        Md 2.1  4769985
CABF  000.88 297.7 m E Pg      2011/09/30 15:02:41.1  -0.3                          T                                        4769995
CABF  000.88 297.7 m E Sg      2011/09/30 15:02:53.7   0.6                          T               41.5  .80 Ml 2.5 Md 2.1  4769996
MBDF  001.51 192.2 m E Pg      2011/09/30 15:02:54.1   0.9                          T                                        4762942
MBDF  001.51 192.2 m E Sg      2011/09/30 15:03:12.7  -0.2                          T               20.5  .70 Ml 2.5         4769988
ORIF  001.60 216.6 m E Pg      2011/09/30 15:02:54.8   0.1                          T                                        4762941
ORIF  001.60 216.6 m E Sg      2011/09/30 15:03:15.6   0.1                          T               14.1  .45 Ml 2.6         4769987
HINF  001.63 351.3 m E Pg      2011/09/30 15:02:55.1  -0.1                          T                                        4769991
HINF  001.63 351.3 m E Sg      2011/09/30 15:03:16.7   0.3                          T                3.2  .27 Ml 2.2         4769994
HAU   001.90 342.0 m E Sg      2011/09/30 15:03:25.5   0.8                          T                4.2  .22 Ml 2.2         4769992
VIVF  002.24 233.9 m E Sn      2011/09/30 15:03:28.4   0.2                          T                5.7  .39 Ml 2.4         4769989
THEF  002.19 338.0 m E Sg      2011/09/30 15:03:33.6  -0.3                          T                7.2  .35 Ml 2.6         4769993
SMF   002.38 281.8 m E Sg      2011/09/30 15:03:39.3  -0.4                          T                5.2  .35 Ml 2.5         4769990

.
