BEGIN GSE2.0
MSG_TYPE DATA
MSG_ID 13-APR-1112:09:43  FRA_NDC
E-MAIL
DATA_TYPE BULLETIN
Reviewed Bulletin (REB) # P2011-014  from French NDC for regional phases     PERIOD 06 APR 2011 TO 12 APR 2011 C M., J-P S
EVENT     257983
    Date      Time       Latitude Longitude    Depth    Ndef Nsta Gap    Mag1  N    Mag2  N    Mag3  N   Author         ID
       rms   OT_Error      Smajor Sminor Az        Err   mdist  Mdist     Err        Err        Err      Quality

2011/04/06 02:46:53.5     48.4560    9.0856      7.0 f    18    7 058  Ml 1.8  6  Md 1.9  2              js067245    257983

      0.60   +-  0.06       1.2    1.1    4.57 +-  0.0    0.07   2.24   +-0.4      +-0.4                 m i ke

GERMANY
Sta     Dist  EvAz     Phase      Date       Time     TRes  Azim  AzRes  Slow  SRes Def   SNR       Amp   Per   Mag1   Mag2       ID
LANF  001.00 302.2 m E Pg      2011/04/06 02:47:12.2  -0.1                          T                                        4670413
LANF  001.00 302.2 m E Sg      2011/04/06 02:47:25.2   0.0                          T                                        4670402
LANF  001.00 302.2 m E Sn      2011/04/06 02:47:26.0   0.1                          T                4.1  .19 Ml 2.2 Md 2.2  4670403
CDF   001.21 268.6 m E Pg      2011/04/06 02:47:16.3   0.1                          T                                        4670412
CDF   001.21 268.6 m E Sg      2011/04/06 02:47:32.0   0.2                          T                3.0  .18 Ml 2.2 Md 1.6  4670404
HINF  001.63 247.7 m E Pg      2011/04/06 02:47:23.8  -0.1                          T                                        4670410
HINF  001.63 247.7 m E Sn      2011/04/06 02:47:40.8  -0.1                          T                                        4670409
HINF  001.63 247.7 m E Sg      2011/04/06 02:47:44.7  -0.2                          T                1.4  .30 Ml 1.8         4670408
HAU   001.88 257.2 m E Pg      2011/04/06 02:47:28.6   0.0                          T                                        4670411
HAU   001.88 257.2 m E Sg      2011/04/06 02:47:53.2   0.3                          T                2.0  .33 Ml 1.7         4670407
RUP   001.82 313.9 m E Sg      2011/04/06 02:47:51.2   0.1                          T                                        4670401
THEF  002.08 264.8 m E Sg      2011/04/06 02:47:59.1   0.2                          T                 .8  .14 Ml 2.0         4670406
PAGF  002.24 273.8 m E Sg      2011/04/06 02:48:04.0   0.1 104.2  12.9              T                 .2  .23 Ml 1.2         4670405

.
EVENT     257971
    Date      Time       Latitude Longitude    Depth    Ndef Nsta Gap    Mag1  N    Mag2  N    Mag3  N   Author         ID
       rms   OT_Error      Smajor Sminor Az        Err   mdist  Mdist     Err        Err        Err      Quality

2011/04/06 03:31:47.0     44.3833    7.3367      2.0      31   11 166  Ml 2.2 10  Md 2.5  4              js067245    257971

      1.57   +-  0.16       3.6    1.8   67.09 +-  0.0    0.49   2.52   +-0.4      +-0.1                 m i ke

NORTHERN ITALY
Sta     Dist  EvAz     Phase      Date       Time     TRes  Azim  AzRes  Slow  SRes Def   SNR       Amp   Per   Mag1   Mag2       ID
SBF   000.52 172.2 m E Pg      2011/04/06 03:31:57.4   0.4                          T                                        4670427
SBF   000.52 172.2 m E Sg      2011/04/06 03:32:04.5   0.5                          T               62.6  .26        Md 2.6  4670422
MBDF  000.53 310.6 m E Pg      2011/04/06 03:31:57.5   0.3                          T                                        4670437
MBDF  000.53 310.6 m E Sg      2011/04/06 03:32:05.1   0.9                          T               29.0  .18        Md 2.5  4670425
FRF   000.96 211.4 m E Pg      2011/04/06 03:32:04.6  -0.4                          T                                        4670429
FRF   000.96 211.4 m E Pn      2011/04/06 03:32:05.3  -0.6                          T                                        4670430
FRF   000.96 211.4 m E Sg      2011/04/06 03:32:17.0  -0.5                          T               14.7  .24 Ml 2.6 Md 2.5  4670421
ORIF  001.17 297.7 m E Pg      2011/04/06 03:32:09.0   0.0                          T                                        4670434
ORIF  001.17 297.7 m E Sg      2011/04/06 03:32:23.7  -0.4                          T                7.0  .22 Ml 2.4 Md 2.3  4670424
LMR   001.21 210.0 m E Pg      2011/04/06 03:32:09.3  -0.3                          T                                        4670428
LMR   001.21 210.0 m E Sg      2011/04/06 03:32:24.6  -0.6                          T               24.9  .30 Ml 2.8         4670423
LPG   001.19 339.7 m E Pg      2011/04/06 03:32:09.5  -0.1                          T                                        4670432
LPG   001.19 339.7 m E Sg      2011/04/06 03:32:24.9  -0.1                          T                2.3  .23 Ml 1.9         4670438
LPL   001.21 339.5 m E Pg      2011/04/06 03:32:09.9   0.0                          T                                        4670433
LPL   001.21 339.5 m E Sg      2011/04/06 03:32:25.5  -0.1                          T                3.0  .27 Ml 2.0         4670439
SMRF  001.33 252.8 m E Pg      2011/04/06 03:32:12.1   0.3                          T                                        4670431
SMRF  001.33 252.8 m E Sg      2011/04/06 03:32:29.0  -0.1                          T               14.9  .40 Ml 2.5         4670420
VIVF  001.96 284.9 m E Pn      2011/04/06 03:32:19.6   0.1                          T                                        4670436
VIVF  001.96 284.9 m E P       2011/04/06 03:32:21.4  -0.3                          T                                        4670443
VIVF  001.96 284.9 m E Sn      2011/04/06 03:32:42.9  -0.3                          T                 .8  .20 Ml 1.8         4670442
VIVF  001.96 284.9 m E Sg      2011/04/06 03:32:48.5  -0.2                          T                2.7  .30 Ml 2.2         4670441
PGF   002.20 146.0 m E Pn      2011/04/06 03:32:22.7  -0.1                          T                                        4670426
PGF   002.20 146.0 m E Sn      2011/04/06 03:32:49.0   0.0                          T                1.3  .25 Ml 2.2         4670419
LASF  002.52 264.2 m E Pn      2011/04/06 03:32:27.6   0.5                          T                                        4670435
LASF  002.52 264.2 m E Sn      2011/04/06 03:32:56.2  -0.4                          T                 .9  .25 Ml 1.9         4670440

.
EVENT     257969
    Date      Time       Latitude Longitude    Depth    Ndef Nsta Gap    Mag1  N    Mag2  N    Mag3  N   Author         ID
       rms   OT_Error      Smajor Sminor Az        Err   mdist  Mdist     Err        Err        Err      Quality

2011/04/06 03:43:57.7     35.8576   -4.4626    100.0 f    85    6 215  Ml 2.8  2                         js067245    257969

      1.27   +-  0.36       8.0    3.8  169.93 +-  0.0    0.74  12.50   +-0.1                            m i ke

STRAIT OF GIBRALTAR
Sta     Dist  EvAz     Phase      Date       Time     TRes  Azim  AzRes  Slow  SRes Def   SNR       Amp   Per   Mag1   Mag2       ID
SJPF  007.67 018.1 m E P       2011/04/06 03:45:47.8  -0.5                          T                                        4670449
SJPF  007.67 018.1 m E Sn      2011/04/06 03:47:07.7   0.2                          T                1.1  .33 Ml 2.9         4670444
ETSF  007.65 022.1 m E P       2011/04/06 03:45:48.8   0.6                          T                                        4670448
ETSF  007.65 022.1 m E Sn      2011/04/06 03:47:07.3   0.0                          T                 .4  .21 Ml 2.7         4670445
EPF   008.07 025.9 m E Pn      2011/04/06 03:45:51.5  -0.1                          T                                        4670447
QUIF  012.09 004.2 m E P       2011/04/06 03:46:47.3  -0.3                          T                                        4670450
SGMF  012.47 005.9 m E P       2011/04/06 03:46:52.1  -0.5                          T                                        4670451
ROSF  012.50 003.7 m E P       2011/04/06 03:46:53.8   0.8                          T                                        4670452

.
EVENT     258094
    Date      Time       Latitude Longitude    Depth    Ndef Nsta Gap    Mag1  N    Mag2  N    Mag3  N   Author         ID
       rms   OT_Error      Smajor Sminor Az        Err   mdist  Mdist     Err        Err        Err      Quality

2011/04/06 04:05:40.8     44.3739    7.3171      2.0      19    9 189  Ml 1.9  9  Md 1.9  2              js067245    258094

      1.14   +-  0.17       3.4    1.6   76.38 +-  0.0    0.52   1.95   +-0.3      +-0.1                 m i ke

NORTHERN ITALY
Sta     Dist  EvAz     Phase      Date       Time     TRes  Azim  AzRes  Slow  SRes Def   SNR       Amp   Per   Mag1   Mag2       ID
SBF   000.52 170.5 m E Pg      2011/04/06 04:05:50.9   0.2                          T                                        4670471
SBF   000.52 170.5 m E Sg      2011/04/06 04:05:57.8   0.3                          T               15.5  .25        Md 2.0  4670470
MBDF  000.53 312.3 m E Pg      2011/04/06 04:05:51.0   0.1                          T                                        4670476
MBDF  000.53 312.3 m E Sg      2011/04/06 04:05:58.6   0.7                          T                9.6  .18        Md 1.8  4670469
FRF   000.95 211.0 m E Pg      2011/04/06 04:05:58.4  -0.1                          T                                        4670474
FRF   000.95 211.0 m E Sg      2011/04/06 04:06:10.5  -0.4                          T                4.5  .26 Ml 2.1         4670462
FRF   000.95 211.0 m E Sn      2011/04/06 04:06:12.8   0.0                          T                5.1  .20 Ml 2.2         4670463
LMR   001.19 209.6 m E Pg      2011/04/06 04:06:02.9  -0.2                          T                                        4670472
LMR   001.19 209.6 m E Sg      2011/04/06 04:06:18.4  -0.1                          T                7.1  .23 Ml 2.4         4670461
LPG   001.19 340.5 m E Pg      2011/04/06 04:06:03.2  -0.2                          T                                        4670475
LPG   001.19 340.5 m E Sg      2011/04/06 04:06:18.9   0.0                          T                 .5  .19 Ml 1.4         4670465
SMRF  001.31 253.0 m E Pg      2011/04/06 04:06:05.7   0.4                          T                                        4670473
SMRF  001.31 253.0 m E Sg      2011/04/06 04:06:22.8   0.4                          T                4.5  .35 Ml 2.1         4670464
VIVF  001.95 285.2 m E Pg      2011/04/06 04:06:16.8  -0.2                          T                                        4670460
VIVF  001.95 285.2 m E Sg      2011/04/06 04:06:42.4   0.2                          T                 .9  .27 Ml 1.7         4670468
ORIF  001.16 298.5 m E Sg      2011/04/06 04:06:17.5  -0.2                          T                2.3  .22 Ml 1.9         4670467
LPL   001.22 340.2 m E Sg      2011/04/06 04:06:19.3  -0.2                          T                 .7  .20 Ml 1.4         4670466

.
EVENT     257970
    Date      Time       Latitude Longitude    Depth    Ndef Nsta Gap    Mag1  N    Mag2  N    Mag3  N   Author         ID
       rms   OT_Error      Smajor Sminor Az        Err   mdist  Mdist     Err        Err        Err      Quality

2011/04/06 04:58:26.6     42.8733    -.7619     15.0       7    4 225  Ml 1.3  1  Md 1.2  2              js067245    257970

      0.43   +-  0.63      26.8    3.8   11.12 +-  0.0    0.15   2.23   +-         +-0.2                 m i ke

PYRENEES
Sta     Dist  EvAz     Phase      Date       Time     TRes  Azim  AzRes  Slow  SRes Def   SNR       Amp   Per   Mag1   Mag2       ID
ETSF  000.15 080.3 m E Pg      2011/04/06 04:58:30.5  -0.2                          T                                        4670481
ETSF  000.15 080.3 m E Sg      2011/04/06 04:58:33.3  -0.2                          T                9.0  .20        Md 1.3  4670482
SJPF  000.42 305.4 m E Pg      2011/04/06 04:58:34.7  -0.3                          T                                        4670479
SJPF  000.42 305.4 m E Sg      2011/04/06 04:58:41.2   0.5                          T                 .8  .22        Md 1.0  4670480
EPF   000.82 078.6 m E Pg      2011/04/06 04:58:42.8   0.4                          T                                        4670477
EPF   000.82 078.6 m E Sg      2011/04/06 04:58:52.2  -1.0                          T                 .6  .25                4670478
MTLF  002.23 076.9 m E Sg      2011/04/06 04:59:37.0   0.1                          T                 .2  .19 Ml 1.3         4673140

.
