BEGIN GSE2.0
MSG_TYPE DATA
MSG_ID 26-MAR-1314:47:18  FRA_NDC
E-MAIL
DATA_TYPE BULLETIN
Reviewed Bulletin (REB) # P2013-011  from French NDC for regional phases     PERIOD 13 MAR 2013 TO 19 MAR 2013 Cenalt JP S
EVENT     293756
    Date      Time       Latitude Longitude    Depth    Ndef Nsta Gap    Mag1  N    Mag2  N    Mag3  N   Author         ID
       rms   OT_Error      Smajor Sminor Az        Err   mdist  Mdist     Err        Err        Err      Quality

2013/03/13 07:03:09.1     42.9691     .2736     10.0 f    89   14 041  Ml 2.6 15  Md 2.8  2              bulletin    293856
                                                                                                         _ldg
      0.63   +-  0.06       1.2    1.1   29.94 +-  0.0    0.08   5.65   +-0.4      +-0.0                 m i ke

PYRENEES
Sta     Dist  EvAz     Phase      Date       Time     TRes  Azim  AzRes  Slow  SRes Def   SNR       Amp   Per   Mag1   Mag2       ID
EPF   000.08 038.5 m E Pg      2013/03/13 07:03:11.9   0.2                          T                                        5223354
EPF   000.08 038.5 m E Sg      2013/03/13 07:03:14.0   0.6                          T   001.0      382.7  .15        Md 2.8  5223335
ETSF  000.62 263.7 m E Pg      2013/03/13 07:03:20.6  -0.4                          T   001.0                                5223343
ETSF  000.62 263.7 m E Sg      2013/03/13 07:03:28.6  -0.5                          T   001.0      172.3  .28        Md 2.8  5223344
SJPF  001.11 278.0 m E Pg      2013/03/13 07:03:29.9  -0.1                          T   001.0                                5223350
SJPF  001.11 278.0 m E Sg      2013/03/13 07:03:44.2  -0.2                          T   001.0       12.9  .25 Ml 2.6         5223351
MTLF  001.47 074.7 m E Pn      2013/03/13 07:03:34.8   0.7                          T                                        5223355
MTLF  001.47 074.7 m E Pg      2013/03/13 07:03:36.8   0.2                          T   001.0                                5223345
MTLF  001.47 074.7 m E Sn      2013/03/13 07:03:53.2   1.0                          T                1.8  .23 Ml 1.9         5223356
MTLF  001.47 074.7 m E Sg      2013/03/13 07:03:55.5  -0.1                          T   001.0        4.1  .21 Ml 2.3         5223347
LFF   002.00 009.5 m E Pn      2013/03/13 07:03:42.1   0.8                          T                                        5223360
LFF   002.00 009.5 m E Pg      2013/03/13 07:03:46.3   0.0                          T   001.0                                5223339
LFF   002.00 009.5 m E Sn      2013/03/13 07:04:05.6   0.8                          T                                        5223361
LFF   002.00 009.5 m E Sg      2013/03/13 07:04:11.8  -0.2                          T   001.0       30.5  .35 Ml 3.0         5223340
CAF   002.34 032.9 m E Pn      2013/03/13 07:03:46.7   0.6                          T   001.0                                5223331
CAF   002.34 032.9 m E Pg      2013/03/13 07:03:52.5  -0.2                          T   001.0                                5223332
CAF   002.34 032.9 m E Sn      2013/03/13 07:04:13.1   0.0                          T   001.0                                5223333
CAF   002.34 032.9 m E Sg      2013/03/13 07:04:22.1  -0.8                          T   001.0        3.5  .14 Ml 2.7         5223334
RJF   002.50 020.5 m E Pn      2013/03/13 07:03:48.4   0.3                          T                                        5223359
RJF   002.50 020.5 m E Pg      2013/03/13 07:03:55.1  -0.4                          T   001.0                                5223338
RJF   002.50 020.5 m E Sg      2013/03/13 07:04:26.4  -1.3                          T   001.0        9.1  .22 Ml 2.6         5223328
LASF  002.83 065.8 m E Pn      2013/03/13 07:03:53.1   0.4                          T   001.0                                5223336
LASF  002.83 065.8 m E Pg      2013/03/13 07:04:01.6  -0.1                          T                                        5223357
LASF  002.83 065.8 m E Sn      2013/03/13 07:04:25.6   0.9                          T                 .6  .20 Ml 1.9         5223358
LASF  002.83 065.8 m E Sg      2013/03/13 07:04:37.8  -0.3                          T   001.0        4.3  .23 Ml 2.7         5223337
TCF   003.59 021.9 m E Pn      2013/03/13 07:04:03.7   0.7                          T                                        5223368
TCF   003.59 021.9 m E Pg      2013/03/13 07:04:15.0  -0.7                          T                                        5223367
TCF   003.59 021.9 m E Sn      2013/03/13 07:04:43.5   0.5                          T                                        5223369
TCF   003.59 021.9 m E Sg      2013/03/13 07:05:01.3  -0.6                          T   001.0        1.9  .18 Ml 2.6         5223342
MFF   003.65 355.4 m E Pn      2013/03/13 07:04:03.9   0.2                          T                                        5223371
MFF   003.65 355.4 m E Pg      2013/03/13 07:04:15.8  -0.8                          T                                        5223370
MFF   003.65 355.4 m E Sg      2013/03/13 07:05:02.2  -1.2                          T   001.0        3.5  .27 Ml 2.8         5223341
VIVF  003.70 057.8 m E Pn      2013/03/13 07:04:05.6   1.1                          T                                        5223363
VIVF  003.70 057.8 m E Pg      2013/03/13 07:04:17.7   0.1                          T                                        5223362
VIVF  003.70 057.8 m E Sn      2013/03/13 07:04:46.4   0.9                          T                 .4  .20 Ml 1.9         5223419
VIVF  003.70 057.8 m E Sg      2013/03/13 07:05:04.7  -0.4                          T   001.0        2.7  .27 Ml 2.6         5223353
BGF   004.03 026.2 m E Pn      2013/03/13 07:04:09.8   0.9                          T                                        5223481
BGF   004.03 026.2 m E Pg      2013/03/13 07:04:24.0   0.3                          T                                        5223482
BGF   004.03 026.2 m E Sn      2013/03/13 07:04:53.5   0.1                          T                                        5223483
BGF   004.03 026.2 m E Sg      2013/03/13 07:05:14.1  -1.3                          T   001.0        9.7  .32 Ml 3.1         5223330
AVF   004.40 028.7 m E Pn      2013/03/13 07:04:14.8   0.8                          T                                        5223365
AVF   004.40 028.7 m E Pg      2013/03/13 07:04:29.5  -1.1                          T                                        5223364
AVF   004.40 028.7 m E Sn      2013/03/13 07:05:02.5   0.2                          T                                        5223366
AVF   004.40 028.7 m E Sg      2013/03/13 07:05:26.0  -1.1                          T   001.0        4.6  .48 Ml 2.7         5223329
SGMF  005.65 340.4 m E Pn      2013/03/13 07:04:31.0   0.1                          T   001.0                                5223348
SGMF  005.65 340.4 m E Sn      2013/03/13 07:05:32.5   0.5                          T   001.0       11.6  .88 Ml 3.1         5223349

.
EVENT     293757
    Date      Time       Latitude Longitude    Depth    Ndef Nsta Gap    Mag1  N    Mag2  N    Mag3  N   Author         ID
       rms   OT_Error      Smajor Sminor Az        Err   mdist  Mdist     Err        Err        Err      Quality

2013/03/13 07:19:48.2     42.6691   -1.7753      2.0      25    6 290  Ml 1.8  6  Md 2.1  2              bulletin    293857
                                                                                                         _ldg
      0.48   +-  0.33       5.2    4.1   57.27 +-  0.0    0.18   3.55   +-0.2      +-0.0                 m i ke

PYRENEES
Sta     Dist  EvAz     Phase      Date       Time     TRes  Azim  AzRes  Slow  SRes Def   SNR       Amp   Per   Mag1   Mag2       ID
SJPF  000.60 042.1 m E Pg      2013/03/13 07:19:59.8   0.2                          T                                        5223470
SJPF  000.60 042.1 m E Sg      2013/03/13 07:20:07.6   0.1                          T                3.8  .26        Md 2.1  5223469
ETSF  000.92 075.2 m E Pg      2013/03/13 07:20:06.0   0.4                          T                                        5223468
ETSF  000.92 075.2 m E Sg      2013/03/13 07:20:18.9   1.3                          T                1.7  .23 Ml 1.6 Md 2.0  5223467
EPF   001.60 076.2 m E Pn      2013/03/13 07:20:15.9   0.1                          T                                        5223473
EPF   001.60 076.2 m E Pg      2013/03/13 07:20:18.4   0.4                          T                                        5223472
EPF   001.60 076.2 m E Sg      2013/03/13 07:20:39.2   0.6                          T                 .6  .18 Ml 1.6         5223471
LFF   002.91 037.9 m E Pn      2013/03/13 07:20:34.0   0.4                          T                                        5223489
LFF   002.91 037.9 m E Sn      2013/03/13 07:21:06.8  -0.3                          T                2.2  .28 Ml 2.1         5223488
MTLF  003.00 075.7 m E Pn      2013/03/13 07:20:35.3   0.4                          T                                        5223480
MTLF  003.00 075.7 m E Pg      2013/03/13 07:20:43.7  -0.1                          T                                        5223479
MTLF  003.00 075.7 m E Sn      2013/03/13 07:21:09.1  -0.3                          T                 .6  .26 Ml 1.8         5223478
RJF   003.55 040.9 m E Pn      2013/03/13 07:20:42.4   0.2                          T                                        5223487
RJF   003.55 040.9 m E Sn      2013/03/13 07:21:22.7   0.4                          T                1.3  .18 Ml 2.1         5223486

.
EVENT     293758
    Date      Time       Latitude Longitude    Depth    Ndef Nsta Gap    Mag1  N    Mag2  N    Mag3  N   Author         ID
       rms   OT_Error      Smajor Sminor Az        Err   mdist  Mdist     Err        Err        Err      Quality

2013/03/13 07:31:13.3     42.7349   -1.7988      2.0      19    5 197  Ml 1.8  4  Md 1.8  1              bulletin    293858
                                                                                                         _ldg
      0.52   +-  0.22       4.2    2.6  116.11 +-  0.0    0.17   3.55   +-0.1      +-                    m i ke

PYRENEES
Sta     Dist  EvAz     Phase      Date       Time     TRes  Azim  AzRes  Slow  SRes Def   SNR       Amp   Per   Mag1   Mag2       ID
SJPF  000.57 047.9 m E Pg      2013/03/13 07:31:23.8  -0.3                          T                                        5223493
SJPF  000.57 047.9 m E Sg      2013/03/13 07:31:31.7   0.3                          T                2.9  .20        Md 1.8  5223492
ETSF  000.93 079.4 m E Pg      2013/03/13 07:31:30.7  -0.1                          T                                        5223501
ETSF  000.93 079.4 m E Sg      2013/03/13 07:31:42.7  -0.1                          T                1.5  .19 Ml 1.7         5223500
EPF   001.60 078.6 m E Pg      2013/03/13 07:31:43.2   0.1                          T                                        5223499
EPF   001.60 078.6 m E Sg      2013/03/13 07:32:04.0   0.2                          T                2.3  .28 Ml 2.0         5223498
MTLF  003.01 077.0 m E Pn      2013/03/13 07:31:59.5  -0.5                          T                                        5223495
MTLF  003.01 077.0 m E Sn      2013/03/13 07:32:34.8   0.3                          T                 .3  .19 Ml 1.7         5223494
CAF   003.55 050.6 m E Pn      2013/03/13 07:32:07.9   0.4                          T                                        5223497
CAF   003.55 050.6 m E Sn      2013/03/13 07:32:47.9   0.4                          T                 .3  .18 Ml 1.8         5223496

.
EVENT     293777
    Date      Time       Latitude Longitude    Depth    Ndef Nsta Gap    Mag1  N    Mag2  N    Mag3  N   Author         ID
       rms   OT_Error      Smajor Sminor Az        Err   mdist  Mdist     Err        Err        Err      Quality

2013/03/13 08:52:16.4     44.4265    6.9613      2.0      45   10 049  Ml 1.9 10  Md 2.1  2              bulletin    293877
                                                                                                         _ldg
      0.22   +-  0.03        .7     .5   52.59 +-  0.0    0.12   2.39   +-0.2      +-0.1                 m i ke

FRANCE
Sta     Dist  EvAz     Phase      Date       Time     TRes  Azim  AzRes  Slow  SRes Def   SNR       Amp   Per   Mag1   Mag2       ID
MBDF  000.33 335.7 m E Pg      2013/03/13 08:52:23.1   0.1                          T                                        5223559
MBDF  000.33 335.7 m E Sg      2013/03/13 08:52:27.6   0.2                          T                8.7  .16        Md 2.1  5223558
SBF   000.66 148.6 m E Pg      2013/03/13 08:52:28.5  -0.4                          T                                        5223574
SBF   000.66 148.6 m E Sg      2013/03/13 08:52:37.7   0.1                          T                4.4  .17        Md 2.1  5223573
FRF   000.89 194.8 m E Pg      2013/03/13 08:52:33.4   0.2                          T                                        5223562
FRF   000.89 194.8 m E Pn      2013/03/13 08:52:34.7   0.3                          T                                        5223555
FRF   000.89 194.8 m E Sg      2013/03/13 08:52:45.0   0.1                          T                4.9  .20 Ml 2.2         5223554
ORIF  000.91 302.9 m E Pg      2013/03/13 08:52:33.8   0.0                          T                                        5223557
ORIF  000.91 302.9 m E Sg      2013/03/13 08:52:45.7   0.0                          T                2.4  .29 Ml 1.7         5223556
SMRF  001.09 246.2 m E Pg      2013/03/13 08:52:36.7  -0.2                          T                                        5223564
SMRF  001.09 246.2 m E Sg      2013/03/13 08:52:51.0  -0.1                          T                3.7  .26 Ml 2.0         5223563
LPG   001.08 352.2 m E Pg      2013/03/13 08:52:37.0   0.0                          T                                        5223568
LPG   001.08 352.2 m E Sg      2013/03/13 08:52:51.1   0.1                          T                2.4  .23 Ml 1.9         5223567
LPL   001.10 351.6 m E Pg      2013/03/13 08:52:37.4   0.1                          T                                        5223566
LPL   001.10 351.6 m E Sg      2013/03/13 08:52:51.7   0.1                          T                2.7  .24 Ml 1.9         5223565
LMR   001.14 196.8 m E Pg      2013/03/13 08:52:37.9   0.1                          T                                        5223552
LMR   001.14 196.8 m E Sg      2013/03/13 08:52:52.6   0.1                          T                3.5  .23 Ml 2.1         5223553
VIVF  001.69 285.5 m E Pn      2013/03/13 08:52:45.0  -0.3                          T                                        5223570
VIVF  001.69 285.5 m E Sn      2013/03/13 08:53:05.5  -0.7                          T                1.4  .32 Ml 1.8         5223569
PGF   002.39 141.0 m E Pn      2013/03/13 08:52:54.7  -0.2                          T                                        5223572
PGF   002.39 141.0 m E Sn      2013/03/13 08:53:22.9  -0.2                          T                 .5  .17 Ml 2.0         5223571

.
EVENT     293783
    Date      Time       Latitude Longitude    Depth    Ndef Nsta Gap    Mag1  N    Mag2  N    Mag3  N   Author         ID
       rms   OT_Error      Smajor Sminor Az        Err   mdist  Mdist     Err        Err        Err      Quality

2013/03/13 11:13:41.5     49.2473    6.0613       .0 f    16    8 178  Ml 1.9  7  Md 2.0  1              bulletin    293883
                                                                                                         _ldg
      0.52   +-  0.19       4.2    2.5   57.87 +-  0.0    0.73   1.53   +-0.3      +-                    m i km

GERMANY
Sta     Dist  EvAz     Phase      Date       Time     TRes  Azim  AzRes  Slow  SRes Def   SNR       Amp   Per   Mag1   Mag2       ID
PAGF  000.73 197.9 m E Pg      2013/03/13 11:13:55.3  -0.2                          T                                        5223663
PAGF  000.73 197.9 m E Sg      2013/03/13 11:14:05.0  -0.1  16.1  -1.6              T              150.4  .91        Md 2.0  5223662
MEZF  001.00 222.2 m E Pg      2013/03/13 11:14:00.3  -0.2  43.8  2.4               T                                        5223654
MEZF  001.00 222.2 m E Sg      2013/03/13 11:14:12.8  -0.8                          T                4.2  .36 Ml 1.9         5223653
CDF   001.16 135.7 m E Pn      2013/03/13 11:14:02.9  -0.7                          T                                        5223656
CDF   001.16 135.7 m E Sg      2013/03/13 11:14:18.7   0.0                          T                1.3  .17 Ml 1.9         5223655
GIVF  001.17 317.2 m E Pg      2013/03/13 11:14:03.2  -0.5                          T                                        5223658
GIVF  001.17 317.2 m E Sg      2013/03/13 11:14:21.0   2.0                          T               15.0  .33 Ml 2.5         5223657
SFTF  001.24 213.4 m E Pg      2013/03/13 11:14:05.5   0.5                          T                                        5223652
SFTF  001.24 213.4 m E Sg      2013/03/13 11:14:20.4  -0.9  32.8  0.2               T                 .6  .14 Ml 1.6         5223651
HAU   001.26 171.2 m E Pg      2013/03/13 11:14:05.8   0.5                          T                                        5223650
HAU   001.26 171.2 m E Sn      2013/03/13 11:14:21.5   0.0                          T                1.9  .19 Ml 1.7         5223649
HINF  001.53 159.5 m E Pn      2013/03/13 11:14:09.0   0.5                          T                                        5223664
HINF  001.53 159.5 m E Sn      2013/03/13 11:14:27.9  -0.1                          T                2.2  .29 Ml 1.9         5223665
BAIF  001.45 304.7 m E Pg      2013/03/13 11:14:09.1   0.3                          T                                        5223660
BAIF  001.45 304.7 m E Sg      2013/03/13 11:14:28.3   0.5                          T                1.7  .25 Ml 1.8         5223659

.
