EVENT     266696
    Date      Time       Latitude Longitude    Depth    Ndef Nsta Gap    Mag1  N    Mag2  N    Mag3  N   Author         ID
       rms   OT_Error      Smajor Sminor Az        Err   mdist  Mdist     Err        Err        Err      Quality

2011/11/24 09:01:16.6     47.8166    5.7688     15.0      40   18 060  Ml 2.6 12  Md 2.4  5              js067245    266716

      0.98   +-  0.07       1.7    1.1  151.24 +-  0.0    0.43   3.86   +-0.2      +-0.1                 m i ke

FRANCE
Sta     Dist  EvAz     Phase      Date       Time     TRes  Azim  AzRes  Slow  SRes Def   SNR       Amp   Per   Mag1   Mag2       ID
THEF  000.44 020.1 m E Pg      2011/11/24 09:01:25.5   0.1                          T                                        4791008
THEF  000.44 020.1 m E Sg      2011/11/24 09:01:31.2  -0.3                          T              205.6  .21        Md 2.3  4791005
HAU   000.43 063.9 m E Pg      2011/11/24 09:01:25.5   0.2                          T                                        4791009
HAU   000.43 063.9 m E Sg      2011/11/24 09:01:31.3   0.0                          T               24.6  .16        Md 2.4  4791001
SFTF  000.63 308.7 m E Pg      2011/11/24 09:01:28.5  -0.2 126.1  -2.0              T                                        4791033
SFTF  000.63 308.7 m E Sg      2011/11/24 09:01:36.7  -0.4 123.1  -5.1              T               35.3  .18        Md 2.5  4791004
HINF  000.73 089.6 m E Pg      2011/11/24 09:01:30.9   0.2                          T                                        4791007
HINF  000.73 089.6 m E Sg      2011/11/24 09:01:40.5   0.1                          T               34.1  .22        Md 2.3  4791006
PAGF  000.74 357.8 m E Pg      2011/11/24 09:01:31.0   0.2 174.0  -3.7              T                                        4791002
PAGF  000.74 357.8 m E Pn      2011/11/24 09:01:31.9   0.9 185.5  7.8               T                                        4791032
PAGF  000.74 357.8 m E Sg      2011/11/24 09:01:40.6   0.0 178.4  0.7               T                4.1  .18        Md 2.5  4791003
MEZF  000.84 325.3 m E Pg      2011/11/24 09:01:32.6   0.1 146.3  1.6               T                                        4791040
MEZF  000.84 325.3 m E Sg      2011/11/24 09:01:43.2  -0.4 130.3  -14.4             T               22.8  .24                4791041
CDF   001.17 058.9 m E Pg      2011/11/24 09:01:38.5  -0.3                          T                                        4791045
CDF   001.17 058.9 m E Sg      2011/11/24 09:01:54.2   0.1                          T                9.8  .24 Ml 2.6         4791044
CABF  001.23 169.7 m E Pg      2011/11/24 09:01:40.0   0.2                          T                                        4791039
CABF  001.23 169.7 m E Sg      2011/11/24 09:01:56.0   0.3                          T                4.6  .23 Ml 2.2         4791038
LOR   001.41 247.7 m E Pn      2011/11/24 09:01:40.0  -0.1                          T                                        4792189
LOR   001.41 247.7 m E Pg      2011/11/24 09:01:42.8  -0.2  65.6  -0.7              T                                        4791047
LOR   001.41 247.7 m E Sg      2011/11/24 09:02:00.4  -0.8  73.9  7.5               T                9.9  .20 Ml 2.7         4791046
SSF   001.71 244.6 m E Pn      2011/11/24 09:01:44.4   0.1                          T                                        4792188
SSF   001.71 244.6 m E Pg      2011/11/24 09:01:48.8   0.2                          T                                        4791027
SSF   001.71 244.6 m E Sg      2011/11/24 09:02:10.2  -0.5                          T                8.1  .24 Ml 2.7         4791028
SMF   001.76 229.0 m E Pn      2011/11/24 09:01:44.6  -0.3                          T                                        4792186
SMF   001.76 229.0 m E Pg      2011/11/24 09:01:50.6   1.1                          T                                        4791036
SMF   001.76 229.0 m E Sg      2011/11/24 09:02:11.5  -0.7                          T               20.2  .22 Ml 3.1         4791037
AVF   001.94 238.9 m E Pn      2011/11/24 09:01:47.2  -0.1                          T                                        4792187
AVF   001.94 238.9 m E Pg      2011/11/24 09:01:53.4   0.7                          T                                        4791035
AVF   001.94 238.9 m E Sg      2011/11/24 09:02:17.2  -0.6                          T                3.9  .28 Ml 2.3         4791034
LANF  001.79 048.6 m E Pg      2011/11/24 09:01:50.1   0.1                          T                                        4791029
LANF  001.79 048.6 m E Sn      2011/11/24 09:02:06.8   0.4                          T                                        4791030
LANF  001.79 048.6 m E Sg      2011/11/24 09:02:13.3   0.2                          T                6.2  .22 Ml 2.6         4791031
BGF   002.36 238.8 m E Pg      2011/11/24 09:02:00.2  -0.2                          T                                        4791025
BGF   002.36 238.8 m E Sg      2011/11/24 09:02:31.0   0.1                          T               10.2  .34 Ml 2.8         4791026
RUP   002.07 023.9 m E Sg      2011/11/24 09:02:22.0   0.0                          T                                        4791043
TCF   002.87 239.2 m E Sg      2011/11/24 09:02:46.4  -0.5                          T                2.7  .19 Ml 2.6         4791042
VIVF  003.06 194.8 m E Sg      2011/11/24 09:02:52.9   0.2                          T                2.4  .24 Ml 2.4         4791049
CAF   003.86 222.9 m E Sg      2011/11/24 09:03:17.9   0.1                          T                1.3  .21 Ml 2.4         4791048

.
EVENT     266700
    Date      Time       Latitude Longitude    Depth    Ndef Nsta Gap    Mag1  N    Mag2  N    Mag3  N   Author         ID
       rms   OT_Error      Smajor Sminor Az        Err   mdist  Mdist     Err        Err        Err      Quality

2011/11/24 13:05:06.4     47.9720    6.4137       .0 f    18    9 090  Ml 1.9  4  Md 1.8  3              js067245    266720

      0.94   +-  0.10       2.2    1.8   15.69 +-  0.0    0.06   1.87   +-0.2      +-0.1                 m i km

FRANCE
Sta     Dist  EvAz     Phase      Date       Time     TRes  Azim  AzRes  Slow  SRes Def   SNR       Amp   Per   Mag1   Mag2       ID
HAU   000.06 307.4 m E Pg      2011/11/24 13:05:07.5  -0.3                          T                                        4791081
HAU   000.06 307.4 m E Sg      2011/11/24 13:05:07.8  -1.0                          T             1198.4  .28        Md 2.0  4791078
HINF  000.33 117.6 m E Pg      2011/11/24 13:05:13.2   0.0                          T                                        4791079
HINF  000.33 117.6 m E Sg      2011/11/24 13:05:18.3   0.4                          T               71.5 1.14        Md 1.7  4791076
THEF  000.38 312.5 m E Pg      2011/11/24 13:05:14.0   0.0                          T                                        4792198
THEF  000.38 312.5 m E Sg      2011/11/24 13:05:19.4   0.1                          T               81.5  .72        Md 1.8  4792199
CDF   000.73 052.3 m E P       2011/11/24 13:05:22.0   0.1                          T                                        4792209
PAGF  000.74 322.0 m E P       2011/11/24 13:05:22.0  -0.2 142.8  1.3               T                                        4791074
CDF   000.73 052.3 m E Sg      2011/11/24 13:05:30.3   0.1                          T                                        4792210
CDF   000.73 052.3 m E Sn      2011/11/24 13:05:33.8  -0.2                          T                5.0  .29                4792211
SFTF  000.95 284.7 m E Pg      2011/11/24 13:05:24.7   0.2 108.6  4.9               T                                        4791080
SFTF  000.95 284.7 m E Sn      2011/11/24 13:05:39.2   0.0 109.4  5.8               T                3.6  .20 Ml 2.1         4791077
CABF  001.38 189.4 m E Pg      2011/11/24 13:05:32.1  -0.4                          T                                        4792196
CABF  001.38 189.4 m E Sg      2011/11/24 13:05:51.3   0.7                          T                  1  .24 Ml 1.6         4792197
LOR   001.87 248.8 m E Pn      2011/11/24 13:05:38.1   0.0  67.3  0.4               T                                        4792207
LOR   001.87 248.8 m E Pg      2011/11/24 13:05:41.8   0.4  73.3  6.4               T                                        4792206
LOR   001.87 248.8 m E Sg      2011/11/24 13:06:05.8   0.1  59.7  -7.2              T                1.6  .23 Ml 2.0         4792208
MEZF  001.05 300.7 m E Sn      2011/11/24 13:05:41.6   0.0                          T                4.0  .25 Ml 2.0         4791075

.
EVENT     266704
    Date      Time       Latitude Longitude    Depth    Ndef Nsta Gap    Mag1  N    Mag2  N    Mag3  N   Author         ID
       rms   OT_Error      Smajor Sminor Az        Err   mdist  Mdist     Err        Err        Err      Quality

2011/11/24 14:54:08.1     44.4205    6.9690      3.0 f    22    9 143  Ml 2.2  7  Md 2.0  4              js067245    266724

      0.92   +-  0.12       3.3    1.5   70.13 +-  0.0    0.34   2.38   +-0.3      +-0.0                 m i ke

FRANCE
Sta     Dist  EvAz     Phase      Date       Time     TRes  Azim  AzRes  Slow  SRes Def   SNR       Amp   Per   Mag1   Mag2       ID
MBDF  000.34 335.3 m E Pg      2011/11/24 14:54:14.5  -0.4                          T                                        4791090
MBDF  000.34 335.3 m E Sg      2011/11/24 14:54:20.1   0.7                          T               46.7  .30        Md 2.0  4791089
SBF   000.65 148.8 m E Pg      2011/11/24 14:54:20.3  -0.2                          T                                        4791100
SBF   000.65 148.8 m E Sg      2011/11/24 14:54:28.9  -0.1                          T                8.6  .24        Md 2.0  4791091
FRF   000.89 195.2 m E Pg      2011/11/24 14:54:24.5  -0.3                          T                                        4791101
FRF   000.89 195.2 m E Sg      2011/11/24 14:54:36.2  -0.2                          T               14.3  .20 Ml 2.7         4791099
FRF   000.89 195.2 m E Sn      2011/11/24 14:54:38.4  -0.1                          T                                Md 2.1  4791095
ORIF  000.92 303.0 m E Pg      2011/11/24 14:54:25.5   0.0                          T                                        4791088
ORIF  000.92 303.0 m E Sg      2011/11/24 14:54:37.2  -0.3                          T                4.9  .21 Ml 2.1 Md 2.0  4791082
LPL   001.11 351.4 m E Pg      2011/11/24 14:54:28.7  -0.4                          T                                        4791084
LPL   001.11 351.4 m E Sg      2011/11/24 14:54:43.6   0.1                          T                2.3  .22 Ml 1.9         4791094
LMR   001.14 197.2 m E Pg      2011/11/24 14:54:29.9   0.6                          T                                        4791087
LMR   001.14 197.2 m E Sg      2011/11/24 14:54:44.4   0.4                          T               12.2  .18 Ml 2.7         4791086
SMRF  001.10 246.6 m E Pg      2011/11/24 14:54:30.0   1.3                          T                                        4791085
SMRF  001.10 246.6 m E Sg      2011/11/24 14:54:43.3   0.4                          T                3.8  .32 Ml 1.9         4791092
VIVF  001.70 285.7 m E Pg      2011/11/24 14:54:38.5  -1.2                          T                                        4791083
LPG   001.09 351.9 m E Sg      2011/11/24 14:54:42.7  -0.3                          T                5.5  .33 Ml 2.1         4791093

.
EVENT     266705
    Date      Time       Latitude Longitude    Depth    Ndef Nsta Gap    Mag1  N    Mag2  N    Mag3  N   Author         ID
       rms   OT_Error      Smajor Sminor Az        Err   mdist  Mdist     Err        Err        Err      Quality

2011/11/24 16:28:06.9     47.0197    6.1260       .0 f    24   15 132  Ml 2.3 14  Md 2.2  5              js067245    266725

      0.94   +-  0.13       2.4    1.7  115.63 +-  0.0    0.41   2.30   +-0.3      +-0.2                 m i km

FRANCE
Sta     Dist  EvAz     Phase      Date       Time     TRes  Azim  AzRes  Slow  SRes Def   SNR       Amp   Per   Mag1   Mag2       ID
CABF  000.41 183.7 m E Pg      2011/11/24 16:28:15.3   0.2                          T                                        4791170
CABF  000.41 183.7 m E Sg      2011/11/24 16:28:21.3   0.5                          T                8.8  .28        Md 2.0  4791187
HINF  000.94 031.5 m E Pg      2011/11/24 16:28:25.2   0.4                          T                                        4791107
HINF  000.94 031.5 m E Sn      2011/11/24 16:28:39.2  -0.3                          T               27.6  .38 Ml 2.6 Md 2.0  4791106
HAU   001.00 008.6 m E Pg      2011/11/24 16:28:26.1   0.2                          T                                        4791108
HAU   001.00 008.6 m E Sg      2011/11/24 16:28:39.3   0.2                          T               23.3  .34 Ml 2.4         4791105
THEF  001.21 355.8 m E Pg      2011/11/24 16:28:29.8  -0.1                          T                                        4791104
THEF  001.21 355.8 m E Sg      2011/11/24 16:28:45.6  -0.1                          T               20.4  .25 Ml 2.8 Md 2.5  4791103
SFTF  001.40 328.6 m E Pg      2011/11/24 16:28:32.8  -0.4 152.4  4.6               T                                        4791173
SFTF  001.40 328.6 m E Sg      2011/11/24 16:28:51.4   0.0 151.8  4.0               T                5.7  .24 Ml 2.4         4791172
LOR   001.57 280.0 m E Pg      2011/11/24 16:28:35.6  -0.8  97.4  -0.9              T                                        4791182
LOR   001.57 280.0 m E Sg      2011/11/24 16:28:55.3  -1.5 110.6  12.3              T                4.1  .22 Ml 2.3 Md 2.3  4791102
CDF   001.60 028.7 m E Pg      2011/11/24 16:28:37.1   0.1                          T                                        4791176
CDF   001.60 028.7 m E Sg      2011/11/24 16:28:57.5  -0.3                          T                5.9  .34 Ml 2.4 Md 2.3  4791177
SMF   001.61 257.4 m E Pg      2011/11/24 16:28:37.6   0.4                          T                                        4791185
SMF   001.61 257.4 m E Sg      2011/11/24 16:28:58.9   0.6                          T                3.9  .24 Ml 2.3         4791186
BGF   002.30 259.6 m E Pg      2011/11/24 16:28:50.2   0.3                          T                                        4792235
BGF   002.30 259.6 m E Sg      2011/11/24 16:29:20.4   0.7                          T                8.2  .30 Ml 2.7         4792236
LPL   001.56 164.2 m E Sg      2011/11/24 16:28:56.1  -0.8                          T                2.7  .30 Ml 2.0         4791184
PAGF  001.56 350.2 m E Sg      2011/11/24 16:28:56.6   0.0                          T                1.5  .31 Ml 1.7         4791171
LPG   001.58 163.9 m E Sg      2011/11/24 16:28:56.7  -1.0                          T                2.2  .31 Ml 1.9         4791183
MEZF  001.65 334.4 m E Sg      2011/11/24 16:28:59.5   0.1 155.2  1.7               T               11.4  .40 Ml 2.6         4791175
SSF   001.79 272.3 m E Sg      2011/11/24 16:29:04.3   0.5                          T                2.5  .26 Ml 2.2         4791174
AVF   001.92 264.1 m E Sg      2011/11/24 16:29:08.3   0.7                          T                1.0  .21 Ml 1.9         4792237

.
EVENT     266706
    Date      Time       Latitude Longitude    Depth    Ndef Nsta Gap    Mag1  N    Mag2  N    Mag3  N   Author         ID
       rms   OT_Error      Smajor Sminor Az        Err   mdist  Mdist     Err        Err        Err      Quality

2011/11/24 16:36:34.9     47.0169    6.1043       .0 f    10    5 149  Ml 2.1  4  Md 2.0  4              js067245    266726

      1.51   +-  0.18       4.9    2.9  106.36 +-  0.0    0.41   1.55   +-0.1      +-0.3                 m i km

FRANCE
Sta     Dist  EvAz     Phase      Date       Time     TRes  Azim  AzRes  Slow  SRes Def   SNR       Amp   Per   Mag1   Mag2       ID
CABF  000.41 181.6 m E Pg      2011/11/24 16:36:42.9  -0.2                          T                                        4791190
CABF  000.41 181.6 m E Sg      2011/11/24 16:36:49.7   1.0                          T               20.8  .66        Md 1.8  4791197
HINF  000.95 032.2 m E Pg      2011/11/24 16:36:53.0  -0.1                          T                                        4791192
HINF  000.95 032.2 m E Sg      2011/11/24 16:37:05.9   0.3                          T                5.2  .23 Ml 2.2 Md 2.0  4791188
HAU   001.00 009.4 m E Pg      2011/11/24 16:36:54.0  -0.1                          T                                        4791191
HAU   001.00 009.4 m E Sg      2011/11/24 16:37:07.7   0.5                          T               10.1  .34 Ml 2.1 Md 2.0  4791189
THEF  001.21 356.5 m E Pg      2011/11/24 16:36:57.6  -0.3                          T                                        4791193
THEF  001.21 356.5 m E Sg      2011/11/24 16:37:14.4   0.5                          T                4.2  .26 Ml 2.1 Md 2.4  4791194
LOR   001.55 280.1 m E Pg      2011/11/24 16:37:04.3   0.2  98.3  -0.2              T                                        4791195
LOR   001.55 280.1 m E Sg      2011/11/24 16:37:24.1  -0.3 116.6  18.1              T                2.9  .33 Ml 2.0         4791196

.
EVENT     266707
    Date      Time       Latitude Longitude    Depth    Ndef Nsta Gap    Mag1  N    Mag2  N    Mag3  N   Author         ID
       rms   OT_Error      Smajor Sminor Az        Err   mdist  Mdist     Err        Err        Err      Quality

2011/11/24 23:23:08.1     42.9449   -1.5785      2.0      17    3 102  Ml 1.8  1  Md 1.8  2              js067245    266727

      0.46   +-  0.15       2.6    2.4   34.27 +-  0.0    0.17   1.41   +-         +-0.0                 m i ke

PYRENEES
Sta     Dist  EvAz     Phase      Date       Time     TRes  Azim  AzRes  Slow  SRes Def   SNR       Amp   Per   Mag1   Mag2       ID
SJPF  000.31 056.9 m E Pg      2011/11/24 23:23:14.1  -0.1                          T                                        4791200
SJPF  000.31 056.9 m E Sg      2011/11/24 23:23:17.9  -0.3                          T                9.9  .28        Md 1.8  4791199
ETSF  000.75 093.2 m E Pg      2011/11/24 23:23:21.8  -0.5                          T                                        4791198
ETSF  000.75 093.2 m E Sg      2011/11/24 23:23:32.2   0.1                          T                2.1  .23        Md 1.8  4791203
EPF   001.41 085.9 m E Pg      2011/11/24 23:23:34.5   0.0                          T                                        4791201
EPF   001.41 085.9 m E Sg      2011/11/24 23:23:53.8   1.1                          T                1.2  .20 Ml 1.8         4791202

.
