EVENT     265985
    Date      Time       Latitude Longitude    Depth    Ndef Nsta Gap    Mag1  N    Mag2  N    Mag3  N   Author         ID
       rms   OT_Error      Smajor Sminor Az        Err   mdist  Mdist     Err        Err        Err      Quality

2011/11/04 23:08:54.4     47.8266    7.4252      5.0 f    47   16 037  Ml 2.3 12  Md 2.4  5              js067245    266005

      0.62   +-  0.04       1.0     .7  169.02 +-  0.0    0.20   3.37   +-0.3      +-0.2                 m i ke

SWITZERLAND
Sta     Dist  EvAz     Phase      Date       Time     TRes  Azim  AzRes  Slow  SRes Def   SNR       Amp   Per   Mag1   Mag2       ID
HINF  000.39 268.7 m E Pg      2011/11/04 23:09:01.5  -0.4                          T                                        4781776
HINF  000.39 268.7 m E Sg      2011/11/04 23:09:06.9  -0.2                          T               10.7  .22        Md 2.3  4781772
CDF   000.59 350.4 m E Pg      2011/11/04 23:09:05.4  -0.4                          T                                        4781773
CDF   000.59 350.4 m E Sg      2011/11/04 23:09:13.4  -0.2                          T                5.9  .25        Md 2.3  4781791
HAU   000.75 284.3 m E Pg      2011/11/04 23:09:08.5  -0.1                          T                                        4781775
HAU   000.75 284.3 m E Pn      2011/11/04 23:09:10.0   0.0                          T                                        4783457
HAU   000.75 284.3 m E Sg      2011/11/04 23:09:18.0  -0.3                          T               28.8  .29        Md 2.1  4781771
THEF  001.04 293.2 m E Pg      2011/11/04 23:09:13.9   0.0                          T                                        4781774
THEF  001.04 293.2 m E Pn      2011/11/04 23:09:14.4   0.3                          T                                        4781802
THEF  001.04 293.2 m E Sg      2011/11/04 23:09:27.8   0.3                          T                9.4  .17 Ml 2.6 Md 2.6  4781770
LANF  001.18 012.2 m E Pg      2011/11/04 23:09:16.5  -0.1                          T                                        4781789
LANF  001.18 012.2 m E Sg      2011/11/04 23:09:32.0   0.1                          T                5.6  .21 Ml 2.3         4781790
PAGF  001.35 303.3 m E Pg      2011/11/04 23:09:19.9   0.3 119.6  -2.4              T                                        4781792
PAGF  001.35 303.3 m E Sg      2011/11/04 23:09:37.2   0.1                          T                2.0  .26 Ml 1.8 Md 2.6  4781793
CABF  001.52 217.4 m E Pn      2011/11/04 23:09:20.5  -0.2                          T                                        4783456
CABF  001.52 217.4 m E P       2011/11/04 23:09:22.5  -0.1                          T                                        4781794
CABF  001.52 217.4 m E Sg      2011/11/04 23:09:42.6   0.1                          T                3.0  .21 Ml 2.2         4781800
SFTF  001.65 284.2 m E Pn      2011/11/04 23:09:22.5   0.2                          T                                        4781803
SFTF  001.65 284.2 m E Pg      2011/11/04 23:09:25.0  -0.1                          T                                        4781806
SFTF  001.65 284.2 m E Sn      2011/11/04 23:09:43.0   0.4 125.2  22.8              T                6.2  .20 Ml 2.6         4781795
SFTF  001.65 284.2 m E Sg      2011/11/04 23:09:46.2  -0.2                          T                                        4781801
MEZF  001.73 293.9 m E Pn      2011/11/04 23:09:23.5   0.2                          T                                        4781804
MEZF  001.73 293.9 m E Sn      2011/11/04 23:09:44.5   0.1 107.0  -5.2              T                                        4781785
MEZF  001.73 293.9 m E Sg      2011/11/04 23:09:49.0   0.2                          T                2.8  .23 Ml 2.2         4781784
RUP   001.89 352.8 m E Pg      2011/11/04 23:09:29.8   0.1                          T                                        4781787
RUP   001.89 352.8 m E Sg      2011/11/04 23:09:54.2   0.1                          T                                        4781788
LOR   002.48 258.3 m E Pn      2011/11/04 23:09:33.5  -0.1                          T                                        4783458
LOR   002.48 258.3 m E Pg      2011/11/04 23:09:40.7   0.3  82.0  6.3               T                                        4781799
LOR   002.48 258.3 m E Sg      2011/11/04 23:10:12.1  -0.3  75.4  -0.3              T                3.8  .28 Ml 2.5         4781798
SMF   002.71 245.5 m E Pg      2011/11/04 23:09:44.7  -0.1                          T                                        4781782
SMF   002.71 245.5 m E Sg      2011/11/04 23:10:19.8   0.2                          T                2.7  .23 Ml 2.4         4781786
SSF   002.77 255.4 m E Pg      2011/11/04 23:09:46.0   0.3                          T                                        4781797
SSF   002.77 255.4 m E Sg      2011/11/04 23:10:21.2  -0.1                          T                1.3  .22 Ml 2.2         4781796
AVF   002.96 251.0 m E Pg      2011/11/04 23:09:49.1  -0.2                          T                                        4781783
AVF   002.96 251.0 m E Sg      2011/11/04 23:10:27.1  -0.2                          T                 .5  .19 Ml 1.9         4781805
BGF   003.37 249.6 m E Pg      2011/11/04 23:09:56.6  -0.3                          T                                        4783455
BGF   003.37 249.6 m E Sn      2011/11/04 23:10:23.0  -0.7                          T                2.6  .20 Ml 2.6         4781780
HYF   003.29 262.0 m E Sn      2011/11/04 23:10:22.6   0.8                          T                                        4781781

.
EVENT     265994
    Date      Time       Latitude Longitude    Depth    Ndef Nsta Gap    Mag1  N    Mag2  N    Mag3  N   Author         ID
       rms   OT_Error      Smajor Sminor Az        Err   mdist  Mdist     Err        Err        Err      Quality

2011/11/05 06:06:06.4     44.3415    7.3915      3.0 f    18    7 197  Ml 1.9  4  Md 1.8  3              js067245    266014

      1.15   +-  0.14       3.5    1.7   79.92 +-  0.0    0.48   1.36   +-0.3      +-0.2                 m i ke

NORTHERN ITALY
Sta     Dist  EvAz     Phase      Date       Time     TRes  Azim  AzRes  Slow  SRes Def   SNR       Amp   Per   Mag1   Mag2       ID
SBF   000.48 176.2 m E Pg      2011/11/05 06:06:15.6   0.0                          T                                        4781824
SBF   000.48 176.2 m E Sg      2011/11/05 06:06:22.1   0.1                          T               10.6  .18        Md 1.6  4781819
MBDF  000.59 311.2 m E Pg      2011/11/05 06:06:17.7   0.0                          T                                        4781823
MBDF  000.59 311.2 m E Sg      2011/11/05 06:06:25.9   0.5                          T                7.0  .22        Md 2.0  4781822
LMR   001.19 212.7 m E Pg      2011/11/05 06:06:28.7   0.0                          T                                        4781820
LMR   001.19 212.7 m E Sg      2011/11/05 06:06:44.2   0.1                          T                4.3  .21 Ml 2.2         4781821
ORIF  001.22 298.6 m E Pn      2011/11/05 06:06:28.9   0.0                          T                                        4781817
ORIF  001.22 298.6 m E Pg      2011/11/05 06:06:29.5   0.1                          T                                        4781816
ORIF  001.22 298.6 m E Sg      2011/11/05 06:06:45.3   0.0                          T                3.2  .31 Ml 1.9         4781811
LPL   001.26 338.5 m E Pn      2011/11/05 06:06:29.5  -0.1                          T                                        4781815
LPL   001.26 338.5 m E Pg      2011/11/05 06:06:30.3   0.0                          T                                        4781807
LPL   001.26 338.5 m E P       2011/11/05 06:06:31.3   0.0                          T                                        4781814
LPL   001.26 338.5 m E Sn      2011/11/05 06:06:45.7  -0.4                          T                1.2  .24 Ml 1.6 Md 1.8  4781808
LPG   001.24 338.8 m E Pn      2011/11/05 06:06:29.7   0.3                          T                                        4781818
SMRF  001.36 255.0 m E Pn      2011/11/05 06:06:30.6  -0.1                          T                                        4781809
SMRF  001.36 255.0 m E Sn      2011/11/05 06:06:48.4   0.4                          T                                        4781810

.
EVENT     265986
    Date      Time       Latitude Longitude    Depth    Ndef Nsta Gap    Mag1  N    Mag2  N    Mag3  N   Author         ID
       rms   OT_Error      Smajor Sminor Az        Err   mdist  Mdist     Err        Err        Err      Quality

2011/11/05 10:14:47.9     43.0900    -.3189      2.0      50   12 076  Ml 2.7  8  Md 2.6  3              js067245    266006

      0.84   +-  0.10       2.1    1.6    2.58 +-  0.0    0.20   4.81   +-0.2      +-0.1                 m i ke

PYRENEES
Sta     Dist  EvAz     Phase      Date       Time     TRes  Azim  AzRes  Slow  SRes Def   SNR       Amp   Per   Mag1   Mag2       ID
ETSF  000.26 222.7 m E Pg      2011/11/05 10:14:52.3  -0.9                          T   001.0                                4780879
ETSF  000.26 222.7 m E Sg      2011/11/05 10:14:55.2  -1.5                          T              130.4  .26        Md 2.7  4781830
EPF   000.49 096.8 m E Pg      2011/11/05 10:14:57.1  -0.2                          T   001.0                                4780870
EPF   000.49 096.8 m E Sg      2011/11/05 10:15:03.6  -0.1                          T               33.5  .22        Md 2.6  4781828
SJPF  000.66 272.3 m E Pg      2011/11/05 10:15:00.3  -0.2                          T   001.0                                4780883
SJPF  000.66 272.3 m E Sg      2011/11/05 10:15:08.4  -0.8                          T   001.0       19.7  .23        Md 2.5  4780884
MTLF  001.87 081.4 m E Pg      2011/11/05 10:15:23.3   0.5                          T   001.0                                4780880
MTLF  001.87 081.4 m E Sg      2011/11/05 10:15:47.3   0.5                          T   001.0        6.6  .30 Ml 2.5         4780881
LFF   002.00 022.1 m E Pg      2011/11/05 10:15:25.8   0.7                          T                                        4781827
LFF   002.00 022.1 m E Sg      2011/11/05 10:15:52.0   1.1                          T   001.0       15.5  .27 Ml 2.8         4780874
RJF   002.58 030.2 m E Pg      2011/11/05 10:15:34.6  -1.1                          T                                        4781829
RJF   002.58 030.2 m E Sg      2011/11/05 10:16:09.4   0.5                          T   001.0        6.4  .27 Ml 2.4         4780865
CAF   002.51 042.3 m E Pg      2011/11/05 10:15:34.9   0.3                          T   001.0                                4780868
CAF   002.51 042.3 m E Sg      2011/11/05 10:16:06.9  -0.1                          T   001.0        5.3  .20 Ml 2.7         4780869
LASF  003.19 070.6 m E Sn      2011/11/05 10:16:13.9   0.3                          T   001.0                                4780871
LASF  003.19 070.6 m E Sg      2011/11/05 10:16:28.4   0.4                          T   001.0        2.1  .20 Ml 2.5         4780872
MFF   003.51 001.9 m E Sn      2011/11/05 10:16:21.3   0.1                          T   001.0                                4780875
MFF   003.51 001.9 m E Sg      2011/11/05 10:16:38.6   0.5                          T   001.0        4.4  .37 Ml 2.8         4780876
TCF   003.67 028.5 m E Sg      2011/11/05 10:16:42.5  -0.5                          T   001.0                                4780878
BGF   004.13 031.9 m E Sg      2011/11/05 10:16:57.6   0.1                          T   001.0       10.3  .38 Ml 3.1         4780866
SSF   004.81 033.0 m E Sg      2011/11/05 10:17:18.5   0.0                          T                                        4781826

.
EVENT     265993
    Date      Time       Latitude Longitude    Depth    Ndef Nsta Gap    Mag1  N    Mag2  N    Mag3  N   Author         ID
       rms   OT_Error      Smajor Sminor Az        Err   mdist  Mdist     Err        Err        Err      Quality

2011/11/05 10:18:47.8     46.3959    6.0280      2.0      54   19 129  Ml 2.3 19  Md 2.2  1              js067245    266013

      0.77   +-  0.06       1.5    1.1   83.01 +-  0.0    0.22   2.78   +-0.3      +-                    m i ke

SWITZERLAND
Sta     Dist  EvAz     Phase      Date       Time     TRes  Azim  AzRes  Slow  SRes Def   SNR       Amp   Per   Mag1   Mag2       ID
CABF  000.22 010.8 m E Pg      2011/11/05 10:18:53.1   0.9                          T                                        4781840
CABF  000.22 010.8 m E Sg      2011/11/05 10:18:56.5   1.2                          T               16.0  .20        Md 2.2  4781861
LPL   001.01 150.6 m E Pn      2011/11/05 10:19:07.7   0.2                          T                                        4781858
LPL   001.01 150.6 m E P       2011/11/05 10:19:09.2   0.1                          T                                        4781844
LPL   001.01 150.6 m E Sg      2011/11/05 10:19:19.3  -0.7                          T                                        4781847
LPL   001.01 150.6 m E Sn      2011/11/05 10:19:21.5   0.0                          T                                        4781846
LPL   001.01 150.6 m E S       2011/11/05 10:19:23.7  -0.4                          T                                        4781845
LPG   001.03 150.4 m E Pn      2011/11/05 10:19:08.2   0.2                          T                                        4781843
LPG   001.03 150.4 m E P       2011/11/05 10:19:09.5   0.0                          T                                        4781854
LPG   001.03 150.4 m E Sn      2011/11/05 10:19:21.9  -0.2                          T                2.9  .22 Ml 2.0         4783577
HINF  001.53 021.3 m E Pn      2011/11/05 10:19:13.6  -0.8                          T                                        4781835
HINF  001.53 021.3 m E Pg      2011/11/05 10:19:15.9  -0.4                          T                                        4783473
HINF  001.53 021.3 m E Sn      2011/11/05 10:19:33.6  -0.2                          T                                        4783586
HINF  001.53 021.3 m E Sg      2011/11/05 10:19:36.0  -0.1                          T                7.2  .26 Ml 2.5         4781834
SMF   001.53 280.2 m E Pn      2011/11/05 10:19:14.6   0.1                          T                                        4781831
SMF   001.53 280.2 m E Pg      2011/11/05 10:19:16.2  -0.1                          T                                        4783585
SMF   001.53 280.2 m E Sn      2011/11/05 10:19:33.9   0.2                          T                8.7  .20 Ml 2.7         4781832
ORIF  001.48 184.1 m E Pg      2011/11/05 10:19:15.8   0.3                          T                                        4781857
ORIF  001.48 184.1 m E Sg      2011/11/05 10:19:34.6  -0.1                          T                6.6  .23 Ml 2.5         4781856
HAU   001.63 007.6 m E Pn      2011/11/05 10:19:16.0   0.3                          T                                        4781860
HAU   001.63 007.6 m E Pg      2011/11/05 10:19:18.4   0.3                          T                                        4783474
HAU   001.63 007.6 m E Sn      2011/11/05 10:19:36.1   0.0                          T                                        4783587
HAU   001.63 007.6 m E Sg      2011/11/05 10:19:39.1   0.0                          T               11.7  .26 Ml 2.5         4781836
LOR   001.73 301.2 m E Pn      2011/11/05 10:19:16.6  -0.5 121.6  2.0               T                                        4781839
LOR   001.73 301.2 m E Pg      2011/11/05 10:19:19.3  -0.7 120.2  0.6               T                                        4783469
LOR   001.73 301.2 m E Sn      2011/11/05 10:19:38.6   0.2 124.1  4.5               T                4.5  .23 Ml 2.4         4781838
AVF   001.89 283.0 m E Pn      2011/11/05 10:19:18.9  -0.3                          T                                        4783476
AVF   001.89 283.0 m E Pg      2011/11/05 10:19:22.8   0.0                          T                                        4783475
AVF   001.89 283.0 m E Sn      2011/11/05 10:19:42.9   0.7                          T                1.9  .20 Ml 2.2         4781833
MBDF  001.75 162.4 m E Pg      2011/11/05 10:19:20.6   0.1                          T                                        4783578
MBDF  001.75 162.4 m E Sg      2011/11/05 10:19:43.0   0.0                          T                 .2  .13 Ml 1.4         4783579
THEF  001.83 359.3 m E Pg      2011/11/05 10:19:20.8  -1.0                          T                                        4783472
THEF  001.83 359.3 m E Sg      2011/11/05 10:19:44.7  -0.8                          T                5.1  .21 Ml 2.5         4781859
VIVF  001.81 212.2 m E Pg      2011/11/05 10:19:21.4   0.0                          T                                        4783582
VIVF  001.81 212.2 m E Sn      2011/11/05 10:19:40.1  -0.4                          T                                        4783580
VIVF  001.81 212.2 m E Sg      2011/11/05 10:19:44.6  -0.2                          T                3.7  .20 Ml 2.4         4781855
SSF   001.86 291.9 m E Pg      2011/11/05 10:19:22.0  -0.3                          T                                        4783593
SSF   001.86 291.9 m E Sn      2011/11/05 10:19:41.8   0.3                          T                2.9  .20 Ml 2.4         4781837
MEZF  002.21 342.9 m E Pn      2011/11/05 10:19:23.6   0.0 157.0  -5.2              T                                        4783590
MEZF  002.21 342.9 m E Pg      2011/11/05 10:19:28.8   0.1                          T                                        4783589
MEZF  002.21 342.9 m E Sg      2011/11/05 10:19:57.4   0.2                          T                3.3  .30 Ml 2.3         4783592
SFTF  001.93 339.9 m E Pg      2011/11/05 10:19:23.7   0.0 163.1  3.8               T                                        4783591
SFTF  001.93 339.9 m E Sg      2011/11/05 10:19:48.5  -0.1                          T                1.2  .13 Ml 2.1         4783471
PAGF  002.17 354.7 m E Pg      2011/11/05 10:19:28.0   0.0                          T                                        4783588
PAGF  002.17 354.7 m E Sg      2011/11/05 10:19:56.4   0.4                          T                 .9  .29 Ml 1.7         4783470
BGF   002.20 275.4 m E Pg      2011/11/05 10:19:29.3   0.6                          T                                        4781841
BGF   002.20 275.4 m E Sg      2011/11/05 10:19:57.0  -0.1                          T                2.3  .26 Ml 2.2         4783584
TCF   002.65 269.0 m E Pg      2011/11/05 10:19:36.6  -0.3                          T                                        4781852
LASF  002.78 214.2 m E Pg      2011/11/05 10:19:39.4   0.0                          T                                        4783581
LASF  002.78 214.2 m E Sg      2011/11/05 10:20:15.2   0.1                          T                 .7  .20 Ml 1.9         4783583

.
