EVENT     263769
    Date      Time       Latitude Longitude    Depth    Ndef Nsta Gap    Mag1  N    Mag2  N    Mag3  N   Author         ID
       rms   OT_Error      Smajor Sminor Az        Err   mdist  Mdist     Err        Err        Err      Quality

2011/08/20 04:51:46.9     46.6954    6.2147     25.0      36   15 117  Ml 2.0 15  Md 2.2  1              js067245    263769

      0.83   +-  0.11       3.2    1.8  100.81 +-  0.0    0.12   2.13   +-0.2      +-                    m i ke

SWITZERLAND
Sta     Dist  EvAz     Phase      Date       Time     TRes  Azim  AzRes  Slow  SRes Def   SNR       Amp   Per   Mag1   Mag2       ID
CABF  000.12 226.2 m E Pg      2011/08/20 04:51:51.7  -0.3                          T                                        4748398
CABF  000.12 226.2 m E Sg      2011/08/20 04:51:54.9  -0.6                          T               11.1  .18        Md 2.2  4748399
HINF  001.20 021.0 m E Pn      2011/08/20 04:52:06.0  -0.6                          T                                        4748395
HINF  001.20 021.0 m E Sn      2011/08/20 04:52:20.9   0.0                          T                                        4748397
HINF  001.20 021.0 m E Sg      2011/08/20 04:52:25.6  -0.1                          T                5.0  .26 Ml 2.2         4748396
LPL   001.23 162.8 m E Pn      2011/08/20 04:52:07.0  -0.2                          T                                        4748423
LPL   001.23 162.8 m E Sn      2011/08/20 04:52:22.6   0.7                          T                 .9  .20 Ml 1.6         4748424
LPG   001.25 162.5 m E Pn      2011/08/20 04:52:07.4  -0.2                          T                                        4748426
LPG   001.25 162.5 m E Sn      2011/08/20 04:52:22.0  -0.5                          T                 .7  .15 Ml 1.6         4748427
LPG   001.25 162.5 m E Sg      2011/08/20 04:52:28.7   1.2                          T                2.3  .29 Ml 1.8         4748425
HAU   001.31 003.9 m E Pn      2011/08/20 04:52:07.8  -0.3                          T                                        4748392
HAU   001.31 003.9 m E Pg      2011/08/20 04:52:11.9   0.1                          T                                        4748416
HAU   001.31 003.9 m E Sn      2011/08/20 04:52:22.6  -0.9                          T                                        4748393
HAU   001.31 003.9 m E Sg      2011/08/20 04:52:29.9   0.9                          T                3.8  .22 Ml 2.0         4748394
SFTF  001.71 332.6 m E Pn      2011/08/20 04:52:13.7   0.3 149.6  -2.1              T                                        4748407
SFTF  001.71 332.6 m E Sn      2011/08/20 04:52:32.9   0.0                          T                2.1  .31 Ml 2.0         4748409
SFTF  001.71 332.6 m E Sg      2011/08/20 04:52:41.2   0.0                          T                1.7  .21 Ml 2.0         4748408
ORIF  001.79 187.6 m E Pn      2011/08/20 04:52:13.9  -0.8                          T                                        4748421
ORIF  001.79 187.6 m E Pg      2011/08/20 04:52:21.1   0.5                          T                                        4748420
ORIF  001.79 187.6 m E Sg      2011/08/20 04:52:44.7   0.8                          T                2.4  .34 Ml 2.0         4748422
CDF   001.86 022.3 m E Pn      2011/08/20 04:52:14.8  -0.8                          T                                        4748405
CDF   001.86 022.3 m E Sg      2011/08/20 04:52:46.2   0.1                          T                3.2  .50 Ml 2.1         4748406
LOR   001.71 290.4 m E Pn      2011/08/20 04:52:15.2   1.7 116.9  8.2               T                                        4748401
LOR   001.71 290.4 m E Sn      2011/08/20 04:52:33.1   0.0                          T                1.5  .20 Ml 2.0         4748403
LOR   001.71 290.4 m E Sg      2011/08/20 04:52:41.5   0.2                          T                2.4  .20 Ml 2.2         4748404
THEF  001.54 354.5 m E Pg      2011/08/20 04:52:15.7  -0.2                          T                                        4748415
THEF  001.54 354.5 m E Sg      2011/08/20 04:52:36.0   0.0                          T                4.7  .30 Ml 2.2         4748410
PAGF  001.89 350.1 m E Pn      2011/08/20 04:52:16.0   0.1                          T                                        4748413
SMF   001.64 269.1 m E Pg      2011/08/20 04:52:18.1   0.4                          T                                        4748417
SSF   001.89 282.1 m E P       2011/08/20 04:52:18.6   0.3                          T                                        4748411
SSF   001.89 282.1 m E Sn      2011/08/20 04:52:37.7   0.3                          T                                        4748412
SSF   001.89 282.1 m E Sg      2011/08/20 04:52:46.7  -0.2                          T                1.9  .32 Ml 2.1         4748402
VIVF  002.13 211.0 m E Pg      2011/08/20 04:52:26.8   0.1                          T                                        4748418
VIVF  002.13 211.0 m E Sn      2011/08/20 04:52:43.6   0.5                          T                                        4748419
VIVF  002.13 211.0 m E Sg      2011/08/20 04:52:52.7  -1.6                          T                1.5  .20 Ml 2.1         4748400
MEZF  001.97 336.9 m E Sg      2011/08/20 04:52:49.2  -0.1 153.9  -2.2              T                1.8  .29 Ml 2.0         4748414

.
EVENT     262747
    Date      Time       Latitude Longitude    Depth    Ndef Nsta Gap    Mag1  N    Mag2  N    Mag3  N   Author         ID
       rms   OT_Error      Smajor Sminor Az        Err   mdist  Mdist     Err        Err        Err      Quality

2011/08/20 04:59:40.2     42.4691    2.0115      4.0 f    53   10 044  Ml 2.3 12                         js067245    262747

      0.56   +-  0.06       1.3    1.1  170.50 +-  0.0    0.03   3.82   +-0.2                            m i ke

PYRENEES
Sta     Dist  EvAz     Phase      Date       Time     TRes  Azim  AzRes  Slow  SRes Def   SNR       Amp   Per   Mag1   Mag2       ID
MTLF  000.88 009.8 m E Pg      2011/08/20 04:59:56.8   0.0                          T                                        4739600
MTLF  000.88 009.8 m E Sg      2011/08/20 05:00:08.4   0.0                          T                7.7  .16 Ml 2.4         4739596
EPF   001.35 295.1 m E Pg      2011/08/20 05:00:05.8   0.3                          T                                        4739589
EPF   001.35 295.1 m E Sg      2011/08/20 05:00:21.8  -1.2                          T                4.6  .18 Ml 2.4         4739595
ETSF  001.94 283.6 m E Pg      2011/08/20 05:00:16.4   0.0                          T                                        4739599
ETSF  001.94 283.6 m E Sg      2011/08/20 05:00:42.3   0.9                          T                7.1  .23 Ml 2.7         4739594
LASF  002.10 039.4 m E Pg      2011/08/20 05:00:19.1   0.0                          T                                        4739598
LASF  002.10 039.4 m E Sg      2011/08/20 05:00:46.3   0.2                          T                1.6  .19 Ml 2.2         4739582
CAF   002.46 000.9 m E Pg      2011/08/20 05:00:25.3  -0.5                          T                                        4739587
CAF   002.46 000.9 m E Sg      2011/08/20 05:00:57.0  -0.4                          T                3.7  .23 Ml 2.5         4739592
SJPF  002.47 286.2 m E Pg      2011/08/20 05:00:26.0   0.0                          T                                        4739588
SJPF  002.47 286.2 m E Sg      2011/08/20 05:00:56.4  -1.3                          T                3.7  .30 Ml 2.4         4739593
LFF   002.64 340.0 m E Pg      2011/08/20 05:00:28.8  -0.2                          T                                        4739586
LFF   002.64 340.0 m E Sg      2011/08/20 05:01:03.3   0.4                          T                3.3  .26 Ml 2.3         4739591
VIVF  003.07 038.1 m E Pg      2011/08/20 05:00:37.2   0.1                          T                                        4739597
VIVF  003.07 038.1 m E Sg      2011/08/20 05:01:16.6   0.1                          T                1.2  .19 Ml 2.2         4739590
RJF   002.86 353.0 m E Sg      2011/08/20 05:01:08.6  -1.2                          T                1.8  .23 Ml 2.0         4739585
TCF   003.82 002.1 m E Sg      2011/08/20 05:01:40.8   0.8                          T                 .7  .21 Ml 2.2         4739583

.
EVENT     262748
    Date      Time       Latitude Longitude    Depth    Ndef Nsta Gap    Mag1  N    Mag2  N    Mag3  N   Author         ID
       rms   OT_Error      Smajor Sminor Az        Err   mdist  Mdist     Err        Err        Err      Quality

2011/08/20 07:10:49.0     44.7640    8.1598      2.0      14    6 263  Ml 1.9  7  Md 1.9  1              js067245    262748

      0.19   +-  0.18       3.2    1.2   75.96 +-  0.0    0.99   1.86   +-0.3      +-                    m i ke

NORTHERN ITALY
Sta     Dist  EvAz     Phase      Date       Time     TRes  Azim  AzRes  Slow  SRes Def   SNR       Amp   Per   Mag1   Mag2       ID
MBDF  000.99 268.3 m E Pg      2011/08/20 07:11:07.7   0.0                          T                                        4739614
MBDF  000.99 268.3 m E Sg      2011/08/20 07:11:19.6  -1.0                          T                5.2  .36 Ml 2.0 Md 1.9  4739605
SBF   001.04 210.3 m E Pg      2011/08/20 07:11:08.7   0.2                          T                                        4739612
SBF   001.04 210.3 m E Sg      2011/08/20 07:11:21.5  -0.5                          T                6.5  .26 Ml 2.2         4739609
LPL   001.26 307.2 m E Pg      2011/08/20 07:11:12.8   0.0                          T                                        4739603
LPL   001.26 307.2 m E Sg      2011/08/20 07:11:28.7  -0.4                          T                 .7  .23 Ml 1.4         4739604
FRF   001.62 222.7 m E Pg      2011/08/20 07:11:19.1   0.0                          T                                        4739613
FRF   001.62 222.7 m E Sg      2011/08/20 07:11:39.9  -0.2                          T                1.5  .22 Ml 2.0         4739608
ORIF  001.63 276.2 m E Pg      2011/08/20 07:11:19.4  -0.1                          T                                        4739606
ORIF  001.63 276.2 m E Sg      2011/08/20 07:11:40.8   0.4                          T                1.9  .27 Ml 1.9         4739607
LMR   001.86 220.4 m E Pg      2011/08/20 07:11:23.6   0.1                          T                                        4739611
LMR   001.86 220.4 m E Sg      2011/08/20 07:11:47.5   0.0                          T                2.7  .29 Ml 2.2         4739610

.
EVENT     262749
    Date      Time       Latitude Longitude    Depth    Ndef Nsta Gap    Mag1  N    Mag2  N    Mag3  N   Author         ID
       rms   OT_Error      Smajor Sminor Az        Err   mdist  Mdist     Err        Err        Err      Quality

2011/08/20 07:56:22.2     44.7813    8.1298      2.0      17    8 261  Ml 2.3  8  Md 2.0  1              js067245    262749

      0.37   +-  0.30       4.8    2.4   82.82 +-  0.0    0.97   2.00   +-0.3      +-                    m i ke

NORTHERN ITALY
Sta     Dist  EvAz     Phase      Date       Time     TRes  Azim  AzRes  Slow  SRes Def   SNR       Amp   Per   Mag1   Mag2       ID
MBDF  000.97 267.3 m E Pg      2011/08/20 07:56:40.6   0.0                          T                                        4739631
MBDF  000.97 267.3 m E Sg      2011/08/20 07:56:52.8  -0.4                          T               13.5  .42 Ml 2.3 Md 2.0  4739624
SBF   001.04 208.7 m E Pg      2011/08/20 07:56:42.9   1.0                          T                                        4739625
SBF   001.04 208.7 m E Sg      2011/08/20 07:56:55.5   0.0                          T               18.8  .28 Ml 2.7         4739621
LPG   001.21 306.8 m E Pg      2011/08/20 07:56:45.3   0.0                          T                                        4739628
LPL   001.23 307.1 m E Pg      2011/08/20 07:56:45.5  -0.1                          T                                        4739629
LPL   001.23 307.1 m E Sg      2011/08/20 07:57:00.6  -0.8                          T                2.1  .26 Ml 1.8         4739619
FRF   001.62 221.7 m E Pn      2011/08/20 07:56:50.6   0.5                          T                                        4739627
FRF   001.62 221.7 m E Sg      2011/08/20 07:57:12.9  -0.4                          T                3.0  .20 Ml 2.3         4739623
ORIF  001.61 275.7 m E Pg      2011/08/20 07:56:52.5   0.2                          T                                        4739630
ORIF  001.61 275.7 m E Sg      2011/08/20 07:57:13.8   0.8                          T                4.6  .28 Ml 2.3         4739620
LMR   001.86 219.5 m E Pg      2011/08/20 07:56:56.5  -0.3                          T                                        4739626
LMR   001.86 219.5 m E Sg      2011/08/20 07:57:20.6  -0.1                          T                7.8  .29 Ml 2.6         4739622
SMRF  002.00 247.2 m E Pg      2011/08/20 07:56:59.2  -0.2                          T                                        4739618
SMRF  002.00 247.2 m E Sg      2011/08/20 07:57:25.4   0.2                          T                2.2  .26 Ml 2.1         4739617

.
EVENT     262750
    Date      Time       Latitude Longitude    Depth    Ndef Nsta Gap    Mag1  N    Mag2  N    Mag3  N   Author         ID
       rms   OT_Error      Smajor Sminor Az        Err   mdist  Mdist     Err        Err        Err      Quality

2011/08/20 09:07:47.1     43.3713   17.5093      2.0     297   21 020  Ml 4.3 14                         js067245    262750

      1.16   +-  0.07       2.2    1.6   33.09 +-  0.0    0.89  15.06   +-0.2                            m i ke

NORTHWESTERN BALKAN PEN.
Sta     Dist  EvAz     Phase      Date       Time     TRes  Azim  AzRes  Slow  SRes Def   SNR       Amp   Per   Mag1   Mag2       ID
PGF   006.30 265.4 m E P       2011/08/20 09:09:22.8  -0.7                          T                                        4739659
SBF   007.33 277.3 m E P       2011/08/20 09:09:35.7  -2.2                          T                                        4739666
SBF   007.33 277.3 m E Sn      2011/08/20 09:10:52.2   0.6                          T               41.4  .54 Ml 4.2         4739641
FRF   007.91 275.1 m E P       2011/08/20 09:09:43.5  -2.3                          T                                        4739668
MBDF  007.85 283.6 m E P       2011/08/20 09:09:44.1  -1.2                          T                                        4739672
MBDF  007.85 283.6 m E Sn      2011/08/20 09:11:02.8  -1.5                          T               25.3  .48 Ml 4.1         4739640
LPG   007.99 289.1 m E P       2011/08/20 09:09:46.0  -1.4                          T                                        4739669
LPG   007.99 289.1 m E Sn      2011/08/20 09:11:07.2  -0.5                          T               45.2  .59 Ml 4.3         4739642
LPL   008.00 289.2 m E P       2011/08/20 09:09:46.4  -1.1                          T                                        4739670
LPL   008.00 289.2 m E Sn      2011/08/20 09:11:08.8   0.8                          T               47.0  .48 Ml 4.4         4739643
LMR   008.02 273.5 m E P       2011/08/20 09:09:47.2  -0.2                          T                                        4739667
ORIF  008.51 284.5 m E P       2011/08/20 09:09:52.7  -1.6                          T                                        4739671
HINF  008.69 304.4 m E P       2011/08/20 09:09:55.7  -1.2                          T                                        4739662
HINF  008.69 304.4 m E Sn      2011/08/20 09:11:26.8   2.6                          T               21.6  .54 Ml 4.1         4739648
CABF  008.72 295.8 m E P       2011/08/20 09:09:56.4  -0.9                          T                                        4739663
CABF  008.72 295.8 m E Sn      2011/08/20 09:11:25.7   0.8                          T               13.2  .53 Ml 3.9         4739647
SMRF  008.67 278.1 m E P       2011/08/20 09:09:56.9   0.3                          T                                        4739658
VIVF  009.35 283.5 m E Pn      2011/08/20 09:10:01.6   1.3                          T                                        4739673
HAU   009.08 304.5 m E P       2011/08/20 09:10:01.9  -0.3                          T                                        4739661
HAU   009.08 304.5 m E Sn      2011/08/20 09:11:34.9   1.4                          T               54.4  .61 Ml 4.3         4739649
LASF  009.91 278.8 m E Pn      2011/08/20 09:10:07.6  -0.2                          T                                        4739656
LOR   010.37 296.8 m E Pn      2011/08/20 09:10:15.7   1.5                          T                                        4739660
LOR   010.37 296.8 m E Sn      2011/08/20 09:12:05.1   0.8                          T               23.7  .45 Ml 4.5         4739652
SSF   010.55 295.3 m E Pn      2011/08/20 09:10:15.8  -0.6                          T                                        4739653
SSF   010.55 295.3 m E Sn      2011/08/20 09:12:08.5   0.0                          T               14.0  .52 Ml 4.3         4739651
SMF   010.22 293.4 m E P       2011/08/20 09:10:17.7  -0.2                          T                                        4739665
SMF   010.22 293.4 m E Sn      2011/08/20 09:12:02.2   1.5                          T               16.2  .41 Ml 4.4         4739646
AVF   010.58 293.7 m E Pn      2011/08/20 09:10:18.4   1.5                          T                                        4739664
BGF   010.87 292.1 m E P       2011/08/20 09:10:25.4  -1.4                          T                                        4739654
BGF   010.87 292.1 m E Sn      2011/08/20 09:12:17.1   0.9                          T               15.9  .41 Ml 4.4         4739645
CAF   011.21 283.3 m E Pn      2011/08/20 09:10:26.2   0.7                          T                                        4739657
TCF   011.25 290.3 m E Sn      2011/08/20 09:12:25.8   0.5                          T                7.6  .45 Ml 4.2         4739650

.
