EVENT     264009
    Date      Time       Latitude Longitude    Depth    Ndef Nsta Gap    Mag1  N    Mag2  N    Mag3  N   Author         ID
       rms   OT_Error      Smajor Sminor Az        Err   mdist  Mdist     Err        Err        Err      Quality

2011/09/15 19:45:09.5     46.2740    8.4540      2.0       8    4 339  Ml 2.2  4                         js067245    264010

      0.86   +-  1.27      32.5   19.7  144.49 +-  0.0    1.42   2.26   +-0.1                            m i ke

SWITZERLAND
Sta     Dist  EvAz     Phase      Date       Time     TRes  Azim  AzRes  Slow  SRes Def   SNR       Amp   Per   Mag1   Mag2       ID
LPL   001.42 238.4 m E Pg      2011/09/15 19:45:36.0  -0.3                          T                                        4765417
LPL   001.42 238.4 m E Sg      2011/09/15 19:45:52.7  -1.9                          T                5.1  .36 Ml 2.2         4765418
LPG   001.42 237.5 m E Pg      2011/09/15 19:45:36.7   0.3                          T                                        4765415
LPG   001.42 237.5 m E Sg      2011/09/15 19:45:53.7  -1.0                          T                4.8  .49 Ml 2.0         4765416
MBDF  001.95 218.0 m E Pg      2011/09/15 19:45:45.8  -0.1                          T                                        4765421
MBDF  001.95 218.0 m E Sg      2011/09/15 19:46:10.8  -0.2                          T                6.9  .60 Ml 2.3         4765422
ORIF  002.26 234.0 m E Pg      2011/09/15 19:45:50.6  -0.9                          T                                        4765419
ORIF  002.26 234.0 m E Sg      2011/09/15 19:46:22.1   1.4                          T                7.9  .76 Ml 2.3         4765420

.
EVENT     264010
    Date      Time       Latitude Longitude    Depth    Ndef Nsta Gap    Mag1  N    Mag2  N    Mag3  N   Author         ID
       rms   OT_Error      Smajor Sminor Az        Err   mdist  Mdist     Err        Err        Err      Quality

2011/09/16 02:27:58.1     44.7060    6.6366      2.0       7    4 112  Ml 1.2  1  Md 1.3  2              js067245    264011

      0.33   +-  0.09       2.2    1.5    5.31 +-  0.0    0.10   1.15   +-         +-0.1                 m i ke

FRANCE
Sta     Dist  EvAz     Phase      Date       Time     TRes  Azim  AzRes  Slow  SRes Def   SNR       Amp   Per   Mag1   Mag2       ID
MBDF  000.10 077.7 m E Pg      2011/09/16 02:28:00.4   0.0                          T                                        4765426
MBDF  000.10 077.7 m E Sg      2011/09/16 02:28:01.7  -0.2                          T               25.6  .30        Md 1.3  4765427
ORIF  000.58 291.8 m E Pg      2011/09/16 02:28:09.3   0.1                          T                                        4765424
ORIF  000.58 291.8 m E Sg      2011/09/16 02:28:16.3  -0.5                          T                1.6  .22        Md 1.2  4765425
LPL   000.81 004.7 m E Sg      2011/09/16 02:28:24.2  -0.1                          T                 .3  .21                4765429
FRF   001.15 179.6 m E Sg      2011/09/16 02:28:34.4   0.1                          T                 .4  .23 Ml 1.2         4765428

.
EVENT     264011
    Date      Time       Latitude Longitude    Depth    Ndef Nsta Gap    Mag1  N    Mag2  N    Mag3  N   Author         ID
       rms   OT_Error      Smajor Sminor Az        Err   mdist  Mdist     Err        Err        Err      Quality

2011/09/16 03:41:54.5     44.9246    6.6979      2.0      14    7 161  Ml 1.9  1  Md 1.8  4              js067245    264012

      0.37   +-  0.11       3.2    1.7   88.41 +-  0.0    0.20   1.60   +-         +-0.1                 m i ke

FRANCE
Sta     Dist  EvAz     Phase      Date       Time     TRes  Azim  AzRes  Slow  SRes Def   SNR       Amp   Per   Mag1   Mag2       ID
MBDF  000.20 165.2 m E Pg      2011/09/16 03:41:58.3  -0.5                          T                                        4757785
MBDF  000.20 165.2 m E Sg      2011/09/16 03:42:01.7   0.1                          T               27.3  .20        Md 1.9  4757784
LPG   000.57 003.8 m E Pg      2011/09/16 03:42:05.7   0.0                          T                                        4757778
LPG   000.57 003.8 m E Sg      2011/09/16 03:42:13.8   0.5                          T                                        4757773
LPG   000.57 003.8 m E Sn      2011/09/16 03:42:17.0  -0.9                          T                                Md 1.9  4757772
ORIF  000.58 269.7 m E Pg      2011/09/16 03:42:05.7   0.1                          T                                        4757783
ORIF  000.58 269.7 m E Sg      2011/09/16 03:42:13.4   0.2                          T                4.0  .27        Md 1.7  4757782
LPL   000.59 002.3 m E Pg      2011/09/16 03:42:06.1   0.1                          T                                        4757780
LPL   000.59 002.3 m E Sg      2011/09/16 03:42:13.9   0.2                          T                5.7  .32        Md 1.8  4757775
FRF   001.36 181.6 m E Pg      2011/09/16 03:42:20.3   0.4                          T                                        4757781
FRF   001.36 181.6 m E Sg      2011/09/16 03:42:37.4  -0.1                          T                                        4757776
LMR   001.60 184.9 m E Pg      2011/09/16 03:42:24.3   0.1                          T                                        4757779
LMR   001.60 184.9 m E Sg      2011/09/16 03:42:46.6   1.8                          T                1.4  .25 Ml 1.9         4757777
VIVF  001.44 268.0 m E Sg      2011/09/16 03:42:39.2  -0.8                          T                                        4757774

.
EVENT     264012
    Date      Time       Latitude Longitude    Depth    Ndef Nsta Gap    Mag1  N    Mag2  N    Mag3  N   Author         ID
       rms   OT_Error      Smajor Sminor Az        Err   mdist  Mdist     Err        Err        Err      Quality

2011/09/16 07:12:49.3     47.8390    7.5591     18.9      16    5 064  Ml 1.4  2  Md 1.5  1              js067245    264013

      0.26   +-  0.05       1.0     .7    5.09 +-  0.5    0.17   1.59   +-0.2      +-                    m i ke

SWITZERLAND
Sta     Dist  EvAz     Phase      Date       Time     TRes  Azim  AzRes  Slow  SRes Def   SNR       Amp   Per   Mag1   Mag2       ID
HINF  000.48 267.6 m E Pg      2011/09/16 07:12:58.7  -0.2                          T                                        4757790
HINF  000.48 267.6 m E Sg      2011/09/16 07:13:05.3  -0.2                          T               15.1  .24        Md 1.5  4757789
CDF   000.60 341.8 m E Pg      2011/09/16 07:13:01.2   0.0                          T                                        4765431
CDF   000.60 341.8 m E Sg      2011/09/16 07:13:09.7   0.2                          T               14.1  .24                4757786
HAU   000.83 282.0 m E Pn      2011/09/16 07:13:04.4  -0.1                          T                                        4757787
HAU   000.83 282.0 m E Pg      2011/09/16 07:13:05.1  -0.1                          T                                        4765432
HAU   000.83 282.0 m E Sg      2011/09/16 07:13:16.1  -0.2                          T                8.4  .28                4757788
CABF  001.59 219.8 m E Pg      2011/09/16 07:13:19.0  -0.1                          T                                        4765433
CABF  001.59 219.8 m E Sg      2011/09/16 07:13:39.5  -0.1                          T                 .7  .27 Ml 1.5         4765434
PAGF  001.42 301.0 m E Sg      2011/09/16 07:13:34.3  -0.1                          T                 .5  .29 Ml 1.3         4765430

.
EVENT     264013
    Date      Time       Latitude Longitude    Depth    Ndef Nsta Gap    Mag1  N    Mag2  N    Mag3  N   Author         ID
       rms   OT_Error      Smajor Sminor Az        Err   mdist  Mdist     Err        Err        Err      Quality

2011/09/16 07:13:50.7     47.8370    7.5469     18.0 f     8    5 137  Ml 1.0  2  Md 1.4  1              js067245    264014

      0.25   +-  0.09       1.8    1.5  156.77 +-  0.0    0.28   1.58   +-0.5      +-                    m i ke

SWITZERLAND
Sta     Dist  EvAz     Phase      Date       Time     TRes  Azim  AzRes  Slow  SRes Def   SNR       Amp   Per   Mag1   Mag2       ID
HINF  000.47 267.8 m E Pg      2011/09/16 07:13:59.8  -0.3                          T                                        4757793
HINF  000.47 267.8 m E Sg      2011/09/16 07:14:06.5  -0.2                          T                5.9  .24        Md 1.4  4757794
CDF   000.60 342.6 m E Pg      2011/09/16 07:14:02.4  -0.2                          T                                        4765436
CDF   000.60 342.6 m E Sg      2011/09/16 07:14:10.8   0.0                          T                6.1  .21                4765437
HAU   000.82 282.3 m E Pg      2011/09/16 07:14:06.3  -0.2                          T                                        4757791
HAU   000.82 282.3 m E Sg      2011/09/16 07:14:17.2  -0.2                          T                5.5  .33                4757792
PAGF  001.41 301.2 m E Sg      2011/09/16 07:14:35.4  -0.2                          T                 .1  .17 Ml  .6         4765435
CABF  001.58 219.6 m E Sg      2011/09/16 07:14:40.6  -0.2                          T                 .3  .20 Ml 1.3         4765438

.
EVENT     264015
    Date      Time       Latitude Longitude    Depth    Ndef Nsta Gap    Mag1  N    Mag2  N    Mag3  N   Author         ID
       rms   OT_Error      Smajor Sminor Az        Err   mdist  Mdist     Err        Err        Err      Quality

2011/09/16 09:13:32.0     47.6339    6.2175       .0 f    20   10 118  Ml 2.1  8  Md 2.1  1              js067245    264016

      1.78   +-  0.13       3.2    2.1  135.75 +-  0.0    0.38   2.13   +-0.3      +-                    m i km

FRANCE
Sta     Dist  EvAz     Phase      Date       Time     TRes  Azim  AzRes  Slow  SRes Def   SNR       Amp   Per   Mag1   Mag2       ID
HAU   000.38 013.3 m E Pg      2011/09/16 09:13:39.4  -0.3                          T                                        4765443
HAU   000.38 013.3 m E Sg      2011/09/16 09:13:44.5  -0.4                          T               88.1  .88        Md 2.1  4765444
HINF  000.47 066.7 m E Pg      2011/09/16 09:13:41.2   0.0                          T                                        4765712
HINF  000.47 066.7 m E Sg      2011/09/16 09:13:47.5  -0.1                          T               45.7 1.02                4765439
SFTF  000.98 306.2 m E Pg      2011/09/16 09:13:50.7   0.2 129.9  4.5               T                                        4765713
SFTF  000.98 306.2 m E Sn      2011/09/16 09:14:05.6   0.2 127.2  1.9               T                6.2  .22 Ml 2.2         4765442
PAGF  000.98 340.5 m E Pn      2011/09/16 09:13:51.5   0.0 175.6  15.4              T                                        4765714
PAGF  000.98 340.5 m E Sn      2011/09/16 09:14:05.6   0.1 168.3  8.2               T                1.4  .27 Ml 1.5         4765715
CABF  001.03 185.0 m E Pg      2011/09/16 09:13:51.6   0.0                          T                                        4765707
CABF  001.03 185.0 m E Pn      2011/09/16 09:13:52.5   0.2                          T                                        4765440
CABF  001.03 185.0 m E Sn      2011/09/16 09:14:06.8   0.1                          T                7.9  .33 Ml 2.2         4765441
CDF   001.05 042.0 m E Pg      2011/09/16 09:13:52.1   0.0                          T                                        4765717
CDF   001.05 042.0 m E Sg      2011/09/16 09:14:05.5  -0.4                          T                5.4  .24 Ml 2.3         4765718
LOR   001.64 258.0 m E Pg      2011/09/16 09:14:02.8   0.0  84.4  8.2               T                                        4765719
LOR   001.64 258.0 m E Sg      2011/09/16 09:14:24.5   0.3  79.2  3.0               T                2.7  .21 Ml 2.2         4765720
SMF   001.90 239.5 m E Pg      2011/09/16 09:14:07.5  -0.1                          T                                        4765710
SMF   001.90 239.5 m E Sg      2011/09/16 09:14:32.2  -0.1                          T                2.0  .27 Ml 2.1         4765711
MEZF  001.17 318.4 m E Sn      2011/09/16 09:14:10.1   0.2 153.2  15.7              T                4.9  .26 Ml 2.2         4765716
AVF   002.13 247.7 m E Pg      2011/09/16 09:14:11.8   0.0                          T                                        4765708
AVF   002.13 247.7 m E Sg      2011/09/16 09:14:39.4   0.1                          T                 .9  .23 Ml 1.8         4765709

.
EVENT     264016
    Date      Time       Latitude Longitude    Depth    Ndef Nsta Gap    Mag1  N    Mag2  N    Mag3  N   Author         ID
       rms   OT_Error      Smajor Sminor Az        Err   mdist  Mdist     Err        Err        Err      Quality

2011/09/16 10:01:31.0     47.6391    6.2319       .0 f    14    7 118  Ml 2.2  5  Md 2.2  1              js067245    264017

      1.25   +-  0.10       2.4    1.6  144.48 +-  0.0    0.38   1.65   +-0.4      +-                    m i km

FRANCE
Sta     Dist  EvAz     Phase      Date       Time     TRes  Azim  AzRes  Slow  SRes Def   SNR       Amp   Per   Mag1   Mag2       ID
HAU   000.38 012.0 m E Pg      2011/09/16 10:01:38.3  -0.2                          T                                        4765744
HAU   000.38 012.0 m E Sg      2011/09/16 10:01:43.4  -0.3                          T               62.4  .84        Md 2.2  4765745
HINF  000.46 066.8 m E Pg      2011/09/16 10:01:40.0   0.0                          T                                        4765737
HINF  000.46 066.8 m E Sg      2011/09/16 10:01:46.2   0.0                          T               47.8  .84                4765740
SFTF  000.98 305.6 m E Pg      2011/09/16 10:01:49.7   0.0 124.9  0.2               T                                        4765732
SFTF  000.98 305.6 m E Sn      2011/09/16 10:02:04.4  -0.1 141.8  17.0              T               10.7  .48 Ml 2.2         4765733
PAGF  000.98 339.9 m E Pn      2011/09/16 10:01:50.8   0.3                          T                                        4765742
PAGF  000.98 339.9 m E Sn      2011/09/16 10:02:04.5   0.1 154.2  -5.2              T                4.2  .71 Ml 1.6         4765743
CDF   001.04 041.8 m E Pg      2011/09/16 10:01:51.0   0.1                          T                                        4765734
CDF   001.04 041.8 m E Sg      2011/09/16 10:02:04.5  -0.1                          T               17.6  .60 Ml 2.4         4765741
CABF  001.03 185.5 m E Pn      2011/09/16 10:01:51.4   0.0                          T                                        4765738
CABF  001.03 185.5 m E Sn      2011/09/16 10:02:05.9   0.0                          T               23.5  .79 Ml 2.3         4765739
LOR   001.65 257.9 m E Pg      2011/09/16 10:02:02.0  -0.1  73.9  -2.3              T                                        4765735
LOR   001.65 257.9 m E Sg      2011/09/16 10:02:23.4  -0.1  79.2  3.1               T               39.0 1.08 Ml 2.7         4765736

.
EVENT     264019
    Date      Time       Latitude Longitude    Depth    Ndef Nsta Gap    Mag1  N    Mag2  N    Mag3  N   Author         ID
       rms   OT_Error      Smajor Sminor Az        Err   mdist  Mdist     Err        Err        Err      Quality

2011/09/16 13:37:56.2     44.6155    7.2090      2.0      18    9 187  Ml 2.2  7  Md 2.1  3              js067245    264020

      0.33   +-  0.13       2.7    1.4   77.13 +-  0.0    0.33   1.82   +-0.3      +-0.0                 m i ke

NORTHERN ITALY
Sta     Dist  EvAz     Phase      Date       Time     TRes  Azim  AzRes  Slow  SRes Def   SNR       Amp   Per   Mag1   Mag2       ID
MBDF  000.33 289.8 m E Pg      2011/09/16 13:38:03.1   0.3                          T                                        4757808
MBDF  000.33 289.8 m E Sg      2011/09/16 13:38:07.7   0.4                          T               66.3  .27        Md 2.1  4757807
SBF   000.77 167.7 m E Pg      2011/09/16 13:38:11.0   0.3                          T                                        4765765
SBF   000.77 167.7 m E Sg      2011/09/16 13:38:19.8  -1.0                          T                7.9  .23                4757795
LPG   000.94 340.0 m E Pg      2011/09/16 13:38:13.9  -0.3                          T                                        4757804
LPG   000.94 340.0 m E Sg      2011/09/16 13:38:26.3  -0.1                          T               10.7  .28 Ml 2.4         4757801
LPL   000.96 339.6 m E Pg      2011/09/16 13:38:14.6   0.1                          T                                        4757805
LPL   000.96 339.6 m E Sg      2011/09/16 13:38:27.3   0.3                          T                4.6  .24 Ml 2.1 Md 2.0  4757802
ORIF  000.99 288.2 m E Pg      2011/09/16 13:38:14.8  -0.2                          T                                        4757806
ORIF  000.99 288.2 m E Sg      2011/09/16 13:38:27.3  -0.6                          T               12.4  .32 Ml 2.4 Md 2.1  4757803
FRF   001.13 201.2 m E Pg      2011/09/16 13:38:17.4   0.1                          T                                        4757800
FRF   001.13 201.2 m E Sg      2011/09/16 13:38:31.8  -0.1                          T                9.1  .26 Ml 2.5         4757799
LMR   001.38 201.8 m E Pg      2011/09/16 13:38:21.1  -0.7                          T                                        4757797
LMR   001.38 201.8 m E Sg      2011/09/16 13:38:39.4  -0.3                          T                8.2  .22 Ml 2.6         4757796
SMRF  001.34 242.0 m E Pg      2011/09/16 13:38:21.5   0.4                          T                                        4765764
SMRF  001.34 242.0 m E Sg      2011/09/16 13:38:38.2  -0.3                          T                2.2  .29 Ml 1.8         4757798
VIVF  001.82 278.5 m E Pg      2011/09/16 13:38:30.0  -0.1                          T                                        4765762
VIVF  001.82 278.5 m E Sg      2011/09/16 13:38:53.4  -0.2                          T                2.5  .49 Ml 1.9         4765763

.
EVENT     264022
    Date      Time       Latitude Longitude    Depth    Ndef Nsta Gap    Mag1  N    Mag2  N    Mag3  N   Author         ID
       rms   OT_Error      Smajor Sminor Az        Err   mdist  Mdist     Err        Err        Err      Quality

2011/09/17 03:08:37.8     41.9791    2.5787      4.0 f    26    3 095  Ml 1.5  3                         js067245    264042

      0.41   +-  0.10       1.7    1.4  168.25 +-  0.0    0.24   2.66   +-0.1                            m i ke

SPAIN
Sta     Dist  EvAz     Phase      Date       Time     TRes  Azim  AzRes  Slow  SRes Def   SNR       Amp   Per   Mag1   Mag2       ID
MTLF  001.39 349.0 m E Pg      2011/09/17 03:09:03.4  -0.3                          T                                        4757811
MTLF  001.39 349.0 m E Sg      2011/09/17 03:09:21.2  -0.5                          T                 .6  .25 Ml 1.4         4757810
EPF   001.96 303.1 m E Pg      2011/09/17 03:09:14.2  -0.1                          T                                        4765927
EPF   001.96 303.1 m E Sg      2011/09/17 03:09:39.2  -0.4                          T                 .7  .24 Ml 1.6         4757809
ETSF  002.50 292.6 m E Pg      2011/09/17 03:09:24.8   0.5                          T                                        4765925
ETSF  002.50 292.6 m E Sg      2011/09/17 03:09:56.0  -0.4                          T                 .2  .16 Ml 1.4         4765926

.
