EVENT     295194
    Date      Time       Latitude Longitude    Depth    Ndef Nsta Gap    Mag1  N    Mag2  N    Mag3  N   Author         ID
       rms   OT_Error      Smajor Sminor Az        Err   mdist  Mdist     Err        Err        Err      Quality

2013/04/03 03:53:55.1     42.4695    2.0246     10.0 f   194   37 030  Ml 3.2 41  Md 3.2  2              bulletin    295294
                                                                                                         _ldg
      0.78   +-  0.05       1.0     .8  141.21 +-  0.0    0.04   6.95   +-0.5      +-0.1                 m i ke

PYRENEES
Sta     Dist  EvAz     Phase      Date       Time     TRes  Azim  AzRes  Slow  SRes Def   SNR       Amp   Per   Mag1   Mag2       ID
MTLF  000.88 009.2 m E Pg      2013/04/03 03:54:11.3  -0.5                          T                                        5242813
MTLF  000.88 009.2 m E Sg      2013/04/03 03:54:23.2  -0.1                          T              185.1  .18 Ml 3.8 Md 3.2  5242828
FBR   001.06 175.9 m E Pg      2013/04/03 03:54:14.4  -0.5                          T                                        5243201
FBR   001.06 175.9 m E Sg      2013/04/03 03:54:29.1   0.4                          T                                        5243202
EPF   001.36 294.9 m E Pn      2013/04/03 03:54:18.8   0.2                          T                                        5242812
EPF   001.36 294.9 m E Pg      2013/04/03 03:54:20.9   0.3                          T                                        5246021
EPF   001.36 294.9 m E Sn      2013/04/03 03:54:35.5  -0.1                          T                                        5246020
EPF   001.36 294.9 m E Sg      2013/04/03 03:54:38.4   0.2                          T               55.7  .22 Ml 3.4 Md 3.1  5242827
LASF  002.09 039.2 m E Pn      2013/04/03 03:54:28.2  -0.3                          T                                        5242810
LASF  002.09 039.2 m E Pg      2013/04/03 03:54:33.5  -0.5                          T                                        5242830
LASF  002.09 039.2 m E Sg      2013/04/03 03:55:00.6  -0.3                          T               32.7  .28 Ml 3.3         5242831
ETSF  001.95 283.6 m E Pg      2013/04/03 03:54:31.3  -0.2                          T                                        5246022
ETSF  001.95 283.6 m E Sg      2013/04/03 03:54:57.0   0.3                          T               88.0  .30 Ml 3.7         5242826
CAF   002.46 000.7 m E Pn      2013/04/03 03:54:33.5   0.0                          T                                        5242808
CAF   002.46 000.7 m E Pg      2013/04/03 03:54:40.1  -0.7                          T                                        5246026
CAF   002.46 000.7 m E Sn      2013/04/03 03:55:02.1   0.3                          T                                        5246025
CAF   002.46 000.7 m E Sg      2013/04/03 03:55:11.4  -0.9                          T               53.2  .18 Ml 3.8         5242824
SJPF  002.48 286.2 m E Pn      2013/04/03 03:54:34.3   0.6                          T                                        5242809
SJPF  002.48 286.2 m E Pg      2013/04/03 03:54:41.1   0.0                          T                                        5246023
SJPF  002.48 286.2 m E Sn      2013/04/03 03:55:02.4   0.1                          T                                        5246024
SJPF  002.48 286.2 m E Sg      2013/04/03 03:55:13.0   0.0                          T               29.2  .40 Ml 3.2         5242825
LFF   002.64 339.8 m E Pn      2013/04/03 03:54:36.2   0.3                          T                                        5242807
LFF   002.64 339.8 m E Pg      2013/04/03 03:54:44.1   0.0                          T                                        5242832
LFF   002.64 339.8 m E Sn      2013/04/03 03:55:06.2   0.1                          T                                        5242857
LFF   002.64 339.8 m E Sg      2013/04/03 03:55:17.8  -0.2                          T              137.6  .36 Ml 3.8         5242823
RJF   002.86 352.8 m E Pn      2013/04/03 03:54:39.2   0.3                          T                                        5242806
RJF   002.86 352.8 m E Pg      2013/04/03 03:54:48.3   0.2                          T                                        5242833
RJF   002.86 352.8 m E Sn      2013/04/03 03:55:11.2  -0.2                          T                                        5242856
RJF   002.86 352.8 m E Sg      2013/04/03 03:55:24.8  -0.1                          T               35.0  .20 Ml 3.3         5242822
SMRF  003.00 058.7 m E Pn      2013/04/03 03:54:41.4   0.5                          T                                        5242803
SMRF  003.00 058.7 m E Pg      2013/04/03 03:54:51.0   0.2                          T                                        5246009
SMRF  003.00 058.7 m E Sn      2013/04/03 03:55:15.4   0.6                          T                                        5242860
SMRF  003.00 058.7 m E Sg      2013/04/03 03:55:29.3   0.0                          T                8.2  .37 Ml 2.8         5246008
VIVF  003.06 037.9 m E Pn      2013/04/03 03:54:41.8   0.0                          T                                        5242797
VIVF  003.06 037.9 m E Pg      2013/04/03 03:54:51.7  -0.3                          T                                        5246019
VIVF  003.06 037.9 m E Sn      2013/04/03 03:55:16.1  -0.2                          T                                        5246018
VIVF  003.06 037.9 m E Sg      2013/04/03 03:55:31.2  -0.1                          T               16.7  .34 Ml 3.1         5242829
LMR   003.41 073.8 m E Pn      2013/04/03 03:54:47.4   1.0                          T                                        5242865
LMR   003.41 073.8 m E Pg      2013/04/03 03:54:58.0  -0.2                          T                                        5246005
LMR   003.41 073.8 m E Sn      2013/04/03 03:55:24.8   0.3                          T                                        5242862
LMR   003.41 073.8 m E Sg      2013/04/03 03:55:42.2   0.2                          T                5.2  .28 Ml 2.8         5246006
FRF   003.56 070.6 m E Pn      2013/04/03 03:54:49.3   0.8                          T                                        5242804
FRF   003.56 070.6 m E Sn      2013/04/03 03:55:28.4   0.3                          T                                        5242861
FRF   003.56 070.6 m E Sg      2013/04/03 03:55:46.8   0.0                          T                7.7  .38 Ml 2.9         5246007
ORIF  003.72 047.5 m E Pn      2013/04/03 03:54:51.1   0.4                          T                                        5242798
ORIF  003.72 047.5 m E Pg      2013/04/03 03:55:04.1   0.1                          T                                        5246014
ORIF  003.72 047.5 m E Sn      2013/04/03 03:55:32.2   0.3                          T                                        5242859
ORIF  003.72 047.5 m E Sg      2013/04/03 03:55:51.7  -0.1                          T                 .9  .25 Ml 2.2         5246013
TCF   003.82 001.9 m E Pn      2013/04/03 03:54:52.6   0.5                          T                                        5242844
TCF   003.82 001.9 m E Pg      2013/04/03 03:55:05.4  -0.5                          T                                        5242839
TCF   003.82 001.9 m E Sg      2013/04/03 03:55:55.6   0.7                          T               30.3  .52 Ml 3.4         5242816
BGF   004.13 007.9 m E Pn      2013/04/03 03:54:56.4   0.2                          T                                        5242796
BGF   004.13 007.9 m E Pg      2013/04/03 03:55:11.4  -0.2                          T                                        5242836
BGF   004.13 007.9 m E Sg      2013/04/03 03:56:04.5  -0.1                          T               57.5  .32 Ml 3.9         5242820
MBDF  004.12 055.2 m E Pn      2013/04/03 03:54:56.6   0.3                          T                                        5246017
MBDF  004.12 055.2 m E Pg      2013/04/03 03:55:11.6   0.1                          T                                        5246016
MBDF  004.12 055.2 m E Sn      2013/04/03 03:55:41.3  -0.4                          T                                        5242858
MBDF  004.12 055.2 m E Sg      2013/04/03 03:56:04.4   0.0                          T                1.2  .31 Ml 2.3         5246015
SBF   004.20 068.8 m E Pn      2013/04/03 03:54:57.7   0.4                          T                                        5242801
SBF   004.20 068.8 m E Pg      2013/04/03 03:55:12.9   0.0                          T                                        5246004
SBF   004.20 068.8 m E Sn      2013/04/03 03:55:43.7   0.3                          T                                        5242863
SBF   004.20 068.8 m E Sg      2013/04/03 03:56:06.6  -0.1                          T                4.1  .29 Ml 2.8         5246003
SMF   004.37 016.6 m E Pn      2013/04/03 03:54:59.7   0.1                          T                                        5242847
SMF   004.37 016.6 m E Pg      2013/04/03 03:55:16.1   0.1                          T                                        5242837
SMF   004.37 016.6 m E Sn      2013/04/03 03:55:47.9   0.4                          T                                        5242854
SMF   004.37 016.6 m E Sg      2013/04/03 03:56:12.2   0.0                          T               10.8  .36 Ml 3.2         5242818
MFF   004.41 340.2 m E Pn      2013/04/03 03:54:59.8  -0.3                          T                                        5242805
MFF   004.41 340.2 m E Pg      2013/04/03 03:55:15.6  -1.1                          T                                        5242834
MFF   004.41 340.2 m E Sn      2013/04/03 03:55:49.9   1.4                          T                                        5242853
MFF   004.41 340.2 m E Sg      2013/04/03 03:56:13.2  -0.2                          T                9.3  .24 Ml 3.5         5242821
AVF   004.42 011.9 m E Pn      2013/04/03 03:55:00.4   0.1                          T                                        5242846
AVF   004.42 011.9 m E Pg      2013/04/03 03:55:17.0   0.0                          T                                        5242838
AVF   004.42 011.9 m E Sg      2013/04/03 03:56:13.5  -0.2                          T                7.2  .24 Ml 3.2         5242817
LPG   004.56 046.8 m E Pn      2013/04/03 03:55:03.3   0.8                          T                                        5242799
LPG   004.56 046.8 m E Pg      2013/04/03 03:55:19.6  -0.3                          T                                        5246012
LPG   004.56 046.8 m E Sn      2013/04/03 03:55:52.3  -0.1                          T                                        5246011
LPG   004.56 046.8 m E Sg      2013/04/03 03:56:18.2  -0.2                          T                 .7  .21 Ml 2.3         5246010
LPL   004.56 046.5 m E Pn      2013/04/03 03:55:04.2   1.8                          T                                        5242800
LPL   004.56 046.5 m E Sg      2013/04/03 03:56:18.0  -0.3                          T                 .9  .27 Ml 2.3         5246002
SSF   004.71 012.4 m E Pn      2013/04/03 03:55:04.5   0.3                          T                                        5242843
SSF   004.71 012.4 m E Pg      2013/04/03 03:55:21.5  -0.7                          T                                        5242840
SSF   004.71 012.4 m E Sg      2013/04/03 03:56:22.5  -0.2                          T               10.8  .35 Ml 3.4         5242815
HYF   004.82 005.0 m E Pn      2013/04/03 03:55:05.9   0.3                          T                                        5246027
HYF   004.82 005.0 m E Pg      2013/04/03 03:55:24.4   0.2                          T                                        5246028
HYF   004.82 005.0 m E Sn      2013/04/03 03:55:59.0   0.8                          T                                        5242855
HYF   004.82 005.0 m E Sg      2013/04/03 03:56:26.0   0.0                          T                                        5242819
LOR   004.97 014.6 m E Pn      2013/04/03 03:55:08.5   0.7                          T                                        5242842
LOR   004.97 014.6 m E Pg      2013/04/03 03:55:26.7  -0.4 195.3  -0.6              T                                        5242841
LOR   004.97 014.6 m E Sn      2013/04/03 03:56:01.2  -0.7                          T                                        5245981
LOR   004.97 014.6 m E Sg      2013/04/03 03:56:30.9   0.1 193.3  -2.6              T                8.4  .41 Ml 3.2         5242814
CABF  005.06 033.7 m E Pn      2013/04/03 03:55:09.1   0.1                          T                                        5242845
CABF  005.06 033.7 m E Pg      2013/04/03 03:55:28.8   0.0                          T                                        5242871
CABF  005.06 033.7 m E Sn      2013/04/03 03:56:04.2   0.2                          T                                        5246037
CABF  005.06 033.7 m E Sg      2013/04/03 03:56:33.8   0.2                          T               54.2 1.10 Ml 3.6         5242870
PGF   005.16 086.8 m E Pn      2013/04/03 03:55:10.1  -0.3                          T                                        5242802
PGF   005.16 086.8 m E Sn      2013/04/03 03:56:06.6   0.2                          T               12.8  .36 Ml 3.7         5242864
SFTF  006.12 019.3 m E Pn      2013/04/03 03:55:23.6   0.3                          T                                        5246034
SFTF  006.12 019.3 m E Pg      2013/04/03 03:55:48.0  -0.2                          T                                        5246033
SFTF  006.12 019.3 m E Sn      2013/04/03 03:56:29.5   0.3                          T                                        5246036
SFTF  006.12 019.3 m E Sg      2013/04/03 03:57:06.4  -0.1                          T                7.2  .35 Ml 3.4         5246035
QUIF  006.56 327.8 m E Pn      2013/04/03 03:55:30.8   1.4                          T                                        5242866
QUIF  006.56 327.8 m E Sn      2013/04/03 03:56:40.1   0.2                          T                3.0  .25 Ml 3.3         5242852
SGMF  006.62 332.4 m E Pn      2013/04/03 03:55:31.5   1.3                          T                                        5242867
SGMF  006.62 332.4 m E Sn      2013/04/03 03:56:41.2   0.0                          T                  1  .21 Ml 2.9         5242851
ROSF  006.95 329.4 m E Pn      2013/04/03 03:55:35.5   0.9                          T                                        5242835
ROSF  006.95 329.4 m E Sn      2013/04/03 03:56:49.1   0.0                          T                 .9  .21 Ml 2.9         5242850
HAU   006.32 027.4 m E Pg      2013/04/03 03:55:52.1   0.1                          T                                        5242873
HAU   006.32 027.4 m E Sn      2013/04/03 03:56:33.4  -0.7                          T                                        5246031
HAU   006.32 027.4 m E Sg      2013/04/03 03:57:13.3   0.4                          T                1.8  .30 Ml 2.7         5246032
HINF  006.34 030.9 m E Pg      2013/04/03 03:55:52.5   0.2                          T                                        5242872
HINF  006.34 030.9 m E Sg      2013/04/03 03:57:13.7   0.0                          T                2.0  .33 Ml 2.9         5246030
GRR   006.26 342.1 m E Sn      2013/04/03 03:56:32.3  -0.2                          T                                        5242849
GRR   006.26 342.1 m E Sg      2013/04/03 03:57:10.7  -0.2                          T                2.9  .24 Ml 3.1         5242868
LDF   006.31 346.9 m E Sn      2013/04/03 03:56:34.5   0.8                          T                                        5242848
LDF   006.31 346.9 m E Sg      2013/04/03 03:57:11.9  -0.6                          T                2.4  .29 Ml 3.0         5242869
FLN   006.53 345.3 m E Sg      2013/04/03 03:57:19.4  -0.1                          T                4.1  .39 Ml 3.1         5246029

.
