EVENT     262143
    Date      Time       Latitude Longitude    Depth    Ndef Nsta Gap    Mag1  N    Mag2  N    Mag3  N   Author         ID
       rms   OT_Error      Smajor Sminor Az        Err   mdist  Mdist     Err        Err        Err      Quality

2011/08/03 01:36:13.8     44.2987    4.3989      4.0 f   278   43 055  Ml 4.3 57  Md 4.0  5              bulletin    262143
                                                                                                         _ldg
      0.76   +-  0.04       1.0     .7  143.44 +-  0.0    0.45  10.76   +-0.3      +-0.2                 m i ke

FRANCE
Sta     Dist  EvAz     Phase      Date       Time     TRes  Azim  AzRes  Slow  SRes Def   SNR       Amp   Per   Mag1   Mag2       ID
LASF  000.45 240.5 m E Pg      2011/08/03 01:36:22.3  -0.2                          T   001.0                                4731478
LASF  000.45 240.5 m E Sg      2011/08/03 01:36:28.2  -0.2                          T             8818.9  .20        Md 4.4  4731437
VIVF  000.59 019.3 m E Pg      2011/08/03 01:36:24.9  -0.2                          T   001.0                                4731433
VIVF  000.59 019.3 m E Sg      2011/08/03 01:36:32.7  -0.2                          T   001.0     5911.6  .26        Md 4.0  4731434
VIVF  000.59 019.3 m E Sn      2011/08/03 01:36:35.5  -1.5                          T             3215.4  .18                4733283
ORIF  001.23 059.1 m E Pn      2011/08/03 01:36:36.2   0.0                          T   001.0                                4731429
ORIF  001.23 059.1 m E Sn      2011/08/03 01:36:51.7  -0.5                          T   001.0      544.3  .33 Ml 4.1         4731430
LMR   001.81 121.5 m E Pn      2011/08/03 01:36:43.0  -0.9                          T   001.0                                4731482
LMR   001.81 121.5 m E Pg      2011/08/03 01:36:47.0  -0.4                          T                                        4731805
LMR   001.81 121.5 m E Sn      2011/08/03 01:37:04.8  -1.1                          T                                        4731764
LMR   001.81 121.5 m E Sg      2011/08/03 01:37:10.1  -0.6                          T   001.0     1022.1  .27 Ml 4.8         4731483
FRF   001.78 113.7 m E Pn      2011/08/03 01:36:43.1  -0.6                          T   001.0                                4731474
FRF   001.78 113.7 m E P       2011/08/03 01:36:45.2  -0.5                          T                                        4731806
FRF   001.78 113.7 m E Sn      2011/08/03 01:37:05.1  -0.4                          T              285.9  .32 Ml 4.1         4731995
FRF   001.78 113.7 m E Sg      2011/08/03 01:37:09.4  -0.6                          T   001.0      476.5  .27 Ml 4.4         4731475
CAF   001.78 291.4 m E Pn      2011/08/03 01:36:43.5  -0.2                          T   001.0                                4731468
CAF   001.78 291.4 m E Pg      2011/08/03 01:36:47.3   0.3                          T                                        4731457
CAF   001.78 291.4 m E Sg      2011/08/03 01:37:09.6  -0.4                          T   001.0     1017.6  .25 Ml 4.8 Md 4.0  4731469
MBDF  001.75 075.0 m E Pn      2011/08/03 01:36:43.9   0.5                          T   001.0                                4731422
MBDF  001.75 075.0 m E Sn      2011/08/03 01:37:03.8  -1.1                          T              280.8  .44 Ml 3.9         4733032
MBDF  001.75 075.0 m E Sg      2011/08/03 01:37:08.5  -0.7                          T              534.5  .60 Ml 4.1         4731994
MTLF  001.85 239.5 m E Pn      2011/08/03 01:36:44.0  -0.5                          T   001.0                                4731427
MTLF  001.85 239.5 m E Pg      2011/08/03 01:36:47.8  -0.4                          T                                        4731436
MTLF  001.85 239.5 m E Sn      2011/08/03 01:37:06.5  -0.5                          T   001.0      194.6  .21 Ml 4.1         4731428
MTLF  001.85 239.5 m E Sg      2011/08/03 01:37:12.0   0.1                          T              950.5  .31 Ml 4.7         4731435
LPL   002.06 052.9 m E Pn      2011/08/03 01:36:48.3   0.6                          T   001.0                                4731489
LPL   002.06 052.9 m E Pg      2011/08/03 01:36:52.7   0.4                          T                                        4731999
LPL   002.06 052.9 m E Sn      2011/08/03 01:37:11.8  -0.4                          T   001.0       73.5  .27 Ml 3.7         4731490
LPL   002.06 052.9 m E Sg      2011/08/03 01:37:18.2  -0.7                          T               98.2  .22 Ml 3.9         4731765
LPG   002.06 053.5 m E Pn      2011/08/03 01:36:48.4   0.7                          T   001.0                                4731486
LPG   002.06 053.5 m E Pg      2011/08/03 01:36:52.9   0.5                          T                                        4731998
LPG   002.06 053.5 m E Sn      2011/08/03 01:37:11.7  -0.6                          T   001.0                                4731487
LPG   002.06 053.5 m E Sg      2011/08/03 01:37:18.3  -0.6                          T   001.0      498.3  .48 Ml 4.2         4731488
SBF   002.23 100.2 m E Pn      2011/08/03 01:36:49.6  -0.3                          T   001.0                                4731493
SBF   002.23 100.2 m E Pg      2011/08/03 01:36:54.8  -0.6                          T                                        4731997
SBF   002.23 100.2 m E Sn      2011/08/03 01:37:14.6  -1.6                          T   001.0      323.6  .41 Ml 4.2         4731494
SBF   002.23 100.2 m E Sg      2011/08/03 01:37:23.9  -0.2                          T              714.7  .38 Ml 4.5 Md 4.0  4731996
RJF   002.29 297.1 m E Pn      2011/08/03 01:36:50.4  -0.2                          T   001.0                                4731460
RJF   002.29 297.1 m E Pg      2011/08/03 01:36:56.8   0.5                          T                                        4731455
RJF   002.29 297.1 m E Sn      2011/08/03 01:37:17.9   0.4                          T   001.0                                4731461
RJF   002.29 297.1 m E Sg      2011/08/03 01:37:25.8   0.1                          T   001.0      561.8  .22 Ml 4.4         4731462
SMF   002.38 350.7 m E Pn      2011/08/03 01:36:51.4  -0.4                          T   001.0                                4731495
SMF   002.38 350.7 m E Pg      2011/08/03 01:36:58.5   0.5                          T                                        4731814
SMF   002.38 350.7 m E Sn      2011/08/03 01:37:19.0  -0.7                          T   001.0                                4731439
SMF   002.38 350.7 m E Sg      2011/08/03 01:37:28.5  -0.1                          T   001.0      402.9  .24 Ml 4.5         4731440
BGF   002.51 334.7 m E Pn      2011/08/03 01:36:53.4  -0.1                          T   001.0                                4731466
BGF   002.51 334.7 m E Pg      2011/08/03 01:37:00.9   0.6                          T                                        4731812
BGF   002.51 334.7 m E Sn      2011/08/03 01:37:22.2  -0.6                          T                                        4731987
BGF   002.51 334.7 m E Sg      2011/08/03 01:37:31.8  -0.9                          T   001.0     1028.8  .29 Ml 4.9         4731467
TCF   002.52 322.9 m E Pn      2011/08/03 01:36:53.6  -0.2                          T   001.0                                4731444
TCF   002.52 322.9 m E Pg      2011/08/03 01:37:00.6   0.0                          T   001.0                                4731445
TCF   002.52 322.9 m E Sn      2011/08/03 01:37:22.8  -0.3                          T   001.0                                4731446
TCF   002.52 322.9 m E Sg      2011/08/03 01:37:33.0   0.0                          T   001.0      559.1  .40 Ml 4.5         4731447
AVF   002.60 343.9 m E Pn      2011/08/03 01:36:54.3  -0.4                          T   001.0                                4731463
AVF   002.60 343.9 m E Pg      2011/08/03 01:37:02.6   0.7                          T   001.0                                4731464
AVF   002.60 343.9 m E Sg      2011/08/03 01:37:35.2  -0.2                          T   001.0      152.2  .19 Ml 4.2         4731465
CABF  002.60 026.6 m E Pn      2011/08/03 01:36:54.6  -0.4                          T   001.0                                4731449
CABF  002.60 026.6 m E Pg      2011/08/03 01:37:02.1   0.0                          T   001.0                                4731450
CABF  002.60 026.6 m E Sn      2011/08/03 01:37:24.6  -0.5                          T   001.0                                4731451
CABF  002.60 026.6 m E Sg      2011/08/03 01:37:34.9  -0.7                          T   001.0      463.0  .26 Ml 4.6         4731452
LFF   002.69 285.1 m E Pn      2011/08/03 01:36:56.9   0.9                          T   001.0                                4731480
LFF   002.69 285.1 m E Pg      2011/08/03 01:37:03.7   0.0                          T                                        4731456
LFF   002.69 285.1 m E Sn      2011/08/03 01:37:26.9  -0.2                          T   001.0      923.2  .28 Ml 4.7         4731481
LFF   002.69 285.1 m E Sg      2011/08/03 01:37:37.9  -0.3                          T              931.6  .28 Ml 4.7         4731808
SSF   002.83 347.6 m E Pn      2011/08/03 01:36:58.4   0.5                          T   001.0                                4731441
SSF   002.83 347.6 m E Pg      2011/08/03 01:37:06.7   0.3                          T                                        4731820
SSF   002.83 347.6 m E Sn      2011/08/03 01:37:30.6   0.1                          T   001.0                                4731442
SSF   002.83 347.6 m E Sg      2011/08/03 01:37:42.4  -0.4                          T   001.0      350.4  .29 Ml 4.6         4731443
LOR   002.99 352.9 m E Pn      2011/08/03 01:37:00.3   0.1 176.3  3.7               T   001.0                                4731484
LOR   002.99 352.9 m E Pg      2011/08/03 01:37:09.5   0.2 171.8  -0.7              T                                        4731821
LOR   002.99 352.9 m E Sn      2011/08/03 01:37:33.8  -0.6                          T                                        4731986
LOR   002.99 352.9 m E Sg      2011/08/03 01:37:47.2  -0.6 176.7  4.1               T   001.0      357.6  .29 Ml 4.5         4731485
EPF   003.21 248.1 m E Pn      2011/08/03 01:37:02.0  -1.1                          T   001.0                                4731472
EPF   003.21 248.1 m E Pg      2011/08/03 01:37:14.2   0.9                          T                                        4731438
EPF   003.21 248.1 m E Sg      2011/08/03 01:37:53.7  -0.8                          T   001.0      495.7  .22 Ml 4.8 Md 3.9  4731473
HYF   003.22 338.1 m E Pn      2011/08/03 01:37:03.3   0.2                          T                                        4731782
HYF   003.22 338.1 m E Pg      2011/08/03 01:37:13.7   0.3                          T                                        4731813
HYF   003.22 338.1 m E Sg      2011/08/03 01:37:54.7   0.1                          T                                        4731781
PGF   003.78 116.0 m E Pn      2011/08/03 01:37:09.7  -1.3                          T   001.0                                4731492
PGF   003.78 116.0 m E Sn      2011/08/03 01:37:52.5  -0.7                          T               32.7  .28 Ml 3.9         4731763
HINF  003.91 025.0 m E Pn      2011/08/03 01:37:11.0  -1.7                          T   001.0                                4731421
HINF  003.91 025.0 m E Pg      2011/08/03 01:37:25.6  -0.7                          T                                        4731783
HINF  003.91 025.0 m E Sn      2011/08/03 01:37:55.5  -0.8                          T               42.4  .18 Ml 4.0         4731784
HINF  003.91 025.0 m E Sg      2011/08/03 01:38:16.2  -0.3                          T              366.6  .31 Ml 4.7         4731815
ETSF  003.86 250.5 m E Pn      2011/08/03 01:37:11.5  -0.6                          T   001.0                                4731453
ETSF  003.86 250.5 m E P       2011/08/03 01:37:15.1  -0.4                          T                                        4732000
ETSF  003.86 250.5 m E Pg      2011/08/03 01:37:24.9  -0.5                          T                                        4731766
ETSF  003.86 250.5 m E Sn      2011/08/03 01:37:55.5   0.2                          T              142.8  .34 Ml 4.2         4731993
ETSF  003.86 250.5 m E Sg      2011/08/03 01:38:15.3   0.3                          T   001.0      225.8  .27 Ml 4.5         4731454
HAU   003.95 019.4 m E Pn      2011/08/03 01:37:11.7  -1.5                          T   001.0                                4731477
HAU   003.95 019.4 m E Pg      2011/08/03 01:37:26.4  -0.5                          T                                        4731785
HAU   003.95 019.4 m E Sg      2011/08/03 01:38:16.9  -0.6                          T              274.4  .26 Ml 4.4         4731458
SFTF  003.93 006.2 m E Pn      2011/08/03 01:37:12.6  -0.3                          T                                        4731791
SFTF  003.93 006.2 m E Pg      2011/08/03 01:37:26.4  -0.2 176.0  -10.7             T                                        4731792
SFTF  003.93 006.2 m E Sn      2011/08/03 01:37:56.9   0.1                          T                                        4731793
SFTF  003.93 006.2 m E Sg      2011/08/03 01:38:16.3  -0.8                          T              276.8  .39 Ml 4.5         4731790
MFF   003.94 307.4 m E Pn      2011/08/03 01:37:13.6   0.6                          T   001.0                                4731491
MFF   003.94 307.4 m E Pg      2011/08/03 01:37:28.0   1.3                          T                                        4731809
MFF   003.94 307.4 m E Sn      2011/08/03 01:37:56.8  -0.2                          T               29.9  .25 Ml 3.9         4731991
MFF   003.94 307.4 m E Sg      2011/08/03 01:38:16.6  -0.7                          T              139.3  .32 Ml 4.5         4731775
THEF  004.08 015.2 m E Pn      2011/08/03 01:37:13.9  -1.1                          T                                        4731786
THEF  004.08 015.2 m E Pg      2011/08/03 01:37:28.9  -0.5                          T                                        4731787
THEF  004.08 015.2 m E Sn      2011/08/03 01:38:00.3  -0.1                          T                                        4731789
THEF  004.08 015.2 m E Sg      2011/08/03 01:38:21.3  -0.5                          T              306.2  .40 Ml 4.6         4731788
SJPF  004.25 255.7 m E Pn      2011/08/03 01:37:15.5  -1.7                          T   001.0                                4731431
SJPF  004.25 255.7 m E Pg      2011/08/03 01:37:32.3  -0.1                          T                                        4731807
SJPF  004.25 255.7 m E Sn      2011/08/03 01:38:03.5  -0.8                          T               35.9  .23 Ml 3.9         4731992
SJPF  004.25 255.7 m E Sg      2011/08/03 01:38:27.0   0.1                          T   001.0       68.8  .29 Ml 4.1         4731432
MEZF  004.23 005.9 m E Pn      2011/08/03 01:37:16.9  -0.1 180.2  -6.2              T   001.0                                4731424
MEZF  004.23 005.9 m E Pg      2011/08/03 01:37:32.2   0.2 185.7  -0.6              T                                        4731816
MEZF  004.23 005.9 m E Sn      2011/08/03 01:38:03.2  -0.6                          T   001.0                                4731425
MEZF  004.23 005.9 m E Sg      2011/08/03 01:38:25.0  -1.3 194.8  8.4               T   001.0      414.1  .47 Ml 4.6         4731426
PAGF  004.36 011.7 m E Pn      2011/08/03 01:37:18.4  -0.3 184.8  -7.9              T                                        4731817
PAGF  004.36 011.7 m E Pg      2011/08/03 01:37:34.3  -0.1 195.6  3.0               T                                        4731818
PAGF  004.36 011.7 m E Sn      2011/08/03 01:38:06.8  -0.1                          T                                        4731795
PAGF  004.36 011.7 m E Sg      2011/08/03 01:38:29.0  -1.3 202.5  9.9               T               45.3  .37 Ml 3.8         4731794
CDF   004.57 024.8 m E Pn      2011/08/03 01:37:19.6  -2.1                          T   001.0                                4731470
CDF   004.57 024.8 m E Pg      2011/08/03 01:37:38.3  -0.2                          T                                        4731819
CDF   004.57 024.8 m E Sn      2011/08/03 01:38:11.5  -0.6                          T               52.5  .37 Ml 4.0         4731796
CDF   004.57 024.8 m E Sg      2011/08/03 01:38:36.3  -0.8                          T   001.0      122.6  .33 Ml 4.5         4731471
LDF   005.31 325.6 m E Pn      2011/08/03 01:37:32.3   0.6                          T   001.0                                4731479
LDF   005.31 325.6 m E Sg      2011/08/03 01:38:59.9  -0.2                          T               70.5  .39 Ml 4.2         4731776
GRR   005.47 320.2 m E Pn      2011/08/03 01:37:34.5   0.6                          T   001.0                                4731476
GRR   005.47 320.2 m E Sn      2011/08/03 01:38:33.6  -0.1                          T                                        4731989
GRR   005.47 320.2 m E Sg      2011/08/03 01:39:04.8  -0.4                          T               88.3  .42 Ml 4.2         4731990
FLN   005.59 324.7 m E Pn      2011/08/03 01:37:36.0   0.5 149.7  8.6               T                                        4731771
FLN   005.59 324.7 m E Pg      2011/08/03 01:37:57.2   0.1 146.9  5.8               T                                        4731767
FLN   005.59 324.7 m E Sg      2011/08/03 01:39:08.8   0.0 143.4  2.3               T               66.1  .44 Ml 4.0         4731777
RUP   005.70 017.7 m E Pn      2011/08/03 01:37:36.9  -0.2                          T                                        4732004
RUP   005.70 017.7 m E P       2011/08/03 01:37:41.4  -0.1                          T                                        4732003
RUP   005.70 017.7 m E Sg      2011/08/03 01:39:12.1  -0.3                          T                                        4731800
BAIF  005.76 358.8 m E Pn      2011/08/03 01:37:38.3   0.4                          T   001.0                                4731448
BAIF  005.76 358.8 m E Pg      2011/08/03 01:37:59.4  -0.9                          T                                        4731803
BAIF  005.76 358.8 m E Sn      2011/08/03 01:38:40.5   0.0                          T                                        4731802
BAIF  005.76 358.8 m E Sg      2011/08/03 01:39:14.7   0.5                          T              116.0  .63 Ml 4.3         4731801
GIVF  005.81 002.7 m E Pn      2011/08/03 01:37:38.9   0.3                          T   001.0                                4731419
GIVF  005.81 002.7 m E Pg      2011/08/03 01:38:00.8  -0.4                          T                                        4731804
GIVF  005.81 002.7 m E Sn      2011/08/03 01:38:41.3  -0.4                          T   001.0       27.8  .32 Ml 4.0         4731420
GIVF  005.81 002.7 m E Sg      2011/08/03 01:39:15.6  -0.1                          T              234.3  .58 Ml 4.7         4731459
SGMF  006.24 311.8 m E Pn      2011/08/03 01:37:44.3   0.1                          T                                        4731773
SGMF  006.24 311.8 m E Pg      2011/08/03 01:38:09.5   0.5                          T                                        4731769
SGMF  006.24 311.8 m E Sg      2011/08/03 01:39:29.5   0.6                          T               58.3  .42 Ml 4.3         4731779
QUIF  006.38 307.2 m E Pn      2011/08/03 01:37:46.4   0.2                          T                                        4731772
QUIF  006.38 307.2 m E Pg      2011/08/03 01:38:12.9   1.2                          T                                        4731768
