EVENT     279427
    Date      Time       Latitude Longitude    Depth    Ndef Nsta Gap    Mag1  N    Mag2  N    Mag3  N   Author         ID
       rms   OT_Error      Smajor Sminor Az        Err   mdist  Mdist     Err        Err        Err      Quality

2012/07/11 17:21:34.1     43.9680    7.9155       .0 f    12    4 161  Ml 1.3  3  Md 1.3  1              bulletin    279527
                                                                                                         _ldg
      0.47   +-  0.18       4.5    2.5  131.60 +-  0.0    0.06   1.20   +-0.4      +-                    m i km

NEAR SOUTH COAST OF FRANCE
Sta     Dist  EvAz     Phase      Date       Time     TRes  Azim  AzRes  Slow  SRes Def   SNR       Amp   Per   Mag1   Mag2       ID
SBF   000.36 253.3 m E Pg      2012/07/11 17:21:41.1  -0.3                          T                                        5024390
SBF   000.36 253.3 m E Sg      2012/07/11 17:21:47.1   0.7                          T                5.8  .20        Md 1.3  5024388
FRF   001.01 246.5 m E Pg      2012/07/11 17:21:52.6  -0.6                          T                                        5024389
FRF   001.01 246.5 m E Sg      2012/07/11 17:22:06.8   0.4                          T                1.7  .24 Ml 1.7         5024387
MBDF  001.12 313.1 m E Pg      2012/07/11 17:21:55.2  -0.2                          T                                        5028782
MBDF  001.12 313.1 m E Sg      2012/07/11 17:22:11.1   1.0                          T                 .3  .22 Ml 1.0         5028783
LMR   001.20 238.6 m E Pn      2012/07/11 17:21:55.7  -0.9                          T                                        5024392
LMR   001.20 238.6 m E Sg      2012/07/11 17:22:12.4  -0.2                          T                 .2  .19 Ml 1.0         5024391

.
EVENT     279407
    Date      Time       Latitude Longitude    Depth    Ndef Nsta Gap    Mag1  N    Mag2  N    Mag3  N   Author         ID
       rms   OT_Error      Smajor Sminor Az        Err   mdist  Mdist     Err        Err        Err      Quality

2012/07/12 01:22:12.6     45.6410    2.9254      2.0     124   37 043  Ml 2.9 42  Md 3.1  7              bulletin    279508
                                                                                                         _ldg
      0.44   +-  0.03        .6     .6  101.19 +-  0.0    0.12   5.03   +-0.3      +-0.1                 m i ke

FRANCE
Sta     Dist  EvAz     Phase      Date       Time     TRes  Azim  AzRes  Slow  SRes Def   SNR       Amp   Per   Mag1   Mag2       ID
TCF   000.82 322.6 m E Pg      2012/07/12 01:22:27.9  -0.1                          T   001.0                                5024077
TCF   000.82 322.6 m E Sg      2012/07/12 01:22:38.4  -0.2                          T   001.0      126.2  .32        Md 3.0  5024078
CAF   000.94 220.7 m E Pg      2012/07/12 01:22:29.6  -0.7                          T                                        5028816
CAF   000.94 220.7 m E Pn      2012/07/12 01:22:31.1  -0.1                          T   001.0                                5024038
CAF   000.94 220.7 m E Sg      2012/07/12 01:22:42.6   0.1                          T   001.0       85.5  .27 Ml 3.3 Md 3.2  5024039
BGF   000.92 356.6 m E Pg      2012/07/12 01:22:30.0   0.1                          T                                        5028818
BGF   000.92 356.6 m E Pn      2012/07/12 01:22:31.0   0.1                          T   001.0                                5024036
BGF   000.92 356.6 m E Sg      2012/07/12 01:22:41.5  -0.3                          T   001.0      146.6  .28 Ml 3.5 Md 3.0  5024037
RJF   001.05 251.7 m E Pg      2012/07/12 01:22:31.6  -0.7                          T                                        5028815
RJF   001.05 251.7 m E Pn      2012/07/12 01:22:32.7   0.1                          T   001.0                                5024012
RJF   001.05 251.7 m E Sn      2012/07/12 01:22:45.9  -1.1                          T              169.4  .30 Ml 3.3 Md 3.1  5024079
SMF   001.19 032.0 m E Pn      2012/07/12 01:22:34.5  -0.1                          T   001.0                                5024070
SMF   001.19 032.0 m E Pg      2012/07/12 01:22:35.1   0.2                          T                                        5028820
SMF   001.19 032.0 m E Sg      2012/07/12 01:22:50.2   0.0                          T   001.0       80.6  .32 Ml 3.3 Md 3.1  5024072
AVF   001.19 014.3 m E Pn      2012/07/12 01:22:34.6   0.0                          T   001.0                        Md 3.2  5024013
AVF   001.19 014.3 m E Pg      2012/07/12 01:22:35.0   0.2                          T                                        5028821
AVF   001.19 014.3 m E Sn      2012/07/12 01:22:50.2  -0.2                          T   001.0       96.2  .34 Ml 3.4         5024014
SSF   001.48 015.6 m E Pn      2012/07/12 01:22:38.4  -0.1                          T   001.0                                5024074
SSF   001.48 015.6 m E Pg      2012/07/12 01:22:40.4   0.3                          T                                        5028823
SSF   001.48 015.6 m E Sn      2012/07/12 01:22:57.1  -0.2                          T   001.0       24.3  .30 Ml 3.0         5024076
SSF   001.48 015.6 m E Sg      2012/07/12 01:22:59.6   0.3                          T               44.5  .34 Ml 3.2         5028801
VIVF  001.46 121.8 m E Pn      2012/07/12 01:22:38.6   0.2                          T   001.0                                5024029
VIVF  001.46 121.8 m E Pg      2012/07/12 01:22:39.9   0.0                          T   001.0                                5024030
VIVF  001.46 121.8 m E Sn      2012/07/12 01:22:56.5  -0.5                          T   001.0       34.4  .20 Ml 3.3         5024031
HYF   001.64 353.2 m E Pn      2012/07/12 01:22:40.7   0.0                          T                                        5024085
HYF   001.64 353.2 m E Pg      2012/07/12 01:22:43.3   0.2                          T                                        5028819
HYF   001.64 353.2 m E Sn      2012/07/12 01:23:00.9  -0.3                          T                                        5024080
HYF   001.64 353.2 m E Sg      2012/07/12 01:23:05.0   0.7                          T                                        5028803
LASF  001.70 156.7 m E Pn      2012/07/12 01:22:40.0  -0.6                          T   001.0                                5024053
LASF  001.70 156.7 m E Pg      2012/07/12 01:22:44.6   0.4                          T                                        5028814
LASF  001.70 156.7 m E Sn      2012/07/12 01:23:02.5  -0.1                          T   001.0                                5024054
LASF  001.70 156.7 m E Sg      2012/07/12 01:23:06.1  -0.1                          T               74.0  .34 Ml 3.5         5028811
LFF   001.69 246.3 m E Pn      2012/07/12 01:22:41.7   0.2                          T   001.0                                5024055
LFF   001.69 246.3 m E Pg      2012/07/12 01:22:43.0  -0.1                          T   001.0                                5024056
LFF   001.69 246.3 m E Sn      2012/07/12 01:23:02.4   0.0                          T   001.0                                5024057
LFF   001.69 246.3 m E Sg      2012/07/12 01:23:06.2   0.2                          T               94.2  .34 Ml 3.4         5028809
LOR   001.75 021.3 m E Pn      2012/07/12 01:22:42.3   0.1 201.6  -0.4              T   001.0                                5024059
LOR   001.75 021.3 m E Pg      2012/07/12 01:22:45.1  -0.1 205.4  3.4               T   001.0                                5024060
LOR   001.75 021.3 m E Sn      2012/07/12 01:23:03.3  -0.5 203.5  1.5               T   001.0                                5024061
LOR   001.75 021.3 m E Sg      2012/07/12 01:23:08.0   0.2 204.4  2.4               T               30.8  .20 Ml 3.3         5028800
ORIF  002.21 108.1 m E Pn      2012/07/12 01:22:48.4  -0.2                          T   001.0                                5024018
ORIF  002.21 108.1 m E P       2012/07/12 01:22:51.0   0.1                          T   001.0                                5024019
ORIF  002.21 108.1 m E Sg      2012/07/12 01:23:22.1   0.0                          T   001.0       11.2  .36 Ml 2.7         5024020
MFF   002.34 295.3 m E Pn      2012/07/12 01:22:50.5   0.2                          T   001.0                                5024068
MFF   002.34 295.3 m E Pg      2012/07/12 01:22:55.9  -0.1                          T                                        5028817
MFF   002.34 295.3 m E Sn      2012/07/12 01:23:17.8  -0.1                          T   001.0       10.3  .22 Ml 3.1         5024069
MFF   002.34 295.3 m E Sg      2012/07/12 01:23:26.1  -0.1                          T               21.8  .24 Ml 3.4         5028808
MTLF  002.35 192.7 m E Pn      2012/07/12 01:22:50.5   0.0                          T   001.0                                5024016
MTLF  002.35 192.7 m E Pg      2012/07/12 01:22:56.8   0.5                          T                                        5028813
MTLF  002.35 192.7 m E Sg      2012/07/12 01:23:26.6   0.0                          T   001.0        7.5  .20 Ml 2.9         5024017
CABF  002.40 065.1 m E Pn      2012/07/12 01:22:51.2  -0.1                          T   001.0                                5024002
CABF  002.40 065.1 m E Pg      2012/07/12 01:22:57.2  -0.1                          T   001.0                                5024003
CABF  002.40 065.1 m E Sg      2012/07/12 01:23:28.0  -0.3                          T   001.0       14.7  .44 Ml 2.8         5024004
SMRF  002.52 130.5 m E Pn      2012/07/12 01:22:53.3   0.6                          T   001.0                                5024032
SMRF  002.52 130.5 m E Pg      2012/07/12 01:22:59.2  -0.1                          T   001.0                                5024033
SMRF  002.52 130.5 m E Sn      2012/07/12 01:23:21.1  -1.0                          T   001.0                                5024034
SMRF  002.52 130.5 m E Sg      2012/07/12 01:23:31.4  -0.3                          T   001.0         11  .48 Ml 2.7         5024035
LPL   002.68 091.3 m E P       2012/07/12 01:22:57.4  -0.4                          T   001.0                                5024065
LPL   002.68 091.3 m E Pg      2012/07/12 01:23:03.0   0.5                          T   001.0                                5024066
LPL   002.68 091.3 m E Sg      2012/07/12 01:23:36.7  -0.2                          T   001.0        6.8  .40 Ml 2.6         5024067
LPG   002.69 091.7 m E P       2012/07/12 01:22:57.6  -0.5                          T   001.0                                5024062
LPG   002.69 091.7 m E Pg      2012/07/12 01:23:03.0   0.1                          T   001.0                                5024063
LPG   002.69 091.7 m E Sg      2012/07/12 01:23:36.7  -0.7                          T   001.0        5.4  .28 Ml 2.6         5024064
MEZF  003.21 026.2 m E Pn      2012/07/12 01:23:02.0  -0.1                          T   001.0                                5024011
MEZF  003.21 026.2 m E Pg      2012/07/12 01:23:11.9  -0.1 204.2  -3.6              T                                        5028822
MEZF  003.21 026.2 m E Sg      2012/07/12 01:23:53.0  -0.3 208.1  0.4               T   001.0       14.5  .29 Ml 3.2         5024015
EPF   003.20 216.3 m E Pn      2012/07/12 01:23:02.5   0.4                          T   001.0                                5024042
EPF   003.20 216.3 m E Sn      2012/07/12 01:23:38.3  -0.2                          T                                        5028810
EPF   003.20 216.3 m E Sg      2012/07/12 01:23:53.3   0.2                          T   001.0        6.8  .29 Ml 2.8         5024043
HAU   003.33 043.6 m E Pn      2012/07/12 01:23:03.9   0.0                          T                                        5024083
HAU   003.33 043.6 m E Sn      2012/07/12 01:23:41.5  -0.2                          T   001.0                                5024051
HAU   003.33 043.6 m E Sg      2012/07/12 01:23:56.9  -0.3                          T   001.0         10  .29 Ml 2.8         5024052
HINF  003.47 049.7 m E Pn      2012/07/12 01:23:04.3  -1.4                          T   001.0                                5024008
HINF  003.47 049.7 m E Sn      2012/07/12 01:23:44.8  -0.2                          T   001.0                                5024009
HINF  003.47 049.7 m E Sg      2012/07/12 01:24:01.1  -0.3                          T   001.0        9.0  .32 Ml 3.0         5024010
FRF   003.37 126.7 m E Pn      2012/07/12 01:23:05.5   1.2                          T   001.0                                5024046
FRF   003.37 126.7 m E Sn      2012/07/12 01:23:42.7   0.1                          T   001.0                                5024047
FRF   003.37 126.7 m E Sg      2012/07/12 01:23:58.2  -0.2                          T   001.0          4  .32 Ml 2.6         5024048
LDF   003.61 325.9 m E Pn      2012/07/12 01:23:07.5  -0.1                          T                                        5024082
LDF   003.61 325.9 m E Sn      2012/07/12 01:23:48.6   0.3                          T                                        5024081
LDF   003.61 325.9 m E Sg      2012/07/12 01:24:06.1   0.2                          T                6.4  .31 Ml 2.8         5028806
ETSF  003.71 223.6 m E Pn      2012/07/12 01:23:09.6   0.6                          T   001.0                                5024005
ETSF  003.71 223.6 m E Sn      2012/07/12 01:23:50.8   0.1                          T   001.0                                5024006
ETSF  003.71 223.6 m E Sg      2012/07/12 01:24:09.2   0.1                          T   001.0        4.7  .31 Ml 2.8         5024007
GRR   003.78 318.1 m E Pn      2012/07/12 01:23:09.8   0.0                          T   001.0                                5024049
GRR   003.78 318.1 m E Sn      2012/07/12 01:23:52.1  -0.1                          T   001.0        4.3  .21 Ml 2.8         5024050
GRR   003.78 318.1 m E Sg      2012/07/12 01:24:10.9   0.0                          T               10.5  .32 Ml 3.0         5028807
FLN   003.89 324.6 m E Pn      2012/07/12 01:23:11.2  -0.2 147.6  5.5               T   001.0                                5024044
FLN   003.89 324.6 m E Sn      2012/07/12 01:23:54.7  -0.2                          T   001.0                                5024045
FLN   003.89 324.6 m E Sg      2012/07/12 01:24:14.5   0.0 140.5  -1.6              T                5.9  .32 Ml 2.7         5028805
SJPF  003.90 231.1 m E Pn      2012/07/12 01:23:12.1   0.5                          T   001.0                                5024027
SJPF  003.90 231.1 m E Sn      2012/07/12 01:23:55.1  -0.1                          T   001.0        4.4  .30 Ml 2.8         5024028
CDF   004.07 045.5 m E Pn      2012/07/12 01:23:13.8  -0.1                          T                                        5024086
CDF   004.07 045.5 m E Sn      2012/07/12 01:23:59.2  -0.1                          T   001.0                                5024040
CDF   004.07 045.5 m E Sg      2012/07/12 01:24:20.0  -0.2                          T   001.0        6.4  .59 Ml 2.8         5024041
BAIF  004.50 010.6 m E Pn      2012/07/12 01:23:19.6  -0.1                          T   001.0                                5024000
BAIF  004.50 010.6 m E Sn      2012/07/12 01:24:09.0  -0.6                          T   001.0                                5024001
SGMF  004.57 306.8 m E Pn      2012/07/12 01:23:20.7   0.1                          T   001.0                                5024025
SGMF  004.57 306.8 m E Sn      2012/07/12 01:24:11.2  -0.1                          T   001.0         .5  .16 Ml 2.3         5024026
SGMF  004.57 306.8 m E Sg      2012/07/12 01:24:35.9   0.1                          T                2.2  .25 Ml 2.7         5028804
QUIF  004.76 300.7 m E Pn      2012/07/12 01:23:23.3   0.0                          T   001.0                                5024021
QUIF  004.76 300.7 m E Sn      2012/07/12 01:24:15.6  -0.1                          T   001.0        1.7  .20 Ml 2.8         5024022
ROSF  005.03 304.7 m E Pn      2012/07/12 01:23:26.9   0.1                          T   001.0                                5024023
ROSF  005.03 304.7 m E Sn      2012/07/12 01:24:21.8  -0.3                          T   001.0                                5024024
SFTF  002.95 028.7 m E Sn      2012/07/12 01:23:32.2  -0.2 211.0  0.8               T                1.7  .24 Ml 2.3         5024084
SFTF  002.95 028.7 m E Sg      2012/07/12 01:23:45.2   0.1 208.1  -2.1              T               28.6  .46 Ml 3.2         5028802
MBDF  002.87 107.2 m E Sg      2012/07/12 01:23:43.2   0.4                          T                8.4  .57 Ml 2.6         5028812
LMR   003.45 130.7 m E Sn      2012/07/12 01:23:45.2   0.8                          T   001.0        1.7  .24 Ml 2.4         5024058

.
