EVENT     287493
    Date      Time       Latitude Longitude    Depth    Ndef Nsta Gap    Mag1  N    Mag2  N    Mag3  N   Author         ID
       rms   OT_Error      Smajor Sminor Az        Err   mdist  Mdist     Err        Err        Err      Quality

2012/11/24 12:41:38.7     51.4987    6.5342      1.0 f    43   11 250  Ml 2.7 11                         bulletin    287593
                                                                                                         _ldg
      0.55   +-  0.19       3.2    2.5  177.01 +-  0.0    0.32   5.15   +-0.3                            m i sr

GERMANY
Sta     Dist  EvAz     Phase      Date       Time     TRes  Azim  AzRes  Slow  SRes Def   SNR       Amp   Per   Mag1   Mag2       ID
GIVF  001.77 218.5 m E Pn      2012/11/24 12:42:08.8   0.1                          T                                        5125628
GIVF  001.77 218.5 m E Pg      2012/11/24 12:42:11.4  -0.2                          T                                        5125620
GIVF  001.77 218.5 m E Sn      2012/11/24 12:42:30.7   0.1                          T                                        5125627
GIVF  001.77 218.5 m E Sg      2012/11/24 12:42:34.0  -0.5                          T               27.9  .24 Ml 3.2         5125621
BAIF  002.06 226.6 m E Pn      2012/11/24 12:42:12.9   0.2                          T                                        5125625
BAIF  002.06 226.6 m E Pg      2012/11/24 12:42:16.7  -0.4                          T                                        5125619
BAIF  002.06 226.6 m E Sn      2012/11/24 12:42:37.8   0.3                          T                                        5125626
BAIF  002.06 226.6 m E Sg      2012/11/24 12:42:41.8  -1.9                          T                9.4  .27 Ml 2.8         5125622
CDF   003.13 170.9 m E Pn      2012/11/24 12:42:27.5   0.2                          T                                        5125618
CDF   003.13 170.9 m E Sg      2012/11/24 12:43:17.1   0.2                          T                6.0  .55 Ml 2.6         5125610
MEZF  003.15 198.3 m E Pn      2012/11/24 12:42:28.1   0.5                          T                                        5125617
MEZF  003.15 198.3 m E Sn      2012/11/24 12:43:03.9   0.4                          T                                        5125607
MEZF  003.15 198.3 m E Sg      2012/11/24 12:43:17.7   0.1                          T               11.6  .42 Ml 2.9         5125606
SFTF  003.44 196.9 m E Pn      2012/11/24 12:42:32.1   0.6                          T                                        5125605
SFTF  003.44 196.9 m E Pg      2012/11/24 12:42:42.5   0.1                          T                                        5125604
SFTF  003.44 196.9 m E Sn      2012/11/24 12:43:09.8  -0.6                          T                                        5125603
SFTF  003.44 196.9 m E Sg      2012/11/24 12:43:26.4  -0.1                          T                5.5  .24 Ml 2.9         5125602
HAU   003.50 182.0 m E Pn      2012/11/24 12:42:33.4   1.1                          T                                        5125613
HAU   003.50 182.0 m E Pg      2012/11/24 12:42:43.4  -0.2                          T                                        5125614
HAU   003.50 182.0 m E Sn      2012/11/24 12:43:12.4   0.4                          T                                        5125616
HAU   003.50 182.0 m E Sg      2012/11/24 12:43:28.8   0.3                          T                5.5  .33 Ml 2.5         5125615
PAGF  002.99 190.4 m E Pg      2012/11/24 12:42:34.2   0.0                          T                                        5125609
PAGF  002.99 190.4 m E Sn      2012/11/24 12:42:59.9   0.1  13.7  3.9               T                1.6  .23 Ml 2.3         5125608
LOR   004.58 203.5 m E Pn      2012/11/24 12:42:47.0  -0.1  25.1  3.6               T                                        5125624
LOR   004.58 203.5 m E Sn      2012/11/24 12:43:37.9   0.1                          T                                        5125612
LOR   004.58 203.5 m E Sg      2012/11/24 12:44:02.4   0.1  19.9  -1.5              T                7.0  .41 Ml 3.0         5125611
SSF   004.86 205.2 m E Pn      2012/11/24 12:42:50.6  -0.3                          T                                        5125623
SSF   004.86 205.2 m E Sn      2012/11/24 12:43:44.9   0.4                          T                                        5125598
SSF   004.86 205.2 m E Sg      2012/11/24 12:44:11.2   0.2                          T                2.1  .30 Ml 2.8         5125597
CABF  004.90 183.6 m E Pn      2012/11/24 12:42:52.1   0.6                          T                                        5125601
CABF  004.90 183.6 m E Sn      2012/11/24 12:43:45.4  -0.2                          T                 .6  .30 Ml 2.2         5125600
AVF   005.15 205.1 m E Pn      2012/11/24 12:42:54.4  -0.4                          T                                        5125599

.
EVENT     287878
    Date      Time       Latitude Longitude    Depth    Ndef Nsta Gap    Mag1  N    Mag2  N    Mag3  N   Author         ID
       rms   OT_Error      Smajor Sminor Az        Err   mdist  Mdist     Err        Err        Err      Quality

2012/11/24 12:46:51.8     42.7908    1.7106      9.0 f    16    4 092  Ml 1.4  3                         bulletin    287978
                                                                                                         _ldg
      0.19   +-  0.04        .8     .7  135.18 +-  0.0    0.36   2.15   +-0.4                            m i ke

PYRENEES
Sta     Dist  EvAz     Phase      Date       Time     TRes  Azim  AzRes  Slow  SRes Def   SNR       Amp   Per   Mag1   Mag2       ID
MTLF  000.66 033.9 m E Pg      2012/11/24 12:47:04.4   0.0                          T                                        5137517
MTLF  000.66 033.9 m E Pn      2012/11/24 12:47:05.7  -0.1                          T                                        5137518
MTLF  000.66 033.9 m E Sg      2012/11/24 12:47:13.2   0.0                          T                                        5137516
MTLF  000.66 033.9 m E Sn      2012/11/24 12:47:15.9   0.1                          T                                        5137519
ETSF  001.67 274.5 m E Pg      2012/11/24 12:47:22.9  -0.2                          T                                        5137515
ETSF  001.67 274.5 m E Sg      2012/11/24 12:47:44.7   0.0                          T                 .2  .23 Ml 1.1         5137514
EPF   001.04 283.8 m E Sg      2012/11/24 12:47:24.8   0.1                          T                 .6  .19 Ml 1.3         5137511
CAF   002.15 006.7 m E P       2012/11/24 12:47:28.5   0.0                          T                                        5137513
CAF   002.15 006.7 m E Sg      2012/11/24 12:47:59.4  -0.1                          T                 .9  .23 Ml 1.8         5137512

.
EVENT     287399
    Date      Time       Latitude Longitude    Depth    Ndef Nsta Gap    Mag1  N    Mag2  N    Mag3  N   Author         ID
       rms   OT_Error      Smajor Sminor Az        Err   mdist  Mdist     Err        Err        Err      Quality

2012/11/24 15:38:58.9     43.6183    5.9572      2.0       9    5 197  Ml 1.5  2  Md 1.6  3              bulletin    287499
                                                                                                         _ldg
      0.28   +-  0.17       4.5    2.1   38.28 +-  0.0    0.45   1.25   +-0.1      +-0.1                 m i ke

NEAR SOUTH COAST OF FRANCE
Sta     Dist  EvAz     Phase      Date       Time     TRes  Azim  AzRes  Slow  SRes Def   SNR       Amp   Per   Mag1   Mag2       ID
SMRF  000.45 322.4 m E Pg      2012/11/24 15:39:07.8   0.3                          T                                        5124303
SMRF  000.45 322.4 m E Sg      2012/11/24 15:39:12.9  -0.7                          T                1.7  .14        Md 1.5  5124302
LMR   000.49 125.1 m E Pg      2012/11/24 15:39:08.3   0.1                          T                                        5124280
LMR   000.49 125.1 m E Sg      2012/11/24 15:39:14.7   0.0                          T                9.5  .22        Md 1.7  5124279
FRF   000.50 096.3 m E Pg      2012/11/24 15:39:08.3  -0.2                          T                                        5124282
FRF   000.50 096.3 m E Sg      2012/11/24 15:39:13.3  -1.9                          T                2.8  .16        Md 1.6  5124281
SBF   001.10 076.6 m E Pg      2012/11/24 15:39:19.4  -0.1                          T                                        5124278
SBF   001.10 076.6 m E Sg      2012/11/24 15:39:34.3   0.5                          T                 .6  .12 Ml 1.6         5124277
MBDF  001.25 027.6 m E Sg      2012/11/24 15:39:38.7   0.0                          T                 .6  .20 Ml 1.4         5137520

.
EVENT     287402
    Date      Time       Latitude Longitude    Depth    Ndef Nsta Gap    Mag1  N    Mag2  N    Mag3  N   Author         ID
       rms   OT_Error      Smajor Sminor Az        Err   mdist  Mdist     Err        Err        Err      Quality

2012/11/24 17:38:46.9     43.5537    4.4794      5.0 f    96   24 110  Ml 2.4 24  Md 2.3  1              bulletin    287502
                                                                                                         _ldg
      0.55   +-  0.05       1.2     .9  164.44 +-  0.0    0.69   4.86   +-0.3      +-                    m i ke

NEAR SOUTH COAST OF FRANCE
Sta     Dist  EvAz     Phase      Date       Time     TRes  Azim  AzRes  Slow  SRes Def   SNR       Amp   Per   Mag1   Mag2       ID
LASF  000.69 319.4 m E Pg      2012/11/24 17:38:59.7  -0.3                          T   001.0                                5124337
LASF  000.69 319.4 m E Sg      2012/11/24 17:39:09.0  -0.1                          T   001.0       31.4  .21        Md 2.3  5124338
SMRF  000.90 061.6 m E Pg      2012/11/24 17:39:04.3   0.5                          T   001.0                                5124363
SMRF  000.90 061.6 m E Sg      2012/11/24 17:39:15.7   0.1                          T   001.0       25.8  .22 Ml 2.8         5124364
SMRF  000.90 061.6 m E S       2012/11/24 17:39:19.9   0.1                          T                                        5137521
VIVF  001.31 006.0 m E Pn      2012/11/24 17:39:09.6  -0.6                          T   001.0                                5124360
VIVF  001.31 006.0 m E Pg      2012/11/24 17:39:11.8   0.4                          T   001.0                                5124361
VIVF  001.31 006.0 m E Sg      2012/11/24 17:39:28.4   0.1                          T   001.0       11.9  .21 Ml 2.7         5124362
LMR   001.49 097.8 m E Pn      2012/11/24 17:39:12.6  -0.1                          T   001.0                                5124340
LMR   001.49 097.8 m E Pg      2012/11/24 17:39:14.5  -0.2                          T                                        5124387
LMR   001.49 097.8 m E Sn      2012/11/24 17:39:31.1  -0.3                          T                                        5124391
LMR   001.49 097.8 m E Sg      2012/11/24 17:39:34.5   0.5                          T               17.2  .20 Ml 3.0         5124389
FRF   001.58 089.0 m E Pn      2012/11/24 17:39:13.6  -0.2                          T   001.0                                5124336
FRF   001.58 089.0 m E Pg      2012/11/24 17:39:16.1  -0.2                          T                                        5124388
FRF   001.58 089.0 m E Sn      2012/11/24 17:39:33.4   0.0                          T                                        5124390
FRF   001.58 089.0 m E Sg      2012/11/24 17:39:36.7   0.1                          T                7.7  .19 Ml 2.7         5124386
MTLF  001.66 263.4 m E Pn      2012/11/24 17:39:15.3   0.3                          T   001.0                                5124357
MTLF  001.66 263.4 m E Pg      2012/11/24 17:39:17.7  -0.2                          T                                        5124381
MTLF  001.66 263.4 m E Sn      2012/11/24 17:39:35.0  -0.4                          T   001.0                                5124358
MTLF  001.66 263.4 m E Sg      2012/11/24 17:39:39.0  -0.3                          T   001.0        7.3  .23 Ml 2.6         5124359
MBDF  002.02 053.8 m E Pn      2012/11/24 17:39:19.9  -0.2                          T                                        5124383
MBDF  002.02 053.8 m E Pg      2012/11/24 17:39:24.7   0.0                          T                                        5124399
MBDF  002.02 053.8 m E Sg      2012/11/24 17:39:50.7  -0.1                          T                1.2  .27 Ml 1.9         5124382
SBF   002.17 080.8 m E Pn      2012/11/24 17:39:21.9   0.0                          T   001.0                                5124344
SBF   002.17 080.8 m E Pg      2012/11/24 17:39:27.4   0.2                          T   001.0                                5124345
SBF   002.17 080.8 m E Sn      2012/11/24 17:39:47.3  -0.2                          T   001.0                                5124346
SBF   002.17 080.8 m E Sg      2012/11/24 17:39:55.4   0.3                          T   001.0        6.7  .21 Ml 2.7         5124347
CAF   002.21 309.2 m E Pn      2012/11/24 17:39:22.1  -0.4                          T                                        5124377
CAF   002.21 309.2 m E Pg      2012/11/24 17:39:28.0   0.0                          T                                        5124392
CAF   002.21 309.2 m E Sg      2012/11/24 17:39:56.2  -0.3                          T   001.0        3.4  .16 Ml 2.6         5124333
LPL   002.54 038.6 m E Pn      2012/11/24 17:39:26.9  -0.3                          T                                        5124385
LPL   002.54 038.6 m E Sn      2012/11/24 17:39:57.1   0.4                          T                 .9  .29 Ml 1.8         5124384
RJF   002.75 310.5 m E Pn      2012/11/24 17:39:30.3   0.5                          T                                        5124420
RJF   002.75 310.5 m E Pg      2012/11/24 17:39:38.5   0.6                          T                                        5124375
RJF   002.75 310.5 m E Sn      2012/11/24 17:40:01.1  -0.4                          T                                        5124419
RJF   002.75 310.5 m E Sg      2012/11/24 17:40:11.8  -1.5                          T   001.0        7.7  .24 Ml 2.5         5124331
LFF   003.02 298.6 m E Pn      2012/11/24 17:39:33.9   0.5                          T                                        5124376
LFF   003.02 298.6 m E Pg      2012/11/24 17:39:43.2   0.3                          T                                        5124393
LFF   003.02 298.6 m E Sg      2012/11/24 17:40:21.7   0.0                          T   001.0        6.3  .27 Ml 2.6         5124339
EPF   003.07 261.6 m E Pn      2012/11/24 17:39:34.1   0.0                          T   001.0                                5124334
EPF   003.07 261.6 m E Pg      2012/11/24 17:39:43.4  -0.4                          T                                        5124379
EPF   003.07 261.6 m E Sn      2012/11/24 17:40:09.5   0.4                          T   001.0                                5124335
EPF   003.07 261.6 m E Sg      2012/11/24 17:40:23.2   0.0                          T                2.4  .17 Ml 2.6         5124380
SMF   003.12 351.9 m E Pn      2012/11/24 17:39:35.5   0.6                          T                                        5124413
SMF   003.12 351.9 m E Pg      2012/11/24 17:39:45.3   0.5                          T                                        5124412
SMF   003.12 351.9 m E Sg      2012/11/24 17:40:24.4  -0.5                          T   001.0        3.1  .22 Ml 2.6         5124348
BGF   003.22 339.5 m E Pn      2012/11/24 17:39:35.6  -0.5                          T                                        5124418
BGF   003.22 339.5 m E Pg      2012/11/24 17:39:47.2   0.7                          T                                        5124394
BGF   003.22 339.5 m E Sg      2012/11/24 17:40:27.4  -0.5                          T                7.5  .39 Ml 2.8         5124417
TCF   003.17 330.3 m E Pn      2012/11/24 17:39:36.0   0.4                          T                                        5124398
TCF   003.17 330.3 m E Pg      2012/11/24 17:39:46.0   0.3                          T                                        5124397
TCF   003.17 330.3 m E Sn      2012/11/24 17:40:12.1   0.5                          T                                        5124395
TCF   003.17 330.3 m E Sg      2012/11/24 17:40:27.1   0.6                          T                1.8  .28 Ml 2.3         5124396
CABF  003.26 019.9 m E Pn      2012/11/24 17:39:36.9   0.0                          T   001.0                                5124350
CABF  003.26 019.9 m E Pg      2012/11/24 17:39:47.4   0.0                          T                                        5124409
CABF  003.26 019.9 m E Sg      2012/11/24 17:40:29.4   0.1                          T                1.0  .33 Ml 2.0         5124408
AVF   003.33 346.6 m E Pn      2012/11/24 17:39:37.3  -0.4                          T                                        5124411
AVF   003.33 346.6 m E Pg      2012/11/24 17:39:48.7   0.1                          T                                        5124410
AVF   003.33 346.6 m E Sg      2012/11/24 17:40:30.4  -1.0                          T   001.0        1.5  .31 Ml 2.2         5124332
PGF   003.46 105.3 m E Pn      2012/11/24 17:39:39.0  -0.7                          T   001.0                                5124342
PGF   003.46 105.3 m E Sn      2012/11/24 17:40:18.2  -0.4                          T   001.0         .7  .14 Ml 2.4         5124343
SSF   003.57 349.3 m E Pn      2012/11/24 17:39:41.4   0.4                          T                                        5124404
SSF   003.57 349.3 m E Pg      2012/11/24 17:39:52.9  -0.2                          T                                        5124405
SSF   003.57 349.3 m E Sn      2012/11/24 17:40:21.3   0.2                          T                                        5124403
SSF   003.57 349.3 m E Sg      2012/11/24 17:40:38.2  -0.7                          T                2.9  .38 Ml 2.5         5124402
ETSF  003.74 261.6 m E Pn      2012/11/24 17:39:43.5   0.1                          T   001.0                                5124352
ETSF  003.74 261.6 m E Pg      2012/11/24 17:39:55.4  -0.8                          T                                        5124378
ETSF  003.74 261.6 m E Sn      2012/11/24 17:40:24.8  -0.4                          T   001.0                                5124353
ETSF  003.74 261.6 m E Sg      2012/11/24 17:40:43.4  -0.8                          T   001.0         .6  .21 Ml 2.0         5124354
LOR   003.74 353.5 m E Pn      2012/11/24 17:39:43.6   0.3                          T                                        5124407
LOR   003.74 353.5 m E Pg      2012/11/24 17:39:55.4  -0.7                          T                                        5124406
LOR   003.74 353.5 m E Sg      2012/11/24 17:40:43.8  -0.3                          T   001.0        1.1  .19 Ml 2.3         5124341
HYF   003.93 341.4 m E Pn      2012/11/24 17:39:46.7   0.8                          T                                        5124416
HYF   003.93 341.4 m E Pg      2012/11/24 17:39:57.9  -1.8                          T                                        5124415
HYF   003.93 341.4 m E Sn      2012/11/24 17:40:29.1  -0.6                          T                                        5124414
HAU   004.64 015.7 m E Pn      2012/11/24 17:39:55.0  -0.6                          T                                        5124401
HAU   004.64 015.7 m E Sn      2012/11/24 17:40:46.5  -0.1                          T                 .9  .22 Ml 2.2         5124400

.
