EVENT     298511
    Date      Time       Latitude Longitude    Depth    Ndef Nsta Gap    Mag1  N    Mag2  N    Mag3  N   Author         ID
       rms   OT_Error      Smajor Sminor Az        Err   mdist  Mdist     Err        Err        Err      Quality

2013/05/16 19:25:57.8     45.7914    7.1657      3.0 f    55   11 050  Ml 1.9 10  Md 2.0  2              bulletin    298611
                                                                                                         _ldg
      0.28   +-  0.03        .8     .6  132.13 +-  0.0    0.05   2.91   +-0.2      +-0.0                 m i ke

NORTHERN ITALY
Sta     Dist  EvAz     Phase      Date       Time     TRes  Azim  AzRes  Slow  SRes Def   SNR       Amp   Per   Mag1   Mag2       ID
LPL   000.41 228.0 m E Pg      2013/05/16 19:26:05.8  -0.2                          T                                        5284115
LPL   000.41 228.0 m E Sg      2013/05/16 19:26:11.3  -0.1                          T               10.8  .34        Md 2.0  5284111
LPG   000.41 224.8 m E Pg      2013/05/16 19:26:05.9  -0.2                          T                                        5284116
LPG   000.41 224.8 m E Sg      2013/05/16 19:26:11.3  -0.3                          T               15.8  .20        Md 2.0  5284112
MBDF  001.10 194.8 m E Pg      2013/05/16 19:26:18.6   0.1                          T                                        5284114
MBDF  001.10 194.8 m E Sg      2013/05/16 19:26:32.8   0.0                          T                3.5  .24 Ml 2.0         5284110
CABF  001.11 318.0 m E Pg      2013/05/16 19:26:18.8   0.2                          T                                        5284101
CABF  001.11 318.0 m E Sg      2013/05/16 19:26:33.2   0.1                          T                4.1  .32 Ml 2.0         5284100
ORIF  001.26 226.5 m E Pg      2013/05/16 19:26:21.8   0.4                          T                                        5284113
ORIF  001.26 226.5 m E Sg      2013/05/16 19:26:37.7   0.0                          T                2.2  .27 Ml 1.9         5284109
HINF  002.04 354.1 m E Pn      2013/05/16 19:26:31.0  -0.3                          T                                        5284098
HINF  002.04 354.1 m E Pg      2013/05/16 19:26:35.9   0.2                          T                                        5284099
HINF  002.04 354.1 m E Sn      2013/05/16 19:26:55.5  -0.2                          T                                        5284097
HINF  002.04 354.1 m E Sg      2013/05/16 19:27:02.4   0.4                          T                 .9  .18 Ml 1.9         5284096
VIVF  001.99 242.9 m E Pn      2013/05/16 19:26:31.0   0.4                          T                                        5284106
VIVF  001.99 242.9 m E Pg      2013/05/16 19:26:34.9   0.1                          T                                        5284108
VIVF  001.99 242.9 m E Sn      2013/05/16 19:26:54.8   0.2                          T                                        5284105
VIVF  001.99 242.9 m E Sg      2013/05/16 19:27:00.9   0.4                          T                2.6  .30 Ml 2.1         5284107
HAU   002.28 346.1 m E Pn      2013/05/16 19:26:34.3  -0.3                          T                                        5284095
HAU   002.28 346.1 m E Pg      2013/05/16 19:26:40.5   0.3                          T                                        5284094
HAU   002.28 346.1 m E Sn      2013/05/16 19:27:01.6   0.0                          T                                        5284093
HAU   002.28 346.1 m E Sg      2013/05/16 19:27:10.1   0.5                          T                 .6  .21 Ml 1.5         5284092
SMF   002.46 291.5 m E Pn      2013/05/16 19:26:36.8  -0.2                          T                                        5284088
SMF   002.46 291.5 m E Pg      2013/05/16 19:26:43.6   0.2                          T                                        5284089
SMF   002.46 291.5 m E Sn      2013/05/16 19:27:05.6  -0.1                          T                                        5284090
SMF   002.46 291.5 m E Sg      2013/05/16 19:27:15.2   0.1                          T                1.7  .20 Ml 2.3         5284091
AVF   002.83 292.1 m E Pn      2013/05/16 19:26:42.0   0.0                          T                                        5284086
AVF   002.83 292.1 m E Pg      2013/05/16 19:26:50.3   0.2                          T                                        5284087
AVF   002.83 292.1 m E Sn      2013/05/16 19:27:14.1  -0.4                          T                                        5284084
AVF   002.83 292.1 m E Sg      2013/05/16 19:27:26.6   0.1                          T                 .7  .23 Ml 1.9         5284085
LASF  002.91 235.1 m E Pn      2013/05/16 19:26:43.0  -0.1                          T                                        5284102
LASF  002.91 235.1 m E Pg      2013/05/16 19:26:51.8   0.1                          T                                        5284104
LASF  002.91 235.1 m E Sg      2013/05/16 19:27:29.2   0.1                          T                 .7  .26 Ml 1.8         5284103

.
EVENT     298517
    Date      Time       Latitude Longitude    Depth    Ndef Nsta Gap    Mag1  N    Mag2  N    Mag3  N   Author         ID
       rms   OT_Error      Smajor Sminor Az        Err   mdist  Mdist     Err        Err        Err      Quality

2013/05/16 19:27:15.9     43.8046    6.5590      2.0       9    5 099  Ml 1.3  1  Md 1.4  2              bulletin    298617
                                                                                                         _ldg
      0.12   +-  0.04        .9     .8   44.77 +-  0.0    0.25   0.93   +-         +-0.1                 m i ke

NEAR SOUTH COAST OF FRANCE
Sta     Dist  EvAz     Phase      Date       Time     TRes  Azim  AzRes  Slow  SRes Def   SNR       Amp   Per   Mag1   Mag2       ID
FRF   000.25 165.3 m E Pg      2013/05/16 19:27:20.8   0.0                          T                                        5284126
FRF   000.25 165.3 m E Sg      2013/05/16 19:27:24.3   0.0                          T                5.2  .22        Md 1.4  5284125
LMR   000.47 184.4 m E Pg      2013/05/16 19:27:24.8  -0.1                          T                                        5284124
LMR   000.47 184.4 m E Sg      2013/05/16 19:27:31.0  -0.1                          T                 .6  .20        Md 1.3  5284123
SBF   000.64 084.4 m E Pg      2013/05/16 19:27:27.8  -0.2                          T                                        5284119
SBF   000.64 084.4 m E Sg      2013/05/16 19:27:36.6   0.2                          T                4.6  .36                5284120
SMRF  000.73 283.9 m E Pg      2013/05/16 19:27:29.7   0.0                          T                                        5284122
SMRF  000.73 283.9 m E Sg      2013/05/16 19:27:39.1  -0.2                          T                1.5  .28                5284121
MBDF  000.93 009.3 m E Sg      2013/05/16 19:27:45.6  -0.2                          T                 .9  .26 Ml 1.3         5296107

.
EVENT     298529
    Date      Time       Latitude Longitude    Depth    Ndef Nsta Gap    Mag1  N    Mag2  N    Mag3  N   Author         ID
       rms   OT_Error      Smajor Sminor Az        Err   mdist  Mdist     Err        Err        Err      Quality

2013/05/17 00:31:25.6     48.0234    8.0037      2.0      27    7 062  Ml 1.6  4  Md 1.7  2              bulletin    298629
                                                                                                         _ldg
      0.58   +-  0.09       1.7    1.6   45.37 +-  0.0    0.09   2.03   +-0.2      +-0.0                 m i ke

GERMANY
Sta     Dist  EvAz     Phase      Date       Time     TRes  Azim  AzRes  Slow  SRes Def   SNR       Amp   Per   Mag1   Mag2       ID
CDF   000.62 308.9 m E Pg      2013/05/17 00:31:37.7   0.2                          T                                        5284217
CDF   000.62 308.9 m E Sg      2013/05/17 00:31:46.1   0.5                          T                 .7  .14        Md 1.7  5284216
HINF  000.80 255.5 m E Pg      2013/05/17 00:31:40.6  -0.1                          T                                        5284221
HINF  000.80 255.5 m E Sg      2013/05/17 00:31:51.4   0.2                          T                1.3  .18        Md 1.6  5284220
HAU   001.11 269.7 m E Pg      2013/05/17 00:31:46.1  -0.3                          T                                        5284219
HAU   001.11 269.7 m E Sg      2013/05/17 00:32:00.7  -0.1                          T                4.0  .30 Ml 1.8         5284218
PAGF  001.61 290.1 m E Pg      2013/05/17 00:31:55.8   0.2                          T                                        5284212
PAGF  001.61 290.1 m E Sn      2013/05/17 00:32:13.8   0.3                          T                                        5284214
PAGF  001.61 290.1 m E Sg      2013/05/17 00:32:17.0   0.6                          T                 .5  .19 Ml 1.5         5284213
CABF  001.92 223.4 m E Pn      2013/05/17 00:31:57.8   0.1                          T                                        5284208
CABF  001.92 223.4 m E Sn      2013/05/17 00:32:20.9  -0.1                          T                 .7  .20 Ml 1.7         5284207
SFTF  002.00 276.3 m E Pn      2013/05/17 00:31:58.5  -0.1                          T                                        5284209
MEZF  002.03 284.7 m E Pg      2013/05/17 00:32:03.4   0.2                          T                                        5284215
MEZF  002.03 284.7 m E Sn      2013/05/17 00:32:23.6   0.1                          T                                        5284211
MEZF  002.03 284.7 m E Sg      2013/05/17 00:32:29.4   0.0                          T                 .2  .15 Ml 1.3         5284210

.
EVENT     298530
    Date      Time       Latitude Longitude    Depth    Ndef Nsta Gap    Mag1  N    Mag2  N    Mag3  N   Author         ID
       rms   OT_Error      Smajor Sminor Az        Err   mdist  Mdist     Err        Err        Err      Quality

2013/05/17 01:04:57.7     45.1049    7.3614     10.0      40    9 143  Ml 1.9  7  Md 1.9  3              bulletin    298630
                                                                                                         _ldg
      0.25   +-  0.06       1.2     .7   90.48 +-  0.0    0.09   1.87   +-0.2      +-0.0                 m i ke

NORTHERN ITALY
Sta     Dist  EvAz     Phase      Date       Time     TRes  Azim  AzRes  Slow  SRes Def   SNR       Amp   Per   Mag1   Mag2       ID
MBDF  000.56 228.2 m E Pg      2013/05/17 01:05:09.1   0.4                          T                                        5284245
MBDF  000.56 228.2 m E Sg      2013/05/17 01:05:16.5   0.2                          T                6.8  .18        Md 1.9  5284222
LPG   000.58 312.6 m E Pg      2013/05/17 01:05:09.3   0.0                          T                                        5284250
LPG   000.58 312.6 m E Sg      2013/05/17 01:05:17.2   0.2                          T               18.7  .38        Md 1.9  5284249
LPL   000.61 313.1 m E Pg      2013/05/17 01:05:09.5  -0.2                          T                                        5284248
LPL   000.61 313.1 m E Sg      2013/05/17 01:05:17.8   0.2                          T               12.0  .34        Md 1.9  5284247
ORIF  001.07 260.5 m E Pg      2013/05/17 01:05:17.9   0.0                          T                                        5284246
ORIF  001.07 260.5 m E Sg      2013/05/17 01:05:31.9   0.1                          T                4.2  .29 Ml 2.0         5284244
SBF   001.24 177.5 m E Pg      2013/05/17 01:05:21.0  -0.1                          T                                        5284235
SBF   001.24 177.5 m E Sg      2013/05/17 01:05:37.2   0.0                          T                3.7  .25 Ml 2.1         5284234
FRF   001.63 198.6 m E Pn      2013/05/17 01:05:24.8   0.0                          T                                        5284241
FRF   001.63 198.6 m E Pg      2013/05/17 01:05:28.1   0.1                          T                                        5284243
FRF   001.63 198.6 m E Sn      2013/05/17 01:05:44.5   0.0                          T                                        5284240
FRF   001.63 198.6 m E Sg      2013/05/17 01:05:49.2   0.1                          T                1.5  .21 Ml 2.0         5284242
SMRF  001.70 229.2 m E Pn      2013/05/17 01:05:26.0   0.1                          T                                        5284230
SMRF  001.70 229.2 m E Pg      2013/05/17 01:05:29.8   0.2                          T                                        5284231
SMRF  001.70 229.2 m E Sn      2013/05/17 01:05:46.4   0.0                          T                                        5284232
SMRF  001.70 229.2 m E Sg      2013/05/17 01:05:51.8   0.3                          T                 .8  .25 Ml 1.6         5284233
LMR   001.87 199.4 m E Pn      2013/05/17 01:05:28.1   0.0                          T                                        5284236
LMR   001.87 199.4 m E Pg      2013/05/17 01:05:32.5  -0.1                          T                                        5284237
LMR   001.87 199.4 m E Sn      2013/05/17 01:05:50.4   0.0                          T                                        5284239
LMR   001.87 199.4 m E Sg      2013/05/17 01:05:56.8   0.0                          T                1.4  .19 Ml 2.1         5284238
CABF  001.75 329.9 m E Pg      2013/05/17 01:05:30.1  -0.4                          T                                        5284227
CABF  001.75 329.9 m E Sg      2013/05/17 01:05:52.5  -0.5                          T                 .6  .22 Ml 1.6         5284226

.
EVENT     298537
    Date      Time       Latitude Longitude    Depth    Ndef Nsta Gap    Mag1  N    Mag2  N    Mag3  N   Author         ID
       rms   OT_Error      Smajor Sminor Az        Err   mdist  Mdist     Err        Err        Err      Quality

2013/05/17 04:39:45.8     43.0766    -.2470      3.2 f    31    8 101  Ml 1.9  6  Md 1.8  3              bulletin    298637
                                                                                                         _ldg
      0.41   +-  0.06       1.3    1.0  164.93 +-  0.0    0.29   3.15   +-0.2      +-0.0                 m i ke

PYRENEES
Sta     Dist  EvAz     Phase      Date       Time     TRes  Azim  AzRes  Slow  SRes Def   SNR       Amp   Per   Mag1   Mag2       ID
ETSF  000.29 232.3 m E Pg      2013/05/17 04:39:51.2  -0.4                          T                                        5284290
ETSF  000.29 232.3 m E Sg      2013/05/17 04:39:54.9  -0.6                          T               32.3  .27        Md 1.8  5284289
EPF   000.43 095.9 m E Pg      2013/05/17 04:39:54.2   0.0                          T                                        5284288
EPF   000.43 095.9 m E Sg      2013/05/17 04:39:59.5  -0.4                          T                3.6  .18        Md 1.8  5284287
SJPF  000.72 273.3 m E Pg      2013/05/17 04:39:59.5   0.1                          T                                        5284286
SJPF  000.72 273.3 m E Sg      2013/05/17 04:40:08.5  -0.3                          T                2.1  .25        Md 1.8  5284285
MTLF  001.82 080.8 m E Pg      2013/05/17 04:40:19.6  -0.1                          T                                        5284940
MTLF  001.82 080.8 m E Sg      2013/05/17 04:40:43.5   0.4                          T                 .7  .21 Ml 1.7         5284939
LFF   001.99 020.6 m E Pg      2013/05/17 04:40:23.3   0.4                          T                                        5284950
LFF   001.99 020.6 m E Sg      2013/05/17 04:40:48.5  -0.1                          T                3.7  .28 Ml 2.2         5284949
CAF   002.49 041.3 m E Pn      2013/05/17 04:40:25.3  -0.1                          T                                        5284941
CAF   002.49 041.3 m E Pg      2013/05/17 04:40:31.8  -0.2                          T                                        5284942
CAF   002.49 041.3 m E Sn      2013/05/17 04:40:54.5   0.1                          T                                        5284943
CAF   002.49 041.3 m E Sg      2013/05/17 04:41:04.0  -0.1                          T                 .8  .18 Ml 1.9         5284944
RJF   002.56 029.1 m E Pn      2013/05/17 04:40:26.3   0.0                          T                                        5284946
RJF   002.56 029.1 m E Pg      2013/05/17 04:40:33.4   0.0                          T                                        5284945
RJF   002.56 029.1 m E Sn      2013/05/17 04:40:56.2   0.0                          T                                        5284948
RJF   002.56 029.1 m E Sg      2013/05/17 04:41:06.4   0.1                          T                1.0  .19 Ml 1.7         5284947
LASF  003.15 070.1 m E Pg      2013/05/17 04:40:43.9  -0.2                          T                                        5284937
LASF  003.15 070.1 m E Sg      2013/05/17 04:41:24.7   0.2                          T                 .6  .23 Ml 1.9         5284938

.
