EVENT     255342
    Date      Time       Latitude Longitude    Depth    Ndef Nsta Gap    Mag1  N    Mag2  N    Mag3  N   Author         ID
       rms   OT_Error      Smajor Sminor Az        Err   mdist  Mdist     Err        Err        Err      Quality

2011/01/29 08:45:44.6     45.3547    6.4931      2.0      58   21 103  Ml 2.3 19  Md 2.1  3              js067245    255362

      0.64   +-  0.03        .7     .5   91.43 +-  0.0    0.23   3.30   +-0.2      +-0.0                 m i ke

FRANCE
Sta     Dist  EvAz     Phase      Date       Time     TRes  Azim  AzRes  Slow  SRes Def   SNR       Amp   Per   Mag1   Mag2       ID
LPL   000.23 046.1 m E Pg      2011/01/29 08:45:49.3  -0.3                          T                                        4640648
LPL   000.23 046.1 m E Sg      2011/01/29 08:45:52.6  -0.1                          T               39.6  .20        Md 2.1  4640644
LPG   000.23 051.7 m E Pg      2011/01/29 08:45:49.4  -0.2                          T                                        4640647
LPG   000.23 051.7 m E Sg      2011/01/29 08:45:52.7  -0.1                          T               62.0  .28        Md 2.2  4640643
ORIF  000.62 225.1 m E Pg      2011/01/29 08:45:56.2  -0.2                          T                                        4640646
ORIF  000.62 225.1 m E Sg      2011/01/29 08:46:04.2  -0.2                          T               23.3  .20        Md 2.1  4640642
MBDF  000.66 162.5 m E Pg      2011/01/29 08:45:57.4   0.2                          T                                        4640645
MBDF  000.66 162.5 m E Sg      2011/01/29 08:46:06.0   0.1                          T               34.3  .54                4640641
CABF  001.29 347.5 m E Pg      2011/01/29 08:46:08.9   0.1                          T                                        4640649
CABF  001.29 347.5 m E Sg      2011/01/29 08:46:25.4   0.0                          T                7.0  .24 Ml 2.4         4640604
VIVF  001.38 249.5 m E Pg      2011/01/29 08:46:10.5   0.1                          T                                        4640639
VIVF  001.38 249.5 m E Sg      2011/01/29 08:46:28.3   0.0                          T                9.2  .24 Ml 2.6         4640640
SMRF  001.53 205.7 m E Pg      2011/01/29 08:46:12.9  -0.2                          T                                        4640638
SMRF  001.53 205.7 m E Sg      2011/01/29 08:46:32.8   0.0                          T                2.3  .32 Ml 1.9         4640607
SBF   001.64 155.4 m E Pg      2011/01/29 08:46:15.3   0.1                          T                                        4640635
SBF   001.64 155.4 m E Sg      2011/01/29 08:46:36.2  -0.1                          T                2.7  .28 Ml 2.1         4640610
FRF   001.80 176.4 m E Pg      2011/01/29 08:46:18.0   0.0                          T                                        4640637
FRF   001.80 176.4 m E Sg      2011/01/29 08:46:41.1  -0.1                          T                4.7  .28 Ml 2.4         4640608
LMR   002.02 179.7 m E Pg      2011/01/29 08:46:22.1  -0.1                          T                                        4640636
LMR   002.02 179.7 m E Sg      2011/01/29 08:46:48.0  -0.1                          T                2.7  .32 Ml 2.2         4640609
HINF  002.48 005.6 m E Pn      2011/01/29 08:46:24.1  -0.1                          T                                        4640617
HINF  002.48 005.6 m E Pg      2011/01/29 08:46:30.7   0.1                          T                                        4640633
HINF  002.48 005.6 m E Sg      2011/01/29 08:47:02.3  -0.1                          T                2.4  .30 Ml 2.2         4640602
AVF   002.62 304.4 m E Pn      2011/01/29 08:46:25.9   0.0                          T                                        4640616
AVF   002.62 304.4 m E Pg      2011/01/29 08:46:33.0   0.0                          T                                        4640615
AVF   002.62 304.4 m E Sg      2011/01/29 08:47:06.5  -0.2                          T                1.6  .28 Ml 2.1         4640603
LOR   002.65 317.3 m E Pn      2011/01/29 08:46:26.6   0.1                          T                                        4640625
HAU   002.65 357.9 m E Pn      2011/01/29 08:46:26.6   0.0                          T                                        4640618
LOR   002.65 317.3 m E Pg      2011/01/29 08:46:33.7   0.1 141.7  6.3               T                                        4640628
HAU   002.65 357.9 m E Pg      2011/01/29 08:46:33.9   0.1                          T                                        4640634
LOR   002.65 317.3 m E Sg      2011/01/29 08:47:07.7   0.0 141.6  6.2               T                2.1  .27 Ml 2.2         4640596
HAU   002.65 357.9 m E Sg      2011/01/29 08:47:07.9  -0.1                          T                3.9  .30 Ml 2.2         4640601
SSF   002.69 310.5 m E Pn      2011/01/29 08:46:26.9  -0.1                          T                                        4640624
SSF   002.69 310.5 m E Pg      2011/01/29 08:46:34.4   0.0                          T                                        4640627
SSF   002.69 310.5 m E Sg      2011/01/29 08:47:09.0   0.1                          T                1.7  .27 Ml 2.2         4640595
BGF   002.81 296.6 m E Pn      2011/01/29 08:46:28.6  -0.1                          T                                        4640611
BGF   002.81 296.6 m E Pg      2011/01/29 08:46:36.8   0.0                          T                                        4640614
BGF   002.81 296.6 m E Sg      2011/01/29 08:47:13.0   0.1                          T                7.1  .40 Ml 2.6         4640605
THEF  002.90 353.4 m E Pn      2011/01/29 08:46:29.8  -0.1                          T                                        4640619
THEF  002.90 353.4 m E Pg      2011/01/29 08:46:38.1  -0.2                          T                                        4640632
THEF  002.90 353.4 m E Sg      2011/01/29 08:47:15.4  -0.1                          T                2.8  .30 Ml 2.4         4640600
CDF   003.11 009.7 m E Pn      2011/01/29 08:46:32.8   0.0                          T                                        4640622
CDF   003.11 009.7 m E Pg      2011/01/29 08:46:42.2  -0.1                          T                                        4640629
CDF   003.11 009.7 m E Sg      2011/01/29 08:47:22.1   0.0                          T                1.8  .42 Ml 2.2         4640597
TCF   003.14 288.8 m E Pn      2011/01/29 08:46:33.2   0.1                          T                                        4640623
TCF   003.14 288.8 m E Pg      2011/01/29 08:46:42.7  -0.1                          T                                        4640626
TCF   003.14 288.8 m E Sg      2011/01/29 08:47:23.1   0.1                          T                3.6  .41 Ml 2.4         4640594
PAGF  003.24 350.9 m E Pn      2011/01/29 08:46:34.6   0.0                          T                                        4640621
PAGF  003.24 350.9 m E Pg      2011/01/29 08:46:44.6  -0.1                          T                                        4640630
PAGF  003.24 350.9 m E Sg      2011/01/29 08:47:26.4   0.0 155.7  -14.7             T                 .7  .34 Ml 1.8         4640598
MEZF  003.30 343.1 m E Pn      2011/01/29 08:46:35.2  -0.1                          T                                        4640620
MEZF  003.30 343.1 m E Pg      2011/01/29 08:46:45.7   0.0                          T                                        4640631
MEZF  003.30 343.1 m E Sg      2011/01/29 08:47:28.0  -0.1                          T                5.6  .49 Ml 2.5         4640599

.
EVENT     255345
    Date      Time       Latitude Longitude    Depth    Ndef Nsta Gap    Mag1  N    Mag2  N    Mag3  N   Author         ID
       rms   OT_Error      Smajor Sminor Az        Err   mdist  Mdist     Err        Err        Err      Quality

2011/01/29 14:12:21.2     46.5826    4.8576      3.0 f    71   25 048  Ml 2.3 24  Md 2.3  2              js067245    255365

      0.62   +-  0.03        .7     .7  169.21 +-  0.0    0.70   3.45   +-0.3      +-0.1                 m i ke

FRANCE
Sta     Dist  EvAz     Phase      Date       Time     TRes  Azim  AzRes  Slow  SRes Def   SNR       Amp   Per   Mag1   Mag2       ID
SMF   000.70 275.5 m E Pg      2011/01/29 14:12:34.4  -0.2                          T                                        4640700
SMF   000.70 275.5 m E P       2011/01/29 14:12:35.6  -0.4                          T                                        4640686
SMF   000.70 275.5 m E Pn      2011/01/29 14:12:36.3  -0.2                          T                                        4641327
SMF   000.70 275.5 m E Sg      2011/01/29 14:12:43.6  -0.2                          T                                        4641328
SMF   000.70 275.5 m E Sn      2011/01/29 14:12:47.1  -0.1                          T               56.5  .20        Md 2.4  4640693
CABF  000.85 087.6 m E Pn      2011/01/29 14:12:38.7   0.1                          T                                        4641329
CABF  000.85 087.6 m E P       2011/01/29 14:12:40.0   0.9                          T                                        4640698
CABF  000.85 087.6 m E Sg      2011/01/29 14:12:48.4   0.0                          T                4.9  .24                4641337
CABF  000.85 087.6 m E S       2011/01/29 14:12:53.1  -0.1                          T                5.6  .28                4640688
LOR   000.97 315.4 m E Pg      2011/01/29 14:12:39.7   0.3 133.1  -1.6              T                                        4641331
LOR   000.97 315.4 m E Pn      2011/01/29 14:12:40.3   0.2 135.6  0.9               T                                        4640695
LOR   000.97 315.4 m E Sg      2011/01/29 14:12:52.1   0.0                          T                                        4641408
LOR   000.97 315.4 m E Sn      2011/01/29 14:12:53.5  -0.1 142.8  8.1               T               13.5  .22 Ml 2.6 Md 2.3  4640690
SSF   001.04 297.8 m E Pg      2011/01/29 14:12:40.7  -0.2                          T                                        4640694
SSF   001.04 297.8 m E Pn      2011/01/29 14:12:41.4   0.3                          T                                        4641330
SSF   001.04 297.8 m E Sg      2011/01/29 14:12:54.0  -0.3                          T                                        4640689
SSF   001.04 297.8 m E Sn      2011/01/29 14:12:55.4   0.0                          T                9.0  .22 Ml 2.5         4641333
AVF   001.06 281.9 m E Pg      2011/01/29 14:12:40.9  -0.2                          T                                        4640699
AVF   001.06 281.9 m E Pn      2011/01/29 14:12:41.4   0.1                          T                                        4641339
AVF   001.06 281.9 m E P       2011/01/29 14:12:42.9   0.0                          T                                        4641407
AVF   001.06 281.9 m E Sg      2011/01/29 14:12:54.4  -0.3                          T                                        4641338
AVF   001.06 281.9 m E Sn      2011/01/29 14:12:55.5  -0.2                          T                8.8  .16 Ml 2.6         4640691
BGF   001.39 269.7 m E Pn      2011/01/29 14:12:46.0   0.2                          T                                        4641405
BGF   001.39 269.7 m E Pg      2011/01/29 14:12:47.0  -0.2                          T                                        4640697
BGF   001.39 269.7 m E P       2011/01/29 14:12:47.5  -0.1                          T                                        4641404
BGF   001.39 269.7 m E Sg      2011/01/29 14:13:04.9  -0.2                          T                5.9  .20 Ml 2.5         4640692
SFTF  001.63 004.3 m E Pn      2011/01/29 14:12:49.9   0.8                          T                                        4640680
SFTF  001.63 004.3 m E Sg      2011/01/29 14:13:12.8   0.2 187.3  2.9               T                6.4  .28 Ml 2.5         4640669
HAU   001.75 034.9 m E Pn      2011/01/29 14:12:50.5  -0.3                          T                                        4640682
HAU   001.75 034.9 m E Sn      2011/01/29 14:13:12.1  -0.1                          T                                        4641335
HAU   001.75 034.9 m E Sg      2011/01/29 14:13:16.5   0.1                          T                7.3  .30 Ml 2.3         4640667
HYF   001.67 295.1 m E P       2011/01/29 14:12:51.4  -0.3                          T                                        4641406
HYF   001.67 295.1 m E Pg      2011/01/29 14:12:52.4   0.1                          T                                        4640684
HYF   001.67 295.1 m E Sg      2011/01/29 14:13:13.8   0.0                          T                                        4640666
THEF  001.82 024.7 m E Pn      2011/01/29 14:12:51.7   0.0                          T                                        4640681
THEF  001.82 024.7 m E Sn      2011/01/29 14:13:13.8  -0.1                          T                                        4641334
THEF  001.82 024.7 m E Sg      2011/01/29 14:13:18.5  -0.1                          T                4.9  .23 Ml 2.5         4640668
TCF   001.85 261.8 m E Pn      2011/01/29 14:12:52.3   0.1                          T                                        4640675
TCF   001.85 261.8 m E Sg      2011/01/29 14:13:19.6  -0.1                          T                1.6  .19 Ml 2.1         4640674
HINF  001.84 047.1 m E Pn      2011/01/29 14:12:52.4   0.4                          T                                        4640683
HINF  001.84 047.1 m E Sn      2011/01/29 14:13:14.3  -0.1                          T                                        4641336
HINF  001.84 047.1 m E Sg      2011/01/29 14:13:19.3   0.1                          T                2.5  .20 Ml 2.3         4640687
LPL   001.69 128.6 m E Pg      2011/01/29 14:12:52.9   0.0                          T                                        4640661
LPL   001.69 128.6 m E Sg      2011/01/29 14:13:14.6  -0.1                          T                1.9  .26 Ml 2.0         4640663
MEZF  001.92 003.9 m E Pn      2011/01/29 14:12:53.1   0.0 188.9  5.0               T                                        4640679
MEZF  001.92 003.9 m E Sg      2011/01/29 14:13:21.7  -0.1 187.6  3.6               T                7.6  .33 Ml 2.6         4640670
VIVF  001.73 184.4 m E Pg      2011/01/29 14:12:53.4  -0.1                          T                                        4640658
VIVF  001.73 184.4 m E Sg      2011/01/29 14:13:15.6  -0.2                          T                5.9  .26 Ml 2.5         4640665
LPG   001.71 128.8 m E Pg      2011/01/29 14:12:53.4   0.0                          T                                        4640660
LPG   001.71 128.8 m E Sg      2011/01/29 14:13:15.3  -0.1                          T                1.6  .26 Ml 1.9         4640662
PAGF  002.06 016.3 m E Pn      2011/01/29 14:12:54.7  -0.2 194.3  -2.6              T                                        4640678
PAGF  002.06 016.3 m E Sg      2011/01/29 14:13:25.7  -0.3 193.3  -3.5              T                 .5  .24 Ml 1.5         4640671
ORIF  001.81 156.4 m E Pg      2011/01/29 14:12:55.0   0.0                          T                                        4640659
ORIF  001.81 156.4 m E Sg      2011/01/29 14:13:18.4  -0.1                          T                3.9  .21 Ml 2.4         4640664
CDF   002.46 041.0 m E Pn      2011/01/29 14:13:00.3  -0.2                          T                                        4640677
CDF   002.46 041.0 m E Sn      2011/01/29 14:13:29.1  -0.2                          T                                        4641402
CDF   002.46 041.0 m E Sg      2011/01/29 14:13:38.5  -0.1                          T                2.4  .49 Ml 2.1         4640672
LASF  002.60 196.1 m E Pn      2011/01/29 14:13:02.1  -0.3                          T                                        4640657
LASF  002.60 196.1 m E Sg      2011/01/29 14:13:43.1   0.1                          T                2.5  .36 Ml 2.2         4640656
MBDF  002.29 143.4 m E Pg      2011/01/29 14:13:03.8  -0.1                          T                                        4640654
MBDF  002.29 143.4 m E Sg      2011/01/29 14:13:33.6   0.1                          T                 .7  .32 Ml 1.6         4640655
LANF  003.12 038.6 m E Pn      2011/01/29 14:13:09.2  -0.1                          T                                        4640676
LANF  003.12 038.6 m E Sg      2011/01/29 14:13:58.8  -0.2                          T                1.1  .13 Ml 2.4         4640673
CAF   002.56 230.7 m E Pg      2011/01/29 14:13:09.5   0.6                          T                                        4641398
CAF   002.56 230.7 m E Sg      2011/01/29 14:13:41.6  -0.2                          T                1.1  .25 Ml 2.0         4641399
RJF   002.66 242.5 m E Pg      2011/01/29 14:13:10.4  -0.1                          T                                        4641403
MFF   003.45 272.1 m E Sg      2011/01/29 14:14:09.2  -0.3                          T                 .7  .23 Ml 2.2         4641332

.
