EVENT     290921
    Date      Time       Latitude Longitude    Depth    Ndef Nsta Gap    Mag1  N    Mag2  N    Mag3  N   Author         ID
       rms   OT_Error      Smajor Sminor Az        Err   mdist  Mdist     Err        Err        Err      Quality

2013/01/26 18:23:24.9     42.5716     .8814     10.0 f    32    5 082  Ml 1.9  6  Md 1.8  1              bulletin    291021
                                                                                                         _ldg
      0.46   +-  0.06       1.2    1.0   23.90 +-  0.0    0.26   2.64   +-0.2      +-                    m i ke

PYRENEES
Sta     Dist  EvAz     Phase      Date       Time     TRes  Azim  AzRes  Slow  SRes Def   SNR       Amp   Per   Mag1   Mag2       ID
EPF   000.61 319.2 m E Pg      2013/01/26 18:23:36.5   0.0                          T                                        5192152
EPF   000.61 319.2 m E Pn      2013/01/26 18:23:38.1   0.0                          T                                        5178279
EPF   000.61 319.2 m E Sg      2013/01/26 18:23:44.6   0.0                          T                9.9  .16        Md 1.8  5178278
ETSF  001.11 287.6 m E Pg      2013/01/26 18:23:45.8   0.0                          T                                        5178274
ETSF  001.11 287.6 m E Sg      2013/01/26 18:24:00.4   0.1                          T                2.8  .21 Ml 2.0         5178276
MTLF  001.25 051.4 m E Pg      2013/01/26 18:23:48.5   0.3                          T                                        5178280
MTLF  001.25 051.4 m E Sg      2013/01/26 18:24:04.9   0.6                          T                1.5  .25 Ml 1.7         5178277
LASF  002.64 054.3 m E Pn      2013/01/26 18:24:05.2  -0.5                          T                                        5192154
LASF  002.64 054.3 m E Pg      2013/01/26 18:24:13.9   0.0                          T                                        5192153
LASF  002.64 054.3 m E Sn      2013/01/26 18:24:34.6  -1.4                          T                1.0  .24 Ml 2.0         5192156
LASF  002.64 054.3 m E Sg      2013/01/26 18:24:47.4  -0.5                          T                 .6  .20 Ml 1.8         5192155
SJPF  001.64 290.0 m E Sg      2013/01/26 18:24:16.8   0.1                          T                2.2  .25 Ml 2.0         5178275

.
EVENT     290922
    Date      Time       Latitude Longitude    Depth    Ndef Nsta Gap    Mag1  N    Mag2  N    Mag3  N   Author         ID
       rms   OT_Error      Smajor Sminor Az        Err   mdist  Mdist     Err        Err        Err      Quality

2013/01/26 18:36:31.6     44.1599   10.4582     15.0 f    41   12 088  Ml 2.4  9                         bulletin    291022
                                                                                                         _ldg
      0.53   +-  0.14       2.8    2.6   72.38 +-  0.0    0.05   4.79   +-0.3                            m i ke

NORTHERN ITALY
Sta     Dist  EvAz     Phase      Date       Time     TRes  Azim  AzRes  Slow  SRes Def   SNR       Amp   Per   Mag1   Mag2       ID
PGF   001.93 213.9 m E Pn      2013/01/26 18:37:02.5   0.1                          T                                        5178291
PGF   001.93 213.9 m E Sn      2013/01/26 18:37:24.8  -0.1                          T                2.9  .34 Ml 2.4         5192162
SBF   002.20 263.3 m E Pn      2013/01/26 18:37:06.8   0.8                          T                                        5178290
SBF   002.20 263.3 m E Sn      2013/01/26 18:37:31.4   0.1                          T                4.9  .15 Ml 2.8         5178281
MBDF  002.70 283.4 m E Pn      2013/01/26 18:37:12.7  -0.2                          T                                        5178284
MBDF  002.70 283.4 m E Sn      2013/01/26 18:37:43.5   0.1                          T                2.5  .47 Ml 2.1         5192160
FRF   002.82 259.1 m E Pn      2013/01/26 18:37:15.2   0.9                          T                                        5178288
FRF   002.82 259.1 m E Sn      2013/01/26 18:37:46.2   0.2                          T                3.1  .23 Ml 2.6         5178283
LPL   002.98 298.4 m E Pn      2013/01/26 18:37:16.0  -0.8                          T                                        5192164
LPL   002.98 298.4 m E Pg      2013/01/26 18:37:25.5  -1.6                          T                                        5178286
LMR   002.98 255.3 m E Pn      2013/01/26 18:37:17.2   0.7                          T                                        5178289
LMR   002.98 255.3 m E Sn      2013/01/26 18:37:50.4   0.6                          T                2.2  .27 Ml 2.4         5178282
SMRF  003.52 268.7 m E Pn      2013/01/26 18:37:23.8  -0.1                          T                                        5178287
LPG   002.96 298.2 m E Pg      2013/01/26 18:37:25.3  -1.6                          T                                        5192163
LPG   002.96 298.2 m E Sn      2013/01/26 18:37:49.5  -0.1                          T                1.1  .28 Ml 2.0         5192161
ORIF  003.36 284.6 m E P       2013/01/26 18:37:25.5   0.5                          T                                        5178285
HINF  004.44 326.8 m E Pn      2013/01/26 18:37:37.2   0.8                          T                                        5192165
HINF  004.44 326.8 m E Sn      2013/01/26 18:38:24.6  -0.1                          T                3.1  .35 Ml 2.7         5192157
HAU   004.79 324.8 m E Pn      2013/01/26 18:37:42.0   0.7                          T                                        5192166
HAU   004.79 324.8 m E Sn      2013/01/26 18:38:33.1  -0.1                          T                3.8  .30 Ml 2.7         5192158
CDF   004.79 333.7 m E Pn      2013/01/26 18:37:43.0   1.7                          T                                        5192167
CDF   004.79 333.7 m E Sn      2013/01/26 18:38:32.9  -0.4                          T                 .7  .28 Ml 2.4         5192159

.
EVENT     290923
    Date      Time       Latitude Longitude    Depth    Ndef Nsta Gap    Mag1  N    Mag2  N    Mag3  N   Author         ID
       rms   OT_Error      Smajor Sminor Az        Err   mdist  Mdist     Err        Err        Err      Quality

2013/01/26 19:48:28.0     49.1616    8.1238     10.0 f    38   11 037  Ml 2.4  8  Md 2.7  1              bulletin    291023
                                                                                                         _ldg
      0.52   +-  0.06       1.2    1.1   73.97 +-  0.0    0.16   3.42   +-0.2      +-                    m i ke

GERMANY
Sta     Dist  EvAz     Phase      Date       Time     TRes  Azim  AzRes  Slow  SRes Def   SNR       Amp   Per   Mag1   Mag2       ID
LANF  000.28 229.3 m E Pg      2013/01/26 19:48:33.4  -0.3                          T                                        5178321
LANF  000.28 229.3 m E Sg      2013/01/26 19:48:37.5   0.0                          T                                        5178322
RUP   000.88 308.3 m E Pg      2013/01/26 19:48:44.9   0.2                          T                                        5178343
CDF   000.94 217.1 m E Pg      2013/01/26 19:48:45.3  -0.5                          T                                        5178319
CDF   000.94 217.1 m E Sg      2013/01/26 19:48:58.7   0.7                          T                6.1  .16 Ml 2.5 Md 2.7  5178312
HINF  001.59 212.6 m E Pn      2013/01/26 19:48:53.9  -0.8                          T                                        5178316
HINF  001.59 212.6 m E Pg      2013/01/26 19:48:57.5  -0.2                          T                                        5192169
HINF  001.59 212.6 m E Sg      2013/01/26 19:49:18.4   0.1                          T                7.2  .20 Ml 2.6         5178315
HAU   001.65 226.2 m E Pn      2013/01/26 19:48:55.0  -0.4                          T                                        5178317
HAU   001.65 226.2 m E Pg      2013/01/26 19:48:58.8   0.0                          T                                        5192170
HAU   001.65 226.2 m E Sg      2013/01/26 19:49:20.5   0.3                          T                7.0  .20 Ml 2.4         5178314
THEF  001.69 237.3 m E Pg      2013/01/26 19:48:59.2  -0.4                          T                                        5178380
THEF  001.69 237.3 m E Sg      2013/01/26 19:49:21.4   0.0                          T                                        5178381
PAGF  001.70 249.9 m E Pg      2013/01/26 19:48:59.3  -0.3                          T                                        5178318
PAGF  001.70 249.9 m E Sg      2013/01/26 19:49:21.5   0.0                          T                6.1  .18 Ml 2.6         5178311
BAIF  002.70 290.9 m E Pn      2013/01/26 19:49:10.3   0.6                          T                                        5192168
BAIF  002.70 290.9 m E Sg      2013/01/26 19:49:52.5  -0.3                          T                3.0  .32 Ml 2.3         5192172
LOR   003.42 238.0 m E Pn      2013/01/26 19:49:20.0   0.4                          T                                        5192174
LOR   003.42 238.0 m E Pg      2013/01/26 19:49:31.4  -0.1                          T                                        5192173
LOR   003.42 238.0 m E Sg      2013/01/26 19:50:15.4  -0.1                          T                1.6  .23 Ml 2.4         5192175
MEZF  002.13 253.1 m E Sg      2013/01/26 19:49:35.4   0.3                          T                1.8  .24 Ml 2.1         5192171
SFTF  002.26 246.1 m E Sg      2013/01/26 19:49:39.2   0.1                          T                4.4  .23 Ml 2.5         5178313

.
EVENT     290953
    Date      Time       Latitude Longitude    Depth    Ndef Nsta Gap    Mag1  N    Mag2  N    Mag3  N   Author         ID
       rms   OT_Error      Smajor Sminor Az        Err   mdist  Mdist     Err        Err        Err      Quality

2013/01/26 21:58:24.0     46.2126    7.1426      2.0      49   11 050  Ml 1.9 10  Md 1.9  3              bulletin    291053
                                                                                                         _ldg
      0.57   +-  0.06       1.3    1.2   83.31 +-  0.0    0.04   2.65   +-0.3      +-0.1                 m i ke

SWITZERLAND
Sta     Dist  EvAz     Phase      Date       Time     TRes  Azim  AzRes  Slow  SRes Def   SNR       Amp   Per   Mag1   Mag2       ID
LPG   000.77 201.1 m E Pg      2013/01/26 21:58:38.2  -0.6                          T                                        5178839
LPG   000.77 201.1 m E Sg      2013/01/26 21:58:48.5  -0.3                          T                1.3  .18        Md 1.9  5178818
LPL   000.75 202.5 m E Pg      2013/01/26 21:58:38.3  -0.2                          T                                        5178840
LPL   000.75 202.5 m E Sg      2013/01/26 21:58:48.4   0.0                          T                2.0  .29        Md 1.9  5178817
CABF  000.83 299.0 m E Pg      2013/01/26 21:58:40.1   0.3                          T                                        5178836
CABF  000.83 299.0 m E Sg      2013/01/26 21:58:51.9   1.3                          T                1.2  .24        Md 2.0  5178831
MBDF  001.51 190.1 m E Pn      2013/01/26 21:58:50.0  -0.6                          T                                        5178815
MBDF  001.51 190.1 m E Pg      2013/01/26 21:58:51.9  -0.5                          T                                        5178816
MBDF  001.51 190.1 m E Sn      2013/01/26 21:59:09.0  -0.6                          T                 .5  .19 Ml 1.5         5178814
ORIF  001.57 214.9 m E Pg      2013/01/26 21:58:53.7   0.3                          T                                        5178837
ORIF  001.57 214.9 m E Sg      2013/01/26 21:59:14.0   0.4                          T                1.7  .27 Ml 1.9         5178838
HINF  001.62 353.1 m E Pg      2013/01/26 21:58:53.9  -0.3                          T                                        5178835
HINF  001.62 353.1 m E Sn      2013/01/26 21:59:11.9  -0.2                          T                                        5178833
HINF  001.62 353.1 m E Sg      2013/01/26 21:59:14.9  -0.1                          T                4.8  .20 Ml 2.5         5178832
HAU   001.87 343.5 m E Pn      2013/01/26 21:58:55.1  -0.3                          T                                        5178834
HAU   001.87 343.5 m E Pg      2013/01/26 21:58:58.9   0.0                          T                                        5178828
HAU   001.87 343.5 m E Sn      2013/01/26 21:59:18.3   0.0                          T                                        5178830
HAU   001.87 343.5 m E Sg      2013/01/26 21:59:23.1   0.0                          T                5.7  .36 Ml 2.2         5178829
CDF   002.20 002.3 m E Pn      2013/01/26 21:58:59.4  -0.5                          T                                        5178827
CDF   002.20 002.3 m E Sn      2013/01/26 21:59:25.6  -0.5                          T                                        5178826
CDF   002.20 002.3 m E Sg      2013/01/26 21:59:33.0  -0.4                          T                 .7  .22 Ml 1.8         5178825
LOR   002.49 296.2 m E Pn      2013/01/26 21:59:04.5   0.7 115.8  1.9               T                                        5178823
LOR   002.49 296.2 m E Pg      2013/01/26 21:59:10.6   0.3 119.3  5.4               T                                        5178824
LOR   002.49 296.2 m E Sn      2013/01/26 21:59:34.0   1.0                          T                                        5178821
LOR   002.49 296.2 m E Sg      2013/01/26 21:59:43.7   1.4 120.6  6.7               T                 .8  .18 Ml 1.9         5178822
VIVF  002.20 232.9 m E Pg      2013/01/26 21:59:04.9   0.0                          T                                        5178813
VIVF  002.20 232.9 m E Sg      2013/01/26 21:59:34.0   0.7                          T                1.3  .20 Ml 2.1         5178812
SSF   002.65 290.0 m E Pn      2013/01/26 21:59:06.4   0.6                          T                                        5178820
SSF   002.65 290.0 m E Sn      2013/01/26 21:59:36.8   0.2                          T                 .1  .18 Ml 1.3         5178819

.
