BEGIN GSE2.0
MSG_TYPE DATA
MSG_ID 07-JAN-1115:14:11  FRA_NDC
E-MAIL
DATA_TYPE BULLETIN
Reviewed Bulletin (REB) # P2011-000  from French NDC for regional phases     PERIOD 01 JAN 2011 TO 04 JAN 2011 C M., J-P S
EVENT     253222
    Date      Time       Latitude Longitude    Depth    Ndef Nsta Gap    Mag1  N    Mag2  N    Mag3  N   Author         ID
       rms   OT_Error      Smajor Sminor Az        Err   mdist  Mdist     Err        Err        Err      Quality

2011/01/01 00:15:57.2     42.6399    1.2924     10.0 f    19    3 104  Ml 1.5  2  Md 1.7  3              js067245    253242

      0.34   +-  0.07       1.5    1.1  178.38 +-  0.0    0.05   1.87   +-0.1      +-0.1                 m i ke

PYRENEES
Sta     Dist  EvAz     Phase      Date       Time     TRes  Azim  AzRes  Slow  SRes Def   SNR       Amp   Per   Mag1   Mag2       ID
EPF   000.80 299.4 m E Pg      2011/01/01 00:16:12.3  -0.1                          T                                        4575920
EPF   000.80 299.4 m E Sg      2011/01/01 00:16:22.9  -0.1                          T                2.1  .33        Md 1.8  4575916
MTLF  000.98 043.8 m E Pg      2011/01/01 00:16:15.7   0.1                          T                                        4575919
MTLF  000.98 043.8 m E Sg      2011/01/01 00:16:29.1   0.8                          T                1.4  .30 Ml 1.5 Md 1.7  4575915
ETSF  001.39 281.4 m E Pg      2011/01/01 00:16:24.1   0.9                          T                                        4575918
ETSF  001.39 281.4 m E Sg      2011/01/01 00:16:41.2   0.0                          T                 .8  .21 Ml 1.6 Md 1.7  4575917

.
EVENT     253223
    Date      Time       Latitude Longitude    Depth    Ndef Nsta Gap    Mag1  N    Mag2  N    Mag3  N   Author         ID
       rms   OT_Error      Smajor Sminor Az        Err   mdist  Mdist     Err        Err        Err      Quality

2011/01/01 02:14:27.9     48.0037    7.8571     10.0      18    7 110  Ml 1.2  6  Md 1.3  1              js067245    253243

      0.19   +-  0.05       1.1     .8  173.81 +-  0.0    0.06   1.94   +-0.4      +-                    m i ke

FRANCE
Sta     Dist  EvAz     Phase      Date       Time     TRes  Azim  AzRes  Slow  SRes Def   SNR       Amp   Per   Mag1   Mag2       ID
CDF   000.56 316.7 m E Pg      2011/01/01 02:14:39.2   0.3                          T                                        4577531
CDF   000.56 316.7 m E Sg      2011/01/01 02:14:46.2  -0.2                          T                 .2  .17        Md 1.3  4577532
LANF  000.98 358.0 m E Pg      2011/01/01 02:14:46.3  -0.1                          T                                        4577519
LANF  000.98 358.0 m E Sg      2011/01/01 02:14:59.2   0.1                          T                 .6  .18 Ml 1.4         4577525
HAU   001.01 270.7 m E Pg      2011/01/01 02:14:46.7  -0.3                          T                                        4577524
HAU   001.01 270.7 m E Sg      2011/01/01 02:15:00.3   0.1                          T                 .4  .21 Ml  .9         4577530
THEF  001.27 280.9 m E Pg      2011/01/01 02:14:51.8   0.1                          T                                        4577523
THEF  001.27 280.9 m E Sg      2011/01/01 02:15:08.4   0.2                          T                 .7  .19 Ml 1.5         4577529
PAGF  001.53 292.0 m E Pg      2011/01/01 02:14:56.4   0.0                          T                                        4577520
PAGF  001.53 292.0 m E Sg      2011/01/01 02:15:16.2   0.0                          T                 .1  .30 Ml  .5         4577526
SFTF  001.90 277.1 m E Pg      2011/01/01 02:15:03.2  -0.1                          T                                        4577522
SFTF  001.90 277.1 m E Sg      2011/01/01 02:15:28.0   0.1                          T                 .6  .29 Ml 1.5         4577528
MEZF  001.94 285.9 m E Pg      2011/01/01 02:15:03.9  -0.1                          T                                        4577521
MEZF  001.94 285.9 m E Sg      2011/01/01 02:15:29.1   0.1                          T                 .2  .17 Ml 1.3         4577527

.
EVENT     253416
    Date      Time       Latitude Longitude    Depth    Ndef Nsta Gap    Mag1  N    Mag2  N    Mag3  N   Author         ID
       rms   OT_Error      Smajor Sminor Az        Err   mdist  Mdist     Err        Err        Err      Quality

2011/01/01 06:55:22.5     42.7263    2.0958      4.0 f    22    3 109  Ml 1.1  2  Md 1.2  1              js067245    253436

      0.58   +-  0.05       1.1    1.0   87.70 +-  0.0    0.26   1.96   +-0.0      +-                    m i ke

PYRENEES
Sta     Dist  EvAz     Phase      Date       Time     TRes  Azim  AzRes  Slow  SRes Def   SNR       Amp   Per   Mag1   Mag2       ID
MTLF  000.62 008.2 m E Pg      2011/01/01 06:55:34.7   0.3                          T                                        4577808
MTLF  000.62 008.2 m E P       2011/01/01 06:55:35.7   0.0                          T                                        4577809
MTLF  000.62 008.2 m E Pn      2011/01/01 06:55:36.8   0.3                          T                                        4577810
MTLF  000.62 008.2 m E Sg      2011/01/01 06:55:43.0   0.5                          T                                        4577811
MTLF  000.62 008.2 m E Sn      2011/01/01 06:55:46.3   0.0                          T                1.5  .21        Md 1.2  4577812
EPF   001.33 283.8 m E Pg      2011/01/01 06:55:47.5   0.2                          T                                        4577806
EPF   001.33 283.8 m E Sg      2011/01/01 06:56:04.3  -0.2                          T                 .2  .15 Ml 1.1         4577807
ETSF  001.96 275.9 m E Sg      2011/01/01 06:56:24.2  -0.1                          T                 .1  .19 Ml 1.1         4577805

.
EVENT     253224
    Date      Time       Latitude Longitude    Depth    Ndef Nsta Gap    Mag1  N    Mag2  N    Mag3  N   Author         ID
       rms   OT_Error      Smajor Sminor Az        Err   mdist  Mdist     Err        Err        Err      Quality

2011/01/01 09:03:32.2     37.0245   -4.8676      2.0      72    4 072  Ml 2.8  4                         js067245    253244

      0.86   +-  0.13       2.5    1.8    1.32 +-  0.0    0.47   7.21   +-0.3                            m i ke

SPAIN
Sta     Dist  EvAz     Phase      Date       Time     TRes  Azim  AzRes  Slow  SRes Def   SNR       Amp   Per   Mag1   Mag2       ID
EVOP  002.98 301.2 m E Pn      2011/01/01 09:04:18.7   0.1                          T                                        4575929
EVOP  002.98 301.2 m E Pg      2011/01/01 09:04:27.9   0.3                          T                                        4575927
EVOP  002.98 301.2 m E Sg      2011/01/01 09:05:06.2   0.3                          T               25.6  .34 Ml 3.3         4575928
SJPF  006.69 023.5 m E Pn      2011/01/01 09:05:09.2   0.1                          T                                        4575926
SJPF  006.69 023.5 m E Sn      2011/01/01 09:06:21.6   0.1                          T                1.3  .37 Ml 2.7         4575923
ETSF  006.73 028.1 m E Pn      2011/01/01 09:05:09.8  -0.1                          T                                        4575925
ETSF  006.73 028.1 m E Sn      2011/01/01 09:06:22.7   0.0                          T                 .9  .37 Ml 2.6         4575922
EPF   007.21 032.0 m E Pn      2011/01/01 09:05:16.0  -0.2                          T                                        4575924
EPF   007.21 032.0 m E Sn      2011/01/01 09:06:33.7  -0.1                          T                 .6  .26 Ml 2.6         4575921

.
EVENT     253225
    Date      Time       Latitude Longitude    Depth    Ndef Nsta Gap    Mag1  N    Mag2  N    Mag3  N   Author         ID
       rms   OT_Error      Smajor Sminor Az        Err   mdist  Mdist     Err        Err        Err      Quality

2011/01/01 13:34:43.2     42.5069    1.6037      5.0 f    10    3 088  Ml 1.4  3  Md 1.6  3              js067245    253245

      0.31   +-  0.08       1.7    1.3   11.32 +-  0.0    0.28   1.64   +-0.2      +-0.0                 m i ke

PYRENEES
Sta     Dist  EvAz     Phase      Date       Time     TRes  Azim  AzRes  Slow  SRes Def   SNR       Amp   Per   Mag1   Mag2       ID
MTLF  000.95 028.2 m E Pg      2011/01/01 13:35:01.3   0.2                          T                                        4575965
MTLF  000.95 028.2 m E Sg      2011/01/01 13:35:13.4   0.1                          T                1.6  .32 Ml 1.5 Md 1.6  4575964
EPF   001.07 299.8 m E Pg      2011/01/01 13:35:03.3   0.0                          T                                        4575961
EPF   001.07 299.8 m E Sg      2011/01/01 13:35:16.9  -0.3                          T                 .9  .37 Ml 1.2 Md 1.5  4575963
ETSF  001.64 284.5 m E Pg      2011/01/01 13:35:13.6  -0.2                          T                                        4575960
ETSF  001.64 284.5 m E Sg      2011/01/01 13:35:35.2   0.1                          T                1.6  .48 Ml 1.6 Md 1.5  4575962

.
EVENT     253417
    Date      Time       Latitude Longitude    Depth    Ndef Nsta Gap    Mag1  N    Mag2  N    Mag3  N   Author         ID
       rms   OT_Error      Smajor Sminor Az        Err   mdist  Mdist     Err        Err        Err      Quality

2011/01/01 14:15:10.3     42.5064    1.6109     10.0 f     9    3 088  Ml 1.2  3                         js067245    253437

      0.33   +-  0.08       1.9    1.5    5.87 +-  0.0    0.08   1.65   +-0.2                            m i ke

PYRENEES
Sta     Dist  EvAz     Phase      Date       Time     TRes  Azim  AzRes  Slow  SRes Def   SNR       Amp   Per   Mag1   Mag2       ID
MTLF  000.95 027.9 m E Pg      2011/01/01 14:15:28.6   0.4                          T                                        4577963
MTLF  000.95 027.9 m E Sg      2011/01/01 14:15:41.1   0.6                          T                 .7  .28 Ml 1.2         4577964
EPF   001.07 299.7 m E Pg      2011/01/01 14:15:30.3  -0.3                          T                                        4577961
EPF   001.07 299.7 m E Sg      2011/01/01 14:15:44.0  -0.5                          T                 .7  .26 Ml 1.3         4577962
ETSF  001.65 284.5 m E Sg      2011/01/01 14:16:02.5   0.1                          T                 .1  .21 Ml  .9         4577960

.
EVENT     253226
    Date      Time       Latitude Longitude    Depth    Ndef Nsta Gap    Mag1  N    Mag2  N    Mag3  N   Author         ID
       rms   OT_Error      Smajor Sminor Az        Err   mdist  Mdist     Err        Err        Err      Quality

2011/01/01 15:10:46.7     47.0959    -.7527      2.0      16    7 157  Ml 1.7  6  Md 1.8  2              js067245    253246

      0.66   +-  0.07       1.8     .9   53.55 +-  0.0    0.65   2.19   +-0.1      +-0.0                 m i ke

FRANCE
Sta     Dist  EvAz     Phase      Date       Time     TRes  Azim  AzRes  Slow  SRes Def   SNR       Amp   Per   Mag1   Mag2       ID
MFF   000.65 139.6 m E Pg      2011/01/01 15:10:59.0   0.1                          T                                        4576028
MFF   000.65 139.6 m E Sg      2011/01/01 15:11:07.3  -0.1                          T                1.9  .27        Md 1.8  4576026
GRR   001.30 356.9 m E Pg      2011/01/01 15:11:10.6  -0.2                          T                                        4576027
GRR   001.30 356.9 m E Sg      2011/01/01 15:11:27.6   0.1                          T                1.7  .18 Ml 1.8 Md 1.7  4576025
LDF   001.56 015.6 m E Pg      2011/01/01 15:11:15.7   0.0                          T                                        4576017
LDF   001.56 015.6 m E Sg      2011/01/01 15:11:35.8   0.1                          T                1.3  .25 Ml 1.8         4576024
FLN   001.68 006.1 m E Pg      2011/01/01 15:11:17.9   0.0                          T                                        4576018
SGMF  001.68 314.2 m E Pg      2011/01/01 15:11:17.9  -0.1                          T                                        4576020
FLN   001.68 006.1 m E Sg      2011/01/01 15:11:39.0  -0.6                          T                1.2  .22 Ml 1.7         4576023
SGMF  001.68 314.2 m E Sg      2011/01/01 15:11:39.8   0.1                          T                 .6  .33 Ml 1.4         4576021
QUIF  001.83 297.5 m E Pg      2011/01/01 15:11:20.7   0.0                          T                                        4576019
QUIF  001.83 297.5 m E Sg      2011/01/01 15:11:44.3   0.1                          T                 .5  .22 Ml 1.6         4576022
TCF   002.19 110.5 m E Pg      2011/01/01 15:11:27.2  -0.2                          T                                        4576016
TCF   002.19 110.5 m E Sg      2011/01/01 15:11:55.5  -0.1                          T                 .8  .31 Ml 1.7         4576015

.
EVENT     253227
    Date      Time       Latitude Longitude    Depth    Ndef Nsta Gap    Mag1  N    Mag2  N    Mag3  N   Author         ID
       rms   OT_Error      Smajor Sminor Az        Err   mdist  Mdist     Err        Err        Err      Quality

2011/01/01 15:39:40.8     43.0877   -1.5689      2.0      13    3 197  Ml 1.7  1  Md 1.6  3              js067245    253247

      0.32   +-  0.14       2.4    1.6   89.03 +-  0.0    0.08   1.59   +-         +-0.0                 m i ke

PYRENEES
Sta     Dist  EvAz     Phase      Date       Time     TRes  Azim  AzRes  Slow  SRes Def   SNR       Amp   Per   Mag1   Mag2       ID
SJPF  000.25 084.1 m E Pg      2011/01/01 15:39:45.6  -0.2                          T                                        4576034
SJPF  000.25 084.1 m E Sg      2011/01/01 15:39:49.5   0.2                          T               23.0  .29        Md 1.6  4576029
ETSF  000.76 104.0 m E Pg      2011/01/01 15:39:55.4   0.1                          T                                        4576033
ETSF  000.76 104.0 m E Sg      2011/01/01 15:40:05.4   0.1                          T                2.7  .32        Md 1.6  4576030
EPF   001.40 091.7 m E Pg      2011/01/01 15:40:07.0   0.0                          T                                        4576032
EPF   001.40 091.7 m E Sg      2011/01/01 15:40:25.4   0.3                          T                1.3  .24 Ml 1.7 Md 1.6  4576031

.
EVENT     253228
    Date      Time       Latitude Longitude    Depth    Ndef Nsta Gap    Mag1  N    Mag2  N    Mag3  N   Author         ID
       rms   OT_Error      Smajor Sminor Az        Err   mdist  Mdist     Err        Err        Err      Quality

2011/01/01 19:20:13.4     49.2363    8.0580      2.0      11    6 266  Ml 1.7  4  Md 1.7  3              js067245    253248

      0.12   +-  0.15       2.7    1.2   84.00 +-  0.0    0.31   2.12   +-0.2      +-0.2                 m i ke

GERMANY
Sta     Dist  EvAz     Phase      Date       Time     TRes  Azim  AzRes  Slow  SRes Def   SNR       Amp   Per   Mag1   Mag2       ID
LANF  000.31 213.1 m E Pg      2011/01/01 19:20:19.6   0.2                          T                                        4576040
LANF  000.31 213.1 m E Sg      2011/01/01 19:20:23.3  -0.2                          T                7.8  .23        Md 1.9  4576037
RUP   000.80 306.0 m E Pg      2011/01/01 19:20:28.5  -0.1                          T                                        4576042
RUP   000.80 306.0 m E Sg      2011/01/01 19:20:39.2   0.2                          T                                Md 1.4  4576041
CDF   000.97 212.4 m E Pg      2011/01/01 19:20:31.6  -0.2                          T                                        4576039
CDF   000.97 212.4 m E Sg      2011/01/01 19:20:44.3  -0.1                          T                1.4  .18 Ml 1.8 Md 1.7  4576038
HAU   001.67 223.3 m E Pg      2011/01/01 19:20:44.7   0.1                          T                                        4576043
HAU   001.67 223.3 m E Sg      2011/01/01 19:21:06.3   0.1                          T                1.7  .28 Ml 1.7         4576035
THEF  001.70 234.3 m E Pg      2011/01/01 19:20:45.1   0.0                          T                                        4576044
THEF  001.70 234.3 m E Sg      2011/01/01 19:21:06.9  -0.1                          T                1.2  .20 Ml 1.9         4576036
MEZF  002.12 250.8 m E Sg      2011/01/01 19:21:19.9   0.0                          T                 .5  .24 Ml 1.5         4577980

.
EVENT     253231
    Date      Time       Latitude Longitude    Depth    Ndef Nsta Gap    Mag1  N    Mag2  N    Mag3  N   Author         ID
       rms   OT_Error      Smajor Sminor Az        Err   mdist  Mdist     Err        Err        Err      Quality

2011/01/01 20:13:16.6     44.3739    7.2884      2.0      20    9 186  Ml 1.9  8  Md 1.9  3              js067245    253251

      0.21   +-  0.08       1.9     .8   79.44 +-  0.0    0.51   1.93   +-0.4      +-0.0                 m i ke

NORTHERN ITALY
Sta     Dist  EvAz     Phase      Date       Time     TRes  Azim  AzRes  Slow  SRes Def   SNR       Amp   Per   Mag1   Mag2       ID
MBDF  000.51 313.9 m E Pg      2011/01/01 20:13:26.4  -0.1                          T                                        4576064
MBDF  000.51 313.9 m E Sg      2011/01/01 20:13:33.6   0.3                          T               16.2  .34        Md 1.9  4576060
SBF   000.52 168.2 m E Pg      2011/01/01 20:13:26.9   0.3                          T                                        4576063
SBF   000.52 168.2 m E Sg      2011/01/01 20:13:33.7   0.2                          T               16.1  .22        Md 1.9  4576057
FRF   000.94 209.9 m E Pg      2011/01/01 20:13:33.9  -0.3                          T                                        4576062
FRF   000.94 209.9 m E Sg      2011/01/01 20:13:46.2  -0.1                          T               12.3  .26 Ml 2.5 Md 2.0  4576059
ORIF  001.14 298.9 m E Pg      2011/01/01 20:13:38.1   0.0                          T                                        4576052
ORIF  001.14 298.9 m E Sg      2011/01/01 20:13:52.9  -0.1                          T                1.8  .36 Ml 1.6         4576056
LMR   001.18 208.7 m E Pg      2011/01/01 20:13:38.5  -0.1                          T                                        4576061
LMR   001.18 208.7 m E Sg      2011/01/01 20:13:53.6  -0.4                          T                9.0  .22 Ml 2.5         4576058
LPG   001.19 341.4 m E Pg      2011/01/01 20:13:39.2   0.1                          T                                        4576050
LPG   001.19 341.4 m E Sg      2011/01/01 20:13:53.9  -0.6                          T                  1  .19 Ml 1.6         4576054
LPL   001.21 341.1 m E Pg      2011/01/01 20:13:39.4  -0.1                          T                                        4576051
LPL   001.21 341.1 m E Sg      2011/01/01 20:13:55.3   0.2                          T                1.1  .22 Ml 1.6         4576055
SMRF  001.30 252.7 m E Pg      2011/01/01 20:13:41.0   0.2                          T                                        4576049
SMRF  001.30 252.7 m E Sg      2011/01/01 20:13:57.9   0.3                          T                7.7  .44 Ml 2.2         4576053
VIVF  001.93 285.4 m E Pn      2011/01/01 20:13:48.7   0.0                          T                                        4576048
VIVF  001.93 285.4 m E Sn      2011/01/01 20:14:12.1   0.0                          T                 .6  .27 Ml 1.5         4576047

.
