EVENT     271463
    Date      Time       Latitude Longitude    Depth    Ndef Nsta Gap    Mag1  N    Mag2  N    Mag3  N   Author         ID
       rms   OT_Error      Smajor Sminor Az        Err   mdist  Mdist     Err        Err        Err      Quality

2012/03/08 08:42:47.3     44.5116    6.6879      2.0      41    9 044  Ml 1.9  6  Md 1.9  1              js067245    271483

      0.45   +-  0.05       1.1     .9   67.62 +-  0.0    0.09   1.48   +-0.1      +-                    m i ke

FRANCE
Sta     Dist  EvAz     Phase      Date       Time     TRes  Azim  AzRes  Slow  SRes Def   SNR       Amp   Per   Mag1   Mag2       ID
MBDF  000.22 015.4 m E Pg      2012/03/08 08:42:52.3   0.3                          T                                        4874911
MBDF  000.22 015.4 m E Sg      2012/03/08 08:42:55.9   0.8                          T               11.1  .18        Md 1.9  4874910
ORIF  000.71 305.5 m E Pg      2012/03/08 08:43:01.0   0.3                          T                                        4874909
ORIF  000.71 305.5 m E Sg      2012/03/08 08:43:10.4   0.5                          T                6.6  .20                4874908
SBF   000.84 140.1 m E Pg      2012/03/08 08:43:03.5   0.2                          T                                        4876521
SBF   000.84 140.1 m E Sg      2012/03/08 08:43:14.2   0.0                          T                8.3  .27                4874906
FRF   000.95 181.8 m E Pg      2012/03/08 08:43:05.3   0.2                          T                                        4876524
FRF   000.95 181.8 m E Sg      2012/03/08 08:43:17.8   0.3                          T                4.5  .26 Ml 2.1         4876519
LPG   000.99 002.6 m E Pg      2012/03/08 08:43:06.1  -0.1                          T                                        4876525
LPG   000.99 002.6 m E Sg      2012/03/08 08:43:19.2   0.2                          T                1.7  .21 Ml 1.7         4876517
LPL   001.01 001.8 m E Pg      2012/03/08 08:43:06.2  -0.2                          T                                        4876526
LPL   001.01 001.8 m E Sg      2012/03/08 08:43:19.6   0.1                          T                2.7  .25 Ml 1.8         4876516
SMRF  000.96 236.6 m E Pn      2012/03/08 08:43:06.6   0.3                          T                                        4876523
SMRF  000.96 236.6 m E Sg      2012/03/08 08:43:18.4   0.5                          T                2.5  .25 Ml 1.8         4876518
LMR   001.18 186.3 m E Pg      2012/03/08 08:43:09.1  -0.3                          T                                        4876522
LMR   001.18 186.3 m E Sg      2012/03/08 08:43:24.8   0.0                          T                2.4  .20 Ml 2.0         4876520
VIVF  001.48 284.2 m E Pg      2012/03/08 08:43:14.4  -0.5                          T                                        4876527
VIVF  001.48 284.2 m E Sg      2012/03/08 08:43:33.4  -0.6                          T                1.1  .22 Ml 1.7         4876515

.
EVENT     271466
    Date      Time       Latitude Longitude    Depth    Ndef Nsta Gap    Mag1  N    Mag2  N    Mag3  N   Author         ID
       rms   OT_Error      Smajor Sminor Az        Err   mdist  Mdist     Err        Err        Err      Quality

2012/03/08 09:13:53.4     44.5184    6.6911      2.0      33    8 047  Ml 1.7  5  Md 1.8  1              js067245    271486

      0.60   +-  0.07       1.6    1.2   66.93 +-  0.0    0.09   1.48   +-0.4      +-                    m i ke

FRANCE
Sta     Dist  EvAz     Phase      Date       Time     TRes  Azim  AzRes  Slow  SRes Def   SNR       Amp   Per   Mag1   Mag2       ID
MBDF  000.22 015.4 m E Pg      2012/03/08 09:13:58.1   0.2                          T                                        4876574
MBDF  000.22 015.4 m E Sg      2012/03/08 09:14:01.7   0.8                          T                6.2  .18        Md 1.8  4876575
ORIF  000.70 304.9 m E Pg      2012/03/08 09:14:06.8   0.0                          T                                        4876573
ORIF  000.70 304.9 m E Sg      2012/03/08 09:14:16.4   0.5                          T                4.0  .20                4876563
SBF   000.85 140.5 m E Pg      2012/03/08 09:14:09.8   0.4                          T                                        4876569
SBF   000.85 140.5 m E Sg      2012/03/08 09:14:20.1  -0.4                          T                4.4  .23                4876568
FRF   000.96 181.9 m E Pg      2012/03/08 09:14:11.5   0.1                          T                                        4876571
FRF   000.96 181.9 m E Sg      2012/03/08 09:14:24.1   0.3                          T                4.8  .28 Ml 2.1         4876566
SMRF  000.97 236.3 m E Pn      2012/03/08 09:14:12.8   0.4                          T                                        4876572
SMRF  000.97 236.3 m E Sn      2012/03/08 09:14:24.8  -1.1                          T                2.5  .29 Ml 1.7         4876565
LMR   001.19 186.4 m E Pg      2012/03/08 09:14:15.8   0.2                          T                                        4876570
LMR   001.19 186.4 m E Sg      2012/03/08 09:14:31.0  -0.1                          T                3.3  .21 Ml 2.1         4876567
LPG   000.98 002.5 m E Sg      2012/03/08 09:14:25.4   0.5                          T                1.1  .28 Ml 1.4         4876564
VIVF  001.48 283.9 m E Sg      2012/03/08 09:14:39.7  -0.4                          T                 .5  .23 Ml 1.3         4876562

.
EVENT     271468
    Date      Time       Latitude Longitude    Depth    Ndef Nsta Gap    Mag1  N    Mag2  N    Mag3  N   Author         ID
       rms   OT_Error      Smajor Sminor Az        Err   mdist  Mdist     Err        Err        Err      Quality

2012/03/08 11:20:28.5     44.5123    6.6628      2.0      18    7 071  Ml 1.6  5  Md 1.3  1              js067245    271488

      0.33   +-  0.08       1.8    1.4   63.27 +-  0.0    0.11   1.46   +-0.2      +-                    m i ke

FRANCE
Sta     Dist  EvAz     Phase      Date       Time     TRes  Azim  AzRes  Slow  SRes Def   SNR       Amp   Per   Mag1   Mag2       ID
MBDF  000.23 019.8 m E Pg      2012/03/08 11:20:33.1  -0.2                          T                                        4876590
MBDF  000.23 019.8 m E Sg      2012/03/08 11:20:36.8   0.4                          T                2.6  .26        Md 1.3  4876581
ORIF  000.69 306.3 m E Pg      2012/03/08 11:20:41.6  -0.1                          T                                        4876589
ORIF  000.69 306.3 m E Sg      2012/03/08 11:20:51.3   0.6                          T                 .9  .26                4876582
FRF   000.95 180.7 m E Pg      2012/03/08 11:20:46.4   0.0                          T                                        4876587
FRF   000.95 180.7 m E Sg      2012/03/08 11:20:58.9   0.2                          T                1.6  .18 Ml 1.8         4876585
SMRF  000.95 235.9 m E Pn      2012/03/08 11:20:47.7   0.4                          T                                        4876588
SMRF  000.95 235.9 m E Sn      2012/03/08 11:20:59.6  -1.0                          T                 .6  .19 Ml 1.3         4876584
LPG   000.99 003.6 m E Sg      2012/03/08 11:21:00.4   0.1                          T                1.3  .22 Ml 1.6         4876583
LMR   001.18 185.4 m E Sg      2012/03/08 11:21:05.8  -0.2                          T                1.2  .25 Ml 1.6         4876586
VIVF  001.46 284.3 m E Sg      2012/03/08 11:21:14.5  -0.2                          T                1.0  .28 Ml 1.6         4876580

.
EVENT     271484
    Date      Time       Latitude Longitude    Depth    Ndef Nsta Gap    Mag1  N    Mag2  N    Mag3  N   Author         ID
       rms   OT_Error      Smajor Sminor Az        Err   mdist  Mdist     Err        Err        Err      Quality

2012/03/08 14:19:43.3     44.5165    6.6895      2.0      40    9 050  Ml 2.0  6  Md 2.0  1              js067245    271504

      0.83   +-  0.07       1.6    1.2   57.47 +-  0.0    0.10   1.48   +-0.2      +-                    m i ke

FRANCE
Sta     Dist  EvAz     Phase      Date       Time     TRes  Azim  AzRes  Slow  SRes Def   SNR       Amp   Per   Mag1   Mag2       ID
MBDF  000.22 015.5 m E Pg      2012/03/08 14:19:48.1   0.2                          T                                        4876627
MBDF  000.22 015.5 m E Sg      2012/03/08 14:19:51.6   0.8                          T               17.0  .19        Md 2.0  4876611
ORIF  000.70 305.1 m E Pg      2012/03/08 14:19:56.6  -0.1                          T                                        4876626
ORIF  000.70 305.1 m E Sg      2012/03/08 14:20:06.3   0.4                          T               10.2  .22                4876612
SBF   000.85 140.4 m E Pg      2012/03/08 14:19:59.7   0.4                          T                                        4876619
SBF   000.85 140.4 m E Sg      2012/03/08 14:20:09.9  -0.4                          T               15.1  .32                4876618
FRF   000.96 181.9 m E Pg      2012/03/08 14:20:01.7   0.4                          T                                        4876621
FRF   000.96 181.9 m E Sg      2012/03/08 14:20:14.0   0.3                          T                6.1  .23 Ml 2.3         4876616
LPG   000.98 002.5 m E Pg      2012/03/08 14:20:02.2   0.1                          T                                        4876623
LPG   000.98 002.5 m E Sg      2012/03/08 14:20:15.2   0.4                          T                2.3  .25 Ml 1.8         4876614
LPL   001.00 001.7 m E Pg      2012/03/08 14:20:02.5   0.1                          T                                        4876624
LPL   001.00 001.7 m E Sg      2012/03/08 14:20:15.7   0.3                          T                2.0  .24 Ml 1.7         4876613
SMRF  000.97 236.4 m E Pn      2012/03/08 14:20:02.7   0.4                          T                                        4876622
SMRF  000.97 236.4 m E Sn      2012/03/08 14:20:14.3  -1.5                          T                3.9  .26 Ml 2.0         4876615
LMR   001.19 186.4 m E Pg      2012/03/08 14:20:05.6   0.1                          T                                        4876620
LMR   001.19 186.4 m E Sg      2012/03/08 14:20:20.9  -0.1                          T                5.7  .27 Ml 2.2         4876617
VIVF  001.48 284.0 m E Pg      2012/03/08 14:20:10.5  -0.4                          T                                        4876625
VIVF  001.48 284.0 m E Sg      2012/03/08 14:20:29.7  -0.3                          T                3.5  .31 Ml 2.1         4876610

.
EVENT     271485
    Date      Time       Latitude Longitude    Depth    Ndef Nsta Gap    Mag1  N    Mag2  N    Mag3  N   Author         ID
       rms   OT_Error      Smajor Sminor Az        Err   mdist  Mdist     Err        Err        Err      Quality

2012/03/08 15:24:32.2     44.5097    6.6947      2.0      38    9 046  Ml 1.7  6  Md 1.8  1              js067245    271505

      0.68   +-  0.07       1.6    1.3   66.23 +-  0.0    0.09   1.84   +-0.2      +-                    m i ke

FRANCE
Sta     Dist  EvAz     Phase      Date       Time     TRes  Azim  AzRes  Slow  SRes Def   SNR       Amp   Per   Mag1   Mag2       ID
MBDF  000.22 014.1 m E Pg      2012/03/08 15:24:37.0   0.1                          T                                        4876670
MBDF  000.22 014.1 m E Sg      2012/03/08 15:24:40.5   0.5                          T               12.2  .18        Md 1.8  4876654
ORIF  000.71 305.4 m E Pg      2012/03/08 15:24:45.5  -0.2                          T                                        4876668
ORIF  000.71 305.4 m E Sg      2012/03/08 15:24:55.1   0.1                          T                6.5  .18                4876655
SBF   000.84 140.3 m E Pg      2012/03/08 15:24:48.4   0.4                          T                                        4876662
SBF   000.84 140.3 m E Sg      2012/03/08 15:24:58.7  -0.3                          T                5.6  .28                4876661
FRF   000.95 182.1 m E Pg      2012/03/08 15:24:50.4   0.3                          T                                        4876664
FRF   000.95 182.1 m E Sg      2012/03/08 15:25:02.8   0.5                          T                4.5  .28 Ml 2.0         4876659
LPG   000.99 002.3 m E Pg      2012/03/08 15:24:51.1   0.0                          T                                        4876666
LPG   000.99 002.3 m E Sg      2012/03/08 15:25:04.2   0.3                          T                  1  .28 Ml 1.4         4876657
LPL   001.01 001.5 m E Pg      2012/03/08 15:24:51.3   0.0                          T                                        4876667
LPL   001.01 001.5 m E Sg      2012/03/08 15:25:04.4   0.0                          T                1.5  .24 Ml 1.6         4876656
SMRF  000.97 236.8 m E Pn      2012/03/08 15:24:51.6   0.4                          T                                        4876665
SMRF  000.97 236.8 m E Sn      2012/03/08 15:25:03.3  -1.4                          T                1.4  .24 Ml 1.6         4876658
LMR   001.18 186.6 m E Pg      2012/03/08 15:24:54.4   0.1                          T                                        4876663
LMR   001.18 186.6 m E Sg      2012/03/08 15:25:09.7   0.1                          T                1.9  .20 Ml 1.9         4876660
VIVF  001.48 284.2 m E Pg      2012/03/08 15:24:59.4  -0.6                          T                                        4876669
VIVF  001.48 284.2 m E Sg      2012/03/08 15:25:18.4  -0.6                          T                 .8  .22 Ml 1.6         4876653

.
EVENT     271486
    Date      Time       Latitude Longitude    Depth    Ndef Nsta Gap    Mag1  N    Mag2  N    Mag3  N   Author         ID
       rms   OT_Error      Smajor Sminor Az        Err   mdist  Mdist     Err        Err        Err      Quality

2012/03/08 16:51:14.1     44.5119    6.6860      2.0      39    9 044  Ml 1.8  6  Md 1.9  1              js067245    271506

      0.41   +-  0.05       1.1     .9   67.03 +-  0.0    0.10   1.48   +-0.2      +-                    m i ke

FRANCE
Sta     Dist  EvAz     Phase      Date       Time     TRes  Azim  AzRes  Slow  SRes Def   SNR       Amp   Per   Mag1   Mag2       ID
MBDF  000.22 015.8 m E Pg      2012/03/08 16:51:18.9   0.1                          T                                        4876707
MBDF  000.22 015.8 m E Sg      2012/03/08 16:51:22.3   0.5                          T               16.7  .20        Md 1.9  4876691
ORIF  000.70 305.5 m E Pg      2012/03/08 16:51:27.4  -0.1                          T                                        4876706
ORIF  000.70 305.5 m E Sg      2012/03/08 16:51:37.1   0.4                          T                8.5  .20                4876692
SBF   000.84 140.0 m E Pg      2012/03/08 16:51:30.5   0.4                          T                                        4876699
SBF   000.84 140.0 m E Sg      2012/03/08 16:51:40.9  -0.2                          T                6.4  .23                4876698
FRF   000.95 181.7 m E Pg      2012/03/08 16:51:32.4   0.4                          T                                        4876701
FRF   000.95 181.7 m E Sg      2012/03/08 16:51:44.9   0.5                          T                2.3  .12 Ml 2.1         4876696
LPG   000.99 002.7 m E Pg      2012/03/08 16:51:32.8  -0.2                          T                                        4876703
LPG   000.99 002.7 m E Sg      2012/03/08 16:51:46.4   0.6                          T                2.5  .27 Ml 1.8         4876694
LPL   001.01 001.9 m E Pg      2012/03/08 16:51:33.3   0.0                          T                                        4876704
LPL   001.01 001.9 m E Sg      2012/03/08 16:51:46.7   0.4                          T                1.3  .21 Ml 1.6         4876693
SMRF  000.96 236.5 m E Pn      2012/03/08 16:51:33.5   0.4                          T                                        4876702
SMRF  000.96 236.5 m E Sn      2012/03/08 16:51:45.4  -1.1                          T                2.0  .24 Ml 1.7         4876695
LMR   001.18 186.3 m E Pg      2012/03/08 16:51:36.9   0.6                          T                                        4876700
LMR   001.18 186.3 m E Sg      2012/03/08 16:51:51.6   0.0                          T                2.0  .20 Ml 1.9         4876697
VIVF  001.48 284.2 m E Pg      2012/03/08 16:51:41.3  -0.4                          T                                        4876705
VIVF  001.48 284.2 m E Sg      2012/03/08 16:52:00.5  -0.3                          T                2.4  .29 Ml 2.0         4876690

.
EVENT     271487
    Date      Time       Latitude Longitude    Depth    Ndef Nsta Gap    Mag1  N    Mag2  N    Mag3  N   Author         ID
       rms   OT_Error      Smajor Sminor Az        Err   mdist  Mdist     Err        Err        Err      Quality

2012/03/08 17:45:05.8     44.0429    7.6002       .0 f    17    5 159  Ml 2.0  3  Md 1.8  1              js067245    271507

      0.37   +-  0.11       2.1    1.5   64.78 +-  0.0    0.07   1.46   +-0.4      +-                    m i km

NORTHERN ITALY
Sta     Dist  EvAz     Phase      Date       Time     TRes  Azim  AzRes  Slow  SRes Def   SNR       Amp   Per   Mag1   Mag2       ID
SBF   000.22 213.6 m E Pg      2012/03/08 17:45:10.5   0.0                          T                                        4876712
SBF   000.22 213.6 m E Sg      2012/03/08 17:45:13.9   0.3                          T               19.6  .24        Md 1.8  4876713
FRF   000.84 235.4 m E Pg      2012/03/08 17:45:22.4   0.5                          T                                        4876708
FRF   000.84 235.4 m E Sg      2012/03/08 17:45:32.6  -0.4                          T                6.6  .26                4876709
MBDF  000.91 319.3 m E Pn      2012/03/08 17:45:24.4  -0.1                          T                                        4876714
MBDF  000.91 319.3 m E Sn      2012/03/08 17:45:37.3  -0.4                          T                1.6  .27 Ml 1.5         4876715
LMR   001.06 228.5 m E Pg      2012/03/08 17:45:26.2   0.3                          T                                        4876710
LMR   001.06 228.5 m E Sg      2012/03/08 17:45:39.7  -0.2                          T                7.2  .26 Ml 2.3         4876711
SMRF  001.46 268.1 m E Pg      2012/03/08 17:45:33.4   0.0                          T                                        4876716
SMRF  001.46 268.1 m E Sg      2012/03/08 17:45:51.9  -0.5                          T                2.9  .28 Ml 2.0         4876717

.
