EVENT     271948
    Date      Time       Latitude Longitude    Depth    Ndef Nsta Gap    Mag1  N    Mag2  N    Mag3  N   Author         ID
       rms   OT_Error      Smajor Sminor Az        Err   mdist  Mdist     Err        Err        Err      Quality

2012/03/15 01:21:42.1     44.5014    6.6628      2.0      27    9 070  Ml 1.3  6  Md 1.8  1              js067245    271968

      0.69   +-  0.07       1.6    1.1   64.39 +-  0.0    0.11   1.46   +-0.4      +-                    m i ke

FRANCE
Sta     Dist  EvAz     Phase      Date       Time     TRes  Azim  AzRes  Slow  SRes Def   SNR       Amp   Per   Mag1   Mag2       ID
MBDF  000.24 019.0 m E Pg      2012/03/15 01:21:47.0  -0.1                          T                                        4882491
MBDF  000.24 019.0 m E Sg      2012/03/15 01:21:50.2  -0.1                          T                2.7  .24        Md 1.8  4882492
ORIF  000.70 307.0 m E Pg      2012/03/15 01:21:55.4   0.1                          T                                        4882493
ORIF  000.70 307.0 m E Sg      2012/03/15 01:22:04.8   0.3                          T                1.5  .22                4882482
SBF   000.85 138.7 m E Pg      2012/03/15 01:21:58.3   0.2                          T                                        4882485
SBF   000.85 138.7 m E Sg      2012/03/15 01:22:08.7  -0.4                          T                1.3  .24                4882476
FRF   000.94 180.7 m E Pg      2012/03/15 01:21:59.6  -0.2                          T                                        4882487
FRF   000.94 180.7 m E Sg      2012/03/15 01:22:11.6  -0.3                          T                1.5  .18 Ml 1.7         4882478
LPG   001.00 003.6 m E Pg      2012/03/15 01:22:01.0  -0.2                          T                                        4882489
SMRF  000.94 236.5 m E Pg      2012/03/15 01:22:01.0   1.1                          T                                        4882488
SMRF  000.94 236.5 m E Sn      2012/03/15 01:22:13.4  -0.7                          T                1.0  .36 Ml 1.3         4882479
LPG   001.00 003.6 m E Sg      2012/03/15 01:22:14.7   0.5                          T                 .2  .19 Ml  .9         4882480
LPL   001.02 002.8 m E Pg      2012/03/15 01:22:01.4   0.0                          T                                        4882490
LPL   001.02 002.8 m E Sg      2012/03/15 01:22:14.6   0.0                          T                 .4  .25 Ml 1.0         4882481
LMR   001.17 185.5 m E Pg      2012/03/15 01:22:04.1   0.1                          T                                        4882486
LMR   001.17 185.5 m E Sg      2012/03/15 01:22:19.2   0.0                          T                2.1  .24 Ml 1.9         4882477
VIVF  001.46 284.7 m E Pg      2012/03/15 01:22:09.3  -0.2                          T                                        4882484
VIVF  001.46 284.7 m E Sg      2012/03/15 01:22:28.6   0.3                          T                 .5  .29 Ml 1.2         4882483

.
EVENT     271949
    Date      Time       Latitude Longitude    Depth    Ndef Nsta Gap    Mag1  N    Mag2  N    Mag3  N   Author         ID
       rms   OT_Error      Smajor Sminor Az        Err   mdist  Mdist     Err        Err        Err      Quality

2012/03/15 01:22:54.2     43.3789    -.6120     25.0       7    4 210  Ml 1.6  1  Md 1.9  3              js067245    271969

      0.31   +-  0.30       7.6    2.9  173.55 +-  0.0    0.48   2.06   +-         +-0.2                 m i ke

PYRENEES
Sta     Dist  EvAz     Phase      Date       Time     TRes  Azim  AzRes  Slow  SRes Def   SNR       Amp   Per   Mag1   Mag2       ID
ETSF  000.48 175.4 m E Pg      2012/03/15 01:23:04.4   0.1                          T                                        4882546
ETSF  000.48 175.4 m E Sg      2012/03/15 01:23:11.0  -0.3                          T                1.2  .23        Md 2.0  4882547
SJPF  000.52 239.6 m E Pg      2012/03/15 01:23:04.7  -0.3                          T                                        4882548
SJPF  000.52 239.6 m E Sg      2012/03/15 01:23:13.2   0.8                          T                2.6  .26        Md 2.1  4882549
EPF   000.78 116.3 m E Pg      2012/03/15 01:23:09.6   0.1                          T                                        4882544
EPF   000.78 116.3 m E Sg      2012/03/15 01:23:20.0   0.0                          T                3.3  .30        Md 1.7  4882545
MTLF  002.06 090.1 m E Sg      2012/03/15 01:23:59.4  -0.1                          T                 .6  .23 Ml 1.6         4882543

.
EVENT     271950
    Date      Time       Latitude Longitude    Depth    Ndef Nsta Gap    Mag1  N    Mag2  N    Mag3  N   Author         ID
       rms   OT_Error      Smajor Sminor Az        Err   mdist  Mdist     Err        Err        Err      Quality

2012/03/15 02:38:24.1     43.0965   -1.1444     25.0      12    3 156  Ml 1.0  1  Md 1.3  2              js067245    271970

      0.24   +-  0.07       2.2    1.3    1.68 +-  0.0    0.06   1.09   +-         +-0.1                 m i ke

PYRENEES
Sta     Dist  EvAz     Phase      Date       Time     TRes  Azim  AzRes  Slow  SRes Def   SNR       Amp   Per   Mag1   Mag2       ID
SJPF  000.06 285.9 m E Pg      2012/03/15 02:38:28.7   0.0                          T                                        4882554
SJPF  000.06 285.9 m E Sg      2012/03/15 02:38:31.0  -0.9                          T                3.4  .16        Md 1.4  4882555
ETSF  000.47 114.5 m E Pg      2012/03/15 02:38:34.2   0.0                          T                                        4882552
ETSF  000.47 114.5 m E Sg      2012/03/15 02:38:40.7  -0.3                          T                 .8  .18        Md 1.3  4882553
EPF   001.09 093.0 m E Pg      2012/03/15 02:38:45.1   0.1                          T                                        4882550
EPF   001.09 093.0 m E Sg      2012/03/15 02:38:59.3  -0.1                          T                 .4  .27 Ml 1.0         4882551

.
EVENT     271951
    Date      Time       Latitude Longitude    Depth    Ndef Nsta Gap    Mag1  N    Mag2  N    Mag3  N   Author         ID
       rms   OT_Error      Smajor Sminor Az        Err   mdist  Mdist     Err        Err        Err      Quality

2012/03/15 02:44:55.1     44.7645    6.6277      2.0      17    8 103  Ml 1.3  4  Md 1.4  2              js067245    271971

      1.15   +-  0.17       3.6    2.9   81.55 +-  0.0    0.11   1.43   +-0.2      +-0.2                 m i ke

FRANCE
Sta     Dist  EvAz     Phase      Date       Time     TRes  Azim  AzRes  Slow  SRes Def   SNR       Amp   Per   Mag1   Mag2       ID
MBDF  000.11 110.1 m E Pg      2012/03/15 02:44:56.9  -0.8                          T                                        4882576
MBDF  000.11 110.1 m E Sg      2012/03/15 02:44:57.1  -2.1                          T               11.0  .27        Md 1.5  4882577
ORIF  000.55 286.4 m E Pg      2012/03/15 02:45:05.6  -0.1                          T                                        4882574
ORIF  000.55 286.4 m E Sg      2012/03/15 02:45:11.7  -1.3                          T                2.6  .26        Md 1.3  4882575
LPG   000.74 006.8 m E Pg      2012/03/15 02:45:09.8   0.4                          T                                        4882572
LPG   000.74 006.8 m E Sg      2012/03/15 02:45:18.8  -0.2                          T                 .6  .23                4882564
LPL   000.76 005.6 m E Pg      2012/03/15 02:45:10.1   0.5                          T                                        4882573
LPL   000.76 005.6 m E Sg      2012/03/15 02:45:19.2  -0.3                          T                 .9  .31                4882565
SMRF  001.09 224.1 m E P       2012/03/15 02:45:17.4   0.1                          T                                        4882568
SMRF  001.09 224.1 m E Sg      2012/03/15 02:45:30.0   0.3                          T                 .7  .30 Ml 1.2         4882563
FRF   001.20 179.3 m E Pg      2012/03/15 02:45:18.4   0.8                          T                                        4882571
FRF   001.20 179.3 m E Sg      2012/03/15 02:45:33.2   0.0                          T                  1  .20 Ml 1.6         4882562
LMR   001.43 183.5 m E Pg      2012/03/15 02:45:21.7  -0.1                          T                                        4882567
LMR   001.43 183.5 m E Sg      2012/03/15 02:45:40.3   0.0                          T                 .4  .21 Ml 1.3         4882561
VIVF  001.39 274.5 m E Sg      2012/03/15 02:45:39.2   0.1                          T                 .4  .30 Ml 1.1         4882566

.
