EVENT     278944
    Date      Time       Latitude Longitude    Depth    Ndef Nsta Gap    Mag1  N    Mag2  N    Mag3  N   Author         ID
       rms   OT_Error      Smajor Sminor Az        Err   mdist  Mdist     Err        Err        Err      Quality

2012/06/29 07:10:55.4     46.8413    3.1427       .0 f    17    9 091  Ml 2.0  2  Md 1.7  2              bulletin    279044
                                                                                                         _ldg
      0.77   +-  0.07       1.6    1.1  142.76 +-  0.0    0.15   2.06   +-0.3      +-0.1                 m i km

FRANCE
Sta     Dist  EvAz     Phase      Date       Time     TRes  Azim  AzRes  Slow  SRes Def   SNR       Amp   Per   Mag1   Mag2       ID
AVF   000.15 109.3 m E Pg      2012/06/29 07:10:58.5  -0.2                          T                                        5024551
AVF   000.15 109.3 m E Sg      2012/06/29 07:11:01.6   0.6                          T               29.5  .30        Md 1.8  5024552
SSF   000.33 048.4 m E Pg      2012/06/29 07:11:02.0  -0.1                          T                                        5024555
SSF   000.33 048.4 m E Sg      2012/06/29 07:11:06.7   0.0                          T               16.8  .44        Md 1.6  5024556
BGF   000.35 215.8 m E Pg      2012/06/29 07:11:02.4   0.0                          T                                        5024546
BGF   000.35 215.8 m E Sg      2012/06/29 07:11:07.3   0.0                          T               60.6  .35                5024547
SMF   000.52 112.0 m E Pg      2012/06/29 07:11:05.5  -0.1                          T                                        5024549
SMF   000.52 112.0 m E Sg      2012/06/29 07:11:12.6   0.1                          T                5.2  .24                5024550
HYF   000.55 321.3 m E Pg      2012/06/29 07:11:05.9  -0.1                          T                                        5024564
HYF   000.55 321.3 m E Sg      2012/06/29 07:11:13.2  -0.3                          T                                        5024548
LOR   000.65 048.6 m E Pg      2012/06/29 07:11:08.0   0.0 224.3  -4.9              T                                        5024562
LOR   000.65 048.6 m E Pn      2012/06/29 07:11:10.6   0.1                          T                                        5024553
LOR   000.65 048.6 m E Sg      2012/06/29 07:11:16.9   0.3 219.6  -9.6              T                5.2  .34                5024554
TCF   000.85 229.6 m E Pn      2012/06/29 07:11:13.2   0.1                          T                                        5024561
TCF   000.85 229.6 m E Sg      2012/06/29 07:11:22.9   0.0                          T                2.4  .32                5024563
RJF   001.91 217.0 m E Sg      2012/06/29 07:11:55.9   0.0                          T                2.4  .28 Ml 1.8         5024559
CAF   002.06 201.8 m E Sg      2012/06/29 07:12:00.9   0.3                          T                1.8  .21 Ml 2.2         5024560

.
EVENT     278891
    Date      Time       Latitude Longitude    Depth    Ndef Nsta Gap    Mag1  N    Mag2  N    Mag3  N   Author         ID
       rms   OT_Error      Smajor Sminor Az        Err   mdist  Mdist     Err        Err        Err      Quality

2012/06/29 08:48:59.2     44.5511    7.1422      2.0      26    6 104  Ml 1.7  5  Md 1.8  1              bulletin    278991
                                                                                                         _ldg
      0.09   +-  0.02        .5     .3   69.07 +-  0.0    0.05   1.30   +-0.2      +-                    m i ke

NORTHERN ITALY
Sta     Dist  EvAz     Phase      Date       Time     TRes  Azim  AzRes  Slow  SRes Def   SNR       Amp   Per   Mag1   Mag2       ID
MBDF  000.32 303.7 m E Pg      2012/06/29 08:49:05.6   0.0                          T                                        5015425
MBDF  000.32 303.7 m E Sg      2012/06/29 08:49:10.0   0.1                          T                7.0  .20        Md 1.8  5015424
ORIF  000.97 292.6 m E Pg      2012/06/29 08:49:17.3  -0.2                          T                                        5015423
ORIF  000.97 292.6 m E Sg      2012/06/29 08:49:30.1  -0.1                          T                1.9  .34 Ml 1.6         5015422
LPG   000.99 343.8 m E Pg      2012/06/29 08:49:18.0   0.0                          T                                        5015419
LPG   000.99 343.8 m E Sg      2012/06/29 08:49:30.9   0.1                          T                1.0  .19 Ml 1.6         5015418
LPL   001.01 343.4 m E Pg      2012/06/29 08:49:18.3   0.0                          T                                        5015421
LPL   001.01 343.4 m E Sg      2012/06/29 08:49:31.3  -0.2                          T                2.5  .28 Ml 1.8         5015420
FRF   001.05 200.0 m E Pg      2012/06/29 08:49:19.0   0.1                          T                                        5015417
FRF   001.05 200.0 m E Sg      2012/06/29 08:49:32.7   0.1                          T                2.3  .24 Ml 1.9         5015416
LMR   001.30 200.8 m E Pn      2012/06/29 08:49:22.6   0.0                          T                                        5015415
LMR   001.30 200.8 m E Sn      2012/06/29 08:49:39.5  -0.1                          T                  1  .28 Ml 1.5         5015414

.
EVENT     278877
    Date      Time       Latitude Longitude    Depth    Ndef Nsta Gap    Mag1  N    Mag2  N    Mag3  N   Author         ID
       rms   OT_Error      Smajor Sminor Az        Err   mdist  Mdist     Err        Err        Err      Quality

2012/06/29 09:25:11.4     47.9769    6.6334       .0 f    13    7 103  Ml 2.0  3  Md 1.7  4              bulletin    278977
                                                                                                         _ldg
      0.62   +-  0.09       2.3    1.5   26.53 +-  0.0    0.19   1.42   +-0.1      +-0.2                 m i km

FRANCE
Sta     Dist  EvAz     Phase      Date       Time     TRes  Azim  AzRes  Slow  SRes Def   SNR       Amp   Per   Mag1   Mag2       ID
HAU   000.19 278.6 m E Pg      2012/06/29 09:25:15.7   0.1                          T                                        5015279
HAU   000.19 278.6 m E Sg      2012/06/29 09:25:18.2  -0.3                          T                7.9  .22        Md 1.5  5015278
HINF  000.22 137.2 m E Pg      2012/06/29 09:25:16.1   0.0                          T                                        5015277
HINF  000.22 137.2 m E Sg      2012/06/29 09:25:19.1  -0.1                          T               16.0  .18        Md 1.5  5015276
THEF  000.50 300.6 m E Pg      2012/06/29 09:25:21.4   0.2                          T                                        5015293
THEF  000.50 300.6 m E Sg      2012/06/29 09:25:28.0   0.1                          T                3.4  .25        Md 2.0  5015292
CDF   000.61 044.4 m E Pn      2012/06/29 09:25:26.0  -0.1                          T                                        5015296
CDF   000.61 044.4 m E Sn      2012/06/29 09:25:38.6   0.0                          T                6.2  .21        Md 1.9  5015295
SFTF  001.09 282.6 m E Pg      2012/06/29 09:25:31.9  -0.3 107.3  5.8               T                                        5015289
SFTF  001.09 282.6 m E Sg      2012/06/29 09:25:46.7   0.2                          T                3.5  .23 Ml 2.0         5015288
CABF  001.42 195.4 m E Pn      2012/06/29 09:25:37.1   0.1                          T                                        5015291
CABF  001.42 195.4 m E Sn      2012/06/29 09:25:55.7   0.3                          T                2.8  .39 Ml 1.9         5015290
MEZF  001.18 297.0 m E Sg      2012/06/29 09:25:49.2  -0.1                          T                4.0  .32 Ml 2.0         5023876

.
EVENT     278876
    Date      Time       Latitude Longitude    Depth    Ndef Nsta Gap    Mag1  N    Mag2  N    Mag3  N   Author         ID
       rms   OT_Error      Smajor Sminor Az        Err   mdist  Mdist     Err        Err        Err      Quality

2012/06/29 09:33:06.2     42.8020    1.2472     10.0 f   110   21 030  Ml 3.1 24  Md 2.9  3              bulletin    278976
                                                                                                         _ldg
      0.72   +-  0.05       1.0     .9    5.41 +-  0.0    0.06   6.38   +-0.3      +-0.0                 m i ke

PYRENEES
Sta     Dist  EvAz     Phase      Date       Time     TRes  Azim  AzRes  Slow  SRes Def   SNR       Amp   Per   Mag1   Mag2       ID
EPF   000.70 289.2 m E Pg      2012/06/29 09:33:18.9  -0.8                          T   001.0                                5015246
EPF   000.70 289.2 m E Sg      2012/06/29 09:33:27.7  -1.2                          T               92.0  .25        Md 2.9  5015275
MTLF  000.89 052.5 m E Pn      2012/06/29 09:33:23.3   0.1                          T   001.0                                5015254
MTLF  000.89 052.5 m E Sg      2012/06/29 09:33:34.4  -0.3                          T   001.0       36.5  .20 Ml 3.0 Md 2.9  5015255
ETSF  001.33 274.8 m E Pg      2012/06/29 09:33:31.3   0.1                          T   001.0                                5015251
ETSF  001.33 274.8 m E Sn      2012/06/29 09:33:46.9   0.9                          T   001.0                                5015252
ETSF  001.33 274.8 m E Sg      2012/06/29 09:33:47.9  -0.6                          T   001.0       47.5  .32 Ml 3.1 Md 2.9  5015253
SJPF  001.84 280.6 m E Pg      2012/06/29 09:33:40.5   0.0                          T   001.0                                5015257
SJPF  001.84 280.6 m E Sg      2012/06/29 09:34:04.2   0.0                          T   001.0       17.8  .24 Ml 3.0         5015258
LFF   002.17 350.4 m E Pn      2012/06/29 09:33:41.5   0.9                          T   001.0                                5015262
LFF   002.17 350.4 m E Pg      2012/06/29 09:33:45.8  -0.6                          T   001.0                                5015263
LFF   002.17 350.4 m E Sg      2012/06/29 09:34:13.5  -0.9                          T   001.0       46.6  .32 Ml 3.2         5015264
CAF   002.20 015.3 m E Pn      2012/06/29 09:33:41.6   0.5                          T                                        5015274
CAF   002.20 015.3 m E Sg      2012/06/29 09:34:14.3  -1.3                          T   001.0       31.3  .20 Ml 3.4         5015245
LASF  002.29 055.3 m E Pn      2012/06/29 09:33:42.9   0.6                          T   001.0                                5015247
LASF  002.29 055.3 m E Pg      2012/06/29 09:33:48.6  -0.1                          T   001.0                                5015248
LASF  002.29 055.3 m E Sg      2012/06/29 09:34:17.7  -0.5                          T   001.0       12.8  .20 Ml 3.1         5015261
RJF   002.51 004.3 m E Pn      2012/06/29 09:33:45.8   0.5                          T                                        5015273
RJF   002.51 004.3 m E Pg      2012/06/29 09:33:51.2  -1.6                          T                                        5015272
RJF   002.51 004.3 m E Sn      2012/06/29 09:34:13.5  -0.6                          T   001.0                                5015237
RJF   002.51 004.3 m E Sg      2012/06/29 09:34:22.0  -2.1                          T   001.0       18.1  .20 Ml 2.9         5015242
VIVF  003.22 049.2 m E Pn      2012/06/29 09:33:56.2   1.3                          T   001.0                                5015259
VIVF  003.22 049.2 m E Pg      2012/06/29 09:34:06.5   0.6                          T                                        5024621
VIVF  003.22 049.2 m E Sg      2012/06/29 09:34:46.6  -0.6                          T   001.0        7.1  .20 Ml 3.0         5015260
SMRF  003.37 068.1 m E Pn      2012/06/29 09:33:56.6  -0.4                          T                                        5015266
SMRF  003.37 068.1 m E Pg      2012/06/29 09:34:08.8   0.2                          T                                        5024620
SMRF  003.37 068.1 m E Sg      2012/06/29 09:34:51.8  -0.1                          T                9.4  .42 Ml 2.9         5024617
TCF   003.55 010.8 m E Pn      2012/06/29 09:34:00.2   0.7                          T                                        5015270
TCF   003.55 010.8 m E Sn      2012/06/29 09:34:38.6  -0.5                          T   001.0                                5015249
TCF   003.55 010.8 m E Sg      2012/06/29 09:34:55.6  -2.1                          T   001.0        7.1  .24 Ml 3.1         5015250
LMR   003.89 080.4 m E Pn      2012/06/29 09:34:04.1   0.0                          T   001.0                                5015238
LMR   003.89 080.4 m E Pg      2012/06/29 09:34:17.5  -0.7                          T                                        5015271
LMR   003.89 080.4 m E Sg      2012/06/29 09:35:08.2   0.0                          T                2.9  .32 Ml 2.6         5024618
BGF   003.92 016.3 m E Pn      2012/06/29 09:34:04.4  -0.1                          T                                        5015267
BGF   003.92 016.3 m E Sg      2012/06/29 09:35:08.7  -0.5                          T   001.0       27.2  .32 Ml 3.6         5015244
SMF   004.26 024.8 m E Pn      2012/06/29 09:34:09.3   0.1                          T                                        5015269
SMF   004.26 024.8 m E Sg      2012/06/29 09:35:19.2  -0.7                          T                3.1  .25 Ml 2.8         5015268
SSF   004.55 019.9 m E Pn      2012/06/29 09:34:14.2   1.1                          T                                        5015265
SSF   004.55 019.9 m E Sg      2012/06/29 09:35:25.7  -3.1                          T   001.0        4.9  .32 Ml 3.0         5015241
FRF   004.02 077.3 m E Pg      2012/06/29 09:34:20.2  -0.4                          T                                        5024619
FRF   004.02 077.3 m E Sg      2012/06/29 09:35:12.0  -0.2                          T                9.4  .52 Ml 3.0         5024616
MFF   003.93 345.8 m E Sn      2012/06/29 09:34:47.6  -0.4                          T   001.0        7.5  .32 Ml 3.2         5015240
MFF   003.93 345.8 m E Sg      2012/06/29 09:35:09.2  -0.1                          T                5.4  .23 Ml 3.2         5024622
ORIF  003.96 056.2 m E Sg      2012/06/29 09:35:10.7   0.2                          T                1.8  .34 Ml 2.4         5024615
AVF   004.26 019.9 m E Sg      2012/06/29 09:35:18.7  -1.0                          T   001.0        5.2  .32 Ml 2.9         5015243
LOR   004.83 021.6 m E Sg      2012/06/29 09:35:35.7  -1.9                          T   001.0        7.8  .44 Ml 3.1         5015239
ROSF  006.38 331.7 m E Sg      2012/06/29 09:36:24.4  -1.4                          T   001.0       13.8  .80 Ml 3.4         5015256

.
EVENT     278879
    Date      Time       Latitude Longitude    Depth    Ndef Nsta Gap    Mag1  N    Mag2  N    Mag3  N   Author         ID
       rms   OT_Error      Smajor Sminor Az        Err   mdist  Mdist     Err        Err        Err      Quality

2012/06/29 11:37:11.6     47.6363    6.2152       .0 f    14    8 117  Ml 2.1  5  Md 2.2  1              bulletin    278979
                                                                                                         _ldg
      0.21   +-  0.07       1.4    1.2  117.98 +-  0.0    0.38   1.64   +-0.2      +-                    m i km

FRANCE
Sta     Dist  EvAz     Phase      Date       Time     TRes  Azim  AzRes  Slow  SRes Def   SNR       Amp   Per   Mag1   Mag2       ID
HAU   000.38 013.6 m E Pg      2012/06/29 11:37:18.9  -0.3                          T                                        5015287
HAU   000.38 013.6 m E Sg      2012/06/29 11:37:24.4   0.0                          T              119.7  .83        Md 2.2  5015286
HINF  000.47 067.0 m E Pg      2012/06/29 11:37:21.0   0.2                          T                                        5015285
HINF  000.47 067.0 m E Sg      2012/06/29 11:37:26.8  -0.4                          T               26.4  .78                5015284
THEF  000.61 346.0 m E Pg      2012/06/29 11:37:23.3  -0.1                          T                                        5015281
THEF  000.61 346.0 m E Sg      2012/06/29 11:37:31.8   0.1                          T              108.7 1.11                5023879
SFTF  000.97 306.1 m E Pg      2012/06/29 11:37:30.1   0.0                          T                                        5015300
SFTF  000.97 306.1 m E Sg      2012/06/29 11:37:43.5   0.5                          T                3.1  .23 Ml 1.9         5015299
CABF  001.03 184.9 m E Pg      2012/06/29 11:37:31.2  -0.1                          T                                        5015283
CABF  001.03 184.9 m E Sn      2012/06/29 11:37:46.4   0.0                          T               27.1  .78 Ml 2.4         5015282
CDF   001.05 042.1 m E Pg      2012/06/29 11:37:31.8   0.2                          T                                        5015298
CDF   001.05 042.1 m E Sg      2012/06/29 11:37:45.7   0.1                          T               16.1  .76 Ml 2.3         5015297
PAGF  000.98 340.5 m E Sg      2012/06/29 11:37:43.0   0.0                          T               11.1  .60 Ml 2.1         5023877
LOR   001.64 257.9 m E Sg      2012/06/29 11:38:03.8   0.0                          T                1.6  .25 Ml 1.9         5023878

.
