BEGIN GSE2.0
MSG_TYPE DATA
MSG_ID 01-JUN-1115:08:38  FRA_NDC
E-MAIL
DATA_TYPE BULLETIN
Reviewed Bulletin (REB) # P2011-019  from French NDC for regional phases     PERIOD 11 MAY 2011 TO 17 MAY 2011 C M., J-P S
EVENT     259250
    Date      Time       Latitude Longitude    Depth    Ndef Nsta Gap    Mag1  N    Mag2  N    Mag3  N   Author         ID
       rms   OT_Error      Smajor Sminor Az        Err   mdist  Mdist     Err        Err        Err      Quality

2011/05/11 06:24:48.5     42.6061     .9023      2.0      21    8 182  Ml 2.2  8  Md 2.3  3              js067245    259250

      0.25   +-  0.09       1.8     .9     .37 +-  0.0    0.26   2.73   +-0.1      +-0.0                 m i ke

PYRENEES
Sta     Dist  EvAz     Phase      Date       Time     TRes  Azim  AzRes  Slow  SRes Def   SNR       Amp   Per   Mag1   Mag2       ID
EPF   000.59 315.9 m E Pg      2011/05/11 06:24:59.6  -0.2                          T                                        4690318
EPF   000.59 315.9 m E Sg      2011/05/11 06:25:07.3  -0.3                          T               28.0  .22        Md 2.3  4690315
ETSF  001.12 285.7 m E Pg      2011/05/11 06:25:09.7   0.2                          T                                        4690316
ETSF  001.12 285.7 m E Sg      2011/05/11 06:25:23.0  -0.9                          T                5.8  .18 Ml 2.4 Md 2.2  4690313
MTLF  001.21 052.3 m E Pg      2011/05/11 06:25:11.3   0.1                          T                                        4690317
MTLF  001.21 052.3 m E Sg      2011/05/11 06:25:26.5  -0.4                          T                7.3  .35 Ml 2.2 Md 2.3  4690314
SJPF  001.64 288.7 m E Pg      2011/05/11 06:25:19.3   0.2                          T                                        4690311
SJPF  001.64 288.7 m E Sg      2011/05/11 06:25:41.0   0.6                          T                2.4  .21 Ml 2.2         4690312
LFF   002.34 357.2 m E Pn      2011/05/11 06:25:26.2   0.2                          T                                        4690301
LFF   002.34 357.2 m E Pg      2011/05/11 06:25:31.9   0.1                          T                                        4690308
LFF   002.34 357.2 m E Sg      2011/05/11 06:26:01.7  -0.2                          T                6.1  .33 Ml 2.4         4690304
CAF   002.47 019.6 m E Pn      2011/05/11 06:25:28.0   0.0                          T                                        4690300
CAF   002.47 019.6 m E Pg      2011/05/11 06:25:34.3   0.0                          T                                        4690309
CAF   002.47 019.6 m E Sg      2011/05/11 06:26:05.9  -0.2                          T                2.1  .22 Ml 2.3         4690305
RJF   002.73 009.1 m E Pn      2011/05/11 06:25:31.7   0.1                          T                                        4690302
RJF   002.73 009.1 m E Pg      2011/05/11 06:25:39.0  -0.2                          T                                        4690307
RJF   002.73 009.1 m E Sg      2011/05/11 06:26:14.1  -0.2                          T                2.5  .23 Ml 2.1         4690303
LASF  002.61 054.7 m E Pg      2011/05/11 06:25:37.0   0.1                          T                                        4690310
LASF  002.61 054.7 m E Sg      2011/05/11 06:26:10.3  -0.1                          T                1.9  .33 Ml 2.1         4690306

.
EVENT     259178
    Date      Time       Latitude Longitude    Depth    Ndef Nsta Gap    Mag1  N    Mag2  N    Mag3  N   Author         ID
       rms   OT_Error      Smajor Sminor Az        Err   mdist  Mdist     Err        Err        Err      Quality

2011/05/11 06:56:02.5     43.0709    -.1482      2.0       8    4 166  Ml 1.8  1  Md 1.6  2              js067245    259178

      0.10   +-  0.04       2.8     .7  173.73 +-  0.0    0.35   1.75   +-         +-0.0                 m i ke

PYRENEES
Sta     Dist  EvAz     Phase      Date       Time     TRes  Azim  AzRes  Slow  SRes Def   SNR       Amp   Per   Mag1   Mag2       ID
ETSF  000.35 240.4 m E Pg      2011/05/11 06:56:09.4   0.0                          T                                        4687433
ETSF  000.35 240.4 m E Sg      2011/05/11 06:56:13.9   0.0                          T               11.6  .24        Md 1.6  4687430
EPF   000.36 096.3 m E Pg      2011/05/11 06:56:09.4  -0.1                          T                                        4687432
EPF   000.36 096.3 m E Sg      2011/05/11 06:56:14.2  -0.1                          T               11.4  .28        Md 1.6  4687429
SJPF  000.79 273.4 m E Pg      2011/05/11 06:56:17.3  -0.1                          T                                        4687424
SJPF  000.79 273.4 m E Sg      2011/05/11 06:56:27.6  -0.1                          T                1.3  .30                4687431
MTLF  001.75 080.3 m E Pn      2011/05/11 06:56:32.2   0.0                          T                                        4687426
MTLF  001.75 080.3 m E Sn      2011/05/11 06:56:54.0   0.3                          T                1.2  .30 Ml 1.8         4687425

.
EVENT     259173
    Date      Time       Latitude Longitude    Depth    Ndef Nsta Gap    Mag1  N    Mag2  N    Mag3  N   Author         ID
       rms   OT_Error      Smajor Sminor Az        Err   mdist  Mdist     Err        Err        Err      Quality

2011/05/11 06:58:40.8     47.8092    5.8768       .0 f    40   19 076  Ml 2.5 15  Md 2.5  3              js067245    259173

      0.63   +-  0.04       1.0     .7  132.81 +-  0.0    0.37   2.93   +-0.2      +-0.1                 m i km

FRANCE
Sta     Dist  EvAz     Phase      Date       Time     TRes  Azim  AzRes  Slow  SRes Def   SNR       Amp   Per   Mag1   Mag2       ID
HAU   000.37 058.0 m E Pg      2011/05/11 06:58:47.6  -0.7                          T                                        4687443
HAU   000.37 058.0 m E Sg      2011/05/11 06:58:53.3  -0.1                          T               51.1  .53        Md 2.6  4687437
SFTF  000.69 305.4 m E Pg      2011/05/11 06:58:54.1   0.0 123.4  -1.4              T                                        4687562
SFTF  000.69 305.4 m E Sg      2011/05/11 06:59:03.3   0.0                          T               38.8  .44        Md 2.4  4687574
HINF  000.66 089.0 m E Pg      2011/05/11 06:58:54.5   1.0                          T                                        4687442
HINF  000.66 089.0 m E Sg      2011/05/11 06:59:02.6   0.2                          T               31.4  .72        Md 2.5  4687436
PAGF  000.75 352.3 m E Pg      2011/05/11 06:58:55.5   0.2                          T                                        4687560
PAGF  000.75 352.3 m E Sg      2011/05/11 06:59:05.3   0.0 160.4  -11.8             T                5.4  .58                4687576
MEZF  000.89 321.8 m E Pg      2011/05/11 06:58:57.9   0.2                          T                                        4687561
MEZF  000.89 321.8 m E Sg      2011/05/11 06:59:09.4   0.0 144.6  3.4               T               24.7  .42 Ml 2.5         4687575
CDF   001.12 056.7 m E Pg      2011/05/11 06:59:02.1   0.0                          T                                        4687559
CDF   001.12 056.7 m E Sg      2011/05/11 06:59:16.9   0.2                          T               17.1  .44 Ml 2.6         4687577
CABF  001.21 173.1 m E Pg      2011/05/11 06:59:04.1   0.3                          T                                        4687441
CABF  001.21 173.1 m E Sg      2011/05/11 06:59:19.8   0.2                          T               26.5  .54 Ml 2.6         4687435
LOR   001.47 249.2 m E Pg      2011/05/11 06:59:08.3  -0.2  71.2  3.5               T                                        4687440
LOR   001.47 249.2 m E Sg      2011/05/11 06:59:27.7   0.0  73.8  6.1               T               17.1  .48 Ml 2.6         4687439
LANF  001.74 046.9 m E Pn      2011/05/11 06:59:10.9   0.1                          T                                        4687554
LANF  001.74 046.9 m E Sg      2011/05/11 06:59:36.3   0.2                          T                6.4  .29 Ml 2.5         4687550
SSF   001.77 245.9 m E Pg      2011/05/11 06:59:14.2   0.1                          T                                        4687579
SSF   001.77 245.9 m E Sg      2011/05/11 06:59:36.6  -0.5                          T               13.4  .42 Ml 2.7         4687438
SMF   001.81 230.7 m E Pg      2011/05/11 06:59:14.8   0.0                          T                                        4687564
SMF   001.81 230.7 m E Sg      2011/05/11 06:59:38.4   0.1                          T               23.5  .42 Ml 2.9         4687434
RUP   002.05 022.0 m E Pn      2011/05/11 06:59:15.1   0.1                          T                                        4687557
RUP   002.05 022.0 m E Sg      2011/05/11 06:59:46.0   0.2                          T                                        4687551
HYF   002.26 257.3 m E Pn      2011/05/11 06:59:17.7  -0.1                          T                                        4687565
HYF   002.26 257.3 m E Sg      2011/05/11 06:59:52.2  -0.1                          T                                        4687572
AVF   002.00 240.3 m E Pg      2011/05/11 06:59:18.2   0.0                          T                                        4687563
AVF   002.00 240.3 m E Sg      2011/05/11 06:59:44.2   0.1                          T                4.2  .44 Ml 2.2         4687573
LPG   002.39 165.1 m E Pn      2011/05/11 06:59:19.7  -0.3                          T                                        4687569
LPG   002.39 165.1 m E Sn      2011/05/11 06:59:48.5   0.2                          T                1.8  .37 Ml 2.0         4687568
GIVF  002.40 343.6 m E Pn      2011/05/11 06:59:19.8   0.1                          T                                        4687556
GIVF  002.40 343.6 m E Sg      2011/05/11 06:59:56.7   0.1                          T                3.5  .25 Ml 2.4         4687553
LPL   002.37 165.3 m E Pn      2011/05/11 06:59:19.8   0.3                          T                                        4687570
LPL   002.37 165.3 m E Sn      2011/05/11 06:59:47.8   0.1                          T                2.6  .40 Ml 2.1         4687567
BAIF  002.51 334.6 m E Pn      2011/05/11 06:59:21.0  -0.2                          T                                        4687555
BAIF  002.51 334.6 m E Sg      2011/05/11 07:00:00.0   0.0                          T                4.7  .44 Ml 2.3         4687552
TCF   002.93 240.1 m E Pn      2011/05/11 06:59:27.0   0.0                          T                                        4687558
TCF   002.93 240.1 m E Sg      2011/05/11 07:00:13.4   0.0                          T                6.2  .46 Ml 2.6         4687578

.
