EVENT     274501
    Date      Time       Latitude Longitude    Depth    Ndef Nsta Gap    Mag1  N    Mag2  N    Mag3  N   Author         ID
       rms   OT_Error      Smajor Sminor Az        Err   mdist  Mdist     Err        Err        Err      Quality

2012/04/25 09:18:09.3     44.5856    2.1158       .0 f    14    6 113  Ml 1.7  3  Md 1.9  1              bulletin    274601
                                                                                                         _ldg
      0.79   +-  0.10       2.7    1.6   71.02 +-  0.0    0.34   2.04   +-0.3      +-                    m i km

FRANCE
Sta     Dist  EvAz     Phase      Date       Time     TRes  Azim  AzRes  Slow  SRes Def   SNR       Amp   Per   Mag1   Mag2       ID
CAF   000.34 353.9 m E Pg      2012/04/25 09:18:15.8  -0.5                          T                                        4922379
CAF   000.34 353.9 m E Sg      2012/04/25 09:18:20.5  -0.5                          T               82.1  .62        Md 1.9  4922378
RJF   000.84 329.6 m E Pg      2012/04/25 09:18:25.3   0.0                          T                                        4922390
RJF   000.84 329.6 m E Sg      2012/04/25 09:18:37.2   0.8                          T                9.9  .28                4922389
LFF   001.04 290.3 m E Pg      2012/04/25 09:18:29.0   0.0                          T                                        4922391
LFF   001.04 290.3 m E Sg      2012/04/25 09:18:42.6  -0.2                          T                5.3  .28 Ml 1.9         4922392
MTLF  001.25 176.6 m E Pg      2012/04/25 09:18:33.0   0.2                          T                                        4922376
MTLF  001.25 176.6 m E Sg      2012/04/25 09:18:49.4   0.2                          T                 .9  .28 Ml 1.4         4922377
LASF  001.35 111.6 m E Pg      2012/04/25 09:18:34.9   0.1                          T                                        4922375
LASF  001.35 111.6 m E Sg      2012/04/25 09:18:52.1  -0.4                          T                 .9  .19 Ml 1.7         4922374
BGF   002.04 014.3 m E Pg      2012/04/25 09:18:47.7   0.3                          T                                        4932958
BGF   002.04 014.3 m E Sg      2012/04/25 09:19:14.4   0.5                          T                                        4932959

.
EVENT     274495
    Date      Time       Latitude Longitude    Depth    Ndef Nsta Gap    Mag1  N    Mag2  N    Mag3  N   Author         ID
       rms   OT_Error      Smajor Sminor Az        Err   mdist  Mdist     Err        Err        Err      Quality

2012/04/25 09:48:39.2     44.7146    4.6607       .0 f    35   14 084  Ml 2.3 12  Md 2.0  1              bulletin    274595
                                                                                                         _ldg
      0.50   +-  0.06       1.3    1.1   55.45 +-  0.0    0.14   2.61   +-0.3      +-                    m i km

FRANCE
Sta     Dist  EvAz     Phase      Date       Time     TRes  Azim  AzRes  Slow  SRes Def   SNR       Amp   Per   Mag1   Mag2       ID
VIVF  000.14 003.5 m E Pg      2012/04/25 09:48:41.6  -0.8                          T                                        4922339
VIVF  000.14 003.5 m E Sg      2012/04/25 09:48:44.2  -0.4                          T              127.4  .40        Md 2.0  4922335
LASF  000.86 222.3 m E Pg      2012/04/25 09:48:55.7   0.1                          T                                        4922338
LASF  000.86 222.3 m E Sg      2012/04/25 09:49:07.4   0.4                          T               23.2  .31 Ml 2.6         4933332
ORIF  000.89 076.4 m E Pg      2012/04/25 09:48:56.5   0.1                          T                                        4922337
ORIF  000.89 076.4 m E Sg      2012/04/25 09:49:08.7   0.6                          T                5.5  .27 Ml 2.1         4933330
SMRF  000.99 138.1 m E Pg      2012/04/25 09:48:57.8  -0.2                          T                                        4933331
SMRF  000.99 138.1 m E Sg      2012/04/25 09:49:10.3  -0.7                          T                6.1  .35 Ml 2.1         4933327
MBDF  001.50 088.8 m E Pn      2012/04/25 09:49:06.2   0.1                          T                                        4933328
MBDF  001.50 088.8 m E Sn      2012/04/25 09:49:25.3  -0.1                          T                3.2  .34 Ml 2.0         4933329
FRF   001.84 128.2 m E Pn      2012/04/25 09:49:10.8   0.4                          T                                        4933320
FRF   001.84 128.2 m E Pg      2012/04/25 09:49:13.2  -0.4                          T                                        4934397
FRF   001.84 128.2 m E Sn      2012/04/25 09:49:33.4   0.3                          T                2.8  .29 Ml 2.2         4933319
CAF   001.86 277.4 m E Pg      2012/04/25 09:49:14.1   0.0                          T                                        4934395
LMR   001.92 135.3 m E Pg      2012/04/25 09:49:14.7  -0.4                          T                                        4934396
MTLF  002.23 232.9 m E Pn      2012/04/25 09:49:16.1   0.3                          T                                        4933318
MTLF  002.23 232.9 m E Sn      2012/04/25 09:49:42.9   0.3                          T                2.6  .33 Ml 2.2         4933317
SSF   002.48 341.4 m E Pn      2012/04/25 09:49:19.4   0.2                          T                                        4933314
SSF   002.48 341.4 m E Pg      2012/04/25 09:49:25.3  -0.2                          T                                        4934389
SSF   002.48 341.4 m E Sn      2012/04/25 09:49:48.8   0.2                          T                3.1  .30 Ml 2.4         4933313
CABF  002.14 027.3 m E Pg      2012/04/25 09:49:19.6   0.2                          T                                        4934391
CABF  002.14 027.3 m E Sg      2012/04/25 09:49:47.4   0.1                          T                                        4934392
LOR   002.61 347.9 m E Pn      2012/04/25 09:49:21.1   0.1                          T                                        4933311
LOR   002.61 347.9 m E Sn      2012/04/25 09:49:51.9   0.1                          T                                        4933312
LOR   002.61 347.9 m E Sg      2012/04/25 09:50:01.7  -0.1                          T                6.7  .37 Ml 2.6         4934390
BGF   002.24 326.0 m E Pg      2012/04/25 09:49:21.2   0.1                          T                                        4933315
BGF   002.24 326.0 m E Sg      2012/04/25 09:49:50.7   0.6                          T               10.2  .34 Ml 2.7         4933316
AVF   002.27 336.7 m E Pg      2012/04/25 09:49:21.4  -0.2                          T                                        4934394
AVF   002.27 336.7 m E Sg      2012/04/25 09:49:51.3   0.3                          T                                        4934393

.
EVENT     274504
    Date      Time       Latitude Longitude    Depth    Ndef Nsta Gap    Mag1  N    Mag2  N    Mag3  N   Author         ID
       rms   OT_Error      Smajor Sminor Az        Err   mdist  Mdist     Err        Err        Err      Quality

2012/04/25 10:04:22.1     46.8820    4.2008       .0 f    14    6 132  Ml 1.8  2  Md 1.8  3              bulletin    274604
                                                                                                         _ldg
      0.96   +-  0.13       2.5    2.1  153.37 +-  0.0    0.34   1.33   +-0.1      +-0.1                 m i km

FRANCE
Sta     Dist  EvAz     Phase      Date       Time     TRes  Azim  AzRes  Slow  SRes Def   SNR       Amp   Per   Mag1   Mag2       ID
SMF   000.34 226.4 m E Pg      2012/04/25 10:04:29.1   0.0                          T                                        4922401
SMF   000.34 226.4 m E Sg      2012/04/25 10:04:33.5  -0.3                          T                2.4  .18        Md 1.9  4922400
LOR   000.45 329.0 m E Pg      2012/04/25 10:04:31.1   0.1 148.6  -0.1              T                                        4922395
LOR   000.45 329.0 m E Sg      2012/04/25 10:04:37.4   0.2                          T                1.8  .23        Md 1.8  4922394
SSF   000.51 290.9 m E Pg      2012/04/25 10:04:32.1   0.0                          T                                        4922397
SSF   000.51 290.9 m E Sg      2012/04/25 10:04:38.0  -1.0                          T                2.0  .21        Md 1.6  4922396
AVF   000.59 261.4 m E Pg      2012/04/25 10:04:33.6   0.0                          T                                        4922399
AVF   000.59 261.4 m E Sg      2012/04/25 10:04:41.3  -0.2                          T                                        4933339
BGF   000.99 251.3 m E Pg      2012/04/25 10:04:40.7  -0.2                          T                                        4922398
BGF   000.99 251.3 m E Sg      2012/04/25 10:04:54.0   0.1                          T                3.2  .27 Ml 1.9         4933340
CABF  001.33 101.1 m E Pn      2012/04/25 10:04:46.7   0.2                          T                                        4933334
CABF  001.33 101.1 m E Sn      2012/04/25 10:05:03.7  -0.3                          T                1.4  .25 Ml 1.7         4933333

.
EVENT     274503
    Date      Time       Latitude Longitude    Depth    Ndef Nsta Gap    Mag1  N    Mag2  N    Mag3  N   Author         ID
       rms   OT_Error      Smajor Sminor Az        Err   mdist  Mdist     Err        Err        Err      Quality

2012/04/25 10:04:33.5     43.1826    5.9360       .0 f    20    8 196  Ml 2.5  7  Md 2.2  1              bulletin    274603
                                                                                                         _ldg
      0.28   +-  0.10       2.0    1.2   23.70 +-  0.0    0.45   2.34   +-0.5      +-                    m i km

NEAR SOUTH COAST OF FRANCE
Sta     Dist  EvAz     Phase      Date       Time     TRes  Azim  AzRes  Slow  SRes Def   SNR       Amp   Per   Mag1   Mag2       ID
LMR   000.45 069.9 m E Pg      2012/04/25 10:04:42.2   0.0                          T                                        4922409
LMR   000.45 069.9 m E Sg      2012/04/25 10:04:48.5   0.2                          T               45.0  .22        Md 2.2  4922408
FRF   000.64 053.7 m E Pg      2012/04/25 10:04:45.7  -0.2                          T                                        4922407
FRF   000.64 053.7 m E Sg      2012/04/25 10:04:54.4   0.0                          T               14.3  .27                4922403
SMRF  000.84 341.8 m E Pn      2012/04/25 10:04:51.2   0.1                          T                                        4922406
SMRF  000.84 341.8 m E Sn      2012/04/25 10:05:03.1  -0.4                          T               22.2  .28                4922402
SBF   001.29 057.5 m E Pg      2012/04/25 10:04:57.9   0.1                          T                                        4922405
SBF   001.29 057.5 m E Sg      2012/04/25 10:05:15.1   0.4                          T               43.4  .24 Ml 3.2         4922404
LASF  001.75 301.3 m E Pn      2012/04/25 10:05:03.6   0.0                          T                                        4933348
LASF  001.75 301.3 m E Sn      2012/04/25 10:05:25.6   0.2                          T                1.9  .21 Ml 2.1         4933347
MBDF  001.66 021.1 m E Pg      2012/04/25 10:05:04.8   0.1                          T                                        4933349
MBDF  001.66 021.1 m E Sg      2012/04/25 10:05:26.6   0.2                          T                1.4  .21 Ml 1.9         4933350
VIVF  001.91 331.9 m E Pn      2012/04/25 10:05:05.9   0.3                          T                                        4933345
VIVF  001.91 331.9 m E Sn      2012/04/25 10:05:28.9  -0.2                          T                1.5  .17 Ml 2.1         4933346
PGF   002.34 104.7 m E Pn      2012/04/25 10:05:11.7   0.1                          T                                        4922411
PGF   002.34 104.7 m E Sn      2012/04/25 10:05:39.3  -0.3                          T                8.2  .24 Ml 3.0         4922410

.
EVENT     274522
    Date      Time       Latitude Longitude    Depth    Ndef Nsta Gap    Mag1  N    Mag2  N    Mag3  N   Author         ID
       rms   OT_Error      Smajor Sminor Az        Err   mdist  Mdist     Err        Err        Err      Quality

2012/04/25 10:17:12.8     48.4717    7.4430       .0 f     6    3 329  Ml 1.7  1  Md 1.8  3              bulletin    274622
                                                                                                         _ldg
      0.70   +-  1.53      26.9   24.8    9.32 +-  0.0    0.13   0.87   +-         +-0.2                 m i km

FRANCE
Sta     Dist  EvAz     Phase      Date       Time     TRes  Azim  AzRes  Slow  SRes Def   SNR       Amp   Per   Mag1   Mag2       ID
CDF   000.13 241.9 m E Pg      2012/04/25 10:17:15.2  -0.6                          T               44.1  .55                4923551
CDF   000.13 241.9 m E Sg      2012/04/25 10:17:16.6  -1.2                          T                                Md 1.8  4923550
HINF  000.77 211.3 m E Pg      2012/04/25 10:17:27.4  -0.1                          T                                        4923547
HINF  000.77 211.3 m E Sg      2012/04/25 10:17:37.4  -0.3                          T                4.3  .22        Md 1.7  4923546
HAU   000.87 237.9 m E Pg      2012/04/25 10:17:30.1   0.6                          T                                        4923548
HAU   000.87 237.9 m E Sg      2012/04/25 10:17:41.9   1.0                          T                4.9  .34 Ml 1.7 Md 2.0  4923549

.
EVENT     274523
    Date      Time       Latitude Longitude    Depth    Ndef Nsta Gap    Mag1  N    Mag2  N    Mag3  N   Author         ID
       rms   OT_Error      Smajor Sminor Az        Err   mdist  Mdist     Err        Err        Err      Quality

2012/04/25 10:21:12.0     43.6560    6.4289       .0 f     8    5 127  Ml 1.1  1  Md 1.9  2              bulletin    274623
                                                                                                         _ldg
      0.37   +-  0.16       4.4    2.9   27.45 +-  0.0    0.18   1.10   +-         +-0.1                 m i km

NEAR SOUTH COAST OF FRANCE
Sta     Dist  EvAz     Phase      Date       Time     TRes  Azim  AzRes  Slow  SRes Def   SNR       Amp   Per   Mag1   Mag2       ID
FRF   000.18 121.0 m E Pg      2012/04/25 10:21:16.4   0.4                          T                                Md 2.0  4923545
FRF   000.18 121.0 m E Sg      2012/04/25 10:21:19.1   0.3                          T               44.1  .31                4923596
LMR   000.33 169.7 m E Pg      2012/04/25 10:21:18.6   0.0                          T                                Md 1.9  4923544
LMR   000.33 169.7 m E Sg      2012/04/25 10:21:22.4  -0.8                          T                6.0  .21                4923595
SMRF  000.70 297.7 m E Pg      2012/04/25 10:21:25.7   0.2                          T                                        4923597
SMRF  000.70 297.7 m E Sg      2012/04/25 10:21:34.3  -0.4                          T                1.9  .25                4923593
SBF   000.76 073.8 m E Pg      2012/04/25 10:21:26.4  -0.3                          T                                        4923543
SBF   000.76 073.8 m E Sg      2012/04/25 10:21:36.5  -0.3                          T                2.3  .19                4923598
MBDF  000.00 000.0 m E Sg                                                                             .4  .22 Ml 1.1         4936251

.
EVENT     274524
    Date      Time       Latitude Longitude    Depth    Ndef Nsta Gap    Mag1  N    Mag2  N    Mag3  N   Author         ID
       rms   OT_Error      Smajor Sminor Az        Err   mdist  Mdist     Err        Err        Err      Quality

2012/04/25 10:53:25.8     49.5580    6.5996       .0 f    20   10 189  Ml 2.2  9  Md 2.4  1              bulletin    274624
                                                                                                         _ldg
      0.53   +-  0.18       3.4    2.0   40.48 +-  0.0    0.98   2.93   +-0.3      +-                    m i km

GERMANY
Sta     Dist  EvAz     Phase      Date       Time     TRes  Azim  AzRes  Slow  SRes Def   SNR       Amp   Per   Mag1   Mag2       ID
LANF  000.98 125.7 m E Pg      2012/04/25 10:53:44.5   0.1                          T                                        4923570
LANF  000.98 125.7 m E Sg      2012/04/25 10:53:57.8   0.4                          T                8.1  .28 Ml 2.3 Md 2.4  4923569
PAGF  001.16 210.1 m E Pg      2012/04/25 10:53:48.1   0.4                          T                                        4933359
PAGF  001.16 210.1 m E Sg      2012/04/25 10:54:03.2   0.3                          T                1.5  .29 Ml 1.6         4923565
CDF   001.23 158.5 m E Pg      2012/04/25 10:53:49.0  -0.2                          T                                        4923575
CDF   001.23 158.5 m E Sg      2012/04/25 10:54:04.9  -0.4                          T                3.8  .28 Ml 2.2         4923574
GIVF  001.27 296.0 m E Pg      2012/04/25 10:53:50.2   0.4                          T                                        4923572
GIVF  001.27 296.0 m E Sg      2012/04/25 10:54:07.7   1.2                          T               14.5  .34 Ml 2.6         4923573
MEZF  001.47 224.5 m E Pg      2012/04/25 10:53:53.7   0.3  46.6  3.3               T                                        4933356
MEZF  001.47 224.5 m E Sg      2012/04/25 10:54:12.8   0.3                          T                5.6  .33 Ml 2.3         4933355
BAIF  001.63 288.8 m E Pg      2012/04/25 10:53:56.1  -0.2                          T                                        4923571
BAIF  001.63 288.8 m E Sg      2012/04/25 10:54:16.3  -1.2                          T                6.6  .26 Ml 2.5         4923566
SFTF  001.70 217.9 m E Pg      2012/04/25 10:53:57.4  -0.3                          T                                        4933358
SFTF  001.70 217.9 m E Sg      2012/04/25 10:54:19.7  -0.2                          T                2.4  .26 Ml 2.1         4933357
LOR   002.93 219.6 m E Pn      2012/04/25 10:54:11.5  -0.4                          T                                        4933354
LOR   002.93 219.6 m E Sn      2012/04/25 10:54:45.9   0.0                          T                1.5  .27 Ml 2.2         4933353
HAU   001.56 186.2 m E Sg      2012/04/25 10:54:15.8   0.3                          T                                        4923568
HINF  001.75 174.4 m E Sg      2012/04/25 10:54:22.2   0.7                          T                                        4923567

.
