EVENT     260474
    Date      Time       Latitude Longitude    Depth    Ndef Nsta Gap    Mag1  N    Mag2  N    Mag3  N   Author         ID
       rms   OT_Error      Smajor Sminor Az        Err   mdist  Mdist     Err        Err        Err      Quality

2011/06/16 17:33:08.2     44.4843    6.8839      2.0      18    9 147  Ml 1.8  5  Md 1.9  3              js067245    260474

      0.22   +-  0.06       2.0    1.0   84.22 +-  0.0    0.26   3.33   +-0.2      +-0.1                 m i ke

FRANCE
Sta     Dist  EvAz     Phase      Date       Time     TRes  Azim  AzRes  Slow  SRes Def   SNR       Amp   Per   Mag1   Mag2       ID
MBDF  000.26 341.7 m E Pg      2011/06/16 17:33:13.1  -0.4                          T                                        4708453
MBDF  000.26 341.7 m E Sg      2011/06/16 17:33:17.0   0.0                          T               13.0  .21        Md 1.9  4708452
SBF   000.74 147.2 m E Pg      2011/06/16 17:33:22.3   0.1                          T                                        4708446
SBF   000.74 147.2 m E Sg      2011/06/16 17:33:32.0   0.1                          T                9.6  .29                4708443
ORIF  000.84 301.6 m E Pg      2011/06/16 17:33:24.2   0.1                          T                                        4708447
ORIF  000.84 301.6 m E Sg      2011/06/16 17:33:34.5  -0.5                          T                2.5  .21        Md 1.9  4708439
FRF   000.94 190.6 m E Pg      2011/06/16 17:33:25.5  -0.3                          T                                        4708451
FRF   000.94 190.6 m E Pn      2011/06/16 17:33:26.7  -0.1                          T                                        4708442
FRF   000.94 190.6 m E Sg      2011/06/16 17:33:38.0   0.0                          T                3.9  .26 Ml 2.0 Md 2.0  4708437
LPG   001.02 354.7 m E Pg      2011/06/16 17:33:27.8   0.2                          T                                        4708448
LPG   001.02 354.7 m E Sg      2011/06/16 17:33:40.8  -0.1                          T                2.5  .37 Ml 1.7         4708438
LPL   001.04 354.1 m E Pg      2011/06/16 17:33:28.0   0.0                          T                                        4708441
LPL   001.04 354.1 m E Sg      2011/06/16 17:33:41.6   0.2                          T                1.3  .23 Ml 1.6         4708454
SMRF  001.07 242.1 m E Pg      2011/06/16 17:33:28.6   0.3                          T                                        4708449
SMRF  001.07 242.1 m E Sg      2011/06/16 17:33:42.3   0.2                          T                2.6  .24 Ml 1.9         4708444
LMR   001.18 193.4 m E Pn      2011/06/16 17:33:30.4   0.3                          T                                        4708450
LMR   001.18 193.4 m E Sg      2011/06/16 17:33:45.2  -0.4                          T                4.0  .26 Ml 2.1         4708445
HINF  003.33 359.6 m E Pn      2011/06/16 17:33:59.3  -0.1                          T                                        4708440

.
EVENT     260480
    Date      Time       Latitude Longitude    Depth    Ndef Nsta Gap    Mag1  N    Mag2  N    Mag3  N   Author         ID
       rms   OT_Error      Smajor Sminor Az        Err   mdist  Mdist     Err        Err        Err      Quality

2011/06/17 02:26:33.5     46.3206    2.1228      4.0 f     6    4 238  Ml 1.2  2  Md 1.2  3              js067245    260480

      0.05   +-  0.05       1.0     .4  115.29 +-  0.0    0.07   1.40   +-0.5      +-0.1                 m i ke

FRANCE
Sta     Dist  EvAz     Phase      Date       Time     TRes  Azim  AzRes  Slow  SRes Def   SNR       Amp   Per   Mag1   Mag2       ID
TCF   000.07 118.2 m E Pg      2011/06/17 02:26:35.4   0.0                          T                                        4708462
TCF   000.07 118.2 m E Sg      2011/06/17 02:26:36.7   0.0                          T               27.3  .20        Md 1.2  4708461
BGF   000.55 064.4 m E Pg      2011/06/17 02:26:44.1   0.0                          T                                        4708459
BGF   000.55 064.4 m E Sg      2011/06/17 02:26:51.5   0.1                          T                1.8  .40        Md 1.3  4708491
AVF   000.97 060.6 m E Sg      2011/06/17 02:27:04.3  -0.1                          T                 .2  .22 Ml  .9         4708464
CAF   001.40 181.7 m E Sg      2011/06/17 02:27:17.6   0.0                          T                 .8  .25 Ml 1.5         4708458

.
EVENT     260481
    Date      Time       Latitude Longitude    Depth    Ndef Nsta Gap    Mag1  N    Mag2  N    Mag3  N   Author         ID
       rms   OT_Error      Smajor Sminor Az        Err   mdist  Mdist     Err        Err        Err      Quality

2011/06/17 05:31:04.9     43.7756   16.5077      2.0     232   17 036  Ml 4.0 14                         js067245    260481

      0.96   +-  0.07       2.0    1.7   54.38 +-  0.0    1.09  21.01   +-0.2                            m i ke

NORTHWESTERN BALKAN PEN.
Sta     Dist  EvAz     Phase      Date       Time     TRes  Azim  AzRes  Slow  SRes Def   SNR       Amp   Per   Mag1   Mag2       ID
PGF   005.63 260.0 m E P       2011/06/17 05:32:31.2  -0.6                          T   001.0                                4708355
NOV   005.84 190.7 m E P       2011/06/17 05:32:33.8  -0.9                          T                                        4708311
SBF   006.56 273.9 m E Pn      2011/06/17 05:32:41.1   1.0                          T   001.0                                4708356
SBF   006.56 273.9 m E Sn      2011/06/17 05:33:50.0  -1.2                          T               40.1  .52 Ml 4.1         4709678
MBDF  007.06 281.1 m E Pn      2011/06/17 05:32:47.4   0.4                          T                                        4709694
MBDF  007.06 281.1 m E Sn      2011/06/17 05:34:02.8  -0.3                          T               28.9  .48 Ml 4.0         4709681
FRF   007.15 271.7 m E Pn      2011/06/17 05:32:49.1   1.0                          T   001.0                                4708348
FRF   007.15 271.7 m E Sn      2011/06/17 05:34:04.7  -0.5                          T               14.6  .40 Ml 3.9         4709680
LPL   007.19 287.4 m E Pn      2011/06/17 05:32:49.5   0.6                          T                                        4709695
LPL   007.19 287.4 m E P       2011/06/17 05:32:54.3   0.4                          T   001.0                                4708353
LPL   007.19 287.4 m E Sn      2011/06/17 05:34:06.0  -0.3                          T   001.0       30.2  .40 Ml 4.2         4708354
LMR   007.28 270.0 m E Pn      2011/06/17 05:32:50.4   0.6                          T   001.0                                4708350
LMR   007.28 270.0 m E Sn      2011/06/17 05:34:07.5  -0.7                          T                 10  .46 Ml 3.7         4709679
LPG   007.17 287.3 m E P       2011/06/17 05:32:53.6  -0.1                          T                                        4709696
LPG   007.17 287.3 m E Sn      2011/06/17 05:34:06.3   0.3                          T   001.0       64.8  .56 Ml 4.3         4708352
ORIF  007.70 282.2 m E Pn      2011/06/17 05:32:56.6   0.9                          T   001.0                                4708360
ORIF  007.70 282.2 m E Sn      2011/06/17 05:34:18.3  -0.1                          T   001.0       41.5  .68 Ml 4.2         4708361
HINF  007.86 304.3 m E Pn      2011/06/17 05:32:59.1   1.3                          T   001.0                                4708359
HINF  007.86 304.3 m E Sn      2011/06/17 05:34:21.3  -0.9                          T               37.8  .78 Ml 4.1         4709685
CABF  007.89 294.7 m E Pn      2011/06/17 05:33:00.1   1.9                          T                                        4709690
CDF   007.91 309.1 m E Pn      2011/06/17 05:33:00.1   1.6                          T   001.0                                4708347
CDF   007.91 309.1 m E Sn      2011/06/17 05:34:22.8  -0.7                          T               13.9  .62 Ml 3.9         4709687
HAU   008.25 304.4 m E Pn      2011/06/17 05:33:04.8   1.7                          T                                        4709689
HAU   008.25 304.4 m E Sn      2011/06/17 05:34:31.5   0.1                          T               32.8  .70 Ml 3.9         4709686
VIVF  008.56 281.3 m E Pn      2011/06/17 05:33:08.0   0.7                          T                                        4709693
VIVF  008.56 281.3 m E Sn      2011/06/17 05:34:38.3  -0.4                          T                7.3  .44 Ml 3.7         4709682
SMF   009.39 292.2 m E Pn      2011/06/17 05:33:18.3  -0.2                          T                                        4709691
SMF   009.39 292.2 m E Sn      2011/06/17 05:34:58.0  -0.7                          T               16.8  .44 Ml 4.2         4709684
LOR   009.54 295.9 m E Pn      2011/06/17 05:33:23.4   2.8 113.7  6.8               T   001.0                                4708351
LOR   009.54 295.9 m E Sn      2011/06/17 05:35:03.2   0.9                          T               12.4  .36 Ml 4.2         4709688
BGF   010.04 290.8 m E Pn      2011/06/17 05:33:27.0  -0.4                          T                                        4709692
BGF   010.04 290.8 m E Sn      2011/06/17 05:35:14.1  -0.1                          T               24.2  .56 Ml 4.4         4709683

.
EVENT     260482
    Date      Time       Latitude Longitude    Depth    Ndef Nsta Gap    Mag1  N    Mag2  N    Mag3  N   Author         ID
       rms   OT_Error      Smajor Sminor Az        Err   mdist  Mdist     Err        Err        Err      Quality

2011/06/17 07:31:50.4     44.4515    6.3590      4.0 f    22   14 080  Ml 2.7  6                         js067245    260482

      0.70   +-  0.15       3.9    2.9   72.60 +-  0.0    0.40   3.56   +-0.3                            m i ke

FRANCE
Sta     Dist  EvAz     Phase      Date       Time     TRes  Azim  AzRes  Slow  SRes Def   SNR       Amp   Per   Mag1   Mag2       ID
MBDF  000.40 046.8 m E Pg      2011/06/17 07:31:58.4   0.0                          T   001.0                                4708386
ORIF  000.58 324.0 m E Pg      2011/06/17 07:32:01.4  -0.1                          T   001.0                                4708387
SMRF  000.74 230.1 m E Pg      2011/06/17 07:32:04.4   0.0                          T   001.0                                4708390
SMRF  000.74 230.1 m E Sg      2011/06/17 07:32:13.0  -1.0                          T   001.0       21.2  .36                4708391
FRF   000.91 166.8 m E Pg      2011/06/17 07:32:07.9   0.3                          T   001.0                                4708373
FRF   000.91 166.8 m E Sg      2011/06/17 07:32:19.0  -0.5                          T   001.0       54.7  .20 Ml 3.3         4708374
SBF   000.97 126.8 m E Pg      2011/06/17 07:32:08.9   0.2                          T   001.0                                4708383
SBF   000.97 126.8 m E Sg      2011/06/17 07:32:22.0   1.6                          T   001.0         22  .28 Ml 2.7         4708384
LPG   001.08 014.8 m E Pg      2011/06/17 07:32:09.4  -1.6                          T   001.0                                4708379
LPG   001.08 014.8 m E Pn      2011/06/17 07:32:10.9  -0.2                          T   001.0                                4708380
LMR   001.12 174.4 m E Pn      2011/06/17 07:32:10.9  -0.3                          T   001.0                                4708377
LMR   001.12 174.4 m E Sg      2011/06/17 07:32:24.5  -1.5                          T   001.0       10.7  .16 Ml 2.7         4708378
LPL   001.10 013.8 m E Pn      2011/06/17 07:32:11.4   0.2                          T   001.0                                4708381
LPL   001.10 013.8 m E Pg      2011/06/17 07:32:12.5   1.3                          T   001.0                                4708382
VIVF  001.27 289.2 m E Pn      2011/06/17 07:32:13.5   0.2                          T   001.0                                4708388
VIVF  001.27 289.2 m E Sg      2011/06/17 07:32:30.5  -0.1                          T   001.0         10  .28 Ml 2.5         4708389
LASF  001.84 259.1 m E Pn      2011/06/17 07:32:21.0   0.0                          T   001.0                                4708376
CABF  002.17 355.0 m E Pg      2011/06/17 07:32:30.0  -0.8                          T   001.0                                4708385
CAF   003.10 280.3 m E Pn      2011/06/17 07:32:39.6   1.4                          T   001.0                                4708372
BGF   003.25 311.7 m E Pn      2011/06/17 07:32:41.1   0.9                          T   001.0                                4708370
BGF   003.25 311.7 m E Sg      2011/06/17 07:33:33.8   1.6                          T   001.0        4.6  .32 Ml 2.6         4708371
HAU   003.56 359.9 m E Sn      2011/06/17 07:33:22.7  -1.7                          T   001.0        1.6  .20 Ml 2.2         4708375

.
EVENT     260496
    Date      Time       Latitude Longitude    Depth    Ndef Nsta Gap    Mag1  N    Mag2  N    Mag3  N   Author         ID
       rms   OT_Error      Smajor Sminor Az        Err   mdist  Mdist     Err        Err        Err      Quality

2011/06/17 11:33:09.9     43.1340   12.5593      2.0      44   14 132  Ml 3.2  6                         js067245    260496

      1.03   +-  0.24       5.7    3.7  161.38 +-  0.0    0.13   6.54   +-0.3                            m i ke

CENTRAL ITALY
Sta     Dist  EvAz     Phase      Date       Time     TRes  Azim  AzRes  Slow  SRes Def   SNR       Amp   Per   Mag1   Mag2       ID
PGF   002.68 258.6 m E Pn      2011/06/17 11:33:53.6   1.2                          T                                        4709737
SBF   003.80 282.8 m E Pn      2011/06/17 11:34:08.8   1.3                          T                                        4709736
SBF   003.80 282.8 m E Sn      2011/06/17 11:34:48.7  -1.5                          T               12.7  .43 Ml 3.1         4709717
FRF   004.33 277.7 m E Pn      2011/06/17 11:34:15.6   0.9                          T                                        4709734
LMR   004.43 274.7 m E Pn      2011/06/17 11:34:16.9   0.9                          T                                        4709735
MBDF  004.47 292.8 m E P       2011/06/17 11:34:19.6  -1.0                          T                                        4709729
MBDF  004.47 292.8 m E Sn      2011/06/17 11:35:05.3  -1.1                          T                3.6  .33 Ml 2.8         4709718
LPG   004.79 301.5 m E Pn      2011/06/17 11:34:20.7  -0.6                          T                                        4709731
LPG   004.79 301.5 m E P       2011/06/17 11:34:24.9  -0.4                          T                                        4709732
LPL   004.81 301.7 m E P       2011/06/17 11:34:24.7  -0.8                          T                                        4709730
LPL   004.81 301.7 m E Sn      2011/06/17 11:35:13.9  -0.6                          T                3.9  .38 Ml 2.8         4709719
SMRF  005.15 281.8 m E P       2011/06/17 11:34:29.1  -0.9                          T                                        4709733
ORIF  005.14 292.6 m E P       2011/06/17 11:34:29.4  -0.5                          T                                        4709728
CABF  005.76 309.3 m E Pn      2011/06/17 11:34:33.6  -0.7                          T                                        4709724
HINF  006.17 321.4 m E Pn      2011/06/17 11:34:41.1   1.4                          T                                        4709725
HINF  006.17 321.4 m E Sn      2011/06/17 11:35:46.1  -0.6                          T                7.8  .29 Ml 3.6         4709720
LASF  006.39 281.5 m E Pn      2011/06/17 11:34:42.7  -0.1                          T                                        4709727
CDF   006.44 326.9 m E Pn      2011/06/17 11:34:44.3   0.8                          T                                        4709723
CDF   006.44 326.9 m E Sn      2011/06/17 11:35:52.4  -0.9                          T                5.0  .37 Ml 3.4         4709722
HAU   006.54 320.3 m E Pn      2011/06/17 11:34:45.6   0.8                          T                                        4709726
HAU   006.54 320.3 m E Sn      2011/06/17 11:35:54.1  -1.4                          T               15.2  .41 Ml 3.5         4709721

.
EVENT     260563
    Date      Time       Latitude Longitude    Depth    Ndef Nsta Gap    Mag1  N    Mag2  N    Mag3  N   Author         ID
       rms   OT_Error      Smajor Sminor Az        Err   mdist  Mdist     Err        Err        Err      Quality

2011/06/17 14:54:10.1     46.0492    6.9165      4.0 f     7    3 125  Ml 1.7  1  Md 1.3  2              js067245    260563

      0.08   +-  0.03       1.2     .5  109.08 +-  0.0    0.02   1.33   +-         +-0.0                 m i ke

SWITZERLAND
Sta     Dist  EvAz     Phase      Date       Time     TRes  Azim  AzRes  Slow  SRes Def   SNR       Amp   Per   Mag1   Mag2       ID
LPL   000.55 193.7 m E Pg      2011/06/17 14:54:20.9   0.0                          T                                        4709739
LPL   000.55 193.7 m E Sg      2011/06/17 14:54:28.0  -0.1                          T                1.1  .35        Md 1.3  4709740
LPG   000.56 191.9 m E Pg      2011/06/17 14:54:21.3   0.1                          T                                        4709741
LPG   000.56 191.9 m E Sg      2011/06/17 14:54:28.4  -0.2                          T                 .8  .20        Md 1.3  4709742
MBDF  001.33 184.5 m E Sg      2011/06/17 14:54:52.1  -0.1                          T                1.4  .24 Ml 1.7         4709738

.
