BEGIN GSE2.0
MSG_TYPE DATA
MSG_ID 11-AVR-1314:01:24  FRA_NDC
E-MAIL
DATA_TYPE BULLETIN
Reviewed Bulletin (REB) # P2013-014  from French NDC for regional phases     PERIOD 03 AVR 2013 TO 09 AVR 2013 Cenalt JP S
EVENT     295192
    Date      Time       Latitude Longitude    Depth    Ndef Nsta Gap    Mag1  N    Mag2  N    Mag3  N   Author         ID
       rms   OT_Error      Smajor Sminor Az        Err   mdist  Mdist     Err        Err        Err      Quality

2013/04/03 01:37:57.7     48.0730    7.5387      5.0 f    40    9 038  Ml 1.7  5  Md 1.8  2              bulletin    295292
                                                                                                         _ldg
      0.41   +-  0.05       1.1     .8    4.73 +-  0.0    0.22   2.91   +-0.2      +-0.1                 m i ke

FRANCE
Sta     Dist  EvAz     Phase      Date       Time     TRes  Azim  AzRes  Slow  SRes Def   SNR       Amp   Per   Mag1   Mag2       ID
CDF   000.38 332.7 m E Pg      2013/04/03 01:38:05.1  -0.2                          T                                        5242772
CDF   000.38 332.7 m E Sg      2013/04/03 01:38:10.5   0.1                          T                5.3  .25        Md 1.8  5242767
HINF  000.53 241.2 m E Pg      2013/04/03 01:38:07.3  -0.6                          T                                        5242771
HINF  000.53 241.2 m E Sg      2013/04/03 01:38:14.2  -0.7                          T                3.4  .19        Md 1.8  5242768
HAU   000.80 265.6 m E Pg      2013/04/03 01:38:13.1   0.2                          T                                        5242770
HAU   000.80 265.6 m E Sg      2013/04/03 01:38:23.3  -0.1                          T                4.4  .28                5242769
PAGF  001.30 292.4 m E Pn      2013/04/03 01:38:21.0   0.1                          T                                        5243721
PAGF  001.30 292.4 m E Sn      2013/04/03 01:38:37.6  -0.2                          T                1.1  .21 Ml 1.7         5242773
MEZF  001.72 285.4 m E Pn      2013/04/03 01:38:26.5   0.0 105.1  1.6               T                                        5243720
MEZF  001.72 285.4 m E Sn      2013/04/03 01:38:47.5  -0.1 104.4  0.9               T                                        5243719
SFTF  001.68 275.4 m E Pg      2013/04/03 01:38:29.2   0.2                          T                                        5245978
SFTF  001.68 275.4 m E Sg      2013/04/03 01:38:50.7   0.0                          T                 .5  .19 Ml 1.6         5245977
CABF  001.76 214.5 m E Pg      2013/04/03 01:38:30.6  -0.1                          T                                        5245975
CABF  001.76 214.5 m E Sg      2013/04/03 01:38:53.4  -0.1                          T                 .5  .23 Ml 1.5         5245976
LOR   002.61 253.4 m E Pn      2013/04/03 01:38:39.4   0.6                          T                                        5243718
LOR   002.61 253.4 m E Pg      2013/04/03 01:38:46.3   0.0  73.7  3.0               T                                        5243715
LOR   002.61 253.4 m E Sn      2013/04/03 01:39:09.9   0.8                          T                                        5243716
LOR   002.61 253.4 m E Sg      2013/04/03 01:39:19.5  -0.4                          T                                        5243717
SSF   002.91 251.2 m E Pn      2013/04/03 01:38:42.8  -0.1                          T                                        5245971
SSF   002.91 251.2 m E Pg      2013/04/03 01:38:51.8   0.0                          T                                        5245974
SSF   002.91 251.2 m E Sn      2013/04/03 01:39:16.2   0.1                          T                                        5245972
SSF   002.91 251.2 m E Sg      2013/04/03 01:39:29.0  -0.2                          T                 .3  .17 Ml 1.7         5245973

.
EVENT     295193
    Date      Time       Latitude Longitude    Depth    Ndef Nsta Gap    Mag1  N    Mag2  N    Mag3  N   Author         ID
       rms   OT_Error      Smajor Sminor Az        Err   mdist  Mdist     Err        Err        Err      Quality

2013/04/03 03:49:54.0     47.0846    7.3940       .0 f    10    6 246  Ml 1.8  4  Md 1.8  2              bulletin    295293
                                                                                                         _ldg
      0.21   +-  0.21       4.4    2.1  117.42 +-  0.0    0.82   3.65   +-0.2      +-0.1                 m i km

SWITZERLAND
Sta     Dist  EvAz     Phase      Date       Time     TRes  Azim  AzRes  Slow  SRes Def   SNR       Amp   Per   Mag1   Mag2       ID
HINF  000.82 333.6 m E Pg      2013/04/03 03:50:09.5  -0.2                          T                                        5242777
HINF  000.82 333.6 m E Sg      2013/04/03 03:50:20.7   0.2                          T                6.0  .26        Md 1.8  5242774
CABF  001.01 242.6 m E Pg      2013/04/03 03:50:13.4   0.1                          T                                        5243552
CABF  001.01 242.6 m E Sg      2013/04/03 03:50:26.3  -0.4                          T                1.3  .21 Ml 1.6 Md 1.7  5243553
HAU   001.16 322.8 m E Pg      2013/04/03 03:50:15.9  -0.1                          T                                        5242776
HAU   001.16 322.8 m E Sg      2013/04/03 03:50:31.3   0.1                          T                2.7  .26 Ml 1.7         5242775
CDF   001.33 356.6 m E Pn      2013/04/03 03:50:18.3  -0.1                          T                                        5245979
CDF   001.33 356.6 m E Sn      2013/04/03 03:50:35.8  -0.2                          T                1.2  .23 Ml 1.8         5245980
BAIF  003.65 325.8 m E Pn      2013/04/03 03:50:50.3   0.4                          T                                        5250178
LOR   002.42 275.7 m E Sg      2013/04/03 03:51:10.4   0.0                          T                1.0  .22 Ml 2.0         5250177

.
