EVENT     263455
    Date      Time       Latitude Longitude    Depth    Ndef Nsta Gap    Mag1  N    Mag2  N    Mag3  N   Author         ID
       rms   OT_Error      Smajor Sminor Az        Err   mdist  Mdist     Err        Err        Err      Quality

2011/09/02 21:45:37.6     50.2431   12.4330     10.0      31    8 080  Ml 3.1  7                         js067245    263455

      0.26   +-  0.05       1.1     .8  129.66 +-  0.0    0.01   6.75   +-0.2                            m i ke

GERMANY
Sta     Dist  EvAz     Phase      Date       Time     TRes  Azim  AzRes  Slow  SRes Def   SNR       Amp   Per   Mag1   Mag2       ID
CDF   003.84 243.5 m E Pn      2011/09/02 21:46:35.1   0.3                          T                                        4756028
CDF   003.84 243.5 m E Pg      2011/09/02 21:46:49.0   0.2                          T                                        4756027
CDF   003.84 243.5 m E Sg      2011/09/02 21:47:37.9  -0.1                          T                8.6  .32 Ml 3.2         4756017
HAU   004.58 243.1 m E Pn      2011/09/02 21:46:45.0   0.1                          T                                        4756026
HAU   004.58 243.1 m E Pg      2011/09/02 21:47:02.1  -0.2                          T                                        4756025
HAU   004.58 243.1 m E Sg      2011/09/02 21:48:00.8  -0.3                          T               15.1  .46 Ml 3.1         4756018
HINF  004.40 238.6 m E Pg      2011/09/02 21:46:58.9  -0.1                          T                                        4756024
HINF  004.40 238.6 m E Sn      2011/09/02 21:47:30.4  -0.3                          T                                        4756020
HINF  004.40 238.6 m E Sg      2011/09/02 21:47:54.8  -0.8                          T               16.5  .56 Ml 3.2         4756019
LPL   006.09 221.2 m E Pg      2011/09/02 21:47:30.3  -0.1                          T                                        4756022
SMF   006.75 241.1 m E Pg      2011/09/02 21:47:42.3  -0.1                          T                                        4756023
SMF   006.75 241.1 m E Sg      2011/09/02 21:49:08.8  -0.1                          T                3.3  .38 Ml 3.1         4756021
GIVF  004.89 271.3 m E Sg      2011/09/02 21:48:10.7  -0.2                          T                3.9  .24 Ml 3.1         4756015
BAIF  005.29 271.2 m E Sg      2011/09/02 21:48:22.6  -0.7                          T                3.4  .56 Ml 2.7         4756016
LOR   006.40 245.6 m E Sg      2011/09/02 21:48:58.7   0.7                          T                2.8  .38 Ml 3.0         4756014

.
EVENT     263622
    Date      Time       Latitude Longitude    Depth    Ndef Nsta Gap    Mag1  N    Mag2  N    Mag3  N   Author         ID
       rms   OT_Error      Smajor Sminor Az        Err   mdist  Mdist     Err        Err        Err      Quality

2011/09/02 22:47:06.6     47.5043    7.6603     10.0      18    6 076  Ml 1.4  5  Md 1.7  1              js067245    263622

      0.35   +-  0.06       1.2    1.0  166.13 +-  0.0    0.17   1.67   +-0.3      +-                    m i ke

SWITZERLAND
Sta     Dist  EvAz     Phase      Date       Time     TRes  Azim  AzRes  Slow  SRes Def   SNR       Amp   Per   Mag1   Mag2       ID
HINF  000.63 300.1 m E Pg      2011/09/02 22:47:18.4  -0.3                          T                                        4756031
HINF  000.63 300.1 m E Sg      2011/09/02 22:47:26.5  -0.5                          T                                        4756032
HINF  000.63 300.1 m E Sn      2011/09/02 22:47:28.7  -0.9                          T                 .6  .19        Md 1.7  4756033
CDF   000.94 344.3 m E Pg      2011/09/02 22:47:24.4  -0.1                          T                                        4756039
CDF   000.94 344.3 m E Sg      2011/09/02 22:47:37.1   0.3                          T                1.5  .25 Ml 1.7         4756040
HAU   001.02 300.0 m E Pg      2011/09/02 22:47:25.5  -0.2                          T                                        4756034
HAU   001.02 300.0 m E Sg      2011/09/02 22:47:39.1   0.1                          T                1.0  .25 Ml 1.2         4756035
THEF  001.34 303.5 m E Pg      2011/09/02 22:47:31.7   0.1                          T                                        4756036
THEF  001.34 303.5 m E Sg      2011/09/02 22:47:48.9   0.1                          T                1.2  .20 Ml 1.8         4756037
CABF  001.40 230.8 m E Pg      2011/09/02 22:47:32.8   0.0                          T                                        4756029
CABF  001.40 230.8 m E Sg      2011/09/02 22:47:51.1   0.2                          T                 .8  .29 Ml 1.4         4756030
PAGF  001.67 309.7 m E Sg      2011/09/02 22:47:59.6   0.3                          T                 .2  .27 Ml 1           4756038

.
EVENT     263623
    Date      Time       Latitude Longitude    Depth    Ndef Nsta Gap    Mag1  N    Mag2  N    Mag3  N   Author         ID
       rms   OT_Error      Smajor Sminor Az        Err   mdist  Mdist     Err        Err        Err      Quality

2011/09/02 22:50:07.7     47.5065    7.6632     10.0      19    6 077  Ml 1.6  5  Md 1.7  1              js067245    263623

      0.42   +-  0.07       1.5    1.1  159.55 +-  0.0    0.17   1.67   +-0.4      +-                    m i ke

SWITZERLAND
Sta     Dist  EvAz     Phase      Date       Time     TRes  Azim  AzRes  Slow  SRes Def   SNR       Amp   Per   Mag1   Mag2       ID
HINF  000.63 299.8 m E Pg      2011/09/02 22:50:19.5  -0.3                          T                                        4756043
HINF  000.63 299.8 m E Sg      2011/09/02 22:50:27.6  -0.5                          T                                        4756044
HINF  000.63 299.8 m E Sn      2011/09/02 22:50:29.9  -0.8                          T                1.5  .17        Md 1.7  4756045
CDF   000.94 344.1 m E Pg      2011/09/02 22:50:25.4  -0.3                          T                                        4756051
CDF   000.94 344.1 m E Sg      2011/09/02 22:50:38.1   0.2                          T                3.0  .22 Ml 2.0         4756052
HAU   001.02 299.9 m E Pg      2011/09/02 22:50:26.7  -0.2                          T                                        4756046
HAU   001.02 299.9 m E Sg      2011/09/02 22:50:40.1  -0.1                          T                4.4  .28 Ml 1.8         4756047
THEF  001.34 303.3 m E Pg      2011/09/02 22:50:32.8   0.1                          T                                        4756048
THEF  001.34 303.3 m E Sg      2011/09/02 22:50:50.0   0.0                          T                1.1  .21 Ml 1.7         4756049
CABF  001.40 230.8 m E Pg      2011/09/02 22:50:33.9  -0.1                          T                                        4756041
CABF  001.40 230.8 m E Sg      2011/09/02 22:50:52.0  -0.1                          T                1.2  .24 Ml 1.7         4756042
PAGF  001.67 309.6 m E Sg      2011/09/02 22:51:00.6   0.1                          T                 .2  .24 Ml  .9         4756050

.
EVENT     263456
    Date      Time       Latitude Longitude    Depth    Ndef Nsta Gap    Mag1  N    Mag2  N    Mag3  N   Author         ID
       rms   OT_Error      Smajor Sminor Az        Err   mdist  Mdist     Err        Err        Err      Quality

2011/09/02 23:36:01.2     50.2541   12.4404     10.0      58   18 108  Ml 3.9 16                         js067245    263456

      0.60   +-  0.09       2.0    1.3  129.45 +-  0.0    0.02   7.66   +-0.2                            m i ke

GERMANY
Sta     Dist  EvAz     Phase      Date       Time     TRes  Azim  AzRes  Slow  SRes Def   SNR       Amp   Per   Mag1   Mag2       ID
RUP   003.52 263.0 m E P       2011/09/02 23:36:56.1  -1.3                          T                                        4756138
RUP   003.52 263.0 m E Pg      2011/09/02 23:37:06.2  -0.2                          T                                        4756137
RUP   003.52 263.0 m E Sg      2011/09/02 23:37:51.1  -0.4                          T                                        4756105
CDF   003.85 243.3 m E Pn      2011/09/02 23:36:59.5   0.9                          T                                        4756136
CDF   003.85 243.3 m E Pg      2011/09/02 23:37:13.0   0.5                          T                                        4756135
CDF   003.85 243.3 m E Sg      2011/09/02 23:38:01.6  -0.4                          T              182.0  .66 Ml 4.2         4756106
HINF  004.41 238.6 m E Pn      2011/09/02 23:37:05.8  -0.4                          T                                        4756127
HINF  004.41 238.6 m E Pg      2011/09/02 23:37:21.9  -0.9                          T                                        4756126
HINF  004.41 238.6 m E Sg      2011/09/02 23:38:18.4  -1.1                          T              101.1  .58 Ml 4.0         4756110
HAU   004.59 243.0 m E Pn      2011/09/02 23:37:09.3   0.7                          T                                        4756129
HAU   004.59 243.0 m E Pg      2011/09/02 23:37:25.7  -0.4                          T                                        4756128
HAU   004.59 243.0 m E Sg      2011/09/02 23:38:24.5  -0.5                          T              145.7  .58 Ml 4.0         4756109
PAGF  004.70 251.4 m E Pn      2011/09/02 23:37:11.6   1.5                          T                                        4756134
PAGF  004.70 251.4 m E Pg      2011/09/02 23:37:29.3   1.1  64.2  -2.1              T                                        4756133
PAGF  004.70 251.4 m E Sg      2011/09/02 23:38:28.3  -0.3                          T               52.5  .87 Ml 3.6         4756107
GIVF  004.90 271.1 m E Pn      2011/09/02 23:37:13.2   0.4                          T                                        4756140
GIVF  004.90 271.1 m E Pg      2011/09/02 23:37:32.1   0.4                          T                                        4756139
GIVF  004.90 271.1 m E Sg      2011/09/02 23:38:33.8  -0.8                          T              178.4  .80 Ml 4.2         4756103
SFTF  005.27 249.9 m E Pn      2011/09/02 23:37:17.6  -0.2                          T                                        4756131
SFTF  005.27 249.9 m E Pg      2011/09/02 23:37:37.9  -0.7                          T                                        4756130
SFTF  005.27 249.9 m E Sg      2011/09/02 23:38:46.2   0.1                          T               89.6  .76 Ml 4.0         4756108
CABF  005.58 231.7 m E Pn      2011/09/02 23:37:22.0  -0.2                          T                                        4756125
CABF  005.58 231.7 m E Pg      2011/09/02 23:37:44.0  -0.5                          T                                        4756124
CABF  005.58 231.7 m E Sg      2011/09/02 23:38:55.2  -0.9                          T              139.5  .96 Ml 4.2         4756111
LOR   006.41 245.5 m E Pn      2011/09/02 23:37:33.3  -0.1                          T                                        4756144
LOR   006.41 245.5 m E Pg      2011/09/02 23:37:59.6  -0.1  55.0  -4.1              T                                        4756143
LOR   006.41 245.5 m E Sg      2011/09/02 23:39:21.8  -0.1                          T               33.4  .52 Ml 4.0         4756101
MEZF  005.14 252.9 m E Pg      2011/09/02 23:37:36.6   0.5  75.3  8.1               T                                        4756132
SSF   006.72 245.1 m E Pn      2011/09/02 23:37:37.4  -0.3                          T                                        4756142
SSF   006.72 245.1 m E Pg      2011/09/02 23:38:06.0   0.5                          T                                        4756141
SSF   006.72 245.1 m E Sg      2011/09/02 23:39:31.7   0.1                          T               27.6  .52 Ml 4.0         4756102
LPL   006.10 221.2 m E Pg      2011/09/02 23:37:54.6   0.4                          T                                        4756120
LPL   006.10 221.2 m E Sg      2011/09/02 23:39:13.2   0.8                          T               35.1  .88 Ml 3.7         4756116
LPG   006.11 221.0 m E Pg      2011/09/02 23:37:55.2   0.8                          T                                        4756119
LPG   006.11 221.0 m E Sg      2011/09/02 23:39:15.1   2.4                          T               44.8  .92 Ml 3.8         4756117
SMF   006.76 241.0 m E Pg      2011/09/02 23:38:06.3   0.1                          T                                        4756123
SMF   006.76 241.0 m E Sg      2011/09/02 23:39:32.6  -0.2                          T               28.7  .50 Ml 4.0         4756112
ORIF  006.94 222.2 m E Pg      2011/09/02 23:38:09.9   0.4                          T                                        4756118
ORIF  006.94 222.2 m E Sg      2011/09/02 23:39:37.7  -0.7                          T               30.2 1.03 Ml 3.7         4756115
BGF   007.38 243.6 m E Pg      2011/09/02 23:38:19.3   1.8                          T                                        4756122
BAIF  005.30 271.0 m E Sg      2011/09/02 23:38:46.1  -0.9                          T              108.0  .90 Ml 4.0         4756104
VIVF  007.53 227.2 m E Sg      2011/09/02 23:39:57.5   0.6                          T               20.8  .78 Ml 3.8         4756114

.
EVENT     263459
    Date      Time       Latitude Longitude    Depth    Ndef Nsta Gap    Mag1  N    Mag2  N    Mag3  N   Author         ID
       rms   OT_Error      Smajor Sminor Az        Err   mdist  Mdist     Err        Err        Err      Quality

2011/09/03 00:03:12.8     43.0459    -.5901      2.0      12    3 154             Md 1.5  2              js067245    263459

      0.35   +-  0.13       3.5    1.9   15.19 +-  0.0    0.09   0.69              +-0.1                 m i ke

PYRENEES
Sta     Dist  EvAz     Phase      Date       Time     TRes  Azim  AzRes  Slow  SRes Def   SNR       Amp   Per   Mag1   Mag2       ID
ETSF  000.15 171.2 m E Pg      2011/09/03 00:03:15.8  -0.2                          T                                        4756333
ETSF  000.15 171.2 m E Sg      2011/09/03 00:03:17.8  -0.3                          T                6.8  .28        Md 1.4  4756334
SJPF  000.47 278.5 m E Pg      2011/09/03 00:03:21.5  -0.3                          T                                        4756331
SJPF  000.47 278.5 m E Sg      2011/09/03 00:03:28.1   0.1                          T                2.2  .29        Md 1.5  4756332
EPF   000.68 091.0 m E Pg      2011/09/03 00:03:26.2   0.4                          T                                        4756329
EPF   000.68 091.0 m E Sg      2011/09/03 00:03:34.1  -0.6                          T                1.6  .27                4756330

.
