EVENT     265147
    Date      Time       Latitude Longitude    Depth    Ndef Nsta Gap    Mag1  N    Mag2  N    Mag3  N   Author         ID
       rms   OT_Error      Smajor Sminor Az        Err   mdist  Mdist     Err        Err        Err      Quality

2011/10/17 03:59:43.1     42.7193   -1.7505      2.0      65    5 086  Ml 2.2  4  Md 2.4  2              js067245    265167

      0.67   +-  0.10       2.3    1.6    2.39 +-  0.0    0.14   4.63   +-0.2      +-0.0                 m i ke

PYRENEES
Sta     Dist  EvAz     Phase      Date       Time     TRes  Azim  AzRes  Slow  SRes Def   SNR       Amp   Per   Mag1   Mag2       ID
SJPF  000.55 044.3 m E Pg      2011/10/17 03:59:53.8   0.1                          T                                        4772045
SJPF  000.55 044.3 m E Sg      2011/10/17 04:00:00.4  -0.5                          T               14.1  .24        Md 2.4  4772037
ETSF  000.89 078.0 m E Pg      2011/10/17 03:59:59.8  -0.3                          T                                        4772046
ETSF  000.89 078.0 m E Sg      2011/10/17 04:00:12.1   0.5                          T                6.6  .27 Ml 2.1 Md 2.4  4772043
EPF   001.57 077.9 m E Pn      2011/10/17 04:00:11.8   1.5                          T                                        4772044
EPF   001.57 077.9 m E Pg      2011/10/17 04:00:13.2   0.8                          T                                        4772036
EPF   001.57 077.9 m E Sg      2011/10/17 04:00:34.2   1.6                          T                4.7  .23 Ml 2.4         4772038
RJF   003.50 041.2 m E Pn      2011/10/17 04:00:36.8   0.3                          T                                        4772040
RJF   003.50 041.2 m E Sn      2011/10/17 04:01:18.4   2.3                          T                1.4  .24 Ml 2.0         4772041
CAF   003.53 050.1 m E Pn      2011/10/17 04:00:38.0   0.9                          T                                        4772039
CAF   003.53 050.1 m E Sn      2011/10/17 04:01:17.4   0.4                          T                  1  .25 Ml 2.1         4772042

.
EVENT     265148
    Date      Time       Latitude Longitude    Depth    Ndef Nsta Gap    Mag1  N    Mag2  N    Mag3  N   Author         ID
       rms   OT_Error      Smajor Sminor Az        Err   mdist  Mdist     Err        Err        Err      Quality

2011/10/17 05:46:27.9     43.0656   -1.2665      6.0 f    11    3 120  Ml 1.3  1  Md 1.1  2              js067245    265168

      0.13   +-  0.04        .9     .8   34.99 +-  0.0    0.06   1.18   +-         +-0.2                 m i ke

PYRENEES
Sta     Dist  EvAz     Phase      Date       Time     TRes  Azim  AzRes  Slow  SRes Def   SNR       Amp   Per   Mag1   Mag2       ID
SJPF  000.06 032.5 m E Pg      2011/10/17 05:46:29.9   0.1                          T                                        4772128
SJPF  000.06 032.5 m E Sg      2011/10/17 05:46:30.9  -0.2                          T                1.3  .21        Md 1.2  4772127
ETSF  000.55 107.6 m E Pg      2011/10/17 05:46:38.2  -0.2                          T                                        4773992
ETSF  000.55 107.6 m E Sg      2011/10/17 05:46:45.7   0.1                          T                 .5  .21        Md  .9  4772126
EPF   001.18 091.2 m E Sg      2011/10/17 05:47:05.4   0.2                          T                 .5  .20 Ml 1.3         4773993

.
EVENT     265157
    Date      Time       Latitude Longitude    Depth    Ndef Nsta Gap    Mag1  N    Mag2  N    Mag3  N   Author         ID
       rms   OT_Error      Smajor Sminor Az        Err   mdist  Mdist     Err        Err        Err      Quality

2011/10/17 08:10:04.2     42.8163    2.2851       .0 f    19    3 085  Ml 1.9  2  Md 2.0  1              js067245    265177

      0.42   +-  0.06       1.2    1.0   58.14 +-  0.0    0.16   1.70   +-0.1      +-                    m i km

PYRENEES
Sta     Dist  EvAz     Phase      Date       Time     TRes  Azim  AzRes  Slow  SRes Def   SNR       Amp   Per   Mag1   Mag2       ID
MTLF  000.53 354.6 m E Pg      2011/10/17 08:10:14.5   0.0                          T                                        4772148
MTLF  000.53 354.6 m E Sg      2011/10/17 08:10:21.6  -0.1                          T                2.1  .20        Md 2.0  4772147
EPF   001.44 279.2 m E Sg      2011/10/17 08:10:50.2  -0.1                          T                2.2  .24 Ml 2.0         4772146
LASF  001.70 041.7 m E Sg      2011/10/17 08:10:58.5   0.2                          T                1.4  .29 Ml 1.8         4772145

.
EVENT     265232
    Date      Time       Latitude Longitude    Depth    Ndef Nsta Gap    Mag1  N    Mag2  N    Mag3  N   Author         ID
       rms   OT_Error      Smajor Sminor Az        Err   mdist  Mdist     Err        Err        Err      Quality

2011/10/17 10:47:47.4     46.0358    6.8414      5.0 f    12    6 098  Ml 1.4  3  Md 1.3  2              js067245    265252

      0.16   +-  0.04       1.4     .7  113.97 +-  0.0    0.05   1.93   +-0.3      +-0.0                 m i ke

SWITZERLAND
Sta     Dist  EvAz     Phase      Date       Time     TRes  Azim  AzRes  Slow  SRes Def   SNR       Amp   Per   Mag1   Mag2       ID
LPL   000.53 188.4 m E Pg      2011/10/17 10:47:57.8   0.0                          T                                        4773998
LPL   000.53 188.4 m E Sg      2011/10/17 10:48:04.6  -0.1                          T                2.9  .38        Md 1.3  4773999
LPG   000.54 186.7 m E Pg      2011/10/17 10:47:58.3   0.1                          T                                        4772153
LPG   000.54 186.7 m E Sg      2011/10/17 10:48:05.1  -0.3                          T                2.4  .28        Md 1.3  4772154
CABF  000.78 318.0 m E Pn      2011/10/17 10:48:03.4  -0.2                          T                                        4772157
CABF  000.78 318.0 m E Sn      2011/10/17 10:48:15.0   0.0                          T                1.7  .26                4772156
ORIF  001.31 211.5 m E Sg      2011/10/17 10:48:28.7  -0.2                          T                  1  .29 Ml 1.5         4773997
MBDF  001.31 182.2 m E Sg      2011/10/17 10:48:29.0  -0.1                          T                 .3  .19 Ml 1.1         4773996
VIVF  001.93 233.1 m E Sg      2011/10/17 10:48:48.0  -0.2                          T                 .9  .28 Ml 1.7         4772155

.
EVENT     265184
    Date      Time       Latitude Longitude    Depth    Ndef Nsta Gap    Mag1  N    Mag2  N    Mag3  N   Author         ID
       rms   OT_Error      Smajor Sminor Az        Err   mdist  Mdist     Err        Err        Err      Quality

2011/10/17 14:41:40.5     44.1281    7.0621     10.0      21    8 076  Ml 2.0  5  Md 1.9  2              js067245    265204

      0.22   +-  0.06       1.2    1.0   86.08 +-  0.0    0.06   1.86   +-0.3      +-0.0                 m i ke

NORTHERN ITALY
Sta     Dist  EvAz     Phase      Date       Time     TRes  Azim  AzRes  Slow  SRes Def   SNR       Amp   Per   Mag1   Mag2       ID
SBF   000.38 134.4 m E Pg      2011/10/17 14:41:48.6   0.5                          T                                        4772188
SBF   000.38 134.4 m E Sg      2011/10/17 14:41:53.2   0.0                          T               22.7  .20        Md 2.0  4772187
FRF   000.64 208.1 m E Pg      2011/10/17 14:41:52.7  -0.1                          T                                        4772190
FRF   000.64 208.1 m E Sg      2011/10/17 14:42:01.0  -0.3                          T               13.5  .20                4772185
MBDF  000.63 340.9 m E Pg      2011/10/17 14:41:52.8  -0.1                          T                                        4772175
MBDF  000.63 340.9 m E Sg      2011/10/17 14:42:01.0  -0.2                          T                3.7  .24        Md 1.9  4772183
LMR   000.89 207.0 m E Pg      2011/10/17 14:41:57.4   0.1                          T                                        4772191
LMR   000.89 207.0 m E Sg      2011/10/17 14:42:08.4  -0.5                          T               10.3  .22 Ml 2.5         4772186
SMRF  001.08 262.4 m E Pg      2011/10/17 14:42:00.8  -0.2                          T                                        4774353
SMRF  001.08 262.4 m E P       2011/10/17 14:42:01.8  -0.1                          T                                        4772189
SMRF  001.08 262.4 m E Sg      2011/10/17 14:42:15.0   0.0                          T                3.3  .21 Ml 2.0         4772184
ORIF  001.16 313.5 m E Pg      2011/10/17 14:42:02.6   0.2                          T                                        4774356
ORIF  001.16 313.5 m E Sg      2011/10/17 14:42:17.7   0.3                          T                2.2  .24 Ml 1.8         4772182
LPL   001.41 350.5 m E Pg      2011/10/17 14:42:07.1  -0.1                          T                                        4774354
LPL   001.41 350.5 m E Sg      2011/10/17 14:42:25.6   0.2                          T                1.4  .34 Ml 1.6         4774355
VIVF  001.86 293.9 m E Pn      2011/10/17 14:42:11.0   0.2                          T                                        4772180
VIVF  001.86 293.9 m E Sn      2011/10/17 14:42:32.8  -0.1                          T                1.3  .24 Ml 1.9         4772181

.
EVENT     265233
    Date      Time       Latitude Longitude    Depth    Ndef Nsta Gap    Mag1  N    Mag2  N    Mag3  N   Author         ID
       rms   OT_Error      Smajor Sminor Az        Err   mdist  Mdist     Err        Err        Err      Quality

2011/10/17 15:20:51.2     46.2923    8.5767       .0 f    13    6 080  Ml 1.9  6                         js067245    265253

      0.21   +-  0.07       1.3    1.1  132.55 +-  0.0    0.17   2.29   +-0.3                            m i km

SWITZERLAND
Sta     Dist  EvAz     Phase      Date       Time     TRes  Azim  AzRes  Slow  SRes Def   SNR       Amp   Per   Mag1   Mag2       ID
LPL   001.50 239.6 m E Pg      2011/10/17 15:21:19.5  -0.3                          T                                        4774372
LPL   001.50 239.6 m E Sg      2011/10/17 15:21:39.3  -0.1                          T                1.4  .30 Ml 1.7         4774373
LPG   001.50 238.7 m E Pg      2011/10/17 15:21:19.9   0.0                          T                                        4774370
LPG   001.50 238.7 m E Sg      2011/10/17 15:21:39.3  -0.2                          T                2.0  .27 Ml 1.9         4774371
CABF  001.75 281.4 m E Pg      2011/10/17 15:21:24.3   0.1                          T                                        4774364
CABF  001.75 281.4 m E Sg      2011/10/17 15:21:46.5  -0.4                          T                 .7  .17 Ml 1.8         4774368
HINF  001.93 322.9 m E Pg      2011/10/17 15:21:27.5   0.1                          T                                        4774363
HINF  001.93 322.9 m E Sg      2011/10/17 15:21:52.6   0.2                          T                2.3  .24 Ml 2.2         4774367
HAU   002.29 319.2 m E Pg      2011/10/17 15:21:34.1   0.0                          T                                        4774365
HAU   002.29 319.2 m E Sg      2011/10/17 15:22:03.8   0.0                          T                4.5  .25 Ml 2.3         4774366
MBDF  002.02 219.7 m E Sg      2011/10/17 15:21:55.2  -0.1                          T                 .5  .27 Ml 1.5         4774369

.
