BEGIN GSE2.0
MSG_TYPE DATA
MSG_ID 05-JUN-1213:16:54  FRA_NDC
E-MAIL
DATA_TYPE BULLETIN
Reviewed Bulletin (REB) # P2012-020  from French NDC for regional phases     PERIOD 16 MAY 2012 TO 22 MAY 2012 S M., J-P S
EVENT     276127
    Date      Time       Latitude Longitude    Depth    Ndef Nsta Gap    Mag1  N    Mag2  N    Mag3  N   Author         ID
       rms   OT_Error      Smajor Sminor Az        Err   mdist  Mdist     Err        Err        Err      Quality

2012/05/16 01:52:50.9     47.9783    7.4140      2.0      15    6 056  Ml 1.6  3  Md 1.5  2              bulletin    276227
                                                                                                         _ldg
      0.33   +-  0.07       1.7    1.0    5.43 +-  0.0    0.23   1.61   +-0.6      +-0.2                 m i ke

SWITZERLAND
Sta     Dist  EvAz     Phase      Date       Time     TRes  Azim  AzRes  Slow  SRes Def   SNR       Amp   Per   Mag1   Mag2       ID
HINF  000.41 247.0 m E Pn      2012/05/16 01:52:58.6  -0.4                          T                                        4947138
HINF  000.41 247.0 m E Sg      2012/05/16 01:53:03.9  -0.4                          T                4.0  .38        Md 1.6  4947137
CDF   000.44 348.1 m E Pg      2012/05/16 01:52:59.3  -0.2                          T                                        4947139
CDF   000.44 348.1 m E Sg      2012/05/16 01:53:05.3  -0.1                          T                1.8  .39        Md 1.3  4947140
HAU   000.72 272.6 m E Pg      2012/05/16 01:53:04.3  -0.1                          T                                        4947135
HAU   000.72 272.6 m E Sg      2012/05/16 01:53:13.8   0.0                          T                3.1  .22                4947136
THEF  000.98 285.2 m E Pg      2012/05/16 01:53:09.3  -0.1                          T                                        4947134
THEF  000.98 285.2 m E Sg      2012/05/16 01:53:22.3   0.1                          T                1.9  .19 Ml 1.8         4947133
PAGF  001.27 297.7 m E Pg      2012/05/16 01:53:14.7   0.2                          T                                        4947143
PAGF  001.27 297.7 m E Sn      2012/05/16 01:53:31.4   0.8                          T                 .2  .21 Ml  .9         4947144
SFTF  001.61 279.0 m E Pg      2012/05/16 01:53:20.9   0.0                          T                                        4947142
SFTF  001.61 279.0 m E Sg      2012/05/16 01:53:42.2   0.6                          T                4.8  .48 Ml 2.1         4947141

.
EVENT     276134
    Date      Time       Latitude Longitude    Depth    Ndef Nsta Gap    Mag1  N    Mag2  N    Mag3  N   Author         ID
       rms   OT_Error      Smajor Sminor Az        Err   mdist  Mdist     Err        Err        Err      Quality

2012/05/16 09:05:04.2     49.0861    5.3970       .0 f    16    9 137  Ml 2.2  7  Md 2.2  2              bulletin    276234
                                                                                                         _ldg
      0.68   +-  0.07       1.9    1.1   66.41 +-  0.0    0.57   1.60   +-0.2      +-0.0                 m i km

FRANCE
Sta     Dist  EvAz     Phase      Date       Time     TRes  Azim  AzRes  Slow  SRes Def   SNR       Amp   Per   Mag1   Mag2       ID
PAGF  000.57 157.7 m E Pg      2012/05/16 09:05:15.4   0.0                          T                                        4978976
PAGF  000.57 157.7 m E Sg      2012/05/16 09:05:23.2   0.0 341.7  3.7               T               20.1  .76        Md 2.3  4978934
MEZF  000.63 201.5 m E Pg      2012/05/16 09:05:16.5   0.1  23.7  2.5               T                                        4978974
MEZF  000.63 201.5 m E Sg      2012/05/16 09:05:24.3  -0.4  12.5  -8.7              T              105.2 1.08        Md 2.2  4978975
SFTF  000.91 195.2 m E Pg      2012/05/16 09:05:21.8   0.1                          T                                        4978972
SFTF  000.91 195.2 m E Sg      2012/05/16 09:05:33.4  -0.3                          T               61.7 1.09 Ml 2.5         4978973
THEF  000.95 155.0 m E Pg      2012/05/16 09:05:22.4   0.1                          T                                        4978935
THEF  000.95 155.0 m E Sn      2012/05/16 09:05:37.0   0.1                          T               21.5  .57 Ml 2.4         4978936
GIVF  001.08 340.1 m E Pg      2012/05/16 09:05:24.8   0.0                          T                                        4978979
GIVF  001.08 340.1 m E Sn      2012/05/16 09:05:40.1  -0.1                          T                4.6  .26 Ml 2.1         4978980
HAU   001.25 149.3 m E Pg      2012/05/16 09:05:27.7  -0.2                          T                                        4978938
HAU   001.25 149.3 m E Sg      2012/05/16 09:05:44.3   0.0                          T                8.3  .30 Ml 2.1         4978939
CDF   001.41 117.8 m E Pn      2012/05/16 09:05:29.8  -0.1                          T                                        4978977
CDF   001.41 117.8 m E Sn      2012/05/16 09:05:48.3   0.1                          T                4.9  .32 Ml 2.3         4978937
BAIF  001.24 322.0 m E Sg      2012/05/16 09:05:44.1   0.1                          T                6.0  .43 Ml 2.1         4978978
HINF  001.60 142.1 m E Sg      2012/05/16 09:05:55.4   0.3                          T                2.5  .28 Ml 2.0         4978971

.
EVENT     276148
    Date      Time       Latitude Longitude    Depth    Ndef Nsta Gap    Mag1  N    Mag2  N    Mag3  N   Author         ID
       rms   OT_Error      Smajor Sminor Az        Err   mdist  Mdist     Err        Err        Err      Quality

2012/05/16 09:35:03.3     42.9153   -1.2224      2.0      17    3 075  Ml 1.9  1  Md 1.6  2              bulletin    276248
                                                                                                         _ldg
      0.60   +-  0.16       3.1    2.7  175.11 +-  0.0    0.07   1.32   +-         +-0.1                 m i ke

PYRENEES
Sta     Dist  EvAz     Phase      Date       Time     TRes  Azim  AzRes  Slow  SRes Def   SNR       Amp   Per   Mag1   Mag2       ID
SJPF  000.20 359.4 m E Pg      2012/05/16 09:35:07.4   0.1                          T                                        4947573
SJPF  000.20 359.4 m E Sg      2012/05/16 09:35:10.1   0.1                          T               23.2  .22        Md 1.6  4947572
ETSF  000.49 091.7 m E Pg      2012/05/16 09:35:11.9  -0.8                          T                                        4947571
ETSF  000.49 091.7 m E Sg      2012/05/16 09:35:19.0  -0.1                          T                2.0  .16        Md 1.6  4947570
EPF   001.15 083.7 m E Pg      2012/05/16 09:35:25.0   0.2                          T                                        4947569
EPF   001.15 083.7 m E Sg      2012/05/16 09:35:40.4   0.5                          T                1.7  .17 Ml 1.9         4947568

.
EVENT     276150
    Date      Time       Latitude Longitude    Depth    Ndef Nsta Gap    Mag1  N    Mag2  N    Mag3  N   Author         ID
       rms   OT_Error      Smajor Sminor Az        Err   mdist  Mdist     Err        Err        Err      Quality

2012/05/16 09:37:21.1     42.8794   -1.2341      2.0      12    3 100  Ml 1.6  1  Md 1.2  2              bulletin    276250
                                                                                                         _ldg
      0.27   +-  0.09       2.1    1.6   22.34 +-  0.0    0.04   1.29   +-         +-0.2                 m i ke

PYRENEES
Sta     Dist  EvAz     Phase      Date       Time     TRes  Azim  AzRes  Slow  SRes Def   SNR       Amp   Per   Mag1   Mag2       ID
SJPF  000.23 001.6 m E Pg      2012/05/16 09:37:25.7  -0.1                          T                                        4947588
SJPF  000.23 001.6 m E Sg      2012/05/16 09:37:28.8  -0.1                          T                2.7  .19        Md 1.3  4947587
ETSF  000.50 087.6 m E Pg      2012/05/16 09:37:30.5  -0.2                          T                                        4947586
ETSF  000.50 087.6 m E Sg      2012/05/16 09:37:37.2   0.0                          T                 .6  .19        Md 1.1  4947583
EPF   001.17 082.0 m E Sg      2012/05/16 09:37:58.0  -0.1                          T                  1  .20 Ml 1.6         4978988

.
EVENT     276136
    Date      Time       Latitude Longitude    Depth    Ndef Nsta Gap    Mag1  N    Mag2  N    Mag3  N   Author         ID
       rms   OT_Error      Smajor Sminor Az        Err   mdist  Mdist     Err        Err        Err      Quality

2012/05/16 10:00:32.1     47.1568    5.5308       .0 f    22   11 091  Ml 2.3  8  Md 2.0  2              bulletin    276236
                                                                                                         _ldg
      1.37   +-  0.16       3.8    2.8  137.64 +-  0.0    0.67   3.68   +-0.2      +-0.1                 m i km

FRANCE
Sta     Dist  EvAz     Phase      Date       Time     TRes  Azim  AzRes  Slow  SRes Def   SNR       Amp   Per   Mag1   Mag2       ID
CABF  000.67 144.8 m E Pg      2012/05/16 10:00:44.8  -0.3                          T                                        4947421
CABF  000.67 144.8 m E Sg      2012/05/16 10:00:54.0   0.0                          T                3.4  .27        Md 2.0  4947420
HAU   001.01 032.8 m E Pg      2012/05/16 10:00:51.2  -0.2                          T                                        4947427
HAU   001.01 032.8 m E Pn      2012/05/16 10:00:52.0  -0.1                          T                                        4947438
HAU   001.01 032.8 m E Sg      2012/05/16 10:01:04.8   0.0                          T                                        4947437
HAU   001.01 032.8 m E Sn      2012/05/16 10:01:06.4  -0.1                          T                4.9  .24 Ml 1.9 Md 2.1  4947424
HINF  001.11 053.2 m E Pg      2012/05/16 10:00:53.0  -0.3                          T                                        4947426
HINF  001.11 053.2 m E Sg      2012/05/16 10:01:08.3   0.4                          T                9.3  .23 Ml 2.5         4947425
SFTF  001.10 342.6 m E Pg      2012/05/16 10:00:53.4   0.4 149.3  -12.9             T                                        4947436
SFTF  001.10 342.6 m E Sg      2012/05/16 10:01:06.9  -0.5 159.9  -2.3              T                8.5  .28 Ml 2.3         4947435
THEF  001.12 016.1 m E Pg      2012/05/16 10:00:53.8   0.5                          T                                        4947423
THEF  001.12 016.1 m E Sg      2012/05/16 10:01:09.4   1.4                          T               11.2  .24 Ml 2.5         4947422
LOR   001.15 276.2 m E Pn      2012/05/16 10:00:53.9   0.0  98.3  3.3               T                                        4947429
LOR   001.15 276.2 m E Sg      2012/05/16 10:01:08.6  -0.3 108.1  13.2              T                5.9  .20 Ml 2.4         4947428
SMF   001.27 246.8 m E Pn      2012/05/16 10:00:55.1  -0.5                          T                                        4947432
SMF   001.27 246.8 m E Sg      2012/05/16 10:01:12.1  -0.6                          T                4.7  .22 Ml 2.3         4978991
SSF   001.39 266.8 m E Pn      2012/05/16 10:00:58.2   1.0                          T                                        4947434
SSF   001.39 266.8 m E Sg      2012/05/16 10:01:16.8   0.5                          T                2.0  .15 Ml 2.2         4978993
AVF   001.54 257.0 m E Pn      2012/05/16 10:00:58.9  -0.3                          T                                        4947433
AVF   001.54 257.0 m E Sg      2012/05/16 10:01:20.9  -0.1                          T                2.3  .24 Ml 2.0         4978992
BAIF  003.03 343.7 m E Pn      2012/05/16 10:01:18.4  -1.2                          T                                        4947430
FRF   003.68 167.3 m E Pn      2012/05/16 10:01:29.3   0.8                          T                                        4947431

.
EVENT     276137
    Date      Time       Latitude Longitude    Depth    Ndef Nsta Gap    Mag1  N    Mag2  N    Mag3  N   Author         ID
       rms   OT_Error      Smajor Sminor Az        Err   mdist  Mdist     Err        Err        Err      Quality

2012/05/16 11:01:13.5     47.6888    5.6478       .0 f    19   10 087  Ml 2.2  5  Md 2.3  2              bulletin    276237
                                                                                                         _ldg
      0.60   +-  0.05       1.0     .9  155.76 +-  0.0    0.57   1.93   +-0.3      +-0.1                 m i km

FRANCE
Sta     Dist  EvAz     Phase      Date       Time     TRes  Azim  AzRes  Slow  SRes Def   SNR       Amp   Per   Mag1   Mag2       ID
HAU   000.57 055.8 m E Pg      2012/05/16 11:01:24.6   0.0                          T                                        4979036
HAU   000.57 055.8 m E Sg      2012/05/16 11:01:31.8  -0.4                          T               62.6 1.04        Md 2.2  4979047
THEF  000.59 023.2 m E Pg      2012/05/16 11:01:25.1   0.1                          T                                        4979037
THEF  000.59 023.2 m E Sg      2012/05/16 11:01:32.7  -0.2                          T               24.8  .16                4979034
SFTF  000.66 321.8 m E Pg      2012/05/16 11:01:26.2   0.0 142.0  0.7               T                                        4979038
SFTF  000.66 321.8 m E Sg      2012/05/16 11:01:34.9  -0.1 145.6  4.3               T                9.2  .32        Md 2.3  4979045
HINF  000.82 080.6 m E Pg      2012/05/16 11:01:29.1  -0.2                          T                                        4979048
HINF  000.82 080.6 m E Sg      2012/05/16 11:01:39.9  -0.3                          T                9.3  .34                4979049
PAGF  000.87 003.4 m E Pg      2012/05/16 11:01:30.2   0.1 188.2  4.8               T                                        4979040
PAGF  000.87 003.4 m E Sg      2012/05/16 11:01:41.7   0.1 188.8  5.4               T                3.0  .43 Ml 1.6         4979046
MEZF  000.91 334.1 m E Pg      2012/05/16 11:01:30.7   0.0 155.1  1.5               T                                        4979039
MEZF  000.91 334.1 m E Sg      2012/05/16 11:01:42.9   0.1 151.5  -2.2              T               11.6  .36 Ml 2.3         4979033
CABF  001.12 164.3 m E Pg      2012/05/16 11:01:34.9   0.1                          T                                        4979035
CABF  001.12 164.3 m E Sg      2012/05/16 11:01:49.6   0.1                          T               23.8  .68 Ml 2.4         4979044
LOR   001.28 251.5 m E Pg      2012/05/16 11:01:37.8   0.1  70.5  0.3               T                                        4979043
LOR   001.28 251.5 m E Sg      2012/05/16 11:01:54.5  -0.1  70.5  0.3               T                6.9  .28 Ml 2.3         4979031
CDF   001.31 055.9 m E Pg      2012/05/16 11:01:38.4   0.0                          T                                        4979041
CDF   001.31 055.9 m E Sg      2012/05/16 11:01:55.6   0.1                          T                5.7  .42 Ml 2.2         4979032
LANF  001.93 047.3 m E Pg      2012/05/16 11:01:49.8   0.0                          T                                        4979042

.
