EVENT     279537
    Date      Time       Latitude Longitude    Depth    Ndef Nsta Gap    Mag1  N    Mag2  N    Mag3  N   Author         ID
       rms   OT_Error      Smajor Sminor Az        Err   mdist  Mdist     Err        Err        Err      Quality

2012/07/14 13:59:05.0     46.9151   -1.2270      3.0 f    30   13 163  Ml 2.3 12  Md 2.5  1              bulletin    279637
                                                                                                         _ldg
      1.52   +-  0.15       3.8    1.7   41.60 +-  0.0    0.81   3.49   +-0.2      +-                    m i ke

FRANCE
Sta     Dist  EvAz     Phase      Date       Time     TRes  Azim  AzRes  Slow  SRes Def   SNR       Amp   Per   Mag1   Mag2       ID
MFF   000.81 112.4 m E Pg      2012/07/14 13:59:20.1   0.0                          T                                        5026425
MFF   000.81 112.4 m E Sg      2012/07/14 13:59:30.5  -0.1                          T               35.8  .28        Md 2.5  5026424
GRR   001.50 009.5 m E Pn      2012/07/14 13:59:31.1   0.2                          T                                        5029410
GRR   001.50 009.5 m E Pg      2012/07/14 13:59:33.1   0.3                          T                                        5029409
GRR   001.50 009.5 m E Sg      2012/07/14 13:59:52.3   0.2                          T                5.6  .20 Ml 2.3         5026413
SGMF  001.61 326.6 m E Pg      2012/07/14 13:59:34.9  -0.1                          T                                        5029405
SGMF  001.61 326.6 m E Sg      2012/07/14 13:59:55.5  -0.3                          T                2.9  .21 Ml 2.2         5026418
LDF   001.84 023.5 m E Pn      2012/07/14 13:59:35.3  -0.4                          T                                        5029416
LDF   001.84 023.5 m E Pg      2012/07/14 13:59:39.2   0.1                          T                                        5029408
LDF   001.84 023.5 m E Sg      2012/07/14 14:00:01.9  -0.9                          T                3.6  .25 Ml 2.3         5026415
QUIF  001.65 308.0 m E Pg      2012/07/14 13:59:35.6  -0.1                          T                                        5029406
QUIF  001.65 308.0 m E Sn      2012/07/14 13:59:53.9   0.3                          T                3.5  .22 Ml 2.3         5029396
QUIF  001.65 308.0 m E Sg      2012/07/14 13:59:57.3   0.2                          T                1.9  .22 Ml 2.0         5026423
FLN   001.92 014.9 m E Pg      2012/07/14 13:59:40.4  -0.2 185.3  -10.2             T                                        5029407
FLN   001.92 014.9 m E Sg      2012/07/14 14:00:04.3  -1.0 187.5  -7.9              T                2.6  .20 Ml 2.2         5026414
ROSF  001.98 316.5 m E Pg      2012/07/14 13:59:41.5  -0.3                          T                                        5029404
ROSF  001.98 316.5 m E Sg      2012/07/14 14:00:07.4   0.0                          T                1.8  .22 Ml 2.1         5026417
BGF   002.82 095.8 m E Pn      2012/07/14 13:59:49.3   0.2                          T                                        5029414
BGF   002.82 095.8 m E Pg      2012/07/14 13:59:57.4   0.1                          T                                        5029403
BGF   002.82 095.8 m E Sg      2012/07/14 14:00:34.0   0.4                          T                8.9  .34 Ml 2.8         5029399
LFF   002.41 144.5 m E Pg      2012/07/14 13:59:49.6   0.0                          T                                        5029411
LFF   002.41 144.5 m E Sg      2012/07/14 14:00:20.5   0.0                          T                4.5  .36 Ml 2.2         5029412
TCF   002.45 103.6 m E Pg      2012/07/14 13:59:50.2  -0.3                          T                                        5029415
TCF   002.45 103.6 m E Sg      2012/07/14 14:00:22.0  -0.1                          T                2.0  .29 Ml 2.2         5029417
CAF   003.04 129.7 m E Pg      2012/07/14 14:00:01.2  -0.1                          T                                        5029400
CAF   003.04 129.7 m E Sg      2012/07/14 14:00:40.5   0.1                          T                2.0  .30 Ml 2.3         5029413
SSF   003.24 085.7 m E Pg      2012/07/14 14:00:05.3   0.3                          T                                        5029402
LOR   003.49 082.3 m E Pg      2012/07/14 14:00:09.7   0.0 258.3  -7.8              T                                        5029401

.
EVENT     279596
    Date      Time       Latitude Longitude    Depth    Ndef Nsta Gap    Mag1  N    Mag2  N    Mag3  N   Author         ID
       rms   OT_Error      Smajor Sminor Az        Err   mdist  Mdist     Err        Err        Err      Quality

2012/07/14 18:14:10.2     42.8010    -.2071      2.0       8    4 218  Ml 1.4  1  Md 1.5  3              bulletin    279696
                                                                                                         _ldg
      0.14   +-  0.21       7.9    1.0     .30 +-  0.0    0.28   1.86   +-         +-0.1                 m i ke

PYRENEES
Sta     Dist  EvAz     Phase      Date       Time     TRes  Azim  AzRes  Slow  SRes Def   SNR       Amp   Per   Mag1   Mag2       ID
ETSF  000.28 290.8 m E Pg      2012/07/14 18:14:15.5  -0.3                          T                                        5027313
ETSF  000.28 290.8 m E Sg      2012/07/14 18:14:19.2  -0.4                          T                8.5  .20        Md 1.6  5027310
EPF   000.46 060.1 m E Pg      2012/07/14 18:14:19.2   0.0                          T                                        5027312
EPF   000.46 060.1 m E Sg      2012/07/14 18:14:25.3   0.0                          T                2.7  .18        Md 1.5  5027311
SJPF  000.81 293.0 m E Pg      2012/07/14 18:14:25.6   0.1                          T                                        5027308
SJPF  000.81 293.0 m E Sg      2012/07/14 18:14:36.1   0.0                          T                1.2  .22        Md 1.4  5027309
MTLF  001.86 072.3 m E Pg      2012/07/14 18:14:44.7  -0.1                          T                                        5027307
MTLF  001.86 072.3 m E Sg      2012/07/14 18:15:08.9   0.1                          T                 .3  .19 Ml 1.4         5027306

.
EVENT     279556
    Date      Time       Latitude Longitude    Depth    Ndef Nsta Gap    Mag1  N    Mag2  N    Mag3  N   Author         ID
       rms   OT_Error      Smajor Sminor Az        Err   mdist  Mdist     Err        Err        Err      Quality

2012/07/14 22:29:28.2     44.9169   11.0029      2.0      73   29 222  Ml 3.2 25                         bulletin    279656
                                                                                                         _ldg
      1.00   +-  0.34       7.7    4.1   95.67 +-  0.0    1.07   6.90   +-0.3                            m i ke

NORTHERN ITALY
Sta     Dist  EvAz     Phase      Date       Time     TRes  Azim  AzRes  Slow  SRes Def   SNR       Amp   Per   Mag1   Mag2       ID
PGF   002.78 212.2 m E Pn      2012/07/14 22:30:11.6  -0.3                          T                                        5026444
PGF   002.78 212.2 m E Sn      2012/07/14 22:30:45.3   1.3                          T               16.1  .36 Ml 3.3         5026437
SBF   002.77 248.9 m E Pn      2012/07/14 22:30:12.2   0.5                          T                                        5026445
SBF   002.77 248.9 m E Sn      2012/07/14 22:30:44.4   0.7                          T               72.4  .48 Ml 3.6         5026442
MBDF  003.02 267.9 m E Pn      2012/07/14 22:30:13.4  -1.9                          T                                        5026451
MBDF  003.02 267.9 m E Sn      2012/07/14 22:30:50.0   0.2                          T               29.7  .52 Ml 3.2         5026604
LPG   003.06 282.4 m E Pn      2012/07/14 22:30:15.8  -0.2                          T                                        5026448
LPG   003.06 282.4 m E Sn      2012/07/14 22:30:51.2   0.2                          T               27.8  .43 Ml 3.2         5026438
LPL   003.08 282.7 m E Pn      2012/07/14 22:30:15.9  -0.3                          T                                        5026449
LPL   003.08 282.7 m E Sn      2012/07/14 22:30:50.8  -0.5                          T               25.5  .47 Ml 3.2         5026427
FRF   003.41 248.1 m E Pn      2012/07/14 22:30:20.8   0.3                          T                                        5026447
FRF   003.41 248.1 m E Sn      2012/07/14 22:31:01.7   2.7                          T               10.4  .35 Ml 3.0         5026441
LMR   003.60 245.5 m E Pn      2012/07/14 22:30:22.6  -0.4                          T                                        5026446
LMR   003.60 245.5 m E Sn      2012/07/14 22:31:03.2  -0.3                          T               12.1  .33 Ml 3.1         5026443
ORIF  003.64 271.8 m E Pn      2012/07/14 22:30:23.5  -0.2                          T                                        5026450
ORIF  003.64 271.8 m E Sn      2012/07/14 22:31:06.0   1.4                          T               27.2  .55 Ml 3.3         5026436
CABF  003.83 298.0 m E Pn      2012/07/14 22:30:25.7  -0.6                          T                                        5026429
CABF  003.83 298.0 m E Sn      2012/07/14 22:31:09.4   0.1                          T                3.4  .32 Ml 2.6         5026595
HINF  004.08 316.7 m E Pn      2012/07/14 22:30:28.4  -1.2                          T                                        5026430
HINF  004.08 316.7 m E Sn      2012/07/14 22:31:15.4   0.3                          T                6.8  .33 Ml 3.0         5026428
SMRF  004.00 258.3 m E Pn      2012/07/14 22:30:28.5   0.0                          T                                        5026606
SMRF  004.00 258.3 m E Sn      2012/07/14 22:31:13.3   0.2                          T                6.6  .44 Ml 2.8         5026605
CDF   004.34 325.1 m E Pn      2012/07/14 22:30:32.2  -1.0                          T                                        5026458
CDF   004.34 325.1 m E Sn      2012/07/14 22:31:22.7   1.4                          T                7.2  .36 Ml 3.1         5026432
HAU   004.46 315.5 m E Pn      2012/07/14 22:30:33.6  -1.2                          T                                        5026456
HAU   004.46 315.5 m E Sn      2012/07/14 22:31:23.8  -0.4                          T               21.2  .30 Ml 3.4         5026433
VIVF  004.50 271.5 m E Pn      2012/07/14 22:30:34.9  -0.4                          T                                        5026440
VIVF  004.50 271.5 m E Sn      2012/07/14 22:31:25.8   0.6                          T                2.5  .28 Ml 2.7         5026439
LANF  004.62 332.8 m E Pn      2012/07/14 22:30:36.3  -0.6                          T                                        5026594
THEF  004.78 315.6 m E Pn      2012/07/14 22:30:38.8  -0.4                          T                                        5026498
THEF  004.78 315.6 m E Sn      2012/07/14 22:31:32.2   0.3                          T               11.1  .31 Ml 3.4         5026496
LASF  005.18 263.2 m E Pn      2012/07/14 22:30:44.6   0.0                          T                                        5026603
LASF  005.18 263.2 m E Sn      2012/07/14 22:31:41.7   0.3                          T               10.5  .78 Ml 3.0         5026602
SFTF  005.27 310.8 m E Pn      2012/07/14 22:30:45.0  -0.7 128.9  2.4               T                                        5026497
SMF   005.30 291.6 m E Pn      2012/07/14 22:30:45.4  -0.7                          T                                        5026453
SMF   005.30 291.6 m E Sn      2012/07/14 22:31:43.7  -0.5                          T               10.8  .43 Ml 3.3         5026434
LOR   005.50 297.9 m E Pn      2012/07/14 22:30:48.0  -0.8 115.1  2.4               T                                        5026457
LOR   005.50 297.9 m E Sn      2012/07/14 22:31:50.4   1.4                          T                6.4  .34 Ml 3.3         5026431
MEZF  005.44 313.3 m E Pn      2012/07/14 22:30:48.0   0.0 133.3  4.3               T                                        5026460
MEZF  005.44 313.3 m E Sn      2012/07/14 22:31:45.1  -2.5                          T               14.1  .86 Ml 3.2         5026459
SSF   005.65 295.0 m E Pn      2012/07/14 22:30:50.0  -0.9                          T                                        5026455
SSF   005.65 295.0 m E Sn      2012/07/14 22:31:52.4  -0.1                          T                6.0  .46 Ml 3.2         5026596
AVF   005.66 292.0 m E Pn      2012/07/14 22:30:50.4  -0.7                          T                                        5026454
BGF   005.94 288.9 m E Pn      2012/07/14 22:30:54.5  -0.4                          T                                        5026452
BGF   005.94 288.9 m E Sn      2012/07/14 22:32:01.5   2.0                          T               34.2  .48 Ml 3.9         5026435
HYF   006.27 295.0 m E Pn      2012/07/14 22:30:59.0  -0.4                          T                                        5026600
HYF   006.27 295.0 m E Pg      2012/07/14 22:31:24.5   0.4                          T                                        5026599
TCF   006.32 285.6 m E Pn      2012/07/14 22:31:00.1   0.0                          T                                        5026598
TCF   006.32 285.6 m E Sn      2012/07/14 22:32:09.3   0.7                          T                3.2  .37 Ml 3.1         5026597
CAF   006.35 273.2 m E Pn      2012/07/14 22:31:00.4  -0.1                          T                                        5026601
GIVF  006.66 323.3 m E Pn      2012/07/14 22:31:04.3  -0.4                          T                                        5026593
BAIF  006.90 320.6 m E Pn      2012/07/14 22:31:08.3   0.4                          T                                        5026592

.
EVENT     279557
    Date      Time       Latitude Longitude    Depth    Ndef Nsta Gap    Mag1  N    Mag2  N    Mag3  N   Author         ID
       rms   OT_Error      Smajor Sminor Az        Err   mdist  Mdist     Err        Err        Err      Quality

2012/07/15 02:05:07.7     35.8452    1.3161     10.0 f    67   19 249  Ml 3.3  5                         bulletin    279657
                                                                                                         _ldg
      0.77   +-  0.34       7.2    3.2  158.55 +-  0.0    2.55  12.78   +-0.2                            m i ke

NORTHERN ALGERIA
Sta     Dist  EvAz     Phase      Date       Time     TRes  Azim  AzRes  Slow  SRes Def   SNR       Amp   Per   Mag1   Mag2       ID
EPF   007.22 354.3 m E Pn      2012/07/15 02:06:51.4   0.4                          T                                        5029492
EPF   007.22 354.3 m E Sn      2012/07/15 02:08:07.5  -0.6                          T                2.0  .29 Ml 3.1         5029485
ETSF  007.19 348.9 m E Pn      2012/07/15 02:06:51.9   1.2                          T                                        5029493
ETSF  007.19 348.9 m E Sn      2012/07/15 02:08:06.1  -1.5                          T                4.1  .45 Ml 3.2         5029483
MTLF  007.52 005.0 m E Pn      2012/07/15 02:06:54.7  -0.3                          T                                        5029491
MTLF  007.52 005.0 m E Sn      2012/07/15 02:08:14.0  -1.3                          T                3.5  .61 Ml 3.1         5029484
SJPF  007.52 345.6 m E Pn      2012/07/15 02:06:55.9   0.8                          T                                        5029494
LMR   008.48 026.6 m E Pn      2012/07/15 02:07:08.4   0.2                          T                                        5029489
LMR   008.48 026.6 m E Sn      2012/07/15 02:08:36.4  -2.0                          T                2.5  .40 Ml 3.3         5029486
FRF   008.73 026.4 m E Pn      2012/07/15 02:07:11.6   0.1                          T                                        5029490
FRF   008.73 026.4 m E Sn      2012/07/15 02:08:43.5  -0.8                          T                4.2  .40 Ml 3.6         5029487
LFF   009.09 357.4 m E Pn      2012/07/15 02:07:16.6   0.1                          T                                        5029496
CAF   009.09 003.4 m E Pn      2012/07/15 02:07:17.2   0.7                          T                                        5029495
PGF   008.96 039.4 m E P       2012/07/15 02:07:20.0  -0.5                          T                                        5029488
RJF   009.45 000.9 m E Pn      2012/07/15 02:07:21.9   0.5                          T                                        5029497
TCF   010.45 003.4 m E Pn      2012/07/15 02:07:34.9  -0.2                          T                                        5029507
BGF   010.76 005.7 m E Pn      2012/07/15 02:07:38.7  -0.5                          T                                        5029503
MFF   010.80 354.6 m E Pn      2012/07/15 02:07:39.5  -0.3                          T                                        5029498
SMF   010.96 009.2 m E Pn      2012/07/15 02:07:41.1  -0.7                          T                                        5029504
SMF   010.96 009.2 m E P       2012/07/15 02:07:47.3  -0.5                          T                                        5029505
AVF   011.04 007.3 m E P       2012/07/15 02:07:48.0  -1.0                          T                                        5029506
GRR   012.64 353.4 m E Pn      2012/07/15 02:08:04.2  -0.5                          T                                        5029499
SGMF  012.73 348.2 m E Pn      2012/07/15 02:08:05.6  -0.3                          T                                        5029502
LDF   012.78 355.7 m E Pn      2012/07/15 02:08:06.7   0.0                          T                                        5029500
QUIF  012.51 346.0 m E P       2012/07/15 02:08:08.7  -0.1                          T                                        5029501

.
