EVENT     275719
    Date      Time       Latitude Longitude    Depth    Ndef Nsta Gap    Mag1  N    Mag2  N    Mag3  N   Author         ID
       rms   OT_Error      Smajor Sminor Az        Err   mdist  Mdist     Err        Err        Err      Quality

2012/05/09 08:27:52.5     44.3816    3.1522       .0 f    12    5 116  Ml 2.2  4  Md 2.5  2              bulletin    275819
                                                                                                         _ldg
      0.88   +-  0.18       4.5    3.4   29.93 +-  0.0    0.59   1.49   +-0.2      +-0.1                 m i km

FRANCE
Sta     Dist  EvAz     Phase      Date       Time     TRes  Azim  AzRes  Slow  SRes Def   SNR       Amp   Per   Mag1   Mag2       ID
LASF  000.59 120.8 m E Pg      2012/05/09 08:28:03.7  -0.4                          T                                        4940925
LASF  000.59 120.8 m E Sg      2012/05/09 08:28:12.6   0.6                          T                9.8  .30        Md 2.5  4940924
CAF   000.95 305.4 m E Pg      2012/05/09 08:28:11.2   0.5                          T                                        4940919
CAF   000.95 305.4 m E Sg      2012/05/09 08:28:23.9   0.8                          T                9.8  .26 Ml 2.4 Md 2.4  4940918
VIVF  001.19 065.9 m E Pn      2012/05/09 08:28:15.3   0.4                          T                                        4940921
VIVF  001.19 065.9 m E Sn      2012/05/09 08:28:30.4  -0.5                          T                8.4  .26 Ml 2.4         4940920
MTLF  001.24 213.3 m E Pn      2012/05/09 08:28:16.0   0.4                          T                                        4940922
MTLF  001.24 213.3 m E Sn      2012/05/09 08:28:31.6  -0.6                          T                2.6  .24 Ml 2.0         4940923
RJF   001.49 309.0 m E Pg      2012/05/09 08:28:19.8  -0.7                          T                                        4944860
RJF   001.49 309.0 m E Sg      2012/05/09 08:28:38.9  -1.0                          T                5.2  .22 Ml 2.1         4944861

.
EVENT     275735
    Date      Time       Latitude Longitude    Depth    Ndef Nsta Gap    Mag1  N    Mag2  N    Mag3  N   Author         ID
       rms   OT_Error      Smajor Sminor Az        Err   mdist  Mdist     Err        Err        Err      Quality

2012/05/09 09:15:17.2     47.8904   -4.2472       .0 f     8    3 327  Ml 1.7  1  Md 1.7  2              bulletin    275835
                                                                                                         _ldg
      0.11   +-  0.17       3.1    3.0  159.45 +-  0.0    0.73   1.19   +-         +-0.0                 m i km

FRANCE
Sta     Dist  EvAz     Phase      Date       Time     TRes  Azim  AzRes  Slow  SRes Def   SNR       Amp   Per   Mag1   Mag2       ID
QUIF  000.73 087.5 m E Pg      2012/05/09 09:15:31.0  -0.1                          T                                        4944879
QUIF  000.73 087.5 m E Pn      2012/05/09 09:15:33.3   0.1                          T                                        4941594
QUIF  000.73 087.5 m E Sg      2012/05/09 09:15:41.1   0.3                          T                2.9  .22        Md 1.7  4941592
ROSF  000.79 055.3 m E Pg      2012/05/09 09:15:32.3   0.0                          T                                        4944880
ROSF  000.79 055.3 m E P       2012/05/09 09:15:33.9   0.0                          T                                        4941595
ROSF  000.79 055.3 m E Sg      2012/05/09 09:15:42.8   0.0                          T                6.9  .22        Md 1.7  4941593
SGMF  001.19 071.6 m E Pg      2012/05/09 09:15:39.6  -0.1                          T                                        4944878
SGMF  001.19 071.6 m E Sn      2012/05/09 09:15:55.5  -0.1                          T                1.2  .20 Ml 1.7         4941590

.
EVENT     275729
    Date      Time       Latitude Longitude    Depth    Ndef Nsta Gap    Mag1  N    Mag2  N    Mag3  N   Author         ID
       rms   OT_Error      Smajor Sminor Az        Err   mdist  Mdist     Err        Err        Err      Quality

2012/05/09 09:21:07.8     43.2018    5.9491       .0 f    13    7 228  Ml 2.0  4  Md 2.0  1              bulletin    275829
                                                                                                         _ldg
      0.25   +-  0.20       3.9    1.7    8.14 +-  0.0    0.43   1.89   +-0.3      +-                    m i km

NEAR SOUTH COAST OF FRANCE
Sta     Dist  EvAz     Phase      Date       Time     TRes  Azim  AzRes  Slow  SRes Def   SNR       Amp   Per   Mag1   Mag2       ID
LMR   000.43 071.9 m E P       2012/05/09 09:21:17.3   0.4                          T                                        4941588
LMR   000.43 071.9 m E Sg      2012/05/09 09:21:22.2   0.0                          T                9.6  .25                4941583
FRF   000.62 054.6 m E Pg      2012/05/09 09:21:19.5  -0.4                          T                                        4941587
FRF   000.62 054.6 m E Sg      2012/05/09 09:21:27.9  -0.4                          T               66.3 1.09                4941581
SMRF  000.82 340.8 m E Pg      2012/05/09 09:21:23.5  -0.1                          T                                        4941586
SMRF  000.82 340.8 m E Sg      2012/05/09 09:21:34.4  -0.1                          T                3.9  .30        Md 2.0  4941582
SBF   001.27 058.0 m E Pg      2012/05/09 09:21:31.7  -0.1                          T                                        4941585
SBF   001.27 058.0 m E Sg      2012/05/09 09:21:48.5   0.1                          T               12.5  .40 Ml 2.4         4941584
MBDF  001.64 021.0 m E Pg      2012/05/09 09:21:39.1   0.3                          T                                        4944884
MBDF  001.64 021.0 m E Sg      2012/05/09 09:22:00.2   0.2                          T                1.5  .28 Ml 1.8         4944885
LASF  001.75 300.6 m E Pg      2012/05/09 09:21:40.7   0.0                          T                                        4944886
LASF  001.75 300.6 m E Sn      2012/05/09 09:21:59.4  -0.4                          T                 .7  .15 Ml 1.8         4944887
VIVF  001.89 331.3 m E Sg      2012/05/09 09:22:08.1   0.2                          T                1.9  .32 Ml 1.9         4944888

.
EVENT     275730
    Date      Time       Latitude Longitude    Depth    Ndef Nsta Gap    Mag1  N    Mag2  N    Mag3  N   Author         ID
       rms   OT_Error      Smajor Sminor Az        Err   mdist  Mdist     Err        Err        Err      Quality

2012/05/09 09:25:55.0     49.6059    6.3548       .0 f    15    8 185  Ml 2.2  8                         bulletin    275830
                                                                                                         _ldg
      1.07   +-  0.13       3.1    1.6   48.12 +-  0.0    1.11   1.82   +-0.3                            m i km

GERMANY
Sta     Dist  EvAz     Phase      Date       Time     TRes  Azim  AzRes  Slow  SRes Def   SNR       Amp   Per   Mag1   Mag2       ID
GIVF  001.11 297.2 m E Pg      2012/05/09 09:26:16.0  -0.1                          T                                        4944900
GIVF  001.11 297.2 m E Sg      2012/05/09 09:26:30.4  -0.3                          T                7.2  .28 Ml 2.3         4944901
LANF  001.14 122.8 m E Pg      2012/05/09 09:26:16.5  -0.1                          T                                        4944896
LANF  001.14 122.8 m E Sn      2012/05/09 09:26:32.1  -0.2                          T                5.7  .22 Ml 2.3         4944897
PAGF  001.13 201.7 m E Pg      2012/05/09 09:26:16.5   0.1                          T                                        4944892
PAGF  001.13 201.7 m E Sg      2012/05/09 09:26:30.8  -0.4   5.5  -15.8             T                2.1  .36 Ml 1.6         4944893
CDF   001.34 152.7 m E Pg      2012/05/09 09:26:20.3  -0.1                          T                                        4941563
CDF   001.34 152.7 m E Sg      2012/05/09 09:26:38.1   0.1                          T                4.9  .29 Ml 2.3         4941562
BAIF  001.46 288.9 m E Pn      2012/05/09 09:26:21.1   0.0                          T                                        4944898
BAIF  001.46 288.9 m E Sn      2012/05/09 09:26:40.1   0.1                          T                7.0  .45 Ml 2.2         4944899
THEF  001.40 189.9 m E Pg      2012/05/09 09:26:21.5   0.1                          T                                        4941559
THEF  001.40 189.9 m E Sg      2012/05/09 09:26:40.0   0.3                          T                 10  .27 Ml 2.6         4941561
HINF  001.82 169.4 m E Pg      2012/05/09 09:26:29.1  -0.1                          T                                        4944894
HINF  001.82 169.4 m E Sg      2012/05/09 09:26:52.9   0.0                          T                2.7  .23 Ml 2.2         4944895
HAU   001.60 180.2 m E Sg      2012/05/09 09:26:45.7  -0.3                          T               10.6  .32 Ml 2.4         4941564

.
EVENT     275741
    Date      Time       Latitude Longitude    Depth    Ndef Nsta Gap    Mag1  N    Mag2  N    Mag3  N   Author         ID
       rms   OT_Error      Smajor Sminor Az        Err   mdist  Mdist     Err        Err        Err      Quality

2012/05/09 10:01:18.8     47.1507    4.8956       .0 f    16    9 112  Ml 2.5  7  Md 2.2  1              bulletin    275841
                                                                                                         _ldg
      0.45   +-  0.12       3.3    1.8  154.61 +-  0.0    0.72   1.49   +-0.2      +-                    m i km

FRANCE
Sta     Dist  EvAz     Phase      Date       Time     TRes  Azim  AzRes  Slow  SRes Def   SNR       Amp   Per   Mag1   Mag2       ID
LOR   000.72 279.8 m E Pg      2012/05/09 10:01:31.7  -0.9                          T                                        4941531
LOR   000.72 279.8 m E Sg      2012/05/09 10:01:42.4   0.3                          T                7.6  .25        Md 2.2  4941530
SMF   000.88 235.4 m E Pg      2012/05/09 10:01:35.0  -0.6                          T                                        4941539
SMF   000.88 235.4 m E Sg      2012/05/09 10:01:47.2  -0.1                          T                7.7  .27 Ml 2.2         4941538
SSF   000.95 265.1 m E Pg      2012/05/09 10:01:37.2   0.3                          T                                        4941537
SSF   000.95 265.1 m E Sg      2012/05/09 10:01:49.3  -0.2                          T               33.4  .51 Ml 2.7         4941536
CABF  000.98 123.0 m E Pg      2012/05/09 10:01:37.5   0.0                          T                                        4941533
CABF  000.98 123.0 m E Sg      2012/05/09 10:01:51.1   0.7                          T                7.6  .26 Ml 2.3         4941532
AVF   001.12 251.7 m E Pg      2012/05/09 10:01:39.9   0.0                          T                                        4941535
AVF   001.12 251.7 m E Sg      2012/05/09 10:01:55.5   1.0                          T                                        4941534
HAU   001.30 048.4 m E Pg      2012/05/09 10:01:43.1  -0.3                          T                                        4944970
HAU   001.30 048.4 m E Sg      2012/05/09 10:02:00.7   0.2                          T               17.6  .28 Ml 2.5         4944971
THEF  001.31 034.1 m E Pg      2012/05/09 10:01:43.8   0.3                          T                                        4944973
THEF  001.31 034.1 m E Sg      2012/05/09 10:02:01.3   0.7                          T               17.0  .25 Ml 2.8         4944974
SFTF  001.06 005.2 m E Sg      2012/05/09 10:01:52.0  -0.8                          T               16.4  .58 Ml 2.3         4944972
HINF  001.49 062.6 m E Sg      2012/05/09 10:02:05.8  -0.4                          T                5.7  .24 Ml 2.4         4944969

.
EVENT     275743
    Date      Time       Latitude Longitude    Depth    Ndef Nsta Gap    Mag1  N    Mag2  N    Mag3  N   Author         ID
       rms   OT_Error      Smajor Sminor Az        Err   mdist  Mdist     Err        Err        Err      Quality

2012/05/09 10:04:53.8     48.5138    7.3087       .0 f    10    5 157  Ml 2.4  1  Md 2.3  3              bulletin    275843
                                                                                                         _ldg
      0.57   +-  0.24       8.7    3.5  128.54 +-  0.0    0.10   0.92   +-         +-0.1                 m i km

FRANCE
Sta     Dist  EvAz     Phase      Date       Time     TRes  Azim  AzRes  Slow  SRes Def   SNR       Amp   Per   Mag1   Mag2       ID
CDF   000.10 192.0 m E Pg      2012/05/09 10:04:54.9  -1.5                          T                                        4941432
CDF   000.10 192.0 m E Sg      2012/05/09 10:04:57.0  -1.1                          T              391.5  .46        Md 2.2  4941431
LANF  000.57 034.9 m E Pg      2012/05/09 10:05:04.9  -0.1                          T                                        4944982
LANF  000.57 034.9 m E Sg      2012/05/09 10:05:13.0   0.4                          T               15.7  .49                4944983
HINF  000.76 203.8 m E Pg      2012/05/09 10:05:08.6   0.2                          T                                        4941430
HINF  000.76 203.8 m E Sg      2012/05/09 10:05:19.7   1.2                          T               22.2  .34        Md 2.4  4941429
HAU   000.82 232.0 m E Pg      2012/05/09 10:05:08.9  -0.6                          T                                        4941435
HAU   000.82 232.0 m E Sg      2012/05/09 10:05:21.2   0.9                          T               17.9  .34        Md 2.4  4941428
THEF  000.92 252.4 m E Pg      2012/05/09 10:05:11.4   0.0                          T                                        4941451
THEF  000.92 252.4 m E Sg      2012/05/09 10:05:23.8   0.2                          T               13.4  .35 Ml 2.4         4941452

.
EVENT     275744
    Date      Time       Latitude Longitude    Depth    Ndef Nsta Gap    Mag1  N    Mag2  N    Mag3  N   Author         ID
       rms   OT_Error      Smajor Sminor Az        Err   mdist  Mdist     Err        Err        Err      Quality

2012/05/09 10:07:00.9     46.8074    3.9729       .0 f    16    7 218  Ml 1.8  2  Md 2.1  2              bulletin    275844
                                                                                                         _ldg
      0.16   +-  0.11       2.0    1.0  105.65 +-  0.0    0.19   2.28   +-0.2      +-0.1                 m i km

FRANCE
Sta     Dist  EvAz     Phase      Date       Time     TRes  Azim  AzRes  Slow  SRes Def   SNR       Amp   Per   Mag1   Mag2       ID
SMF   000.19 209.3 m E Pg      2012/05/09 10:07:05.0   0.1                          T                                        4941401
SMF   000.19 209.3 m E Sg      2012/05/09 10:07:07.4  -0.2                          T               84.7  .66        Md 2.1  4941398
SSF   000.41 308.6 m E Pg      2012/05/09 10:07:08.8  -0.2                          T                                        4941395
SSF   000.41 308.6 m E Sg      2012/05/09 10:07:14.7   0.2                          T                                        4945007
AVF   000.43 268.0 m E Pg      2012/05/09 10:07:09.1  -0.2                          T                                        4941397
AVF   000.43 268.0 m E Sg      2012/05/09 10:07:15.4   0.3                          T                1.5  .34                4941412
LOR   000.47 350.4 m E Pg      2012/05/09 10:07:10.3   0.2                          T                                        4945009
LOR   000.47 350.4 m E Sg      2012/05/09 10:07:16.4  -0.1                          T               43.5  .88        Md 2.2  4941410
BGF   000.81 252.6 m E Pg      2012/05/09 10:07:16.4   0.0                          T                                        4941400
BGF   000.81 252.6 m E Pn      2012/05/09 10:07:18.1   0.0                          T                                        4945006
BGF   000.81 252.6 m E Sg      2012/05/09 10:07:27.4   0.1                          T                                        4945005
BGF   000.81 252.6 m E Sn      2012/05/09 10:07:30.5   0.1                          T               10.1  .40                4941399
TCF   001.32 247.5 m E Pg      2012/05/09 10:07:25.9   0.0                          T                                        4941396
TCF   001.32 247.5 m E Sg      2012/05/09 10:07:43.4   0.3                          T                1.1  .24 Ml 1.6         4945008
RJF   002.28 229.6 m E Pg      2012/05/09 10:07:42.7  -0.7                          T                                        4941394
RJF   002.28 229.6 m E Sg      2012/05/09 10:08:12.9   0.0                          T                1.5  .18 Ml 1.9         4941404

.
EVENT     275745
    Date      Time       Latitude Longitude    Depth    Ndef Nsta Gap    Mag1  N    Mag2  N    Mag3  N   Author         ID
       rms   OT_Error      Smajor Sminor Az        Err   mdist  Mdist     Err        Err        Err      Quality

2012/05/09 10:16:51.4     47.5379    6.7083       .0 f    10    5 181  Ml 2.4  2  Md 2.6  1              bulletin    275845
                                                                                                         _ldg
      0.60   +-  0.30       9.1    4.3  107.89 +-  0.0    0.30   1.02   +-0.0      +-                    m i km

FRANCE
Sta     Dist  EvAz     Phase      Date       Time     TRes  Azim  AzRes  Slow  SRes Def   SNR       Amp   Per   Mag1   Mag2       ID
HINF  000.30 019.3 m E Pg      2012/05/09 10:16:56.8  -0.8                          T                                        4941357
HINF  000.30 019.3 m E Sg      2012/05/09 10:17:01.6  -0.1                          T               63.0  .86        Md 2.6  4941356
HAU   000.53 332.7 m E Pg      2012/05/09 10:17:02.1   0.3                          T                                        4941359
HAU   000.53 332.7 m E Sg      2012/05/09 10:17:14.8   5.9                          T              105.7 1.14                4941355
THEF  000.84 325.4 m E Pg      2012/05/09 10:17:07.8   0.3                          T                                        4941360
THEF  000.84 325.4 m E Sg      2012/05/09 10:17:17.5  -1.2                          T               11.9  .50                4941361
CDF   000.95 023.4 m E Pg      2012/05/09 10:17:09.9   0.2                          T                                        4941354
CDF   000.95 023.4 m E Sg      2012/05/09 10:17:23.1   0.8                          T               24.7  .76 Ml 2.4         4941353
CABF  001.02 204.8 m E Pg      2012/05/09 10:17:10.5  -0.4                          T                                        4941358
CABF  001.02 204.8 m E Sg      2012/05/09 10:17:25.4   1.0                          T               23.2  .66 Ml 2.4         4941352

.
