EVENT     282220
    Date      Time       Latitude Longitude    Depth    Ndef Nsta Gap    Mag1  N    Mag2  N    Mag3  N   Author         ID
       rms   OT_Error      Smajor Sminor Az        Err   mdist  Mdist     Err        Err        Err      Quality

2012/08/30 04:32:27.8     46.5299    2.5489      6.0 f    27   11 091  Ml 2.0  6  Md 2.1  6              bulletin    282320
                                                                                                         _ldg
      0.95   +-  0.08       2.1    1.3  138.85 +-  0.0    0.21   2.24   +-0.2      +-0.1                 m i ke

FRANCE
Sta     Dist  EvAz     Phase      Date       Time     TRes  Azim  AzRes  Slow  SRes Def   SNR       Amp   Per   Mag1   Mag2       ID
BGF   000.21 082.2 m E Pg      2012/08/30 04:32:32.6   0.5                          T                                        5056916
BGF   000.21 082.2 m E Sg      2012/08/30 04:32:35.8   0.7                          T              107.7  .32        Md 2.2  5056922
TCF   000.34 224.2 m E Pg      2012/08/30 04:32:34.4   0.0                          T                                        5056920
TCF   000.34 224.2 m E Sg      2012/08/30 04:32:39.0  -0.1                          T               28.0  .16        Md 2.0  5056926
AVF   000.61 064.5 m E Pg      2012/08/30 04:32:39.5   0.0                          T                                        5056919
AVF   000.61 064.5 m E Pn      2012/08/30 04:32:40.9  -0.5                          T                                        5062659
AVF   000.61 064.5 m E Sg      2012/08/30 04:32:46.9  -0.6                          T                4.0  .24        Md 2.1  5056925
AVF   000.61 064.5 m E Sn      2012/08/30 04:32:50.0  -1.1                          T                3.7  .18                5062660
HYF   000.74 004.8 m E Pg      2012/08/30 04:32:42.1   0.2                          T                                        5056915
HYF   000.74 004.8 m E Sg      2012/08/30 04:32:51.1  -0.5                          T                                Md 2.1  5056923
SSF   000.85 050.7 m E Pg      2012/08/30 04:32:43.6  -0.1                          T                                        5056918
SSF   000.85 050.7 m E Sg      2012/08/30 04:32:54.5  -0.3                          T                8.8  .20        Md 2.1  5056927
SMF   000.90 082.2 m E Pg      2012/08/30 04:32:44.8   0.1                          T                                        5056917
SMF   000.90 082.2 m E Sg      2012/08/30 04:32:56.4  -0.1                          T                2.1  .20 Ml 1.8 Md 2.1  5056924
LOR   001.16 050.1 m E Pg      2012/08/30 04:32:49.2  -0.4 230.8  -0.3              T                                        5056940
LOR   001.16 050.1 m E Sg      2012/08/30 04:33:03.8  -0.9 213.8  -17.3             T                4.2  .24 Ml 2.2         5056941
RJF   001.42 210.8 m E Pg      2012/08/30 04:32:53.9  -0.4                          T                                        5056945
RJF   001.42 210.8 m E Sg      2012/08/30 04:33:12.4  -0.3                          T                4.0  .31 Ml 1.8         5056930
CAF   001.64 192.1 m E Pg      2012/08/30 04:32:58.2  -0.2                          T                                        5056944
CAF   001.64 192.1 m E Sg      2012/08/30 04:33:19.4  -0.1                          T                2.3  .21 Ml 2.1         5056929
MFF   001.86 273.2 m E Pg      2012/08/30 04:33:01.9  -0.5                          T                                        5056914
MFF   001.86 273.2 m E Sn      2012/08/30 04:33:21.0   0.1                          T                1.2  .18 Ml 2.2         5056928
VIVF  002.24 137.6 m E Pn      2012/08/30 04:33:04.0   0.3                          T                                        5056942
VIVF  002.24 137.6 m E Sg      2012/08/30 04:33:37.8  -0.5                          T                2.1  .22 Ml 2.2         5056943

.
EVENT     282245
    Date      Time       Latitude Longitude    Depth    Ndef Nsta Gap    Mag1  N    Mag2  N    Mag3  N   Author         ID
       rms   OT_Error      Smajor Sminor Az        Err   mdist  Mdist     Err        Err        Err      Quality

2012/08/30 08:18:08.3     47.8099    5.8821       .0 f    24   12 084  Ml 2.7  7  Md 2.5  3              bulletin    282345
                                                                                                         _ldg
      0.91   +-  0.08       1.9    1.3  142.38 +-  0.0    0.37   2.40   +-0.1      +-0.0                 m i km

FRANCE
Sta     Dist  EvAz     Phase      Date       Time     TRes  Azim  AzRes  Slow  SRes Def   SNR       Amp   Per   Mag1   Mag2       ID
HAU   000.37 057.8 m E Pg      2012/08/30 08:18:15.0  -0.8                          T                                        5057053
HAU   000.37 057.8 m E Sg      2012/08/30 08:18:21.0   0.2                          T              119.8  .68        Md 2.5  5057050
THEF  000.43 010.1 m E Pg      2012/08/30 08:18:16.4  -0.3                          T                                        5057052
THEF  000.43 010.1 m E Sg      2012/08/30 08:18:22.7   0.1                          T              117.8  .63        Md 2.5  5057091
HINF  000.65 089.0 m E Pg      2012/08/30 08:18:21.4   0.4                          T                                        5057051
HINF  000.65 089.0 m E Sg      2012/08/30 08:18:30.2   0.4                          T               29.7  .49        Md 2.5  5057057
SFTF  000.69 305.2 m E Pg      2012/08/30 08:18:21.6   0.0 124.3  -0.3              T                                        5057056
SFTF  000.69 305.2 m E Sn      2012/08/30 08:18:34.9   0.0 135.0  10.4              T               38.4  .44                5057122
PAGF  000.75 352.0 m E Pg      2012/08/30 08:18:23.3   0.5 168.0  -3.9              T                                        5057055
PAGF  000.75 352.0 m E Sn      2012/08/30 08:18:36.2  -0.2 176.0  4.1               T               25.0  .43                5057054
MEZF  000.89 321.6 m E P       2012/08/30 08:18:27.0  -0.2                          T                                        5062676
MEZF  000.89 321.6 m E Sn      2012/08/30 08:18:39.4  -0.1 142.1  1.1               T               33.6  .38 Ml 2.7         5062677
CDF   001.11 056.7 m E Pg      2012/08/30 08:18:29.7   0.2                          T                                        5062678
CDF   001.11 056.7 m E Sg      2012/08/30 08:18:44.4   0.2                          T               25.5  .50 Ml 2.7         5057059
CABF  001.21 173.3 m E Pg      2012/08/30 08:18:31.2  -0.1                          T                                        5057063
CABF  001.21 173.3 m E Sg      2012/08/30 08:18:47.5   0.3                          T               29.6  .52 Ml 2.7         5057062
LOR   001.47 249.2 m E Pn      2012/08/30 08:18:34.4  -0.2  74.9  7.2               T                                        5057061
LOR   001.47 249.2 m E Pg      2012/08/30 08:18:36.0  -0.1                          T                                        5062681
LOR   001.47 249.2 m E Sg      2012/08/30 08:18:55.8   0.4  70.7  3.0               T               22.4  .48 Ml 2.7         5057058
SSF   001.78 246.0 m E Pg      2012/08/30 08:18:41.8   0.2                          T                                        5062680
SSF   001.78 246.0 m E Sg      2012/08/30 08:19:05.0   0.2                          T               12.3  .36 Ml 2.8         5057105
SMF   001.81 230.8 m E Pg      2012/08/30 08:18:42.5   0.1                          T                                        5062675
SMF   001.81 230.8 m E Sg      2012/08/30 08:19:05.4  -0.6                          T               20.4  .42 Ml 2.8         5057103
GIVF  002.40 343.5 m E Sg      2012/08/30 08:19:24.2   0.1                          T               10.4  .40 Ml 2.7         5062679

.
EVENT     282255
    Date      Time       Latitude Longitude    Depth    Ndef Nsta Gap    Mag1  N    Mag2  N    Mag3  N   Author         ID
       rms   OT_Error      Smajor Sminor Az        Err   mdist  Mdist     Err        Err        Err      Quality

2012/08/30 08:47:53.0     44.5477    6.8679     10.0      20    7 059  Ml 1.6  4  Md 1.6  1              bulletin    282355
                                                                                                         _ldg
      0.30   +-  0.07       1.6    1.0   67.93 +-  0.0    0.17   1.24   +-0.2      +-                    m i ke

FRANCE
Sta     Dist  EvAz     Phase      Date       Time     TRes  Azim  AzRes  Slow  SRes Def   SNR       Amp   Per   Mag1   Mag2       ID
MBDF  000.19 339.0 m E Pg      2012/08/30 08:47:57.5   0.1                          T                                        5057151
MBDF  000.19 339.0 m E Sg      2012/08/30 08:48:00.4   0.2                          T                9.4  .20        Md 1.6  5057148
ORIF  000.80 298.1 m E Pg      2012/08/30 08:48:07.5  -0.6                          T                                        5057160
ORIF  000.80 298.1 m E Sg      2012/08/30 08:48:17.7  -0.9                          T                1.8  .24                5057159
SBF   000.80 149.0 m E Pn      2012/08/30 08:48:08.6  -0.2                          T                                        5057157
SBF   000.80 149.0 m E Sg      2012/08/30 08:48:18.7   0.1                          T                2.5  .25                5057158
LPG   000.95 355.1 m E Pg      2012/08/30 08:48:11.1  -0.2                          T                                        5057156
LPG   000.95 355.1 m E Sg      2012/08/30 08:48:23.8   0.1                          T                3.0  .26 Ml 1.9         5057155
LMR   001.24 192.2 m E Pg      2012/08/30 08:48:16.9   0.8                          T                                        5057150
LMR   001.24 192.2 m E Sg      2012/08/30 08:48:33.3   1.1                          T                1.2  .21 Ml 1.7         5057149
LPL   000.97 354.4 m E Sg      2012/08/30 08:48:24.2   0.0                          T                1.4  .36 Ml 1.4         5062682
SMRF  001.09 238.8 m E Sg      2012/08/30 08:48:27.8   0.2                          T                 .9  .25 Ml 1.4         5062683

.
EVENT     282256
    Date      Time       Latitude Longitude    Depth    Ndef Nsta Gap    Mag1  N    Mag2  N    Mag3  N   Author         ID
       rms   OT_Error      Smajor Sminor Az        Err   mdist  Mdist     Err        Err        Err      Quality

2012/08/30 09:21:04.3     44.2815    7.5077       .0 f    17    6 166  Ml 2.1  4  Md 2.0  3              bulletin    282356
                                                                                                         _ldg
      0.32   +-  0.15       3.6    1.6   63.98 +-  0.0    0.14   1.50   +-0.3      +-0.1                 m i km

NORTHERN ITALY
Sta     Dist  EvAz     Phase      Date       Time     TRes  Azim  AzRes  Slow  SRes Def   SNR       Amp   Per   Mag1   Mag2       ID
SBF   000.42 187.1 m E Pg      2012/08/30 09:21:12.4  -0.3                          T                                        5057173
SBF   000.42 187.1 m E Sg      2012/08/30 09:21:18.4   0.0                          T               58.1  .50        Md 2.0  5057177
MBDF  000.69 310.5 m E Pg      2012/08/30 09:21:17.3  -0.5                          T                                        5057171
MBDF  000.69 310.5 m E Sg      2012/08/30 09:21:27.0   0.1                          T               19.9  .70        Md 2.0  5057174
LMR   001.19 217.7 m E Pn      2012/08/30 09:21:26.5  -0.2                          T                                        5057172
LMR   001.19 217.7 m E Sg      2012/08/30 09:21:42.0  -0.4                          T                7.4  .39 Ml 2.2 Md 2.1  5057176
SMRF  001.42 258.3 m E Pg      2012/08/30 09:21:31.6   0.5                          T                                        5057170
SMRF  001.42 258.3 m E Sg      2012/08/30 09:21:49.3  -0.5                          T               13.0  .56 Ml 2.4         5057175
ORIF  001.33 299.3 m E Sg      2012/08/30 09:21:46.6  -0.1                          T                3.5  .37 Ml 1.9         5062685
LPG   001.33 336.4 m E Sg      2012/08/30 09:21:47.3   0.2                          T                2.0  .34 Ml 1.7         5062684

.
EVENT     282364
    Date      Time       Latitude Longitude    Depth    Ndef Nsta Gap    Mag1  N    Mag2  N    Mag3  N   Author         ID
       rms   OT_Error      Smajor Sminor Az        Err   mdist  Mdist     Err        Err        Err      Quality

2012/08/30 14:46:01.2     48.2167    9.0022     10.0      25    6 060  Ml 2.2  6  Md 2.3  1              bulletin    282464
                                                                                                         _ldg
      0.31   +-  0.07       1.5    1.0  120.64 +-  0.0    0.16   3.60   +-0.2      +-                    m i ke

GERMANY
Sta     Dist  EvAz     Phase      Date       Time     TRes  Azim  AzRes  Slow  SRes Def   SNR       Amp   Per   Mag1   Mag2       ID
LANF  001.10 314.3 m E Pn      2012/08/30 14:46:21.3   0.2                          T                                        5059421
LANF  001.10 314.3 m E Sn      2012/08/30 14:46:35.1  -0.4                          T                3.8  .18 Ml 2.2 Md 2.3  5059420
CDF   001.17 280.3 m E Pn      2012/08/30 14:46:22.3   0.2                          T                                        5059409
CDF   001.17 280.3 m E Sn      2012/08/30 14:46:37.1  -0.1                          T                4.5  .22 Ml 2.3         5059422
HINF  001.50 255.3 m E Pn      2012/08/30 14:46:26.4  -0.1                          T                                        5059417
HINF  001.50 255.3 m E Sn      2012/08/30 14:46:44.7  -0.2                          T                2.1  .26 Ml 1.9         5059416
SFTF  002.65 271.2 m E Pn      2012/08/30 14:46:42.2   0.0                          T                                        5059415
SFTF  002.65 271.2 m E Pg      2012/08/30 14:46:50.5   0.1                          T                                        5059414
SFTF  002.65 271.2 m E Sn      2012/08/30 14:47:12.1  -0.4                          T                6.2  .44 Ml 2.5         5059413
MEZF  002.65 277.7 m E Pn      2012/08/30 14:46:42.2   0.0                          T                                        5059412
MEZF  002.65 277.7 m E Pg      2012/08/30 14:46:50.7   0.3                          T                                        5059411
MEZF  002.65 277.7 m E Sn      2012/08/30 14:47:12.3  -0.1                          T                4.2  .30 Ml 2.5         5059410
LOR   003.60 256.6 m E Pn      2012/08/30 14:46:55.0  -0.1                          T                                        5059419
LOR   003.60 256.6 m E Sn      2012/08/30 14:47:35.1   0.0                          T                 .7  .21 Ml 2.1         5059418

.
EVENT     282295
    Date      Time       Latitude Longitude    Depth    Ndef Nsta Gap    Mag1  N    Mag2  N    Mag3  N   Author         ID
       rms   OT_Error      Smajor Sminor Az        Err   mdist  Mdist     Err        Err        Err      Quality

2012/08/30 22:07:57.8     49.3878   -2.3722      4.0 f    19    6 266  Ml 2.5  7  Md 1.9  2              bulletin    282395
                                                                                                         _ldg
      0.64   +-  0.30       6.0    2.4  161.78 +-  0.0    1.14   1.68   +-0.2      +-0.2                 m i ke

FRANCE
Sta     Dist  EvAz     Phase      Date       Time     TRes  Azim  AzRes  Slow  SRes Def   SNR       Amp   Per   Mag1   Mag2       ID
ROSF  001.21 209.8 m E Pn      2012/08/30 22:08:19.0  -0.8                          T                                        5058263
ROSF  001.21 209.8 m E Pg      2012/08/30 22:08:19.8  -0.6                          T                                        5062691
ROSF  001.21 209.8 m E Sg      2012/08/30 22:08:35.8  -0.3                          T               15.5  .21 Ml 2.8 Md 1.8  5058258
SGMF  001.14 186.2 m E Pn      2012/08/30 22:08:19.1   0.2                          T                                        5058262
SGMF  001.14 186.2 m E Pg      2012/08/30 22:08:19.6   0.5                          T                                        5062690
SGMF  001.14 186.2 m E Sg      2012/08/30 22:08:34.1   0.1                          T                9.7  .35 Ml 2.3 Md 2.1  5058259
FLN   001.39 116.0 m E Pn      2012/08/30 22:08:22.7   0.4 293.4  -4.0              T                                        5058253
FLN   001.39 116.0 m E Pg      2012/08/30 22:08:23.9   0.2                          T                                        5062688
FLN   001.39 116.0 m E Sg      2012/08/30 22:08:41.1  -0.6 294.0  -3.5              T                 10  .24 Ml 2.5         5058252
GRR   001.41 134.5 m E Pg      2012/08/30 22:08:23.9  -0.2                          T                                        5062686
GRR   001.41 134.5 m E Sg      2012/08/30 22:08:41.9  -0.5                          T                7.8  .20 Ml 2.5         5058256
QUIF  001.56 200.0 m E Pn      2012/08/30 22:08:24.8   0.1                          T                                        5058261
QUIF  001.56 200.0 m E Pg      2012/08/30 22:08:27.5   0.6                          T                                        5062689
QUIF  001.56 200.0 m E Sg      2012/08/30 22:08:47.2   0.1                          T                5.3  .19 Ml 2.5         5058260
LDF   001.68 117.4 m E Pn      2012/08/30 22:08:26.6   0.3                          T                                        5058255
LDF   001.68 117.4 m E Pg      2012/08/30 22:08:28.8  -0.3                          T                                        5062687
LDF   001.68 117.4 m E Sg      2012/08/30 22:08:50.3  -0.5                          T                2.9  .24 Ml 2.2         5058254

.
EVENT     282318
    Date      Time       Latitude Longitude    Depth    Ndef Nsta Gap    Mag1  N    Mag2  N    Mag3  N   Author         ID
       rms   OT_Error      Smajor Sminor Az        Err   mdist  Mdist     Err        Err        Err      Quality

2012/08/31 00:39:07.9     43.0561    -.3728      2.0       6    3 177             Md 1.3  3              bulletin    282418
                                                                                                         _ldg
      0.21   +-  0.12       4.7    1.9  173.79 +-  0.0    0.21   0.63              +-0.2                 m i ke

PYRENEES
Sta     Dist  EvAz     Phase      Date       Time     TRes  Azim  AzRes  Slow  SRes Def   SNR       Amp   Per   Mag1   Mag2       ID
ETSF  000.21 221.0 m E Pg      2012/08/31 00:39:12.1  -0.1                          T                                        5058402
ETSF  000.21 221.0 m E Sg      2012/08/31 00:39:15.3   0.2                          T                3.3  .22        Md 1.3  5058400
EPF   000.52 092.6 m E Pg      2012/08/31 00:39:17.8  -0.2                          T                                        5058401
EPF   000.52 092.6 m E Sg      2012/08/31 00:39:25.4   0.5                          T                1.4  .20        Md 1.4  5058399
SJPF  000.63 275.5 m E Pg      2012/08/31 00:39:19.8   0.0                          T                                        5058404
SJPF  000.63 275.5 m E Sg      2012/08/31 00:39:28.1   0.1                          T                 .8  .29        Md 1.0  5058403

.
