EVENT     255898
    Date      Time       Latitude Longitude    Depth    Ndef Nsta Gap    Mag1  N    Mag2  N    Mag3  N   Author         ID
       rms   OT_Error      Smajor Sminor Az        Err   mdist  Mdist     Err        Err        Err      Quality

2011/02/11 06:10:23.8     45.2926    6.4543      2.0      26   12 108  Ml 2.3  9  Md 2.1  3              js067245    255918

      0.78   +-  0.09       1.9    1.5   72.73 +-  0.0    0.29   2.82   +-0.2      +-0.0                 m i ke

FRANCE
Sta     Dist  EvAz     Phase      Date       Time     TRes  Azim  AzRes  Slow  SRes Def   SNR       Amp   Per   Mag1   Mag2       ID
LPL   000.30 041.1 m E Pg      2011/02/11 06:10:29.6  -0.3                          T                                        4645954
LPL   000.30 041.1 m E Sg      2011/02/11 06:10:33.9  -0.1                          T               18.4  .22        Md 2.1  4645948
LPG   000.29 045.5 m E Pg      2011/02/11 06:10:29.6  -0.3                          T                                        4645953
LPG   000.29 045.5 m E Sg      2011/02/11 06:10:33.5  -0.4                          T               31.0  .42        Md 2.2  4645947
ORIF  000.55 227.6 m E Pg      2011/02/11 06:10:34.0  -0.4                          T                                        4645952
ORIF  000.55 227.6 m E Sg      2011/02/11 06:10:40.4  -1.3                          T               23.2  .30        Md 2.1  4645946
MBDF  000.61 158.2 m E Pg      2011/02/11 06:10:35.3  -0.3                          T                                        4645951
MBDF  000.61 158.2 m E Sg      2011/02/11 06:10:45.1   1.6                          T                5.4  .16                4645945
VIVF  001.34 251.6 m E Pg      2011/02/11 06:10:49.6   0.8                          T                                        4645950
VIVF  001.34 251.6 m E Sg      2011/02/11 06:11:06.0   0.0                          T               11.4  .26 Ml 2.6         4645944
CABF  001.34 349.1 m E Pg      2011/02/11 06:10:49.6   0.6                          T                                        4645949
CABF  001.34 349.1 m E Sg      2011/02/11 06:11:06.4   0.0                          T                2.9  .23 Ml 2.1         4645939
SBF   001.59 153.5 m E Pg      2011/02/11 06:10:53.7   0.1                          T                                        4645929
SBF   001.59 153.5 m E Sg      2011/02/11 06:11:14.8   0.7                          T               11.5  .50 Ml 2.4         4645932
FRF   001.74 175.4 m E Pg      2011/02/11 06:10:56.2   0.0                          T                                        4645931
FRF   001.74 175.4 m E Sg      2011/02/11 06:11:18.7   0.1                          T                2.1  .22 Ml 2.2         4645934
LMR   001.96 178.8 m E Pg      2011/02/11 06:11:00.3   0.1                          T                                        4645930
LMR   001.96 178.8 m E Sg      2011/02/11 06:11:25.5   0.0                          T                1.3  .22 Ml 2.0         4645933
SMF   002.27 307.5 m E Pg      2011/02/11 06:11:05.8  -0.2                          T                                        4645941
SMF   002.27 307.5 m E Sg      2011/02/11 06:11:35.1  -0.1                          T                4.7  .35 Ml 2.4         4645937
AVF   002.63 305.8 m E Pg      2011/02/11 06:11:12.5  -0.1                          T                                        4645940
AVF   002.63 305.8 m E Sg      2011/02/11 06:11:46.3  -0.1                          T                4.7  .40 Ml 2.4         4645938
BGF   002.82 298.0 m E Pg      2011/02/11 06:11:16.5   0.4                          T                                        4645942
BGF   002.82 298.0 m E Sg      2011/02/11 06:11:52.2  -0.1                          T                3.7  .29 Ml 2.5         4645936

.
EVENT     255899
    Date      Time       Latitude Longitude    Depth    Ndef Nsta Gap    Mag1  N    Mag2  N    Mag3  N   Author         ID
       rms   OT_Error      Smajor Sminor Az        Err   mdist  Mdist     Err        Err        Err      Quality

2011/02/11 06:56:37.6     45.4391    6.6518      2.0      12    5 123  Ml 1.1  1  Md 1.2  3              js067245    255919

      0.34   +-  0.03       1.0     .5  118.95 +-  0.0    0.09   1.24   +-         +-0.2                 m i ke

FRANCE
Sta     Dist  EvAz     Phase      Date       Time     TRes  Azim  AzRes  Slow  SRes Def   SNR       Amp   Per   Mag1   Mag2       ID
LPG   000.09 050.1 m E Pg      2011/02/11 06:56:40.0   0.0                          T                                        4645963
LPG   000.09 050.1 m E Sg      2011/02/11 06:56:41.3  -0.1                          T               22.0  .20        Md 1.3  4645960
LPL   000.10 036.3 m E Pg      2011/02/11 06:56:40.0   0.0                          T                                        4645964
LPL   000.10 036.3 m E Sg      2011/02/11 06:56:41.2  -0.2                          T               12.0  .18        Md 1.4  4645961
MBDF  000.72 173.2 m E Pg      2011/02/11 06:56:51.4   0.1                          T                                        4645958
MBDF  000.72 173.2 m E Sg      2011/02/11 06:57:00.7   0.0                          T                 .9  .27        Md  .9  4645959
ORIF  000.75 226.6 m E Pg      2011/02/11 06:56:51.9   0.0                          T                                        4645957
ORIF  000.75 226.6 m E Sg      2011/02/11 06:57:01.6  -0.2                          T                1.4  .27                4645962
CABF  001.24 341.7 m E Pg      2011/02/11 06:57:00.9   0.1                          T                                        4645956
CABF  001.24 341.7 m E Sg      2011/02/11 06:57:16.8   0.0                          T                 .4  .25 Ml 1.1         4645955

.
EVENT     255929
    Date      Time       Latitude Longitude    Depth    Ndef Nsta Gap    Mag1  N    Mag2  N    Mag3  N   Author         ID
       rms   OT_Error      Smajor Sminor Az        Err   mdist  Mdist     Err        Err        Err      Quality

2011/02/11 15:40:04.0     51.5598    6.7130      1.0 f    59   17 296  Ml 3.0 17  Md 3.0  2              js067245    255949

      0.59   +-  0.19       3.3    3.1   72.96 +-  0.0    1.05   5.61   +-0.3      +-0.4                 m i sr

GERMANY
Sta     Dist  EvAz     Phase      Date       Time     TRes  Azim  AzRes  Slow  SRes Def   SNR       Amp   Per   Mag1   Mag2       ID
RUP   001.87 173.1 m E Pn      2011/02/11 15:40:35.7   0.2                          T                                        4646048
RUP   001.87 173.1 m E Pg      2011/02/11 15:40:39.2   0.2                          T                                        4646059
RUP   001.87 173.1 m E Sn      2011/02/11 15:40:58.5   0.1                          T                                Md 3.3  4646043
GIVF  001.89 220.1 m E Pn      2011/02/11 15:40:36.1   0.4                          T                                        4646049
GIVF  001.89 220.1 m E Sn      2011/02/11 15:40:59.3   0.6                          T               47.0  .36 Ml 3.3 Md 2.8  4646045
BAIF  002.19 227.6 m E Pn      2011/02/11 15:40:40.2   0.5                          T                                        4646089
BAIF  002.19 227.6 m E Pg      2011/02/11 15:40:45.3   0.7                          T                                        4646060
BAIF  002.19 227.6 m E Sn      2011/02/11 15:41:06.7   0.9                          T               22.1  .54 Ml 2.9         4646044
LANF  002.68 164.4 m E Pn      2011/02/11 15:40:46.5   0.1                          T                                        4646088
LANF  002.68 164.4 m E Pg      2011/02/11 15:40:53.6   0.0                          T                                        4646056
LANF  002.68 164.4 m E Sg      2011/02/11 15:41:27.8  -0.3                          T               20.1  .53 Ml 2.9         4646065
PAGF  003.07 192.3 m E Pn      2011/02/11 15:40:52.0   0.2                          T                                        4646086
PAGF  003.07 192.3 m E Pg      2011/02/11 15:41:01.3   0.3                          T                                        4646057
PAGF  003.07 192.3 m E Sg      2011/02/11 15:41:40.6   0.0  15.4  3.8               T                3.7  .42 Ml 2.4         4646067
CDF   003.17 173.2 m E Pn      2011/02/11 15:40:53.2   0.0                          T                                        4646087
CDF   003.17 173.2 m E Pg      2011/02/11 15:41:02.7  -0.2                          T                                        4646058
CDF   003.17 173.2 m E Sn      2011/02/11 15:41:29.5   0.1                          T                                        4646091
CDF   003.17 173.2 m E Sg      2011/02/11 15:41:43.2  -0.5                          T                9.6  .66 Ml 2.7         4646066
MEZF  003.24 199.9 m E Pn      2011/02/11 15:40:54.3   0.3  16.3  -2.3              T                                        4646085
MEZF  003.24 199.9 m E Pg      2011/02/11 15:41:04.4   0.3                          T                                        4646055
MEZF  003.24 199.9 m E Sg      2011/02/11 15:41:45.9   0.2                          T               13.4  .40 Ml 3.0         4646068
THEF  003.37 188.2 m E Pn      2011/02/11 15:40:56.2   0.4                          T                                        4646083
THEF  003.37 188.2 m E Pg      2011/02/11 15:41:06.5   0.1                          T                                        4646053
THEF  003.37 188.2 m E Sg      2011/02/11 15:41:49.7   0.1                          T               18.2  .23 Ml 3.4         4646070
HAU   003.57 183.9 m E Pn      2011/02/11 15:40:58.6   0.1                          T                                        4646082
SFTF  003.53 198.5 m E Pn      2011/02/11 15:40:58.6   0.7                          T                                        4646084
SFTF  003.53 198.5 m E Pg      2011/02/11 15:41:09.6   0.2                          T                                        4646054
HAU   003.57 183.9 m E Pg      2011/02/11 15:41:09.7  -0.4                          T                                        4646052
SFTF  003.53 198.5 m E Sn      2011/02/11 15:41:38.4   0.5                          T                                        4646090
SFTF  003.53 198.5 m E Sg      2011/02/11 15:41:54.7   0.0                          T               11.5  .39 Ml 3.0         4646069
HAU   003.57 183.9 m E Sg      2011/02/11 15:41:55.9   0.0                          T               12.6  .44 Ml 2.8         4646071
HINF  003.75 178.6 m E Pn      2011/02/11 15:41:01.1   0.0                          T                                        4646081
HINF  003.75 178.6 m E Pg      2011/02/11 15:41:13.4  -0.1                          T                                        4646051
HINF  003.75 178.6 m E Sg      2011/02/11 15:42:01.5  -0.1                          T                4.2  .38 Ml 2.6         4646072
LOR   004.68 204.5 m E Pn      2011/02/11 15:41:13.5  -0.2  32.7  10.3              T                                        4646047
LOR   004.68 204.5 m E Pg      2011/02/11 15:41:30.3  -0.3  30.6  8.2               T                                        4646062
LOR   004.68 204.5 m E Sn      2011/02/11 15:42:05.3  -0.2                          T                                        4646093
LOR   004.68 204.5 m E Sg      2011/02/11 15:42:30.6  -0.1                          T               15.4  .74 Ml 3.1         4646063
SSF   004.97 206.2 m E Pn      2011/02/11 15:41:17.2  -0.3                          T                                        4646046
SSF   004.97 206.2 m E Pg      2011/02/11 15:41:35.6  -0.3                          T                                        4646061
SSF   004.97 206.2 m E Sn      2011/02/11 15:42:12.4   0.1                          T                                        4646092
SSF   004.97 206.2 m E Sg      2011/02/11 15:42:38.7  -0.9                          T               16.2  .72 Ml 3.3         4646064
CABF  004.97 185.0 m E Pn      2011/02/11 15:41:18.1   0.3                          T                                        4646080
CABF  004.97 185.0 m E Pg      2011/02/11 15:41:36.3   0.2                          T                                        4646050
CABF  004.97 185.0 m E Sg      2011/02/11 15:42:39.8   0.0                          T               10.9  .69 Ml 3.1         4646073
AVF   005.26 206.1 m E Pn      2011/02/11 15:41:20.7  -0.8                          T                                        4646079
AVF   005.26 206.1 m E Sg      2011/02/11 15:42:49.0   0.4                          T                3.0  .41 Ml 2.8         4646074
SMF   005.27 202.1 m E Pn      2011/02/11 15:41:21.0  -0.6                          T                                        4646078
SMF   005.27 202.1 m E Sg      2011/02/11 15:42:49.2   0.2                          T                3.9  .41 Ml 2.9         4646075
BGF   005.61 208.4 m E Pn      2011/02/11 15:41:25.4  -0.9                          T                                        4646077
BGF   005.61 208.4 m E Sg      2011/02/11 15:43:00.0   0.3                          T               13.3  .46 Ml 3.5         4646076

.
EVENT     255938
    Date      Time       Latitude Longitude    Depth    Ndef Nsta Gap    Mag1  N    Mag2  N    Mag3  N   Author         ID
       rms   OT_Error      Smajor Sminor Az        Err   mdist  Mdist     Err        Err        Err      Quality

2011/02/11 18:30:27.1     37.0404   -4.8091      2.0      71    4 096  Ml 2.5  4                         js067245    255958

      0.96   +-  0.15       3.4    1.9    2.66 +-  0.0    0.48   7.17   +-0.3                            m i ke

SPAIN
Sta     Dist  EvAz     Phase      Date       Time     TRes  Azim  AzRes  Slow  SRes Def   SNR       Amp   Per   Mag1   Mag2       ID
EVOP  003.02 300.5 m E Pn      2011/02/11 18:31:13.8  -0.1                          T                                        4646106
EVOP  003.02 300.5 m E Pg      2011/02/11 18:31:22.7  -0.3                          T                                        4646107
EVOP  003.02 300.5 m E Sn      2011/02/11 18:31:48.6   0.0                          T                                        4646105
EVOP  003.02 300.5 m E Sg      2011/02/11 18:32:01.7   0.0                          T               13.6  .48 Ml 2.9         4646104
SJPF  006.66 023.3 m E Pn      2011/02/11 18:32:03.2  -0.4                          T                                        4646103
SJPF  006.66 023.3 m E Sn      2011/02/11 18:33:15.7   0.1                          T                 .7  .34 Ml 2.5         4646100
ETSF  006.70 027.8 m E Pn      2011/02/11 18:32:04.2   0.0                          T                                        4646102
ETSF  006.70 027.8 m E Sn      2011/02/11 18:33:16.8   0.1                          T                 .3  .34 Ml 2.2         4646099
EPF   007.17 031.8 m E Pn      2011/02/11 18:32:10.4  -0.2                          T                                        4646101
EPF   007.17 031.8 m E Sn      2011/02/11 18:33:27.8   0.0                          T                 .7  .34 Ml 2.6         4646098

.
EVENT     255939
    Date      Time       Latitude Longitude    Depth    Ndef Nsta Gap    Mag1  N    Mag2  N    Mag3  N   Author         ID
       rms   OT_Error      Smajor Sminor Az        Err   mdist  Mdist     Err        Err        Err      Quality

2011/02/12 06:12:25.1     47.6490   -3.8555      5.0 f    11    4 320  Ml 2.0  2  Md 2.0  3              js067245    255959

      1.16   +-  0.83      13.1   12.3   49.37 +-  0.0    0.54   2.14   +-0.0      +-0.0                 m i ke

FRANCE
Sta     Dist  EvAz     Phase      Date       Time     TRes  Azim  AzRes  Slow  SRes Def   SNR       Amp   Per   Mag1   Mag2       ID
QUIF  000.54 059.8 m E Pg      2011/02/12 06:12:35.5   0.2                          T                                        4646117
QUIF  000.54 059.8 m E Sg      2011/02/12 06:12:43.3   0.9                          T                5.7  .20        Md 2.0  4646112
ROSF  000.79 029.4 m E Pg      2011/02/12 06:12:39.9  -0.1                          T                                        4646116
ROSF  000.79 029.4 m E Sg      2011/02/12 06:12:49.1  -1.3                          T                3.1  .25        Md 2.0  4646113
SGMF  001.06 054.8 m E Pg      2011/02/12 06:12:45.2   0.2                          T                                        4649290
SGMF  001.06 054.8 m E Pn      2011/02/12 06:12:46.2   1.2                          T                                        4646115
SGMF  001.06 054.8 m E Sg      2011/02/12 06:12:59.1   0.2                          T                3.0  .22 Ml 2.0 Md 2.0  4646114
GRR   002.14 068.7 m E Pn      2011/02/12 06:12:58.6  -1.2                          T                                        4646110
GRR   002.14 068.7 m E Sg      2011/02/12 06:13:33.0   0.4                          T                1.7  .23 Ml 2.0         4646111

.
