EVENT     263613
    Date      Time       Latitude Longitude    Depth    Ndef Nsta Gap    Mag1  N    Mag2  N    Mag3  N   Author         ID
       rms   OT_Error      Smajor Sminor Az        Err   mdist  Mdist     Err        Err        Err      Quality

2011/08/11 19:51:09.0     46.5981    8.7500      4.0 f    12    4 175  Ml 2.0  4                         js067245    263613

      0.13   +-  0.06       1.3     .7   75.08 +-  0.0    0.16   2.16   +-0.1                            m i ke

SWITZERLAND
Sta     Dist  EvAz     Phase      Date       Time     TRes  Azim  AzRes  Slow  SRes Def   SNR       Amp   Per   Mag1   Mag2       ID
HINF  001.78 314.0 m E Pn      2011/08/11 19:51:38.8   0.0                          T                                        4745422
HINF  001.78 314.0 m E Pg      2011/08/11 19:51:42.3   0.1                          T                                        4745421
HINF  001.78 314.0 m E Sg      2011/08/11 19:52:04.7  -0.4                          T                2.5  .22 Ml 2.2         4745423
CDF   002.07 331.7 m E Pn      2011/08/11 19:51:43.0   0.1                          T                                        4745425
CDF   002.07 331.7 m E Pg      2011/08/11 19:51:47.8   0.2                          T                                        4745424
CDF   002.07 331.7 m E Sn      2011/08/11 19:52:07.4  -0.3                          T                                        4745426
CDF   002.07 331.7 m E Sg      2011/08/11 19:52:14.4   0.0                          T                1.2  .30 Ml 1.9         4745427
CABF  001.84 271.4 m E Pg      2011/08/11 19:51:43.4   0.1                          T                                        4745419
CABF  001.84 271.4 m E Sg      2011/08/11 19:52:07.1   0.1                          T                2.1  .32 Ml 2.0         4745420
HAU   002.16 311.6 m E Sg      2011/08/11 19:52:16.9  -0.1                          T                2.4  .30 Ml 1.9         4745418

.
EVENT     262463
    Date      Time       Latitude Longitude    Depth    Ndef Nsta Gap    Mag1  N    Mag2  N    Mag3  N   Author         ID
       rms   OT_Error      Smajor Sminor Az        Err   mdist  Mdist     Err        Err        Err      Quality

2011/08/11 20:42:24.7     44.1730   12.0510     10.0 f    29    9 115  Ml 2.6  7  Md 2.6  2              js067245    262463

      0.56   +-  0.11       2.7    2.2  112.25 +-  0.0    0.31   7.17   +-0.2      +-0.1                 m i ke

NORTHERN ITALY
Sta     Dist  EvAz     Phase      Date       Time     TRes  Azim  AzRes  Slow  SRes Def   SNR       Amp   Per   Mag1   Mag2       ID
PGF   002.75 234.9 m E Pn      2011/08/11 20:43:07.7   0.5                          T                                        4735610
PGF   002.75 234.9 m E Sn      2011/08/11 20:43:39.2   0.6                          T                5.1  .43 Ml 2.7 Md 2.5  4735604
SBF   003.34 266.3 m E Pn      2011/08/11 20:43:16.2   1.0                          T                                        4735609
SBF   003.34 266.3 m E Sn      2011/08/11 20:43:53.3   0.7                          T                3.5  .29 Ml 2.6 Md 2.6  4735605
FRF   003.96 263.0 m E Pn      2011/08/11 20:43:24.0   0.5                          T                                        4735607
FRF   003.96 263.0 m E Sn      2011/08/11 20:44:07.9   0.8                          T                 .9  .21 Ml 2.3         4735603
LMR   004.10 260.1 m E Pn      2011/08/11 20:43:26.0   0.6                          T                                        4735608
LMR   004.10 260.1 m E Sn      2011/08/11 20:44:10.9   0.3                          T                  1  .26 Ml 2.3         4735606
HINF  005.14 317.0 m E Pn      2011/08/11 20:43:40.3   0.7                          T                                        4735601
HINF  005.14 317.0 m E Sn      2011/08/11 20:44:35.4   0.0                          T                2.0  .34 Ml 2.7         4735598
CDF   005.38 323.7 m E Pn      2011/08/11 20:43:42.7  -0.3                          T                                        4735599
CDF   005.38 323.7 m E Sn      2011/08/11 20:44:40.5  -0.7                          T                1.0  .25 Ml 2.7         4740554
HAU   005.52 316.0 m E Pn      2011/08/11 20:43:44.7   0.0                          T                                        4735600
LOR   006.52 301.2 m E Pn      2011/08/11 20:43:58.6   0.3                          T                                        4740553
LOR   006.52 301.2 m E Sn      2011/08/11 20:45:08.6   0.2                          T                 .9  .28 Ml 2.7         4740552
MTLF  007.17 266.8 m E Pn      2011/08/11 20:44:08.2   1.0                          T                                        4735602

.
EVENT     262464
    Date      Time       Latitude Longitude    Depth    Ndef Nsta Gap    Mag1  N    Mag2  N    Mag3  N   Author         ID
       rms   OT_Error      Smajor Sminor Az        Err   mdist  Mdist     Err        Err        Err      Quality

2011/08/11 22:23:15.6     45.3428    5.7817      6.0 f    11    5 196  Ml 1.6  3  Md 1.6  2              js067245    262464

      0.45   +-  0.22       4.2    2.3  136.80 +-  0.0    0.43   1.89   +-0.2      +-0.4                 m i ke

FRANCE
Sta     Dist  EvAz     Phase      Date       Time     TRes  Azim  AzRes  Slow  SRes Def   SNR       Amp   Per   Mag1   Mag2       ID
ORIF  000.43 170.7 m E Pg      2011/08/11 22:23:24.2   0.1                          T                                        4735682
ORIF  000.43 170.7 m E Sg      2011/08/11 22:23:29.4  -0.4                          T                6.5  .24        Md 1.8  4735677
LPL   000.69 075.1 m E Pn      2011/08/11 22:23:30.7   0.0                          T                                        4740556
LPL   000.69 075.1 m E Sg      2011/08/11 22:23:38.3   0.2                          T                 .9  .26        Md 1.3  4740555
SMRF  001.37 186.2 m E Pg      2011/08/11 22:23:41.3  -0.1                          T                                        4735681
SMRF  001.37 186.2 m E Sg      2011/08/11 22:23:59.9   0.7                          T                 .6  .24 Ml 1.4         4735678
VIVF  000.92 238.6 m E Sg      2011/08/11 22:23:44.5  -0.6                          T                1.6  .32 Ml 1.5         4740557
FRF   001.89 160.5 m E Pg      2011/08/11 22:23:50.4  -0.3                          T                                        4735680
FRF   001.89 160.5 m E Sn      2011/08/11 22:24:09.4   0.0                          T                 .8  .19 Ml 1.8         4735679

.
EVENT     262465
    Date      Time       Latitude Longitude    Depth    Ndef Nsta Gap    Mag1  N    Mag2  N    Mag3  N   Author         ID
       rms   OT_Error      Smajor Sminor Az        Err   mdist  Mdist     Err        Err        Err      Quality

2011/08/12 02:08:54.1     44.2934    4.3882      6.0 f    20   10 118  Ml 1.5  7  Md 1.8  2              js067245    262465

      0.29   +-  0.07       1.7    1.1  153.26 +-  0.0    0.44   3.20   +-0.2      +-0.0                 m i ke

FRANCE
Sta     Dist  EvAz     Phase      Date       Time     TRes  Azim  AzRes  Slow  SRes Def   SNR       Amp   Per   Mag1   Mag2       ID
LASF  000.44 240.6 m E Pg      2011/08/12 02:09:02.9   0.2                          T                                        4735725
LASF  000.44 240.6 m E Sg      2011/08/12 02:09:08.7   0.2                          T                4.9  .20        Md 1.9  4735721
VIVF  000.60 019.8 m E Pg      2011/08/12 02:09:05.7   0.2                          T                                        4735724
VIVF  000.60 019.8 m E Pn      2011/08/12 02:09:07.4  -0.3                          T                                        4740798
VIVF  000.60 019.8 m E Sg      2011/08/12 02:09:13.7   0.3                          T                6.0  .24                4735720
VIVF  000.60 019.8 m E Sn      2011/08/12 02:09:16.5  -0.6                          T                                Md 1.8  4745407
SMRF  000.91 110.0 m E Pn      2011/08/12 02:09:12.1   0.2                          T                                        4735711
SMRF  000.91 110.0 m E Sg      2011/08/12 02:09:22.9  -0.3                          T                1.4  .24 Ml 1.5         4735712
ORIF  001.24 059.1 m E Pn      2011/08/12 02:09:16.4   0.0                          T                                        4745409
ORIF  001.24 059.1 m E Sn      2011/08/12 02:09:32.4   0.0                          T                 .9  .34 Ml 1.3         4745408
MTLF  001.84 239.5 m E Pn      2011/08/12 02:09:24.7   0.3                          T                                        4740797
MTLF  001.84 239.5 m E Pg      2011/08/12 02:09:28.5   0.2                          T                                        4735723
MTLF  001.84 239.5 m E Sg      2011/08/12 02:09:51.2  -0.8                          T                 .9  .23 Ml 1.7         4735722
CAF   001.78 291.7 m E Sg      2011/08/12 02:09:50.1   0.0                          T                 .7  .29 Ml 1.6         4735716
FRF   001.79 113.4 m E Sg      2011/08/12 02:09:50.2  -0.3                          T                 .2  .17 Ml 1.3         4735717
LMR   001.81 121.3 m E Sg      2011/08/12 02:09:51.1  -0.1                          T                                        4735718
TCF   002.52 323.1 m E Sg      2011/08/12 02:10:13.3   0.1                          T                 .1  .16 Ml 1.3         4735713
EPF   003.20 248.1 m E Sg      2011/08/12 02:10:33.9  -0.6                          T                 .5  .23 Ml 1.8         4735719

.
EVENT     262487
    Date      Time       Latitude Longitude    Depth    Ndef Nsta Gap    Mag1  N    Mag2  N    Mag3  N   Author         ID
       rms   OT_Error      Smajor Sminor Az        Err   mdist  Mdist     Err        Err        Err      Quality

2011/08/12 09:07:32.6     43.0976   -1.4065      8.0 f    73   10 060  Ml 2.5  6  Md 2.6  2              js067245    262487

      0.47   +-  0.07       1.4    1.0  104.41 +-  0.0    0.13   4.73   +-0.4      +-0.1                 m i ke

PYRENEES
Sta     Dist  EvAz     Phase      Date       Time     TRes  Azim  AzRes  Slow  SRes Def   SNR       Amp   Per   Mag1   Mag2       ID
SJPF  000.13 083.2 m E Pg      2011/08/12 09:07:35.7  -0.1                          T                                        4738102
SJPF  000.13 083.2 m E Sg      2011/08/12 09:07:38.1   0.1                          T                                Md 2.7  4738095
ETSF  000.65 107.5 m E Pg      2011/08/12 09:07:44.5  -0.6                          T                                        4738101
ETSF  000.65 107.5 m E Sg      2011/08/12 09:07:52.5  -1.3                          T               49.2  .22        Md 2.5  4738094
EPF   001.28 092.4 m E Pg      2011/08/12 09:07:56.3  -0.3                          T                                        4738100
EPF   001.28 092.4 m E Sg      2011/08/12 09:08:12.9  -0.4                          T               26.3  .30 Ml 2.9         4738093
LFF   002.41 039.3 m E Pn      2011/08/12 09:08:11.0   0.5                          T                                        4741080
LFF   002.41 039.3 m E Pg      2011/08/12 09:08:16.8  -0.5                          T                                        4738090
MTLF  002.66 083.5 m E Pn      2011/08/12 09:08:14.3   0.3                          T                                        4738099
MTLF  002.66 083.5 m E Sn      2011/08/12 09:08:45.3   0.8                          T                1.5  .23 Ml 2.2         4738091
RJF   003.05 042.6 m E Pn      2011/08/12 09:08:19.7   0.4                          T                                        4738092
RJF   003.05 042.6 m E Sn      2011/08/12 09:08:54.1   0.3                          T                1.2  .19 Ml 1.9         4738087
CAF   003.10 052.7 m E Pn      2011/08/12 09:08:19.9  -0.1                          T                                        4738098
CAF   003.10 052.7 m E Sn      2011/08/12 09:08:54.5  -0.5                          T                4.2  .22 Ml 2.7         4738096
CAF   003.10 052.7 m E Sg      2011/08/12 09:09:09.6  -0.4                          T                                        4738086
MFF   003.62 013.9 m E Pn      2011/08/12 09:08:26.8  -0.2                          T                                        4738089
LASF  003.95 073.9 m E Pn      2011/08/12 09:08:31.9   0.3                          T                                        4738097
LASF  003.95 073.9 m E Sn      2011/08/12 09:09:16.1   0.9                          T                                        4741079
VIVF  004.73 066.1 m E Pn      2011/08/12 09:08:42.6   0.4                          T                                        4738088

.
EVENT     262489
    Date      Time       Latitude Longitude    Depth    Ndef Nsta Gap    Mag1  N    Mag2  N    Mag3  N   Author         ID
       rms   OT_Error      Smajor Sminor Az        Err   mdist  Mdist     Err        Err        Err      Quality

2011/08/12 09:20:13.8     43.0939   -1.3975     10.0 f    18    3 224  Ml 1.7  1  Md 1.5  3              js067245    262489

      0.26   +-  0.14       2.6    1.3  142.62 +-  0.0    0.13   1.28   +-         +-0.1                 m i ke

PYRENEES
Sta     Dist  EvAz     Phase      Date       Time     TRes  Azim  AzRes  Slow  SRes Def   SNR       Amp   Per   Mag1   Mag2       ID
SJPF  000.13 081.2 m E Pg      2011/08/12 09:20:17.2   0.2                          T                                        4738108
SJPF  000.13 081.2 m E Sg      2011/08/12 09:20:19.5   0.3                          T                2.1  .17        Md 1.4  4738107
ETSF  000.65 107.3 m E Pg      2011/08/12 09:20:26.0  -0.2                          T                                        4738105
ETSF  000.65 107.3 m E Sg      2011/08/12 09:20:33.9  -0.9                          T                1.3  .33        Md 1.5  4738106
EPF   001.28 092.3 m E Pg      2011/08/12 09:20:37.8   0.1                          T                                        4738104
EPF   001.28 092.3 m E Sg      2011/08/12 09:20:54.3   0.0                          T                1.4  .28 Ml 1.7 Md 1.6  4738103

.
EVENT     262490
    Date      Time       Latitude Longitude    Depth    Ndef Nsta Gap    Mag1  N    Mag2  N    Mag3  N   Author         ID
       rms   OT_Error      Smajor Sminor Az        Err   mdist  Mdist     Err        Err        Err      Quality

2011/08/12 09:41:55.7     42.7432     .0460      2.0       6    3 252  Ml 1.2  1  Md 1.7  2              js067245    262490

      0.26   +-  0.51      14.1    2.7  164.76 +-  0.0    0.36   1.00   +-         +-0.0                 m i ke

PYRENEES
Sta     Dist  EvAz     Phase      Date       Time     TRes  Azim  AzRes  Slow  SRes Def   SNR       Amp   Per   Mag1   Mag2       ID
EPF   000.36 036.9 m E Pg      2011/08/12 09:42:02.5  -0.2                          T                                        4738116
EPF   000.36 036.9 m E Sg      2011/08/12 09:42:07.5   0.0                          T                4.0  .22        Md 1.7  4738113
ETSF  000.47 289.4 m E Pg      2011/08/12 09:42:05.0   0.2                          T                                        4738115
ETSF  000.47 289.4 m E Sg      2011/08/12 09:42:10.5  -0.5                          T                3.7  .24        Md 1.7  4738114
SJPF  001.00 292.0 m E Pg      2011/08/12 09:42:14.4  -0.1                          T                                        4738729
SJPF  001.00 292.0 m E Sg      2011/08/12 09:42:27.8   0.3                          T                 .4  .16 Ml 1.2         4738730

.
EVENT     262492
    Date      Time       Latitude Longitude    Depth    Ndef Nsta Gap    Mag1  N    Mag2  N    Mag3  N   Author         ID
       rms   OT_Error      Smajor Sminor Az        Err   mdist  Mdist     Err        Err        Err      Quality

2011/08/12 09:42:42.3     43.0613   -1.3388     15.0       5    3 312  Ml 1.4  1  Md 1.8  2              js067245    262492

      0.02   +-  0.05       1.4     .7   36.57 +-  0.0    0.10   1.23   +-         +-0.1                 m i ke

PYRENEES
Sta     Dist  EvAz     Phase      Date       Time     TRes  Azim  AzRes  Slow  SRes Def   SNR       Amp   Per   Mag1   Mag2       ID
SJPF  000.10 058.0 m E Pg      2011/08/12 09:42:45.6   0.0                          T                                        4738112
SJPF  000.10 058.0 m E Sg      2011/08/12 09:42:47.9   0.0                          T                6.4  .22        Md 1.8  4738111
ETSF  000.59 105.6 m E Pg      2011/08/12 09:42:53.9   0.0                          T                                        4738110
ETSF  000.59 105.6 m E Sg      2011/08/12 09:43:01.9   0.0                          T                 .6  .27        Md 1.7  4738109
EPF   001.23 090.9 m E Sg      2011/08/12 09:43:21.5   0.0                          T                 .6  .22 Ml 1.4         4745436

.
EVENT     262493
    Date      Time       Latitude Longitude    Depth    Ndef Nsta Gap    Mag1  N    Mag2  N    Mag3  N   Author         ID
       rms   OT_Error      Smajor Sminor Az        Err   mdist  Mdist     Err        Err        Err      Quality

2011/08/12 10:18:05.6     43.0932   -1.4145     15.0      41    7 075  Ml 2.4  6  Md 2.4  2              js067245    262493

      0.54   +-  0.11       2.1    2.0  116.99 +-  0.0    0.14   3.11   +-0.2      +-0.1                 m i ke

PYRENEES
Sta     Dist  EvAz     Phase      Date       Time     TRes  Azim  AzRes  Slow  SRes Def   SNR       Amp   Per   Mag1   Mag2       ID
SJPF  000.14 081.7 m E Pg      2011/08/12 10:18:08.9  -0.6                          T                                        4738133
SJPF  000.14 081.7 m E Sg      2011/08/12 10:18:11.2  -1.0                          T              153.7  .25        Md 2.5  4738129
ETSF  000.66 106.9 m E Pg      2011/08/12 10:18:17.5  -0.9                          T                                        4738131
ETSF  000.66 106.9 m E Sg      2011/08/12 10:18:26.4  -0.7                          T               26.9  .21        Md 2.3  4738127
EPF   001.29 092.2 m E Pg      2011/08/12 10:18:30.0   0.2                          T                                        4738132
EPF   001.29 092.2 m E Sg      2011/08/12 10:18:46.5  -0.1                          T                9.5  .18 Ml 2.7         4738128
MTLF  002.67 083.4 m E Pn      2011/08/12 10:18:46.4   0.2                          T                                        4738130
MTLF  002.67 083.4 m E Sn      2011/08/12 10:19:16.4   0.1                          T                2.5  .28 Ml 2.3         4738126
LFF   002.41 039.4 m E Pg      2011/08/12 10:18:50.2  -0.3                          T                                        4738120
LFF   002.41 039.4 m E Sg      2011/08/12 10:19:21.4  -0.2                          T                6.4  .37 Ml 2.4         4746371
RJF   003.05 042.6 m E Pn      2011/08/12 10:18:52.2   0.6                          T                                        4738121
RJF   003.05 042.6 m E Sn      2011/08/12 10:19:25.4  -0.2                          T                                        4738122
RJF   003.05 042.6 m E Sg      2011/08/12 10:19:40.9  -0.6                          T                2.0  .22 Ml 2.1         4738123
CAF   003.11 052.7 m E Pn      2011/08/12 10:18:52.9   0.6                          T                                        4738124
CAF   003.11 052.7 m E Pg      2011/08/12 10:19:02.9  -0.4                          T                                        4738125
CAF   003.11 052.7 m E Sn      2011/08/12 10:19:26.9   0.0                          T                1.7  .22 Ml 2.3         4741086

.
