EVENT     255742
    Date      Time       Latitude Longitude    Depth    Ndef Nsta Gap    Mag1  N    Mag2  N    Mag3  N   Author         ID
       rms   OT_Error      Smajor Sminor Az        Err   mdist  Mdist     Err        Err        Err      Quality

2011/02/06 06:41:49.0     45.1343    7.2434      2.0      14    6 216  Ml 1.6  4  Md 1.7  3              js067245    255762

      0.27   +-  0.16       3.4    1.4   69.36 +-  0.0    0.50   1.63   +-0.2      +-0.1                 m i ke

NORTHERN ITALY
Sta     Dist  EvAz     Phase      Date       Time     TRes  Azim  AzRes  Slow  SRes Def   SNR       Amp   Per   Mag1   Mag2       ID
LPG   000.50 316.5 m E Pg      2011/02/06 06:41:59.1   0.2                          T                                        4643577
LPG   000.50 316.5 m E Sg      2011/02/06 06:42:05.4  -0.2                          T                7.8  .30        Md 1.8  4643573
LPL   000.53 316.9 m E Pg      2011/02/06 06:41:59.3   0.0                          T                                        4643578
MBDF  000.53 219.6 m E Pg      2011/02/06 06:41:59.3   0.0                          T                                        4643579
MBDF  000.53 219.6 m E Sg      2011/02/06 06:42:04.8  -1.3                          T                9.2  .29        Md 1.7  4643575
LPL   000.53 316.9 m E Sg      2011/02/06 06:42:05.4  -0.8                          T                4.7  .23        Md 1.8  4643574
ORIF  000.99 257.9 m E Pg      2011/02/06 06:42:08.5   0.8                          T                                        4643576
ORIF  000.99 257.9 m E Sg      2011/02/06 06:42:20.5   0.0                          T                 .9  .27 Ml 1.3         4643572
SBF   001.28 173.8 m E Pg      2011/02/06 06:42:13.0   0.1                          T                                        4643569
SBF   001.28 173.8 m E Sg      2011/02/06 06:42:29.7   0.2                          T                3.6  .45 Ml 1.8         4643568
FRF   001.63 195.4 m E Pg      2011/02/06 06:42:19.1  -0.3                          T                                        4643570
FRF   001.63 195.4 m E Sg      2011/02/06 06:42:40.0  -0.4                          T                2.0  .54 Ml 1.7         4643571

.
EVENT     255743
    Date      Time       Latitude Longitude    Depth    Ndef Nsta Gap    Mag1  N    Mag2  N    Mag3  N   Author         ID
       rms   OT_Error      Smajor Sminor Az        Err   mdist  Mdist     Err        Err        Err      Quality

2011/02/06 07:39:29.1     46.3191    7.6035      5.0 f    51   14 039  Ml 2.2 17  Md 2.2  3              js067245    255763

      0.45   +-  0.07       1.4    1.2  115.93 +-  0.0    0.06   3.35   +-0.2      +-0.1                 m i ke

SWITZERLAND
Sta     Dist  EvAz     Phase      Date       Time     TRes  Azim  AzRes  Slow  SRes Def   SNR       Amp   Per   Mag1   Mag2       ID
LPG   001.01 216.2 m E Pg      2011/02/06 07:39:48.1  -0.5                          T                                        4643951
LPG   001.01 216.2 m E Sg      2011/02/06 07:40:02.2   0.5                          T                9.7  .31 Ml 2.3         4643952
LPL   001.01 217.5 m E Pg      2011/02/06 07:39:48.2  -0.1                          T                                        4643953
LPL   001.01 217.5 m E Sg      2011/02/06 07:40:01.8   0.3                          T                6.5  .33 Ml 2.1         4643954
CABF  001.09 286.1 m E Pg      2011/02/06 07:39:50.3   0.6                          T                                        4643601
CABF  001.09 286.1 m E Sg      2011/02/06 07:40:04.0   0.2                          T                6.2  .30 Ml 2.2 Md 2.2  4643599
MBDF  001.70 200.5 m E Pn      2011/02/06 07:39:58.2   0.3                          T                                        4643605
MBDF  001.70 200.5 m E Pg      2011/02/06 07:40:01.2   0.3                          T                                        4643956
MBDF  001.70 200.5 m E Sg      2011/02/06 07:40:23.6   0.8                          T                 .9  .22 Ml 1.7 Md 2.1  4643602
HINF  001.58 341.4 m E Pg      2011/02/06 07:39:58.9   0.1                          T                                        4643596
HINF  001.58 341.4 m E Sg      2011/02/06 07:40:18.8  -0.3                          T                4.4  .22 Ml 2.4 Md 2.2  4643600
ORIF  001.85 221.4 m E Pn      2011/02/06 07:40:00.4   0.5                          T                                        4643604
ORIF  001.85 221.4 m E Pg      2011/02/06 07:40:04.0   0.3                          T                                        4643955
ORIF  001.85 221.4 m E Sg      2011/02/06 07:40:28.4   0.8                          T                4.0  .48 Ml 2.1         4643603
CDF   002.11 354.1 m E Pn      2011/02/06 07:40:03.8   0.4                          T                                        4643593
CDF   002.11 354.1 m E Pg      2011/02/06 07:40:08.2  -0.2                          T                                        4643961
CDF   002.11 354.1 m E Sg      2011/02/06 07:40:35.2  -0.3                          T                3.5  .44 Ml 2.2         4643588
HAU   001.89 333.5 m E Pg      2011/02/06 07:40:04.4   0.0                          T                                        4643595
HAU   001.89 333.5 m E Sg      2011/02/06 07:40:28.6  -0.2                          T                4.5  .26 Ml 2.2         4643598
THEF  002.20 330.7 m E Pn      2011/02/06 07:40:04.8   0.2                          T                                        4643594
THEF  002.20 330.7 m E Pg      2011/02/06 07:40:10.2   0.1                          T                                        4643960
THEF  002.20 330.7 m E Sg      2011/02/06 07:40:38.1  -0.3                          T                5.0  .50 Ml 2.2         4643587
VIVF  002.52 235.6 m E Pn      2011/02/06 07:40:09.5   0.4                          T                                        4643958
VIVF  002.52 235.6 m E Pg      2011/02/06 07:40:16.1   0.0                          T                                        4643957
VIVF  002.52 235.6 m E Sg      2011/02/06 07:40:48.8   0.3                          T                 .9  .21 Ml 2.0         4643959
SMF   002.62 278.5 m E Pg      2011/02/06 07:40:18.4   0.7                          T                                        4643586
SMF   002.62 278.5 m E Sg      2011/02/06 07:40:51.2  -0.3                          T                2.0  .20 Ml 2.3         4643597
LOR   002.74 291.6 m E Pg      2011/02/06 07:40:20.1   0.1                          T                                        4643962
LOR   002.74 291.6 m E Sg      2011/02/06 07:40:54.6  -0.7                          T                1.4  .22 Ml 2.2         4643590
BGF   003.30 275.9 m E Pg      2011/02/06 07:40:30.8   0.6                          T                                        4643585
BGF   003.30 275.9 m E Sg      2011/02/06 07:41:12.5  -0.1                          T                3.8  .57 Ml 2.3         4643583
SSF   002.92 286.2 m E Sg      2011/02/06 07:41:00.2  -0.5                          T                3.1  .52 Ml 2.3         4643589

.
EVENT     255757
    Date      Time       Latitude Longitude    Depth    Ndef Nsta Gap    Mag1  N    Mag2  N    Mag3  N   Author         ID
       rms   OT_Error      Smajor Sminor Az        Err   mdist  Mdist     Err        Err        Err      Quality

2011/02/06 07:40:34.2     44.0860    6.7061      2.0      20    9 108  Ml 1.3  3  Md 1.7  4              js067245    255777

      0.20   +-  0.06       1.5    1.0   79.51 +-  0.0    0.53   1.65   +-0.1      +-0.1                 m i ke

FRANCE
Sta     Dist  EvAz     Phase      Date       Time     TRes  Azim  AzRes  Slow  SRes Def   SNR       Amp   Per   Mag1   Mag2       ID
FRF   000.53 184.7 m E Pg      2011/02/06 07:40:43.9  -0.4                          T                                        4645519
FRF   000.53 184.7 m E Sg      2011/02/06 07:40:51.0  -0.2                          T                4.0  .20        Md 1.8  4645520
SBF   000.57 112.7 m E Pg      2011/02/06 07:40:45.5   0.3                          T                                        4645513
SBF   000.57 112.7 m E Sn      2011/02/06 07:40:57.5   0.2                          T                5.0  .28        Md 1.7  4645514
MBDF  000.64 004.2 m E Pg      2011/02/06 07:40:45.8  -0.8                          T                                        4645509
MBDF  000.64 004.2 m E Sg      2011/02/06 07:40:55.0   0.0                          T                4.5  .32        Md 1.6  4645510
LMR   000.77 190.8 m E Pg      2011/02/06 07:40:48.0  -0.6                          T                                        4645515
LMR   000.77 190.8 m E Pn      2011/02/06 07:40:50.2  -0.2                          T                                        4645516
LMR   000.77 190.8 m E Sg      2011/02/06 07:40:58.8   0.2                          T                                        4645517
LMR   000.77 190.8 m E Sn      2011/02/06 07:41:02.0   0.2                          T                9.1  .18        Md 1.6  4645518
SMRF  000.82 262.7 m E Pg      2011/02/06 07:40:50.2   0.4                          T                                        4645501
SMRF  000.82 262.7 m E Pn      2011/02/06 07:40:51.3   0.0                          T                                        4645511
SMRF  000.82 262.7 m E Sn      2011/02/06 07:41:03.4   0.1                          T                4.8  .24                4645512
ORIF  001.02 324.9 m E Pg      2011/02/06 07:40:53.3  -0.1                          T                                        4645505
ORIF  001.02 324.9 m E Sg      2011/02/06 07:41:06.8   0.1                          T                 .7  .27 Ml 1.3         4645506
LPG   001.41 001.3 m E Pg      2011/02/06 07:41:00.8  -0.1                          T                                        4645502
LPL   001.43 000.7 m E Pg      2011/02/06 07:41:01.2   0.0                          T                                        4645503
LPL   001.43 000.7 m E Sg      2011/02/06 07:41:19.6  -0.1                          T                 .7  .29 Ml 1.4         4645504
VIVF  001.65 298.6 m E Pg      2011/02/06 07:41:04.8  -0.1                          T                                        4645507
VIVF  001.65 298.6 m E Sn      2011/02/06 07:41:23.0   0.1                          T                 .4  .23 Ml 1.4         4645508

.
EVENT     255744
    Date      Time       Latitude Longitude    Depth    Ndef Nsta Gap    Mag1  N    Mag2  N    Mag3  N   Author         ID
       rms   OT_Error      Smajor Sminor Az        Err   mdist  Mdist     Err        Err        Err      Quality

2011/02/06 13:42:23.7     42.4585    7.6558     10.0 f    27   11 194  Ml 2.3  9  Md 2.2  3              js067245    255764

      0.52   +-  0.12       3.6    1.7   22.40 +-  0.0    1.00   5.42   +-0.5      +-0.0                 m i ke

WESTERN MEDITERRANEAN SEA
Sta     Dist  EvAz     Phase      Date       Time     TRes  Azim  AzRes  Slow  SRes Def   SNR       Amp   Per   Mag1   Mag2       ID
PGF   001.00 084.4 m E Pn      2011/02/06 13:42:42.4   0.1                          T                                        4643618
PGF   001.00 084.4 m E Sn      2011/02/06 13:42:55.7   0.1                          T               12.3  .18 Ml 2.9 Md 2.2  4643611
LMR   001.21 316.5 m E Pn      2011/02/06 13:42:45.3   0.2                          T                                        4643617
LMR   001.21 316.5 m E Sn      2011/02/06 13:43:00.3  -0.4                          T               13.7  .20 Ml 2.8 Md 2.2  4643613
FRF   001.33 326.4 m E Pn      2011/02/06 13:42:47.2   0.6                          T                                        4643616
FRF   001.33 326.4 m E Sn      2011/02/06 13:43:03.4   0.0                          T                8.4  .18 Ml 2.7 Md 2.1  4643614
SBF   001.41 353.5 m E P       2011/02/06 13:42:49.3  -0.5                          T                                        4643615
SBF   001.41 353.5 m E Sn      2011/02/06 13:43:05.6   0.1                          T                8.8  .26 Ml 2.5         4643612
SMRF  002.15 315.6 m E Pn      2011/02/06 13:42:57.8  -0.1                          T                                        4643635
SMRF  002.15 315.6 m E P       2011/02/06 13:43:00.3   0.0                          T                                        4645573
SMRF  002.15 315.6 m E Sn      2011/02/06 13:43:23.3   0.3                          T                                        4645572
SMRF  002.15 315.6 m E S       2011/02/06 13:43:27.6   0.2                          T                1.2  .21                4643634
MBDF  002.36 344.5 m E Pn      2011/02/06 13:43:00.9   0.0                          T                                        4643610
MBDF  002.36 344.5 m E Sn      2011/02/06 13:43:28.3   0.2                          T                                        4645571
MBDF  002.36 344.5 m E S       2011/02/06 13:43:32.9   0.0                          T                1.7  .24                4643633
ORIF  002.78 333.0 m E Pn      2011/02/06 13:43:06.3  -0.2                          T                                        4643623
ORIF  002.78 333.0 m E Sn      2011/02/06 13:43:38.0   0.0                          T                 .6  .26 Ml 1.7         4643622
LASF  003.21 301.5 m E Pn      2011/02/06 13:43:12.3  -0.1                          T                                        4643632
LASF  003.21 301.5 m E Sn      2011/02/06 13:43:48.3  -0.1                          T                1.5  .33 Ml 2.1         4643628
VIVF  003.23 318.9 m E Pn      2011/02/06 13:43:13.5   0.9                          T                                        4643631
VIVF  003.23 318.9 m E Sn      2011/02/06 13:43:48.8   0.0                          T                 .8  .28 Ml 1.9         4643627
CAF   004.75 303.2 m E Pn      2011/02/06 13:43:33.9   0.7                          T                                        4645569
EPF   005.42 278.5 m E Pn      2011/02/06 13:43:41.9  -0.5                          T                                        4645570

.
EVENT     255745
    Date      Time       Latitude Longitude    Depth    Ndef Nsta Gap    Mag1  N    Mag2  N    Mag3  N   Author         ID
       rms   OT_Error      Smajor Sminor Az        Err   mdist  Mdist     Err        Err        Err      Quality

2011/02/06 22:11:06.7     47.8456    8.7037     10.0      25    8 047  Ml 1.7  7  Md 2.1  3              js067245    255765

      0.40   +-  0.06       1.1    1.0  121.89 +-  0.0    0.16   2.17   +-0.2      +-0.2                 m i ke

SWITZERLAND
Sta     Dist  EvAz     Phase      Date       Time     TRes  Azim  AzRes  Slow  SRes Def   SNR       Amp   Per   Mag1   Mag2       ID
CDF   001.11 301.2 m E Pg      2011/02/06 22:11:27.6  -0.1                          T                                        4643796
CDF   001.11 301.2 m E Sg      2011/02/06 22:11:42.4   0.3                          T                1.3  .19 Ml 1.8 Md 2.1  4643795
HINF  001.25 269.4 m E Pg      2011/02/06 22:11:29.6  -0.5                          T                                        4643802
HINF  001.25 269.4 m E Sg      2011/02/06 22:11:46.1  -0.2                          T                1.8  .25 Ml 1.8 Md 1.9  4643801
LANF  001.28 332.5 m E Pg      2011/02/06 22:11:31.2   0.5                          T                                        4643794
LANF  001.28 332.5 m E Sg      2011/02/06 22:11:48.4   1.0                          T                  1  .17 Ml 1.7 Md 2.4  4643788
HAU   001.59 276.6 m E Pg      2011/02/06 22:11:36.2  -0.2                          T                                        4643797
HAU   001.59 276.6 m E Sg      2011/02/06 22:11:57.1   0.1                          T                2.7  .30 Ml 1.8         4643800
THEF  001.86 282.9 m E Pg      2011/02/06 22:11:41.3   0.0                          T                                        4643792
THEF  001.86 282.9 m E Sg      2011/02/06 22:12:05.1  -0.2                          T                3.9  .52 Ml 2.0         4643799
PAGF  002.12 290.7 m E Pg      2011/02/06 22:11:46.0  -0.1                          T                                        4643793
PAGF  002.12 290.7 m E Sg      2011/02/06 22:12:13.6   0.4                          T                 .5  .39 Ml 1.3         4643787
CABF  002.17 236.3 m E Pg      2011/02/06 22:11:46.4  -0.7                          T                                        4643791
CABF  002.17 236.3 m E Sg      2011/02/06 22:12:14.0  -1.1                          T                 .6  .26 Ml 1.6         4643798
RUP   002.15 330.3 m E Pg      2011/02/06 22:11:47.0   0.3                          T                                        4643790
RUP   002.15 330.3 m E Sg      2011/02/06 22:12:15.4   0.9                          T                                        4643789

.
EVENT     255746
    Date      Time       Latitude Longitude    Depth    Ndef Nsta Gap    Mag1  N    Mag2  N    Mag3  N   Author         ID
       rms   OT_Error      Smajor Sminor Az        Err   mdist  Mdist     Err        Err        Err      Quality

2011/02/06 23:21:47.2     42.8974     .1301      2.0       6    3 221  Ml 1.1  1  Md 1.1  2              js067245    255766

      0.03   +-  0.03        .8     .2  160.71 +-  0.0    0.16   1.02   +-         +-0.1                 m i ke

PYRENEES
Sta     Dist  EvAz     Phase      Date       Time     TRes  Azim  AzRes  Slow  SRes Def   SNR       Amp   Per   Mag1   Mag2       ID
EPF   000.20 049.2 m E Pg      2011/02/06 23:21:51.4   0.0                          T                                        4643814
EPF   000.20 049.2 m E Sg      2011/02/06 23:21:54.2   0.0                          T                8.3  .16        Md 1.1  4643811
ETSF  000.51 270.4 m E Pg      2011/02/06 23:21:57.0   0.0                          T                                        4643813
ETSF  000.51 270.4 m E Sg      2011/02/06 23:22:03.7   0.0                          T                1.3  .22        Md 1.0  4643812
SJPF  001.02 282.7 m E Pg      2011/02/06 23:22:06.3   0.0                          T                                        4643809
SJPF  001.02 282.7 m E Sg      2011/02/06 23:22:19.4  -0.1                          T                 .5  .28 Ml 1.1         4643810

.
EVENT     255747
    Date      Time       Latitude Longitude    Depth    Ndef Nsta Gap    Mag1  N    Mag2  N    Mag3  N   Author         ID
       rms   OT_Error      Smajor Sminor Az        Err   mdist  Mdist     Err        Err        Err      Quality

2011/02/07 00:24:48.8     42.8321     .6141      5.0 f    12    4 111  Ml 1.4  3  Md 1.4  2              js067245    255767

      0.34   +-  0.09       2.7    1.3   32.36 +-  0.0    0.11   1.38   +-0.1      +-0.1                 m i ke

PYRENEES
Sta     Dist  EvAz     Phase      Date       Time     TRes  Azim  AzRes  Slow  SRes Def   SNR       Amp   Per   Mag1   Mag2       ID
EPF   000.28 314.6 m E Pg      2011/02/07 00:24:54.6   0.1                          T                                        4643915
EPF   000.28 314.6 m E Sg      2011/02/07 00:24:58.4   0.0                          T                4.9  .25        Md 1.5  4643914
ETSF  000.87 274.8 m E Pg      2011/02/07 00:25:05.4   0.2                          T                                        4643912
ETSF  000.87 274.8 m E Sg      2011/02/07 00:25:16.2  -0.3                          T                1.2  .34 Ml 1.3 Md 1.3  4643913
MTLF  001.28 066.0 m E Sg      2011/02/07 00:25:30.7   1.4                          T                 .7  .18 Ml 1.5         4645209
SJPF  001.38 282.4 m E Sg      2011/02/07 00:25:32.0  -0.4                          T                 .6  .24 Ml 1.4         4643911

.
