EVENT     271943
    Date      Time       Latitude Longitude    Depth    Ndef Nsta Gap    Mag1  N    Mag2  N    Mag3  N   Author         ID
       rms   OT_Error      Smajor Sminor Az        Err   mdist  Mdist     Err        Err        Err      Quality

2012/03/14 16:37:47.0     44.4926    6.6822      2.0      27    9 072  Ml 1.4  6  Md 1.7  1              js067245    271963

      0.55   +-  0.07       1.6    1.1   46.53 +-  0.0    0.09   1.48   +-0.1      +-                    m i ke

FRANCE
Sta     Dist  EvAz     Phase      Date       Time     TRes  Azim  AzRes  Slow  SRes Def   SNR       Amp   Per   Mag1   Mag2       ID
MBDF  000.24 015.2 m E Pg      2012/03/14 16:37:52.2   0.1                          T                                        4881776
MBDF  000.24 015.2 m E Sg      2012/03/14 16:37:55.2  -0.2                          T                4.8  .36        Md 1.7  4881777
ORIF  000.71 306.9 m E Pg      2012/03/14 16:38:00.6   0.0                          T                                        4881774
ORIF  000.71 306.9 m E Sg      2012/03/14 16:38:10.0   0.1                          T                  1  .22                4881769
SBF   000.83 139.0 m E Pg      2012/03/14 16:38:03.3   0.6                          T                                        4881771
SBF   000.83 139.0 m E Sg      2012/03/14 16:38:13.9   0.3                          T                1.2  .26                4881763
FRF   000.93 181.6 m E Pn      2012/03/14 16:38:05.4  -0.1                          T                                        4881772
FRF   000.93 181.6 m E Sg      2012/03/14 16:38:16.8   0.2                          T                 .9  .25 Ml 1.4         4881765
SMRF  000.95 237.4 m E Pn      2012/03/14 16:38:06.1   0.3                          T                                        4881773
SMRF  000.95 237.4 m E Sn      2012/03/14 16:38:18.5  -0.6                          T                 .6  .21 Ml 1.3         4881766
VIVF  001.48 284.9 m E Pg      2012/03/14 16:38:14.5  -0.2                          T                                        4881775
VIVF  001.48 284.9 m E Sg      2012/03/14 16:38:34.0   0.3                          T                 .9  .24 Ml 1.6         4881770
LPG   001.01 002.8 m E Sg      2012/03/14 16:38:19.7   0.4                          T                1.0  .19 Ml 1.5         4881767
LPL   001.02 002.0 m E Sg      2012/03/14 16:38:19.9   0.1                          T                 .6  .21 Ml 1.3         4881768
LMR   001.17 186.2 m E Sg      2012/03/14 16:38:24.0   0.1                          T                 .8  .24 Ml 1.4         4881764

.
EVENT     271942
    Date      Time       Latitude Longitude    Depth    Ndef Nsta Gap    Mag1  N    Mag2  N    Mag3  N   Author         ID
       rms   OT_Error      Smajor Sminor Az        Err   mdist  Mdist     Err        Err        Err      Quality

2012/03/14 18:41:40.9     44.3362    7.4647      2.0      29    7 132  Ml 1.8  4  Md 1.8  2              js067245    271962

      0.22   +-  0.05       1.1     .7   50.98 +-  0.0    0.11   1.41   +-0.3      +-0.1                 m i ke

NORTHERN ITALY
Sta     Dist  EvAz     Phase      Date       Time     TRes  Azim  AzRes  Slow  SRes Def   SNR       Amp   Per   Mag1   Mag2       ID
SBF   000.47 182.6 m E Pg      2012/03/14 18:41:50.3   0.2                          T                                        4881788
SBF   000.47 182.6 m E Sg      2012/03/14 18:41:56.7   0.4                          T                5.8  .22        Md 1.9  4881787
MBDF  000.63 308.5 m E Pg      2012/03/14 18:41:53.0  -0.1                          T                                        4881796
MBDF  000.63 308.5 m E Sg      2012/03/14 18:42:01.4   0.0                          T                2.0  .22        Md 1.7  4881782
FRF   000.97 217.6 m E Pn      2012/03/14 18:42:00.1   0.1                          T                                        4881792
FRF   000.97 217.6 m E P       2012/03/14 18:42:01.4   0.0                          T                                        4881791
FRF   000.97 217.6 m E Sg      2012/03/14 18:42:12.1   0.2                          T                1.8  .16 Ml 1.9         4881785
LMR   001.22 214.9 m E Pg      2012/03/14 18:42:03.3  -0.4                          T                                        4881789
LMR   001.22 214.9 m E P       2012/03/14 18:42:04.9  -0.1                          T                                        4881790
LMR   001.22 214.9 m E Sg      2012/03/14 18:42:19.5   0.0                          T                4.3  .22 Ml 2.2         4881786
ORIF  001.27 297.8 m E Pg      2012/03/14 18:42:04.8   0.0                          T                                        4881795
ORIF  001.27 297.8 m E Sg      2012/03/14 18:42:21.2  -0.1                          T                1.9  .52 Ml 1.5         4881783
LPL   001.29 336.5 m E Pg      2012/03/14 18:42:05.3   0.0                          T                                        4881794
SMRF  001.41 255.8 m E Pg      2012/03/14 18:42:07.1  -0.2                          T                                        4881793
SMRF  001.41 255.8 m E Sg      2012/03/14 18:42:25.7   0.3                          T                 .6  .17 Ml 1.5         4881784

.
EVENT     271902
    Date      Time       Latitude Longitude    Depth    Ndef Nsta Gap    Mag1  N    Mag2  N    Mag3  N   Author         ID
       rms   OT_Error      Smajor Sminor Az        Err   mdist  Mdist     Err        Err        Err      Quality

2012/03/14 19:22:26.6     59.5709    5.2597     25.0      70   21 075  Ml 4.0  6                         bulletin    271922
                                                                                                         _ldg
      1.69   +-  0.19       5.4    3.9  118.27 +-  0.0    0.36  20.75   +-0.2                            m i ke

SOUTHERN NORWAY
Sta     Dist  EvAz     Phase      Date       Time     TRes  Azim  AzRes  Slow  SRes Def   SNR       Amp   Per   Mag1   Mag2       ID
GIVF  009.49 181.7 m E Pn      2012/03/14 19:24:40.0   0.9                          T                                        4881846
BAIF  009.55 184.1 m E Pn      2012/03/14 19:24:41.8   1.9                          T                                        4881845
FLN   011.33 199.7 m E Pn      2012/03/14 19:25:03.9  -0.3  15.1  0.0               T                                        4881837
FLN   011.33 199.7 m E Sn      2012/03/14 19:27:00.3  -2.4                          T                3.6  .30 Ml 3.8         4881824
LDF   011.44 198.3 m E Pn      2012/03/14 19:25:05.5  -0.1                          T                                        4881836
LDF   011.44 198.3 m E Sn      2012/03/14 19:27:04.6  -0.6                          T                2.0  .27 Ml 3.8         4881823
GRR   011.76 200.4 m E Pn      2012/03/14 19:25:09.7  -0.3                          T                                        4881835
GRR   011.76 200.4 m E Sn      2012/03/14 19:27:13.8   0.9                          T                7.1  .29 Ml 4.2         4881822
LOR   012.35 184.5 m E Pn      2012/03/14 19:25:16.1  -2.0  11.3  7.9               T                                        4881849
LOR   012.35 184.5 m E Sn      2012/03/14 19:27:28.8   1.7                          T                2.7  .33 Ml 3.9         4881827
SGMF  012.23 205.4 m E Pn      2012/03/14 19:25:17.0   0.7                          T                                        4881839
SGMF  012.23 205.4 m E Sn      2012/03/14 19:27:23.2  -0.7                          T                2.4  .27 Ml 4.0         4881825
ROSF  012.31 207.7 m E Pn      2012/03/14 19:25:17.7   0.2                          T                                        4881840
ROSF  012.31 207.7 m E Sn      2012/03/14 19:27:28.6   2.5                          T                                        4881826
SSF   012.58 185.5 m E Pn      2012/03/14 19:25:21.0   0.0                          T                                        4881848
QUIF  012.68 206.7 m E Pn      2012/03/14 19:25:22.8   0.4                          T                                        4881838
AVF   012.85 185.9 m E Pn      2012/03/14 19:25:22.9  -2.0                          T                                        4881844
SMF   012.98 184.4 m E Pn      2012/03/14 19:25:26.8   0.2                          T                                        4881843
BGF   013.12 187.4 m E Pn      2012/03/14 19:25:29.7   1.2                          T                                        4881842
MFF   013.38 196.3 m E Pn      2012/03/14 19:25:30.1  -1.9                          T                                        4881834
MFF   013.38 196.3 m E Sn      2012/03/14 19:27:52.2   0.5                          T                2.7  .34 Ml 4.1         4881821
TCF   013.43 189.1 m E Pn      2012/03/14 19:25:33.4   0.7                          T                                        4881847
RJF   014.47 190.6 m E Pn      2012/03/14 19:25:46.1  -0.7                          T                                        4881833
ORIF  014.68 178.3 m E Pn      2012/03/14 19:25:50.1   0.2                          T                                        4881828
LFF   014.91 192.6 m E Pn      2012/03/14 19:25:50.2  -2.6                          T                                        4881832
CAF   014.80 188.9 m E Pn      2012/03/14 19:25:50.4  -0.9                          T                                        4881831
SJPF  016.96 196.5 m E Pn      2012/03/14 19:26:17.9  -2.9                          T                                        4881830
ETSF  017.08 194.7 m E Pn      2012/03/14 19:26:23.4   0.9                          T                                        4881829

.
EVENT     271946
    Date      Time       Latitude Longitude    Depth    Ndef Nsta Gap    Mag1  N    Mag2  N    Mag3  N   Author         ID
       rms   OT_Error      Smajor Sminor Az        Err   mdist  Mdist     Err        Err        Err      Quality

2012/03/15 00:58:37.7     46.2547    2.0999      5.0 f    22   10 125  Ml 1.4  8  Md 1.6  3              js067245    271966

      0.22   +-  0.05       1.3     .7  140.02 +-  0.0    0.08   1.63   +-0.2      +-0.0                 m i ke

FRANCE
Sta     Dist  EvAz     Phase      Date       Time     TRes  Azim  AzRes  Slow  SRes Def   SNR       Amp   Per   Mag1   Mag2       ID
TCF   000.08 066.4 m E Pg      2012/03/15 00:58:39.9   0.0                          T                                        4882412
TCF   000.08 066.4 m E Sg      2012/03/15 00:58:41.5   0.1                          T                8.0  .22        Md 1.6  4882413
BGF   000.60 059.3 m E Pg      2012/03/15 00:58:49.5   0.3                          T                                        4882408
BGF   000.60 059.3 m E Sg      2012/03/15 00:58:57.1   0.1                          T                4.1  .38        Md 1.7  4882409
AVF   001.02 057.8 m E Pg      2012/03/15 00:58:56.7  -0.1                          T                                        4882410
AVF   001.02 057.8 m E Sg      2012/03/15 00:59:09.8  -0.2                          T                 .7  .29 Ml 1.2         4882411
RJF   001.03 203.5 m E Pg      2012/03/15 00:58:57.2   0.1                          T                                        4882393
RJF   001.03 203.5 m E Sg      2012/03/15 00:59:10.3  -0.3                          T                 .7  .18 Ml 1.1         4882402
SMF   001.27 071.4 m E Pn      2012/03/15 00:59:00.6   0.2                          T                                        4882395
SMF   001.27 071.4 m E Sg      2012/03/15 00:59:17.5  -0.3                          T                1.4  .32 Ml 1.6         4882400
SSF   001.26 049.7 m E Pg      2012/03/15 00:59:01.2  -0.1                          T                                        4882396
SSF   001.26 049.7 m E Sg      2012/03/15 00:59:17.6   0.0                          T                 .6  .18 Ml 1.6         4882399
CAF   001.33 181.1 m E Pn      2012/03/15 00:59:01.5   0.2                          T                                        4882392
CAF   001.33 181.1 m E Pg      2012/03/15 00:59:02.5  -0.1                          T                                        4882391
CAF   001.33 181.1 m E Sg      2012/03/15 00:59:19.7  -0.1                          T                 .7  .26 Ml 1.4         4882405
LOR   001.58 049.4 m E Pg      2012/03/15 00:59:07.0  -0.1                          T                                        4882397
LOR   001.58 049.4 m E Sg      2012/03/15 00:59:27.6   0.1                          T                 .4  .18 Ml 1.5         4882398
MFF   001.59 283.4 m E Pg      2012/03/15 00:59:07.5   0.1                          T                                        4882394
MFF   001.59 283.4 m E Sn      2012/03/15 00:59:23.8  -0.8                          T                                        4882403
MFF   001.59 283.4 m E Sg      2012/03/15 00:59:28.0   0.1                          T                 .9  .32 Ml 1.7         4882404
LFF   001.63 216.5 m E Pg      2012/03/15 00:59:07.9  -0.1                          T                                        4882390
LFF   001.63 216.5 m E Sg      2012/03/15 00:59:29.0   0.1                          T                 .6  .25 Ml 1.3         4882401

.
EVENT     271947
    Date      Time       Latitude Longitude    Depth    Ndef Nsta Gap    Mag1  N    Mag2  N    Mag3  N   Author         ID
       rms   OT_Error      Smajor Sminor Az        Err   mdist  Mdist     Err        Err        Err      Quality

2012/03/15 01:08:26.1     43.1837   17.8257      2.0      84   18 051  Ml 3.6 11                         js067245    271967

      1.18   +-  0.12       4.4    2.5   22.60 +-  0.0    0.60  11.48   +-0.3                            m i ke

NORTHWESTERN BALKAN PEN.
Sta     Dist  EvAz     Phase      Date       Time     TRes  Azim  AzRes  Slow  SRes Def   SNR       Amp   Per   Mag1   Mag2       ID
PGF   006.52 267.4 m E Pn      2012/03/15 01:10:02.1   1.3                          T   001.0                                4873381
PGF   006.52 267.4 m E Sn      2012/03/15 01:11:11.6   0.2                          T                3.4  .48 Ml 3.3         4882420
SBF   007.58 278.7 m E Pn      2012/03/15 01:10:15.2  -0.1                          T   001.0                                4873382
SBF   007.58 278.7 m E Sn      2012/03/15 01:11:37.0   0.1                          T                9.9  .50 Ml 3.6         4882421
MBDF  008.12 284.7 m E Pn      2012/03/15 01:10:22.2  -0.6                          T   001.0                                4873386
MBDF  008.12 284.7 m E Sn      2012/03/15 01:11:50.4   0.6                          T                7.3  .52 Ml 3.6         4882423
FRF   008.15 276.5 m E Pn      2012/03/15 01:10:23.7   0.7                          T   001.0                                4873372
FRF   008.15 276.5 m E Sn      2012/03/15 01:11:50.4   0.0                          T   001.0        2.9  .40 Ml 3.3         4873373
LPG   008.27 290.0 m E Pn      2012/03/15 01:10:24.2  -0.7                          T   001.0                                4873378
LPG   008.27 290.0 m E Sn      2012/03/15 01:11:52.7  -0.8                          T   001.0         11  .56 Ml 3.8         4873379
LMR   008.26 274.9 m E Pn      2012/03/15 01:10:25.0   0.6                          T   001.0                                4873374
LMR   008.26 274.9 m E Sn      2012/03/15 01:11:52.3  -0.6                          T   001.0          1  .24 Ml 3.1         4873375
LPL   008.29 290.2 m E Pn      2012/03/15 01:10:25.2   0.2                          T   001.0                                4873380
LPL   008.29 290.2 m E Sn      2012/03/15 01:11:53.2  -0.6                          T                9.1  .44 Ml 3.8         4882422
ORIF  008.78 285.5 m E Pn      2012/03/15 01:10:31.2  -0.4                          T   001.0                                4873387
ORIF  008.78 285.5 m E Sn      2012/03/15 01:12:06.0   0.6                          T   001.0        8.2  .52 Ml 3.7         4873388
CABF  009.01 296.4 m E Pn      2012/03/15 01:10:34.8   0.1                          T   001.0                                4873385
CDF   009.03 309.0 m E Pn      2012/03/15 01:10:35.0   0.0                          T                                        4882425
HINF  008.99 304.8 m E Pn      2012/03/15 01:10:35.1   0.7                          T                                        4882426
HINF  008.99 304.8 m E Sn      2012/03/15 01:12:10.3  -0.1                          T               11.7  .62 Ml 3.8         4882424
VIVF  009.62 284.5 m E Pn      2012/03/15 01:10:42.7  -0.3                          T   001.0                                4873389
LASF  010.17 279.8 m E Pn      2012/03/15 01:10:50.2  -0.3                          T                                        4882429
SMF   010.51 294.0 m E Pn      2012/03/15 01:10:54.3  -0.7                          T   001.0                                4873383
SMF   010.51 294.0 m E Sn      2012/03/15 01:12:47.0   0.4                          T   001.0        6.5  .48 Ml 3.9         4873384
LOR   010.66 297.3 m E Pn      2012/03/15 01:10:57.3   0.1                          T   001.0                                4873376
LOR   010.66 297.3 m E Sn      2012/03/15 01:12:51.5   1.2                          T   001.0        4.9  .44 Ml 3.9         4873377
AVF   010.87 294.4 m E Pn      2012/03/15 01:10:59.9   0.0                          T   001.0                                4873371
BGF   011.15 292.8 m E Pn      2012/03/15 01:11:03.3  -0.5                          T                                        4882427
CAF   011.48 284.1 m E Pn      2012/03/15 01:11:08.0  -0.3                          T                                        4882428

.
