EVENT     260661
    Date      Time       Latitude Longitude    Depth    Ndef Nsta Gap    Mag1  N    Mag2  N    Mag3  N   Author         ID
       rms   OT_Error      Smajor Sminor Az        Err   mdist  Mdist     Err        Err        Err      Quality

2011/06/22 19:48:24.8     39.8608   14.8084    322.0 f   111   30 053                                    js067245    260661

      1.08   +-  0.11       4.0    3.0    9.77 +-  0.0    0.49  19.69                                    m i ke

TYRRHENIAN SEA
Sta     Dist  EvAz     Phase      Date       Time     TRes  Azim  AzRes  Slow  SRes Def   SNR       Amp   Per   Mag1   Mag2       ID
PGF   005.14 303.4 m E P       2011/06/22 19:49:45.3  -0.3                          T                                        4712152
SBF   006.80 308.4 m E P       2011/06/22 19:50:04.7  -0.5                          T                                        4712151
LMR   007.12 301.8 m E P       2011/06/22 19:50:08.3  -0.5                          T                                        4712150
FRF   007.14 303.8 m E P       2011/06/22 19:50:08.5  -0.5                          T                                        4712149
MBDF  007.69 311.8 m E P       2011/06/22 19:50:17.3   1.4                          T                                        4712144
SMRF  008.02 303.8 m E P       2011/06/22 19:50:20.1   0.4                          T                                        4712148
LPG   008.18 316.1 m E P       2011/06/22 19:50:22.7   0.7                          T                                        4712147
LPL   008.20 316.2 m E P       2011/06/22 19:50:22.8   0.6                          T                                        4712146
ORIF  008.32 310.3 m E P       2011/06/22 19:50:23.0  -0.4                          T                                        4712145
VIVF  009.01 306.9 m E P       2011/06/22 19:50:32.5   0.8                          T                                        4712143
LASF  009.18 300.9 m E P       2011/06/22 19:50:32.8  -1.0                          T                                        4712142
CABF  009.27 319.5 m E P       2011/06/22 19:50:32.9  -2.1                          T                                        4712131
HINF  009.81 326.8 m E P       2011/06/22 19:50:39.0  -2.5                          T                                        4712130
HAU   010.17 326.0 m E P       2011/06/22 19:50:43.2  -2.7                          T                                        4712129
CDF   010.11 330.2 m E P       2011/06/22 19:50:43.6  -1.7                          T                3.1  .31                4712128
SMF   010.48 313.9 m E P       2011/06/22 19:50:46.7  -2.9                          T                                        4712132
LOR   010.85 316.6 m E P       2011/06/22 19:50:50.9  -3.3 137.3  8.3               T                2.9  .30                4712125
AVF   010.84 313.5 m E P       2011/06/22 19:50:51.1  -2.8                          T                                        4712156
BGF   010.99 311.4 m E P       2011/06/22 19:50:54.2  -1.7                          T                                        4712133
SSF   010.91 315.0 m E P       2011/06/22 19:50:54.2  -0.7                          T                                        4712126
MEZF  011.11 324.2 m E P       2011/06/22 19:50:57.7   0.4                          T               20.5  .52                4712157
EPF   011.31 290.9 m E P       2011/06/22 19:51:00.5   0.6                          T                                        4712139
LFF   011.57 300.6 m E P       2011/06/22 19:51:03.4   0.5                          T                                        4712138
ETSF  011.94 289.7 m E P       2011/06/22 19:51:07.5   0.0                          T                                        4712141
GIVF  012.43 328.8 m E P       2011/06/22 19:51:12.3  -1.0                          T                4.2  .28                4712127
SJPF  012.46 290.3 m E P       2011/06/22 19:51:13.3  -0.3                          T                                        4712140
BAIF  012.65 327.2 m E P       2011/06/22 19:51:14.3  -1.6                          T                3.6  .37                4712155
LDF   013.79 314.2 m E P       2011/06/22 19:51:26.6  -2.9                          T                                        4712137
FLN   014.09 314.2 m E P       2011/06/22 19:51:29.3  -3.6 130.2  6.7               T                                        4712136
ROSF  015.48 309.1 m E P       2011/06/22 19:51:45.1  -3.4                          T                                        4712135

.
EVENT     260667
    Date      Time       Latitude Longitude    Depth    Ndef Nsta Gap    Mag1  N    Mag2  N    Mag3  N   Author         ID
       rms   OT_Error      Smajor Sminor Az        Err   mdist  Mdist     Err        Err        Err      Quality

2011/06/23 01:15:59.8     44.5068    7.2007      2.0      12    6 219  Ml 1.5  4  Md 1.6  1              js067245    260667

      0.18   +-  0.13       2.7    1.0   60.78 +-  0.0    0.28   1.28   +-0.3      +-                    m i ke

NORTHERN ITALY
Sta     Dist  EvAz     Phase      Date       Time     TRes  Azim  AzRes  Slow  SRes Def   SNR       Amp   Per   Mag1   Mag2       ID
MBDF  000.38 305.8 m E Pg      2011/06/23 01:16:07.3   0.0                          T                                        4712170
MBDF  000.38 305.8 m E Sg      2011/06/23 01:16:12.7   0.3                          T                5.9  .23        Md 1.6  4712171
SBF   000.67 165.2 m E Pg      2011/06/23 01:16:12.5   0.0                          T                                        4712168
SBF   000.67 165.2 m E Sg      2011/06/23 01:16:20.7  -0.5                          T                2.1  .21                4712169
ORIF  001.03 294.1 m E Pg      2011/06/23 01:16:19.2   0.0                          T                                        4712181
ORIF  001.03 294.1 m E Sg      2011/06/23 01:16:32.4  -0.2                          T                 .5  .27 Ml 1.1         4712182
FRF   001.03 203.1 m E Pg      2011/06/23 01:16:19.3   0.2                          T                                        4712164
FRF   001.03 203.1 m E Sg      2011/06/23 01:16:32.4   0.0                          T                2.3  .23 Ml 1.8         4712165
LMR   001.27 203.3 m E Pg      2011/06/23 01:16:23.7   0.1                          T                                        4712166
LMR   001.27 203.3 m E Sg      2011/06/23 01:16:40.0  -0.1                          T                1.2  .21 Ml 1.7         4712167
SMRF  001.28 246.1 m E Sg      2011/06/23 01:16:40.6   0.1                          T                 .9  .28 Ml 1.5         4712180

.
EVENT     260668
    Date      Time       Latitude Longitude    Depth    Ndef Nsta Gap    Mag1  N    Mag2  N    Mag3  N   Author         ID
       rms   OT_Error      Smajor Sminor Az        Err   mdist  Mdist     Err        Err        Err      Quality

2011/06/23 02:17:31.0     43.8227    5.5676      2.0      13    4 225  Ml 1.0  1  Md 1.3  2              js067245    260668

      0.39   +-  0.10       2.1    1.0   71.63 +-  0.0    0.15   1.12   +-         +-0.3                 m i ke

NEAR SOUTH COAST OF FRANCE
Sta     Dist  EvAz     Phase      Date       Time     TRes  Azim  AzRes  Slow  SRes Def   SNR       Amp   Per   Mag1   Mag2       ID
SMRF  000.15 002.1 m E Pg      2011/06/23 02:17:34.1  -0.2                          T                                        4712189
SMRF  000.15 002.1 m E Sg      2011/06/23 02:17:37.0   0.6                          T                9.7  .54        Md 1.5  4712190
FRF   000.83 108.1 m E Pg      2011/06/23 02:17:46.7   0.1                          T                                        4712187
FRF   000.83 108.1 m E Sg      2011/06/23 02:17:57.4   0.1                          T                 .6  .22        Md 1.1  4712188
LMR   000.84 125.2 m E Pg      2011/06/23 02:17:47.0   0.2                          T                                        4712184
LMR   000.84 125.2 m E Sg      2011/06/23 02:17:57.4  -0.4                          T                                        4712185
LMR   000.84 125.2 m E Sn      2011/06/23 02:18:00.4   0.0                          T                 .6  .17                4712186
ORIF  001.12 011.5 m E Pg      2011/06/23 02:17:52.0   0.0                          T                                        4712195
ORIF  001.12 011.5 m E Sg      2011/06/23 02:18:06.5  -0.1                          T                 .4  .26 Ml 1.0         4712196

.
EVENT     260665
    Date      Time       Latitude Longitude    Depth    Ndef Nsta Gap    Mag1  N    Mag2  N    Mag3  N   Author         ID
       rms   OT_Error      Smajor Sminor Az        Err   mdist  Mdist     Err        Err        Err      Quality

2011/06/23 03:46:52.0     47.8856    9.3581     20.0 f    34   10 086  Ml 2.3  8  Md 2.7  2              js067245    260665

      0.42   +-  0.06       1.2    1.0  141.33 +-  0.0    0.25   3.77   +-0.2      +-0.2                 m i ke

GERMANY
Sta     Dist  EvAz     Phase      Date       Time     TRes  Azim  AzRes  Slow  SRes Def   SNR       Amp   Per   Mag1   Mag2       ID
LANF  001.51 317.2 m E Pn      2011/06/23 03:47:16.2  -0.1                          T                                        4712243
LANF  001.51 317.2 m E Pg      2011/06/23 03:47:20.8   0.5                          T                                        4712242
LANF  001.51 317.2 m E Sg      2011/06/23 03:47:40.3   0.4                          T               11.7  .38 Ml 2.5 Md 2.8  4712223
HINF  001.69 268.6 m E Pn      2011/06/23 03:47:18.7  -0.1                          T                                        4712237
HINF  001.69 268.6 m E Pg      2011/06/23 03:47:23.7   0.1                          T                                        4712236
HINF  001.69 268.6 m E Sn      2011/06/23 03:47:38.2  -0.3                          T                                        4712228
HINF  001.69 268.6 m E Sg      2011/06/23 03:47:45.3  -0.2                          T                5.0  .28 Ml 2.4 Md 2.5  4712227
CDF   001.49 291.5 m E Pg      2011/06/23 03:47:20.0  -0.1                          T                                        4712241
CDF   001.49 291.5 m E Sg      2011/06/23 03:47:39.3  -0.1                          T                5.3  .19 Ml 2.6         4712224
HAU   002.03 274.5 m E Pn      2011/06/23 03:47:23.3  -0.1                          T                                        4712239
HAU   002.03 274.5 m E Pg      2011/06/23 03:47:30.0   0.2                          T                                        4712238
HAU   002.03 274.5 m E Sg      2011/06/23 03:47:56.1   0.0                          T                6.1  .30 Ml 2.3         4712226
CABF  002.57 241.4 m E Pn      2011/06/23 03:47:30.9   0.0                          T                                        4712235
CABF  002.57 241.4 m E Pg      2011/06/23 03:47:39.8   0.0                          T                                        4712234
CABF  002.57 241.4 m E Sg      2011/06/23 03:48:13.1   0.2                          T                2.3  .25 Ml 2.3         4712229
PAGF  002.52 286.8 m E Pg      2011/06/23 03:47:38.9   0.1                          T                                        4712240
PAGF  002.52 286.8 m E Sg      2011/06/23 03:48:11.3   0.0 105.7  1.6               T                3.1  .59 Ml 2.0         4712225
LPL   002.98 218.3 m E Pg      2011/06/23 03:47:47.3  -0.3                          T                                        4712233
LPG   002.99 217.9 m E Pg      2011/06/23 03:47:47.5  -0.3                          T                                        4712232
LPG   002.99 217.9 m E Sn      2011/06/23 03:48:09.9   0.0                          T                                        4712231
LPG   002.99 217.9 m E Sg      2011/06/23 03:48:26.3   0.0                          T                1.5  .18 Ml 2.3         4712230
RUP   002.37 321.0 m E Sg      2011/06/23 03:48:06.6  -0.1                          T                                        4712222
LOR   003.77 262.6 m E Sg      2011/06/23 03:48:50.5   0.1                          T                  1  .22 Ml 2.3         4712221

.
EVENT     260669
    Date      Time       Latitude Longitude    Depth    Ndef Nsta Gap    Mag1  N    Mag2  N    Mag3  N   Author         ID
       rms   OT_Error      Smajor Sminor Az        Err   mdist  Mdist     Err        Err        Err      Quality

2011/06/23 04:15:06.3     45.3127    9.3813      2.0      13    9 268  Ml 2.1  9                         js067245    260669

      0.48   +-  0.47       8.5    5.2   70.18 +-  0.0    1.86   3.03   +-0.2                            m i ke

NORTHERN ITALY
Sta     Dist  EvAz     Phase      Date       Time     TRes  Azim  AzRes  Slow  SRes Def   SNR       Amp   Per   Mag1   Mag2       ID
MBDF  001.94 253.4 m E Pn      2011/06/23 04:15:37.0  -1.7                          T                                        4712272
MBDF  001.94 253.4 m E Sn      2011/06/23 04:16:00.8  -1.5                          T                1.8  .28 Ml 2.0         4712267
LPL   001.88 277.2 m E Pn      2011/06/23 04:15:37.9   0.0                          T                                        4712269
LPL   001.88 277.2 m E Sn      2011/06/23 04:16:00.8   0.0                          T                3.4  .32 Ml 2.2         4712268
LPG   001.86 276.6 m E Pn      2011/06/23 04:15:38.0   0.2                          T                                        4712271
LPG   001.86 276.6 m E Sn      2011/06/23 04:16:00.7   0.1                          T                2.0  .25 Ml 2.1         4712270
SBF   002.01 224.5 m E Pn      2011/06/23 04:15:39.3  -0.3                          T                                        4712275
SBF   002.01 224.5 m E Sn      2011/06/23 04:16:03.8   0.0                          T                7.0  .32 Ml 2.5         4712276
ORIF  002.51 262.2 m E Sn      2011/06/23 04:16:16.4   0.6                          T                1.2  .36 Ml 1.8         4712273
FRF   002.63 229.2 m E Sn      2011/06/23 04:16:18.8   0.3                          T                1.3  .31 Ml 2.0         4712274
PGF   002.78 185.8 m E Sn      2011/06/23 04:16:22.5   0.4                          T                1.4  .28 Ml 2.3         4712265
LMR   002.86 227.2 m E Sn      2011/06/23 04:16:24.0   0.1                          T                  1  .25 Ml 2.0         4712264
SMRF  003.03 245.1 m E Sn      2011/06/23 04:16:28.7   0.6                          T                 .9  .24 Ml 2.0         4712266

.
EVENT     260697
    Date      Time       Latitude Longitude    Depth    Ndef Nsta Gap    Mag1  N    Mag2  N    Mag3  N   Author         ID
       rms   OT_Error      Smajor Sminor Az        Err   mdist  Mdist     Err        Err        Err      Quality

2011/06/23 07:01:50.7     42.9435   -1.5478      2.0      16    3 178  Ml 1.7  1  Md 1.4  2              js067245    260697

      0.24   +-  0.10       1.8    1.3   97.21 +-  0.0    0.17   1.39   +-         +-0.1                 m i ke

PYRENEES
Sta     Dist  EvAz     Phase      Date       Time     TRes  Azim  AzRes  Slow  SRes Def   SNR       Amp   Per   Mag1   Mag2       ID
SJPF  000.29 054.2 m E Pg      2011/06/23 07:01:56.3  -0.1                          T                                        4712281
SJPF  000.29 054.2 m E Sg      2011/06/23 07:02:00.7   0.3                          T                3.5  .23        Md 1.5  4712282
ETSF  000.73 093.2 m E Pg      2011/06/23 07:02:04.4  -0.2                          T                                        4712279
ETSF  000.73 093.2 m E Sg      2011/06/23 07:02:14.0   0.0                          T                1.2  .24        Md 1.4  4712280
EPF   001.39 085.8 m E Pg      2011/06/23 07:02:16.8   0.1                          T                                        4712277
EPF   001.39 085.8 m E Sg      2011/06/23 07:02:34.1  -0.5                          T                1.2  .25 Ml 1.7         4712278

.
EVENT     260688
    Date      Time       Latitude Longitude    Depth    Ndef Nsta Gap    Mag1  N    Mag2  N    Mag3  N   Author         ID
       rms   OT_Error      Smajor Sminor Az        Err   mdist  Mdist     Err        Err        Err      Quality

2011/06/23 09:12:33.2     47.8167    5.8889       .0 f    14    8 095  Ml 2.4  5  Md 2.2  1              js067245    260688

      1.06   +-  0.14       3.4    2.0  160.22 +-  0.0    0.36   1.79   +-0.1      +-                    m i km

FRANCE
Sta     Dist  EvAz     Phase      Date       Time     TRes  Azim  AzRes  Slow  SRes Def   SNR       Amp   Per   Mag1   Mag2       ID
HAU   000.36 058.4 m E Pg      2011/06/23 09:12:39.8  -0.7                          T                                        4712319
HAU   000.36 058.4 m E Sg      2011/06/23 09:12:45.4  -0.1                          T               83.7  .74        Md 2.2  4712320
SFTF  000.69 304.5 m E Pg      2011/06/23 09:12:46.9   0.4 129.7  5.8               T                                        4712316
SFTF  000.69 304.5 m E Sg      2011/06/23 09:12:55.6  -0.1 119.6  -4.3              T               15.8  .38                4712317
MEZF  000.89 321.1 m E Pg      2011/06/23 09:12:50.0   0.0                          T                                        4712308
MEZF  000.89 321.1 m E Sn      2011/06/23 09:13:04.3   0.0                          T               13.4  .35 Ml 2.3         4712309
CDF   001.10 056.8 m E Pg      2011/06/23 09:12:54.4   0.2                          T                                        4712310
CDF   001.10 056.8 m E Sg      2011/06/23 09:13:09.2   0.5                          T               14.6  .52 Ml 2.4         4712318
HINF  000.65 089.6 m E Sg      2011/06/23 09:12:54.9   0.4                          T                4.4  .20                4712307
LOR   001.48 249.0 m E Pg      2011/06/23 09:13:01.0  -0.1  59.8  -7.7              T                                        4712311
LOR   001.48 249.0 m E Sg      2011/06/23 09:13:20.3  -0.1  70.5  3.0               T               11.7  .49 Ml 2.4         4712314
SSF   001.79 245.8 m E Pg      2011/06/23 09:13:06.6   0.0                          T                                        4712312
SSF   001.79 245.8 m E Sg      2011/06/23 09:13:29.7  -0.2                          T                7.2  .47 Ml 2.4         4712313
CABF  001.21 173.5 m E Sg      2011/06/23 09:13:12.5   0.4                          T               22.7  .58 Ml 2.5         4712315

.
