EVENT     300051
    Date      Time       Latitude Longitude    Depth    Ndef Nsta Gap    Mag1  N    Mag2  N    Mag3  N   Author         ID
       rms   OT_Error      Smajor Sminor Az        Err   mdist  Mdist     Err        Err        Err      Quality

2013/05/31 02:37:22.6     48.0464    7.3805      6.0 f    53   14 037  Ml 1.6 11  Md 1.9  3              bulletin    300151
                                                                                                         _ldg
      0.71   +-  0.05       1.1     .9    5.91 +-  0.0    0.23   2.90   +-0.2      +-0.1                 m i ke

FRANCE
Sta     Dist  EvAz     Phase      Date       Time     TRes  Azim  AzRes  Slow  SRes Def   SNR       Amp   Per   Mag1   Mag2       ID
CDF   000.37 349.2 m E Pg      2013/05/31 02:37:29.9  -0.1                          T                                        5298614
CDF   000.37 349.2 m E Sg      2013/05/31 02:37:35.0   0.0                          T                2.6  .28        Md 1.8  5298613
HINF  000.42 237.3 m E Pg      2013/05/31 02:37:30.8   0.0                          T                                        5298616
HINF  000.42 237.3 m E Sg      2013/05/31 02:37:36.3  -0.2                          T                6.2  .26        Md 1.9  5298615
HAU   000.69 267.0 m E Pg      2013/05/31 02:37:36.0   0.2                          T                                        5298618
HAU   000.69 267.0 m E Sg      2013/05/31 02:37:44.6  -0.3                          T                4.6  .32        Md 1.9  5298617
PAGF  001.22 295.3 m E Pg      2013/05/31 02:37:44.8  -0.6 117.5  3.4               T                                        5298620
PAGF  001.22 295.3 m E Sg      2013/05/31 02:38:01.0  -0.2 105.3  -8.8              T                 .9  .24 Ml 1.5         5298619
SFTF  001.58 276.6 m E Pn      2013/05/31 02:37:49.8   0.4 103.5  8.6               T                                        5298650
SFTF  001.58 276.6 m E Pg      2013/05/31 02:37:52.0   0.0                          T                                        5298649
SFTF  001.58 276.6 m E Sn      2013/05/31 02:38:09.1   0.1                          T                                        5298648
SFTF  001.58 276.6 m E Sg      2013/05/31 02:38:11.7  -0.7                          T                 .5  .17 Ml 1.5         5298647
MEZF  001.62 287.2 m E Pn      2013/05/31 02:37:50.0  -0.1                          T                                        5298646
MEZF  001.62 287.2 m E Pg      2013/05/31 02:37:52.1  -0.8                          T                                        5298645
MEZF  001.62 287.2 m E Sg      2013/05/31 02:38:13.4  -0.3 106.4  0.9               T                1.0  .26 Ml 1.7         5298644
CABF  001.68 212.0 m E Pn      2013/05/31 02:37:51.5   0.5                          T                                        5298653
CABF  001.68 212.0 m E Sn      2013/05/31 02:38:12.0   0.3                          T                                        5298652
CABF  001.68 212.0 m E Sg      2013/05/31 02:38:15.6  -0.2                          T                 .6  .19 Ml 1.6         5298651
LOR   002.50 253.2 m E Pn      2013/05/31 02:38:02.2   0.1  75.3  4.7               T                                        5298639
LOR   002.50 253.2 m E Pg      2013/05/31 02:38:09.2   0.0  75.1  4.5               T                                        5298638
LOR   002.50 253.2 m E Sg      2013/05/31 02:38:41.3   0.0  81.1  10.5              T                 .5  .21 Ml 1.7         5298637
LPL   002.57 190.2 m E Pn      2013/05/31 02:38:03.2  -0.1                          T                                        5298628
LPL   002.57 190.2 m E Sn      2013/05/31 02:38:33.7   0.7                          T                 .4  .27 Ml 1.5         5298627
LPG   002.59 189.9 m E Pn      2013/05/31 02:38:03.2  -0.3                          T                                        5298626
LPG   002.59 189.9 m E Pg      2013/05/31 02:38:10.1  -0.9                          T                                        5298625
LPG   002.59 189.9 m E Sn      2013/05/31 02:38:33.7   0.2                          T                 .2  .22 Ml 1.3         5298624
GIVF  002.66 321.7 m E Pn      2013/05/31 02:38:04.4   0.2                          T                                        5298643
GIVF  002.66 321.7 m E Pg      2013/05/31 02:38:11.9   0.0                          T                                        5298642
GIVF  002.66 321.7 m E Sg      2013/05/31 02:38:45.7  -0.4                          T                1.3  .17 Ml 2.2         5298641
SMF   002.78 241.1 m E Pn      2013/05/31 02:38:05.8  -0.1                          T                                        5298632
SMF   002.78 241.1 m E Pg      2013/05/31 02:38:14.1  -0.2                          T                                        5298631
SMF   002.78 241.1 m E Sn      2013/05/31 02:38:38.1   0.3                          T                                        5298630
SMF   002.78 241.1 m E Sg      2013/05/31 02:38:49.8  -0.4                          T                 .6  .24 Ml 1.8         5298629
SSF   002.80 250.9 m E Pn      2013/05/31 02:38:06.1  -0.1                          T                                        5298636
SSF   002.80 250.9 m E Pg      2013/05/31 02:38:14.7   0.1                          T                                        5298635
SSF   002.80 250.9 m E Sn      2013/05/31 02:38:38.5   0.2                          T                                        5298634
SSF   002.80 250.9 m E Sg      2013/05/31 02:38:50.3  -0.3                          T                 .2  .19 Ml 1.4         5298633
BAIF  002.90 315.2 m E Pn      2013/05/31 02:38:07.5   0.0                          T                                        5298640

.
EVENT     300081
    Date      Time       Latitude Longitude    Depth    Ndef Nsta Gap    Mag1  N    Mag2  N    Mag3  N   Author         ID
       rms   OT_Error      Smajor Sminor Az        Err   mdist  Mdist     Err        Err        Err      Quality

2013/05/31 03:33:02.7     45.8005    7.1406      3.0 f    18    3 121  Ml 1.2  1  Md 1.1  2              bulletin    300181
                                                                                                         _ldg
      0.18   +-  0.05       1.2     .8  139.73 +-  0.0    0.04   1.10   +-         +-0.0                 m i ke

NORTHERN ITALY
Sta     Dist  EvAz     Phase      Date       Time     TRes  Azim  AzRes  Slow  SRes Def   SNR       Amp   Per   Mag1   Mag2       ID
LPL   000.40 225.4 m E Pg      2013/05/31 03:33:10.8   0.1                          T                                        5299345
LPL   000.40 225.4 m E Sg      2013/05/31 03:33:15.9  -0.2                          T                1.2  .30        Md 1.1  5299344
LPG   000.41 222.2 m E Pg      2013/05/31 03:33:11.1   0.2                          T                                        5299347
LPG   000.41 222.2 m E Sg      2013/05/31 03:33:16.2  -0.2                          T                                Md 1.1  5299346
MBDF  001.10 193.8 m E Pg      2013/05/31 03:33:23.5  -0.1                          T                                        5299343
MBDF  001.10 193.8 m E Sg      2013/05/31 03:33:38.0   0.1                          T                 .5  .23 Ml 1.2         5299342

.
EVENT     300218
    Date      Time       Latitude Longitude    Depth    Ndef Nsta Gap    Mag1  N    Mag2  N    Mag3  N   Author         ID
       rms   OT_Error      Smajor Sminor Az        Err   mdist  Mdist     Err        Err        Err      Quality

2013/05/31 07:09:53.8     48.2000    7.4233     10.0      21    4 071  Ml 2.0  1  Md 1.6  2              bulletin    300318
                                                                                                         _ldg
      0.34   +-  0.06       1.4    1.1     .49 +-  0.0    0.18   1.60   +-         +-0.3                 m i ke

FRANCE
Sta     Dist  EvAz     Phase      Date       Time     TRes  Azim  AzRes  Slow  SRes Def   SNR       Amp   Per   Mag1   Mag2       ID
CDF   000.23 335.2 m E Pg      2013/05/31 07:09:58.8   0.0                          T                                        5303508
CDF   000.23 335.2 m E Sg      2013/05/31 07:10:01.9  -0.3                          T                7.3  .26        Md 1.4  5303509
HINF  000.54 225.2 m E Pg      2013/05/31 07:10:04.2   0.0                          T                                        5303511
HINF  000.54 225.2 m E P       2013/05/31 07:10:05.5   0.0                          T                                        5303512
HINF  000.54 225.2 m E Sg      2013/05/31 07:10:11.6   0.1                          T                2.3  .14                5303513
HINF  000.54 225.2 m E Sn      2013/05/31 07:10:14.2  -0.5                          T                3.7  .23        Md 1.8  5303514
HAU   000.75 255.3 m E Pg      2013/05/31 07:10:08.2   0.2                          T                                        5303515
HAU   000.75 255.3 m E P       2013/05/31 07:10:08.9  -0.4                          T                                        5303516
HAU   000.75 255.3 m E Sg      2013/05/31 07:10:18.0   0.2                          T                6.4  .27                5303517
SFTF  001.60 271.1 m E Sg      2013/05/31 07:10:44.1  -0.1                          T                1.7  .23 Ml 2.0         5303510

.
EVENT     300057
    Date      Time       Latitude Longitude    Depth    Ndef Nsta Gap    Mag1  N    Mag2  N    Mag3  N   Author         ID
       rms   OT_Error      Smajor Sminor Az        Err   mdist  Mdist     Err        Err        Err      Quality

2013/05/31 07:32:02.7     47.8306    4.7764       .0 f    32   15 101  Ml 2.2 11  Md 2.4  1              bulletin    300157
                                                                                                         _ldg
      0.50   +-  0.04       1.0     .6  135.90 +-  0.0    0.41   2.27   +-0.2      +-                    m i km

FRANCE
Sta     Dist  EvAz     Phase      Date       Time     TRes  Azim  AzRes  Slow  SRes Def   SNR       Amp   Per   Mag1   Mag2       ID
SFTF  000.41 025.0 m E Pg      2013/05/31 07:32:10.6  -0.3                          T                                        5298926
SFTF  000.41 025.0 m E Sg      2013/05/31 07:32:16.5   0.0 211.9  6.6               T               73.3  .82        Md 2.4  5298925
MEZF  000.70 015.3 m E Pg      2013/05/31 07:32:16.1   0.0 194.3  -1.1              T                                        5298916
MEZF  000.70 015.3 m E Sg      2013/05/31 07:32:25.3   0.0 196.2  0.8               T               12.1  .55                5298915
LOR   000.84 228.2 m E Pg      2013/05/31 07:32:18.6  -0.1                          T                                        5298922
LOR   000.84 228.2 m E Sg      2013/05/31 07:32:29.4  -0.4  44.8  -2.7              T                5.0  .42                5298914
PAGF  000.96 040.9 m E Pg      2013/05/31 07:32:21.1   0.1                          T                                        5298919
PAGF  000.96 040.9 m E Sg      2013/05/31 07:32:33.7   0.0 226.4  4.8               T                                        5298918
PAGF  000.96 040.9 m E Sn      2013/05/31 07:32:35.8   0.1                          T               13.5  .47 Ml 2.3         5299315
HAU   001.07 080.0 m E Pg      2013/05/31 07:32:23.1   0.0                          T                                        5298924
HAU   001.07 080.0 m E Sg      2013/05/31 07:32:37.1   0.0                          T               17.8  .48 Ml 2.2         5298920
SSF   001.16 228.7 m E Pg      2013/05/31 07:32:24.7   0.1                          T                                        5298923
SSF   001.16 228.7 m E Sg      2013/05/31 07:32:39.8   0.1                          T                8.4  .58 Ml 2.1         5298917
SMF   001.35 208.6 m E Pn      2013/05/31 07:32:27.3   0.0                          T                                        5299313
SMF   001.35 208.6 m E Pg      2013/05/31 07:32:28.0   0.0                          T                                        5299314
SMF   001.35 208.6 m E Sg      2013/05/31 07:32:45.8   0.1                          T                5.5  .26 Ml 2.3         5299312
AVF   001.42 223.5 m E Pn      2013/05/31 07:32:28.1  -0.1                          T                                        5299306
AVF   001.42 223.5 m E Sn      2013/05/31 07:32:46.7   0.0                          T                 .9  .24 Ml 1.6         5299305
HINF  001.40 089.8 m E Pg      2013/05/31 07:32:29.1   0.0                          T                                        5298911
HINF  001.40 089.8 m E Sn      2013/05/31 07:32:47.3   1.0                          T                4.7  .30 Ml 2.2         5298921
CABF  001.51 143.3 m E Pg      2013/05/31 07:32:31.2  -0.1                          T                                        5298912
CABF  001.51 143.3 m E Sg      2013/05/31 07:32:50.9   0.0                          T                8.7  .42 Ml 2.4         5298913
HYF   001.55 249.6 m E Pg      2013/05/31 07:32:32.0   0.1                          T                                        5299310
HYF   001.55 249.6 m E Sn      2013/05/31 07:32:50.0   0.1                          T                                        5299311
HYF   001.55 249.6 m E Sg      2013/05/31 07:32:52.2   0.1                          T                                        5299309
BGF   001.83 226.7 m E Pn      2013/05/31 07:32:33.8   0.0                          T                                        5299308
BGF   001.83 226.7 m E Sn      2013/05/31 07:32:56.5   0.0                          T                6.0  .34 Ml 2.4         5299307
CDF   001.77 069.9 m E Sg      2013/05/31 07:32:58.7  -0.4                          T                4.2  .44 Ml 2.2         5299320
BAIF  002.26 350.7 m E Sg      2013/05/31 07:33:14.3   0.1                          T                3.9  .24 Ml 2.5         5299317
GIVF  002.27 000.8 m E Sg      2013/05/31 07:33:14.7   0.1                          T                3.5  .22 Ml 2.5         5299316

.
EVENT     300079
    Date      Time       Latitude Longitude    Depth    Ndef Nsta Gap    Mag1  N    Mag2  N    Mag3  N   Author         ID
       rms   OT_Error      Smajor Sminor Az        Err   mdist  Mdist     Err        Err        Err      Quality

2013/05/31 08:46:28.6     32.8826   -5.6135      2.0      68    5 287  Ml 3.7  3                         bulletin    300179
                                                                                                         _ldg
      1.12   +-  0.49       9.8    6.2   13.26 +-  0.0    0.75  21.66   +-0.2                            m i ke

MOROCCO
Sta     Dist  EvAz     Phase      Date       Time     TRes  Azim  AzRes  Slow  SRes Def   SNR       Amp   Per   Mag1   Mag2       ID
ETSF  010.76 020.3 m E P       2013/05/31 08:49:07.2   0.2                          T                                        5299016
ETSF  010.76 020.3 m E Sn      2013/05/31 08:50:53.9  -1.3                          T                1.4  .21 Ml 3.7         5299013
SJPF  010.78 017.4 m E P       2013/05/31 08:49:07.5   0.4                          T                                        5299017
SJPF  010.78 017.4 m E Sn      2013/05/31 08:50:54.3  -1.4                          T                1.6  .29 Ml 3.6         5299014
EPF   011.16 023.1 m E P       2013/05/31 08:49:13.0   0.5                          T                                        5299015
EPF   011.16 023.1 m E Sn      2013/05/31 08:51:03.5  -1.3                          T                4.8  .48 Ml 3.9         5299012
QUIF  015.13 006.3 m E P       2013/05/31 08:50:04.3  -0.8                          T                                        5299011
ROSF  015.54 005.8 m E P       2013/05/31 08:50:10.7   0.3                          T                                        5299039

.
EVENT     300142
    Date      Time       Latitude Longitude    Depth    Ndef Nsta Gap    Mag1  N    Mag2  N    Mag3  N   Author         ID
       rms   OT_Error      Smajor Sminor Az        Err   mdist  Mdist     Err        Err        Err      Quality

2013/05/31 14:46:12.7     47.9925    6.3884       .0 f    13    7 114  Ml 1.8  4  Md 1.6  2              bulletin    300242
                                                                                                         _ldg
      0.14   +-  0.04       1.1     .6   10.73 +-  0.0    0.03   1.86   +-0.2      +-0.2                 m i km

FRANCE
Sta     Dist  EvAz     Phase      Date       Time     TRes  Azim  AzRes  Slow  SRes Def   SNR       Amp   Per   Mag1   Mag2       ID
HAU   000.03 295.8 m E Pg      2013/05/31 14:46:14.5   1.0                          T                                        5299562
HAU   000.03 295.8 m E Sg      2013/05/31 14:46:15.4   1.3                          T              195.4  .46        Md 1.5  5299559
HINF  000.36 119.2 m E Pg      2013/05/31 14:46:20.0   0.0                          T                                        5299561
HINF  000.36 119.2 m E Sg      2013/05/31 14:46:25.3   0.3                          T               45.2  .78        Md 1.8  5299560
CDF   000.73 054.4 m E Pg      2013/05/31 14:46:26.8   0.0                          T                                        5299568
CDF   000.73 054.4 m E Sg      2013/05/31 14:46:36.3  -0.2                          T                3.0  .27                5299567
SFTF  000.93 283.7 m E Pg      2013/05/31 14:46:30.5   0.1                          T                                        5299565
SFTF  000.93 283.7 m E Sg      2013/05/31 14:46:42.8   0.1                          T                6.6  .43 Ml 2.0         5299566
MEZF  001.03 300.2 m E Pg      2013/05/31 14:46:32.3   0.0                          T                                        5303519
MEZF  001.03 300.2 m E P       2013/05/31 14:46:34.3   0.0                          T                                        5299564
MEZF  001.03 300.2 m E Sg      2013/05/31 14:46:45.7  -0.1                          T                3.2  .30 Ml 1.9         5299563
CABF  001.40 188.5 m E Sg      2013/05/31 14:46:57.1  -0.3                          T                 .9  .25 Ml 1.5         5303518
LOR   001.86 248.0 m E Sg      2013/05/31 14:47:11.7   0.0                          T                1.1  .30 Ml 1.7         5303520

.
