EVENT     271430
    Date      Time       Latitude Longitude    Depth    Ndef Nsta Gap    Mag1  N    Mag2  N    Mag3  N   Author         ID
       rms   OT_Error      Smajor Sminor Az        Err   mdist  Mdist     Err        Err        Err      Quality

2012/03/07 23:26:20.3     40.8910    1.6194     10.0      18    3 230  Ml 1.6  3                         js067245    271450

      0.60   +-  0.30       4.7    2.7  157.45 +-  0.0    0.46   3.07   +-0.2                            m i ke

BALEARIC ISLANDS, SPAIN
Sta     Dist  EvAz     Phase      Date       Time     TRes  Azim  AzRes  Slow  SRes Def   SNR       Amp   Per   Mag1   Mag2       ID
MTLF  002.49 010.1 m E P       2012/03/07 23:27:01.9   0.1                          T                                        4875909
MTLF  002.49 010.1 m E Sg      2012/03/07 23:27:38.7   0.1                          T                 .3  .21 Ml 1.5         4875910
EPF   002.34 336.4 m E Pg      2012/03/07 23:27:04.5   0.7                          T                                        4875911
EPF   002.34 336.4 m E Sg      2012/03/07 23:27:33.2  -0.8                          T                  1  .26 Ml 1.9         4874378
SJPF  003.07 317.3 m E Sg      2012/03/07 23:27:56.9   0.2                          T                 .2  .23 Ml 1.4         4875908

.
EVENT     271431
    Date      Time       Latitude Longitude    Depth    Ndef Nsta Gap    Mag1  N    Mag2  N    Mag3  N   Author         ID
       rms   OT_Error      Smajor Sminor Az        Err   mdist  Mdist     Err        Err        Err      Quality

2012/03/07 23:29:21.6     40.8677    1.6169     10.0      23    3 188  Ml 2.1  3                         js067245    271451

      0.99   +-  0.32       5.7    3.6  143.50 +-  0.0    0.25   3.09   +-0.1                            m i ke

BALEARIC ISLANDS, SPAIN
Sta     Dist  EvAz     Phase      Date       Time     TRes  Azim  AzRes  Slow  SRes Def   SNR       Amp   Per   Mag1   Mag2       ID
MTLF  002.51 010.0 m E P       2012/03/07 23:30:03.1  -0.2                          T                                        4875902
MTLF  002.51 010.0 m E Sn      2012/03/07 23:30:28.2  -1.3                          T                                        4875903
MTLF  002.51 010.0 m E Sg      2012/03/07 23:30:40.1  -0.5                          T                1.2  .26 Ml 2.0         4874375
EPF   002.36 336.6 m E Pg      2012/03/07 23:30:05.9   0.4                          T                                        4874379
EPF   002.36 336.6 m E Sg      2012/03/07 23:30:35.1  -0.9                          T                2.6  .30 Ml 2.2         4874376
SJPF  003.09 317.6 m E Sg      2012/03/07 23:30:58.2  -0.2                          T                 .8  .19 Ml 2.1         4874377

.
EVENT     271428
    Date      Time       Latitude Longitude    Depth    Ndef Nsta Gap    Mag1  N    Mag2  N    Mag3  N   Author         ID
       rms   OT_Error      Smajor Sminor Az        Err   mdist  Mdist     Err        Err        Err      Quality

2012/03/07 23:30:18.7     44.4892    6.6685      5.0 f   181   39 027  Ml 3.5 38  Md 3.4  1              js067245    271448

      0.84   +-  0.04       1.1    1.0   62.95 +-  0.0    0.07   8.66   +-0.3      +-                    m i ke

FRANCE
Sta     Dist  EvAz     Phase      Date       Time     TRes  Azim  AzRes  Slow  SRes Def   SNR       Amp   Per   Mag1   Mag2       ID
MBDF  000.25 017.1 m E Pg      2012/03/07 23:30:23.8  -0.2                          T                                        4866105
MBDF  000.25 017.1 m E Sg      2012/03/07 23:30:27.3   0.0                          T   001.0     3926.9  .48        Md 3.4  4865932
ORIF  000.71 307.6 m E Pg      2012/03/07 23:30:32.1  -0.2                          T                                        4866104
ORIF  000.71 307.6 m E Sg      2012/03/07 23:30:42.0   0.5                          T   001.0      756.0  .24                4865936
SBF   000.83 138.3 m E Pg      2012/03/07 23:30:34.8   0.3                          T   001.0                                4865917
SBF   000.83 138.3 m E Sg      2012/03/07 23:30:45.0  -0.4                          T   001.0      418.3  .24                4865921
FRF   000.93 181.0 m E Pn      2012/03/07 23:30:37.1   0.3                          T   001.0                                4865896
FRF   000.93 181.0 m E P       2012/03/07 23:30:38.3   0.4                          T   001.0                                4865895
FRF   000.93 181.0 m E Sg      2012/03/07 23:30:48.4   0.1                          T   001.0      348.9  .16 Ml 4.2         4865897
LPG   001.01 003.3 m E Pg      2012/03/07 23:30:37.7  -0.4                          T   001.0                                4865910
LPG   001.01 003.3 m E Sg      2012/03/07 23:30:51.0  -0.2                          T   001.0      309.2  .38 Ml 3.7         4865911
SMRF  000.94 237.2 m E Pn      2012/03/07 23:30:37.8   0.8                          T   001.0                                4865940
SMRF  000.94 237.2 m E P       2012/03/07 23:30:38.7   0.5                          T                                        4866103
SMRF  000.94 237.2 m E Sg      2012/03/07 23:30:48.6   0.0                          T   001.0      230.3  .32 Ml 3.6         4865941
LPL   001.03 002.5 m E Pg      2012/03/07 23:30:38.0  -0.3                          T   001.0                                4865912
LPL   001.03 002.5 m E Sg      2012/03/07 23:30:51.3  -0.4                          T   001.0      159.7  .29 Ml 3.6         4865913
LMR   001.16 185.7 m E Pg      2012/03/07 23:30:40.8   0.4                          T   001.0                                4865905
LMR   001.16 185.7 m E P       2012/03/07 23:30:42.2   0.5                          T   001.0                                4865904
LMR   001.16 185.7 m E Sg      2012/03/07 23:30:55.5   0.0                          T   001.0      506.0  .36 Ml 4.1         4865906
VIVF  001.47 285.1 m E Pg      2012/03/07 23:30:46.0  -0.2                          T   001.0                                4865938
VIVF  001.47 285.1 m E Sg      2012/03/07 23:31:05.4   0.2                          T   001.0      144.1  .26 Ml 3.8         4865939
LASF  002.06 259.4 m E P       2012/03/07 23:30:54.1  -0.5                          T   001.0                                4865901
LASF  002.06 259.4 m E Sn      2012/03/07 23:31:17.5   0.6                          T               37.4  .22 Ml 3.4         4866154
CABF  002.16 349.3 m E P       2012/03/07 23:30:56.7   0.6                          T   001.0                                4865927
CABF  002.16 349.3 m E Sn      2012/03/07 23:31:19.7   0.4                          T                                        4866143
CABF  002.16 349.3 m E Sg      2012/03/07 23:31:26.6  -0.2                          T              266.4  .70 Ml 3.8         4866142
PGF   002.58 138.0 m E P       2012/03/07 23:31:00.9  -1.1                          T   001.0                                4865915
PGF   002.58 138.0 m E Sn      2012/03/07 23:31:29.3   0.1                          T   001.0         34  .20 Ml 3.8         4865916
SMF   002.93 318.4 m E P       2012/03/07 23:31:06.7  -0.3                          T   001.0                                4865922
SMF   002.93 318.4 m E Sg      2012/03/07 23:31:50.4  -0.4                          T               71.4  .36 Ml 3.7         4866145
AVF   003.27 315.9 m E P       2012/03/07 23:31:11.5  -0.3                          T   001.0                                4865887
AVF   003.27 315.9 m E Sn      2012/03/07 23:31:45.8   0.1                          T   001.0       86.7  .56 Ml 3.7         4865888
AVF   003.27 315.9 m E Sg      2012/03/07 23:32:01.5   0.2                          T              102.1  .58 Ml 3.7         4866144
HINF  003.33 002.1 m E P       2012/03/07 23:31:11.6  -1.1                          T   001.0                                4865929
HINF  003.33 002.1 m E Sn      2012/03/07 23:31:46.5  -0.7                          T   001.0                                4865930
HINF  003.33 002.1 m E Sg      2012/03/07 23:32:03.2   0.0                          T   001.0       24.9  .40 Ml 3.3         4865931
CAF   003.31 279.2 m E P       2012/03/07 23:31:11.7  -0.7                          T   001.0                                4865890
CAF   003.31 279.2 m E Sn      2012/03/07 23:31:47.4   0.7                          T   001.0       17.5  .28 Ml 3.3         4865891
MTLF  003.41 251.9 m E P       2012/03/07 23:31:13.2  -0.7                          T   001.0                                4865934
MTLF  003.41 251.9 m E Sn      2012/03/07 23:31:50.0   0.9                          T   001.0        6.5  .20 Ml 3.0         4865935
LOR   003.40 325.8 m E P       2012/03/07 23:31:13.2  -0.5 146.3  2.6               T   001.0                                4865908
LOR   003.40 325.8 m E Sn      2012/03/07 23:31:48.8  -0.1 168.6  24.9              T               27.8  .31 Ml 3.5         4866131
LOR   003.40 325.8 m E Sg      2012/03/07 23:32:05.3  -0.2 151.9  8.1               T               25.9  .30 Ml 3.5         4866130
SSF   003.39 320.4 m E P       2012/03/07 23:31:13.2  -0.3                          T   001.0                                4865923
SSF   003.39 320.4 m E Sg      2012/03/07 23:32:05.0  -0.2                          T               41.2  .39 Ml 3.6         4866132
BGF   003.39 308.9 m E P       2012/03/07 23:31:13.2  -0.3                          T   001.0                                4865889
BGF   003.39 308.9 m E Sg      2012/03/07 23:32:04.5  -0.6                          T              103.0  .46 Ml 3.9         4866148
HAU   003.52 356.5 m E P       2012/03/07 23:31:15.1  -0.3                          T   001.0                                4865899
HAU   003.52 356.5 m E Sn      2012/03/07 23:31:52.2   0.3                          T   001.0       27.8  .32 Ml 3.3         4865900
HAU   003.52 356.5 m E Sg      2012/03/07 23:32:10.3   1.0                          T               43.5  .44 Ml 3.3         4866141
TCF   003.62 301.4 m E P       2012/03/07 23:31:16.5  -0.3                          T   001.0                                4865924
TCF   003.62 301.4 m E Sn      2012/03/07 23:31:54.1   0.0                          T                8.6  .22 Ml 3.2         4866134
TCF   003.62 301.4 m E Sg      2012/03/07 23:32:12.3   0.1                          T               61.7  .74 Ml 3.5         4866133
THEF  003.77 353.1 m E P       2012/03/07 23:31:18.4  -0.5                          T                                        4866159
THEF  003.77 353.1 m E Sg      2012/03/07 23:32:17.2   0.3                          T                                        4866140
RJF   003.75 284.4 m E P       2012/03/07 23:31:18.5  -0.1                          T   001.0                                4865885
RJF   003.75 284.4 m E Sn      2012/03/07 23:31:58.1   1.0                          T   001.0       31.4  .60 Ml 3.0         4865886
RJF   003.75 284.4 m E Sg      2012/03/07 23:32:16.3   0.0                          T               48.5  .71 Ml 3.1         4866152
CDF   003.95 005.9 m E Pn      2012/03/07 23:31:19.4   1.3                          T   001.0                                4865892
CDF   003.95 005.9 m E Sg      2012/03/07 23:32:22.1  -0.5                          T               26.3  .56 Ml 3.4         4866136
SFTF  003.88 343.7 m E P       2012/03/07 23:31:20.1  -0.4 152.6  -9.9              T                                        4866160
SFTF  003.88 343.7 m E Sg      2012/03/07 23:32:20.3  -0.2                          T               47.2  .57 Ml 3.5         4866139
HYF   003.95 316.1 m E P       2012/03/07 23:31:21.5   0.0                          T                                        4866158
HYF   003.95 316.1 m E Sn      2012/03/07 23:32:03.0   1.0                          T                                        4866147
HYF   003.95 316.1 m E Sg      2012/03/07 23:32:22.5  -0.2                          T                                        4866146
PAGF  004.12 351.2 m E P       2012/03/07 23:31:23.5  -0.3 173.0  2.5               T                                        4866161
PAGF  004.12 351.2 m E Sg      2012/03/07 23:32:27.9   0.1                          T               14.7  .74 Ml 3.0         4866137
MEZF  004.17 345.0 m E P       2012/03/07 23:31:24.2  -0.3 159.7  -4.2              T   001.0                                4865933
MEZF  004.17 345.0 m E Sg      2012/03/07 23:32:29.7   0.4 170.5  6.7               T               45.8  .50 Ml 3.6         4866138
LFF   004.25 278.2 m E P       2012/03/07 23:31:25.1  -0.6                          T   001.0                                4865920
LFF   004.25 278.2 m E Sg      2012/03/07 23:32:31.9   0.0                          T   001.0       31.1  .56 Ml 3.3         4865903
EPF   004.81 254.6 m E Pn      2012/03/07 23:31:31.1   1.3                          T   001.0                                4865893
EPF   004.81 254.6 m E P       2012/03/07 23:31:33.7  -0.1                          T                                        4866155
EPF   004.81 254.6 m E Sg      2012/03/07 23:32:49.2  -0.2                          T                4.2  .27 Ml 3.0         4866153
MFF   005.23 296.2 m E P       2012/03/07 23:31:39.1  -0.6                          T   001.0                                4865914
MFF   005.23 296.2 m E Sg      2012/03/07 23:33:02.8   0.3                          T               13.6  .57 Ml 3.5         4866151
GIVF  005.75 348.1 m E Pn      2012/03/07 23:31:42.9   0.4                          T                                        4866162
GIVF  005.75 348.1 m E P       2012/03/07 23:31:46.1  -0.9                          T   001.0                                4865928
GIVF  005.75 348.1 m E Sn      2012/03/07 23:32:45.8   0.8                          T                7.2  .36 Ml 3.3         4866135
BAIF  005.82 344.2 m E P       2012/03/07 23:31:46.7  -1.1                          T   001.0                                4865925
BAIF  005.82 344.2 m E Sn      2012/03/07 23:32:46.7   0.2                          T   001.0        8.1  .48 Ml 3.3         4865926
SJPF  005.88 259.2 m E P       2012/03/07 23:31:48.2  -0.6                          T                                        4866156
LDF   006.23 313.6 m E P       2012/03/07 23:31:51.7  -1.9                          T   001.0                                4865902
LDF   006.23 313.6 m E Sn      2012/03/07 23:32:57.1   0.7                          T   001.0       11.2  .76 Ml 3.3         4865919
LDF   006.23 313.6 m E Sg      2012/03/07 23:33:33.6   0.0                          T               34.3  .81 Ml 3.7         4866150
GRR   006.50 309.5 m E P       2012/03/07 23:31:55.9  -1.5                          T   001.0                                4865898
FLN   006.52 313.5 m E P       2012/03/07 23:31:56.0  -1.7 138.6  10.3              T   001.0                                4865894
SGMF  007.41 303.8 m E P       2012/03/07 23:32:08.2  -2.1                          T   001.0                                4865937

.
EVENT     271432
    Date      Time       Latitude Longitude    Depth    Ndef Nsta Gap    Mag1  N    Mag2  N    Mag3  N   Author         ID
       rms   OT_Error      Smajor Sminor Az        Err   mdist  Mdist     Err        Err        Err      Quality

2012/03/07 23:51:50.3     44.5106    6.6830      2.0      39    9 047  Ml 1.5  5  Md 1.5  1              js067245    271452

      0.56   +-  0.10       2.1    1.5   58.50 +-  0.0    0.10   1.48   +-0.4      +-                    m i ke

FRANCE
Sta     Dist  EvAz     Phase      Date       Time     TRes  Azim  AzRes  Slow  SRes Def   SNR       Amp   Per   Mag1   Mag2       ID
MBDF  000.23 016.2 m E Pg      2012/03/07 23:51:55.2   0.2                          T                                        4874425
MBDF  000.23 016.2 m E Sg      2012/03/07 23:51:58.6   0.6                          T                4.2  .20        Md 1.5  4874426
ORIF  000.70 305.7 m E Pg      2012/03/07 23:52:03.6   0.0                          T                                        4874424
ORIF  000.70 305.7 m E Sg      2012/03/07 23:52:12.8  -0.1                          T                3.1  .26                4874418
SBF   000.84 139.8 m E Pg      2012/03/07 23:52:07.1   0.9                          T                                        4874419
SBF   000.84 139.8 m E Sg      2012/03/07 23:52:18.2   0.9                          T                2.2  .21                4874470
FRF   000.95 181.6 m E P       2012/03/07 23:52:08.7  -1.5                          T                                        4874421
FRF   000.95 181.6 m E Sg      2012/03/07 23:52:19.3  -1.2                          T                2.4  .20 Ml 1.9         4874416
LPG   000.99 002.8 m E Pg      2012/03/07 23:52:09.1  -0.1                          T                                        4874422
LPG   000.99 002.8 m E Sg      2012/03/07 23:52:22.4   0.4                          T                 .6  .22 Ml 1.2         4874471
LPL   001.01 002.0 m E Pg      2012/03/07 23:52:09.5   0.1                          T                                        4874423
LPL   001.01 002.0 m E Sg      2012/03/07 23:52:22.8   0.4                          T                                        4874417
SMRF  000.96 236.5 m E P       2012/03/07 23:52:10.3  -0.1                          T                                        4875913
SMRF  000.96 236.5 m E Sn      2012/03/07 23:52:22.8   0.1                          T                 .4  .19 Ml 1.1         4875914
LMR   001.18 186.2 m E Pg      2012/03/07 23:52:13.3   0.9                          T                                        4874420
LMR   001.18 186.2 m E Sg      2012/03/07 23:52:27.0  -0.7                          T                2.0  .25 Ml 1.8         4874415
VIVF  001.48 284.2 m E Sg      2012/03/07 23:52:36.7  -0.2                          T                 .8  .29 Ml 1.5         4874472

.
