EVENT     271005
    Date      Time       Latitude Longitude    Depth    Ndef Nsta Gap    Mag1  N    Mag2  N    Mag3  N   Author         ID
       rms   OT_Error      Smajor Sminor Az        Err   mdist  Mdist     Err        Err        Err      Quality

2012/02/29 10:14:29.1     44.8053    9.0298     10.0 f    50   10 148  Ml 2.7  8  Md 2.6  2              js067245    271026

      0.85   +-  0.13       3.2    1.8   17.00 +-  0.0    0.30   4.36   +-0.2      +-0.1                 m i ke

NORTHERN ITALY
Sta     Dist  EvAz     Phase      Date       Time     TRes  Azim  AzRes  Slow  SRes Def   SNR       Amp   Per   Mag1   Mag2       ID
SBF   001.48 231.1 m E P       2012/02/29 10:14:56.0  -0.2                          T                                        4863452
SBF   001.48 231.1 m E Sg      2012/02/29 10:15:16.1   0.1                          T               25.8  .22 Ml 3.1 Md 2.6  4863451
MBDF  001.61 268.0 m E Pn      2012/02/29 10:14:56.3   0.1                          T                                        4863811
MBDF  001.61 268.0 m E P       2012/02/29 10:14:57.6  -0.6                          T                                        4863454
MBDF  001.61 268.0 m E Sg      2012/02/29 10:15:19.8  -0.4                          T               17.6  .34 Ml 2.8 Md 2.7  4863711
LPL   001.77 294.4 m E Pn      2012/02/29 10:14:58.1  -0.4                          T                                        4863810
LPL   001.77 294.4 m E Sn      2012/02/29 10:15:19.6  -0.1                          T               10.1  .24 Ml 2.8         4863710
LPG   001.75 294.0 m E P       2012/02/29 10:15:01.2   0.8                          T                                        4863450
LPG   001.75 294.0 m E Sn      2012/02/29 10:15:18.6  -0.7                          T               11.7  .28 Ml 2.8         4863449
FRF   002.12 234.9 m E Pn      2012/02/29 10:15:05.0   2.2                          T                                        4863445
FRF   002.12 234.9 m E Pg      2012/02/29 10:15:08.4  -0.1                          T                                        4863446
FRF   002.12 234.9 m E Sg      2012/02/29 10:15:34.5  -1.2                          T                7.0  .29 Ml 2.6         4863443
ORIF  002.24 274.0 m E P       2012/02/29 10:15:06.9  -0.2                          T                                        4863453
ORIF  002.24 274.0 m E Sg      2012/02/29 10:15:40.3   0.5                          T                7.9  .32 Ml 2.7         4863444
LMR   002.34 231.9 m E Pn      2012/02/29 10:15:07.6   1.8                          T                                        4863448
LMR   002.34 231.9 m E Pg      2012/02/29 10:15:12.4  -0.1                          T                                        4863447
LMR   002.34 231.9 m E Sn      2012/02/29 10:15:32.7  -0.2                          T               11.5  .48 Ml 2.7         4863712
SMRF  002.61 252.7 m E P       2012/02/29 10:15:13.3   1.0                          T                                        4863808
VIVF  003.10 272.5 m E Sn      2012/02/29 10:15:53.1   1.9                          T                1.6  .24 Ml 2.3         4863809
LOR   004.36 306.2 m E Sn      2012/02/29 10:16:22.2   0.9                          T                                        4863807

.
EVENT     271006
    Date      Time       Latitude Longitude    Depth    Ndef Nsta Gap    Mag1  N    Mag2  N    Mag3  N   Author         ID
       rms   OT_Error      Smajor Sminor Az        Err   mdist  Mdist     Err        Err        Err      Quality

2012/02/29 10:28:40.1     44.5057    6.7307      8.0 f    40    7 046  Ml 1.9  2  Md 1.9  4              js067245    271027

      0.76   +-  0.09       1.9    1.6   65.76 +-  0.0    0.06   1.51   +-0.1      +-0.1                 m i ke

FRANCE
Sta     Dist  EvAz     Phase      Date       Time     TRes  Azim  AzRes  Slow  SRes Def   SNR       Amp   Per   Mag1   Mag2       ID
MBDF  000.22 007.5 m E Pg      2012/02/29 10:28:45.0   0.1                          T                                        4863456
MBDF  000.22 007.5 m E Sg      2012/02/29 10:28:48.3   0.2                          T                8.4  .20        Md 2.1  4863469
ORIF  000.73 304.5 m E Pg      2012/02/29 10:28:53.4  -0.7                          T                                        4863468
ORIF  000.73 304.5 m E Sg      2012/02/29 10:29:03.3  -0.5                          T                3.6  .24        Md 1.9  4863467
SBF   000.82 141.5 m E Pg      2012/02/29 10:28:55.5  -0.2                          T                                        4863463
SBF   000.82 141.5 m E Sg      2012/02/29 10:29:06.5   0.1                          T                4.5  .25        Md 1.9  4863470
FRF   000.95 183.7 m E Pg      2012/02/29 10:28:58.3   0.3                          T                                        4863462
FRF   000.95 183.7 m E Sg      2012/02/29 10:29:10.3   0.0                          T                                Md 1.9  4863460
SMRF  000.98 237.9 m E Pg      2012/02/29 10:28:59.6   0.9                          T                                        4863466
SMRF  000.98 237.9 m E Sg      2012/02/29 10:29:11.8   0.3                          T                3.3  .32 Ml 1.8         4863465
LMR   001.18 187.9 m E Pg      2012/02/29 10:29:02.9   0.6                          T                                        4863464
LMR   001.18 187.9 m E Sg      2012/02/29 10:29:17.7   0.1                          T                2.3  .20 Ml 2.0         4863461
VIVF  001.51 284.1 m E Pg      2012/02/29 10:29:08.9   0.6                          T                                        4863459

.
EVENT     271157
    Date      Time       Latitude Longitude    Depth    Ndef Nsta Gap    Mag1  N    Mag2  N    Mag3  N   Author         ID
       rms   OT_Error      Smajor Sminor Az        Err   mdist  Mdist     Err        Err        Err      Quality

2012/02/29 10:51:50.9     44.6832    4.6868       .0 f    17   10 087  Ml 2.8  4  Md 2.7  2              js067245    271178

      0.62   +-  0.15       3.0    2.7  177.68 +-  0.0    0.17   3.55   +-0.0      +-0.1                 m i km

FRANCE
Sta     Dist  EvAz     Phase      Date       Time     TRes  Azim  AzRes  Slow  SRes Def   SNR       Amp   Per   Mag1   Mag2       ID
VIVF  000.17 356.7 m E Pg      2012/02/29 10:51:53.8  -0.9                          T                                        4863600
VIVF  000.17 356.7 m E Sg      2012/02/29 10:51:57.5   0.1                          T             1851.8  .66        Md 2.7  4863595
LASF  000.85 224.7 m E Pg      2012/02/29 10:52:07.1  -0.1                          T                                        4863599
LASF  000.85 224.7 m E Sg      2012/02/29 10:52:18.7   0.2                          T              140.1  .62        Md 2.8  4863593
ORIF  000.88 074.1 m E Pg      2012/02/29 10:52:09.0   1.1                          T                                        4863598
SMRF  000.95 137.6 m E Pg      2012/02/29 10:52:09.8   0.7                          T                                        4863597
MBDF  001.49 087.6 m E Pg      2012/02/29 10:52:20.9   1.8                          T                                        4863596
LPL   001.67 059.4 m E Pg      2012/02/29 10:52:21.9  -0.7                          T                                        4863736
LPL   001.67 059.4 m E Sg      2012/02/29 10:52:44.5   0.2                          T               34.7  .68 Ml 2.8         4863737
LPG   001.67 060.2 m E Pg      2012/02/29 10:52:22.5  -0.3                          T                                        4863735
LPG   001.67 060.2 m E Sg      2012/02/29 10:52:44.6   0.1                          T               25.0  .50 Ml 2.8         4863738
FRF   001.80 127.8 m E Pg      2012/02/29 10:52:24.4  -0.3                          T                                        4863734
MTLF  002.23 233.9 m E Pg      2012/02/29 10:52:31.9  -0.7                          T                                        4863594
MTLF  002.23 233.9 m E Sg      2012/02/29 10:53:01.8   0.3                          T               18.8  .55 Ml 2.8         4863592
EPF   003.55 243.8 m E Sg      2012/02/29 10:53:43.2   0.3                          T               13.2  .62 Ml 2.9         4863591

.
EVENT     271030
    Date      Time       Latitude Longitude    Depth    Ndef Nsta Gap    Mag1  N    Mag2  N    Mag3  N   Author         ID
       rms   OT_Error      Smajor Sminor Az        Err   mdist  Mdist     Err        Err        Err      Quality

2012/02/29 15:34:59.4     44.8469    8.9393      2.0     170   35 040  Ml 3.8 38  Md 3.7  3              js067245    271051

      1.43   +-  0.13       3.2    2.5  145.35 +-  0.0    0.37  17.46   +-0.3      +-0.1                 m i ke

NORTHERN ITALY
Sta     Dist  EvAz     Phase      Date       Time     TRes  Azim  AzRes  Slow  SRes Def   SNR       Amp   Per   Mag1   Mag2       ID
MBDF  001.55 266.3 m E Pn      2012/02/29 15:35:26.0  -0.5                          T   001.0                                4856261
MBDF  001.55 266.3 m E Sn      2012/02/29 15:35:44.9  -1.1                          T   001.0      159.3  .29 Ml 3.8         4856262
MBDF  001.55 266.3 m E Sg      2012/02/29 15:35:49.0   0.6                          T                                        4863806
SBF   001.46 228.2 m E Pn      2012/02/29 15:35:26.0   0.8                          T   001.0                                4856290
SBF   001.46 228.2 m E Sg      2012/02/29 15:35:45.7   0.1                          T   001.0      668.0  .34 Ml 4.3 Md 3.6  4856292
LPL   001.70 294.0 m E Pn      2012/02/29 15:35:28.0  -0.7                          T   001.0                                4856285
LPL   001.70 294.0 m E Sn      2012/02/29 15:35:49.4  -0.2                          T              599.1  .54 Ml 4.2         4863610
LPG   001.68 293.6 m E Pn      2012/02/29 15:35:30.1   1.7                          T   001.0                                4856284
LPG   001.68 293.6 m E Sg      2012/02/29 15:35:52.6  -0.1                          T              315.2  .34 Ml 4.1         4863609
FRF   002.09 232.8 m E Pn      2012/02/29 15:35:34.4   0.7                          T   001.0                                4856274
FRF   002.09 232.8 m E Sg      2012/02/29 15:36:05.4   0.2                          T   001.0      503.6  .62 Ml 4.2         4856275
PGF   002.30 178.9 m E Pn      2012/02/29 15:35:35.0  -1.7                          T   001.0                                4856288
PGF   002.30 178.9 m E Sn      2012/02/29 15:36:02.0  -1.9                          T   001.0       76.5  .28 Ml 3.9         4856289
LMR   002.31 230.0 m E Pn      2012/02/29 15:35:36.8   0.1                          T   001.0                                4856279
LMR   002.31 230.0 m E Pg      2012/02/29 15:35:42.6   0.3                          T                                        4863601
LMR   002.31 230.0 m E Sn      2012/02/29 15:36:03.9  -0.2                          T   001.0      291.8  .46 Ml 4.1         4856280
LMR   002.31 230.0 m E Sg      2012/02/29 15:36:11.9  -0.2                          T   001.0      116.0  .33 Ml 3.8         4856281
ORIF  002.18 273.0 m E P       2012/02/29 15:35:36.8  -0.5                          T   001.0                                4856254
ORIF  002.18 273.0 m E Sn      2012/02/29 15:36:00.9   0.0                          T              403.2  .48 Ml 4.2         4864353
CABF  002.66 312.5 m E Pn      2012/02/29 15:35:42.3   0.7                          T   001.0                                4856300
CABF  002.66 312.5 m E Sn      2012/02/29 15:36:12.3  -0.2                          T   001.0      196.3  .68 Ml 3.8         4856301
SMRF  002.56 251.3 m E P       2012/02/29 15:35:42.4  -0.4                          T   001.0                                4856257
SMRF  002.56 251.3 m E Sg      2012/02/29 15:36:21.0   1.0                          T              408.9  .66 Ml 4.1         4863804
VIVF  003.03 271.7 m E Pn      2012/02/29 15:35:47.9   1.3                          T   001.0                                4856255
VIVF  003.03 271.7 m E Sn      2012/02/29 15:36:22.0   0.6                          T   001.0       24.5  .22 Ml 3.5         4856256
HINF  003.30 334.8 m E Pn      2012/02/29 15:35:50.2  -0.1                          T   001.0                                4856259
HINF  003.30 334.8 m E Sn      2012/02/29 15:36:27.9   0.1                          T   001.0      126.6  .56 Ml 3.8         4856260
HAU   003.63 331.4 m E Pn      2012/02/29 15:35:54.8   0.1                          T   001.0                                4856276
HAU   003.63 331.4 m E Sn      2012/02/29 15:36:36.4   0.7                          T   001.0      226.8  .32 Ml 4.2         4856277
CDF   003.75 342.8 m E Pn      2012/02/29 15:35:55.7  -0.6                          T   001.0                                4856271
CDF   003.75 342.8 m E Sn      2012/02/29 15:36:37.6  -0.8                          T   001.0       81.0  .40 Ml 4.0         4856272
LASF  003.72 259.8 m E Pn      2012/02/29 15:35:55.8  -0.1                          T   001.0                                4856278
LASF  003.72 259.8 m E P       2012/02/29 15:35:59.0  -0.2                          T                                        4863602
LASF  003.72 259.8 m E Sn      2012/02/29 15:36:36.8  -0.9                          T               43.0  .52 Ml 3.5         4864352
SMF   004.00 298.5 m E Pn      2012/02/29 15:35:59.9   0.3                          T   001.0                                4856293
SMF   004.00 298.5 m E P       2012/02/29 15:36:02.7  -0.4                          T                                        4863798
SMF   004.00 298.5 m E Sn      2012/02/29 15:36:43.5  -0.8                          T   001.0       63.2  .37 Ml 3.9         4856294
SMF   004.00 298.5 m E Sg      2012/02/29 15:37:06.6   1.9                          T               95.3  .58 Ml 3.9         4863797
LOR   004.29 306.2 m E Pn      2012/02/29 15:36:03.8   0.2 123.3  0.7               T   001.0                                4856282
LOR   004.29 306.2 m E Sn      2012/02/29 15:36:52.3   1.0                          T              148.8  .26 Ml 4.5 Md 3.8  4863606
PAGF  004.32 330.3 m E Pn      2012/02/29 15:36:04.2   0.2 133.8  -14.2             T                                        4863608
PAGF  004.32 330.3 m E Sn      2012/02/29 15:36:51.6  -0.4                          T               28.3  .56 Ml 3.4         4864342
SFTF  004.30 322.7 m E Pn      2012/02/29 15:36:04.7   0.9 132.8  -7.0              T                                        4863611
SSF   004.39 302.2 m E Pn      2012/02/29 15:36:04.9  -0.1                          T   001.0                                4856295
SSF   004.39 302.2 m E P       2012/02/29 15:36:08.0  -0.7                          T                                        4863605
SSF   004.39 302.2 m E Sn      2012/02/29 15:36:53.2  -0.5                          T   001.0       33.9  .36 Ml 3.8         4856296
SSF   004.39 302.2 m E Sg      2012/02/29 15:37:19.0   2.1                          T   001.0       45.9  .56 Ml 3.7         4856297
AVF   004.36 298.4 m E Pn      2012/02/29 15:36:05.2   0.6                          T   001.0                                4856266
AVF   004.36 298.4 m E Sn      2012/02/29 15:36:52.6  -0.4                          T   001.0       29.9  .52 Ml 3.5         4856267
AVF   004.36 298.4 m E Sg      2012/02/29 15:37:17.5   1.4                          T               27.6  .45 Ml 3.5         4863618
BGF   004.60 294.0 m E Pn      2012/02/29 15:36:08.3   0.5                          T   001.0                                4856268
BGF   004.60 294.0 m E P       2012/02/29 15:36:11.7   0.0                          T                                        4863799
BGF   004.60 294.0 m E Sn      2012/02/29 15:37:00.2   1.5                          T   001.0       45.8  .34 Ml 3.9         4856269
MEZF  004.53 325.2 m E Pn      2012/02/29 15:36:09.1   2.2                          T   001.0                                4856263
MEZF  004.53 325.2 m E Sg      2012/02/29 15:37:21.5   0.2                          T   001.0       97.8  .54 Ml 4.0         4856264
TCF   004.94 289.3 m E Pn      2012/02/29 15:36:13.1   0.6                          T   001.0                                4856298
TCF   004.94 289.3 m E P       2012/02/29 15:36:16.4  -0.2                          T                                        4863604
TCF   004.94 289.3 m E Sn      2012/02/29 15:37:06.5  -0.4                          T               22.2  .36 Ml 3.7         4863607
CAF   004.89 273.3 m E Pn      2012/02/29 15:36:13.3   1.5                          T   001.0                                4856270
CAF   004.89 273.3 m E P       2012/02/29 15:36:15.6  -0.2                          T                                        4863802
MTLF  005.07 255.1 m E Pn      2012/02/29 15:36:14.3   0.1                          T   001.0                                4856265
MTLF  005.07 255.1 m E P       2012/02/29 15:36:16.5  -1.8                          T                                        4863803
MTLF  005.07 255.1 m E Sn      2012/02/29 15:37:09.6  -0.4                          T               18.9  .60 Ml 3.4 Md 3.7  4864354
HYF   005.01 301.1 m E P       2012/02/29 15:36:17.7   0.2                          T                                        4863612
RJF   005.28 277.6 m E P       2012/02/29 15:36:21.0  -0.3                          T                                        4863801
RJF   005.28 277.6 m E Sn      2012/02/29 15:37:14.4  -0.5                          T               22.2  .52 Ml 3.2         4864346
RJF   005.28 277.6 m E Sg      2012/02/29 15:37:44.8   0.2                          T               45.4  .76 Ml 3.4         4864347
BAIF  006.12 330.1 m E P       2012/02/29 15:36:31.9  -1.2                          T   001.0                                4856299
MFF   006.60 288.6 m E P       2012/02/29 15:36:39.3  -0.6                          T   001.0                                4856286
MFF   006.60 288.6 m E Sn      2012/02/29 15:37:47.4   1.0                          T   001.0        9.1  .41 Ml 3.7         4856287
ETSF  007.14 257.5 m E P       2012/02/29 15:36:46.9  -0.7                          T                                        4863613
ETSF  007.14 257.5 m E Sn      2012/02/29 15:38:00.1   0.7                          T               10.3  .63 Ml 3.5         4864350
SJPF  007.53 260.3 m E Pn      2012/02/29 15:36:47.7  -0.1                          T                                        4864349
GRR   007.62 301.2 m E Pn      2012/02/29 15:36:48.7  -0.2                          T                                        4864345
LFF   005.83 273.8 m E Sn      2012/02/29 15:37:28.7   0.7                          T               43.7  .76 Ml 3.6         4864348
EPF   006.47 256.7 m E Sn      2012/02/29 15:37:44.1   0.7                          T                5.3  .37 Ml 3.3         4864351

.
