EVENT     273147
    Date      Time       Latitude Longitude    Depth    Ndef Nsta Gap    Mag1  N    Mag2  N    Mag3  N   Author         ID
       rms   OT_Error      Smajor Sminor Az        Err   mdist  Mdist     Err        Err        Err      Quality

2012/04/05 22:08:45.0     43.1409   -1.1180     22.5      12    3 169  Ml 0.9  1  Md 0.9  2              js067245    273167

      0.15   +-  0.07       1.7    1.0    6.36 +-  0.6    0.08   1.07   +-         +-0.1                 m i ke

PYRENEES
Sta     Dist  EvAz     Phase      Date       Time     TRes  Azim  AzRes  Slow  SRes Def   SNR       Amp   Per   Mag1   Mag2       ID
SJPF  000.08 250.6 m E Pg      2012/04/05 22:08:49.3   0.0                          T                                        4904397
SJPF  000.08 250.6 m E Sg      2012/04/05 22:08:51.7  -0.5                          T                3.6  .22        Md 1.0  4904395
ETSF  000.48 120.4 m E Pg      2012/04/05 22:08:54.8  -0.1                          T                                        4910590
ETSF  000.48 120.4 m E Sg      2012/04/05 22:09:01.6  -0.1                          T                 .6  .22        Md  .8  4904396
EPF   001.07 095.4 m E Pn      2012/04/05 22:09:03.1  -0.1                          T                                        4904394
EPF   001.07 095.4 m E Sg      2012/04/05 22:09:19.6  -0.1                          T                 .3  .27 Ml  .9         4910589

.
EVENT     273154
    Date      Time       Latitude Longitude    Depth    Ndef Nsta Gap    Mag1  N    Mag2  N    Mag3  N   Author         ID
       rms   OT_Error      Smajor Sminor Az        Err   mdist  Mdist     Err        Err        Err      Quality

2012/04/06 00:33:33.8     42.9979    -.2530      2.0       6    3 166             Md 1.2  2              js067245    273174

      0.21   +-  0.11       7.2    1.8  174.37 +-  0.0    0.25   0.72              +-0.0                 m i ke

PYRENEES
Sta     Dist  EvAz     Phase      Date       Time     TRes  Azim  AzRes  Slow  SRes Def   SNR       Amp   Per   Mag1   Mag2       ID
ETSF  000.25 246.3 m E Pg      2012/04/06 00:33:38.7   0.0                          T                                        4904401
ETSF  000.25 246.3 m E Sg      2012/04/06 00:33:42.0  -0.1                          T                3.9  .20        Md 1.3  4904400
EPF   000.44 085.5 m E Pg      2012/04/06 00:33:42.1  -0.1                          T                                        4904403
EPF   000.44 085.5 m E Sg      2012/04/06 00:33:48.0   0.0                          T                2.6  .18        Md 1.2  4904402
SJPF  000.72 279.5 m E Pg      2012/04/06 00:33:47.6   0.2                          T                                        4904399
SJPF  000.72 279.5 m E Sg      2012/04/06 00:33:56.3  -0.5                          T                 .5  .23                4904398

.
EVENT     273150
    Date      Time       Latitude Longitude    Depth    Ndef Nsta Gap    Mag1  N    Mag2  N    Mag3  N   Author         ID
       rms   OT_Error      Smajor Sminor Az        Err   mdist  Mdist     Err        Err        Err      Quality

2012/04/06 06:34:36.1     46.0778    7.5114      3.0 f    37    8 034  Ml 1.9  7  Md 2.1  3              bulletin    273170
                                                                                                         _ldg
      0.33   +-  0.05       1.1     .9  116.47 +-  0.0    0.07   2.34   +-0.2      +-0.1                 m i ke

SWITZERLAND
Sta     Dist  EvAz     Phase      Date       Time     TRes  Azim  AzRes  Slow  SRes Def   SNR       Amp   Per   Mag1   Mag2       ID
LPG   000.79 222.8 m E Pg      2012/04/06 06:34:51.1  -0.2                          T                                        4903206
LPG   000.79 222.8 m E Sg      2012/04/06 06:35:01.1  -0.5                          T                4.5  .20        Md 2.1  4903204
LPL   000.78 224.4 m E Pg      2012/04/06 06:34:51.2   0.1                          T                                        4903207
LPL   000.78 224.4 m E Sg      2012/04/06 06:35:00.7  -0.6                          T                5.3  .36        Md 2.2  4903203
CABF  001.12 298.9 m E Pn      2012/04/06 06:34:58.0   0.9                          T                                        4903200
CABF  001.12 298.9 m E Sg      2012/04/06 06:35:11.4  -0.3                          T                 .9  .19 Ml 1.6         4903199
CABF  001.12 298.9 m E Sn      2012/04/06 06:35:13.0   0.8                          T                2.5  .31 Ml 1.8 Md 1.9  4903195
MBDF  001.45 201.4 m E Pg      2012/04/06 06:35:03.1  -0.1                          T                                        4903205
MBDF  001.45 201.4 m E Sg      2012/04/06 06:35:23.0   1.0                          T                4.3  .47 Ml 2.0         4903636
ORIF  001.63 225.3 m E Pg      2012/04/06 06:35:06.9   0.3                          T                                        4903292
ORIF  001.63 225.3 m E Sg      2012/04/06 06:35:27.5  -0.1                          T                2.9  .25 Ml 2.2         4903293
HAU   002.09 338.0 m E Pn      2012/04/06 06:35:10.8   0.6                          T                                        4903197
HAU   002.09 338.0 m E Sg      2012/04/06 06:35:40.7  -1.1                          T                1.5  .19 Ml 1.9         4903196
VIVF  002.34 239.6 m E Pn      2012/04/06 06:35:14.0   0.3                          T                                        4903202
VIVF  002.34 239.6 m E Sn      2012/04/06 06:35:41.3   0.1                          T                                        4903198
VIVF  002.34 239.6 m E Sg      2012/04/06 06:35:49.1  -0.6                          T                                        4903201
HINF  001.80 345.7 m E Sn      2012/04/06 06:35:28.1  -0.1                          T                1.1  .21 Ml 1.9         4903290
HINF  001.80 345.7 m E Sg      2012/04/06 06:35:32.0  -0.7                          T                4.4  .32 Ml 2.3         4903637

.
EVENT     273152
    Date      Time       Latitude Longitude    Depth    Ndef Nsta Gap    Mag1  N    Mag2  N    Mag3  N   Author         ID
       rms   OT_Error      Smajor Sminor Az        Err   mdist  Mdist     Err        Err        Err      Quality

2012/04/06 06:42:54.5     51.5756   16.2012      1.0 f    81   20 173  Ml 3.9 15                         bulletin    273172
                                                                                                         _ldg
      0.56   +-  0.15       3.7    1.9   14.33 +-  0.0    0.74  10.43   +-0.3                            m i sr

POLAND
Sta     Dist  EvAz     Phase      Date       Time     TRes  Azim  AzRes  Slow  SRes Def   SNR       Amp   Per   Mag1   Mag2       ID
CDF   006.57 244.7 m E Pn      2012/04/06 06:44:31.4   1.4                          T                                        4903194
CDF   006.57 244.7 m E Sg      2012/04/06 06:46:20.5   0.3                          T               47.9  .87 Ml 4.0         4903092
HINF  007.13 241.8 m E Pn      2012/04/06 06:44:38.4   0.7                          T                                        4903089
HINF  007.13 241.8 m E Sg      2012/04/06 06:46:37.8   0.1                          T              100.5  .89 Ml 4.3         4903088
HAU   007.31 244.6 m E P       2012/04/06 06:44:44.6  -0.5                          T                                        4903090
HAU   007.31 244.6 m E Sg      2012/04/06 06:46:43.4   0.2                          T               41.8  .64 Ml 3.9         4903091
GIVF  007.36 262.9 m E P       2012/04/06 06:44:45.3  -0.4                          T                                        4903190
GIVF  007.36 262.9 m E Sg      2012/04/06 06:46:44.3  -0.3                          T                3.3  .29 Ml 3.4         4903095
BAIF  007.75 263.4 m E Pn      2012/04/06 06:44:46.9   1.0                          T                                        4903189
BAIF  007.75 263.4 m E Sg      2012/04/06 06:46:57.3   0.4                          T                                        4903094
CABF  008.29 237.1 m E P       2012/04/06 06:44:58.7  -0.2                          T                                        4903086
CABF  008.29 237.1 m E Sg      2012/04/06 06:47:13.6  -0.2                          T               53.0 1.07 Ml 4.2         4903087
LOR   009.12 246.6 m E Pn      2012/04/06 06:45:04.1  -0.6                          T                                        4903221
LOR   009.12 246.6 m E Sg      2012/04/06 06:47:40.5   0.6                          T               16.6  .79 Ml 3.9         4903223
LPG   008.73 229.5 m E P       2012/04/06 06:45:04.2  -1.0                          T                                        4903208
LPG   008.73 229.5 m E Sg      2012/04/06 06:47:27.8  -0.1                          T               41.9 1.25 Ml 4.0         4903184
MBDF  009.30 226.2 m E Pn      2012/04/06 06:45:08.2   0.9                          T                                        4903211
SSF   009.44 246.4 m E Pn      2012/04/06 06:45:09.1   0.1                          T                                        4903220
SSF   009.44 246.4 m E Sg      2012/04/06 06:47:50.2   0.6                          T               40.3 1.08 Ml 4.3         4903222
SMF   009.49 243.5 m E Pn      2012/04/06 06:45:09.6   0.0                          T                                        4903193
SMF   009.49 243.5 m E Sg      2012/04/06 06:47:51.7   0.6                          T               26.6  .73 Ml 4.2         4903084
AVF   009.68 245.4 m E Pn      2012/04/06 06:45:12.3   0.1                          T                                        4903192
AVF   009.68 245.4 m E Sg      2012/04/06 06:47:57.7   0.7                          T               37.8 1.07 Ml 4.2         4903191
SBF   009.71 220.8 m E Pn      2012/04/06 06:45:13.4   0.6                          T                                        4903224
FRF   010.29 222.5 m E Pn      2012/04/06 06:45:20.9   0.4                          T                                        4903210
SMRF  010.43 227.3 m E Pn      2012/04/06 06:45:22.5   0.0                          T                                        4903209
PAGF  007.39 249.9 m E Sg      2012/04/06 06:46:44.6  -1.0                          T                6.5  .61 Ml 3.3         4903081
SFTF  007.96 249.3 m E Sg      2012/04/06 06:47:04.8   1.3                          T               14.9  .54 Ml 3.9         4903188
LPL   008.73 229.7 m E Sg      2012/04/06 06:47:27.2  -0.4                          T                4.0  .54 Ml 3.4         4903185
ORIF  009.57 229.9 m E Sg      2012/04/06 06:47:54.0   0.1                          T                2.8  .34 Ml 3.6         4903186
BGF   010.10 245.4 m E Sg      2012/04/06 06:48:10.7   0.6                          T               22.2  .83 Ml 4.2         4903187

.
EVENT     273156
    Date      Time       Latitude Longitude    Depth    Ndef Nsta Gap    Mag1  N    Mag2  N    Mag3  N   Author         ID
       rms   OT_Error      Smajor Sminor Az        Err   mdist  Mdist     Err        Err        Err      Quality

2012/04/06 07:29:05.9     43.8389    3.7476       .0 f     8    4 213  Ml 1.9  3  Md 2.0  1              js067245    273176

      0.31   +-  0.25       6.4    2.5  140.71 +-  0.0    0.25   1.62   +-0.2      +-                    m i km

NEAR SOUTH COAST OF FRANCE
Sta     Dist  EvAz     Phase      Date       Time     TRes  Azim  AzRes  Slow  SRes Def   SNR       Amp   Per   Mag1   Mag2       ID
LASF  000.25 018.4 m E Pg      2012/04/06 07:29:10.7  -0.4                          T                                        4903491
LASF  000.25 018.4 m E Sg      2012/04/06 07:29:14.6  -0.1                          T                                Md 2.0  4903490
MTLF  001.22 246.4 m E Pg      2012/04/06 07:29:29.0   0.1                          T                                        4903488
MTLF  001.22 246.4 m E Sg      2012/04/06 07:29:44.9   0.0                          T                1.5  .18 Ml 1.8         4903489
VIVF  001.21 032.8 m E Pg      2012/04/06 07:29:29.1   0.2                          T                                        4903487
VIVF  001.21 032.8 m E Sg      2012/04/06 07:29:45.6   0.7                          T                2.5  .30 Ml 1.8         4903486
CAF   001.62 312.6 m E Pg      2012/04/06 07:29:36.4  -0.1                          T                                        4903512
CAF   001.62 312.6 m E Sg      2012/04/06 07:29:58.1   0.4                          T                3.0  .24 Ml 2.2         4903513

.
EVENT     273160
    Date      Time       Latitude Longitude    Depth    Ndef Nsta Gap    Mag1  N    Mag2  N    Mag3  N   Author         ID
       rms   OT_Error      Smajor Sminor Az        Err   mdist  Mdist     Err        Err        Err      Quality

2012/04/06 07:58:59.5     47.1656    6.0629       .0 f    11    6 139  Ml 2.2  4  Md 2.1  1              bulletin    273180
                                                                                                         _ldg
      0.31   +-  0.10       3.2    1.8  119.62 +-  0.0    0.56   1.61   +-0.3      +-                    m i km

FRANCE
Sta     Dist  EvAz     Phase      Date       Time     TRes  Azim  AzRes  Slow  SRes Def   SNR       Amp   Per   Mag1   Mag2       ID
CABF  000.56 178.2 m E Pg      2012/04/06 07:59:10.3  -0.1                          T                                        4903564
CABF  000.56 178.2 m E Sg      2012/04/06 07:59:18.1   0.2                          T                                Md 2.1  4903560
HINF  000.84 039.2 m E Pg      2012/04/06 07:59:15.6  -0.1                          T                                        4903563
HINF  000.84 039.2 m E Sg      2012/04/06 07:59:26.5  -0.4                          T               16.7  .36                4903559
HAU   000.86 012.8 m E Pg      2012/04/06 07:59:15.9  -0.1                          T                                        4903562
HAU   000.86 012.8 m E Sg      2012/04/06 07:59:27.4   0.0                          T               17.3  .28 Ml 2.3         4903558
CDF   001.49 032.8 m E Pn      2012/04/06 07:59:26.4   0.2                          T                                        4903561
CDF   001.49 032.8 m E Sn      2012/04/06 07:59:45.3   0.0                          T                 .9  .27 Ml 1.7         4903557
LOR   001.51 274.7 m E Pn      2012/04/06 07:59:26.6   0.4                          T                                        4903555
LOR   001.51 274.7 m E Sn      2012/04/06 07:59:45.5  -0.1                          T                5.0  .27 Ml 2.3         4903556
SMF   001.61 251.9 m E Sg      2012/04/06 07:59:49.8  -0.9                          T                3.9  .22 Ml 2.3         4906693

.
EVENT     273157
    Date      Time       Latitude Longitude    Depth    Ndef Nsta Gap    Mag1  N    Mag2  N    Mag3  N   Author         ID
       rms   OT_Error      Smajor Sminor Az        Err   mdist  Mdist     Err        Err        Err      Quality

2012/04/06 08:21:01.5     48.2982   -2.3297       .0 f    20    7 154  Ml 1.8  1  Md 2.3  2              js067245    273177

      0.93   +-  0.14       4.9    2.1  172.27 +-  0.0    0.16   2.25   +-         +-0.0                 m i km

FRANCE
Sta     Dist  EvAz     Phase      Date       Time     TRes  Azim  AzRes  Slow  SRes Def   SNR       Amp   Per   Mag1   Mag2       ID
SGMF  000.16 253.9 m E Pg      2012/04/06 08:21:04.4  -0.6                          T                                Md 2.3  4903584
SGMF  000.16 253.9 m E Sg      2012/04/06 08:21:07.5   0.1                          T                                        4903580
ROSF  000.63 273.8 m E Pg      2012/04/06 08:21:13.5  -0.2                          T                                Md 2.3  4903582
ROSF  000.63 273.8 m E Pn      2012/04/06 08:21:16.2   0.0                          T                                        4903576
ROSF  000.63 273.8 m E Sg      2012/04/06 08:21:22.3   0.2                          T                                        4903579
ROSF  000.63 273.8 m E Sn      2012/04/06 08:21:26.2  -0.4                          T                                        4903565
QUIF  000.68 236.0 m E Pg      2012/04/06 08:21:15.2   0.7                          T                                        4903575
QUIF  000.68 236.0 m E Pn      2012/04/06 08:21:17.1   0.2                          T                                        4903583
QUIF  000.68 236.0 m E Sg      2012/04/06 08:21:24.2   0.6                          T                                        4903578
QUIF  000.68 236.0 m E Sn      2012/04/06 08:21:28.1   0.4                          T                                        4903566
GRR   000.99 084.2 m E Pg      2012/04/06 08:21:21.7   1.5                          T                                        4903573
GRR   000.99 084.2 m E Sg      2012/04/06 08:21:34.0   0.8                          T                                        4903574
FLN   001.31 068.6 m E Pn      2012/04/06 08:21:25.8   0.2 259.6  9.7               T                                        4903571
FLN   001.31 068.6 m E Sg      2012/04/06 08:21:42.7  -0.7                          T                                        4903572
LDF   001.50 077.8 m E Pn      2012/04/06 08:21:27.9  -0.2                          T                                        4903567
LDF   001.50 077.8 m E Pg      2012/04/06 08:21:30.1   0.4                          T                                        4903581
LDF   001.50 077.8 m E Sg      2012/04/06 08:21:49.6   0.3                          T                1.3  .22 Ml 1.8         4903577
MFF   002.25 138.1 m E Pg      2012/04/06 08:21:42.9  -0.7                          T                                        4903570
MFF   002.25 138.1 m E Sn      2012/04/06 08:22:04.9  -0.5                          T                                        4903568
MFF   002.25 138.1 m E Sg      2012/04/06 08:22:12.8   0.0                          T                                        4903569

.
