BEGIN GSE2.0
MSG_TYPE DATA
MSG_ID 10-JAN-1215:14:27  FRA_NDC
E-MAIL
DATA_TYPE BULLETIN
Reviewed Bulletin (REB) # P2012-000  from French NDC for regional phases     PERIOD 01 JAN 2012 TO 03 JAN 2012 S M.,J-P S
EVENT     267999
    Date      Time       Latitude Longitude    Depth    Ndef Nsta Gap    Mag1  N    Mag2  N    Mag3  N   Author         ID
       rms   OT_Error      Smajor Sminor Az        Err   mdist  Mdist     Err        Err        Err      Quality

2012/01/01 00:03:32.1     43.3644    -.5761      2.0      30    5 123  Ml 2.3  4  Md 2.4  1              js067245    268019

      0.71   +-  0.12       3.1    1.6  155.52 +-  0.0    0.69   3.29   +-0.1      +-                    m i ke

PYRENEES
Sta     Dist  EvAz     Phase      Date       Time     TRes  Azim  AzRes  Slow  SRes Def   SNR       Amp   Per   Mag1   Mag2       ID
EPF   000.75 116.2 m E Pg      2012/01/01 00:03:45.9  -0.4                          T                                        4809715
EPF   000.75 116.2 m E Sg      2012/01/01 00:03:55.3  -0.7                          T               23.7  .34        Md 2.4  4809714
MTLF  002.04 089.7 m E Pn      2012/01/01 00:04:05.1  -0.5                          T                                        4809711
MTLF  002.04 089.7 m E Pg      2012/01/01 00:04:09.6  -0.4                          T                                        4809712
MTLF  002.04 089.7 m E Sn      2012/01/01 00:04:30.1  -0.1                          T                                        4809705
MTLF  002.04 089.7 m E Sg      2012/01/01 00:04:35.5  -0.7                          T                4.4  .45 Ml 2.2         4809713
LFF   001.84 030.6 m E Pg      2012/01/01 00:04:06.7   0.4                          T                                        4809708
LFF   001.84 030.6 m E Sg      2012/01/01 00:04:30.6   0.6                          T                8.3  .46 Ml 2.3         4809709
CAF   002.46 049.7 m E Pg      2012/01/01 00:04:18.5   0.7                          T                                        4810139
CAF   002.46 049.7 m E Sn      2012/01/01 00:04:40.5   0.2                          T                                        4810141
CAF   002.46 049.7 m E Sg      2012/01/01 00:04:50.1   0.7                          T                                        4810140
LASF  003.29 076.0 m E Sg      2012/01/01 00:05:13.9  -1.5                          T                2.3  .27 Ml 2.4         4809710

.
EVENT     268000
    Date      Time       Latitude Longitude    Depth    Ndef Nsta Gap    Mag1  N    Mag2  N    Mag3  N   Author         ID
       rms   OT_Error      Smajor Sminor Az        Err   mdist  Mdist     Err        Err        Err      Quality

2012/01/01 00:41:48.4     43.3585    -.5738      2.0      31    7 122  Ml 2.3  5  Md 2.2  1              js067245    268020

      0.69   +-  0.13       2.8    1.9  150.70 +-  0.0    0.70   4.42   +-0.1      +-                    m i ke

PYRENEES
Sta     Dist  EvAz     Phase      Date       Time     TRes  Azim  AzRes  Slow  SRes Def   SNR       Amp   Per   Mag1   Mag2       ID
EPF   000.74 115.8 m E Pg      2012/01/01 00:42:02.2  -0.3                          T                                        4809719
EPF   000.74 115.8 m E Sg      2012/01/01 00:42:11.6  -0.6                          T               27.1  .32        Md 2.2  4809718
MTLF  002.04 089.5 m E Pn      2012/01/01 00:42:21.6  -0.3                          T                                        4809988
MTLF  002.04 089.5 m E Pg      2012/01/01 00:42:25.9  -0.3                          T                                        4809716
MTLF  002.04 089.5 m E Sn      2012/01/01 00:42:46.3  -0.1                          T                                        4809987
MTLF  002.04 089.5 m E Sg      2012/01/01 00:42:51.7  -0.7                          T                3.0  .23 Ml 2.3         4809717
LFF   001.84 030.4 m E Pg      2012/01/01 00:42:23.1   0.5                          T                                        4809986
LFF   001.84 030.4 m E Sg      2012/01/01 00:42:47.1   0.7                          T                5.5  .31 Ml 2.3         4809990
CAF   002.46 049.6 m E Pg      2012/01/01 00:42:33.9  -0.2                          T                                        4809985
CAF   002.46 049.6 m E Sn      2012/01/01 00:42:56.6   0.0                          T                3.6  .28 Ml 2.4         4809989
CAF   002.46 049.6 m E Sg      2012/01/01 00:43:06.2   0.4                          T                                        4809980
RJF   002.46 036.9 m E Pg      2012/01/01 00:42:34.2   0.2                          T                                        4811150
RJF   002.46 036.9 m E Sn      2012/01/01 00:42:56.4   0.0                          T                                        4809981
RJF   002.46 036.9 m E Sg      2012/01/01 00:43:05.8   0.2                          T                4.6  .37 Ml 2.1         4809984
BGF   004.02 036.0 m E Sg      2012/01/01 00:43:54.4   0.2                          T                                        4809982
AVF   004.42 037.7 m E Sg      2012/01/01 00:44:06.7   0.0                          T                                        4809983

.
EVENT     268001
    Date      Time       Latitude Longitude    Depth    Ndef Nsta Gap    Mag1  N    Mag2  N    Mag3  N   Author         ID
       rms   OT_Error      Smajor Sminor Az        Err   mdist  Mdist     Err        Err        Err      Quality

2012/01/01 00:52:01.5     43.3306    -.5773      2.0       9    4 276  Ml 1.8  4  Md 2.1  1              js067245    268021

      0.34   +-  0.29       4.8    2.3   70.78 +-  0.0    0.74   2.48   +-0.2      +-                    m i ke

PYRENEES
Sta     Dist  EvAz     Phase      Date       Time     TRes  Azim  AzRes  Slow  SRes Def   SNR       Amp   Per   Mag1   Mag2       ID
EPF   000.74 113.8 m E Pg      2012/01/01 00:52:15.5   0.0                          T                                        4809721
EPF   000.74 113.8 m E Sg      2012/01/01 00:52:25.0  -0.1                          T                8.8  .32        Md 2.1  4809720
LFF   001.87 030.1 m E Pg      2012/01/01 00:52:36.3   0.1                          T                                        4811155
LFF   001.87 030.1 m E Sg      2012/01/01 00:53:00.1  -0.2                          T                 .7  .22 Ml 1.5         4811156
MTLF  002.04 088.7 m E Pg      2012/01/01 00:52:39.2  -0.2                          T                                        4810051
MTLF  002.04 088.7 m E Sg      2012/01/01 00:53:05.2  -0.5                          T                1.6  .28 Ml 2.0         4810050
CAF   002.48 049.1 m E Sg      2012/01/01 00:53:19.6   0.1                          T                 .9  .21 Ml 1.9         4810052

.
EVENT     268002
    Date      Time       Latitude Longitude    Depth    Ndef Nsta Gap    Mag1  N    Mag2  N    Mag3  N   Author         ID
       rms   OT_Error      Smajor Sminor Az        Err   mdist  Mdist     Err        Err        Err      Quality

2012/01/01 00:55:12.4     43.3721    -.5802      2.0      28    8 123  Ml 2.3  9  Md 2.1  1              js067245    268022

      1.41   +-  0.19       4.4    2.6  153.82 +-  0.0    0.69   4.41   +-0.3      +-                    m i ke

PYRENEES
Sta     Dist  EvAz     Phase      Date       Time     TRes  Azim  AzRes  Slow  SRes Def   SNR       Amp   Per   Mag1   Mag2       ID
EPF   000.75 116.6 m E Pg      2012/01/01 00:55:26.3  -0.5                          T                                        4809723
EPF   000.75 116.6 m E Sg      2012/01/01 00:55:35.6  -1.0                          T               19.8  .36        Md 2.1  4809722
MTLF  002.04 089.9 m E Pn      2012/01/01 00:55:45.3  -0.8                          T                                        4810078
MTLF  002.04 089.9 m E Pg      2012/01/01 00:55:49.8  -0.6                          T                                        4810063
MTLF  002.04 089.9 m E Sn      2012/01/01 00:56:10.4  -0.2                          T                                        4810057
MTLF  002.04 089.9 m E Sg      2012/01/01 00:56:15.6  -1.1                          T                2.2  .24 Ml 2.2         4810062
LFF   001.83 030.8 m E Pg      2012/01/01 00:55:46.4  -0.1                          T                                        4810060
LFF   001.83 030.8 m E Sg      2012/01/01 00:56:10.5   0.4                          T                7.4  .36 Ml 2.3         4810059
CAF   002.46 049.9 m E Pg      2012/01/01 00:55:59.6   1.5                          T                                        4810056
CAF   002.46 049.9 m E Sg      2012/01/01 00:56:30.5   0.9                          T                2.5  .26 Ml 2.3         4810061
RJF   002.45 037.2 m E Sg      2012/01/01 00:56:30.2   0.8                          T                2.5  .27 Ml 1.9         4810058
LASF  003.29 076.1 m E Sg      2012/01/01 00:56:53.9  -1.8                          T                2.1  .31 Ml 2.3         4810055
BGF   004.01 036.2 m E Sg      2012/01/01 00:57:18.8   0.7                          T                4.9  .32 Ml 2.8         4810077
AVF   004.41 037.8 m E Sg      2012/01/01 00:57:31.0   0.5                          T                 .4  .20 Ml 2.0         4810083

.
EVENT     268003
    Date      Time       Latitude Longitude    Depth    Ndef Nsta Gap    Mag1  N    Mag2  N    Mag3  N   Author         ID
       rms   OT_Error      Smajor Sminor Az        Err   mdist  Mdist     Err        Err        Err      Quality

2012/01/01 01:32:20.5     43.3584    -.5660      2.0      37    8 097  Ml 2.5  8  Md 2.4  1              js067245    268023

      0.68   +-  0.09       2.0    1.3  152.39 +-  0.0    0.70   4.01   +-0.2      +-                    m i ke

PYRENEES
Sta     Dist  EvAz     Phase      Date       Time     TRes  Azim  AzRes  Slow  SRes Def   SNR       Amp   Per   Mag1   Mag2       ID
EPF   000.74 116.0 m E Pg      2012/01/01 01:32:34.5   0.0                          T                                        4809725
EPF   000.74 116.0 m E Sg      2012/01/01 01:32:43.6  -0.6                          T               36.3  .36        Md 2.4  4809724
MTLF  002.03 089.5 m E Pn      2012/01/01 01:32:53.4  -0.6                          T                                        4810089
MTLF  002.03 089.5 m E Pg      2012/01/01 01:32:58.0  -0.2                          T                                        4810088
MTLF  002.03 089.5 m E Sn      2012/01/01 01:33:18.6   0.2                          T                                        4810086
MTLF  002.03 089.5 m E Sg      2012/01/01 01:33:23.9  -0.5                          T                5.7  .41 Ml 2.3         4810087
LFF   001.84 030.3 m E Pg      2012/01/01 01:32:54.7   0.0                          T                                        4810092
LFF   001.84 030.3 m E Sn      2012/01/01 01:33:13.6  -0.2                          T                                        4810097
LFF   001.84 030.3 m E Sg      2012/01/01 01:33:18.8   0.3                          T                                        4810099
CAF   002.46 049.5 m E Pg      2012/01/01 01:33:06.7   0.5                          T                                        4810100
CAF   002.46 049.5 m E Sn      2012/01/01 01:33:29.1   0.5                          T                                        4810093
CAF   002.46 049.5 m E Sg      2012/01/01 01:33:38.1   0.3                          T                2.7  .25 Ml 2.3         4810098
RJF   002.45 036.8 m E Sg      2012/01/01 01:33:37.8   0.1                          T                5.4  .29 Ml 2.2         4810090
LASF  003.29 075.9 m E Sg      2012/01/01 01:34:02.1  -1.5                          T                3.2  .33 Ml 2.5         4810094
MFF   003.26 005.1 m E Sg      2012/01/01 01:34:02.4  -0.3                          T                1.7  .32 Ml 2.4         4810091
BGF   004.01 035.9 m E Sg      2012/01/01 01:34:27.1   0.9                          T                8.1  .42 Ml 2.9         4810095

.
EVENT     268004
    Date      Time       Latitude Longitude    Depth    Ndef Nsta Gap    Mag1  N    Mag2  N    Mag3  N   Author         ID
       rms   OT_Error      Smajor Sminor Az        Err   mdist  Mdist     Err        Err        Err      Quality

2012/01/01 03:03:16.8     43.3370    -.5506      2.0      18    4 135  Ml 1.9  4  Md 2.0  1              js067245    268024

      0.88   +-  0.13       4.2    1.8  157.56 +-  0.0    0.70   2.46   +-0.1      +-                    m i ke

PYRENEES
Sta     Dist  EvAz     Phase      Date       Time     TRes  Azim  AzRes  Slow  SRes Def   SNR       Amp   Per   Mag1   Mag2       ID
EPF   000.72 114.9 m E Pg      2012/01/01 03:03:30.8   0.4                          T                                        4810148
EPF   000.72 114.9 m E Sg      2012/01/01 03:03:39.8   0.0                          T                8.6  .32        Md 2.0  4810147
MTLF  002.02 088.9 m E Pn      2012/01/01 03:03:49.6  -0.5                          T                                        4810142
MTLF  002.02 088.9 m E Sn      2012/01/01 03:04:14.5   0.1                          T                                        4810143
MTLF  002.02 088.9 m E Sg      2012/01/01 03:04:19.8  -0.5                          T                1.1  .24 Ml 1.9         4810146
RJF   002.46 036.3 m E Pg      2012/01/01 03:04:03.1   0.6                          T                                        4810149
RJF   002.46 036.3 m E Sg      2012/01/01 03:04:33.7  -0.5                          T                1.7  .27 Ml 1.8         4810144
CAF   002.46 048.9 m E Sg      2012/01/01 03:04:34.5   0.3                          T                1.0  .22 Ml 2.0         4810145

.
EVENT     268006
    Date      Time       Latitude Longitude    Depth    Ndef Nsta Gap    Mag1  N    Mag2  N    Mag3  N   Author         ID
       rms   OT_Error      Smajor Sminor Az        Err   mdist  Mdist     Err        Err        Err      Quality

2012/01/01 05:25:05.9     43.3400    -.5704      2.0      40    9 122  Ml 2.5 10  Md 2.6  1              js067245    268026

      0.50   +-  0.08       1.8    1.1  150.55 +-  0.0    0.69   4.43   +-0.3      +-                    m i ke

PYRENEES
Sta     Dist  EvAz     Phase      Date       Time     TRes  Azim  AzRes  Slow  SRes Def   SNR       Amp   Per   Mag1   Mag2       ID
EPF   000.73 114.6 m E Pg      2012/01/01 05:25:20.1   0.3                          T                                        4809731
EPF   000.73 114.6 m E Sg      2012/01/01 05:25:29.1  -0.3                          T               28.5  .32        Md 2.6  4809732
MTLF  002.03 089.0 m E Pn      2012/01/01 05:25:38.8  -0.5                          T                                        4809740
MTLF  002.03 089.0 m E Pg      2012/01/01 05:25:43.3  -0.3                          T                                        4809730
MTLF  002.03 089.0 m E Sn      2012/01/01 05:26:03.8   0.0                          T                                        4809745
MTLF  002.03 089.0 m E Sg      2012/01/01 05:26:09.1  -0.8                          T                3.0  .23 Ml 2.3         4809726
LFF   001.86 030.1 m E Pg      2012/01/01 05:25:40.2  -0.2                          T                                        4809728
LFF   001.86 030.1 m E Sg      2012/01/01 05:26:04.0  -0.3                          T                7.3  .36 Ml 2.3         4809727
CAF   002.47 049.2 m E Pg      2012/01/01 05:25:52.5   0.7                          T                                        4809729
CAF   002.47 049.2 m E Sn      2012/01/01 05:26:14.1  -0.3                          T                                        4809744
CAF   002.47 049.2 m E Sg      2012/01/01 05:26:23.4  -0.2                          T                2.7  .23 Ml 2.4         4809743
RJF   002.47 036.6 m E Pg      2012/01/01 05:25:52.8   1.1                          T                                        4810153
RJF   002.47 036.6 m E Sn      2012/01/01 05:26:14.6   0.3                          T                                        4809739
RJF   002.47 036.6 m E Sg      2012/01/01 05:26:23.7   0.2                          T                5.3  .39 Ml 2.1         4809741
LASF  003.29 075.6 m E Sg      2012/01/01 05:26:47.5  -1.7                          T                2.1  .31 Ml 2.3         4809737
BGF   004.03 035.8 m E Sg      2012/01/01 05:27:12.2   0.1                          T                9.3  .39 Ml 3.0         4809735
VIVF  004.07 066.3 m E Sg      2012/01/01 05:27:14.5   1.1                          T                2.5  .42 Ml 2.4         4809738
AVF   004.43 037.5 m E Sg      2012/01/01 05:27:24.6  -0.1                          T                2.5  .40 Ml 2.5         4809733

.
EVENT     268008
    Date      Time       Latitude Longitude    Depth    Ndef Nsta Gap    Mag1  N    Mag2  N    Mag3  N   Author         ID
       rms   OT_Error      Smajor Sminor Az        Err   mdist  Mdist     Err        Err        Err      Quality

2012/01/01 06:29:59.2     45.0191    7.3215     19.4      22    6 144  Ml 1.4  3  Md 1.5  2              js067245    268028

      0.24   +-  0.12       2.0    1.0   95.41 +-  1.3    0.14   1.54   +-0.1      +-0.1                 m i ke

NORTHERN ITALY
Sta     Dist  EvAz     Phase      Date       Time     TRes  Azim  AzRes  Slow  SRes Def   SNR       Amp   Per   Mag1   Mag2       ID
MBDF  000.49 233.4 m E Pg      2012/01/01 06:30:09.5   0.2                          T                                        4810159
MBDF  000.49 233.4 m E Sg      2012/01/01 06:30:15.8  -0.3                          T               11.5  .32        Md 1.6  4810158
LPG   000.63 320.1 m E Pg      2012/01/01 06:30:11.9   0.0                          T                                        4810155
LPG   000.63 320.1 m E Sg      2012/01/01 06:30:20.3  -0.1                          T                2.7  .22                4810154
LPL   000.65 320.3 m E Pg      2012/01/01 06:30:12.5   0.3                          T                                        4810156
LPL   000.65 320.3 m E Sg      2012/01/01 06:30:20.3  -0.6                          T                5.5  .30        Md 1.4  4810157
ORIF  001.03 264.9 m E Pg      2012/01/01 06:30:18.9   0.0                          T                                        4810160
ORIF  001.03 264.9 m E Sg      2012/01/01 06:30:32.0  -0.4                          T                 .8  .21 Ml 1.4         4810161
FRF   001.54 198.6 m E Pg      2012/01/01 06:30:28.3   0.3                          T                                        4810164
FRF   001.54 198.6 m E Sg      2012/01/01 06:30:47.6  -0.4                          T                 .8  .27 Ml 1.6         4810163
SBF   001.16 175.9 m E Sg      2012/01/01 06:30:36.4   0.0                          T                 .6  .21 Ml 1.4         4810162

.
