EVENT     279584
    Date      Time       Latitude Longitude    Depth    Ndef Nsta Gap    Mag1  N    Mag2  N    Mag3  N   Author         ID
       rms   OT_Error      Smajor Sminor Az        Err   mdist  Mdist     Err        Err        Err      Quality

2012/07/16 01:00:10.9     44.8938   11.0077      2.0      62   25 223  Ml 2.8 24                         bulletin    279684
                                                                                                         _ldg
      0.63   +-  0.27       5.8    3.1   89.91 +-  0.0    1.05   7.92   +-0.3                            m i ke

NORTHERN ITALY
Sta     Dist  EvAz     Phase      Date       Time     TRes  Azim  AzRes  Slow  SRes Def   SNR       Amp   Per   Mag1   Mag2       ID
PGF   002.76 212.5 m E Pn      2012/07/16 01:00:54.7   0.3                          T                                        5026930
PGF   002.76 212.5 m E Sn      2012/07/16 01:01:26.6   0.2                          T                                        5026929
SBF   002.76 249.3 m E Pn      2012/07/16 01:00:55.2   0.8                          T                                        5026935
SBF   002.76 249.3 m E Sn      2012/07/16 01:01:26.3   0.0                          T               39.8  .47 Ml 3.3         5026918
MBDF  003.02 268.3 m E Pn      2012/07/16 01:00:57.9  -0.1                          T                                        5026932
MBDF  003.02 268.3 m E Sn      2012/07/16 01:01:33.4   0.8                          T               26.3  .65 Ml 3.0         5026923
LPG   003.07 282.8 m E Pn      2012/07/16 01:00:59.5   0.6                          T                                        5027502
LPG   003.07 282.8 m E Sn      2012/07/16 01:01:34.2   0.3                          T               11.3  .45 Ml 2.8         5026926
LPL   003.09 283.1 m E Pn      2012/07/16 01:00:59.5   0.5                          T                                        5026933
LPL   003.09 283.1 m E Sn      2012/07/16 01:01:34.1  -0.1                          T                8.6  .46 Ml 2.7         5026925
FRF   003.41 248.5 m E Pn      2012/07/16 01:01:03.4   0.3                          T                                        5026915
FRF   003.41 248.5 m E Sn      2012/07/16 01:01:42.0   0.3                          T                9.1  .34 Ml 3.0         5026927
ORIF  003.64 272.2 m E Pn      2012/07/16 01:01:05.4  -1.0                          T                                        5026931
ORIF  003.64 272.2 m E Sn      2012/07/16 01:01:45.8  -1.6                          T               12.0  .52 Ml 2.9         5026924
LMR   003.60 245.9 m E Pn      2012/07/16 01:01:05.5  -0.1                          T                                        5026934
LMR   003.60 245.9 m E Sn      2012/07/16 01:01:45.8  -0.3                          T               11.9  .41 Ml 3.0         5026928
CABF  003.85 298.2 m E Pn      2012/07/16 01:01:08.4  -0.8                          T                                        5026940
CABF  003.85 298.2 m E Sn      2012/07/16 01:01:52.7   0.4                          T                3.3  .42 Ml 2.5         5027493
HINF  004.10 316.9 m E Pn      2012/07/16 01:01:10.3  -2.3                          T                                        5026941
HINF  004.10 316.9 m E Sn      2012/07/16 01:01:58.4   0.1                          T                4.4  .41 Ml 2.7         5027494
SMRF  004.00 258.6 m E Pn      2012/07/16 01:01:11.6   0.4                          T                                        5027501
SMRF  004.00 258.6 m E Sn      2012/07/16 01:01:56.1   0.3                          T                3.5  .41 Ml 2.6         5027500
CDF   004.36 325.2 m E Pn      2012/07/16 01:01:14.3  -1.8                          T                                        5026944
CDF   004.36 325.2 m E Sn      2012/07/16 01:02:04.9   0.4                          T                1.8  .29 Ml 2.6         5027492
HAU   004.48 315.7 m E Pn      2012/07/16 01:01:15.3  -2.4                          T                                        5026942
HAU   004.48 315.7 m E Sn      2012/07/16 01:02:06.4  -0.9                          T               10.7  .31 Ml 3.1         5026920
VIVF  004.50 271.7 m E Pn      2012/07/16 01:01:16.0  -2.0                          T                                        5026936
VIVF  004.50 271.7 m E Sn      2012/07/16 01:02:07.7  -0.3                          T                1.1  .30 Ml 2.3         5026922
LANF  004.64 332.9 m E Pn      2012/07/16 01:01:19.8  -0.1                          T                                        5027491
LANF  004.64 332.9 m E Sn      2012/07/16 01:02:11.4   0.3                          T                1.4  .16 Ml 2.7         5027490
LASF  005.18 263.4 m E Pn      2012/07/16 01:01:27.1  -0.1                          T                                        5027499
LASF  005.18 263.4 m E Sn      2012/07/16 01:02:24.2   0.1                          T                1.4  .34 Ml 2.5         5027498
SMF   005.31 291.8 m E Pn      2012/07/16 01:01:27.6  -1.4                          T                                        5026937
SMF   005.31 291.8 m E Sn      2012/07/16 01:02:27.9   0.7                          T                9.2  .48 Ml 3.2         5026921
SFTF  005.28 310.9 m E Pn      2012/07/16 01:01:28.3  -0.3                          T                                        5027480
LOR   005.51 298.1 m E Pn      2012/07/16 01:01:30.1  -1.6                          T                                        5026943
LOR   005.51 298.1 m E Sn      2012/07/16 01:02:32.0   0.0                          T                2.6  .33 Ml 2.9         5026919
SSF   005.66 295.2 m E Pn      2012/07/16 01:01:32.1  -1.6                          T                                        5026939
SSF   005.66 295.2 m E Sn      2012/07/16 01:02:36.0   0.5                          T                3.8  .61 Ml 2.9         5027495
AVF   005.67 292.2 m E Pn      2012/07/16 01:01:32.5  -1.5                          T                                        5026938
AVF   005.67 292.2 m E Sn      2012/07/16 01:02:36.6   0.7                          T                1.2  .48 Ml 2.4         5027496
BGF   005.95 289.1 m E Pn      2012/07/16 01:01:36.7  -1.0                          T                                        5026917
BGF   005.95 289.1 m E Sn      2012/07/16 01:02:42.8   0.3                          T               13.0  .50 Ml 3.5         5026916
TCF   006.33 285.8 m E Pn      2012/07/16 01:01:42.5  -0.4                          T                                        5027483
TCF   006.33 285.8 m E Sn      2012/07/16 01:02:51.8   0.3                          T                 .3  .20 Ml 2.4         5027482
CAF   006.35 273.4 m E Pn      2012/07/16 01:01:43.0  -0.2                          T                                        5027481
EPF   007.92 260.1 m E Pn      2012/07/16 01:02:05.4   0.8                          T                                        5027497

.
EVENT     279585
    Date      Time       Latitude Longitude    Depth    Ndef Nsta Gap    Mag1  N    Mag2  N    Mag3  N   Author         ID
       rms   OT_Error      Smajor Sminor Az        Err   mdist  Mdist     Err        Err        Err      Quality

2012/07/16 02:34:16.1     43.8750    7.7713      6.0 f   105   24 080  Ml 2.7 28  Md 2.8  3              bulletin    279685
                                                                                                         _ldg
      0.82   +-  0.10       2.0    1.6  150.16 +-  0.0    0.06   4.73   +-0.4      +-0.0                 m i ke

NEAR SOUTH COAST OF FRANCE
Sta     Dist  EvAz     Phase      Date       Time     TRes  Azim  AzRes  Slow  SRes Def   SNR       Amp   Per   Mag1   Mag2       ID
SBF   000.24 267.3 m E Pg      2012/07/16 02:34:20.9  -0.2                          T                                        5026988
SBF   000.24 267.3 m E Sg      2012/07/16 02:34:24.7   0.2                          T              867.0  .28        Md 2.8  5026987
FRF   000.87 249.3 m E Pg      2012/07/16 02:34:32.5   0.0                          T                                        5026982
FRF   000.87 249.3 m E Sg      2012/07/16 02:34:43.8  -0.1                          T                                        5029608
FRF   000.87 249.3 m E Sn      2012/07/16 02:34:45.5  -0.1                          T              131.8  .18 Ml 3.7 Md 2.8  5026981
LMR   001.06 239.9 m E Pg      2012/07/16 02:34:35.6  -0.4                          T                                        5026984
LMR   001.06 239.9 m E Sg      2012/07/16 02:34:49.8   0.0                          T               69.6  .22 Ml 3.4         5026983
MBDF  001.11 320.2 m E Pg      2012/07/16 02:34:36.2  -1.0                          T                                        5026974
MBDF  001.11 320.2 m E Sg      2012/07/16 02:34:50.6  -1.0                          T               20.2  .19 Ml 2.9 Md 2.8  5026973
PGF   001.60 145.5 m E Pn      2012/07/16 02:34:42.2  -1.1                          T                                        5026986
PGF   001.60 145.5 m E Sn      2012/07/16 02:35:01.5  -1.7                          T                9.5  .18 Ml 3.0         5026985
SMRF  001.59 274.4 m E Pg      2012/07/16 02:34:44.7  -1.1                          T                                        5026980
SMRF  001.59 274.4 m E Sg      2012/07/16 02:35:06.7   0.4                          T               98.1  .42 Ml 3.4         5026979
LPG   001.78 336.2 m E Pn      2012/07/16 02:34:46.9   0.9                          T                                        5026978
LPG   001.78 336.2 m E Sn      2012/07/16 02:35:07.1  -0.5                          T                                        5027734
LPG   001.78 336.2 m E Sg      2012/07/16 02:35:12.0  -0.5                          T               36.2  .64 Ml 2.9         5027733
LPL   001.80 336.1 m E Pn      2012/07/16 02:34:47.2   1.0                          T                                        5026977
LPL   001.80 336.1 m E Sg      2012/07/16 02:35:13.5   0.4                          T               14.4  .40 Ml 2.7         5029609
ORIF  001.71 308.2 m E Pg      2012/07/16 02:34:47.3  -0.7                          T                                        5026976
ORIF  001.71 308.2 m E Sg      2012/07/16 02:35:10.4   0.3                          T               47.7  .38 Ml 3.2         5026975
VIVF  002.43 294.9 m E Pn      2012/07/16 02:34:55.8   1.3                          T                                        5026972
VIVF  002.43 294.9 m E Pg      2012/07/16 02:35:01.5   0.3                          T                                        5029614
VIVF  002.43 294.9 m E Sn      2012/07/16 02:35:22.9   0.1                          T                6.0  .32 Ml 2.6         5026971
VIVF  002.43 294.9 m E Sg      2012/07/16 02:35:32.3  -0.1                          T               13.8  .38 Ml 2.9         5029610
LASF  002.83 275.4 m E Pn      2012/07/16 02:35:00.8   0.8                          T                                        5026970
LASF  002.83 275.4 m E Pg      2012/07/16 02:35:08.1  -0.5                          T                                        5027706
LASF  002.83 275.4 m E Sn      2012/07/16 02:35:33.2   0.7                          T                6.1  .17 Ml 2.9         5026969
CABF  002.98 337.1 m E Pn      2012/07/16 02:35:02.9   0.7                          T                                        5027720
CABF  002.98 337.1 m E Pg      2012/07/16 02:35:11.8   0.3                          T                                        5027721
CABF  002.98 337.1 m E Sn      2012/07/16 02:35:36.8   0.7                          T                                        5027719
CABF  002.98 337.1 m E Sg      2012/07/16 02:35:49.5  -0.4                          T                1.3  .24 Ml 2.1         5027718
SMF   003.92 316.3 m E Pn      2012/07/16 02:35:15.0   0.2                          T                                        5027732
SMF   003.92 316.3 m E Pg      2012/07/16 02:35:28.2  -0.4                          T                                        5027731
SMF   003.92 316.3 m E Sn      2012/07/16 02:35:58.8   0.4                          T                                        5027730
SMF   003.92 316.3 m E Sg      2012/07/16 02:36:18.4  -0.5                          T                1.0  .21 Ml 2.3         5027729
HINF  003.99 351.1 m E Pn      2012/07/16 02:35:16.1   0.3                          T                                        5027716
HINF  003.99 351.1 m E Sn      2012/07/16 02:36:00.0  -0.2                          T                1.1  .30 Ml 2.2         5027717
MTLF  004.07 264.4 m E Pn      2012/07/16 02:35:17.6   0.8                          T                                        5026968
MTLF  004.07 264.4 m E Sn      2012/07/16 02:36:02.1   0.2                          T                1.2  .20 Ml 2.4         5026967
MTLF  004.07 264.4 m E Sg      2012/07/16 02:36:23.4  -0.2                          T                1.5  .39 Ml 2.3         5027707
AVF   004.27 314.6 m E Pn      2012/07/16 02:35:20.0   0.5                          T                                        5027728
AVF   004.27 314.6 m E Pg      2012/07/16 02:35:35.3   0.3                          T                                        5027727
AVF   004.27 314.6 m E Sn      2012/07/16 02:36:07.9   1.3                          T                 .9  .31 Ml 2.2         5027726
CAF   004.22 286.4 m E Pn      2012/07/16 02:35:20.1   1.1                          T                                        5026966
CAF   004.22 286.4 m E Sn      2012/07/16 02:36:06.0   0.3                          T                1.3  .23 Ml 2.4         5027709
HAU   004.25 347.0 m E Pn      2012/07/16 02:35:20.7   1.4                          T                                        5027715
HAU   004.25 347.0 m E Sn      2012/07/16 02:36:06.1  -0.2                          T                6.8  .46 Ml 2.7         5027714
SSF   004.38 318.2 m E Pn      2012/07/16 02:35:21.2   0.1                          T                                        5027722
SSF   004.38 318.2 m E Sn      2012/07/16 02:36:09.8   0.5                          T                 .8  .28 Ml 2.3         5027723
LOR   004.37 322.4 m E Pn      2012/07/16 02:35:21.2   0.3 139.9  0.3               T                                        5027710
LOR   004.37 322.4 m E Sn      2012/07/16 02:36:09.5   0.5 146.8  7.2               T                1.1  .20 Ml 2.5         5027711
BGF   004.39 309.3 m E Pn      2012/07/16 02:35:23.9   2.7                          T                                        5026965
BGF   004.39 309.3 m E Sn      2012/07/16 02:36:10.0   0.3                          T                3.1  .39 Ml 2.6         5027708
CDF   004.55 355.8 m E Pn      2012/07/16 02:35:24.0   0.5                          T                                        5027713
CDF   004.55 355.8 m E Sn      2012/07/16 02:36:14.3   0.7                          T                 .9  .24 Ml 2.5         5027712
TCF   004.62 303.4 m E Pn      2012/07/16 02:35:24.7   0.4                          T                                        5027724
TCF   004.62 303.4 m E Sn      2012/07/16 02:36:15.5   0.4                          T                 .5  .24 Ml 2.2         5027725
SFTF  004.73 337.2 m E Sn      2012/07/16 02:36:17.4  -0.3 154.7  -0.6              T                3.1  .30 Ml 2.8         5029611

.
