EVENT     265002
    Date      Time       Latitude Longitude    Depth    Ndef Nsta Gap    Mag1  N    Mag2  N    Mag3  N   Author         ID
       rms   OT_Error      Smajor Sminor Az        Err   mdist  Mdist     Err        Err        Err      Quality

2011/10/13 04:21:39.1     44.1048    8.1233      3.0 f    13    7 271  Ml 1.9  4  Md 1.9  1              js067245    265022

      0.23   +-  0.24       4.6    2.2   95.41 +-  0.0    0.55   1.84   +-0.3      +-                    m i ke

NORTHERN ITALY
Sta     Dist  EvAz     Phase      Date       Time     TRes  Azim  AzRes  Slow  SRes Def   SNR       Amp   Per   Mag1   Mag2       ID
SBF   000.55 244.3 m E Pg      2011/10/13 04:21:49.7   0.1                          T                                        4770594
SBF   000.55 244.3 m E Sg      2011/10/13 04:21:56.8  -0.1                          T                8.6  .18        Md 1.9  4770589
MBDF  001.15 303.2 m E Pg      2011/10/13 04:22:01.1   0.3                          T                                        4773048
MBDF  001.15 303.2 m E Sg      2011/10/13 04:22:15.6  -0.1                          T                1.2  .27 Ml 1.5         4773049
FRF   001.20 243.5 m E Pn      2011/10/13 04:22:01.4   0.3                          T                                        4770592
FRF   001.20 243.5 m E Sn      2011/10/13 04:22:16.7  -0.2                          T                5.8  .26 Ml 2.3         4770593
LMR   001.40 237.2 m E Pn      2011/10/13 04:22:03.8   0.0                          T                                        4770591
LMR   001.40 237.2 m E Pg      2011/10/13 04:22:05.0  -0.2                          T                                        4770779
LMR   001.40 237.2 m E Sn      2011/10/13 04:22:21.2  -0.6                          T                1.9  .22 Ml 2.0         4770590
LPG   001.70 325.4 m E Pg      2011/10/13 04:22:10.8  -0.3                          T                                        4773046
SMRF  001.84 266.9 m E P       2011/10/13 04:22:12.0   0.0                          T                                        4770781
SMRF  001.84 266.9 m E Sg      2011/10/13 04:22:37.3   0.2                          T                1.7  .33 Ml 1.9         4770780
ORIF  001.80 297.7 m E Pg      2011/10/13 04:22:12.8   0.1                          T                                        4773047

.
EVENT     265001
    Date      Time       Latitude Longitude    Depth    Ndef Nsta Gap    Mag1  N    Mag2  N    Mag3  N   Author         ID
       rms   OT_Error      Smajor Sminor Az        Err   mdist  Mdist     Err        Err        Err      Quality

2011/10/13 05:18:38.8     43.8947    3.4489      4.0 f    36   14 152  Ml 2.2 15  Md 2.3  3              js067245    265021

      0.49   +-  0.06       1.4     .9  140.34 +-  0.0    0.35   3.39   +-0.2      +-0.2                 m i ke

NEAR SOUTH COAST OF FRANCE
Sta     Dist  EvAz     Phase      Date       Time     TRes  Azim  AzRes  Slow  SRes Def   SNR       Amp   Per   Mag1   Mag2       ID
LASF  000.35 058.2 m E Pg      2011/10/13 05:18:45.6   0.0                          T                                        4771181
LASF  000.35 058.2 m E Sg      2011/10/13 05:18:50.5   0.3                          T               10.3  .20        Md 2.1  4771180
MTLF  001.05 238.7 m E Pg      2011/10/13 05:18:58.3  -0.2                          T                                        4771177
MTLF  001.05 238.7 m E Pn      2011/10/13 05:18:58.9   0.2                          T                                        4771176
MTLF  001.05 238.7 m E Sg      2011/10/13 05:19:11.8  -0.4                          T                3.0  .18 Ml 2.1 Md 2.2  4771179
MTLF  001.05 238.7 m E Sn      2011/10/13 05:19:13.1   0.2                          T                                        4771178
VIVF  001.30 042.0 m E Pg      2011/10/13 05:19:03.2   0.1                          T                                        4771175
VIVF  001.30 042.0 m E Sg      2011/10/13 05:19:20.2   0.2                          T                5.0  .26 Ml 2.2 Md 2.5  4771174
CAF   001.43 316.6 m E Pg      2011/10/13 05:19:05.5   0.0                          T                                        4771170
CAF   001.43 316.6 m E Sg      2011/10/13 05:19:23.8  -0.3                          T                3.2  .16 Ml 2.3         4771171
SMRF  001.54 086.2 m E Pg      2011/10/13 05:19:07.4  -0.2                          T                                        4773062
SMRF  001.54 086.2 m E Sg      2011/10/13 05:19:27.4   0.1                          T                1.0  .21 Ml 1.7         4773063
RJF   001.97 316.3 m E Pn      2011/10/13 05:19:11.1  -0.2                          T                                        4773064
RJF   001.97 316.3 m E Pg      2011/10/13 05:19:15.5   0.0                          T                                        4771167
RJF   001.97 316.3 m E Sg      2011/10/13 05:19:41.0   0.1                          T                4.7  .20 Ml 2.2         4771168
LFF   002.20 299.2 m E P       2011/10/13 05:19:16.5  -0.2                          T                                        4773066
LFF   002.20 299.2 m E Pg      2011/10/13 05:19:19.5  -0.2                          T                                        4773065
LFF   002.20 299.2 m E Sn      2011/10/13 05:19:39.8  -0.6                          T                                        4773057
LFF   002.20 299.2 m E Sg      2011/10/13 05:19:48.1   0.0                          T                2.9  .26 Ml 2.1         4771169
EPF   002.42 250.2 m E Pn      2011/10/13 05:19:16.8  -0.6                          T                                        4773060
EPF   002.42 250.2 m E Pg      2011/10/13 05:19:23.6  -0.2                          T                                        4773061
EPF   002.42 250.2 m E Sg      2011/10/13 05:19:54.7  -0.3                          T                2.9  .26 Ml 2.3         4771173
BGF   002.70 351.1 m E Pn      2011/10/13 05:19:21.0  -0.1                          T                                        4773055
BGF   002.70 351.1 m E Sg      2011/10/13 05:20:03.0  -0.5                          T                6.9  .32 Ml 2.7         4771165
AVF   002.90 358.7 m E Pn      2011/10/13 05:19:23.8   0.0                          T                                        4773054
AVF   002.90 358.7 m E Sg      2011/10/13 05:20:08.6  -1.2                          T                2.9  .53 Ml 2.1         4771163
ETSF  003.09 252.6 m E P       2011/10/13 05:19:29.5   0.0                          T                                        4773058
ETSF  003.09 252.6 m E Sn      2011/10/13 05:20:01.5  -0.1                          T                                        4773059
ETSF  003.09 252.6 m E Sg      2011/10/13 05:20:15.0  -0.7                          T                1.2  .31 Ml 2.0         4771172
TCF   002.55 340.3 m E Sg      2011/10/13 05:19:59.6   0.6                          T                1.7  .24 Ml 2.2         4771162
SMF   002.76 005.6 m E Sg      2011/10/13 05:20:04.9  -0.7                          T                3.2  .36 Ml 2.3         4771164
LOR   003.39 004.7 m E Sg      2011/10/13 05:20:24.0  -1.0                          T                1.5  .31 Ml 2.2         4771161

.
EVENT     265018
    Date      Time       Latitude Longitude    Depth    Ndef Nsta Gap    Mag1  N    Mag2  N    Mag3  N   Author         ID
       rms   OT_Error      Smajor Sminor Az        Err   mdist  Mdist     Err        Err        Err      Quality

2011/10/13 07:24:26.9     47.8139    5.8825       .0 f    16   11 083  Ml 2.4  5  Md 2.3  2              js067245    265038

      0.90   +-  0.11       2.4    1.7  145.64 +-  0.0    0.37   2.04   +-0.3      +-0.1                 m i km

FRANCE
Sta     Dist  EvAz     Phase      Date       Time     TRes  Azim  AzRes  Slow  SRes Def   SNR       Amp   Per   Mag1   Mag2       ID
HAU   000.37 058.3 m E Pg      2011/10/13 07:24:33.6  -0.7                          T                                        4770640
HAU   000.37 058.3 m E Sg      2011/10/13 07:24:39.2  -0.2                          T               85.2  .84        Md 2.3  4770641
HINF  000.65 089.4 m E Pg      2011/10/13 07:24:40.1   0.5                          T                                        4770638
HINF  000.65 089.4 m E Sg      2011/10/13 07:24:48.7   0.4                          T               10.8  .38                4770639
PAGF  000.75 352.0 m E Pg      2011/10/13 07:24:41.5   0.2 167.5  -4.4              T                                        4770634
PAGF  000.75 352.0 m E Sg      2011/10/13 07:24:51.6   0.3 172.5  0.7               T                4.1  .47                4770633
SFTF  000.69 304.9 m E Sg      2011/10/13 07:24:49.7   0.3                          T               20.9  .41        Md 2.3  4770635
CABF  001.21 173.3 m E Pg      2011/10/13 07:24:49.9   0.0                          T                                        4770637
CABF  001.21 173.3 m E Sg      2011/10/13 07:25:06.4   0.6                          T               23.6  .54 Ml 2.5         4770636
LOR   001.48 249.0 m E Pg      2011/10/13 07:24:54.5  -0.3  71.0  3.4               T                                        4770631
LOR   001.48 249.0 m E Sg      2011/10/13 07:25:13.7  -0.3  76.7  9.2               T                9.0  .38 Ml 2.4         4770632
CDF   001.11 056.8 m E Sg      2011/10/13 07:25:02.5  -0.1                          T                6.2  .36 Ml 2.2         4773069
SSF   001.78 245.9 m E Sg      2011/10/13 07:25:23.2  -0.3                          T               13.0  .46 Ml 2.7         4773076
SMF   001.82 230.7 m E Sg      2011/10/13 07:25:24.7   0.1                          T                                        4770630
AVF   002.00 240.2 m E Sg      2011/10/13 07:25:30.4   0.0                          T                2.6  .49 Ml 1.9         4773078
RUP   002.04 022.0 m E Sg      2011/10/13 07:25:31.9   0.1                          T                                        4773077

.
EVENT     265019
    Date      Time       Latitude Longitude    Depth    Ndef Nsta Gap    Mag1  N    Mag2  N    Mag3  N   Author         ID
       rms   OT_Error      Smajor Sminor Az        Err   mdist  Mdist     Err        Err        Err      Quality

2011/10/13 08:01:32.6     48.7660    5.9878       .0 f    13    8 167  Ml 2.0  4  Md 2.0  1              js067245    265039

      0.97   +-  0.14       2.2    1.7   13.57 +-  0.0    0.27   2.16   +-0.1      +-                    m i km

FRANCE
Sta     Dist  EvAz     Phase      Date       Time     TRes  Azim  AzRes  Slow  SRes Def   SNR       Amp   Per   Mag1   Mag2       ID
PAGF  000.27 219.6 m E Pg      2011/10/13 08:01:38.5   0.3  37.6  -1.8              T                                        4770666
PAGF  000.27 219.6 m E Sg      2011/10/13 08:01:42.2   0.1  41.9  2.5               T               32.9  .92        Md 2.0  4770665
HAU   000.80 162.4 m E Pg      2011/10/13 08:01:47.8  -0.1                          T                                        4770662
HAU   000.80 162.4 m E Sg      2011/10/13 08:01:58.7   0.1                          T                                        4773084
HAU   000.80 162.4 m E Sn      2011/10/13 08:02:01.7  -0.1                          T               13.9  .35                4770663
SFTF  000.85 228.7 m E Pg      2011/10/13 08:01:48.7  -0.1                          T                                        4773080
SFTF  000.85 228.7 m E Sn      2011/10/13 08:02:02.7  -0.1                          T                4.4  .31                4770661
HINF  001.11 148.4 m E Pg      2011/10/13 08:01:53.6  -0.1                          T                                        4773081
HINF  001.11 148.4 m E Sg      2011/10/13 08:02:08.2  -0.1                          T                4.0  .37 Ml 1.9         4773082
CDF   000.93 112.0 m E Sn      2011/10/13 08:02:04.8  -0.1                          T                4.0  .22 Ml 2.1         4773085
RUP   001.17 036.5 m E Sg      2011/10/13 08:02:10.3   0.2                          T                                        4773086
LOR   002.07 224.4 m E Sg      2011/10/13 08:02:38.0  -0.2  30.7  -12.1             T                1.2  .30 Ml 1.8         4773087
CABF  002.16 178.2 m E Sg      2011/10/13 08:02:40.9  -0.1                          T                2.0  .29 Ml 2.1         4773083

.
EVENT     265021
    Date      Time       Latitude Longitude    Depth    Ndef Nsta Gap    Mag1  N    Mag2  N    Mag3  N   Author         ID
       rms   OT_Error      Smajor Sminor Az        Err   mdist  Mdist     Err        Err        Err      Quality

2011/10/13 09:28:11.8     48.0160    6.6435       .0 f    15    8 098  Ml 1.8  3  Md 1.8  2              js067245    265041

      1.18   +-  0.10       2.3    1.7  166.09 +-  0.0    0.20   2.03   +-0.1      +-0.0                 m i km

FRANCE
Sta     Dist  EvAz     Phase      Date       Time     TRes  Azim  AzRes  Slow  SRes Def   SNR       Amp   Per   Mag1   Mag2       ID
HAU   000.20 267.1 m E Pg      2011/10/13 09:28:16.2   0.1                          T                                        4771218
HAU   000.20 267.1 m E Sg      2011/10/13 09:28:18.8  -0.2                          T              132.8  .64        Md 1.8  4771215
HINF  000.24 144.7 m E Pg      2011/10/13 09:28:17.0   0.1                          T                                        4771217
HINF  000.24 144.7 m E Sg      2011/10/13 09:28:20.6   0.1                          T               33.9  .48        Md 1.7  4771216
CDF   000.58 046.6 m E Pg      2011/10/13 09:28:23.2   0.0                          T                                        4773104
CDF   000.58 046.6 m E Pn      2011/10/13 09:28:25.8  -0.2                          T                                        4773105
CDF   000.58 046.6 m E Sg      2011/10/13 09:28:31.0   0.0                          T                4.9  .30                4773099
PAGF  000.82 311.7 m E Pn      2011/10/13 09:28:29.1   0.0 135.7  4.7               T                                        4771213
PAGF  000.82 311.7 m E Sg      2011/10/13 09:28:38.2   0.0 142.1  11.1              T                1.2  .32                4771214
SFTF  001.09 280.6 m E Pg      2011/10/13 09:28:32.6   0.1 106.2  6.8               T                                        4773101
SFTF  001.09 280.6 m E P       2011/10/13 09:28:34.3   0.0                          T                                        4773102
SFTF  001.09 280.6 m E Sn      2011/10/13 09:28:47.9  -0.1                          T                3.0  .25 Ml 1.9         4773097
LANF  001.24 038.2 m E Pg      2011/10/13 09:28:35.1  -0.1                          T                                        4773103
CABF  001.46 195.3 m E Sg      2011/10/13 09:28:58.5   0.2                          T                1.6  .26 Ml 1.8         4773096
LOR   002.03 249.4 m E Sg      2011/10/13 09:29:16.1   0.1  75.2  7.9               T                 .9  .27 Ml 1.8         4773100

.
