EVENT     284435
    Date      Time       Latitude Longitude    Depth    Ndef Nsta Gap    Mag1  N    Mag2  N    Mag3  N   Author         ID
       rms   OT_Error      Smajor Sminor Az        Err   mdist  Mdist     Err        Err        Err      Quality

2012/10/03 10:07:41.9     42.2647    2.2545      8.0 f    36    6 042  Ml 1.8  6                         bulletin    284536
                                                                                                         _ldg
      0.35   +-  0.05       1.2     .8  177.09 +-  0.0    0.06   3.13   +-0.2                            m i ke

PYRENEES
Sta     Dist  EvAz     Phase      Date       Time     TRes  Azim  AzRes  Slow  SRes Def   SNR       Amp   Per   Mag1   Mag2       ID
MTLF  001.08 358.6 m E Pg      2012/10/03 10:08:01.7  -0.4                          T                                        5084420
MTLF  001.08 358.6 m E Sg      2012/10/03 10:08:15.0  -1.1                          T                2.1  .21 Ml 1.8         5084419
EPF   001.61 299.1 m E Pn      2012/10/03 10:08:09.8   0.8                          T                                        5084418
EPF   001.61 299.1 m E Sg      2012/10/03 10:08:32.4  -0.2                          T                 .8  .18 Ml 1.7         5084417
LASF  002.16 032.4 m E Pn      2012/10/03 10:08:16.8   0.4                          T                                        5084427
LASF  002.16 032.4 m E Sn      2012/10/03 10:08:41.9   0.2                          T                 .3  .18 Ml 1.5         5084426
ETSF  002.17 287.9 m E Pn      2012/10/03 10:08:16.9   0.2                          T                                        5084416
ETSF  002.17 287.9 m E Sn      2012/10/03 10:08:43.0   0.8                          T                                        5084415
ETSF  002.17 287.9 m E Sg      2012/10/03 10:08:50.0  -0.3                          T                 .5  .19 Ml 1.7         5084414
CAF   002.66 357.1 m E Pn      2012/10/03 10:08:24.3   0.9                          T                                        5084425
CAF   002.66 357.1 m E Sn      2012/10/03 10:08:54.5   0.7                          T                                        5084424
CAF   002.66 357.1 m E Sg      2012/10/03 10:09:05.0  -0.6                          T                2.0  .29 Ml 2.2         5084423
VIVF  003.13 033.3 m E Pn      2012/10/03 10:08:30.4   0.7                          T                                        5084422
VIVF  003.13 033.3 m E Sn      2012/10/03 10:09:05.5   0.4                          T                 .3  .22 Ml 1.7         5084421

.
EVENT     284499
    Date      Time       Latitude Longitude    Depth    Ndef Nsta Gap    Mag1  N    Mag2  N    Mag3  N   Author         ID
       rms   OT_Error      Smajor Sminor Az        Err   mdist  Mdist     Err        Err        Err      Quality

2012/10/03 14:41:28.6     44.8388    9.7934     20.0 f   352   40 032  Ml 4.4 42  Md 3.9  4              bulletin    284600
                                                                                                         _ldg
      1.49   +-  0.07       2.2    1.7   30.74 +-  0.0    0.26  11.74   +-0.3      +-0.1                 m i ke

NORTHERN ITALY
Sta     Dist  EvAz     Phase      Date       Time     TRes  Azim  AzRes  Slow  SRes Def   SNR       Amp   Per   Mag1   Mag2       ID
SBF   001.95 240.9 m E P       2012/10/03 14:42:00.5  -1.0                          T                                        5091550
SBF   001.95 240.9 m E Sn      2012/10/03 14:42:20.8  -0.7                          T             1123.5  .27 Ml 4.8         5082935
SBF   001.95 240.9 m E Sg      2012/10/03 14:42:29.5  -0.9                          T             2385.9  .37 Ml 5.0 Md 3.8  5091549
MBDF  002.15 268.1 m E P       2012/10/03 14:42:04.1  -0.4                          T                                        5091556
MBDF  002.15 268.1 m E Pg      2012/10/03 14:42:08.1  -0.8                          T                                        5082945
MBDF  002.15 268.1 m E Sg      2012/10/03 14:42:36.2  -0.6                          T             2525.6  .74 Ml 4.8 Md 3.9  5091542
LPG   002.25 288.1 m E P       2012/10/03 14:42:05.1  -0.9                          T                                        5091553
LPG   002.25 288.1 m E Pg      2012/10/03 14:42:09.4  -1.5                          T                                        5082942
LPG   002.25 288.1 m E Sg      2012/10/03 14:42:39.1  -0.9                          T              721.1  .59 Ml 4.4         5091546
PGF   002.36 194.4 m E Pn      2012/10/03 14:42:05.3   0.6                          T                                        5082937
PGF   002.36 194.4 m E Sn      2012/10/03 14:42:31.3   0.0                          T              462.5  .26 Ml 4.8         5082936
LPL   002.27 288.5 m E P       2012/10/03 14:42:05.5  -0.6                          T                                        5091554
LPL   002.27 288.5 m E Pg      2012/10/03 14:42:10.8  -0.4                          T                                        5082943
LPL   002.27 288.5 m E Sn      2012/10/03 14:42:28.2  -1.0                          T                                        5091545
LPL   002.27 288.5 m E Sg      2012/10/03 14:42:38.4  -2.0                          T             1388.6  .74 Ml 4.5         5091544
FRF   002.60 241.7 m E Pn      2012/10/03 14:42:09.0   1.2                          T                                        5082940
FRF   002.60 241.7 m E Sn      2012/10/03 14:42:36.4  -0.5                          T             1520.5  .51 Ml 4.8         5082933
LMR   002.80 238.7 m E Pn      2012/10/03 14:42:11.7   1.1                          T                                        5082939
LMR   002.80 238.7 m E P       2012/10/03 14:42:14.3   0.8                          T                                        5091551
LMR   002.80 238.7 m E Sn      2012/10/03 14:42:41.3  -0.4                          T             2895.7  .82 Ml 5.0         5082934
ORIF  002.78 273.0 m E P       2012/10/03 14:42:13.8   0.5                          T                                        5091555
ORIF  002.78 273.0 m E Pg      2012/10/03 14:42:20.9   0.4                          T                                        5082944
ORIF  002.78 273.0 m E Sg      2012/10/03 14:42:55.2  -1.1                          T              983.7  .59 Ml 4.6         5091543
SMRF  003.14 255.6 m E P       2012/10/03 14:42:18.4   0.0                          T                                        5091552
SMRF  003.14 255.6 m E Sn      2012/10/03 14:42:49.3  -0.7                          T              379.3  .41 Ml 4.4         5091548
SMRF  003.14 255.6 m E Sg      2012/10/03 14:43:06.8  -0.7                          T              755.2  .64 Ml 4.5         5091547
CABF  003.14 305.6 m E P       2012/10/03 14:42:18.7   0.2                          T                                        5091576
CABF  003.14 305.6 m E Sn      2012/10/03 14:42:49.1  -0.9                          T              370.0  .56 Ml 4.3         5091528
CABF  003.14 305.6 m E Sg      2012/10/03 14:43:06.6  -0.9                          T              731.8  .88 Ml 4.4 Md 3.9  5091527
HINF  003.61 326.7 m E P       2012/10/03 14:42:24.1  -0.9                          T                                        5091577
HINF  003.61 326.7 m E Sn      2012/10/03 14:43:01.0  -0.1                          T              268.2  .36 Ml 4.4         5082921
VIVF  003.64 272.1 m E P       2012/10/03 14:42:24.5  -1.0                          T                                        5091557
VIVF  003.64 272.1 m E Sn      2012/10/03 14:43:01.3  -0.5                          T               87.2  .26 Ml 4.1         5082932
VIVF  003.64 272.1 m E Sg      2012/10/03 14:43:22.0  -1.0                          T               53.7  .37 Ml 3.7         5091541
CDF   003.97 335.0 m E P       2012/10/03 14:42:29.1  -1.2                          T                                        5091581
CDF   003.97 335.0 m E Sn      2012/10/03 14:43:09.6  -0.2                          T              323.5  .28 Ml 4.8         5082924
LASF  004.32 261.9 m E P       2012/10/03 14:42:34.2  -0.9                          T                                        5091558
LASF  004.32 261.9 m E Sn      2012/10/03 14:43:17.3  -0.6                          T              134.4  .54 Ml 4.1         5082931
LASF  004.32 261.9 m E Sg      2012/10/03 14:43:43.4  -0.6                          T              166.9  .77 Ml 4.1         5091540
SMF   004.54 295.5 m E P       2012/10/03 14:42:36.9  -1.3                          T                                        5091574
SMF   004.54 295.5 m E Sn      2012/10/03 14:43:23.0  -0.2                          T              207.1  .44 Ml 4.4         5082927
PAGF  004.65 324.5 m E P       2012/10/03 14:42:39.3  -0.5 145.1  3.6               T                                        5091580
PAGF  004.65 324.5 m E Sn      2012/10/03 14:43:25.8  -0.1                          T              224.6  .49 Ml 4.5         5091524
SFTF  004.70 317.4 m E P       2012/10/03 14:42:39.9  -0.6 131.5  -2.4              T                                        5091578
SFTF  004.70 317.4 m E Sn      2012/10/03 14:43:26.1  -1.0                          T              251.0  .61 Ml 4.4         5091526
LOR   004.79 302.6 m E P       2012/10/03 14:42:40.9  -0.9 123.9  5.6               T                                        5091586
LOR   004.79 302.6 m E Sn      2012/10/03 14:43:28.7  -0.6 137.0  18.7              T              235.6  .30 Ml 4.7 Md 4.0  5082923
AVF   004.91 295.7 m E P       2012/10/03 14:42:41.9  -1.5                          T                                        5091575
AVF   004.91 295.7 m E Sn      2012/10/03 14:43:31.5  -0.5                          T               53.6  .40 Ml 4.0         5091529
SSF   004.92 299.1 m E P       2012/10/03 14:42:42.1  -1.4                          T                                        5091585
SSF   004.92 299.1 m E Sn      2012/10/03 14:43:31.7  -0.5                          T              226.8  .58 Ml 4.5         5082922
MEZF  004.91 320.0 m E P       2012/10/03 14:42:43.3  -0.1 140.4  3.9               T                                        5091579
MEZF  004.91 320.0 m E Sn      2012/10/03 14:43:31.8  -0.2 144.1  7.6               T              145.7  .46 Ml 4.4         5091525
BGF   005.16 291.9 m E P       2012/10/03 14:42:45.9  -1.1                          T                                        5091572
BGF   005.16 291.9 m E Sn      2012/10/03 14:43:37.9  -0.2                          T              276.8  .36 Ml 4.8         5082928
HYF   005.54 298.5 m E Pn      2012/10/03 14:42:47.8  -0.1                          T                                        5082955
HYF   005.54 298.5 m E P       2012/10/03 14:42:52.1  -0.2                          T                                        5091573
HYF   005.54 298.5 m E Sn      2012/10/03 14:43:46.2  -0.9                          T                                        5082926
TCF   005.52 287.9 m E P       2012/10/03 14:42:50.4  -1.6                          T                                        5091584
TCF   005.52 287.9 m E Sn      2012/10/03 14:43:45.9  -0.8                          T              128.1  .44 Ml 4.5         5082925
CAF   005.49 273.6 m E P       2012/10/03 14:42:50.5  -1.2                          T                                        5091562
MTLF  005.66 257.3 m E P       2012/10/03 14:42:53.3  -0.7                          T                                        5091559
MTLF  005.66 257.3 m E Sn      2012/10/03 14:43:49.1  -0.9                          T              187.8  .86 Ml 4.4         5082930
RJF   005.88 277.5 m E P       2012/10/03 14:42:55.9  -1.2                          T                                        5091564
RJF   005.88 277.5 m E Sn      2012/10/03 14:43:54.7  -0.6                          T               76.7  .62 Ml 3.8         5091536
GIVF  006.25 329.2 m E Pn      2012/10/03 14:42:58.4   0.9                          T                                        5082969
GIVF  006.25 329.2 m E P       2012/10/03 14:43:02.2  -0.1                          T                                        5091583
BAIF  006.45 326.1 m E P       2012/10/03 14:43:04.0  -1.1                          T                                        5091582
LFF   006.43 274.1 m E P       2012/10/03 14:43:04.2  -0.7                          T                                        5091563
LFF   006.43 274.1 m E Sn      2012/10/03 14:44:08.6   0.2                          T              139.0  .92 Ml 4.2         5091537
EPF   007.06 258.5 m E P       2012/10/03 14:43:12.0  -1.8                          T                                        5091560
EPF   007.06 258.5 m E Sg      2012/10/03 14:44:22.8 -46.8                          T               48.1  .75 Ml 4.1         5091539
MFF   007.18 287.7 m E P       2012/10/03 14:43:13.7  -1.6                          T                                        5091565
MFF   007.18 287.7 m E Sn      2012/10/03 14:44:26.3   0.0                          T               44.2  .58 Ml 4.3         5091535
LDF   007.78 302.4 m E P       2012/10/03 14:43:22.0  -1.7                          T                                        5091566
LDF   007.78 302.4 m E Sn      2012/10/03 14:44:40.7   0.1                          T               70.0  .84 Ml 4.3         5091533
ETSF  007.73 259.1 m E P       2012/10/03 14:43:22.6  -0.5                          T                                        5091561
ETSF  007.73 259.1 m E Sn      2012/10/03 14:44:38.8  -0.7                          T              102.6  .74 Ml 4.5         5082929
FLN   008.07 302.7 m E Pn      2012/10/03 14:43:22.9   0.6                          T                                        5082962
FLN   008.07 302.7 m E P       2012/10/03 14:43:27.6  -0.1 130.0  14.7              T                                        5091567
FLN   008.07 302.7 m E Sn      2012/10/03 14:44:47.2  -0.3                          T               32.3  .43 Ml 4.2         5091532
SJPF  008.13 261.6 m E Pn      2012/10/03 14:43:24.6   1.4                          T                                        5082951
SJPF  008.13 261.6 m E Sn      2012/10/03 14:44:47.4  -1.7                          T               18.7  .65 Ml 3.9         5091538
GRR   008.15 299.6 m E Pn      2012/10/03 14:43:27.4   4.1                          T                                        5082960
GRR   008.15 299.6 m E Sn      2012/10/03 14:44:48.4  -1.0                          T               67.5  .90 Ml 4.2         5091534
SGMF  009.17 296.2 m E P       2012/10/03 14:43:42.6  -0.4                          T                                        5091569
SGMF  009.17 296.2 m E Sn      2012/10/03 14:45:13.3  -0.6                          T               11.9  .35 Ml 4.1         5091531
QUIF  009.47 293.5 m E P       2012/10/03 14:43:45.1  -2.1                          T                                        5091568
ROSF  009.65 295.9 m E P       2012/10/03 14:43:49.3  -0.4                          T                                        5091570

.
EVENT     284300
    Date      Time       Latitude Longitude    Depth    Ndef Nsta Gap    Mag1  N    Mag2  N    Mag3  N   Author         ID
       rms   OT_Error      Smajor Sminor Az        Err   mdist  Mdist     Err        Err        Err      Quality

2012/10/03 14:57:14.4     44.6937    9.7842     30.0 f    26    9 136  Ml 2.9  3                         bulletin    284401
                                                                                                         _ldg
      0.89   +-  0.34       8.7    6.1   96.62 +-  0.0    0.93   3.77   +-0.2                            m i ke

NORTHERN ITALY
Sta     Dist  EvAz     Phase      Date       Time     TRes  Azim  AzRes  Slow  SRes Def   SNR       Amp   Per   Mag1   Mag2       ID
SBF   001.88 244.6 m E Pn      2012/10/03 14:57:43.4   0.0                          T                                        5083355
SBF   001.88 244.6 m E Sn      2012/10/03 14:58:06.2   1.5                          T               24.0  .38 Ml 3.0         5083352
LPG   002.29 291.6 m E Pn      2012/10/03 14:57:45.4  -3.8                          T                                        5083356
MBDF  002.15 271.9 m E Pn      2012/10/03 14:57:46.0  -1.1                          T                                        5083359
PGF   002.22 195.2 m E Pn      2012/10/03 14:57:47.6  -0.4                          T                                        5083351
LPL   002.31 291.9 m E Pn      2012/10/03 14:57:48.0  -1.5                          T                                        5083357
LPL   002.31 291.9 m E Sn      2012/10/03 14:58:14.0  -1.2                          T                8.3  .42 Ml 2.6         5083350
FRF   002.53 244.5 m E Pn      2012/10/03 14:57:51.8  -0.2                          T                                        5083361
FRF   002.53 244.5 m E Sn      2012/10/03 14:58:21.1   1.0                          T               55.1 1.22 Ml 3.0         5083353
LMR   002.73 241.2 m E Pn      2012/10/03 14:57:55.0   0.3                          T                                        5083354
ORIF  002.79 276.0 m E Pn      2012/10/03 14:57:55.9   0.2                          T                                        5083358
VIVF  003.64 274.3 m E Pn      2012/10/03 14:58:06.8  -0.5                          T                                        5083360

.
EVENT     284301
    Date      Time       Latitude Longitude    Depth    Ndef Nsta Gap    Mag1  N    Mag2  N    Mag3  N   Author         ID
       rms   OT_Error      Smajor Sminor Az        Err   mdist  Mdist     Err        Err        Err      Quality

2012/10/03 15:06:36.7     44.6834    9.7510     30.0 f    17    6 134  Ml 2.5  4                         bulletin    284402
                                                                                                         _ldg
      0.94   +-  0.38       9.4    7.5  101.63 +-  0.0    0.93   3.20   +-0.2                            m i ke

NORTHERN ITALY
Sta     Dist  EvAz     Phase      Date       Time     TRes  Azim  AzRes  Slow  SRes Def   SNR       Amp   Per   Mag1   Mag2       ID
SBF   001.85 244.6 m E Pn      2012/10/03 15:07:04.2  -1.1                          T                                        5083391
SBF   001.85 244.6 m E Sn      2012/10/03 15:07:27.0   0.5                          T                7.2  .22 Ml 2.7         5083388
MBDF  002.13 272.2 m E Pn      2012/10/03 15:07:07.4  -1.7                          T                                        5083395
MBDF  002.13 272.2 m E Sn      2012/10/03 15:07:32.2  -0.8                          T                6.1  .56 Ml 2.3         5083394
LPL   002.29 292.3 m E Pn      2012/10/03 15:07:08.7  -2.7                          T                                        5083392
PGF   002.20 194.6 m E Pn      2012/10/03 15:07:10.3   0.2                          T                                        5083389
FRF   002.50 244.4 m E Pn      2012/10/03 15:07:14.2   0.2                          T                                        5083390
FRF   002.50 244.4 m E Sn      2012/10/03 15:07:43.2   1.4                          T               19.1  .92 Ml 2.7         5083387
ORIF  002.77 276.2 m E Pn      2012/10/03 15:07:18.0   0.3                          T                                        5083393

.
