EVENT     261970
    Date      Time       Latitude Longitude    Depth    Ndef Nsta Gap    Mag1  N    Mag2  N    Mag3  N   Author         ID
       rms   OT_Error      Smajor Sminor Az        Err   mdist  Mdist     Err        Err        Err      Quality

2011/07/29 18:23:37.4     42.8357   -1.3893      2.0      57    5 039  Ml 1.9  3  Md 2.4  2              js067245    261970

      0.40   +-  0.06       1.2    1.0   21.13 +-  0.0    0.04   3.24   +-0.1      +-0.0                 m i ke

PYRENEES
Sta     Dist  EvAz     Phase      Date       Time     TRes  Azim  AzRes  Slow  SRes Def   SNR       Amp   Per   Mag1   Mag2       ID
SJPF  000.30 023.4 m E Pg      2011/07/29 18:23:43.5   0.2                          T                                        4729848
SJPF  000.30 023.4 m E Sg      2011/07/29 18:23:48.3   0.9                          T               46.1  .23        Md 2.4  4729844
ETSF  000.61 083.8 m E Pg      2011/07/29 18:23:48.9  -0.2                          T                                        4729847
ETSF  000.61 083.8 m E Sg      2011/07/29 18:23:57.5   0.4                          T               10.4  .27        Md 2.4  4729843
EPF   001.28 080.7 m E Pn      2011/07/29 18:24:00.8   0.1                          T                                        4729846
EPF   001.28 080.7 m E Pg      2011/07/29 18:24:01.7   0.2                          T                                        4730661
EPF   001.28 080.7 m E Sg      2011/07/29 18:24:18.1   0.0                          T                2.4  .19 Ml 2.0         4729845
MTLF  002.69 078.0 m E Pn      2011/07/29 18:24:19.9   0.1                          T                                        4729842
MTLF  002.69 078.0 m E Pg      2011/07/29 18:24:27.0  -0.3                          T                                        4730660
MTLF  002.69 078.0 m E Sn      2011/07/29 18:24:50.7  -0.4                          T                                        4730659
MTLF  002.69 078.0 m E Sg      2011/07/29 18:25:01.9   0.0                          T                  1  .30 Ml 1.9         4729841
RJF   003.24 039.3 m E P       2011/07/29 18:24:30.2  -0.1                          T                                        4729840
RJF   003.24 039.3 m E Sn      2011/07/29 18:25:04.3   0.1                          T                1.6  .30 Ml 1.9         4729839

.
EVENT     262054
    Date      Time       Latitude Longitude    Depth    Ndef Nsta Gap    Mag1  N    Mag2  N    Mag3  N   Author         ID
       rms   OT_Error      Smajor Sminor Az        Err   mdist  Mdist     Err        Err        Err      Quality

2011/07/29 20:38:51.0     46.1514    7.1988      6.0 f    17    6 097  Ml 1.5  4  Md 1.4  2              js067245    262054

      0.11   +-  0.03        .8     .5   92.46 +-  0.0    0.12   1.68   +-0.3      +-0.1                 m i ke

SWITZERLAND
Sta     Dist  EvAz     Phase      Date       Time     TRes  Azim  AzRes  Slow  SRes Def   SNR       Amp   Per   Mag1   Mag2       ID
LPL   000.71 207.3 m E Pg      2011/07/29 20:39:04.8   0.0                          T                                        4730679
LPL   000.71 207.3 m E Sg      2011/07/29 20:39:14.2   0.0                          T                1.2  .32        Md 1.5  4730680
LPG   000.72 205.7 m E Pg      2011/07/29 20:39:05.2   0.1                          T                                        4730681
LPG   000.72 205.7 m E Sg      2011/07/29 20:39:14.6   0.0                          T                1.3  .19        Md 1.4  4730682
CABF  000.90 301.3 m E Pn      2011/07/29 20:39:08.9   0.3                          T                                        4730673
CABF  000.90 301.3 m E Sg      2011/07/29 20:39:19.7   0.1                          T                 .8  .20 Ml 1.4         4730674
MBDF  001.46 192.1 m E Pg      2011/07/29 20:39:18.2  -0.2                          T                                        4730675
MBDF  001.46 192.1 m E Sg      2011/07/29 20:39:37.2   0.0                          T                 .4  .19 Ml 1.4         4730676
ORIF  001.54 217.4 m E Pg      2011/07/29 20:39:19.8  -0.1                          T                                        4730677
ORIF  001.54 217.4 m E Sg      2011/07/29 20:39:39.7  -0.2                          T                 .7  .25 Ml 1.5         4730678
HINF  001.68 352.0 m E Pg      2011/07/29 20:39:22.2  -0.2                          T                                        4730671
HINF  001.68 352.0 m E Sg      2011/07/29 20:39:44.0  -0.1                          T                1.4  .22 Ml 1.9         4730672

.
EVENT     261999
    Date      Time       Latitude Longitude    Depth    Ndef Nsta Gap    Mag1  N    Mag2  N    Mag3  N   Author         ID
       rms   OT_Error      Smajor Sminor Az        Err   mdist  Mdist     Err        Err        Err      Quality

2011/07/29 21:07:12.2     42.8115   -1.3716      2.0      16    3 133  Ml 0.9  1  Md 1.5  2              js067245    261999

      0.35   +-  0.12       3.1    1.9  162.21 +-  0.0    0.01   1.28   +-         +-0.2                 m i ke

PYRENEES
Sta     Dist  EvAz     Phase      Date       Time     TRes  Azim  AzRes  Slow  SRes Def   SNR       Amp   Per   Mag1   Mag2       ID
SJPF  000.32 019.6 m E Pg      2011/07/29 21:07:18.5   0.0                          T                                        4730687
SJPF  000.32 019.6 m E Sg      2011/07/29 21:07:23.2   0.5                          T                5.1  .31        Md 1.6  4730688
ETSF  000.60 081.4 m E Pg      2011/07/29 21:07:24.1   0.3                          T                                        4730685
ETSF  000.60 081.4 m E Sg      2011/07/29 21:07:32.3   0.6                          T                1.4  .26        Md 1.4  4730686
EPF   001.28 079.6 m E Pg      2011/07/29 21:07:36.1   0.0                          T                                        4730683
EPF   001.28 079.6 m E Sg      2011/07/29 21:07:52.5  -0.2                          T                 .2  .19 Ml  .9         4730684

.
EVENT     261962
    Date      Time       Latitude Longitude    Depth    Ndef Nsta Gap    Mag1  N    Mag2  N    Mag3  N   Author         ID
       rms   OT_Error      Smajor Sminor Az        Err   mdist  Mdist     Err        Err        Err      Quality

2011/07/29 22:37:23.4     46.3963    2.6619      4.0 f    21    9 121  Ml 1.6  6  Md 1.6  3              js067245    261962

      1.13   +-  0.10       2.5    1.4  143.91 +-  0.0    0.21   1.95   +-0.2      +-0.1                 m i ke

FRANCE
Sta     Dist  EvAz     Phase      Date       Time     TRes  Azim  AzRes  Slow  SRes Def   SNR       Amp   Per   Mag1   Mag2       ID
BGF   000.21 038.2 m E Pg      2011/07/29 22:37:27.7   0.1                          T                                        4729869
BGF   000.21 038.2 m E Sg      2011/07/29 22:37:30.5   0.0                          T               16.3  .27        Md 1.6  4729865
TCF   000.33 251.1 m E Pg      2011/07/29 22:37:30.5   0.6                          T                                        4729866
TCF   000.33 251.1 m E Sg      2011/07/29 22:37:34.3  -0.1                          T                1.9  .18        Md 1.5  4729860
AVF   000.62 050.1 m E Pg      2011/07/29 22:37:34.8  -0.3                          T                                        4729868
AVF   000.62 050.1 m E Sg      2011/07/29 22:37:43.1  -0.2                          T                1.5  .25                4729861
AVF   000.62 050.1 m E Sn      2011/07/29 22:37:46.8  -0.4                          T                 .4  .16                4730689
SMF   000.85 072.6 m E Pg      2011/07/29 22:37:39.7   0.2                          T                                        4729867
SMF   000.85 072.6 m E Sg      2011/07/29 22:37:50.5   0.0                          T                1.1  .19                4729862
SMF   000.85 072.6 m E Sn      2011/07/29 22:37:53.2   0.4                          T                3.2  .20                4730690
SSF   000.88 040.8 m E Pg      2011/07/29 22:37:40.2   0.2                          T                                        4729853
SSF   000.88 040.8 m E Sg      2011/07/29 22:37:51.5   0.0                          T                1.3  .18 Ml 1.7         4729856
LOR   001.20 042.9 m E Pg      2011/07/29 22:37:46.0   0.2 228.7  5.0               T                                        4729854
LOR   001.20 042.9 m E Sg      2011/07/29 22:38:01.2  -0.2 205.6  -18.1             T                1.9  .25 Ml 1.8         4729855
RJF   001.35 216.7 m E Sg      2011/07/29 22:38:06.2   0.0                          T                                        4729857
CAF   001.53 196.1 m E Sg      2011/07/29 22:38:11.3  -0.4                          T                 .9  .20 Ml 1.7         4729859
MFF   001.95 277.1 m E Sg      2011/07/29 22:38:24.1  -0.7                          T                 .5  .25 Ml 1.7         4729858

.
EVENT     261963
    Date      Time       Latitude Longitude    Depth    Ndef Nsta Gap    Mag1  N    Mag2  N    Mag3  N   Author         ID
       rms   OT_Error      Smajor Sminor Az        Err   mdist  Mdist     Err        Err        Err      Quality

2011/07/29 22:44:20.3     47.8373    5.9404     15.0      27   11 083  Ml 1.6  7  Md 1.6  3              js067245    261963

      1.00   +-  0.08       1.8    1.2  144.76 +-  0.0    0.32   2.05   +-0.3      +-0.2                 m i ke

FRANCE
Sta     Dist  EvAz     Phase      Date       Time     TRes  Azim  AzRes  Slow  SRes Def   SNR       Amp   Per   Mag1   Mag2       ID
HAU   000.32 058.3 m E Pg      2011/07/29 22:44:27.2   0.1                          T                                        4729891
HAU   000.32 058.3 m E Sg      2011/07/29 22:44:31.9   0.1                          T                8.7  .18        Md 1.7  4729882
THEF  000.39 005.2 m E Pg      2011/07/29 22:44:28.5   0.2                          T                                        4729892
THEF  000.39 005.2 m E Sg      2011/07/29 22:44:33.4  -0.4                          T                6.2  .16        Md 1.7  4729883
HINF  000.62 091.6 m E Pg      2011/07/29 22:44:32.4   0.1                          T                                        4729890
HINF  000.62 091.6 m E Sg      2011/07/29 22:44:40.6   0.1                          T                9.0  .25        Md 1.3  4729881
SFTF  000.71 301.6 m E Pg      2011/07/29 22:44:34.1   0.2 124.9  4.0               T                                        4729877
SFTF  000.71 301.6 m E Sg      2011/07/29 22:44:43.3   0.0 114.0  -6.9              T                6.6  .19                4729884
PAGF  000.73 348.7 m E Pg      2011/07/29 22:44:34.3  -0.1 173.7  5.1               T                                        4730694
PAGF  000.73 348.7 m E Pn      2011/07/29 22:44:34.7   0.1                          T                                        4729889
PAGF  000.73 348.7 m E Sg      2011/07/29 22:44:44.4   0.4 156.7  -11.9             T                 .4  .30                4729886
MEZF  000.89 318.5 m E Pg      2011/07/29 22:44:37.2   0.0 138.9  1.1               T                                        4730693
MEZF  000.89 318.5 m E Sn      2011/07/29 22:44:48.4  -0.2 144.5  6.7               T                  1  .21 Ml 1.4         4729885
CDF   001.06 056.8 m E Pn      2011/07/29 22:44:38.5  -0.7                          T                                        4729888
CDF   001.06 056.8 m E Pg      2011/07/29 22:44:40.3  -0.2                          T                                        4730692
CDF   001.06 056.8 m E Sg      2011/07/29 22:44:54.3  -0.1                          T                 .4  .17 Ml 1.3         4729887
CABF  001.23 175.3 m E Pg      2011/07/29 22:44:43.9   0.3                          T                                        4730691
CABF  001.23 175.3 m E Sg      2011/07/29 22:44:59.0  -0.5                          T                 .9  .24 Ml 1.5         4729874
LOR   001.52 248.8 m E Pn      2011/07/29 22:44:45.4   0.0                          T                                        4729879
LOR   001.52 248.8 m E Pg      2011/07/29 22:44:48.8   0.1  63.3  -3.9              T                                        4730695
LOR   001.52 248.8 m E Sg      2011/07/29 22:45:08.3  -0.2  73.4  6.2               T                1.1  .22 Ml 1.7         4729880
SMF   001.86 231.0 m E Pg      2011/07/29 22:44:55.1   0.1                          T                                        4729875
SMF   001.86 231.0 m E Sg      2011/07/29 22:45:18.9  -0.2                          T                2.4  .36 Ml 2.0         4729873
AVF   002.05 240.2 m E Pg      2011/07/29 22:44:58.9   0.4                          T                                        4729876
AVF   002.05 240.2 m E Sg      2011/07/29 22:45:24.1  -0.8                          T                 .3  .22 Ml 1.3         4729872

.
EVENT     261964
    Date      Time       Latitude Longitude    Depth    Ndef Nsta Gap    Mag1  N    Mag2  N    Mag3  N   Author         ID
       rms   OT_Error      Smajor Sminor Az        Err   mdist  Mdist     Err        Err        Err      Quality

2011/07/29 23:23:14.3     47.1188    1.5225      2.0      19   10 120  Ml 1.8 13  Md 2.1  3              js067245    261964

      0.25   +-  0.08       1.7    1.0  177.03 +-  0.0    0.96   2.23   +-0.2      +-0.1                 m i ke

FRANCE
Sta     Dist  EvAz     Phase      Date       Time     TRes  Azim  AzRes  Slow  SRes Def   SNR       Amp   Per   Mag1   Mag2       ID
TCF   000.96 150.1 m E Pg      2011/07/29 23:23:32.6   0.3                          T                                        4729909
TCF   000.96 150.1 m E Sg      2011/07/29 23:23:44.8   0.1                          T                1.7  .24 Ml 1.7 Md 2.1  4729905
BGF   001.07 121.2 m E Pg      2011/07/29 23:23:34.6   0.3                          T                                        4729911
BGF   001.07 121.2 m E Sg      2011/07/29 23:23:48.2   0.0                          T                4.2  .31 Ml 2.0 Md 2.1  4729902
MFF   001.26 246.3 m E Pg      2011/07/29 23:23:37.8   0.1                          T                                        4729913
MFF   001.26 246.3 m E Sg      2011/07/29 23:23:54.0   0.0                          T                1.0  .20 Ml 1.8 Md 2.2  4729900
AVF   001.30 104.0 m E Pg      2011/07/29 23:23:38.3  -0.2                          T                                        4729910
AVF   001.30 104.0 m E Sg      2011/07/29 23:23:55.1  -0.2                          T                1.4  .26 Ml 1.7         4729904
SSF   001.36 091.7 m E Pg      2011/07/29 23:23:39.9   0.3                          T                                        4729908
SSF   001.36 091.7 m E Sg      2011/07/29 23:23:57.3   0.2                          T                1.0  .19 Ml 1.8         4729906
LOR   001.60 083.8 m E Pg      2011/07/29 23:23:43.9  -0.2                          T                                        4729898
LOR   001.60 083.8 m E Sg      2011/07/29 23:24:05.0   0.2                          T                1.8  .24 Ml 2.0         4729907
SMF   001.66 105.7 m E Sg      2011/07/29 23:24:06.0  -0.7                          T                1.0  .17 Ml 1.9         4729903
RJF   001.81 180.1 m E Sg      2011/07/29 23:24:11.4  -0.1                          T                1.8  .20 Ml 1.8         4729899
LDF   001.85 323.7 m E Sg      2011/07/29 23:24:12.1  -0.3                          T                 .7  .26 Ml 1.6         4729897
CAF   002.23 170.0 m E Sg      2011/07/29 23:24:23.8  -0.6                          T                 .4  .22 Ml 1.5         4729896

.
EVENT     261965
    Date      Time       Latitude Longitude    Depth    Ndef Nsta Gap    Mag1  N    Mag2  N    Mag3  N   Author         ID
       rms   OT_Error      Smajor Sminor Az        Err   mdist  Mdist     Err        Err        Err      Quality

2011/07/29 23:57:58.8     45.2412    5.9560      2.0      10    4 175  Ml 1.3  1  Md 1.7  3              js067245    261965

      0.49   +-  0.21       4.7    2.9  147.91 +-  0.0    0.33   0.99   +-         +-0.0                 m i ke

FRANCE
Sta     Dist  EvAz     Phase      Date       Time     TRes  Azim  AzRes  Slow  SRes Def   SNR       Amp   Per   Mag1   Mag2       ID
ORIF  000.33 189.5 m E Pg      2011/07/29 23:58:05.2  -0.1                          T                                        4730156
ORIF  000.33 189.5 m E Sg      2011/07/29 23:58:08.8  -0.8                          T                2.4  .20        Md 1.7  4730155
LPL   000.61 063.0 m E Pg      2011/07/29 23:58:10.5  -0.2                          T                                        4730149
LPL   000.61 063.0 m E Sg      2011/07/29 23:58:17.8  -0.9                          T                 .6  .23        Md 1.7  4730153
MBDF  000.77 131.3 m E Pg      2011/07/29 23:58:13.6   0.0                          T                                        4730150
MBDF  000.77 131.3 m E Sg      2011/07/29 23:58:24.8   1.1                          T                 .9  .24                4730154
VIVF  000.99 247.5 m E Pg      2011/07/29 23:58:17.5   0.2                          T                                        4730151
VIVF  000.99 247.5 m E Sg      2011/07/29 23:58:30.3   0.1                          T                 .9  .26 Ml 1.3         4730152

.
