EVENT     289947
    Date      Time       Latitude Longitude    Depth    Ndef Nsta Gap    Mag1  N    Mag2  N    Mag3  N   Author         ID
       rms   OT_Error      Smajor Sminor Az        Err   mdist  Mdist     Err        Err        Err      Quality

2013/01/09 06:29:16.4     43.1272    -.4120      3.0 f    64   15 056  Ml 2.5 19  Md 2.6  3              bulletin    290047
                                                                                                         _ldg
      0.48   +-  0.06       1.2    1.0  152.03 +-  0.0    0.06   5.17   +-0.3      +-0.1                 m i ke

PYRENEES
Sta     Dist  EvAz     Phase      Date       Time     TRes  Azim  AzRes  Slow  SRes Def   SNR       Amp   Per   Mag1   Mag2       ID
ETSF  000.25 205.4 m E Pg      2013/01/09 06:29:21.0  -0.5                          T   001.0                        Md 2.5  5162053
ETSF  000.25 205.4 m E Sg      2013/01/09 06:29:24.5  -0.5                          T   001.0      133.4  .26                5162054
EPF   000.56 099.7 m E Pg      2013/01/09 06:29:26.8  -0.3                          T   001.0                        Md 2.7  5162046
EPF   000.56 099.7 m E Sg      2013/01/09 06:29:33.9  -0.6                          T               15.0  .20                5162095
SJPF  000.60 268.9 m E Pg      2013/01/09 06:29:28.1   0.4                          T   001.0                                5162036
SJPF  000.60 268.9 m E Sg      2013/01/09 06:29:35.1  -0.4                          T   001.0        8.5  .16        Md 2.7  5162037
MTLF  001.93 082.8 m E Pn      2013/01/09 06:29:48.3  -0.1                          T   001.0                                5162033
MTLF  001.93 082.8 m E Pg      2013/01/09 06:29:52.5   0.2                          T                                        5179483
MTLF  001.93 082.8 m E Sn      2013/01/09 06:30:11.7   0.0                          T   001.0        3.8  .20 Ml 2.5         5162034
MTLF  001.93 082.8 m E Sg      2013/01/09 06:30:16.8  -0.4                          T                                        5179484
LFF   001.99 024.2 m E Pn      2013/01/09 06:29:51.0   1.8                          T   001.0                                5162048
LFF   001.99 024.2 m E Pg      2013/01/09 06:29:54.6   1.2                          T                                        5179195
LFF   001.99 024.2 m E Sn      2013/01/09 06:30:13.3   0.1                          T   001.0        3.3  .25 Ml 2.2         5162049
LFF   001.99 024.2 m E Sg      2013/01/09 06:30:19.3   0.3                          T                8.9  .23 Ml 2.6         5179485
CAF   002.53 044.0 m E Pn      2013/01/09 06:29:57.0   0.4                          T   001.0                                5162043
CAF   002.53 044.0 m E Pg      2013/01/09 06:30:03.7   0.3                          T                                        5162094
CAF   002.53 044.0 m E Sn      2013/01/09 06:30:25.6  -0.6                          T   001.0         .9  .17 Ml 2.0         5162044
CAF   002.53 044.0 m E Sg      2013/01/09 06:30:37.5   1.4                          T                6.3  .22 Ml 2.8         5179486
RJF   002.58 031.8 m E Pn      2013/01/09 06:29:57.4   0.2                          T                                        5162092
RJF   002.58 031.8 m E Pg      2013/01/09 06:30:04.2   0.0                          T   001.0                                5162031
RJF   002.58 031.8 m E Sn      2013/01/09 06:30:27.6   0.4                          T   001.0        4.6  .18 Ml 2.4         5162039
RJF   002.58 031.8 m E Sg      2013/01/09 06:30:37.9   0.4                          T   001.0        4.8  .20 Ml 2.4         5162040
LASF  003.24 071.5 m E Pn      2013/01/09 06:30:06.8   0.6                          T   001.0                                5162047
LASF  003.24 071.5 m E Pg      2013/01/09 06:30:16.8   0.3                          T                                        5179196
LASF  003.24 071.5 m E Sn      2013/01/09 06:30:43.3   0.2                          T                4.6  .45 Ml 2.5         5162093
MFF   003.48 003.0 m E Pn      2013/01/09 06:30:08.8  -0.6                          T                                        5162085
MFF   003.48 003.0 m E Pg      2013/01/09 06:30:20.5  -0.3                          T                                        5162084
MFF   003.48 003.0 m E Sn      2013/01/09 06:30:48.1  -0.6                          T                1.1  .21 Ml 2.4         5162086
MFF   003.48 003.0 m E Sg      2013/01/09 06:31:05.2  -0.3                          T                1.2  .26 Ml 2.4         5179499
TCF   003.67 029.7 m E Pn      2013/01/09 06:30:12.0  -0.1                          T                                        5162088
TCF   003.67 029.7 m E Pg      2013/01/09 06:30:24.3  -0.1                          T                                        5162087
TCF   003.67 029.7 m E Sn      2013/01/09 06:30:53.3   0.0                          T   001.0        2.1  .29 Ml 2.5         5162051
VIVF  004.06 063.0 m E Pn      2013/01/09 06:30:17.9   0.6                          T                                        5179498
VIVF  004.06 063.0 m E Pg      2013/01/09 06:30:31.1  -0.3                          T                                        5179497
VIVF  004.06 063.0 m E Sg      2013/01/09 06:31:23.3  -0.2                          T   001.0         .8  .23 Ml 2.2         5162038
BGF   004.14 032.9 m E Pn      2013/01/09 06:30:18.0  -0.4                          T                                        5162091
BGF   004.14 032.9 m E Pg      2013/01/09 06:30:32.1  -0.9                          T                                        5162090
BGF   004.14 032.9 m E Sn      2013/01/09 06:31:03.6  -0.9                          T               10.3  .40 Ml 3.1         5162089
BGF   004.14 032.9 m E Sg      2013/01/09 06:31:26.0  -0.1                          T   001.0        7.7  .32 Ml 3.1         5162042
QUIF  005.17 339.0 m E Pn      2013/01/09 06:30:32.1  -0.2                          T                                        5162083
QUIF  005.17 339.0 m E Sg      2013/01/09 06:31:57.3  -0.8                          T   001.0        1.1  .29 Ml 2.5         5162035
AVF   004.53 034.8 m E Sg      2013/01/09 06:31:39.2   0.8                          T   001.0        1.8  .31 Ml 2.5         5162041
SSF   004.81 033.8 m E Sg      2013/01/09 06:31:48.3   1.2                          T   001.0        2.1  .56 Ml 2.5         5162050

.
EVENT     289998
    Date      Time       Latitude Longitude    Depth    Ndef Nsta Gap    Mag1  N    Mag2  N    Mag3  N   Author         ID
       rms   OT_Error      Smajor Sminor Az        Err   mdist  Mdist     Err        Err        Err      Quality

2013/01/09 06:34:11.7     47.3878    6.9776       .0 f    27    9 076  Ml 1.9  7  Md 2.0  2              bulletin    290098
                                                                                                         _ldg
      0.58   +-  0.09       1.7    1.5  106.80 +-  0.0    0.17   2.55   +-0.1      +-0.1                 m i km

FRANCE
Sta     Dist  EvAz     Phase      Date       Time     TRes  Azim  AzRes  Slow  SRes Def   SNR       Amp   Per   Mag1   Mag2       ID
HINF  000.44 348.9 m E Pg      2013/01/09 06:34:20.3  -0.1                          T                                        5162874
HINF  000.44 348.9 m E Sg      2013/01/09 06:34:26.2  -0.1                          T                5.1  .26        Md 2.1  5162871
HAU   000.75 325.7 m E Pg      2013/01/09 06:34:26.1   0.0                          T                                        5162877
HAU   000.75 325.7 m E Pn      2013/01/09 06:34:28.0  -0.1                          T                                        5182326
HAU   000.75 325.7 m E Sg      2013/01/09 06:34:36.2   0.1                          T                                        5182306
HAU   000.75 325.7 m E Sn      2013/01/09 06:34:39.8   0.1                          T               12.8  .26        Md 2.0  5162876
CABF  000.99 218.4 m E Pg      2013/01/09 06:34:30.7   0.1                          T                                        5162873
CABF  000.99 218.4 m E Sg      2013/01/09 06:34:43.9   0.3                          T                3.6  .29 Ml 1.9         5162872
CDF   001.04 011.0 m E Pn      2013/01/09 06:34:32.1  -0.1                          T                                        5182305
CDF   001.04 011.0 m E Sn      2013/01/09 06:34:46.2  -0.5                          T                2.5  .24 Ml 2.0         5162875
PAGF  001.44 324.7 m E Pg      2013/01/09 06:34:38.9   0.1 140.6  -3.1              T                                        5162870
PAGF  001.44 324.7 m E Sg      2013/01/09 06:34:57.8   0.2                          T                1.2  .25 Ml 1.7         5179502
LOR   002.12 267.9 m E Pn      2013/01/09 06:34:46.8   0.0 111.7  26.0              T                                        5162869
LOR   002.12 267.9 m E Sn      2013/01/09 06:35:12.7   0.2                          T                                        5162868
LOR   002.12 267.9 m E Sg      2013/01/09 06:35:19.3   0.3                          T                 .9  .19 Ml 1.9         5162867
AVF   002.55 257.8 m E Pn      2013/01/09 06:34:52.5  -0.1                          T                                        5179501
AVF   002.55 257.8 m E Sn      2013/01/09 06:35:23.2   0.6                          T                 .8  .24 Ml 1.9         5179500
SMF   002.27 252.1 m E Pg      2013/01/09 06:34:54.4   0.3                          T                                        5179510
SMF   002.27 252.1 m E Sn      2013/01/09 06:35:16.3   0.3                          T                                        5179508
SMF   002.27 252.1 m E Sg      2013/01/09 06:35:24.0   0.5                          T                 .9  .19 Ml 1.9         5179509
SFTF  001.54 302.7 m E Sg      2013/01/09 06:35:01.1   0.3                          T                 .7  .12 Ml 1.8         5182327

.
EVENT     289957
    Date      Time       Latitude Longitude    Depth    Ndef Nsta Gap    Mag1  N    Mag2  N    Mag3  N   Author         ID
       rms   OT_Error      Smajor Sminor Az        Err   mdist  Mdist     Err        Err        Err      Quality

2013/01/09 07:27:50.5     37.0753   -2.4686      2.0      82    8 085  Ml 3.5  5                         bulletin    290057
                                                                                                         _ldg
      0.77   +-  0.11       2.6    1.9  158.89 +-  0.0    0.23  11.27   +-0.2                            m i ke

SPAIN
Sta     Dist  EvAz     Phase      Date       Time     TRes  Azim  AzRes  Slow  SRes Def   SNR       Amp   Per   Mag1   Mag2       ID
ETSF  006.00 013.6 m E Pn      2013/01/09 07:29:18.1   0.1                          T                                        5162269
ETSF  006.00 013.6 m E Sn      2013/01/09 07:30:23.4   0.1                          T               16.0  .76 Ml 3.4         5162262
SJPF  006.11 008.6 m E Pn      2013/01/09 07:29:19.6   0.1                          T                                        5162268
SJPF  006.11 008.6 m E Sn      2013/01/09 07:30:26.0   0.2                          T               20.3  .68 Ml 3.6         5162263
EPF   006.33 019.0 m E Pn      2013/01/09 07:29:22.7   0.2                          T                                        5162270
EPF   006.33 019.0 m E Sn      2013/01/09 07:30:31.2   0.1                          T               23.1  .74 Ml 3.7         5162261
LASF  008.49 032.6 m E Pn      2013/01/09 07:29:52.3   0.5                          T                                        5179515
LASF  008.49 032.6 m E Pg      2013/01/09 07:30:25.6  -1.6                          T                                        5179514
LASF  008.49 032.6 m E Sn      2013/01/09 07:31:22.4  -0.3                          T                1.6  .18 Ml 3.4         5179513
LASF  008.49 032.6 m E Sg      2013/01/09 07:32:16.1   0.2                          T                1.0  .19 Ml 3.2         5179512
PGF   010.37 054.7 m E Pn      2013/01/09 07:30:17.3  -0.3                          T                                        5162271
HYF   010.86 018.8 m E Pn      2013/01/09 07:30:22.5  -1.7                          T                                        5162267
QUIF  010.85 357.5 m E Pn      2013/01/09 07:30:23.8  -0.2                          T                                        5162266
ROSF  011.27 357.3 m E Pn      2013/01/09 07:30:29.8   0.1                          T                                        5162265
ROSF  011.27 357.3 m E Sn      2013/01/09 07:32:28.4  -0.8                          T                                        5162264

.
EVENT     289972
    Date      Time       Latitude Longitude    Depth    Ndef Nsta Gap    Mag1  N    Mag2  N    Mag3  N   Author         ID
       rms   OT_Error      Smajor Sminor Az        Err   mdist  Mdist     Err        Err        Err      Quality

2013/01/09 08:48:45.3     49.0948    5.4259       .0 f    12    6 139  Ml 2.0  4  Md 1.9  2              bulletin    290072
                                                                                                         _ldg
      2.13   +-  0.34       7.8    5.4   72.08 +-  0.0    0.58   1.40   +-0.2      +-0.2                 m i km

FRANCE
Sta     Dist  EvAz     Phase      Date       Time     TRes  Azim  AzRes  Slow  SRes Def   SNR       Amp   Per   Mag1   Mag2       ID
PAGF  000.58 159.8 m E Pg      2013/01/09 08:48:56.5   0.1 320.1  -19.9             T                                        5179523
PAGF  000.58 159.8 m E Sg      2013/01/09 08:49:03.9  -0.3                          T                                Md 1.7  5179522
MEZF  000.64 202.8 m E Pg      2013/01/09 08:48:57.7   0.0                          T                                        5179525
MEZF  000.64 202.8 m E Sg      2013/01/09 08:49:07.1   0.8                          T                7.8  .29        Md 2.1  5179524
SFTF  000.93 196.2 m E Pg      2013/01/09 08:49:03.5   0.5                          T                                        5179519
SFTF  000.93 196.2 m E Sg      2013/01/09 08:49:15.5   0.3                          T                2.6  .23 Ml 1.8         5179516
GIVF  001.08 339.0 m E Pg      2013/01/09 08:49:06.0   0.2                          T                                        5179548
GIVF  001.08 339.0 m E Sg      2013/01/09 08:49:19.7  -0.4                          T                2.6  .20 Ml 2.0         5179547
HAU   001.25 150.3 m E Pg      2013/01/09 08:49:08.2  -0.7                          T                                        5179521
HAU   001.25 150.3 m E Sg      2013/01/09 08:49:26.1   0.7                          T                2.5  .19 Ml 1.8         5179517
CDF   001.40 118.5 m E Pg      2013/01/09 08:49:11.5  -0.4                          T                                        5179520
CDF   001.40 118.5 m E Sg      2013/01/09 08:49:29.9  -0.3                          T                3.2  .26 Ml 2.2         5179518

.
EVENT     289997
    Date      Time       Latitude Longitude    Depth    Ndef Nsta Gap    Mag1  N    Mag2  N    Mag3  N   Author         ID
       rms   OT_Error      Smajor Sminor Az        Err   mdist  Mdist     Err        Err        Err      Quality

2013/01/09 13:48:14.6     44.7909    6.6464      2.0      13    6 202  Ml 1.5  5  Md 1.6  2              bulletin    290097
                                                                                                         _ldg
      0.35   +-  0.17       4.2    1.9   31.00 +-  0.0    0.11   1.46   +-0.1      +-0.2                 m i ke

FRANCE
Sta     Dist  EvAz     Phase      Date       Time     TRes  Azim  AzRes  Slow  SRes Def   SNR       Amp   Per   Mag1   Mag2       ID
MBDF  000.11 125.6 m E Pg      2013/01/09 13:48:17.1  -0.1                          T                                        5162863
MBDF  000.11 125.6 m E Sg      2013/01/09 13:48:18.7  -0.2                          T               10.7  .18        Md 1.8  5162862
ORIF  000.56 283.4 m E Pg      2013/01/09 13:48:25.2  -0.2                          T                                        5162861
ORIF  000.56 283.4 m E Sg      2013/01/09 13:48:32.0  -0.8                          T                3.3  .20        Md 1.5  5162860
VIVF  001.41 273.4 m E Pn      2013/01/09 13:48:39.8   0.2                          T                                        5179634
VIVF  001.41 273.4 m E Pg      2013/01/09 13:48:41.4   0.5                          T                                        5179631
VIVF  001.41 273.4 m E Sn      2013/01/09 13:48:57.7   0.0                          T                 .4  .19 Ml 1.4         5179633
VIVF  001.41 273.4 m E Sg      2013/01/09 13:48:59.5   0.4                          T                 .8  .20 Ml 1.6         5179632
SMRF  001.12 223.7 m E Sg      2013/01/09 13:48:50.3   0.1                          T                  1  .25 Ml 1.5         5182342
FRF   001.23 180.0 m E Sg      2013/01/09 13:48:53.4  -0.1                          T                1.2  .25 Ml 1.6         5182340
LMR   001.46 183.9 m E Sg      2013/01/09 13:49:00.5  -0.2                          T                 .5  .27 Ml 1.3         5182341

.
EVENT     290010
    Date      Time       Latitude Longitude    Depth    Ndef Nsta Gap    Mag1  N    Mag2  N    Mag3  N   Author         ID
       rms   OT_Error      Smajor Sminor Az        Err   mdist  Mdist     Err        Err        Err      Quality

2013/01/09 15:38:57.7     42.9286     .1847     15.0       7    4 193  Ml 1.4  2  Md 1.3  2              bulletin    290110
                                                                                                         _ldg
      0.33   +-  0.25      10.1    2.6  167.04 +-  0.0    0.14   1.54   +-0.0      +-0.1                 m i ke

PYRENEES
Sta     Dist  EvAz     Phase      Date       Time     TRes  Azim  AzRes  Slow  SRes Def   SNR       Amp   Per   Mag1   Mag2       ID
EPF   000.15 048.2 m E Pg      2013/01/09 15:39:02.1   0.2                          T                                        5179661
EPF   000.15 048.2 m E Sg      2013/01/09 15:39:04.4  -0.2                          T               21.7  .24        Md 1.3  5179660
ETSF  000.55 267.1 m E Pg      2013/01/09 15:39:08.4  -0.1                          T                                        5179658
ETSF  000.55 267.1 m E Sg      2013/01/09 15:39:16.6   0.7                          T                3.4  .23        Md 1.4  5179659
SJPF  001.05 280.6 m E Pn      2013/01/09 15:39:16.0  -0.3                          T                                        5179678
SJPF  001.05 280.6 m E Sg      2013/01/09 15:39:31.7   0.4                          T                 .6  .20 Ml 1.3         5179677
MTLF  001.54 073.8 m E Sg      2013/01/09 15:39:46.6   0.0                          T                 .6  .29 Ml 1.4         5179662

.
