EVENT     262495
    Date      Time       Latitude Longitude    Depth    Ndef Nsta Gap    Mag1  N    Mag2  N    Mag3  N   Author         ID
       rms   OT_Error      Smajor Sminor Az        Err   mdist  Mdist     Err        Err        Err      Quality

2011/08/12 10:22:09.5     43.0863   -1.3675     15.0 f     5    3 328  Ml 1.5  1  Md 1.4  2              js067245    262495

      0.21   +-  0.36      12.2    6.0   27.87 +-  0.0    0.11   1.25   +-         +-0.1                 m i ke

PYRENEES
Sta     Dist  EvAz     Phase      Date       Time     TRes  Azim  AzRes  Slow  SRes Def   SNR       Amp   Per   Mag1   Mag2       ID
SJPF  000.11 075.5 m E Pg      2011/08/12 10:22:12.9  -0.1                          T                                        4741095
SJPF  000.11 075.5 m E Sg      2011/08/12 10:22:15.2  -0.2                          T                5.4  .20        Md 1.5  4741094
ETSF  000.62 107.3 m E Pg      2011/08/12 10:22:21.7   0.0                          T                                        4741093
ETSF  000.62 107.3 m E Sg      2011/08/12 10:22:29.6  -0.4                          T                                Md 1.4  4741092
EPF   001.25 092.0 m E Sg      2011/08/12 10:22:49.7   0.2                          T                1.0  .24 Ml 1.5         4745437

.
EVENT     262496
    Date      Time       Latitude Longitude    Depth    Ndef Nsta Gap    Mag1  N    Mag2  N    Mag3  N   Author         ID
       rms   OT_Error      Smajor Sminor Az        Err   mdist  Mdist     Err        Err        Err      Quality

2011/08/12 10:32:23.0     43.0925   -1.4059     13.0 f    12    3 169  Ml 1.6  1  Md 1.5  2              js067245    262496

      0.29   +-  0.11       2.4    1.9   46.84 +-  0.0    0.13   1.28   +-         +-0.0                 m i ke

PYRENEES
Sta     Dist  EvAz     Phase      Date       Time     TRes  Azim  AzRes  Slow  SRes Def   SNR       Amp   Per   Mag1   Mag2       ID
SJPF  000.13 081.0 m E Pg      2011/08/12 10:32:26.7   0.0                          T                                        4738139
SJPF  000.13 081.0 m E Sg      2011/08/12 10:32:28.9  -0.2                          T                7.7  .19        Md 1.5  4738138
ETSF  000.65 107.0 m E Pg      2011/08/12 10:32:35.4  -0.2                          T                                        4738137
ETSF  000.65 107.0 m E Sg      2011/08/12 10:32:43.3  -1.0                          T                1.4  .22        Md 1.5  4738136
EPF   001.28 092.2 m E Pg      2011/08/12 10:32:47.0  -0.1                          T                                        4738135
EPF   001.28 092.2 m E Sg      2011/08/12 10:33:04.0   0.2                          T                 .9  .23 Ml 1.6         4738134

.
EVENT     262497
    Date      Time       Latitude Longitude    Depth    Ndef Nsta Gap    Mag1  N    Mag2  N    Mag3  N   Author         ID
       rms   OT_Error      Smajor Sminor Az        Err   mdist  Mdist     Err        Err        Err      Quality

2011/08/12 11:02:59.7     43.3463   -1.7251 f     .0 f    12    3 315  Ml 1.6  2  Md 1.7  2              js067245    262497

      0.28   +-  0.42    9999.9 9999.9   99.90 +-  0.0    0.20   1.54   +-0.1      +-0.0                 m i km

PYRENEES
Sta     Dist  EvAz     Phase      Date       Time     TRes  Azim  AzRes  Slow  SRes Def   SNR       Amp   Per   Mag1   Mag2       ID
SJPF  000.43 122.3 m E Pg      2011/08/12 11:03:08.2  -0.1                          T                                        4738143
SJPF  000.43 122.3 m E Sg      2011/08/12 11:03:14.2  -0.1                          T                3.1  .22        Md 1.7  4738142
ETSF  000.96 117.3 m E Pg      2011/08/12 11:03:18.1   0.0                          T                                        4738141
ETSF  000.96 117.3 m E Sg      2011/08/12 11:03:30.7  -0.1                          T                1.6  .26 Ml 1.6 Md 1.7  4738140
EPF   001.54 101.1 m E Pg      2011/08/12 11:03:28.7  -0.1                          T                                        4745438
EPF   001.54 101.1 m E Sg      2011/08/12 11:03:48.8  -0.1                          T                 .9  .22 Ml 1.7         4745439

.
EVENT     262498
    Date      Time       Latitude Longitude    Depth    Ndef Nsta Gap    Mag1  N    Mag2  N    Mag3  N   Author         ID
       rms   OT_Error      Smajor Sminor Az        Err   mdist  Mdist     Err        Err        Err      Quality

2011/08/12 20:45:20.7     36.6014   -7.6430     20.0 f    80    3 189  Ml 3.0  3                         js067245    262498

      0.77   +-  0.23       4.7    2.4   32.49 +-  0.0    0.68   8.90   +-0.1                            m i ke

STRAIT OF GIBRALTAR
Sta     Dist  EvAz     Phase      Date       Time     TRes  Azim  AzRes  Slow  SRes Def   SNR       Amp   Per   Mag1   Mag2       ID
SJPF  008.16 035.2 m E Pn      2011/08/12 20:47:16.5   0.9                          T                                        4738149
SJPF  008.16 035.2 m E Sn      2011/08/12 20:48:41.2  -0.6                          T                1.1  .27 Ml 3.1         4738145
ETSF  008.32 038.8 m E Pn      2011/08/12 20:47:18.5   0.6                          T                                        4738148
ETSF  008.32 038.8 m E Sn      2011/08/12 20:48:45.7  -0.1                          T                 .7  .23 Ml 3.0         4738146
EPF   008.88 041.3 m E Pn      2011/08/12 20:47:25.4  -0.1                          T                                        4738147
EPF   008.88 041.3 m E Sn      2011/08/12 20:48:58.4  -0.7                          T                  1  .27 Ml 3.1         4738144

.
EVENT     262536
    Date      Time       Latitude Longitude    Depth    Ndef Nsta Gap    Mag1  N    Mag2  N    Mag3  N   Author         ID
       rms   OT_Error      Smajor Sminor Az        Err   mdist  Mdist     Err        Err        Err      Quality

2011/08/12 21:30:05.3     36.0449   -8.5607     30.0 f    53    3 256  Ml 3.1  3                         js067245    262536

      1.40   +-  0.65      13.2    7.1   29.80 +-  0.0    1.11   9.79   +-0.1                            m i ke

WEST OF GIBRALTAR
Sta     Dist  EvAz     Phase      Date       Time     TRes  Azim  AzRes  Slow  SRes Def   SNR       Amp   Per   Mag1   Mag2       ID
SJPF  009.05 036.5 m E P       2011/08/12 21:32:16.7  -0.3                          T                                        4745516
SJPF  009.05 036.5 m E Sn      2011/08/12 21:33:46.4  -0.2                          T                 .6  .23 Ml 3.0         4745513
ETSF  009.22 039.7 m E P       2011/08/12 21:32:18.8  -0.7                          T                                        4745515
ETSF  009.22 039.7 m E Sn      2011/08/12 21:33:51.4   0.5                          T                 .9  .30 Ml 3.1         4745512
EPF   009.79 041.9 m E P       2011/08/12 21:32:27.5   0.2                          T                                        4745514
EPF   009.79 041.9 m E Sn      2011/08/12 21:34:04.8   0.4                          T                 .7  .23 Ml 3.2         4745511

.
EVENT     262499
    Date      Time       Latitude Longitude    Depth    Ndef Nsta Gap    Mag1  N    Mag2  N    Mag3  N   Author         ID
       rms   OT_Error      Smajor Sminor Az        Err   mdist  Mdist     Err        Err        Err      Quality

2011/08/12 22:37:41.7     45.1184    7.1176      2.0      10    4 246  Ml 1.2  2  Md 1.4  3              js067245    262499

      0.13   +-  0.14       2.7    1.1   96.35 +-  0.0    0.46   0.90   +-0.2      +-0.1                 m i ke

NORTHERN ITALY
Sta     Dist  EvAz     Phase      Date       Time     TRes  Azim  AzRes  Slow  SRes Def   SNR       Amp   Per   Mag1   Mag2       ID
MBDF  000.46 212.3 m E Pg      2011/08/12 22:37:50.8   0.0                          T                                        4738157
MBDF  000.46 212.3 m E Sg      2011/08/12 22:37:56.6  -0.3                          T                2.9  .18        Md 1.3  4738154
LPG   000.46 325.9 m E Pg      2011/08/12 22:37:51.0   0.1                          T                                        4738158
LPG   000.46 325.9 m E Sg      2011/08/12 22:37:57.0   0.1                          T                6.4  .24        Md 1.4  4738155
LPL   000.48 325.8 m E Pg      2011/08/12 22:37:51.0  -0.2                          T                                        4738159
LPL   000.48 325.8 m E Sg      2011/08/12 22:37:57.5  -0.1                          T                3.0  .22        Md 1.4  4738156
ORIF  000.90 257.6 m E Pg      2011/08/12 22:37:58.9   0.1                          T                                        4738153
ORIF  000.90 257.6 m E Sg      2011/08/12 22:38:10.4  -0.1                          T                 .8  .22 Ml 1.3         4738152

.
EVENT     262500
    Date      Time       Latitude Longitude    Depth    Ndef Nsta Gap    Mag1  N    Mag2  N    Mag3  N   Author         ID
       rms   OT_Error      Smajor Sminor Az        Err   mdist  Mdist     Err        Err        Err      Quality

2011/08/13 00:17:27.1     45.0391    7.2891      2.0      17    8 214  Ml 1.9  6  Md 2.2  3              js067245    262500

      0.10   +-  0.05        .9     .5   71.88 +-  0.0    0.48   1.87   +-0.3      +-0.1                 m i ke

NORTHERN ITALY
Sta     Dist  EvAz     Phase      Date       Time     TRes  Azim  AzRes  Slow  SRes Def   SNR       Amp   Per   Mag1   Mag2       ID
MBDF  000.48 229.9 m E Pg      2011/08/13 00:17:36.4  -0.1                          T                                        4738176
MBDF  000.48 229.9 m E Sg      2011/08/13 00:17:43.0   0.0                          T               10.8  .18        Md 2.2  4738172
LPG   000.60 320.6 m E Pg      2011/08/13 00:17:38.7  -0.1                          T                                        4738173
LPG   000.60 320.6 m E Sg      2011/08/13 00:17:46.8   0.2                          T                5.2  .20        Md 2.3  4738170
LPL   000.62 320.7 m E Pg      2011/08/13 00:17:39.1   0.0                          T                                        4738174
LPL   000.62 320.7 m E Sg      2011/08/13 00:17:47.3   0.0                          T                6.6  .25        Md 2.2  4738169
ORIF  001.01 263.6 m E Pg      2011/08/13 00:17:46.2   0.1                          T                                        4738175
ORIF  001.01 263.6 m E Sg      2011/08/13 00:17:59.1  -0.1                          T                3.8  .22 Ml 2.1         4738171
SBF   001.18 174.9 m E Pg      2011/08/13 00:17:49.2  -0.1                          T                                        4738164
SBF   001.18 174.9 m E Sg      2011/08/13 00:18:04.9   0.3                          T                7.5  .28 Ml 2.3         4738163
LMR   001.79 198.5 m E Pg      2011/08/13 00:18:00.5   0.0                          T                                        4738167
LMR   001.79 198.5 m E Sn      2011/08/13 00:18:19.5   0.1                          T                 .8  .18 Ml 1.8         4738168
VIVF  001.87 265.3 m E Pg      2011/08/13 00:18:02.0   0.1                          T                                        4738166
VIVF  001.87 265.3 m E Sg      2011/08/13 00:18:25.8  -0.2                          T                 .7  .27 Ml 1.6         4738165
SMRF  001.62 229.7 m E Sg      2011/08/13 00:18:18.4   0.0                          T                1.1  .33 Ml 1.6         4738162

.
EVENT     262501
    Date      Time       Latitude Longitude    Depth    Ndef Nsta Gap    Mag1  N    Mag2  N    Mag3  N   Author         ID
       rms   OT_Error      Smajor Sminor Az        Err   mdist  Mdist     Err        Err        Err      Quality

2011/08/13 01:21:52.9     42.6533     .8034      4.0 f    18    3 097  Ml 1.3  3  Md 1.6  2              js067245    262501

      0.61   +-  0.13       2.9    2.0   23.70 +-  0.0    0.33   1.51   +-0.1      +-0.2                 m i ke

PYRENEES
Sta     Dist  EvAz     Phase      Date       Time     TRes  Azim  AzRes  Slow  SRes Def   SNR       Amp   Per   Mag1   Mag2       ID
EPF   000.51 318.0 m E Pg      2011/08/13 01:22:02.2  -0.5                          T                                        4738183
EPF   000.51 318.0 m E Sg      2011/08/13 01:22:08.7  -0.7                          T                2.5  .21        Md 1.7  4738182
ETSF  001.03 284.2 m E Pg      2011/08/13 01:22:12.6   0.3                          T                                        4738178
ETSF  001.03 284.2 m E Sg      2011/08/13 01:22:25.0  -0.8                          T                 .8  .28 Ml 1.3 Md 1.4  4738181
MTLF  001.24 056.0 m E Pg      2011/08/13 01:22:16.5   0.4                          T                                        4738179
MTLF  001.24 056.0 m E Sg      2011/08/13 01:22:32.6   0.4                          T                 .6  .32 Ml 1.2         4738180

.
EVENT     262502
    Date      Time       Latitude Longitude    Depth    Ndef Nsta Gap    Mag1  N    Mag2  N    Mag3  N   Author         ID
       rms   OT_Error      Smajor Sminor Az        Err   mdist  Mdist     Err        Err        Err      Quality

2011/08/13 01:37:56.8     42.8103   -1.3248      2.0      36    3 087  Ml 1.3  1  Md 1.6  2              js067245    262502

      0.28   +-  0.05       1.3     .9   43.28 +-  0.0    0.02   1.24   +-         +-0.1                 m i ke

PYRENEES
Sta     Dist  EvAz     Phase      Date       Time     TRes  Azim  AzRes  Slow  SRes Def   SNR       Amp   Per   Mag1   Mag2       ID
SJPF  000.31 013.6 m E Pg      2011/08/13 01:38:02.9   0.0                          T                                        4738187
SJPF  000.31 013.6 m E Sg      2011/08/13 01:38:07.6   0.6                          T                2.8  .22        Md 1.6  4738185
ETSF  000.57 080.8 m E Pg      2011/08/13 01:38:08.1   0.4                          T                                        4738186
ETSF  000.57 080.8 m E Sg      2011/08/13 01:38:16.2   1.1                          T             4402.7 9.31        Md 1.6  4738184
EPF   001.24 079.2 m E Pg      2011/08/13 01:38:19.0  -1.1                          T                                        4738772
EPF   001.24 079.2 m E Sg      2011/08/13 01:38:36.3   0.2                          T                 .8  .35 Ml 1.3         4738771

.
EVENT     263614
    Date      Time       Latitude Longitude    Depth    Ndef Nsta Gap    Mag1  N    Mag2  N    Mag3  N   Author         ID
       rms   OT_Error      Smajor Sminor Az        Err   mdist  Mdist     Err        Err        Err      Quality

2011/08/13 04:56:33.7     42.8190   -1.3399      2.0      30    3 065  Ml 1.1  1  Md 1.6  2              js067245    263614

      0.26   +-  0.05       1.3     .8   27.70 +-  0.0    0.02   1.25   +-         +-0.2                 m i ke

PYRENEES
Sta     Dist  EvAz     Phase      Date       Time     TRes  Azim  AzRes  Slow  SRes Def   SNR       Amp   Per   Mag1   Mag2       ID
SJPF  000.31 016.0 m E Pg      2011/08/13 04:56:40.1   0.4                          T                                        4745743
SJPF  000.31 016.0 m E Sg      2011/08/13 04:56:44.6   0.8                          T                2.0  .23        Md 1.7  4745744
ETSF  000.58 081.8 m E Pg      2011/08/13 04:56:44.6  -0.2                          T                                        4745741
ETSF  000.58 081.8 m E Sg      2011/08/13 04:56:52.2  -0.2                          T                 .5  .30        Md 1.4  4745742
EPF   001.25 079.7 m E Sg      2011/08/13 04:57:13.0  -0.3                          T                 .3  .22 Ml 1.1         4745740

.
EVENT     262503
    Date      Time       Latitude Longitude    Depth    Ndef Nsta Gap    Mag1  N    Mag2  N    Mag3  N   Author         ID
       rms   OT_Error      Smajor Sminor Az        Err   mdist  Mdist     Err        Err        Err      Quality

2011/08/13 06:31:30.3     43.1296    -.5143      2.0      23    6 108  Ml 1.9  4  Md 1.9  3              js067245    262503

      0.35   +-  0.07       1.6    1.0  162.81 +-  0.0    0.14   2.62   +-0.1      +-0.0                 m i ke

PYRENEES
Sta     Dist  EvAz     Phase      Date       Time     TRes  Azim  AzRes  Slow  SRes Def   SNR       Amp   Per   Mag1   Mag2       ID
ETSF  000.23 188.1 m E Pg      2011/08/13 06:31:34.3  -0.7                          T                                        4738201
ETSF  000.23 188.1 m E Sg      2011/08/13 06:31:37.3  -0.9                          T               17.0  .24        Md 1.9  4738197
SJPF  000.52 268.4 m E Pg      2011/08/13 06:31:40.2   0.0                          T                                        4738200
SJPF  000.52 268.4 m E Sg      2011/08/13 06:31:48.0   1.0                          T                3.5  .21        Md 1.9  4738196
EPF   000.63 098.7 m E Pg      2011/08/13 06:31:42.0  -0.4                          T                                        4738199
EPF   000.63 098.7 m E Sg      2011/08/13 06:31:51.4   0.8                          T                5.8  .22        Md 1.9  4738198
MTLF  002.01 083.0 m E Pg      2011/08/13 06:32:07.4  -0.2                          T                                        4738195
MTLF  002.01 083.0 m E Sg      2011/08/13 06:32:33.2  -0.2                          T                1.2  .29 Ml 1.8         4738194
LFF   002.02 026.1 m E Pg      2011/08/13 06:32:07.9   0.0                          T                                        4738192
LFF   002.02 026.1 m E Sg      2011/08/13 06:32:34.2   0.3                          T                2.9  .31 Ml 2.0         4738190
RJF   002.62 033.2 m E Pg      2011/08/13 06:32:18.8  -0.1                          T                                        4738193
RJF   002.62 033.2 m E Sg      2011/08/13 06:32:52.6   0.0                          T                1.3  .26 Ml 1.7         4738191

.
EVENT     262504
    Date      Time       Latitude Longitude    Depth    Ndef Nsta Gap    Mag1  N    Mag2  N    Mag3  N   Author         ID
       rms   OT_Error      Smajor Sminor Az        Err   mdist  Mdist     Err        Err        Err      Quality

2011/08/13 06:39:53.0     42.8216   -1.3318      2.0      40    3 068  Ml 1.9  1  Md 1.9  2              js067245    262504

      0.33   +-  0.05       1.2     .8   40.42 +-  0.0    0.03   1.27   +-         +-0.1                 m i ke

PYRENEES
Sta     Dist  EvAz     Phase      Date       Time     TRes  Azim  AzRes  Slow  SRes Def   SNR       Amp   Per   Mag1   Mag2       ID
SJPF  000.30 015.0 m E Pg      2011/08/13 06:39:59.0   0.1                          T                                        4738207
SJPF  000.30 015.0 m E Sg      2011/08/13 06:40:03.5   0.5                          T               11.2  .21        Md 1.9  4738205
ETSF  000.57 082.0 m E Pg      2011/08/13 06:40:04.2   0.2                          T                                        4738206
ETSF  000.57 082.0 m E Sg      2011/08/13 06:40:11.2  -0.3                          T                2.2  .30        Md 1.8  4738204
EPF   001.25 079.8 m E Pg      2011/08/13 06:40:16.2  -0.1                          T                                        4738202
EPF   001.25 079.8 m E Sg      2011/08/13 06:40:32.1  -0.3                          T                3.0  .31 Ml 1.9         4738203

.
