EVENT     283253
    Date      Time       Latitude Longitude    Depth    Ndef Nsta Gap    Mag1  N    Mag2  N    Mag3  N   Author         ID
       rms   OT_Error      Smajor Sminor Az        Err   mdist  Mdist     Err        Err        Err      Quality

2012/09/12 23:48:50.9     42.9047    -.2639     25.0       8    4 192  Ml 1.2  1  Md 1.4  2              bulletin    283353
                                                                                                         _ldg
      0.25   +-  0.20      14.5    2.0  176.64 +-  0.0    0.22   1.87   +-         +-0.0                 m i ke

PYRENEES
Sta     Dist  EvAz     Phase      Date       Time     TRes  Azim  AzRes  Slow  SRes Def   SNR       Amp   Per   Mag1   Mag2       ID
ETSF  000.22 268.5 m E Pg      2012/09/12 23:48:57.1   0.0                          T                                        5069097
ETSF  000.22 268.5 m E Sg      2012/09/12 23:49:00.8  -0.5                          T                5.5  .18        Md 1.4  5069094
EPF   000.46 074.0 m E Pg      2012/09/12 23:49:01.1   0.4                          T                                        5069095
EPF   000.46 074.0 m E Sg      2012/09/12 23:49:07.3  -0.2                          T                2.1  .26        Md 1.4  5069093
SJPF  000.74 286.8 m E Pg      2012/09/12 23:49:05.5   0.1                          T                                        5069096
SJPF  000.74 286.8 m E Sg      2012/09/12 23:49:15.1  -0.2                          T                 .9  .18                5069092
MTLF  001.87 075.7 m E Pg      2012/09/12 23:49:25.6  -0.3                          T                                        5069098
MTLF  001.87 075.7 m E Sg      2012/09/12 23:49:50.0  -0.2                          T                 .2  .18 Ml 1.2         5069099

.
EVENT     283308
    Date      Time       Latitude Longitude    Depth    Ndef Nsta Gap    Mag1  N    Mag2  N    Mag3  N   Author         ID
       rms   OT_Error      Smajor Sminor Az        Err   mdist  Mdist     Err        Err        Err      Quality

2012/09/13 06:09:03.1     47.4435    7.7504      9.0 f    35    7 126  Ml 2.0  7  Md 1.9  2              bulletin    283408
                                                                                                         _ldg
      0.55   +-  0.10       2.0    1.4  153.18 +-  0.0    0.07   2.65   +-0.2      +-0.0                 m i ke

SWITZERLAND
Sta     Dist  EvAz     Phase      Date       Time     TRes  Azim  AzRes  Slow  SRes Def   SNR       Amp   Per   Mag1   Mag2       ID
HINF  000.71 301.9 m E Pg      2012/09/13 06:09:16.6   0.0                          T                                        5069702
HINF  000.71 301.9 m E Sg      2012/09/13 06:09:25.7  -0.3                          T                5.9  .24        Md 1.9  5069701
CDF   001.02 342.0 m E Pg      2012/09/13 06:09:22.6   0.2                          T                                        5069695
CDF   001.02 342.0 m E Sg      2012/09/13 06:09:35.5  -0.1                          T                4.2  .20 Ml 2.3 Md 1.9  5069694
HAU   001.10 301.2 m E Pg      2012/09/13 06:09:23.5  -0.3                          T                                        5069699
HAU   001.10 301.2 m E Sg      2012/09/13 06:09:37.8  -0.3                          T               10.2  .30 Ml 2.2         5069698
CABF  001.41 234.4 m E Pn      2012/09/13 06:09:28.1   0.7                          T                                        5069700
CABF  001.41 234.4 m E Pg      2012/09/13 06:09:29.4  -0.1                          T                                        5069691
CABF  001.41 234.4 m E Sn      2012/09/13 06:09:46.1   1.1                          T                                        5069690
CABF  001.41 234.4 m E Sg      2012/09/13 06:09:47.8   0.1                          T                 .9  .16 Ml 1.7         5069689
PAGF  001.76 310.0 m E Pn      2012/09/13 06:09:33.0   0.9                          T                                        5069688
PAGF  001.76 310.0 m E Sn      2012/09/13 06:09:54.2   1.1 134.0  5.4               T                 .8  .22 Ml 1.7         5069687
SFTF  001.98 293.6 m E Pn      2012/09/13 06:09:35.7   0.7                          T                                        5069697
SFTF  001.98 293.6 m E Sn      2012/09/13 06:09:59.6   1.1                          T                2.8  .26 Ml 2.2         5069696
LOR   002.65 267.6 m E Pn      2012/09/13 06:09:45.3   1.1  89.0  4.2               T                                        5069693
LOR   002.65 267.6 m E Sn      2012/09/13 06:10:15.5   0.9  86.1  1.3               T                1.5  .25 Ml 2.1         5069692

.
EVENT     283309
    Date      Time       Latitude Longitude    Depth    Ndef Nsta Gap    Mag1  N    Mag2  N    Mag3  N   Author         ID
       rms   OT_Error      Smajor Sminor Az        Err   mdist  Mdist     Err        Err        Err      Quality

2012/09/13 06:18:45.6     47.4468    7.7524      9.0 f    29    7 126  Ml 1.9  6  Md 1.9  2              bulletin    283409
                                                                                                         _ldg
      0.62   +-  0.12       2.5    1.6  152.53 +-  0.0    0.06   2.65   +-0.2      +-0.0                 m i ke

SWITZERLAND
Sta     Dist  EvAz     Phase      Date       Time     TRes  Azim  AzRes  Slow  SRes Def   SNR       Amp   Per   Mag1   Mag2       ID
HINF  000.71 301.7 m E Pg      2012/09/13 06:18:59.3   0.1                          T                                Md 1.9  5069717
HINF  000.71 301.7 m E Sg      2012/09/13 06:19:08.3  -0.2                          T                3.5  .32                5069711
CDF   001.02 341.8 m E Pg      2012/09/13 06:19:04.7  -0.1                          T                                        5069715
CDF   001.02 341.8 m E Sg      2012/09/13 06:19:18.4   0.3                          T                3.2  .18 Ml 2.2 Md 1.8  5069714
CDF   001.02 341.8 m E Sn      2012/09/13 06:19:19.5   1.4                          T                                        5069713
HAU   001.10 301.0 m E Pg      2012/09/13 06:19:05.8  -0.5                          T                                        5069716
HAU   001.10 301.0 m E Sg      2012/09/13 06:19:20.4  -0.2                          T                2.8  .25 Ml 1.7         5069707
CABF  001.41 234.3 m E Pn      2012/09/13 06:19:10.5   0.6                          T                                        5069710
CABF  001.41 234.3 m E Pg      2012/09/13 06:19:11.6  -0.5                          T                                        5069709
CABF  001.41 234.3 m E Sn      2012/09/13 06:19:28.3   0.8                          T                1.0  .24 Ml 1.6         5069708
SFTF  001.98 293.5 m E Pn      2012/09/13 06:19:18.4   0.8 117.9  6.4               T                                        5069706
SFTF  001.98 293.5 m E Sn      2012/09/13 06:19:42.2   1.2                          T                2.0  .22 Ml 2.1         5069705
MEZF  002.10 301.2 m E Pn      2012/09/13 06:19:19.9   0.7                          T                                        5069712
LOR   002.65 267.6 m E Pn      2012/09/13 06:19:27.3   0.5                          T                                        5069704
LOR   002.65 267.6 m E Sn      2012/09/13 06:19:58.2   1.0                          T                 .8  .24 Ml 1.9         5069703

.
EVENT     283286
    Date      Time       Latitude Longitude    Depth    Ndef Nsta Gap    Mag1  N    Mag2  N    Mag3  N   Author         ID
       rms   OT_Error      Smajor Sminor Az        Err   mdist  Mdist     Err        Err        Err      Quality

2012/09/13 08:25:14.8     44.4675    6.7036      2.0      42    9 050  Ml 2.3  6  Md 2.3  5              bulletin    283386
                                                                                                         _ldg
      0.23   +-  0.04        .8     .6   68.04 +-  0.0    0.09   1.74   +-0.4      +-0.1                 m i ke

FRANCE
Sta     Dist  EvAz     Phase      Date       Time     TRes  Azim  AzRes  Slow  SRes Def   SNR       Amp   Per   Mag1   Mag2       ID
MBDF  000.26 010.5 m E Pg      2012/09/13 08:25:20.2   0.0                          T                                Md 2.2  5069271
MBDF  000.26 010.5 m E Sg      2012/09/13 08:25:23.7  -0.1                          T               29.7  .20        Md 2.1  5069270
ORIF  000.74 307.8 m E Pg      2012/09/13 08:25:28.5  -0.4                          T                                Md 2.3  5069269
ORIF  000.74 307.8 m E Sg      2012/09/13 08:25:38.5   0.0                          T                8.9  .24                5069268
SBF   000.80 138.7 m E Pg      2012/09/13 08:25:30.3   0.3                          T                                        5069261
SBF   000.80 138.7 m E Sg      2012/09/13 08:25:40.7   0.3                          T                8.4  .21                5069258
FRF   000.91 182.6 m E Pg      2012/09/13 08:25:32.2   0.3                          T                                Md 2.4  5069265
FRF   000.91 182.6 m E Sn      2012/09/13 08:25:46.0   0.1                          T               39.4  .24 Ml 3.0         5069264
SMRF  000.95 239.2 m E Pn      2012/09/13 08:25:33.6   0.0                          T                                        5070361
SMRF  000.95 239.2 m E Sn      2012/09/13 08:25:46.8  -0.1                          T                5.9  .32 Ml 2.0         5070362
LPG   001.03 001.9 m E Pg      2012/09/13 08:25:34.5   0.0                          T                                        5070363
LPG   001.03 001.9 m E Sg      2012/09/13 08:25:47.8   0.0                          T                2.9  .17 Ml 2.0         5070364
LPL   001.05 001.1 m E Pg      2012/09/13 08:25:34.7   0.0                          T                                        5069267
LPL   001.05 001.1 m E Sg      2012/09/13 08:25:48.5   0.2                          T                6.4  .23 Ml 2.3         5069266
LMR   001.14 187.1 m E P       2012/09/13 08:25:37.3  -0.4                          T                                        5069263
LMR   001.14 187.1 m E Sg      2012/09/13 08:25:51.0   0.0                          T                9.9  .20 Ml 2.6         5069262
VIVF  001.50 285.7 m E Pg      2012/09/13 08:25:42.1  -0.7                          T                                        5069260
VIVF  001.50 285.7 m E Sg      2012/09/13 08:26:02.7   0.5                          T                1.6  .23 Ml 1.9         5069259

.
EVENT     283323
    Date      Time       Latitude Longitude    Depth    Ndef Nsta Gap    Mag1  N    Mag2  N    Mag3  N   Author         ID
       rms   OT_Error      Smajor Sminor Az        Err   mdist  Mdist     Err        Err        Err      Quality

2012/09/13 11:39:49.7     43.1290    -.6012      2.0      15    3 179             Md 1.6  2              bulletin    283423
                                                                                                         _ldg
      0.34   +-  0.13       3.3    1.4    7.51 +-  0.0    0.08   0.74              +-0.1                 m i ke

PYRENEES
Sta     Dist  EvAz     Phase      Date       Time     TRes  Azim  AzRes  Slow  SRes Def   SNR       Amp   Per   Mag1   Mag2       ID
ETSF  000.23 172.4 m E Pg      2012/09/13 11:39:54.0  -0.4                          T                                        5070368
ETSF  000.23 172.4 m E Sg      2012/09/13 11:39:58.0   0.5                          T               12.5  .37        Md 1.7  5070369
SJPF  000.46 268.2 m E Pg      2012/09/13 11:39:58.3  -0.1                          T                                        5070366
SJPF  000.46 268.2 m E Sg      2012/09/13 11:40:04.9   0.4                          T                9.3  .27        Md 1.6  5070367
EPF   000.70 097.8 m E Pg      2012/09/13 11:40:02.8  -0.1                          T                                        5070370
EPF   000.70 097.8 m E Sg      2012/09/13 11:40:12.1   0.1                          T                2.4  .30                5070371

.
EVENT     283307
    Date      Time       Latitude Longitude    Depth    Ndef Nsta Gap    Mag1  N    Mag2  N    Mag3  N   Author         ID
       rms   OT_Error      Smajor Sminor Az        Err   mdist  Mdist     Err        Err        Err      Quality

2012/09/13 18:28:02.8     45.3941    6.4669      3.0 f    43   13 048  Ml 2.2  9  Md 2.1  3              bulletin    283407
                                                                                                         _ldg
      0.35   +-  0.04        .7     .7   79.25 +-  0.0    0.22   2.78   +-0.2      +-0.0                 m i ke

FRANCE
Sta     Dist  EvAz     Phase      Date       Time     TRes  Azim  AzRes  Slow  SRes Def   SNR       Amp   Per   Mag1   Mag2       ID
LPL   000.22 056.7 m E Pg      2012/09/13 18:28:07.8   0.3                          T                                        5069650
LPL   000.22 056.7 m E Sg      2012/09/13 18:28:10.3  -0.3                          T               25.0  .20        Md 2.2  5069644
LPG   000.23 062.6 m E Pg      2012/09/13 18:28:07.8   0.2                          T                                        5069649
LPG   000.23 062.6 m E Sg      2012/09/13 18:28:10.7  -0.1                          T               36.6  .26        Md 2.1  5069643
ORIF  000.63 221.3 m E Pg      2012/09/13 18:28:14.8   0.0                          T                                        5069648
ORIF  000.63 221.3 m E Sg      2012/09/13 18:28:22.7  -0.5                          T               29.3  .24        Md 2.1  5069645
MBDF  000.70 162.0 m E Pg      2012/09/13 18:28:16.1  -0.1                          T                                        5069647
MBDF  000.70 162.0 m E Sg      2012/09/13 18:28:25.3  -0.1                          T                8.3  .29                5069642
CABF  001.25 347.9 m E P       2012/09/13 18:28:27.2  -0.1                          T                                        5069654
CABF  001.25 347.9 m E Sg      2012/09/13 18:28:42.4   0.2                          T                7.2  .20 Ml 2.5         5069653
VIVF  001.38 247.7 m E Pg      2012/09/13 18:28:28.4  -0.2                          T                                        5070376
VIVF  001.38 247.7 m E Sg      2012/09/13 18:28:46.7   0.3                          T                2.6  .22 Ml 2.1         5069641
FRF   001.84 175.9 m E Pg      2012/09/13 18:28:36.6  -0.3                          T                                        5070374
FRF   001.84 175.9 m E Sg      2012/09/13 18:29:00.6   0.0                          T                1.6  .25 Ml 2.0         5070375
SMF   002.22 305.3 m E Pg      2012/09/13 18:28:44.1   0.2                          T                                        5070378
SMF   002.22 305.3 m E Sg      2012/09/13 18:29:12.3  -0.2                          T                4.1  .26 Ml 2.4         5070379
HINF  002.44 006.1 m E Pg      2012/09/13 18:28:47.9  -0.2                          T                                        5070383
HINF  002.44 006.1 m E Sg      2012/09/13 18:29:19.8   0.4                          T                1.5  .22 Ml 2.1         5070384
LOR   002.60 317.0 m E Pg      2012/09/13 18:28:50.8  -0.3                          T                                        5070386
LOR   002.60 317.0 m E Sn      2012/09/13 18:29:14.4   0.2                          T                                        5070388
LOR   002.60 317.0 m E Sg      2012/09/13 18:29:24.2  -0.4                          T                1.4  .28 Ml 2.0         5070387
AVF   002.58 303.9 m E Pg      2012/09/13 18:28:50.8   0.3                          T                                        5070380
AVF   002.58 303.9 m E Sg      2012/09/13 18:29:23.6  -0.1                          T                2.9  .34 Ml 2.3         5070381
HAU   002.61 358.3 m E Pg      2012/09/13 18:28:51.0  -0.3                          T                                        5070382
HAU   002.61 358.3 m E Sg      2012/09/13 18:29:25.0   0.1                          T                3.7  .24 Ml 2.3         5070385
BGF   002.78 296.0 m E Sg      2012/09/13 18:29:30.5   0.5                          T                3.7  .30 Ml 2.5         5070377

.
