EVENT     284494
    Date      Time       Latitude Longitude    Depth    Ndef Nsta Gap    Mag1  N    Mag2  N    Mag3  N   Author         ID
       rms   OT_Error      Smajor Sminor Az        Err   mdist  Mdist     Err        Err        Err      Quality

2012/10/03 09:20:44.2     44.5757    7.2207     10.0     184   40 024  Ml 4.5 64  Md 3.9  6              bulletin    284595
                                                                                                         _ldg
      0.80   +-  0.04       1.0     .8   60.71 +-  0.0    0.07   8.16   +-0.3      +-0.2                 m i ke

NORTHERN ITALY
Sta     Dist  EvAz     Phase      Date       Time     TRes  Azim  AzRes  Slow  SRes Def   SNR       Amp   Per   Mag1   Mag2       ID
MBDF  000.35 295.4 m E Pg      2012/10/03 09:20:51.4   0.0                          T   001.0                                5082535
MBDF  000.35 295.4 m E Sg      2012/10/03 09:20:56.5   0.3                          T            20580.5  .17        Md 3.8  5082769
SBF   000.73 167.7 m E Pg      2012/10/03 09:20:58.2   0.1                          T   001.0                                5082564
SBF   000.73 167.7 m E Sg      2012/10/03 09:21:07.8   0.1                          T   001.0    18688.8  .55        Md 3.7  5082565
LPG   000.98 340.3 m E Pg      2012/10/03 09:21:02.8  -0.1                          T   001.0                                5082559
LPG   000.98 340.3 m E Sg      2012/10/03 09:21:15.8   0.0                          T             4907.1  .30 Ml 5.0         5082768
LPL   001.00 340.0 m E Pg      2012/10/03 09:21:03.3   0.0                          T   001.0                                5082560
LPL   001.00 340.0 m E Sg      2012/10/03 09:21:16.1  -0.3                          T             2399.4  .29 Ml 4.7         5082767
ORIF  001.01 290.2 m E Pg      2012/10/03 09:21:03.4   0.0                          T   001.0                                5082539
ORIF  001.01 290.2 m E Sg      2012/10/03 09:21:16.5  -0.1                          T             3479.6  .20 Ml 5.1         5082766
FRF   001.10 202.4 m E Pg      2012/10/03 09:21:05.0   0.2                          T   001.0                                5082582
FRF   001.10 202.4 m E Sg      2012/10/03 09:21:18.9  -0.1                          T   001.0     8726.9  .22 Ml 5.5         5082583
LMR   001.34 202.7 m E Pg      2012/10/03 09:21:09.4   0.1                          T   001.0                                5082555
LMR   001.34 202.7 m E Sg      2012/10/03 09:21:26.7   0.0                          T            11862.0  .30 Ml 5.6         5083842
SMRF  001.33 243.7 m E P       2012/10/03 09:21:10.3   1.3                          T   001.0                                5082546
SMRF  001.33 243.7 m E Sg      2012/10/03 09:21:26.1  -0.1                          T   001.0     8266.9  .35 Ml 5.3         5082547
VIVF  001.84 279.7 m E P       2012/10/03 09:21:17.1   0.7                          T   001.0                                5082545
VIVF  001.84 279.7 m E Sn      2012/10/03 09:21:36.6   0.5                          T                                        5082765
VIVF  001.84 279.7 m E Sg      2012/10/03 09:21:41.9  -0.2                          T             1270.6  .41 Ml 4.7         5091418
PGF   002.40 146.8 m E Pn      2012/10/03 09:21:22.5   0.5                          T   001.0                                5082562
PGF   002.40 146.8 m E Sn      2012/10/03 09:21:50.5   0.8                          T   001.0      160.5  .20 Ml 4.4         5082563
CABF  002.19 339.1 m E P       2012/10/03 09:21:22.7   1.4                          T   001.0                                5082527
CABF  002.19 339.1 m E Pg      2012/10/03 09:21:25.6   0.7                          T                                        5083850
CABF  002.19 339.1 m E Sn      2012/10/03 09:21:44.4   0.0                          T   001.0      411.3  .44 Ml 4.2         5082528
CABF  002.19 339.1 m E Sg      2012/10/03 09:21:53.6   0.5                          T             1548.6  .68 Ml 4.6 Md 4.4  5091403
LASF  002.47 259.5 m E P       2012/10/03 09:21:24.9  -0.4                          T   001.0                                5082587
LASF  002.47 259.5 m E Pg      2012/10/03 09:21:30.2   0.2                          T                                        5083841
LASF  002.47 259.5 m E Sn      2012/10/03 09:21:51.6   0.5                          T   001.0      437.7  .27 Ml 4.5         5082549
LASF  002.47 259.5 m E Sg      2012/10/03 09:22:01.5  -0.2                          T              544.8  .53 Ml 4.3         5091417
HINF  003.25 355.6 m E P       2012/10/03 09:21:35.2  -1.3                          T   001.0                                5082533
HINF  003.25 355.6 m E Pg      2012/10/03 09:21:45.2   0.7                          T                                        5083848
HINF  003.25 355.6 m E Sn      2012/10/03 09:22:13.8   3.9                          T   001.0                                5082534
HINF  003.25 355.6 m E Sg      2012/10/03 09:22:28.9   2.6                          T              721.2  .74 Ml 4.5         5083852
SMF   003.15 312.3 m E P       2012/10/03 09:21:35.5   0.5                          T   001.0                                5082566
SMF   003.15 312.3 m E Pg      2012/10/03 09:21:42.3  -0.3                          T                                        5083849
SMF   003.15 312.3 m E Sn      2012/10/03 09:22:07.9   0.5                          T   001.0      236.6  .30 Ml 4.4         5082567
SMF   003.15 312.3 m E Sg      2012/10/03 09:22:23.4   0.4                          T   001.0      497.4  .49 Ml 4.5         5082568
AVF   003.50 310.6 m E P       2012/10/03 09:21:40.6   0.6                          T   001.0                                5082554
AVF   003.50 310.6 m E Sn      2012/10/03 09:22:16.0   0.2                          T   001.0                                5082572
AVF   003.50 310.6 m E Sg      2012/10/03 09:22:33.8  -0.2                          T              369.0  .52 Ml 4.4         5083851
LOR   003.57 320.1 m E P       2012/10/03 09:21:41.5   0.4 143.2  5.5               T   001.0                                5082557
LOR   003.57 320.1 m E Sn      2012/10/03 09:22:18.0   0.5 137.7  0.0               T   001.0      212.1  .33 Ml 4.4 Md 3.9  5082558
LOR   003.57 320.1 m E Sg      2012/10/03 09:22:36.2   0.0 150.6  12.9              T              350.5  .59 Ml 4.3 Md 4.0  5091394
SSF   003.60 315.1 m E P       2012/10/03 09:21:41.9   0.5                          T   001.0                                5082569
SSF   003.60 315.1 m E Sn      2012/10/03 09:22:19.1   1.1                          T              215.8  .38 Ml 4.4         5082775
SSF   003.60 315.1 m E Sg      2012/10/03 09:22:37.1   0.1                          T              464.2  .72 Ml 4.5         5091395
BGF   003.66 304.4 m E P       2012/10/03 09:21:42.6   0.4                          T   001.0                                5082573
BGF   003.66 304.4 m E Sn      2012/10/03 09:22:19.0  -0.5                          T   001.0      352.0  .45 Ml 4.5         5082574
BGF   003.66 304.4 m E Sg      2012/10/03 09:22:38.7  -0.2                          T              582.7  .50 Ml 4.6         5083839
CAF   003.69 277.2 m E P       2012/10/03 09:21:43.0   0.3                          T   001.0                                5082575
CAF   003.69 277.2 m E Sn      2012/10/03 09:22:20.5   0.1                          T              134.5  .41 Ml 4.1         5082770
CAF   003.69 277.2 m E Sg      2012/10/03 09:22:39.7  -0.2                          T              940.5 1.04 Ml 4.5         5091414
CDF   003.84 000.6 m E Pn      2012/10/03 09:21:43.1   1.7                          T   001.0                                5082576
CDF   003.84 000.6 m E Sn      2012/10/03 09:22:23.9  -0.1                          T   001.0       88.2  .22 Ml 4.3         5082577
CDF   003.84 000.6 m E Sg      2012/10/03 09:22:44.4  -0.2                          T              204.9  .69 Ml 4.2         5091399
MTLF  003.82 252.9 m E P       2012/10/03 09:21:44.0  -0.5                          T   001.0                                5082538
MTLF  003.82 252.9 m E Pg      2012/10/03 09:21:54.9   0.0                          T                                        5083846
MTLF  003.82 252.9 m E Sn      2012/10/03 09:22:23.2  -0.1                          T              114.2  .30 Ml 4.2         5082764
MTLF  003.82 252.9 m E Sg      2012/10/03 09:22:43.9   0.0                          T              222.5  .52 Ml 4.2 Md 3.9  5091416
TCF   003.92 297.7 m E P       2012/10/03 09:21:46.4   0.3                          T   001.0                                5082570
TCF   003.92 297.7 m E Sn      2012/10/03 09:22:26.1   0.3                          T   001.0       86.5  .39 Ml 4.0         5082571
TCF   003.92 297.7 m E Sg      2012/10/03 09:22:47.0  -0.1                          T              408.5  .75 Ml 4.4         5091396
SFTF  003.93 338.2 m E P       2012/10/03 09:21:46.5   0.4 148.6  -8.0              T                                        5082761
SFTF  003.93 338.2 m E Sn      2012/10/03 09:22:26.5   0.5 164.0  7.4               T               83.1  .18 Ml 4.3         5082774
SFTF  003.93 338.2 m E Sg      2012/10/03 09:22:47.4  -0.1                          T              900.1  .85 Ml 4.7         5091402
PAGF  004.11 346.0 m E P       2012/10/03 09:21:49.0   0.3 167.0  2.1               T                                        5082760
PAGF  004.11 346.0 m E Sn      2012/10/03 09:22:30.2  -0.1                          T              293.9  .49 Ml 4.5         5083838
PAGF  004.11 346.0 m E Sg      2012/10/03 09:22:53.4   0.3                          T              791.1  .98 Ml 4.6         5091400
RJF   004.12 282.2 m E P       2012/10/03 09:21:49.0   0.3                          T   001.0                                5082550
RJF   004.12 282.2 m E Sn      2012/10/03 09:22:30.6   0.1                          T              273.5  .68 Ml 4.0         5082772
RJF   004.12 282.2 m E Sg      2012/10/03 09:22:52.8  -0.3                          T              264.1  .50 Ml 4.1         5083840
HYF   004.18 311.7 m E P       2012/10/03 09:21:50.1   0.4                          T                                        5082762
HYF   004.18 311.7 m E Sn      2012/10/03 09:22:32.2   0.2                          T                                        5082773
HYF   004.18 311.7 m E Sg      2012/10/03 09:22:55.7   0.5                          T                                        5091404
MEZF  004.20 339.9 m E P       2012/10/03 09:21:50.5   0.5 157.6  -0.8              T   001.0                                5082536
MEZF  004.20 339.9 m E Sn      2012/10/03 09:22:33.1   0.6 160.1  1.7               T   001.0      260.2  .34 Ml 4.6         5082537
MEZF  004.20 339.9 m E Sg      2012/10/03 09:22:56.6   0.8 167.8  9.5               T              491.9  .72 Ml 4.5         5091401
LFF   004.63 276.8 m E P       2012/10/03 09:21:55.9  -0.1                          T   001.0                                5082553
LFF   004.63 276.8 m E Pg      2012/10/03 09:22:10.1   0.3                          T                                        5083847
LFF   004.63 276.8 m E Sn      2012/10/03 09:22:42.7  -0.1                          T              137.8  .59 Ml 4.0         5082771
LFF   004.63 276.8 m E Sg      2012/10/03 09:23:09.3   0.1                          T              607.6  .82 Ml 4.5         5091413
EPF   005.21 255.2 m E P       2012/10/03 09:22:02.5  -1.9                          T   001.0                                5082578
EPF   005.21 255.2 m E Sn      2012/10/03 09:22:57.0   0.2                          T               58.6  .30 Ml 4.2         5082763
EPF   005.21 255.2 m E Sg      2012/10/03 09:23:27.1  -0.4                          T   001.0      116.5  .50 Ml 4.3         5082579
MFF   005.55 294.0 m E P       2012/10/03 09:22:09.1   0.0                          T   001.0                                5082561
MFF   005.55 294.0 m E Sg      2012/10/03 09:23:37.9  -0.1                          T              134.8  .64 Ml 4.5         5091412
GIVF  005.76 344.4 m E P       2012/10/03 09:22:11.3  -0.7                          T   001.0                                5082531
GIVF  005.76 344.4 m E Sn      2012/10/03 09:23:10.2   0.4                          T   001.0      229.5  .85 Ml 4.5         5082532
GIVF  005.76 344.4 m E Sg      2012/10/03 09:23:45.9   1.3                          T              235.3  .82 Ml 4.5         5091397
BAIF  005.86 340.6 m E P       2012/10/03 09:22:12.4  -0.9                          T   001.0                                5082588
BAIF  005.86 340.6 m E Sn      2012/10/03 09:23:12.4   0.4                          T   001.0       80.9  .61 Ml 4.2         5082526
BAIF  005.86 340.6 m E Sg      2012/10/03 09:23:47.9   0.5                          T              112.2  .74 Ml 4.2         5091398
ETSF  005.88 256.1 m E P       2012/10/03 09:22:13.0  -0.8                          T   001.0                                5082529
ETSF  005.88 256.1 m E Sn      2012/10/03 09:23:13.2   0.5                          T   001.0      177.4  .62 Ml 4.5         5082530
SJPF  006.28 259.5 m E P       2012/10/03 09:22:17.3  -2.0                          T   001.0                                5082543
SJPF  006.28 259.5 m E Sn      2012/10/03 09:23:21.6  -0.6                          T   001.0       26.6  .44 Ml 3.9         5082544
SJPF  006.28 259.5 m E Sg      2012/10/03 09:24:00.4  -0.3                          T              139.2 1.00 Ml 4.3         5091415
LDF   006.46 311.1 m E P       2012/10/03 09:22:21.5  -0.4                          T   001.0                                5082551
LDF   006.46 311.1 m E Sn      2012/10/03 09:23:26.6   0.1                          T   001.0       65.8  .61 Ml 4.2         5082552
LDF   006.46 311.1 m E Sg      2012/10/03 09:24:06.9   0.6                          T              129.4  .72 Ml 4.4         5091410
FLN   006.75 311.0 m E P       2012/10/03 09:22:25.3  -0.6 131.9  6.4               T   001.0                                5082580
FLN   006.75 311.0 m E Sn      2012/10/03 09:23:34.0   0.5                          T   001.0       84.0  .47 Ml 4.3         5082581
FLN   006.75 311.0 m E Sg      2012/10/03 09:24:15.8   0.4 122.9  -2.5              T               87.7  .64 Ml 4.2         5091409
GRR   006.76 307.2 m E P       2012/10/03 09:22:25.8  -0.2                          T   001.0                                5082585
GRR   006.76 307.2 m E Sn      2012/10/03 09:23:33.8   0.3                          T   001.0       35.1  .33 Ml 4.1         5082586
GRR   006.76 307.2 m E Sg      2012/10/03 09:24:15.6   0.1                          T               53.7  .59 Ml 4.0         5091411
SGMF  007.69 302.0 m E P       2012/10/03 09:22:37.9  -1.2                          T   001.0                                5082542
SGMF  007.69 302.0 m E Sg      2012/10/03 09:24:45.3   0.5                          T              251.6 1.36 Ml 4.6         5091407
QUIF  007.94 298.6 m E P       2012/10/03 09:22:41.2  -1.3                          T   001.0                                5082540
QUIF  007.94 298.6 m E Sg      2012/10/03 09:24:52.5   0.1                          T              195.3 1.12 Ml 4.7         5091408
ROSF  008.16 301.1 m E P       2012/10/03 09:22:44.7  -1.0                          T   001.0                                5082541
ROSF  008.16 301.1 m E Sg      2012/10/03 09:24:59.2  -0.3                          T              247.2 1.22 Ml 4.8         5091406

.
EVENT     284289
    Date      Time       Latitude Longitude    Depth    Ndef Nsta Gap    Mag1  N    Mag2  N    Mag3  N   Author         ID
       rms   OT_Error      Smajor Sminor Az        Err   mdist  Mdist     Err        Err        Err      Quality

2012/10/03 09:50:19.4     43.2445    5.5473       .0 f    11    4 279  Ml 2.6  2  Md 2.2  3              bulletin    284390
                                                                                                         _ldg
      0.08   +-  0.12       2.4    1.1   35.65 +-  0.0    0.71   1.51   +-0.2      +-0.1                 m i km

NEAR SOUTH COAST OF FRANCE
Sta     Dist  EvAz     Phase      Date       Time     TRes  Azim  AzRes  Slow  SRes Def   SNR       Amp   Per   Mag1   Mag2       ID
LMR   000.71 082.4 m E Pg      2012/10/03 09:50:33.1   0.1                          T                                        5091430
LMR   000.71 082.4 m E P       2012/10/03 09:50:34.4   0.0                          T                                        5082889
LMR   000.71 082.4 m E Sg      2012/10/03 09:50:42.3  -0.1                          T                4.4  .16        Md 2.2  5082886
SMRF  000.73 001.6 m E Pg      2012/10/03 09:50:33.6   0.1                          T                                        5082887
SMRF  000.73 001.6 m E Sn      2012/10/03 09:50:46.9  -0.1                          T                9.0  .28        Md 2.1  5082884
FRF   000.86 068.1 m E Pg      2012/10/03 09:50:36.0   0.1                          T                                        5091431
FRF   000.86 068.1 m E Pn      2012/10/03 09:50:37.3   0.0                          T                                        5091433
FRF   000.86 068.1 m E Sn      2012/10/03 09:50:50.1   0.1                          T               23.9  .26 Ml 2.8 Md 2.2  5082885
SBF   001.51 065.1 m E Pn      2012/10/03 09:50:46.2   0.0                          T                                        5082891
SBF   001.51 065.1 m E Pg      2012/10/03 09:50:47.7  -0.1                          T                                        5091432
SBF   001.51 065.1 m E Sg      2012/10/03 09:51:07.5   0.1                          T                9.5  .35 Ml 2.5         5082890

.
