EVENT     254101
    Date      Time       Latitude Longitude    Depth    Ndef Nsta Gap    Mag1  N    Mag2  N    Mag3  N   Author         ID
       rms   OT_Error      Smajor Sminor Az        Err   mdist  Mdist     Err        Err        Err      Quality

2011/01/22 18:50:01.7     46.9388    2.7323     15.0     128   39 037  Ml 3.0 35  Md 3.2  8              js067245    254121

      0.89   +-  0.05       1.3    1.0  139.80 +-  0.0    0.34   4.97   +-0.3      +-0.1                 m i ke

FRANCE
Sta     Dist  EvAz     Phase      Date       Time     TRes  Azim  AzRes  Slow  SRes Def   SNR       Amp   Per   Mag1   Mag2       ID
BGF   000.39 168.3 m E Pg      2011/01/22 18:50:10.2   0.6                          T                                        4586123
BGF   000.39 168.3 m E Sg      2011/01/22 18:50:15.3   0.2                          T             1459.9  .42        Md 3.1  4586121
HYF   000.34 349.1 m E P       2011/01/22 18:50:10.2   0.3                          T                                        4586053
HYF   000.34 349.1 m E Sg      2011/01/22 18:50:13.5   0.0                          T                                Md 3.2  4587083
AVF   000.45 109.0 m E Pg      2011/01/22 18:50:10.9   0.2                          T                                        4586119
AVF   000.45 109.0 m E Sg      2011/01/22 18:50:16.7  -0.2                          T              815.3  .20        Md 3.2  4586120
SSF   000.54 076.7 m E Pg      2011/01/22 18:50:12.5   0.2                          T                                        4587088
SSF   000.54 076.7 m E Sg      2011/01/22 18:50:19.6   0.0                          T              274.8  .28        Md 3.3  4586117
TCF   000.74 209.1 m E Pg      2011/01/22 18:50:16.3   0.3                          T                                        4587087
TCF   000.74 209.1 m E Pn      2011/01/22 18:50:16.7   0.5                          T                                        4586124
TCF   000.74 209.1 m E Sg      2011/01/22 18:50:26.0   0.2                          T              267.3  .22        Md 3.2  4586118
SMF   000.82 110.7 m E Pg      2011/01/22 18:50:16.8  -0.5                          T                                        4586050
SMF   000.82 110.7 m E Pn      2011/01/22 18:50:17.2   0.0                          T                                        4587085
SMF   000.82 110.7 m E Sg      2011/01/22 18:50:27.3  -0.8                          T              217.2  .20        Md 3.3  4586051
LOR   000.84 066.4 m E Pn      2011/01/22 18:50:17.2  -0.3 247.4  0.1               T                                        4586125
LOR   000.84 066.4 m E Pg      2011/01/22 18:50:17.6  -0.1                          T                                        4587089
LOR   000.84 066.4 m E Sg      2011/01/22 18:50:28.2  -0.6 230.6  -16.6             T              197.0  .32        Md 3.3  4586116
RJF   001.84 207.8 m E Pn      2011/01/22 18:50:30.9  -0.2                          T                                        4586104
RJF   001.84 207.8 m E Pg      2011/01/22 18:50:36.1   0.0                          T                                        4586077
RJF   001.84 207.8 m E Sn      2011/01/22 18:50:53.1   0.4                          T               32.6  .20 Ml 3.1         4587110
RJF   001.84 207.8 m E Sg      2011/01/22 18:51:00.2   0.4                          T               38.3  .28 Ml 3.0         4586062
SFTF  002.01 050.1 m E Pn      2011/01/22 18:50:33.4   0.0 234.2  2.4               T                                        4586096
SFTF  002.01 050.1 m E Pg      2011/01/22 18:50:39.7   0.5                          T                                        4586085
SFTF  002.01 050.1 m E Sn      2011/01/22 18:50:57.0   0.2 231.2  -0.6              T                                        4587099
SFTF  002.01 050.1 m E Sg      2011/01/22 18:51:05.3   0.2                          T               45.3  .39 Ml 3.3         4586045
MFF   002.01 261.4 m E Pn      2011/01/22 18:50:34.2   0.8                          T                                        4586103
MFF   002.01 261.4 m E Pg      2011/01/22 18:50:38.3  -0.8                          T                                        4586078
MFF   002.01 261.4 m E Sn      2011/01/22 18:50:57.1   0.4                          T               35.2  .22 Ml 3.6         4586061
CAF   002.07 193.3 m E Pn      2011/01/22 18:50:34.6   0.4                          T                                        4586106
CAF   002.07 193.3 m E Pg      2011/01/22 18:50:40.4   0.1                          T                                        4587115
CAF   002.07 193.3 m E Sn      2011/01/22 18:50:58.6   0.4                          T               68.9  .26 Ml 3.6         4586064
MEZF  002.21 044.2 m E Pn      2011/01/22 18:50:36.3   0.1 226.1  0.2               T                                        4586094
MEZF  002.21 044.2 m E Pg      2011/01/22 18:50:42.9   0.1 221.0  -4.9              T                                        4586087
MEZF  002.21 044.2 m E Sn      2011/01/22 18:51:01.4  -0.2                          T                                        4587098
MEZF  002.21 044.2 m E Sg      2011/01/22 18:51:11.2  -0.3                          T               40.6  .36 Ml 3.3         4586044
CABF  002.33 096.9 m E Pn      2011/01/22 18:50:37.8  -0.2                          T                                        4586099
CABF  002.33 096.9 m E Pg      2011/01/22 18:50:45.4   0.2                          T                                        4586082
CABF  002.33 096.9 m E Sn      2011/01/22 18:51:04.9   0.4                          T                                        4587103
CABF  002.33 096.9 m E Sg      2011/01/22 18:51:14.8  -0.3                          T               28.2  .54 Ml 3.0         4586049
LFF   002.44 215.5 m E Pn      2011/01/22 18:50:39.1  -0.1                          T                                        4586105
LFF   002.44 215.5 m E Pg      2011/01/22 18:50:47.9   0.9                          T                                        4586076
LFF   002.44 215.5 m E Sn      2011/01/22 18:51:07.2   0.3                          T                                        4587111
LFF   002.44 215.5 m E Sg      2011/01/22 18:51:18.4   0.1                          T               52.8  .40 Ml 3.3         4586063
THEF  002.56 058.5 m E Pn      2011/01/22 18:50:39.7  -1.2                          T                                        4586097
THEF  002.56 058.5 m E Pg      2011/01/22 18:50:49.9   0.6                          T                                        4586086
THEF  002.56 058.5 m E Sn      2011/01/22 18:51:09.0  -0.9                          T                                        4587100
THEF  002.56 058.5 m E Sg      2011/01/22 18:51:21.6  -0.5                          T               41.3  .35 Ml 3.4         4586046
VIVF  002.48 146.3 m E Pn      2011/01/22 18:50:39.9   0.0                          T                                        4586111
VIVF  002.48 146.3 m E Pg      2011/01/22 18:50:47.9  -0.1                          T                                        4586075
VIVF  002.48 146.3 m E Sg      2011/01/22 18:51:20.4   0.4                          T               12.8  .26 Ml 3.0         4586071
PAGF  002.59 050.2 m E Pn      2011/01/22 18:50:41.4   0.1                          T                                        4586036
PAGF  002.59 050.2 m E Pg      2011/01/22 18:50:50.3   0.6 224.6  -7.8              T                                        4586089
PAGF  002.59 050.2 m E Sn      2011/01/22 18:51:10.5  -0.1 236.0  3.6               T                                        4587097
PAGF  002.59 050.2 m E Sg      2011/01/22 18:51:22.8  -0.3 226.8  -5.7              T                9.3  .54 Ml 2.6         4586043
LDF   002.54 311.7 m E Pn      2011/01/22 18:50:41.4   0.8                          T                                        4586101
LDF   002.54 311.7 m E Sn      2011/01/22 18:51:09.3  -0.1                          T                                        4587108
LDF   002.54 311.7 m E Sg      2011/01/22 18:51:20.8  -0.8                          T               17.1  .24 Ml 3.1         4586059
HAU   002.67 065.2 m E Pn      2011/01/22 18:50:41.5  -1.0                          T                                        4587086
HAU   002.67 065.2 m E Pg      2011/01/22 18:50:52.2   0.8                          T                                        4586084
HAU   002.67 065.2 m E Sn      2011/01/22 18:51:11.8  -0.9                          T                                        4587101
HAU   002.67 065.2 m E Sg      2011/01/22 18:51:25.4  -0.4                          T               25.5  .26 Ml 3.1         4586047
GRR   002.83 302.2 m E Pn      2011/01/22 18:50:45.1   0.5                          T                                        4586102
GRR   002.83 302.2 m E Sn      2011/01/22 18:51:15.9  -0.3                          T                                        4587109
GRR   002.83 302.2 m E Sg      2011/01/22 18:51:30.2  -0.4                          T               20.8  .22 Ml 3.2         4586060
HINF  002.93 071.1 m E Pn      2011/01/22 18:50:45.2  -0.9                          T                                        4586095
HINF  002.93 071.1 m E Pg      2011/01/22 18:50:56.0  -0.2                          T                                        4586083
HINF  002.93 071.1 m E Sn      2011/01/22 18:51:17.4  -1.5                          T                                        4587102
HINF  002.93 071.1 m E Sg      2011/01/22 18:51:33.5  -0.5                          T               31.0  .34 Ml 3.4         4586048
FLN   002.83 311.3 m E Pn      2011/01/22 18:50:45.3   0.7 134.3  5.4               T                                        4586100
FLN   002.83 311.3 m E Sn      2011/01/22 18:51:16.1  -0.2                          T                                        4587107
FLN   002.83 311.3 m E Sg      2011/01/22 18:51:30.1  -0.6 133.0  4.0               T               16.3  .22 Ml 3.1         4586058
LASF  002.97 164.2 m E Pn      2011/01/22 18:50:47.2   0.7                          T                                        4586110
LASF  002.97 164.2 m E Pg      2011/01/22 18:50:56.6  -0.3                          T                                        4587114
LASF  002.97 164.2 m E Sg      2011/01/22 18:51:34.7  -0.4                          T                5.0  .24 Ml 2.7         4586069
ORIF  002.98 131.5 m E Pn      2011/01/22 18:50:47.6   0.8                          T                                        4586113
ORIF  002.98 131.5 m E Sn      2011/01/22 18:51:20.6   0.4                          T                5.7  .37 Ml 2.6         4586072
LPL   003.12 115.7 m E Pn      2011/01/22 18:50:48.8   0.0                          T                                        4586114
LPL   003.12 115.7 m E Sn      2011/01/22 18:51:23.9   0.4                          T                3.3  .32 Ml 2.5         4586073
LPG   003.14 115.9 m E Pn      2011/01/22 18:50:50.0   0.8                          T                                        4586115
LPG   003.14 115.9 m E Sn      2011/01/22 18:51:24.8   0.7                          T                2.5  .26 Ml 2.4         4586074
CDF   003.41 062.7 m E Pn      2011/01/22 18:50:51.5  -1.1                          T                                        4586093
CDF   003.41 062.7 m E Pg      2011/01/22 18:51:05.3   0.3                          T                                        4586088
CDF   003.41 062.7 m E Sn      2011/01/22 18:51:29.8  -0.5                          T                                        4587096
CDF   003.41 062.7 m E Sg      2011/01/22 18:51:49.1   0.3                          T               12.4  .36 Ml 3.2         4586042
BAIF  003.27 016.9 m E Pn      2011/01/22 18:50:52.0   1.4                          T                                        4586092
BAIF  003.27 016.9 m E Sn      2011/01/22 18:51:26.8  -0.2                          T                                        4587095
BAIF  003.27 016.9 m E Sg      2011/01/22 18:51:43.6  -0.9                          T               12.6  .44 Ml 2.9         4586038
GIVF  003.46 022.9 m E Pn      2011/01/22 18:50:54.0   0.9                          T                                        4586091
GIVF  003.46 022.9 m E Sn      2011/01/22 18:51:31.0  -0.4                          T                                        4587094
GIVF  003.46 022.9 m E Sg      2011/01/22 18:51:49.4  -0.8                          T               12.5  .36 Ml 3.1         4586037
MTLF  003.62 186.0 m E Pn      2011/01/22 18:50:55.4   0.0                          T                                        4586109
MTLF  003.62 186.0 m E Sg      2011/01/22 18:51:54.7  -0.5                          T                8.4  .30 Ml 3.0         4586068
MBDF  003.59 126.6 m E Pn      2011/01/22 18:50:56.4   1.3                          T                                        4586112
MBDF  003.59 126.6 m E Sn      2011/01/22 18:51:35.6   0.9                          T                1.5  .31 Ml 2.3         4586070
SGMF  003.81 292.1 m E Pn      2011/01/22 18:50:58.6   0.6                          T                                        4586081
SGMF  003.81 292.1 m E Sn      2011/01/22 18:51:39.9   0.1                          T                                        4587105
SGMF  003.81 292.1 m E Sg      2011/01/22 18:51:59.5  -1.8                          T               16.3  .52 Ml 3.1         4586057
LANF  003.97 057.2 m E Pn      2011/01/22 18:51:00.0  -0.2                          T                                        4586035
LANF  003.97 057.2 m E Pg      2011/01/22 18:51:15.1  -0.2                          T                                        4586039
LANF  003.97 057.2 m E Sg      2011/01/22 18:52:05.9  -0.4                          T               17.5  .53 Ml 3.2         4586041
RUP   004.00 044.7 m E Pn      2011/01/22 18:51:00.6   0.0                          T                                        4586034
RUP   004.00 044.7 m E Pg      2011/01/22 18:51:15.8  -0.1                          T                                        4586090
RUP   004.00 044.7 m E Sg      2011/01/22 18:52:06.8  -0.3                          T                                        4586040
QUIF  004.12 285.9 m E Pn      2011/01/22 18:51:02.5   0.4                          T                                        4586079
QUIF  004.12 285.9 m E Sn      2011/01/22 18:51:47.2   0.0                          T                                        4587106
QUIF  004.12 285.9 m E Sg      2011/01/22 18:52:08.7  -2.2                          T                9.0  .31 Ml 3.1         4586056
EPF   004.26 204.3 m E Pn      2011/01/22 18:51:03.0  -1.1                          T                                        4586108
EPF   004.26 204.3 m E Sn      2011/01/22 18:51:48.8  -1.8                          T                                        4586067
EPF   004.26 204.3 m E Sg      2011/01/22 18:52:14.0  -1.3                          T                6.0  .26 Ml 3.1         4586066
ROSF  004.29 291.2 m E Pn      2011/01/22 18:51:05.0   0.5                          T                                        4586080
ROSF  004.29 291.2 m E Sn      2011/01/22 18:51:50.9  -0.4                          T                                        4587104
ROSF  004.29 291.2 m E Sg      2011/01/22 18:52:15.4  -0.9                          T                4.0  .32 Ml 2.8         4586055
ETSF  004.67 211.2 m E Pn      2011/01/22 18:51:09.7  -0.1                          T                                        4586107
ETSF  004.67 211.2 m E Sn      2011/01/22 18:51:59.4  -1.0                          T                 .8  .23 Ml 2.3         4587113
ETSF  004.67 211.2 m E Sg      2011/01/22 18:52:27.5  -0.5                          T                7.9  .57 Ml 2.9         4586065
SJPF  004.74 217.7 m E Sn      2011/01/22 18:52:01.2  -1.0                          T                2.0  .23 Ml 2.7         4587112

.
EVENT     254073
    Date      Time       Latitude Longitude    Depth    Ndef Nsta Gap    Mag1  N    Mag2  N    Mag3  N   Author         ID
       rms   OT_Error      Smajor Sminor Az        Err   mdist  Mdist     Err        Err        Err      Quality

2011/01/22 18:56:48.3     46.9381    2.7560     15.0      20   10 085  Ml 1.5  3  Md 1.6  3              js067245    254093

      0.45   +-  0.09       2.0    1.3  127.25 +-  0.0    0.34   2.02   +-0.2      +-0.1                 m i ke

FRANCE
Sta     Dist  EvAz     Phase      Date       Time     TRes  Azim  AzRes  Slow  SRes Def   SNR       Amp   Per   Mag1   Mag2       ID
HYF   000.34 346.5 m E P       2011/01/22 18:56:56.5  -0.1                          T                                        4586132
HYF   000.34 346.5 m E Sg      2011/01/22 18:56:59.9  -0.3                          T                                        4586141
BGF   000.39 170.7 m E Pg      2011/01/22 18:56:56.6   0.4                          T                                        4586146
BGF   000.39 170.7 m E Sg      2011/01/22 18:57:01.6   0.1                          T                7.8  .36        Md 1.7  4586145
AVF   000.44 109.6 m E Pg      2011/01/22 18:56:57.2   0.3                          T                                        4586134
AVF   000.44 109.6 m E Sg      2011/01/22 18:57:03.1   0.1                          T                3.9  .20        Md 1.6  4586142
SSF   000.53 076.2 m E Pg      2011/01/22 18:56:58.9   0.3                          T                                        4586136
SSF   000.53 076.2 m E Sg      2011/01/22 18:57:06.1   0.3                          T                2.9  .35        Md 1.6  4586139
TCF   000.75 210.3 m E Pg      2011/01/22 18:57:02.7   0.0                          T                                        4586135
TCF   000.75 210.3 m E Sg      2011/01/22 18:57:12.4  -0.3                          T                1.3  .20                4586138
SMF   000.80 111.1 m E Pg      2011/01/22 18:57:03.1  -0.5                          T                                        4586133
SMF   000.80 111.1 m E Sg      2011/01/22 18:57:13.7  -0.5                          T                1.5  .18                4586143
LOR   000.82 065.9 m E Pg      2011/01/22 18:57:04.0   0.0 246.0  -0.8              T                                        4586137
LOR   000.82 065.9 m E Sg      2011/01/22 18:57:14.6  -0.3 240.9  -5.8              T                1.4  .28                4586140
SFTF  002.00 049.8 m E Pg      2011/01/22 18:57:26.0   0.5                          T                                        4586127
SFTF  002.00 049.8 m E Sg      2011/01/22 18:57:51.6   0.3                          T                 .6  .21 Ml 1.7         4586128
MFF   002.02 261.5 m E Sn      2011/01/22 18:57:43.5  -0.2                          T                 .2  .14 Ml 1.5         4587117
RJF   001.85 208.3 m E Sg      2011/01/22 18:57:46.7   0.0                          T                 .7  .21 Ml 1.3         4587116

.
