EVENT     258052
    Date      Time       Latitude Longitude    Depth    Ndef Nsta Gap    Mag1  N    Mag2  N    Mag3  N   Author         ID
       rms   OT_Error      Smajor Sminor Az        Err   mdist  Mdist     Err        Err        Err      Quality

2011/04/07 17:32:00.6     51.5222   16.1045      1.0 f    84   19 143  Ml 4.3 15                         js067245    258052

      0.91   +-  0.17       4.5    2.2   10.43 +-  0.0    0.69  10.13   +-0.2                            m i sr

POLAND
Sta     Dist  EvAz     Phase      Date       Time     TRes  Azim  AzRes  Slow  SRes Def   SNR       Amp   Per   Mag1   Mag2       ID
LANF  005.90 247.7 m E Pn      2011/04/07 17:33:28.2   1.3                          T                                        4670741
LANF  005.90 247.7 m E Sg      2011/04/07 17:35:05.9   0.6                          T              379.6 1.24 Ml 4.6         4670719
RUP   006.04 256.0 m E Pn      2011/04/07 17:33:29.1   0.3                          T                                        4670742
RUP   006.04 256.0 m E Sg      2011/04/07 17:35:09.4  -0.2                          T                                        4670718
CDF   006.49 244.8 m E Pn      2011/04/07 17:33:36.3   1.3                          T                                        4670740
CDF   006.49 244.8 m E Sg      2011/04/07 17:35:23.5  -0.3                          T              136.2  .92 Ml 4.5         4670720
HINF  007.06 241.9 m E Pn      2011/04/07 17:33:42.9   0.2                          T                                        4670736
HINF  007.06 241.9 m E Sg      2011/04/07 17:35:40.4  -1.0                          T              215.8 1.36 Ml 4.5         4670724
HAU   007.23 244.7 m E Pn      2011/04/07 17:33:45.5   0.5                          T                                        4670737
HAU   007.23 244.7 m E Sg      2011/04/07 17:35:46.7  -0.2                          T              133.4 1.04 Ml 4.2         4670723
PAGF  007.31 250.1 m E Pn      2011/04/07 17:33:46.9   0.8  84.4  22.2              T                                        4670738
PAGF  007.31 250.1 m E Pg      2011/04/07 17:34:15.1  -0.6  80.5  18.3              T                                        4670739
PAGF  007.31 250.1 m E Sg      2011/04/07 17:35:48.8  -0.7                          T               36.9 1.19 Ml 3.8         4670721
BAIF  007.68 263.7 m E Pn      2011/04/07 17:33:51.5   0.4                          T                                        4670743
BAIF  007.68 263.7 m E Sg      2011/04/07 17:36:00.2  -0.7                          T               88.9 1.20 Ml 4.2         4670717
LPG   008.65 229.5 m E Pn      2011/04/07 17:34:03.8  -0.8                          T                                        4670732
LPG   008.65 229.5 m E Sg      2011/04/07 17:36:32.6   1.1                          T              121.3 1.24 Ml 4.5         4670730
LOR   009.05 246.7 m E Pn      2011/04/07 17:34:11.1   1.3  80.3  22.9              T                                        4670745
LOR   009.05 246.7 m E Sg      2011/04/07 17:36:42.4  -1.2                          T               60.3 1.20 Ml 4.3         4670715
SSF   009.36 246.4 m E Pn      2011/04/07 17:34:15.2   1.2                          T                                        4670744
ORIF  009.49 229.9 m E Pn      2011/04/07 17:34:15.3  -0.6                          T                                        4670733
SMF   009.41 243.5 m E Pn      2011/04/07 17:34:15.5   0.8                          T                                        4670735
SMF   009.41 243.5 m E Sg      2011/04/07 17:36:54.2  -0.5                          T               41.2  .94 Ml 4.3         4670726
MBDF  009.22 226.2 m E P       2011/04/07 17:34:17.8  -0.3                          T                                        4670734
MBDF  009.22 226.2 m E Sg      2011/04/07 17:36:48.5  -0.7                          T               25.7  .96 Ml 4.0         4670729
SBF   009.63 220.7 m E Pn      2011/04/07 17:34:18.7   0.9                          T                                        4670731
GIVF  007.29 263.2 m E Sg      2011/04/07 17:35:48.8   0.2                          T               78.3 1.00 Ml 4.2         4670716
SFTF  007.88 249.4 m E Sg      2011/04/07 17:36:06.8  -0.4                          T              194.0 1.41 Ml 4.5         4670722
CABF  008.21 237.1 m E Sg      2011/04/07 17:36:16.3  -1.1                          T              297.7 1.48 Ml 4.8         4670725
BGF   010.02 245.5 m E Sg      2011/04/07 17:37:14.0   0.2                          T               23.6  .74 Ml 4.2         4670727
VIVF  010.13 233.3 m E Sg      2011/04/07 17:37:16.9  -0.4                          T               25.9 1.02 Ml 4.1         4670728

.
EVENT     258054
    Date      Time       Latitude Longitude    Depth    Ndef Nsta Gap    Mag1  N    Mag2  N    Mag3  N   Author         ID
       rms   OT_Error      Smajor Sminor Az        Err   mdist  Mdist     Err        Err        Err      Quality

2011/04/08 01:20:30.5     42.9327     .2759     15.0       8    4 193  Ml 1.0  2  Md 1.1  2              js067245    258054

      0.07   +-  0.05       2.6     .5  169.78 +-  0.0    0.11   1.48   +-0.4      +-0.1                 m i ke

PYRENEES
Sta     Dist  EvAz     Phase      Date       Time     TRes  Azim  AzRes  Slow  SRes Def   SNR       Amp   Per   Mag1   Mag2       ID
EPF   000.11 025.7 m E Pg      2011/04/08 01:20:34.1   0.0                          T                                        4670757
EPF   000.11 025.7 m E Sg      2011/04/08 01:20:36.6   0.1                          T                2.8  .16        Md 1.2  4670758
ETSF  000.61 267.1 m E Pg      2011/04/08 01:20:42.6   0.1                          T                                        4670755
ETSF  000.61 267.1 m E Sg      2011/04/08 01:20:50.6  -0.1                          T                3.2  .25        Md 1.1  4670756
SJPF  001.12 279.8 m E Pg      2011/04/08 01:20:51.5   0.0                          T                                        4670751
SJPF  001.12 279.8 m E Sg      2011/04/08 01:21:06.0  -0.1                          T                 .1  .17 Ml  .7         4670752
MTLF  001.48 073.3 m E Pg      2011/04/08 01:20:58.2   0.0                          T                                        4670753
MTLF  001.48 073.3 m E Sg      2011/04/08 01:21:17.4   0.0                          T                 .5  .22 Ml 1.3         4670754

.
EVENT     258055
    Date      Time       Latitude Longitude    Depth    Ndef Nsta Gap    Mag1  N    Mag2  N    Mag3  N   Author         ID
       rms   OT_Error      Smajor Sminor Az        Err   mdist  Mdist     Err        Err        Err      Quality

2011/04/08 01:36:40.9     48.1324   -2.6624      5.0 f    14    6 160  Ml 1.5  3  Md 1.4  2              js067245    258055

      1.50   +-  0.19       5.3    2.5  168.59 +-  0.0    0.14   1.76   +-0.1      +-0.1                 m i ke

FRANCE
Sta     Dist  EvAz     Phase      Date       Time     TRes  Azim  AzRes  Slow  SRes Def   SNR       Amp   Per   Mag1   Mag2       ID
SGMF  000.14 030.0 m E Pg      2011/04/08 01:36:43.7  -0.3                          T                                        4670771
SGMF  000.14 030.0 m E Sg      2011/04/08 01:36:45.5  -0.6                          T                7.4  .20        Md 1.5  4670772
QUIF  000.40 237.6 m E Pg      2011/04/08 01:36:49.4   0.8                          T                                        4670766
QUIF  000.40 237.6 m E Sg      2011/04/08 01:36:54.1   0.1                          T                1.8  .21        Md 1.3  4670767
ROSF  000.46 296.8 m E Pg      2011/04/08 01:36:49.5  -0.2                          T                                        4670768
ROSF  000.46 296.8 m E Sg      2011/04/08 01:36:54.8  -0.9                          T                1.1  .22                4670769
GRR   001.23 077.3 m E Pg      2011/04/08 01:37:03.9   0.0                          T                                        4670765
GRR   001.23 077.3 m E Sg      2011/04/08 01:37:19.7  -0.2                          T                1.7  .22 Ml 1.7         4670770
FLN   001.58 065.7 m E Pg      2011/04/08 01:37:10.3  -0.1                          T                                        4670762
FLN   001.58 065.7 m E Sg      2011/04/08 01:37:30.5  -0.3 239.8  -7.6              T                 .8  .20 Ml 1.5         4670763
LDF   001.76 073.8 m E Pg      2011/04/08 01:37:13.5  -0.1                          T                                        4670761
LDF   001.76 073.8 m E Sg      2011/04/08 01:37:36.0  -0.2                          T                 .4  .17 Ml 1.4         4670764

.
EVENT     258091
    Date      Time       Latitude Longitude    Depth    Ndef Nsta Gap    Mag1  N    Mag2  N    Mag3  N   Author         ID
       rms   OT_Error      Smajor Sminor Az        Err   mdist  Mdist     Err        Err        Err      Quality

2011/04/08 01:43:15.3     45.8247   10.0992     10.0 f    39   16 082  Ml 2.1  7                         js067245    258091

      0.40   +-  0.08       1.7    1.5  164.46 +-  0.0    0.37   5.51   +-0.2                            m i ke

NORTHERN ITALY
Sta     Dist  EvAz     Phase      Date       Time     TRes  Azim  AzRes  Slow  SRes Def   SNR       Amp   Per   Mag1   Mag2       ID
LPL   002.38 263.8 m E Pn      2011/04/08 01:43:54.3   1.4                          T                                        4670776
LPL   002.38 263.8 m E Sn      2011/04/08 01:44:20.7   0.3                          T                1.7  .27 Ml 2.1         4670811
LPG   002.37 263.3 m E Pn      2011/04/08 01:43:54.7   1.8                          T                                        4670775
LPG   002.37 263.3 m E Sn      2011/04/08 01:44:20.2   0.0                          T                2.2  .33 Ml 2.1         4670812
MBDF  002.59 246.1 m E Pn      2011/04/08 01:43:56.0   0.3                          T                                        4670820
MBDF  002.59 246.1 m E Sn      2011/04/08 01:44:25.1  -0.3                          T                1.8  .36 Ml 2.0         4670810
SBF   002.73 225.0 m E Pn      2011/04/08 01:43:57.6   0.2                          T                                        4670773
CABF  002.89 287.2 m E Pn      2011/04/08 01:43:58.3  -1.4                          T                                        4670777
CABF  002.89 287.2 m E Sg      2011/04/08 01:44:46.4   0.1                          T                 .5  .21 Ml 1.8         4670813
HINF  002.99 313.0 m E Pn      2011/04/08 01:44:01.4   0.4                          T                                        4670778
HINF  002.99 313.0 m E Sn      2011/04/08 01:44:34.5  -0.3                          T                                        4670814
HINF  002.99 313.0 m E Sg      2011/04/08 01:44:49.5   0.3                          T                1.5  .28 Ml 2.1         4670815
ORIF  003.11 254.6 m E Pn      2011/04/08 01:44:03.2   0.5                          T                                        4670821
CDF   003.23 324.3 m E Pn      2011/04/08 01:44:04.7   0.4                          T                                        4670780
CDF   003.23 324.3 m E Sn      2011/04/08 01:44:40.1  -0.3                          T                                        4670817
CDF   003.23 324.3 m E Sg      2011/04/08 01:44:56.6  -0.1                          T                1.8  .36 Ml 2.3         4670818
FRF   003.34 228.6 m E Pn      2011/04/08 01:44:05.2  -0.5                          T                                        4670774
HAU   003.37 311.7 m E Pn      2011/04/08 01:44:06.4   0.3                          T                                        4670779
HAU   003.37 311.7 m E Sn      2011/04/08 01:44:43.9   0.0                          T                1.1  .17 Ml 2.1         4670816
LMR   003.57 227.1 m E Pn      2011/04/08 01:44:08.2  -0.7                          T                                        4670819
SMF   004.42 282.9 m E Pn      2011/04/08 01:44:20.6   0.2                          T                                        4670783
LOR   004.54 290.8 m E Pn      2011/04/08 01:44:22.4   0.3 121.5  15.2              T                                        4670781
AVF   004.77 284.1 m E Pn      2011/04/08 01:44:25.4   0.2                          T                                        4670787
BGF   005.09 280.9 m E Pn      2011/04/08 01:44:30.1   0.5                          T                                        4670785
TCF   005.51 277.6 m E Pn      2011/04/08 01:44:35.4   0.1                          T                                        4670786

.
EVENT     258071
    Date      Time       Latitude Longitude    Depth    Ndef Nsta Gap    Mag1  N    Mag2  N    Mag3  N   Author         ID
       rms   OT_Error      Smajor Sminor Az        Err   mdist  Mdist     Err        Err        Err      Quality

2011/04/08 08:16:36.3     47.6542    6.2599       .0 f    16    8 118  Ml 2.2  5  Md 2.2  3              js067245    258071

      0.20   +-  0.05       1.3     .9  132.92 +-  0.0    0.36   2.16   +-0.2      +-0.1                 m i km

FRANCE
Sta     Dist  EvAz     Phase      Date       Time     TRes  Azim  AzRes  Slow  SRes Def   SNR       Amp   Per   Mag1   Mag2       ID
HAU   000.36 009.6 m E Pg      2011/04/08 08:16:43.3  -0.1                          T                                        4670943
HAU   000.36 009.6 m E Sg      2011/04/08 08:16:48.6   0.2                          T               71.7  .86        Md 2.1  4670955
HINF  000.43 067.7 m E Pg      2011/04/08 08:16:44.8   0.0                          T                                        4670942
HINF  000.43 067.7 m E Sg      2011/04/08 08:16:50.5  -0.3                          T               56.0  .86        Md 2.1  4670951
THEF  000.60 342.8 m E Pg      2011/04/08 08:16:48.0   0.1                          T                                        4670953
THEF  000.60 342.8 m E Sg      2011/04/08 08:16:55.6  -0.4                          T               49.0  .87        Md 2.2  4670954
SFTF  000.99 304.3 m E Pg      2011/04/08 08:16:55.0  -0.1                          T                                        4670944
SFTF  000.99 304.3 m E Sn      2011/04/08 08:17:10.0   0.0                          T                6.5  .28 Ml 2.2         4670945
CDF   001.02 041.6 m E Pg      2011/04/08 08:16:55.8   0.1                          T                                        4670946
CDF   001.02 041.6 m E Sg      2011/04/08 08:17:09.4   0.3                          T               24.2  .70 Ml 2.5         4670952
CABF  001.05 186.5 m E Pg      2011/04/08 08:16:56.1  -0.2                          T                                        4670949
CABF  001.05 186.5 m E Sg      2011/04/08 08:17:10.7   0.6                          T               18.0  .66 Ml 2.3         4670950
LOR   001.67 257.6 m E Pg      2011/04/08 08:17:07.8   0.1                          T                                        4670947
LOR   001.67 257.6 m E Sg      2011/04/08 08:17:29.5  -0.1                          T                1.7  .25 Ml 2.0         4670948
AVF   002.16 247.5 m E Pn      2011/04/08 08:17:11.9   0.0                          T                                        4670940
AVF   002.16 247.5 m E Sn      2011/04/08 08:17:37.7  -0.2                          T                1.8  .38 Ml 1.9         4670941

.
