EVENT     278761
    Date      Time       Latitude Longitude    Depth    Ndef Nsta Gap    Mag1  N    Mag2  N    Mag3  N   Author         ID
       rms   OT_Error      Smajor Sminor Az        Err   mdist  Mdist     Err        Err        Err      Quality

2012/06/27 05:39:19.1     40.3139   -3.8280      2.0      39    5 044  Ml 2.4  3                         bulletin    278861
                                                                                                         _ldg
      0.78   +-  0.11       2.5    1.8  111.01 +-  0.0    0.65   6.33   +-0.1                            m i ke

SPAIN
Sta     Dist  EvAz     Phase      Date       Time     TRes  Azim  AzRes  Slow  SRes Def   SNR       Amp   Per   Mag1   Mag2       ID
SJPF  003.41 034.0 m E Pn      2012/06/27 05:40:11.4   0.0                          T                                        5014533
SJPF  003.41 034.0 m E Sn      2012/06/27 05:40:49.5  -0.4                          T                1.6  .19 Ml 2.4         5014532
ETSF  003.56 042.4 m E Pn      2012/06/27 05:40:13.5   0.1                          T                                        5014531
ETSF  003.56 042.4 m E Sn      2012/06/27 05:40:53.7   0.0                          T                1.1  .22 Ml 2.3         5014530
EPF   004.14 047.6 m E Pn      2012/06/27 05:40:21.5   0.2                          T                                        5014529
EPF   004.14 047.6 m E Sn      2012/06/27 05:41:07.5   0.1                          T                1.4  .20 Ml 2.5         5014528
LFF   005.72 034.6 m E Pn      2012/06/27 05:40:42.4  -0.4                          T                                        5014526
CAF   006.33 041.4 m E Pn      2012/06/27 05:40:50.9  -0.3                          T                                        5014527

.
EVENT     278794
    Date      Time       Latitude Longitude    Depth    Ndef Nsta Gap    Mag1  N    Mag2  N    Mag3  N   Author         ID
       rms   OT_Error      Smajor Sminor Az        Err   mdist  Mdist     Err        Err        Err      Quality

2012/06/27 07:10:48.5     43.7547    7.2811       .0 f    13    4 160  Ml 1.5  1  Md 1.9  2              bulletin    278894
                                                                                                         _ldg
      0.15   +-  0.05       2.2     .6  148.08 +-  0.0    0.10   1.25   +-         +-0.3                 m i km

NEAR SOUTH COAST OF FRANCE
Sta     Dist  EvAz     Phase      Date       Time     TRes  Azim  AzRes  Slow  SRes Def   SNR       Amp   Per   Mag1   Mag2       ID
SBF   000.16 045.8 m E Pg      2012/06/27 07:10:51.9  -0.1                          T                                        5014560
SBF   000.16 045.8 m E Sg      2012/06/27 07:10:54.3  -0.1                          T              148.0  .54        Md 2.1  5014559
FRF   000.50 247.4 m E Pg      2012/06/27 07:10:58.4   0.1                          T                                        5014557
FRF   000.50 247.4 m E Sg      2012/06/27 07:11:04.8  -0.3                          T                2.9  .31        Md 1.7  5014556
LMR   000.70 233.4 m E Pg      2012/06/27 07:11:02.0   0.0                          T                                        5014558
LMR   000.70 233.4 m E Pn      2012/06/27 07:11:04.2   0.0                          T                                        5014553
LMR   000.70 233.4 m E Sg      2012/06/27 07:11:11.2  -0.2                          T                1.5  .29                5014554
SMRF  001.25 280.8 m E Pn      2012/06/27 07:11:11.8  -0.1                          T                                        5014555
SMRF  001.25 280.8 m E Sg      2012/06/27 07:11:28.9   0.2                          T                1.5  .41 Ml 1.5         5024361

.
EVENT     278796
    Date      Time       Latitude Longitude    Depth    Ndef Nsta Gap    Mag1  N    Mag2  N    Mag3  N   Author         ID
       rms   OT_Error      Smajor Sminor Az        Err   mdist  Mdist     Err        Err        Err      Quality

2012/06/27 10:46:16.8     44.6859    7.3267     11.0 f    37    8 143  Ml 1.7  5  Md 1.9  3              bulletin    278896
                                                                                                         _ldg
      0.21   +-  0.04       1.1     .6   66.83 +-  0.0    0.16   1.47   +-0.1      +-0.1                 m i ke

NORTHERN ITALY
Sta     Dist  EvAz     Phase      Date       Time     TRes  Azim  AzRes  Slow  SRes Def   SNR       Amp   Per   Mag1   Mag2       ID
MBDF  000.40 276.1 m E Pg      2012/06/27 10:46:24.8   0.0                          T                                        5014552
MBDF  000.40 276.1 m E Sg      2012/06/27 10:46:30.0  -0.3                          T                5.6  .24        Md 1.8  5014543
SBF   000.83 174.5 m E Pg      2012/06/27 10:46:32.6   0.1                          T                                        5014545
SBF   000.83 174.5 m E Sg      2012/06/27 10:46:43.3  -0.1                          T                3.3  .24        Md 1.9  5014544
LPG   000.91 333.5 m E Pg      2012/06/27 10:46:34.6   0.3                          T                                        5014540
LPG   000.91 333.5 m E Sg      2012/06/27 10:46:46.4   0.2                          T                1.4  .25 Ml 1.5 Md 1.9  5014539
LPL   000.93 333.3 m E Pg      2012/06/27 10:46:34.8   0.1                          T                                        5014538
LPL   000.93 333.3 m E Sg      2012/06/27 10:46:46.9   0.0                          T                2.2  .32 Ml 1.6         5014537
ORIF  001.06 283.2 m E Pg      2012/06/27 10:46:36.8   0.0                          T                                        5014542
ORIF  001.06 283.2 m E Sg      2012/06/27 10:46:50.5   0.0                          T                1.6  .23 Ml 1.7         5014541
FRF   001.23 203.8 m E Pg      2012/06/27 10:46:40.0   0.2                          T                                        5014551
FRF   001.23 203.8 m E Sg      2012/06/27 10:46:55.6  -0.1                          T                1.7  .24 Ml 1.8         5014549
SMRF  001.44 241.2 m E Pn      2012/06/27 10:46:42.2   0.9                          T                                        5014536
LMR   001.47 203.9 m E Pn      2012/06/27 10:46:42.8   1.1                          T                                        5014546
LMR   001.47 203.9 m E Pg      2012/06/27 10:46:44.8   0.4                          T                                        5014547
LMR   001.47 203.9 m E Sn      2012/06/27 10:47:01.5   1.7                          T                                        5014548
LMR   001.47 203.9 m E Sg      2012/06/27 10:47:03.7   0.3                          T                                        5014550

.
EVENT     278798
    Date      Time       Latitude Longitude    Depth    Ndef Nsta Gap    Mag1  N    Mag2  N    Mag3  N   Author         ID
       rms   OT_Error      Smajor Sminor Az        Err   mdist  Mdist     Err        Err        Err      Quality

2012/06/27 18:33:16.1     45.2399    6.0268      2.0      21    9 070  Ml 2.0  4  Md 1.8  4              bulletin    278898
                                                                                                         _ldg
      0.29   +-  0.04        .9     .8  134.67 +-  0.0    0.34   2.42   +-0.2      +-0.1                 m i ke

FRANCE
Sta     Dist  EvAz     Phase      Date       Time     TRes  Azim  AzRes  Slow  SRes Def   SNR       Amp   Per   Mag1   Mag2       ID
ORIF  000.34 198.0 m E Pg      2012/06/27 18:33:22.6  -0.1                          T                                        5014599
ORIF  000.34 198.0 m E Sg      2012/06/27 18:33:27.2  -0.1                          T               16.2  .25        Md 1.9  5014598
LPL   000.57 060.7 m E Pg      2012/06/27 18:33:27.3   0.2                          T                                        5014597
LPL   000.57 060.7 m E Sg      2012/06/27 18:33:34.5  -0.1                          T                6.6  .50        Md 1.8  5014594
LPG   000.57 063.0 m E Pg      2012/06/27 18:33:27.3   0.0                          T                                        5014596
LPG   000.57 063.0 m E Sg      2012/06/27 18:33:34.8   0.0                          T                1.3  .18        Md 1.8  5014595
MBDF  000.74 133.9 m E Pg      2012/06/27 18:33:30.3   0.1                          T                                        5014587
MBDF  000.74 133.9 m E Sg      2012/06/27 18:33:39.6  -0.1                          T                7.1  .50                5014591
VIVF  001.03 248.7 m E Pg      2012/06/27 18:33:35.4  -0.1                          T                                        5014593
VIVF  001.03 248.7 m E Pn      2012/06/27 18:33:36.2   0.2                          T                                        5014588
VIVF  001.03 248.7 m E Sg      2012/06/27 18:33:48.9   0.0                          T                4.6  .36 Ml 1.9         5014592
CABF  001.37 001.7 m E Pn      2012/06/27 18:33:40.5  -0.1                          T                                        5014581
CABF  001.37 001.7 m E Pg      2012/06/27 18:33:41.8   0.1                          T                                        5014580
CABF  001.37 001.7 m E Sn      2012/06/27 18:33:58.2  -0.2                          T                1.5  .26 Ml 1.7         5014579
LASF  001.94 233.8 m E Pn      2012/06/27 18:33:48.4   0.1                          T                                        5014586
SMF   002.07 313.4 m E Pn      2012/06/27 18:33:49.9  -0.2                          T                                        5014585
SMF   002.07 313.4 m E Sn      2012/06/27 18:34:15.2   0.2                          T                1.4  .25 Ml 2.0         5014584
AVF   002.42 310.7 m E Pn      2012/06/27 18:33:55.0   0.2                          T                                        5014583
AVF   002.42 310.7 m E Sn      2012/06/27 18:34:22.6  -0.7                          T                2.7  .30 Ml 2.2         5014582

.
EVENT     278799
    Date      Time       Latitude Longitude    Depth    Ndef Nsta Gap    Mag1  N    Mag2  N    Mag3  N   Author         ID
       rms   OT_Error      Smajor Sminor Az        Err   mdist  Mdist     Err        Err        Err      Quality

2012/06/27 18:44:26.4     42.2577    8.8201      2.0      32   13 260  Ml 2.8 13  Md 2.6  2              bulletin    278899
                                                                                                         _ldg
      0.55   +-  0.17       3.3    1.9  162.85 +-  0.0    0.32   5.58   +-0.4      +-0.0                 m i ke

CORSICA, FRANCE
Sta     Dist  EvAz     Phase      Date       Time     TRes  Azim  AzRes  Slow  SRes Def   SNR       Amp   Per   Mag1   Mag2       ID
PGF   000.32 024.5 m E Pg      2012/06/27 18:44:32.6  -0.1                          T                                        5014630
PGF   000.32 024.5 m E Sg      2012/06/27 18:44:37.3   0.2                          T              371.1  .26        Md 2.6  5014629
SBF   001.90 328.2 m E Pn      2012/06/27 18:44:57.9  -0.3                          T                                        5014623
SBF   001.90 328.2 m E Sn      2012/06/27 18:45:21.3   0.0                          T               94.2  .32 Ml 3.7 Md 2.6  5014622
LMR   002.01 303.1 m E Pn      2012/06/27 18:44:59.3  -0.3                          T                                        5014621
LMR   002.01 303.1 m E Sn      2012/06/27 18:45:22.7  -1.2                          T                                        5014620
FRF   002.06 309.9 m E Pn      2012/06/27 18:44:59.9  -0.4                          T                                        5014619
FRF   002.06 309.9 m E Sn      2012/06/27 18:45:24.6  -0.4                          T               10.6  .18 Ml 3.0         5014618
SMRF  002.93 307.0 m E Pn      2012/06/27 18:45:12.7   0.5                          T                                        5014617
SMRF  002.93 307.0 m E Sn      2012/06/27 18:45:45.9   0.0                          T                3.3  .22 Ml 2.6         5014631
MBDF  002.88 329.6 m E P       2012/06/27 18:45:14.0  -0.5                          T                                        5014616
MBDF  002.88 329.6 m E Sn      2012/06/27 18:45:44.8  -0.1                          T               40.7  .50 Ml 3.3         5014615
ORIF  003.41 322.2 m E Pn      2012/06/27 18:45:18.9   0.1                          T                                        5014603
ORIF  003.41 322.2 m E Sn      2012/06/27 18:45:57.6   0.2                          T                4.3  .39 Ml 2.6         5014604
LPL   003.59 335.9 m E Pn      2012/06/27 18:45:21.4   0.0                          T                                        5014606
LPL   003.59 335.9 m E Sn      2012/06/27 18:46:02.0   0.2                          T                3.4  .38 Ml 2.5         5014605
LPG   003.57 335.9 m E Pn      2012/06/27 18:45:21.5   0.3                          T                                        5014608
LPG   003.57 335.9 m E Sn      2012/06/27 18:46:01.6   0.2                          T                2.5  .37 Ml 2.4         5014607
VIVF  003.98 312.2 m E Pn      2012/06/27 18:45:26.8   0.4                          T                                        5014614
VIVF  003.98 312.2 m E Sn      2012/06/27 18:46:11.3   0.4                          T                 .8  .16 Ml 2.3         5014610
LASF  004.06 298.3 m E Pn      2012/06/27 18:45:27.3  -0.2                          T                                        5014613
LASF  004.06 298.3 m E Sn      2012/06/27 18:46:13.1   0.3                          T                8.0  .26 Ml 3.2         5014611
MTLF  004.98 284.8 m E Pn      2012/06/27 18:45:40.0   0.0                          T                                        5014612
MTLF  004.98 284.8 m E Sn      2012/06/27 18:46:34.8   0.0                          T                1.4  .20 Ml 2.7         5014602
CAF   005.58 300.8 m E Pn      2012/06/27 18:45:48.8   0.5                          T                                        5014600
CAF   005.58 300.8 m E Sn      2012/06/27 18:46:49.2   0.0                          T                1.7  .22 Ml 2.9         5014601

.
EVENT     278939
    Date      Time       Latitude Longitude    Depth    Ndef Nsta Gap    Mag1  N    Mag2  N    Mag3  N   Author         ID
       rms   OT_Error      Smajor Sminor Az        Err   mdist  Mdist     Err        Err        Err      Quality

2012/06/27 19:41:15.4     44.1408    8.6164     10.0      25    6 177  Ml 2.0  6  Md 2.3  1              bulletin    279039
                                                                                                         _ldg
      3.68   +-  0.50       8.7    7.1   95.25 +-  0.0    0.21   2.20   +-0.2      +-                    m i ke

NORTHERN ITALY
Sta     Dist  EvAz     Phase      Date       Time     TRes  Azim  AzRes  Slow  SRes Def   SNR       Amp   Per   Mag1   Mag2       ID
SBF   000.90 252.4 m E Pg      2012/06/27 19:41:32.9   0.5                          T                                        5024403
SBF   000.90 252.4 m E Sg      2012/06/27 19:41:44.4   0.3                          T               10.3  .30 Ml 2.3 Md 2.3  5024402
MBDF  001.45 294.6 m E Pn      2012/06/27 19:41:40.1   0.0                          T                                        5024410
MBDF  001.45 294.6 m E P       2012/06/27 19:41:42.1   0.0                          T                                        5024409
MBDF  001.45 294.6 m E Sg      2012/06/27 19:42:00.4  -0.9                          T                1.6  .25 Ml 1.8         5024395
FRF   001.54 248.5 m E Pn      2012/06/27 19:41:40.9  -0.3                          T                                        5024406
FRF   001.54 248.5 m E Pg      2012/06/27 19:41:43.9  -0.2                          T                                        5024405
FRF   001.54 248.5 m E Sn      2012/06/27 19:42:00.0  -0.1                          T                                        5024399
FRF   001.54 248.5 m E Sg      2012/06/27 19:42:03.6  -0.3                          T                1.1  .13 Ml 2.0         5024398
LMR   001.73 242.9 m E Pn      2012/06/27 19:41:43.9   0.1                          T                                        5024404
LMR   001.73 242.9 m E Sn      2012/06/27 19:42:04.7   0.1                          T                                        5024401
LMR   001.73 242.9 m E Sg      2012/06/27 19:42:09.7  -0.2                          T                1.1  .24 Ml 1.8         5024400
SMRF  002.20 266.8 m E Pn      2012/06/27 19:41:50.4   0.1                          T                                        5024408
SMRF  002.20 266.8 m E Pg      2012/06/27 19:41:56.0  -0.3                          T                                        5024407
SMRF  002.20 266.8 m E Sg      2012/06/27 19:42:24.2  -0.5                          T                1.4  .26 Ml 2.0         5024397
LPL   001.92 316.4 m E Sg      2012/06/27 19:42:15.8  -0.4                          T                1.2  .26 Ml 1.9         5024396

.
