EVENT     270229
    Date      Time       Latitude Longitude    Depth    Ndef Nsta Gap    Mag1  N    Mag2  N    Mag3  N   Author         ID
       rms   OT_Error      Smajor Sminor Az        Err   mdist  Mdist     Err        Err        Err      Quality

2012/02/17 04:08:23.8     45.1448    3.0988      4.0 f   104   34 071  Ml 2.6 39  Md 2.9  6              js067245    270249

      0.97   +-  0.06       1.2    1.0   22.37 +-  0.0    0.14   5.42   +-0.3      +-0.1                 m i ke

FRANCE
Sta     Dist  EvAz     Phase      Date       Time     TRes  Azim  AzRes  Slow  SRes Def   SNR       Amp   Per   Mag1   Mag2       ID
CAF   000.77 253.7 m E Pg      2012/02/17 04:08:38.1  -0.3                          T   001.0                                4839071
CAF   000.77 253.7 m E Pn      2012/02/17 04:08:39.5  -0.4                          T   001.0                                4839072
CAF   000.77 253.7 m E Sg      2012/02/17 04:08:48.0  -0.3                          T   001.0       28.9  .29        Md 2.9  4839073
CAF   000.77 253.7 m E Sn      2012/02/17 04:08:50.7  -0.5                          T                                        4840238
RJF   001.13 278.7 m E Pn      2012/02/17 04:08:45.0   0.2                          T   001.0                                4839063
RJF   001.13 278.7 m E Pg      2012/02/17 04:08:45.7   0.7                          T                                        4843615
RJF   001.13 278.7 m E Sg      2012/02/17 04:08:59.8   0.2                          T   001.0       45.0  .20 Ml 2.9 Md 2.9  4839065
VIVF  001.15 103.9 m E Pn      2012/02/17 04:08:45.3   0.1                          T   001.0                                4839116
VIVF  001.15 103.9 m E Pg      2012/02/17 04:08:45.6   0.2                          T   001.0                                4839117
VIVF  001.15 103.9 m E Sn      2012/02/17 04:09:00.3  -0.2                          T   001.0       51.2  .20 Ml 3.3 Md 2.8  4839118
VIVF  001.15 103.9 m E Sg      2012/02/17 04:09:00.8   0.4                          T               53.2  .20 Ml 3.3         4840268
LASF  001.20 152.9 m E Pn      2012/02/17 04:08:46.2   0.5                          T   001.0                                4839080
LASF  001.20 152.9 m E Pg      2012/02/17 04:08:46.8   0.5                          T                                        4843614
LASF  001.20 152.9 m E Sn      2012/02/17 04:09:01.5   0.0                          T   001.0                                4839082
LASF  001.20 152.9 m E Sg      2012/02/17 04:09:02.2   0.4                          T   001.0       14.5  .28 Ml 2.6 Md 2.7  4839081
TCF   001.30 331.7 m E Pn      2012/02/17 04:08:47.4   0.2                          T   001.0                                4839102
TCF   001.30 331.7 m E Pg      2012/02/17 04:08:47.9  -0.3                          T                                        4840280
TCF   001.30 331.7 m E P       2012/02/17 04:08:48.7  -0.3                          T   001.0                                4839103
TCF   001.30 331.7 m E Sg      2012/02/17 04:09:04.9  -0.2                          T                8.6  .18 Ml 2.7 Md 2.9  4840270
BGF   001.42 353.0 m E Pn      2012/02/17 04:08:48.8   0.0                          T   001.0                                4839069
BGF   001.42 353.0 m E Pg      2012/02/17 04:08:50.4   0.0                          T   001.0                                4839068
BGF   001.42 353.0 m E Sg      2012/02/17 04:09:08.9   0.0                          T   001.0       53.4  .30 Ml 3.3         4839070
SMF   001.59 018.8 m E Pn      2012/02/17 04:08:51.1   0.0                          T   001.0                                4839097
SMF   001.59 018.8 m E Pg      2012/02/17 04:08:53.2  -0.3                          T                                        4840284
SMF   001.59 018.8 m E Sn      2012/02/17 04:09:10.3  -0.5                          T   001.0                                4839098
SMF   001.59 018.8 m E Sg      2012/02/17 04:09:13.4  -0.5                          T   001.0       28.3  .22 Ml 3.2         4839099
AVF   001.66 006.0 m E Pn      2012/02/17 04:08:51.5  -0.4                          T   001.0                                4839066
AVF   001.66 006.0 m E Pg      2012/02/17 04:08:54.3  -0.3                          T                                        4840283
AVF   001.66 006.0 m E Sn      2012/02/17 04:09:12.0  -0.4                          T   001.0       11.7  .16 Ml 3.0         4839067
AVF   001.66 006.0 m E Sg      2012/02/17 04:09:15.6  -0.4                          T               14.1  .18 Ml 3.0         4840282
LFF   001.68 263.8 m E Pn      2012/02/17 04:08:52.3  -0.1                          T   001.0                                4839083
LFF   001.68 263.8 m E Pg      2012/02/17 04:08:54.7  -0.5                          T   001.0                                4839084
LFF   001.68 263.8 m E Sg      2012/02/17 04:09:16.5  -0.4                          T   001.0       19.9  .32 Ml 2.7         4839085
ORIF  001.99 095.6 m E Pn      2012/02/17 04:08:56.8   0.3                          T   001.0                                4839109
ORIF  001.99 095.6 m E P       2012/02/17 04:08:58.5  -0.3                          T                                        4840264
ORIF  001.99 095.6 m E Pg      2012/02/17 04:09:01.0   0.1                          T   001.0                                4839110
ORIF  001.99 095.6 m E Sn      2012/02/17 04:09:19.0  -0.4                          T   001.0       10.5  .56 Ml 2.5         4839111
ORIF  001.99 095.6 m E Sg      2012/02/17 04:09:26.1  -0.4                          T                9.3  .44 Ml 2.5         4840261
LOR   002.19 013.7 m E Pn      2012/02/17 04:08:59.5   0.3                          T                                        4840271
LOR   002.19 013.7 m E Pg      2012/02/17 04:09:04.4  -0.1 195.5  1.3               T                                        4840272
LOR   002.19 013.7 m E Sg      2012/02/17 04:09:31.7  -1.0 180.5  -13.8             T   001.0        8.8  .20 Ml 2.9         4839088
SSF   001.94 008.3 m E Pg      2012/02/17 04:08:59.7  -0.2                          T   001.0                                4839100
SSF   001.94 008.3 m E Sn      2012/02/17 04:09:19.0  -0.2                          T                                        4840256
SSF   001.94 008.3 m E Sg      2012/02/17 04:09:24.3  -0.6                          T   001.0        9.9  .20 Ml 3.0         4839101
SMRF  002.12 122.6 m E Pg      2012/02/17 04:09:02.8  -0.5                          T                                        4840263
SMRF  002.12 122.6 m E Sg      2012/02/17 04:09:31.9   1.2                          T   001.0        5.5  .26 Ml 2.6         4839119
HYF   002.15 351.6 m E Pg      2012/02/17 04:09:03.6  -0.2                          T                                        4840255
HYF   002.15 351.6 m E Sg      2012/02/17 04:09:31.3  -0.1                          T                                        4840281
CABF  002.55 053.9 m E Pn      2012/02/17 04:09:04.0   0.7                          T   001.0                                4839104
CABF  002.55 053.9 m E Pg      2012/02/17 04:09:11.7   0.4                          T   001.0                                4839105
CABF  002.55 053.9 m E Sg      2012/02/17 04:09:44.0  -0.1                          T   001.0        4.7  .29 Ml 2.5         4839106
LPG   002.60 080.9 m E Pn      2012/02/17 04:09:05.5   0.3                          T   001.0                                4839089
LPG   002.60 080.9 m E P       2012/02/17 04:09:07.8   0.0                          T                                        4840239
LPG   002.60 080.9 m E Pg      2012/02/17 04:09:12.0  -0.5                          T   001.0                                4839090
LPG   002.60 080.9 m E Sn      2012/02/17 04:09:35.1  -0.3                          T   001.0        2.2  .28 Ml 2.2         4839091
LPG   002.60 080.9 m E Sg      2012/02/17 04:09:44.0  -1.9                          T                2.1  .26 Ml 2.2         4840262
MFF   002.69 303.9 m E Pn      2012/02/17 04:09:06.2   0.1                          T   001.0                                4839093
MFF   002.69 303.9 m E Pg      2012/02/17 04:09:13.6  -0.2                          T   001.0                                4839094
MFF   002.69 303.9 m E Sn      2012/02/17 04:09:37.6   0.3                          T                                        4840269
MFF   002.69 303.9 m E Sg      2012/02/17 04:09:48.2  -0.3                          T   001.0        4.9  .24 Ml 2.8         4839095
EPF   002.90 224.2 m E Pn      2012/02/17 04:09:08.6  -0.4                          T   001.0                                4839074
EPF   002.90 224.2 m E Pg      2012/02/17 04:09:18.0   0.3                          T                                        4840275
EPF   002.90 224.2 m E Sn      2012/02/17 04:09:41.1  -1.2                          T                                        4840274
EPF   002.90 224.2 m E Sg      2012/02/17 04:09:55.4   0.4                          T   001.0        4.2  .27 Ml 2.6         4839075
LPL   002.59 080.5 m E Pg      2012/02/17 04:09:12.1  -0.1                          T   001.0                                4839092
LPL   002.59 080.5 m E Sg      2012/02/17 04:09:43.3  -2.1                          T                4.1  .41 Ml 2.3         4840267
FRF   003.00 120.6 m E Pg      2012/02/17 04:09:19.3  -0.1                          T                                        4840266
FRF   003.00 120.6 m E Sn      2012/02/17 04:09:44.6   0.1                          T   001.0                                4839076
FRF   003.00 120.6 m E Sg      2012/02/17 04:09:58.2   0.2                          T   001.0        2.5  .22 Ml 2.5         4839077
SJPF  003.72 238.4 m E Pn      2012/02/17 04:09:19.4  -0.7                          T                                        4840277
SJPF  003.72 238.4 m E Pg      2012/02/17 04:09:32.6  -0.1                          T                                        4840276
SJPF  003.72 238.4 m E Sg      2012/02/17 04:10:20.2  -0.2                          T                 .7  .24 Ml 2.0         4840278
LMR   003.05 125.3 m E Pg      2012/02/17 04:09:20.3   0.0                          T                                        4840265
LMR   003.05 125.3 m E Sn      2012/02/17 04:09:46.1   0.5                          T   001.0                                4839086
LMR   003.05 125.3 m E Sg      2012/02/17 04:09:59.6   0.2                          T   001.0        3.3  .30 Ml 2.5         4839087
LDF   004.10 328.5 m E P       2012/02/17 04:09:28.0  -0.7                          T                                        4840250
LDF   004.10 328.5 m E Sg      2012/02/17 04:10:32.0  -0.2                          T                 .7  .20 Ml 2.2         4840254
SGMF  004.98 310.7 m E Pn      2012/02/17 04:09:38.6   1.4                          T   001.0                                4839114
SGMF  004.98 310.7 m E Sn      2012/02/17 04:10:33.8   2.0                          T   001.0        3.1  .64 Ml 2.6         4839115
GRR   004.23 321.4 m E Pg      2012/02/17 04:09:42.1   0.0                          T                                        4840251
GRR   004.23 321.4 m E Sn      2012/02/17 04:10:11.8  -2.2                          T                                        4840252
GRR   004.23 321.4 m E Sg      2012/02/17 04:10:36.3  -0.2                          T   001.0        1.8  .26 Ml 2.4         4839078
ROSF  005.42 308.4 m E Pn      2012/02/17 04:09:44.6   1.4                          T   001.0                                4839112
ROSF  005.42 308.4 m E Sn      2012/02/17 04:10:41.3  -1.0                          T   001.0        5.3  .68 Ml 2.9         4839113
MBDF  002.64 097.8 m E Sg      2012/02/17 04:09:47.4   0.4                          T                                        4840260
SBF   003.36 110.9 m E Sg      2012/02/17 04:10:07.2  -2.0                          T   001.0        9.1  .48 Ml 2.8         4839096
SFTF  003.34 022.9 m E Sg      2012/02/17 04:10:09.5   0.9                          T                3.7  .26 Ml 2.7         4840258
FLN   004.37 327.2 m E Sn      2012/02/17 04:10:16.9  -0.4                          T                                        4840253
FLN   004.37 327.2 m E Sg      2012/02/17 04:10:41.8   1.0                          T                1.2  .27 Ml 2.2         4840249
MEZF  003.62 021.1 m E Sg      2012/02/17 04:10:16.9  -0.3 191.8  -10.7             T   001.0        5.9  .46 Ml 2.7         4839108
HAU   003.63 036.9 m E Sg      2012/02/17 04:10:18.2   0.3                          T                3.8  .24 Ml 2.6         4840259
HINF  003.72 042.8 m E Sg      2012/02/17 04:10:21.2   0.5                          T   001.0        1.3  .22 Ml 2.4         4839107
PAGF  003.86 026.9 m E Sg      2012/02/17 04:10:24.6  -0.2 214.5  5.7               T                 .5  .25 Ml 2.0         4840257

.
