EVENT     253329
    Date      Time       Latitude Longitude    Depth    Ndef Nsta Gap    Mag1  N    Mag2  N    Mag3  N   Author         ID
       rms   OT_Error      Smajor Sminor Az        Err   mdist  Mdist     Err        Err        Err      Quality

2011/01/03 17:10:16.5     41.8633    2.8350      4.0 f   149   27 100  Ml 3.1 30  Md 3.1  2              js067245    253349

      1.15   +-  0.10       2.0    1.4  147.42 +-  0.0    0.06   7.78   +-0.4      +-0.1                 m i ke

SPAIN
Sta     Dist  EvAz     Phase      Date       Time     TRes  Azim  AzRes  Slow  SRes Def   SNR       Amp   Per   Mag1   Mag2       ID
MTLF  001.55 343.1 m E Pn      2011/01/03 17:10:42.6  -0.4                          T                                        4576834
MTLF  001.55 343.1 m E Pg      2011/01/03 17:10:44.4  -0.9                          T                                        4576844
MTLF  001.55 343.1 m E Sn      2011/01/03 17:11:02.2  -0.2                          T               51.4  .20 Ml 3.5 Md 3.2  4576835
EPF   002.18 303.1 m E Pn      2011/01/03 17:10:51.6  -0.3                          T                                        4576833
EPF   002.18 303.1 m E P       2011/01/03 17:10:53.8  -0.4                          T                                        4578091
EPF   002.18 303.1 m E Pg      2011/01/03 17:10:56.9  -0.2                          T                                        4576843
EPF   002.18 303.1 m E Sn      2011/01/03 17:11:17.8   0.1                          T               87.9  .30 Ml 3.7 Md 3.0  4576784
ETSF  002.72 293.5 m E Pn      2011/01/03 17:11:00.5   1.3                          T                                        4576841
ETSF  002.72 293.5 m E Pg      2011/01/03 17:11:07.0   0.0                          T                                        4576842
ETSF  002.72 293.5 m E Sg      2011/01/03 17:11:41.2  -0.8                          T               50.2  .26 Ml 3.7         4576785
SMRF  002.92 042.7 m E Pn      2011/01/03 17:11:03.2   1.4                          T                                        4576822
SMRF  002.92 042.7 m E Pg      2011/01/03 17:11:10.5  -0.1                          T                                        4576829
SMRF  002.92 042.7 m E Sg      2011/01/03 17:11:48.0  -0.1                          T               28.9  .65 Ml 3.1         4576783
CAF   003.11 349.9 m E Pn      2011/01/03 17:11:04.0  -0.5                          T                                        4576840
CAF   003.11 349.9 m E Pg      2011/01/03 17:11:13.4  -0.7                          T                                        4576839
CAF   003.11 349.9 m E Sn      2011/01/03 17:11:39.5  -0.3                          T                                        4578092
CAF   003.11 349.9 m E Sg      2011/01/03 17:11:54.0  -0.2                          T               11.9  .24 Ml 3.1         4576787
LMR   003.09 060.3 m E Pn      2011/01/03 17:11:04.1   0.1                          T                                        4576824
LMR   003.09 060.3 m E Pg      2011/01/03 17:11:13.4  -0.2                          T                                        4576827
LMR   003.09 060.3 m E Sn      2011/01/03 17:11:39.3   0.2                          T                6.7  .20 Ml 3.0         4576780
FRF   003.28 057.6 m E Pn      2011/01/03 17:11:06.7   0.0                          T                                        4576823
FRF   003.28 057.6 m E Pg      2011/01/03 17:11:17.1  -0.1                          T                                        4576828
FRF   003.28 057.6 m E Sn      2011/01/03 17:11:44.3   0.4                          T               12.5  .24 Ml 3.2         4576779
SJPF  003.25 293.9 m E Pn      2011/01/03 17:11:06.9   0.6                          T                                        4576832
SJPF  003.25 293.9 m E Pg      2011/01/03 17:11:15.8  -0.9                          T                                        4576831
SJPF  003.25 293.9 m E Sg      2011/01/03 17:11:57.7  -0.8                          T               38.3  .36 Ml 3.5         4576786
VIVF  003.28 023.5 m E Pn      2011/01/03 17:11:07.3   0.6                          T                                        4576817
VIVF  003.28 023.5 m E Pg      2011/01/03 17:11:17.2  -0.1                          T                                        4576830
VIVF  003.28 023.5 m E Sn      2011/01/03 17:11:44.3   0.4                          T                                        4576774
VIVF  003.28 023.5 m E Sg      2011/01/03 17:11:59.1  -0.2                          T               13.2  .28 Ml 3.2         4576805
LFF   003.43 334.3 m E Pn      2011/01/03 17:11:09.3   0.5                          T                                        4576816
LFF   003.43 334.3 m E Pg      2011/01/03 17:11:19.9  -0.1                          T                                        4576838
LFF   003.43 334.3 m E Sg      2011/01/03 17:12:04.0  -0.1                          T               27.3  .32 Ml 3.3         4576788
RJF   003.57 344.9 m E Pn      2011/01/03 17:11:10.9   0.3                          T                                        4576815
RJF   003.57 344.9 m E Pg      2011/01/03 17:11:22.4  -0.1                          T                                        4576814
RJF   003.57 344.9 m E Sn      2011/01/03 17:11:50.9   0.1                          T                                        4576773
RJF   003.57 344.9 m E Sg      2011/01/03 17:12:08.3  -0.1                          T                9.3  .27 Ml 2.8         4576789
ORIF  003.77 035.0 m E Pn      2011/01/03 17:11:13.8   0.3                          T                                        4576819
ORIF  003.77 035.0 m E Sn      2011/01/03 17:11:56.0   0.2                          T                2.4  .29 Ml 2.5         4576776
SBF   003.93 057.9 m E Pn      2011/01/03 17:11:15.9   0.4                          T                                        4576825
SBF   003.93 057.9 m E Sn      2011/01/03 17:11:59.6   0.2                          T               13.8  .35 Ml 3.2         4576781
MBDF  004.06 043.8 m E Pn      2011/01/03 17:11:17.5   0.0                          T                                        4576818
MBDF  004.06 043.8 m E Sn      2011/01/03 17:12:02.9   0.3                          T                1.8  .33 Ml 2.4         4576775
TCF   004.45 354.4 m E Pn      2011/01/03 17:11:22.7   0.1                          T                                        4576803
TCF   004.45 354.4 m E Pg      2011/01/03 17:11:38.8   0.1                          T                                        4576804
TCF   004.45 354.4 m E Sn      2011/01/03 17:12:11.8   0.0                          T                                        4576771
TCF   004.45 354.4 m E Sg      2011/01/03 17:12:35.5  -0.3                          T                5.4  .26 Ml 3.1         4576796
PGF   004.63 079.4 m E Pn      2011/01/03 17:11:24.3  -0.9                          T                                        4576826
PGF   004.63 079.4 m E Sn      2011/01/03 17:12:15.3  -1.0                          T               10.9  .34 Ml 3.5         4576782
LPG   004.61 036.7 m E Pn      2011/01/03 17:11:25.3   0.2                          T                                        4576821
LPG   004.61 036.7 m E Sn      2011/01/03 17:12:16.4   0.4                          T                2.2  .43 Ml 2.5         4576778
LPL   004.62 036.4 m E Pn      2011/01/03 17:11:25.6   0.4                          T                                        4576820
LPL   004.62 036.4 m E Sn      2011/01/03 17:12:16.3   0.2                          T                1.5  .33 Ml 2.4         4576777
BGF   004.69 000.1 m E Pn      2011/01/03 17:11:26.1   0.1                          T                                        4576811
BGF   004.69 000.1 m E Pg      2011/01/03 17:11:42.8  -0.5                          T                                        4576806
BGF   004.69 000.1 m E Sg      2011/01/03 17:12:43.4  -0.1                          T               15.9  .36 Ml 3.4         4576792
SMF   004.84 008.3 m E Pn      2011/01/03 17:11:28.2   0.3                          T                                        4576810
SMF   004.84 008.3 m E Sg      2011/01/03 17:12:47.8  -0.1                          T                                        4576793
AVF   004.94 004.1 m E Pn      2011/01/03 17:11:29.5   0.2                          T                                        4576809
AVF   004.94 004.1 m E Pg      2011/01/03 17:11:47.3  -0.5                          T                                        4576807
AVF   004.94 004.1 m E Sg      2011/01/03 17:12:51.1   0.0                          T                5.0  .48 Ml 2.9         4576795
MFF   005.20 336.7 m E Pn      2011/01/03 17:11:32.9   0.1                          T                                        4576812
MFF   005.20 336.7 m E Pg      2011/01/03 17:11:52.8   0.2                          T                                        4576813
MFF   005.20 336.7 m E Sn      2011/01/03 17:12:29.7   0.0                          T                                        4576772
MFF   005.20 336.7 m E Sg      2011/01/03 17:12:59.0  -0.2                          T                3.9  .39 Ml 3.1         4576790
SSF   005.22 005.0 m E Pn      2011/01/03 17:11:33.0  -0.1                          T                                        4576802
SSF   005.22 005.0 m E Pg      2011/01/03 17:11:52.6  -0.4                          T                                        4576801
SSF   005.22 005.0 m E Sn      2011/01/03 17:12:30.2   0.1                          T                                        4576770
SSF   005.22 005.0 m E Sg      2011/01/03 17:13:00.0   0.1                          T                3.4  .40 Ml 2.9         4576797
CABF  005.29 025.1 m E Pn      2011/01/03 17:11:34.5   0.3                          T                                        4576808
CABF  005.29 025.1 m E Sg      2011/01/03 17:13:02.1  -0.1                          T                2.7  .42 Ml 2.7         4576794
LOR   005.45 007.4 m E Pn      2011/01/03 17:11:36.3   0.0                          T                                        4576799
LOR   005.45 007.4 m E Pg      2011/01/03 17:11:57.3   0.0 191.9  3.8               T                                        4576800
LOR   005.45 007.4 m E Sn      2011/01/03 17:12:36.0   0.2                          T                                        4576769
LOR   005.45 007.4 m E Sg      2011/01/03 17:13:07.1  -0.1                          T                3.7  .45 Ml 2.9         4576798
FLN   007.28 342.4 m E Pn      2011/01/03 17:12:00.6  -0.6 131.8  -28.2             T                                        4578090
ROSF  007.78 328.4 m E Pn      2011/01/03 17:12:07.4  -0.6                          T                                        4578089

.
EVENT     253331
    Date      Time       Latitude Longitude    Depth    Ndef Nsta Gap    Mag1  N    Mag2  N    Mag3  N   Author         ID
       rms   OT_Error      Smajor Sminor Az        Err   mdist  Mdist     Err        Err        Err      Quality

2011/01/03 19:02:05.9     39.3477    6.2650     20.0 f    51   16 228  Ml 3.1  5                         js067245    253351

      0.98   +-  0.24       5.4    2.5  147.75 +-  0.0    2.70   8.27   +-0.3                            m i ke

WESTERN MEDITERRANEAN SEA
Sta     Dist  EvAz     Phase      Date       Time     TRes  Azim  AzRes  Slow  SRes Def   SNR       Amp   Per   Mag1   Mag2       ID
PGF   003.81 032.0 m E Pn      2011/01/03 19:03:02.2   0.5                          T                                        4576871
PGF   003.81 032.0 m E Sn      2011/01/03 19:03:42.2  -1.0                          T               13.2  .31 Ml 3.5         4576851
LMR   003.99 002.6 m E Pn      2011/01/03 19:03:04.8   0.9                          T                                        4576870
LMR   003.99 002.6 m E Sn      2011/01/03 19:03:47.2  -0.1                          T                4.0  .34 Ml 2.7         4576853
FRF   004.22 003.8 m E Pn      2011/01/03 19:03:06.7  -0.4                          T                                        4576869
FRF   004.22 003.8 m E Sn      2011/01/03 19:03:53.4   0.6                          T                3.7  .27 Ml 2.9         4576854
SBF   004.60 010.6 m E Pn      2011/01/03 19:03:12.6   0.3                          T                                        4576862
SBF   004.60 010.6 m E Sn      2011/01/03 19:04:03.1   1.1                          T                7.7  .38 Ml 3.1         4576852
SMRF  004.65 353.9 m E Pn      2011/01/03 19:03:13.0  -0.1                          T                                        4576868
MTLF  005.02 323.9 m E Pn      2011/01/03 19:03:17.5  -0.6                          T                                        4576861
MBDF  005.39 003.8 m E Pn      2011/01/03 19:03:23.3   0.0                          T                                        4576866
ORIF  005.57 357.2 m E Pn      2011/01/03 19:03:25.7   0.0                          T                                        4576865
VIVF  005.63 348.4 m E Pn      2011/01/03 19:03:26.7   0.3                          T                                        4576867
EPF   005.79 311.4 m E Pn      2011/01/03 19:03:28.3  -0.3                          T                                        4576860
LPG   006.16 003.2 m E Pn      2011/01/03 19:03:33.9   0.0                          T                                        4576863
LPL   006.17 003.1 m E Pn      2011/01/03 19:03:34.3   0.3                          T                                        4576864
ETSF  006.25 306.7 m E Pn      2011/01/03 19:03:34.6  -0.3                          T                                        4576858
CAF   006.39 332.1 m E Pn      2011/01/03 19:03:36.4  -0.3                          T                                        4576859
SJPF  006.78 306.1 m E Pn      2011/01/03 19:03:41.8  -0.2                          T                                        4576857
BGF   007.63 341.9 m E Pn      2011/01/03 19:03:53.4  -0.2                          T                                        4576855

.
