EVENT     285281
    Date      Time       Latitude Longitude    Depth    Ndef Nsta Gap    Mag1  N    Mag2  N    Mag3  N   Author         ID
       rms   OT_Error      Smajor Sminor Az        Err   mdist  Mdist     Err        Err        Err      Quality

2012/10/17 12:17:14.2     44.5045    6.7262      2.0      53   12 043  Ml 2.7 10  Md 2.6  4              bulletin    285381
                                                                                                         _ldg
      0.73   +-  0.07       1.6    1.2   69.30 +-  0.0    0.07   3.05   +-0.3      +-0.1                 m i ke

FRANCE
Sta     Dist  EvAz     Phase      Date       Time     TRes  Azim  AzRes  Slow  SRes Def   SNR       Amp   Per   Mag1   Mag2       ID
MBDF  000.22 008.2 m E Pg      2012/10/17 12:17:18.7  -0.2                          T                                        5099627
MBDF  000.22 008.2 m E Sg      2012/10/17 12:17:22.3   0.3                          T              122.0  .32        Md 2.5  5099626
ORIF  000.73 304.7 m E Pg      2012/10/17 12:17:27.0  -1.1                          T                                        5099625
ORIF  000.73 304.7 m E Sg      2012/10/17 12:17:36.8  -0.9                          T               48.6  .29        Md 2.5  5099624
SBF   000.82 141.3 m E Pg      2012/10/17 12:17:29.7  -0.1                          T                                        5099618
SBF   000.82 141.3 m E Sg      2012/10/17 12:17:40.4   0.0                          T               54.0  .31        Md 2.6  5099617
FRF   000.95 183.5 m E Pg      2012/10/17 12:17:31.8  -0.2                          T                                        5099620
FRF   000.95 183.5 m E Sg      2012/10/17 12:17:44.6   0.3                          T               41.7  .20 Ml 3.1 Md 2.7  5099613
SMRF  000.98 237.8 m E Pg      2012/10/17 12:17:32.9   0.2                          T                                        5099621
SMRF  000.98 237.8 m E Sg      2012/10/17 12:17:46.1   0.7                          T               27.1  .24 Ml 2.9         5099614
LPL   001.01 000.2 m E Pg      2012/10/17 12:17:33.2  -0.2                          T                                        5099623
LPL   001.01 000.2 m E Sg      2012/10/17 12:17:47.3   0.7                          T               19.1  .32 Ml 2.6         5099611
LPG   000.99 001.0 m E Pg      2012/10/17 12:17:34.1   0.9                          T                                        5099622
LPG   000.99 001.0 m E Sg      2012/10/17 12:17:46.7   0.6                          T               22.9  .28 Ml 2.7         5099612
LMR   001.18 187.7 m E Pg      2012/10/17 12:17:36.6   0.3                          T                                        5099619
LMR   001.18 187.7 m E Sg      2012/10/17 12:17:52.1   0.5                          T               19.6  .18 Ml 3.0         5099606
VIVF  001.51 284.2 m E Pn      2012/10/17 12:17:40.7   0.1                          T                                        5099610
VIVF  001.51 284.2 m E Sn      2012/10/17 12:18:00.7   1.1                          T               11.6  .32 Ml 2.6         5099609
CABF  002.15 348.2 m E Pn      2012/10/17 12:17:49.1  -0.4                          T                                        5099605
CABF  002.15 348.2 m E Sn      2012/10/17 12:18:15.5   0.3                          T                2.9  .32 Ml 2.2         5099604
LASF  002.10 259.3 m E Pn      2012/10/17 12:17:49.5   0.8                          T                                        5099608
LASF  002.10 259.3 m E Sn      2012/10/17 12:18:14.5   0.6                          T                2.8  .29 Ml 2.2         5099607
PGF   002.56 139.0 m E Pn      2012/10/17 12:17:55.4   0.4                          T                                        5099616
PGF   002.56 139.0 m E Sn      2012/10/17 12:18:25.2   0.3                          T                4.0  .28 Ml 2.7         5099615

.
EVENT     285299
    Date      Time       Latitude Longitude    Depth    Ndef Nsta Gap    Mag1  N    Mag2  N    Mag3  N   Author         ID
       rms   OT_Error      Smajor Sminor Az        Err   mdist  Mdist     Err        Err        Err      Quality

2012/10/17 15:47:15.0     42.0541    9.3242      2.0      12    5 328  Ml 2.3  4  Md 2.3  2              bulletin    285399
                                                                                                         _ldg
      0.31   +-  0.15       2.6    2.1  115.90 +-  0.0    0.55   3.35   +-0.3      +-0.1                 m i ke

CORSICA, FRANCE
Sta     Dist  EvAz     Phase      Date       Time     TRes  Azim  AzRes  Slow  SRes Def   SNR       Amp   Per   Mag1   Mag2       ID
PGF   000.55 334.1 m E Pg      2012/10/17 15:47:25.8   0.2                          T                                        5099707
PGF   000.55 334.1 m E Sg      2012/10/17 15:47:32.7  -0.2                          T               55.4  .22        Md 2.3  5099706
SBF   002.28 323.1 m E Pn      2012/10/17 15:47:51.8  -0.2                          T                                        5099701
SBF   002.28 323.1 m E Sn      2012/10/17 15:48:19.0   0.1                          T                8.9  .29 Ml 2.8 Md 2.3  5099700
LMR   002.44 302.6 m E Pn      2012/10/17 15:47:53.9  -0.1                          T                                        5099703
LMR   002.44 302.6 m E Sn      2012/10/17 15:48:22.6   0.0                          T                2.4  .21 Ml 2.4         5099702
FRF   002.48 308.3 m E Pn      2012/10/17 15:47:54.6   0.0                          T                                        5099698
FRF   002.48 308.3 m E Sn      2012/10/17 15:48:23.5  -0.2                          T                 .9  .17 Ml 2.1         5099699
SMRF  003.35 306.2 m E Pn      2012/10/17 15:48:06.6   0.1                          T                                        5099697
SMRF  003.35 306.2 m E Sn      2012/10/17 15:48:44.5   0.0                          T                1.0  .26 Ml 2.1         5099696

.
EVENT     285297
    Date      Time       Latitude Longitude    Depth    Ndef Nsta Gap    Mag1  N    Mag2  N    Mag3  N   Author         ID
       rms   OT_Error      Smajor Sminor Az        Err   mdist  Mdist     Err        Err        Err      Quality

2012/10/17 16:06:41.4     42.1664    9.3214     15.0      10    4 332  Ml 2.3  3  Md 2.1  1              bulletin    285397
                                                                                                         _ldg
      0.72   +-  0.50       8.7    6.5  133.82 +-  0.0    0.45   2.41   +-0.3      +-                    m i ke

CORSICA, FRANCE
Sta     Dist  EvAz     Phase      Date       Time     TRes  Azim  AzRes  Slow  SRes Def   SNR       Amp   Per   Mag1   Mag2       ID
PGF   000.45 328.1 m E Pg      2012/10/17 16:06:50.0  -0.5                          T                                        5099727
PGF   000.45 328.1 m E Sg      2012/10/17 16:06:56.8   0.2                          T               50.6  .20        Md 2.1  5099726
SBF   002.19 321.4 m E Pn      2012/10/17 16:07:15.7   0.1                          T                                        5099722
SBF   002.19 321.4 m E Sn      2012/10/17 16:07:40.7  -0.1                          T                4.7  .18 Ml 2.7         5099720
LMR   002.38 300.3 m E Pn      2012/10/17 16:07:18.0   0.0                          T                                        5099723
LMR   002.38 300.3 m E Sn      2012/10/17 16:07:45.9   0.7                          T                1.7  .19 Ml 2.3         5099721
FRF   002.41 306.2 m E Pn      2012/10/17 16:07:18.9   0.4                          T                                        5099719
FRF   002.41 306.2 m E Sn      2012/10/17 16:07:46.2   0.2                          T                 .9  .18 Ml 2.0         5099718

.
EVENT     285300
    Date      Time       Latitude Longitude    Depth    Ndef Nsta Gap    Mag1  N    Mag2  N    Mag3  N   Author         ID
       rms   OT_Error      Smajor Sminor Az        Err   mdist  Mdist     Err        Err        Err      Quality

2012/10/17 16:20:27.0     42.1437    9.3390     15.0      10    4 332  Ml 1.9  3  Md 1.8  1              bulletin    285400
                                                                                                         _ldg
      0.31   +-  0.29       5.1    3.9  130.56 +-  0.0    0.48   2.43   +-0.3      +-                    m i ke

CORSICA, FRANCE
Sta     Dist  EvAz     Phase      Date       Time     TRes  Azim  AzRes  Slow  SRes Def   SNR       Amp   Per   Mag1   Mag2       ID
PGF   000.48 328.2 m E Pg      2012/10/17 16:20:36.4  -0.1                          T                                        5099741
PGF   000.48 328.2 m E Sg      2012/10/17 16:20:43.2   0.1                          T               14.3  .18        Md 1.8  5099740
SBF   002.21 321.5 m E Pn      2012/10/17 16:21:01.2  -0.4                          T                                        5099737
SBF   002.21 321.5 m E Sn      2012/10/17 16:21:27.1   0.1                          T                2.3  .23 Ml 2.2         5099736
LMR   002.40 300.7 m E Pn      2012/10/17 16:21:04.2   0.2                          T                                        5099735
LMR   002.40 300.7 m E Sn      2012/10/17 16:21:31.1  -0.3                          T                 .4  .18 Ml 1.7         5099733
FRF   002.43 306.5 m E Pn      2012/10/17 16:21:04.8   0.3                          T                                        5099734
FRF   002.43 306.5 m E Sn      2012/10/17 16:21:32.0  -0.2                          T                 .4  .17 Ml 1.7         5099732

.
EVENT     285302
    Date      Time       Latitude Longitude    Depth    Ndef Nsta Gap    Mag1  N    Mag2  N    Mag3  N   Author         ID
       rms   OT_Error      Smajor Sminor Az        Err   mdist  Mdist     Err        Err        Err      Quality

2012/10/17 16:31:35.5     50.4036    7.3264      8.0 f    36    8 249  Ml 2.3  9  Md 2.4  3              bulletin    285402
                                                                                                         _ldg
      0.30   +-  0.12       2.2    1.2   50.45 +-  0.0    0.87   3.88   +-0.2      +-0.1                 m i ke

GERMANY
Sta     Dist  EvAz     Phase      Date       Time     TRes  Azim  AzRes  Slow  SRes Def   SNR       Amp   Per   Mag1   Mag2       ID
GIVF  001.63 260.3 m E Pn      2012/10/17 16:32:02.9   0.0                          T                                        5099852
GIVF  001.63 260.3 m E Pg      2012/10/17 16:32:05.6  -0.4                          T                                        5099849
GIVF  001.63 260.3 m E Sn      2012/10/17 16:32:23.1   0.3                          T                                        5099851
GIVF  001.63 260.3 m E Sg      2012/10/17 16:32:26.8  -0.2                          T               14.0  .34 Ml 2.7 Md 2.4  5099850
CDF   001.99 181.0 m E Pn      2012/10/17 16:32:07.5  -0.4                          T                                        5099841
CDF   001.99 181.0 m E Pg      2012/10/17 16:32:12.7   0.0                          T                                        5099840
CDF   001.99 181.0 m E Sn      2012/10/17 16:32:31.8   0.3                          T                3.5  .31 Ml 2.4 Md 2.3  5099839
BAIF  002.03 261.4 m E Pn      2012/10/17 16:32:08.1  -0.2                          T                                        5099846
BAIF  002.03 261.4 m E Pg      2012/10/17 16:32:13.0  -0.3                          T                                        5099845
BAIF  002.03 261.4 m E Sn      2012/10/17 16:32:32.2  -0.1                          T                                        5099848
BAIF  002.03 261.4 m E Sg      2012/10/17 16:32:39.1  -0.3                          T               12.4  .52 Ml 2.6 Md 2.5  5099847
PAGF  002.12 210.1 m E Pn      2012/10/17 16:32:09.5   0.0                          T                                        5099838
PAGF  002.12 210.1 m E Sn      2012/10/17 16:32:34.7   0.1  31.2  2.3               T                2.0  .23 Ml 2.2         5099837
MEZF  002.41 218.8 m E Pn      2012/10/17 16:32:13.7   0.2                          T                                        5099836
MEZF  002.41 218.8 m E Pg      2012/10/17 16:32:20.5   0.2                          T                                        5099835
MEZF  002.41 218.8 m E Sn      2012/10/17 16:32:41.6   0.1                          T                                        5099834
MEZF  002.41 218.8 m E Sg      2012/10/17 16:32:51.2  -0.1                          T                1.6  .18 Ml 2.2         5099833
HINF  002.61 187.0 m E Pn      2012/10/17 16:32:16.2   0.0                          T                                        5099829
HINF  002.61 187.0 m E Sn      2012/10/17 16:32:46.3   0.1                          T                                        5099828
HINF  002.61 187.0 m E Sg      2012/10/17 16:32:57.6   0.1                          T                3.3  .39 Ml 2.3         5099827
SFTF  002.66 215.1 m E Pn      2012/10/17 16:32:16.6  -0.2                          T                                        5099832
SFTF  002.66 215.1 m E Pg      2012/10/17 16:32:24.9   0.0                          T                                        5099831
SFTF  002.66 215.1 m E Sn      2012/10/17 16:32:47.0  -0.4  37.3  3.9               T                1.7  .21 Ml 2.3         5099830
LOR   003.88 217.4 m E Pn      2012/10/17 16:32:33.7   0.2                          T                                        5099844
LOR   003.88 217.4 m E Pg      2012/10/17 16:32:47.5   0.1                          T                                        5099842
LOR   003.88 217.4 m E Sn      2012/10/17 16:33:16.4  -0.3                          T                 .5  .21 Ml 2.1         5099843

.
EVENT     285332
    Date      Time       Latitude Longitude    Depth    Ndef Nsta Gap    Mag1  N    Mag2  N    Mag3  N   Author         ID
       rms   OT_Error      Smajor Sminor Az        Err   mdist  Mdist     Err        Err        Err      Quality

2012/10/18 01:14:18.9     46.3185    7.3533      3.0 f    24    7 082  Ml 1.6  6  Md 1.7  2              bulletin    285432
                                                                                                         _ldg
      0.22   +-  0.05       1.4    1.0  106.80 +-  0.0    0.06   2.69   +-0.3      +-0.0                 m i ke

SWITZERLAND
Sta     Dist  EvAz     Phase      Date       Time     TRes  Azim  AzRes  Slow  SRes Def   SNR       Amp   Per   Mag1   Mag2       ID
LPL   000.91 208.6 m E Pg      2012/10/18 01:14:36.2  -0.1                          T                                        5099920
LPL   000.91 208.6 m E Sg      2012/10/18 01:14:47.8  -0.4                          T                 .8  .23 Ml 1.3 Md 1.6  5099919
CABF  000.92 289.0 m E Pg      2012/10/18 01:14:36.5   0.2                          T                                        5099914
CABF  000.92 289.0 m E Sg      2012/10/18 01:14:48.5   0.2                          T                  1  .27 Ml 1.3 Md 1.7  5099913
LPG   000.92 207.3 m E Pg      2012/10/18 01:14:36.5  -0.1                          T                                        5109271
HINF  001.54 347.3 m E Pn      2012/10/18 01:14:45.5  -0.1                          T                                        5109266
HINF  001.54 347.3 m E Pg      2012/10/18 01:14:47.4  -0.2                          T                                        5099923
HINF  001.54 347.3 m E Sn      2012/10/18 01:15:05.1   0.2                          T                                        5099922
HINF  001.54 347.3 m E Sg      2012/10/18 01:15:07.6   0.2                          T                1.1  .20 Ml 1.8         5099921
MBDF  001.64 194.6 m E Pn      2012/10/18 01:14:47.1  -0.1                          T                                        5109270
MBDF  001.64 194.6 m E Sn      2012/10/18 01:15:07.3  -0.2                          T                 .4  .23 Ml 1.4         5109269
ORIF  001.74 217.0 m E Pn      2012/10/18 01:14:48.6   0.2                          T                                        5099918
ORIF  001.74 217.0 m E Pg      2012/10/18 01:14:51.5   0.2                          T                                        5099917
ORIF  001.74 217.0 m E Sn      2012/10/18 01:15:09.1  -0.6                          T                                        5099916
ORIF  001.74 217.0 m E Sg      2012/10/18 01:15:13.7  -0.2                          T                  1  .21 Ml 1.8         5099915
MEZF  002.69 325.3 m E Pn      2012/10/18 01:15:00.8  -0.3                          T                                        5109265

.
EVENT     285364
    Date      Time       Latitude Longitude    Depth    Ndef Nsta Gap    Mag1  N    Mag2  N    Mag3  N   Author         ID
       rms   OT_Error      Smajor Sminor Az        Err   mdist  Mdist     Err        Err        Err      Quality

2012/10/18 10:32:12.1     43.5011    6.5988       .0 f    22    8 142  Ml 1.7  3  Md 1.9  3              bulletin    285464
                                                                                                         _ldg
      0.76   +-  0.38       7.7    4.3  170.96 +-  0.0    0.07   2.02   +-0.2      +-0.1                 m i km

NEAR SOUTH COAST OF FRANCE
Sta     Dist  EvAz     Phase      Date       Time     TRes  Azim  AzRes  Slow  SRes Def   SNR       Amp   Per   Mag1   Mag2       ID
FRF   000.07 030.4 m E Pg      2012/10/18 10:32:12.5  -1.4                          T                                        5100250
FRF   000.07 030.4 m E Sg      2012/10/18 10:32:13.5  -1.5                          T              775.7  .40        Md 1.8  5100248
LMR   000.18 201.4 m E Pg      2012/10/18 10:32:15.5  -0.5                          T                                        5100249
LMR   000.18 201.4 m E Sg      2012/10/18 10:32:18.3  -0.3                          T              118.6  .76        Md 1.9  5100247
SBF   000.71 058.9 m E Pg      2012/10/18 10:32:25.7  -0.1                          T                                        5100251
SBF   000.71 058.9 m E Sg      2012/10/18 10:32:34.5  -0.7                          T                6.3  .18        Md 1.9  5100274
SBF   000.71 058.9 m E Sn      2012/10/18 10:32:39.3   0.2                          T                                        5100275
SMRF  000.88 303.0 m E Pg      2012/10/18 10:32:29.3   0.4                          T                                        5100267
SMRF  000.88 303.0 m E Sg      2012/10/18 10:32:40.5  -0.1                          T                1.9  .20 Ml 1.7         5100266
MBDF  001.23 005.7 m E Pn      2012/10/18 10:32:35.4   0.1                          T                                        5100261
MBDF  001.23 005.7 m E Sg      2012/10/18 10:32:51.4  -0.3                          T                3.0  .32 Ml 1.9         5100259
ORIF  001.51 340.2 m E Pn      2012/10/18 10:32:38.8  -0.1                          T                                        5100262
ORIF  001.51 340.2 m E Sg      2012/10/18 10:33:00.4   0.1                          T                                        5100263
VIVF  001.94 315.0 m E Pn      2012/10/18 10:32:44.1  -0.7                          T                                        5100264
VIVF  001.94 315.0 m E Sn      2012/10/18 10:33:07.3  -1.2                          T                 .6  .25 Ml 1.6         5100265
LPL   002.02 002.7 m E Pn      2012/10/18 10:32:45.4  -0.6                          T                                        5100260

.
