EVENT     287038
    Date      Time       Latitude Longitude    Depth    Ndef Nsta Gap    Mag1  N    Mag2  N    Mag3  N   Author         ID
       rms   OT_Error      Smajor Sminor Az        Err   mdist  Mdist     Err        Err        Err      Quality

2012/11/16 11:12:00.6     43.6845    6.9601       .0 f    23    7 082  Ml 1.8  5  Md 1.9  2              bulletin    287138
                                                                                                         _ldg
      0.35   +-  0.10       2.1    1.6  146.69 +-  0.0    0.07   2.02   +-0.1      +-0.0                 m i ke

NEAR SOUTH COAST OF FRANCE
Sta     Dist  EvAz     Phase      Date       Time     TRes  Azim  AzRes  Slow  SRes Def   SNR       Amp   Per   Mag1   Mag2       ID
FRF   000.26 241.6 m E Pg      2012/11/16 11:12:05.6  -0.3                          T                                        5118970
FRF   000.26 241.6 m E Sg      2012/11/16 11:12:10.0   0.4                          T                7.6  .20        Md 1.9  5118969
SBF   000.39 062.4 m E Pg      2012/11/16 11:12:08.1  -0.2                          T                                        5118967
SBF   000.39 062.4 m E Sg      2012/11/16 11:12:13.7   0.0                          T                5.3  .22        Md 1.9  5118959
LMR   000.48 223.3 m E Pg      2012/11/16 11:12:09.9  -0.1                          T                                        5118968
LMR   000.48 223.3 m E Sg      2012/11/16 11:12:16.9   0.4                          T                3.5  .20                5118966
MBDF  001.05 352.6 m E Pg      2012/11/16 11:12:20.5  -0.2                          T                                        5118963
MBDF  001.05 352.6 m E Sg      2012/11/16 11:12:34.1  -0.4                          T                1.5  .27 Ml 1.6         5118962
SMRF  001.04 286.7 m E Pg      2012/11/16 11:12:20.9   0.5                          T                                        5118965
SMRF  001.04 286.7 m E Sg      2012/11/16 11:12:34.4   0.3                          T                7.1  .52 Ml 2.0         5118964
ORIF  001.46 328.2 m E Pg      2012/11/16 11:12:27.9  -0.2                          T                                        5118958
ORIF  001.46 328.2 m E Sg      2012/11/16 11:12:46.7  -0.4                          T                1.8  .25 Ml 1.9         5118957
VIVF  002.02 306.3 m E Pn      2012/11/16 11:12:34.3   0.0                          T                                        5118961
VIVF  002.02 306.3 m E Sn      2012/11/16 11:12:58.8  -0.1                          T                 .8  .25 Ml 1.7         5118960

.
EVENT     287098
    Date      Time       Latitude Longitude    Depth    Ndef Nsta Gap    Mag1  N    Mag2  N    Mag3  N   Author         ID
       rms   OT_Error      Smajor Sminor Az        Err   mdist  Mdist     Err        Err        Err      Quality

2012/11/16 13:48:48.0     50.3300    7.4243     10.0 f    24    5 043  Ml 2.5  6  Md 2.4  1              bulletin    287198
                                                                                                         _ldg
      0.57   +-  0.08       1.7    1.6   21.40 +-  0.0    0.14   3.87   +-0.3      +-                    m i ke

GERMANY
Sta     Dist  EvAz     Phase      Date       Time     TRes  Azim  AzRes  Slow  SRes Def   SNR       Amp   Per   Mag1   Mag2       ID
GIVF  001.69 263.2 m E Pn      2012/11/16 13:49:16.7   0.9                          T                                        5123663
GIVF  001.69 263.2 m E Sn      2012/11/16 13:49:37.5   1.3                          T                                        5123664
GIVF  001.69 263.2 m E Sg      2012/11/16 13:49:40.7  -0.5                          T               15.2  .28 Ml 2.9 Md 2.4  5123665
CDF   001.92 182.9 m E Pn      2012/11/16 13:49:20.4   1.2                          T                                        5123659
CDF   001.92 182.9 m E Sn      2012/11/16 13:49:43.1   1.2                          T                7.2  .36 Ml 2.6         5123658
PAGF  002.09 212.6 m E Pn      2012/11/16 13:49:22.1   0.7                          T                                        5123657
PAGF  002.09 212.6 m E Pg      2012/11/16 13:49:26.8  -0.1                          T                                        5123656
PAGF  002.09 212.6 m E Sn      2012/11/16 13:49:47.2   1.3                          T               18.7  .55 Ml 2.8         5123655
BAIF  002.08 263.8 m E Pn      2012/11/16 13:49:22.1   0.9                          T                                        5123662
BAIF  002.08 263.8 m E Pg      2012/11/16 13:49:26.2  -0.5                          T                                        5123661
BAIF  002.08 263.8 m E Sn      2012/11/16 13:49:47.0   1.3                          T                2.9  .18 Ml 2.4         5123660
HAU   002.43 197.3 m E Pn      2012/11/16 13:49:26.3   0.3                          T                                        5123654
HAU   002.43 197.3 m E Pg      2012/11/16 13:49:33.2   0.0                          T                                        5123651
HAU   002.43 197.3 m E Sn      2012/11/16 13:49:55.3   1.2                          T                                        5123652
HAU   002.43 197.3 m E Sg      2012/11/16 13:50:03.9  -0.6                          T                3.0  .24 Ml 2.2         5123653

.
EVENT     287058
    Date      Time       Latitude Longitude    Depth    Ndef Nsta Gap    Mag1  N    Mag2  N    Mag3  N   Author         ID
       rms   OT_Error      Smajor Sminor Az        Err   mdist  Mdist     Err        Err        Err      Quality

2012/11/16 13:54:00.0     50.3233    7.4222     10.0 f    46   10 040  Ml 2.6 12  Md 2.5  1              bulletin    287158
                                                                                                         _ldg
      0.44   +-  0.05       1.0     .9   29.33 +-  0.0    0.13   4.17   +-0.3      +-                    m i ke

GERMANY
Sta     Dist  EvAz     Phase      Date       Time     TRes  Azim  AzRes  Slow  SRes Def   SNR       Amp   Per   Mag1   Mag2       ID
GIVF  001.68 263.4 m E Pn      2012/11/16 13:54:28.2   0.3                          T                                        5119089
GIVF  001.68 263.4 m E Pg      2012/11/16 13:54:31.3  -0.2                          T                                        5119074
GIVF  001.68 263.4 m E Sn      2012/11/16 13:54:48.3   0.1                          T                                        5119084
GIVF  001.68 263.4 m E Sg      2012/11/16 13:54:53.2   0.0                          T               37.1  .30 Ml 3.2 Md 2.5  5123689
CDF   001.92 182.9 m E Pn      2012/11/16 13:54:31.2   0.0                          T                                        5119088
CDF   001.92 182.9 m E Sn      2012/11/16 13:54:54.4   0.5                          T               15.4  .38 Ml 2.9         5119083
BAIF  002.08 263.9 m E Pn      2012/11/16 13:54:33.6   0.3                          T                                        5119087
BAIF  002.08 263.9 m E Pg      2012/11/16 13:54:38.6  -0.1                          T                                        5119073
BAIF  002.08 263.9 m E Sn      2012/11/16 13:54:58.2   0.4                          T               10.5  .26 Ml 2.8         5119082
PAGF  002.09 212.7 m E Pn      2012/11/16 13:54:33.7   0.3                          T                                        5119079
PAGF  002.09 212.7 m E Pg      2012/11/16 13:54:39.0   0.2  33.8  2.4               T                                        5119072
PAGF  002.09 212.7 m E Sn      2012/11/16 13:54:58.2   0.3                          T               19.1  .57 Ml 2.7         5119078
HAU   002.42 197.3 m E Pn      2012/11/16 13:54:38.1   0.1                          T                                        5119080
HAU   002.42 197.3 m E Pg      2012/11/16 13:54:44.8  -0.3                          T                                        5123694
HAU   002.42 197.3 m E Sn      2012/11/16 13:55:05.9   0.0                          T                                        5123693
HAU   002.42 197.3 m E Sg      2012/11/16 13:55:16.4   0.1                          T                5.8  .24 Ml 2.5         5123692
HINF  002.54 188.7 m E Pn      2012/11/16 13:54:39.8   0.3                          T                                        5119076
HINF  002.54 188.7 m E Pg      2012/11/16 13:54:46.7  -0.5                          T                                        5119090
HINF  002.54 188.7 m E Sn      2012/11/16 13:55:08.7   0.0                          T                                        5119077
HINF  002.54 188.7 m E Sg      2012/11/16 13:55:20.0   0.1                          T                4.0  .23 Ml 2.6         5123684
SFTF  002.63 217.3 m E Pn      2012/11/16 13:54:40.7  -0.1                          T                                        5119075
SFTF  002.63 217.3 m E Pg      2012/11/16 13:54:48.9   0.0                          T                                        5123685
SFTF  002.63 217.3 m E Sn      2012/11/16 13:55:11.0   0.1  43.5  8.0               T                                        5119071
SFTF  002.63 217.3 m E Sg      2012/11/16 13:55:23.0   0.2                          T                9.4  .42 Ml 2.7         5123686
MEZF  002.39 221.2 m E Pg      2012/11/16 13:54:44.4   0.0                          T                                        5123687
MEZF  002.39 221.2 m E Sn      2012/11/16 13:55:05.0  -0.1                          T                                        5119070
MEZF  002.39 221.2 m E Sg      2012/11/16 13:55:15.3   0.1                          T                7.3  .30 Ml 2.7         5123688
LOR   003.86 219.0 m E Pn      2012/11/16 13:54:57.8   0.2                          T                                        5119086
LOR   003.86 219.0 m E Sn      2012/11/16 13:55:40.3   0.1                          T                2.1  .33 Ml 2.4         5119081
LOR   003.86 219.0 m E Sg      2012/11/16 13:56:01.2   0.1  32.3  -4.0              T                2.5  .30 Ml 2.5         5123690
SSF   004.17 220.0 m E Pn      2012/11/16 13:55:01.9   0.2                          T                                        5119085
SSF   004.17 220.0 m E Sn      2012/11/16 13:55:47.7   0.1                          T                2.2  .45 Ml 2.5         5123691

.
EVENT     287059
    Date      Time       Latitude Longitude    Depth    Ndef Nsta Gap    Mag1  N    Mag2  N    Mag3  N   Author         ID
       rms   OT_Error      Smajor Sminor Az        Err   mdist  Mdist     Err        Err        Err      Quality

2012/11/16 19:46:39.5     42.8806     .1263      2.0       6    3 226  Ml 0.9  1  Md 1.1  2              bulletin    287159
                                                                                                         _ldg
      0.20   +-  0.17       6.2     .9  162.53 +-  0.0    0.22   1.02   +-         +-0.2                 m i ke

PYRENEES
Sta     Dist  EvAz     Phase      Date       Time     TRes  Azim  AzRes  Slow  SRes Def   SNR       Amp   Per   Mag1   Mag2       ID
EPF   000.22 046.3 m E Pg      2012/11/16 19:46:43.6  -0.3                          T                                        5119097
EPF   000.22 046.3 m E Sg      2012/11/16 19:46:46.6  -0.3                          T                7.0  .22        Md 1.2  5119096
ETSF  000.50 272.3 m E Pg      2012/11/16 19:46:49.2   0.0                          T                                        5119094
ETSF  000.50 272.3 m E Sg      2012/11/16 19:46:55.6  -0.2                          T                1.4  .26        Md 1.0  5119095
SJPF  001.02 283.7 m E Pg      2012/11/16 19:46:58.6   0.0                          T                                        5119093
SJPF  001.02 283.7 m E Sg      2012/11/16 19:47:11.7  -0.1                          T                 .2  .19 Ml  .9         5119092

.
EVENT     287063
    Date      Time       Latitude Longitude    Depth    Ndef Nsta Gap    Mag1  N    Mag2  N    Mag3  N   Author         ID
       rms   OT_Error      Smajor Sminor Az        Err   mdist  Mdist     Err        Err        Err      Quality

2012/11/16 23:11:12.2     42.3681   13.4589      2.0      48   11 047  Ml 2.5 12                         bulletin    287163
                                                                                                         _ldg
      1.40   +-  0.20       4.2    4.0   53.17 +-  0.0    0.04   7.55   +-0.5                            m i ke

CENTRAL ITALY
Sta     Dist  EvAz     Phase      Date       Time     TRes  Azim  AzRes  Slow  SRes Def   SNR       Amp   Per   Mag1   Mag2       ID
PGF   003.30 274.6 m E Pn      2012/11/16 23:12:03.7   0.6                          T                                        5119222
PGF   003.30 274.6 m E Sn      2012/11/16 23:12:41.6   0.9                          T                 .5  .19 Ml 2.2         5119218
SBF   004.66 290.8 m E Pn      2012/11/16 23:12:22.2   0.7                          T                                        5119221
SBF   004.66 290.8 m E Sn      2012/11/16 23:13:12.7  -0.2                          T                 .7  .25 Ml 2.2         5119217
FRF   005.14 285.7 m E Pn      2012/11/16 23:12:29.0   1.1                          T                                        5119219
FRF   005.14 285.7 m E Sn      2012/11/16 23:13:25.2   0.9                          T                3.5  .65 Ml 2.7         5119216
LMR   005.20 283.0 m E Pn      2012/11/16 23:12:29.2   0.4                          T                                        5119220
MBDF  005.40 298.1 m E Pn      2012/11/16 23:12:33.2   1.5                          T                                        5119209
MBDF  005.40 298.1 m E Sn      2012/11/16 23:13:31.6   0.8                          T                 .2  .22 Ml 2.0         5119208
LPL   005.79 305.2 m E Pn      2012/11/16 23:12:37.6   0.5                          T                                        5119213
LPL   005.79 305.2 m E Sn      2012/11/16 23:13:40.1   0.0                          T                 .3  .31 Ml 2.1         5119212
SMRF  005.98 288.2 m E Pn      2012/11/16 23:12:40.1   0.6                          T                                        5119215
SMRF  005.98 288.2 m E Sn      2012/11/16 23:13:44.6   0.0                          T                 .1  .23 Ml 1.9         5119214
ORIF  006.06 297.4 m E Pn      2012/11/16 23:12:41.9   1.3                          T                                        5119211
ORIF  006.06 297.4 m E Sn      2012/11/16 23:13:46.3  -0.2                          T                 .3  .21 Ml 2.2         5119210
HINF  007.18 321.6 m E Pn      2012/11/16 23:12:56.5   0.8                          T                                        5119224
HINF  007.18 321.6 m E Sn      2012/11/16 23:14:13.4   0.3                          T                4.5  .41 Ml 3.3         5119223
CDF   007.45 326.4 m E Pn      2012/11/16 23:13:00.1   0.7                          T                                        5119226
CDF   007.45 326.4 m E Sn      2012/11/16 23:14:20.4   0.8                          T                2.6  .43 Ml 3.2         5119225
HAU   007.55 320.7 m E Pn      2012/11/16 23:13:00.6  -0.1                          T                                        5119228
HAU   007.55 320.7 m E Sn      2012/11/16 23:14:22.9   1.0                          T                6.8  .43 Ml 3.3         5119227

.
