EVENT     278239
    Date      Time       Latitude Longitude    Depth    Ndef Nsta Gap    Mag1  N    Mag2  N    Mag3  N   Author         ID
       rms   OT_Error      Smajor Sminor Az        Err   mdist  Mdist     Err        Err        Err      Quality

2012/06/17 04:37:11.2     44.4998    6.6890      2.0      33   10 055  Ml 1.5  7  Md 1.6  1              bulletin    278339
                                                                                                         _ldg
      0.40   +-  0.05       1.0     .9   58.36 +-  0.0    0.11   3.41   +-0.1      +-                    m i ke

FRANCE
Sta     Dist  EvAz     Phase      Date       Time     TRes  Azim  AzRes  Slow  SRes Def   SNR       Amp   Per   Mag1   Mag2       ID
MBDF  000.23 014.5 m E Pg      2012/06/17 04:37:16.5   0.4                          T                                Md 1.6  5003186
ORIF  000.71 306.2 m E Pg      2012/06/17 04:37:24.5  -0.3                          T                                        5003185
ORIF  000.71 306.2 m E Sg      2012/06/17 04:37:34.2   0.1                          T                1.4  .21                5020483
SBF   000.83 139.6 m E Pg      2012/06/17 04:37:27.0   0.0                          T                                        5003192
SBF   000.83 139.6 m E Sg      2012/06/17 04:37:37.9   0.1                          T                1.5  .29                5020488
FRF   000.94 181.9 m E Pg      2012/06/17 04:37:29.1   0.2                          T                                        5003184
FRF   000.94 181.9 m E Sg      2012/06/17 04:37:41.3   0.3                          T                1.2  .18 Ml 1.6         5020487
SMRF  000.96 237.2 m E Pg      2012/06/17 04:37:29.3   0.0                          T                                        5020490
SMRF  000.96 237.2 m E Sn      2012/06/17 04:37:43.7   0.2                          T                 .8  .22 Ml 1.3         5020486
LPG   001.00 002.5 m E Pg      2012/06/17 04:37:30.2  -0.1                          T                                        5003194
LPG   001.00 002.5 m E Sg      2012/06/17 04:37:43.3   0.0                          T                1.1  .25 Ml 1.4         5020485
LPL   001.02 001.7 m E Pg      2012/06/17 04:37:30.4  -0.2                          T                                        5003195
LPL   001.02 001.7 m E Sg      2012/06/17 04:37:43.9   0.1                          T                1.3  .28 Ml 1.5         5020484
LMR   001.17 186.4 m E Pg      2012/06/17 04:37:33.1   0.0                          T                                        5020489
LMR   001.17 186.4 m E Sg      2012/06/17 04:37:48.7   0.3                          T                 .8  .25 Ml 1.4         5003191
VIVF  001.48 284.6 m E Pn      2012/06/17 04:37:37.4   0.1                          T                                        5003190
VIVF  001.48 284.6 m E Sn      2012/06/17 04:37:56.2   0.1                          T                 .5  .25 Ml 1.3         5003189
LASF  002.08 259.2 m E Pn      2012/06/17 04:37:45.8   0.4                          T                                        5003188
LASF  002.08 259.2 m E Sn      2012/06/17 04:38:10.7   0.4                          T                 .5  .18 Ml 1.7         5003187

.
EVENT     278241
    Date      Time       Latitude Longitude    Depth    Ndef Nsta Gap    Mag1  N    Mag2  N    Mag3  N   Author         ID
       rms   OT_Error      Smajor Sminor Az        Err   mdist  Mdist     Err        Err        Err      Quality

2012/06/17 05:51:46.7     44.4873    6.7251      2.0      36    9 054  Ml 1.5  6  Md 1.8  1              bulletin    278341
                                                                                                         _ldg
      0.35   +-  0.06       1.3    1.0   62.74 +-  0.0    0.24   1.74   +-0.1      +-                    m i ke

FRANCE
Sta     Dist  EvAz     Phase      Date       Time     TRes  Azim  AzRes  Slow  SRes Def   SNR       Amp   Per   Mag1   Mag2       ID
MBDF  000.24 007.8 m E Pg      2012/06/17 05:51:51.7   0.1                          T                                        5003212
MBDF  000.24 007.8 m E Sg      2012/06/17 05:51:55.0   0.0                          T                8.0  .35        Md 1.8  5020491
ORIF  000.74 305.9 m E Pg      2012/06/17 05:52:00.3  -0.4                          T                                        5003208
ORIF  000.74 305.9 m E Sg      2012/06/17 05:52:09.8  -0.6                          T                1.9  .20                5020494
SBF   000.81 140.4 m E Pg      2012/06/17 05:52:02.3   0.3                          T                                        5003207
SBF   000.81 140.4 m E Sg      2012/06/17 05:52:12.6   0.2                          T                1.4  .25                5020499
FRF   000.93 183.5 m E Pg      2012/06/17 05:52:04.5   0.4                          T                                        5020500
FRF   000.93 183.5 m E Sg      2012/06/17 05:52:16.4   0.3                          T                1.7  .20 Ml 1.8         5020498
SMRF  000.97 238.7 m E Pg      2012/06/17 05:52:05.1   0.2                          T                                        5003209
SMRF  000.97 238.7 m E Sn      2012/06/17 05:52:19.5   0.2                          T                 .9  .25 Ml 1.4         5020497
LPG   001.01 001.0 m E Pg      2012/06/17 05:52:05.7  -0.3                          T                                        5020501
LPG   001.01 001.0 m E Sn      2012/06/17 05:52:20.3  -0.3                          T                1.3  .34 Ml 1.4         5020496
LPL   001.03 000.3 m E Pg      2012/06/17 05:52:06.3   0.0                          T                                        5020502
LPL   001.03 000.3 m E Sn      2012/06/17 05:52:20.8  -0.1                          T                1.2  .26 Ml 1.5         5020495
LMR   001.16 187.8 m E Pg      2012/06/17 05:52:08.6   0.2                          T                                        5003210
LMR   001.16 187.8 m E Sg      2012/06/17 05:52:23.9   0.4                          T                  1  .25 Ml 1.5         5003206
VIVF  001.51 284.9 m E Pg      2012/06/17 05:52:14.9   0.1                          T                                        5020493
VIVF  001.51 284.9 m E Sg      2012/06/17 05:52:34.6   0.2                          T                 .7  .27 Ml 1.5         5020492

.
EVENT     278242
    Date      Time       Latitude Longitude    Depth    Ndef Nsta Gap    Mag1  N    Mag2  N    Mag3  N   Author         ID
       rms   OT_Error      Smajor Sminor Az        Err   mdist  Mdist     Err        Err        Err      Quality

2012/06/17 06:56:27.4     48.2820    6.4750      2.0      30   11 112  Ml 1.9  6  Md 2.0  4              bulletin    278342
                                                                                                         _ldg
      0.74   +-  0.07       1.5    1.2  167.91 +-  0.0    0.29   2.42   +-0.3      +-0.1                 m i ke

FRANCE
Sta     Dist  EvAz     Phase      Date       Time     TRes  Azim  AzRes  Slow  SRes Def   SNR       Amp   Per   Mag1   Mag2       ID
HAU   000.29 197.1 m E Pg      2012/06/17 06:56:33.1  -0.1                          T                                        5003217
HAU   000.29 197.1 m E Sg      2012/06/17 06:56:37.1   0.1                          T               15.2  .18        Md 2.1  5003219
THEF  000.33 260.7 m E Pg      2012/06/17 06:56:33.4  -0.4                          T                                        5003216
THEF  000.33 260.7 m E Sg      2012/06/17 06:56:38.2   0.0                          T               16.3  .16        Md 1.8  5003218
HINF  000.53 151.3 m E Pg      2012/06/17 06:56:37.6   0.0                          T                                        5003215
HINF  000.53 151.3 m E Sg      2012/06/17 06:56:44.8   0.2                          T                5.7  .17                5003220
HINF  000.53 151.3 m E Sn      2012/06/17 06:56:48.7  -0.3                          T                3.9  .20        Md 2.0  5003233
CDF   000.55 076.0 m E Pg      2012/06/17 06:56:37.8  -0.2                          T                                        5003214
CDF   000.55 076.0 m E Sg      2012/06/17 06:56:45.1  -0.2                          T                4.3  .33        Md 1.9  5003221
PAGF  000.57 299.0 m E Pg      2012/06/17 06:56:38.2   0.0 118.9  0.5               T                                        5003226
PAGF  000.57 299.0 m E Sg      2012/06/17 06:56:46.1   0.3 120.1  1.7               T                7.1  .26                5005247
SFTF  000.96 265.9 m E Pg      2012/06/17 06:56:45.3  -0.2  88.4  3.5               T                                        5003228
SFTF  000.96 265.9 m E Pn      2012/06/17 06:56:46.0  -0.4                          T                                        5005250
SFTF  000.96 265.9 m E Sn      2012/06/17 06:56:59.7  -0.1  88.2  3.3               T                4.9  .27 Ml 2.1         5005248
MEZF  000.97 283.6 m E Pg      2012/06/17 06:56:46.3   0.6 109.4  6.8               T                                        5005251
MEZF  000.97 283.6 m E Sg      2012/06/17 06:56:57.8  -0.6 106.1  3.5               T                4.1  .28 Ml 2.0         5003232
LANF  001.13 051.1 m E Pg      2012/06/17 06:56:48.5   0.0                          T                                        5005246
LANF  001.13 051.1 m E Sg      2012/06/17 06:57:02.8  -0.3                          T                2.6  .20 Ml 2.0         5005245
CABF  001.69 189.1 m E Pn      2012/06/17 06:56:56.8   0.4                          T                                        5003225
CABF  001.69 189.1 m E Sn      2012/06/17 06:57:17.5   0.1                          T                                        5003234
CABF  001.69 189.1 m E Sg      2012/06/17 06:57:21.3   0.4                          T                 .3  .16 Ml 1.4         5003235
LOR   002.04 241.1 m E Pn      2012/06/17 06:57:01.0   0.0  56.8  -2.3              T                                        5003213
LOR   002.04 241.1 m E Pg      2012/06/17 06:57:05.4   0.1  61.6  2.4               T                                        5003224
LOR   002.04 241.1 m E Sn      2012/06/17 06:57:25.3  -0.2  65.0  5.8               T                                        5003223
LOR   002.04 241.1 m E Sg      2012/06/17 06:57:31.5   0.0  62.5  3.4               T                1.0  .18 Ml 2.0         5003222
SMF   002.42 228.5 m E Pg      2012/06/17 06:57:12.7   0.3                          T                                        5020510
SMF   002.42 228.5 m E Sg      2012/06/17 06:57:43.8   0.2                          T                2.2  .28 Ml 2.2         5005249

.
EVENT     278267
    Date      Time       Latitude Longitude    Depth    Ndef Nsta Gap    Mag1  N    Mag2  N    Mag3  N   Author         ID
       rms   OT_Error      Smajor Sminor Az        Err   mdist  Mdist     Err        Err        Err      Quality

2012/06/17 09:09:46.2     44.4994    6.6966      2.0      20    8 062  Ml 1.4  6  Md 1.7  1              bulletin    278367
                                                                                                         _ldg
      0.25   +-  0.07       1.4    1.1   77.30 +-  0.0    0.23   1.49   +-0.3      +-                    m i ke

FRANCE
Sta     Dist  EvAz     Phase      Date       Time     TRes  Azim  AzRes  Slow  SRes Def   SNR       Amp   Per   Mag1   Mag2       ID
MBDF  000.23 013.2 m E Pg      2012/06/17 09:09:50.8  -0.3                          T                                        5020521
MBDF  000.23 013.2 m E Sg      2012/06/17 09:09:54.5   0.3                          T                6.8  .36        Md 1.7  5020522
ORIF  000.72 306.0 m E Pg      2012/06/17 09:09:59.6  -0.3                          T                                        5020519
ORIF  000.72 306.0 m E Sg      2012/06/17 09:10:09.1  -0.1                          T                1.4  .21                5020520
FRF   000.94 182.2 m E Pg      2012/06/17 09:10:04.1   0.3                          T                                        5020517
FRF   000.94 182.2 m E Sg      2012/06/17 09:10:16.1   0.0                          T                2.0  .22 Ml 1.8         5020518
LPG   001.00 002.2 m E Pg      2012/06/17 09:10:05.5   0.1                          T                                        5020516
LPG   001.00 002.2 m E Sn      2012/06/17 09:10:19.9   0.0                          T                 .7  .22 Ml 1.3         5020513
SMRF  000.96 237.4 m E Sn      2012/06/17 09:10:18.6   0.0                          T                 .8  .30 Ml 1.2         5020514
LPL   001.02 001.4 m E Sn      2012/06/17 09:10:20.3   0.1                          T                1.7  .30 Ml 1.6         5020512
LMR   001.17 186.7 m E Sg      2012/06/17 09:10:23.4   0.0                          T                 .5  .20 Ml 1.3         5020515
VIVF  001.49 284.6 m E Sg      2012/06/17 09:10:33.2   0.0                          T                 .2  .23 Ml 1.1         5020511

.
EVENT     278243
    Date      Time       Latitude Longitude    Depth    Ndef Nsta Gap    Mag1  N    Mag2  N    Mag3  N   Author         ID
       rms   OT_Error      Smajor Sminor Az        Err   mdist  Mdist     Err        Err        Err      Quality

2012/06/17 10:33:58.4     44.4967    6.6767     10.0      23    9 055  Ml 1.7  6  Md 1.8  2              bulletin    278343
                                                                                                         _ldg
      0.25   +-  0.06       1.4    1.1   70.66 +-  0.0    0.11   1.47   +-0.3      +-0.2                 m i ke

FRANCE
Sta     Dist  EvAz     Phase      Date       Time     TRes  Azim  AzRes  Slow  SRes Def   SNR       Amp   Per   Mag1   Mag2       ID
MBDF  000.24 016.3 m E Pg      2012/06/17 10:34:03.5  -0.1                          T                                Md 1.6  5003261
MBDF  000.24 016.3 m E Sg      2012/06/17 10:34:06.9  -0.1                          T                5.9  .22        Md 1.9  5003253
ORIF  000.71 306.9 m E Pg      2012/06/17 10:34:11.6  -0.3                          T                                        5003260
ORIF  000.71 306.9 m E Sg      2012/06/17 10:34:21.2   0.0                          T                2.1  .27                5003252
SBF   000.84 139.0 m E Pg      2012/06/17 10:34:14.0  -0.3                          T                                        5003254
SBF   000.84 139.0 m E Sg      2012/06/17 10:34:25.2   0.0                          T                2.0  .26                5003247
FRF   000.94 181.3 m E Pn      2012/06/17 10:34:15.7  -0.4                          T                                        5003257
FRF   000.94 181.3 m E Sg      2012/06/17 10:34:27.9  -0.4                          T                3.9  .24 Ml 2.0         5003249
SMRF  000.95 237.1 m E Pg      2012/06/17 10:34:16.6   0.3                          T                                        5003256
SMRF  000.95 237.1 m E Sg      2012/06/17 10:34:28.4  -0.2                          T                2.4  .37 Ml 1.6         5003250
LPG   001.00 003.0 m E Pg      2012/06/17 10:34:17.5  -0.1                          T                                        5003255
LPG   001.00 003.0 m E Sg      2012/06/17 10:34:30.6  -0.1                          T                1.8  .27 Ml 1.6         5003251
LMR   001.17 186.0 m E Pn      2012/06/17 10:34:19.4   0.2                          T                                        5003259
LMR   001.17 186.0 m E Pg      2012/06/17 10:34:20.6   0.3                          T                                        5003258
LMR   001.17 186.0 m E Sg      2012/06/17 10:34:35.7   0.3                          T                2.7  .23 Ml 2.0         5003248
LPL   001.02 002.2 m E Sg      2012/06/17 10:34:31.3   0.1                          T                1.2  .26 Ml 1.5         5020524
VIVF  001.47 284.8 m E Sg      2012/06/17 10:34:45.0   0.0                          T                 .6  .31 Ml 1.3         5020523

.
