EVENT     272769
    Date      Time       Latitude Longitude    Depth    Ndef Nsta Gap    Mag1  N    Mag2  N    Mag3  N   Author         ID
       rms   OT_Error      Smajor Sminor Az        Err   mdist  Mdist     Err        Err        Err      Quality

2012/03/31 09:15:29.6     43.9897    7.5418      5.0 f    48    9 068  Ml 2.2  7  Md 2.2  1              js067245    272789

      0.41   +-  0.06       1.2    1.2    1.86 +-  0.0    0.01   2.66   +-0.3      +-                    m i ke

NEAR SOUTH COAST OF FRANCE
Sta     Dist  EvAz     Phase      Date       Time     TRes  Azim  AzRes  Slow  SRes Def   SNR       Amp   Per   Mag1   Mag2       ID
SBF   000.15 211.4 m E Pg      2012/03/31 09:15:32.8  -0.1                          T                                        4899275
SBF   000.15 211.4 m E Sg      2012/03/31 09:15:35.1   0.0                          T              310.1  .28        Md 2.2  4899276
FRF   000.78 236.8 m E Pg      2012/03/31 09:15:44.2   0.0                          T                                        4899273
FRF   000.78 236.8 m E Pn      2012/03/31 09:15:45.5  -0.1                          T                                        4899274
FRF   000.78 236.8 m E Sg      2012/03/31 09:15:54.5   0.0                          T                8.4  .20                4899263
MBDF  000.92 323.4 m E Pg      2012/03/31 09:15:46.9  -0.2                          T                                        4899272
MBDF  000.92 323.4 m E Sg      2012/03/31 09:15:59.0  -0.1                          T                4.7  .22 Ml 2.1         4899260
LMR   001.00 229.2 m E Pg      2012/03/31 09:15:48.0  -0.3                          T                                        4899270
LMR   001.00 229.2 m E Sg      2012/03/31 09:16:00.9  -0.3                          T               14.6  .21 Ml 2.7         4899264
SMRF  001.42 270.1 m E Pn      2012/03/31 09:15:54.6   0.2                          T                                        4899267
SMRF  001.42 270.1 m E Pg      2012/03/31 09:15:56.0  -0.2                          T                                        4899269
SMRF  001.42 270.1 m E Sg      2012/03/31 09:16:14.6   0.1                          T                9.1  .17 Ml 2.7         4899262
ORIF  001.51 308.5 m E Pn      2012/03/31 09:15:55.8   0.1                          T                                        4899268
ORIF  001.51 308.5 m E Pg      2012/03/31 09:15:57.9   0.0                          T                                        4899271
ORIF  001.51 308.5 m E Sg      2012/03/31 09:16:17.6   0.2                          T                2.3  .27 Ml 2.0         4899261
PGF   001.79 143.0 m E Pn      2012/03/31 09:15:59.5  -0.1                          T                                        4899266
PGF   001.79 143.0 m E Sn      2012/03/31 09:16:19.3  -2.1                          T                1.1  .21 Ml 2.1         4899265
LASF  002.66 273.1 m E Pn      2012/03/31 09:16:11.2  -0.1                          T                                        4899258
LASF  002.66 273.1 m E Sn      2012/03/31 09:16:42.5   0.5                          T                1.2  .28 Ml 2.0         4899257
VIVF  002.23 293.8 m E Sn      2012/03/31 09:16:32.1   0.3                          T                1.0  .21 Ml 2.0         4899259

.
EVENT     272770
    Date      Time       Latitude Longitude    Depth    Ndef Nsta Gap    Mag1  N    Mag2  N    Mag3  N   Author         ID
       rms   OT_Error      Smajor Sminor Az        Err   mdist  Mdist     Err        Err        Err      Quality

2012/03/31 11:07:11.5     46.6943    6.7496      2.0      10    6 248  Ml 1.9  5  Md 1.9  1              js067245    272790

      0.21   +-  0.20       4.0    1.3  137.81 +-  0.0    0.46   2.06   +-0.1      +-                    m i ke

SWITZERLAND
Sta     Dist  EvAz     Phase      Date       Time     TRes  Azim  AzRes  Slow  SRes Def   SNR       Amp   Per   Mag1   Mag2       ID
CABF  000.46 259.9 m E Pg      2012/03/31 11:07:20.5   0.0                          T                                        4899285
CABF  000.46 259.9 m E Sg      2012/03/31 11:07:27.0   0.4                          T                6.8  .32        Md 1.9  4899286
HINF  001.13 003.6 m E Pg      2012/03/31 11:07:32.6   0.0                          T                                        4899283
HINF  001.13 003.6 m E Sg      2012/03/31 11:07:47.7   0.6                          T                2.4  .22 Ml 1.9         4899284
CDF   001.76 011.5 m E Pg      2012/03/31 11:07:44.2  -0.1                          T                                        4899277
CDF   001.76 011.5 m E Sg      2012/03/31 11:08:07.0   0.1                          T                 .9  .23 Ml 1.9         4899278
LOR   002.06 287.2 m E Pg      2012/03/31 11:07:49.7  -0.1                          T                                        4899279
LOR   002.06 287.2 m E Sg      2012/03/31 11:08:16.2  -0.1                          T                 .6  .22 Ml 1.7         4899280
HAU   001.34 348.4 m E Sg      2012/03/31 11:07:53.7  -0.2                          T                4.1  .30 Ml 1.9         4899282
SMF   002.00 269.7 m E Sg      2012/03/31 11:08:14.4  -0.2                          T                1.6  .28 Ml 2.0         4899281

.
EVENT     272771
    Date      Time       Latitude Longitude    Depth    Ndef Nsta Gap    Mag1  N    Mag2  N    Mag3  N   Author         ID
       rms   OT_Error      Smajor Sminor Az        Err   mdist  Mdist     Err        Err        Err      Quality

2012/03/31 18:33:12.3     44.2580    7.2644     10.0 f    43    9 092  Ml 1.6  6  Md 1.8  2              js067245    272791

      0.22   +-  0.03        .7     .5   55.23 +-  0.0    0.05   1.95   +-0.5      +-0.1                 m i ke

NORTHERN ITALY
Sta     Dist  EvAz     Phase      Date       Time     TRes  Azim  AzRes  Slow  SRes Def   SNR       Amp   Per   Mag1   Mag2       ID
SBF   000.41 162.6 m E Pg      2012/03/31 18:33:20.4   0.0                          T                                        4899303
SBF   000.41 162.6 m E Sg      2012/03/31 18:33:25.8  -0.2                          T                6.4  .22        Md 1.9  4899295
MBDF  000.59 323.2 m E Pg      2012/03/31 18:33:23.6  -0.1                          T                                        4899305
MBDF  000.59 323.2 m E Sg      2012/03/31 18:33:31.7   0.2                          T                7.7  .27        Md 1.8  4899288
FRF   000.83 212.8 m E Pg      2012/03/31 18:33:27.7  -0.2                          T                                        4899304
FRF   000.83 212.8 m E Sg      2012/03/31 18:33:38.8   0.0                          T                2.5  .19                4899293
LMR   001.07 210.9 m E Pg      2012/03/31 18:33:32.4   0.0                          T                                        4899296
LMR   001.07 210.9 m E Sg      2012/03/31 18:33:46.3  -0.1                          T                 10  .26 Ml 2.4         4899294
ORIF  001.19 304.2 m E Pg      2012/03/31 18:33:34.8   0.1                          T                                        4899300
ORIF  001.19 304.2 m E Sg      2012/03/31 18:33:50.3   0.2                          T                 .5  .17 Ml 1.3         4899289
SMRF  001.25 257.5 m E Pg      2012/03/31 18:33:35.8   0.1                          T                                        4899297
SMRF  001.25 257.5 m E Sg      2012/03/31 18:33:52.0   0.1                          T                1.7  .22 Ml 1.8         4899292
LPG   001.29 343.8 m E Pg      2012/03/31 18:33:36.9   0.1                          T                                        4899298
LPG   001.29 343.8 m E Sg      2012/03/31 18:33:53.4  -0.2                          T                 .5  .20 Ml 1.3         4899291
LPL   001.31 343.5 m E Pg      2012/03/31 18:33:37.0  -0.1                          T                                        4899299
LPL   001.31 343.5 m E Sg      2012/03/31 18:33:53.8  -0.3                          T                 .9  .25 Ml 1.5         4899290
VIVF  001.95 288.8 m E Pn      2012/03/31 18:33:43.8   0.0                          T                                        4899302
VIVF  001.95 288.8 m E Pg      2012/03/31 18:33:48.2  -0.3                          T                                        4899301
VIVF  001.95 288.8 m E Sg      2012/03/31 18:34:13.7   0.0                          T                 .2  .18 Ml 1.3         4899287

.
