EVENT     272772
    Date      Time       Latitude Longitude    Depth    Ndef Nsta Gap    Mag1  N    Mag2  N    Mag3  N   Author         ID
       rms   OT_Error      Smajor Sminor Az        Err   mdist  Mdist     Err        Err        Err      Quality

2012/04/01 09:09:58.4     42.9546     .1725     15.0       8    4 189  Ml 1.5  3  Md 1.4  2              js067245    272792

      0.13   +-  0.06       4.7     .6  170.06 +-  0.0    0.14   1.55   +-0.3      +-0.1                 m i ke

PYRENEES
Sta     Dist  EvAz     Phase      Date       Time     TRes  Azim  AzRes  Slow  SRes Def   SNR       Amp   Per   Mag1   Mag2       ID
EPF   000.14 058.3 m E Pg      2012/04/01 09:10:02.3  -0.2                          T                                        4899646
EPF   000.14 058.3 m E Sg      2012/04/01 09:10:05.0  -0.2                          T                5.8  .18        Md 1.3  4899645
ETSF  000.54 264.3 m E Pg      2012/04/01 09:10:09.0  -0.1                          T                                        4899643
ETSF  000.54 264.3 m E Sg      2012/04/01 09:10:16.3  -0.2                          T                2.7  .20        Md 1.5  4899644
SJPF  001.04 279.3 m E Sg      2012/04/01 09:10:31.5  -0.1                          T                 .5  .23 Ml 1.2         4899642
MTLF  001.55 074.8 m E Sg      2012/04/01 09:10:47.3  -0.1                          T                 .7  .22 Ml 1.6         4899647

.
EVENT     272773
    Date      Time       Latitude Longitude    Depth    Ndef Nsta Gap    Mag1  N    Mag2  N    Mag3  N   Author         ID
       rms   OT_Error      Smajor Sminor Az        Err   mdist  Mdist     Err        Err        Err      Quality

2012/04/01 10:22:12.1     44.7640   11.3398     41.1      71   17 073                                    js067245    272793

                                               +-         0.16   6.59                                    m i ke

NORTHERN ITALY
Sta     Dist  EvAz     Phase      Date       Time     TRes  Azim  AzRes  Slow  SRes Def   SNR       Amp   Per   Mag1   Mag2       ID
PGF   002.79 218.3 m E Pn      2012/04/01 10:22:53.9   0.1                          T                                        4899676
PGF   002.79 218.3 m E Sn      2012/04/01 10:23:24.6  -0.2                          T                4.8  .32                4899677
SBF   002.94 253.6 m E Pn      2012/04/01 10:22:55.5  -0.3                          T                                        4899682
SBF   002.94 253.6 m E Sn      2012/04/01 10:23:28.9   0.5                          T               21.5  .33                4899673
MBDF  003.26 271.0 m E Pn      2012/04/01 10:23:00.2   0.0                          T                                        4899656
MBDF  003.26 271.0 m E Sn      2012/04/01 10:23:36.3   0.4                          T                9.0  .58                4899869
FRF   003.58 252.0 m E Pn      2012/04/01 10:23:04.5   0.1                          T                                        4899680
FRF   003.58 252.0 m E P       2012/04/01 10:23:07.9   1.1                          T                                        4899865
FRF   003.58 252.0 m E Sn      2012/04/01 10:23:42.4  -1.1                          T                3.0  .23                4899675
LMR   003.76 249.4 m E Pn      2012/04/01 10:23:06.7  -0.1                          T                                        4899681
LMR   003.76 249.4 m E P       2012/04/01 10:23:09.6   0.4                          T                                        4899678
LMR   003.76 249.4 m E Sn      2012/04/01 10:23:46.9  -0.8                          T                5.4  .24                4899674
ORIF  003.89 274.2 m E P       2012/04/01 10:23:10.6  -0.5                          T                                        4899679
ORIF  003.89 274.2 m E Sn      2012/04/01 10:23:51.7   0.9                          T                3.6  .36                4899866
CABF  004.12 298.5 m E Pn      2012/04/01 10:23:12.4   0.7                          T                                        4899669
HINF  004.36 316.1 m E Pn      2012/04/01 10:23:15.0   0.1                          T                                        4899670
HINF  004.36 316.1 m E Sn      2012/04/01 10:24:02.0   0.1                          T                1.6  .28                4899662
CDF   004.60 323.9 m E Pn      2012/04/01 10:23:18.6   0.3                          T                                        4899667
CDF   004.60 323.9 m E Sn      2012/04/01 10:24:08.0   0.3                          T                2.2  .30                4899657
VIVF  004.75 273.5 m E Pn      2012/04/01 10:23:19.5  -0.6                          T                                        4899671
VIVF  004.75 273.5 m E Sn      2012/04/01 10:24:11.2   0.1                          T                1.1  .24                4899672
HAU   004.74 315.0 m E Pn      2012/04/01 10:23:20.3   0.3                          T                                        4899668
HAU   004.74 315.0 m E Sn      2012/04/01 10:24:10.6  -0.2                          T                3.5  .28                4899658
SMF   005.58 292.4 m E Pn      2012/04/01 10:23:31.4   0.0                          T                                        4899660
SMF   005.58 292.4 m E Sn      2012/04/01 10:24:32.1   1.2                          T                1.7  .24                4899659
LOR   005.78 298.3 m E Pn      2012/04/01 10:23:34.2   0.1 121.1  8.2               T                                        4899665
LOR   005.78 298.3 m E Sn      2012/04/01 10:24:35.6  -0.1 135.7  22.8              T                2.0  .31                4899663
AVF   005.94 292.8 m E Pn      2012/04/01 10:23:36.4   0.1                          T                                        4899661
SSF   005.93 295.6 m E Pn      2012/04/01 10:23:36.5   0.3                          T                                        4899664
BGF   006.22 289.8 m E Pn      2012/04/01 10:23:40.0  -0.1                          T                                        4899868
TCF   006.59 286.6 m E Pn      2012/04/01 10:23:45.7   0.5                          T                                        4899666
TCF   006.59 286.6 m E Sn      2012/04/01 10:24:54.4  -0.6                          T                1.6  .22                4899870

.
EVENT     272774
    Date      Time       Latitude Longitude    Depth    Ndef Nsta Gap    Mag1  N    Mag2  N    Mag3  N   Author         ID
       rms   OT_Error      Smajor Sminor Az        Err   mdist  Mdist     Err        Err        Err      Quality

2012/04/01 13:51:31.6     44.5118    6.6863      2.0      26    6 047  Ml 1.7  3  Md 1.9  2              js067245    272794

      0.69   +-  0.08       2.1    1.4   42.97 +-  0.0    0.10   1.48   +-0.4      +-0.0                 m i ke

FRANCE
Sta     Dist  EvAz     Phase      Date       Time     TRes  Azim  AzRes  Slow  SRes Def   SNR       Amp   Per   Mag1   Mag2       ID
MBDF  000.22 015.8 m E Pg      2012/04/01 13:51:36.1  -0.2                          T                                        4900127
MBDF  000.22 015.8 m E Sg      2012/04/01 13:51:39.6   0.2                          T                8.0  .22        Md 1.9  4900125
ORIF  000.70 305.5 m E Pg      2012/04/01 13:51:44.7  -0.3                          T                                        4900126
ORIF  000.70 305.5 m E Sg      2012/04/01 13:51:53.4  -0.8                          T                3.0  .20                4900124
SBF   000.84 140.0 m E Pg      2012/04/01 13:51:47.9   0.3                          T                                        4900121
SBF   000.84 140.0 m E Sg      2012/04/01 13:51:59.1   0.5                          T                2.9  .23        Md 1.9  4900118
SMRF  000.96 236.5 m E Pn      2012/04/01 13:51:50.9   0.3                          T                                        4900120
SMRF  000.96 236.5 m E Sn      2012/04/01 13:52:04.7   0.7                          T                1.1  .23 Ml 1.5         4900119
LMR   001.18 186.3 m E Pg      2012/04/01 13:51:54.1   0.3                          T                                        4900123
LMR   001.18 186.3 m E Sg      2012/04/01 13:52:08.7  -0.4                          T                3.3  .18 Ml 2.2         4900122
VIVF  001.48 284.2 m E P       2012/04/01 13:51:59.8   0.4                          T                                        4900116
VIVF  001.48 284.2 m E Sg      2012/04/01 13:52:19.4   1.1                          T                1.2  .34 Ml 1.6         4900117

.
EVENT     272775
    Date      Time       Latitude Longitude    Depth    Ndef Nsta Gap    Mag1  N    Mag2  N    Mag3  N   Author         ID
       rms   OT_Error      Smajor Sminor Az        Err   mdist  Mdist     Err        Err        Err      Quality

2012/04/01 19:21:27.6     39.7853   15.5300    275.6 f   131   22 150                                    js067245    272795

      1.17   +-  0.23       6.4    3.5  169.63 +-  0.0    0.30  76.79                                    m i ke

SOUTHERN ITALY
Sta     Dist  EvAz     Phase      Date       Time     TRes  Azim  AzRes  Slow  SRes Def   SNR       Amp   Per   Mag1   Mag2       ID
PGF   005.65 301.4 m E P       2012/04/01 19:22:52.4  -0.4                          T                                        4900468
SBF   007.29 306.6 m E P       2012/04/01 19:23:13.6   0.6                          T                                        4900467
FRF   007.64 302.4 m E P       2012/04/01 19:23:17.2  -0.1                          T                                        4900466
MBDF  008.16 310.1 m E P       2012/04/01 19:23:25.7   1.7                          T                                        4900286
LPG   008.63 314.3 m E P       2012/04/01 19:23:31.3   1.3                          T                                        4900283
LPL   008.65 314.3 m E P       2012/04/01 19:23:31.5   1.3                          T                                        4900284
ORIF  008.79 308.8 m E P       2012/04/01 19:23:33.6   1.7                          T                                        4900285
CABF  009.69 317.8 m E P       2012/04/01 19:23:42.2  -0.9                          T                                        4900281
HINF  010.18 324.9 m E P       2012/04/01 19:23:48.3  -0.8                          T                                        4900280
CDF   010.46 328.2 m E P       2012/04/01 19:23:52.6  -0.1                          T                9.6  .37                4900277
HAU   010.55 324.2 m E P       2012/04/01 19:23:53.2  -0.5                          T                                        4900279
SMF   010.94 312.6 m E P       2012/04/01 19:23:57.0  -1.4                          T                                        4900272
THEF  010.87 324.0 m E P       2012/04/01 19:23:58.0   0.3                          T                                        4900278
AVF   011.30 312.3 m E P       2012/04/01 19:24:01.7  -1.2                          T                                        4900273
LOR   011.29 315.3 m E P       2012/04/01 19:24:01.8  -1.1 124.9  -2.4              T                                        4900276
SSF   011.36 313.7 m E P       2012/04/01 19:24:02.1  -1.7                          T                                        4900275
PAGF  011.24 324.5 m E P       2012/04/01 19:24:02.6   0.4                          T                                        4900274
MEZF  011.50 322.7 m E P       2012/04/01 19:24:09.3   3.8 136.8  1.5               T                                        4900270
ETSF  012.49 289.6 m E P       2012/04/01 19:24:18.0   0.2                          T                                        4900282
SJPF  013.00 290.2 m E P       2012/04/01 19:24:24.6   0.5                          T                                        4900267
BAIF  013.02 325.8 m E P       2012/04/01 19:24:25.4   1.3                          T                1.4  .30                4900269
LDF   014.25 313.3 m E P       2012/04/01 19:24:37.3  -1.7                          T                2.7  .48                4900271

.
EVENT     272776
    Date      Time       Latitude Longitude    Depth    Ndef Nsta Gap    Mag1  N    Mag2  N    Mag3  N   Author         ID
       rms   OT_Error      Smajor Sminor Az        Err   mdist  Mdist     Err        Err        Err      Quality

2012/04/01 22:44:46.3     43.6805    7.3830      4.0 f     9    4 230  Ml 2.0  1  Md 1.8  3              js067245    272796

      0.22   +-  0.19       4.7    1.6  133.71 +-  0.0    0.19   1.34   +-         +-0.0                 m i ke

NEAR SOUTH COAST OF FRANCE
Sta     Dist  EvAz     Phase      Date       Time     TRes  Azim  AzRes  Slow  SRes Def   SNR       Amp   Per   Mag1   Mag2       ID
SBF   000.19 011.7 m E Pg      2012/04/01 22:44:50.1  -0.1                          T                                        4900293
SBF   000.19 011.7 m E Sg      2012/04/01 22:44:53.3   0.5                          T               26.5  .24        Md 1.8  4900288
FRF   000.55 257.6 m E Pg      2012/04/01 22:44:56.6  -0.1                          T                                        4900291
FRF   000.55 257.6 m E Sg      2012/04/01 22:45:03.7  -0.2                          T                1.7  .20        Md 1.7  4900325
FRF   000.55 257.6 m E Sn      2012/04/01 22:45:08.4   0.1                          T                                        4900326
LMR   000.72 241.7 m E Pg      2012/04/01 22:44:59.9   0.0                          T                                        4900292
LMR   000.72 241.7 m E Sg      2012/04/01 22:45:09.9   0.5                          T               11.7  .28        Md 1.8  4900289
SMRF  001.34 283.3 m E Pg      2012/04/01 22:45:11.4   0.0                          T                                        4900290
SMRF  001.34 283.3 m E Sg      2012/04/01 22:45:28.6  -0.1                          T                2.9  .29 Ml 2.0         4900287

.
EVENT     272777
    Date      Time       Latitude Longitude    Depth    Ndef Nsta Gap    Mag1  N    Mag2  N    Mag3  N   Author         ID
       rms   OT_Error      Smajor Sminor Az        Err   mdist  Mdist     Err        Err        Err      Quality

2012/04/02 03:16:19.7     43.0990   -1.0751      5.0 f    16    3 161  Ml 1.5  1  Md 1.5  2              js067245    272797

      0.57   +-  0.15       3.9    2.0    7.45 +-  0.0    0.11   2.37   +-         +-0.3                 m i ke

PYRENEES
Sta     Dist  EvAz     Phase      Date       Time     TRes  Azim  AzRes  Slow  SRes Def   SNR       Amp   Per   Mag1   Mag2       ID
SJPF  000.11 277.5 m E Pg      2012/04/02 03:16:23.0   0.7                          T                                        4900332
SJPF  000.11 277.5 m E Sg      2012/04/02 03:16:25.1   1.1                          T                6.8  .18        Md 1.7  4900330
ETSF  000.43 117.7 m E Pg      2012/04/02 03:16:27.9  -0.2                          T                                        4900331
ETSF  000.43 117.7 m E Sg      2012/04/02 03:16:33.9   0.1                          T                5.5  .24        Md 1.4  4900329
EPF   001.04 093.3 m E Pg      2012/04/02 03:16:39.4   0.1                          T                                        4900327
EPF   001.04 093.3 m E Sg      2012/04/02 03:16:52.4  -0.3                          T                1.2  .28 Ml 1.5         4900328

.
EVENT     272778
    Date      Time       Latitude Longitude    Depth    Ndef Nsta Gap    Mag1  N    Mag2  N    Mag3  N   Author         ID
       rms   OT_Error      Smajor Sminor Az        Err   mdist  Mdist     Err        Err        Err      Quality

2012/04/02 05:00:56.0     43.1154   -1.0955     15.0      10    2 166             Md 1.2  2              js067245    272798

      0.23   +-  0.09       2.4    1.4    3.73 +-  0.0    0.09   0.45              +-0.2                 m i ke

PYRENEES
Sta     Dist  EvAz     Phase      Date       Time     TRes  Azim  AzRes  Slow  SRes Def   SNR       Amp   Per   Mag1   Mag2       ID
SJPF  000.09 268.8 m E Pg      2012/04/02 05:01:00.0   0.7                          T                                        4900336
SJPF  000.09 268.8 m E Sg      2012/04/02 05:01:02.0   0.3                          T                2.2  .22        Md 1.1  4900333
ETSF  000.45 118.7 m E Pg      2012/04/02 05:01:05.0   0.0                          T                                        4900335
ETSF  000.45 118.7 m E Sg      2012/04/02 05:01:11.0  -0.2                          T                2.4  .26        Md 1.3  4900334

.
EVENT     272779
    Date      Time       Latitude Longitude    Depth    Ndef Nsta Gap    Mag1  N    Mag2  N    Mag3  N   Author         ID
       rms   OT_Error      Smajor Sminor Az        Err   mdist  Mdist     Err        Err        Err      Quality

2012/04/02 05:04:47.3     42.8859     .0293      3.0 f     7    4 198  Ml 1.1  2  Md 1.3  2              js067245    272799

      0.07   +-  0.06       3.1     .5  170.84 +-  0.0    0.27   1.67   +-0.4      +-0.1                 m i ke

PYRENEES
Sta     Dist  EvAz     Phase      Date       Time     TRes  Azim  AzRes  Slow  SRes Def   SNR       Amp   Per   Mag1   Mag2       ID
EPF   000.27 057.6 m E Pg      2012/04/02 05:04:52.8   0.1                          T                                        4900340
EPF   000.27 057.6 m E Sg      2012/04/02 05:04:56.2  -0.2                          T                2.5  .20        Md 1.3  4900337
ETSF  000.43 271.9 m E Pg      2012/04/02 05:04:55.7   0.0                          T                                        4900339
ETSF  000.43 271.9 m E Sg      2012/04/02 05:05:01.5   0.1                          T                7.6  .32        Md 1.2  4900338
MTLF  001.67 073.4 m E Pn      2012/04/02 05:05:15.7   0.0                          T                                        4900530
MTLF  001.67 073.4 m E Sg      2012/04/02 05:05:39.8   0.0                          T                 .5  .23 Ml 1.4         4900531
SJPF  000.95 284.3 m E Sg      2012/04/02 05:05:17.5   0.0                          T                 .2  .20 Ml  .8         4900532

.
