EVENT     263709
    Date      Time       Latitude Longitude    Depth    Ndef Nsta Gap    Mag1  N    Mag2  N    Mag3  N   Author         ID
       rms   OT_Error      Smajor Sminor Az        Err   mdist  Mdist     Err        Err        Err      Quality

2011/09/08 19:02:48.8     51.7613    6.0764     10.0 f   249   45 051  Ml 4.6 63  Md 4.4  3              js067245    263709

      2.40   +-  0.15       3.6    3.4  130.72 +-  0.0    0.24  51.83   +-0.3      +-0.0                 m i ke

GERMANY
Sta     Dist  EvAz     Phase      Date       Time     TRes  Azim  AzRes  Slow  SRes Def   SNR       Amp   Per   Mag1   Mag2       ID
GIVF  001.84 206.0 m E P       2011/09/08 19:03:19.9  -1.0                          T                                        4760075
GIVF  001.84 206.0 m E Pg      2011/09/08 19:03:22.7  -0.3                          T   001.0                                4747380
GIVF  001.84 206.0 m E Sn      2011/09/08 19:03:39.4  -1.3                          T   001.0                                4747381
GIVF  001.84 206.0 m E Sg      2011/09/08 19:03:45.8  -1.0                          T   001.0     2307.6  .32 Ml 5.0 Md 4.3  4747382
BAIF  002.07 215.5 m E P       2011/09/08 19:03:23.4  -0.8                          T                                        4760076
BAIF  002.07 215.5 m E Pg      2011/09/08 19:03:26.8  -0.5                          T   001.0                                4747376
BAIF  002.07 215.5 m E Sn      2011/09/08 19:03:45.0  -1.3                          T   001.0     1166.6  .40 Ml 4.7         4747377
BAIF  002.07 215.5 m E Sg      2011/09/08 19:03:53.7  -0.3                          T             1228.4  .40 Ml 4.7 Md 4.4  4760026
RUP   002.16 162.8 m E Pn      2011/09/08 19:03:23.7   0.6                          T                                        4752502
RUP   002.16 162.8 m E P       2011/09/08 19:03:28.5   3.0                          T                                        4760077
RUP   002.16 162.8 m E S       2011/09/08 19:03:52.1  -0.6                          T                                        4760073
LANF  003.00 157.6 m E Pn      2011/09/08 19:03:35.9   1.4                          T                                        4752501
LANF  003.00 157.6 m E P       2011/09/08 19:03:43.8   6.3                          T                                        4760078
LANF  003.00 157.6 m E Sn      2011/09/08 19:04:07.1  -1.2                          T                                        4760072
PAGF  003.22 184.2 m E Pn      2011/09/08 19:03:38.6   1.1   1.8  -2.1              T                                        4752506
PAGF  003.22 184.2 m E P       2011/09/08 19:03:47.3   6.7 359.3  -4.6              T                                        4760080
PAGF  003.22 184.2 m E Sg      2011/09/08 19:04:27.1  -2.6   3.3  -0.6              T              359.5  .63 Ml 4.2         4760027
MEZF  003.33 191.8 m E Pn      2011/09/08 19:03:40.1   1.1  12.6  1.6               T   001.0                                4747335
MEZF  003.33 191.8 m E P       2011/09/08 19:03:49.9   7.7   3.6  -7.5              T                                        4760081
MEZF  003.33 191.8 m E Sn      2011/09/08 19:04:15.0  -1.2                          T   001.0     1809.9  .52 Ml 5.0         4747336
MEZF  003.33 191.8 m E Sg      2011/09/08 19:04:30.1  -3.2   7.0  -4.0              T             2124.4  .56 Ml 5.1         4760028
CDF   003.44 166.6 m E Pn      2011/09/08 19:03:41.2   0.6                          T   001.0                                4747354
CDF   003.44 166.6 m E Sg      2011/09/08 19:04:35.4  -1.4                          T                                        4752510
THEF  003.54 180.9 m E Pn      2011/09/08 19:03:42.5   0.6                          T                                        4752504
THEF  003.54 180.9 m E Pg      2011/09/08 19:03:54.2  -0.1                          T                                        4752509
THEF  003.54 180.9 m E Sg      2011/09/08 19:04:37.6  -2.2                          T             1857.0  .61 Ml 5.0         4760030
SFTF  003.62 191.1 m E Pn      2011/09/08 19:03:44.1   1.1  14.6  4.4               T                                        4752505
SFTF  003.62 191.1 m E P       2011/09/08 19:03:54.9   8.6   4.8  -5.4              T                                        4760079
SFTF  003.62 191.1 m E Sg      2011/09/08 19:04:40.4  -2.0                          T              877.4  .41 Ml 4.9         4760029
HAU   003.76 177.2 m E Pn      2011/09/08 19:03:45.9   0.9                          T   001.0                                4747359
HAU   003.76 177.2 m E P       2011/09/08 19:03:58.0   9.6                          T                                        4760082
HAU   003.76 177.2 m E Sg      2011/09/08 19:04:45.0  -1.8                          T   001.0        650  .32 Ml 4.7         4747360
HINF  003.98 172.4 m E Pn      2011/09/08 19:03:48.7   0.8                          T   001.0                                4747346
HINF  003.98 172.4 m E Sn      2011/09/08 19:04:30.5  -1.3                          T              146.0  .44 Ml 4.2         4760071
HINF  003.98 172.4 m E Sg      2011/09/08 19:04:52.9  -0.7                          T              432.9  .50 Ml 4.6         4760031
LOR   004.72 198.7 m E Pn      2011/09/08 19:03:58.8   0.7  15.3  -1.7              T   001.0                                4747366
LOR   004.72 198.7 m E Sn      2011/09/08 19:04:49.3  -0.3                          T   001.0      247.2  .38 Ml 4.6         4747367
LOR   004.72 198.7 m E Sg      2011/09/08 19:05:15.4  -1.4  16.4  -0.6              T              712.0  .48 Ml 5.0 Md 4.4  4760023
SSF   004.99 200.6 m E Pn      2011/09/08 19:04:02.3   0.6                          T   001.0                                4747373
SSF   004.99 200.6 m E Sn      2011/09/08 19:04:55.7  -0.4                          T   001.0      131.7  .24 Ml 4.7         4747374
SSF   004.99 200.6 m E Sg      2011/09/08 19:05:23.5  -1.7                          T              456.0  .44 Ml 5.0         4760024
HYF   005.02 207.8 m E Pn      2011/09/08 19:04:03.6   1.5                          T                                        4752503
HYF   005.02 207.8 m E Sn      2011/09/08 19:04:55.2  -1.5                          T                                        4760069
HYF   005.02 207.8 m E Sg      2011/09/08 19:05:24.9  -1.2                          T                                        4760034
LDF   005.09 233.9 m E Pn      2011/09/08 19:04:04.9   1.9                          T   001.0                                4747362
LDF   005.09 233.9 m E Sn      2011/09/08 19:04:58.4   0.1                          T              159.7  .24 Ml 4.7         4760063
LDF   005.09 233.9 m E Sg      2011/09/08 19:05:28.0  -0.2                          T              203.2  .40 Ml 4.6         4760040
CABF  005.16 179.9 m E Pn      2011/09/08 19:04:05.1   1.1                          T   001.0                                4747378
CABF  005.16 179.9 m E Sg      2011/09/08 19:05:27.8  -2.6                          T              895.3  .72 Ml 5.0         4760032
FLN   005.17 237.0 m E Pn      2011/09/08 19:04:05.9   1.9  52.9  0.9               T   001.0                                4747356
FLN   005.17 237.0 m E Sn      2011/09/08 19:05:00.1   0.0  55.9  3.9               T              231.9  .26 Ml 4.7         4760064
FLN   005.17 237.0 m E Sg      2011/09/08 19:05:30.2  -0.4                          T              364.0  .50 Ml 4.6         4760039
AVF   005.28 200.8 m E Pn      2011/09/08 19:04:06.1   0.5                          T   001.0                                4747348
AVF   005.28 200.8 m E Sn      2011/09/08 19:05:01.2  -1.8                          T   001.0                                4747349
AVF   005.28 200.8 m E Sg      2011/09/08 19:05:29.6  -4.6                          T   001.0      424.6  .72 Ml 4.7         4747350
SMF   005.33 196.8 m E Pn      2011/09/08 19:04:06.9   0.7                          T   001.0                                4747372
SMF   005.33 196.8 m E Sn      2011/09/08 19:05:03.5  -0.4                          T              132.6  .30 Ml 4.6         4760070
SMF   005.33 196.8 m E Sg      2011/09/08 19:05:30.9  -4.7                          T              470.3  .42 Ml 5.0         4760033
BGF   005.62 203.4 m E Pn      2011/09/08 19:04:11.0   0.7                          T   001.0                                4747351
BGF   005.62 203.4 m E Sn      2011/09/08 19:05:09.9  -1.1                          T                                        4760068
BGF   005.62 203.4 m E Sg      2011/09/08 19:05:43.7  -1.1                          T              782.8  .40 Ml 5.3         4760035
GRR   005.60 235.6 m E Pn      2011/09/08 19:04:11.6   1.8                          T   001.0                                4747358
GRR   005.60 235.6 m E Sn      2011/09/08 19:05:09.7  -0.7                          T              536.6  .34 Ml 5.1         4752512
GRR   005.60 235.6 m E Sg      2011/09/08 19:05:43.6  -0.4                          T              255.2  .54 Ml 4.5         4760041
TCF   006.04 206.4 m E Pn      2011/09/08 19:04:16.5   0.5                          T   001.0                                4747375
TCF   006.04 206.4 m E Sn      2011/09/08 19:05:19.3  -1.7                          T               90.6  .52 Ml 4.4         4760074
TCF   006.04 206.4 m E Sg      2011/09/08 19:05:56.9  -1.0                          T              223.0  .50 Ml 4.8         4760025
LPL   006.27 175.8 m E Pn      2011/09/08 19:04:20.8   1.5                          T   001.0                                4747369
LPL   006.27 175.8 m E Sg      2011/09/08 19:06:02.9  -2.2                          T               73.7  .64 Ml 4.2         4760053
LPG   006.28 175.7 m E Pn      2011/09/08 19:04:21.2   1.6                          T   001.0                                4747368
LPG   006.28 175.7 m E Sg      2011/09/08 19:06:04.5  -1.3                          T              191.3  .96 Ml 4.5         4760054
SGMF  006.58 241.1 m E Pn      2011/09/08 19:04:24.5   1.2                          T   001.0                                4747341
SGMF  006.58 241.1 m E Sn      2011/09/08 19:05:32.6  -1.3                          T               56.8  .26 Ml 4.5         4760066
SGMF  006.58 241.1 m E Sg      2011/09/08 19:06:13.7  -0.9                          T              213.0  .68 Ml 4.7         4760038
MFF   006.58 220.7 m E Pn      2011/09/08 19:04:24.6   1.3                          T   001.0                                4747370
MFF   006.58 220.7 m E Sn      2011/09/08 19:05:32.8  -1.1                          T              142.1  .33 Ml 5.0         4752511
MFF   006.58 220.7 m E Sg      2011/09/08 19:06:13.5  -1.1                          T   001.0      169.9  .58 Ml 4.8         4747371
ORIF  006.85 181.2 m E Pn      2011/09/08 19:04:28.3   1.2                          T   001.0                                4747338
ORIF  006.85 181.2 m E Sg      2011/09/08 19:06:22.2  -1.0                          T              130.3  .60 Ml 4.6         4760052
VIVF  006.97 188.3 m E Pn      2011/09/08 19:04:29.3   0.6                          T   001.0                                4747343
VIVF  006.97 188.3 m E Sn      2011/09/08 19:05:42.3  -1.1                          T   001.0       46.7  .44 Ml 4.3         4747344
VIVF  006.97 188.3 m E Sg      2011/09/08 19:06:24.5  -2.5                          T              105.3  .50 Ml 4.6         4760050
ROSF  006.93 244.0 m E Pn      2011/09/08 19:04:29.4   1.4                          T   001.0                                4747340
ROSF  006.93 244.0 m E Sn      2011/09/08 19:05:42.0  -0.2                          T               93.4  .38 Ml 4.6         4760067
ROSF  006.93 244.0 m E Sg      2011/09/08 19:06:25.8   0.3                          T              139.4  .68 Ml 4.6         4760037
RJF   007.13 206.9 m E Pn      2011/09/08 19:04:30.9   0.0                          T   001.0                                4747347
RJF   007.13 206.9 m E Sn      2011/09/08 19:05:46.5  -0.7                          T               65.0  .48 Ml 4.1         4760062
RJF   007.13 206.9 m E Sg      2011/09/08 19:06:31.6  -0.3                          T              286.6  .73 Ml 4.5         4760042
QUIF  007.11 240.8 m E Pn      2011/09/08 19:04:31.3   0.9                          T   001.0                                4747339
QUIF  007.11 240.8 m E Sn      2011/09/08 19:05:46.2  -0.3                          T               82.1  .36 Ml 4.6         4760065
MBDF  007.05 176.0 m E Pn      2011/09/08 19:04:32.2   2.3                          T   001.0                                4747334
MBDF  007.05 176.0 m E Sg      2011/09/08 19:06:28.2  -1.5                          T               68.0  .64 Ml 4.3         4760051
CAF   007.34 202.9 m E Pn      2011/09/08 19:04:33.8   0.1                          T   001.0                                4747352
CAF   007.34 202.9 m E Sn      2011/09/08 19:05:51.3  -0.9                          T   001.0       62.4  .56 Ml 4.4         4747353
CAF   007.34 202.9 m E Sg      2011/09/08 19:06:36.9  -1.6                          T              147.4  .56 Ml 4.7         4760044
LFF   007.69 209.6 m E Pn      2011/09/08 19:04:39.1   0.6                          T   001.0                                4747363
LFF   007.69 209.6 m E Sn      2011/09/08 19:05:59.3  -1.2                          T   001.0       89.5  .40 Ml 4.5         4747364
LFF   007.69 209.6 m E Sg      2011/09/08 19:06:48.7  -0.7                          T              368.1  .66 Ml 4.9         4760043
SMRF  007.80 182.7 m E Pn      2011/09/08 19:04:40.8   0.8                          T   001.0                                4747345
SMRF  007.80 182.7 m E Sg      2011/09/08 19:06:52.5  -0.2                          T               48.0  .81 Ml 4.2         4760055
LASF  007.83 191.8 m E Pn      2011/09/08 19:04:41.3   1.0                          T   001.0                                4747361
LASF  007.83 191.8 m E Sg      2011/09/08 19:06:54.5   0.7                          T              124.9  .60 Ml 4.7         4760049
SBF   007.96 172.9 m E Pn      2011/09/08 19:04:42.4   0.3                          T                                        4760084
SBF   007.96 172.9 m E Sn      2011/09/08 19:06:06.7  -0.2                          T               63.6  .72 Ml 4.4         4760058
FRF   008.21 177.1 m E Pn      2011/09/08 19:04:46.8   1.3                          T   001.0                                4747357
FRF   008.21 177.1 m E Sg      2011/09/08 19:07:06.6   0.9                          T               76.4 1.02 Ml 4.4         4760056
LMR   008.44 177.8 m E Pn      2011/09/08 19:04:49.6   1.0                          T   001.0                                4747365
LMR   008.44 177.8 m E Sg      2011/09/08 19:07:11.8  -0.8                          T               28.3  .84 Ml 4.0         4760057
MTLF  008.82 198.7 m E Pn      2011/09/08 19:04:55.0   1.2                          T   001.0                                4747337
MTLF  008.82 198.7 m E Sg      2011/09/08 19:07:24.3  -0.3                          T               56.1  .68 Ml 4.5         4760048
EPF   009.56 206.2 m E Pn      2011/09/08 19:05:03.6  -0.3                          T   001.0                                4747355
EPF   009.56 206.2 m E Sn      2011/09/08 19:06:43.5  -1.7                          T               19.5  .40 Ml 4.3         4760061
EPF   009.56 206.2 m E Sg      2011/09/08 19:07:47.9   0.2                          T               72.1  .70 Ml 4.7         4760047
ETSF  009.94 209.5 m E Pn      2011/09/08 19:05:08.3  -0.8                          T   001.0                                4747379
ETSF  009.94 209.5 m E Sn      2011/09/08 19:06:51.8  -2.5                          T               15.0  .34 Ml 4.4         4760059
ETSF  009.94 209.5 m E Sg      2011/09/08 19:07:58.3  -1.3                          T              129.9  .90 Ml 4.9         4760046
SJPF  009.96 212.6 m E Pn      2011/09/08 19:05:08.8  -0.5                          T   001.0                                4747342
SJPF  009.96 212.6 m E Sn      2011/09/08 19:06:52.8  -1.9                          T               31.4  .58 Ml 4.5         4760060
SJPF  009.96 212.6 m E Sg      2011/09/08 19:07:57.9  -2.3                          T               60.7  .80 Ml 4.6         4760045

.
EVENT     263710
    Date      Time       Latitude Longitude    Depth    Ndef Nsta Gap    Mag1  N    Mag2  N    Mag3  N   Author         ID
       rms   OT_Error      Smajor Sminor Az        Err   mdist  Mdist     Err        Err        Err      Quality

2011/09/08 20:36:08.8     44.8464   11.2364     20.0 f    12   11 238  Ml 3.1  1                         js067245    263710

      0.73   +-  1.44      36.6   12.0   92.11 +-  0.0    1.31   5.34   +-                               m i ke

NORTHERN ITALY
Sta     Dist  EvAz     Phase      Date       Time     TRes  Azim  AzRes  Slow  SRes Def   SNR       Amp   Per   Mag1   Mag2       ID
SBF   002.90 251.5 m E Pn      2011/09/08 20:36:50.6  -1.5                          T                                        4752556
PGF   002.81 216.0 m E Pn      2011/09/08 20:36:51.5   0.5                          T                                        4760104
LPL   003.25 283.5 m E Pn      2011/09/08 20:36:56.5  -0.7                          T                                        4752789
MBDF  003.18 269.4 m E Pn      2011/09/08 20:36:57.1   1.0                          T                                        4752560
FRF   003.54 250.3 m E Pn      2011/09/08 20:36:59.5  -1.3                          T                                        4752557
LPG   003.24 283.2 m E P       2011/09/08 20:37:00.3   0.1                          T                                        4752515
LMR   003.73 247.7 m E Pn      2011/09/08 20:37:01.8  -1.5                          T                                        4752561
ORIF  003.81 273.0 m E Pn      2011/09/08 20:37:06.3   1.7                          T                                        4752559
SMRF  004.15 259.9 m E Pn      2011/09/08 20:37:09.5   0.4                          T                                        4752558
LASF  005.34 264.3 m E Pn      2011/09/08 20:37:27.0   1.7                          T                                        4760103
HAU   004.63 314.8 m E Sn      2011/09/08 20:38:06.4   0.9                          T               12.3  .35 Ml 3.1         4760102

.
