EVENT     264377
    Date      Time       Latitude Longitude    Depth    Ndef Nsta Gap    Mag1  N    Mag2  N    Mag3  N   Author         ID
       rms   OT_Error      Smajor Sminor Az        Err   mdist  Mdist     Err        Err        Err      Quality

2011/09/24 10:03:49.8     48.3305    6.6769     10.0 f    24   13 080  Ml 1.9  7  Md 1.7  5              js067245    264397

      0.21   +-  0.04        .9     .6  175.77 +-  0.0    0.34   2.73   +-0.3      +-0.1                 m i ke

FRANCE
Sta     Dist  EvAz     Phase      Date       Time     TRes  Azim  AzRes  Slow  SRes Def   SNR       Amp   Per   Mag1   Mag2       ID
HAU   000.39 214.2 m E Pg      2011/09/24 10:03:57.4  -0.1                          T                                        4760902
HAU   000.39 214.2 m E Sg      2011/09/24 10:04:02.6  -0.3                          T               14.1  .32        Md 1.6  4760903
CDF   000.41 078.2 m E Pg      2011/09/24 10:03:57.9   0.0                          T                                        4760917
CDF   000.41 078.2 m E Sg      2011/09/24 10:04:03.6   0.2                          T                4.4  .24        Md 1.7  4760907
THEF  000.47 257.6 m E Pg      2011/09/24 10:03:58.5  -0.4                          T                                        4760918
THEF  000.47 257.6 m E Sg      2011/09/24 10:04:04.7  -0.4                          T               12.2  .25        Md 1.9  4760910
HINF  000.53 167.0 m E Pg      2011/09/24 10:04:00.0   0.0                          T                                        4760920
HINF  000.53 167.0 m E Sg      2011/09/24 10:04:06.9  -0.1                          T                6.4  .20        Md 1.7  4760919
HINF  000.53 167.0 m E Sn      2011/09/24 10:04:09.8  -0.6                          T                3.8  .16        Md 1.7  4768257
PAGF  000.67 289.9 m E Pg      2011/09/24 10:04:02.8   0.3                          T                                        4760915
PAGF  000.67 289.9 m E Sg      2011/09/24 10:04:11.7   0.3                          T                 .6  .18                4760916
LANF  000.99 048.6 m E Pg      2011/09/24 10:04:08.2  -0.2                          T                                        4760904
LANF  000.99 048.6 m E Sg      2011/09/24 10:04:21.3   0.0                          T                1.6  .21 Ml 1.7         4760906
MEZF  001.10 279.6 m E Pg      2011/09/24 10:04:10.2  -0.1                          T                                        4760912
MEZF  001.10 279.6 m E Sg      2011/09/24 10:04:24.7   0.2                          T                5.6  .36 Ml 2.1         4760911
SFTF  001.10 264.1 m E Pg      2011/09/24 10:04:10.5   0.0                          T                                        4760914
SFTF  001.10 264.1 m E Sg      2011/09/24 10:04:24.9   0.1                          T                3.8  .24 Ml 2.1         4760913
CABF  001.77 193.3 m E Pg      2011/09/24 10:04:22.8   0.1                          T                                        4760909
CABF  001.77 193.3 m E Sg      2011/09/24 10:04:45.5  -0.1                          T                 .5  .20 Ml 1.5         4760908
LOR   002.18 241.8 m E Pg      2011/09/24 10:04:30.5   0.2                          T                                        4760897
LOR   002.18 241.8 m E Sg      2011/09/24 10:04:58.6   0.3                          T                1.8  .22 Ml 2.2         4760898
RUP   001.40 010.3 m E Sg      2011/09/24 10:04:34.1   0.1                          T                                        4768255
SMF   002.56 229.8 m E Sg      2011/09/24 10:05:10.0  -0.2                          T                2.6  .30 Ml 2.3         4768256
AVF   002.73 236.8 m E Sg      2011/09/24 10:05:15.5   0.1                          T                 .8  .28 Ml 1.8         4760901

.
EVENT     264378
    Date      Time       Latitude Longitude    Depth    Ndef Nsta Gap    Mag1  N    Mag2  N    Mag3  N   Author         ID
       rms   OT_Error      Smajor Sminor Az        Err   mdist  Mdist     Err        Err        Err      Quality

2011/09/24 10:24:09.5     48.3295    6.6754     10.0 f    24   13 080  Ml 1.9  7  Md 2.0  3              js067245    264398

      0.29   +-  0.06       1.2     .9  176.91 +-  0.0    0.34   2.73   +-0.2      +-0.1                 m i ke

FRANCE
Sta     Dist  EvAz     Phase      Date       Time     TRes  Azim  AzRes  Slow  SRes Def   SNR       Amp   Per   Mag1   Mag2       ID
HAU   000.39 214.2 m E Pg      2011/09/24 10:24:17.1  -0.1                          T                                        4760934
HAU   000.39 214.2 m E Sg      2011/09/24 10:24:21.8  -0.8                          T                5.9  .18        Md 1.9  4760933
CDF   000.41 078.1 m E Pg      2011/09/24 10:24:17.6   0.0                          T                                        4760932
CDF   000.41 078.1 m E Sg      2011/09/24 10:24:23.3   0.2                          T                3.6  .20                4760931
THEF  000.47 257.7 m E Pg      2011/09/24 10:24:18.1  -0.4                          T                                        4760928
THEF  000.47 257.7 m E Sg      2011/09/24 10:24:24.4  -0.4                          T               10.4  .21        Md 2.1  4760927
HINF  000.53 166.9 m E Pg      2011/09/24 10:24:19.7   0.0                          T                                        4760925
HINF  000.53 166.9 m E Sg      2011/09/24 10:24:26.6  -0.1                          T                7.0  .17                4760924
HINF  000.53 166.9 m E Sn      2011/09/24 10:24:29.6  -0.5                          T                2.8  .17        Md 1.9  4760921
PAGF  000.67 290.0 m E Pg      2011/09/24 10:24:22.5   0.3                          T                                        4760930
PAGF  000.67 290.0 m E Sg      2011/09/24 10:24:31.4   0.3                          T                 .6  .16                4760929
LANF  000.99 048.6 m E Pg      2011/09/24 10:24:28.0  -0.2                          T                                        4760943
LANF  000.99 048.6 m E Sg      2011/09/24 10:24:41.2   0.1                          T                1.0  .16 Ml 1.6         4760945
MEZF  001.10 279.7 m E Pg      2011/09/24 10:24:30.0   0.0                          T                                        4760940
MEZF  001.10 279.7 m E Sg      2011/09/24 10:24:44.4   0.2                          T                3.7  .28 Ml 2.0         4760939
SFTF  001.10 264.1 m E Pg      2011/09/24 10:24:30.3   0.1                          T                                        4760938
SFTF  001.10 264.1 m E Sg      2011/09/24 10:24:44.5   0.0                          T                2.6  .17 Ml 2.1         4760937
CABF  001.77 193.3 m E Pg      2011/09/24 10:24:42.7   0.2                          T                                        4768274
CABF  001.77 193.3 m E Sg      2011/09/24 10:25:05.2   0.0                          T                 .6  .22 Ml 1.6         4768275
LOR   002.18 241.8 m E Pg      2011/09/24 10:24:49.9   0.0                          T                                        4760942
LOR   002.18 241.8 m E Sg      2011/09/24 10:25:17.6  -0.4                          T                1.7  .27 Ml 2.1         4760941
RUP   001.40 010.3 m E Sg      2011/09/24 10:24:54.1   0.3                          T                                        4768276
SMF   002.56 229.8 m E Sg      2011/09/24 10:25:29.9   0.0                          T                1.2  .21 Ml 2.1         4768272
AVF   002.73 236.8 m E Sg      2011/09/24 10:25:35.3   0.2                          T                 .5  .25 Ml 1.7         4768273

.
EVENT     264379
    Date      Time       Latitude Longitude    Depth    Ndef Nsta Gap    Mag1  N    Mag2  N    Mag3  N   Author         ID
       rms   OT_Error      Smajor Sminor Az        Err   mdist  Mdist     Err        Err        Err      Quality

2011/09/24 10:32:29.3     48.3233    6.6733      6.0 f    18    9 146  Ml 1.7  4  Md 1.7  3              js067245    264399

      0.25   +-  0.08       1.6    1.2   16.72 +-  0.0    0.39   2.17   +-0.3      +-0.1                 m i ke

FRANCE
Sta     Dist  EvAz     Phase      Date       Time     TRes  Azim  AzRes  Slow  SRes Def   SNR       Amp   Per   Mag1   Mag2       ID
HAU   000.39 214.5 m E Pg      2011/09/24 10:32:36.8   0.0                          T                                        4760962
HAU   000.39 214.5 m E Sg      2011/09/24 10:32:41.6  -0.4                          T                2.9  .18        Md 1.6  4760961
CDF   000.41 077.3 m E Pg      2011/09/24 10:32:37.3  -0.1                          T                                        4760947
CDF   000.41 077.3 m E Sg      2011/09/24 10:32:42.9   0.0                          T                                        4760946
THEF  000.46 258.4 m E Pg      2011/09/24 10:32:37.9  -0.3                          T                                        4760964
THEF  000.46 258.4 m E Sg      2011/09/24 10:32:44.0  -0.4                          T                4.3  .20        Md 1.8  4760963
HINF  000.52 166.6 m E Pg      2011/09/24 10:32:39.3   0.0                          T                                        4760960
HINF  000.52 166.6 m E Sg      2011/09/24 10:32:46.3   0.1                          T                3.2  .18                4760959
HINF  000.52 166.6 m E Sn      2011/09/24 10:32:49.3  -0.7                          T                1.8  .16        Md 1.6  4760954
PAGF  000.67 290.5 m E Pg      2011/09/24 10:32:42.3   0.2                          T                                        4760965
PAGF  000.67 290.5 m E Sg      2011/09/24 10:32:51.2   0.3                          T                 .4  .18                4760958
MEZF  001.09 280.0 m E Pg      2011/09/24 10:32:49.7  -0.1                          T                                        4760951
MEZF  001.09 280.0 m E Sg      2011/09/24 10:33:04.1   0.1                          T                2.4  .24 Ml 1.8         4760950
SFTF  001.10 264.4 m E Pg      2011/09/24 10:32:49.9   0.0                          T                                        4760957
SFTF  001.10 264.4 m E Sg      2011/09/24 10:33:04.4   0.3                          T                2.9  .20 Ml 2.0         4760956
CABF  001.76 193.3 m E Pg      2011/09/24 10:33:02.5   0.3                          T                                        4760953
CABF  001.76 193.3 m E Sg      2011/09/24 10:33:25.0   0.1                          T                 .4  .22 Ml 1.4         4768277
LOR   002.17 242.0 m E Sg      2011/09/24 10:33:38.0   0.4                          T                 .7  .24 Ml 1.7         4768278

.
EVENT     264380
    Date      Time       Latitude Longitude    Depth    Ndef Nsta Gap    Mag1  N    Mag2  N    Mag3  N   Author         ID
       rms   OT_Error      Smajor Sminor Az        Err   mdist  Mdist     Err        Err        Err      Quality

2011/09/24 11:26:13.7     48.3326    6.6760     10.0 f    21   11 148  Ml 1.9  6  Md 1.8  3              js067245    264400

      0.26   +-  0.09       1.7    1.2   11.25 +-  0.0    0.39   2.73   +-0.2      +-0.1                 m i ke

FRANCE
Sta     Dist  EvAz     Phase      Date       Time     TRes  Azim  AzRes  Slow  SRes Def   SNR       Amp   Per   Mag1   Mag2       ID
HAU   000.39 214.0 m E Pg      2011/09/24 11:26:21.4  -0.1                          T                                        4760978
HAU   000.39 214.0 m E Sg      2011/09/24 11:26:26.4  -0.4                          T                3.7  .18        Md 1.8  4760977
CDF   000.41 078.5 m E Pg      2011/09/24 11:26:21.8   0.0                          T                                        4768289
CDF   000.41 078.5 m E Sg      2011/09/24 11:26:27.1  -0.3                          T                7.2  .28                4768290
THEF  000.47 257.3 m E Pg      2011/09/24 11:26:22.4  -0.3                          T                                        4760976
THEF  000.47 257.3 m E Sg      2011/09/24 11:26:28.6  -0.4                          T                5.4  .21        Md 1.9  4760975
HINF  000.53 167.0 m E Pg      2011/09/24 11:26:24.0   0.1                          T                                        4760983
HINF  000.53 167.0 m E Sg      2011/09/24 11:26:30.9  -0.1                          T                3.7  .18                4760980
HINF  000.53 167.0 m E Sn      2011/09/24 11:26:33.9  -0.4                          T                3.3  .18        Md 1.9  4760979
PAGF  000.67 289.7 m E Pg      2011/09/24 11:26:26.8   0.3                          T                                        4760974
PAGF  000.67 289.7 m E Sg      2011/09/24 11:26:35.6   0.3                          T                 .4  .19                4760972
MEZF  001.10 279.5 m E Pg      2011/09/24 11:26:33.8  -0.4                          T                                        4760970
MEZF  001.10 279.5 m E Sg      2011/09/24 11:26:48.6   0.1                          T                4.5  .32 Ml 2.0         4760969
SFTF  001.10 264.0 m E Pg      2011/09/24 11:26:34.4   0.0                          T                                        4760968
SFTF  001.10 264.0 m E Sg      2011/09/24 11:26:48.8   0.1                          T                4.0  .25 Ml 2.1         4760967
CABF  001.77 193.3 m E Pg      2011/09/24 11:26:47.1   0.3                          T                                        4768283
CABF  001.77 193.3 m E Sg      2011/09/24 11:27:09.5  -0.1                          T                 .5  .23 Ml 1.5         4768286
LOR   002.18 241.8 m E Pg      2011/09/24 11:26:54.4   0.2                          T                                        4768287
LOR   002.18 241.8 m E Sg      2011/09/24 11:27:22.5   0.3                          T                1.1  .21 Ml 2.0         4768288
SMF   002.56 229.8 m E Sg      2011/09/24 11:27:34.0  -0.1                          T                2.0  .30 Ml 2.2         4768284
AVF   002.73 236.8 m E Sg      2011/09/24 11:27:39.6   0.2                          T                 .6  .26 Ml 1.7         4768285

.
EVENT     264381
    Date      Time       Latitude Longitude    Depth    Ndef Nsta Gap    Mag1  N    Mag2  N    Mag3  N   Author         ID
       rms   OT_Error      Smajor Sminor Az        Err   mdist  Mdist     Err        Err        Err      Quality

2011/09/24 14:06:37.7     48.3319    6.6674     10.0      27   14 080  Ml 2.3  8  Md 2.1  4              js067245    264401

      0.24   +-  0.04        .9     .7  175.83 +-  0.0    0.35   2.72   +-0.2      +-0.1                 m i ke

FRANCE
Sta     Dist  EvAz     Phase      Date       Time     TRes  Azim  AzRes  Slow  SRes Def   SNR       Amp   Per   Mag1   Mag2       ID
HAU   000.39 213.3 m E Pg      2011/09/24 14:06:45.3  -0.1                          T                                        4761007
HAU   000.39 213.3 m E Sg      2011/09/24 14:06:50.0  -0.7                          T               15.2  .18        Md 2.0  4761003
CDF   000.41 078.6 m E Pg      2011/09/24 14:06:45.8  -0.1                          T                                        4768309
CDF   000.41 078.6 m E Sg      2011/09/24 14:06:51.5   0.0                          T                9.6  .20                4761964
THEF  000.46 257.3 m E Pg      2011/09/24 14:06:46.3  -0.3                          T                                        4761005
THEF  000.46 257.3 m E Sg      2011/09/24 14:06:52.6  -0.3                          T               20.6  .21        Md 2.1  4761002
HINF  000.53 166.4 m E Pg      2011/09/24 14:06:47.8  -0.1                          T                                        4761006
HINF  000.53 166.4 m E Sg      2011/09/24 14:06:54.7  -0.3                          T               10.9  .18        Md 2.0  4761004
HINF  000.53 166.4 m E Sn      2011/09/24 14:06:57.7  -0.6                          T                9.0  .16        Md 2.1  4760995
PAGF  000.67 289.9 m E Pg      2011/09/24 14:06:50.6   0.2                          T                                        4760989
PAGF  000.67 289.9 m E Sg      2011/09/24 14:06:59.6   0.4                          T                1.5  .16                4760988
LANF  001.00 048.9 m E Pg      2011/09/24 14:06:56.4  -0.1                          T                                        4760991
LANF  001.00 048.9 m E Sg      2011/09/24 14:07:09.4   0.0                          T                3.7  .23 Ml 2.0         4760992
SFTF  001.10 264.0 m E Pn      2011/09/24 14:06:57.5   0.0                          T                                        4761001
SFTF  001.10 264.0 m E Pg      2011/09/24 14:06:58.3   0.0                          T                                        4768307
SFTF  001.10 264.0 m E Sg      2011/09/24 14:07:12.7   0.2                          T                8.1  .19 Ml 2.5         4760998
MEZF  001.09 279.6 m E Pg      2011/09/24 14:06:58.2   0.1                          T                                        4768308
MEZF  001.09 279.6 m E Sg      2011/09/24 14:07:12.5   0.2                          T                6.9  .26 Ml 2.3         4760993
RUP   001.40 010.5 m E Pg      2011/09/24 14:07:03.7  -0.1                          T                                        4760986
RUP   001.40 010.5 m E Sg      2011/09/24 14:07:21.7  -0.2                          T                                        4761966
CABF  001.77 193.1 m E Pg      2011/09/24 14:07:10.8   0.0                          T                                        4761137
CABF  001.77 193.1 m E Sg      2011/09/24 14:07:33.4  -0.1                          T                1.9  .24 Ml 2.1         4761136
LOR   002.17 241.7 m E Pg      2011/09/24 14:07:18.1   0.0                          T                                        4761965
LOR   002.17 241.7 m E Sg      2011/09/24 14:07:46.3   0.2                          T                4.2  .22 Ml 2.5         4760984
SSF   002.49 240.4 m E Sg      2011/09/24 14:07:54.5  -1.3                          T                2.3  .25 Ml 2.4         4768310
SMF   002.55 229.7 m E Sg      2011/09/24 14:07:58.0   0.0                          T                5.4  .27 Ml 2.6         4760987
AVF   002.72 236.7 m E Sg      2011/09/24 14:08:03.3   0.1                          T                1.3  .22 Ml 2.1         4760985

.
