EVENT     255334
    Date      Time       Latitude Longitude    Depth    Ndef Nsta Gap    Mag1  N    Mag2  N    Mag3  N   Author         ID
       rms   OT_Error      Smajor Sminor Az        Err   mdist  Mdist     Err        Err        Err      Quality

2011/01/29 01:34:48.6     43.0465   -1.7982      2.0      11    3 261  Ml 0.9  2  Md 1.2  2              js067245    255354

      0.32   +-  0.37       5.5    3.6   80.04 +-  0.0    0.23   1.57   +-0.0      +-0.1                 m i ke

PYRENEES
Sta     Dist  EvAz     Phase      Date       Time     TRes  Azim  AzRes  Slow  SRes Def   SNR       Amp   Per   Mag1   Mag2       ID
SJPF  000.43 080.8 m E Pg      2011/01/29 01:34:57.0   0.2                          T                                        4640004
SJPF  000.43 080.8 m E Sg      2011/01/29 01:35:02.4  -0.1                          T                3.5  .23        Md 1.3  4640001
ETSF  000.92 098.8 m E Pg      2011/01/29 01:35:05.6  -0.4                          T                                        4640003
ETSF  000.92 098.8 m E Sg      2011/01/29 01:35:17.9  -0.1                          T                 .3  .23 Ml  .9 Md 1.1  4640002
EPF   001.57 089.9 m E Pg      2011/01/29 01:35:17.8  -0.1                          T                                        4639999
EPF   001.57 089.9 m E Sg      2011/01/29 01:35:38.2   0.1                          T                 .1  .18 Ml  .9         4640000

.
EVENT     255335
    Date      Time       Latitude Longitude    Depth    Ndef Nsta Gap    Mag1  N    Mag2  N    Mag3  N   Author         ID
       rms   OT_Error      Smajor Sminor Az        Err   mdist  Mdist     Err        Err        Err      Quality

2011/01/29 03:02:56.4     40.1780    -.0303      2.0      20    4 257  Ml 1.8  5                         js067245    255355

      0.36   +-  0.21       3.7    2.1  159.56 +-  0.0    0.39   3.58   +-0.2                            m i ke

SPAIN
Sta     Dist  EvAz     Phase      Date       Time     TRes  Azim  AzRes  Slow  SRes Def   SNR       Amp   Per   Mag1   Mag2       ID
ETSF  002.75 351.9 m E Pn      2011/01/29 03:03:39.7   0.0                          T                                        4640085
ETSF  002.75 351.9 m E Sg      2011/01/29 03:04:22.6  -0.2                          T                 .3  .25 Ml 1.5         4640079
EPF   002.86 005.4 m E Pn      2011/01/29 03:03:41.6   0.3                          T                                        4640084
EPF   002.86 005.4 m E Sg      2011/01/29 03:04:26.3  -0.1                          T                 .6  .21 Ml 1.9         4640080
SJPF  003.07 343.4 m E Pn      2011/01/29 03:03:43.9  -0.1                          T                                        4640083
SJPF  003.07 343.4 m E Sg      2011/01/29 03:04:32.4  -0.3                          T                 .7  .40 Ml 1.7         4640078
MTLF  003.58 027.3 m E Pn      2011/01/29 03:03:51.0   0.0                          T                                        4640082
MTLF  003.58 027.3 m E Sg      2011/01/29 03:04:48.7   0.0                          T                 .6  .26 Ml 2.0         4640081

.
EVENT     255341
    Date      Time       Latitude Longitude    Depth    Ndef Nsta Gap    Mag1  N    Mag2  N    Mag3  N   Author         ID
       rms   OT_Error      Smajor Sminor Az        Err   mdist  Mdist     Err        Err        Err      Quality

2011/01/29 03:11:41.4     47.4192    7.7898     10.0      42   17 046  Ml 2.1 17  Md 2.2  3              js067245    255361

      0.62   +-  0.04        .7     .7    3.91 +-  0.0    0.11   3.36   +-0.3      +-0.0                 m i ke

SWITZERLAND
Sta     Dist  EvAz     Phase      Date       Time     TRes  Azim  AzRes  Slow  SRes Def   SNR       Amp   Per   Mag1   Mag2       ID
HINF  000.75 302.5 m E Pg      2011/01/29 03:11:55.7   0.0                          T                                        4640390
HINF  000.75 302.5 m E Pn      2011/01/29 03:11:56.3  -0.3                          T                                        4641323
HINF  000.75 302.5 m E Sg      2011/01/29 03:12:05.3  -0.2                          T               18.2  .22        Md 2.2  4640385
CDF   001.05 341.0 m E Pg      2011/01/29 03:12:01.2  -0.1                          T                                        4640392
CDF   001.05 341.0 m E Sg      2011/01/29 03:12:14.6  -0.3                          T               16.6  .36 Ml 2.6 Md 2.2  4640388
HAU   001.14 301.6 m E Pn      2011/01/29 03:12:01.6  -0.2                          T                                        4641325
HAU   001.14 301.6 m E Pg      2011/01/29 03:12:02.8   0.0                          T                                        4640391
HAU   001.14 301.6 m E Sn      2011/01/29 03:12:15.9  -0.6                          T                                        4641326
HAU   001.14 301.6 m E Sg      2011/01/29 03:12:17.4  -0.1                          T               25.2  .26 Ml 2.6 Md 2.2  4640386
THEF  001.46 304.4 m E Pn      2011/01/29 03:12:05.9  -0.2                          T                                        4641324
THEF  001.46 304.4 m E Pg      2011/01/29 03:12:08.6   0.0                          T                                        4640389
THEF  001.46 304.4 m E Sg      2011/01/29 03:12:27.4   0.0                          T               10.5  .31 Ml 2.5         4640387
CABF  001.42 235.9 m E Pg      2011/01/29 03:12:07.9  -0.1                          T                                        4640373
CABF  001.42 235.9 m E Sg      2011/01/29 03:12:26.2  -0.1                          T                6.1  .28 Ml 2.3         4640383
LANF  001.56 000.4 m E Pg      2011/01/29 03:12:10.7   0.1                          T                                        4640362
LANF  001.56 000.4 m E Sg      2011/01/29 03:12:30.7  -0.1                          T                7.4  .64 Ml 2.1         4640361
PAGF  001.79 310.1 m E Pg      2011/01/29 03:12:14.8   0.1 135.0  6.5               T                                        4640376
PAGF  001.79 310.1 m E Sg      2011/01/29 03:12:37.7  -0.2                          T                1.0  .33 Ml 1.6         4640384
LPL   002.04 201.4 m E P       2011/01/29 03:12:16.4  -0.3                          T                                        4640372
LPL   002.04 201.4 m E Sg      2011/01/29 03:12:45.9   0.1                          T                2.0  .37 Ml 1.9         4640369
SFTF  002.01 294.0 m E Pg      2011/01/29 03:12:19.0   0.1 119.2  7.3               T                                        4640374
SFTF  002.01 294.0 m E Sg      2011/01/29 03:12:44.9   0.1                          T                3.8  .25 Ml 2.4         4640382
LPG   002.05 200.9 m E Pg      2011/01/29 03:12:20.1   0.2                          T                                        4641320
LPG   002.05 200.9 m E Sg      2011/01/29 03:12:46.3  -0.1                          T                1.2  .22 Ml 2.0         4640370
MEZF  002.14 301.5 m E Pg      2011/01/29 03:12:20.7  -0.3 126.6  7.2               T                                        4640375
MEZF  002.14 301.5 m E Sg      2011/01/29 03:12:48.4  -0.1                          T                1.2  .19 Ml 2.0         4640381
ORIF  002.83 208.6 m E P       2011/01/29 03:12:27.8   0.0                          T                                        4641321
ORIF  002.83 208.6 m E Sg      2011/01/29 03:13:10.6   0.1                          T                1.1  .27 Ml 2.0         4640368
LOR   002.68 268.2 m E Pg      2011/01/29 03:12:30.9  -0.2  90.4  5.1               T                                        4640378
LOR   002.68 268.2 m E Sg      2011/01/29 03:13:05.5  -0.1                          T                1.9  .33 Ml 2.1         4640380
VIVF  003.36 221.3 m E Pn      2011/01/29 03:12:32.2   0.2                          T                                        4640364
VIVF  003.36 221.3 m E Sg      2011/01/29 03:13:26.9   0.1                          T                1.8  .38 Ml 2.2         4640363
SMF   002.81 255.5 m E Pg      2011/01/29 03:12:33.8   0.2                          T                                        4641322
SSF   002.94 264.6 m E Pg      2011/01/29 03:12:36.1   0.2                          T                                        4640377
SSF   002.94 264.6 m E Sg      2011/01/29 03:13:13.7   0.0                          T                 .4  .22 Ml 1.7         4640379
MBDF  002.78 195.1 m E Sg      2011/01/29 03:13:09.2   0.1                          T                1.2  .38 Ml 1.9         4640367

.
EVENT     255336
    Date      Time       Latitude Longitude    Depth    Ndef Nsta Gap    Mag1  N    Mag2  N    Mag3  N   Author         ID
       rms   OT_Error      Smajor Sminor Az        Err   mdist  Mdist     Err        Err        Err      Quality

2011/01/29 04:15:54.8     42.5993     .8914      5.0 f    41    7 050  Ml 2.3  7  Md 2.3  3              js067245    255356

      0.57   +-  0.06       1.2    1.0   37.28 +-  0.0    0.27   2.74   +-0.2      +-0.0                 m i ke

PYRENEES
Sta     Dist  EvAz     Phase      Date       Time     TRes  Azim  AzRes  Slow  SRes Def   SNR       Amp   Per   Mag1   Mag2       ID
EPF   000.59 316.9 m E Pg      2011/01/29 04:16:05.9  -0.3                          T                                        4640520
EPF   000.59 316.9 m E Sg      2011/01/29 04:16:13.4  -0.6                          T               25.7  .18        Md 2.3  4640516
ETSF  001.11 286.1 m E Pg      2011/01/29 04:16:15.5  -0.1                          T                                        4640518
ETSF  001.11 286.1 m E Sg      2011/01/29 04:16:29.9  -0.2                          T                7.9  .26 Ml 2.3 Md 2.3  4640515
MTLF  001.22 052.3 m E Pg      2011/01/29 04:16:17.9   0.2                          T                                        4640519
MTLF  001.22 052.3 m E Sg      2011/01/29 04:16:33.3  -0.2                          T               10.9  .39 Ml 2.4 Md 2.3  4640514
SJPF  001.64 289.0 m E Pg      2011/01/29 04:16:25.4   0.1                          T                                        4640513
SJPF  001.64 289.0 m E Sg      2011/01/29 04:16:46.9   0.4                          T                4.1  .34 Ml 2.2         4640510
LFF   002.34 357.4 m E Pn      2011/01/29 04:16:32.5   0.4                          T                                        4640505
LFF   002.34 357.4 m E Pg      2011/01/29 04:16:38.1  -0.1                          T                                        4640511
LFF   002.34 357.4 m E Sg      2011/01/29 04:17:08.4   0.0                          T                7.1  .47 Ml 2.3         4640508
CAF   002.48 019.7 m E Pn      2011/01/29 04:16:34.3   0.2                          T                                        4640506
CAF   002.48 019.7 m E Pg      2011/01/29 04:16:40.7  -0.1                          T                                        4640512
CAF   002.48 019.7 m E Sg      2011/01/29 04:17:12.4  -0.2                          T                4.5  .37 Ml 2.4         4640509
RJF   002.74 009.3 m E Pn      2011/01/29 04:16:37.7   0.0                          T                                        4640504
RJF   002.74 009.3 m E Pg      2011/01/29 04:16:45.1  -0.6                          T                                        4640517
RJF   002.74 009.3 m E Sg      2011/01/29 04:17:20.9   0.0                          T                2.7  .37 Ml 1.9         4640507

.
EVENT     255337
    Date      Time       Latitude Longitude    Depth    Ndef Nsta Gap    Mag1  N    Mag2  N    Mag3  N   Author         ID
       rms   OT_Error      Smajor Sminor Az        Err   mdist  Mdist     Err        Err        Err      Quality

2011/01/29 04:40:26.6     40.0991    -.7252      2.0      18    3 156  Ml 1.9  3                         js067245    255357

      0.61   +-  0.15       4.0    2.1  124.80 +-  0.0    0.33   3.04   +-0.2                            m i ke

SPAIN
Sta     Dist  EvAz     Phase      Date       Time     TRes  Azim  AzRes  Slow  SRes Def   SNR       Amp   Per   Mag1   Mag2       ID
ETSF  002.80 002.5 m E Pn      2011/01/29 04:41:11.0   0.4                          T                                        4640588
ETSF  002.80 002.5 m E Sn      2011/01/29 04:41:43.4   0.5                          T                1.1  .34 Ml 1.9         4640585
EPF   003.04 014.9 m E Pn      2011/01/29 04:41:14.2   0.4                          T                                        4640587
EPF   003.04 014.9 m E Sn      2011/01/29 04:41:49.3   0.7                          T                1.7  .34 Ml 2.1         4640584
SJPF  003.03 353.1 m E Pn      2011/01/29 04:41:14.3   0.6                          T                                        4640586
SJPF  003.03 353.1 m E Sn      2011/01/29 04:41:49.3   0.7                          T                 .6  .31 Ml 1.7         4640583

.
