EVENT     275078
    Date      Time       Latitude Longitude    Depth    Ndef Nsta Gap    Mag1  N    Mag2  N    Mag3  N   Author         ID
       rms   OT_Error      Smajor Sminor Az        Err   mdist  Mdist     Err        Err        Err      Quality

2012/04/27 09:12:12.4     45.0517    2.2566       .0 f    21   10 062  Ml 2.2  7  Md 1.8  1              bulletin    275178
                                                                                                         _ldg
      0.39   +-  0.08       1.8    1.4   98.26 +-  0.0    0.19   1.94   +-0.2      +-                    m i km

FRANCE
Sta     Dist  EvAz     Phase      Date       Time     TRes  Azim  AzRes  Slow  SRes Def   SNR       Amp   Per   Mag1   Mag2       ID
CAF   000.19 227.4 m E Pg      2012/04/27 09:12:16.1  -0.3                          T                                        4932545
CAF   000.19 227.4 m E Sg      2012/04/27 09:12:19.0  -0.2                          T               31.9  .21        Md 1.8  4932544
RJF   000.58 296.0 m E Pg      2012/04/27 09:12:23.3  -0.4                          T                                        4932543
RJF   000.58 296.0 m E Sg      2012/04/27 09:12:30.9  -0.5                          T               11.8  .18                4932542
TCF   001.24 358.5 m E Pg      2012/04/27 09:12:36.0   0.2                          T                                        4935209
TCF   001.24 358.5 m E Sg      2012/04/27 09:12:52.5   0.5                          T                5.5  .24 Ml 2.3         4935210
LASF  001.50 129.9 m E Pg      2012/04/27 09:12:40.8   0.1                          T                                        4932541
LASF  001.50 129.9 m E Sg      2012/04/27 09:12:59.3  -0.9                          T                3.0  .24 Ml 2.1         4932540
BGF   001.56 015.1 m E Pg      2012/04/27 09:12:41.5  -0.2                          T                                        4932533
BGF   001.56 015.1 m E Sg      2012/04/27 09:13:02.2   0.2                          T                9.7  .26 Ml 2.6         4932532
VIVF  001.73 095.7 m E Pn      2012/04/27 09:12:42.5   0.4                          T                                        4935264
VIVF  001.73 095.7 m E Pg      2012/04/27 09:12:44.6  -0.2                          T                                        4932538
VIVF  001.73 095.7 m E Sg      2012/04/27 09:13:06.8  -0.5                          T                4.5  .27 Ml 2.4         4932539
MTLF  001.71 181.0 m E Pg      2012/04/27 09:12:44.7   0.3                          T                                        4932537
MTLF  001.71 181.0 m E Sg      2012/04/27 09:13:06.4  -0.3                          T                2.7  .27 Ml 2.1         4932536
LFF   001.08 264.6 m E Sg      2012/04/27 09:12:47.9   0.8                          T                                        4935207
AVF   001.90 023.4 m E Pg      2012/04/27 09:12:48.1   0.2                          T                                        4935265
AVF   001.90 023.4 m E Sg      2012/04/27 09:13:11.9  -0.7                          T                1.9  .34 Ml 1.9         4935211
SMF   001.94 034.2 m E Sg      2012/04/27 09:13:14.1   0.1                          T                3.0  .35 Ml 2.1         4935208

.
EVENT     275075
    Date      Time       Latitude Longitude    Depth    Ndef Nsta Gap    Mag1  N    Mag2  N    Mag3  N   Author         ID
       rms   OT_Error      Smajor Sminor Az        Err   mdist  Mdist     Err        Err        Err      Quality

2012/04/27 09:45:22.0     46.1355    3.5003       .0 f    17    7 133  Ml 2.0  4  Md 1.8  1              bulletin    275175
                                                                                                         _ldg
      0.41   +-  0.11       2.1    1.8   75.95 +-  0.0    0.56   1.52   +-0.4      +-                    m i km

FRANCE
Sta     Dist  EvAz     Phase      Date       Time     TRes  Azim  AzRes  Slow  SRes Def   SNR       Amp   Per   Mag1   Mag2       ID
SMF   000.56 024.7 m E Pg      2012/04/27 09:45:32.9  -0.1                          T                                        4932665
SMF   000.56 024.7 m E Pn      2012/04/27 09:45:35.7  -0.2                          T                                        4935343
SMF   000.56 024.7 m E Sg      2012/04/27 09:45:40.2  -0.3                          T               16.4  .58        Md 1.8  4932660
BGF   000.62 313.2 m E Pg      2012/04/27 09:45:34.2   0.2                          T                                        4932666
BGF   000.62 313.2 m E Sg      2012/04/27 09:45:42.1  -0.2                          T                5.9  .30                4932658
AVF   000.66 351.2 m E Pg      2012/04/27 09:45:34.8   0.0                          T                                        4932664
AVF   000.66 351.2 m E Sg      2012/04/27 09:45:42.4  -1.2                          T                                        4932659
TCF   000.91 280.1 m E Pg      2012/04/27 09:45:39.6   0.2                          T                                        4932663
TCF   000.91 280.1 m E Sg      2012/04/27 09:45:50.8  -0.6                          T                9.2  .48 Ml 2.1         4932657
SSF   000.93 000.2 m E Pg      2012/04/27 09:45:40.9   1.3                          T                                        4932662
SSF   000.93 000.2 m E Sg      2012/04/27 09:45:52.7   0.8                          T               24.3  .54 Ml 2.5         4935280
LOR   001.16 012.2 m E Pg      2012/04/27 09:45:44.1   0.1 194.7  2.3               T                                        4932661
LOR   001.16 012.2 m E Sg      2012/04/27 09:45:59.4   0.2                          T                                        4935346
VIVF  001.52 146.8 m E Pg      2012/04/27 09:45:50.6  -0.1                          T                                        4935345
VIVF  001.52 146.8 m E Sg      2012/04/27 09:46:10.6   0.1                          T                6.1  .60 Ml 2.1         4935344

.
EVENT     275076
    Date      Time       Latitude Longitude    Depth    Ndef Nsta Gap    Mag1  N    Mag2  N    Mag3  N   Author         ID
       rms   OT_Error      Smajor Sminor Az        Err   mdist  Mdist     Err        Err        Err      Quality

2012/04/27 09:58:57.8     46.8867    4.2651       .0 f    12    5 266  Ml 2.1  1  Md 2.3  3              bulletin    275176
                                                                                                         _ldg
      0.98   +-  0.33       5.7    2.8  111.01 +-  0.0    0.38   1.17   +-         +-0.1                 m i km

FRANCE
Sta     Dist  EvAz     Phase      Date       Time     TRes  Azim  AzRes  Slow  SRes Def   SNR       Amp   Per   Mag1   Mag2       ID
SMF   000.38 230.5 m E Pg      2012/04/27 09:59:05.4   0.1                          T                                        4932703
SMF   000.38 230.5 m E Sg      2012/04/27 09:59:10.1  -0.5                          T               10.2  .22        Md 2.2  4932697
LOR   000.47 324.1 m E Pg      2012/04/27 09:59:07.3   0.2 138.8  -5.0              T                                        4932700
LOR   000.47 324.1 m E Sg      2012/04/27 09:59:13.5   0.0 147.3  3.4               T                3.0  .21        Md 2.2  4932698
SSF   000.55 288.9 m E Pg      2012/04/27 09:59:08.4  -0.1                          T                                        4932701
SSF   000.55 288.9 m E Sg      2012/04/27 09:59:15.4  -0.4                          T                7.7  .20                4932699
BGF   001.03 251.9 m E Pg      2012/04/27 09:59:17.4   0.1                          T                                        4932702
BGF   001.03 251.9 m E Sg      2012/04/27 09:59:29.4  -1.5                          T                6.7  .32 Ml 2.1         4932696
HYF   001.17 289.6 m E Pn      2012/04/27 09:59:20.1   0.1                          T                                        4932695
HYF   001.17 289.6 m E Sn      2012/04/27 09:59:35.6  -0.3                          T                                        4932694

.
EVENT     275090
    Date      Time       Latitude Longitude    Depth    Ndef Nsta Gap    Mag1  N    Mag2  N    Mag3  N   Author         ID
       rms   OT_Error      Smajor Sminor Az        Err   mdist  Mdist     Err        Err        Err      Quality

2012/04/27 10:14:47.1     43.4176    6.3616       .0 f     8    4 186  Ml 2.2  1  Md 1.9  2              bulletin    275190
                                                                                                         _ldg
      0.07   +-  0.04        .9     .6   33.62 +-  0.0    0.14   0.90   +-         +-0.6                 m i km

NEAR SOUTH COAST OF FRANCE
Sta     Dist  EvAz     Phase      Date       Time     TRes  Azim  AzRes  Slow  SRes Def   SNR       Amp   Per   Mag1   Mag2       ID
LMR   000.14 127.8 m E Pg      2012/04/27 10:14:50.1   0.0                          T                                        4932721
LMR   000.14 127.8 m E Sg      2012/04/27 10:14:52.4   0.1                          T               93.5  .49        Md 2.3  4932720
FRF   000.25 055.3 m E Pg      2012/04/27 10:14:52.4   0.0                          T                                        4932718
FRF   000.25 055.3 m E Sg      2012/04/27 10:14:55.8  -0.1                          T               14.1  .26        Md 1.5  4932719
SMRF  000.80 314.7 m E Pn      2012/04/27 10:15:04.2   0.0                          T                                        4937462
SMRF  000.80 314.7 m E Sg      2012/04/27 10:15:13.0   0.0                          T                1.6  .29                4937461
SBF   000.90 059.9 m E Pn      2012/04/27 10:15:05.6  -0.1                          T                                        4937460
SBF   000.90 059.9 m E Sn      2012/04/27 10:15:18.8   0.2                          T               11.2  .37 Ml 2.2         4937463

.
EVENT     275099
    Date      Time       Latitude Longitude    Depth    Ndef Nsta Gap    Mag1  N    Mag2  N    Mag3  N   Author         ID
       rms   OT_Error      Smajor Sminor Az        Err   mdist  Mdist     Err        Err        Err      Quality

2012/04/27 10:15:31.3     47.0489    5.9241       .0 f    17    8 215  Ml 2.0  7  Md 1.9  1              bulletin    275199
                                                                                                         _ldg
      0.81   +-  0.18       4.3    1.6  143.63 +-  0.0    0.99   2.67   +-0.5      +-                    m i km

FRANCE
Sta     Dist  EvAz     Phase      Date       Time     TRes  Azim  AzRes  Slow  SRes Def   SNR       Amp   Per   Mag1   Mag2       ID
HAU   001.00 016.6 m E Pg      2012/04/27 10:15:50.1  -0.2                          T                                        4937642
HAU   001.00 016.6 m E Sg      2012/04/27 10:16:03.6   0.1                          T                2.1  .33 Ml 1.4         4937643
HINF  000.99 039.0 m E Pg      2012/04/27 10:15:50.4   0.2                          T                                        4937641
HINF  000.99 039.0 m E Sg      2012/04/27 10:16:03.7   0.4                          T                1.3  .32 Ml 1.4 Md 1.9  4937466
SFTF  001.30 332.9 m E Pg      2012/04/27 10:15:55.9   0.0 145.1  -7.2              T                                        4937470
SFTF  001.30 332.9 m E Sg      2012/04/27 10:16:12.4  -0.5 144.4  -7.9              T               10.5  .47 Ml 2.3         4937471
LOR   001.43 279.6 m E Pn      2012/04/27 10:15:57.0   0.1                          T                                        4932783
LOR   001.43 279.6 m E Pg      2012/04/27 10:15:58.4   0.2                          T                                        4932782
LOR   001.43 279.6 m E Sg      2012/04/27 10:16:17.0   0.2                          T                2.8  .25 Ml 2.1         4932778
SSF   001.65 271.3 m E Pn      2012/04/27 10:16:00.0   0.0                          T                                        4932781
SSF   001.65 271.3 m E Pg      2012/04/27 10:16:02.2  -0.1                          T                                        4932780
SSF   001.65 271.3 m E Sg      2012/04/27 10:16:23.9   0.1                          T                4.6  .50 Ml 2.2         4932779
AVF   001.78 262.6 m E Pg      2012/04/27 10:16:04.8   0.1                          T                                        4937644
AVF   001.78 262.6 m E Sn      2012/04/27 10:16:23.8   0.0                          T                1.5  .41 Ml 1.7         4937645
BGF   002.17 258.0 m E P       2012/04/27 10:16:08.7  -0.5                          T                                        4937469
BGF   002.17 258.0 m E Sg      2012/04/27 10:16:40.0   0.0                          T               22.7  .48 Ml 2.9         4937468
TCF   002.67 254.8 m E Pn      2012/04/27 10:16:13.8   0.0                          T                                        4937467

.
EVENT     274639
    Date      Time       Latitude Longitude    Depth    Ndef Nsta Gap    Mag1  N    Mag2  N    Mag3  N   Author         ID
       rms   OT_Error      Smajor Sminor Az        Err   mdist  Mdist     Err        Err        Err      Quality

2012/04/27 10:16:33.9     42.8163    -.0098      2.0       6    3 231  Ml 1.4  1  Md 1.7  2              bulletin    274739
                                                                                                         _ldg
      0.32   +-  0.58      20.7    2.9  168.23 +-  0.0    0.33   0.94   +-         +-0.0                 m i ke

PYRENEES
Sta     Dist  EvAz     Phase      Date       Time     TRes  Azim  AzRes  Slow  SRes Def   SNR       Amp   Per   Mag1   Mag2       ID
EPF   000.33 050.1 m E Pg      2012/04/27 10:16:40.0  -0.5                          T                                        4925100
EPF   000.33 050.1 m E Sg      2012/04/27 10:16:45.0   0.1                          T                6.7  .25        Md 1.7  4925101
ETSF  000.41 281.7 m E Pg      2012/04/27 10:16:41.9  -0.1                          T                                        4925103
ETSF  000.41 281.7 m E Sg      2012/04/27 10:16:47.4  -0.1                          T                7.6  .20        Md 1.6  4925102
SJPF  000.94 288.8 m E Pg      2012/04/27 10:16:51.8   0.2                          T                                        4925098
SJPF  000.94 288.8 m E Sg      2012/04/27 10:17:03.2  -0.6                          T                 .8  .19 Ml 1.4         4925099

.
EVENT     274640
    Date      Time       Latitude Longitude    Depth    Ndef Nsta Gap    Mag1  N    Mag2  N    Mag3  N   Author         ID
       rms   OT_Error      Smajor Sminor Az        Err   mdist  Mdist     Err        Err        Err      Quality

2012/04/27 10:16:54.7     43.4186    6.1380       .0 f     8    4 216  Ml 2.5  1  Md 2.1  3              bulletin    274740
                                                                                                         _ldg
      0.91   +-  0.72      18.2    7.0   25.63 +-  0.0    0.28   1.04   +-         +-0.4                 m i km

NEAR SOUTH COAST OF FRANCE
Sta     Dist  EvAz     Phase      Date       Time     TRes  Azim  AzRes  Slow  SRes Def   SNR       Amp   Per   Mag1   Mag2       ID
LMR   000.28 107.2 m E Pg      2012/04/27 10:17:00.4  -0.1                          T                                        4925127
LMR   000.28 107.2 m E Sg      2012/04/27 10:17:02.8  -1.6                          T               12.8  .17        Md 1.8  4925126
FRF   000.40 068.8 m E Pg      2012/04/27 10:17:02.6   0.1                          T                                        4925124
FRF   000.40 068.8 m E Sg      2012/04/27 10:17:06.6  -1.4                          T                9.0  .23        Md 2.0  4925125
SMRF  000.69 324.0 m E Pg      2012/04/27 10:17:08.3   0.3                          T                                        4925136
SMRF  000.69 324.0 m E Sg      2012/04/27 10:17:15.2  -2.1                          T                2.5  .21        Md 2.6  4925137
SBF   001.04 064.3 m E Pg      2012/04/27 10:17:15.2   0.7                          T                                        4925123
SBF   001.04 064.3 m E Sg      2012/04/27 10:17:28.3   0.0                          T               13.5  .32 Ml 2.5         4925122

.
EVENT     275080
    Date      Time       Latitude Longitude    Depth    Ndef Nsta Gap    Mag1  N    Mag2  N    Mag3  N   Author         ID
       rms   OT_Error      Smajor Sminor Az        Err   mdist  Mdist     Err        Err        Err      Quality

2012/04/27 15:26:17.3     44.4925    6.6888      2.0      41   10 054  Ml 2.0  6  Md 1.9  9              bulletin    275180
                                                                                                         _ldg
      0.34   +-  0.05       1.1     .8   66.62 +-  0.0    0.09   3.31   +-0.3      +-0.1                 m i ke

FRANCE
Sta     Dist  EvAz     Phase      Date       Time     TRes  Azim  AzRes  Slow  SRes Def   SNR       Amp   Per   Mag1   Mag2       ID
MBDF  000.24 014.1 m E Pg      2012/04/27 15:26:22.4   0.0                          T                                        4932571
MBDF  000.24 014.1 m E Sg      2012/04/27 15:26:26.0   0.3                          T               21.6  .30        Md 1.7  4932570
ORIF  000.72 306.7 m E Pg      2012/04/27 15:26:30.8  -0.2                          T                                        4932569
ORIF  000.72 306.7 m E Sg      2012/04/27 15:26:40.1  -0.3                          T                4.6  .23        Md 1.9  4932568
SBF   000.83 139.3 m E Pg      2012/04/27 15:26:33.2   0.2                          T                                        4932561
SBF   000.83 139.3 m E Sg      2012/04/27 15:26:44.4   0.6                          T                2.9  .18        Md 1.9  4932560
FRF   000.93 181.9 m E Pg      2012/04/27 15:26:35.0   0.2                          T                                        4932565
FRF   000.93 181.9 m E Sg      2012/04/27 15:26:47.2   0.2                          T                6.0  .19 Ml 2.3 Md 2.0  4932564
SMRF  000.95 237.6 m E Pn      2012/04/27 15:26:36.4   0.2                          T                                        4932558
SMRF  000.95 237.6 m E Sn      2012/04/27 15:26:49.3  -0.2                          T                5.2  .22 Ml 2.2 Md 2.0  4932557
LPG   001.01 002.5 m E Pg      2012/04/27 15:26:36.7   0.1                          T                                        4932555
LPG   001.01 002.5 m E Sg      2012/04/27 15:26:49.5  -0.1                          T                1.5  .17 Ml 1.8 Md 1.9  4932556
LPL   001.02 001.7 m E Pg      2012/04/27 15:26:37.0   0.2                          T                                        4932567
LPL   001.02 001.7 m E Sg      2012/04/27 15:26:50.3   0.2                          T                2.2  .26 Ml 1.8 Md 1.9  4932566
LMR   001.17 186.5 m E Pg      2012/04/27 15:26:39.3   0.1                          T                                        4932563
LMR   001.17 186.5 m E Sg      2012/04/27 15:26:54.5   0.3                          T                3.8  .19 Ml 2.2 Md 2.0  4932562
VIVF  001.48 284.9 m E Pn      2012/04/27 15:26:43.3  -0.1                          T                                        4932554
VIVF  001.48 284.9 m E Sn      2012/04/27 15:27:02.3   0.1                          T                1.1  .22 Ml 1.7 Md 2.1  4932553
PGF   002.57 138.3 m E Pn      2012/04/27 15:26:58.6   0.3                          T                                        4932559

.
