EVENT     284118
    Date      Time       Latitude Longitude    Depth    Ndef Nsta Gap    Mag1  N    Mag2  N    Mag3  N   Author         ID
       rms   OT_Error      Smajor Sminor Az        Err   mdist  Mdist     Err        Err        Err      Quality

2012/10/01 06:07:48.4     44.4931    6.7116      2.0      36    8 051  Ml 1.8  5  Md 2.0  1              bulletin    284219
                                                                                                         _ldg
      0.73   +-  0.07       1.6    1.2   64.21 +-  0.0    0.11   1.73   +-0.3      +-                    m i ke

FRANCE
Sta     Dist  EvAz     Phase      Date       Time     TRes  Azim  AzRes  Slow  SRes Def   SNR       Amp   Per   Mag1   Mag2       ID
MBDF  000.24 010.3 m E Pg      2012/10/01 06:07:53.3   0.0                          T                                        5081862
MBDF  000.24 010.3 m E Sg      2012/10/01 06:07:56.8   0.2                          T                9.6  .32        Md 2.0  5081861
ORIF  000.73 305.9 m E Pg      2012/10/01 06:08:01.6  -0.6                          T                                        5081860
ORIF  000.73 305.9 m E Sg      2012/10/01 06:08:11.7  -0.1                          T                2.2  .22                5081855
SBF   000.82 140.2 m E Pg      2012/10/01 06:08:04.3   0.4                          T                                        5081848
SBF   000.82 140.2 m E Sg      2012/10/01 06:08:14.9   0.4                          T                4.6  .27                5081847
FRF   000.93 182.9 m E Pg      2012/10/01 06:08:06.4   0.5                          T                                        5081850
FRF   000.93 182.9 m E Sg      2012/10/01 06:08:18.7   0.6                          T                4.9  .20 Ml 2.2         5081849
SMRF  000.97 238.1 m E Pg      2012/10/01 06:08:07.0   0.4                          T                                        5081858
SMRF  000.97 238.1 m E Sg      2012/10/01 06:08:19.4   0.3                          T                2.6  .21 Ml 1.9         5081851
LPG   001.01 001.6 m E Pg      2012/10/01 06:08:07.6   0.0                          T                                        5081853
LPG   001.01 001.6 m E Sg      2012/10/01 06:08:20.6   0.0                          T                2.3  .27 Ml 1.7         5081852
LPL   001.02 000.8 m E Pg      2012/10/01 06:08:08.0   0.2                          T                                        5081859
LPL   001.02 000.8 m E Sg      2012/10/01 06:08:21.1   0.0                          T                1.3  .23 Ml 1.6         5081854
VIVF  001.50 284.7 m E Pn      2012/10/01 06:08:14.7   0.0                          T                                        5081857
VIVF  001.50 284.7 m E Sn      2012/10/01 06:08:33.7   0.0                          T                 .8  .24 Ml 1.6         5081856

.
EVENT     284467
    Date      Time       Latitude Longitude    Depth    Ndef Nsta Gap    Mag1  N    Mag2  N    Mag3  N   Author         ID
       rms   OT_Error      Smajor Sminor Az        Err   mdist  Mdist     Err        Err        Err      Quality

2012/10/01 20:28:28.6     39.8451   16.0882      2.0     155   13 036  Ml 2.9 13                         bulletin    284568
                                                                                                         _ldg
      1.00   +-  0.10       2.7    2.5   84.62 +-  0.0    0.26  47.39   +-0.4                            m i ke

SOUTHERN ITALY
Sta     Dist  EvAz     Phase      Date       Time     TRes  Azim  AzRes  Slow  SRes Def   SNR       Amp   Per   Mag1   Mag2       ID
PGF   005.99 299.1 m E Pn      2012/10/01 20:29:56.5   0.4                          T                                        5085336
PGF   005.99 299.1 m E Pg      2012/10/01 20:30:19.4  -0.1                          T                                        5085335
PGF   005.99 299.1 m E Sn      2012/10/01 20:31:01.5   0.2                          T                 .7  .22 Ml 2.8         5085334
SBF   007.60 304.7 m E Pn      2012/10/01 20:30:18.3   0.2                          T                                        5085333
SBF   007.60 304.7 m E Sn      2012/10/01 20:31:39.6  -0.1                          T                 .6  .15 Ml 3.0         5085332
FRF   007.98 300.8 m E Pn      2012/10/01 20:30:23.0  -0.1                          T                                        5085331
FRF   007.98 300.8 m E Sn      2012/10/01 20:31:48.5  -0.2                          T                3.0  .65 Ml 3.1         5085329
MBDF  008.45 308.3 m E Pn      2012/10/01 20:30:30.3   0.6                          T                                        5085330
MBDF  008.45 308.3 m E Sn      2012/10/01 20:32:00.4   0.3                          T                 .3  .19 Ml 2.7         5085323
LPL   008.92 312.5 m E Pn      2012/10/01 20:30:35.3  -0.8                          T                                        5085351
LPL   008.92 312.5 m E Sn      2012/10/01 20:32:11.4   0.0                          T                 .3  .29 Ml 2.5         5085350
SMRF  008.86 301.2 m E Pn      2012/10/01 20:30:35.8   0.7                          T                                        5085328
SMRF  008.86 301.2 m E Sn      2012/10/01 20:32:09.6  -0.1                          T                 .3  .27 Ml 2.6         5085327
LPG   008.90 312.5 m E Pn      2012/10/01 20:30:36.4   0.4                          T                                        5085325
LPG   008.90 312.5 m E Sn      2012/10/01 20:32:11.1   0.2                          T                 .2  .21 Ml 2.5         5085326
ORIF  009.09 307.2 m E Pn      2012/10/01 20:30:38.9   0.6                          T                                        5085324
ORIF  009.09 307.2 m E Sn      2012/10/01 20:32:15.4  -0.1                          T                 .4  .20 Ml 2.9         5085318
LASF  010.04 298.9 m E Pn      2012/10/01 20:30:51.5   0.3                          T                                        5085345
LASF  010.04 298.9 m E Sn      2012/10/01 20:32:38.2   0.2                          T                 .7  .27 Ml 3.1         5085319
CDF   010.64 326.5 m E Pn      2012/10/01 20:31:00.1   0.6                          T                                        5085349
CDF   010.64 326.5 m E Sn      2012/10/01 20:32:52.3  -0.1                          T                1.6  .53 Ml 3.4         5085348
MTLF  010.96 293.1 m E Pn      2012/10/01 20:31:03.9   0.2                          T                                        5085321
MTLF  010.96 293.1 m E Sn      2012/10/01 20:33:00.0   0.1                          T                 .5  .44 Ml 2.9         5085320
CAF   011.54 300.7 m E Pn      2012/10/01 20:31:11.6   0.0                          T                                        5085322
MEZF  011.72 321.2 m E Pn      2012/10/01 20:31:14.9   0.9                          T                                        5085347
MEZF  011.72 321.2 m E Sn      2012/10/01 20:33:18.1   0.0                          T                1.3  .23 Ml 3.7         5085346

.
EVENT     284189
    Date      Time       Latitude Longitude    Depth    Ndef Nsta Gap    Mag1  N    Mag2  N    Mag3  N   Author         ID
       rms   OT_Error      Smajor Sminor Az        Err   mdist  Mdist     Err        Err        Err      Quality

2012/10/01 22:19:54.6     43.1425   -1.1273      7.8      29   15 127  Ml 2.3 13  Md 2.5  3              bulletin    284290
                                                                                                         _ldg
      0.61   +-  0.15       3.6    2.1   26.60 +-  1.4    0.08   5.50   +-0.2      +-0.0                 m i ke

PYRENEES
Sta     Dist  EvAz     Phase      Date       Time     TRes  Azim  AzRes  Slow  SRes Def   SNR       Amp   Per   Mag1   Mag2       ID
SJPF  000.08 247.8 m E Pg      2012/10/01 22:19:56.7  -0.2                          T                                        5082331
SJPF  000.08 247.8 m E Sg      2012/10/01 22:19:58.2  -0.2                          T              278.9  .20        Md 2.6  5082330
ETSF  000.48 120.1 m E Pg      2012/10/01 22:20:03.5  -0.5                          T                                        5082329
ETSF  000.48 120.1 m E Sg      2012/10/01 22:20:09.8  -0.6                          T               56.8  .26        Md 2.5  5082328
EPF   001.08 095.5 m E Pg      2012/10/01 22:20:15.0   0.1                          T                                        5082327
EPF   001.08 095.5 m E Sg      2012/10/01 22:20:29.0   0.0                          T               10.3  .20 Ml 2.6 Md 2.5  5082326
LFF   002.25 036.2 m E Pn      2012/10/01 22:20:31.6   1.3                          T   001.0                                5082338
LFF   002.25 036.2 m E Pg      2012/10/01 22:20:35.1  -1.2                          T   001.0                                5082339
LFF   002.25 036.2 m E Sn      2012/10/01 22:20:56.7   0.1                          T   001.0                                5082340
LFF   002.25 036.2 m E Sg      2012/10/01 22:21:05.3   0.1                          T   001.0        5.0  .22 Ml 2.5         5082341
MTLF  002.45 084.2 m E Pn      2012/10/01 22:20:33.6   0.5                          T   001.0                                5082346
MTLF  002.45 084.2 m E Sn      2012/10/01 22:21:01.3  -0.2                          T   001.0                                5082347
MTLF  002.45 084.2 m E Sg      2012/10/01 22:21:12.1   0.4                          T   001.0        1.4  .21 Ml 2.1         5082348
CAF   002.91 051.1 m E Pn      2012/10/01 22:20:37.6  -1.8                          T   001.0                                5082334
CAF   002.91 051.1 m E Sg      2012/10/01 22:21:24.9  -1.1                          T   001.0        2.2  .24 Ml 2.4         5082335
MFF   003.53 011.1 m E Pn      2012/10/01 22:20:48.7   0.9                          T   001.0                                5082342
MFF   003.53 011.1 m E Sn      2012/10/01 22:21:25.4  -1.8                          T   001.0         .4  .20 Ml 2.0         5082343
LASF  003.74 073.8 m E Pn      2012/10/01 22:20:51.0   0.3                          T                                        5082354
LASF  003.74 073.8 m E Sn      2012/10/01 22:21:32.4   0.1                          T   001.0        1.5  .28 Ml 2.3         5082336
TCF   003.94 035.9 m E Pn      2012/10/01 22:20:53.4  -0.1                          T                                        5082353
TCF   003.94 035.9 m E Sn      2012/10/01 22:21:36.1  -1.1                          T   001.0                                5082344
TCF   003.94 035.9 m E Sg      2012/10/01 22:21:58.0  -0.2                          T   001.0         .7  .23 Ml 2.1         5082345
QUIF  004.98 344.0 m E Pn      2012/10/01 22:21:08.8   1.2                          T   001.0                                5082349
QUIF  004.98 344.0 m E Sn      2012/10/01 22:22:01.0  -1.0                          T   001.0         .7  .23 Ml 2.3         5082350
RJF   002.88 040.4 m E Sn      2012/10/01 22:21:12.3   0.6                          T   001.0        2.9  .24 Ml 2.2         5082332
SGMF  005.21 349.4 m E Sn      2012/10/01 22:22:06.1  -1.3                          T   001.0         .3  .21 Ml 2.0         5082352
ROSF  005.41 344.6 m E Sn      2012/10/01 22:22:11.6  -0.5                          T   001.0         .5  .19 Ml 2.4         5082351
BGF   004.43 038.2 m E Sg      2012/10/01 22:22:13.1  -0.4                          T   001.0        4.7  .35 Ml 2.9         5082333
LDF   005.50 007.0 m E Sn      2012/10/01 22:22:15.6   1.3                          T   001.0         .8  .36 Ml 2.3         5082337

.
EVENT     284468
    Date      Time       Latitude Longitude    Depth    Ndef Nsta Gap    Mag1  N    Mag2  N    Mag3  N   Author         ID
       rms   OT_Error      Smajor Sminor Az        Err   mdist  Mdist     Err        Err        Err      Quality

2012/10/01 22:21:01.8     43.1247   -1.1391      8.0 f    12    3 164  Ml 1.4  1  Md 1.5  2              bulletin    284569
                                                                                                         _ldg
      0.26   +-  0.09       2.5    1.3    4.20 +-  0.0    0.06   1.09   +-         +-0.2                 m i ke

PYRENEES
Sta     Dist  EvAz     Phase      Date       Time     TRes  Azim  AzRes  Slow  SRes Def   SNR       Amp   Per   Mag1   Mag2       ID
SJPF  000.06 259.7 m E Pg      2012/10/01 22:21:03.7  -0.3                          T                                        5085378
SJPF  000.06 259.7 m E Sg      2012/10/01 22:21:05.0  -0.4                          T               16.4  .20        Md 1.7  5085377
ETSF  000.48 117.8 m E Pg      2012/10/01 22:21:11.2   0.0                          T                                        5085376
ETSF  000.48 117.8 m E Sg      2012/10/01 22:21:16.9  -0.7                          T                2.3  .20        Md 1.4  5085375
EPF   001.09 094.5 m E Pg      2012/10/01 22:21:22.6   0.4                          T                                        5085374
EPF   001.09 094.5 m E Sg      2012/10/01 22:21:36.3  -0.1                          T                 .7  .19 Ml 1.4         5085373

.
EVENT     284222
    Date      Time       Latitude Longitude    Depth    Ndef Nsta Gap    Mag1  N    Mag2  N    Mag3  N   Author         ID
       rms   OT_Error      Smajor Sminor Az        Err   mdist  Mdist     Err        Err        Err      Quality

2012/10/02 07:17:07.0     43.1254   -1.1219     15.0      28    7 065  Ml 2.0  5  Md 2.0  2              bulletin    284323
                                                                                                         _ldg
      0.28   +-  0.06       1.2    1.1  152.60 +-  0.0    0.08   3.55   +-0.3      +-0.1                 m i ke

PYRENEES
Sta     Dist  EvAz     Phase      Date       Time     TRes  Azim  AzRes  Slow  SRes Def   SNR       Amp   Per   Mag1   Mag2       ID
SJPF  000.08 260.9 m E Pg      2012/10/02 07:17:09.5  -0.7                          T                                        5082387
SJPF  000.08 260.9 m E Sg      2012/10/02 07:17:10.9  -1.5                          T               39.6  .20        Md 2.1  5082385
ETSF  000.47 118.6 m E Pg      2012/10/02 07:17:16.1  -0.4                          T                                        5082386
ETSF  000.47 118.6 m E Sg      2012/10/02 07:17:22.7  -0.2                          T                7.5  .32        Md 2.0  5082384
EPF   001.08 094.6 m E Pn      2012/10/02 07:17:26.2   0.1                          T                                        5085234
EPF   001.08 094.6 m E Sn      2012/10/02 07:17:39.7  -0.1                          T                                        5082383
LFF   002.26 035.9 m E Pn      2012/10/02 07:17:42.2   0.2                          T                                        5085225
LFF   002.26 035.9 m E Sn      2012/10/02 07:18:07.6  -0.4                          T                                        5085224
LFF   002.26 035.9 m E Sg      2012/10/02 07:18:17.8  -0.2                          T                2.9  .23 Ml 2.2         5085223
MTLF  002.45 083.8 m E Pn      2012/10/02 07:17:44.9   0.2                          T                                        5085233
MTLF  002.45 083.8 m E Pg      2012/10/02 07:17:52.5   0.0                          T                                        5085232
MTLF  002.45 083.8 m E Sn      2012/10/02 07:18:12.5  -0.1                          T                                        5085230
MTLF  002.45 083.8 m E Sg      2012/10/02 07:18:23.9  -0.2                          T                1.3  .34 Ml 1.9         5085231
CAF   002.92 050.8 m E Pn      2012/10/02 07:17:51.3   0.2                          T                                        5085229
CAF   002.92 050.8 m E Pg      2012/10/02 07:18:01.1  -0.1                          T                                        5085228
CAF   002.92 050.8 m E Sn      2012/10/02 07:18:23.3  -0.5                          T                                        5085227
CAF   002.92 050.8 m E Sg      2012/10/02 07:18:38.6  -0.1                          T                 .9  .21 Ml 2.0         5085226
MFF   003.55 011.0 m E Pn      2012/10/02 07:18:00.0   0.4                          T                                        5085222
MFF   003.55 011.0 m E Sn      2012/10/02 07:18:38.7  -0.1                          T                                        5085221
MFF   003.55 011.0 m E Sg      2012/10/02 07:18:57.9  -0.4                          T                1.2  .26 Ml 2.4         5085220

.
EVENT     284224
    Date      Time       Latitude Longitude    Depth    Ndef Nsta Gap    Mag1  N    Mag2  N    Mag3  N   Author         ID
       rms   OT_Error      Smajor Sminor Az        Err   mdist  Mdist     Err        Err        Err      Quality

2012/10/02 09:06:02.8     48.7615    5.9916       .0 f    10    6 242  Ml 2.3  4  Md 2.2  1              bulletin    284325
                                                                                                         _ldg
      0.36   +-  0.17       3.0    1.4  178.63 +-  0.0    0.27   2.39   +-0.2      +-                    m i km

FRANCE
Sta     Dist  EvAz     Phase      Date       Time     TRes  Azim  AzRes  Slow  SRes Def   SNR       Amp   Per   Mag1   Mag2       ID
PAGF  000.27 220.6 m E Pg      2012/10/02 09:06:08.5   0.1  38.9  -1.5              T                                        5082444
PAGF  000.27 220.6 m E Sg      2012/10/02 09:06:12.3   0.0  39.8  -0.6              T              466.3  .87        Md 2.2  5082443
CDF   000.92 111.8 m E Pg      2012/10/02 09:06:20.7   0.3                          T                                        5086039
CDF   000.92 111.8 m E Sg      2012/10/02 09:06:32.4  -0.3                          T                                        5082441
CDF   000.92 111.8 m E Sn      2012/10/02 09:06:35.3   0.3                          T               23.2  .60 Ml 2.5         5082442
HINF  001.11 148.4 m E Pg      2012/10/02 09:06:23.4  -0.4                          T                                        5082503
HINF  001.11 148.4 m E Sn      2012/10/02 09:06:39.4   0.0                          T                8.1  .42 Ml 2.1         5082504
SFTF  000.84 229.1 m E Sg      2012/10/02 09:06:29.9  -0.2  47.0  -1.3              T                8.7  .41                5086038
LOR   002.07 224.6 m E Sg      2012/10/02 09:07:08.7   0.4  44.4  1.4               T                3.8  .39 Ml 2.2         5086041
SSF   002.39 225.4 m E Sg      2012/10/02 09:07:18.1  -0.1                          T                7.8  .55 Ml 2.5         5086040

.
