EVENT     289000
    Date      Time       Latitude Longitude    Depth    Ndef Nsta Gap    Mag1  N    Mag2  N    Mag3  N   Author         ID
       rms   OT_Error      Smajor Sminor Az        Err   mdist  Mdist     Err        Err        Err      Quality

2012/12/26 16:19:35.3     43.0367    -.1055      2.0 f    24    8 156  Ml 1.9  6  Md 1.8  3              bulletin    289100
                                                                                                         _ldg
      0.19   +-  0.04       1.1     .6  165.51 +-  0.0    0.33   5.38   +-0.2      +-0.1                 m i ke

PYRENEES
Sta     Dist  EvAz     Phase      Date       Time     TRes  Azim  AzRes  Slow  SRes Def   SNR       Amp   Per   Mag1   Mag2       ID
EPF   000.33 091.0 m E Pg      2012/12/26 16:19:41.5  -0.2                          T                                        5146880
EPF   000.33 091.0 m E Sg      2012/12/26 16:19:45.9  -0.2                          T               10.2  .21        Md 2.0  5146873
ETSF  000.36 247.6 m E Pg      2012/12/26 16:19:42.4   0.0                          T                                        5146879
ETSF  000.36 247.6 m E Sg      2012/12/26 16:19:47.2   0.0                          T                8.5  .18        Md 1.9  5146874
SJPF  000.82 275.7 m E Pg      2012/12/26 16:19:50.8  -0.1                          T                                        5146876
SJPF  000.82 275.7 m E Sg      2012/12/26 16:20:01.6   0.0                          T                1.9  .23        Md 1.7  5146875
SJPF  000.82 275.7 m E Sn      2012/12/26 16:20:04.4   0.0                          T                                        5146883
MTLF  001.73 079.1 m E Pn      2012/12/26 16:20:04.7   0.1                          T                                        5146878
MTLF  001.73 079.1 m E Pg      2012/12/26 16:20:07.6   0.2                          T                                        5146877
MTLF  001.73 079.1 m E Sn      2012/12/26 16:20:25.8  -0.1                          T                 .7  .21 Ml 1.7         5146872
MTLF  001.73 079.1 m E Sg      2012/12/26 16:20:29.8   0.1                          T                  1  .16 Ml 1.9         5146871
LFF   002.00 017.5 m E Pn      2012/12/26 16:20:08.4   0.1                          T                                        5163716
LFF   002.00 017.5 m E Pg      2012/12/26 16:20:12.5   0.1                          T                                        5163715
LFF   002.00 017.5 m E Sg      2012/12/26 16:20:38.1  -0.1                          T                3.9  .28 Ml 2.2         5163714
CAF   002.45 038.9 m E Pn      2012/12/26 16:20:14.6   0.0                          T                                        5163719
CAF   002.45 038.9 m E Pg      2012/12/26 16:20:20.7  -0.2                          T                                        5163720
CAF   002.45 038.9 m E Sn      2012/12/26 16:20:43.6   0.2                          T                                        5163718
CAF   002.45 038.9 m E Sg      2012/12/26 16:20:52.5   0.0                          T                 .9  .20 Ml 2.0         5163717
RJF   002.55 026.7 m E Pg      2012/12/26 16:20:22.8   0.1                          T                                        5163713
RJF   002.55 026.7 m E Sn      2012/12/26 16:20:45.5  -0.2                          T                                        5163712
RJF   002.55 026.7 m E Sg      2012/12/26 16:20:55.0  -0.4                          T                1.1  .19 Ml 1.8         5163711
GRR   005.38 354.6 m E Pn      2012/12/26 16:20:54.3   0.0                          T                                        5163710

.
EVENT     289536
    Date      Time       Latitude Longitude    Depth    Ndef Nsta Gap    Mag1  N    Mag2  N    Mag3  N   Author         ID
       rms   OT_Error      Smajor Sminor Az        Err   mdist  Mdist     Err        Err        Err      Quality

2012/12/27 02:29:01.2     46.6595     .2374      2.0      15    8 092  Ml 1.6  7  Md 1.6  1              bulletin    289636
                                                                                                         _ldg
      0.84   +-  0.10       2.0    1.6   48.68 +-  0.0    0.27   2.16   +-0.3      +-                    m i ke

FRANCE
Sta     Dist  EvAz     Phase      Date       Time     TRes  Azim  AzRes  Slow  SRes Def   SNR       Amp   Per   Mag1   Mag2       ID
MFF   000.27 257.9 m E Pg      2012/12/27 02:29:06.7   0.2                          T                                        5164239
MFF   000.27 257.9 m E Sg      2012/12/27 02:29:09.8  -0.4                          T               21.0  .26        Md 1.6  5164240
RJF   001.62 146.2 m E Pg      2012/12/27 02:29:31.3  -0.1                          T                                        5164243
RJF   001.62 146.2 m E Sg      2012/12/27 02:29:52.6   0.3                          T                3.6  .25 Ml 1.9         5164238
LFF   001.76 168.3 m E P       2012/12/27 02:29:32.9   0.0                          T                                        5164244
LFF   001.76 168.3 m E Sg      2012/12/27 02:29:56.5   0.0                          T                2.3  .29 Ml 1.9         5164237
GRR   001.88 337.2 m E Pg      2012/12/27 02:29:36.1   0.0                          T                                        5164242
GRR   001.88 337.2 m E Sg      2012/12/27 02:29:59.6  -0.9                          T                 .7  .17 Ml 1.7         5164234
AVF   002.15 085.4 m E Pg      2012/12/27 02:29:41.1   0.0                          T                                        5164241
AVF   002.15 085.4 m E Sg      2012/12/27 02:30:08.8   0.1                          T                 .3  .22 Ml 1.4         5164245
TCF   001.41 104.5 m E Sg      2012/12/27 02:29:46.3   0.4                          T                1.2  .19 Ml 1.8         5164246
LDF   001.95 353.0 m E Sg      2012/12/27 02:30:02.1  -0.5                          T                 .5  .22 Ml 1.5         5164235
FLN   002.16 347.3 m E Sg      2012/12/27 02:30:08.9  -0.2                          T                 .2  .14 Ml 1.3         5164236

.
EVENT     289001
    Date      Time       Latitude Longitude    Depth    Ndef Nsta Gap    Mag1  N    Mag2  N    Mag3  N   Author         ID
       rms   OT_Error      Smajor Sminor Az        Err   mdist  Mdist     Err        Err        Err      Quality

2012/12/27 04:08:15.1     42.8537    -.7821      2.0       6    3 231             Md 1.6  3              bulletin    289101
                                                                                                         _ldg
      0.13   +-  0.27      10.2    1.3   11.90 +-  0.0    0.17   0.84              +-0.0                 m i ke

PYRENEES
Sta     Dist  EvAz     Phase      Date       Time     TRes  Azim  AzRes  Slow  SRes Def   SNR       Amp   Per   Mag1   Mag2       ID
ETSF  000.17 074.6 m E Pg      2012/12/27 04:08:18.7   0.0                          T                                        5147148
ETSF  000.17 074.6 m E Sg      2012/12/27 04:08:21.1   0.0                          T               52.8  .26        Md 1.6  5147144
SJPF  000.42 308.7 m E Pg      2012/12/27 04:08:23.2   0.1                          T                                        5147147
SJPF  000.42 308.7 m E Sg      2012/12/27 04:08:28.3  -0.3                          T               11.5  .22        Md 1.6  5147143
EPF   000.84 077.5 m E Pg      2012/12/27 04:08:30.8  -0.1                          T                                        5147146
EPF   000.84 077.5 m E Sg      2012/12/27 04:08:42.0   0.0                          T                1.0  .16        Md 1.6  5147145

.
EVENT     289087
    Date      Time       Latitude Longitude    Depth    Ndef Nsta Gap    Mag1  N    Mag2  N    Mag3  N   Author         ID
       rms   OT_Error      Smajor Sminor Az        Err   mdist  Mdist     Err        Err        Err      Quality

2012/12/27 04:38:18.2     44.5613   10.2234     25.0      53    7 085  Ml 2.4  5                         bulletin    289187
                                                                                                         _ldg
      0.48   +-  0.08       1.8    1.3   30.74 +-  0.0    0.13   3.97   +-0.2                            m i ke

NORTHERN ITALY
Sta     Dist  EvAz     Phase      Date       Time     TRes  Azim  AzRes  Slow  SRes Def   SNR       Amp   Per   Mag1   Mag2       ID
SBF   002.12 251.8 m E Pn      2012/12/27 04:38:51.1   0.6                          T                                        5147366
SBF   002.12 251.8 m E Sn      2012/12/27 04:39:14.8   0.6                          T                                        5147348
SBF   002.12 251.8 m E Sg      2012/12/27 04:39:25.4   0.0                          T                7.7  .31 Ml 2.6         5147347
MBDF  002.47 275.1 m E Pn      2012/12/27 04:38:55.5   0.2                          T                                        5147359
MBDF  002.47 275.1 m E Pg      2012/12/27 04:39:04.3  -0.1                          T                                        5147368
MBDF  002.47 275.1 m E Sn      2012/12/27 04:39:22.5  -0.1                          T                                        5147355
MBDF  002.47 275.1 m E Sg      2012/12/27 04:39:35.9  -0.4                          T                2.8  .37 Ml 2.2         5147356
LPG   002.63 292.0 m E Pn      2012/12/27 04:38:57.5  -0.2                          T                                        5147364
LPG   002.63 292.0 m E Pg      2012/12/27 04:39:07.3  -0.3                          T                                        5147365
LPG   002.63 292.0 m E Sn      2012/12/27 04:39:26.5  -0.2                          T                                        5147363
LPG   002.63 292.0 m E Sg      2012/12/27 04:39:40.8  -0.7                          T                                        5147362
LPL   002.65 292.3 m E Pn      2012/12/27 04:38:58.0   0.1                          T                                        5147367
LPL   002.65 292.3 m E Pg      2012/12/27 04:39:08.0   0.1                          T                                        5147361
LPL   002.65 292.3 m E Sg      2012/12/27 04:39:40.7  -1.4                          T                1.6  .25 Ml 2.1         5147360
LMR   002.95 246.7 m E Pn      2012/12/27 04:39:02.0   0.4                          T                                        5147351
LMR   002.95 246.7 m E P       2012/12/27 04:39:04.6   0.0                          T                                        5147350
LMR   002.95 246.7 m E Sn      2012/12/27 04:39:34.4   0.5                          T                2.9  .25 Ml 2.5         5147349
ORIF  003.12 278.1 m E Pn      2012/12/27 04:39:04.2   0.2                          T                                        5147354
ORIF  003.12 278.1 m E Pg      2012/12/27 04:39:15.8  -0.4                          T                                        5147353
ORIF  003.12 278.1 m E Sn      2012/12/27 04:39:38.0   0.0                          T                5.7  .53 Ml 2.5         5147352
VIVF  003.97 276.2 m E Pn      2012/12/27 04:39:14.5  -1.0                          T                                        5147358
VIVF  003.97 276.2 m E Sn      2012/12/27 04:39:58.4   0.1                          T                                        5147357

.
EVENT     289027
    Date      Time       Latitude Longitude    Depth    Ndef Nsta Gap    Mag1  N    Mag2  N    Mag3  N   Author         ID
       rms   OT_Error      Smajor Sminor Az        Err   mdist  Mdist     Err        Err        Err      Quality

2012/12/27 05:49:51.9     44.2176    6.1051      2.0      20    9 076  Ml 1.9  6  Md 1.9  2              bulletin    289127
                                                                                                         _ldg
      0.23   +-  0.04        .8     .7  101.39 +-  0.0    0.45   1.62   +-0.4      +-0.0                 m i ke

FRANCE
Sta     Dist  EvAz     Phase      Date       Time     TRes  Azim  AzRes  Slow  SRes Def   SNR       Amp   Per   Mag1   Mag2       ID
SMRF  000.45 237.9 m E Pg      2012/12/27 05:50:00.6   0.0                          T                                        5147187
SMRF  000.45 237.9 m E Sg      2012/12/27 05:50:06.6   0.0                          T               13.6  .28        Md 1.9  5147186
MBDF  000.70 042.9 m E Pg      2012/12/27 05:50:05.2  -0.1                          T                                        5147180
MBDF  000.70 042.9 m E Sg      2012/12/27 05:50:14.7   0.3                          T                9.0  .64                5147193
ORIF  000.72 347.1 m E Pg      2012/12/27 05:50:05.6   0.0                          T                                        5147181
ORIF  000.72 347.1 m E Sg      2012/12/27 05:50:15.0   0.0                          T                4.4  .27                5147192
LMR   000.93 161.5 m E Pg      2012/12/27 05:50:09.1  -0.3                          T                                        5147184
LMR   000.93 161.5 m E Sg      2012/12/27 05:50:21.9   0.4                          T               10.2  .22 Ml 2.5         5147185
SBF   001.02 109.8 m E Pg      2012/12/27 05:50:11.3   0.1                          T                                        5147183
SBF   001.02 109.8 m E Sg      2012/12/27 05:50:24.6   0.2                          T                5.1  .26 Ml 2.1         5147182
VIVF  001.21 302.4 m E Pn      2012/12/27 05:50:14.2   0.1                          T                                        5147179
VIVF  001.21 302.4 m E Sg      2012/12/27 05:50:30.4   0.3                          T                2.8  .33 Ml 1.8 Md 1.9  5147194
LPG   001.36 019.5 m E Pg      2012/12/27 05:50:17.7   0.0                          T                                        5147188
LPG   001.36 019.5 m E Sn      2012/12/27 05:50:34.2   0.0                          T                 .4  .18 Ml 1.3         5162887
LPL   001.37 018.7 m E Pg      2012/12/27 05:50:17.7  -0.1                          T                                        5147189
LPL   001.37 018.7 m E Sn      2012/12/27 05:50:34.5   0.1                          T                 .8  .17 Ml 1.7         5162886
LASF  001.62 265.8 m E Pn      2012/12/27 05:50:20.0   0.2                          T                                        5162884
LASF  001.62 265.8 m E Sn      2012/12/27 05:50:39.9  -0.3                          T                1.4  .22 Ml 1.9         5162885

.
EVENT     289093
    Date      Time       Latitude Longitude    Depth    Ndef Nsta Gap    Mag1  N    Mag2  N    Mag3  N   Author         ID
       rms   OT_Error      Smajor Sminor Az        Err   mdist  Mdist     Err        Err        Err      Quality

2012/12/27 21:04:35.7     45.9221    6.1205      2.0      28   13 118  Ml 2.6 12  Md 2.5  4              bulletin    289193
                                                                                                         _ldg
      0.47   +-  0.07       2.1    1.3   67.10 +-  0.0    0.59   2.45   +-0.5      +-0.1                 m i ke

FRANCE
Sta     Dist  EvAz     Phase      Date       Time     TRes  Azim  AzRes  Slow  SRes Def   SNR       Amp   Per   Mag1   Mag2       ID
LPL   000.59 133.2 m E Pg      2012/12/27 21:04:47.3   0.1                          T                                        5147446
LPL   000.59 133.2 m E Sg      2012/12/27 21:04:54.8  -0.2                          T                                Md 2.6  5147441
LPG   000.61 133.6 m E Pg      2012/12/27 21:04:48.2   0.4                          T                                        5147444
LPG   000.61 133.6 m E Sg      2012/12/27 21:04:55.2  -0.6                          T                4.4  .27        Md 2.6  5147442
CABF  000.69 358.1 m E Pg      2012/12/27 21:04:48.7  -0.2                          T                                        5147447
CABF  000.69 358.1 m E Sg      2012/12/27 21:04:57.8  -0.1                          T                2.5  .18        Md 2.4  5147430
ORIF  001.02 189.7 m E Pg      2012/12/27 21:04:54.5  -0.4                          T                                        5147445
ORIF  001.02 189.7 m E Sg      2012/12/27 21:05:08.8   0.7                          T               30.6  .40 Ml 2.7 Md 2.5  5147426
MBDF  001.28 158.8 m E Pn      2012/12/27 21:04:58.9  -0.3                          T                                        5147440
MBDF  001.28 158.8 m E Sn      2012/12/27 21:05:16.0   0.1                          T               19.6 1.04 Ml 2.2         5147427
VIVF  001.48 224.3 m E Pn      2012/12/27 21:05:01.9   0.3                          T                                        5147443
VIVF  001.48 224.3 m E Sn      2012/12/27 21:05:20.5   0.1                          T                7.6  .28 Ml 2.5         5147428
SMF   001.74 295.4 m E Pn      2012/12/27 21:05:05.7   0.5                          T                                        5147439
SMF   001.74 295.4 m E Sn      2012/12/27 21:05:26.1  -0.6                          T                9.6  .28 Ml 2.7         5147424
HINF  001.96 014.6 m E Pn      2012/12/27 21:05:08.5   0.2                          T                                        5147432
HINF  001.96 014.6 m E Sn      2012/12/27 21:05:31.9  -0.2                          T                3.8  .26 Ml 2.4         5147433
LOR   002.06 311.6 m E Pn      2012/12/27 21:05:09.3  -0.3                          T                                        5147437
LOR   002.06 311.6 m E Sn      2012/12/27 21:05:35.0   0.7                          T                6.9  .38 Ml 2.5         5147434
SSF   002.14 303.2 m E Pn      2012/12/27 21:05:10.4  -0.2                          T                2.0  .26 Ml 2.2         5147436
HAU   002.09 004.2 m E Pn      2012/12/27 21:05:10.4   0.4                          T                                        5147431
SSF   002.14 303.2 m E Sn      2012/12/27 21:05:36.1   0.0                          T              276.5 2.56 Ml 3.4         5147435
AVF   002.10 295.4 m E Pn      2012/12/27 21:05:10.4   0.3                          T                                        5147438
AVF   002.10 295.4 m E Sn      2012/12/27 21:05:35.3  -0.1                          T                 .9  .25 Ml 1.8         5147429
LASF  002.45 221.8 m E Sn      2012/12/27 21:05:43.3  -0.3                          T              104.0 1.54 Ml 3.1         5147425

.
