BEGIN GSE2.0
MSG_TYPE DATA
MSG_ID 07-JUN-1315:29:40  FRA_NDC
E-MAIL
DATA_TYPE BULLETIN
Reviewed Bulletin (REB) # P2013-022  from French NDC for regional phases     PERIOD 29 MAI 2013 TO 04 JUN 2013 Cenalt JP S
EVENT     299896
    Date      Time       Latitude Longitude    Depth    Ndef Nsta Gap    Mag1  N    Mag2  N    Mag3  N   Author         ID
       rms   OT_Error      Smajor Sminor Az        Err   mdist  Mdist     Err        Err        Err      Quality

2013/05/29 03:16:29.5     52.9072   -4.7163      8.0 f   205   40 083  Ml 4.2 74  Md 4.3  2              bulletin    299996
                                                                                                         _ldg
      1.18   +-  0.12       3.0    2.0   84.61 +-  0.0    0.35  20.98   +-0.2      +-0.0                 m i ke

UNITED KINGDOM
Sta     Dist  EvAz     Phase      Date       Time     TRes  Azim  AzRes  Slow  SRes Def   SNR       Amp   Per   Mag1   Mag2       ID
ROSF  004.67 168.1 m E Pn      2013/05/29 03:17:37.6  -0.6                          T                                        5296195
ROSF  004.67 168.1 m E P       2013/05/29 03:17:42.3   0.2                          T                                        5296507
ROSF  004.67 168.1 m E Sn      2013/05/29 03:18:28.1  -1.2                          T              104.2  .25 Ml 4.4         5296162
ROSF  004.67 168.1 m E Sg      2013/05/29 03:18:55.9   0.2                          T               98.6  .42 Ml 4.2 Md 4.3  5296535
SGMF  004.86 162.7 m E Pn      2013/05/29 03:17:39.7  -1.1                          T                                        5296193
SGMF  004.86 162.7 m E Sn      2013/05/29 03:18:32.4  -1.5                          T               27.0  .28 Ml 3.8         5296161
SGMF  004.86 162.7 m E Sg      2013/05/29 03:19:01.6   0.0                          T              115.1  .56 Ml 4.2 Md 4.3  5296536
FLN   004.94 145.4 m E Pn      2013/05/29 03:17:41.2  -0.7 325.7  -3.0              T                                        5296198
FLN   004.94 145.4 m E P       2013/05/29 03:17:46.0   0.0                          T                                        5296506
FLN   004.94 145.4 m E Sn      2013/05/29 03:18:34.4  -1.4 324.8  -3.9              T               68.1  .33 Ml 4.0         5296164
FLN   004.94 145.4 m E Sg      2013/05/29 03:19:03.8  -0.5                          T              116.4  .47 Ml 4.1         5296532
QUIF  005.09 168.2 m E Pn      2013/05/29 03:17:43.3  -0.6                          T                                        5296192
QUIF  005.09 168.2 m E P       2013/05/29 03:17:48.3   0.1                          T                                        5296505
QUIF  005.09 168.2 m E Sn      2013/05/29 03:18:40.1   0.6                          T               33.7  .23 Ml 4.1         5296160
QUIF  005.09 168.2 m E Sg      2013/05/29 03:19:09.1   0.1                          T              167.0  .76 Ml 4.2         5296537
GRR   005.15 150.0 m E Pn      2013/05/29 03:17:44.4  -0.3                          T                                        5296196
GRR   005.15 150.0 m E Sn      2013/05/29 03:18:41.0   0.2                          T                                        5296504
GRR   005.15 150.0 m E Sg      2013/05/29 03:19:10.9   0.2                          T               56.5  .44 Ml 3.9         5296534
LDF   005.21 144.2 m E Pn      2013/05/29 03:17:45.0  -0.6                          T                                        5296197
LDF   005.21 144.2 m E Sn      2013/05/29 03:18:41.4  -0.9                          T               49.3  .29 Ml 4.1         5296163
LDF   005.21 144.2 m E Sg      2013/05/29 03:19:12.7   0.0                          T              112.5  .62 Ml 4.1         5296533
BAIF  006.26 113.5 m E Pn      2013/05/29 03:18:00.5   0.7                          T                                        5296208
BAIF  006.26 113.5 m E Sn      2013/05/29 03:19:07.9   0.5                          T               15.0  .26 Ml 3.9         5296170
BAIF  006.26 113.5 m E Sg      2013/05/29 03:19:46.0   0.5                          T               60.4  .72 Ml 4.1         5296523
GIVF  006.58 111.4 m E Pn      2013/05/29 03:18:04.9   0.6                          T                                        5296207
GIVF  006.58 111.4 m E Sn      2013/05/29 03:19:14.5  -0.6                          T                                        5296525
GIVF  006.58 111.4 m E Sg      2013/05/29 03:19:55.4  -0.1                          T               58.0  .52 Ml 4.2         5296524
MFF   006.97 153.1 m E Pn      2013/05/29 03:18:08.7  -0.9                          T                                        5296190
MFF   006.97 153.1 m E Sn      2013/05/29 03:19:22.1  -2.3                          T               15.7  .34 Ml 4.1         5296159
MFF   006.97 153.1 m E Sg      2013/05/29 03:20:07.6   0.0                          T               54.1  .66 Ml 4.3         5296538
HYF   007.36 137.1 m E Pn      2013/05/29 03:18:15.0   0.1                          T                                        5296560
HYF   007.36 137.1 m E Sn      2013/05/29 03:19:33.5  -0.3                          T                                        5296542
HYF   007.36 137.1 m E Sg      2013/05/29 03:20:20.2   0.3                          T                                        5296518
MEZF  007.61 121.5 m E Pn      2013/05/29 03:18:18.4   0.2 301.5  -7.6              T                                        5296206
MEZF  007.61 121.5 m E Sn      2013/05/29 03:19:39.8   0.2 304.1  -5.0              T               28.7  .27 Ml 4.4         5296169
MEZF  007.61 121.5 m E Sg      2013/05/29 03:20:27.8   0.3                          T               19.8  .33 Ml 4.1         5296527
SFTF  007.79 123.3 m E Pn      2013/05/29 03:18:20.8   0.0 303.3  -7.5              T                                        5296205
SFTF  007.79 123.3 m E Sn      2013/05/29 03:19:42.5  -1.5                          T               26.2  .26 Ml 4.4         5296168
SFTF  007.79 123.3 m E Sg      2013/05/29 03:20:33.6   0.3                          T               17.8  .39 Ml 4.0         5296528
LOR   007.89 132.3 m E Pn      2013/05/29 03:18:21.1  -1.0                          T                                        5296204
LOR   007.89 132.3 m E Sn      2013/05/29 03:19:43.7  -2.6                          T               54.8  .38 Ml 4.6         5296172
LOR   007.89 132.3 m E Sg      2013/05/29 03:20:36.6   0.4                          T               33.8  .48 Ml 4.3         5296521
SSF   007.89 134.6 m E Pn      2013/05/29 03:18:21.5  -0.6                          T                                        5296203
SSF   007.89 134.6 m E Sn      2013/05/29 03:19:44.1  -2.3                          T               22.0  .28 Ml 4.4         5296171
SSF   007.89 134.6 m E Sg      2013/05/29 03:20:36.2  -0.1                          T               46.1  .60 Ml 4.4         5296522
PAGF  007.93 119.2 m E Pn      2013/05/29 03:18:22.6   0.1                          T                                        5296561
PAGF  007.93 119.2 m E Sn      2013/05/29 03:19:47.0  -0.2                          T               23.8  .34 Ml 4.2         5296526
TCF   008.01 143.1 m E Pn      2013/05/29 03:18:23.0  -0.7                          T                                        5296189
TCF   008.01 143.1 m E Sn      2013/05/29 03:19:47.2  -1.9                          T               25.1  .23 Ml 4.5         5296158
TCF   008.01 143.1 m E Sg      2013/05/29 03:20:42.5   2.6                          T               41.3  .78 Ml 4.2         5296539
AVF   008.04 136.4 m E Pn      2013/05/29 03:18:23.1  -0.9                          T                                        5296188
AVF   008.04 136.4 m E Sn      2013/05/29 03:19:45.7  -4.1                          T               20.3  .39 Ml 4.1         5296157
AVF   008.04 136.4 m E Sg      2013/05/29 03:20:41.5   0.6                          T               36.1  .64 Ml 4.2         5296540
BGF   008.02 139.4 m E Pn      2013/05/29 03:18:23.1  -0.7                          T                                        5296186
BGF   008.02 139.4 m E Sn      2013/05/29 03:19:43.7  -5.8                          T              103.2  .40 Ml 4.8         5296151
BGF   008.02 139.4 m E Sg      2013/05/29 03:20:40.3  -0.1                          T               87.7  .51 Ml 4.7         5296517
SMF   008.36 135.2 m E Pn      2013/05/29 03:18:27.4  -1.1                          T                                        5296187
SMF   008.36 135.2 m E Sn      2013/05/29 03:19:52.5  -5.1                          T               16.4  .28 Ml 4.2         5296156
SMF   008.36 135.2 m E Sg      2013/05/29 03:20:51.1   0.1                          T               96.9  .92 Ml 4.5         5296541
HAU   008.59 120.4 m E Pn      2013/05/29 03:18:30.7  -1.0                          T                                        5296201
HAU   008.59 120.4 m E Sn      2013/05/29 03:20:01.5  -1.7                          T               12.7  .24 Ml 4.0         5296167
HAU   008.59 120.4 m E Sg      2013/05/29 03:20:58.4   0.1                          T               12.3  .37 Ml 3.8         5296529
RJF   008.63 149.3 m E Pn      2013/05/29 03:18:31.0  -1.3                          T                                        5296185
RJF   008.63 149.3 m E Sn      2013/05/29 03:20:01.3  -2.8                          T               11.7  .27 Ml 3.8         5296155
RJF   008.63 149.3 m E Sg      2013/05/29 03:20:59.7   0.2                          T               84.1  .98 Ml 4.1         5296543
LFF   008.74 153.6 m E Pn      2013/05/29 03:18:32.6  -1.1                          T                                        5296184
LFF   008.74 153.6 m E Sn      2013/05/29 03:20:04.7  -2.0                          T               23.7  .43 Ml 4.1         5296154
LFF   008.74 153.6 m E Sg      2013/05/29 03:21:03.2   0.3                          T               70.0  .76 Ml 4.3         5296516
CDF   008.84 115.8 m E Pn      2013/05/29 03:18:35.2   0.0                          T                                        5296202
CDF   008.84 115.8 m E Sn      2013/05/29 03:20:08.8  -0.4                          T               13.8  .42 Ml 4.2         5296150
CDF   008.84 115.8 m E Sg      2013/05/29 03:21:05.8  -0.4                          T               13.6  .54 Ml 4.0         5296519
HINF  008.98 120.0 m E Pn      2013/05/29 03:18:37.1   0.2                          T                                        5296200
HINF  008.98 120.0 m E Sn      2013/05/29 03:20:10.2  -2.2                          T               11.8  .33 Ml 4.1         5296166
HINF  008.98 120.0 m E Sg      2013/05/29 03:21:12.5   2.2                          T               75.7 1.22 Ml 4.3         5296530
CAF   009.15 148.2 m E Pn      2013/05/29 03:18:38.5  -0.7                          T                                        5296183
CAF   009.15 148.2 m E Sn      2013/05/29 03:20:13.8  -2.6                          T                7.9  .18 Ml 4.2         5296153
CAF   009.15 148.2 m E Sg      2013/05/29 03:21:15.2  -0.3                          T               46.3  .84 Ml 4.3         5296515
CABF  009.41 127.8 m E Pn      2013/05/29 03:18:41.7  -1.1                          T                                        5296199
CABF  009.41 127.8 m E Sn      2013/05/29 03:20:21.8  -0.9                          T               27.6  .59 Ml 4.3         5296165
CABF  009.41 127.8 m E Sg      2013/05/29 03:21:25.0   1.3                          T              149.9 1.28 Ml 4.7         5296531
SJPF  010.07 165.2 m E Pn      2013/05/29 03:18:50.8  -1.1                          T                                        5296182
SJPF  010.07 165.2 m E Sn      2013/05/29 03:20:32.1  -6.4                          T               13.5  .37 Ml 4.3         5296152
SJPF  010.07 165.2 m E Sg      2013/05/29 03:21:44.8   0.4                          T              110.0 1.24 Ml 4.7         5296514
VIVF  010.15 138.8 m E Pn      2013/05/29 03:18:52.9   0.0                          T                                        5296177
VIVF  010.15 138.8 m E Sn      2013/05/29 03:20:40.4   0.0                          T                4.6  .29 Ml 3.9         5296548
ETSF  010.39 162.8 m E Pn      2013/05/29 03:18:54.5  -1.7                          T                                        5296181
ETSF  010.39 162.8 m E Sn      2013/05/29 03:20:44.2  -2.0                          T                7.8  .27 Ml 4.2         5296544
EPF   010.44 159.1 m E Pn      2013/05/29 03:18:55.4  -1.5                          T                                        5296180
EPF   010.44 159.1 m E Sn      2013/05/29 03:20:42.8  -4.7                          T                6.1  .24 Ml 4.2         5296545
EPF   010.44 159.1 m E Sg      2013/05/29 03:21:56.9   0.8                          T               31.6  .99 Ml 4.3         5296513
LASF  010.50 143.9 m E Pn      2013/05/29 03:18:57.8   0.1                          T                                        5296178
LASF  010.50 143.9 m E Sn      2013/05/29 03:20:48.2  -0.6                          T                6.5  .59 Ml 3.9         5296547
LPL   010.52 130.1 m E Pn      2013/05/29 03:18:58.1  -0.1                          T                                        5296174
LPL   010.52 130.1 m E Sn      2013/05/29 03:20:48.9  -0.5                          T               13.0  .41 Ml 4.3         5296551
LPG   010.54 130.1 m E Pn      2013/05/29 03:18:58.6   0.1                          T                                        5296173
LPG   010.54 130.1 m E Sn      2013/05/29 03:20:49.9  -0.1                          T               10.7  .35 Ml 4.3         5296552
MTLF  010.63 151.5 m E Pn      2013/05/29 03:18:58.7  -0.7                          T                                        5296179
MTLF  010.63 151.5 m E Sn      2013/05/29 03:20:50.4  -1.4                          T                3.8  .34 Ml 3.9         5296546
ORIF  010.60 134.7 m E Pn      2013/05/29 03:18:59.1   0.1                          T                                        5296175
ORIF  010.60 134.7 m E Sn      2013/05/29 03:20:51.2   0.0                          T               28.1  .35 Ml 4.7         5296550
SMRF  011.24 138.6 m E Pn      2013/05/29 03:19:08.5   0.7                          T                                        5296388
SMRF  011.24 138.6 m E Sn      2013/05/29 03:21:06.3  -0.1                          T                7.5  .61 Ml 4.0         5296553
MBDF  011.14 132.7 m E Pn      2013/05/29 03:19:08.8   2.3                          T                                        5296176
MBDF  011.14 132.7 m E Sn      2013/05/29 03:21:04.1  -0.1                          T                5.4  .25 Ml 4.2         5296549
FRF   012.02 136.5 m E Pn      2013/05/29 03:19:18.4   0.1                          T                                        5296559
FRF   012.02 136.5 m E Sn      2013/05/29 03:21:25.5   0.5                          T                7.5  .49 Ml 4.2         5296554
LMR   012.15 137.6 m E Pn      2013/05/29 03:19:20.1   0.1                          T                                        5296558
LMR   012.15 137.6 m E Sn      2013/05/29 03:21:28.4   0.3                          T                4.1  .40 Ml 4.0         5296555
SBF   012.11 133.5 m E Pn      2013/05/29 03:19:21.1   1.4                          T                                        5296557
SBF   012.11 133.5 m E Sn      2013/05/29 03:21:27.8   0.4                          T                8.4  .26 Ml 4.5         5296556

.
EVENT     299910
    Date      Time       Latitude Longitude    Depth    Ndef Nsta Gap    Mag1  N    Mag2  N    Mag3  N   Author         ID
       rms   OT_Error      Smajor Sminor Az        Err   mdist  Mdist     Err        Err        Err      Quality

2013/05/29 05:16:39.4     49.1772    8.1307      5.0 f    24    6 057  Ml 2.1  5  Md 2.1  2              bulletin    300010
                                                                                                         _ldg
      0.28   +-  0.04       1.1     .7  122.40 +-  0.0    0.04   2.27   +-0.3      +-0.1                 m i ke

GERMANY
Sta     Dist  EvAz     Phase      Date       Time     TRes  Azim  AzRes  Slow  SRes Def   SNR       Amp   Per   Mag1   Mag2       ID
LANF  000.29 227.5 m E Pg      2013/05/29 05:16:44.8  -0.4                          T                                        5299267
LANF  000.29 227.5 m E Sg      2013/05/29 05:16:49.1  -0.1                          T                                        5299268
CDF   000.95 216.8 m E Pg      2013/05/29 05:16:57.3   0.0                          T                                        5296972
CDF   000.95 216.8 m E Sg      2013/05/29 05:17:09.9   0.1                          T                1.6  .19 Ml 1.8 Md 2.2  5296971
HINF  001.60 212.4 m E Pn      2013/05/29 05:17:06.7  -0.1                          T                                        5296967
HINF  001.60 212.4 m E Pg      2013/05/29 05:17:09.3  -0.1                          T                                        5296970
HINF  001.60 212.4 m E Sn      2013/05/29 05:17:26.6   0.0                          T                                        5296968
HINF  001.60 212.4 m E Sg      2013/05/29 05:17:30.0  -0.1                          T                1.5  .20 Ml 2.0 Md 2.0  5296969
HAU   001.67 225.9 m E Pn      2013/05/29 05:17:07.5   0.0                          T                                        5296966
HAU   001.67 225.9 m E Pg      2013/05/29 05:17:10.5   0.0                          T                                        5296965
HAU   001.67 225.9 m E Sn      2013/05/29 05:17:28.1   0.0                          T                                        5296963
HAU   001.67 225.9 m E Sg      2013/05/29 05:17:31.9  -0.1                          T                2.3  .20 Ml 1.9         5296964
PAGF  001.71 249.5 m E Pn      2013/05/29 05:17:08.2   0.1                          T                                        5296956
PAGF  001.71 249.5 m E Pg      2013/05/29 05:17:11.3   0.1                          T                                        5296957
PAGF  001.71 249.5 m E Sg      2013/05/29 05:17:33.3   0.2                          T               11.5  .52 Ml 2.5         5296958
SFTF  002.27 245.8 m E Pn      2013/05/29 05:17:15.8   0.1                          T                                        5296962
SFTF  002.27 245.8 m E Pg      2013/05/29 05:17:21.6   0.1                          T                                        5296961
SFTF  002.27 245.8 m E Sn      2013/05/29 05:17:42.5   0.1                          T                                        5296959
SFTF  002.27 245.8 m E Sg      2013/05/29 05:17:51.0   0.2                          T                4.3  .36 Ml 2.3         5296960

.
