BEGIN GSE2.0
MSG_TYPE DATA
MSG_ID 19-FEV-1315:38:35  FRA_NDC
E-MAIL
DATA_TYPE BULLETIN
Reviewed Bulletin (REB) # P2013-006  from French NDC for regional phases     PERIOD 06 FEV 2013 TO 12 FEV 2013 Cenalt JP S
EVENT     291563
    Date      Time       Latitude Longitude    Depth    Ndef Nsta Gap    Mag1  N    Mag2  N    Mag3  N   Author         ID
       rms   OT_Error      Smajor Sminor Az        Err   mdist  Mdist     Err        Err        Err      Quality

2013/02/06 00:06:18.9     38.0595   -3.2909      2.0      68    4 048  Ml 2.7  6                         bulletin    291663
                                                                                                         _ldg
      0.81   +-  0.10       2.3    1.7  146.08 +-  0.0    0.31  10.40   +-0.1                            m i ke

SPAIN
Sta     Dist  EvAz     Phase      Date       Time     TRes  Azim  AzRes  Slow  SRes Def   SNR       Amp   Per   Mag1   Mag2       ID
SJPF  005.29 016.6 m E Pn      2013/02/06 00:07:35.9  -0.8                          T                                        5189259
SJPF  005.29 016.6 m E Pg      2013/02/06 00:07:56.6  -0.1                          T                                        5189256
SJPF  005.29 016.6 m E Sn      2013/02/06 00:08:34.6  -0.1                          T                1.2  .23 Ml 2.6         5189257
SJPF  005.29 016.6 m E Sg      2013/02/06 00:09:04.2  -0.3                          T                  1  .21 Ml 2.6         5189258
ETSF  005.26 022.4 m E Pn      2013/02/06 00:07:36.4  -0.1                          T                                        5189255
ETSF  005.26 022.4 m E Pg      2013/02/06 00:07:56.4   0.1                          T                                        5189254
ETSF  005.26 022.4 m E Sn      2013/02/06 00:08:34.1   0.0                          T                1.7  .26 Ml 2.8         5189252
ETSF  005.26 022.4 m E Sg      2013/02/06 00:09:04.0   0.2                          T                1.1  .29 Ml 2.5         5189253
EPF   005.68 028.0 m E Pn      2013/02/06 00:07:42.2   0.0                          T                                        5189251
EPF   005.68 028.0 m E Pg      2013/02/06 00:08:04.6   0.5                          T                                        5189250
EPF   005.68 028.0 m E Sn      2013/02/06 00:08:43.9  -0.3                          T                1.3  .24 Ml 2.8         5189248
EPF   005.68 028.0 m E Sg      2013/02/06 00:09:17.1   0.2                          T                2.0  .32 Ml 2.8         5189249
PGF   010.40 060.6 m E Pn      2013/02/06 00:08:46.5   0.1                          T                                        5189260
PGF   010.40 060.6 m E Sn      2013/02/06 00:10:36.8  -0.1                          T                                        5189261

.
EVENT     291566
    Date      Time       Latitude Longitude    Depth    Ndef Nsta Gap    Mag1  N    Mag2  N    Mag3  N   Author         ID
       rms   OT_Error      Smajor Sminor Az        Err   mdist  Mdist     Err        Err        Err      Quality

2013/02/06 01:11:52.6     44.4896    6.6838      2.0 f    21    7 069  Ml 1.6  2  Md 1.7  5              bulletin    291666
                                                                                                         _ldg
      0.35   +-  0.09       2.1    1.5   91.86 +-  0.0    0.09   1.16   +-0.1      +-0.0                 m i ke

FRANCE
Sta     Dist  EvAz     Phase      Date       Time     TRes  Azim  AzRes  Slow  SRes Def   SNR       Amp   Per   Mag1   Mag2       ID
MBDF  000.25 014.7 m E Pg      2013/02/06 01:11:57.5  -0.1                          T                                        5189305
MBDF  000.25 014.7 m E Sg      2013/02/06 01:12:01.2   0.2                          T                2.1  .22        Md 1.6  5189303
ORIF  000.72 307.1 m E Pg      2013/02/06 01:12:06.0  -0.2                          T                                        5189304
ORIF  000.72 307.1 m E Sg      2013/02/06 01:12:14.9  -0.6                          T                 .7  .21        Md 1.7  5189310
SBF   000.83 138.9 m E Pg      2013/02/06 01:12:08.0  -0.2                          T                                        5190167
SBF   000.83 138.9 m E Sg      2013/02/06 01:12:19.2   0.1                          T                                Md 1.7  5190166
SMRF  000.95 237.6 m E Pg      2013/02/06 01:12:11.0   0.6                          T                                        5189307
SMRF  000.95 237.6 m E Sg      2013/02/06 01:12:22.5  -0.2                          T                1.7  .22 Ml 1.7         5189306
LPL   001.03 001.9 m E Pg      2013/02/06 01:12:11.5  -0.6                          T                                        5189348
LPL   001.03 001.9 m E Sg      2013/02/06 01:12:25.2  -0.3                          T                                Md 1.7  5189346
LPG   001.01 002.7 m E Pg      2013/02/06 01:12:12.1   0.2                          T                                        5189347
LPG   001.01 002.7 m E Sg      2013/02/06 01:12:24.8  -0.2                          T                                Md 1.7  5189345
LMR   001.16 186.3 m E Pg      2013/02/06 01:12:14.6   0.4                          T                                        5189309
LMR   001.16 186.3 m E Sg      2013/02/06 01:12:29.4   0.0                          T                 .8  .18 Ml 1.6         5189308

.
EVENT     291564
    Date      Time       Latitude Longitude    Depth    Ndef Nsta Gap    Mag1  N    Mag2  N    Mag3  N   Author         ID
       rms   OT_Error      Smajor Sminor Az        Err   mdist  Mdist     Err        Err        Err      Quality

2013/02/06 01:35:26.1     44.1201   11.9089     10.0      50   14 149  Ml 3.1  6                         bulletin    291664
                                                                                                         _ldg
      0.57   +-  0.13       3.7    2.0   65.95 +-  0.0    0.17   6.59   +-0.3                            m i ke

NORTHERN ITALY
Sta     Dist  EvAz     Phase      Date       Time     TRes  Azim  AzRes  Slow  SRes Def   SNR       Amp   Per   Mag1   Mag2       ID
PGF   002.64 234.5 m E P       2013/02/06 01:36:09.0  -0.9                          T                                        5190450
PGF   002.64 234.5 m E Sn      2013/02/06 01:36:34.5  -2.8                          T                2.3  .19 Ml 2.7         5190471
SBF   003.24 267.0 m E Pn      2013/02/06 01:36:15.2   0.0                          T                                        5190451
SBF   003.24 267.0 m E Sn      2013/02/06 01:36:51.0  -0.5                          T                4.2  .22 Ml 2.8         5190474
LPG   003.92 292.4 m E Pn      2013/02/06 01:36:24.8   0.0                          T                                        5190477
LPG   003.92 292.4 m E Sn      2013/02/06 01:37:07.9  -0.2                          T                                        5190494
LPL   003.94 292.6 m E Pn      2013/02/06 01:36:25.0   0.1                          T                                        5194714
LPL   003.94 292.6 m E Sn      2013/02/06 01:37:08.5   0.0                          T                                        5194725
LMR   003.99 260.5 m E Pn      2013/02/06 01:36:26.0   0.7                          T                                        5190473
LMR   003.99 260.5 m E Sn      2013/02/06 01:37:09.7   0.3                          T                                        5190472
SMRF  004.57 270.4 m E Pn      2013/02/06 01:36:33.0  -0.3                          T                                        5194726
SMRF  004.57 270.4 m E P       2013/02/06 01:36:36.6  -0.6                          T                                        5190476
SMRF  004.57 270.4 m E Sn      2013/02/06 01:37:23.1  -0.1                          T                                        5190475
CABF  004.80 303.3 m E Pn      2013/02/06 01:36:36.0  -0.5                          T                                        5194732
CABF  004.80 303.3 m E Sn      2013/02/06 01:37:29.0   0.2                          T                                        5194731
HINF  005.11 318.1 m E Pn      2013/02/06 01:36:40.0  -0.6                          T                                        5194715
HINF  005.11 318.1 m E Sn      2013/02/06 01:37:34.9  -1.3                          T                4.7  .23 Ml 3.2         5194720
CDF   005.36 324.8 m E Pn      2013/02/06 01:36:43.6  -0.5                          T                                        5194717
CDF   005.36 324.8 m E Sn      2013/02/06 01:37:42.0  -0.3                          T                5.1  .33 Ml 3.3         5194716
HAU   005.48 317.1 m E Pn      2013/02/06 01:36:44.7  -1.0                          T                                        5194719
HAU   005.48 317.1 m E Sn      2013/02/06 01:37:45.2   0.1                          T                5.5  .22 Ml 3.2         5194718
SMF   006.22 296.8 m E Pn      2013/02/06 01:36:55.5  -0.2                          T                                        5194724
SMF   006.22 296.8 m E Sn      2013/02/06 01:38:02.4  -0.2                          T                                        5194723
LOR   006.46 302.0 m E Pn      2013/02/06 01:36:57.8  -1.1                          T                                        5194730
LOR   006.46 302.0 m E Sn      2013/02/06 01:38:07.9  -0.5                          T                2.6  .21 Ml 3.3         5194729
SSF   006.59 299.5 m E Pn      2013/02/06 01:36:59.9  -0.8                          T                                        5194728
SSF   006.59 299.5 m E Sn      2013/02/06 01:38:11.4  -0.1                          T                                        5194727
AVF   006.58 296.9 m E Pn      2013/02/06 01:37:00.2  -0.5                          T                                        5194722
AVF   006.58 296.9 m E Sn      2013/02/06 01:38:11.3   0.0                          T                                        5194721

.
EVENT     291565
    Date      Time       Latitude Longitude    Depth    Ndef Nsta Gap    Mag1  N    Mag2  N    Mag3  N   Author         ID
       rms   OT_Error      Smajor Sminor Az        Err   mdist  Mdist     Err        Err        Err      Quality

2013/02/06 01:36:50.8     44.2018   12.0094     10.0      87   26 052  Ml 3.5 19                         bulletin    291665
                                                                                                         _ldg
      0.77   +-  0.10       2.2    2.2  121.60 +-  0.0    0.43   8.31   +-0.6                            m i ke

NORTHERN ITALY
Sta     Dist  EvAz     Phase      Date       Time     TRes  Azim  AzRes  Slow  SRes Def   SNR       Amp   Per   Mag1   Mag2       ID
PGF   002.75 234.1 m E Pn      2013/02/06 01:37:32.8  -0.5                          T                                        5189290
PGF   002.75 234.1 m E Sn      2013/02/06 01:38:04.5  -0.1                          T               75.3  .31 Ml 4.0         5189341
SBF   003.32 265.7 m E Pn      2013/02/06 01:37:41.0   0.0                          T                                        5189289
SBF   003.32 265.7 m E Sn      2013/02/06 01:38:17.7  -0.4                          T               48.1  .30 Ml 3.7         5189340
MBDF  003.79 279.8 m E Pn      2013/02/06 01:37:47.8   0.3                          T                                        5190289
MBDF  003.79 279.8 m E Sn      2013/02/06 01:38:29.3  -0.2                          T                6.5  .26 Ml 3.0         5194734
LPG   003.96 290.9 m E Pn      2013/02/06 01:37:49.3  -0.7                          T                                        5190294
LPG   003.96 290.9 m E Sn      2013/02/06 01:38:33.1  -0.6                          T                4.6  .25 Ml 2.9         5190171
LPL   003.98 291.1 m E Pn      2013/02/06 01:37:49.9  -0.3                          T                                        5190170
LPL   003.98 291.1 m E Sn      2013/02/06 01:38:33.6  -0.4                          T                5.8  .22 Ml 3.1         5190175
LMR   004.08 259.6 m E Pn      2013/02/06 01:37:51.5   0.3                          T                                        5189288
LMR   004.08 259.6 m E Sn      2013/02/06 01:38:36.1  -0.1                          T               14.1  .31 Ml 3.4         5189344
ORIF  004.44 281.4 m E Pn      2013/02/06 01:37:57.7   1.4                          T                                        5190288
ORIF  004.44 281.4 m E Sn      2013/02/06 01:38:44.7  -0.3                          T                                        5190286
ORIF  004.44 281.4 m E S       2013/02/06 01:38:51.8  -0.9                          T               10.4  .38                5190287
SMRF  004.64 269.4 m E Pn      2013/02/06 01:37:59.2   0.2                          T                                        5190174
SMRF  004.64 269.4 m E Sn      2013/02/06 01:38:49.3  -0.4                          T                3.0  .31 Ml 2.8         5190173
CABF  004.82 302.1 m E Pn      2013/02/06 01:38:01.9   0.4                          T                                        5190293
CABF  004.82 302.1 m E Sn      2013/02/06 01:38:53.5  -0.4                          T                                        5190438
HINF  005.10 317.0 m E Pn      2013/02/06 01:38:05.0  -0.2                          T                                        5190292
HINF  005.10 317.0 m E Sn      2013/02/06 01:39:00.4  -0.2                          T               49.7  .27 Ml 4.2         5190439
VIVF  005.29 279.7 m E Pn      2013/02/06 01:38:07.7   0.0                          T                                        5190406
VIVF  005.29 279.7 m E Sn      2013/02/06 01:39:05.0  -0.1                          T                1.3  .16 Ml 2.8         5194733
CDF   005.34 323.8 m E Pn      2013/02/06 01:38:08.8   0.2                          T                                        5190290
CDF   005.34 323.8 m E Sn      2013/02/06 01:39:06.2  -0.2                          T               32.6  .28 Ml 4.1         5190445
HAU   005.47 316.0 m E Pn      2013/02/06 01:38:10.3   0.0                          T                                        5190291
HAU   005.47 316.0 m E Sn      2013/02/06 01:39:09.3  -0.3                          T              197.1  .36 Ml 4.5         5190440
LASF  005.87 271.6 m E Pn      2013/02/06 01:38:16.0   0.4                          T                                        5190405
LASF  005.87 271.6 m E Sn      2013/02/06 01:39:19.0  -0.1                          T                 .4  .20 Ml 2.3         5194735
PAGF  006.15 317.3 m E Pn      2013/02/06 01:38:19.6   0.1                          T                                        5190426
PAGF  006.15 317.3 m E Sn      2013/02/06 01:39:21.3  -4.5                          T                                        5190444
SMF   006.25 295.9 m E Pn      2013/02/06 01:38:20.8  -0.1                          T                                        5189291
SMF   006.25 295.9 m E Sn      2013/02/06 01:39:28.1   0.0                          T               11.9  .26 Ml 3.8         5194739
SFTF  006.28 312.1 m E Pn      2013/02/06 01:38:21.6   0.3                          T                                        5190425
SFTF  006.28 312.1 m E Sn      2013/02/06 01:39:28.8   0.0                          T                9.5  .19 Ml 3.9         5190441
LOR   006.48 301.1 m E Pn      2013/02/06 01:38:24.1   0.2                          T                                        5190431
LOR   006.48 301.1 m E Sn      2013/02/06 01:39:33.2  -0.4                          T               17.0  .29 Ml 4.0         5190448
MEZF  006.45 314.2 m E Pn      2013/02/06 01:38:24.4   0.7                          T                                        5190443
MEZF  006.45 314.2 m E Sn      2013/02/06 01:39:33.0   0.0                          T               10.6  .35 Ml 3.7         5190442
SSF   006.61 298.6 m E Pn      2013/02/06 01:38:25.7  -0.1                          T                                        5190430
SSF   006.61 298.6 m E Sn      2013/02/06 01:39:36.7   0.0                          T                6.6  .24 Ml 3.7         5190449
AVF   006.61 296.1 m E Pn      2013/02/06 01:38:25.9   0.2                          T                                        5189343
AVF   006.61 296.1 m E Sn      2013/02/06 01:39:36.4  -0.3                          T                2.7  .20 Ml 3.3         5194738
BGF   006.87 293.3 m E Pn      2013/02/06 01:38:28.7  -0.6                          T                                        5189342
BGF   006.87 293.3 m E Sn      2013/02/06 01:39:41.9  -1.0                          T                                        5194736
MTLF  007.14 266.5 m E Pn      2013/02/06 01:38:33.6   0.6                          T                                        5190404
MTLF  007.14 266.5 m E Sn      2013/02/06 01:39:49.5   0.1                          T                                        5194740
TCF   007.23 290.2 m E Pn      2013/02/06 01:38:34.9   0.8                          T                                        5190437
TCF   007.23 290.2 m E Sn      2013/02/06 01:39:51.5   0.1                          T                5.5  .26 Ml 3.6         5194737
GIVF  007.67 322.9 m E Pn      2013/02/06 01:38:41.7   1.6                          T                                        5190433
GIVF  007.67 322.9 m E Sn      2013/02/06 01:39:57.5  -4.5                          T                                        5190446
BAIF  007.91 320.5 m E Pn      2013/02/06 01:38:44.9   1.4                          T                                        5190432
BAIF  007.91 320.5 m E Sn      2013/02/06 01:40:03.4  -4.3                          T                                        5190447

.
