EVENT     296302
    Date      Time       Latitude Longitude    Depth    Ndef Nsta Gap    Mag1  N    Mag2  N    Mag3  N   Author         ID
       rms   OT_Error      Smajor Sminor Az        Err   mdist  Mdist     Err        Err        Err      Quality

2013/04/18 03:37:33.8     50.3386    7.4013     11.0 f   142   31 038  Ml 3.0 26  Md 2.8  2              bulletin    296402
                                                                                                         _ldg
      0.77   +-  0.06       1.2    1.0   39.69 +-  0.0    0.07   7.34   +-0.3      +-0.1                 m i ke

GERMANY
Sta     Dist  EvAz     Phase      Date       Time     TRes  Azim  AzRes  Slow  SRes Def   SNR       Amp   Per   Mag1   Mag2       ID
RUP   000.67 199.2 mCE Pg      2013/04/18 03:37:46.2  -0.5                          T                                        5261376
RUP   000.67 199.2 m E Sn      2013/04/18 03:37:59.1   1.4                          T                                        5261377
LANF  001.38 168.9 m E Pg      2013/04/18 03:37:58.5  -1.2                          T                                        5261350
LANF  001.38 168.9 m E Sg      2013/04/18 03:38:16.0  -1.6                          T                                        5261351
GIVF  001.67 262.9 m E Pn      2013/04/18 03:38:01.8   0.5                          T   001.0                                5260757
GIVF  001.67 262.9 m E Pg      2013/04/18 03:38:04.3  -0.7                          T                                        5260702
GIVF  001.67 262.9 m E Sn      2013/04/18 03:38:22.3   0.8                          T   001.0       62.4  .20 Ml 3.6 Md 2.9  5260758
GIVF  001.67 262.9 m E Sg      2013/04/18 03:38:26.2  -0.4                          T                                        5260701
CDF   001.93 182.5 m E Pn      2013/04/18 03:38:05.5   0.6                          T   001.0                                5260736
CDF   001.93 182.5 m E Pg      2013/04/18 03:38:09.2  -0.7                          T                                        5260700
CDF   001.93 182.5 m E Sn      2013/04/18 03:38:28.4   0.7                          T   001.0       25.2  .28 Ml 3.3 Md 2.8  5260737
BAIF  002.07 263.5 m E Pn      2013/04/18 03:38:07.3   0.5                          T                                        5260800
BAIF  002.07 263.5 m E Pg      2013/04/18 03:38:11.5  -0.7                          T                                        5260774
BAIF  002.07 263.5 m E Sn      2013/04/18 03:38:31.8   0.8                          T   001.0       60.4  .26 Ml 3.6         5260754
PAGF  002.09 212.1 m E Pn      2013/04/18 03:38:07.5   0.4                          T                                        5260795
PAGF  002.09 212.1 m E Pg      2013/04/18 03:38:12.1  -0.6  32.2  1.3               T                                        5260796
PAGF  002.09 212.1 m E Sn      2013/04/18 03:38:32.6   1.1                          T               16.7  .26 Ml 3.0         5260794
MEZF  002.39 220.7 m E Pn      2013/04/18 03:38:11.9   0.8  39.4  0.5               T   001.0                                5260760
MEZF  002.39 220.7 m E Pg      2013/04/18 03:38:17.8  -0.4  41.0  2.1               T   001.0                                5260761
MEZF  002.39 220.7 m E Sn      2013/04/18 03:38:39.7   0.9                          T   001.0       23.1  .40 Ml 3.1         5260762
MEZF  002.39 220.7 m E Sg      2013/04/18 03:38:48.3  -0.7  42.4  3.4               T   001.0                                5260763
HAU   002.44 196.9 m E Pn      2013/04/18 03:38:12.4   0.6                          T   001.0                                5260740
HAU   002.44 196.9 m E Pg      2013/04/18 03:38:17.9  -1.1                          T                                        5260790
HAU   002.44 196.9 m E Sn      2013/04/18 03:38:40.6   0.9                          T   001.0       13.8  .18 Ml 3.0         5260741
HINF  002.55 188.3 m E Pn      2013/04/18 03:38:14.4   1.0                          T                                        5260788
HINF  002.55 188.3 m E Pg      2013/04/18 03:38:20.6  -0.6                          T                                        5260789
HINF  002.55 188.3 m E Sn      2013/04/18 03:38:43.7   1.2                          T   001.0       20.8  .24 Ml 3.3         5260759
THEF  002.30 204.1 m E Pg      2013/04/18 03:38:14.9  -1.7                          T                                        5261352
THEF  002.30 204.1 m E Sg      2013/04/18 03:38:45.7  -0.6                          T                                        5261353
SFTF  002.64 216.8 m E Pn      2013/04/18 03:38:15.1   0.7                          T                                        5260791
SFTF  002.64 216.8 m E Pg      2013/04/18 03:38:21.7  -1.0  35.4  0.3               T                                        5260792
SFTF  002.64 216.8 m E Sn      2013/04/18 03:38:44.8   0.3                          T                9.7  .19 Ml 3.1         5260793
CABF  003.83 193.7 m E Pn      2013/04/18 03:38:31.3   0.4                          T   001.0                                5260755
CABF  003.83 193.7 m E Sn      2013/04/18 03:39:13.8   0.6                          T   001.0                                5260756
CABF  003.83 193.7 m E Sg      2013/04/18 03:39:33.5  -0.5                          T                4.3  .39 Ml 2.7         5261963
LOR   003.86 218.7 m E Pn      2013/04/18 03:38:31.8   0.6  41.1  5.1               T   001.0                                5260744
LOR   003.86 218.7 m E Pg      2013/04/18 03:38:44.9  -0.4  40.4  4.4               T                                        5260799
LOR   003.86 218.7 m E Sn      2013/04/18 03:39:14.0   0.2  48.2  12.2              T                7.9  .26 Ml 3.1         5260798
SSF   004.17 219.7 m E Pn      2013/04/18 03:38:34.9  -0.5                          T   001.0                                5260751
SSF   004.17 219.7 m E Pg      2013/04/18 03:38:50.5  -0.5                          T                                        5260773
SSF   004.17 219.7 m E Sn      2013/04/18 03:39:22.2   0.9                          T                4.3  .35 Ml 2.9         5260797
SMF   004.39 214.0 m E Pn      2013/04/18 03:38:38.1  -0.2                          T   001.0                                5260749
SMF   004.39 214.0 m E Pg      2013/04/18 03:38:54.5  -0.5                          T                                        5260779
SMF   004.39 214.0 m E Sn      2013/04/18 03:39:26.7   0.3                          T   001.0        3.0  .20 Ml 2.9         5260750
HYF   004.40 227.5 m E Pn      2013/04/18 03:38:39.0   0.6                          T                                        5260778
HYF   004.40 227.5 m E Pg      2013/04/18 03:38:54.8  -0.4                          T                                        5261962
HYF   004.40 227.5 m E Sg      2013/04/18 03:39:51.0  -0.5                          T                                        5261961
AVF   004.45 218.7 m E Pn      2013/04/18 03:38:40.0   0.8                          T                                        5260782
AVF   004.45 218.7 m E Pg      2013/04/18 03:38:55.7  -0.5                          T                                        5260781
AVF   004.45 218.7 m E Sn      2013/04/18 03:39:28.8   0.9                          T                 .7  .21 Ml 2.3         5260780
LPL   004.85 185.6 m E Pn      2013/04/18 03:38:45.0   0.2                          T                                        5261959
LPL   004.85 185.6 m E Pg      2013/04/18 03:39:02.9  -0.8                          T                                        5261958
BGF   004.85 220.4 m E Pn      2013/04/18 03:38:45.3   0.7                          T                                        5260777
BGF   004.85 220.4 m E Pg      2013/04/18 03:39:02.6  -0.8                          T                                        5260776
BGF   004.85 220.4 m E Sn      2013/04/18 03:39:38.2   0.9                          T   001.0                                5260735
BGF   004.85 220.4 m E Sg      2013/04/18 03:40:05.1  -0.5                          T                9.7  .37 Ml 3.3         5261960
LPG   004.86 185.4 m E Pn      2013/04/18 03:38:46.1   0.9                          T   001.0                                5260745
LDF   005.21 253.3 m E Pn      2013/04/18 03:38:50.0   0.6                          T   001.0                                5260742
LDF   005.21 253.3 m E Pg      2013/04/18 03:39:09.5  -0.5                          T                                        5260786
LDF   005.21 253.3 m E Sn      2013/04/18 03:39:46.6   0.7                          T   001.0        1.4  .19 Ml 2.8         5260743
FLN   005.37 255.9 m E Pn      2013/04/18 03:38:51.7   0.1                          T                                        5260787
FLN   005.37 255.9 m E Sn      2013/04/18 03:39:50.5   0.8                          T   001.0        3.9  .36 Ml 2.8         5260738
TCF   005.33 222.5 m E Pn      2013/04/18 03:38:52.4   1.2                          T   001.0                                5260752
TCF   005.33 222.5 m E Sn      2013/04/18 03:39:50.2   1.2                          T   001.0        1.2  .30 Ml 2.6         5260753
GRR   005.74 253.3 m E Pn      2013/04/18 03:38:57.2   0.5                          T                                        5260784
GRR   005.74 253.3 m E Pg      2013/04/18 03:39:19.0  -0.8                          T                                        5260785
GRR   005.74 253.3 m E Sn      2013/04/18 03:39:59.2   0.6                          T   001.0        1.8  .21 Ml 2.8         5260739
MFF   006.26 236.2 m E Pn      2013/04/18 03:39:04.6   0.8                          T   001.0                                5260746
MFF   006.26 236.2 m E Sn      2013/04/18 03:40:12.1   1.1                          T   001.0         .5  .16 Ml 2.8         5260747
MFF   006.26 236.2 m E Sg      2013/04/18 03:40:48.7  -0.9                          T   001.0        1.4  .27 Ml 3.0         5260748
RJF   006.41 220.4 m E Pn      2013/04/18 03:39:06.3   0.5                          T                                        5260802
CAF   006.50 215.7 m E Pn      2013/04/18 03:39:07.7   0.5                          T                                        5260775
SGMF  006.84 256.1 m E Pn      2013/04/18 03:39:12.3   0.6                          T   001.0                                5260766
SGMF  006.84 256.1 m E Sn      2013/04/18 03:40:25.8   0.9                          T   001.0                                5260767
SGMF  006.84 256.1 m E Sg      2013/04/18 03:41:07.2  -0.5                          T                 .8  .20 Ml 2.8         5261957
LFF   007.03 222.3 m E Pn      2013/04/18 03:39:14.2  -0.1                          T                                        5260801
ROSF  007.26 258.1 m E Pn      2013/04/18 03:39:17.8   0.4                          T                                        5260783
QUIF  007.34 254.8 m E Pn      2013/04/18 03:39:19.2   0.6                          T   001.0                                5260764
QUIF  007.34 254.8 m E Sn      2013/04/18 03:40:38.3   1.3                          T   001.0         .4  .18 Ml 2.6         5260765

.
EVENT     296305
    Date      Time       Latitude Longitude    Depth    Ndef Nsta Gap    Mag1  N    Mag2  N    Mag3  N   Author         ID
       rms   OT_Error      Smajor Sminor Az        Err   mdist  Mdist     Err        Err        Err      Quality

2013/04/18 04:24:21.4     42.8642   -1.4012      2.0      32    8 065  Ml 2.0  7  Md 2.1  2              bulletin    296405
                                                                                                         _ldg
      0.89   +-  0.09       2.2    1.7  156.18 +-  0.0    0.07   4.01   +-0.2      +-0.1                 m i ke

PYRENEES
Sta     Dist  EvAz     Phase      Date       Time     TRes  Azim  AzRes  Slow  SRes Def   SNR       Amp   Per   Mag1   Mag2       ID
SJPF  000.28 027.4 m E Pg      2013/04/18 04:24:27.2   0.3                          T                                        5260835
SJPF  000.28 027.4 m E Sg      2013/04/18 04:24:30.6  -0.1                          T               44.1  .34        Md 2.2  5260832
ETSF  000.62 086.5 m E Pg      2013/04/18 04:24:32.8  -0.5                          T                                        5260834
ETSF  000.62 086.5 m E Sg      2013/04/18 04:24:41.4   0.0                          T               15.4  .32        Md 2.0  5260831
EPF   001.29 082.0 m E Pg      2013/04/18 04:24:45.4  -0.1                          T                                        5260833
EPF   001.29 082.0 m E Sg      2013/04/18 04:25:01.9  -0.4                          T                5.8  .25 Ml 2.3         5260830
LFF   002.59 036.0 m E Pn      2013/04/18 04:25:01.9  -0.5                          T                                        5260851
LFF   002.59 036.0 m E Sn      2013/04/18 04:25:32.6   0.0                          T                2.8  .33 Ml 2.1         5260847
MTLF  002.69 078.6 m E Pn      2013/04/18 04:25:03.7  -0.2                          T                                        5260850
MTLF  002.69 078.6 m E Pg      2013/04/18 04:25:10.9  -0.5                          T                                        5260848
MTLF  002.69 078.6 m E Sn      2013/04/18 04:25:35.1  -0.1                          T                 .8  .26 Ml 1.9         5260849
CAF   003.24 049.4 m E Pn      2013/04/18 04:25:11.4   0.0                          T                1.2  .26 Ml 2.1         5260852
CAF   003.24 049.4 m E Sn      2013/04/18 04:25:48.4   0.0                          T                                        5260846
RJF   003.22 039.8 m E P       2013/04/18 04:25:14.1   0.0                          T                                        5260843
LASF  004.01 070.6 m E Pn      2013/04/18 04:25:22.1   0.2                          T                                        5261969
LASF  004.01 070.6 m E Sn      2013/04/18 04:26:07.5   0.7                          T                 .6  .21 Ml 2.1         5260839

.
EVENT     296311
    Date      Time       Latitude Longitude    Depth    Ndef Nsta Gap    Mag1  N    Mag2  N    Mag3  N   Author         ID
       rms   OT_Error      Smajor Sminor Az        Err   mdist  Mdist     Err        Err        Err      Quality

2013/04/18 04:37:49.0     42.8556    -.0240      2.0       5    3 219  Ml 1.0  1  Md 1.4  2              bulletin    296411
                                                                                                         _ldg
      0.20   +-  0.26       8.9    1.9  164.41 +-  0.0    0.20   0.92   +-         +-0.0                 m i ke

PYRENEES
Sta     Dist  EvAz     Phase      Date       Time     TRes  Azim  AzRes  Slow  SRes Def   SNR       Amp   Per   Mag1   Mag2       ID
EPF   000.32 056.7 m E Pg      2013/04/18 04:37:55.4   0.1                          T                                        5261092
EPF   000.32 056.7 m E Sg      2013/04/18 04:37:59.1  -0.5                          T                3.2  .30        Md 1.4  5261091
ETSF  000.40 276.4 m E Pg      2013/04/18 04:37:56.5  -0.2                          T                                        5261089
ETSF  000.40 276.4 m E Sg      2013/04/18 04:38:02.0   0.0                          T                3.2  .24        Md 1.3  5261090
SJPF  000.92 286.7 m E Sn      2013/04/18 04:38:20.2  -0.1                          T                 .4  .25 Ml 1           5262614

.
EVENT     296322
    Date      Time       Latitude Longitude    Depth    Ndef Nsta Gap    Mag1  N    Mag2  N    Mag3  N   Author         ID
       rms   OT_Error      Smajor Sminor Az        Err   mdist  Mdist     Err        Err        Err      Quality

2013/04/18 07:43:57.7     44.7710    3.7535      2.0      26    9 101  Ml 2.1  8  Md 2.2  2              bulletin    296422
                                                                                                         _ldg
      0.24   +-  0.05       1.1     .9    2.42 +-  0.0    0.66   1.90   +-0.3      +-0.0                 m i ke

FRANCE
Sta     Dist  EvAz     Phase      Date       Time     TRes  Azim  AzRes  Slow  SRes Def   SNR       Amp   Per   Mag1   Mag2       ID
VIVF  000.66 082.3 m E Pg      2013/04/18 07:44:10.1  -0.1                          T                                        5262623
VIVF  000.66 082.3 m E Pn      2013/04/18 07:44:12.8   0.3                          T                                        5262624
VIVF  000.66 082.3 m E Sg      2013/04/18 07:44:17.5  -1.4                          T                                        5261182
VIVF  000.66 082.3 m E Sn      2013/04/18 07:44:22.9   0.0                          T                5.3  .26        Md 2.2  5261178
LASF  000.70 173.9 m E Pg      2013/04/18 07:44:11.3   0.4                          T                                        5262615
LASF  000.70 173.9 m E Pn      2013/04/18 07:44:13.3   0.3                          T                                        5261181
LASF  000.70 173.9 m E Sg      2013/04/18 07:44:19.8  -0.3                          T                8.5  .34        Md 2.2  5261187
CAF   001.21 277.9 m E Pg      2013/04/18 07:44:20.4   0.0                          T                                        5262625
CAF   001.21 277.9 m E P       2013/04/18 07:44:21.7   0.0                          T                                        5261179
CAF   001.21 277.9 m E Sg      2013/04/18 07:44:36.1   0.0                          T                6.7  .18 Ml 2.5         5261189
ORIF  001.52 083.7 m E Pn      2013/04/18 07:44:24.3   0.0                          T                                        5261186
ORIF  001.52 083.7 m E Sn      2013/04/18 07:44:42.9  -0.6                          T                2.7  .38 Ml 1.9         5261185
SMRF  001.53 120.7 m E Pn      2013/04/18 07:44:24.4   0.1                          T                                        5261183
SMRF  001.53 120.7 m E Sn      2013/04/18 07:44:43.4  -0.2                          T                 .9  .19 Ml 1.7         5261184
TCF   001.87 325.0 m E Pn      2013/04/18 07:44:28.2  -0.8                          T                                        5262457
TCF   001.87 325.0 m E Sn      2013/04/18 07:44:51.6  -0.1                          T                 .8  .18 Ml 1.9         5262456
RJF   001.67 289.4 m E Pg      2013/04/18 07:44:29.0   0.1                          T                                        5262458
BGF   001.90 340.7 m E Pn      2013/04/18 07:44:29.3   0.0                          T                                        5261195
BGF   001.90 340.7 m E Pg      2013/04/18 07:44:33.0   0.0                          T                                        5262626
BGF   001.90 340.7 m E Sg      2013/04/18 07:44:57.3  -0.1                          T                7.3  .38 Ml 2.5         5261194
MTLF  001.81 218.3 m E Pg      2013/04/18 07:44:31.0  -0.4                          T                                        5261180
MTLF  001.81 218.3 m E Sg      2013/04/18 07:44:54.7   0.1                          T                2.1  .24 Ml 2.1         5261188

.
