EVENT     291643
    Date      Time       Latitude Longitude    Depth    Ndef Nsta Gap    Mag1  N    Mag2  N    Mag3  N   Author         ID
       rms   OT_Error      Smajor Sminor Az        Err   mdist  Mdist     Err        Err        Err      Quality

2013/02/06 16:23:19.2     44.4139    6.9418      2.0     107   21 037  Ml 2.7 23  Md 2.8  2              bulletin    291743
                                                                                                         _ldg
      0.67   +-  0.05       1.2     .9   53.20 +-  0.0    0.11   4.01   +-0.4      +-0.1                 m i ke

FRANCE
Sta     Dist  EvAz     Phase      Date       Time     TRes  Azim  AzRes  Slow  SRes Def   SNR       Amp   Per   Mag1   Mag2       ID
MBDF  000.34 338.8 m E Pg      2013/02/06 16:23:25.6  -0.3                          T   001.0                                5189813
MBDF  000.34 338.8 m E Sg      2013/02/06 16:23:29.9  -0.5                          T               71.7  .16        Md 2.7  5189852
SBF   000.66 147.0 m E Pg      2013/02/06 16:23:31.5  -0.2                          T   001.0                                5189810
SBF   000.66 147.0 m E Sg      2013/02/06 16:23:39.2  -1.0                          T   001.0      513.2  .52        Md 2.8  5189811
ORIF  000.91 304.0 m E Pg      2013/02/06 16:23:36.3  -0.1                          T   001.0                                5189815
ORIF  000.91 304.0 m E Sg      2013/02/06 16:23:48.4   0.2                          T   001.0       34.6  .24 Ml 2.9         5189816
LPG   001.09 353.0 m E Pg      2013/02/06 16:23:39.6  -0.4                          T   001.0                                5189804
LPG   001.09 353.0 m E Sg      2013/02/06 16:23:53.9  -0.3                          T               29.5  .26 Ml 2.9         5189853
LMR   001.12 196.3 m E Pn      2013/02/06 16:23:39.8  -0.4                          T   001.0                                5189802
LMR   001.12 196.3 m E Sg      2013/02/06 16:23:54.3  -0.4                          T   001.0       50.9  .16 Ml 3.4         5189803
LPL   001.11 352.4 m E Pn      2013/02/06 16:23:39.8  -0.6                          T   001.0                                5189806
LPL   001.11 352.4 m E Sg      2013/02/06 16:23:53.9  -0.7                          T   001.0       19.6  .24 Ml 2.8         5189807
SMRF  001.08 246.5 m E Pg      2013/02/06 16:23:40.3   1.0                          T   001.0                                5189819
SMRF  001.08 246.5 m E Sg      2013/02/06 16:23:53.6   0.3                          T   001.0      120.3  .30 Ml 3.5         5189820
VIVF  001.68 286.1 m E Pn      2013/02/06 16:23:48.6   0.7                          T   001.0                                5189817
VIVF  001.68 286.1 m E Sn      2013/02/06 16:24:08.9   0.2                          T   001.0       12.2  .32 Ml 2.7         5189818
VIVF  001.68 286.1 m E Sg      2013/02/06 16:24:12.6   0.5                          T               13.7  .33 Ml 2.7         5189851
LASF  002.24 262.4 m E Pn      2013/02/06 16:23:55.6   0.1                          T   001.0                                5189800
LASF  002.24 262.4 m E Pg      2013/02/06 16:24:00.9   0.1                          T                                        5189850
LASF  002.24 262.4 m E Sn      2013/02/06 16:24:22.1   0.0                          T   001.0        4.9  .28 Ml 2.5         5189801
CABF  002.28 345.0 m E Pn      2013/02/06 16:23:55.9  -0.2                          T                                        5189836
CABF  002.28 345.0 m E Pg      2013/02/06 16:24:01.5  -0.1                          T   001.0                                5189812
CABF  002.28 345.0 m E Sn      2013/02/06 16:24:22.5  -0.6                          T                                        5189835
CABF  002.28 345.0 m E Sg      2013/02/06 16:24:30.8  -0.1                          T                2.1  .29 Ml 2.1         5189834
PGF   002.39 140.5 m E Pn      2013/02/06 16:23:58.1   0.4                          T   001.0                                5189808
PGF   002.39 140.5 m E Sn      2013/02/06 16:24:25.0  -0.8                          T   001.0       10.6  .16 Ml 3.4         5189809
SMF   003.12 316.8 m E Pn      2013/02/06 16:24:07.4   0.0                          T                                        5189841
SMF   003.12 316.8 m E Pg      2013/02/06 16:24:16.5  -0.5                          T                                        5189840
SMF   003.12 316.8 m E Sg      2013/02/06 16:24:57.0  -0.1                          T                3.7  .28 Ml 2.6         5189839
AVF   003.46 314.6 m E Pn      2013/02/06 16:24:11.4  -0.7                          T                                        5189838
AVF   003.46 314.6 m E Sg      2013/02/06 16:25:07.4  -0.4                          T                3.2  .41 Ml 2.4         5189837
CAF   003.52 280.1 m E Pn      2013/02/06 16:24:12.5  -0.4                          T                                        5189846
CAF   003.52 280.1 m E Sn      2013/02/06 16:24:53.3   0.7                          T                1.7  .22 Ml 2.4         5189845
SSF   003.58 319.0 m E Pn      2013/02/06 16:24:13.0  -0.7                          T                                        5189824
SSF   003.58 319.0 m E Pg      2013/02/06 16:24:25.5   0.1                          T                                        5189823
SSF   003.58 319.0 m E Sg      2013/02/06 16:25:11.7   0.4                          T                2.4  .36 Ml 2.5         5189822
MTLF  003.58 254.2 m E Pn      2013/02/06 16:24:13.3  -0.4                          T                                        5189849
MTLF  003.58 254.2 m E Sn      2013/02/06 16:24:53.7  -0.4                          T                                        5189848
MTLF  003.58 254.2 m E Sg      2013/02/06 16:25:11.6   0.2                          T                1.6  .29 Ml 2.3         5189847
HAU   003.62 353.7 m E Pn      2013/02/06 16:24:13.7  -0.6                          T                                        5189833
HAU   003.62 353.7 m E Sn      2013/02/06 16:24:55.0   0.0                          T                                        5189832
HAU   003.62 353.7 m E Sg      2013/02/06 16:25:11.7  -0.9                          T                1.6  .23 Ml 2.2         5189831
LOR   003.58 324.0 m E Pn      2013/02/06 16:24:13.7   0.0 140.2  -1.6              T                                        5189828
LOR   003.58 324.0 m E Pg      2013/02/06 16:24:24.9  -0.5 148.8  7.0               T                                        5189827
LOR   003.58 324.0 m E Sn      2013/02/06 16:24:53.6  -0.4                          T                                        5189826
LOR   003.58 324.0 m E Sg      2013/02/06 16:25:11.5   0.2 147.2  5.4               T                1.2  .22 Ml 2.3         5189825
BGF   003.59 308.1 m E Pn      2013/02/06 16:24:14.0   0.1                          T   001.0                                5189799
BGF   003.59 308.1 m E Sg      2013/02/06 16:25:12.6   0.9                          T                5.7  .35 Ml 2.8         5189842
RJF   003.96 284.9 m E Pn      2013/02/06 16:24:18.3  -0.5                          T                                        5189844
RJF   003.96 284.9 m E Sn      2013/02/06 16:25:02.9  -0.2                          T                                        5189843
SFTF  004.01 341.5 m E Pn      2013/02/06 16:24:18.9  -0.7 158.2  -1.9              T                                        5189830
SFTF  004.01 341.5 m E Sn      2013/02/06 16:25:04.4   0.0                          T                1.4  .19 Ml 2.5         5189829

.
EVENT     291644
    Date      Time       Latitude Longitude    Depth    Ndef Nsta Gap    Mag1  N    Mag2  N    Mag3  N   Author         ID
       rms   OT_Error      Smajor Sminor Az        Err   mdist  Mdist     Err        Err        Err      Quality

2013/02/06 16:26:00.8     44.4087    6.9478      2.0      71   18 050  Ml 2.2 18  Md 2.4  2              bulletin    291744
                                                                                                         _ldg
      0.34   +-  0.03        .9     .5   48.67 +-  0.0    0.12   4.02   +-0.4      +-0.0                 m i ke

FRANCE
Sta     Dist  EvAz     Phase      Date       Time     TRes  Azim  AzRes  Slow  SRes Def   SNR       Amp   Per   Mag1   Mag2       ID
MBDF  000.34 338.4 m E Pg      2013/02/06 16:26:07.5  -0.1                          T                                        5189882
MBDF  000.34 338.4 m E Sg      2013/02/06 16:26:12.4   0.2                          T               17.5  .17        Md 2.4  5189881
SBF   000.65 147.1 m E Pg      2013/02/06 16:26:13.0  -0.1                          T                                        5189911
SBF   000.65 147.1 m E Sg      2013/02/06 16:26:21.1  -0.5                          T               33.0  .27        Md 2.4  5189910
ORIF  000.92 304.1 m E Pg      2013/02/06 16:26:18.0  -0.2                          T                                        5189921
ORIF  000.92 304.1 m E Sg      2013/02/06 16:26:29.9  -0.2                          T                6.9  .24 Ml 2.2         5189920
LPG   001.10 352.8 m E Pg      2013/02/06 16:26:21.4  -0.3                          T                                        5189917
LPG   001.10 352.8 m E Sg      2013/02/06 16:26:35.5  -0.4                          T                1.8  .22 Ml 1.8         5189916
LMR   001.12 196.6 m E Pg      2013/02/06 16:26:21.4  -0.3                          T                                        5189913
LMR   001.12 196.6 m E Sg      2013/02/06 16:26:35.8  -0.4                          T               12.6  .18 Ml 2.7         5189912
LPL   001.12 352.2 m E Pg      2013/02/06 16:26:21.7  -0.3                          T                                        5189919
LPL   001.12 352.2 m E Sg      2013/02/06 16:26:36.4  -0.1                          T                5.7  .32 Ml 2.1         5189918
SMRF  001.08 246.8 m E Pg      2013/02/06 16:26:21.7   0.7                          T                                        5189915
SMRF  001.08 246.8 m E Sg      2013/02/06 16:26:35.0   0.0                          T               33.9  .29 Ml 2.9         5189914
VIVF  001.68 286.2 m E Pn      2013/02/06 16:26:30.1   0.5                          T                                        5189907
VIVF  001.68 286.2 m E Sn      2013/02/06 16:26:50.1  -0.4                          T                                        5189906
VIVF  001.68 286.2 m E Sg      2013/02/06 16:26:54.3   0.3                          T                2.7  .27 Ml 2.1         5189905
LASF  002.25 262.6 m E Pn      2013/02/06 16:26:37.4   0.2                          T                                        5189904
LASF  002.25 262.6 m E Pg      2013/02/06 16:26:42.8   0.3                          T                                        5189903
LASF  002.25 262.6 m E Sn      2013/02/06 16:27:04.2   0.4                          T                 .8  .26 Ml 1.8         5189902
CABF  002.28 344.9 m E Pn      2013/02/06 16:26:38.1   0.3                          T                                        5189893
CABF  002.28 344.9 m E Sn      2013/02/06 16:27:04.5  -0.3                          T                 .7  .22 Ml 1.7         5189892
PGF   002.38 140.5 m E Pn      2013/02/06 16:26:39.5   0.4                          T                                        5189909
PGF   002.38 140.5 m E Sn      2013/02/06 16:27:07.0  -0.3                          T                4.4  .20 Ml 2.9         5189908
SMF   003.13 316.8 m E Pn      2013/02/06 16:26:48.8  -0.4                          T                                        5189899
SMF   003.13 316.8 m E Pg      2013/02/06 16:26:58.6  -0.2                          T                                        5189898
SMF   003.13 316.8 m E Sg      2013/02/06 16:27:39.0   0.1                          T                 .4  .18 Ml 1.8         5189897
AVF   003.47 314.6 m E Pn      2013/02/06 16:26:53.6  -0.2                          T                                        5189896
AVF   003.47 314.6 m E Sn      2013/02/06 16:27:32.9  -0.2                          T                                        5189895
AVF   003.47 314.6 m E Sg      2013/02/06 16:27:49.4  -0.2                          T                 .7  .27 Ml 2.0         5189894
HAU   003.62 353.6 m E Pn      2013/02/06 16:26:55.2  -0.7                          T                                        5189891
HAU   003.62 353.6 m E Sn      2013/02/06 16:27:36.5  -0.3                          T                 .6  .22 Ml 1.8         5189890
MTLF  003.58 254.3 m E Pn      2013/02/06 16:26:55.4   0.0                          T                                        5189901
MTLF  003.58 254.3 m E Sg      2013/02/06 16:27:53.0  -0.2                          T                 .6  .21 Ml 2.0         5189900
SSF   003.58 319.0 m E Pn      2013/02/06 16:26:55.7   0.3                          T                                        5189887
SSF   003.58 319.0 m E Sn      2013/02/06 16:27:36.1   0.3                          T                1.1  .35 Ml 2.1         5189886
LOR   003.58 324.0 m E Pn      2013/02/06 16:26:55.8   0.4 143.3  1.5               T                                        5189885
LOR   003.58 324.0 m E Pg      2013/02/06 16:27:07.2   0.0                          T                                        5189884
LOR   003.58 324.0 m E Sg      2013/02/06 16:27:53.5   0.4                          T                  1  .25 Ml 2.2         5189883
SFTF  004.02 341.5 m E Pn      2013/02/06 16:27:01.0  -0.4 158.4  -1.7              T                                        5189889
SFTF  004.02 341.5 m E Sn      2013/02/06 16:27:46.5   0.2                          T                3.3  .28 Ml 2.7         5189888

.
