EVENT     279416
    Date      Time       Latitude Longitude    Depth    Ndef Nsta Gap    Mag1  N    Mag2  N    Mag3  N   Author         ID
       rms   OT_Error      Smajor Sminor Az        Err   mdist  Mdist     Err        Err        Err      Quality

2012/07/12 04:09:14.5     43.2017   -2.4270      5.0 f    29    9 137  Ml 2.3  6  Md 2.3  2              bulletin    279516
                                                                                                         _ldg
      0.24   +-  0.06       1.7     .8   24.55 +-  0.0    0.67   5.17   +-0.2      +-0.2                 m i ke

SPAIN
Sta     Dist  EvAz     Phase      Date       Time     TRes  Azim  AzRes  Slow  SRes Def   SNR       Amp   Per   Mag1   Mag2       ID
SJPF  000.88 095.3 m E Pg      2012/07/12 04:09:31.1  -0.1                          T                                        5024110
SJPF  000.88 095.3 m E Sg      2012/07/12 04:09:42.3  -0.4                          T                9.5  .19 Ml 2.5 Md 2.4  5024108
ETSF  001.40 101.8 m E Pn      2012/07/12 04:09:39.1  -0.1                          T                                        5024113
ETSF  001.40 101.8 m E Pg      2012/07/12 04:09:40.8   0.0                          T                                        5028830
ETSF  001.40 101.8 m E Sn      2012/07/12 04:09:56.7  -0.3                          T                                        5024112
ETSF  001.40 101.8 m E Sg      2012/07/12 04:09:59.2   0.2                          T                5.5  .22 Ml 2.4 Md 2.2  5024116
EPF   002.03 093.9 m E Pg      2012/07/12 04:09:52.4   0.0                          T                                        5028834
EPF   002.03 093.9 m E Sn      2012/07/12 04:10:12.0   0.0                          T                                        5024114
EPF   002.03 093.9 m E Sg      2012/07/12 04:10:18.9   0.3                          T                2.0  .25 Ml 2.1         5024115
RJF   003.53 052.1 m E Pn      2012/07/12 04:10:08.0  -0.1                          T                                        5028828
RJF   003.53 052.1 m E Sn      2012/07/12 04:10:47.7   0.0                          T                2.0  .32 Ml 2.0         5028832
CAF   003.67 060.4 m E Pn      2012/07/12 04:10:10.1   0.1                          T                                        5028829
CAF   003.67 060.4 m E Sn      2012/07/12 04:10:50.9  -0.1                          T                 .9  .30 Ml 2.1         5028833
MFF   003.77 024.7 m E Pn      2012/07/12 04:10:11.3   0.1                          T                                        5028827
MFF   003.77 024.7 m E Sn      2012/07/12 04:10:53.1  -0.2                          T                3.0  .47 Ml 2.6         5028831
QUIF  004.74 354.0 m E Pn      2012/07/12 04:10:24.5  -0.1                          T                                        5028826
SGMF  005.05 359.0 m E Pn      2012/07/12 04:10:29.0   0.2                          T                                        5028825
ROSF  005.17 353.7 m E Pn      2012/07/12 04:10:30.3  -0.1                          T                                        5028824

.
EVENT     279448
    Date      Time       Latitude Longitude    Depth    Ndef Nsta Gap    Mag1  N    Mag2  N    Mag3  N   Author         ID
       rms   OT_Error      Smajor Sminor Az        Err   mdist  Mdist     Err        Err        Err      Quality

2012/07/12 09:29:34.5     47.9939    6.6612       .0 f    13    7 129  Ml 1.9  2  Md 1.7  2              bulletin    279548
                                                                                                         _ldg
      1.38   +-  0.21       5.3    3.3   18.50 +-  0.0    0.21   1.19   +-0.2      +-0.0                 m i km

FRANCE
Sta     Dist  EvAz     Phase      Date       Time     TRes  Azim  AzRes  Slow  SRes Def   SNR       Amp   Per   Mag1   Mag2       ID
HAU   000.21 273.3 m E Pg      2012/07/12 09:29:38.6  -0.4                          T                                        5024632
HAU   000.21 273.3 m E Sg      2012/07/12 09:29:42.1   0.0                          T                                Md 1.7  5024633
HINF  000.22 143.9 m E Pg      2012/07/12 09:29:39.5   0.2                          T                                        5024631
HINF  000.22 143.9 m E Sg      2012/07/12 09:29:42.5   0.1                          T                                Md 1.8  5024634
THEF  000.50 297.9 m E Pg      2012/07/12 09:29:44.4  -0.1                          T                                        5024630
CDF   000.59 044.3 m E Pg      2012/07/12 09:29:45.6  -0.5                          T                                        5024639
CDF   000.59 044.3 m E Sg      2012/07/12 09:29:53.5  -0.4                          T                                        5024638
PAGF  000.84 312.3 m E Pg      2012/07/12 09:29:51.2   0.6 145.0  13.4              T                                        5024643
PAGF  000.84 312.3 m E Sg      2012/07/12 09:30:01.4  -0.3                          T                                        5024642
SFTF  001.11 281.6 m E Pg      2012/07/12 09:29:55.7   0.1                          T                                        5024635
SFTF  001.11 281.6 m E Sg      2012/07/12 09:30:10.0  -0.1                          T                2.0  .26 Ml 1.7         5024637
MEZF  001.19 295.9 m E Pg      2012/07/12 09:29:57.2   0.2                          T                                        5024641
MEZF  001.19 295.9 m E Sg      2012/07/12 09:30:12.3  -0.3                          T                3.1  .23 Ml 2.0         5024640

.
EVENT     279453
    Date      Time       Latitude Longitude    Depth    Ndef Nsta Gap    Mag1  N    Mag2  N    Mag3  N   Author         ID
       rms   OT_Error      Smajor Sminor Az        Err   mdist  Mdist     Err        Err        Err      Quality

2012/07/12 09:39:20.3     36.3464   -9.5917     10.0 f    83    3 215  Ml 3.6  3                         bulletin    279553
                                                                                                         _ldg
      2.65   +-  0.85      16.3   12.8   52.88 +-  0.0    1.00  10.15   +-0.1                            m i ke

WEST OF GIBRALTAR
Sta     Dist  EvAz     Phase      Date       Time     TRes  Azim  AzRes  Slow  SRes Def   SNR       Amp   Per   Mag1   Mag2       ID
SJPF  009.33 041.1 m E Pn      2012/07/12 09:41:32.9   0.6                          T                                        5025044
SJPF  009.33 041.1 m E Sn      2012/07/12 09:43:10.6  -0.6                          T                3.4  .42 Ml 3.5         5025042
ETSF  009.55 044.0 m E Pn      2012/07/12 09:41:36.1   0.8                          T                                        5025043
ETSF  009.55 044.0 m E Sn      2012/07/12 09:43:16.1  -0.5                          T                1.7  .28 Ml 3.5         5025041
EPF   010.15 045.9 m E Sn      2012/07/12 09:43:30.3  -0.5                          T                2.0  .24 Ml 3.7         5025040

.
EVENT     279454
    Date      Time       Latitude Longitude    Depth    Ndef Nsta Gap    Mag1  N    Mag2  N    Mag3  N   Author         ID
       rms   OT_Error      Smajor Sminor Az        Err   mdist  Mdist     Err        Err        Err      Quality

2012/07/12 11:42:23.1     44.7056    8.8926     10.0 f    46    9 062  Ml 2.6  7  Md 2.6  2              bulletin    279554
                                                                                                         _ldg
      0.53   +-  0.09       2.3    1.8  178.84 +-  0.0    0.30   3.01   +-0.4      +-0.0                 m i ke

NORTHERN ITALY
Sta     Dist  EvAz     Phase      Date       Time     TRes  Azim  AzRes  Slow  SRes Def   SNR       Amp   Per   Mag1   Mag2       ID
SBF   001.34 231.7 m E Pn      2012/07/12 11:42:46.4   0.1                          T                                        5025023
SBF   001.34 231.7 m E Sn      2012/07/12 11:43:03.3   0.1                          T              124.4  .54 Ml 3.3 Md 2.6  5025016
MBDF  001.51 271.6 m E Pn      2012/07/12 11:42:48.0  -0.8                          T                                        5025022
MBDF  001.51 271.6 m E Sn      2012/07/12 11:43:07.4   0.1                          T                                Md 2.7  5025011
LPG   001.71 298.3 m E Pn      2012/07/12 11:42:51.8   0.2                          T                                        5025019
FRF   001.98 235.5 m E Pn      2012/07/12 11:42:54.9   0.0                          T                                        5025021
FRF   001.98 235.5 m E Sn      2012/07/12 11:43:18.4   0.1                          T                3.0  .18 Ml 2.4         5025014
ORIF  002.15 276.7 m E Pn      2012/07/12 11:42:57.6   0.2                          T                                        5025018
ORIF  002.15 276.7 m E Sn      2012/07/12 11:43:23.3   0.7                          T                5.3  .24 Ml 2.6         5025013
LMR   002.20 232.3 m E Pn      2012/07/12 11:42:57.6  -0.2                          T                                        5025020
LMR   002.20 232.3 m E Sn      2012/07/12 11:43:24.2   0.6                          T                6.2  .32 Ml 2.6         5025015
VIVF  003.01 274.3 m E Pn      2012/07/12 11:43:09.1   0.1                          T                                        5025017
VIVF  003.01 274.3 m E Sn      2012/07/12 11:43:43.9   1.0                          T                1.0  .15 Ml 2.3         5025007
LPL   001.73 298.7 m E Sn      2012/07/12 11:43:13.5   0.9                          T               12.1  .30 Ml 2.7         5025012
SMRF  002.49 254.1 m E Sn      2012/07/12 11:43:31.4   0.9                          T                2.2  .24 Ml 2.3         5025008

.
EVENT     279502
    Date      Time       Latitude Longitude    Depth    Ndef Nsta Gap    Mag1  N    Mag2  N    Mag3  N   Author         ID
       rms   OT_Error      Smajor Sminor Az        Err   mdist  Mdist     Err        Err        Err      Quality

2012/07/12 15:55:54.5     46.2729    7.2402      2.0      21    8 122  Ml 1.8  7  Md 1.8  3              bulletin    279602
                                                                                                         _ldg
      0.19   +-  0.05       1.2     .8  119.56 +-  0.0    0.09   2.13   +-0.4      +-0.0                 m i ke

SWITZERLAND
Sta     Dist  EvAz     Phase      Date       Time     TRes  Azim  AzRes  Slow  SRes Def   SNR       Amp   Per   Mag1   Mag2       ID
LPL   000.84 205.3 m E Pg      2012/07/12 15:56:10.8   0.2                          T                                        5029199
LPL   000.84 205.3 m E Sg      2012/07/12 15:56:21.2  -0.2                          T                 .8  .25        Md 1.8  5029200
LPG   000.85 203.9 m E Pg      2012/07/12 15:56:10.8   0.0                          T                                        5029197
LPG   000.85 203.9 m E Sg      2012/07/12 15:56:22.0   0.2                          T                2.5  .40        Md 1.7  5029198
CABF  000.87 293.4 m E Pg      2012/07/12 15:56:11.1   0.2                          T                                        5026005
CABF  000.87 293.4 m E Sg      2012/07/12 15:56:22.1  -0.1                          T                 .5  .16 Ml 1.3         5026004
CABF  000.87 293.4 m E Sn      2012/07/12 15:56:24.5  -0.2                          T                1.2  .17 Ml 1.6 Md 1.8  5026003
HINF  001.57 350.4 m E Pn      2012/07/12 15:56:21.7   0.0                          T                                        5026002
HINF  001.57 350.4 m E Sn      2012/07/12 15:56:41.5   0.1                          T                3.3  .34 Ml 2.1         5026001
HAU   001.84 341.0 m E Pn      2012/07/12 15:56:25.6   0.2                          T                                        5026007
HAU   001.84 341.0 m E Sn      2012/07/12 15:56:47.6  -0.3                          T                2.8  .31 Ml 1.9         5025999
THEF  002.13 337.0 m E Pn      2012/07/12 15:56:29.5   0.1                          T                                        5026006
THEF  002.13 337.0 m E Sn      2012/07/12 15:56:55.0   0.1                          T                6.4  .40 Ml 2.4         5026000
MBDF  001.58 192.2 m E Sg      2012/07/12 15:56:44.5  -0.1                          T                 .8  .34 Ml 1.5         5029196
ORIF  001.66 215.7 m E Sg      2012/07/12 15:56:46.5  -0.4                          T                 .6  .21 Ml 1.5         5029195

.
EVENT     279477
    Date      Time       Latitude Longitude    Depth    Ndef Nsta Gap    Mag1  N    Mag2  N    Mag3  N   Author         ID
       rms   OT_Error      Smajor Sminor Az        Err   mdist  Mdist     Err        Err        Err      Quality

2012/07/12 21:22:59.7     40.6171   13.4107    430.0 f   111   37 047  Ml 3.4  7  Md 3.6  1              bulletin    279577
                                                                                                         _ldg
      0.60   +-  0.10       3.9    2.0   15.92 +-  0.0    1.94  48.74   +-0.2      +-                    m i ke

TYRRHENIAN SEA
Sta     Dist  EvAz     Phase      Date       Time     TRes  Azim  AzRes  Slow  SRes Def   SNR       Amp   Per   Mag1   Mag2       ID
PGF   003.83 301.7 m E Pn      2012/07/12 21:24:13.5  -2.4                          T                                        5025286
SBF   005.49 308.1 m E P       2012/07/12 21:24:28.7  -0.3                          T                                        5025287
SBF   005.49 308.1 m E Sn      2012/07/12 21:25:43.2  -0.6                          T               39.8  .83 Ml 3.7         5025483
LMR   005.82 300.1 m E P       2012/07/12 21:24:32.3   0.1                          T                                        5025487
FRF   005.83 302.5 m E P       2012/07/12 21:24:32.5   0.1                          T                                        5025280
FRF   005.83 302.5 m E Sn      2012/07/12 21:25:51.1   0.7                          T               17.3  .95 Ml 3.4         5029201
MBDF  006.39 312.2 m E P       2012/07/12 21:24:39.2   0.7                          T                                        5025283
MBDF  006.39 312.2 m E Sn      2012/07/12 21:26:02.0   0.0                          T               11.3  .72 Ml 3.4         5029210
SMRF  006.71 302.6 m E P       2012/07/12 21:24:42.6   0.7                          T                                        5025479
LPL   006.92 317.3 m E P       2012/07/12 21:24:44.2  -0.1                          T                                        5025279
LPL   006.92 317.3 m E Sn      2012/07/12 21:26:13.3   0.2                          T                4.9  .66 Ml 3.1         5025486
ORIF  007.01 310.3 m E P       2012/07/12 21:24:45.5   0.3                          T                                        5025281
ORIF  007.01 310.3 m E Sn      2012/07/12 21:26:14.4  -0.5                          T               27.7 1.26 Ml 3.6         5025289
LPG   006.90 317.2 m E P       2012/07/12 21:24:45.7   1.5                          T                                        5025284
LPG   006.90 317.2 m E Sn      2012/07/12 21:26:12.5  -0.2                          T               10.6  .74 Ml 3.4         5025484
VIVF  007.70 306.3 m E P       2012/07/12 21:24:52.7  -0.1                          T                                        5025282
VIVF  007.70 306.3 m E Sn      2012/07/12 21:26:29.6   0.1                          T                2.0  .40 Ml 3.1 Md 3.6  5025288
CABF  008.00 320.9 m E P       2012/07/12 21:24:54.9  -1.4                          T                                        5025277
LASF  007.87 299.2 m E P       2012/07/12 21:24:55.1   0.4                          T                                        5025519
HINF  008.60 329.0 m E P       2012/07/12 21:25:01.4  -1.5                          T                                        5025517
MTLF  008.77 291.7 m E P       2012/07/12 21:25:04.5  -0.3                          T                                        5029202
CDF   008.94 332.7 m E P       2012/07/12 21:25:05.1  -1.7                          T                                        5025516
HAU   008.95 327.9 m E P       2012/07/12 21:25:06.5  -0.3                          T                                        5029206
SMF   009.19 314.2 m E P       2012/07/12 21:25:07.6  -1.9                          T                                        5025480
SMF   009.19 314.2 m E Pn      2012/07/12 21:25:17.6  -0.3                          T                                        5025518
CAF   009.39 301.0 m E P       2012/07/12 21:25:11.0  -0.7                          T                                        5029203
AVF   009.54 313.6 m E P       2012/07/12 21:25:12.9  -0.6                          T                                        5025481
SSF   009.62 315.3 m E P       2012/07/12 21:25:13.1  -1.3                          T                                        5029209
LOR   009.57 317.2 m E P       2012/07/12 21:25:13.5  -0.3                          T                                        5025515
PAGF  009.64 328.0 m E P       2012/07/12 21:25:13.9  -0.7                          T                                        5029207
BGF   009.69 311.3 m E P       2012/07/12 21:25:14.2  -1.0                          T                                        5029205
TCF   009.92 308.6 m E P       2012/07/12 21:25:17.1  -0.6                          T                                        5029208
RJF   009.90 302.2 m E P       2012/07/12 21:25:17.3  -0.2                          T                                        5029204
MEZF  009.88 325.7 m E P       2012/07/12 21:25:17.3   0.0                          T                                        5025512
LFF   010.27 299.1 m E P       2012/07/12 21:25:23.6   1.9                          T                                        5025529
ETSF  010.68 286.9 m E P       2012/07/12 21:25:27.1   0.6                          T                                        5025530
GIVF  011.24 330.4 m E P       2012/07/12 21:25:32.5   0.0                          T                                        5025513
BAIF  011.44 328.7 m E P       2012/07/12 21:25:34.4  -0.4                          T                                        5025514
MFF   011.50 305.8 m E P       2012/07/12 21:25:35.9   0.4                          T                                        5025482
LDF   012.50 314.1 m E P       2012/07/12 21:25:45.9  -0.6                          T                                        5025298
GRR   012.80 312.1 m E P       2012/07/12 21:25:49.0  -0.8                          T                                        5025297
FLN   012.79 314.1 m E P       2012/07/12 21:25:49.0  -0.7                          T                                        5025299
SGMF  013.71 309.1 m E P       2012/07/12 21:25:59.1  -0.4                          T                                        5025295
QUIF  013.92 307.1 m E P       2012/07/12 21:26:01.7   0.0                          T                                        5025294
ROSF  014.17 308.5 m E P       2012/07/12 21:26:03.8  -0.5                          T                                        5025296

.
