EVENT     288352
    Date      Time       Latitude Longitude    Depth    Ndef Nsta Gap    Mag1  N    Mag2  N    Mag3  N   Author         ID
       rms   OT_Error      Smajor Sminor Az        Err   mdist  Mdist     Err        Err        Err      Quality

2012/12/12 08:00:51.6     45.2532    5.9365      2.0      18    8 178  Ml 1.8  4  Md 1.7  3              bulletin    288452
                                                                                                         _ldg
      0.25   +-  0.07       1.4     .8  145.74 +-  0.0    0.34   1.77   +-0.4      +-0.1                 m i ke

FRANCE
Sta     Dist  EvAz     Phase      Date       Time     TRes  Azim  AzRes  Slow  SRes Def   SNR       Amp   Per   Mag1   Mag2       ID
ORIF  000.34 186.8 m E Pg      2012/12/12 08:00:58.1  -0.1                          T                                        5137020
ORIF  000.34 186.8 m E Sg      2012/12/12 08:01:02.4  -0.3                          T                4.1  .18        Md 1.8  5137021
LPL   000.62 064.6 m E Pg      2012/12/12 08:01:03.5  -0.1                          T                                        5145146
LPL   000.62 064.6 m E Sg      2012/12/12 08:01:11.5  -0.2                          T                 .6  .20        Md 1.7  5145143
LPG   000.62 066.6 m E Pg      2012/12/12 08:01:03.6  -0.1                          T                                        5137026
LPG   000.62 066.6 m E Sg      2012/12/12 08:01:11.6  -0.4                          T                1.7  .31        Md 1.7  5137027
MBDF  000.79 131.3 m E Pg      2012/12/12 08:01:07.0   0.3                          T                                        5137016
MBDF  000.79 131.3 m E Sg      2012/12/12 08:01:17.1   0.1                          T                2.4  .24                5137019
VIVF  000.98 246.5 m E Pg      2012/12/12 08:01:10.0   0.0                          T                                        5137017
VIVF  000.98 246.5 m E Sg      2012/12/12 08:01:22.5  -0.2                          T                2.2  .24 Ml 1.8         5137018
SMRF  001.30 191.5 m E Pn      2012/12/12 08:01:15.3   0.2                          T                                        5145140
SMRF  001.30 191.5 m E Sg      2012/12/12 08:01:32.1  -0.7                          T                 .3  .18 Ml 1.2         5145139
SBF   001.75 141.8 m E Pn      2012/12/12 08:01:21.3  -0.1                          T                                        5145138
SBF   001.75 141.8 m E Sn      2012/12/12 08:01:42.8  -0.2                          T                3.3  .32 Ml 2.2         5145137
FRF   001.77 163.0 m E Pn      2012/12/12 08:01:21.5   0.1                          T                                        5145142
FRF   001.77 163.0 m E Sn      2012/12/12 08:01:43.2   0.0                          T                2.0  .25 Ml 2.1         5145141

.
EVENT     288369
    Date      Time       Latitude Longitude    Depth    Ndef Nsta Gap    Mag1  N    Mag2  N    Mag3  N   Author         ID
       rms   OT_Error      Smajor Sminor Az        Err   mdist  Mdist     Err        Err        Err      Quality

2012/12/12 08:56:51.9     43.5068    6.6313       .0 f    23    8 089  Ml 1.7  4  Md 1.9  2              bulletin    288469
                                                                                                         _ldg
      0.48   +-  0.12       2.5    2.1  158.48 +-  0.0    0.06   2.18   +-0.2      +-0.0                 m i km

NEAR SOUTH COAST OF FRANCE
Sta     Dist  EvAz     Phase      Date       Time     TRes  Azim  AzRes  Slow  SRes Def   SNR       Amp   Per   Mag1   Mag2       ID
FRF   000.06 011.8 m E Pg      2012/12/12 08:56:52.9  -0.3                          T                                        5137427
FRF   000.06 011.8 m E Sg      2012/12/12 08:56:54.1  -0.1                          T                                Md 1.8  5137424
LMR   000.19 207.3 m E Pg      2012/12/12 08:56:55.8  -0.3                          T                                        5137426
LMR   000.19 207.3 m E Sg      2012/12/12 08:56:58.9   0.0                          T                                Md 1.9  5137423
SBF   000.68 058.3 m E Pg      2012/12/12 08:57:05.3   0.2                          T                                        5137425
SBF   000.68 058.3 m E Pn      2012/12/12 08:57:07.5   0.0                          T                                        5145147
SBF   000.68 058.3 m E Sg      2012/12/12 08:57:14.6   0.3                          T                3.1  .17                5137422
SMRF  000.90 301.9 m E Pg      2012/12/12 08:57:08.9  -0.2                          T                                        5137429
SMRF  000.90 301.9 m E Pn      2012/12/12 08:57:10.2  -0.2                          T                                        5145148
SMRF  000.90 301.9 m E Sg      2012/12/12 08:57:20.8  -0.1                          T                                        5145152
SMRF  000.90 301.9 m E Sn      2012/12/12 08:57:23.2  -0.2                          T                2.1  .19 Ml 1.8         5137428
MBDF  001.22 004.7 m E Pg      2012/12/12 08:57:15.3   0.1                          T                                        5145155
MBDF  001.22 004.7 m E Sg      2012/12/12 08:57:31.3   0.0                          T                 .7  .18 Ml 1.5         5145154
ORIF  001.51 339.3 m E Pn      2012/12/12 08:57:18.7  -0.1                          T                                        5145158
ORIF  001.51 339.3 m E Sn      2012/12/12 08:57:38.2   0.0                          T                 .8  .20 Ml 1.6         5145156
PGF   001.98 118.1 m E Pn      2012/12/12 08:57:25.2  -0.1                          T                                        5145151
LPL   002.01 002.0 m E Pn      2012/12/12 08:57:25.5  -0.3                          T                                        5145157
LPL   002.01 002.0 m E Sn      2012/12/12 08:57:50.2  -0.1                          T                1.1  .23 Ml 1.9         5145153

.
EVENT     288379
    Date      Time       Latitude Longitude    Depth    Ndef Nsta Gap    Mag1  N    Mag2  N    Mag3  N   Author         ID
       rms   OT_Error      Smajor Sminor Az        Err   mdist  Mdist     Err        Err        Err      Quality

2012/12/12 16:01:53.2     43.0595    -.3811      2.0      20    4 159  Ml 1.8  2  Md 1.7  3              bulletin    288479
                                                                                                         _ldg
      0.48   +-  0.08       3.1    1.1  175.73 +-  0.0    0.21   1.92   +-0.0      +-0.2                 m i ke

PYRENEES
Sta     Dist  EvAz     Phase      Date       Time     TRes  Azim  AzRes  Slow  SRes Def   SNR       Amp   Per   Mag1   Mag2       ID
ETSF  000.21 219.2 m E Pg      2012/12/12 16:01:57.1  -0.3                          T                                        5137540
ETSF  000.21 219.2 m E Sg      2012/12/12 16:02:00.3  -0.1                          T               23.9  .28        Md 1.9  5137536
EPF   000.53 092.9 m E Pg      2012/12/12 16:02:03.3  -0.1                          T                                        5137538
EPF   000.53 092.9 m E Sg      2012/12/12 16:02:10.7   0.3                          T                4.4  .17        Md 1.8  5137535
SJPF  000.62 275.3 m E Pg      2012/12/12 16:02:04.9  -0.1                          T                                        5137539
SJPF  000.62 275.3 m E Sg      2012/12/12 16:02:12.8  -0.3                          T                6.0  .29        Md 1.6  5137537
MTLF  001.92 080.7 m E Pn      2012/12/12 16:02:25.1  -0.1                          T                                        5145164
MTLF  001.92 080.7 m E Pg      2012/12/12 16:02:28.9  -0.1                          T                                        5137542
MTLF  001.92 080.7 m E Sn      2012/12/12 16:02:48.2  -0.2                          T                                        5137541
MTLF  001.92 080.7 m E Sg      2012/12/12 16:02:53.5  -0.2                          T                 .9  .22 Ml 1.8         5145163

.
EVENT     288380
    Date      Time       Latitude Longitude    Depth    Ndef Nsta Gap    Mag1  N    Mag2  N    Mag3  N   Author         ID
       rms   OT_Error      Smajor Sminor Az        Err   mdist  Mdist     Err        Err        Err      Quality

2012/12/12 16:47:39.8     43.0631    -.3631      2.0      18    4 165  Ml 1.6  2  Md 1.7  3              bulletin    288480
                                                                                                         _ldg
      0.27   +-  0.05       1.8     .7  178.37 +-  0.0    0.22   1.91   +-0.2      +-0.2                 m i ke

PYRENEES
Sta     Dist  EvAz     Phase      Date       Time     TRes  Azim  AzRes  Slow  SRes Def   SNR       Amp   Per   Mag1   Mag2       ID
ETSF  000.22 221.3 m E Pg      2012/12/12 16:47:44.1  -0.1                          T                                        5137548
ETSF  000.22 221.3 m E Sg      2012/12/12 16:47:47.3   0.0                          T               17.1  .28        Md 1.8  5137544
EPF   000.52 093.4 m E Pg      2012/12/12 16:47:49.6  -0.1                          T                                        5137547
EPF   000.52 093.4 m E Sg      2012/12/12 16:47:56.9   0.3                          T                3.5  .17        Md 1.8  5137543
SJPF  000.63 274.8 m E Pg      2012/12/12 16:47:52.0   0.2                          T                                        5137546
SJPF  000.63 274.8 m E Sg      2012/12/12 16:48:00.0  -0.1                          T                2.5  .20        Md 1.5  5137545
MTLF  001.91 080.7 m E Pn      2012/12/12 16:48:11.6   0.0                          T                                        5145180
MTLF  001.91 080.7 m E Pg      2012/12/12 16:48:15.3   0.0                          T                                        5145178
MTLF  001.91 080.7 m E Sn      2012/12/12 16:48:34.5  -0.3                          T                                        5145177
MTLF  001.91 080.7 m E Sg      2012/12/12 16:48:40.0   0.1                          T                 .3  .19 Ml 1.5         5145179

.
EVENT     288382
    Date      Time       Latitude Longitude    Depth    Ndef Nsta Gap    Mag1  N    Mag2  N    Mag3  N   Author         ID
       rms   OT_Error      Smajor Sminor Az        Err   mdist  Mdist     Err        Err        Err      Quality

2012/12/12 19:00:43.3     44.4820    6.7232      2.0      22    8 054  Ml 1.6  5  Md 1.7  1              bulletin    288482
                                                                                                         _ldg
      0.34   +-  0.08       1.9    1.5   91.63 +-  0.0    0.06   1.51   +-0.3      +-                    m i ke

FRANCE
Sta     Dist  EvAz     Phase      Date       Time     TRes  Azim  AzRes  Slow  SRes Def   SNR       Amp   Per   Mag1   Mag2       ID
MBDF  000.25 008.0 m E Pg      2012/12/12 19:00:47.8  -0.6                          T                                        5137560
MBDF  000.25 008.0 m E Sg      2012/12/12 19:00:51.8   0.1                          T                4.2  .28        Md 1.7  5137556
ORIF  000.74 306.3 m E Pg      2012/12/12 19:00:56.5  -0.9                          T                                        5137559
ORIF  000.74 306.3 m E Sg      2012/12/12 19:01:06.2  -0.8                          T                2.3  .28                5137555
SBF   000.80 140.1 m E Pg      2012/12/12 19:00:58.3  -0.2                          T                                        5137550
SBF   000.80 140.1 m E Sg      2012/12/12 19:01:08.7  -0.3                          T                1.8  .22                5137551
FRF   000.92 183.5 m E Pg      2012/12/12 19:01:00.5  -0.1                          T                                        5137557
FRF   000.92 183.5 m E Sg      2012/12/12 19:01:12.6   0.1                          T                4.2  .22 Ml 2.1         5137553
FRF   000.92 183.5 m E Sn      2012/12/12 19:01:14.9   0.3                          T                                        5148131
SMRF  000.97 238.9 m E Pg      2012/12/12 19:01:01.8   0.3                          T                                        5137558
SMRF  000.97 238.9 m E Sg      2012/12/12 19:01:13.7  -0.3                          T                  1  .21 Ml 1.5         5137554
LPG   001.02 001.1 m E Pg      2012/12/12 19:01:02.6   0.0                          T                                        5148133
LPG   001.02 001.1 m E Sg      2012/12/12 19:01:15.6  -0.2                          T                 .8  .25 Ml 1.3         5148132
LMR   001.16 187.7 m E Pg      2012/12/12 19:01:04.6  -0.3                          T                                        5137549
LMR   001.16 187.7 m E Sg      2012/12/12 19:01:20.1   0.2                          T                1.2  .23 Ml 1.6         5137552
VIVF  001.51 285.1 m E Pn      2012/12/12 19:01:10.0   0.3                          T                                        5148135
VIVF  001.51 285.1 m E Sn      2012/12/12 19:01:29.1   0.3                          T                 .7  .26 Ml 1.5         5148134

.
EVENT     288383
    Date      Time       Latitude Longitude    Depth    Ndef Nsta Gap    Mag1  N    Mag2  N    Mag3  N   Author         ID
       rms   OT_Error      Smajor Sminor Az        Err   mdist  Mdist     Err        Err        Err      Quality

2012/12/12 20:11:18.9     44.3283    7.4169      8.0 f    55    9 082  Ml 2.0  9  Md 2.1  3              bulletin    288483
                                                                                                         _ldg
      0.69   +-  0.06       1.6    1.2   52.63 +-  0.0    0.10   2.12   +-0.4      +-0.0                 m i ke

NORTHERN ITALY
Sta     Dist  EvAz     Phase      Date       Time     TRes  Azim  AzRes  Slow  SRes Def   SNR       Amp   Per   Mag1   Mag2       ID
SBF   000.47 178.4 m E Pg      2012/12/12 20:11:27.7  -0.3                          T                                        5137563
SBF   000.47 178.4 m E Sg      2012/12/12 20:11:33.9  -0.3                          T               12.6  .22        Md 2.1  5137562
MBDF  000.61 311.0 m E Pg      2012/12/12 20:11:30.5  -0.3                          T                                        5137576
MBDF  000.61 311.0 m E Sg      2012/12/12 20:11:38.7  -0.1                          T               11.8  .22        Md 2.1  5137573
MBDF  000.61 311.0 m E Sn      2012/12/12 20:11:42.8   0.8                          T                                Md 2.0  5145398
FRF   000.95 216.2 m E Pg      2012/12/12 20:11:36.2  -0.6                          T                                        5137574
FRF   000.95 216.2 m E Pn      2012/12/12 20:11:37.4   0.5                          T                                        5145403
FRF   000.95 216.2 m E Sg      2012/12/12 20:11:48.6  -0.5                          T               10.1  .22 Ml 2.5         5137572
FRF   000.95 216.2 m E Sn      2012/12/12 20:11:50.6   0.7                          T                                        5145402
LMR   001.19 213.8 m E Pn      2012/12/12 20:11:40.5   0.3                          T                                        5137564
LMR   001.19 213.8 m E Pg      2012/12/12 20:11:41.0  -0.2                          T                                        5145404
LMR   001.19 213.8 m E Sn      2012/12/12 20:11:56.5   0.8                          T               19.1  .30 Ml 2.7         5137561
LPL   001.28 338.0 m E Pn      2012/12/12 20:11:41.5  -0.3                          T                                        5137571
LPL   001.28 338.0 m E Pg      2012/12/12 20:11:42.9  -0.3                          T                                        5145399
LPL   001.28 338.0 m E Sn      2012/12/12 20:11:58.8   0.6                          T                2.7  .36 Ml 1.8         5137566
ORIF  001.25 298.8 m E Pn      2012/12/12 20:11:42.1   0.9                          T                                        5137575
ORIF  001.25 298.8 m E Sn      2012/12/12 20:11:57.9   0.8                          T                5.8  .58 Ml 1.9         5137565
LPG   001.26 338.2 m E Pn      2012/12/12 20:11:42.3   0.7                          T                                        5137568
LPG   001.26 338.2 m E Pg      2012/12/12 20:11:42.8  -0.1                          T                                        5145400
LPG   001.26 338.2 m E Sn      2012/12/12 20:11:58.3   0.5                          T                1.5  .23 Ml 1.8         5137567
SMRF  001.37 255.8 m E Pn      2012/12/12 20:11:43.2   0.4                          T                                        5137570
SMRF  001.37 255.8 m E Pg      2012/12/12 20:11:44.9   0.3                          T                                        5145401
SMRF  001.37 255.8 m E Sn      2012/12/12 20:12:01.9   1.9                          T                1.9  .19 Ml 2.0         5137569
PGF   002.12 146.5 m E Pn      2012/12/12 20:11:53.6   0.5                          T                                        5145406
PGF   002.12 146.5 m E Sn      2012/12/12 20:12:18.8   0.7                          T                 .8  .21 Ml 2.1         5145405

.
