EVENT     294461
    Date      Time       Latitude Longitude    Depth    Ndef Nsta Gap    Mag1  N    Mag2  N    Mag3  N   Author         ID
       rms   OT_Error      Smajor Sminor Az        Err   mdist  Mdist     Err        Err        Err      Quality

2013/03/21 14:31:36.0     42.8430   -1.8475      2.0     217   41 061  Ml 4.0 79  Md 3.6  5              bulletin    294561
                                                                                                         _ldg
      1.01   +-  0.06       1.5    1.1  123.88 +-  0.0    0.21   8.59   +-0.3      +-0.1                 m i ke

PYRENEES
Sta     Dist  EvAz     Phase      Date       Time     TRes  Azim  AzRes  Slow  SRes Def   SNR       Amp   Per   Mag1   Mag2       ID
SJPF  000.53 059.2 m E Pg      2013/03/21 14:31:46.4   0.3                          T                                        5231813
SJPF  000.53 059.2 m E Sg      2013/03/21 14:31:53.9   0.7                          T             1743.5  .36        Md 3.7  5231805
ETSF  000.95 086.2 m E Pg      2013/03/21 14:31:53.7  -0.2                          T                                        5231812
ETSF  000.95 086.2 m E P       2013/03/21 14:31:55.9  -0.1                          T                                        5238336
ETSF  000.95 086.2 m E Sg      2013/03/21 14:32:07.1   0.8                          T              841.6  .40 Ml 4.1 Md 3.5  5231804
EPF   001.62 082.6 m E Pg      2013/03/21 14:32:06.0  -0.2                          T                                        5231811
EPF   001.62 082.6 m E Sg      2013/03/21 14:32:27.5   0.4                          T             1710.7  .58 Ml 4.6 Md 3.5  5231803
LFF   002.81 040.9 m E Pn      2013/03/21 14:32:20.3   0.2                          T                                        5231808
LFF   002.81 040.9 m E Sn      2013/03/21 14:32:52.6   0.1                          T              134.4  .37 Ml 3.8         5232017
LFF   002.81 040.9 m E Sg      2013/03/21 14:33:04.7   0.5                          T              264.2  .45 Ml 4.0 Md 3.6  5238299
MTLF  003.02 079.1 m E Pn      2013/03/21 14:32:23.2   0.3                          T                                        5238334
MTLF  003.02 079.1 m E P       2013/03/21 14:32:26.1   0.3                          T                                        5231810
MTLF  003.02 079.1 m E Pg      2013/03/21 14:32:32.5   0.6                          T                                        5238335
MTLF  003.02 079.1 m E Sn      2013/03/21 14:32:57.1  -0.5                          T              149.5  .46 Ml 3.9         5232016
MTLF  003.02 079.1 m E Sg      2013/03/21 14:33:11.4   0.6                          T              220.5  .50 Ml 4.1 Md 3.6  5238298
RJF   003.45 043.4 m E Pn      2013/03/21 14:32:29.2   0.4                          T                                        5231807
RJF   003.45 043.4 m E Sn      2013/03/21 14:33:08.2   0.2                          T              126.9  .31 Ml 3.8         5231801
RJF   003.45 043.4 m E Sg      2013/03/21 14:33:24.9   0.5                          T              124.1  .47 Ml 3.6         5232843
CAF   003.51 052.3 m E Pn      2013/03/21 14:32:30.4   0.8                          T                                        5231809
CAF   003.51 052.3 m E Sn      2013/03/21 14:33:09.6   0.2                          T              120.8  .30 Ml 4.1         5231802
CAF   003.51 052.3 m E Sg      2013/03/21 14:33:27.0   0.8                          T              102.9  .39 Ml 4.0         5232842
MFF   003.95 017.3 m E Pn      2013/03/21 14:32:35.4  -0.2                          T                                        5232083
MFF   003.95 017.3 m E Pg      2013/03/21 14:32:48.8  -0.3                          T                                        5232850
MFF   003.95 017.3 m E Sn      2013/03/21 14:33:19.5  -0.2                          T               41.9  .40 Ml 3.8         5232082
MFF   003.95 017.3 m E Sg      2013/03/21 14:33:39.8   0.0                          T               36.0  .29 Ml 3.9         5238300
LASF  004.33 071.5 m E Pn      2013/03/21 14:32:42.1   1.2                          T                                        5231797
LASF  004.33 071.5 m E Sn      2013/03/21 14:33:29.7   0.7                          T              343.2  .46 Ml 4.6         5232015
LASF  004.33 071.5 m E Sg      2013/03/21 14:33:53.2   1.5                          T              150.3  .56 Ml 4.2         5238297
TCF   004.50 038.7 m E Pn      2013/03/21 14:32:43.4   0.2                          T                                        5232009
TCF   004.50 038.7 m E Sn      2013/03/21 14:33:33.2   0.2                          T               72.9  .36 Ml 4.1         5232102
TCF   004.50 038.7 m E Sg      2013/03/21 14:33:57.6   0.5                          T               74.6  .48 Ml 4.0         5238317
BGF   005.00 040.4 m E Pn      2013/03/21 14:32:50.4   0.6                          T                                        5231806
BGF   005.00 040.4 m E Sn      2013/03/21 14:33:45.1   0.2                          T              227.8  .60 Ml 4.5         5231800
BGF   005.00 040.4 m E Sg      2013/03/21 14:34:13.7   1.1                          T              205.7  .54 Ml 4.5         5238305
QUIF  005.16 350.1 m E Pn      2013/03/21 14:32:52.4   0.4                          T                                        5231791
QUIF  005.16 350.1 m E Sn      2013/03/21 14:33:48.0  -0.6                          T               46.6  .42 Ml 4.0         5232084
QUIF  005.16 350.1 m E Sg      2013/03/21 14:34:16.7  -0.8                          T               21.2  .53 Ml 3.5         5238301
VIVF  005.13 064.7 m E Pn      2013/03/21 14:32:53.0   1.4                          T                                        5231796
VIVF  005.13 064.7 m E Sn      2013/03/21 14:33:48.2   0.3                          T               94.3  .54 Ml 4.1         5232013
VIVF  005.13 064.7 m E Sg      2013/03/21 14:34:17.1   0.5                          T               40.6  .36 Ml 3.9         5238296
AVF   005.41 041.4 m E Pn      2013/03/21 14:32:55.6   0.1                          T                                        5231793
AVF   005.41 041.4 m E Sn      2013/03/21 14:33:55.0   0.4                          T               23.3  .36 Ml 3.8         5232101
AVF   005.41 041.4 m E Sg      2013/03/21 14:34:25.0  -0.3                          T               96.8  .74 Ml 4.1         5238308
SGMF  005.43 355.0 m E Pn      2013/03/21 14:32:55.9   0.1                          T                                        5231790
SGMF  005.43 355.0 m E Sn      2013/03/21 14:33:53.8  -1.4                          T                                        5232844
SGMF  005.43 355.0 m E Sg      2013/03/21 14:34:25.5  -0.7                          T               62.5  .67 Ml 3.9         5238302
HYF   005.45 034.1 m E Pn      2013/03/21 14:32:56.1   0.1                          T                                        5238339
HYF   005.45 034.1 m E Sn      2013/03/21 14:33:55.7   0.1                          T                                        5232099
HYF   005.45 034.1 m E Sg      2013/03/21 14:34:27.4   0.8                          T                                        5238306
SMRF  005.52 075.6 m E Pn      2013/03/21 14:32:57.3   0.2                          T                                        5231795
SMRF  005.52 075.6 m E Sn      2013/03/21 14:33:57.8   0.4                          T               39.5  .50 Ml 3.9         5232090
SMRF  005.52 075.6 m E Sg      2013/03/21 14:34:30.3   1.3                          T              147.7 1.08 Ml 4.1         5238291
SMF   005.56 044.9 m E Pn      2013/03/21 14:32:57.6   0.1                          T                                        5231792
SMF   005.56 044.9 m E Sn      2013/03/21 14:33:58.2   0.0                          T               41.6  .49 Ml 3.9         5232100
SMF   005.56 044.9 m E Sg      2013/03/21 14:34:30.9   1.0                          T               59.6  .63 Ml 4.0         5238307
GRR   005.59 006.8 m E Pn      2013/03/21 14:32:57.7  -0.2                          T                                        5232839
GRR   005.59 006.8 m E Sn      2013/03/21 14:33:58.1  -0.8                          T                                        5232849
GRR   005.59 006.8 m E Sg      2013/03/21 14:34:30.9  -0.1                          T               54.0  .65 Ml 3.8         5232848
ROSF  005.58 350.2 m E Pn      2013/03/21 14:32:58.3   0.4                          T                                        5231789
ROSF  005.58 350.2 m E Sn      2013/03/21 14:33:57.8  -1.0                          T               22.8  .32 Ml 3.9         5232085
ROSF  005.58 350.2 m E Sg      2013/03/21 14:34:30.6  -0.2                          T               28.7  .58 Ml 3.7         5238303
SSF   005.68 040.2 m E Pn      2013/03/21 14:32:59.2   0.1                          T                                        5232011
SSF   005.68 040.2 m E Sn      2013/03/21 14:34:01.2   0.2                          T               28.5  .37 Ml 4.0         5232097
SSF   005.68 040.2 m E Sg      2013/03/21 14:34:34.3   0.6                          T               51.0  .52 Ml 4.1         5238318
LDF   005.88 011.3 m E Pn      2013/03/21 14:33:01.6  -0.2                          T                                        5231788
LDF   005.88 011.3 m E Sn      2013/03/21 14:34:05.2  -0.7                          T               25.4  .52 Ml 3.7         5232086
LDF   005.88 011.3 m E Sg      2013/03/21 14:34:40.2   0.3                          T               70.9  .88 Ml 3.9         5232847
ORIF  005.96 067.0 m E Pn      2013/03/21 14:33:02.7  -0.4                          T                                        5238333
ORIF  005.96 067.0 m E P       2013/03/21 14:33:07.3  -0.2                          T                                        5231799
ORIF  005.96 067.0 m E Sn      2013/03/21 14:34:07.8  -0.1                          T              148.6  .55 Ml 4.5         5232012
ORIF  005.96 067.0 m E Sg      2013/03/21 14:34:43.0   0.4                          T               61.2  .82 Ml 4.0         5238294
LOR   005.99 040.4 m E Pn      2013/03/21 14:33:03.0  -0.5 222.0  -2.5              T                                        5232010
LOR   005.99 040.4 m E Sn      2013/03/21 14:34:08.0  -0.6 221.4  -3.0              T               19.9  .33 Ml 3.9         5232098
LOR   005.99 040.4 m E Sg      2013/03/21 14:34:44.5   0.9 210.5  -14.0             T               71.1  .68 Ml 4.1         5238319
FLN   006.00 008.7 m E Pn      2013/03/21 14:33:03.1  -0.3 191.6  1.9               T                                        5232838
FLN   006.00 008.7 m E Sn      2013/03/21 14:34:08.6  -0.1                          T               10.4  .38 Ml 3.4         5232846
FLN   006.00 008.7 m E Sg      2013/03/21 14:34:43.4  -0.3 192.3  2.6               T               64.6  .70 Ml 3.9         5232845
LMR   006.14 082.6 m E Pn      2013/03/21 14:33:06.0   0.6                          T                                        5232088
LMR   006.14 082.6 m E Sn      2013/03/21 14:34:12.4   0.3                          T               19.5  .58 Ml 3.7         5232087
LMR   006.14 082.6 m E Sg      2013/03/21 14:34:48.8   0.6                          T               16.8  .53 Ml 3.6         5238290
FRF   006.25 080.5 m E Pn      2013/03/21 14:33:07.0   0.1                          T                                        5231794
FRF   006.25 080.5 m E Sn      2013/03/21 14:34:14.7   0.0                          T               36.6  .54 Ml 4.0         5232089
FRF   006.25 080.5 m E Sg      2013/03/21 14:34:52.1   0.5                          T                                        5232840
MBDF  006.52 070.3 m E Pn      2013/03/21 14:33:10.1  -0.6                          T                                        5231798
MBDF  006.52 070.3 m E Sn      2013/03/21 14:34:21.8   0.5                          T               36.5  .54 Ml 4.0         5232014
MBDF  006.52 070.3 m E Sg      2013/03/21 14:34:59.9  -0.2                          T               20.3  .68 Ml 3.7         5238295
LPL   006.72 063.6 m E Pn      2013/03/21 14:33:13.3  -0.3                          T                                        5232841
LPL   006.72 063.6 m E Sn      2013/03/21 14:34:26.0  -0.3                          T               21.3  .56 Ml 3.8         5238328
LPL   006.72 063.6 m E Sg      2013/03/21 14:35:06.3  -0.3                          T               23.6  .64 Ml 3.8         5238293
CABF  006.79 053.6 m E Pn      2013/03/21 14:33:15.8   1.3                          T                                        5232852
CABF  006.79 053.6 m E Sn      2013/03/21 14:34:27.8   0.0                          T               31.3  .62 Ml 3.9         5238327
CABF  006.79 053.6 m E Sg      2013/03/21 14:35:12.3   3.7                          T              139.9  .98 Ml 4.4         5232851
LPG   006.73 063.8 m E P       2013/03/21 14:33:18.6  -0.1                          T                                        5232091
LPG   006.73 063.8 m E Sn      2013/03/21 14:34:27.0   0.5                          T               35.0  .70 Ml 3.9         5238329
LPG   006.73 063.8 m E Sg      2013/03/21 14:35:07.1   0.2                          T               27.7  .72 Ml 3.8         5238292
SBF   006.84 078.3 m E P       2013/03/21 14:33:19.2  -0.9                          T                                        5238332
SBF   006.84 078.3 m E Sn      2013/03/21 14:34:29.4   0.4                          T               50.0  .54 Ml 4.2         5238330
SFTF  007.22 039.7 m E Pn      2013/03/21 14:33:19.6  -0.5                          T                                        5238341
SFTF  007.22 039.7 m E Sn      2013/03/21 14:34:37.7  -0.2 212.2  -12.3             T               24.9  .54 Ml 4.0         5238325
SFTF  007.22 039.7 m E Sg      2013/03/21 14:35:22.6   0.8                          T              114.2 1.03 Ml 4.3         5238311
HAU   007.74 045.3 m E Pn      2013/03/21 14:33:26.1  -1.1                          T                                        5238340
HAU   007.74 045.3 m E Sn      2013/03/21 14:34:50.4   0.1                          T               16.0  .44 Ml 3.7         5232836
HAU   007.74 045.3 m E Sg      2013/03/21 14:35:38.4   0.4                          T               37.1  .70 Ml 3.9         5238310
HINF  007.89 048.0 m E Pn      2013/03/21 14:33:29.2  -0.1                          T                                        5232837
HINF  007.89 048.0 m E Sn      2013/03/21 14:34:54.2   0.2                          T                4.8  .31 Ml 3.6         5238326
HINF  007.89 048.0 m E Sg      2013/03/21 14:35:43.6   0.7                          T               35.0  .86 Ml 4.0         5238309
PGF   008.00 088.4 m E Pn      2013/03/21 14:33:32.2   1.3                          T                                        5232835
PGF   008.00 088.4 m E Sn      2013/03/21 14:34:57.0   0.4                          T               14.0  .41 Ml 4.2         5238331
BAIF  008.34 028.0 m E Pn      2013/03/21 14:33:35.0  -0.3                          T                                        5232007
BAIF  008.34 028.0 m E Sn      2013/03/21 14:35:04.6   0.0                          T               22.3  .69 Ml 4.0         5238321
BAIF  008.34 028.0 m E Sg      2013/03/21 14:35:56.9   0.1                          T               60.9 1.03 Ml 4.2         5238315
CDF   008.48 045.8 m E Pn      2013/03/21 14:33:36.4  -0.9                          T                                        5238342
CDF   008.48 045.8 m E Sn      2013/03/21 14:35:07.8  -0.2                          T                9.0  .52 Ml 3.8         5238322
CDF   008.48 045.8 m E Sg      2013/03/21 14:36:01.6   0.4                          T               31.1  .84 Ml 4.2         5238314
GIVF  008.59 030.0 m E Pn      2013/03/21 14:33:38.2  -0.6                          T                                        5232008
GIVF  008.59 030.0 m E Sn      2013/03/21 14:35:10.5  -0.2                          T               13.2  .34 Ml 4.1         5238320
GIVF  008.59 030.0 m E Sg      2013/03/21 14:36:05.0   0.3                          T               43.3  .86 Ml 4.2         5238316
MEZF  007.44 038.1 m E Sn      2013/03/21 14:34:42.9  -0.2 219.7  -3.3              T               15.6  .30 Ml 4.0         5238324
MEZF  007.44 038.1 m E Sg      2013/03/21 14:35:28.6  -0.1                          T               28.0  .47 Ml 4.1         5238312
PAGF  007.79 040.2 m E Sn      2013/03/21 14:34:51.6   0.1                          T               14.7  .49 Ml 3.9         5238323
PAGF  007.79 040.2 m E Sg      2013/03/21 14:35:40.0   0.3                          T               95.9  .91 Ml 4.4         5238313

.
EVENT     294458
    Date      Time       Latitude Longitude    Depth    Ndef Nsta Gap    Mag1  N    Mag2  N    Mag3  N   Author         ID
       rms   OT_Error      Smajor Sminor Az        Err   mdist  Mdist     Err        Err        Err      Quality

2013/03/21 14:36:56.9     42.9624   -1.9879      2.0       6    3 341  Ml 1.9  2  Md 2.3  1              bulletin    294558
                                                                                                         _ldg
      1.51   +-  2.99      88.3   49.8  175.63 +-  0.0    0.58   1.71   +-0.3      +-                    m i ke

PYRENEES
Sta     Dist  EvAz     Phase      Date       Time     TRes  Azim  AzRes  Slow  SRes Def   SNR       Amp   Per   Mag1   Mag2       ID
SJPF  000.58 074.6 m E Pg      2013/03/21 14:37:07.2  -0.7                          T                                        5232023
SJPF  000.58 074.6 m E Sg      2013/03/21 14:37:15.7   0.1                          T                8.9  .30        Md 2.3  5232022
ETSF  001.05 093.0 m E Pg      2013/03/21 14:37:17.5   0.7                          T                                        5232021
ETSF  001.05 093.0 m E Sg      2013/03/21 14:37:26.8  -3.6                          T                1.7  .22 Ml 1.7         5232020
EPF   001.71 086.9 m E Pg      2013/03/21 14:37:28.0  -0.9                          T                                        5232019
EPF   001.71 086.9 m E Sg      2013/03/21 14:37:52.9   2.0                          T                4.2  .43 Ml 2.1         5232018

.
EVENT     294459
    Date      Time       Latitude Longitude    Depth    Ndef Nsta Gap    Mag1  N    Mag2  N    Mag3  N   Author         ID
       rms   OT_Error      Smajor Sminor Az        Err   mdist  Mdist     Err        Err        Err      Quality

2013/03/21 14:44:26.3     42.7995   -1.8501      2.0      24    3 099  Ml 2.6  2  Md 2.2  1              bulletin    294559
                                                                                                         _ldg
      0.67   +-  0.14       2.8    2.2  177.44 +-  0.0    0.20   3.34   +-0.3      +-                    m i ke

PYRENEES
Sta     Dist  EvAz     Phase      Date       Time     TRes  Azim  AzRes  Slow  SRes Def   SNR       Amp   Per   Mag1   Mag2       ID
SJPF  000.56 055.4 m E Pg      2013/03/21 14:44:37.2   0.3                          T                                        5232029
SJPF  000.56 055.4 m E Sg      2013/03/21 14:44:44.4   0.2                          T               22.9  .33        Md 2.2  5232028
ETSF  000.95 083.6 m E Pg      2013/03/21 14:44:44.6   0.3                          T                                        5232027
ETSF  000.95 083.6 m E Sg      2013/03/21 14:44:56.8   0.1                          T                8.8  .26 Ml 2.3         5232026
EPF   001.63 081.1 m E Pg      2013/03/21 14:44:56.7   0.1                          T                                        5232025
EPF   001.63 081.1 m E Sg      2013/03/21 14:45:17.9   0.3                          T               19.2  .39 Ml 2.8         5232024

.
