EVENT     290389
    Date      Time       Latitude Longitude    Depth    Ndef Nsta Gap    Mag1  N    Mag2  N    Mag3  N   Author         ID
       rms   OT_Error      Smajor Sminor Az        Err   mdist  Mdist     Err        Err        Err      Quality

2013/01/16 08:44:12.8     49.1530    8.1378     10.0      17    5 114  Ml 1.7  4                         bulletin    290489
                                                                                                         _ldg
      0.31   +-  0.10       2.4    1.4   96.76 +-  0.0    0.02   2.89   +-0.2                            m i ke

GERMANY
Sta     Dist  EvAz     Phase      Date       Time     TRes  Azim  AzRes  Slow  SRes Def   SNR       Amp   Per   Mag1   Mag2       ID
LANF  000.28 231.8 m E Pg      2013/01/16 08:44:18.2  -0.3                          T                                        5169911
LANF  000.28 231.8 m E Sg      2013/01/16 08:44:22.4  -0.1                          T                                        5169912
CDF   000.94 217.9 m E Pg      2013/01/16 08:44:30.3  -0.2                          T                                        5169929
CDF   000.94 217.9 m E Sg      2013/01/16 08:44:42.5  -0.2                          T                 .8  .16 Ml 1.6         5169928
HINF  001.59 213.1 m E Pn      2013/01/16 08:44:39.7   0.3                          T                                        5169935
HINF  001.59 213.1 m E Pg      2013/01/16 08:44:42.5   0.0                          T                                        5169934
HINF  001.59 213.1 m E Sn      2013/01/16 08:44:58.9   0.2                          T                                        5169933
HINF  001.59 213.1 m E Sg      2013/01/16 08:45:02.9  -0.1                          T                 .8  .17 Ml 1.7         5169932
PAGF  001.70 250.3 m E Pn      2013/01/16 08:44:41.1   0.2                          T                                        5169927
PAGF  001.70 250.3 m E Sn      2013/01/16 08:45:00.8  -0.6                          T                2.5  .37 Ml 2.0         5169926
CABF  002.89 209.2 m E Pn      2013/01/16 08:44:57.5   0.3                          T                                        5169931
CABF  002.89 209.2 m E Sn      2013/01/16 08:45:30.2   0.2                          T                 .2  .17 Ml 1.4         5169930

.
EVENT     290425
    Date      Time       Latitude Longitude    Depth    Ndef Nsta Gap    Mag1  N    Mag2  N    Mag3  N   Author         ID
       rms   OT_Error      Smajor Sminor Az        Err   mdist  Mdist     Err        Err        Err      Quality

2013/01/16 15:28:31.9     47.6918    6.9566       .0 f    17    8 192  Ml 2.1  4  Md 2.3  4              bulletin    290525
                                                                                                         _ldg
      0.36   +-  0.16       3.2    2.1  130.02 +-  0.0    0.14   2.43   +-0.1      +-0.3                 m i km

FRANCE
Sta     Dist  EvAz     Phase      Date       Time     TRes  Azim  AzRes  Slow  SRes Def   SNR       Amp   Per   Mag1   Mag2       ID
HINF  000.14 330.8 m E Pg      2013/01/16 15:28:35.6   0.4                          T                                        5170213
HINF  000.14 330.8 m E Sg      2013/01/16 15:28:38.1   0.6                          T               14.9  .20        Md 1.9  5170209
HAU   000.52 307.7 m E Pg      2013/01/16 15:28:42.0  -0.1                          T                                        5170211
HAU   000.52 307.7 m E Sg      2013/01/16 15:28:48.2  -0.8                          T                3.4  .34        Md 2.1  5170244
CDF   000.75 016.4 m E Pg      2013/01/16 15:28:46.6   0.1                          T                                        5170239
CDF   000.75 016.4 m E Pn      2013/01/16 15:28:48.3  -0.2                          T                                        5170230
CDF   000.75 016.4 m E Sn      2013/01/16 15:28:59.4  -0.7                          T                6.0  .27                5170231
CABF  001.23 209.1 m E Pn      2013/01/16 15:28:55.0   0.0                          T                                        5170212
CABF  001.23 209.1 m E Sn      2013/01/16 15:29:12.8   1.3                          T                2.9  .21 Ml 2.1         5170208
PAGF  001.19 316.8 m E P       2013/01/16 15:28:56.1   0.3                          T                                        5170238
PAGF  001.19 316.8 m E Sn      2013/01/16 15:29:09.9  -0.6                          T                                        5170237
SFTF  001.39 292.4 m E Pn      2013/01/16 15:28:56.3  -0.7                          T                                        5170232
SFTF  001.39 292.4 m E Sg      2013/01/16 15:29:15.8  -0.4                          T                2.5  .25 Ml 2.0 Md 2.5  5170233
LOR   002.14 259.7 m E Pg      2013/01/16 15:29:12.1   0.1                          T                                        5187438
LOR   002.14 259.7 m E Sg      2013/01/16 15:29:40.2   0.4                          T                2.0  .26 Ml 2.1 Md 2.5  5170236
SSF   002.43 256.2 m E Pg      2013/01/16 15:29:17.0  -0.3                          T                                        5170234
SSF   002.43 256.2 m E Sg      2013/01/16 15:29:48.9   0.2                          T                1.7  .33 Ml 2.1         5170235

.
EVENT     290428
    Date      Time       Latitude Longitude    Depth    Ndef Nsta Gap    Mag1  N    Mag2  N    Mag3  N   Author         ID
       rms   OT_Error      Smajor Sminor Az        Err   mdist  Mdist     Err        Err        Err      Quality

2013/01/16 15:30:08.7     42.7352    -.3986      2.0       6    3 240             Md 1.2  3              bulletin    290528
                                                                                                         _ldg
      0.29   +-  0.48      13.1    3.2    6.37 +-  0.0    0.20   0.72              +-0.2                 m i ke

PYRENEES
Sta     Dist  EvAz     Phase      Date       Time     TRes  Azim  AzRes  Slow  SRes Def   SNR       Amp   Per   Mag1   Mag2       ID
ETSF  000.20 324.2 m E Pg      2013/01/16 15:30:13.1   0.3                          T                                        5170249
ETSF  000.20 324.2 m E Sg      2013/01/16 15:30:15.5  -0.1                          T                5.8  .18        Md 1.4  5170248
EPF   000.62 061.2 m E Pg      2013/01/16 15:30:20.3  -0.1                          T                                        5170247
EPF   000.62 061.2 m E Sg      2013/01/16 15:30:28.7   0.1                          T                2.1  .29        Md 1.2  5170246
SJPF  000.72 302.2 m E Pg      2013/01/16 15:30:22.3   0.0                          T                                        5170251
SJPF  000.72 302.2 m E Sg      2013/01/16 15:30:30.8  -0.7                          T                  1  .26        Md 1.0  5170252

.
EVENT     290443
    Date      Time       Latitude Longitude    Depth    Ndef Nsta Gap    Mag1  N    Mag2  N    Mag3  N   Author         ID
       rms   OT_Error      Smajor Sminor Az        Err   mdist  Mdist     Err        Err        Err      Quality

2013/01/16 18:21:59.1     47.6662    6.9900      4.0 f    16    8 196  Ml 1.6  5  Md 1.5  1              bulletin    290543
                                                                                                         _ldg
      0.96   +-  0.21       3.7    2.4  105.81 +-  0.0    0.18   2.16   +-0.2      +-                    m i ke

FRANCE
Sta     Dist  EvAz     Phase      Date       Time     TRes  Azim  AzRes  Slow  SRes Def   SNR       Amp   Per   Mag1   Mag2       ID
HINF  000.18 328.5 m E Pg      2013/01/16 18:22:02.8  -0.1                          T                                        5170703
HINF  000.18 328.5 m E Sg      2013/01/16 18:22:05.5   0.1                          T                3.0  .20        Md 1.5  5170702
HAU   000.55 308.4 m E Pg      2013/01/16 18:22:09.5  -0.2                          T                                        5170701
HAU   000.55 308.4 m E Sg      2013/01/16 18:22:16.8  -0.1                          T                1.5  .20                5170700
CDF   000.77 014.3 m E Pg      2013/01/16 18:22:13.7  -0.1                          T                                        5170731
CDF   000.77 014.3 m E Sg      2013/01/16 18:22:23.8  -0.1                          T                1.5  .18                5170730
CABF  001.22 210.6 m E Pg      2013/01/16 18:22:21.8  -0.3                          T                                        5170727
CABF  001.22 210.6 m E Sn      2013/01/16 18:22:37.7   0.2                          T                 .6  .20 Ml 1.4         5170726
PAGF  001.23 316.8 m E Pg      2013/01/16 18:22:22.1   0.0 146.2  10.3              T                                        5170733
PAGF  001.23 316.8 m E Sg      2013/01/16 18:22:38.2   0.2                          T                1.2  .26 Ml 1.6         5170732
SFTF  001.42 293.1 m E Pg      2013/01/16 18:22:25.8   0.2                          T                                        5170737
SFTF  001.42 293.1 m E Sg      2013/01/16 18:22:43.0  -0.9                          T                1.2  .25 Ml 1.7         5170736
MEZF  001.55 303.5 m E Pg      2013/01/16 18:22:27.9  -0.1                          T                                        5170735
MEZF  001.55 303.5 m E Sg      2013/01/16 18:22:47.9   0.0                          T                1.7  .30 Ml 1.8         5170734
LOR   002.16 260.5 m E Pg      2013/01/16 18:22:39.4   0.0                          T                                        5170729
LOR   002.16 260.5 m E Sg      2013/01/16 18:23:07.3   0.1                          T                 .2  .18 Ml 1.3         5170728

.
EVENT     290430
    Date      Time       Latitude Longitude    Depth    Ndef Nsta Gap    Mag1  N    Mag2  N    Mag3  N   Author         ID
       rms   OT_Error      Smajor Sminor Az        Err   mdist  Mdist     Err        Err        Err      Quality

2013/01/16 20:47:11.6     47.6587    7.0104      4.0 f    44   12 045  Ml 1.9  8  Md 2.0  3              bulletin    290530
                                                                                                         _ldg
      0.46   +-  0.04        .9     .8  174.74 +-  0.0    0.19   2.46   +-0.3      +-0.2                 m i ke

SWITZERLAND
Sta     Dist  EvAz     Phase      Date       Time     TRes  Azim  AzRes  Slow  SRes Def   SNR       Amp   Per   Mag1   Mag2       ID
HINF  000.19 326.2 m E Pg      2013/01/16 20:47:15.3  -0.3                          T                                        5170294
HINF  000.19 326.2 m E Sg      2013/01/16 20:47:18.1  -0.2                          T               17.9  .20        Md 2.1  5170293
HAU   000.57 308.1 m E Pg      2013/01/16 20:47:22.1  -0.4                          T                                        5170292
HAU   000.57 308.1 m E Sg      2013/01/16 20:47:29.6  -0.2                          T                7.5  .26        Md 2.0  5170291
CDF   000.77 013.2 m E Pg      2013/01/16 20:47:26.3  -0.1                          T                                        5170290
CDF   000.77 013.2 m E Sg      2013/01/16 20:47:36.6   0.1                          T                6.7  .22        Md 1.8  5170289
THEF  000.89 310.2 m E Pg      2013/01/16 20:47:28.4   0.0                          T                                        5170760
THEF  000.89 310.2 m E Sg      2013/01/16 20:47:40.6   0.6                          T                                        5170761
CABF  001.22 211.4 m E Pn      2013/01/16 20:47:34.1   0.2                          T                                        5170286
CABF  001.22 211.4 m E Sn      2013/01/16 20:47:50.3   0.3                          T                1.7  .18 Ml 1.9         5170273
PAGF  001.24 316.6 m E Pn      2013/01/16 20:47:34.3   0.1                          T                                        5170285
PAGF  001.24 316.6 m E Pg      2013/01/16 20:47:34.8  -0.1                          T                                        5170284
PAGF  001.24 316.6 m E Sg      2013/01/16 20:47:50.8  -0.2                          T                3.5  .18 Ml 2.2         5170283
SFTF  001.43 293.1 m E Pg      2013/01/16 20:47:38.5   0.2 113.3  1.6               T                                        5170288
SFTF  001.43 293.1 m E Sg      2013/01/16 20:47:56.7  -0.2                          T                5.0  .28 Ml 2.3         5170287
MEZF  001.56 303.4 m E Pg      2013/01/16 20:47:40.5  -0.1 124.2  2.2               T                                        5170276
MEZF  001.56 303.4 m E Sn      2013/01/16 20:47:58.1   0.2                          T                                        5170275
MEZF  001.56 303.4 m E Sg      2013/01/16 20:48:00.7  -0.2                          T                3.2  .22 Ml 2.2         5170274
LPL   002.15 185.2 m E Pn      2013/01/16 20:47:47.1   0.4                          T                                        5170272
LPL   002.15 185.2 m E Pg      2013/01/16 20:47:52.0   0.1                          T                                        5170271
LPL   002.15 185.2 m E Sn      2013/01/16 20:48:12.6   0.3                          T                 .7  .28 Ml 1.7         5170270
LPG   002.17 184.8 m E Pn      2013/01/16 20:47:47.3   0.3                          T                                        5170269
LPG   002.17 184.8 m E Pg      2013/01/16 20:47:52.4   0.1                          T                                        5170268
LPG   002.17 184.8 m E Sn      2013/01/16 20:48:13.3   0.5                          T                 .4  .23 Ml 1.5         5170267
SSF   002.46 257.2 m E Pn      2013/01/16 20:47:51.0   0.3                          T                                        5170277
SSF   002.46 257.2 m E Pg      2013/01/16 20:47:57.0  -0.1                          T                                        5170280
SSF   002.46 257.2 m E Sn      2013/01/16 20:48:19.8   0.5                          T                                        5170278
SSF   002.46 257.2 m E Sg      2013/01/16 20:48:28.7  -0.1                          T                 .6  .20 Ml 1.8         5170279
LOR   002.17 260.8 m E Pg      2013/01/16 20:47:52.0   0.0  80.6  2.1               T                                        5170282
LOR   002.17 260.8 m E Sg      2013/01/16 20:48:19.5  -0.5  79.3  0.8               T                 .8  .17 Ml 1.9         5170281

.
EVENT     290431
    Date      Time       Latitude Longitude    Depth    Ndef Nsta Gap    Mag1  N    Mag2  N    Mag3  N   Author         ID
       rms   OT_Error      Smajor Sminor Az        Err   mdist  Mdist     Err        Err        Err      Quality

2013/01/16 20:57:07.7     47.6607    6.9955      6.0 f    34   11 049  Ml 1.5  8  Md 1.6  3              bulletin    290531
                                                                                                         _ldg
      0.40   +-  0.04        .9     .8     .59 +-  0.0    0.18   2.17   +-0.3      +-0.1                 m i ke

FRANCE
Sta     Dist  EvAz     Phase      Date       Time     TRes  Azim  AzRes  Slow  SRes Def   SNR       Amp   Per   Mag1   Mag2       ID
HINF  000.18 328.4 m E Pg      2013/01/16 20:57:11.4  -0.3                          T                                        5170316
HINF  000.18 328.4 m E Sg      2013/01/16 20:57:14.2   0.0                          T                9.7  .18        Md 1.5  5170315
HAU   000.56 308.6 m E Pg      2013/01/16 20:57:18.0  -0.4                          T                                        5170314
HAU   000.56 308.6 m E Sg      2013/01/16 20:57:25.7   0.0                          T                2.4  .22        Md 1.7  5170313
CDF   000.78 014.0 m E Pg      2013/01/16 20:57:22.4  -0.1                          T                                        5170312
CDF   000.78 014.0 m E Sg      2013/01/16 20:57:32.6   0.0                          T                2.5  .21        Md 1.7  5170311
THEF  000.88 310.5 m E Pg      2013/01/16 20:57:24.6   0.3                          T                                        5170792
THEF  000.88 310.5 m E Sg      2013/01/16 20:57:37.3   1.5                          T                                        5170793
CABF  001.22 210.9 m E Pg      2013/01/16 20:57:30.4  -0.2                          T                                        5170304
CABF  001.22 210.9 m E Sg      2013/01/16 20:57:46.6   0.1                          T                 .5  .18 Ml 1.4         5170303
PAGF  001.24 316.9 m E Pg      2013/01/16 20:57:30.8  -0.1                          T                                        5170306
PAGF  001.24 316.9 m E Sg      2013/01/16 20:57:46.8   0.0                          T                1.8  .19 Ml 1.9         5170305
SFTF  001.42 293.2 m E Pg      2013/01/16 20:57:34.6   0.3 113.1  1.4               T                                        5170310
SFTF  001.42 293.2 m E Sg      2013/01/16 20:57:52.5  -0.2                          T                 .8  .17 Ml 1.7         5170309
MEZF  001.55 303.6 m E Pg      2013/01/16 20:57:36.5  -0.1 123.7  1.6               T                                        5170308
MEZF  001.55 303.6 m E Sg      2013/01/16 20:57:56.5  -0.2                          T                1.5  .28 Ml 1.8         5170307
LPL   002.15 184.9 m E Pn      2013/01/16 20:57:42.9   0.3                          T                                        5170302
LPL   002.15 184.9 m E Sn      2013/01/16 20:58:08.8   0.7                          T                 .3  .20 Ml 1.4         5170299
LPG   002.17 184.5 m E Pn      2013/01/16 20:57:43.4   0.4                          T                                        5170301
LPG   002.17 184.5 m E Sn      2013/01/16 20:58:09.3   0.7                          T                 .1  .17 Ml 1.2         5170300
LOR   002.16 260.7 m E Pg      2013/01/16 20:57:47.7  -0.3  80.7  2.3               T                                        5170298
LOR   002.16 260.7 m E Sg      2013/01/16 20:58:15.9   0.1  79.5  1.1               T                 .3  .17 Ml 1.5         5170297

.
