EVENT     290800
    Date      Time       Latitude Longitude    Depth    Ndef Nsta Gap    Mag1  N    Mag2  N    Mag3  N   Author         ID
       rms   OT_Error      Smajor Sminor Az        Err   mdist  Mdist     Err        Err        Err      Quality

2013/01/23 23:50:14.7     44.9593    6.6316      2.0      11    5 147  Ml 1.3  1  Md 1.2  4              bulletin    290900
                                                                                                         _ldg
      0.10   +-  0.03        .6     .5  110.36 +-  0.0    0.25   1.40   +-         +-0.2                 m i ke

FRANCE
Sta     Dist  EvAz     Phase      Date       Time     TRes  Azim  AzRes  Slow  SRes Def   SNR       Amp   Per   Mag1   Mag2       ID
MBDF  000.25 156.8 m E Pg      2013/01/23 23:50:19.9   0.0                          T                                        5176314
MBDF  000.25 156.8 m E Sg      2013/01/23 23:50:23.4   0.0                          T                3.2  .21        Md 1.4  5176310
ORIF  000.54 265.9 m E Pg      2013/01/23 23:50:25.0   0.0                          T                                        5176313
ORIF  000.54 265.9 m E Sg      2013/01/23 23:50:31.9  -0.1                          T                  1  .16        Md 1.0  5176309
LPG   000.54 008.9 m E Pg      2013/01/23 23:50:25.3  -0.1                          T                                        5176311
LPG   000.54 008.9 m E Sg      2013/01/23 23:50:32.6   0.0                          T                1.1  .18        Md 1.3  5176307
LPL   000.56 007.3 m E Pg      2013/01/23 23:50:25.8   0.1                          T                                        5176312
LPL   000.56 007.3 m E Sg      2013/01/23 23:50:33.0   0.0                          T                1.5  .28        Md 1.2  5176308
VIVF  001.40 266.4 m E Sg      2013/01/23 23:50:58.8   0.0                          T                 .4  .16 Ml 1.3         5191114

.
EVENT     290801
    Date      Time       Latitude Longitude    Depth    Ndef Nsta Gap    Mag1  N    Mag2  N    Mag3  N   Author         ID
       rms   OT_Error      Smajor Sminor Az        Err   mdist  Mdist     Err        Err        Err      Quality

2013/01/24 00:07:53.4     44.5327    7.1951      6.0 f    30    7 112  Ml 1.5  6  Md 1.5  1              bulletin    290901
                                                                                                         _ldg
      0.27   +-  0.04        .9     .6   64.18 +-  0.0    0.05   1.30   +-0.2      +-                    m i ke

NORTHERN ITALY
Sta     Dist  EvAz     Phase      Date       Time     TRes  Azim  AzRes  Slow  SRes Def   SNR       Amp   Per   Mag1   Mag2       ID
MBDF  000.36 302.8 m E Pg      2013/01/24 00:08:00.6   0.1                          T                                        5176326
MBDF  000.36 302.8 m E Sg      2013/01/24 00:08:05.5   0.1                          T                7.3  .26        Md 1.5  5176321
SBF   000.69 165.5 m E Pg      2013/01/24 00:08:06.6   0.0                          T                                        5184250
SBF   000.69 165.5 m E Sg      2013/01/24 00:08:15.7   0.1                          T                3.4  .22                5184251
ORIF  001.01 292.8 m E Pg      2013/01/24 00:08:12.6   0.1                          T                                        5176325
ORIF  001.01 292.8 m E Sg      2013/01/24 00:08:25.7   0.0                          T                1.2  .33 Ml 1.4         5176320
LPG   001.02 342.1 m E Pg      2013/01/24 00:08:12.7  -0.1                          T                                        5176322
LPG   001.02 342.1 m E Sg      2013/01/24 00:08:25.8  -0.1                          T                 .7  .23 Ml 1.3         5176316
LPL   001.04 341.7 m E Pg      2013/01/24 00:08:12.9  -0.2                          T                                        5176324
LPL   001.04 341.7 m E Sg      2013/01/24 00:08:26.6   0.0                          T                 .9  .25 Ml 1.4         5176315
SMRF  001.29 245.0 m E Pg      2013/01/24 00:08:17.7   0.1                          T                                        5176323
SMRF  001.29 245.0 m E Sg      2013/01/24 00:08:34.4   0.2                          T                2.6  .39 Ml 1.8         5176317
LMR   001.30 202.7 m E Pg      2013/01/24 00:08:18.0   0.4                          T                                        5176319
LMR   001.30 202.7 m E Sg      2013/01/24 00:08:34.6   0.2                          T                1.2  .16 Ml 1.9         5176318

.
EVENT     290803
    Date      Time       Latitude Longitude    Depth    Ndef Nsta Gap    Mag1  N    Mag2  N    Mag3  N   Author         ID
       rms   OT_Error      Smajor Sminor Az        Err   mdist  Mdist     Err        Err        Err      Quality

2013/01/24 03:45:53.9     42.5289    1.4238      4.0 f    51    8 038  Ml 2.1  8  Md 2.1  2              bulletin    290903
                                                                                                         _ldg
      0.37   +-  0.05        .9     .9  162.22 +-  0.0    0.14   2.78   +-0.3      +-0.0                 m i ke

PYRENEES
Sta     Dist  EvAz     Phase      Date       Time     TRes  Azim  AzRes  Slow  SRes Def   SNR       Amp   Per   Mag1   Mag2       ID
EPF   000.94 302.5 m E Pg      2013/01/24 03:46:11.2  -0.5                          T                                        5176336
EPF   000.94 302.5 m E Sg      2013/01/24 03:46:23.4  -0.5                          T                3.3  .25 Ml 1.9 Md 2.1  5176331
MTLF  001.00 035.4 m E Pg      2013/01/24 03:46:12.6   0.0                          T                                        5176335
MTLF  001.00 035.4 m E Sg      2013/01/24 03:46:25.5  -0.2                          T               12.2  .28 Ml 2.5 Md 2.1  5176330
ETSF  001.51 284.9 m E Pn      2013/01/24 03:46:20.3   0.2                          T                                        5176334
ETSF  001.51 284.9 m E Pg      2013/01/24 03:46:22.2   0.2                          T                                        5184549
ETSF  001.51 284.9 m E Sn      2013/01/24 03:46:39.2   0.2                          T                2.3  .29 Ml 2.0         5176343
SJPF  002.03 287.6 m E Pn      2013/01/24 03:46:27.5   0.3                          T                                        5176332
LASF  002.36 048.1 m E Pn      2013/01/24 03:46:32.7   1.2                          T                                        5176333
LASF  002.36 048.1 m E Pg      2013/01/24 03:46:38.2   0.6                          T                                        5176341
LASF  002.36 048.1 m E Sn      2013/01/24 03:47:00.0   0.8                          T                1.3  .23 Ml 2.0         5176342
CAF   002.44 010.7 m E Pn      2013/01/24 03:46:33.2   0.5                          T                                        5176329
CAF   002.44 010.7 m E Pg      2013/01/24 03:46:39.2   0.0                          T                                        5184552
CAF   002.44 010.7 m E Sn      2013/01/24 03:47:01.4   0.2                          T                                        5184553
CAF   002.44 010.7 m E Sg      2013/01/24 03:47:10.4  -0.3                          T                1.3  .16 Ml 2.2         5176340
LFF   002.46 348.6 m E Pn      2013/01/24 03:46:33.2   0.3                          T                                        5184547
LFF   002.46 348.6 m E Pg      2013/01/24 03:46:39.5   0.0                          T                                        5184548
LFF   002.46 348.6 m E Sn      2013/01/24 03:47:01.7   0.1                          T                                        5184551
LFF   002.46 348.6 m E Sg      2013/01/24 03:47:11.3   0.1                          T                1.2  .19 Ml 1.9         5184550
RJF   002.78 001.3 m E Pn      2013/01/24 03:46:37.5   0.2                          T                                        5176338
RJF   002.78 001.3 m E Pg      2013/01/24 03:46:45.0  -0.4                          T                                        5184545
RJF   002.78 001.3 m E Sn      2013/01/24 03:47:09.4   0.1                          T                                        5184546
RJF   002.78 001.3 m E Sg      2013/01/24 03:47:20.8  -0.2                          T                1.1  .18 Ml 1.8         5176339

.
EVENT     290811
    Date      Time       Latitude Longitude    Depth    Ndef Nsta Gap    Mag1  N    Mag2  N    Mag3  N   Author         ID
       rms   OT_Error      Smajor Sminor Az        Err   mdist  Mdist     Err        Err        Err      Quality

2013/01/24 09:36:21.9     43.5280    6.5640       .0 f    29    8 106  Ml 1.9  4  Md 1.9  2              bulletin    290911
                                                                                                         _ldg
      0.19   +-  0.05        .9     .8  165.61 +-  0.0    0.07   2.04   +-0.3      +-0.2                 m i km

NEAR SOUTH COAST OF FRANCE
Sta     Dist  EvAz     Phase      Date       Time     TRes  Azim  AzRes  Slow  SRes Def   SNR       Amp   Per   Mag1   Mag2       ID
FRF   000.07 061.5 m E Pg      2013/01/24 09:36:23.2  -0.4                          T                                        5176464
FRF   000.07 061.5 m E Sg      2013/01/24 09:36:24.5  -0.3                          T              380.6  .70        Md 2.0  5176475
LMR   000.20 191.6 m E Pg      2013/01/24 09:36:26.2   0.1                          T                                        5176463
LMR   000.20 191.6 m E Sg      2013/01/24 09:36:29.4   0.3                          T               66.7  .64        Md 1.7  5176468
SBF   000.72 061.8 m E Pg      2013/01/24 09:36:35.8   0.1                          T                                        5176465
SBF   000.72 061.8 m E Pn      2013/01/24 09:36:38.0   0.1                          T                                        5176479
SBF   000.72 061.8 m E Sg      2013/01/24 09:36:45.3   0.0                          T                                        5176476
SBF   000.72 061.8 m E Sn      2013/01/24 09:36:49.3   0.1                          T                9.2  .19                5176477
SMRF  000.84 302.4 m E Pg      2013/01/24 09:36:38.1   0.0                          T                                        5191118
SMRF  000.84 302.4 m E Pn      2013/01/24 09:36:39.8   0.2                          T                                        5176466
SMRF  000.84 302.4 m E Sg      2013/01/24 09:36:49.2  -0.1                          T                                        5176467
SMRF  000.84 302.4 m E Sn      2013/01/24 09:36:52.2   0.0                          T                2.9  .19                5176478
MBDF  001.21 007.0 m E Pg      2013/01/24 09:36:44.9   0.0                          T                                        5191119
MBDF  001.21 007.0 m E Sn      2013/01/24 09:37:01.0   0.0                          T                 .9  .22 Ml 1.5         5176469
ORIF  001.47 340.8 m E Pg      2013/01/24 09:36:49.8   0.1                          T                                        5191120
ORIF  001.47 340.8 m E Sg      2013/01/24 09:37:08.8  -0.2                          T                2.0  .28 Ml 1.9         5176471
PGF   002.04 117.9 m E Pn      2013/01/24 09:36:55.6  -0.3                          T                                        5176474
PGF   002.04 117.9 m E Sn      2013/01/24 09:37:20.6  -0.1                          T                 .5  .16 Ml 2.0         5176473
LPL   001.99 003.4 m E Sg      2013/01/24 09:37:25.1  -0.3                          T                1.9  .22 Ml 2.1         5191117

.
EVENT     290813
    Date      Time       Latitude Longitude    Depth    Ndef Nsta Gap    Mag1  N    Mag2  N    Mag3  N   Author         ID
       rms   OT_Error      Smajor Sminor Az        Err   mdist  Mdist     Err        Err        Err      Quality

2013/01/24 10:46:32.8     47.5502    8.1609       .0 f    29    8 062  Ml 2.2  6  Md 2.1  2              bulletin    290913
                                                                                                         _ldg
      0.36   +-  0.05       1.2    1.1   16.21 +-  0.0    0.04   2.94   +-0.3      +-0.0                 m i km

SWITZERLAND
Sta     Dist  EvAz     Phase      Date       Time     TRes  Azim  AzRes  Slow  SRes Def   SNR       Amp   Per   Mag1   Mag2       ID
HINF  000.92 287.3 m E Pg      2013/01/24 10:46:50.5   0.0                          T                                        5191127
HINF  000.92 287.3 m E Pn      2013/01/24 10:46:51.5  -0.1                          T                                        5176519
HINF  000.92 287.3 m E Sn      2013/01/24 10:47:05.2   0.2                          T                9.5  .18 Ml 2.5 Md 2.1  5176516
CDF   001.05 325.8 m E Pg      2013/01/24 10:46:53.0   0.2                          T                                        5191129
CDF   001.05 325.8 m E Pn      2013/01/24 10:46:53.4   0.0                          T                                        5176515
CDF   001.05 325.8 m E Sn      2013/01/24 10:47:08.3   0.3                          T               18.7  .40 Ml 2.6 Md 2.1  5176514
HAU   001.30 291.1 m E Pn      2013/01/24 10:46:56.9   0.0                          T                                        5176517
HAU   001.30 291.1 m E Pg      2013/01/24 10:46:57.5   0.1                          T                                        5191128
HAU   001.30 291.1 m E P       2013/01/24 10:46:58.2  -0.2                          T                                        5184609
HAU   001.30 291.1 m E Sg      2013/01/24 10:47:14.3  -0.2                          T                5.1  .22 Ml 2.1         5176518
CABF  001.70 237.2 m E Pn      2013/01/24 10:47:02.0  -0.3                          T                                        5176522
CABF  001.70 237.2 m E Pg      2013/01/24 10:47:04.7  -0.1                          T                                        5191126
CABF  001.70 237.2 m E Sg      2013/01/24 10:47:26.8  -0.1                          T                2.0  .29 Ml 2.0         5176520
SFTF  002.20 288.5 m E Pn      2013/01/24 10:47:08.9  -0.1 101.7  -4.5              T                                        5176526
SFTF  002.20 288.5 m E Pg      2013/01/24 10:47:14.0   0.1                          T                                        5176525
SFTF  002.20 288.5 m E Sn      2013/01/24 10:47:35.6   0.1                          T                                        5176524
SFTF  002.20 288.5 m E Sg      2013/01/24 10:47:42.7   0.2                          T                1.1  .19 Ml 2.0         5176527
LPG   002.27 205.9 m E Pg      2013/01/24 10:47:14.6  -1.0                          T                                        5184608
PAGF  001.92 302.5 m E Sg      2013/01/24 10:47:34.1   0.5                          T                                        5191125
LOR   002.94 266.1 m E Sg      2013/01/24 10:48:05.3  -0.1                          T                 .9  .21 Ml 2.1         5191124

.
EVENT     290851
    Date      Time       Latitude Longitude    Depth    Ndef Nsta Gap    Mag1  N    Mag2  N    Mag3  N   Author         ID
       rms   OT_Error      Smajor Sminor Az        Err   mdist  Mdist     Err        Err        Err      Quality

2013/01/24 20:03:51.5     42.9625   -1.2865      3.0 f    12    3 134  Ml 1.3  1  Md 1.2  2              bulletin    290951
                                                                                                         _ldg
      0.18   +-  0.06       1.3    1.0   77.04 +-  0.0    0.07   1.20   +-         +-0.2                 m i ke

PYRENEES
Sta     Dist  EvAz     Phase      Date       Time     TRes  Azim  AzRes  Slow  SRes Def   SNR       Amp   Per   Mag1   Mag2       ID
SJPF  000.16 016.6 m E Pg      2013/01/24 20:03:55.0   0.1                          T                                        5176762
SJPF  000.16 016.6 m E Sg      2013/01/24 20:03:57.1   0.0                          T               19.4  .20        Md 1.3  5176765
ETSF  000.54 096.6 m E Pg      2013/01/24 20:04:01.9   0.0                          T                                        5176767
ETSF  000.54 096.6 m E Sg      2013/01/24 20:04:08.9   0.0                          T                 .2  .16        Md 1.1  5176766
EPF   001.20 086.2 m E Pn      2013/01/24 20:04:13.6   0.0                          T                                        5176764
EPF   001.20 086.2 m E Sn      2013/01/24 20:04:29.4   0.0                          T                 .4  .18 Ml 1.3         5176763

.
EVENT     290848
    Date      Time       Latitude Longitude    Depth    Ndef Nsta Gap    Mag1  N    Mag2  N    Mag3  N   Author         ID
       rms   OT_Error      Smajor Sminor Az        Err   mdist  Mdist     Err        Err        Err      Quality

2013/01/25 01:35:15.3     47.2498    7.6202      3.0 f    11    5 250  Ml 1.9  3  Md 1.9  2              bulletin    290948
                                                                                                         _ldg
      0.20   +-  0.18       3.7    1.7  110.78 +-  0.0    0.77   2.56   +-0.3      +-0.0                 m i ke

SWITZERLAND
Sta     Dist  EvAz     Phase      Date       Time     TRes  Azim  AzRes  Slow  SRes Def   SNR       Amp   Per   Mag1   Mag2       ID
HINF  000.77 317.8 m E Pg      2013/01/25 01:35:29.8  -0.1                          T                                        5176649
HINF  000.77 317.8 m E Pn      2013/01/25 01:35:31.3  -0.3                          T                                        5184674
HINF  000.77 317.8 m E Sg      2013/01/25 01:35:40.2   0.3                          T                5.8  .21        Md 1.8  5176648
HAU   001.15 311.8 m E Pn      2013/01/25 01:35:36.8   0.2                          T                                        5176651
HAU   001.15 311.8 m E Sg      2013/01/25 01:35:51.9   0.3                          T                3.0  .22 Ml 1.8         5176650
CDF   001.19 348.9 m E Pg      2013/01/25 01:35:37.5  -0.1                          T                                        5176653
CDF   001.19 348.9 m E Sg      2013/01/25 01:35:53.1   0.2                          T                6.4  .40 Ml 2.2 Md 1.9  5176652
CABF  001.23 239.2 m E Pg      2013/01/25 01:35:38.5   0.1                          T                                        5176647
CABF  001.23 239.2 m E Sg      2013/01/25 01:35:54.3  -0.1                          T                1.5  .26 Ml 1.7         5176646
LOR   002.56 271.8 m E Pn      2013/01/25 01:35:56.0   0.1                          T                                        5184672
LOR   002.56 271.8 m E Sg      2013/01/25 01:36:35.3  -0.5                          T                                        5184673

.
