EVENT     258661
    Date      Time       Latitude Longitude    Depth    Ndef Nsta Gap    Mag1  N    Mag2  N    Mag3  N   Author         ID
       rms   OT_Error      Smajor Sminor Az        Err   mdist  Mdist     Err        Err        Err      Quality

2011/04/27 09:57:38.8     43.9070    7.7766      2.0       7    4 279  Ml 2.0  3  Md 1.6  1              js067245    258661

      0.15   +-  0.32       5.5    3.1   93.28 +-  0.0    0.25   1.09   +-0.4      +-                    m i ke

NEAR SOUTH COAST OF FRANCE
Sta     Dist  EvAz     Phase      Date       Time     TRes  Azim  AzRes  Slow  SRes Def   SNR       Amp   Per   Mag1   Mag2       ID
SBF   000.25 260.0 m E Pg      2011/04/27 09:57:43.7  -0.2                          T                                        4681219
SBF   000.25 260.0 m E Sg      2011/04/27 09:57:47.3   0.0                          T               36.0  .20        Md 1.6  4681220
FRF   000.89 247.5 m E Pg      2011/04/27 09:57:55.7   0.2                          T                                        4681217
FRF   000.89 247.5 m E Sg      2011/04/27 09:58:06.9  -0.2                          T                5.0  .22 Ml 2.2         4681218
LMR   001.08 238.5 m E Pg      2011/04/27 09:57:59.1   0.0                          T                                        4681215
LMR   001.08 238.5 m E Sg      2011/04/27 09:58:13.2   0.1                          T                5.3  .18 Ml 2.3         4681216
MBDF  001.09 319.0 m E Sg      2011/04/27 09:58:13.7   0.1                          T                1.1  .25 Ml 1.5         4681214

.
EVENT     258669
    Date      Time       Latitude Longitude    Depth    Ndef Nsta Gap    Mag1  N    Mag2  N    Mag3  N   Author         ID
       rms   OT_Error      Smajor Sminor Az        Err   mdist  Mdist     Err        Err        Err      Quality

2011/04/27 10:32:39.8     47.9579    5.8201       .0 f    12    6 123  Ml 2.3  2  Md 1.9  3              js067245    258669

      1.39   +-  0.16       3.8    2.6   19.27 +-  0.0    0.36   1.36   +-0.2      +-0.1                 m i km

FRANCE
Sta     Dist  EvAz     Phase      Date       Time     TRes  Azim  AzRes  Slow  SRes Def   SNR       Amp   Per   Mag1   Mag2       ID
HAU   000.36 082.1 m E Pg      2011/04/27 10:32:46.9  -0.2                          T                                        4680386
HAU   000.36 082.1 m E Sg      2011/04/27 10:32:52.1   0.1                          T              310.6  .50        Md 1.9  4680383
SFTF  000.58 295.5 m E Pg      2011/04/27 10:32:51.0  -0.1 127.0  12.0              T                                        4680379
SFTF  000.58 295.5 m E Sg      2011/04/27 10:32:58.9   0.0                          T               12.4  .46        Md 2.0  4680378
HINF  000.71 101.1 m E Pg      2011/04/27 10:32:53.5   0.0                          T                                        4680385
HINF  000.71 101.1 m E Sg      2011/04/27 10:33:03.1   0.1                          T               28.0  .38        Md 1.8  4680384
MEZF  000.75 316.9 m E Pg      2011/04/27 10:32:54.1   0.0 130.8  -5.6              T                                        4680380
MEZF  000.75 316.9 m E Sg      2011/04/27 10:33:04.3   0.2                          T               11.0  .46                4680377
CDF   001.08 064.4 m E Pg      2011/04/27 10:33:00.3  -0.1                          T                                        4680381
CDF   001.08 064.4 m E Sg      2011/04/27 10:33:14.3  -0.2                          T               10.8  .38 Ml 2.4         4680382
CABF  001.36 172.2 m E Pg      2011/04/27 10:33:05.7   0.2                          T                                        4680375
CABF  001.36 172.2 m E Sg      2011/04/27 10:33:23.7   0.4                          T                8.2  .56 Ml 2.1         4680376

.
EVENT     258706
    Date      Time       Latitude Longitude    Depth    Ndef Nsta Gap    Mag1  N    Mag2  N    Mag3  N   Author         ID
       rms   OT_Error      Smajor Sminor Az        Err   mdist  Mdist     Err        Err        Err      Quality

2011/04/27 13:23:06.5     43.0087    -.1955      2.0       8    4 145  Ml 1.9  1  Md 1.8  3              js067245    258706

      0.18   +-  0.05       2.1     .7    3.42 +-  0.0    0.16   1.80   +-         +-0.0                 m i ke

PYRENEES
Sta     Dist  EvAz     Phase      Date       Time     TRes  Azim  AzRes  Slow  SRes Def   SNR       Amp   Per   Mag1   Mag2       ID
ETSF  000.29 247.7 m E Pg      2011/04/27 13:23:12.1  -0.1                          T                                        4680818
ETSF  000.29 247.7 m E Sg      2011/04/27 13:23:15.8  -0.3                          T               22.2  .27        Md 1.9  4680815
EPF   000.39 086.7 m E Pg      2011/04/27 13:23:14.0  -0.1                          T                                        4680817
EPF   000.39 086.7 m E Sg      2011/04/27 13:23:19.2  -0.1                          T               13.8  .23        Md 1.8  4680814
SJPF  000.76 278.2 m E Pg      2011/04/27 13:23:20.8   0.0                          T                                        4680812
SJPF  000.76 278.2 m E Sg      2011/04/27 13:23:30.8   0.0                          T                2.1  .29        Md 1.8  4680816
MTLF  001.80 078.5 m E Pg      2011/04/27 13:23:40.0   0.1                          T                                        4680811
MTLF  001.80 078.5 m E Sg      2011/04/27 13:24:03.1   0.1                          T                1.4  .27 Ml 1.9         4680813

.
EVENT     258709
    Date      Time       Latitude Longitude    Depth    Ndef Nsta Gap    Mag1  N    Mag2  N    Mag3  N   Author         ID
       rms   OT_Error      Smajor Sminor Az        Err   mdist  Mdist     Err        Err        Err      Quality

2011/04/27 14:28:31.2     41.2231   -1.0632      2.0      21    4 104  Ml 2.0  5                         js067245    258709

      0.43   +-  0.15       2.8    2.0   62.02 +-  0.0    0.67   3.23   +-0.4                            m i ke

SPAIN
Sta     Dist  EvAz     Phase      Date       Time     TRes  Azim  AzRes  Slow  SRes Def   SNR       Amp   Per   Mag1   Mag2       ID
ETSF  001.72 012.5 m E Pn      2011/04/27 14:29:00.7   0.2                          T                                        4680823
ETSF  001.72 012.5 m E Sn      2011/04/27 14:29:22.0   0.3                          T                 .9  .28 Ml 1.7         4680820
SJPF  001.89 356.4 m E Pn      2011/04/27 14:29:02.8   0.0                          T                                        4680824
SJPF  001.89 356.4 m E Sn      2011/04/27 14:29:26.0   0.2                          T                 .6  .18 Ml 1.7         4680821
EPF   002.09 029.6 m E Pn      2011/04/27 14:29:05.6   0.0                          T                                        4680822
EPF   002.09 029.6 m E Sn      2011/04/27 14:29:30.7   0.2                          T                5.6  .31 Ml 2.5         4680819
MTLF  003.23 047.9 m E Pn      2011/04/27 14:29:21.1   0.1                          T                                        4680827
MTLF  003.23 047.9 m E Sn      2011/04/27 14:29:57.6  -0.1                          T                1.4  .38 Ml 2.0         4680828

.
EVENT     258704
    Date      Time       Latitude Longitude    Depth    Ndef Nsta Gap    Mag1  N    Mag2  N    Mag3  N   Author         ID
       rms   OT_Error      Smajor Sminor Az        Err   mdist  Mdist     Err        Err        Err      Quality

2011/04/27 15:58:18.0     44.1222    6.9654      2.0      22    9 133  Ml 1.7  8  Md 1.9  3              js067245    258704

      0.17   +-  0.04       1.0     .6   69.53 +-  0.0    0.43   2.16   +-0.2      +-0.1                 m i ke

FRANCE
Sta     Dist  EvAz     Phase      Date       Time     TRes  Azim  AzRes  Slow  SRes Def   SNR       Amp   Per   Mag1   Mag2       ID
SBF   000.43 127.2 m E Pg      2011/04/27 15:58:26.1  -0.2                          T                                        4680833
SBF   000.43 127.2 m E Sg      2011/04/27 15:58:32.6   0.7                          T                6.9  .34        Md 1.9  4680829
FRF   000.61 202.4 m E Pg      2011/04/27 15:58:29.3  -0.2                          T                                        4680835
FRF   000.61 202.4 m E Sg      2011/04/27 15:58:37.1  -0.3                          T                4.6  .28        Md 1.9  4680831
MBDF  000.62 347.1 m E Pg      2011/04/27 15:58:29.9  -0.1                          T                                        4680853
MBDF  000.62 347.1 m E Sg      2011/04/27 15:58:38.1   0.0                          T                1.3  .27        Md 1.8  4680852
LMR   000.85 202.9 m E Pg      2011/04/27 15:58:34.2   0.1                          T                                        4680834
LMR   000.85 202.9 m E Sg      2011/04/27 15:58:45.3   0.1                          T                1.8  .22 Ml 1.7         4680830
SMRF  001.01 262.2 m E Pg      2011/04/27 15:58:37.2   0.2                          T                                        4680836
SMRF  001.01 262.2 m E Sg      2011/04/27 15:58:51.5   1.3                          T                6.2  .34 Ml 2.1         4680832
ORIF  001.11 316.1 m E Pg      2011/04/27 15:58:38.9   0.0                          T                                        4680851
ORIF  001.11 316.1 m E Sg      2011/04/27 15:58:53.3   0.0                          T                1.3  .35 Ml 1.4         4680848
LPG   001.38 353.8 m E Pg      2011/04/27 15:58:44.2   0.0                          T                                        4680849
LPG   001.38 353.8 m E Sg      2011/04/27 15:59:02.0   0.0                          T                  1  .28 Ml 1.5         4680846
LPL   001.40 353.3 m E Pg      2011/04/27 15:58:44.5   0.0                          T                                        4680850
LPL   001.40 353.3 m E Sg      2011/04/27 15:59:02.5  -0.1                          T                1.6  .46 Ml 1.5         4680847
PGF   002.16 136.0 m E Pn      2011/04/27 15:58:53.4   0.1                          T                                        4680855
PGF   002.16 136.0 m E Sn      2011/04/27 15:59:19.0  -0.1                          T                 .5  .19 Ml 1.9         4680854

.
EVENT     258710
    Date      Time       Latitude Longitude    Depth    Ndef Nsta Gap    Mag1  N    Mag2  N    Mag3  N   Author         ID
       rms   OT_Error      Smajor Sminor Az        Err   mdist  Mdist     Err        Err        Err      Quality

2011/04/27 20:32:12.2     42.9042    -.9638      2.0      36    6 083  Ml 1.8  4  Md 2.0  3              js067245    258710

      0.28   +-  0.04       1.0     .7  145.02 +-  0.0    0.21   2.99   +-0.1      +-0.0                 m i ke

PYRENEES
Sta     Dist  EvAz     Phase      Date       Time     TRes  Azim  AzRes  Slow  SRes Def   SNR       Amp   Per   Mag1   Mag2       ID
SJPF  000.28 317.6 m E Pg      2011/04/27 20:32:17.9   0.2                          T                                        4680868
SJPF  000.28 317.6 m E Sg      2011/04/27 20:32:21.3  -0.3                          T               15.1  .24        Md 2.0  4680863
ETSF  000.30 090.9 m E Pg      2011/04/27 20:32:18.3   0.2                          T                                        4680867
ETSF  000.30 090.9 m E Sg      2011/04/27 20:32:22.2   0.1                          T                9.9  .27        Md 2.0  4680864
EPF   000.97 082.1 m E Pg      2011/04/27 20:32:30.2  -0.2                          T                                        4680866
EPF   000.97 082.1 m E Sg      2011/04/27 20:32:43.0   0.1                          T                1.8  .22 Ml 1.7 Md 2.0  4680865
LFF   002.38 030.6 m E Pn      2011/04/27 20:32:50.3  -0.1                          T                                        4680862
LFF   002.38 030.6 m E Sg      2011/04/27 20:33:26.5  -0.5                          T                2.1  .37 Ml 1.9         4680858
RJF   002.99 035.8 m E Pn      2011/04/27 20:32:58.8   0.0                          T                                        4680860
CAF   002.98 046.2 m E Pn      2011/04/27 20:32:58.8   0.1                          T                                        4680861
CAF   002.98 046.2 m E Sg      2011/04/27 20:33:45.4  -0.3                          T                 .6  .28 Ml 1.7         4680857
RJF   002.99 035.8 m E Sg      2011/04/27 20:33:45.7  -0.4                          T                2.6  .33 Ml 2.0         4680859

.
EVENT     258705
    Date      Time       Latitude Longitude    Depth    Ndef Nsta Gap    Mag1  N    Mag2  N    Mag3  N   Author         ID
       rms   OT_Error      Smajor Sminor Az        Err   mdist  Mdist     Err        Err        Err      Quality

2011/04/27 23:40:39.9     44.4278    7.2289      3.0 f    28   10 162  Ml 1.6 10  Md 2.0  3              js067245    258705

      0.24   +-  0.05       1.4     .7   64.07 +-  0.0    0.20   2.28   +-0.3      +-0.0                 m i ke

NORTHERN ITALY
Sta     Dist  EvAz     Phase      Date       Time     TRes  Azim  AzRes  Slow  SRes Def   SNR       Amp   Per   Mag1   Mag2       ID
MBDF  000.44 312.6 m E Pg      2011/04/27 23:40:48.6   0.0                          T                                        4680909
MBDF  000.44 312.6 m E Sg      2011/04/27 23:40:54.5   0.0                          T                9.5  .22        Md 1.9  4680903
SBF   000.58 165.2 m E Pg      2011/04/27 23:40:50.9  -0.2                          T                                        4680905
SBF   000.58 165.2 m E Sg      2011/04/27 23:40:58.4  -0.3                          T                3.4  .19        Md 2.0  4680900
FRF   000.96 206.1 m E Pg      2011/04/27 23:40:57.8  -0.2                          T                                        4680907
FRF   000.96 206.1 m E Sg      2011/04/27 23:41:10.2  -0.3                          T                4.2  .28 Ml 2.0 Md 2.0  4680904
ORIF  001.08 297.5 m E Pg      2011/04/27 23:41:00.2   0.0                          T                                        4680908
ORIF  001.08 297.5 m E Sg      2011/04/27 23:41:13.7  -0.5                          T                 .7  .23 Ml 1.3         4680902
LPG   001.12 342.6 m E Pg      2011/04/27 23:41:01.2  -0.1                          T                                        4680895
LPG   001.12 342.6 m E Sg      2011/04/27 23:41:15.9   0.1                          T                 .5  .21 Ml 1.2         4680898
LPL   001.14 342.2 m E Pg      2011/04/27 23:41:01.6   0.0                          T                                        4680896
LPL   001.14 342.2 m E Sg      2011/04/27 23:41:16.4   0.0                          T                 .6  .31 Ml 1.2         4680899
LMR   001.21 205.7 m E Pg      2011/04/27 23:41:02.5   0.0                          T                                        4680906
LMR   001.21 205.7 m E Sg      2011/04/27 23:41:17.7  -0.5                          T                3.4  .24 Ml 2.1         4680901
SMRF  001.27 249.8 m E Pg      2011/04/27 23:41:03.1  -0.6                          T                                        4680894
SMRF  001.27 249.8 m E Sg      2011/04/27 23:41:20.2   0.0                          T                2.6  .40 Ml 1.8         4680897
VIVF  001.87 284.1 m E Pn      2011/04/27 23:41:11.2   0.0                          T                                        4680893
VIVF  001.87 284.1 m E Sn      2011/04/27 23:41:34.2   0.3                          T                 .8  .43 Ml 1.5         4680892
PGF   002.28 144.9 m E Pn      2011/04/27 23:41:16.7   0.0                          T                                        4680891
PGF   002.28 144.9 m E Sn      2011/04/27 23:41:43.7   0.1                          T                 .9  .28 Ml 2.0         4680890

.
