BEGIN GSE2.0
MSG_TYPE DATA
MSG_ID 22-JUL-1115:17:56  FRA_NDC
E-MAIL
DATA_TYPE BULLETIN
Reviewed Bulletin (REB) # P2011-028  from French NDC for regional phases     PERIOD 13 JUL 2011 TO 19 JUL 2011 N P., J-P S.
EVENT     261386
    Date      Time       Latitude Longitude    Depth    Ndef Nsta Gap    Mag1  N    Mag2  N    Mag3  N   Author         ID
       rms   OT_Error      Smajor Sminor Az        Err   mdist  Mdist     Err        Err        Err      Quality

2011/07/13 05:15:24.4     44.1411    6.9376      2.0      20   10 133  Ml 2.2  7  Md 2.4  2              js067245    261386

      0.25   +-  0.06       1.8    1.0   74.30 +-  0.0    0.45   2.19   +-0.3      +-0.0                 m i ke

FRANCE
Sta     Dist  EvAz     Phase      Date       Time     TRes  Azim  AzRes  Slow  SRes Def   SNR       Amp   Per   Mag1   Mag2       ID
SBF   000.45 127.6 m E Pg      2011/07/13 05:15:33.2   0.0                          T                                        4720802
SBF   000.45 127.6 m E Sg      2011/07/13 05:15:39.2   0.0                          T               32.2  .33        Md 2.4  4720792
FRF   000.62 200.0 m E Pg      2011/07/13 05:15:35.4  -0.7                          T                                        4720801
FRF   000.62 200.0 m E Sg      2011/07/13 05:15:44.3   0.0                          T               24.1  .23                4720794
MBDF  000.60 348.6 m E Pg      2011/07/13 05:15:36.3   0.4                          T                                        4720798
MBDF  000.60 348.6 m E Sg      2011/07/13 05:15:43.2  -0.6                          T                6.4  .20        Md 2.3  4720791
LMR   000.86 201.2 m E Pg      2011/07/13 05:15:40.5  -0.2                          T                                        4720800
LMR   000.86 201.2 m E Sg      2011/07/13 05:15:52.1   0.1                          T               11.4  .18 Ml 2.6         4720793
SMRF  001.00 260.9 m E Pn      2011/07/13 05:15:44.0   0.1                          T                                        4720799
SMRF  001.00 260.9 m E Sn      2011/07/13 05:15:57.8   0.1                          T               35.7  .38 Ml 2.8         4720797
ORIF  001.08 316.1 m E Pg      2011/07/13 05:15:44.7  -0.2                          T                                        4724684
ORIF  001.08 316.1 m E Sg      2011/07/13 05:15:59.0   0.0                          T                5.7  .42 Ml 2.0         4720788
LPG   001.36 354.5 m E Pg      2011/07/13 05:15:50.2   0.0                          T                                        4724682
LPG   001.36 354.5 m E Sg      2011/07/13 05:16:07.7  -0.2                          T                2.7  .30 Ml 1.9         4724686
LPL   001.38 354.0 m E Pg      2011/07/13 05:15:50.7   0.2                          T                                        4724683
LPL   001.38 354.0 m E Sg      2011/07/13 05:16:07.8  -0.6                          T                3.0  .27 Ml 2.0         4724685
VIVF  001.77 294.6 m E Pn      2011/07/13 05:15:53.7  -0.7                          T                                        4720789
VIVF  001.77 294.6 m E Sn      2011/07/13 05:16:17.1   0.9                          T                1.9  .21 Ml 2.1         4720790
PGF   002.19 135.9 m E Pn      2011/07/13 05:16:00.3   0.1                          T                                        4724687
PGF   002.19 135.9 m E Sn      2011/07/13 05:16:25.9  -0.4                          T                1.1  .18 Ml 2.3         4724688

.
EVENT     261404
    Date      Time       Latitude Longitude    Depth    Ndef Nsta Gap    Mag1  N    Mag2  N    Mag3  N   Author         ID
       rms   OT_Error      Smajor Sminor Az        Err   mdist  Mdist     Err        Err        Err      Quality

2011/07/13 09:55:12.7     42.4614   12.7403     10.0 f    68   16 051  Ml 3.4  8                         js067245    261404

      1.12   +-  0.15       4.1    3.2   31.23 +-  0.0    0.34   8.22   +-0.3                            m i ke

CENTRAL ITALY
Sta     Dist  EvAz     Phase      Date       Time     TRes  Azim  AzRes  Slow  SRes Def   SNR       Amp   Per   Mag1   Mag2       ID
PGF   002.77 273.1 m E Pn      2011/07/13 09:55:56.0   0.6                          T                                        4720818
PGF   002.77 273.1 m E Sn      2011/07/13 09:56:27.9   1.1                          T               34.6  .46 Ml 3.5         4720887
SBF   004.13 291.6 m E Pn      2011/07/13 09:56:14.7   0.9                          T                                        4720816
SBF   004.13 291.6 m E Sn      2011/07/13 09:57:00.2   0.9                          T               38.3  .65 Ml 3.4         4724691
LMR   004.66 282.9 m E Pn      2011/07/13 09:56:21.6   0.6                          T                                        4720817
MBDF  004.89 299.6 m E Pn      2011/07/13 09:56:25.6   1.2                          T                                        4720812
MBDF  004.89 299.6 m E Sn      2011/07/13 09:57:17.2  -0.4                          T               25.4  .89 Ml 3.3         4724692
SMRF  005.45 288.5 m E Pn      2011/07/13 09:56:32.4   0.6                          T                                        4720815
ORIF  005.55 298.6 m E Pn      2011/07/13 09:56:32.7  -0.5                          T                                        4720889
ORIF  005.55 298.6 m E P       2011/07/13 09:56:38.1   0.5                          T                                        4724696
LPG   005.28 307.1 m E P       2011/07/13 09:56:34.2   0.1                          T                                        4720814
LPG   005.28 307.1 m E Sn      2011/07/13 09:57:31.8   4.7                          T                4.4  .38 Ml 3.0         4720886
LPL   005.30 307.2 m E P       2011/07/13 09:56:34.5   0.2                          T                                        4724697
LPL   005.30 307.2 m E Sn      2011/07/13 09:57:28.2   0.7                          T                4.6  .38 Ml 3.0         4720885
VIVF  006.32 295.0 m E Pn      2011/07/13 09:56:44.3   0.6                          T                                        4720811
CABF  006.31 313.4 m E Pn      2011/07/13 09:56:44.5   0.9                          T                                        4720805
HINF  006.78 324.2 m E Pn      2011/07/13 09:56:49.6  -0.3                          T                                        4720806
HINF  006.78 324.2 m E Sn      2011/07/13 09:58:02.8   0.1                          T                4.5  .27 Ml 3.4         4720807
CDF   007.08 329.0 m E Pn      2011/07/13 09:56:55.2   1.1                          T                                        4720809
CDF   007.08 329.0 m E Sn      2011/07/13 09:58:10.2   0.2                          T                8.0  .47 Ml 3.6         4724693
HAU   007.15 323.1 m E Pn      2011/07/13 09:56:56.5   1.6                          T                                        4720810
HAU   007.15 323.1 m E Sn      2011/07/13 09:58:11.6   0.3                          T               17.8  .34 Ml 3.8         4720808
LOR   007.93 310.3 m E Pn      2011/07/13 09:57:06.8   1.2 122.1  -2.0              T                                        4720888
LOR   007.93 310.3 m E Sn      2011/07/13 09:58:30.8   0.8                          T                                        4720884
BGF   008.17 303.4 m E Pn      2011/07/13 09:57:08.9   0.1                          T                                        4724694
CAF   008.12 291.3 m E Pn      2011/07/13 09:57:09.3   1.2                          T                                        4724695

.
EVENT     261405
    Date      Time       Latitude Longitude    Depth    Ndef Nsta Gap    Mag1  N    Mag2  N    Mag3  N   Author         ID
       rms   OT_Error      Smajor Sminor Az        Err   mdist  Mdist     Err        Err        Err      Quality

2011/07/13 10:24:36.7     45.1765    6.4995      2.0      10    5 128  Ml 2.2  1  Md 1.9  4              js067245    261405

      0.62   +-  0.21       5.8    3.5  128.69 +-  0.0    0.37   1.33   +-         +-0.1                 m i ke

FRANCE
Sta     Dist  EvAz     Phase      Date       Time     TRes  Azim  AzRes  Slow  SRes Def   SNR       Amp   Per   Mag1   Mag2       ID
LPL   000.38 025.7 m E Pg      2011/07/13 10:24:43.7  -0.5                          T                                        4720899
LPL   000.38 025.7 m E Sg      2011/07/13 10:24:50.3   1.0                          T               15.0  .44        Md 1.9  4720893
LPG   000.37 028.9 m E Pg      2011/07/13 10:24:43.9  -0.3                          T                                        4720898
LPG   000.37 028.9 m E Sg      2011/07/13 10:24:50.1   1.1                          T                6.8  .28        Md 1.9  4720894
MBDF  000.49 156.7 m E Pg      2011/07/13 10:24:46.1  -0.1                          T                                        4720896
MBDF  000.49 156.7 m E Sg      2011/07/13 10:24:53.6   0.9                          T                7.0  .39        Md 2.0  4720891
ORIF  000.51 239.8 m E Pg      2011/07/13 10:24:46.2  -0.3                          T                                        4720897
ORIF  000.51 239.8 m E Sg      2011/07/13 10:24:52.3  -0.9                          T               13.4  .22        Md 1.7  4720892
VIVF  001.33 256.8 m E Pg      2011/07/13 10:25:02.1   0.4                          T                                        4720895
VIVF  001.33 256.8 m E Sg      2011/07/13 10:25:19.7   0.9                          T                4.4  .27 Ml 2.2         4720890

.
EVENT     261406
    Date      Time       Latitude Longitude    Depth    Ndef Nsta Gap    Mag1  N    Mag2  N    Mag3  N   Author         ID
       rms   OT_Error      Smajor Sminor Az        Err   mdist  Mdist     Err        Err        Err      Quality

2011/07/13 10:41:31.8     44.4645    7.1665      2.0      13    7 177  Ml 1.9  5  Md 1.8  1              js067245    261406

      0.13   +-  0.06       1.6     .6   75.50 +-  0.0    0.39   1.23   +-0.3      +-                    m i ke

NORTHERN ITALY
Sta     Dist  EvAz     Phase      Date       Time     TRes  Azim  AzRes  Slow  SRes Def   SNR       Amp   Per   Mag1   Mag2       ID
MBDF  000.39 313.0 m E Pg      2011/07/13 10:41:39.5   0.1                          T                                        4720908
MBDF  000.39 313.0 m E Sg      2011/07/13 10:41:45.0   0.4                          T               36.7  .31        Md 1.8  4720904
SBF   000.63 162.1 m E Pg      2011/07/13 10:41:43.8   0.0                          T                                        4724701
SBF   000.63 162.1 m E Sg      2011/07/13 10:41:52.1   0.0                          T                9.0  .25                4724703
FRF   000.98 202.7 m E Pg      2011/07/13 10:41:50.2   0.1                          T                                        4724705
FRF   000.98 202.7 m E Sg      2011/07/13 10:42:02.9   0.1                          T                5.7  .24 Ml 2.2         4720903
ORIF  001.02 296.8 m E Pg      2011/07/13 10:41:51.0  -0.1                          T                                        4724706
ORIF  001.02 296.8 m E Sg      2011/07/13 10:42:04.2  -0.2                          T                1.2  .20 Ml 1.6         4724700
LPL   001.10 343.8 m E Pg      2011/07/13 10:41:52.6   0.0                          T                                        4724702
LPL   001.10 343.8 m E Sg      2011/07/13 10:42:06.8   0.0                          T                1.7  .23 Ml 1.7         4724699
LMR   001.23 203.0 m E Pg      2011/07/13 10:41:54.7   0.0                          T                                        4724704
LMR   001.23 203.0 m E Sg      2011/07/13 10:42:10.5  -0.1                          T                3.1  .21 Ml 2.1         4720902
LPG   001.07 344.2 m E Sg      2011/07/13 10:42:06.1  -0.1                          T                2.6  .29 Ml 1.8         4724698

.
EVENT     261407
    Date      Time       Latitude Longitude    Depth    Ndef Nsta Gap    Mag1  N    Mag2  N    Mag3  N   Author         ID
       rms   OT_Error      Smajor Sminor Az        Err   mdist  Mdist     Err        Err        Err      Quality

2011/07/13 11:23:46.0     47.6323    6.2191       .0 f    14    8 118  Ml 2.1  5  Md 2.1  1              js067245    261407

      0.82   +-  0.10       2.3    1.6  124.31 +-  0.0    0.38   1.64   +-0.4      +-                    m i km

FRANCE
Sta     Dist  EvAz     Phase      Date       Time     TRes  Azim  AzRes  Slow  SRes Def   SNR       Amp   Per   Mag1   Mag2       ID
HAU   000.38 013.1 m E Pg      2011/07/13 11:23:53.7   0.1                          T                                        4724715
HAU   000.38 013.1 m E Sg      2011/07/13 11:23:59.3   0.4                          T               68.6  .78        Md 2.1  4724716
HINF  000.47 066.4 m E Pg      2011/07/13 11:23:55.3   0.1                          T                                        4724713
HINF  000.47 066.4 m E Sg      2011/07/13 11:24:01.3  -0.2                          T               49.6  .84                4724714
THEF  000.62 345.8 m E Pg      2011/07/13 11:23:57.5  -0.4                          T                                        4724717
THEF  000.62 345.8 m E Sg      2011/07/13 11:24:06.5   0.4                          T               79.8 1.37                4724718
CABF  001.03 185.1 m E Pg      2011/07/13 11:24:05.7   0.2                          T                                        4724711
CABF  001.03 185.1 m E Sg      2011/07/13 11:24:19.2   0.2                          T               22.9  .66 Ml 2.4         4724712
CDF   001.05 041.9 m E Pg      2011/07/13 11:24:05.9  -0.2                          T                                        4724719
CDF   001.05 041.9 m E Sg      2011/07/13 11:24:20.3   0.4                          T               16.9  .62 Ml 2.4         4724720
LOR   001.64 258.1 m E Pg      2011/07/13 11:24:16.5  -0.3  80.9  4.6               T                                        4724709
LOR   001.64 258.1 m E Sg      2011/07/13 11:24:38.7   0.5  85.1  8.7               T                  1  .22 Ml 1.8         4724710
PAGF  000.98 340.5 m E Sn      2011/07/13 11:24:19.7   0.2 159.2  -0.9              T                3.2  .48 Ml 1.6         4724708
SFTF  000.98 306.2 m E Sn      2011/07/13 11:24:19.9   0.5 124.3  -1.0              T               20.2  .71 Ml 2.3         4724707

.
EVENT     261423
    Date      Time       Latitude Longitude    Depth    Ndef Nsta Gap    Mag1  N    Mag2  N    Mag3  N   Author         ID
       rms   OT_Error      Smajor Sminor Az        Err   mdist  Mdist     Err        Err        Err      Quality

2011/07/13 17:37:04.2     45.5385    6.8705      2.0       8    4 287  Ml 1.5  1  Md 1.3  2              js067245    261423

      0.17   +-  0.25       4.4    2.2   37.30 +-  0.0    0.09   0.94   +-         +-0.0                 m i ke

FRANCE
Sta     Dist  EvAz     Phase      Date       Time     TRes  Azim  AzRes  Slow  SRes Def   SNR       Amp   Per   Mag1   Mag2       ID
LPL   000.10 257.2 m E Pg      2011/07/13 17:37:06.6  -0.1                          T                                        4721473
LPL   000.10 257.2 m E Sg      2011/07/13 17:37:07.8  -0.4                          T                9.1  .24        Md 1.4  4721471
LPG   000.09 244.1 m E Pg      2011/07/13 17:37:06.8   0.1                          T                                        4721474
LPG   000.09 244.1 m E Sg      2011/07/13 17:37:08.4   0.3                          T               26.4  .16        Md 1.3  4721472
MBDF  000.81 185.0 m E Pg      2011/07/13 17:37:19.8   0.0                          T                                        4724868
MBDF  000.81 185.0 m E Sg      2011/07/13 17:37:30.1  -0.2                          T                2.0  .28                4724869
ORIF  000.94 228.8 m E Pg      2011/07/13 17:37:21.9   0.0                          T                                        4724866
ORIF  000.94 228.8 m E Sg      2011/07/13 17:37:34.1   0.0                          T                1.5  .29 Ml 1.5         4724867

.
EVENT     261424
    Date      Time       Latitude Longitude    Depth    Ndef Nsta Gap    Mag1  N    Mag2  N    Mag3  N   Author         ID
       rms   OT_Error      Smajor Sminor Az        Err   mdist  Mdist     Err        Err        Err      Quality

2011/07/13 20:02:47.3     45.8225    6.9614      2.0      11    6 224  Ml 1.6  4  Md 1.7  2              js067245    261424

      0.30   +-  0.22       5.3    2.0   83.84 +-  0.0    0.35   1.88   +-0.3      +-0.1                 m i ke

FRANCE
Sta     Dist  EvAz     Phase      Date       Time     TRes  Azim  AzRes  Slow  SRes Def   SNR       Amp   Per   Mag1   Mag2       ID
LPL   000.35 207.8 m E Pg      2011/07/13 20:02:54.2  -0.1                          T                                        4721452
LPL   000.35 207.8 m E Sg      2011/07/13 20:02:59.3   0.3                          T                4.5  .20        Md 1.8  4721449
LPG   000.36 204.5 m E Pg      2011/07/13 20:02:54.5  -0.1                          T                                        4721451
LPG   000.36 204.5 m E Sg      2011/07/13 20:03:00.3   0.9                          T                4.9  .20        Md 1.7  4721450
CABF  001.00 322.7 m E Pg      2011/07/13 20:03:06.3   0.2                          T                                        4724871
CABF  001.00 322.7 m E Sg      2011/07/13 20:03:19.0   0.0                          T                2.1  .28 Ml 1.7         4721446
MBDF  001.10 187.0 m E Pg      2011/07/13 20:03:08.3   0.1                          T                                        4724870
MBDF  001.10 187.0 m E Sg      2011/07/13 20:03:22.5   0.0                          T                 .6  .20 Ml 1.3         4721444
ORIF  001.18 220.5 m E Pg      2011/07/13 20:03:09.2  -0.3                          T                                        4721445
ORIF  001.18 220.5 m E Sg      2011/07/13 20:03:25.0   0.1                          T                 .9  .21 Ml 1.5         4721448
VIVF  001.88 239.9 m E Sg      2011/07/13 20:03:46.4  -0.2                          T                1.5  .22 Ml 2.0         4721447

.
