EVENT     294930
    Date      Time       Latitude Longitude    Depth    Ndef Nsta Gap    Mag1  N    Mag2  N    Mag3  N   Author         ID
       rms   OT_Error      Smajor Sminor Az        Err   mdist  Mdist     Err        Err        Err      Quality

2013/03/28 22:24:57.2     51.6231    6.8625      1.0 f    54   19 156  Ml 2.8 12                         bulletin    295030
                                                                                                         _ldg
      0.72   +-  0.20       3.7    3.3  146.68 +-  0.0    0.29   6.81   +-0.3                            m i sr

GERMANY
Sta     Dist  EvAz     Phase      Date       Time     TRes  Azim  AzRes  Slow  SRes Def   SNR       Amp   Per   Mag1   Mag2       ID
GIVF  002.00 221.1 m E Pn      2013/03/28 22:25:31.0   0.7                          T                                        5238975
GIVF  002.00 221.1 m E Pg      2013/03/28 22:25:34.3   0.0                          T                                        5238954
GIVF  002.00 221.1 m E Sn      2013/03/28 22:25:54.9   0.4                          T               27.0  .24 Ml 3.3         5238973
BAIF  002.30 228.1 m E Pn      2013/03/28 22:25:34.9   0.5                          T                                        5238974
BAIF  002.30 228.1 m E Pg      2013/03/28 22:25:40.3   0.4                          T                                        5238977
BAIF  002.30 228.1 m E Sn      2013/03/28 22:26:01.9   0.2                          T               17.4  .46 Ml 2.8         5238972
PAGF  003.16 193.9 m E Pn      2013/03/28 22:25:46.1   0.0                          T                                        5238964
PAGF  003.16 193.9 m E Pg      2013/03/28 22:25:56.3   0.6  12.9  -0.1              T                                        5238968
PAGF  003.16 193.9 m E Sn      2013/03/28 22:26:22.7   0.5                          T                                        5238966
PAGF  003.16 193.9 m E Sg      2013/03/28 22:26:36.1  -0.2                          T                6.9  .46 Ml 2.6         5245915
CDF   003.23 175.1 m E Pn      2013/03/28 22:25:46.8  -0.3                          T                                        5238963
CDF   003.23 175.1 m E Pg      2013/03/28 22:25:57.8   0.8                          T                                        5238970
CDF   003.23 175.1 m E Sn      2013/03/28 22:26:24.4   0.5                          T                                        5238965
CDF   003.23 175.1 m E Sg      2013/03/28 22:26:38.6   0.1                          T                3.7  .34 Ml 2.6         5245916
MEZF  003.34 201.2 m E Pn      2013/03/28 22:25:48.7   0.2                          T                                        5238960
MEZF  003.34 201.2 m E Pg      2013/03/28 22:25:59.9   0.9  10.4  -9.4              T                                        5238980
MEZF  003.34 201.2 m E Sn      2013/03/28 22:26:26.7   0.3                          T                                        5238961
SFTF  003.62 199.7 m E Pn      2013/03/28 22:25:52.8   0.5                          T                                        5238967
SFTF  003.62 199.7 m E Pg      2013/03/28 22:26:04.7   0.5                          T                                        5238976
SFTF  003.62 199.7 m E Sg      2013/03/28 22:26:50.2  -0.5                          T                4.7  .31 Ml 2.7         5239880
HAU   003.64 185.5 m E Pn      2013/03/28 22:25:53.1   0.5                          T                                        5238958
HAU   003.64 185.5 m E Pg      2013/03/28 22:26:05.6   1.1                          T                                        5238979
HAU   003.64 185.5 m E Sg      2013/03/28 22:26:51.5   0.3                          T                4.1  .31 Ml 2.5         5239879
HINF  003.81 180.1 m E Pn      2013/03/28 22:25:55.2   0.1                          T                                        5238950
HINF  003.81 180.1 m E Pg      2013/03/28 22:26:08.9   1.1                          T                                        5238951
HINF  003.81 180.1 m E Sg      2013/03/28 22:26:57.2   0.5                          T                1.9  .27 Ml 2.5         5238978
LOR   004.78 205.4 m E Pn      2013/03/28 22:26:07.9  -0.3  24.3  1.2               T                                        5238959
LOR   004.78 205.4 m E Pg      2013/03/28 22:26:28.7   3.2                          T                                        5238969
LOR   004.78 205.4 m E Sn      2013/03/28 22:27:01.2   0.3                          T                                        5238953
LOR   004.78 205.4 m E Sg      2013/03/28 22:27:26.6  -0.3                          T                7.2  .54 Ml 3.0         5245917
SSF   005.07 207.0 m E Pn      2013/03/28 22:26:11.5  -0.6                          T                                        5238962
SSF   005.07 207.0 m E Sn      2013/03/28 22:27:08.1   0.3                          T                                        5238981
SSF   005.07 207.0 m E Sg      2013/03/28 22:27:35.5  -0.3                          T                4.9  .54 Ml 2.9         5238971
CABF  005.04 186.1 m E Pn      2013/03/28 22:26:11.6  -0.2                          T                                        5238948
LDF   005.42 238.7 m E Pn      2013/03/28 22:26:14.4  -2.5                          T                                        5238957
LDF   005.42 238.7 m E Sn      2013/03/28 22:27:16.3   0.0                          T                1.0  .20 Ml 2.6         5238956
SMF   005.36 202.9 m E Pn      2013/03/28 22:26:15.4  -0.7                          T                                        5238940
AVF   005.36 206.8 m E Pn      2013/03/28 22:26:15.8  -0.2                          T                                        5238941
FLN   005.52 241.6 m E Pn      2013/03/28 22:26:18.6   0.4  56.6  0.6               T                                        5238947
FLN   005.52 241.6 m E Sn      2013/03/28 22:27:18.5  -0.1                          T                 .6  .17 Ml 2.4         5238946
BGF   005.71 209.0 m E Pn      2013/03/28 22:26:20.5  -0.4                          T                                        5238939
GRR   005.94 240.0 m E Pn      2013/03/28 22:26:21.5  -2.5                          T                                        5238945
GRR   005.94 240.0 m E Sn      2013/03/28 22:27:28.0  -0.6                          T                6.6  .26 Ml 3.3         5238944
TCF   006.15 211.6 m E Pn      2013/03/28 22:26:26.2  -0.7                          T                                        5238942
MFF   006.81 225.2 m E Pn      2013/03/28 22:26:34.7  -1.1                          T                                        5238943

.
EVENT     294934
    Date      Time       Latitude Longitude    Depth    Ndef Nsta Gap    Mag1  N    Mag2  N    Mag3  N   Author         ID
       rms   OT_Error      Smajor Sminor Az        Err   mdist  Mdist     Err        Err        Err      Quality

2013/03/29 01:21:37.3     43.1110    7.7981     15.0      26    8 161  Ml 1.9  7  Md 1.9  2              bulletin    295034
                                                                                                         _ldg
      0.57   +-  0.14       4.1    2.4   40.97 +-  0.0    0.78   3.02   +-0.4      +-0.0                 m i ke

NEAR SOUTH COAST OF FRANCE
Sta     Dist  EvAz     Phase      Date       Time     TRes  Azim  AzRes  Slow  SRes Def   SNR       Amp   Per   Mag1   Mag2       ID
SBF   000.80 340.8 m E Pg      2013/03/29 01:21:52.8   0.2                          T                                        5239015
SBF   000.80 340.8 m E Sg      2013/03/29 01:22:02.5  -0.6                          T                8.6  .21        Md 1.9  5239014
FRF   000.95 298.5 m E Pg      2013/03/29 01:21:55.0  -0.3                          T                                        5239016
FRF   000.95 298.5 m E Sg      2013/03/29 01:22:07.0  -0.8                          T                1.8  .25 Ml 1.7 Md 1.9  5239011
LMR   000.97 283.7 m E Pg      2013/03/29 01:21:55.3  -0.3                          T                                        5239018
LMR   000.97 283.7 m E Sg      2013/03/29 01:22:07.0  -1.3                          T                3.6  .18 Ml 2.1         5239017
PGF   001.05 122.1 m E Pn      2013/03/29 01:21:56.1   0.1                          T                                        5239013
PGF   001.05 122.1 m E Sn      2013/03/29 01:22:08.5  -1.0                          T                6.6  .27 Ml 2.5         5239012
MBDF  001.78 335.7 m E Pn      2013/03/29 01:22:06.0   0.0                          T                                        5239003
MBDF  001.78 335.7 m E Pg      2013/03/29 01:22:10.2  -0.4                          T                                        5239004
MBDF  001.78 335.7 m E Sn      2013/03/29 01:22:27.3   0.3                          T                                        5239009
MBDF  001.78 335.7 m E Sg      2013/03/29 01:22:32.9  -0.7                          T                1.1  .23 Ml 1.8         5239005
SMRF  001.83 298.9 m E Pn      2013/03/29 01:22:06.6   0.0                          T                                        5239008
SMRF  001.83 298.9 m E Sn      2013/03/29 01:22:28.9   0.7                          T                 .3  .20 Ml 1.4         5239000
ORIF  002.28 323.2 m E Pn      2013/03/29 01:22:12.2  -0.5                          T                                        5239010
LASF  003.02 290.0 m E Pn      2013/03/29 01:22:23.6   0.8                          T                                        5239002
LASF  003.02 290.0 m E Sn      2013/03/29 01:22:57.1   0.6                          T                 .2  .17 Ml 1.5         5239001

.
EVENT     294935
    Date      Time       Latitude Longitude    Depth    Ndef Nsta Gap    Mag1  N    Mag2  N    Mag3  N   Author         ID
       rms   OT_Error      Smajor Sminor Az        Err   mdist  Mdist     Err        Err        Err      Quality

2013/03/29 02:05:05.1     42.6905   -1.7232      2.0      24    4 106  Ml 1.7  3  Md 1.8  2              bulletin    295035
                                                                                                         _ldg
      0.52   +-  0.14       2.5    2.3   79.59 +-  0.0    0.13   2.87   +-0.2      +-0.1                 m i ke

PYRENEES
Sta     Dist  EvAz     Phase      Date       Time     TRes  Azim  AzRes  Slow  SRes Def   SNR       Amp   Per   Mag1   Mag2       ID
SJPF  000.56 040.7 m E Pg      2013/03/29 02:05:15.9   0.1                          T                                        5239026
SJPF  000.56 040.7 m E Sg      2013/03/29 02:05:23.3   0.2                          T                6.1  .25        Md 1.8  5239024
ETSF  000.88 076.0 m E Pg      2013/03/29 02:05:22.1   0.3                          T                                        5239023
ETSF  000.88 076.0 m E Sg      2013/03/29 02:05:33.4   0.1                          T                1.6  .25 Ml 1.6 Md 1.7  5239022
EPF   001.55 076.7 m E Pg      2013/03/29 02:05:34.2   0.1                          T                                        5239025
EPF   001.55 076.7 m E Sg      2013/03/29 02:05:54.2   0.0                          T                1.7  .22 Ml 1.9         5239021
LFF   002.87 037.6 m E Pn      2013/03/29 02:05:50.0   0.1                          T                                        5239020
LFF   002.87 037.6 m E Sn      2013/03/29 02:06:23.1   0.1                          T                 .7  .24 Ml 1.7         5239019

.
EVENT     295159
    Date      Time       Latitude Longitude    Depth    Ndef Nsta Gap    Mag1  N    Mag2  N    Mag3  N   Author         ID
       rms   OT_Error      Smajor Sminor Az        Err   mdist  Mdist     Err        Err        Err      Quality

2013/03/29 05:53:32.7     49.2121    8.0883     10.0      18    7 080  Ml 1.7  5                         bulletin    295259
                                                                                                         _ldg
      0.29   +-  0.05       1.3     .9  129.66 +-  0.0    0.08   3.43   +-0.1                            m i ke

GERMANY
Sta     Dist  EvAz     Phase      Date       Time     TRes  Azim  AzRes  Slow  SRes Def   SNR       Amp   Per   Mag1   Mag2       ID
LANF  000.30 218.9 m E Sg      2013/03/29 05:53:42.9   0.0                          T                                        5242164
CDF   000.96 214.2 m E Pg      2013/03/29 05:53:50.9   0.0                          T                                        5243274
CDF   000.96 214.2 m E Sg      2013/03/29 05:54:03.5   0.0                          T                1.4  .30 Ml 1.6         5243275
HINF  001.62 210.9 m E Pn      2013/03/29 05:53:59.6  -0.1                          T                                        5243368
HINF  001.62 210.9 m E Sg      2013/03/29 05:54:24.0   0.1                          T                 .9  .19 Ml 1.8         5243367
HAU   001.67 224.4 m E Pn      2013/03/29 05:54:00.3  -0.1                          T                                        5243370
HAU   001.67 224.4 m E Sn      2013/03/29 05:54:20.8   0.2                          T                2.4  .34 Ml 1.7         5243369
PAGF  001.69 248.0 m E Pg      2013/03/29 05:54:04.0  -0.3                          T                                        5243365
PAGF  001.69 248.0 m E Sg      2013/03/29 05:54:26.3   0.2                          T                 .8  .22 Ml 1.7         5243364
MEZF  002.13 251.6 m E Pn      2013/03/29 05:54:06.3  -0.2                          T                                        5243366
LOR   003.43 237.1 m E Pn      2013/03/29 05:54:24.2  -0.2                          T                                        5243373
LOR   003.43 237.1 m E Sn      2013/03/29 05:55:02.7   0.0                          T                                        5243372
LOR   003.43 237.1 m E Sg      2013/03/29 05:55:20.5   0.1                          T                 .4  .20 Ml 1.8         5243371

.
EVENT     294979
    Date      Time       Latitude Longitude    Depth    Ndef Nsta Gap    Mag1  N    Mag2  N    Mag3  N   Author         ID
       rms   OT_Error      Smajor Sminor Az        Err   mdist  Mdist     Err        Err        Err      Quality

2013/03/29 10:43:01.9     43.0828    -.6492      2.0      20    4 139  Ml 1.7  1  Md 2.1  3              bulletin    295079
                                                                                                         _ldg
      0.65   +-  0.12       3.9    1.6   14.85 +-  0.0    0.19   2.25   +-         +-0.1                 m i ke

PYRENEES
Sta     Dist  EvAz     Phase      Date       Time     TRes  Azim  AzRes  Slow  SRes Def   SNR       Amp   Per   Mag1   Mag2       ID
ETSF  000.20 160.2 m E Pg      2013/03/29 10:43:05.7  -0.3                          T                                        5239265
ETSF  000.20 160.2 m E Sg      2013/03/29 10:43:07.7  -0.9                          T              113.9  .20        Md 1.9  5239264
SJPF  000.42 274.3 m E Pg      2013/03/29 10:43:09.9  -0.1                          T                                        5239263
SJPF  000.42 274.3 m E Sg      2013/03/29 10:43:16.7   1.1                          T               20.5  .21        Md 2.1  5239262
EPF   000.73 093.8 m E Pg      2013/03/29 10:43:15.4  -0.3                          T                                        5249217
EPF   000.73 093.8 m E Sg      2013/03/29 10:43:25.3   0.1                          T                                        5239261
EPF   000.73 093.8 m E Sn      2013/03/29 10:43:28.5  -0.2                          T                9.9  .30        Md 2.1  5239260
MTLF  002.11 082.0 m E Pg      2013/03/29 10:43:41.0  -0.1                          T                                        5249215
MTLF  002.11 082.0 m E Sg      2013/03/29 10:44:08.4   0.1                          T                 .6  .21 Ml 1.7         5249216

.
EVENT     294980
    Date      Time       Latitude Longitude    Depth    Ndef Nsta Gap    Mag1  N    Mag2  N    Mag3  N   Author         ID
       rms   OT_Error      Smajor Sminor Az        Err   mdist  Mdist     Err        Err        Err      Quality

2013/03/29 12:49:45.2     43.0971    -.6346      5.0 f    34    6 089  Ml 2.0  4  Md 2.2  3              bulletin    295080
                                                                                                         _ldg
      0.57   +-  0.08       2.1    1.2   12.03 +-  0.0    0.18   2.67   +-0.1      +-0.1                 m i ke

PYRENEES
Sta     Dist  EvAz     Phase      Date       Time     TRes  Azim  AzRes  Slow  SRes Def   SNR       Amp   Per   Mag1   Mag2       ID
ETSF  000.21 164.4 m E Pg      2013/03/29 12:49:49.0  -0.5                          T                                        5239306
ETSF  000.21 164.4 m E Sg      2013/03/29 12:49:51.6  -0.8                          T              136.4  .21        Md 2.2  5239305
SJPF  000.43 272.3 m E Pg      2013/03/29 12:49:53.3  -0.2                          T                                        5239304
SJPF  000.43 272.3 m E Sg      2013/03/29 12:49:59.6   0.3                          T               17.2  .26        Md 2.1  5239303
EPF   000.72 095.0 m E Pg      2013/03/29 12:49:58.9   0.1                          T                                        5239302
EPF   000.72 095.0 m E Sg      2013/03/29 12:50:08.3   0.1                          T                8.7  .29        Md 2.1  5239301
MTLF  002.10 082.4 m E Pn      2013/03/29 12:50:19.0  -0.2                          T                                        5239858
MTLF  002.10 082.4 m E Pg      2013/03/29 12:50:23.4  -0.8                          T                                        5239859
MTLF  002.10 082.4 m E Sn      2013/03/29 12:50:43.7  -0.4                          T                                        5239857
MTLF  002.10 082.4 m E Sg      2013/03/29 12:50:50.9  -0.3                          T                 .9  .20 Ml 1.9         5239856
LFF   002.09 027.8 m E Pn      2013/03/29 12:50:19.4   0.3                          T                                        5239853
LFF   002.09 027.8 m E Sn      2013/03/29 12:50:44.6   0.6                          T                2.0  .20 Ml 2.1         5239852
CAF   002.67 045.9 m E Pn      2013/03/29 12:50:27.5   0.5                          T                                        5239855
CAF   002.67 045.9 m E Sn      2013/03/29 12:50:57.8  -0.1                          T                 .8  .19 Ml 2.0         5239854

.
