EVENT     269608
    Date      Time       Latitude Longitude    Depth    Ndef Nsta Gap    Mag1  N    Mag2  N    Mag3  N   Author         ID
       rms   OT_Error      Smajor Sminor Az        Err   mdist  Mdist     Err        Err        Err      Quality

2012/02/04 19:03:59.4     46.5512    7.3923     12.0 f   106   34 037  Ml 2.7 30  Md 2.4  5              js067245    269628

      1.04   +-  0.08       1.8    1.5   74.39 +-  0.0    0.20   7.32   +-0.3      +-0.1                 m i ke

SWITZERLAND
Sta     Dist  EvAz     Phase      Date       Time     TRes  Azim  AzRes  Slow  SRes Def   SNR       Amp   Per   Mag1   Mag2       ID
CABF  000.90 274.3 m E Pg      2012/02/04 19:04:16.0  -0.6                          T   001.0                                4830489
CABF  000.90 274.3 m E Sg      2012/02/04 19:04:27.5  -0.9                          T   001.0       29.1  .20 Ml 2.9 Md 2.4  4830490
LPL   001.13 204.2 m E Pg      2012/02/04 19:04:20.8  -0.2                          T   001.0                                4830476
LPL   001.13 204.2 m E Sg      2012/02/04 19:04:35.8   0.1                          T   001.0       16.8  .38 Ml 2.5 Md 2.3  4830478
LPG   001.14 203.2 m E Pg      2012/02/04 19:04:21.1  -0.2                          T   001.0                                4830473
LPG   001.14 203.2 m E Sg      2012/02/04 19:04:35.9  -0.3                          T   001.0       22.9  .32 Ml 2.7 Md 2.4  4830474
HINF  001.32 344.0 m E Pn      2012/02/04 19:04:22.4   0.3                          T   001.0                                4830492
HINF  001.32 344.0 m E Pg      2012/02/04 19:04:23.5  -0.7                          T                                        4832359
HINF  001.32 344.0 m E Sn      2012/02/04 19:04:39.8   1.3                          T                                        4832349
HINF  001.32 344.0 m E Sg      2012/02/04 19:04:40.5  -0.8                          T   001.0       35.8  .20 Ml 3.2 Md 2.5  4830493
HAU   001.62 334.3 m E Pn      2012/02/04 19:04:26.8   0.6                          T   001.0                                4830466
HAU   001.62 334.3 m E Pg      2012/02/04 19:04:29.1  -0.6                          T                                        4832360
HAU   001.62 334.3 m E Sn      2012/02/04 19:04:46.0   1.3                          T   001.0                                4830467
HAU   001.62 334.3 m E Sg      2012/02/04 19:04:49.6  -1.1                          T   001.0       16.7  .24 Ml 2.7 Md 2.6  4830468
CDF   001.86 357.6 m E Pn      2012/02/04 19:04:30.4   0.8                          T   001.0                                4830462
CDF   001.86 357.6 m E Pg      2012/02/04 19:04:33.8  -0.4                          T                                        4832487
CDF   001.86 357.6 m E Sg      2012/02/04 19:04:56.6  -1.7                          T   001.0        9.3  .36 Ml 2.7         4830463
MBDF  001.88 193.6 m E Pn      2012/02/04 19:04:31.2   1.4                          T   001.0                                4830494
MBDF  001.88 193.6 m E Pg      2012/02/04 19:04:34.6   0.0                          T                                        4832345
MBDF  001.88 193.6 m E Sg      2012/02/04 19:04:59.1   0.4                          T   001.0       15.5  .58 Ml 2.6         4830495
ORIF  001.95 213.5 m E Pn      2012/02/04 19:04:32.3   1.6                          T   001.0                                4830499
ORIF  001.95 213.5 m E Pg      2012/02/04 19:04:35.3  -0.5                          T                                        4832344
ORIF  001.95 213.5 m E Sn      2012/02/04 19:04:55.4   1.8                          T   001.0                                4830500
ORIF  001.95 213.5 m E Sg      2012/02/04 19:05:00.8  -0.1                          T   001.0        6.4  .30 Ml 2.5         4830501
THEF  001.93 331.0 m E Pg      2012/02/04 19:04:34.8  -0.6                          T                                        4832355
THEF  001.93 331.0 m E Sg      2012/02/04 19:04:59.0  -1.2                          T                6.0  .21 Ml 2.6         4832356
PAGF  002.30 331.2 m E Pn      2012/02/04 19:04:37.0   1.5 167.1  17.1              T                                        4832353
PAGF  002.30 331.2 m E Pg      2012/02/04 19:04:42.3   0.1                          T                                        4832486
PAGF  002.30 331.2 m E Sn      2012/02/04 19:05:02.4   0.4                          T                                        4832329
PAGF  002.30 331.2 m E Sg      2012/02/04 19:05:11.9   0.0                          T                1.5  .30 Ml 2.0         4832351
SMF   002.45 273.5 m E Pn      2012/02/04 19:04:38.3   0.8                          T                                        4832488
SMF   002.45 273.5 m E Pg      2012/02/04 19:04:44.3  -0.7                          T                                        4832358
SMF   002.45 273.5 m E Sg      2012/02/04 19:05:14.2  -2.3                          T   001.0       14.9  .20 Ml 3.2         4830480
VIVF  002.55 229.3 m E Pn      2012/02/04 19:04:40.0   1.1                          T   001.0                                4830502
VIVF  002.55 229.3 m E Pg      2012/02/04 19:04:46.7  -0.2                          T   001.0                                4830503
VIVF  002.55 229.3 m E Sn      2012/02/04 19:05:08.8   0.8                          T   001.0        2.9  .28 Ml 2.3         4830504
VIVF  002.55 229.3 m E Sg      2012/02/04 19:05:19.5  -0.1                          T   001.0        4.0  .22 Ml 2.6         4830505
LOR   002.53 287.8 m E Pn      2012/02/04 19:04:41.4   2.9 106.6  1.4               T   001.0                                4830471
LOR   002.53 287.8 m E Pg      2012/02/04 19:04:45.9  -0.5 110.2  5.0               T                                        4832352
LOR   002.53 287.8 m E Sg      2012/02/04 19:05:16.3  -2.6 119.8  14.6              T   001.0        9.8  .20 Ml 3.0         4830472
MEZF  002.51 321.8 m E P       2012/02/04 19:04:41.4   0.4                          T   001.0                                4830496
MEZF  002.51 321.8 m E Pg      2012/02/04 19:04:46.0  -0.1 145.3  5.2               T   001.0                                4830497
MEZF  002.51 321.8 m E Sg      2012/02/04 19:05:17.8  -0.7                          T   001.0        4.9  .35 Ml 2.5         4830498
SFTF  002.30 316.8 m E Pg      2012/02/04 19:04:41.8  -0.4 142.9  7.8               T                                        4832354
SFTF  002.30 316.8 m E Sg      2012/02/04 19:05:12.1   0.2                          T                5.6  .27 Ml 2.6         4832350
SSF   002.72 282.2 m E Pn      2012/02/04 19:04:42.5   1.4                          T   001.0                                4830481
SSF   002.72 282.2 m E Pg      2012/02/04 19:04:49.7  -0.1                          T   001.0                                4830482
SSF   002.72 282.2 m E Sn      2012/02/04 19:05:12.9   1.0                          T   001.0                                4830483
SSF   002.72 282.2 m E Sg      2012/02/04 19:05:22.0  -2.8                          T   001.0        7.8  .20 Ml 3.0         4830484
AVF   002.79 276.4 m E Pn      2012/02/04 19:04:43.1   1.0                          T   001.0                                4830455
AVF   002.79 276.4 m E Pg      2012/02/04 19:04:51.2   0.0                          T   001.0                                4830456
AVF   002.79 276.4 m E Sn      2012/02/04 19:05:14.1   0.4                          T   001.0                                4830457
AVF   002.79 276.4 m E Sg      2012/02/04 19:05:24.6  -2.5                          T   001.0        4.5  .32 Ml 2.5         4830458
BGF   003.14 271.8 m E Pn      2012/02/04 19:04:48.2   1.4                          T   001.0                                4830459
BGF   003.14 271.8 m E Pg      2012/02/04 19:04:56.7  -0.9                          T                                        4832348
BGF   003.14 271.8 m E Sn      2012/02/04 19:05:23.2   1.2                          T   001.0                                4830460
BGF   003.14 271.8 m E Sg      2012/02/04 19:05:37.2  -0.7                          T   001.0        9.7  .36 Ml 2.9         4830461
SMRF  002.88 207.1 m E Pg      2012/02/04 19:04:51.3  -1.6                          T                                        4832335
TCF   003.59 267.7 m E Pn      2012/02/04 19:04:53.5   0.4                          T   001.0                                4830485
TCF   003.59 267.7 m E Sn      2012/02/04 19:05:34.1   1.2                          T   001.0                                4830486
TCF   003.59 267.7 m E Sg      2012/02/04 19:05:50.2  -2.0                          T   001.0        1.8  .21 Ml 2.5         4830487
FRF   003.04 190.3 m E Pg      2012/02/04 19:04:56.4   0.7                          T                                        4832346
LMR   003.28 191.3 m E Pg      2012/02/04 19:05:00.4   0.2                          T                                        4832334
GIVF  003.95 335.2 m E Pn      2012/02/04 19:05:00.5   2.7                          T   001.0                                4830491
BAIF  004.10 330.0 m E Pn      2012/02/04 19:05:01.7   1.7                          T   001.0                                4830488
LASF  003.51 226.5 m E Pg      2012/02/04 19:05:04.0  -0.6                          T                                        4832343
LASF  003.51 226.5 m E Sg      2012/02/04 19:05:49.4  -0.3                          T                1.7  .26 Ml 2.4         4832333
MFF   005.20 273.3 m E Pn      2012/02/04 19:05:16.2   1.3                          T                                        4832341
MFF   005.20 273.3 m E Sn      2012/02/04 19:06:13.2   2.0                          T                 .8  .23 Ml 2.6         4832336
LDF   005.48 294.6 m E Pn      2012/02/04 19:05:20.2   1.4                          T   001.0                                4830469
LDF   005.48 294.6 m E Sg      2012/02/04 19:06:51.1   0.1                          T                1.1  .31 Ml 2.5         4832331
SBF   002.69 179.3 m E Sg      2012/02/04 19:05:21.7  -2.3                          T               12.9  .48 Ml 2.8         4832484
FLN   005.76 295.4 m E Pn      2012/02/04 19:05:24.0   1.5                          T                                        4832340
GRR   005.89 291.2 m E Pn      2012/02/04 19:05:25.7   1.4                          T   001.0                                4830465
GRR   005.89 291.2 m E Sg      2012/02/04 19:07:03.1  -0.6                          T                1.3  .29 Ml 2.6         4832485
SGMF  006.96 287.8 m E Pn      2012/02/04 19:05:40.4   1.5                          T                                        4832338
QUIF  007.32 284.6 m E Pn      2012/02/04 19:05:45.0   1.3                          T                                        4832339
QUIF  007.32 284.6 m E Sn      2012/02/04 19:07:03.3   1.5                          T                 .5  .14 Ml 2.8         4832330
CAF   004.07 248.4 m E Sg      2012/02/04 19:06:06.4  -0.6                          T                 .8  .17 Ml 2.4         4832342
RJF   004.29 255.2 m E Sg      2012/02/04 19:06:12.8  -0.9                          T                                        4832332

.
EVENT     269611
    Date      Time       Latitude Longitude    Depth    Ndef Nsta Gap    Mag1  N    Mag2  N    Mag3  N   Author         ID
       rms   OT_Error      Smajor Sminor Az        Err   mdist  Mdist     Err        Err        Err      Quality

2012/02/04 22:38:54.1     46.3731    2.7189      2.0      28   12 099  Ml 2.0  8  Md 2.2  4              js067245    269631

      0.72   +-  0.07       2.0    1.0  131.99 +-  0.0    0.20   3.17   +-0.2      +-0.1                 m i ke

FRANCE
Sta     Dist  EvAz     Phase      Date       Time     TRes  Azim  AzRes  Slow  SRes Def   SNR       Amp   Per   Mag1   Mag2       ID
BGF   000.20 025.5 m E Pg      2012/02/04 22:38:58.2   0.0                          T                                        4832505
BGF   000.20 025.5 m E Sg      2012/02/04 22:39:00.8  -0.2                          T               21.8  .28        Md 2.3  4832504
TCF   000.36 256.6 m E Pg      2012/02/04 22:39:01.0  -0.1                          T                                        4832496
TCF   000.36 256.6 m E Sg      2012/02/04 22:39:05.8  -0.2                          T                5.7  .20        Md 2.0  4832495
AVF   000.60 046.1 m E Pg      2012/02/04 22:39:05.5  -0.1                          T                                        4832501
AVF   000.60 046.1 m E Sg      2012/02/04 22:39:13.3  -0.1                          T                3.7  .25                4832500
AVF   000.60 046.1 m E Sn      2012/02/04 22:39:17.7  -0.2                          T                                Md 2.1  4832561
SMF   000.82 070.2 m E Pg      2012/02/04 22:39:10.3   0.7                          T                                        4832502
SMF   000.82 070.2 m E Sg      2012/02/04 22:39:21.1   0.8                          T                7.1  .20                4832499
SMF   000.82 070.2 m E Sn      2012/02/04 22:39:23.6   0.4                          T                                        4832562
SSF   000.88 037.9 m E Pg      2012/02/04 22:39:10.4  -0.2                          T                                        4833173
SSF   000.88 037.9 m E Sg      2012/02/04 22:39:21.6  -0.4                          T                2.4  .18 Ml 2.0         4832494
SSF   000.88 037.9 m E Sn      2012/02/04 22:39:24.7   0.3                          T                2.5  .22 Ml 1.9         4832558
HYF   000.90 356.5 m E Pg      2012/02/04 22:39:10.8  -0.1                          T                                        4832563
HYF   000.90 356.5 m E Sg      2012/02/04 22:39:23.4   0.7                          T                                        4832498
LOR   001.19 040.7 m E Pg      2012/02/04 22:39:16.1  -0.3 216.1  -5.4              T                                        4832491
LOR   001.19 040.7 m E P       2012/02/04 22:39:18.0   0.2                          T                                        4832559
LOR   001.19 040.7 m E Sg      2012/02/04 22:39:31.3  -0.4                          T                4.1  .22 Ml 2.2         4832492
RJF   001.36 218.6 m E Pg      2012/02/04 22:39:19.5   0.0                          T                                        4832564
RJF   001.36 218.6 m E Sg      2012/02/04 22:39:37.0   0.0                          T                2.2  .25 Ml 1.6         4832490
CAF   001.52 197.8 m E Pg      2012/02/04 22:39:22.3  -0.1                          T                                        4832566
CAF   001.52 197.8 m E Sg      2012/02/04 22:39:42.0   0.0                          T                2.1  .19 Ml 2.1         4832489
LFF   002.00 224.8 m E Pg      2012/02/04 22:39:31.1   0.0                          T                                        4832565
MFF   001.99 277.6 m E Pg      2012/02/04 22:39:31.2   0.1                          T                                        4832570
MFF   001.99 277.6 m E Sg      2012/02/04 22:39:57.2   0.4                          T                1.8  .26 Ml 2.2         4832567
HINF  003.17 061.4 m E Sg      2012/02/04 22:40:33.6  -0.1                          T                  1  .24 Ml 2.1         4832560

.
EVENT     269616
    Date      Time       Latitude Longitude    Depth    Ndef Nsta Gap    Mag1  N    Mag2  N    Mag3  N   Author         ID
       rms   OT_Error      Smajor Sminor Az        Err   mdist  Mdist     Err        Err        Err      Quality

2012/02/05 00:28:45.6     42.7450     .8203     13.0 f    28    7 068  Ml 1.6  7  Md 1.8  1              js067245    269636

      0.46   +-  0.06       1.2    1.1   21.16 +-  0.0    0.04   2.61   +-0.2      +-                    m i ke

PYRENEES
Sta     Dist  EvAz     Phase      Date       Time     TRes  Azim  AzRes  Slow  SRes Def   SNR       Amp   Per   Mag1   Mag2       ID
EPF   000.45 309.1 m E Pg      2012/02/05 00:28:55.0   0.4                          T                                        4832584
EPF   000.45 309.1 m E Sg      2012/02/05 00:29:00.7  -0.1                          T                3.7  .22        Md 1.8  4832583
MTLF  001.18 059.3 m E Pg      2012/02/05 00:29:08.0   0.2                          T                                        4832582
MTLF  001.18 059.3 m E Sg      2012/02/05 00:29:23.9   0.7                          T                1.0  .24 Ml 1.5         4832581
SJPF  001.55 284.5 m E Pg      2012/02/05 00:29:14.4  -0.1                          T                                        4832704
SJPF  001.55 284.5 m E Sg      2012/02/05 00:29:35.3   0.8                          T                 .5  .21 Ml 1.4         4832706
CAF   002.36 022.0 m E Pg      2012/02/05 00:29:29.5   0.1                          T                                        4832703
CAF   002.36 022.0 m E Sg      2012/02/05 00:29:59.9   0.0                          T                1.1  .24 Ml 1.9         4832708
LFF   002.19 358.5 m E Sg      2012/02/05 00:29:53.6  -1.1                          T                1.1  .23 Ml 1.8         4832702
LASF  002.58 057.9 m E Sg      2012/02/05 00:30:06.6  -0.2                          T                 .5  .22 Ml 1.7         4832705
RJF   002.61 010.9 m E Sg      2012/02/05 00:30:07.4  -0.2                          T                 .7  .20 Ml 1.5         4832707

.
