EVENT     261953
    Date      Time       Latitude Longitude    Depth    Ndef Nsta Gap    Mag1  N    Mag2  N    Mag3  N   Author         ID
       rms   OT_Error      Smajor Sminor Az        Err   mdist  Mdist     Err        Err        Err      Quality

2011/07/29 11:37:45.3     42.8704   -7.2827     10.0 f    91   21 097  Ml 3.3 23  Md 3.1  3              js067245    261953

      1.09   +-  0.14       3.2    2.2  121.27 +-  0.0    0.47  10.22   +-0.2      +-0.0                 m i ke

SPAIN
Sta     Dist  EvAz     Phase      Date       Time     TRes  Azim  AzRes  Slow  SRes Def   SNR       Amp   Per   Mag1   Mag2       ID
SJPF  004.45 084.8 m E Pn      2011/07/29 11:38:52.1   1.3                          T   001.0                                4729684
SJPF  004.45 084.8 m E Sn      2011/07/29 11:39:40.3   0.8                          T                5.1  .30 Ml 3.0 Md 3.2  4729780
SJPF  004.45 084.8 m E Sg      2011/07/29 11:40:03.8  -0.9                          T                8.4  .35 Ml 3.1         4730639
ETSF  004.94 087.4 m E Pn      2011/07/29 11:38:58.2   0.7                          T   001.0                                4729679
ETSF  004.94 087.4 m E Sn      2011/07/29 11:39:51.9   0.6                          T                6.1  .31 Ml 3.2 Md 3.1  4729782
ETSF  004.94 087.4 m E Sg      2011/07/29 11:40:19.6  -0.4                          T                6.7  .41 Ml 3.1         4730640
EPF   005.60 085.8 m E Pn      2011/07/29 11:39:08.3   1.9                          T                                        4729786
EPF   005.60 085.8 m E Sn      2011/07/29 11:40:06.9  -0.1                          T                3.5  .29 Ml 3.1 Md 3.1  4729781
QUIF  005.82 028.4 m E Pn      2011/07/29 11:39:09.0  -0.4                          T   001.0                                4729681
QUIF  005.82 028.4 m E Sn      2011/07/29 11:40:10.7  -1.5                          T               10.1  .24 Ml 3.7         4729773
ROSF  006.15 025.8 m E Pn      2011/07/29 11:39:12.8  -1.0                          T   001.0                                4729682
ROSF  006.15 025.8 m E Sn      2011/07/29 11:40:19.0  -1.1                          T                6.8  .31 Ml 3.5         4729772
SGMF  006.32 030.0 m E Pn      2011/07/29 11:39:15.8  -0.4                          T   001.0                                4729683
SGMF  006.32 030.0 m E Sn      2011/07/29 11:40:23.8  -0.4                          T                2.3  .19 Ml 3.2         4729774
MFF   006.30 051.3 m E Pn      2011/07/29 11:39:16.2   0.2                          T   001.0                                4729675
MFF   006.30 051.3 m E Sn      2011/07/29 11:40:24.4   0.6                          T                3.6  .28 Ml 3.4         4729778
RJF   006.79 066.0 m E Pn      2011/07/29 11:39:22.6   0.0                          T                                        4729785
RJF   006.79 066.0 m E Sn      2011/07/29 11:40:34.1  -1.3                          T   001.0        3.9  .27 Ml 3.1         4729669
MTLF  006.97 082.9 m E Pn      2011/07/29 11:39:25.4   0.3                          T   001.0                                4729680
LDF   007.60 038.7 m E Pn      2011/07/29 11:39:32.7  -1.0                          T   001.0                                4729674
LDF   007.60 038.7 m E Sn      2011/07/29 11:40:53.3  -1.5                          T                2.1  .26 Ml 3.2         4729776
TCF   007.59 060.0 m E Pn      2011/07/29 11:39:33.0  -0.6                          T   001.0                                4729677
TCF   007.59 060.0 m E Sn      2011/07/29 11:40:51.1  -3.5                          T                5.2  .32 Ml 3.6         4730637
BGF   008.10 059.5 m E Pn      2011/07/29 11:39:39.8  -0.7                          T   001.0                                4729671
BGF   008.10 059.5 m E Sn      2011/07/29 11:41:06.5  -0.2                          T                8.1  .40 Ml 3.7         4730638
AVF   008.51 058.9 m E Pn      2011/07/29 11:39:45.3  -0.8                          T   001.0                                4729670
SSF   008.72 057.6 m E Pn      2011/07/29 11:39:48.0  -0.9                          T   001.0                                4729676
SSF   008.72 057.6 m E Sn      2011/07/29 11:41:20.7  -0.9                          T                2.1  .33 Ml 3.4         4730636
VIVF  008.86 073.0 m E Pn      2011/07/29 11:39:50.3  -0.6                          T   001.0                                4729685
VIVF  008.86 073.0 m E Sn      2011/07/29 11:41:24.2  -0.8                          T                4.0  .63 Ml 3.3         4730641
LOR   000.00 000.0 m E Sn                                                                            2.9  .48 Ml 3.4         4730635
LOR   009.03 057.0 m E Pn      2011/07/29 11:39:53.1   0.0 246.3  1.3               T                                        4729783
CABF  010.22 064.0 m E Pn      2011/07/29 11:40:10.3   0.8                          T   001.0                                4729678
CAF   007.06 069.9 m E Sn      2011/07/29 11:40:40.7  -1.2                          T                2.2  .29 Ml 3.1         4729779
GRR   007.12 037.0 m E Sn      2011/07/29 11:40:41.5  -1.9                          T                4.0  .27 Ml 3.3         4729777
FLN   007.57 036.5 m E Sn      2011/07/29 11:40:53.5  -0.4                          T                4.0  .32 Ml 3.3         4729775
LASF  008.19 077.7 m E Sn      2011/07/29 11:41:09.1   0.1                          T   001.0        2.7  .34 Ml 3.4         4729673

.
EVENT     261954
    Date      Time       Latitude Longitude    Depth    Ndef Nsta Gap    Mag1  N    Mag2  N    Mag3  N   Author         ID
       rms   OT_Error      Smajor Sminor Az        Err   mdist  Mdist     Err        Err        Err      Quality

2011/07/29 11:40:41.6     42.8138   -7.2486     10.0 f    63   18 091  Ml 3.0 17  Md 3.3  3              js067245    261954

      0.85   +-  0.11       2.5    1.9  124.93 +-  0.0    0.52   9.04   +-0.2      +-0.1                 m i ke

SPAIN
Sta     Dist  EvAz     Phase      Date       Time     TRes  Azim  AzRes  Slow  SRes Def   SNR       Amp   Per   Mag1   Mag2       ID
SJPF  004.43 084.1 m E Pn      2011/07/29 11:41:45.4  -1.4                          T                                        4730646
SJPF  004.43 084.1 m E Sn      2011/07/29 11:42:35.3  -0.1                          T                4.5  .44 Ml 2.8         4730645
SJPF  004.43 084.1 m E Sg      2011/07/29 11:43:00.4   0.0                          T                5.0  .44 Ml 2.8         4730644
ETSF  004.92 086.7 m E Pn      2011/07/29 11:41:55.4   1.9                          T                                Md 3.2  4729809
ETSF  004.92 086.7 m E Sn      2011/07/29 11:42:47.8   0.7                          T                2.7  .26 Ml 2.9         4729795
ETSF  004.92 086.7 m E Sg      2011/07/29 11:43:16.1   0.4                          T                5.6  .43 Ml 3.0         4730643
EPF   005.58 085.2 m E Pn      2011/07/29 11:42:03.0   0.5                          T                                        4729808
EPF   005.58 085.2 m E Sg      2011/07/29 11:43:36.0  -0.2                          T                2.1  .23 Ml 3.0         4730642
QUIF  005.86 028.0 m E Pn      2011/07/29 11:42:05.9  -0.3                          T                                Md 3.4  4729817
QUIF  005.86 028.0 m E Sn      2011/07/29 11:43:07.5  -1.9                          T                3.9  .22 Ml 3.3         4729813
ROSF  006.19 025.4 m E Pn      2011/07/29 11:42:10.0  -0.7                          T                                Md 3.4  4729819
ROSF  006.19 025.4 m E Sn      2011/07/29 11:43:16.9  -0.4                          T                1.8  .25 Ml 3.0         4729815
SGMF  006.36 029.6 m E Pn      2011/07/29 11:42:12.4  -0.7                          T                                        4729818
SGMF  006.36 029.6 m E Sn      2011/07/29 11:43:20.7  -0.7                          T                  1  .19 Ml 2.9         4729814
MFF   006.32 050.8 m E Pn      2011/07/29 11:42:12.7   0.2                          T                                        4729816
MFF   006.32 050.8 m E Sn      2011/07/29 11:43:20.5   0.0                          T                2.0  .26 Ml 3.2         4729812
MTLF  006.95 082.4 m E Pn      2011/07/29 11:42:22.3   1.2                          T                                        4729807
CAF   007.05 069.4 m E Pn      2011/07/29 11:42:23.4   0.8                          T                                        4729806
CAF   007.05 069.4 m E Sn      2011/07/29 11:43:38.3   0.2                          T                1.8  .24 Ml 3.1         4729796
LDF   007.63 038.3 m E Pn      2011/07/29 11:42:29.8  -0.5                          T                                        4729805
LDF   007.63 038.3 m E Sn      2011/07/29 11:43:50.7  -1.1                          T                1.3  .31 Ml 2.9         4729810
FLN   007.60 036.1 m E Pn      2011/07/29 11:42:30.7   0.8                          T                                        4729804
TCF   007.60 059.6 m E Pn      2011/07/29 11:42:31.1   1.1                          T                                        4729801
TCF   007.60 059.6 m E Sn      2011/07/29 11:43:49.5  -1.5                          T                2.7  .35 Ml 3.3         4729799
LASF  008.18 077.3 m E Pn      2011/07/29 11:42:37.9   0.0                          T                                        4729794
AVF   008.52 058.6 m E Pn      2011/07/29 11:42:41.9  -0.5                          T                                        4729802
VIVF  008.86 072.6 m E Pn      2011/07/29 11:42:47.2   0.1                          T                                        4729793
LOR   009.04 056.7 m E Pn      2011/07/29 11:42:49.0  -0.5                          T                                        4729800
RJF   006.79 065.5 m E Sn      2011/07/29 11:43:30.5  -1.2                          T                1.9  .23 Ml 2.8         4729811
GRR   007.15 036.6 m E Sn      2011/07/29 11:43:40.7   0.3                          T                2.2  .24 Ml 3.1         4729797

.
EVENT     261961
    Date      Time       Latitude Longitude    Depth    Ndef Nsta Gap    Mag1  N    Mag2  N    Mag3  N   Author         ID
       rms   OT_Error      Smajor Sminor Az        Err   mdist  Mdist     Err        Err        Err      Quality

2011/07/29 16:33:00.8     46.6338   10.1346     10.0 f    22    7 139  Ml 2.1  6  Md 2.5  2              js067245    261961

      0.27   +-  0.08       1.6    1.3   16.54 +-  0.0    0.09   3.44   +-0.2      +-0.1                 m i ke

NORTHERN ITALY
Sta     Dist  EvAz     Phase      Date       Time     TRes  Azim  AzRes  Slow  SRes Def   SNR       Amp   Per   Mag1   Mag2       ID
HINF  002.53 299.1 m E Pn      2011/07/29 16:33:40.5   0.3                          T                                        4730533
HINF  002.53 299.1 m E Pg      2011/07/29 16:33:47.5  -0.3                          T                                        4730655
HINF  002.53 299.1 m E Sg      2011/07/29 16:34:20.1  -0.3                          T                1.9  .29 Ml 2.1 Md 2.4  4730534
CDF   002.63 313.6 m E Pn      2011/07/29 16:33:41.4  -0.2                          T                                        4730657
CDF   002.63 313.6 m E Pg      2011/07/29 16:33:49.7   0.0                          T                                        4730656
CDF   002.63 313.6 m E Sg      2011/07/29 16:34:24.1   0.5                          T                2.3  .29 Ml 2.3         4730658
LPG   002.62 245.5 m E Pg      2011/07/29 16:33:49.2  -0.5                          T                                        4730650
LPG   002.62 245.5 m E Sg      2011/07/29 16:34:23.6   0.2                          T                1.5  .33 Ml 2.0         4730651
LPL   002.62 246.0 m E Pg      2011/07/29 16:33:49.4  -0.3                          T                                        4730649
LPL   002.62 246.0 m E Sg      2011/07/29 16:34:23.2  -0.2                          T                2.0  .29 Ml 2.2         4730652
ORIF  003.44 241.6 m E Pn      2011/07/29 16:33:51.9  -0.7                          T                                        4730648
ORIF  003.44 241.6 m E Pg      2011/07/29 16:34:03.9  -0.7                          T                                        4730647
CABF  002.79 271.0 m E Pg      2011/07/29 16:33:52.7   0.0                          T                                        4730532
CABF  002.79 271.0 m E Sg      2011/07/29 16:34:28.9   0.3                          T                2.8  .37 Ml 2.3 Md 2.5  4730535
MBDF  003.03 232.2 m E Pg      2011/07/29 16:33:57.3   0.1                          T                                        4730653
MBDF  003.03 232.2 m E Sg      2011/07/29 16:34:36.5   0.3                          T                 .5  .21 Ml 1.8         4730654

.
EVENT     261966
    Date      Time       Latitude Longitude    Depth    Ndef Nsta Gap    Mag1  N    Mag2  N    Mag3  N   Author         ID
       rms   OT_Error      Smajor Sminor Az        Err   mdist  Mdist     Err        Err        Err      Quality

2011/07/29 17:06:38.6     42.9091    -.3101      3.5       6    3 191             Md 1.4  3              js067245    261966

      0.05   +-  0.13       5.4     .6  179.31 +-  3.8    0.18   0.70              +-0.1                 m i ke

PYRENEES
Sta     Dist  EvAz     Phase      Date       Time     TRes  Azim  AzRes  Slow  SRes Def   SNR       Amp   Per   Mag1   Mag2       ID
ETSF  000.18 266.8 m E Pg      2011/07/29 17:06:42.4   0.0                          T                                        4729822
ETSF  000.18 266.8 m E Sg      2011/07/29 17:06:45.0   0.0                          T                4.2  .19        Md 1.5  4729827
EPF   000.49 075.5 m E Pg      2011/07/29 17:06:48.1   0.0                          T                                        4729824
EPF   000.49 075.5 m E Sg      2011/07/29 17:06:54.5  -0.1                          T                2.1  .26        Md 1.3  4729825
SJPF  000.70 287.2 m E Pg      2011/07/29 17:06:51.8   0.0                          T                                        4729823
SJPF  000.70 287.2 m E Sg      2011/07/29 17:07:01.1   0.1                          T                 .5  .21        Md 1.4  4729826

.
EVENT     261967
    Date      Time       Latitude Longitude    Depth    Ndef Nsta Gap    Mag1  N    Mag2  N    Mag3  N   Author         ID
       rms   OT_Error      Smajor Sminor Az        Err   mdist  Mdist     Err        Err        Err      Quality

2011/07/29 18:13:18.2     43.2077   -1.2898     15.0      18    3 183  Ml 1.3  1  Md 1.4  2              js067245    261967

      0.20   +-  0.09       1.7    1.2    6.05 +-  0.0    0.11   1.21   +-         +-0.1                 m i ke

PYRENEES
Sta     Dist  EvAz     Phase      Date       Time     TRes  Azim  AzRes  Slow  SRes Def   SNR       Amp   Per   Mag1   Mag2       ID
SJPF  000.11 153.3 m E Pg      2011/07/29 18:13:21.7   0.1                          T                                        4729832
SJPF  000.11 153.3 m E Sg      2011/07/29 18:13:24.3   0.3                          T                3.6  .19        Md 1.4  4729831
ETSF  000.62 119.7 m E Pg      2011/07/29 18:13:30.4   0.1                          T                                        4729829
ETSF  000.62 119.7 m E Sg      2011/07/29 18:13:38.3  -0.2                          T                  1  .23        Md 1.3  4729830
EPF   001.21 097.9 m E Sg      2011/07/29 18:13:57.0   0.4                          T                 .5  .22 Ml 1.3         4729828

.
EVENT     261968
    Date      Time       Latitude Longitude    Depth    Ndef Nsta Gap    Mag1  N    Mag2  N    Mag3  N   Author         ID
       rms   OT_Error      Smajor Sminor Az        Err   mdist  Mdist     Err        Err        Err      Quality

2011/07/29 18:15:52.3     42.8281   -1.3889      2.0      28    3 087  Ml 1.4  1  Md 1.5  2              js067245    261968

      0.46   +-  0.09       1.9    1.4    6.97 +-  0.0    0.03   1.29   +-         +-0.1                 m i ke

PYRENEES
Sta     Dist  EvAz     Phase      Date       Time     TRes  Azim  AzRes  Slow  SRes Def   SNR       Amp   Per   Mag1   Mag2       ID
SJPF  000.31 022.8 m E Pg      2011/07/29 18:15:58.4   0.0                          T                                        4730527
SJPF  000.31 022.8 m E Sg      2011/07/29 18:16:03.2   0.6                          T                1.2  .23        Md 1.6  4730526
ETSF  000.61 083.1 m E Pg      2011/07/29 18:16:03.9  -0.2                          T                                        4730523
ETSF  000.61 083.1 m E Sg      2011/07/29 18:16:11.7  -0.4                          T                 .5  .29        Md 1.5  4730522
EPF   001.29 080.4 m E Pg      2011/07/29 18:16:16.5   0.1                          T                                        4730524
EPF   001.29 080.4 m E Sg      2011/07/29 18:16:33.2   0.2                          T                 .6  .22 Ml 1.4         4730525

.
EVENT     261969
    Date      Time       Latitude Longitude    Depth    Ndef Nsta Gap    Mag1  N    Mag2  N    Mag3  N   Author         ID
       rms   OT_Error      Smajor Sminor Az        Err   mdist  Mdist     Err        Err        Err      Quality

2011/07/29 18:19:55.0     43.0577    -.5337      2.0       6    3 175             Md 1.2  3              js067245    261969

      0.43   +-  0.21       6.2    3.7    3.03 +-  0.0    0.16   0.64              +-0.1                 m i ke

PYRENEES
Sta     Dist  EvAz     Phase      Date       Time     TRes  Azim  AzRes  Slow  SRes Def   SNR       Amp   Per   Mag1   Mag2       ID
ETSF  000.16 186.7 m E Pg      2011/07/29 18:19:58.0  -0.4                          T                                        4729838
ETSF  000.16 186.7 m E Sg      2011/07/29 18:20:00.5  -0.1                          T                3.9  .18        Md 1.3  4729837
SJPF  000.51 276.5 m E Pg      2011/07/29 18:20:04.8   0.0                          T                                        4729835
SJPF  000.51 276.5 m E Sg      2011/07/29 18:20:10.8  -0.7                          T                 .7  .22        Md 1.1  4729834
EPF   000.64 092.2 m E Pg      2011/07/29 18:20:07.4   0.2                          T                                        4729833
EPF   000.64 092.2 m E Sg      2011/07/29 18:20:14.7  -0.9                          T                 .8  .21        Md 1.2  4729836

.
