EVENT     292909
    Date      Time       Latitude Longitude    Depth    Ndef Nsta Gap    Mag1  N    Mag2  N    Mag3  N   Author         ID
       rms   OT_Error      Smajor Sminor Az        Err   mdist  Mdist     Err        Err        Err      Quality

2013/03/01 18:29:14.1     43.9772    2.7937      3.0 f    49   17 124  Ml 1.9 14  Md 2.1  3              bulletin    293009
                                                                                                         _ldg
      0.37   +-  0.05       1.2     .8  132.09 +-  0.0    0.76   3.38   +-0.2      +-0.0                 m i ke

FRANCE
Sta     Dist  EvAz     Phase      Date       Time     TRes  Azim  AzRes  Slow  SRes Def   SNR       Amp   Per   Mag1   Mag2       ID
LASF  000.77 082.3 m E Pg      2013/03/01 18:29:28.6  -0.1                          T                                        5213706
LASF  000.77 082.3 m E Sg      2013/03/01 18:29:38.3  -0.5                          T                8.9  .20        Md 2.0  5213705
MTLF  000.76 213.5 m E Pg      2013/03/01 18:29:28.8   0.3                          T                                        5213708
MTLF  000.76 213.5 m E Sg      2013/03/01 18:29:37.9  -0.5                          T                5.4  .22        Md 2.1  5213707
CAF   001.08 331.4 m E Pg      2013/03/01 18:29:34.8   0.3                          T                                        5213704
CAF   001.08 331.4 m E Sg      2013/03/01 18:29:48.9   0.4                          T                                Md 2.1  5213703
RJF   001.61 326.0 m E Pg      2013/03/01 18:29:44.2   0.1                          T                                        5213726
RJF   001.61 326.0 m E Sg      2013/03/01 18:30:04.9   0.0                          T                1.5  .16 Ml 1.7         5213725
VIVF  001.61 056.2 m E Pg      2013/03/01 18:29:44.4   0.3                          T                                        5213730
VIVF  001.61 056.2 m E Sg      2013/03/01 18:30:04.5  -0.4                          T                1.1  .20 Ml 1.8         5213729
LFF   001.76 303.9 m E Pg      2013/03/01 18:29:46.6  -0.2                          T                                        5213723
LFF   001.76 303.9 m E Sg      2013/03/01 18:30:09.4  -0.1                          T                2.3  .21 Ml 2.0         5213724
SMRF  002.01 089.1 m E Pn      2013/03/01 18:29:46.9  -0.3                          T                                        5213926
SMRF  002.01 089.1 m E Pg      2013/03/01 18:29:51.4  -0.1                          T                                        5213925
SMRF  002.01 089.1 m E Sg      2013/03/01 18:30:17.7   0.4                          T                1.2  .26 Ml 1.9         5213924
EPF   002.02 242.9 m E Pg      2013/03/01 18:29:51.9   0.2                          T                                        5213728
EPF   002.02 242.9 m E Sg      2013/03/01 18:30:17.0  -0.8                          T                1.3  .19 Ml 2.1         5213727
TCF   002.35 350.1 m E Pn      2013/03/01 18:29:52.0   0.2                          T                                        5213719
TCF   002.35 350.1 m E Pg      2013/03/01 18:29:57.5  -0.2                          T                                        5213718
TCF   002.35 350.1 m E Sn      2013/03/01 18:30:18.9  -0.5                          T                                        5213717
TCF   002.35 350.1 m E Sg      2013/03/01 18:30:27.7  -0.2                          T                 .4  .15 Ml 1.8         5213716
BGF   002.58 000.8 m E Pn      2013/03/01 18:29:55.5   0.6                          T                                        5213722
BGF   002.58 000.8 m E Pg      2013/03/01 18:30:02.4   0.4                          T                                        5213721
BGF   002.58 000.8 m E Sg      2013/03/01 18:30:34.6  -0.6                          T                2.0  .26 Ml 2.2         5213720
ETSF  002.67 247.3 m E Pn      2013/03/01 18:29:56.0  -0.2                          T                                        5213734
ETSF  002.67 247.3 m E Pg      2013/03/01 18:30:03.4  -0.3                          T                                        5213733
ETSF  002.67 247.3 m E Sn      2013/03/01 18:30:27.9   0.7                          T                                        5213732
ETSF  002.67 247.3 m E Sg      2013/03/01 18:30:37.8  -0.2                          T                 .4  .17 Ml 1.7         5213731
SMF   002.77 015.1 m E Pn      2013/03/01 18:29:57.3  -0.2                          T                                        5213934
SMF   002.77 015.1 m E Sn      2013/03/01 18:30:29.4  -0.1                          T                                        5213933
SMF   002.77 015.1 m E Sg      2013/03/01 18:30:40.2  -0.8                          T                 .3  .14 Ml 1.7         5213932
AVF   002.84 007.8 m E Pn      2013/03/01 18:29:57.8  -0.6                          T                                        5213715
AVF   002.84 007.8 m E Pg      2013/03/01 18:30:07.2   0.4                          T                                        5213714
AVF   002.84 007.8 m E Sn      2013/03/01 18:30:31.0  -0.2                          T                                        5213713
AVF   002.84 007.8 m E Sg      2013/03/01 18:30:43.1  -0.1                          T                 .7  .21 Ml 1.9         5213712
SJPF  003.05 254.9 m E Pn      2013/03/01 18:30:01.7   0.5                          T                                        5213711
SJPF  003.05 254.9 m E Pg      2013/03/01 18:30:10.4  -0.2                          T                                        5213710
SJPF  003.05 254.9 m E Sg      2013/03/01 18:30:49.0  -0.7                          T                 .9  .35 Ml 1.8         5213709
HYF   003.29 358.2 m E Pn      2013/03/01 18:30:04.5  -0.1                          T                                        5213936
HYF   003.29 358.2 m E Sn      2013/03/01 18:30:42.4   0.4                          T                                        5213935
MFF   003.35 322.7 m E Pn      2013/03/01 18:30:05.2  -0.2                          T                                        5213931
MFF   003.35 322.7 m E Sg      2013/03/01 18:30:58.7  -0.3                          T                 .9  .30 Ml 2.2         5213930
LOR   003.38 012.4 m E Pn      2013/03/01 18:30:05.8   0.0 193.3  0.1               T                                        5213929
LOR   003.38 012.4 m E Sn      2013/03/01 18:30:44.3   0.4                          T                                        5213928
LOR   003.38 012.4 m E Sg      2013/03/01 18:30:59.9  -0.1                          T                 .3  .17 Ml 1.8         5213927

.
EVENT     292911
    Date      Time       Latitude Longitude    Depth    Ndef Nsta Gap    Mag1  N    Mag2  N    Mag3  N   Author         ID
       rms   OT_Error      Smajor Sminor Az        Err   mdist  Mdist     Err        Err        Err      Quality

2013/03/01 18:40:24.2     43.9876    2.8061      3.0 f    46   17 111  Ml 2.1 14  Md 2.1  3              bulletin    293011
                                                                                                         _ldg
      0.39   +-  0.05       1.0     .9  153.23 +-  0.0    0.76   3.11   +-0.3      +-0.2                 m i ke

FRANCE
Sta     Dist  EvAz     Phase      Date       Time     TRes  Azim  AzRes  Slow  SRes Def   SNR       Amp   Per   Mag1   Mag2       ID
MTLF  000.77 213.7 m E Pg      2013/03/01 18:40:38.8  -0.1                          T                                        5213771
MTLF  000.77 213.7 m E Sg      2013/03/01 18:40:48.7  -0.2                          T                5.0  .19        Md 1.9  5213770
LASF  000.76 083.0 m E Pg      2013/03/01 18:40:38.8   0.1                          T                                        5213769
LASF  000.76 083.0 m E Sg      2013/03/01 18:40:48.4  -0.2                          T               15.1  .21        Md 2.2  5213768
CAF   001.08 330.7 m E Pg      2013/03/01 18:40:44.5   0.1                          T                                        5213760
CAF   001.08 330.7 m E Sg      2013/03/01 18:40:59.0   0.5                          T                6.0  .20 Ml 2.3 Md 2.1  5213759
VIVF  001.59 056.4 m E Pg      2013/03/01 18:40:53.8  -0.1                          T                                        5213752
VIVF  001.59 056.4 m E Sg      2013/03/01 18:41:14.6   0.0                          T                1.9  .19 Ml 2.1         5213751
RJF   001.61 325.5 m E Pg      2013/03/01 18:40:54.1   0.0                          T                                        5213756
RJF   001.61 325.5 m E Sg      2013/03/01 18:41:14.8  -0.1                          T                2.3  .17 Ml 1.9         5213755
LFF   001.76 303.5 m E Pg      2013/03/01 18:40:57.1   0.2                          T                                        5213758
LFF   001.76 303.5 m E Sg      2013/03/01 18:41:19.6   0.0                          T                                        5213757
SMRF  002.00 089.4 m E Pn      2013/03/01 18:40:57.2   0.0                          T                                        5213778
SMRF  002.00 089.4 m E Pg      2013/03/01 18:41:01.5   0.1                          T                                        5213777
SMRF  002.00 089.4 m E Sn      2013/03/01 18:41:21.4   0.1                          T                                        5213776
SMRF  002.00 089.4 m E Sg      2013/03/01 18:41:27.2   0.0                          T                1.4  .34 Ml 1.8         5213775
TCF   002.34 349.8 m E Pn      2013/03/01 18:41:01.8   0.0                          T                                        5213785
TCF   002.34 349.8 m E Pg      2013/03/01 18:41:08.1   0.4                          T                                        5213784
TCF   002.34 349.8 m E Sn      2013/03/01 18:41:28.7  -0.6                          T                                        5213783
TCF   002.34 349.8 m E Sg      2013/03/01 18:41:37.6  -0.2                          T                1.5  .21 Ml 2.2         5213782
ORIF  002.39 066.0 m E Pn      2013/03/01 18:41:02.3  -0.3                          T                                        5213796
ORIF  002.39 066.0 m E Sn      2013/03/01 18:41:30.8   0.2                          T                 .5  .35 Ml 1.4         5213795
EPF   002.03 242.8 m E Pg      2013/03/01 18:41:02.4   0.3                          T                                        5213767
EPF   002.03 242.8 m E Sg      2013/03/01 18:41:27.4  -0.8                          T                2.2  .18 Ml 2.3         5213766
BGF   002.57 000.6 m E Pn      2013/03/01 18:41:04.6  -0.3                          T                                        5213754
BGF   002.57 000.6 m E Sg      2013/03/01 18:41:44.1  -0.8                          T                6.3  .31 Ml 2.6         5213753
ETSF  002.68 247.2 m E Pn      2013/03/01 18:41:05.9  -0.6                          T                                        5213765
ETSF  002.68 247.2 m E Sn      2013/03/01 18:41:38.3   0.7                          T                                        5213764
ETSF  002.68 247.2 m E Sg      2013/03/01 18:41:47.9  -0.6                          T                 .6  .21 Ml 1.8         5213763
LMR   002.77 102.4 m E Pn      2013/03/01 18:41:07.7   0.1                          T                                        5213774
LMR   002.77 102.4 m E Pg      2013/03/01 18:41:15.4   0.0                          T                                        5213773
LMR   002.77 102.4 m E Sg      2013/03/01 18:41:50.7  -0.3                          T                 .9  .19 Ml 2.1         5213772
SMF   002.76 015.0 m E Pn      2013/03/01 18:41:07.8   0.4                          T                                        5213781
SMF   002.76 015.0 m E Pg      2013/03/01 18:41:15.1  -0.3                          T                                        5213780
SMF   002.76 015.0 m E Sg      2013/03/01 18:41:50.4  -0.4                          T                1.2  .20 Ml 2.2         5213779
AVF   002.83 007.6 m E Pn      2013/03/01 18:41:08.2  -0.2                          T                                        5213788
AVF   002.83 007.6 m E Pg      2013/03/01 18:41:17.3   0.7                          T                                        5213787
AVF   002.83 007.6 m E Sg      2013/03/01 18:41:53.0   0.0                          T                1.2  .26 Ml 2.0         5213786
SJPF  003.06 254.8 m E Pn      2013/03/01 18:41:11.6   0.1                          T                                        5213762
SJPF  003.06 254.8 m E Sg      2013/03/01 18:41:59.3  -0.9                          T                 .6  .21 Ml 1.9         5213761
SSF   003.11 008.8 m E Pn      2013/03/01 18:41:12.6   0.3                          T                                        5213794
SSF   003.11 008.8 m E Pg      2013/03/01 18:41:22.1   0.2                          T                                        5213793
SSF   003.11 008.8 m E Sn      2013/03/01 18:41:47.5  -0.3                          T                                        5213792
SSF   003.11 008.8 m E Sg      2013/03/01 18:42:01.7  -0.2                          T                1.1  .24 Ml 2.2         5213791

.
