EVENT     268012
    Date      Time       Latitude Longitude    Depth    Ndef Nsta Gap    Mag1  N    Mag2  N    Mag3  N   Author         ID
       rms   OT_Error      Smajor Sminor Az        Err   mdist  Mdist     Err        Err        Err      Quality

2012/01/01 10:52:05.1     44.3217    7.3873      4.0 f    31    8 084  Ml 1.8  7  Md 1.9  3              js067245    268032

      0.22   +-  0.04        .9     .6   62.69 +-  0.0    0.09   1.35   +-0.3      +-0.1                 m i ke

NORTHERN ITALY
Sta     Dist  EvAz     Phase      Date       Time     TRes  Azim  AzRes  Slow  SRes Def   SNR       Amp   Per   Mag1   Mag2       ID
SBF   000.46 175.7 m E Pg      2012/01/01 10:52:14.2   0.2                          T                                        4810254
SBF   000.46 175.7 m E Sg      2012/01/01 10:52:19.7  -0.4                          T                6.9  .21        Md 1.8  4810249
MBDF  000.60 312.8 m E Pg      2012/01/01 10:52:16.6  -0.1                          T                                        4810256
MBDF  000.60 312.8 m E Sg      2012/01/01 10:52:24.6   0.1                          T                5.8  .22        Md 1.9  4810251
FRF   000.93 215.4 m E Pg      2012/01/01 10:52:22.5  -0.1                          T                                        4810255
FRF   000.93 215.4 m E Sg      2012/01/01 10:52:34.4  -0.3                          T                4.4  .22 Ml 2.1 Md 2.0  4810250
LMR   001.17 213.1 m E Pg      2012/01/01 10:52:27.3   0.3                          T                                        4810252
LMR   001.17 213.1 m E Sg      2012/01/01 10:52:42.4   0.1                          T                9.6  .26 Ml 2.5         4810253
ORIF  001.23 299.5 m E Pg      2012/01/01 10:52:28.0  -0.2                          T                                        4810246
ORIF  001.23 299.5 m E Sg      2012/01/01 10:52:43.9  -0.2                          T                1.2  .21 Ml 1.7         4810260
LPG   001.26 339.2 m E Pg      2012/01/01 10:52:28.3  -0.7                          T                                        4810247
LPG   001.26 339.2 m E Sg      2012/01/01 10:52:45.7   0.3                          T                 .9  .27 Ml 1.5         4810257
SMRF  001.35 255.8 m E Pn      2012/01/01 10:52:29.1   0.0                          T                                        4810248
SMRF  001.35 255.8 m E Sg      2012/01/01 10:52:48.0   0.2                          T                1.6  .27 Ml 1.8         4810263
LPL   001.28 338.9 m E Pg      2012/01/01 10:52:29.4   0.0                          T                                        4810258
LPL   001.28 338.9 m E Sg      2012/01/01 10:52:45.6  -0.3                          T                1.5  .24 Ml 1.7         4810259

.
EVENT     268379
    Date      Time       Latitude Longitude    Depth    Ndef Nsta Gap    Mag1  N    Mag2  N    Mag3  N   Author         ID
       rms   OT_Error      Smajor Sminor Az        Err   mdist  Mdist     Err        Err        Err      Quality

2012/01/01 11:51:28.5     46.3094    7.5010      8.0 f    25    7 064  Ml 1.6  6  Md 1.6  1              js067245    268399

      0.15   +-  0.03        .6     .5  152.99 +-  0.0    0.12   1.87   +-0.3      +-                    m i ke

SWITZERLAND
Sta     Dist  EvAz     Phase      Date       Time     TRes  Azim  AzRes  Slow  SRes Def   SNR       Amp   Per   Mag1   Mag2       ID
LPL   000.96 214.4 m E Pg      2012/01/01 11:51:46.8   0.0                          T                                        4811331
LPL   000.96 214.4 m E Sg      2012/01/01 11:51:59.4   0.1                          T                1.3  .22 Ml 1.6         4811335
LPG   000.97 213.1 m E Pg      2012/01/01 11:51:47.0   0.0                          T                                        4811332
LPG   000.97 213.1 m E Sg      2012/01/01 11:51:59.5  -0.1                          T                 .9  .24 Ml 1.4         4811334
CABF  001.02 287.7 m E Pg      2012/01/01 11:51:47.8   0.0                          T                                        4811328
CABF  001.02 287.7 m E Sg      2012/01/01 11:52:00.7  -0.4                          T                2.3  .33 Ml 1.7 Md 1.6  4811336
HINF  001.57 343.9 m E Pg      2012/01/01 11:51:57.9   0.1                          T                                        4811327
HINF  001.57 343.9 m E Sg      2012/01/01 11:52:17.6  -0.6                          T                1.8  .25 Ml 1.9         4811338
MBDF  001.66 198.2 m E Pg      2012/01/01 11:51:59.6   0.0                          T                                        4811329
ORIF  001.80 219.9 m E Pg      2012/01/01 11:52:02.1   0.1                          T                                        4811330
ORIF  001.80 219.9 m E Sg      2012/01/01 11:52:25.2   0.0                          T                 .3  .25 Ml 1.3         4811333
HAU   001.87 335.5 m E Sg      2012/01/01 11:52:27.8   0.3                          T                3.5  .36 Ml 1.9         4811337

.
EVENT     268018
    Date      Time       Latitude Longitude    Depth    Ndef Nsta Gap    Mag1  N    Mag2  N    Mag3  N   Author         ID
       rms   OT_Error      Smajor Sminor Az        Err   mdist  Mdist     Err        Err        Err      Quality

2012/01/01 13:24:21.8     47.6795    7.7733     20.2      11    5 094  Ml 1.5  3  Md 1.6  1              js067245    268038

      0.21   +-  0.04        .9     .8    4.25 +-  0.4    0.04   1.91   +-0.4      +-                    m i ke

SWITZERLAND
Sta     Dist  EvAz     Phase      Date       Time     TRes  Azim  AzRes  Slow  SRes Def   SNR       Amp   Per   Mag1   Mag2       ID
HINF  000.64 282.8 m E Pg      2012/01/01 13:24:34.4   0.1                          T                                        4811341
HINF  000.64 282.8 m E Sg      2012/01/01 13:24:43.4   0.5                          T                1.7  .16        Md 1.6  4810370
CDF   000.81 335.7 m E Pg      2012/01/01 13:24:36.8  -0.6                          T                                        4811343
CDF   000.81 335.7 m E Sg      2012/01/01 13:24:48.4   0.3                          T                1.1  .30                4810369
PAGF  001.63 303.3 m E Pn      2012/01/01 13:24:47.4  -0.3                          T                                        4811342
PAGF  001.63 303.3 m E Sg      2012/01/01 13:25:13.0  -0.4                          T                 .4  .23 Ml 1.4         4810368
HAU   001.01 289.3 m E Sg      2012/01/01 13:24:54.6   0.1                          T                 .9  .26 Ml 1.1         4811340
SFTF  001.91 287.0 m E Sg      2012/01/01 13:25:22.3   0.1                          T                1.0  .19 Ml 1.9         4811339

.
EVENT     267995
    Date      Time       Latitude Longitude    Depth    Ndef Nsta Gap    Mag1  N    Mag2  N    Mag3  N   Author         ID
       rms   OT_Error      Smajor Sminor Az        Err   mdist  Mdist     Err        Err        Err      Quality

2012/01/01 15:33:51.5     46.7726    9.8954     10.0 f   121   35 027  Ml 3.3 18  Md 3.3  3              js067245    268015

      1.54   +-  0.14       3.7    2.7  174.67 +-  0.0    0.01   7.45   +-0.2      +-0.1                 m i ke

SWITZERLAND
Sta     Dist  EvAz     Phase      Date       Time     TRes  Azim  AzRes  Slow  SRes Def   SNR       Amp   Per   Mag1   Mag2       ID
HINF  002.32 297.9 m E Pn      2012/01/01 15:34:28.6   0.5                          T   001.0                                4806735
HINF  002.32 297.9 m E Sn      2012/01/01 15:34:55.2   0.3                          T   001.0                                4806736
HINF  002.32 297.9 m E Sg      2012/01/01 15:35:03.0  -1.5                          T   001.0       38.4  .28 Ml 3.4 Md 3.3  4806737
CDF   002.42 313.7 m E Pn      2012/01/01 15:34:30.3   1.0                          T   001.0                                4806692
CDF   002.42 313.7 m E Pg      2012/01/01 15:34:36.9   0.5                          T   001.0                                4806693
CDF   002.42 313.7 m E Sn      2012/01/01 15:34:57.7   0.4                          T   001.0                                4806694
CDF   002.42 313.7 m E Sg      2012/01/01 15:35:06.1  -1.4                          T   001.0      123.6  .48 Ml 3.8 Md 3.4  4806695
LPG   002.53 240.9 m E Pn      2012/01/01 15:34:32.8   1.6                          T   001.0                                4806709
LPG   002.53 240.9 m E Pg      2012/01/01 15:34:35.8  -3.0                          T                                        4811083
LPG   002.53 240.9 m E Sn      2012/01/01 15:34:58.1  -2.1                          T                                        4811082
LPG   002.53 240.9 m E Sg      2012/01/01 15:35:07.2  -4.2                          T                                Md 3.1  4810705
CABF  002.63 267.9 m E Pn      2012/01/01 15:34:33.0   0.8                          T   001.0                                4806732
CABF  002.63 267.9 m E Pg      2012/01/01 15:34:38.2  -2.1                          T                                        4810712
CABF  002.63 267.9 m E Sg      2012/01/01 15:35:10.8  -3.3                          T                                        4810693
LANF  002.62 328.3 m E Pn      2012/01/01 15:34:33.5   1.5                          T                                        4810677
LANF  002.62 328.3 m E Pg      2012/01/01 15:34:41.4   1.3                          T                                        4810676
HAU   002.71 298.4 m E Pn      2012/01/01 15:34:34.1   0.8                          T   001.0                                4806700
HAU   002.71 298.4 m E Pg      2012/01/01 15:34:41.5  -0.2                          T   001.0                                4806701
HAU   002.71 298.4 m E Sn      2012/01/01 15:35:04.5   0.4                          T   001.0                                4806702
HAU   002.71 298.4 m E Sg      2012/01/01 15:35:16.0  -0.6                          T   001.0       62.6  .32 Ml 3.4         4806703
LPL   002.53 241.4 m E Pn      2012/01/01 15:34:34.4   3.2                          T   001.0                                4806710
LPL   002.53 241.4 m E Sn      2012/01/01 15:34:57.8  -2.4                          T   001.0                                4806711
LPL   002.53 241.4 m E Sg      2012/01/01 15:35:08.5  -2.8                          T   001.0       37.9  .40 Ml 3.3         4806712
MBDF  002.99 228.0 m E Pn      2012/01/01 15:34:37.5   0.2                          T   001.0                                4806738
MBDF  002.99 228.0 m E Sg      2012/01/01 15:35:22.8  -2.8                          T                                        4810691
THEF  003.02 300.3 m E Pn      2012/01/01 15:34:38.9   1.4                          T                                        4810674
THEF  003.02 300.3 m E Sg      2012/01/01 15:35:25.2  -1.1                          T                                        4810694
SBF   003.39 211.7 m E Pn      2012/01/01 15:34:43.4   0.8                          T   001.0                                4806716
PAGF  003.34 303.8 m E Pn      2012/01/01 15:34:43.5   1.7 122.2  1.4               T                                        4810671
PAGF  003.34 303.8 m E Pg      2012/01/01 15:34:51.5  -1.8                          T                                        4810670
ORIF  003.36 238.0 m E Pn      2012/01/01 15:34:45.1   2.8                          T   001.0                                4806726
ORIF  003.36 238.0 m E Sg      2012/01/01 15:35:30.5  -6.6                          T   001.0       18.2  .36 Ml 3.2         4806727
SFTF  003.59 295.3 m E Pn      2012/01/01 15:34:46.5   1.2 118.9  7.2               T                                        4810675
SFTF  003.59 295.3 m E Pg      2012/01/01 15:34:57.2  -0.8 115.1  3.4               T                                        4810699
SFTF  003.59 295.3 m E Sn      2012/01/01 15:35:27.6   2.4                          T                                        4810698
SFTF  003.59 295.3 m E Sg      2012/01/01 15:35:43.2  -0.9                          T                                        4810697
MEZF  003.70 299.6 m E Pn      2012/01/01 15:34:48.4   1.6 120.6  4.6               T   001.0                                4806739
MEZF  003.70 299.6 m E Sn      2012/01/01 15:35:28.1   0.2                          T   001.0                                4806740
MEZF  003.70 299.6 m E Sg      2012/01/01 15:35:46.4  -1.2 122.7  6.7               T   001.0       29.3  .48 Ml 3.4         4806741
FRF   003.95 216.7 m E Pn      2012/01/01 15:34:50.8   0.7                          T   001.0                                4806698
VIVF  004.12 244.2 m E Pn      2012/01/01 15:34:53.6   1.0                          T   001.0                                4806728
VIVF  004.12 244.2 m E Sn      2012/01/01 15:35:38.9   0.9                          T   001.0                                4806729
VIVF  004.12 244.2 m E Sg      2012/01/01 15:35:58.5  -2.2                          T   001.0          6  .32 Ml 3.0         4806730
LMR   004.19 216.1 m E Pn      2012/01/01 15:34:53.9   0.4                          T   001.0                                4806705
LMR   004.19 216.1 m E Sn      2012/01/01 15:35:38.6  -1.0                          T   001.0        6.1  .28 Ml 3.1         4806706
LOR   004.16 279.0 m E Pn      2012/01/01 15:34:54.2   1.2  95.6  0.9               T   001.0                                4806707
LOR   004.16 279.0 m E Sn      2012/01/01 15:35:40.8   2.0                          T                                        4810695
LOR   004.16 279.0 m E Sg      2012/01/01 15:35:58.8  -3.0 113.5  18.9              T   001.0       14.8  .36 Ml 3.3         4806708
SMF   004.17 270.4 m E Pn      2012/01/01 15:34:54.5   1.4                          T   001.0                                4806717
SMF   004.17 270.4 m E Pg      2012/01/01 15:35:06.8  -1.8                          T                                        4810711
SMF   004.17 270.4 m E Sn      2012/01/01 15:35:37.6  -1.4                          T   001.0                                4806718
SMF   004.17 270.4 m E Sg      2012/01/01 15:35:58.6  -3.5                          T   001.0         16  .24 Ml 3.5         4806719
SMRF  004.13 229.0 m E Pn      2012/01/01 15:34:55.0   2.3                          T   001.0                                4806731
SSF   004.39 276.1 m E Pn      2012/01/01 15:34:57.4   1.3                          T   001.0                                4806720
SSF   004.39 276.1 m E Sg      2012/01/01 15:36:03.2  -5.8                          T   001.0       11.2  .40 Ml 3.3         4806721
AVF   004.50 272.6 m E Pn      2012/01/01 15:34:58.4   0.8                          T   001.0                                4806687
AVF   004.50 272.6 m E Sn      2012/01/01 15:35:49.2   2.4                          T                                        4810700
AVF   004.50 272.6 m E Sg      2012/01/01 15:36:08.0  -4.3                          T   001.0        5.8  .36 Ml 3.0         4806688
PGF   004.27 188.9 m E Pn      2012/01/01 15:35:00.5   5.8                          T   001.0                                4806714
PGF   004.27 188.9 m E Sn      2012/01/01 15:35:44.2   2.6                          T   001.0        4.8  .32 Ml 3.1         4806715
BGF   004.86 270.0 m E Pn      2012/01/01 15:35:03.0   0.5                          T   001.0                                4806689
BGF   004.86 270.0 m E Pg      2012/01/01 15:35:20.0  -1.3                          T                                        4810709
BGF   004.86 270.0 m E Sn      2012/01/01 15:35:56.1   0.6                          T                                        4810710
BGF   004.86 270.0 m E Sg      2012/01/01 15:36:20.6  -3.1                          T   001.0       13.2  .32 Ml 3.5         4806690
GIVF  004.74 316.5 m E Pn      2012/01/01 15:35:03.7   2.7                          T   001.0                                4806733
GIVF  004.74 316.5 m E Sn      2012/01/01 15:35:55.2   2.5                          T   001.0        4.6  .24 Ml 3.1         4806734
GIVF  004.74 316.5 m E Sg      2012/01/01 15:36:21.6   1.5                          T                                        4810696
HYF   004.99 278.3 m E Pn      2012/01/01 15:35:04.8   0.5                          T                                        4810673
HYF   004.99 278.3 m E Sn      2012/01/01 15:36:00.1   1.5                          T                                        4810692
LASF  005.03 239.8 m E Pn      2012/01/01 15:35:06.2   1.2                          T   001.0                                4806704
LASF  005.03 239.8 m E Sn      2012/01/01 15:36:02.7   3.0                          T                                        4810706
BAIF  005.02 313.1 m E Pn      2012/01/01 15:35:07.4   2.7                          T   001.0                                4806724
BAIF  005.02 313.1 m E Sg      2012/01/01 15:36:28.3  -0.2                          T   001.0        7.6  .64 Ml 2.9         4806725
TCF   005.33 267.6 m E Pn      2012/01/01 15:35:09.5   0.6                          T   001.0                                4806722
TCF   005.33 267.6 m E Sn      2012/01/01 15:36:07.1   0.4                          T                                        4810701
TCF   005.33 267.6 m E Sg      2012/01/01 15:36:35.0  -3.2                          T   001.0        7.1  .44 Ml 3.2         4806723
CAF   005.77 254.2 m E Pn      2012/01/01 15:35:16.6   1.6                          T   001.0                                4806691
RJF   006.02 258.9 m E Pn      2012/01/01 15:35:19.5   1.2                          T                                        4810702
MFF   006.91 272.2 m E Pn      2012/01/01 15:35:32.1   1.6                          T   001.0                                4806713
LDF   007.00 288.7 m E Pn      2012/01/01 15:35:33.4   1.6                          T                                        4810704
FLN   007.27 289.7 m E Pn      2012/01/01 15:35:37.1   1.7 110.0  8.0               T   001.0                                4806696
FLN   007.27 289.7 m E Sn      2012/01/01 15:36:50.4  -2.7                          T   001.0          6  .48 Ml 3.2         4806697
GRR   007.45 286.4 m E Pn      2012/01/01 15:35:39.4   1.6                          T                                        4810703

.
