EVENT     292554
    Date      Time       Latitude Longitude    Depth    Ndef Nsta Gap    Mag1  N    Mag2  N    Mag3  N   Author         ID
       rms   OT_Error      Smajor Sminor Az        Err   mdist  Mdist     Err        Err        Err      Quality

2013/02/22 12:30:50.2     36.6721    5.3504     25.0     112   26 053  Ml 3.6 17                         bulletin    292654
                                                                                                         _ldg
      1.24   +-  0.20       4.8    4.3   29.78 +-  0.0    0.67  56.17   +-0.3                            m i ke

NORTHERN ALGERIA
Sta     Dist  EvAz     Phase      Date       Time     TRes  Azim  AzRes  Slow  SRes Def   SNR       Amp   Per   Mag1   Mag2       ID
PGF   006.51 024.5 m E Pn      2013/02/22 12:32:22.1  -0.1                          T                                        5205082
PGF   006.51 024.5 m E Sn      2013/02/22 12:33:29.1  -2.0                          T   001.0       61.1  .58 Ml 4.4         5205093
LMR   006.71 007.3 m E Pn      2013/02/22 12:32:24.5  -0.4                          T                                        5205080
LMR   006.71 007.3 m E Sn      2013/02/22 12:33:34.6  -1.2                          T   001.0       14.5  .26 Ml 4.0         5205092
FRF   006.95 007.8 m E Pn      2013/02/22 12:32:27.7  -0.4                          T                                        5205079
FRF   006.95 007.8 m E Sn      2013/02/22 12:33:40.6  -0.9                          T   001.0       14.8  .24 Ml 4.1         5205086
MTLF  007.08 341.1 m E Pn      2013/02/22 12:32:30.7   0.8                          T                                        5205117
MTLF  007.08 341.1 m E Sn      2013/02/22 12:33:43.3  -1.4                          T               11.9  .52 Ml 3.6         5205104
SMRF  007.30 001.3 m E Pn      2013/02/22 12:32:32.2  -0.7                          T                                        5205078
SMRF  007.30 001.3 m E Sn      2013/02/22 12:33:48.2  -1.6                          T                3.2  .29 Ml 3.3         5205102
SBF   007.36 011.9 m E Pn      2013/02/22 12:32:33.4  -0.4                          T                                        5205081
SBF   007.36 011.9 m E Sn      2013/02/22 12:33:49.1  -2.3                          T   001.0                                5205094
LASF  007.48 351.7 m E Pn      2013/02/22 12:32:35.5   0.1                          T   001.0                                5205088
LASF  007.48 351.7 m E Sn      2013/02/22 12:33:55.1   0.8                          T   001.0        4.5  .29 Ml 3.5         5205089
LASF  007.48 351.7 m E Sg      2013/02/22 12:34:43.3  -1.1                          T   001.0        6.6  .68 Ml 3.3         5205090
ETSF  007.70 325.6 m E Pn      2013/02/22 12:32:35.7  -2.8                          T                                        5205116
ETSF  007.70 325.6 m E Sn      2013/02/22 12:33:58.2  -1.4                          T                5.3  .54 Ml 3.4         5205106
EPF   007.43 330.3 m E Pn      2013/02/22 12:32:35.8   1.1                          T   001.0                                5205085
EPF   007.43 330.3 m E Sn      2013/02/22 12:33:51.5  -1.4                          T                6.4  .38 Ml 3.6         5205105
VIVF  008.19 356.6 m E Pn      2013/02/22 12:32:44.3  -0.7                          T   001.0                                5205100
VIVF  008.19 356.6 m E Sn      2013/02/22 12:34:11.5   0.2                          T   001.0        6.6  .38 Ml 3.7         5205101
ORIF  008.25 002.6 m E Pn      2013/02/22 12:32:44.3  -1.6                          T                                        5205118
MBDF  008.12 007.2 m E Pn      2013/02/22 12:32:45.2   1.0                          T   001.0                                5205098
MBDF  008.12 007.2 m E Sn      2013/02/22 12:34:07.7  -1.9                          T                5.9  .40 Ml 3.6         5205103
SJPF  008.18 323.9 m E Pn      2013/02/22 12:32:46.4   1.6                          T   001.0                                5205099
SJPF  008.18 323.9 m E Sn      2013/02/22 12:34:08.9  -2.0                          T                1.9  .30 Ml 3.3         5205107
CAF   008.61 344.2 m E Pn      2013/02/22 12:32:51.1   0.3                          T   001.0                                5205083
CAF   008.61 344.2 m E Sn      2013/02/22 12:34:21.8   0.5                          T   001.0        5.0  .49 Ml 3.5         5205084
LPG   008.88 006.4 m E Pn      2013/02/22 12:32:54.5  -0.2                          T                                        5205077
LPL   008.90 006.3 m E Pn      2013/02/22 12:32:54.6  -0.3                          T                                        5205076
RJF   009.10 342.6 m E Pn      2013/02/22 12:32:57.5   0.1                          T                                        5205115
RJF   009.10 342.6 m E Sn      2013/02/22 12:34:33.9   1.1                          T                2.5  .22 Ml 3.3         5205108
LFF   008.97 338.5 m E Pn      2013/02/22 12:32:58.5   2.9                          T   001.0                                5205091
TCF   009.89 347.2 m E Pn      2013/02/22 12:33:06.4  -1.8                          T                                        5205111
SMF   010.03 354.0 m E Pn      2013/02/22 12:33:08.4  -1.6                          T                                        5205113
BGF   010.05 350.1 m E Pn      2013/02/22 12:33:08.4  -1.9                          T                                        5205114
CABF  009.95 002.9 m E Pn      2013/02/22 12:33:09.5   0.5                          T   001.0                                5205097
AVF   010.22 352.2 m E Pn      2013/02/22 12:33:10.7  -1.9                          T                                        5205112
SSF   010.47 353.0 m E Pn      2013/02/22 12:33:15.1  -0.9                          T   001.0                                5205096
SSF   010.47 353.0 m E Sn      2013/02/22 12:35:07.1   1.4                          T                1.7  .42 Ml 3.5         5205109
HAU   011.35 003.4 m E Pn      2013/02/22 12:33:27.9  -0.1                          T   001.0                                5205087
ROSF  013.27 334.2 m E Pn      2013/02/22 12:33:57.6   3.5                          T                                        5205110

.
EVENT     292615
    Date      Time       Latitude Longitude    Depth    Ndef Nsta Gap    Mag1  N    Mag2  N    Mag3  N   Author         ID
       rms   OT_Error      Smajor Sminor Az        Err   mdist  Mdist     Err        Err        Err      Quality

2013/02/22 14:22:20.3     42.6478   -1.7453      2.0      16    3 161  Ml 1.9  2  Md 1.8  2              bulletin    292715
                                                                                                         _ldg
      0.67   +-  0.26       4.8    3.7   12.41 +-  0.0    0.17   1.58   +-0.2      +-0.1                 m i ke

PYRENEES
Sta     Dist  EvAz     Phase      Date       Time     TRes  Azim  AzRes  Slow  SRes Def   SNR       Amp   Per   Mag1   Mag2       ID
SJPF  000.60 039.2 m E Pg      2013/02/22 14:22:31.2  -0.5                          T                                        5209929
SJPF  000.60 039.2 m E Sg      2013/02/22 14:22:39.6   0.0                          T                2.4  .23        Md 1.9  5209924
ETSF  000.91 073.6 m E Pg      2013/02/22 14:22:37.6   0.2                          T                                        5209928
ETSF  000.91 073.6 m E Sg      2013/02/22 14:22:49.3   0.1                          T                2.6  .28 Ml 1.7 Md 1.7  5209925
EPF   001.58 075.3 m E Pg      2013/02/22 14:22:49.7   0.0                          T                                        5209927
EPF   001.58 075.3 m E Sg      2013/02/22 14:23:10.4   0.2                          T                1.8  .21 Ml 2.0         5209926

.
EVENT     292561
    Date      Time       Latitude Longitude    Depth    Ndef Nsta Gap    Mag1  N    Mag2  N    Mag3  N   Author         ID
       rms   OT_Error      Smajor Sminor Az        Err   mdist  Mdist     Err        Err        Err      Quality

2013/02/22 14:26:18.0     51.4617   16.1213      1.0 f    67   14 044  Ml 4.1  1                         bulletin    292661
                                                                                                         _ldg
      0.75   +-  0.12       3.1    2.7   15.66 +-  0.0    0.63  11.40   +-                               m i sr

POLAND
Sta     Dist  EvAz     Phase      Date       Time     TRes  Azim  AzRes  Slow  SRes Def   SNR       Amp   Per   Mag1   Mag2       ID
CDF   006.47 245.3 m E Pn      2013/02/22 14:27:53.8   1.6                          T                                        5205233
CDF   006.47 245.3 m E Sn      2013/02/22 14:29:02.8   0.4                          T               69.5 1.00 Ml 4.1         5205307
HINF  007.04 242.4 m E Pn      2013/02/22 14:28:01.6   1.8                          T                                        5205227
HAU   007.22 245.2 m E Pn      2013/02/22 14:28:02.5   0.2                          T                                        5205232
MEZF  007.73 251.8 m E Pn      2013/02/22 14:28:09.0  -0.1                          T                                        5205229
BAIF  007.69 264.1 m E Pn      2013/02/22 14:28:09.1   0.6                          T                                        5205231
SFTF  007.87 249.9 m E Pn      2013/02/22 14:28:11.1   0.0                          T                                        5205228
LPL   008.61 230.0 m E Pn      2013/02/22 14:28:21.0  -0.5                          T                                        5205309
LPG   008.62 229.8 m E Pn      2013/02/22 14:28:21.6   0.0                          T                                        5205308
LOR   009.03 247.1 m E Pn      2013/02/22 14:28:27.2   0.3                          T                                        5205230
MBDF  009.19 226.5 m E Pn      2013/02/22 14:28:29.4   0.1                          T                                        5205226
ORIF  009.46 230.2 m E Pn      2013/02/22 14:28:32.8  -0.1                          T                                        5205310
SBF   009.59 221.0 m E Pn      2013/02/22 14:28:35.0   0.4                          T                                        5205224
LMR   010.41 222.4 m E Pn      2013/02/22 14:28:45.8   0.1                          T                                        5205225
TCF   010.52 246.0 m E Pn      2013/02/22 14:28:47.4   0.2                          T                                        5205311

.
EVENT     292614
    Date      Time       Latitude Longitude    Depth    Ndef Nsta Gap    Mag1  N    Mag2  N    Mag3  N   Author         ID
       rms   OT_Error      Smajor Sminor Az        Err   mdist  Mdist     Err        Err        Err      Quality

2013/02/22 18:36:09.3     36.9363    5.4481     10.0 f    21   12 297  Ml 3.1  6                         bulletin    292714
                                                                                                         _ldg
      0.90   +-  0.73      15.4    8.9  159.44 +-  0.0    6.24   8.01   +-0.4                            m i ke

NORTHERN ALGERIA
Sta     Dist  EvAz     Phase      Date       Time     TRes  Azim  AzRes  Slow  SRes Def   SNR       Amp   Per   Mag1   Mag2       ID
PGF   006.24 024.9 m E Pn      2013/02/22 18:37:39.3   0.1                          T                                        5210013
PGF   006.24 024.9 m E Sn      2013/02/22 18:38:46.4   0.0                          T                5.7  .33 Ml 3.6         5210001
LMR   006.44 006.9 m E Pn      2013/02/22 18:37:42.0   0.1                          T                                        5210011
LMR   006.44 006.9 m E Sn      2013/02/22 18:38:52.2   1.1                          T                2.8  .40 Ml 3.0         5209999
FRF   006.68 007.5 m E Pn      2013/02/22 18:37:45.5   0.3                          T                                        5210010
FRF   006.68 007.5 m E Sn      2013/02/22 18:38:57.9   1.0                          T                1.8  .30 Ml 3.0         5209998
MTLF  006.86 339.9 m E Pn      2013/02/22 18:37:47.8   0.2                          T                                        5210005
SMRF  007.03 000.8 m E Pn      2013/02/22 18:37:49.4  -0.6                          T                                        5210009
SBF   007.08 011.7 m E Pn      2013/02/22 18:37:50.7   0.0                          T                                        5210012
SBF   007.08 011.7 m E Sn      2013/02/22 18:39:06.3  -0.3                          T                4.4  .29 Ml 3.4         5210000
LASF  007.23 350.9 m E Pn      2013/02/22 18:37:52.8   0.0                          T                                        5210006
EPF   007.24 328.8 m E Pn      2013/02/22 18:37:53.1   0.3                          T                                        5210004
EPF   007.24 328.8 m E Sn      2013/02/22 18:39:08.8  -1.5                          T                 .7  .28 Ml 2.7         5209996
ETSF  007.53 324.1 m E Pn      2013/02/22 18:37:53.2  -3.7                          T                                        5210003
VIVF  007.93 356.0 m E Pn      2013/02/22 18:38:01.6  -0.7                          T                                        5210007
MBDF  007.85 006.9 m E Pn      2013/02/22 18:38:02.6   1.3                          T                                        5210008
MBDF  007.85 006.9 m E Sn      2013/02/22 18:39:24.9   0.0                          T                1.4  .45 Ml 2.9         5209997
SJPF  008.01 322.4 m E Pn      2013/02/22 18:38:04.0   0.7                          T                                        5210002

.
EVENT     292564
    Date      Time       Latitude Longitude    Depth    Ndef Nsta Gap    Mag1  N    Mag2  N    Mag3  N   Author         ID
       rms   OT_Error      Smajor Sminor Az        Err   mdist  Mdist     Err        Err        Err      Quality

2013/02/22 19:35:10.0     44.8199   11.5685      5.0 f    38   18 212  Ml 2.6  4                         bulletin    292664
                                                                                                         _ldg
      0.46   +-  0.21       4.2    2.0   99.67 +-  0.0    0.27   6.73   +-0.2                            m i ke

NORTHERN ITALY
Sta     Dist  EvAz     Phase      Date       Time     TRes  Azim  AzRes  Slow  SRes Def   SNR       Amp   Per   Mag1   Mag2       ID
PGF   002.94 220.3 m E Pn      2013/02/22 19:35:55.5  -0.1                          T                                        5205339
SBF   003.12 253.6 m E Pn      2013/02/22 19:35:58.4   0.4                          T                                        5205337
MBDF  003.42 270.1 m E Pn      2013/02/22 19:36:01.3  -0.9                          T                                        5205332
LPL   003.49 283.2 m E Pn      2013/02/22 19:36:02.6  -0.6                          T                                        5205338
LPG   003.47 282.9 m E Pn      2013/02/22 19:36:03.0  -0.1                          T                                        5205334
FRF   003.76 252.1 m E Pn      2013/02/22 19:36:06.6   0.0                          T                                        5205335
FRF   003.76 252.1 m E Sn      2013/02/22 19:36:48.3  -0.3                          T                1.6  .34 Ml 2.3         5205351
LMR   003.94 249.6 m E Pn      2013/02/22 19:36:09.1   0.1                          T                                        5205336
LMR   003.94 249.6 m E Sn      2013/02/22 19:36:52.7  -0.1                          T                3.2  .49 Ml 2.5         5205350
ORIF  004.05 273.4 m E Pn      2013/02/22 19:36:10.3  -0.4                          T                                        5205333
CABF  004.24 296.9 m E Pn      2013/02/22 19:36:13.6   0.4                          T                                        5205345
HINF  004.43 314.2 m E Pn      2013/02/22 19:36:15.9   0.0                          T                                        5205344
HINF  004.43 314.2 m E Sn      2013/02/22 19:37:05.2   0.4                          T                3.4  .33 Ml 2.8         5205352
CDF   004.65 322.1 m E Pn      2013/02/22 19:36:19.0   0.1                          T                                        5205342
HAU   004.81 313.3 m E Pn      2013/02/22 19:36:21.0  -0.1                          T                                        5205343
HAU   004.81 313.3 m E Sn      2013/02/22 19:37:14.6   0.8                          T                3.5  .31 Ml 2.7         5205353
VIVF  004.90 272.8 m E Pn      2013/02/22 19:36:22.2   0.0                          T                                        5205349
SMF   005.71 291.4 m E Pn      2013/02/22 19:36:33.0  -0.1                          T                                        5205348
LOR   005.90 297.2 m E Pn      2013/02/22 19:36:35.3  -0.4                          T                                        5205341
SSF   006.05 294.6 m E Pn      2013/02/22 19:36:38.1   0.2                          T                                        5205340
AVF   006.07 291.8 m E Pn      2013/02/22 19:36:38.4   0.3                          T                                        5205347
TCF   006.73 285.9 m E Pn      2013/02/22 19:36:47.5   0.3                          T                                        5205346

.
