EVENT     287081
    Date      Time       Latitude Longitude    Depth    Ndef Nsta Gap    Mag1  N    Mag2  N    Mag3  N   Author         ID
       rms   OT_Error      Smajor Sminor Az        Err   mdist  Mdist     Err        Err        Err      Quality

2012/11/18 04:05:32.7     43.0139     .1129      2.0      60   11 058  Ml 1.9 11  Md 1.9  4              bulletin    287181
                                                                                                         _ldg
      0.47   +-  0.04        .8     .7   30.96 +-  0.0    0.15   4.04   +-0.3      +-0.4                 m i ke

FRANCE
Sta     Dist  EvAz     Phase      Date       Time     TRes  Azim  AzRes  Slow  SRes Def   SNR       Amp   Per   Mag1   Mag2       ID
EPF   000.17 084.3 m E Pg      2012/11/18 04:05:36.1  -0.1                          T                                        5119683
EPF   000.17 084.3 m E Sg      2012/11/18 04:05:38.7   0.1                          T               19.5  .14        Md 2.3  5119682
ETSF  000.51 257.1 m E Pg      2012/11/18 04:05:42.2  -0.2                          T                7.1  .14        Md 1.8  5119681
ETSF  000.51 257.1 m E Sg      2012/11/18 04:05:48.9  -0.3                          T                                Md 1.5  5119680
SJPF  000.99 276.2 m E Pg      2012/11/18 04:05:51.4   0.2                          T                                        5119679
SJPF  000.99 276.2 m E Sg      2012/11/18 04:06:03.5  -0.5                          T                 .7  .16 Ml 1.4 Md 2.0  5119678
MTLF  001.57 077.3 m E Pg      2012/11/18 04:06:01.7  -0.4                          T                                        5133305
MTLF  001.57 077.3 m E Sn      2012/11/18 04:06:19.5  -0.1                          T                                        5119676
MTLF  001.57 077.3 m E Sg      2012/11/18 04:06:22.2  -0.1                          T                1.8  .19 Ml 2.0         5119707
LFF   001.98 013.0 m E Pn      2012/11/18 04:06:05.3  -0.1                          T                                        5119702
LFF   001.98 013.0 m E Pg      2012/11/18 04:06:09.2  -0.2                          T                                        5119700
LFF   001.98 013.0 m E Sg      2012/11/18 04:06:34.4  -0.5                          T                1.3  .18 Ml 1.9         5119701
CAF   002.37 035.7 m E Pn      2012/11/18 04:06:10.5  -0.4                          T                                        5119704
CAF   002.37 035.7 m E Sn      2012/11/18 04:06:38.6  -0.3                          T                 .3  .20 Ml 1.4         5119703
CAF   002.37 035.7 m E Sg      2012/11/18 04:06:47.5   0.2                          T                2.0  .27 Ml 2.2         5133307
RJF   002.50 023.3 m E Pn      2012/11/18 04:06:12.9   0.3                          T                                        5119699
RJF   002.50 023.3 m E Sn      2012/11/18 04:06:42.1   0.2                          T                                        5119698
RJF   002.50 023.3 m E Sg      2012/11/18 04:06:51.1  -0.3                          T                1.1  .20 Ml 1.7         5119697
LASF  002.92 067.4 m E Pn      2012/11/18 04:06:18.6   0.3                          T                                        5119696
LASF  002.92 067.4 m E Pg      2012/11/18 04:06:27.0   0.1                          T                                        5119695
LASF  002.92 067.4 m E Sg      2012/11/18 04:07:04.3  -0.2                          T                 .4  .21 Ml 1.7         5119694
MFF   003.59 357.2 m E Pn      2012/11/18 04:06:27.5   0.1                          T                                        5119686
MFF   003.59 357.2 m E Pg      2012/11/18 04:06:39.3   0.1                          T                                        5119685
MFF   003.59 357.2 m E Sn      2012/11/18 04:07:08.4   0.5                          T                                        5119684
MFF   003.59 357.2 m E Sg      2012/11/18 04:07:25.5   0.1                          T                 .6  .21 Ml 2.2         5133306
TCF   003.60 023.8 m E Pn      2012/11/18 04:06:28.0   0.4                          T                                        5119689
TCF   003.60 023.8 m E Pg      2012/11/18 04:06:39.9   0.5                          T                                        5119688
TCF   003.60 023.8 m E Sg      2012/11/18 04:07:25.4  -0.2                          T                 .1  .14 Ml 1.6         5119687
BGF   004.04 027.8 m E Pn      2012/11/18 04:06:33.5   0.0                          T                                        5119693
BGF   004.04 027.8 m E Pg      2012/11/18 04:06:47.5   0.0                          T                                        5119692
BGF   004.04 027.8 m E Sn      2012/11/18 04:07:19.3   0.6                          T                                        5119691
BGF   004.04 027.8 m E Sg      2012/11/18 04:07:39.7   0.3                          T                1.4  .31 Ml 2.3         5119690

.
EVENT     287083
    Date      Time       Latitude Longitude    Depth    Ndef Nsta Gap    Mag1  N    Mag2  N    Mag3  N   Author         ID
       rms   OT_Error      Smajor Sminor Az        Err   mdist  Mdist     Err        Err        Err      Quality

2012/11/18 04:41:39.0     43.0107    -.3417      2.0      17    6 147  Ml 1.4  4  Md 1.4  2              bulletin    287183
                                                                                                         _ldg
      0.20   +-  0.07       1.8    1.0  154.93 +-  0.0    0.20   2.65   +-0.2      +-0.2                 m i ke

PYRENEES
Sta     Dist  EvAz     Phase      Date       Time     TRes  Azim  AzRes  Slow  SRes Def   SNR       Amp   Per   Mag1   Mag2       ID
ETSF  000.20 235.0 m E Pg      2012/11/18 04:41:43.1   0.1                          T                                        5119730
ETSF  000.20 235.0 m E Sg      2012/11/18 04:41:45.9   0.1                          T               11.6  .25        Md 1.5  5119973
EPF   000.50 087.5 m E Pg      2012/11/18 04:41:48.6  -0.1                          T                                        5119729
EPF   000.50 087.5 m E Sg      2012/11/18 04:41:55.4   0.2                          T                1.3  .25        Md 1.3  5119728
SJPF  000.66 279.3 m E Pg      2012/11/18 04:41:51.4   0.0                          T                                        5119726
SJPF  000.66 279.3 m E Sg      2012/11/18 04:41:59.9  -0.1                          T                 .5  .25                5119727
LFF   002.08 021.7 m E Pn      2012/11/18 04:42:12.9  -0.3                          T                                        5119976
LFF   002.08 021.7 m E Pg      2012/11/18 04:42:17.8   0.1                          T                                        5119975
LFF   002.08 021.7 m E Sg      2012/11/18 04:42:44.6   0.2                          T                 .4  .19 Ml 1.3         5119974
CAF   002.59 041.4 m E Pn      2012/11/18 04:42:20.4   0.3                          T                                        5119978
CAF   002.59 041.4 m E Sg      2012/11/18 04:43:00.2  -0.1                          T                 .2  .14 Ml 1.6         5119977
RJF   002.65 029.6 m E Pn      2012/11/18 04:42:20.8  -0.2                          T                                        5119982
RJF   002.65 029.6 m E Pg      2012/11/18 04:42:28.0  -0.2                          T                                        5119981
RJF   002.65 029.6 m E Sn      2012/11/18 04:42:52.5   0.6                          T                                        5119980
RJF   002.65 029.6 m E Sg      2012/11/18 04:43:02.7   0.3                          T                 .3  .21 Ml 1.2         5119979

.
EVENT     287084
    Date      Time       Latitude Longitude    Depth    Ndef Nsta Gap    Mag1  N    Mag2  N    Mag3  N   Author         ID
       rms   OT_Error      Smajor Sminor Az        Err   mdist  Mdist     Err        Err        Err      Quality

2012/11/18 04:46:09.6     42.6548     .4006      2.0       8    4 227  Ml 1.0  2  Md 1.4  2              bulletin    287184
                                                                                                         _ldg
      0.29   +-  0.23       5.9    2.6  175.91 +-  0.0    0.38   1.50   +-0.4      +-0.5                 m i ke

PYRENEES
Sta     Dist  EvAz     Phase      Date       Time     TRes  Azim  AzRes  Slow  SRes Def   SNR       Amp   Per   Mag1   Mag2       ID
EPF   000.38 353.2 m E Pg      2012/11/18 04:46:16.7  -0.3                          T                                        5119736
EPF   000.38 353.2 m E Sg      2012/11/18 04:46:22.6   0.6                          T                5.1  .47        Md 1.7  5119731
ETSF  000.75 289.4 m E Pg      2012/11/18 04:46:24.0   0.2                          T                                        5119735
ETSF  000.75 289.4 m E Sg      2012/11/18 04:46:33.5  -0.1                          T                 .5  .19        Md 1.0  5119734
SJPF  001.28 291.5 m E Pg      2012/11/18 04:46:33.6   0.1                          T                                        5119732
SJPF  001.28 291.5 m E Sg      2012/11/18 04:46:49.9  -0.3                          T                 .7  .29 Ml 1.3         5119733
MTLF  001.50 062.2 m E Pn      2012/11/18 04:46:35.8  -0.1                          T                                        5119986
MTLF  001.50 062.2 m E Sn      2012/11/18 04:46:55.3   0.5                          T                 .1  .17 Ml  .7         5119985

.
EVENT     287086
    Date      Time       Latitude Longitude    Depth    Ndef Nsta Gap    Mag1  N    Mag2  N    Mag3  N   Author         ID
       rms   OT_Error      Smajor Sminor Az        Err   mdist  Mdist     Err        Err        Err      Quality

2012/11/18 04:55:56.5     40.3087    5.1224     20.0 f    39   14 202  Ml 2.3 13                         bulletin    287186
                                                                                                         _ldg
      1.45   +-  0.50      10.6    5.1  168.14 +-  0.0    1.85   6.46   +-0.2                            m i ke

WESTERN MEDITERRANEAN SEA
Sta     Dist  EvAz     Phase      Date       Time     TRes  Azim  AzRes  Slow  SRes Def   SNR       Amp   Per   Mag1   Mag2       ID
LMR   003.20 018.5 m E Pn      2012/11/18 04:56:44.2   0.3                          T                                        5119761
LMR   003.20 018.5 m E Sn      2012/11/18 04:57:17.6  -1.4                          T                 .8  .19 Ml 2.1         5119764
FRF   003.44 018.8 m E Pn      2012/11/18 04:56:47.9   0.8                          T                                        5119760
FRF   003.44 018.8 m E Sn      2012/11/18 04:57:23.8  -1.1                          T                1.4  .17 Ml 2.5         5119763
MTLF  003.73 325.3 m E Pn      2012/11/18 04:56:49.9  -1.2                          T                                        5119759
MTLF  003.73 325.3 m E Sn      2012/11/18 04:57:30.4  -1.4                          T                1.7  .22 Ml 2.5         5119755
PGF   003.67 051.2 m E Pn      2012/11/18 04:56:52.0   1.5                          T                                        5133316
PGF   003.67 051.2 m E P       2012/11/18 04:56:56.5   2.6                          T                                        5133315
PGF   003.67 051.2 m E Sn      2012/11/18 04:57:29.0  -1.6                          T                1.2  .28 Ml 2.5         5133320
SMRF  003.68 005.1 m E Pn      2012/11/18 04:56:52.3   1.8                          T                                        5133317
SMRF  003.68 005.1 m E Sn      2012/11/18 04:57:30.5  -0.1                          T                 .5  .22 Ml 1.9         5133319
LASF  003.88 346.4 m E Pn      2012/11/18 04:56:53.5   0.3                          T                                        5119758
LASF  003.88 346.4 m E Sn      2012/11/18 04:57:35.5   0.1                          T                                        5119752
EPF   004.50 308.8 m E Pn      2012/11/18 04:57:02.1   0.5                          T                                        5119753
EPF   004.50 308.8 m E Sn      2012/11/18 04:57:54.3   4.1                          T                 .8  .19 Ml 2.4         5119754
VIVF  004.56 356.0 m E Pn      2012/11/18 04:57:03.0   0.6                          T                                        5119757
VIVF  004.56 356.0 m E Sn      2012/11/18 04:57:51.2  -0.4                          T                1.5  .33 Ml 2.4         5119751
ETSF  004.98 303.1 m E Pn      2012/11/18 04:57:08.9   0.6                          T                                        5119766
ETSF  004.98 303.1 m E Sn      2012/11/18 04:58:03.8   2.0                          T                 .8  .27 Ml 2.4         5119767
CAF   005.14 335.0 m E Pn      2012/11/18 04:57:11.5   1.2                          T                                        5119756
CAF   005.14 335.0 m E Sn      2012/11/18 04:58:06.8   1.4                          T                 .2  .19 Ml 2.0         5133318
SJPF  005.51 302.6 m E Pn      2012/11/18 04:57:15.6   0.2                          T                                        5119769
SJPF  005.51 302.6 m E Sn      2012/11/18 04:58:15.4   0.9                          T                 .5  .20 Ml 2.4         5119768
RJF   005.65 333.2 m E Pn      2012/11/18 04:57:17.5   0.2                          T                                        5119771
RJF   005.65 333.2 m E Sn      2012/11/18 04:58:15.8  -1.9                          T                 .4  .18 Ml 2.0         5119765
BGF   006.46 345.9 m E Pn      2012/11/18 04:57:29.1   0.8                          T                                        5119770
SBF   003.95 025.1 m E Sn      2012/11/18 04:57:34.9  -2.1                          T                1.3  .15 Ml 2.6         5119762

.
