EVENT     287673
    Date      Time       Latitude Longitude    Depth    Ndef Nsta Gap    Mag1  N    Mag2  N    Mag3  N   Author         ID
       rms   OT_Error      Smajor Sminor Az        Err   mdist  Mdist     Err        Err        Err      Quality

2012/11/29 23:38:38.5     44.0376   11.9413      7.0 f    36   15 150  Ml 2.9  8                         bulletin    287773
                                                                                                         _ldg
      0.59   +-  0.16       4.9    2.5   63.83 +-  0.0    0.15   6.89   +-0.3                            m i ke

NORTHERN ITALY
Sta     Dist  EvAz     Phase      Date       Time     TRes  Azim  AzRes  Slow  SRes Def   SNR       Amp   Per   Mag1   Mag2       ID
PGF   002.61 236.3 m E Pn      2012/11/29 23:39:19.2  -0.2                          T                                        5138905
PGF   002.61 236.3 m E Sn      2012/11/29 23:39:50.0   0.5                          T                6.6  .34 Ml 2.9         5138904
SBF   003.26 268.5 m E Pn      2012/11/29 23:39:28.3   0.1                          T                                        5138906
MBDF  003.77 282.3 m E Pn      2012/11/29 23:39:35.9   0.7                          T                                        5127910
MBDF  003.77 282.3 m E Sn      2012/11/29 23:40:17.9   0.6                          T                7.3  .61 Ml 2.7         5138908
FRF   003.86 264.7 m E Pn      2012/11/29 23:39:36.5   0.2                          T                                        5127908
FRF   003.86 264.7 m E Sn      2012/11/29 23:40:19.9   0.6                          T                2.1  .35 Ml 2.4         5138907
LPG   003.97 293.4 m E Pn      2012/11/29 23:39:37.9  -0.3                          T                                        5127909
LPL   003.99 293.5 m E Pn      2012/11/29 23:39:38.9   0.5                          T                                        5127912
LPL   003.99 293.5 m E Sn      2012/11/29 23:40:22.9   0.3                          T                8.7  .49 Ml 2.9         5127907
ORIF  004.43 283.6 m E Pn      2012/11/29 23:39:45.8   1.7                          T                                        5127911
ORIF  004.43 283.6 m E Sn      2012/11/29 23:40:33.5   0.6                          T                5.9  .42 Ml 2.9         5127906
CABF  004.86 304.0 m E Pn      2012/11/29 23:39:51.3   1.2                          T                                        5127903
HINF  005.18 318.6 m E Pn      2012/11/29 23:39:53.7  -0.6                          T                                        5127904
HINF  005.18 318.6 m E Sn      2012/11/29 23:40:51.0   0.1                          T                5.9  .40 Ml 3.1         5127905
CDF   005.44 325.2 m E Pn      2012/11/29 23:39:58.0   0.1                          T                                        5127914
HAU   005.56 317.5 m E Pn      2012/11/29 23:39:59.2  -0.3                          T                                        5127913
HAU   005.56 317.5 m E Sn      2012/11/29 23:41:00.1   0.2                          T               11.4  .46 Ml 3.2         5127900
SMF   006.28 297.4 m E Pn      2012/11/29 23:40:09.6   0.4                          T                                        5138909
LOR   006.52 302.5 m E Pn      2012/11/29 23:40:13.1   0.6                          T                                        5127902
LOR   006.52 302.5 m E Sn      2012/11/29 23:41:23.8   1.0                          T                5.8  .54 Ml 3.2         5127915
SSF   006.65 300.0 m E Pn      2012/11/29 23:40:14.1  -0.1                          T                                        5127901
BGF   006.89 294.6 m E Pn      2012/11/29 23:40:17.6   0.1                          T                                        5138910

.
EVENT     287674
    Date      Time       Latitude Longitude    Depth    Ndef Nsta Gap    Mag1  N    Mag2  N    Mag3  N   Author         ID
       rms   OT_Error      Smajor Sminor Az        Err   mdist  Mdist     Err        Err        Err      Quality

2012/11/30 00:02:40.5     44.0156   11.7378      7.0 f   100   17 066  Ml 3.3  9                         bulletin    287774
                                                                                                         _ldg
      0.95   +-  0.12       3.1    2.3   57.98 +-  0.0    0.14   6.77   +-0.2                            m i ke

NORTHERN ITALY
Sta     Dist  EvAz     Phase      Date       Time     TRes  Azim  AzRes  Slow  SRes Def   SNR       Amp   Per   Mag1   Mag2       ID
PGF   002.48 234.7 m E Pn      2012/11/30 00:03:19.7   0.1                          T                                        5138911
SBF   003.11 268.7 m E Pn      2012/11/30 00:03:28.3   0.1                          T                                        5127933
SBF   003.11 268.7 m E P       2012/11/30 00:03:31.4   0.3                          T                                        5138913
SBF   003.11 268.7 m E Sn      2012/11/30 00:04:03.8   0.4                          T               35.0  .50 Ml 3.3         5138912
FRF   003.71 264.7 m E Pn      2012/11/30 00:03:36.4   0.1                          T                                        5127934
FRF   003.71 264.7 m E P       2012/11/30 00:03:39.8   0.1                          T                                        5138915
FRF   003.71 264.7 m E Sn      2012/11/30 00:04:17.9   0.2                          T               22.4  .60 Ml 3.2         5138914
MBDF  003.63 283.0 m E Pn      2012/11/30 00:03:37.5   2.2                          T                                        5127932
MBDF  003.63 283.0 m E Sg      2012/11/30 00:04:35.0   0.4                          T               30.3  .78 Ml 3.2         5138918
LPG   003.85 294.4 m E Pn      2012/11/30 00:03:38.9   0.4                          T                                        5127935
LPG   003.85 294.4 m E P       2012/11/30 00:03:42.3   0.3                          T                                        5138916
LPL   003.87 294.6 m E Pn      2012/11/30 00:03:39.4   0.8                          T                                        5127936
LPL   003.87 294.6 m E P       2012/11/30 00:03:42.5   0.4                          T                                        5138917
LPL   003.87 294.6 m E Sn      2012/11/30 00:04:21.7   0.1                          T               14.2  .48 Ml 3.1         5127916
ORIF  004.29 284.2 m E Pn      2012/11/30 00:03:48.0   3.8                          T                                        5127931
CABF  004.76 305.0 m E Pn      2012/11/30 00:03:52.0   1.4                          T                                        5127928
HINF  005.11 319.8 m E Pn      2012/11/30 00:03:55.8   0.5                          T                                        5127927
HINF  005.11 319.8 m E Sn      2012/11/30 00:04:51.3   0.3                          T               16.9  .53 Ml 3.4         5127918
CDF   005.38 326.4 m E Pn      2012/11/30 00:03:59.1   0.0                          T                                        5127926
CDF   005.38 326.4 m E Sn      2012/11/30 00:04:57.8   0.2                          T               16.8  .66 Ml 3.5         5127919
HAU   005.48 318.6 m E Pn      2012/11/30 00:04:00.4   0.0                          T                                        5127923
HAU   005.48 318.6 m E Sn      2012/11/30 00:05:00.1   0.2                          T               22.5  .47 Ml 3.4         5127922
SMF   006.16 298.0 m E Pn      2012/11/30 00:04:10.7   1.2                          T                                        5127930
SMF   006.16 298.0 m E Sn      2012/11/30 00:05:16.1   0.0                          T                7.9  .56 Ml 3.3         5127917
SFTF  006.26 314.3 m E Pn      2012/11/30 00:04:11.4   0.4                          T                                        5138920
LOR   006.41 303.2 m E Pn      2012/11/30 00:04:13.8   0.8                          T                                        5127925
LOR   006.41 303.2 m E Sn      2012/11/30 00:05:22.3   0.2                          T               13.7  .53 Ml 3.6         5127920
AVF   006.52 298.1 m E Pn      2012/11/30 00:04:15.2   0.7                          T                                        5138919
SSF   006.53 300.7 m E Pn      2012/11/30 00:04:15.4   0.7                          T                                        5127924
SSF   006.53 300.7 m E Sn      2012/11/30 00:05:25.5   0.4                          T                                        5127921
BGF   006.77 295.2 m E Pn      2012/11/30 00:04:19.0   1.1                          T                                        5127929

.
EVENT     287675
    Date      Time       Latitude Longitude    Depth    Ndef Nsta Gap    Mag1  N    Mag2  N    Mag3  N   Author         ID
       rms   OT_Error      Smajor Sminor Az        Err   mdist  Mdist     Err        Err        Err      Quality

2012/11/30 00:35:09.1     43.9417   11.7273      7.0 f    66   16 089  Ml 3.0 12                         bulletin    287775
                                                                                                         _ldg
      1.33   +-  0.19       6.9    3.8   43.69 +-  0.0    0.09   6.79   +-0.4                            m i ke

CENTRAL ITALY
Sta     Dist  EvAz     Phase      Date       Time     TRes  Azim  AzRes  Slow  SRes Def   SNR       Amp   Per   Mag1   Mag2       ID
PGF   002.43 236.0 m E Pn      2012/11/30 00:35:49.7   2.2                          T                                        5127990
PGF   002.43 236.0 m E Sn      2012/11/30 00:36:17.4   1.6                          T                7.1  .27 Ml 3.0         5128492
SBF   003.10 270.0 m E Pn      2012/11/30 00:35:57.8   1.2                          T                                        5127989
SBF   003.10 270.0 m E Sn      2012/11/30 00:36:32.3   0.5                          T               20.5  .43 Ml 3.1         5128491
FRF   003.70 265.8 m E Pn      2012/11/30 00:36:06.9   2.2                          T                                        5127988
MBDF  003.64 284.2 m E Pn      2012/11/30 00:36:08.1   4.0                          T                                        5127984
MBDF  003.64 284.2 m E Sn      2012/11/30 00:36:45.0   0.3                          T                1.1  .21 Ml 2.3         5128496
LPG   003.87 295.4 m E Pn      2012/11/30 00:36:08.2   0.8                          T                                        5127987
LPG   003.87 295.4 m E Sn      2012/11/30 00:36:50.2  -0.3                          T                1.4  .25 Ml 2.4         5128493
LPL   003.89 295.6 m E Pn      2012/11/30 00:36:09.5   1.9                          T                                        5127986
LPL   003.89 295.6 m E Sn      2012/11/30 00:36:50.6  -0.2                          T               10.4  .42 Ml 3.0         5127980
ORIF  004.30 285.1 m E P       2012/11/30 00:36:16.9   0.1                          T                                        5127985
ORIF  004.30 285.1 m E Sn      2012/11/30 00:37:00.6   0.2                          T                2.7  .40 Ml 2.6         5128497
CABF  004.79 305.8 m E Pn      2012/11/30 00:36:19.4  -0.3                          T                                        5128490
HINF  005.16 320.4 m E Pn      2012/11/30 00:36:22.6  -2.0                          T                                        5128489
HINF  005.16 320.4 m E Sn      2012/11/30 00:37:19.7  -1.1                          T                4.3  .32 Ml 3.0         5128488
CDF   005.43 326.9 m E Pn      2012/11/30 00:36:27.3  -1.1                          T                                        5127991
CDF   005.43 326.9 m E Sn      2012/11/30 00:37:26.1  -1.5                          T               12.2  .57 Ml 3.4         5127981
HAU   005.53 319.2 m E Pn      2012/11/30 00:36:28.7  -0.9                          T                                        5127993
HAU   005.53 319.2 m E Sn      2012/11/30 00:37:28.6  -1.1                          T               15.3  .42 Ml 3.3         5127983
SMF   006.18 298.7 m E Pn      2012/11/30 00:36:38.3  -0.3                          T                                        5138922
LOR   006.44 303.8 m E Pn      2012/11/30 00:36:42.0  -0.1                          T                                        5127992
LOR   006.44 303.8 m E Sn      2012/11/30 00:37:51.0  -0.6                          T               12.5  .60 Ml 3.5         5127982
BGF   006.79 295.7 m E Pn      2012/11/30 00:36:46.2  -0.6                          T                                        5138921
VIVF  005.14 282.7 m E Sn      2012/11/30 00:37:20.5   0.2                          T                 .9  .22 Ml 2.5         5128495
SSF   006.57 301.2 m E Sn      2012/11/30 00:37:54.1  -0.3                          T                6.2  .51 Ml 3.4         5128494

.
EVENT     287676
    Date      Time       Latitude Longitude    Depth    Ndef Nsta Gap    Mag1  N    Mag2  N    Mag3  N   Author         ID
       rms   OT_Error      Smajor Sminor Az        Err   mdist  Mdist     Err        Err        Err      Quality

2012/11/30 01:10:09.0     43.9200   11.8500      7.0 f    46   20 155  Ml 3.2  5                         bulletin    287776
                                                                                                         _ldg
      1.08   +-  0.23       7.6    4.3   61.06 +-  0.0    0.02   7.01   +-0.2                            m i ke

CENTRAL ITALY
Sta     Dist  EvAz     Phase      Date       Time     TRes  Azim  AzRes  Slow  SRes Def   SNR       Amp   Per   Mag1   Mag2       ID
PGF   002.49 237.6 m E Pn      2012/11/30 01:10:47.7  -0.5                          T                                        5128544
PGF   002.49 237.6 m E Sn      2012/11/30 01:11:17.2   0.0                          T                                        5128534
SBF   003.19 270.5 m E Pn      2012/11/30 01:10:57.8   0.1                          T                                        5127998
SBF   003.19 270.5 m E Sn      2012/11/30 01:11:34.3   0.5                          T                                        5128535
FRF   003.79 266.4 m E Pn      2012/11/30 01:11:05.4  -0.4                          T                                        5128546
FRF   003.79 266.4 m E Sn      2012/11/30 01:11:47.4  -0.5                          T                                        5128533
MBDF  003.73 284.2 m E Pn      2012/11/30 01:11:05.4   0.2                          T                                        5128004
LPG   003.96 295.2 m E Pn      2012/11/30 01:11:07.2  -1.3                          T                                        5128007
LMR   003.92 263.3 m E Pn      2012/11/30 01:11:07.8   0.2                          T                                        5128545
LPL   003.98 295.4 m E Pn      2012/11/30 01:11:08.9   0.2                          T                                        5128006
LPL   003.98 295.4 m E Sn      2012/11/30 01:11:54.2   1.4                          T                8.1  .48 Ml 2.9         5127994
ORIF  004.39 285.2 m E Pn      2012/11/30 01:11:15.7   1.5                          T                                        5128005
SMRF  004.53 272.9 m E Pn      2012/11/30 01:11:17.2   1.2                          T                                        5128543
CABF  004.88 305.5 m E Pn      2012/11/30 01:11:20.3  -0.4                          T                                        5128003
HINF  005.23 319.9 m E Pn      2012/11/30 01:11:23.3  -2.1                          T                                        5128002
HINF  005.23 319.9 m E Sn      2012/11/30 01:12:21.6  -0.9                          T                7.2  .39 Ml 3.2         5127997
CDF   005.50 326.3 m E Pn      2012/11/30 01:11:27.4  -1.8                          T                                        5128001
HAU   005.60 318.7 m E Pn      2012/11/30 01:11:28.6  -1.9                          T                                        5127999
HAU   005.60 318.7 m E Sn      2012/11/30 01:12:31.1  -0.2                          T                9.8  .36 Ml 3.2         5127995
SMF   006.27 298.5 m E Pn      2012/11/30 01:11:38.3  -1.3                          T                                        5128541
LOR   006.53 303.6 m E Pn      2012/11/30 01:11:41.1  -2.0                          T                                        5128000
LOR   006.53 303.6 m E Sn      2012/11/30 01:12:53.5   0.1                          T                9.5  .49 Ml 3.5         5127996
SFTF  006.39 314.5 m E Pn      2012/11/30 01:11:41.3   0.1                          T                                        5128538
SSF   006.65 301.1 m E Pn      2012/11/30 01:11:43.6  -1.2                          T                                        5128537
MEZF  006.57 316.6 m E Pn      2012/11/30 01:11:43.6  -0.1                          T                                        5128539
SSF   006.65 301.1 m E Sn      2012/11/30 01:12:56.5   0.1                          T                1.9  .34 Ml 3.0         5128536
AVF   006.64 298.6 m E Pn      2012/11/30 01:11:44.3  -0.3                          T                                        5128540
MTLF  007.01 268.6 m E Pn      2012/11/30 01:11:49.5  -0.2                          T                                        5128542

.
