EVENT     285437
    Date      Time       Latitude Longitude    Depth    Ndef Nsta Gap    Mag1  N    Mag2  N    Mag3  N   Author         ID
       rms   OT_Error      Smajor Sminor Az        Err   mdist  Mdist     Err        Err        Err      Quality

2012/10/19 09:45:46.3     44.4732    6.6886      2.0      37    9 051  Ml 1.8  6  Md 2.0  3              bulletin    285537
                                                                                                         _ldg
      0.40   +-  0.04        .8     .7   51.81 +-  0.0    0.09   1.49   +-0.2      +-0.0                 m i ke

FRANCE
Sta     Dist  EvAz     Phase      Date       Time     TRes  Azim  AzRes  Slow  SRes Def   SNR       Amp   Per   Mag1   Mag2       ID
MBDF  000.26 013.1 m E Pg      2012/10/19 09:45:51.4  -0.3                          T                                        5101297
MBDF  000.26 013.1 m E Sg      2012/10/19 09:45:55.3   0.1                          T               12.5  .19        Md 2.0  5101292
ORIF  000.73 307.9 m E Pg      2012/10/19 09:46:00.2   0.1                          T                                        5101296
ORIF  000.73 307.9 m E Pn      2012/10/19 09:46:02.1  -0.1                          T                                        5109309
ORIF  000.73 307.9 m E Sg      2012/10/19 09:46:09.8   0.1                          T                5.5  .20        Md 2.0  5101293
SBF   000.81 138.4 m E Pg      2012/10/19 09:46:01.8   0.1                          T                                        5101301
SBF   000.81 138.4 m E Pn      2012/10/19 09:46:03.2  -0.1                          T                                        5109308
SBF   000.81 138.4 m E Sg      2012/10/19 09:46:12.5   0.2                          T                4.9  .20        Md 2.0  5101319
FRF   000.91 181.9 m E Pg      2012/10/19 09:46:03.6   0.1                          T                                        5101300
FRF   000.91 181.9 m E Sg      2012/10/19 09:46:15.2  -0.2                          T                1.3  .16 Ml 1.7         5101314
SMRF  000.94 238.5 m E Pg      2012/10/19 09:46:04.1   0.0                          T                                        5101315
SMRF  000.94 238.5 m E Sg      2012/10/19 09:46:15.9  -0.4                          T                1.5  .17 Ml 1.8         5101316
LPG   001.03 002.5 m E Pg      2012/10/19 09:46:05.3  -0.6                          T                                        5101299
LPG   001.03 002.5 m E Sg      2012/10/19 09:46:19.3   0.1                          T                3.0  .18 Ml 2.0         5101317
LPL   001.04 001.7 m E Pg      2012/10/19 09:46:06.0  -0.1                          T                                        5101298
LPL   001.04 001.7 m E Sg      2012/10/19 09:46:19.8   0.1                          T                2.1  .25 Ml 1.8         5101318
LMR   001.15 186.6 m E Pg      2012/10/19 09:46:07.9   0.1                          T                                        5101295
LMR   001.15 186.6 m E Sg      2012/10/19 09:46:22.7   0.0                          T                2.7  .19 Ml 2.1         5101294
VIVF  001.49 285.6 m E Pn      2012/10/19 09:46:12.1  -0.3                          T                                        5109307
VIVF  001.49 285.6 m E Sn      2012/10/19 09:46:31.4   0.0                          T                1.3  .27 Ml 1.7         5109306

.
EVENT     285465
    Date      Time       Latitude Longitude    Depth    Ndef Nsta Gap    Mag1  N    Mag2  N    Mag3  N   Author         ID
       rms   OT_Error      Smajor Sminor Az        Err   mdist  Mdist     Err        Err        Err      Quality

2012/10/19 15:10:03.5     46.0071   -2.6956      3.0 f   110   26 191  Ml 3.3 27                         bulletin    285565
                                                                                                         _ldg
      0.55   +-  0.07       1.3     .8   63.93 +-  0.0    1.87   6.79   +-0.2                            m i ke

BAY OF BISCAY
Sta     Dist  EvAz     Phase      Date       Time     TRes  Azim  AzRes  Slow  SRes Def   SNR       Amp   Per   Mag1   Mag2       ID
MFF   001.87 070.5 m E Pn      2012/10/19 15:10:34.7   0.1                          T                                        5101425
MFF   001.87 070.5 m E Pg      2012/10/19 15:10:38.2   0.1                          T                                        5101462
MFF   001.87 070.5 m E Sg      2012/10/19 15:11:02.3   0.1                          T               35.4  .28 Ml 3.5         5101461
QUIF  001.94 350.6 m E Pn      2012/10/19 15:10:35.2  -0.3                          T                                        5101424
QUIF  001.94 350.6 m E Pg      2012/10/19 15:10:39.2  -0.2                          T                                        5101459
QUIF  001.94 350.6 m E Sg      2012/10/19 15:11:04.1  -0.3                          T               54.9  .22 Ml 3.6         5101460
SGMF  002.25 002.4 m E Pn      2012/10/19 15:10:39.8   0.1                          T                                        5101426
SGMF  002.25 002.4 m E Pg      2012/10/19 15:10:45.4   0.2                          T                                        5101457
SGMF  002.25 002.4 m E Sg      2012/10/19 15:11:14.1  -0.1                          T               29.4  .24 Ml 3.3         5101458
ROSF  002.36 350.6 m E Pn      2012/10/19 15:10:40.9  -0.4                          T                                        5109330
ROSF  002.36 350.6 m E Pg      2012/10/19 15:10:47.4   0.1                          T                                        5101456
ROSF  002.36 350.6 m E Sn      2012/10/19 15:11:08.9  -0.3                          T                                        5109329
ROSF  002.36 350.6 m E Sg      2012/10/19 15:11:17.2  -0.6                          T               29.1  .22 Ml 3.4         5101455
GRR   002.69 027.1 m E Pn      2012/10/19 15:10:45.8   0.0                          T                                        5101470
GRR   002.69 027.1 m E Pg      2012/10/19 15:10:53.7   0.3                          T                                        5101452
GRR   002.69 027.1 m E Sn      2012/10/19 15:11:17.7   0.8                          T                                        5101412
GRR   002.69 027.1 m E Sg      2012/10/19 15:11:27.8  -0.2                          T               20.6  .18 Ml 3.3         5101453
LFF   002.64 112.6 m E Pn      2012/10/19 15:10:46.1   1.0                          T                                        5101408
LFF   002.64 112.6 m E Pg      2012/10/19 15:10:53.0   0.6                          T                                        5101450
LFF   002.64 112.6 m E Sn      2012/10/19 15:11:15.7   0.0                          T                                        5109335
LFF   002.64 112.6 m E Sg      2012/10/19 15:11:26.6   0.2                          T               59.3  .32 Ml 3.4         5101449
SJPF  003.08 159.5 m E Pn      2012/10/19 15:10:49.9  -1.2                          T                                        5101444
SJPF  003.08 159.5 m E Pg      2012/10/19 15:11:00.8   0.3                          T                                        5101443
SJPF  003.08 159.5 m E Sn      2012/10/19 15:11:25.8  -0.4                          T                                        5109337
SJPF  003.08 159.5 m E Sg      2012/10/19 15:11:39.9  -0.1                          T                8.4  .29 Ml 2.9         5109336
RJF   003.04 101.9 m E Pn      2012/10/19 15:10:50.4  -0.1                          T                                        5101428
RJF   003.04 101.9 m E Pg      2012/10/19 15:10:59.7   0.0                          T                                        5109334
RJF   003.04 101.9 m E Sn      2012/10/19 15:11:25.3   0.1                          T                                        5101427
RJF   003.04 101.9 m E Sg      2012/10/19 15:11:38.6  -0.2                          T               24.0  .20 Ml 3.2         5109333
LDF   003.12 033.2 m E Pn      2012/10/19 15:10:51.6   0.0                          T                                        5109328
LDF   003.12 033.2 m E Pg      2012/10/19 15:11:02.3   1.0                          T                                        5101466
LDF   003.12 033.2 m E Sn      2012/10/19 15:11:27.6   0.3                          T                                        5101469
LDF   003.12 033.2 m E Sg      2012/10/19 15:11:42.1   0.6                          T               35.8  .30 Ml 3.5         5101454
FLN   003.14 027.8 m E Pn      2012/10/19 15:10:51.9   0.0 207.6  -1.8              T                                        5101419
FLN   003.14 027.8 m E Pg      2012/10/19 15:11:02.0   0.3 208.6  -0.8              T                                        5101467
FLN   003.14 027.8 m E Sn      2012/10/19 15:11:27.8   0.1                          T                                        5101410
FLN   003.14 027.8 m E Sg      2012/10/19 15:11:42.3   0.3 208.4  -1.1              T               26.1  .28 Ml 3.3         5101468
TCF   003.42 083.5 m E Pn      2012/10/19 15:10:55.9   0.1                          T                                        5101423
TCF   003.42 083.5 m E Pg      2012/10/19 15:11:06.9   0.0                          T                                        5101440
TCF   003.42 083.5 m E Sn      2012/10/19 15:11:34.5   0.0                          T                                        5101414
TCF   003.42 083.5 m E Sg      2012/10/19 15:11:50.8   0.0                          T               20.4  .26 Ml 3.5         5101465
ETSF  003.46 153.0 m E Pn      2012/10/19 15:10:56.7   0.3                          T                                        5109346
ETSF  003.46 153.0 m E Pg      2012/10/19 15:11:07.4  -0.3                          T                                        5109345
ETSF  003.46 153.0 m E Sn      2012/10/19 15:11:35.2  -0.3                          T                                        5109344
ETSF  003.46 153.0 m E Sg      2012/10/19 15:11:52.2   0.0                          T                6.7  .32 Ml 2.8         5109343
CAF   003.52 106.2 m E Pn      2012/10/19 15:10:57.4   0.3                          T                                        5101446
CAF   003.52 106.2 m E Pg      2012/10/19 15:11:09.2   0.5                          T                                        5101445
CAF   003.52 106.2 m E Sn      2012/10/19 15:11:35.7  -1.1                          T                                        5101448
CAF   003.52 106.2 m E Sg      2012/10/19 15:11:53.7  -0.2                          T               15.0  .24 Ml 3.3         5101447
EPF   003.68 142.8 m E Pn      2012/10/19 15:10:59.8   0.4                          T                                        5101407
EPF   003.68 142.8 m E Pg      2012/10/19 15:11:10.7  -1.0                          T                                        5101451
EPF   003.68 142.8 m E Sn      2012/10/19 15:11:40.7   0.0                          T                                        5109342
EPF   003.68 142.8 m E Sg      2012/10/19 15:11:56.8  -2.2                          T               11.4  .20 Ml 3.3         5101406
HYF   003.89 069.1 m E Pn      2012/10/19 15:11:02.1   0.1                          T                                        5109332
HYF   003.89 069.1 m E Pg      2012/10/19 15:11:15.4   0.0                          T                                        5109331
HYF   003.89 069.1 m E Sn      2012/10/19 15:11:44.4  -1.1                          T                                        5101433
HYF   003.89 069.1 m E Sg      2012/10/19 15:12:04.6  -0.7                          T                                        5101434
BGF   003.88 079.9 m E Pn      2012/10/19 15:11:02.3   0.3                          T                                        5101429
BGF   003.88 079.9 m E Pg      2012/10/19 15:11:15.2  -0.1                          T                                        5101430
BGF   003.88 079.9 m E Sn      2012/10/19 15:11:45.6   0.2                          T                                        5101432
BGF   003.88 079.9 m E Sg      2012/10/19 15:12:05.4   0.2                          T               36.8  .36 Ml 3.6         5101431
AVF   004.26 077.2 m E Pn      2012/10/19 15:11:07.1   0.0                          T                                        5101418
AVF   004.26 077.2 m E Pg      2012/10/19 15:11:22.3   0.0                          T                                        5101439
AVF   004.26 077.2 m E Sn      2012/10/19 15:11:54.2  -0.2                          T                                        5101464
AVF   004.26 077.2 m E Sg      2012/10/19 15:12:16.8  -0.1                          T                5.4  .30 Ml 3.0         5101463
MTLF  004.40 125.5 m E Pn      2012/10/19 15:11:08.9  -0.2                          T                                        5109341
MTLF  004.40 125.5 m E Pg      2012/10/19 15:11:24.8  -0.1                          T                                        5109340
MTLF  004.40 125.5 m E Sn      2012/10/19 15:11:55.2  -2.7                          T                                        5101442
MTLF  004.40 125.5 m E Sg      2012/10/19 15:12:21.4   0.0                          T                3.6  .22 Ml 3.0         5101441
SSF   004.41 073.9 m E Pn      2012/10/19 15:11:09.4   0.2                          T                                        5101473
SSF   004.41 073.9 m E Pg      2012/10/19 15:11:24.1  -0.9                          T                                        5101474
SSF   004.41 073.9 m E Sn      2012/10/19 15:11:56.9  -1.1                          T                                        5101472
SSF   004.41 073.9 m E Sg      2012/10/19 15:12:22.4   0.9                          T                                        5101471
SMF   004.57 079.6 m E Pn      2012/10/19 15:11:11.6   0.2                          T                                        5101437
SMF   004.57 079.6 m E Pg      2012/10/19 15:11:28.1   0.0                          T                                        5101438
SMF   004.57 079.6 m E Sn      2012/10/19 15:12:01.3  -0.6                          T                                        5101436
SMF   004.57 079.6 m E Sg      2012/10/19 15:12:26.6  -0.1                          T                8.6  .31 Ml 3.2         5101435
LOR   004.69 072.0 m E Pn      2012/10/19 15:11:12.5  -0.5 256.9  0.1               T                                        5101476
LOR   004.69 072.0 m E Pg      2012/10/19 15:11:29.7  -0.5 251.8  -5.0              T                                        5101475
LOR   004.69 072.0 m E Sn      2012/10/19 15:12:05.2   0.5 249.2  -7.6              T                                        5101477
LOR   004.69 072.0 m E Sg      2012/10/19 15:12:30.2  -0.2 248.5  -8.3              T                6.7  .27 Ml 3.2         5101478
LASF  005.03 110.2 m E Pn      2012/10/19 15:11:17.8   0.1                          T                                        5101479
LASF  005.03 110.2 m E Sn      2012/10/19 15:12:12.8  -0.1                          T                                        5101480
LASF  005.03 110.2 m E Sg      2012/10/19 15:12:40.6  -0.4                          T                                        5101481
VIVF  005.31 099.9 m E Pn      2012/10/19 15:11:21.8   0.2                          T                                        5109339
VIVF  005.31 099.9 m E Pg      2012/10/19 15:11:41.9   0.2                          T                                        5109338
VIVF  005.31 099.9 m E Sg      2012/10/19 15:12:47.4  -2.4                          T                                        5101482
BAIF  006.15 046.3 m E Pn      2012/10/19 15:11:33.2   0.3                          T                                        5101484
BAIF  006.15 046.3 m E Pg      2012/10/19 15:11:56.7  -0.4                          T                                        5109323
BAIF  006.15 046.3 m E Sn      2012/10/19 15:12:39.2  -0.5                          T                1.9  .25 Ml 3.0         5101485
BAIF  006.15 046.3 m E Sg      2012/10/19 15:13:17.1   1.1                          T                                        5101486
GIVF  006.49 048.2 m E Pn      2012/10/19 15:11:37.8   0.2                          T                                        5109326
GIVF  006.49 048.2 m E Pg      2012/10/19 15:12:03.3  -0.1                          T                                        5109325
GIVF  006.49 048.2 m E Sn      2012/10/19 15:12:48.1   0.3                          T                3.1  .23 Ml 3.3         5109324
HINF  006.79 071.1 m E Pn      2012/10/19 15:11:41.2  -0.5                          T                                        5109347
HINF  006.79 071.1 m E Pg      2012/10/19 15:12:08.8  -0.1                          T                                        5109327
HINF  006.79 071.1 m E Sn      2012/10/19 15:12:54.9   0.0                          T                1.8  .28 Ml 3.0         5109348

.
EVENT     285466
    Date      Time       Latitude Longitude    Depth    Ndef Nsta Gap    Mag1  N    Mag2  N    Mag3  N   Author         ID
       rms   OT_Error      Smajor Sminor Az        Err   mdist  Mdist     Err        Err        Err      Quality

2012/10/19 16:56:22.3     48.1777   -3.2372     15.0      11    5 181  Ml 1.7  2  Md 1.8  3              bulletin    285566
                                                                                                         _ldg
      2.04   +-  0.26       5.5    3.7  176.06 +-  0.0    0.16   2.12   +-0.1      +-0.1                 m i ke

FRANCE
Sta     Dist  EvAz     Phase      Date       Time     TRes  Azim  AzRes  Slow  SRes Def   SNR       Amp   Per   Mag1   Mag2       ID
ROSF  000.16 351.3 m E Pg      2012/10/19 16:56:26.8   0.3                          T                                        5101494
ROSF  000.16 351.3 m E Sg      2012/10/19 16:56:29.3   0.0                          T                                Md 1.9  5101489
QUIF  000.27 169.5 m E Pg      2012/10/19 16:56:28.5   0.5                          T                                        5101492
QUIF  000.27 169.5 m E Sg      2012/10/19 16:56:32.1   0.0                          T               12.8  .18        Md 1.7  5101487
SGMF  000.46 080.2 m E Pg      2012/10/19 16:56:31.0  -0.5                          T                                        5101493
SGMF  000.46 080.2 m E Sg      2012/10/19 16:56:37.1  -0.6                          T                1.5  .19        Md 1.7  5101488
LDF   002.12 077.5 m E Pg      2012/10/19 16:57:01.5  -0.2                          T                                        5109350
LDF   002.12 077.5 m E Sg      2012/10/19 16:57:28.2  -0.8                          T                 .6  .17 Ml 1.8         5109349
FLN   001.92 071.3 m E Sg      2012/10/19 16:57:22.5  -0.5                          T                 .8  .19 Ml 1.7         5109351

.
