EVENT     265833
    Date      Time       Latitude Longitude    Depth    Ndef Nsta Gap    Mag1  N    Mag2  N    Mag3  N   Author         ID
       rms   OT_Error      Smajor Sminor Az        Err   mdist  Mdist     Err        Err        Err      Quality

2011/10/31 03:43:42.3     44.5451    9.4636      2.0      12    6 153  Ml 2.1  2                         js067245    265853

      0.37   +-  0.13       3.6    2.1   66.85 +-  0.0    0.22   2.85   +-0.1                            m i ke

NORTHERN ITALY
Sta     Dist  EvAz     Phase      Date       Time     TRes  Azim  AzRes  Slow  SRes Def   SNR       Amp   Per   Mag1   Mag2       ID
SBF   001.61 245.7 m E Pn      2011/10/31 03:44:09.7  -0.4                          T                                        4780359
PGF   002.02 189.8 m E Pn      2011/10/31 03:44:15.7  -0.1                          T                                        4780361
FRF   002.26 245.1 m E Pn      2011/10/31 03:44:19.1   0.3                          T                                        4780357
FRF   002.26 245.1 m E Sn      2011/10/31 03:44:44.6  -1.0                          T                1.1  .23 Ml 2.0         4780355
LMR   002.45 241.5 m E Pn      2011/10/31 03:44:20.7  -0.7                          T                                        4780358
LMR   002.45 241.5 m E Sn      2011/10/31 03:44:50.4   0.1                          T                1.6  .24 Ml 2.2         4780354
LPG   002.15 297.3 m E Pg      2011/10/31 03:44:22.7   0.2                          T                                        4780360
SMRF  002.85 259.8 m E Pn      2011/10/31 03:44:27.3   0.3                          T                                        4780356

.
EVENT     265834
    Date      Time       Latitude Longitude    Depth    Ndef Nsta Gap    Mag1  N    Mag2  N    Mag3  N   Author         ID
       rms   OT_Error      Smajor Sminor Az        Err   mdist  Mdist     Err        Err        Err      Quality

2011/10/31 06:18:26.1     49.1907    8.0967     10.0      35   13 035  Ml 2.4  9  Md 2.4  4              js067245    265854

      0.62   +-  0.08       1.6    1.4  103.30 +-  0.0    0.02   3.74   +-0.3      +-0.1                 m i ke

GERMANY
Sta     Dist  EvAz     Phase      Date       Time     TRes  Azim  AzRes  Slow  SRes Def   SNR       Amp   Per   Mag1   Mag2       ID
LANF  000.28 222.4 m E Pg      2011/10/31 06:18:31.4  -0.5                          T                                        4780391
LANF  000.28 222.4 m E Sg      2011/10/31 06:18:35.5  -0.4                          T               25.2  .20        Md 2.4  4780371
RUP   000.85 307.5 m E Pg      2011/10/31 06:18:42.3   0.1                          T                                        4780392
RUP   000.85 307.5 m E Sg      2011/10/31 06:18:53.3   0.0                          T                                Md 2.5  4780379
RUP   000.85 307.5 m E Sn      2011/10/31 06:18:54.5   0.1                          T                                        4780373
CDF   000.95 215.2 m E Pg      2011/10/31 06:18:43.8  -0.3                          T                                        4780390
CDF   000.95 215.2 m E Sg      2011/10/31 06:18:56.5   0.0                          T               10.3  .20 Ml 2.6 Md 2.3  4780378
HINF  001.60 211.5 m E Pn      2011/10/31 06:18:52.3  -0.6                          T                                        4780386
HINF  001.60 211.5 m E Pg      2011/10/31 06:18:56.0  -0.1                          T                                        4780385
HINF  001.60 211.5 m E Sg      2011/10/31 06:19:17.0   0.2                          T                3.6  .18 Ml 2.4         4780381
HAU   001.66 225.0 m E Pn      2011/10/31 06:18:53.2  -0.4                          T                                        4780387
HAU   001.66 225.0 m E Pg      2011/10/31 06:18:57.2   0.1                          T                                        4780388
HAU   001.66 225.0 m E Sg      2011/10/31 06:19:18.6   0.1                          T               10.9  .30 Ml 2.4 Md 2.5  4780382
THEF  001.69 236.1 m E Pn      2011/10/31 06:18:53.7  -0.4                          T                                        4780384
THEF  001.69 236.1 m E Pg      2011/10/31 06:18:57.4  -0.3                          T                                        4780389
THEF  001.69 236.1 m E Sn      2011/10/31 06:19:14.4  -0.1                          T                                        4780374
THEF  001.69 236.1 m E Sg      2011/10/31 06:19:19.5  -0.1                          T               10.0  .19 Ml 2.9         4780383
PAGF  001.69 248.8 m E Pn      2011/10/31 06:18:54.1   0.1  65.7  -1.3              T                                        4780366
PAGF  001.69 248.8 m E Sn      2011/10/31 06:19:14.0  -0.4                          T                                        4780401
PAGF  001.69 248.8 m E Sg      2011/10/31 06:19:19.2  -0.3                          T                1.8  .28 Ml 1.9         4780380
SFTF  002.25 245.2 m E Pg      2011/10/31 06:19:07.9  -0.1                          T                                        4780368
SFTF  002.25 245.2 m E Sg      2011/10/31 06:19:35.8  -1.2                          T                5.0  .29 Ml 2.5         4780375
BAIF  002.67 290.4 m E Pg      2011/10/31 06:19:15.6  -0.1                          T                                        4780369
BAIF  002.67 290.4 m E Sg      2011/10/31 06:19:50.3   0.2                          T                                        4780372
MEZF  002.13 252.2 m E Sg      2011/10/31 06:19:33.4   0.4                          T                                        4780367
GIVF  002.31 294.4 m E Sg      2011/10/31 06:19:38.9  -0.1                          T                5.3  .32 Ml 2.5         4780377
LOR   003.42 237.4 m E Sg      2011/10/31 06:20:13.0  -0.6  52.4  -1.9              T                2.5  .25 Ml 2.5         4780376
SSF   003.74 237.0 m E Sg      2011/10/31 06:20:23.8   0.3                          T                1.1  .27 Ml 2.3         4780370

.
EVENT     265837
    Date      Time       Latitude Longitude    Depth    Ndef Nsta Gap    Mag1  N    Mag2  N    Mag3  N   Author         ID
       rms   OT_Error      Smajor Sminor Az        Err   mdist  Mdist     Err        Err        Err      Quality

2011/10/31 09:26:38.9     42.8148   -1.4170      2.0      39    3 074  Ml 2.2  1  Md 2.1  2              js067245    265857

      0.26   +-  0.05        .9     .8   50.24 +-  0.0    0.05   1.54   +-         +-0.1                 m i ke

PYRENEES
Sta     Dist  EvAz     Phase      Date       Time     TRes  Azim  AzRes  Slow  SRes Def   SNR       Amp   Per   Mag1   Mag2       ID
SJPF  000.33 025.2 m E Pg      2011/10/31 09:26:45.3   0.0                          T                                        4780406
SJPF  000.33 025.2 m E P       2011/10/31 09:26:45.9  -0.2                          T                                        4780407
SJPF  000.33 025.2 m E Sg      2011/10/31 09:26:49.6  -0.2                          T               20.7  .21        Md 2.0  4780403
ETSF  000.64 082.1 m E Pg      2011/10/31 09:26:50.9  -0.2                          T                                        4780405
ETSF  000.64 082.1 m E Sg      2011/10/31 09:26:59.5   0.1                          T                5.9  .22        Md 2.2  4780404
EPF   001.31 079.9 m E Sg      2011/10/31 09:27:20.3   0.0                          T                3.9  .20 Ml 2.2         4780402

.
EVENT     265838
    Date      Time       Latitude Longitude    Depth    Ndef Nsta Gap    Mag1  N    Mag2  N    Mag3  N   Author         ID
       rms   OT_Error      Smajor Sminor Az        Err   mdist  Mdist     Err        Err        Err      Quality

2011/10/31 22:12:45.1     45.6853   10.9715      5.0 f   110   36 051  Ml 3.5 28  Md 3.3  6              js067245    265858

      1.05   +-  0.12       2.7    2.2  143.85 +-  0.0    0.26   9.95   +-0.2      +-0.1                 m i ke

NORTHERN ITALY
Sta     Dist  EvAz     Phase      Date       Time     TRes  Azim  AzRes  Slow  SRes Def   SNR       Amp   Per   Mag1   Mag2       ID
LPL   002.98 268.3 m E Pn      2011/10/31 22:13:30.8  -0.7                          T   001.0                                4778382
LPL   002.98 268.3 m E P       2011/10/31 22:13:34.2  -0.2                          T                                        4780471
LPL   002.98 268.3 m E Pg      2011/10/31 22:13:40.0  -0.7                          T                                        4780470
LPL   002.98 268.3 m E Sn      2011/10/31 22:14:05.7   0.2                          T               40.0  .38 Ml 3.4 Md 3.3  4780484
LPL   002.98 268.3 m E S       2011/10/31 22:14:10.8  -0.3                          T                                        4780482
LPL   002.98 268.3 m E Sg      2011/10/31 22:14:18.5  -0.5                          T                                        4780483
LPG   002.97 267.9 m E Pn      2011/10/31 22:13:31.0  -0.4                          T   001.0                                4778380
LPG   002.97 267.9 m E P       2011/10/31 22:13:34.1  -0.2                          T                                        4780474
LPG   002.97 267.9 m E Pg      2011/10/31 22:13:40.4  -0.1                          T                                        4780472
LPG   002.97 267.9 m E Sg      2011/10/31 22:14:15.1  -3.6                          T   001.0       66.1  .44 Ml 3.6 Md 3.4  4778381
MBDF  003.12 253.6 m E Pn      2011/10/31 22:13:31.6  -1.6                          T   001.0                                4778398
MBDF  003.12 253.6 m E Sn      2011/10/31 22:14:08.8   0.1                          T   001.0       30.7  .34 Ml 3.4         4778399
SBF   003.11 235.4 m E Pn      2011/10/31 22:13:33.8   0.8                          T   001.0                                4778385
SBF   003.11 235.4 m E Pg      2011/10/31 22:13:43.3   0.5                          T                                        4780485
SBF   003.11 235.4 m E Sn      2011/10/31 22:14:08.1  -0.2                          T   001.0       91.0  .37 Ml 3.8         4778386
SBF   003.11 235.4 m E Sg      2011/10/31 22:14:22.1  -0.6                          T                                        4780467
PGF   003.44 205.1 m E Pn      2011/10/31 22:13:37.0   0.4                          T   001.0                                4778384
PGF   003.44 205.1 m E Sn      2011/10/31 22:14:16.6   0.2                          T               40.3  .40 Ml 3.8 Md 3.2  4780486
CABF  003.52 287.0 m E Pn      2011/10/31 22:13:39.0   0.4                          T   001.0                                4778392
CABF  003.52 287.0 m E Sn      2011/10/31 22:14:17.6  -0.6                          T   001.0       54.0  .63 Ml 3.5         4778393
CABF  003.52 287.0 m E Sg      2011/10/31 22:14:35.1  -0.5                          T   001.0       35.8  .52 Ml 3.4         4778394
HINF  003.54 308.5 m E Pn      2011/10/31 22:13:39.5   0.6                          T   001.0                                4778395
HINF  003.54 308.5 m E Sn      2011/10/31 22:14:19.2   0.5                          T   001.0      100.4  .62 Ml 3.8         4778396
HINF  003.54 308.5 m E Sg      2011/10/31 22:14:35.1  -1.2                          T   001.0       71.6  .52 Ml 3.7         4778397
FRF   003.75 237.0 m E Pn      2011/10/31 22:13:41.3  -0.3                          T   001.0                                4778368
FRF   003.75 237.0 m E Sn      2011/10/31 22:14:24.6   1.1                          T   001.0       25.3  .44 Ml 3.4         4778369
ORIF  003.67 259.8 m E Pn      2011/10/31 22:13:41.9   1.1                          T   001.0                                4778401
ORIF  003.67 259.8 m E P       2011/10/31 22:13:43.2  -0.8                          T                                        4780469
ORIF  003.67 259.8 m E Sn      2011/10/31 22:14:18.6  -3.3                          T   001.0       27.8  .36 Ml 3.5         4778402
CDF   003.72 318.5 m E Pn      2011/10/31 22:13:42.2   0.9                          T   001.0                                4778365
CDF   003.72 318.5 m E P       2011/10/31 22:13:44.9   0.2                          T                                        4780481
CDF   003.72 318.5 m E Sg      2011/10/31 22:14:40.8  -1.0                          T   001.0       42.2  .41 Ml 3.7 Md 3.4  4778366
LMR   003.96 235.2 m E Pn      2011/10/31 22:13:44.3  -0.3                          T   001.0                                4778377
LMR   003.96 235.2 m E Sn      2011/10/31 22:14:28.6  -0.1                          T   001.0       16.7  .32 Ml 3.4         4778378
HAU   003.93 307.8 m E Pn      2011/10/31 22:13:44.9   0.8                          T   001.0                                4778370
HAU   003.93 307.8 m E P       2011/10/31 22:13:47.4  -0.2                          T                                        4780457
HAU   003.93 307.8 m E Sn      2011/10/31 22:14:28.6   0.7                          T   001.0      107.9  .70 Ml 3.6 Md 3.5  4778371
HAU   003.93 307.8 m E Sg      2011/10/31 22:14:46.7  -1.7                          T   001.0       43.8  .40 Ml 3.5         4778372
SMRF  004.20 247.9 m E Pn      2011/10/31 22:13:48.5   0.6                          T   001.0                                4778407
SMRF  004.20 247.9 m E Sg      2011/10/31 22:14:56.2  -0.6                          T   001.0       11.2  .42 Ml 3.1         4778408
VIVF  004.52 261.7 m E Pn      2011/10/31 22:13:52.2  -0.1                          T   001.0                                4778405
VIVF  004.52 261.7 m E Sn      2011/10/31 22:14:42.7   0.6                          T   001.0       12.0  .44 Ml 3.2 Md 3.2  4778406
SFTF  004.78 303.9 m E Pn      2011/10/31 22:13:56.4   0.7 127.3  7.7               T                                        4780478
SFTF  004.78 303.9 m E P       2011/10/31 22:13:59.5  -0.1                          T                                        4780465
PAGF  004.59 310.6 m E P       2011/10/31 22:13:56.5  -0.5 128.3  1.5               T                                        4780479
MEZF  004.93 307.0 m E Pn      2011/10/31 22:13:57.4  -0.3                          T   001.0                                4778400
SMF   005.05 283.5 m E Pn      2011/10/31 22:13:59.4   0.1                          T   001.0                                4778387
SMF   005.05 283.5 m E P       2011/10/31 22:14:02.8  -0.7                          T                                        4780458
SMF   005.05 283.5 m E Sn      2011/10/31 22:14:55.6   1.0                          T               30.8  .28 Ml 3.9         4780477
LOR   005.16 290.4 m E Pn      2011/10/31 22:14:01.3   0.4 115.0  9.7               T   001.0                                4778379
LOR   005.16 290.4 m E Sn      2011/10/31 22:14:57.2  -0.2 118.3  13.0              T               21.7  .28 Ml 3.8         4780480
LASF  005.31 254.9 m E Pn      2011/10/31 22:14:02.5  -0.4                          T   001.0                                4778373
LASF  005.31 254.9 m E Sn      2011/10/31 22:15:01.2   0.4                          T   001.0       10.9  .50 Ml 3.3         4778374
SSF   005.35 287.6 m E Pn      2011/10/31 22:14:03.5   0.1                          T   001.0                                4778388
SSF   005.35 287.6 m E Sn      2011/10/31 22:15:01.3  -0.4                          T   001.0        7.4  .34 Ml 3.4         4778389
AVF   005.40 284.5 m E Pn      2011/10/31 22:14:04.3   0.1                          T   001.0                                4778360
AVF   005.40 284.5 m E Sn      2011/10/31 22:15:03.1   0.1                          T   001.0        3.5  .24 Ml 3.1         4778361
BGF   005.72 281.7 m E Pn      2011/10/31 22:14:08.7   0.3                          T   001.0                                4778362
BGF   005.72 281.7 m E Sn      2011/10/31 22:15:11.0   0.5                          T   001.0       27.5  .40 Ml 3.9         4778363
HYF   005.97 288.4 m E Pn      2011/10/31 22:14:12.5   0.6                          T                                        4780476
HYF   005.97 288.4 m E Sn      2011/10/31 22:15:17.1   0.5                          T                                        4780473
GIVF  006.05 319.1 m E Pn      2011/10/31 22:14:13.4   0.5                          T                                        4780454
TCF   006.14 278.8 m E Pn      2011/10/31 22:14:14.1   0.0                          T   001.0                                4778390
TCF   006.14 278.8 m E Sn      2011/10/31 22:15:19.8  -0.8                          T   001.0       10.6  .34 Ml 3.7         4778391
CAF   006.33 266.3 m E Pn      2011/10/31 22:14:17.1   0.3                          T   001.0                                4778364
BAIF  006.31 316.3 m E P       2011/10/31 22:14:21.1  -0.2                          T                                        4780456
RJF   006.66 270.1 m E Pn      2011/10/31 22:14:21.6   0.3                          T                                        4780468
LFF   007.25 267.7 m E Pn      2011/10/31 22:14:30.2   0.9                          T   001.0                                4778376
MFF   007.78 280.7 m E Pn      2011/10/31 22:14:36.7   0.2                          T   001.0                                4778383
MFF   007.78 280.7 m E Sn      2011/10/31 22:16:00.3   0.5                          T                4.5  .38 Ml 3.6         4780453
LDF   008.10 295.0 m E Pn      2011/10/31 22:14:43.0   2.1                          T   001.0                                4778375
FLN   008.38 295.7 m E Pn      2011/10/31 22:14:45.8   1.1 116.3  9.1               T   001.0                                4778367
GRR   008.52 292.7 m E Pn      2011/10/31 22:14:47.4   0.8                          T                                        4780466
SGMF  009.60 290.4 m E Pn      2011/10/31 22:15:01.7   0.4                          T   001.0                                4778404
QUIF  009.95 288.0 m E Pn      2011/10/31 22:15:07.2   1.2                          T   001.0                                4778403

.
