EVENT     266794
    Date      Time       Latitude Longitude    Depth    Ndef Nsta Gap    Mag1  N    Mag2  N    Mag3  N   Author         ID
       rms   OT_Error      Smajor Sminor Az        Err   mdist  Mdist     Err        Err        Err      Quality

2011/11/27 06:32:53.0     43.0287     .1791     10.0 f    30    5 101  Ml 1.6  3  Md 1.9  3              js067245    266814

      0.74   +-  0.15       3.1    2.2   13.84 +-  0.0    0.12   2.33   +-0.1      +-0.1                 m i ke

FRANCE
Sta     Dist  EvAz     Phase      Date       Time     TRes  Azim  AzRes  Slow  SRes Def   SNR       Amp   Per   Mag1   Mag2       ID
EPF   000.12 089.2 m E Pg      2011/11/27 06:32:56.3   0.2                          T                                        4792195
EPF   000.12 089.2 m E Sg      2011/11/27 06:32:58.6   0.4                          T               14.6  .20        Md 1.8  4792192
ETSF  000.56 256.8 m E Pg      2011/11/27 06:33:03.6  -0.3                          T                                        4792194
ETSF  000.56 256.8 m E Sg      2011/11/27 06:33:10.9  -0.3                          T                4.8  .22        Md 1.9  4792193
SJPF  001.03 275.2 m E Pg      2011/11/27 06:33:12.5   0.0                          T                                        4792202
SJPF  001.03 275.2 m E Sg      2011/11/27 06:33:25.3  -0.6                          T                1.5  .30 Ml 1.5 Md 2.0  4792203
MTLF  001.52 077.5 m E Pg      2011/11/27 06:33:21.9   0.4                          T                                        4792205
MTLF  001.52 077.5 m E Sg      2011/11/27 06:33:42.3   1.2                          T                 .7  .24 Ml 1.5         4792204
CAF   002.33 035.0 m E Pg      2011/11/27 06:33:37.1   0.7                          T                                        4792200
CAF   002.33 035.0 m E Sg      2011/11/27 06:34:07.1   0.6                          T                 .5  .19 Ml 1.7         4792201

.
EVENT     266795
    Date      Time       Latitude Longitude    Depth    Ndef Nsta Gap    Mag1  N    Mag2  N    Mag3  N   Author         ID
       rms   OT_Error      Smajor Sminor Az        Err   mdist  Mdist     Err        Err        Err      Quality

2011/11/27 08:19:20.2     42.6921     .6002      5.0 f    32    4 083  Ml 1.8  3  Md 1.9  2              js067245    266815

      0.56   +-  0.09       2.0    1.3   15.36 +-  0.0    0.16   1.75   +-0.0      +-0.2                 m i ke

PYRENEES
Sta     Dist  EvAz     Phase      Date       Time     TRes  Azim  AzRes  Slow  SRes Def   SNR       Amp   Per   Mag1   Mag2       ID
EPF   000.39 330.6 m E Pg      2011/11/27 08:19:27.6  -0.2                          T                                        4793257
EPF   000.39 330.6 m E Sg      2011/11/27 08:19:32.8  -0.2                          T                5.4  .24        Md 2.0  4793258
ETSF  000.88 284.0 m E Pg      2011/11/27 08:19:35.8  -1.0                          T                                        4793255
ETSF  000.88 284.0 m E Sg      2011/11/27 08:19:46.7  -1.5                          T                2.2  .20 Ml 1.8 Md 1.7  4793256
MTLF  001.35 060.8 m E Pg      2011/11/27 08:19:45.2  -0.2                          T                                        4793253
MTLF  001.35 060.8 m E Sg      2011/11/27 08:20:03.1   0.2                          T                1.5  .27 Ml 1.7         4793254
SJPF  001.41 288.0 m E Pg      2011/11/27 08:19:46.4   0.0                          T                                        4793251
SJPF  001.41 288.0 m E Sg      2011/11/27 08:20:04.7   0.1                          T                1.6  .25 Ml 1.8         4793252

.
EVENT     266796
    Date      Time       Latitude Longitude    Depth    Ndef Nsta Gap    Mag1  N    Mag2  N    Mag3  N   Author         ID
       rms   OT_Error      Smajor Sminor Az        Err   mdist  Mdist     Err        Err        Err      Quality

2011/11/27 11:43:10.2     42.9454   -1.5382      2.0      16    3 174  Ml 1.3  1  Md 1.5  2              js067245    266816

      0.29   +-  0.12       2.1    1.6   97.13 +-  0.0    0.17   1.38   +-         +-0.0                 m i ke

PYRENEES
Sta     Dist  EvAz     Phase      Date       Time     TRes  Azim  AzRes  Slow  SRes Def   SNR       Amp   Per   Mag1   Mag2       ID
SJPF  000.28 053.7 m E Pg      2011/11/27 11:43:15.8  -0.1                          T                                        4792234
SJPF  000.28 053.7 m E Sg      2011/11/27 11:43:19.4  -0.3                          T                4.1  .20        Md 1.6  4792233
ETSF  000.72 093.4 m E Pg      2011/11/27 11:43:23.5  -0.4                          T                                        4792232
ETSF  000.72 093.4 m E Sg      2011/11/27 11:43:33.7   0.4                          T                1.4  .31        Md 1.5  4792239
EPF   001.38 085.8 m E Pn      2011/11/27 11:43:35.1   0.2                          T                                        4792238
EPF   001.38 085.8 m E Sg      2011/11/27 11:43:53.9   0.0                          T                 .4  .19 Ml 1.3         4793463

.
EVENT     266797
    Date      Time       Latitude Longitude    Depth    Ndef Nsta Gap    Mag1  N    Mag2  N    Mag3  N   Author         ID
       rms   OT_Error      Smajor Sminor Az        Err   mdist  Mdist     Err        Err        Err      Quality

2011/11/27 15:35:45.3     42.6477     .5477      3.0 f     7    3 227  Ml 1.9  1  Md 1.6  2              js067245    266817

      0.25   +-  0.23       5.9    2.1  178.20 +-  0.0    0.41   1.41   +-         +-0.2                 m i ke

PYRENEES
Sta     Dist  EvAz     Phase      Date       Time     TRes  Azim  AzRes  Slow  SRes Def   SNR       Amp   Per   Mag1   Mag2       ID
EPF   000.41 338.3 m E Pg      2011/11/27 15:35:53.4   0.1                          T                                        4792319
EPF   000.41 338.3 m E Sg      2011/11/27 15:35:58.5  -0.3                          T                4.4  .20        Md 1.8  4792318
ETSF  000.85 287.5 m E Pg      2011/11/27 15:36:01.3  -0.2                          T                                        4792315
ETSF  000.85 287.5 m E Sg      2011/11/27 15:36:13.2   0.6                          T                1.7  .29        Md 1.5  4792314
MTLF  001.41 059.9 m E Pg      2011/11/27 15:36:11.6   0.0                          T                                        4792316
MTLF  001.41 059.9 m E Sn      2011/11/27 15:36:28.1  -0.1                          T                                        4792312
MTLF  001.41 059.9 m E Sg      2011/11/27 15:36:30.0   0.2                          T                2.5  .28 Ml 1.9         4792317

.
EVENT     266810
    Date      Time       Latitude Longitude    Depth    Ndef Nsta Gap    Mag1  N    Mag2  N    Mag3  N   Author         ID
       rms   OT_Error      Smajor Sminor Az        Err   mdist  Mdist     Err        Err        Err      Quality

2011/11/27 21:36:43.7     42.9625   -1.5406      2.0      25    3 166  Ml 1.3  1  Md 1.2  2              js067245    266830

      0.39   +-  0.11       2.0    1.5   99.34 +-  0.0    0.02   1.38   +-         +-0.3                 m i ke

PYRENEES
Sta     Dist  EvAz     Phase      Date       Time     TRes  Azim  AzRes  Slow  SRes Def   SNR       Amp   Per   Mag1   Mag2       ID
SJPF  000.28 056.8 m E Pg      2011/11/27 21:36:49.1  -0.1                          T                                        4792323
SJPF  000.28 056.8 m E Sg      2011/11/27 21:36:52.9   0.0                          T                 .9  .24        Md 1.4  4792322
ETSF  000.72 094.7 m E Pg      2011/11/27 21:36:57.3  -0.1                          T                                        4792321
ETSF  000.72 094.7 m E Sg      2011/11/27 21:37:07.2   0.3                          T                 .4  .23        Md  .9  4792320
EPF   001.38 086.5 m E Pg      2011/11/27 21:37:09.5   0.0                          T                                        4793472
EPF   001.38 086.5 m E Sg      2011/11/27 21:37:27.4   0.0                          T                 .6  .33 Ml 1.3         4793473

.
EVENT     266798
    Date      Time       Latitude Longitude    Depth    Ndef Nsta Gap    Mag1  N    Mag2  N    Mag3  N   Author         ID
       rms   OT_Error      Smajor Sminor Az        Err   mdist  Mdist     Err        Err        Err      Quality

2011/11/27 22:01:21.1     43.1367   -1.2030     15.0      22    3 164  Ml 0.8  1  Md 1.0  2              js067245    266818

      0.21   +-  0.06       1.3     .9  171.90 +-  0.0    0.03   1.14   +-         +-0.2                 m i ke

PYRENEES
Sta     Dist  EvAz     Phase      Date       Time     TRes  Azim  AzRes  Slow  SRes Def   SNR       Amp   Per   Mag1   Mag2       ID
SJPF  000.03 214.5 m E Pg      2011/11/27 22:01:23.9  -0.1                          T                                        4792333
SJPF  000.03 214.5 m E Sg      2011/11/27 22:01:25.2  -0.7                          T                1.5  .19        Md 1.2  4792332
ETSF  000.53 116.5 m E Pg      2011/11/27 22:01:31.3  -0.2                          T                                        4792331
ETSF  000.53 116.5 m E Sg      2011/11/27 22:01:38.6  -0.2                          T                 .4  .24        Md  .9  4792330
EPF   001.14 094.8 m E Pg      2011/11/27 22:01:42.5  -0.1                          T                                        4793474
EPF   001.14 094.8 m E Sg      2011/11/27 22:01:57.3   0.0                          T                 .2  .19 Ml  .8         4793475

.
EVENT     266839
    Date      Time       Latitude Longitude    Depth    Ndef Nsta Gap    Mag1  N    Mag2  N    Mag3  N   Author         ID
       rms   OT_Error      Smajor Sminor Az        Err   mdist  Mdist     Err        Err        Err      Quality

2011/11/28 22:49:09.4     42.7830   -1.1699      2.0      26    3 077  Ml 0.9  1  Md 0.9  2              js067245    266859

      0.48   +-  0.10       2.3    1.6   45.56 +-  0.0    0.05   1.14   +-         +-0.3                 m i ke

PYRENEES
Sta     Dist  EvAz     Phase      Date       Time     TRes  Azim  AzRes  Slow  SRes Def   SNR       Amp   Per   Mag1   Mag2       ID
SJPF  000.33 353.0 m E Pg      2011/11/28 22:49:16.1   0.2                          T                                        4793479
SJPF  000.33 353.0 m E Sg      2011/11/28 22:49:20.4   0.0                          T                 .8  .41        Md 1.1  4793480
ETSF  000.46 075.4 m E Pg      2011/11/28 22:49:18.4   0.0                          T                                        4793477
ETSF  000.46 075.4 m E Sg      2011/11/28 22:49:24.2  -0.4                          T                 .3  .28        Md  .7  4793478
EPF   001.14 076.9 m E Sg      2011/11/28 22:49:45.4  -0.1                          T                 .2  .17 Ml  .9         4793476

.
EVENT     266838
    Date      Time       Latitude Longitude    Depth    Ndef Nsta Gap    Mag1  N    Mag2  N    Mag3  N   Author         ID
       rms   OT_Error      Smajor Sminor Az        Err   mdist  Mdist     Err        Err        Err      Quality

2011/11/29 03:12:30.5     43.3339    2.3578      2.0 f     9    4 203  Ml 1.5  3  Md 1.5  1              js067245    266858

      0.79   +-  0.12       1.9    1.0  104.67 +-  0.0    0.10   1.61   +-0.2      +-                    m i ke

FRANCE
Sta     Dist  EvAz     Phase      Date       Time     TRes  Azim  AzRes  Slow  SRes Def   SNR       Amp   Per   Mag1   Mag2       ID
MTLF  000.10 274.1 m E Pg      2011/11/29 03:12:32.3  -0.4                          T                                        4792694
MTLF  000.10 274.1 m E Sg      2011/11/29 03:12:33.7  -0.6                          T                6.9  .22        Md 1.5  4792693
LASF  001.32 055.2 m E Pg      2011/11/29 03:12:55.1   0.0                          T                                        4792687
LASF  001.32 055.2 m E Sg      2011/11/29 03:13:12.2   0.1                          T                 .7  .27 Ml 1.4         4792692
EPF   001.51 259.1 m E Pg      2011/11/29 03:12:58.7   0.1                          T                                        4792688
EPF   001.51 259.1 m E Sg      2011/11/29 03:13:18.3   0.2                          T                 .7  .21 Ml 1.6         4792690
CAF   001.61 352.5 m E Sg      2011/11/29 03:13:20.9  -0.3                          T                 .8  .20 Ml 1.7         4792691

.
EVENT     266876
    Date      Time       Latitude Longitude    Depth    Ndef Nsta Gap    Mag1  N    Mag2  N    Mag3  N   Author         ID
       rms   OT_Error      Smajor Sminor Az        Err   mdist  Mdist     Err        Err        Err      Quality

2011/11/29 04:13:10.6     48.0751    9.1323      3.0 f    15    3 096  Ml 1.8  3  Md 1.9  1              js067245    266896

      0.29   +-  0.08       1.4    1.2   91.64 +-  0.0    0.01   1.87   +-0.2      +-                    m i ke

GERMANY
Sta     Dist  EvAz     Phase      Date       Time     TRes  Azim  AzRes  Slow  SRes Def   SNR       Amp   Per   Mag1   Mag2       ID
CDF   001.29 285.9 m E Pn      2011/11/29 04:13:34.9   0.9                          T                                        4792703
CDF   001.29 285.9 m E Sn      2011/11/29 04:13:51.9   1.2                          T                2.1  .25 Ml 2.0 Md 1.9  4792704
HINF  001.55 261.3 m E Pg      2011/11/29 04:13:39.6   0.0                          T                                        4793481
HINF  001.55 261.3 m E Sg      2011/11/29 04:13:59.9   0.2                          T                1.3  .32 Ml 1.7         4793482
HAU   001.87 268.9 m E Pn      2011/11/29 04:13:41.8   0.1                          T                                        4793484
HAU   001.87 268.9 m E Pg      2011/11/29 04:13:45.6   0.1                          T                                        4793483
HAU   001.87 268.9 m E Sn      2011/11/29 04:14:04.4  -0.1                          T                                        4793486
HAU   001.87 268.9 m E Sg      2011/11/29 04:14:09.2  -0.3                          T                1.5  .29 Ml 1.7         4793485

.
EVENT     266888
    Date      Time       Latitude Longitude    Depth    Ndef Nsta Gap    Mag1  N    Mag2  N    Mag3  N   Author         ID
       rms   OT_Error      Smajor Sminor Az        Err   mdist  Mdist     Err        Err        Err      Quality

2011/11/29 15:26:37.5     46.4116    4.7091       .0 f    39   11 077  Ml 2.3 12  Md 2.0  2              js067245    266908

      0.59   +-  0.05       1.3     .9   38.23 +-  0.0    0.64   2.03   +-0.2      +-0.1                 m i km

FRANCE
Sta     Dist  EvAz     Phase      Date       Time     TRes  Azim  AzRes  Slow  SRes Def   SNR       Amp   Per   Mag1   Mag2       ID
SMF   000.64 291.6 m E Pg      2011/11/29 15:26:49.9  -0.1                          T                                        4792752
SMF   000.64 291.6 m E Pn      2011/11/29 15:26:51.9  -0.6                          T                                        4792749
SMF   000.64 291.6 m E Sg      2011/11/29 15:26:58.8   0.2                          T               23.2  .26        Md 2.0  4792747
SMF   000.64 291.6 m E Sn      2011/11/29 15:27:02.8  -0.2                          T                                        4792748
LOR   001.04 326.1 m E Pg      2011/11/29 15:26:57.2   0.0 141.3  -4.1              T                                        4792760
LOR   001.04 326.1 m E Sg      2011/11/29 15:27:11.0   0.1 149.7  4.3               T                8.7  .28 Ml 2.3         4792758
LOR   001.04 326.1 m E Sn      2011/11/29 15:27:12.4   0.0                          T                                        4792838
CABF  000.97 077.7 m E Pn      2011/11/29 15:26:57.3   0.2                          T                                        4792753
CABF  000.97 077.7 m E Sg      2011/11/29 15:27:08.6  -0.4                          T                6.4  .35 Ml 2.1 Md 1.9  4792736
CABF  000.97 077.7 m E Sn      2011/11/29 15:27:10.9   0.0                          T                                        4792754
AVF   001.01 292.6 m E Pn      2011/11/29 15:26:57.4   0.0                          T                                        4792842
AVF   001.01 292.6 m E Sg      2011/11/29 15:27:10.1   0.1                          T                3.3  .19 Ml 2.1         4792755
AVF   001.01 292.6 m E Sn      2011/11/29 15:27:11.7   0.1                          T                                        4792841
SSF   001.05 308.6 m E Pg      2011/11/29 15:26:57.6   0.1                          T                                        4792759
SSF   001.05 308.6 m E Pn      2011/11/29 15:26:58.2   0.1                          T                                        4792839
SSF   001.05 308.6 m E Sg      2011/11/29 15:27:11.6   0.3                          T                8.5  .26 Ml 2.4         4792757
SSF   001.05 308.6 m E Sn      2011/11/29 15:27:12.6  -0.2                          T                                        4792837
BGF   001.30 277.2 m E Pn      2011/11/29 15:27:01.4   0.0                          T                                        4792750
BGF   001.30 277.2 m E Pg      2011/11/29 15:27:02.4   0.5                          T                                        4792834
BGF   001.30 277.2 m E Sg      2011/11/29 15:27:18.8  -0.2                          T               15.3  .32 Ml 2.6         4792751
VIVF  001.56 181.0 m E Pn      2011/11/29 15:27:04.9  -0.1                          T                                        4792735
VIVF  001.56 181.0 m E Pg      2011/11/29 15:27:06.7  -0.1                          T                                        4792734
VIVF  001.56 181.0 m E Sg      2011/11/29 15:27:27.0  -0.1                          T                3.4  .29 Ml 2.1         4792833
TCF   001.74 266.8 m E Pn      2011/11/29 15:27:07.1  -0.3                          T                                        4792744
TCF   001.74 266.8 m E Pg      2011/11/29 15:27:09.8  -0.4                          T                                        4792743
TCF   001.74 266.8 m E Sn      2011/11/29 15:27:29.0  -0.1                          T                                        4792835
TCF   001.74 266.8 m E Sg      2011/11/29 15:27:32.8   0.1                          T                1.4  .23 Ml 2.0         4792836
ORIF  001.70 150.8 m E Pn      2011/11/29 15:27:07.4   0.4                          T                                        4792831
ORIF  001.70 150.8 m E Pg      2011/11/29 15:27:09.8   0.2                          T                                        4792832
ORIF  001.70 150.8 m E Sg      2011/11/29 15:27:31.6  -0.2                          T                4.1  .36 Ml 2.2         4792843
HAU   001.95 034.4 m E Pg      2011/11/29 15:27:14.0   0.0                          T                                        4792746
HAU   001.95 034.4 m E Sn      2011/11/29 15:27:33.9  -0.2                          T                                        4792745
HINF  002.03 045.4 m E Sg      2011/11/29 15:27:41.4  -0.5                          T                4.5  .28 Ml 2.4         4792840

.
