EVENT     267223
    Date      Time       Latitude Longitude    Depth    Ndef Nsta Gap    Mag1  N    Mag2  N    Mag3  N   Author         ID
       rms   OT_Error      Smajor Sminor Az        Err   mdist  Mdist     Err        Err        Err      Quality

2011/12/09 01:31:30.5     42.9629   -1.5158      2.0     112   23 065  Ml 3.0 17  Md 3.0  3              js067245    267243

      0.82   +-  0.07       1.7    1.3  154.31 +-  0.0    0.17   6.46   +-0.2      +-0.0                 m i ke

PYRENEES
Sta     Dist  EvAz     Phase      Date       Time     TRes  Azim  AzRes  Slow  SRes Def   SNR       Amp   Per   Mag1   Mag2       ID
SJPF  000.26 054.7 m E Pg      2011/12/09 01:31:34.9  -0.7                          T   001.0                                4796516
SJPF  000.26 054.7 m E Sg      2011/12/09 01:31:39.1   0.0                          T              330.1  .28        Md 3.0  4798114
ETSF  000.71 094.9 m E Pg      2011/12/09 01:31:42.4  -1.5                          T   001.0                                4796507
ETSF  000.71 094.9 m E Sg      2011/12/09 01:31:53.2   0.1                          T   001.0       87.4  .30        Md 3.0  4796508
EPF   001.36 086.5 m E Pg      2011/12/09 01:31:54.6  -1.3                          T   001.0                                4796494
EPF   001.36 086.5 m E Sg      2011/12/09 01:32:13.8   0.2                          T               53.4  .24 Ml 3.3 Md 3.1  4798129
LFF   002.56 038.7 m E P       2011/12/09 01:32:13.1  -0.6                          T   001.0                                4796497
LFF   002.56 038.7 m E Sn      2011/12/09 01:32:40.9  -0.1                          T               11.4  .30 Ml 2.7         4798127
MTLF  002.76 080.9 m E Pn      2011/12/09 01:32:14.1   0.3                          T   001.0                                4796509
MTLF  002.76 080.9 m E P       2011/12/09 01:32:16.5  -0.1                          T                                        4798125
MTLF  002.76 080.9 m E Pg      2011/12/09 01:32:21.5  -0.1                          T                                        4799661
MTLF  002.76 080.9 m E Sn      2011/12/09 01:32:45.6  -0.1                          T   001.0                                4796510
MTLF  002.76 080.9 m E Sg      2011/12/09 01:32:56.6  -0.5                          T   001.0        9.9  .36 Ml 2.8         4796511
CAF   003.25 051.6 m E Pn      2011/12/09 01:32:19.9  -0.6                          T   001.0                                4796492
CAF   003.25 051.6 m E P       2011/12/09 01:32:22.1  -1.4                          T                                        4798113
CAF   003.25 051.6 m E Sn      2011/12/09 01:32:57.8   0.4                          T               23.9  .26 Ml 3.4         4798128
RJF   003.20 042.0 m E Pn      2011/12/09 01:32:20.0   0.2                          T   001.0                                4796486
RJF   003.20 042.0 m E P       2011/12/09 01:32:21.2  -1.6                          T                                        4798112
RJF   003.20 042.0 m E Sn      2011/12/09 01:32:56.6   0.3                          T   001.0       12.7  .28 Ml 2.8         4796487
RJF   003.20 042.0 m E Sg      2011/12/09 01:33:11.1   0.2                          T   001.0       12.6  .36 Ml 2.7         4796488
MFF   003.77 014.5 m E Pn      2011/12/09 01:32:27.6   0.0                          T   001.0                                4796499
MFF   003.77 014.5 m E Sn      2011/12/09 01:33:10.1   0.2                          T   001.0        2.0  .19 Ml 2.8         4796500
LASF  004.06 072.3 m E Pn      2011/12/09 01:32:31.8   0.2                          T   001.0                                4796495
LASF  004.06 072.3 m E P       2011/12/09 01:32:34.9  -0.3                          T                                        4798124
LASF  004.06 072.3 m E Pg      2011/12/09 01:32:45.5  -0.1                          T                                        4799660
LASF  004.06 072.3 m E Sn      2011/12/09 01:33:17.0   0.1                          T   001.0        4.2  .26 Ml 2.9         4796496
TCF   004.26 037.4 m E Pn      2011/12/09 01:32:34.0   0.7                          T   001.0                                4796505
TCF   004.26 037.4 m E Sn      2011/12/09 01:33:21.6   0.0                          T   001.0        3.5  .27 Ml 2.9         4796506
BGF   004.75 039.3 m E Pn      2011/12/09 01:32:41.3   0.4                          T   001.0                                4796491
BGF   004.75 039.3 m E Sn      2011/12/09 01:33:33.1  -0.2                          T                 10  .30 Ml 3.3         4798126
VIVF  004.86 064.9 m E Pn      2011/12/09 01:32:42.8   0.4                          T   001.0                                4796517
VIVF  004.86 064.9 m E P       2011/12/09 01:32:45.1  -1.3                          T                                        4798115
VIVF  004.86 064.9 m E Sn      2011/12/09 01:33:35.1  -0.7                          T   001.0        5.0  .41 Ml 2.9         4796518
QUIF  005.09 347.4 m E Pn      2011/12/09 01:32:45.2  -0.3                          T   001.0                                4796512
QUIF  005.09 347.4 m E Sn      2011/12/09 01:33:40.7  -0.7                          T   001.0       17.6  .88 Ml 3.2         4796513
AVF   005.16 040.4 m E Pn      2011/12/09 01:32:46.0  -0.5                          T   001.0                                4796489
SMF   005.30 044.1 m E Pn      2011/12/09 01:32:48.6   0.2                          T   001.0                                4796501
SMRF  005.26 076.5 m E Pn      2011/12/09 01:32:49.0   1.1                          T   001.0                                4796519
SMRF  005.26 076.5 m E P       2011/12/09 01:32:52.1   0.0                          T                                        4798133
SSF   005.43 039.2 m E Pn      2011/12/09 01:32:49.6  -0.6                          T   001.0                                4796502
SSF   005.43 039.2 m E Sn      2011/12/09 01:33:51.2   1.7                          T   001.0        2.5  .26 Ml 3.0         4796503
SSF   005.43 039.2 m E Sg      2011/12/09 01:34:20.9   0.5                          T   001.0        3.8  .44 Ml 3.0         4796504
GRR   005.45 004.6 m E Pn      2011/12/09 01:32:50.3  -0.1                          T                                        4798121
ROSF  005.51 347.7 m E Pn      2011/12/09 01:32:50.8  -0.5                          T   001.0                                4796514
ROSF  005.51 347.7 m E Sn      2011/12/09 01:33:51.8   0.2                          T   001.0       20.1  .96 Ml 3.3         4796515
ORIF  005.69 067.4 m E Pn      2011/12/09 01:32:53.0  -0.8                          T                                        4798116
ORIF  005.69 067.4 m E P       2011/12/09 01:32:57.5  -0.7                          T                                        4798130
LOR   005.74 039.6 m E Pn      2011/12/09 01:32:55.2   0.7 217.2  -6.2              T                                        4798123
LOR   005.74 039.6 m E Sn      2011/12/09 01:33:57.2   0.1                          T   001.0        1.8  .29 Ml 2.8         4796498
LPL   006.45 063.9 m E P       2011/12/09 01:33:09.1  -0.1                          T                                        4798131
LPG   006.46 064.1 m E P       2011/12/09 01:33:09.3   0.0                          T                                        4798132

.
EVENT     267225
    Date      Time       Latitude Longitude    Depth    Ndef Nsta Gap    Mag1  N    Mag2  N    Mag3  N   Author         ID
       rms   OT_Error      Smajor Sminor Az        Err   mdist  Mdist     Err        Err        Err      Quality

2011/12/09 01:33:47.8     42.9404   -1.5305      2.0      20    3 090  Ml 1.8  1  Md 1.6  2              js067245    267245

      0.48   +-  0.12       2.3    2.1   18.78 +-  0.0    0.17   1.45   +-         +-0.0                 m i ke

PYRENEES
Sta     Dist  EvAz     Phase      Date       Time     TRes  Azim  AzRes  Slow  SRes Def   SNR       Amp   Per   Mag1   Mag2       ID
SJPF  000.28 052.3 m E Pg      2011/12/09 01:33:53.2  -0.1                          T                                        4798140
SJPF  000.28 052.3 m E Sg      2011/12/09 01:33:57.5   0.3                          T                8.1  .26        Md 1.6  4798139
ETSF  000.71 093.0 m E Pg      2011/12/09 01:34:00.7  -0.7                          T                                        4798138
ETSF  000.71 093.0 m E Sg      2011/12/09 01:34:11.9   1.2                          T                1.8  .19        Md 1.5  4798137
EPF   001.38 085.6 m E Pg      2011/12/09 01:34:13.2  -0.4                          T                                        4798135
EPF   001.38 085.6 m E Sg      2011/12/09 01:34:33.2   1.9                          T                1.8  .30 Ml 1.8         4798136

.
EVENT     267226
    Date      Time       Latitude Longitude    Depth    Ndef Nsta Gap    Mag1  N    Mag2  N    Mag3  N   Author         ID
       rms   OT_Error      Smajor Sminor Az        Err   mdist  Mdist     Err        Err        Err      Quality

2011/12/09 03:53:51.8     42.9494   -1.5498      2.0      20    3 094  Ml 1.9  1  Md 2.1  3              js067245    267246

      0.44   +-  0.13       2.2    2.2   63.77 +-  0.0    0.18   1.47   +-         +-0.1                 m i ke

PYRENEES
Sta     Dist  EvAz     Phase      Date       Time     TRes  Azim  AzRes  Slow  SRes Def   SNR       Amp   Per   Mag1   Mag2       ID
SJPF  000.29 055.4 m E Pg      2011/12/09 03:53:57.4  -0.1                          T                                        4798146
SJPF  000.29 055.4 m E Sg      2011/12/09 03:54:01.4   0.0                          T                7.0  .21        Md 2.0  4798145
ETSF  000.73 093.7 m E Pg      2011/12/09 03:54:05.2  -0.5                          T                                        4798144
ETSF  000.73 093.7 m E Sg      2011/12/09 03:54:15.9   0.7                          T                1.9  .22        Md 2.1  4798143
EPF   001.39 086.0 m E Pg      2011/12/09 03:54:17.6  -0.2                          T                                        4798142
EPF   001.39 086.0 m E Sg      2011/12/09 03:54:37.4   1.6                          T                2.3  .29 Ml 1.9 Md 2.1  4798141

.
EVENT     267224
    Date      Time       Latitude Longitude    Depth    Ndef Nsta Gap    Mag1  N    Mag2  N    Mag3  N   Author         ID
       rms   OT_Error      Smajor Sminor Az        Err   mdist  Mdist     Err        Err        Err      Quality

2011/12/09 04:32:26.4     44.9842    8.7880     17.0 f   117   33 048  Ml 3.0 25  Md 3.1  2              js067245    267244

      0.84   +-  0.08       1.9    1.5   90.22 +-  0.0    0.47   8.47   +-0.3      +-0.0                 m i ke

NORTHERN ITALY
Sta     Dist  EvAz     Phase      Date       Time     TRes  Azim  AzRes  Slow  SRes Def   SNR       Amp   Per   Mag1   Mag2       ID
MBDF  001.46 260.5 m E Pn      2011/12/09 04:32:50.2  -0.4                          T   001.0                                4796861
MBDF  001.46 260.5 m E Sn      2011/12/09 04:33:08.3   0.2                          T               57.1  .32 Ml 3.3 Md 3.1  4799806
LPG   001.53 290.4 m E Pn      2011/12/09 04:32:51.1  -0.5                          T   001.0                                4796843
LPG   001.53 290.4 m E Sn      2011/12/09 04:33:09.5  -0.4                          T               43.3  .32 Ml 3.2         4799803
LPL   001.55 290.9 m E Pn      2011/12/09 04:32:51.4  -0.4                          T   001.0                                4796844
LPL   001.55 290.9 m E Pg      2011/12/09 04:32:55.8   0.2                          T                                        4798148
LPL   001.55 290.9 m E Sn      2011/12/09 04:33:10.8   0.6                          T   001.0       47.9  .36 Ml 3.2         4796845
SBF   001.48 221.3 m E Pn      2011/12/09 04:32:51.5   0.8                          T   001.0                                4796848
SBF   001.48 221.3 m E Sn      2011/12/09 04:33:08.7   0.2                          T   001.0                                4796849
SBF   001.48 221.3 m E Sg      2011/12/09 04:33:13.5   0.1                          T   001.0      138.7  .26 Ml 3.8 Md 3.1  4796850
FRF   002.10 228.0 m E Pn      2011/12/09 04:33:00.1   1.1                          T   001.0                                4796833
FRF   002.10 228.0 m E Sn      2011/12/09 04:33:22.5  -0.5                          T   001.0       38.1  .32 Ml 3.3         4796834
FRF   002.10 228.0 m E Sg      2011/12/09 04:33:31.7  -0.7                          T                                        4798151
ORIF  002.07 269.2 m E P       2011/12/09 04:33:00.6  -0.6                          T                                        4799804
ORIF  002.07 269.2 m E Sn      2011/12/09 04:33:22.4  -0.1                          T   001.0       23.8  .28 Ml 3.1         4796865
ORIF  002.07 269.2 m E Sg      2011/12/09 04:33:31.6  -0.1                          T               29.5  .33 Ml 3.2         4799805
LMR   002.33 225.6 m E Pn      2011/12/09 04:33:02.4   0.2                          T   001.0                                4796839
LMR   002.33 225.6 m E Pg      2011/12/09 04:33:09.1  -0.5                          T                                        4799798
LMR   002.33 225.6 m E Sn      2011/12/09 04:33:28.4  -0.2                          T                                        4799799
LMR   002.33 225.6 m E Sg      2011/12/09 04:33:39.6   0.0                          T                                        4798150
PGF   002.44 176.3 m E Pn      2011/12/09 04:33:03.6  -0.2                          T   001.0                                4796847
PGF   002.44 176.3 m E P       2011/12/09 04:33:06.1  -0.4                          T                                        4798149
PGF   002.44 176.3 m E Sn      2011/12/09 04:33:30.7  -0.8                          T               14.0  .26 Ml 3.3         4798152
CABF  002.49 311.7 m E Pn      2011/12/09 04:33:06.0   1.4                          T   001.0                                4796856
CABF  002.49 311.7 m E Pg      2011/12/09 04:33:13.0   0.2                          T   001.0                                4796857
CABF  002.49 311.7 m E Sn      2011/12/09 04:33:33.1   0.4                          T   001.0        9.5  .40 Ml 2.7         4796858
SMRF  002.51 247.5 m E P       2011/12/09 04:33:07.0  -0.4                          T                                        4799800
SMRF  002.51 247.5 m E Pg      2011/12/09 04:33:13.0  -0.1                          T                                        4799801
SMRF  002.51 247.5 m E Sn      2011/12/09 04:33:32.8  -0.2                          T                                        4799802
SMRF  002.51 247.5 m E Sg      2011/12/09 04:33:45.3  -0.1                          T   001.0       10.6  .29 Ml 2.9         4796870
VIVF  002.93 268.9 m E Pn      2011/12/09 04:33:11.2   0.8                          T   001.0                                4796867
VIVF  002.93 268.9 m E Sn      2011/12/09 04:33:42.7  -0.3                          T   001.0        3.7  .20 Ml 2.7         4796868
HINF  003.13 335.4 m E Pn      2011/12/09 04:33:13.7   0.5                          T   001.0                                4796859
HINF  003.13 335.4 m E Sn      2011/12/09 04:33:47.4  -0.5                          T   001.0        6.0  .28 Ml 2.8         4796860
HAU   003.46 331.7 m E Pn      2011/12/09 04:33:19.0   1.3                          T   001.0                                4796835
HAU   003.46 331.7 m E P       2011/12/09 04:33:21.0   0.0                          T                                        4798147
HAU   003.46 331.7 m E Sn      2011/12/09 04:33:55.6  -0.1                          T   001.0       12.2  .24 Ml 3.0         4796836
CDF   003.58 343.7 m E Pn      2011/12/09 04:33:19.6   0.2                          T   001.0                                4796831
CDF   003.58 343.7 m E Sn      2011/12/09 04:33:58.5  -0.3                          T   001.0        6.6  .33 Ml 3.0         4796832
LASF  003.64 257.3 m E Pn      2011/12/09 04:33:20.0  -0.1                          T   001.0                                4796837
LASF  003.64 257.3 m E Sn      2011/12/09 04:33:59.9  -0.1                          T                2.9  .24 Ml 2.7         4799807
THEF  003.77 330.3 m E Pn      2011/12/09 04:33:22.8   0.9                          T                                        4798155
SMF   003.84 297.4 m E Pn      2011/12/09 04:33:23.5   0.8                          T   001.0                                4796851
LANF  004.05 350.8 m E Pn      2011/12/09 04:33:26.3   0.6                          T                                        4799811
PAGF  004.15 330.6 m E Pn      2011/12/09 04:33:27.4   0.5 142.7  -5.6              T                                        4799810
LOR   004.12 305.4 m E Pn      2011/12/09 04:33:27.5   0.9 133.4  11.5              T   001.0                                4796840
LOR   004.12 305.4 m E Sn      2011/12/09 04:34:11.2  -0.3                          T   001.0        5.4  .24 Ml 3.0         4796841
LOR   004.12 305.4 m E Sg      2011/12/09 04:34:35.1  -0.4 133.9  12.0              T   001.0        3.3  .22 Ml 2.9         4796842
SFTF  004.13 322.6 m E Pn      2011/12/09 04:33:27.9   1.2 142.9  3.0               T                                        4799809
AVF   004.20 297.4 m E Pn      2011/12/09 04:33:28.5   0.8                          T   001.0                                4796826
AVF   004.20 297.4 m E Sn      2011/12/09 04:34:12.8  -0.6                          T   001.0        1.4  .24 Ml 2.5         4796827
SSF   004.23 301.3 m E Pn      2011/12/09 04:33:28.7   0.7                          T   001.0                                4796852
SSF   004.23 301.3 m E Sn      2011/12/09 04:34:14.0   0.0                          T   001.0        1.9  .25 Ml 2.7         4796853
BGF   004.45 292.8 m E Pn      2011/12/09 04:33:32.1   1.0                          T   001.0                                4796828
BGF   004.45 292.8 m E Sn      2011/12/09 04:34:19.4   0.1                          T   001.0        7.1  .31 Ml 3.1         4796829
CAF   004.77 271.7 m E Pn      2011/12/09 04:33:36.6   1.0                          T   001.0                                4796830
TCF   004.79 288.1 m E Pn      2011/12/09 04:33:36.7   0.9                          T   001.0                                4796854
TCF   004.79 288.1 m E Sn      2011/12/09 04:34:27.8   0.2                          T   001.0        2.4  .24 Ml 2.9         4796855
MTLF  005.00 253.1 m E Pn      2011/12/09 04:33:39.0   0.4                          T   001.0                                4796862
MTLF  005.00 253.1 m E Sn      2011/12/09 04:34:32.8   0.2                          T   001.0        2.4  .64 Ml 2.4         4796863
RUP   004.86 346.7 m E P       2011/12/09 04:33:39.1  -1.8                          T                                        4799812
RJF   005.15 276.1 m E Pn      2011/12/09 04:33:42.3   1.6                          T                                        4798153
GIVF  005.78 333.8 m E Pn      2011/12/09 04:33:49.6   0.4                          T                                        4799813
MFF   006.45 287.7 m E Pn      2011/12/09 04:34:00.1   1.8                          T   001.0                                4796846
LDF   007.10 303.7 m E Pn      2011/12/09 04:34:09.7   2.5                          T   001.0                                4796838
SGMF  008.47 296.7 m E Pn      2011/12/09 04:34:27.7   2.0                          T   001.0                                4796866

.
