EVENT     281936
    Date      Time       Latitude Longitude    Depth    Ndef Nsta Gap    Mag1  N    Mag2  N    Mag3  N   Author         ID
       rms   OT_Error      Smajor Sminor Az        Err   mdist  Mdist     Err        Err        Err      Quality

2012/08/24 19:53:37.2     44.9146   11.2023     10.0 f    55   21 106  Ml 2.6 16                         bulletin    282036
                                                                                                         _ldg
      0.57   +-  0.13       3.1    2.4   75.54 +-  0.0    0.24   6.75   +-0.3                            m i ke

NORTHERN ITALY
Sta     Dist  EvAz     Phase      Date       Time     TRes  Azim  AzRes  Slow  SRes Def   SNR       Amp   Per   Mag1   Mag2       ID
PGF   002.85 214.8 m E Pn      2012/08/24 19:54:21.8   0.7                          T                                        5053135
PGF   002.85 214.8 m E Sn      2012/08/24 19:54:51.7  -1.7                          T                1.3  .19 Ml 2.5         5053117
SBF   002.90 250.1 m E Pn      2012/08/24 19:54:23.6   1.9                          T                                        5053134
SBF   002.90 250.1 m E Sn      2012/08/24 19:54:53.8  -0.7                          T                3.0  .19 Ml 2.6         5053116
MBDF  003.16 268.2 m E Pn      2012/08/24 19:54:25.1  -0.3                          T                                        5053127
MBDF  003.16 268.2 m E Sn      2012/08/24 19:55:00.3  -0.6                          T                2.0  .27 Ml 2.3         5053111
LPG   003.20 282.1 m E Pn      2012/08/24 19:54:25.9  -0.1                          T                                        5053130
LPL   003.22 282.4 m E Pn      2012/08/24 19:54:26.1  -0.2                          T                                        5053129
LPL   003.22 282.4 m E Sn      2012/08/24 19:55:02.1  -0.2                          T                1.2  .23 Ml 2.2         5053113
FRF   003.54 249.1 m E Pn      2012/08/24 19:54:31.9   1.5                          T                                        5053132
FRF   003.54 249.1 m E Sn      2012/08/24 19:55:09.1  -0.7                          T                1.3  .24 Ml 2.3         5053114
LMR   003.73 246.6 m E Pn      2012/08/24 19:54:32.6  -0.3                          T                                        5053133
LMR   003.73 246.6 m E Sn      2012/08/24 19:55:13.6  -0.7                          T                1.1  .19 Ml 2.4         5053115
ORIF  003.78 271.9 m E Pn      2012/08/24 19:54:33.5  -0.2                          T                                        5053128
ORIF  003.78 271.9 m E Sn      2012/08/24 19:55:15.4  -0.2                          T                 .5  .19 Ml 2.0         5053112
CABF  003.96 297.2 m E Pn      2012/08/24 19:54:36.4   0.2                          T                                        5053122
HINF  004.18 315.5 m E Pn      2012/08/24 19:54:39.1   0.0                          T                                        5053121
HINF  004.18 315.5 m E Sn      2012/08/24 19:55:24.9  -0.2                          T                1.9  .21 Ml 2.7         5053109
SMRF  004.14 258.9 m E Pn      2012/08/24 19:54:39.8   1.3                          T                                        5053131
CDF   004.42 323.7 m E Pn      2012/08/24 19:54:42.5   0.0                          T                                        5053119
CDF   004.42 323.7 m E Sn      2012/08/24 19:55:30.7  -0.2                          T                2.0  .19 Ml 2.9         5053105
HAU   004.56 314.4 m E Pn      2012/08/24 19:54:44.3   0.0                          T                                        5053120
HAU   004.56 314.4 m E Sn      2012/08/24 19:55:34.0  -0.2                          T                3.4  .19 Ml 2.8         5053108
VIVF  004.64 271.6 m E Pn      2012/08/24 19:54:45.5   0.1                          T                                        5053126
VIVF  004.64 271.6 m E Sn      2012/08/24 19:55:36.0  -0.1                          T                 .6  .21 Ml 2.2         5053102
SMF   005.43 291.2 m E Pn      2012/08/24 19:54:56.0  -0.1                          T                                        5053124
LOR   005.62 297.3 m E Pn      2012/08/24 19:54:58.7  -0.1                          T                                        5053118
LOR   005.62 297.3 m E Sn      2012/08/24 19:55:59.3  -0.3                          T                1.4  .22 Ml 2.8         5053103
AVF   005.80 291.7 m E Pn      2012/08/24 19:55:01.0  -0.1                          T                                        5053123
BGF   006.08 288.6 m E Pn      2012/08/24 19:55:04.8  -0.1                          T                                        5053125
BGF   006.08 288.6 m E Sn      2012/08/24 19:56:10.5   0.2                          T                 .8  .21 Ml 2.7         5053110
SFTF  005.38 309.9 m E Sn      2012/08/24 19:55:53.7   0.1                          T                 .9  .19 Ml 2.6         5053107
MEZF  005.55 312.5 m E Sn      2012/08/24 19:55:57.4  -0.3                          T                1.3  .21 Ml 2.8         5053106
GIVF  006.75 322.5 m E Sn      2012/08/24 19:56:26.2  -0.3                          T                1.5  .21 Ml 3.1         5053104

.
EVENT     281937
    Date      Time       Latitude Longitude    Depth    Ndef Nsta Gap    Mag1  N    Mag2  N    Mag3  N   Author         ID
       rms   OT_Error      Smajor Sminor Az        Err   mdist  Mdist     Err        Err        Err      Quality

2012/08/24 21:44:29.6     44.8839   11.5057      2.0      46   13 168  Ml 2.9 13                         bulletin    282037
                                                                                                         _ldg
      1.51   +-  0.47      10.8    6.1  105.23 +-  0.0    0.24   5.73   +-0.3                            m i ke

NORTHERN ITALY
Sta     Dist  EvAz     Phase      Date       Time     TRes  Azim  AzRes  Slow  SRes Def   SNR       Amp   Per   Mag1   Mag2       ID
PGF   002.96 218.8 m E Pn      2012/08/24 21:45:16.8   1.0                          T                                        5053149
PGF   002.96 218.8 m E Sn      2012/08/24 21:45:51.0   1.2                          T               19.0  .80 Ml 3.0         5053148
SBF   003.09 252.2 m E Pn      2012/08/24 21:45:18.8   1.3                          T                                        5053145
SBF   003.09 252.2 m E Sn      2012/08/24 21:45:55.5   2.6                          T               29.9  .56 Ml 3.2         5053144
MBDF  003.37 269.0 m E Pn      2012/08/24 21:45:23.1   1.6                          T                                        5053137
MBDF  003.37 269.0 m E Sn      2012/08/24 21:46:02.9   3.2                          T                5.0  .50 Ml 2.5         5053136
LPG   003.42 282.0 m E Pn      2012/08/24 21:45:24.9   2.6                          T                                        5053155
LPG   003.42 282.0 m E Sn      2012/08/24 21:46:04.6   3.6                          T                3.4  .42 Ml 2.4         5053154
LPL   003.43 282.3 m E Pn      2012/08/24 21:45:25.0   2.7                          T                                        5053153
LPL   003.43 282.3 m E Sn      2012/08/24 21:46:04.1   2.8                          T                4.5  .40 Ml 2.6         5053152
FRF   003.73 251.0 m E Pn      2012/08/24 21:45:26.2   0.0                          T                                        5053143
FRF   003.73 251.0 m E Sn      2012/08/24 21:46:09.8   1.6                          T                9.7  .54 Ml 2.9         5053142
LMR   003.92 248.5 m E Pn      2012/08/24 21:45:28.7   0.0                          T                                        5053147
LMR   003.92 248.5 m E Sn      2012/08/24 21:46:13.1   0.6                          T               14.3  .76 Ml 2.9         5053146
ORIF  004.00 272.5 m E Pn      2012/08/24 21:45:31.6   1.7                          T                                        5053139
ORIF  004.00 272.5 m E Sn      2012/08/24 21:46:15.7   1.1                          T               29.4 1.38 Ml 3.0         5053138
CDF   004.58 322.0 m E Pn      2012/08/24 21:45:37.6  -0.2                          T                                        5053179
CDF   004.58 322.0 m E Sn      2012/08/24 21:46:28.6   0.3                          T                2.6  .48 Ml 2.6         5053178
HAU   004.74 313.0 m E Pn      2012/08/24 21:45:39.8  -0.1                          T                                        5053176
HAU   004.74 313.0 m E Sn      2012/08/24 21:46:32.3   0.1                          T                3.9  .34 Ml 2.6         5053175
VIVF  004.86 272.1 m E Pn      2012/08/24 21:45:42.8   1.2                          T                                        5053151
VIVF  004.86 272.1 m E Sn      2012/08/24 21:46:36.3   1.3                          T               96.5 2.48 Ml 3.4         5053150
SMF   005.64 290.9 m E Pn      2012/08/24 21:45:51.7  -0.5                          T                                        5053181
SMF   005.64 290.9 m E Sn      2012/08/24 21:46:52.9  -0.9                          T               20.7 1.30 Ml 3.2         5053180
MEZF  005.73 311.5 m E Pn      2012/08/24 21:45:52.0  -1.3                          T                                        5053177

.
EVENT     281993
    Date      Time       Latitude Longitude    Depth    Ndef Nsta Gap    Mag1  N    Mag2  N    Mag3  N   Author         ID
       rms   OT_Error      Smajor Sminor Az        Err   mdist  Mdist     Err        Err        Err      Quality

2012/08/24 22:51:45.9     42.3745    1.7807     10.0      20    4 076  Ml 1.2  4                         bulletin    282093
                                                                                                         _ldg
      0.27   +-  0.05       1.1     .8  166.80 +-  0.0    0.18   2.28   +-0.2                            m i ke

PYRENEES
Sta     Dist  EvAz     Phase      Date       Time     TRes  Azim  AzRes  Slow  SRes Def   SNR       Amp   Per   Mag1   Mag2       ID
MTLF  001.02 018.2 m E Pg      2012/08/24 22:52:04.9  -0.1                          T                                        5054843
MTLF  001.02 018.2 m E Sg      2012/08/24 22:52:18.7   0.4                          T                 .3  .16 Ml 1.0         5054842
EPF   001.25 302.2 m E Pn      2012/08/24 22:52:07.9   0.1                          T                                        5054841
EPF   001.25 302.2 m E Sn      2012/08/24 22:52:24.0   0.3                          T                 .3  .17 Ml 1.1         5054840
ETSF  001.80 287.7 m E Pn      2012/08/24 22:52:15.6   0.1                          T                                        5054839
ETSF  001.80 287.7 m E Sn      2012/08/24 22:52:37.1   0.2                          T                 .3  .20 Ml 1.3         5054838
LASF  002.28 041.0 m E Pn      2012/08/24 22:52:21.9   0.1                          T                                        5054837
LASF  002.28 041.0 m E Pg      2012/08/24 22:52:28.0  -0.2                          T                                        5054836
LASF  002.28 041.0 m E Sn      2012/08/24 22:52:48.2  -0.1                          T                 .2  .19 Ml 1.4         5054835

.
EVENT     281938
    Date      Time       Latitude Longitude    Depth    Ndef Nsta Gap    Mag1  N    Mag2  N    Mag3  N   Author         ID
       rms   OT_Error      Smajor Sminor Az        Err   mdist  Mdist     Err        Err        Err      Quality

2012/08/24 23:29:41.7     44.5539    7.2581     11.0 f    36    9 089  Ml 1.8  7  Md 1.9  2              bulletin    282038
                                                                                                         _ldg
      0.32   +-  0.05       1.3     .8   51.20 +-  0.0    0.05   1.87   +-0.3      +-0.1                 m i ke

NORTHERN ITALY
Sta     Dist  EvAz     Phase      Date       Time     TRes  Azim  AzRes  Slow  SRes Def   SNR       Amp   Per   Mag1   Mag2       ID
MBDF  000.39 296.6 m E Pg      2012/08/24 23:29:49.7   0.1                          T                                        5053197
MBDF  000.39 296.6 m E Sg      2012/08/24 23:29:54.6  -0.3                          T               22.9  .28        Md 2.0  5053196
SBF   000.70 169.5 m E Pg      2012/08/24 23:29:55.8   0.6                          T                                        5053190
SBF   000.70 169.5 m E Sg      2012/08/24 23:30:04.3  -0.2                          T                3.0  .25        Md 1.8  5053189
LPG   001.01 339.3 m E Pg      2012/08/24 23:30:01.1   0.1                          T                                        5053192
LPG   001.01 339.3 m E Sg      2012/08/24 23:30:13.7  -0.6                          T                3.5  .58 Ml 1.6         5053183
ORIF  001.05 290.8 m E Pg      2012/08/24 23:30:01.7   0.2                          T                                        5053195
ORIF  001.05 290.8 m E Sg      2012/08/24 23:30:15.1  -0.1                          T                2.2  .24 Ml 1.8         5053194
LPL   001.03 339.0 m E Pg      2012/08/24 23:30:02.1   0.7                          T                                        5053193
LPL   001.03 339.0 m E Sg      2012/08/24 23:30:14.9   0.0                          T                2.0  .26 Ml 1.7         5053182
FRF   001.09 204.1 m E Pg      2012/08/24 23:30:02.7   0.6                          T                                        5053191
FRF   001.09 204.1 m E Sg      2012/08/24 23:30:16.3   0.1                          T                3.1  .20 Ml 2.1         5053186
LMR   001.33 204.2 m E Pn      2012/08/24 23:30:06.8   2.2                          T                                        5053188
LMR   001.33 204.2 m E Sg      2012/08/24 23:30:23.6  -0.4                          T                2.0  .18 Ml 2.0         5053187
SMRF  001.34 245.0 m E Pn      2012/08/24 23:30:08.0   3.2                          T                                        5053185
SMRF  001.34 245.0 m E Sg      2012/08/24 23:30:24.3   0.2                          T                3.4  .29 Ml 2.0         5053184
VIVF  001.87 280.2 m E Pg      2012/08/24 23:30:16.6   0.1                          T                                        5058680
VIVF  001.87 280.2 m E Sg      2012/08/24 23:30:40.5  -0.1                          T                 .4  .25 Ml 1.4         5058681

.
EVENT     281995
    Date      Time       Latitude Longitude    Depth    Ndef Nsta Gap    Mag1  N    Mag2  N    Mag3  N   Author         ID
       rms   OT_Error      Smajor Sminor Az        Err   mdist  Mdist     Err        Err        Err      Quality

2012/08/25 00:07:41.8     42.8336    -.0432      2.0       5    3 224  Ml 1.1  1  Md 1.1  2              bulletin    282095
                                                                                                         _ldg
      0.10   +-  0.23      10.2    1.1  168.48 +-  0.0    0.34   0.91   +-         +-0.2                 m i ke

PYRENEES
Sta     Dist  EvAz     Phase      Date       Time     TRes  Azim  AzRes  Slow  SRes Def   SNR       Amp   Per   Mag1   Mag2       ID
EPF   000.34 054.9 m E Pg      2012/08/25 00:07:48.6   0.1                          T                                        5055664
EPF   000.34 054.9 m E Sg      2012/08/25 00:07:53.0  -0.1                          T                1.7  .20        Md 1.2  5055661
ETSF  000.38 279.9 m E Pg      2012/08/25 00:07:49.2  -0.1                          T                                        5055663
ETSF  000.38 279.9 m E Sg      2012/08/25 00:07:54.6   0.2                          T                2.8  .20        Md 1.0  5055662
SJPF  000.91 288.3 m E Sn      2012/08/25 00:08:12.9  -0.1                          T                 .4  .18 Ml 1.1         5055660

.
EVENT     281996
    Date      Time       Latitude Longitude    Depth    Ndef Nsta Gap    Mag1  N    Mag2  N    Mag3  N   Author         ID
       rms   OT_Error      Smajor Sminor Az        Err   mdist  Mdist     Err        Err        Err      Quality

2012/08/25 03:10:42.2     45.9508    7.9626      8.0 f    35    8 182  Ml 1.5  9  Md 1.7  2              bulletin    282096
                                                                                                         _ldg
      0.21   +-  0.07       1.5     .8  105.92 +-  0.0    0.10   3.46   +-0.3      +-0.1                 m i ke

NORTHERN ITALY
Sta     Dist  EvAz     Phase      Date       Time     TRes  Azim  AzRes  Slow  SRes Def   SNR       Amp   Per   Mag1   Mag2       ID
LPG   000.96 242.3 m E Pg      2012/08/25 03:11:00.5  -0.1                          T                                        5054769
LPG   000.96 242.3 m E Sg      2012/08/25 03:11:13.0  -0.2                          T                2.1  .30 Ml 1.6 Md 1.6  5054768
LPL   000.96 243.7 m E Pg      2012/08/25 03:11:00.8   0.2                          T                                        5054767
LPL   000.96 243.7 m E Sg      2012/08/25 03:11:13.1   0.0                          T                1.0  .24 Ml 1.4 Md 1.7  5054766
CABF  001.46 297.6 m E Pn      2012/08/25 03:11:07.3   0.0                          T                                        5054757
CABF  001.46 297.6 m E Sn      2012/08/25 03:11:25.4   0.0                          T                 .7  .30 Ml 1.4         5054756
MBDF  001.48 214.9 m E Pn      2012/08/25 03:11:08.0   0.3                          T                                        5054763
MBDF  001.48 214.9 m E Pg      2012/08/25 03:11:10.0  -0.1                          T                                        5054762
MBDF  001.48 214.9 m E Sn      2012/08/25 03:11:26.6   0.5                          T                                        5054761
MBDF  001.48 214.9 m E Sg      2012/08/25 03:11:29.1  -0.1                          T                 .7  .25 Ml 1.5         5054760
ORIF  001.79 235.6 m E Pn      2012/08/25 03:11:12.2   0.4                          T                                        5054765
ORIF  001.79 235.6 m E Sn      2012/08/25 03:11:33.6   0.2                          T                 .2  .17 Ml 1.2         5054764
SBF   002.12 190.4 m E Pn      2012/08/25 03:11:16.4   0.1                          T                                        5054755
SBF   002.12 190.4 m E Sn      2012/08/25 03:11:41.5   0.2                          T                 .5  .26 Ml 1.5         5054754
VIVF  002.56 245.9 m E Pn      2012/08/25 03:11:22.3   0.0                          T                                        5055698
VIVF  002.56 245.9 m E Sn      2012/08/25 03:11:52.1   0.4                          T                 .3  .22 Ml 1.4         5055697
LASF  003.46 238.7 m E Pn      2012/08/25 03:11:34.7   0.2                          T                                        5054759
LASF  003.46 238.7 m E Sn      2012/08/25 03:12:13.3   0.1                          T                1.3  .30 Ml 2.1         5054758

.
