EVENT     259213
    Date      Time       Latitude Longitude    Depth    Ndef Nsta Gap    Mag1  N    Mag2  N    Mag3  N   Author         ID
       rms   OT_Error      Smajor Sminor Az        Err   mdist  Mdist     Err        Err        Err      Quality

2011/05/11 15:05:14.2     37.6351   -1.6647     10.0 f   151   41 083  Ml 4.5 47  Md 4.5  3              bulletin    259213
                                                                                                         _ldg
      0.76   +-  0.10       2.4    1.2  143.29 +-  0.0    0.39  13.30   +-0.4      +-0.2                 m i ke

SPAIN
Sta     Dist  EvAz     Phase      Date       Time     TRes  Azim  AzRes  Slow  SRes Def   SNR       Amp   Per   Mag1   Mag2       ID
ETSF  005.33 008.8 m E Pn      2011/05/11 15:06:32.3   0.5                          T                                        4689641
ETSF  005.33 008.8 m E Pg      2011/05/11 15:06:54.9   2.1                          T                                        4689635
ETSF  005.33 008.8 m E Sg      2011/05/11 15:08:02.1   1.0                          T             1073.0 1.38 Ml 4.8         4689632
SJPF  005.48 003.4 m E Pn      2011/05/11 15:06:34.4   0.5                          T                                        4689642
SJPF  005.48 003.4 m E Pg      2011/05/11 15:06:55.2  -0.5                          T                                        4689636
SJPF  005.48 003.4 m E Sg      2011/05/11 15:08:06.4   0.4                          T              882.9 1.24 Ml 4.8 Md 4.6  4689633
EPF   005.60 015.2 m E Pn      2011/05/11 15:06:36.2   0.7                          T                                        4689640
EPF   005.60 015.2 m E Pg      2011/05/11 15:06:59.5   1.7                          T                                        4689634
EPF   005.60 015.2 m E Sg      2011/05/11 15:08:10.7   1.0                          T              364.8  .94 Ml 4.6 Md 4.3  4689631
MTLF  006.42 026.2 m E Pn      2011/05/11 15:06:46.5  -0.1                          T                                        4689639
MTLF  006.42 026.2 m E Sg      2011/05/11 15:08:36.4   1.2                          T              353.5 1.40 Ml 4.6         4689630
LFF   007.52 013.2 m E Pn      2011/05/11 15:07:01.6   0.1                          T                                        4689611
LFF   007.52 013.2 m E Sg      2011/05/11 15:09:09.8   0.3                          T              218.6 1.13 Ml 4.5         4689575
LASF  007.67 031.3 m E Pn      2011/05/11 15:07:03.5  -0.2                          T                                        4689638
LASF  007.67 031.3 m E Sg      2011/05/11 15:09:14.4   0.1                          T              107.3 1.20 Ml 4.3         4689573
CAF   007.81 019.9 m E Pn      2011/05/11 15:07:04.8  -0.6                          T                                        4689637
CAF   007.81 019.9 m E Sg      2011/05/11 15:09:18.9   0.4                          T              168.2 1.12 Ml 4.6         4689574
RJF   008.03 016.3 m E Pn      2011/05/11 15:07:08.2  -0.3                          T                                        4689612
RJF   008.03 016.3 m E Sg      2011/05/11 15:09:25.3   0.0                          T              206.1 1.27 Ml 4.3         4689576
SMRF  008.38 038.6 m E Pn      2011/05/11 15:07:13.1  -0.3                          T                                        4689605
SMRF  008.38 038.6 m E Sg      2011/05/11 15:09:36.2  -0.2                          T              114.6 1.42 Ml 4.4         4689567
LMR   008.43 045.0 m E Pn      2011/05/11 15:07:13.7  -0.3                          T                                        4689603
LMR   008.43 045.0 m E Sn      2011/05/11 15:08:43.7   0.0                          T                9.7  .50 Ml 3.8         4689565
FRF   008.66 044.3 m E Pn      2011/05/11 15:07:16.7  -0.3                          T                                        4689604
FRF   008.66 044.3 m E Sn      2011/05/11 15:08:48.9  -0.1                          T                8.0  .55 Ml 3.7         4689566
VIVF  008.65 031.5 m E Pn      2011/05/11 15:07:16.8  -0.2                          T                                        4689610
VIVF  008.65 031.5 m E Sg      2011/05/11 15:09:44.7  -0.1                          T              261.1 1.64 Ml 4.7         4689572
MFF   009.03 006.7 m E Pn      2011/05/11 15:07:22.1   0.0                          T                                        4689613
MFF   009.03 006.7 m E Sg      2011/05/11 15:09:57.2   0.6                          T               98.3 1.22 Ml 4.6         4689577
TCF   009.11 017.2 m E Pn      2011/05/11 15:07:23.1  -0.2                          T                                        4689627
TCF   009.11 017.2 m E Sg      2011/05/11 15:09:59.8   0.6                          T              361.1 1.76 Ml 4.9 Md 4.6  4689598
ORIF  009.23 035.6 m E Pn      2011/05/11 15:07:24.6  -0.3                          T                                        4689608
ORIF  009.23 035.6 m E Sg      2011/05/11 15:10:02.7  -0.2                          T              154.6 1.84 Ml 4.5         4689570
SBF   009.29 045.1 m E Pn      2011/05/11 15:07:25.6  -0.1                          T                                        4689602
SBF   009.29 045.1 m E Sn      2011/05/11 15:09:04.2  -0.1                          T               10.4  .72 Ml 3.8         4689564
BGF   009.52 019.2 m E Pn      2011/05/11 15:07:28.3  -0.6                          T                                        4689621
BGF   009.52 019.2 m E Sg      2011/05/11 15:10:12.0   0.0                          T              286.1 1.48 Ml 4.9         4689585
MBDF  009.52 039.2 m E Pn      2011/05/11 15:07:28.6  -0.4                          T                                        4689609
MBDF  009.52 039.2 m E Sg      2011/05/11 15:10:11.9   0.0                          T                1.2  .23 Ml 3.3         4689571
PGF   009.53 055.7 m E Pn      2011/05/11 15:07:31.1   2.1                          T                                        4689601
PGF   009.53 055.7 m E Sn      2011/05/11 15:09:09.8  -0.2                          T                6.4  .51 Ml 4.0         4689563
AVF   009.87 020.5 m E Pn      2011/05/11 15:07:33.3  -0.3                          T                                        4689624
AVF   009.87 020.5 m E Sg      2011/05/11 15:10:23.1   0.2                          T              265.0 1.64 Ml 4.9         4689588
SMF   009.89 022.6 m E Pn      2011/05/11 15:07:33.5  -0.3                          T                                        4689623
SMF   009.89 022.6 m E Sg      2011/05/11 15:10:23.5   0.2                          T              371.4 1.98 Ml 5.0         4689587
LPG   010.07 036.1 m E Pn      2011/05/11 15:07:36.4  -0.3                          T                                        4689606
LPG   010.07 036.1 m E Sg      2011/05/11 15:10:29.7   0.4                          T               63.0 1.58 Ml 4.3         4689568
LPL   010.07 035.9 m E Pn      2011/05/11 15:07:36.4  -0.2                          T                                        4689607
LPL   010.07 035.9 m E Sg      2011/05/11 15:10:30.1   0.7                          T              123.7 1.90 Ml 4.5         4689569
HYF   010.14 016.9 m E Pn      2011/05/11 15:07:37.2   0.0                          T                                        4689622
HYF   010.14 016.9 m E Sg      2011/05/11 15:10:31.7   0.5                          T                                        4689586
SSF   010.16 020.4 m E Pn      2011/05/11 15:07:37.3  -0.2                          T                                        4689628
SSF   010.16 020.4 m E Sg      2011/05/11 15:10:32.3   0.3                          T              288.8 1.96 Ml 5.0         4689599
QUIF  010.33 354.4 m E Pn      2011/05/11 15:07:39.7  -0.2                          T                                        4689617
QUIF  010.33 354.4 m E Sn      2011/05/11 15:09:29.1   0.0                          T               22.1  .56 Ml 4.4         4689581
LOR   010.45 021.2 m E Pn      2011/05/11 15:07:41.3  -0.2 200.8  -4.1              T                                        4689629
LOR   010.45 021.2 m E Sg      2011/05/11 15:10:41.5   0.5                          T              174.3 1.44 Ml 4.9         4689600
SGMF  010.63 356.8 m E Pn      2011/05/11 15:07:43.6  -0.3                          T                                        4689618
SGMF  010.63 356.8 m E Sn      2011/05/11 15:09:36.3   0.0                          T               50.3  .98 Ml 4.5         4689582
ROSF  010.76 354.2 m E Pn      2011/05/11 15:07:45.2  -0.4                          T                                        4689619
ROSF  010.76 354.2 m E Sn      2011/05/11 15:09:39.2   0.0                          T               46.7  .96 Ml 4.5         4689583
GRR   010.76 002.9 m E Pn      2011/05/11 15:07:45.7   0.0                          T                                        4689614
GRR   010.76 002.9 m E Sg      2011/05/11 15:10:50.9   0.2                          T               21.0  .95 Ml 4.1         4689578
LDF   011.01 005.4 m E Pn      2011/05/11 15:07:49.1   0.0                          T                                        4689615
LDF   011.01 005.4 m E Sg      2011/05/11 15:10:58.7   0.3                          T               19.1  .74 Ml 4.3         4689579
FLN   011.16 004.0 m E Pn      2011/05/11 15:07:50.6  -0.4 189.3  4.4               T                                        4689616
FLN   011.16 004.0 m E Sg      2011/05/11 15:11:03.1   0.2                          T               25.7  .86 Ml 4.2         4689580
BAIF  013.12 016.9 m E Pn      2011/05/11 15:08:17.7   0.0                          T                                        4689626
BAIF  013.12 016.9 m E Sg      2011/05/11 15:12:04.4   0.3                          T               24.7  .95 Ml 4.5         4689596
GIVF  013.30 018.4 m E Pn      2011/05/11 15:08:20.1  -0.2                          T                                        4689625
GIVF  013.30 018.4 m E Sg      2011/05/11 15:12:10.1   0.1                          T                7.9  .55 Ml 4.2         4689597
CABF  010.65 030.2 m E Sg      2011/05/11 15:10:47.4   0.1                          T              300.5 1.62 Ml 5.1         4689589
SFTF  011.64 022.8 m E Sg      2011/05/11 15:11:18.6   0.3                          T                9.4  .44 Ml 4.3         4689592
MEZF  011.91 022.1 m E Sg      2011/05/11 15:11:26.8   0.2                          T               77.3  .90 Ml 4.9         4689593
HAU   011.91 027.0 m E Sg      2011/05/11 15:11:26.9   0.4                          T               37.3 1.13 Ml 4.3         4689591
HINF  011.94 028.9 m E Sg      2011/05/11 15:11:27.5   0.1                          T              295.6 2.08 Ml 5.1         4689590
PAGF  012.17 023.9 m E Sg      2011/05/11 15:11:35.0   0.4                          T              125.2 1.95 Ml 4.8         4689594
CDF   012.59 028.4 m E Sg      2011/05/11 15:11:48.2   0.4                          T               81.0 1.50 Ml 4.9         4689595

.
EVENT     259234
    Date      Time       Latitude Longitude    Depth    Ndef Nsta Gap    Mag1  N    Mag2  N    Mag3  N   Author         ID
       rms   OT_Error      Smajor Sminor Az        Err   mdist  Mdist     Err        Err        Err      Quality

2011/05/11 16:13:12.1     42.5284    2.5729      3.0 f    17    6 179  Ml 1.9  5  Md 2.0  3              js067245    259234

      0.52   +-  0.08       1.7    1.1  174.85 +-  0.0    0.12   2.75   +-0.3      +-0.0                 m i ke

PYRENEES
Sta     Dist  EvAz     Phase      Date       Time     TRes  Azim  AzRes  Slow  SRes Def   SNR       Amp   Per   Mag1   Mag2       ID
MTLF  000.85 342.3 m E Pg      2011/05/11 16:13:28.1  -0.1                          T                                        4690292
MTLF  000.85 342.3 m E Sg      2011/05/11 16:13:39.2  -0.1                          T                1.8  .27        Md 2.0  4690291
EPF   001.72 287.7 m E Pn      2011/05/11 16:13:41.2  -0.1                          T                                        4690327
EPF   001.72 287.7 m E Pg      2011/05/11 16:13:44.2   0.0                          T                                        4690331
EPF   001.72 287.7 m E Sg      2011/05/11 16:14:06.3   0.0                          T                1.3  .31 Ml 1.8 Md 2.0  4690334
LASF  001.81 030.8 m E Pn      2011/05/11 16:13:42.2  -0.3                          T                                        4690329
LASF  001.81 030.8 m E Pg      2011/05/11 16:13:45.8   0.0                          T                                        4690330
LASF  001.81 030.8 m E Sg      2011/05/11 16:14:09.1   0.0                          T                 .8  .31 Ml 1.6 Md 2.1  4690290
ETSF  002.34 280.2 m E Pn      2011/05/11 16:13:49.8   0.1                          T                                        4690328
ETSF  002.34 280.2 m E Pg      2011/05/11 16:13:55.7   0.1                          T                                        4690332
ETSF  002.34 280.2 m E Sg      2011/05/11 16:14:25.7  -0.1                          T                1.4  .37 Ml 1.9         4690333
CAF   002.42 351.4 m E Pn      2011/05/11 16:13:51.1   0.2                          T                                        4690326
CAF   002.42 351.4 m E Sn      2011/05/11 16:14:19.5   0.2                          T                 .8  .21 Ml 1.9         4690325
LFF   002.75 331.8 m E Pn      2011/05/11 16:13:55.4   0.1                          T                                        4690323
LFF   002.75 331.8 m E Sn      2011/05/11 16:14:27.2   0.1                          T                5.8  .37 Ml 2.4         4690324

.
