EVENT     295752
    Date      Time       Latitude Longitude    Depth    Ndef Nsta Gap    Mag1  N    Mag2  N    Mag3  N   Author         ID
       rms   OT_Error      Smajor Sminor Az        Err   mdist  Mdist     Err        Err        Err      Quality

2013/04/11 05:12:36.3     42.7508   -1.8937      2.0      32    4 266  Ml 2.0  3  Md 2.0  2              bulletin    295852
                                                                                                         _ldg
      0.41   +-  0.26       3.8    2.4   77.15 +-  0.0    0.23   2.90   +-0.2      +-0.1                 m i ke

PYRENEES
Sta     Dist  EvAz     Phase      Date       Time     TRes  Azim  AzRes  Slow  SRes Def   SNR       Amp   Per   Mag1   Mag2       ID
SJPF  000.61 053.4 m E Pg      2013/04/11 05:12:47.8  -0.1                          T                                        5253312
SJPF  000.61 053.4 m E Sg      2013/04/11 05:12:55.7  -0.3                          T                4.5  .18        Md 2.1  5253311
ETSF  000.99 081.0 m E Pg      2013/04/11 05:12:54.9  -0.1                          T                                        5253310
ETSF  000.99 081.0 m E Sg      2013/04/11 05:13:07.5  -0.5                          T                3.1  .30 Ml 1.8 Md 2.0  5253309
EPF   001.67 079.6 m E Pg      2013/04/11 05:13:07.3  -0.1                          T                                        5253308
EPF   001.67 079.6 m E Sg      2013/04/11 05:13:28.6  -0.3                          T                2.8  .20 Ml 2.3         5253307
LFF   002.90 040.2 m E Pn      2013/04/11 05:13:21.6   0.0                          T                                        5253304
LFF   002.90 040.2 m E Pg      2013/04/11 05:13:30.4   0.4                          T                                        5253305
LFF   002.90 040.2 m E Sn      2013/04/11 05:13:54.5  -0.5                          T                                        5253303
LFF   002.90 040.2 m E Sg      2013/04/11 05:14:06.4  -0.9                          T                  1  .23 Ml 1.9         5253306

.
EVENT     295768
    Date      Time       Latitude Longitude    Depth    Ndef Nsta Gap    Mag1  N    Mag2  N    Mag3  N   Author         ID
       rms   OT_Error      Smajor Sminor Az        Err   mdist  Mdist     Err        Err        Err      Quality

2013/04/11 05:13:56.3     42.7821   -1.8837      2.0      16    3 313  Ml 1.6  2  Md 1.6  2              bulletin    295868
                                                                                                         _ldg
      0.22   +-  0.24       3.6    3.1   34.79 +-  0.0    0.22   1.65   +-0.2      +-0.1                 m i ke

PYRENEES
Sta     Dist  EvAz     Phase      Date       Time     TRes  Azim  AzRes  Slow  SRes Def   SNR       Amp   Per   Mag1   Mag2       ID
SJPF  000.59 055.4 m E Pg      2013/04/11 05:14:07.5   0.1                          T                                        5253315
SJPF  000.59 055.4 m E Sg      2013/04/11 05:14:15.1   0.0                          T                2.2  .22        Md 1.7  5253314
ETSF  000.98 082.7 m E Pg      2013/04/11 05:14:14.8   0.1                          T                                        5253319
ETSF  000.98 082.7 m E Sg      2013/04/11 05:14:27.0  -0.5                          T                1.4  .26 Ml 1.5 Md 1.6  5253318
EPF   001.65 080.6 m E Pg      2013/04/11 05:14:26.9  -0.2                          T                                        5253317
EPF   001.65 080.6 m E Sg      2013/04/11 05:14:48.5   0.1                          T                1.1  .24 Ml 1.8         5253316

.
EVENT     295770
    Date      Time       Latitude Longitude    Depth    Ndef Nsta Gap    Mag1  N    Mag2  N    Mag3  N   Author         ID
       rms   OT_Error      Smajor Sminor Az        Err   mdist  Mdist     Err        Err        Err      Quality

2013/04/11 07:15:10.3     44.2671    7.4230       .0 f    25    7 115  Ml 1.6  5  Md 1.5  2              bulletin    295870
                                                                                                         _ldg
      0.21   +-  0.04        .9     .6   47.63 +-  0.0    0.04   1.36   +-0.2      +-0.1                 m i km

NORTHERN ITALY
Sta     Dist  EvAz     Phase      Date       Time     TRes  Azim  AzRes  Slow  SRes Def   SNR       Amp   Per   Mag1   Mag2       ID
SBF   000.40 178.8 m E Pg      2013/04/11 07:15:18.3  -0.1                          T                                        5253328
SBF   000.40 178.8 m E Sg      2013/04/11 07:15:23.7  -0.3                          T                3.0  .15        Md 1.6  5253327
MBDF  000.65 314.8 m E Pg      2013/04/11 07:15:23.2   0.1                          T                                        5253334
MBDF  000.65 314.8 m E Sg      2013/04/11 07:15:31.9  -0.1                          T                1.4  .18        Md 1.5  5253333
FRF   000.90 218.7 m E Pg      2013/04/11 07:15:27.8   0.3                          T                                        5253330
FRF   000.90 218.7 m E Sg      2013/04/11 07:15:39.2  -0.3                          T                2.0  .17 Ml 1.9         5253329
LMR   001.14 215.7 m E Pg      2013/04/11 07:15:32.2   0.3                          T                                        5253331
ORIF  001.28 301.1 m E Pg      2013/04/11 07:15:34.8   0.1                          T                                        5253332
ORIF  001.28 301.1 m E Sg      2013/04/11 07:15:51.0  -0.3                          T                1.0  .26 Ml 1.5         5253322
LPG   001.32 339.0 m E Pg      2013/04/11 07:15:35.8   0.1                          T                                        5253324
LPG   001.32 339.0 m E Sg      2013/04/11 07:15:52.7  -0.2                          T                 .5  .19 Ml 1.4         5253323
SMRF  001.36 258.3 m E Pg      2013/04/11 07:15:36.0  -0.1                          T                                        5253326
SMRF  001.36 258.3 m E Sg      2013/04/11 07:15:53.6  -0.3                          T                1.7  .41 Ml 1.6         5253325

.
EVENT     295804
    Date      Time       Latitude Longitude    Depth    Ndef Nsta Gap    Mag1  N    Mag2  N    Mag3  N   Author         ID
       rms   OT_Error      Smajor Sminor Az        Err   mdist  Mdist     Err        Err        Err      Quality

2013/04/11 10:48:59.3     44.7943    6.7372      2.0      17    5 097  Ml 1.3  1  Md 1.3  2              bulletin    295904
                                                                                                         _ldg
      0.10   +-  0.02        .6     .4   67.88 +-  0.0    0.07   1.06   +-         +-0.2                 m i ke

FRANCE
Sta     Dist  EvAz     Phase      Date       Time     TRes  Azim  AzRes  Slow  SRes Def   SNR       Amp   Per   Mag1   Mag2       ID
MBDF  000.07 160.1 m E Pg      2013/04/11 10:49:01.1  -0.2                          T                                        5253612
MBDF  000.07 160.1 m E Sg      2013/04/11 10:49:02.3  -0.1                          T                8.7  .18        Md 1.4  5253610
ORIF  000.62 281.8 m E Pg      2013/04/11 10:49:11.2  -0.1                          T                                        5253611
ORIF  000.62 281.8 m E Sg      2013/04/11 10:49:19.5   0.1                          T                3.0  .28        Md 1.1  5253609
LPG   000.70 000.8 m E Pg      2013/04/11 10:49:13.1   0.1                          T                                        5253615
LPG   000.70 000.8 m E Sg      2013/04/11 10:49:22.3   0.1                          T                6.0  .26                5253616
LPL   000.72 359.7 m E Pg      2013/04/11 10:49:13.3   0.1                          T                                        5253614
LPL   000.72 359.7 m E Sg      2013/04/11 10:49:22.5  -0.1                          T                1.1  .24                5253613
SBF   001.06 151.5 m E Sn      2013/04/11 10:49:34.1   0.0                          T                 .6  .20 Ml 1.3         5255517

.
EVENT     295790
    Date      Time       Latitude Longitude    Depth    Ndef Nsta Gap    Mag1  N    Mag2  N    Mag3  N   Author         ID
       rms   OT_Error      Smajor Sminor Az        Err   mdist  Mdist     Err        Err        Err      Quality

2013/04/11 12:12:05.5     42.5787   -1.3730      2.0       6    3 301  Ml 1.9  1  Md 1.5  2              bulletin    295890
                                                                                                         _ldg
      0.34   +-  0.73      13.5    6.6   36.23 +-  0.0    0.55   1.34   +-         +-0.1                 m i ke

PYRENEES
Sta     Dist  EvAz     Phase      Date       Time     TRes  Azim  AzRes  Slow  SRes Def   SNR       Amp   Per   Mag1   Mag2       ID
SJPF  000.55 011.5 m E Pg      2013/04/11 12:12:16.2   0.3                          T                                        5253556
SJPF  000.55 011.5 m E Sg      2013/04/11 12:12:22.4  -0.6                          T                5.2  .22        Md 1.6  5253553
ETSF  000.68 061.7 m E Pg      2013/04/11 12:12:18.3  -0.2                          T                                        5253555
ETSF  000.68 061.7 m E Sg      2013/04/11 12:12:27.3  -0.1                          T                7.3  .36        Md 1.5  5253551
EPF   001.34 069.7 m E Pg      2013/04/11 12:12:30.4  -0.2                          T                                        5253554
EPF   001.34 069.7 m E Sg      2013/04/11 12:12:48.5   0.6                          T                2.2  .25 Ml 1.9         5253552

.
EVENT     295806
    Date      Time       Latitude Longitude    Depth    Ndef Nsta Gap    Mag1  N    Mag2  N    Mag3  N   Author         ID
       rms   OT_Error      Smajor Sminor Az        Err   mdist  Mdist     Err        Err        Err      Quality

2013/04/11 13:27:54.2     42.7393   -1.7070      2.0      28    3 103  Ml 2.0  2  Md 2.0  1              bulletin    295906
                                                                                                         _ldg
      0.47   +-  0.12       2.0    1.8  168.58 +-  0.0    0.10   1.94   +-0.2      +-                    m i ke

PYRENEES
Sta     Dist  EvAz     Phase      Date       Time     TRes  Azim  AzRes  Slow  SRes Def   SNR       Amp   Per   Mag1   Mag2       ID
SJPF  000.51 043.3 m E Pg      2013/04/11 13:28:04.3   0.3                          T                                        5253620
SJPF  000.51 043.3 m E Sg      2013/04/11 13:28:11.1   0.3                          T                8.9  .24        Md 2.0  5253618
ETSF  000.86 078.9 m E Pg      2013/04/11 13:28:10.3  -0.1                          T                                        5253619
ETSF  000.86 078.9 m E Sg      2013/04/11 13:28:21.0  -0.6                          T                2.4  .21 Ml 1.8         5253617
EPF   001.53 078.4 m E Pg      2013/04/11 13:28:22.7  -0.1                          T                                        5253621
EPF   001.53 078.4 m E Sg      2013/04/11 13:28:42.3  -0.3                          T                2.8  .25 Ml 2.1         5253622

.
EVENT     295807
    Date      Time       Latitude Longitude    Depth    Ndef Nsta Gap    Mag1  N    Mag2  N    Mag3  N   Author         ID
       rms   OT_Error      Smajor Sminor Az        Err   mdist  Mdist     Err        Err        Err      Quality

2013/04/11 13:30:59.3     41.5736    2.6234      7.0 f    56    9 208  Ml 2.6  9  Md 2.4  1              bulletin    295907
                                                                                                         _ldg
      0.46   +-  0.12       2.1    1.1  138.84 +-  0.0    0.24   3.82   +-0.3      +-                    m i ke

SPAIN
Sta     Dist  EvAz     Phase      Date       Time     TRes  Azim  AzRes  Slow  SRes Def   SNR       Amp   Per   Mag1   Mag2       ID
FBR   000.41 247.2 m E Pg      2013/04/11 13:31:07.4   0.1                          T                                        5255323
MTLF  001.79 350.5 m E Pn      2013/04/11 13:31:29.3   0.3                          T                                        5253652
MTLF  001.79 350.5 m E Pg      2013/04/11 13:31:33.5   0.8                          T                                        5253693
MTLF  001.79 350.5 m E Sn      2013/04/11 13:31:50.3  -0.4                          T                9.8  .24 Ml 2.8 Md 2.4  5253650
EPF   002.23 311.4 m E Pn      2013/04/11 13:31:33.6  -1.4                          T                                        5253651
EPF   002.23 311.4 m E Sn      2013/04/11 13:32:00.1  -1.2                          T                6.5  .18 Ml 2.8         5253649
LASF  002.66 019.5 m E Pn      2013/04/11 13:31:40.3  -0.5                          T                                        5253687
LASF  002.66 019.5 m E Sn      2013/04/11 13:32:10.7  -0.7                          T                1.8  .23 Ml 2.2         5253686
SJPF  003.24 299.6 m E Pn      2013/04/11 13:31:48.7  -0.1                          T                                        5253688
SJPF  003.24 299.6 m E Sn      2013/04/11 13:32:25.0  -0.3                          T                1.7  .21 Ml 2.4         5253684
ETSF  002.71 300.3 m E Pg      2013/04/11 13:31:50.0   0.4                          T                                        5253692
ETSF  002.71 300.3 m E Sn      2013/04/11 13:32:12.4  -0.3                          T                3.8  .22 Ml 2.6         5253685
CAF   003.38 353.2 m E Pn      2013/04/11 13:31:50.2  -0.4                          T                                        5253681
CAF   003.38 353.2 m E Sn      2013/04/11 13:32:28.0  -0.5                          T                2.1  .20 Ml 2.5         5253683
LFF   003.63 338.4 m E Pn      2013/04/11 13:31:53.8  -0.2                          T                                        5253680
LFF   003.63 338.4 m E Sn      2013/04/11 13:32:34.7   0.1                          T                5.2  .28 Ml 2.7         5253682
RJF   003.82 348.2 m E Pn      2013/04/11 13:31:56.4  -0.1                          T                                        5253679
RJF   003.82 348.2 m E Sn      2013/04/11 13:32:38.6  -0.4                          T                1.9  .26 Ml 2.1         5253691

.
EVENT     295820
    Date      Time       Latitude Longitude    Depth    Ndef Nsta Gap    Mag1  N    Mag2  N    Mag3  N   Author         ID
       rms   OT_Error      Smajor Sminor Az        Err   mdist  Mdist     Err        Err        Err      Quality

2013/04/11 14:14:37.2     42.8477   -1.2755      2.0      18    3 094  Ml 1.5  1  Md 1.2  2              bulletin    295920
                                                                                                         _ldg
      0.43   +-  0.13       2.4    2.2  121.23 +-  0.0    0.03   1.20   +-         +-0.1                 m i ke

PYRENEES
Sta     Dist  EvAz     Phase      Date       Time     TRes  Azim  AzRes  Slow  SRes Def   SNR       Amp   Per   Mag1   Mag2       ID
SJPF  000.27 007.9 m E Pg      2013/04/11 14:14:42.4  -0.1                          T                                        5253706
SJPF  000.27 007.9 m E Sg      2013/04/11 14:14:46.6   0.4                          T                3.0  .25        Md 1.2  5253703
ETSF  000.53 084.2 m E Pg      2013/04/11 14:14:47.1  -0.3                          T                                        5253705
ETSF  000.53 084.2 m E Sg      2013/04/11 14:14:53.8  -0.6                          T                1.1  .23        Md 1.1  5253702
EPF   001.20 080.7 m E Pg      2013/04/11 14:14:59.7   0.0                          T                                        5255518
EPF   001.20 080.7 m E Sg      2013/04/11 14:15:15.3   0.0                          T                1.1  .26 Ml 1.5         5255519

.
EVENT     295823
    Date      Time       Latitude Longitude    Depth    Ndef Nsta Gap    Mag1  N    Mag2  N    Mag3  N   Author         ID
       rms   OT_Error      Smajor Sminor Az        Err   mdist  Mdist     Err        Err        Err      Quality

2013/04/11 15:00:19.9     46.2443    6.9879       .0 f    29    9 064  Ml 2.1  6                         bulletin    295923
                                                                                                         _ldg
      0.38   +-  0.05       1.1     .9  114.76 +-  0.0    0.09   3.10   +-0.1                            m i km

SWITZERLAND
Sta     Dist  EvAz     Phase      Date       Time     TRes  Azim  AzRes  Slow  SRes Def   SNR       Amp   Per   Mag1   Mag2       ID
LPL   000.75 193.9 m E Pg      2013/04/11 15:00:34.5  -0.1                          T                                        5253722
LPL   000.75 193.9 m E Sg      2013/04/11 15:00:44.6   0.1                          T                3.1  .24                5253719
LPG   000.76 192.6 m E Pg      2013/04/11 15:00:34.7  -0.3                          T                                        5253721
LPG   000.76 192.6 m E Sg      2013/04/11 15:00:45.2   0.0                          T                3.8  .25                5253720
CABF  000.72 300.8 m E P       2013/04/11 15:00:35.3   0.0                          T                                        5255528
CABF  000.72 300.8 m E Sn      2013/04/11 15:00:47.4   0.0                          T                3.7  .40                5255529
MBDF  001.53 185.8 m E Pg      2013/04/11 15:00:48.6  -0.2                          T                                        5253727
MBDF  001.53 185.8 m E Sg      2013/04/11 15:01:09.3   0.6                          T                4.9  .53 Ml 2.0         5253725
ORIF  001.54 210.8 m E Pg      2013/04/11 15:00:48.9  -0.1                          T                                        5253728
ORIF  001.54 210.8 m E Sg      2013/04/11 15:01:09.9   0.9                          T                5.7  .42 Ml 2.2         5253726
HINF  001.58 356.7 m E P       2013/04/11 15:00:49.1  -0.3                          T                                        5255530
HINF  001.58 356.7 m E Sg      2013/04/11 15:01:09.5  -0.6                          T                2.3  .35 Ml 1.9         5255531
VIVF  002.14 230.3 m E Pg      2013/04/11 15:01:00.1   0.1                          T                                        5255520
VIVF  002.14 230.3 m E Sg      2013/04/11 15:01:27.9   0.2                          T                2.3  .29 Ml 2.1         5253729
SMF   002.21 281.6 m E Pg      2013/04/11 15:01:01.6   0.3                          T                                        5255526
SMF   002.21 281.6 m E Sg      2013/04/11 15:01:30.2   0.2                          T                1.3  .21 Ml 2.0         5255527
LASF  003.10 226.7 m E Pn      2013/04/11 15:01:09.4   1.0                          T                                        5253723

.
