EVENT     267029
    Date      Time       Latitude Longitude    Depth    Ndef Nsta Gap    Mag1  N    Mag2  N    Mag3  N   Author         ID
       rms   OT_Error      Smajor Sminor Az        Err   mdist  Mdist     Err        Err        Err      Quality

2011/12/03 08:32:54.1     46.7730   10.0079     10.0 f    56   21 081  Ml 2.9 11                         js067245    267049

      1.34   +-  0.21       4.8    3.7  172.96 +-  0.0    0.09   5.40   +-0.2                            m i ke

NORTHERN ITALY
Sta     Dist  EvAz     Phase      Date       Time     TRes  Azim  AzRes  Slow  SRes Def   SNR       Amp   Per   Mag1   Mag2       ID
HINF  002.39 297.1 m E Pn      2011/12/03 08:33:32.6   1.0                          T   001.0                                4794216
HINF  002.39 297.1 m E Pg      2011/12/03 08:33:38.4  -0.2                          T                                        4794526
HINF  002.39 297.1 m E Sn      2011/12/03 08:34:00.0   0.8                          T   001.0                                4794217
HINF  002.39 297.1 m E Sg      2011/12/03 08:34:08.9  -0.4                          T   001.0       14.4  .26 Ml 3.0         4794190
CDF   002.47 312.6 m E Pn      2011/12/03 08:33:34.2   1.4                          T   001.0                                4794197
CDF   002.47 312.6 m E Pg      2011/12/03 08:33:40.1   0.0                          T                                        4794532
CDF   002.47 312.6 m E Sn      2011/12/03 08:34:03.0   1.8                          T   001.0                                4794198
CDF   002.47 312.6 m E Sg      2011/12/03 08:34:12.0   0.1                          T   001.0       22.7  .34 Ml 3.2         4794199
LPG   002.60 241.8 m E Pn      2011/12/03 08:33:36.6   1.8                          T   001.0                                4794206
CABF  002.70 268.0 m E Pn      2011/12/03 08:33:36.9   0.9                          T   001.0                                4794214
CABF  002.70 268.0 m E Pg      2011/12/03 08:33:42.6  -1.8                          T                                        4794569
CABF  002.70 268.0 m E Sg      2011/12/03 08:34:17.6  -1.5                          T   001.0       12.2  .34 Ml 2.9         4794215
LPL   002.60 242.3 m E Pn      2011/12/03 08:33:37.2   2.5                          T   001.0                                4794207
HAU   002.78 297.7 m E Pn      2011/12/03 08:33:38.1   1.2                          T                                        4794570
HAU   002.78 297.7 m E Sg      2011/12/03 08:34:20.9  -0.5                          T   001.0       28.5  .38 Ml 3.0         4794201
MBDF  003.05 229.1 m E Pn      2011/12/03 08:33:40.3  -0.5                          T                                        4794528
MBDF  003.05 229.1 m E Sn      2011/12/03 08:34:16.3   1.1                          T   001.0          8  .36 Ml 2.8         4794191
SBF   003.43 212.9 m E Pn      2011/12/03 08:33:46.1   0.3                          T   001.0                                4794208
RUP   003.53 327.2 m E Pn      2011/12/03 08:33:47.9   0.7                          T                                        4794531
RUP   003.53 327.2 m E Pg      2011/12/03 08:33:59.4  -0.2                          T                                        4794530
ORIF  003.43 238.8 m E Pn      2011/12/03 08:33:48.5   2.6                          T   001.0                                4794192
ORIF  003.43 238.8 m E Sg      2011/12/03 08:34:39.6  -2.2                          T   001.0        5.6  .56 Ml 2.5         4794193
FRF   004.00 217.7 m E Pn      2011/12/03 08:33:53.5   0.0                          T                                        4794527
FRF   004.00 217.7 m E Sn      2011/12/03 08:34:38.1   0.6                          T   001.0        4.9  .36 Ml 2.8         4794200
SMF   004.24 270.5 m E Pn      2011/12/03 08:33:56.3  -0.6                          T   001.0                                4794209
SMF   004.24 270.5 m E Sn      2011/12/03 08:34:44.6   1.1                          T   001.0                                4794210
SMF   004.24 270.5 m E Sg      2011/12/03 08:35:06.0  -1.1                          T   001.0       10.8  .44 Ml 3.1         4794211
LMR   004.24 217.0 m E Pn      2011/12/03 08:33:57.0   0.2                          T   001.0                                4794203
VIVF  004.19 244.7 m E Pn      2011/12/03 08:33:57.4   1.3                          T   001.0                                4794194
LOR   004.24 279.0 m E Pn      2011/12/03 08:33:58.0   1.3  97.7  3.2               T   001.0                                4794204
LOR   004.24 279.0 m E Pg      2011/12/03 08:34:11.1  -1.4 107.9  13.4              T                                        4794566
LOR   004.24 279.0 m E Sg      2011/12/03 08:35:04.2  -2.7 106.3  11.9              T   001.0        9.6  .40 Ml 3.1         4794205
AVF   004.57 272.6 m E Pn      2011/12/03 08:34:01.0  -0.3                          T   001.0                                4794195
SSF   004.47 276.1 m E Pn      2011/12/03 08:34:01.5   1.7                          T   001.0                                4794212
SSF   004.47 276.1 m E Pg      2011/12/03 08:34:16.2  -0.6                          T                                        4794525
SSF   004.47 276.1 m E Sg      2011/12/03 08:35:12.1  -2.0                          T                3.5  .34 Ml 2.9         4794533
BGF   004.94 270.1 m E Pn      2011/12/03 08:34:05.5  -0.7                          T                                        4794568
LASF  005.10 240.3 m E Pn      2011/12/03 08:34:09.9   1.4                          T   001.0                                4794202
TCF   005.40 267.7 m E Pn      2011/12/03 08:34:13.7   1.0                          T   001.0                                4794213
THEF  003.09 299.6 m E Sg      2011/12/03 08:34:31.3   0.2                          T               11.0  .28 Ml 3.0         4794529

.
EVENT     267028
    Date      Time       Latitude Longitude    Depth    Ndef Nsta Gap    Mag1  N    Mag2  N    Mag3  N   Author         ID
       rms   OT_Error      Smajor Sminor Az        Err   mdist  Mdist     Err        Err        Err      Quality

2011/12/03 08:35:05.7     46.6670    9.9613     10.0 f    18    5 101  Ml 2.2  3                         js067245    267048

      0.28   +-  0.07       1.6    1.1    5.50 +-  0.0    0.13   2.96   +-0.2                            m i ke

SWITZERLAND
Sta     Dist  EvAz     Phase      Date       Time     TRes  Azim  AzRes  Slow  SRes Def   SNR       Amp   Per   Mag1   Mag2       ID
LPL   002.52 244.0 m E Pg      2011/12/03 08:35:52.6  -0.3                          T                                        4794649
LPG   002.52 243.5 m E Pg      2011/12/03 08:35:52.7  -0.2                          T                                        4794650
LPG   002.52 243.5 m E Sg      2011/12/03 08:36:26.1   0.7                          T                1.2  .25 Ml 2.0         4794644
CABF  002.67 270.2 m E Pg      2011/12/03 08:35:56.6   1.2                          T                                        4794647
CABF  002.67 270.2 m E Sg      2011/12/03 08:36:30.4   0.7                          T                2.2  .28 Ml 2.2         4794646
MBDF  002.96 230.2 m E Pg      2011/12/03 08:35:59.8  -1.1                          T                                        4794648
HINF  002.41 299.6 m E Sg      2011/12/03 08:36:22.1   0.5                          T                4.2  .30 Ml 2.4         4794645

.
EVENT     267135
    Date      Time       Latitude Longitude    Depth    Ndef Nsta Gap    Mag1  N    Mag2  N    Mag3  N   Author         ID
       rms   OT_Error      Smajor Sminor Az        Err   mdist  Mdist     Err        Err        Err      Quality

2011/12/03 08:45:07.0     43.3675    2.3336      2.0       9    4 195  Ml 1.2  3  Md 1.1  1              js067245    267155

      1.20   +-  0.11       1.7    1.0   77.43 +-  0.0    0.09   1.57   +-0.0      +-                    m i ke

FRANCE
Sta     Dist  EvAz     Phase      Date       Time     TRes  Azim  AzRes  Slow  SRes Def   SNR       Amp   Per   Mag1   Mag2       ID
MTLF  000.09 252.7 m E Pg      2011/12/03 08:45:08.7  -0.3                          T                                        4795427
MTLF  000.09 252.7 m E Sg      2011/12/03 08:45:10.1  -0.3                          T                4.4  .46        Md 1.1  4795428
LASF  001.31 056.8 m E Pg      2011/12/03 08:45:31.4  -0.1                          T                                        4795425
LASF  001.31 056.8 m E Sg      2011/12/03 08:45:48.6   0.1                          T                 .3  .20 Ml 1.2         4795424
EPF   001.50 257.7 m E Pg      2011/12/03 08:45:35.1   0.2                          T                                        4795426
EPF   001.50 257.7 m E Sg      2011/12/03 08:45:54.7   0.5                          T                 .2  .18 Ml 1.1         4795423
CAF   001.57 353.0 m E Sg      2011/12/03 08:45:57.2   0.7                          T                 .2  .16 Ml 1.2         4795422

.
EVENT     267027
    Date      Time       Latitude Longitude    Depth    Ndef Nsta Gap    Mag1  N    Mag2  N    Mag3  N   Author         ID
       rms   OT_Error      Smajor Sminor Az        Err   mdist  Mdist     Err        Err        Err      Quality

2011/12/03 13:23:31.7     43.1599    -.6609      2.0      37    7 113  Ml 2.1  4  Md 2.1  3              js067245    267047

      0.52   +-  0.10       2.2    1.3    2.53 +-  0.0    0.08   3.33   +-0.1      +-0.1                 m i ke

PYRENEES
Sta     Dist  EvAz     Phase      Date       Time     TRes  Azim  AzRes  Slow  SRes Def   SNR       Amp   Per   Mag1   Mag2       ID
ETSF  000.27 164.0 m E Pg      2011/12/03 13:23:36.8  -0.3                          T                                        4794597
ETSF  000.27 164.0 m E Sg      2011/12/03 13:23:39.5  -1.3                          T              204.3  .20        Md 2.2  4794596
SJPF  000.42 263.8 m E Pg      2011/12/03 13:23:39.9   0.3                          T                                        4794595
SJPF  000.42 263.8 m E Sg      2011/12/03 13:23:45.9   0.7                          T               49.9  .22        Md 2.0  4794594
EPF   000.74 099.7 m E Pg      2011/12/03 13:23:45.9   0.1                          T                                        4794593
EPF   000.74 099.7 m E Sg      2011/12/03 13:23:55.3  -0.2                          T               16.0  .34        Md 2.0  4794592
MTLF  002.11 084.1 m E Pg      2011/12/03 13:24:10.9   0.0                          T                                        4794590
MTLF  002.11 084.1 m E Sg      2011/12/03 13:24:38.2   0.1                          T                2.4  .24 Ml 2.2         4794591
LFF   002.05 029.1 m E Sg      2011/12/03 13:24:36.0   0.0                          T                2.7  .24 Ml 2.1         4795188
RJF   002.65 035.4 m E Sg      2011/12/03 13:24:54.8  -0.2                          T                2.0  .21 Ml 2.0         4795186
CAF   002.64 047.1 m E Sg      2011/12/03 13:24:55.0   0.3                          T                1.2  .21 Ml 2.1         4795187

.
EVENT     267030
    Date      Time       Latitude Longitude    Depth    Ndef Nsta Gap    Mag1  N    Mag2  N    Mag3  N   Author         ID
       rms   OT_Error      Smajor Sminor Az        Err   mdist  Mdist     Err        Err        Err      Quality

2011/12/03 22:58:53.9     46.6687    9.9683     10.0 f    30   13 102  Ml 2.2  8                         js067245    267050

      0.34   +-  0.07       1.6    1.2   30.18 +-  0.0    0.13   4.55   +-0.3                            m i ke

SWITZERLAND
Sta     Dist  EvAz     Phase      Date       Time     TRes  Azim  AzRes  Slow  SRes Def   SNR       Amp   Per   Mag1   Mag2       ID
CDF   002.52 314.7 m E P       2011/12/03 22:59:35.7  -0.3                          T                                        4795196
CDF   002.52 314.7 m E Pg      2011/12/03 22:59:40.9   0.0                          T                                        4795195
CDF   002.52 314.7 m E Sg      2011/12/03 23:00:13.3  -0.1                          T                5.6  .39 Ml 2.6         4795189
HAU   002.80 299.8 m E Pn      2011/12/03 22:59:36.7  -0.3                          T                                        4795193
HAU   002.80 299.8 m E Pg      2011/12/03 22:59:46.2   0.3                          T                                        4795192
HAU   002.80 299.8 m E Sg      2011/12/03 23:00:22.2   0.2                          T                4.2  .26 Ml 2.4         4794653
HINF  002.41 299.6 m E Pg      2011/12/03 22:59:38.7  -0.1                          T                                        4794654
HINF  002.41 299.6 m E Sg      2011/12/03 23:00:10.6   0.7                          T                3.2  .29 Ml 2.3         4794602
MBDF  002.96 230.2 m E Pn      2011/12/03 22:59:40.7   1.3                          T                                        4794600
MBDF  002.96 230.2 m E Sg      2011/12/03 23:00:27.6   0.4                          T                1.0  .31 Ml 1.9         4795190
LPL   002.53 244.1 m E Pg      2011/12/03 22:59:40.7  -0.4                          T                                        4794607
LPL   002.53 244.1 m E Sg      2011/12/03 23:00:14.1   0.3                          T                1.2  .32 Ml 1.9         4794651
LPG   002.53 243.5 m E Pg      2011/12/03 22:59:40.9  -0.3                          T                                        4794608
LPG   002.53 243.5 m E Sg      2011/12/03 23:00:14.1   0.4                          T                1.1  .33 Ml 1.9         4794652
CABF  002.67 270.2 m E Pg      2011/12/03 22:59:44.9   1.2                          T                                        4794606
CABF  002.67 270.2 m E Sg      2011/12/03 23:00:19.1   1.1                          T                1.3  .22 Ml 2.1         4794601
PAGF  003.44 304.9 m E Pn      2011/12/03 22:59:45.2  -0.5 123.0  1.3               T                                        4795194
FRF   003.90 218.3 m E P       2011/12/03 22:59:55.3   0.0                          T                                        4794604
SBF   003.33 213.4 m E Pg      2011/12/03 22:59:55.4  -0.2                          T                                        4795191
LMR   004.14 217.6 m E P       2011/12/03 22:59:59.4   0.6                          T                                        4794599
AVF   004.55 273.9 m E P       2011/12/03 23:00:05.1   0.5                          T                                        4794603
LOR   004.23 280.4 m E Sg      2011/12/03 23:01:06.0  -0.4                          T                1.7  .27 Ml 2.5         4794598

.
