EVENT     286569
    Date      Time       Latitude Longitude    Depth    Ndef Nsta Gap    Mag1  N    Mag2  N    Mag3  N   Author         ID
       rms   OT_Error      Smajor Sminor Az        Err   mdist  Mdist     Err        Err        Err      Quality

2012/11/08 15:28:22.3     48.5061   -3.0892      2.0      14    6 224  Ml 2.2  3  Md 2.1  3              bulletin    286669
                                                                                                         _ldg
      0.41   +-  0.10       1.9    1.3  162.64 +-  0.0    0.21   1.97   +-0.1      +-0.2                 m i ke

FRANCE
Sta     Dist  EvAz     Phase      Date       Time     TRes  Azim  AzRes  Slow  SRes Def   SNR       Amp   Per   Mag1   Mag2       ID
ROSF  000.21 215.9 m E Pg      2012/11/08 15:28:26.3  -0.1                          T                                        5113152
ROSF  000.21 215.9 m E Sg      2012/11/08 15:28:29.3  -0.1                          T                2.2  .16        Md 2.1  5113149
SGMF  000.44 125.2 m E Pg      2012/11/08 15:28:29.0  -1.6                          T                                        5113151
SGMF  000.44 125.2 m E Sg      2012/11/08 15:28:36.1  -0.3                          T                4.4  .19        Md 2.3  5113140
QUIF  000.59 185.0 m E Pg      2012/11/08 15:28:33.7   0.3                          T                                        5113150
QUIF  000.59 185.0 m E Pn      2012/11/08 15:28:35.9  -0.2                          T                                        5113144
QUIF  000.59 185.0 m E Sg      2012/11/08 15:28:41.2  -0.1                          T                5.7  .24        Md 2.0  5113139
FLN   001.75 080.6 m E Pn      2012/11/08 15:28:51.6  -0.3                          T                                        5113141
FLN   001.75 080.6 m E Sn      2012/11/08 15:29:13.3  -0.1                          T                2.4  .22 Ml 2.0         5113142
LDF   001.97 086.3 m E Pn      2012/11/08 15:28:55.3   0.4                          T                                        5113145
LDF   001.97 086.3 m E Sn      2012/11/08 15:29:19.0   0.2                          T                3.4  .25 Ml 2.3         5113146
GRR   001.49 093.7 m E Sn      2012/11/08 15:29:07.2   0.0                          T                3.2  .17 Ml 2.2         5113143

.
EVENT     286570
    Date      Time       Latitude Longitude    Depth    Ndef Nsta Gap    Mag1  N    Mag2  N    Mag3  N   Author         ID
       rms   OT_Error      Smajor Sminor Az        Err   mdist  Mdist     Err        Err        Err      Quality

2012/11/08 16:45:14.8     45.5997    5.4526      2.0      47   15 071  Ml 2.1 14  Md 2.1  3              bulletin    286670
                                                                                                         _ldg
      0.47   +-  0.04       1.0     .7   49.89 +-  0.0    0.75   3.08   +-0.3      +-0.1                 m i ke

FRANCE
Sta     Dist  EvAz     Phase      Date       Time     TRes  Azim  AzRes  Slow  SRes Def   SNR       Amp   Per   Mag1   Mag2       ID
ORIF  000.75 156.0 m E Pg      2012/11/08 16:45:29.0   0.0                          T                                        5113199
ORIF  000.75 156.0 m E Pn      2012/11/08 16:45:31.0   0.1                          T                                        5113158
ORIF  000.75 156.0 m E Sg      2012/11/08 16:45:37.7  -1.0                          T                6.3  .20        Md 2.2  5113198
ORIF  000.75 156.0 m E Sn      2012/11/08 16:45:42.2   0.1                          T                                        5113189
LPL   000.90 094.8 m E Pg      2012/11/08 16:45:32.1   0.1                          T                                        5113197
LPL   000.90 094.8 m E Sg      2012/11/08 16:45:44.0   0.2                          T                2.7  .22 Ml 1.9 Md 2.0  5113196
VIVF  000.93 216.8 m E Pg      2012/11/08 16:45:32.3   0.1                          T                                        5113195
VIVF  000.93 216.8 m E Pn      2012/11/08 16:45:33.4   0.1                          T                                        5113160
VIVF  000.93 216.8 m E Sg      2012/11/08 16:45:44.4   0.1                          T               10.2  .24 Ml 2.4         5113194
LPG   000.92 095.9 m E Pg      2012/11/08 16:45:32.4  -0.1                          T                                        5113193
LPG   000.92 095.9 m E Pn      2012/11/08 16:45:33.8   0.4                          T                                        5113157
LPG   000.92 095.9 m E Sg      2012/11/08 16:45:44.4   0.1                          T                4.9  .24 Ml 2.1         5113192
LPG   000.92 095.9 m E Sn      2012/11/08 16:45:46.8   0.3                          T                                        5113190
CABF  001.10 023.4 m E Pg      2012/11/08 16:45:35.5  -0.1                          T                                        5113178
CABF  001.10 023.4 m E Sg      2012/11/08 16:45:50.4   0.5                          T                1.9  .17 Ml 1.9         5113177
MBDF  001.28 132.6 m E Pn      2012/11/08 16:45:37.7  -0.5                          T                                        5113188
MBDF  001.28 132.6 m E Sn      2012/11/08 16:45:55.3   0.4                          T                1.0  .21 Ml 1.6         5113159
SMF   001.53 313.6 m E Pn      2012/11/08 16:45:41.6   0.1                          T                                        5113167
SMF   001.53 313.6 m E Pg      2012/11/08 16:45:43.5   0.1                          T                                        5113183
SMF   001.53 313.6 m E Sn      2012/11/08 16:46:00.9   0.1                          T                                        5113179
SMF   001.53 313.6 m E Sg      2012/11/08 16:46:03.3   0.1                          T                3.1  .17 Ml 2.3         5113184
AVF   001.88 310.0 m E Pn      2012/11/08 16:45:46.4   0.1                          T                                        5113180
AVF   001.88 310.0 m E Sn      2012/11/08 16:46:09.4   0.2                          T                                        5113181
AVF   001.88 310.0 m E Sg      2012/11/08 16:46:14.1   0.0                          T                1.9  .23 Ml 2.1         5113182
LASF  001.90 217.3 m E Pn      2012/11/08 16:45:46.6   0.1                          T                                        5113186
LASF  001.90 217.3 m E Pg      2012/11/08 16:45:50.0  -0.1                          T                                        5113185
LASF  001.90 217.3 m E Sn      2012/11/08 16:46:09.8   0.1                          T                                        5113187
LASF  001.90 217.3 m E Sg      2012/11/08 16:46:14.6   0.0                          T                1.9  .23 Ml 2.1         5113161
SSF   001.99 318.0 m E Pn      2012/11/08 16:45:47.3  -0.4                          T                                        5113170
SSF   001.99 318.0 m E Sn      2012/11/08 16:46:11.5  -0.3                          T                                        5113175
SSF   001.99 318.0 m E Sg      2012/11/08 16:46:17.1  -0.3                          T                3.1  .24 Ml 2.4         5113176
LOR   002.00 327.1 m E Pn      2012/11/08 16:45:48.0   0.1                          T                                        5113171
LOR   002.00 327.1 m E Pg      2012/11/08 16:45:52.1   0.1                          T                                        5113172
LOR   002.00 327.1 m E Sn      2012/11/08 16:46:11.3  -0.8                          T                                        5113174
LOR   002.00 327.1 m E Sg      2012/11/08 16:46:17.4  -0.4                          T                3.7  .30 Ml 2.3         5113173
BGF   002.05 298.8 m E Pn      2012/11/08 16:45:48.4  -0.2                          T                                        5113166
BGF   002.05 298.8 m E Pg      2012/11/08 16:45:53.1   0.1                          T                                        5113165
BGF   002.05 298.8 m E Sn      2012/11/08 16:46:13.2  -0.1                          T                                        5113164
BGF   002.05 298.8 m E Sg      2012/11/08 16:46:19.6   0.2                          T                3.5  .28 Ml 2.3         5113163
FRF   002.21 156.9 m E Pn      2012/11/08 16:45:50.8   0.1                          T                                        5113155
FRF   002.21 156.9 m E Sn      2012/11/08 16:46:17.2   0.2                          T                                        5113156
FRF   002.21 156.9 m E Sg      2012/11/08 16:46:24.4   0.1                          T                 .8  .22 Ml 1.9         5113154
CDF   003.08 023.3 m E Pn      2012/11/08 16:46:02.6  -0.1                          T                                        5113169
CDF   003.08 023.3 m E Sn      2012/11/08 16:46:37.8  -0.1                          T                 .5  .22 Ml 1.9         5113168
RJF   002.79 265.3 m E Sg      2012/11/08 16:46:42.3   0.0                          T                4.5  .18 Ml 2.5         5113162

.
EVENT     286572
    Date      Time       Latitude Longitude    Depth    Ndef Nsta Gap    Mag1  N    Mag2  N    Mag3  N   Author         ID
       rms   OT_Error      Smajor Sminor Az        Err   mdist  Mdist     Err        Err        Err      Quality

2012/11/08 20:07:20.7     49.1430    8.1012      5.0 f    18    5 051  Ml 2.0  4  Md 2.2  1              bulletin    286672
                                                                                                         _ldg
      0.38   +-  0.05       1.2     .9  109.00 +-  0.0    0.18   2.24   +-0.2      +-                    m i ke

GERMANY
Sta     Dist  EvAz     Phase      Date       Time     TRes  Azim  AzRes  Slow  SRes Def   SNR       Amp   Per   Mag1   Mag2       ID
LANF  000.25 230.3 m E Sg      2012/11/08 20:07:30.0   0.6                          T                                        5120562
CDF   000.91 217.0 m E Pg      2012/11/08 20:07:37.8  -0.2                          T                                        5120675
CDF   000.91 217.0 m E P       2012/11/08 20:07:39.7  -0.1                          T                                        5113203
CDF   000.91 217.0 m E Sg      2012/11/08 20:07:49.9   0.0                          T                4.3  .28 Ml 2.1 Md 2.2  5113202
HINF  001.57 212.5 m E Pn      2012/11/08 20:07:47.4  -0.1                          T                                        5113200
HINF  001.57 212.5 m E Pg      2012/11/08 20:07:50.0   0.0                          T                                        5120671
HINF  001.57 212.5 m E Sn      2012/11/08 20:08:06.9  -0.1                          T                                        5120672
HINF  001.57 212.5 m E Sg      2012/11/08 20:08:10.4   0.2                          T                3.7  .26 Ml 2.2         5113201
PAGF  001.68 250.3 m E Pn      2012/11/08 20:07:49.1   0.2                          T                                        5113205
PAGF  001.68 250.3 m E Pg      2012/11/08 20:07:52.0   0.1                          T                                        5120674
PAGF  001.68 250.3 m E Sg      2012/11/08 20:08:13.9   0.3                          T                1.5  .24 Ml 1.9         5113204
SFTF  002.24 246.3 m E Pn      2012/11/08 20:07:56.4  -0.2                          T                                        5113207
SFTF  002.24 246.3 m E Sn      2012/11/08 20:08:23.3   0.3                          T                                        5113206
SFTF  002.24 246.3 m E Sg      2012/11/08 20:08:31.3   0.3                          T                 .9  .22 Ml 1.9         5120673

.
EVENT     286574
    Date      Time       Latitude Longitude    Depth    Ndef Nsta Gap    Mag1  N    Mag2  N    Mag3  N   Author         ID
       rms   OT_Error      Smajor Sminor Az        Err   mdist  Mdist     Err        Err        Err      Quality

2012/11/08 23:25:58.9     43.1040    -.6705      2.0       5    3 183             Md 1.2  2              bulletin    286674
                                                                                                         _ldg
      0.32   +-  0.30       9.5    3.7   23.40 +-  0.0    0.22   0.74              +-0.0                 m i ke

PYRENEES
Sta     Dist  EvAz     Phase      Date       Time     TRes  Azim  AzRes  Slow  SRes Def   SNR       Amp   Per   Mag1   Mag2       ID
ETSF  000.22 158.3 m E Pg      2012/11/08 23:26:03.3  -0.1                          T                                        5113211
ETSF  000.22 158.3 m E Sg      2012/11/08 23:26:06.6   0.2                          T                5.5  .22        Md 1.2  5113210
SJPF  000.41 271.5 m E Pg      2012/11/08 23:26:06.8   0.2                          T                                        5113208
SJPF  000.41 271.5 m E Sg      2012/11/08 23:26:11.3  -0.8                          T                  1  .26        Md 1.2  5113209
EPF   000.74 095.3 m E Sg      2012/11/08 23:26:22.5  -0.2                          T                 .6  .27                5120676

.
EVENT     286575
    Date      Time       Latitude Longitude    Depth    Ndef Nsta Gap    Mag1  N    Mag2  N    Mag3  N   Author         ID
       rms   OT_Error      Smajor Sminor Az        Err   mdist  Mdist     Err        Err        Err      Quality

2012/11/09 00:50:27.7     44.4815    6.6912      2.0      36    8 068  Ml 1.8  4  Md 2.1  2              bulletin    286675
                                                                                                         _ldg
      0.34   +-  0.05       1.1     .9   73.08 +-  0.0    0.09   3.32   +-0.3      +-0.0                 m i ke

FRANCE
Sta     Dist  EvAz     Phase      Date       Time     TRes  Azim  AzRes  Slow  SRes Def   SNR       Amp   Per   Mag1   Mag2       ID
MBDF  000.25 013.1 m E Pg      2012/11/09 00:50:32.8   0.0                          T                                        5113227
MBDF  000.25 013.1 m E Sg      2012/11/09 00:50:36.5   0.2                          T                5.8  .24        Md 2.1  5113221
ORIF  000.72 307.3 m E Pg      2012/11/09 00:50:41.1  -0.3                          T                                        5113226
ORIF  000.72 307.3 m E Sg      2012/11/09 00:50:50.4  -0.5                          T                1.9  .24        Md 2.1  5113220
SBF   000.82 138.8 m E Pg      2012/11/09 00:50:43.6   0.5                          T                                        5113213
SBF   000.82 138.8 m E Sg      2012/11/09 00:50:54.4   0.7                          T                2.1  .21                5113214
FRF   000.92 182.0 m E Pg      2012/11/09 00:50:45.1   0.2                          T                                        5113223
FRF   000.92 182.0 m E Sg      2012/11/09 00:50:57.6   0.7                          T                3.6  .18 Ml 2.1         5113216
SMRF  000.95 238.2 m E Pg      2012/11/09 00:50:45.6   0.1                          T                                        5113224
SMRF  000.95 238.2 m E Sg      2012/11/09 00:50:57.3  -0.6                          T                4.0  .37 Ml 1.8         5113217
LPG   001.02 002.4 m E Pg      2012/11/09 00:50:47.0  -0.1                          T                                        5113212
LPG   001.02 002.4 m E Sg      2012/11/09 00:51:00.3   0.0                          T                                        5113218
LPL   001.04 001.6 m E Pg      2012/11/09 00:50:47.6   0.2                          T                                        5113225
LPL   001.04 001.6 m E Sg      2012/11/09 00:51:01.2   0.4                          T                 .9  .23 Ml 1.4         5113219
LMR   001.15 186.6 m E Pn      2012/11/09 00:50:49.5   0.3                          T                                        5113222
LMR   001.15 186.6 m E Sn      2012/11/09 00:51:04.3  -0.3                          T                1.7  .23 Ml 1.8         5113215

.
EVENT     286634
    Date      Time       Latitude Longitude    Depth    Ndef Nsta Gap    Mag1  N    Mag2  N    Mag3  N   Author         ID
       rms   OT_Error      Smajor Sminor Az        Err   mdist  Mdist     Err        Err        Err      Quality

2012/11/09 08:02:42.6     44.4661    6.7117      2.0      28    7 068  Ml 1.7  4  Md 1.8  3              bulletin    286734
                                                                                                         _ldg
      0.24   +-  0.05       1.1     .7   58.18 +-  0.0    0.07   1.14   +-0.2      +-0.1                 m i ke

FRANCE
Sta     Dist  EvAz     Phase      Date       Time     TRes  Azim  AzRes  Slow  SRes Def   SNR       Amp   Per   Mag1   Mag2       ID
MBDF  000.26 009.3 m E Pg      2012/11/09 08:02:48.1   0.1                          T                                        5114348
MBDF  000.26 009.3 m E Sg      2012/11/09 08:02:51.6   0.0                          T                3.4  .26        Md 1.7  5114347
ORIF  000.75 307.6 m E Pg      2012/11/09 08:02:56.6  -0.2                          T                                        5114351
ORIF  000.75 307.6 m E Sg      2012/11/09 08:03:06.5  -0.1                          T                 .7  .19        Md 1.8  5114349
SBF   000.80 138.9 m E Pg      2012/11/09 08:02:57.6  -0.1                          T                                        5114344
SBF   000.80 138.9 m E Sg      2012/11/09 08:03:08.1   0.0                          T                5.1  .29        Md 1.8  5114343
SMRF  000.95 239.4 m E Pg      2012/11/09 08:03:01.5   0.9                          T                                        5114350
SMRF  000.95 239.4 m E Sg      2012/11/09 08:03:13.7   0.7                          T                1.5  .25 Ml 1.6         5114338
LPL   001.05 000.8 m E Pg      2012/11/09 08:03:02.3  -0.2                          T                                        5114346
LPL   001.05 000.8 m E Sg      2012/11/09 08:03:16.0  -0.2                          T                3.4  .26 Ml 1.9         5114345
LPG   001.03 001.5 m E Pg      2012/11/09 08:03:02.5   0.2                          T                                        5114336
LPG   001.03 001.5 m E Sg      2012/11/09 08:03:15.9   0.2                          T                1.6  .29 Ml 1.6         5114337
LMR   001.14 187.4 m E Pg      2012/11/09 08:03:03.6  -0.4                          T                                        5114342
LMR   001.14 187.4 m E Sg      2012/11/09 08:03:18.4  -0.3                          T                2.9  .38 Ml 1.8         5114341

.
