EVENT     260757
    Date      Time       Latitude Longitude    Depth    Ndef Nsta Gap    Mag1  N    Mag2  N    Mag3  N   Author         ID
       rms   OT_Error      Smajor Sminor Az        Err   mdist  Mdist     Err        Err        Err      Quality

2011/06/26 02:12:27.0     43.1179   -1.0208     15.0       6    3 186  Ml 0.8  1  Md 1.3  2              js067245    260757

      0.13   +-  0.08       5.2    1.3    9.01 +-  0.0    0.15   1.00   +-         +-0.1                 m i ke

PYRENEES
Sta     Dist  EvAz     Phase      Date       Time     TRes  Azim  AzRes  Slow  SRes Def   SNR       Amp   Per   Mag1   Mag2       ID
SJPF  000.15 268.3 m E Pg      2011/06/26 02:12:31.0  -0.1                          T                                        4713136
SJPF  000.15 268.3 m E Sg      2011/06/26 02:12:34.1   0.3                          T                6.6  .18        Md 1.2  4713137
ETSF  000.40 122.8 m E Pg      2011/06/26 02:12:35.2  -0.1                          T                                        4713134
ETSF  000.40 122.8 m E Sg      2011/06/26 02:12:41.0   0.1                          T                4.5  .24        Md 1.4  4713135
EPF   001.00 094.6 m E Pg      2011/06/26 02:12:46.0   0.0                          T                                        4713132
EPF   001.00 094.6 m E Sg      2011/06/26 02:12:59.3   0.2                          T                 .2  .16 Ml  .8         4713133

.
EVENT     260759
    Date      Time       Latitude Longitude    Depth    Ndef Nsta Gap    Mag1  N    Mag2  N    Mag3  N   Author         ID
       rms   OT_Error      Smajor Sminor Az        Err   mdist  Mdist     Err        Err        Err      Quality

2011/06/26 03:14:20.1     43.8964    6.2740      2.0       9    5 116  Ml 1.3  1  Md 2.5  3              js067245    260759

      0.28   +-  0.12       3.1    2.1   20.97 +-  0.0    0.43   0.90   +-         +-0.1                 m i ke

NEAR SOUTH COAST OF FRANCE
Sta     Dist  EvAz     Phase      Date       Time     TRes  Azim  AzRes  Slow  SRes Def   SNR       Amp   Per   Mag1   Mag2       ID
FRF   000.43 141.0 m E Pg      2011/06/26 03:14:28.5   0.1                          T                                        4713145
FRF   000.43 141.0 m E Sg      2011/06/26 03:14:33.5  -0.5                          T                4.4  .38        Md 2.6  4713146
SMRF  000.51 279.2 m E Pg      2011/06/26 03:14:29.6  -0.2                          T                                        4713142
SMRF  000.51 279.2 m E Sg      2011/06/26 03:14:37.2   0.6                          T                 .5  .34        Md 2.4  4713143
LMR   000.59 163.0 m E Pg      2011/06/26 03:14:31.1   0.0                          T                                        4713140
LMR   000.59 163.0 m E Sg      2011/06/26 03:14:40.2   1.3                          T                2.3  .40        Md 2.4  4713141
SBF   000.84 091.9 m E Pg      2011/06/26 03:14:36.1   0.2                          T                                        4713138
SBF   000.84 091.9 m E Sg      2011/06/26 03:14:46.9   0.0                          T                3.5  .46                4713139
MBDF  000.90 023.1 m E Sg      2011/06/26 03:14:48.7  -0.3                          T                 .9  .23 Ml 1.3         4713144

.
EVENT     260758
    Date      Time       Latitude Longitude    Depth    Ndef Nsta Gap    Mag1  N    Mag2  N    Mag3  N   Author         ID
       rms   OT_Error      Smajor Sminor Az        Err   mdist  Mdist     Err        Err        Err      Quality

2011/06/26 03:17:00.8     42.9959    -.9859      2.0       6    3 196  Ml 0.9  1  Md 1.2  2              js067245    260758

      0.20   +-  0.20      12.0    1.9   20.66 +-  0.0    0.21   0.97   +-         +-0.0                 m i ke

PYRENEES
Sta     Dist  EvAz     Phase      Date       Time     TRes  Azim  AzRes  Slow  SRes Def   SNR       Amp   Per   Mag1   Mag2       ID
SJPF  000.21 303.9 m E Pg      2011/06/26 03:17:04.8  -0.2                          T                                        4713151
SJPF  000.21 303.9 m E Sg      2011/06/26 03:17:08.3   0.4                          T                8.3  .40        Md 1.2  4713152
ETSF  000.33 107.1 m E Pg      2011/06/26 03:17:07.3   0.1                          T                                        4713149
ETSF  000.33 107.1 m E Sg      2011/06/26 03:17:11.8   0.2                          T                 .8  .23        Md 1.2  4713150
EPF   000.97 087.5 m E Pg      2011/06/26 03:17:18.9  -0.2                          T                                        4713147
EPF   000.97 087.5 m E Sg      2011/06/26 03:17:31.8   0.0                          T                 .3  .25 Ml  .9         4713148

.
EVENT     260768
    Date      Time       Latitude Longitude    Depth    Ndef Nsta Gap    Mag1  N    Mag2  N    Mag3  N   Author         ID
       rms   OT_Error      Smajor Sminor Az        Err   mdist  Mdist     Err        Err        Err      Quality

2011/06/26 07:39:47.5     41.7796    2.7521      5.0 f    17    3 204  Ml 1.4  3                         js067245    260768

      0.24   +-  0.10       1.7     .9  151.01 +-  0.0    0.15   2.70   +-0.2                            m i ke

SPAIN
Sta     Dist  EvAz     Phase      Date       Time     TRes  Azim  AzRes  Slow  SRes Def   SNR       Amp   Per   Mag1   Mag2       ID
MTLF  001.61 346.0 m E Pg      2011/06/26 07:40:17.2  -0.3                          T                                        4713156
MTLF  001.61 346.0 m E Sg      2011/06/26 07:40:37.8  -0.4                          T                 .6  .40 Ml 1.3         4713157
EPF   002.18 305.8 m E Pg      2011/06/26 07:40:28.0  -0.1                          T                                        4713153
EPF   002.18 305.8 m E Sg      2011/06/26 07:40:55.9  -0.2                          T                 .6  .25 Ml 1.6         4713155
ETSF  002.70 295.6 m E Sg      2011/06/26 07:41:12.1  -0.2                          T                 .2  .23 Ml 1.3         4713154

.
EVENT     260760
    Date      Time       Latitude Longitude    Depth    Ndef Nsta Gap    Mag1  N    Mag2  N    Mag3  N   Author         ID
       rms   OT_Error      Smajor Sminor Az        Err   mdist  Mdist     Err        Err        Err      Quality

2011/06/26 12:38:18.3     43.8720    7.2484      2.0      11    6 131  Ml 1.4  3  Md 1.5  2              js067245    260760

      0.11   +-  0.04        .9     .8  163.89 +-  0.0    0.14   1.43   +-0.1      +-0.2                 m i ke

NEAR SOUTH COAST OF FRANCE
Sta     Dist  EvAz     Phase      Date       Time     TRes  Azim  AzRes  Slow  SRes Def   SNR       Amp   Per   Mag1   Mag2       ID
SBF   000.14 093.7 m E Pg      2011/06/26 12:38:21.2   0.0                          T                                        4713167
SBF   000.14 093.7 m E Sg      2011/06/26 12:38:23.4   0.2                          T               21.8  .43        Md 1.6  4713168
FRF   000.54 234.7 m E Pg      2011/06/26 12:38:28.6   0.1                          T                                        4713165
FRF   000.54 234.7 m E Sg      2011/06/26 12:38:35.5  -0.1                          T                1.4  .21        Md 1.3  4713159
LMR   000.76 225.2 m E Pg      2011/06/26 12:38:32.4  -0.2                          T                                        4713166
LMR   000.76 225.2 m E Sg      2011/06/26 12:38:42.6   0.1                          T                 .8  .25                4713158
MBDF  000.92 338.3 m E Pg      2011/06/26 12:38:35.7  -0.1                          T                                        4713162
MBDF  000.92 338.3 m E Sg      2011/06/26 12:38:47.7   0.0                          T                 .6  .22 Ml 1.2         4713161
SMRF  001.21 275.5 m E Pg      2011/06/26 12:38:41.0   0.0                          T                                        4713163
SMRF  001.21 275.5 m E Sg      2011/06/26 12:38:56.8   0.1                          T                 .7  .22 Ml 1.4         4713164
ORIF  001.43 317.3 m E Sg      2011/06/26 12:39:03.6  -0.1                          T                 .8  .32 Ml 1.4         4713160

.
EVENT     260761
    Date      Time       Latitude Longitude    Depth    Ndef Nsta Gap    Mag1  N    Mag2  N    Mag3  N   Author         ID
       rms   OT_Error      Smajor Sminor Az        Err   mdist  Mdist     Err        Err        Err      Quality

2011/06/26 13:17:59.1     42.9181     .2112      2.0       6    4 195  Ml 1.1  2  Md 1.3  2              js067245    260761

      0.14   +-  0.15       5.9    1.2  161.71 +-  0.0    0.15   1.53   +-0.2      +-0.2                 m i ke

PYRENEES
Sta     Dist  EvAz     Phase      Date       Time     TRes  Azim  AzRes  Slow  SRes Def   SNR       Amp   Per   Mag1   Mag2       ID
EPF   000.15 040.1 m E Pg      2011/06/26 13:18:02.0  -0.2                          T                                        4713173
EPF   000.15 040.1 m E Sg      2011/06/26 13:18:04.4   0.1                          T               14.5  .22        Md 1.5  4713174
ETSF  000.57 268.3 m E Pg      2011/06/26 13:18:09.9   0.0                          T                                        4713171
ETSF  000.57 268.3 m E Sg      2011/06/26 13:18:17.1  -0.2                          T                2.0  .26        Md 1.1  4713172
SJPF  001.07 281.0 m E Sg      2011/06/26 13:18:33.1   0.1                          T                 .2  .20 Ml  .9         4713170
MTLF  001.53 073.3 m E Sg      2011/06/26 13:18:47.4   0.1                          T                 .3  .23 Ml 1.2         4713169

.
EVENT     260753
    Date      Time       Latitude Longitude    Depth    Ndef Nsta Gap    Mag1  N    Mag2  N    Mag3  N   Author         ID
       rms   OT_Error      Smajor Sminor Az        Err   mdist  Mdist     Err        Err        Err      Quality

2011/06/26 13:41:20.0     51.4946    6.6185      1.0 f    27   10 239  Ml 2.6  8  Md 2.8  1              js067245    260753

      0.28   +-  0.17       2.8    2.0   17.82 +-  0.0    0.28   5.32   +-0.3      +-                    m i sr

GERMANY
Sta     Dist  EvAz     Phase      Date       Time     TRes  Azim  AzRes  Slow  SRes Def   SNR       Amp   Per   Mag1   Mag2       ID
GIVF  001.80 219.9 m E Pn      2011/06/26 13:41:50.3  -0.2                          T                                        4713195
GIVF  001.80 219.9 m E P       2011/06/26 13:41:52.3  -0.2                          T                                        4713196
GIVF  001.80 219.9 m E Sg      2011/06/26 13:42:16.8   0.0                          T               17.6  .22 Ml 3.1 Md 2.8  4713182
BAIF  002.10 227.7 m E Pn      2011/06/26 13:41:54.4  -0.1                          T                                        4713193
BAIF  002.10 227.7 m E Pg      2011/06/26 13:41:59.5   0.5                          T                                        4713194
BAIF  002.10 227.7 m E Sg      2011/06/26 13:42:26.4   0.4                          T                6.0  .24 Ml 2.6         4713183
CDF   003.12 171.9 m E Pn      2011/06/26 13:42:08.7   0.2                          T                                        4713191
CDF   003.12 171.9 m E Pg      2011/06/26 13:42:18.0   0.1                          T                                        4713192
CDF   003.12 171.9 m E Sg      2011/06/26 13:42:57.8  -0.1                          T                2.2  .31 Ml 2.4         4713184
PAGF  003.00 191.4 m E Pg      2011/06/26 13:42:15.6   0.0                          T                                        4713190
PAGF  003.00 191.4 m E Sg      2011/06/26 13:42:54.3   0.1                          T                1.5  .32 Ml 2.1         4713185
LOR   004.60 204.1 m E Pn      2011/06/26 13:42:28.4  -0.1                          T                                        4713198
LOR   004.60 204.1 m E Sg      2011/06/26 13:43:44.2   0.1                          T                2.7  .29 Ml 2.8         4713180
SSF   004.88 205.9 m E Pn      2011/06/26 13:42:32.0  -0.4                          T                                        4713197
SSF   004.88 205.9 m E Sg      2011/06/26 13:43:53.0   0.1                          T                3.7  .35 Ml 3.0         4713181
SMF   005.19 201.7 m E Pn      2011/06/26 13:42:36.7   0.2                          T                                        4713189
FLN   005.32 241.9 m E Pn      2011/06/26 13:42:38.5   0.1                          T                                        4713188
HAU   003.50 183.0 m E Sg      2011/06/26 13:43:09.8   0.1                          T                7.4  .42 Ml 2.6         4713186
HINF  003.69 177.5 m E Sg      2011/06/26 13:43:14.8  -0.8                          T                3.2  .44 Ml 2.4         4713187

.
EVENT     260764
    Date      Time       Latitude Longitude    Depth    Ndef Nsta Gap    Mag1  N    Mag2  N    Mag3  N   Author         ID
       rms   OT_Error      Smajor Sminor Az        Err   mdist  Mdist     Err        Err        Err      Quality

2011/06/27 00:17:53.6     42.8042   -1.4283      2.0      15    3 165  Ml 1.0  1  Md 1.2  2              js067245    260764

      0.33   +-  0.12       3.5    1.8  163.62 +-  0.0    0.05   1.32   +-         +-0.3                 m i ke

PYRENEES
Sta     Dist  EvAz     Phase      Date       Time     TRes  Azim  AzRes  Slow  SRes Def   SNR       Amp   Per   Mag1   Mag2       ID
SJPF  000.34 025.7 m E Pg      2011/06/27 00:18:00.0  -0.3                          T                                        4713307
SJPF  000.34 025.7 m E Sg      2011/06/27 00:18:04.7  -0.1                          T                 .5  .22        Md 1.4  4713308
ETSF  000.65 081.3 m E Pg      2011/06/27 00:18:05.5  -0.5                          T                                        4713305
ETSF  000.65 081.3 m E Sg      2011/06/27 00:18:14.1  -0.3                          T                 .2  .26        Md 1.0  4713306
EPF   001.32 079.5 m E Pg      2011/06/27 00:18:18.6   0.3                          T                                        4713303
EPF   001.32 079.5 m E Sg      2011/06/27 00:18:35.1  -0.3                          T                 .2  .20 Ml 1           4713304

.
EVENT     260766
    Date      Time       Latitude Longitude    Depth    Ndef Nsta Gap    Mag1  N    Mag2  N    Mag3  N   Author         ID
       rms   OT_Error      Smajor Sminor Az        Err   mdist  Mdist     Err        Err        Err      Quality

2011/06/27 02:33:37.7     46.8799    6.9134      2.0      13    7 236  Ml 1.7  6  Md 1.8  1              js067245    260766

      0.56   +-  0.20       3.9    1.8  124.40 +-  0.0    0.63   2.12   +-0.4      +-                    m i ke

SWITZERLAND
Sta     Dist  EvAz     Phase      Date       Time     TRes  Azim  AzRes  Slow  SRes Def   SNR       Amp   Per   Mag1   Mag2       ID
CABF  000.63 245.0 m E Pg      2011/06/27 02:33:50.1   0.4                          T                                        4713314
CABF  000.63 245.0 m E Sg      2011/06/27 02:33:57.0  -0.9                          T                  1  .28        Md 1.8  4713315
HINF  000.94 357.5 m E Pg      2011/06/27 02:33:55.1  -0.3                          T                                        4713310
HINF  000.94 357.5 m E Pn      2011/06/27 02:33:56.2  -0.2                          T                                        4713311
HINF  000.94 357.5 m E Sg      2011/06/27 02:34:07.7   0.1                          T                                        4713312
HINF  000.94 357.5 m E Sn      2011/06/27 02:34:10.1   0.6                          T                5.2  .18 Ml 2.2         4713313
HAU   001.19 341.4 m E Pg      2011/06/27 02:34:00.0   0.0                          T                                        4713317
HAU   001.19 341.4 m E Sg      2011/06/27 02:34:15.5   0.1                          T                3.2  .24 Ml 1.8         4713318
CDF   001.55 009.0 m E Pg      2011/06/27 02:34:06.8   0.0                          T                                        4713321
CDF   001.55 009.0 m E Sg      2011/06/27 02:34:26.9   0.1                          T                1.0  .28 Ml 1.7         4713309
SFTF  001.84 316.9 m E Sg      2011/06/27 02:34:35.5   0.0 141.2  5.7               T                 .5  .18 Ml 1.6         4713319
PAGF  001.86 334.9 m E Sg      2011/06/27 02:34:36.2   0.0 151.5  -2.5              T                 .1  .20 Ml  .9         4713320
LOR   002.12 281.7 m E Sg      2011/06/27 02:34:44.6   0.1  98.0  -1.4              T                 .6  .18 Ml 1.8         4713316

.
EVENT     260860
    Date      Time       Latitude Longitude    Depth    Ndef Nsta Gap    Mag1  N    Mag2  N    Mag3  N   Author         ID
       rms   OT_Error      Smajor Sminor Az        Err   mdist  Mdist     Err        Err        Err      Quality

2011/06/27 13:53:58.1     42.7703    1.6634      2.0      13    3 120  Ml 1.4  2  Md 1.7  1              js067245    260860

      0.31   +-  0.08       1.8    1.5  144.39 +-  0.0    0.33   2.06   +-0.0      +-                    m i ke

PYRENEES
Sta     Dist  EvAz     Phase      Date       Time     TRes  Azim  AzRes  Slow  SRes Def   SNR       Amp   Per   Mag1   Mag2       ID
MTLF  000.70 035.3 m E Pg      2011/06/27 13:54:11.7   0.3                          T                                        4713325
MTLF  000.70 035.3 m E Pn      2011/06/27 13:54:13.1  -0.4                          T                                        4713326
MTLF  000.70 035.3 m E Sg      2011/06/27 13:54:21.0   0.5                          T                                        4713327
MTLF  000.70 035.3 m E Sn      2011/06/27 13:54:23.3  -0.9                          T                3.8  .26        Md 1.7  4713328
ETSF  001.64 275.2 m E Pg      2011/06/27 13:54:28.8   0.1                          T                                        4713323
ETSF  001.64 275.2 m E Sg      2011/06/27 13:54:49.7  -0.2                          T                 .7  .29 Ml 1.5         4713324
LASF  002.06 050.0 m E Sg      2011/06/27 13:55:03.2   0.1                          T                 .3  .21 Ml 1.4         4713322

.
