EVENT     267542
    Date      Time       Latitude Longitude    Depth    Ndef Nsta Gap    Mag1  N    Mag2  N    Mag3  N   Author         ID
       rms   OT_Error      Smajor Sminor Az        Err   mdist  Mdist     Err        Err        Err      Quality

2011/12/18 21:45:22.5     43.1013    -.3689      2.0      24    5 104  Ml 2.0  4  Md 2.0  1              js067245    267562

      0.75   +-  0.11       2.3    1.8  162.82 +-  0.0    0.24   2.59   +-0.2      +-                    m i ke

PYRENEES
Sta     Dist  EvAz     Phase      Date       Time     TRes  Azim  AzRes  Slow  SRes Def   SNR       Amp   Per   Mag1   Mag2       ID
EPF   000.52 097.5 m E Pg      2011/12/18 21:45:32.6   0.0                          T                                        4802756
EPF   000.52 097.5 m E Pn      2011/12/18 21:45:35.4   0.4                          T                                        4802741
EPF   000.52 097.5 m E Sg      2011/12/18 21:45:39.4  -0.1                          T                3.3  .20        Md 2.0  4802757
MTLF  001.91 081.9 m E Pg      2011/12/18 21:45:58.6   0.6                          T                                        4802744
MTLF  001.91 081.9 m E Sg      2011/12/18 21:46:23.0   0.5                          T                 .9  .23 Ml 1.8         4802745
LFF   002.00 023.1 m E Pg      2011/12/18 21:45:59.0  -0.7                          T                                        4802750
LFF   002.00 023.1 m E Sg      2011/12/18 21:46:25.9   0.3                          T                3.3  .23 Ml 2.2         4802753
CAF   002.53 043.1 m E Pg      2011/12/18 21:46:09.2  -0.3                          T                                        4802748
CAF   002.53 043.1 m E Sg      2011/12/18 21:46:42.5   0.4                          T                                        4802742
RJF   002.59 031.0 m E Pg      2011/12/18 21:46:10.4  -0.1                          T                                        4802751
RJF   002.59 031.0 m E Sg      2011/12/18 21:46:43.8   0.0                          T                2.0  .26 Ml 1.9         4802752

.
EVENT     267572
    Date      Time       Latitude Longitude    Depth    Ndef Nsta Gap    Mag1  N    Mag2  N    Mag3  N   Author         ID
       rms   OT_Error      Smajor Sminor Az        Err   mdist  Mdist     Err        Err        Err      Quality

2011/12/19 08:52:11.7     50.3387    8.0641      3.0 f    36   12 088  Ml 2.6 10  Md 2.6  1              js067245    267592

      0.33   +-  0.06       1.2     .9   58.97 +-  0.0    0.05   4.14   +-0.3      +-                    m i ke

GERMANY
Sta     Dist  EvAz     Phase      Date       Time     TRes  Azim  AzRes  Slow  SRes Def   SNR       Amp   Per   Mag1   Mag2       ID
RUP   000.91 225.8 m E Pg      2011/12/19 08:52:28.5  -0.4                          T                                        4802775
RUP   000.91 225.8 m E Sg      2011/12/19 08:52:40.8   0.1                          T                                Md 2.6  4802774
LANF  001.37 187.2 m E Pg      2011/12/19 08:52:37.4   0.1                          T                                        4802764
LANF  001.37 187.2 m E Sg      2011/12/19 08:52:55.0   0.0                          T               17.3  .27 Ml 2.8         4802767
GIVF  002.10 264.8 m E Pn      2011/12/19 08:52:45.6  -0.3                          T                                        4802760
GIVF  002.10 264.8 m E Sg      2011/12/19 08:53:18.2   0.6                          T                8.7  .34 Ml 2.6         4802766
CDF   002.00 195.3 m E Pg      2011/12/19 08:52:48.5  -0.5                          T                                        4802773
CDF   002.00 195.3 m E Sg      2011/12/19 08:53:14.3  -0.3                          T                5.5  .26 Ml 2.6         4802772
THEF  002.51 213.5 m E Pn      2011/12/19 08:52:51.5  -0.1                          T                                        4802994
THEF  002.51 213.5 m E Pg      2011/12/19 08:52:58.1  -0.2                          T                                        4802762
THEF  002.51 213.5 m E Sg      2011/12/19 08:53:31.2   0.6                          T                6.6  .23 Ml 2.8         4802769
BAIF  002.49 265.0 m E Pn      2011/12/19 08:52:51.6   0.3                          T                                        4802988
BAIF  002.49 265.0 m E Sg      2011/12/19 08:53:30.1   0.0                          T                3.9  .20 Ml 2.6         4802765
HAU   002.59 206.4 m E Pn      2011/12/19 08:52:53.0   0.3                          T                                        4802761
HAU   002.59 206.4 m E Sg      2011/12/19 08:53:33.1   0.0                          T                3.8  .24 Ml 2.3         4802768
HINF  002.65 198.0 m E Pn      2011/12/19 08:52:53.3  -0.2                          T                                        4802995
HINF  002.65 198.0 m E Sg      2011/12/19 08:53:34.4  -0.6                          T                5.6  .34 Ml 2.6         4802771
MEZF  002.69 228.1 m E Pn      2011/12/19 08:52:53.4  -0.7                          T                                        4802763
MEZF  002.69 228.1 m E Sg      2011/12/19 08:53:36.0  -0.3                          T                6.1  .26 Ml 2.7         4802758
PAGF  002.35 221.4 m E Pg      2011/12/19 08:52:55.3   0.0                          T                                        4802991
PAGF  002.35 221.4 m E Sg      2011/12/19 08:53:25.2  -0.4                          T                1.1  .27 Ml 1.9         4802770
SFTF  002.91 224.0 m E P       2011/12/19 08:52:59.8  -0.1                          T                                        4802993
SFTF  002.91 224.0 m E Pg      2011/12/19 08:53:05.6  -0.1                          T                                        4802992
SFTF  002.91 224.0 m E Sg      2011/12/19 08:53:43.5   0.3                          T                6.4  .39 Ml 2.6         4802759
LOR   004.14 223.7 m E Pn      2011/12/19 08:53:13.8  -0.1                          T                                        4802989
LOR   004.14 223.7 m E Pg      2011/12/19 08:53:28.3  -0.1                          T                                        4802990

.
EVENT     267573
    Date      Time       Latitude Longitude    Depth    Ndef Nsta Gap    Mag1  N    Mag2  N    Mag3  N   Author         ID
       rms   OT_Error      Smajor Sminor Az        Err   mdist  Mdist     Err        Err        Err      Quality

2011/12/19 10:53:34.7     44.4013    8.3382      2.0      41    8 129  Ml 2.4  7  Md 2.1  2              js067245    267593

      0.31   +-  0.08       1.3    1.1   91.50 +-  0.0    0.08   2.03   +-0.2      +-0.1                 m i ke

NORTHERN ITALY
Sta     Dist  EvAz     Phase      Date       Time     TRes  Azim  AzRes  Slow  SRes Def   SNR       Amp   Per   Mag1   Mag2       ID
SBF   000.84 230.7 m E Pg      2011/12/19 10:53:50.7   0.0                          T                                        4802780
SBF   000.84 230.7 m E P       2011/12/19 10:53:52.9   0.3                          T                                        4802781
SBF   000.84 230.7 m E Sg      2011/12/19 10:54:01.6   0.0                          T                                        4802996
SBF   000.84 230.7 m E Sn      2011/12/19 10:54:04.5   0.2                          T               26.2  .31        Md 2.2  4802997
MBDF  001.17 286.8 m E Pg      2011/12/19 10:53:56.3  -0.5                          T                                        4802784
MBDF  001.17 286.8 m E Sg      2011/12/19 10:54:11.9   0.0                          T               13.3  .42 Ml 2.4 Md 2.1  4802776
FRF   001.48 236.0 m E Pg      2011/12/19 10:54:02.3   0.0                          T                                        4802778
FRF   001.48 236.0 m E Sg      2011/12/19 10:54:21.5   0.0                          T               12.5  .28 Ml 2.7         4802777
LPG   001.57 314.8 m E Pg      2011/12/19 10:54:04.0  -0.4                          T                                        4802782
LPG   001.57 314.8 m E Sg      2011/12/19 10:54:24.9   0.2                          T                3.9  .39 Ml 2.1         4803002
LPL   001.59 314.9 m E Pg      2011/12/19 10:54:04.6  -0.1                          T                                        4803004
LPL   001.59 314.9 m E Sg      2011/12/19 10:54:25.3   0.0                          T                3.8  .35 Ml 2.1         4803003
LMR   001.70 231.7 m E P       2011/12/19 10:54:05.2  -0.4                          T                                        4802779
LMR   001.70 231.7 m E Sn      2011/12/19 10:54:24.3  -0.4                          T                                        4802999
LMR   001.70 231.7 m E Sg      2011/12/19 10:54:28.5   0.2                          T                8.0  .33 Ml 2.5         4802998
ORIF  001.83 287.3 m E Pg      2011/12/19 10:54:08.2  -0.7                          T                                        4802783
ORIF  001.83 287.3 m E Sg      2011/12/19 10:54:32.3  -0.1                          T                3.9  .31 Ml 2.3         4803005
SMRF  002.03 258.9 m E Pg      2011/12/19 10:54:12.5   0.0                          T                                        4803001
SMRF  002.03 258.9 m E Sg      2011/12/19 10:54:38.7   0.0                          T                6.0  .37 Ml 2.4         4803000

.
EVENT     267577
    Date      Time       Latitude Longitude    Depth    Ndef Nsta Gap    Mag1  N    Mag2  N    Mag3  N   Author         ID
       rms   OT_Error      Smajor Sminor Az        Err   mdist  Mdist     Err        Err        Err      Quality

2011/12/19 10:58:44.2     43.5388    3.8145       .0 f    16    7 189  Ml 2.0  7  Md 2.0  1              js067245    267597

      0.26   +-  0.05       1.1     .6  152.96 +-  0.0    0.54   2.59   +-0.2      +-                    m i km

NEAR SOUTH COAST OF FRANCE
Sta     Dist  EvAz     Phase      Date       Time     TRes  Azim  AzRes  Slow  SRes Def   SNR       Amp   Per   Mag1   Mag2       ID
LASF  000.54 003.3 m E Pg      2011/12/19 10:58:54.8   0.1                          T                                        4803020
LASF  000.54 003.3 m E Sg      2011/12/19 10:59:02.1   0.1                          T               15.1  .33        Md 2.0  4803021
MTLF  001.18 260.9 m E Pg      2011/12/19 10:59:06.5   0.0                          T                                        4803018
MTLF  001.18 260.9 m E Sg      2011/12/19 10:59:22.1   0.1                          T                3.0  .22 Ml 2.0         4803019
SMRF  001.35 070.5 m E Pg      2011/12/19 10:59:09.7   0.0                          T                                        4803010
SMRF  001.35 070.5 m E Sg      2011/12/19 10:59:27.4   0.1                          T                 .9  .25 Ml 1.5         4803011
VIVF  001.45 024.8 m E Pg      2011/12/19 10:59:11.6   0.0                          T                                        4803016
VIVF  001.45 024.8 m E Sg      2011/12/19 10:59:30.5  -0.1                          T                3.1  .27 Ml 2.1         4803017
CAF   001.87 318.4 m E Pg      2011/12/19 10:59:19.2  -0.2                          T                                        4803014
CAF   001.87 318.4 m E Sg      2011/12/19 10:59:44.0   0.3                          T                1.6  .16 Ml 2.2         4803015
RJF   002.41 317.8 m E Pg      2011/12/19 10:59:29.3   0.0                          T                                        4803008
RJF   002.41 317.8 m E Sg      2011/12/19 11:00:00.8   0.2                          T                3.3  .22 Ml 2.2         4803009
EPF   002.59 259.9 m E Pg      2011/12/19 10:59:32.5   0.0                          T                                        4803012
EPF   002.59 259.9 m E Sg      2011/12/19 11:00:06.0   0.0                          T                1.3  .24 Ml 2.1         4803013

.
EVENT     267587
    Date      Time       Latitude Longitude    Depth    Ndef Nsta Gap    Mag1  N    Mag2  N    Mag3  N   Author         ID
       rms   OT_Error      Smajor Sminor Az        Err   mdist  Mdist     Err        Err        Err      Quality

2011/12/19 11:59:52.6     47.6853    1.3486       .0 f    29   12 123  Ml 2.3 11  Md 2.5  1              js067245    267607

      0.90   +-  0.05       1.7     .7   33.49 +-  0.0    0.97   2.53   +-0.3      +-                    m i km

FRANCE
Sta     Dist  EvAz     Phase      Date       Time     TRes  Azim  AzRes  Slow  SRes Def   SNR       Amp   Per   Mag1   Mag2       ID
HYF   000.97 115.0 m E Pg      2011/12/19 12:00:11.2   0.1                          T                                        4803059
HYF   000.97 115.0 m E Sg      2011/12/19 12:00:24.0   0.2                          T                                Md 2.5  4803058
LDF   001.34 313.2 m E Pn      2011/12/19 12:00:17.1   0.0                          T                                        4803035
LDF   001.34 313.2 m E Pg      2011/12/19 12:00:17.8  -0.1                          T                                        4803052
LDF   001.34 313.2 m E Sn      2011/12/19 12:00:34.7   0.0                          T                                        4803051
LDF   001.34 313.2 m E Sg      2011/12/19 12:00:35.7   0.3                          T               10.9  .39 Ml 2.4         4803045
TCF   001.52 156.8 m E Pn      2011/12/19 12:00:19.6   0.1                          T                                        4803040
TCF   001.52 156.8 m E Sg      2011/12/19 12:00:41.2   0.2                          T                3.5  .32 Ml 2.1         4803063
MFF   001.49 223.8 m E Pg      2011/12/19 12:00:20.6   0.0                          T                                        4803048
MFF   001.49 223.8 m E Sg      2011/12/19 12:00:40.3   0.3                          T                4.9  .38 Ml 2.3         4803047
GRR   001.64 296.2 m E Pn      2011/12/19 12:00:21.2   0.1                          T                                        4803034
GRR   001.64 296.2 m E Pg      2011/12/19 12:00:23.3  -0.1                          T                                        4803050
GRR   001.64 296.2 m E Sn      2011/12/19 12:00:41.9   0.0                          T                                        4803049
GRR   001.64 296.2 m E Sg      2011/12/19 12:00:44.8   0.0                          T                2.2  .25 Ml 1.9         4803046
BGF   001.52 137.3 m E Pg      2011/12/19 12:00:21.4   0.1                          T                                        4803057
BGF   001.52 137.3 m E Sg      2011/12/19 12:00:41.3   0.2                          T               36.4  .41 Ml 3.0         4803056
SSF   001.59 112.3 m E Pg      2011/12/19 12:00:22.5   0.0                          T                                        4803041
SSF   001.59 112.3 m E Sg      2011/12/19 12:00:43.5   0.2                          T                4.4  .33 Ml 2.3         4803064
LOR   001.75 102.8 m E Pn      2011/12/19 12:00:22.7   0.0 287.5  2.8               T                                        4803042
LOR   001.75 102.8 m E Pg      2011/12/19 12:00:25.4  -0.2 280.7  -4.0              T                                        4803043
LOR   001.75 102.8 m E Sg      2011/12/19 12:00:48.4   0.1 300.6  16.0              T                3.8  .30 Ml 2.3         4803065
FLN   001.63 312.0 m E Pg      2011/12/19 12:00:23.1  -0.1 131.8  1.1               T                                        4803036
FLN   001.63 312.0 m E Sn      2011/12/19 12:00:41.6  -0.1                          T                                        4803053
FLN   001.63 312.0 m E Sg      2011/12/19 12:00:44.9   0.4 140.0  9.4               T                7.7  .39 Ml 2.2         4803044
AVF   001.63 122.5 m E Pg      2011/12/19 12:00:23.4   0.1                          T                                        4803062
AVF   001.63 122.5 m E Sg      2011/12/19 12:00:44.6   0.1                          T                6.1  .45 Ml 2.2         4803061
SMF   001.99 120.5 m E Pn      2011/12/19 12:00:25.9  -0.1                          T                                        4803038
SMF   001.99 120.5 m E Sg      2011/12/19 12:00:55.8   0.0                          T                3.0  .34 Ml 2.2         4803060
SFTF  002.53 076.8 m E Pn      2011/12/19 12:00:33.4   0.1                          T                                        4803039

.
