EVENT     267945
    Date      Time       Latitude Longitude    Depth    Ndef Nsta Gap    Mag1  N    Mag2  N    Mag3  N   Author         ID
       rms   OT_Error      Smajor Sminor Az        Err   mdist  Mdist     Err        Err        Err      Quality

2011/12/31 21:06:47.4     43.3296    -.5391      4.0 f    12    5 274  Ml 2.1  4  Md 2.1  1              js067245    267965

      0.16   +-  0.19       3.4    1.4   75.67 +-  0.0    0.71   2.46   +-0.2      +-                    m i ke

PYRENEES
Sta     Dist  EvAz     Phase      Date       Time     TRes  Azim  AzRes  Slow  SRes Def   SNR       Amp   Per   Mag1   Mag2       ID
EPF   000.71 114.7 m E Pg      2011/12/31 21:07:00.9   0.0                          T                                        4808845
EPF   000.71 114.7 m E Sg      2011/12/31 21:07:10.3   0.1                          T               24.1  .34        Md 2.1  4808846
MTLF  002.01 088.7 m E Pn      2011/12/31 21:07:20.4   0.1                          T                                        4808841
MTLF  002.01 088.7 m E Pg      2011/12/31 21:07:24.6  -0.2                          T                                        4808840
MTLF  002.01 088.7 m E Sg      2011/12/31 21:07:50.6  -0.1                          T                1.1  .15 Ml 2.1         4808839
LFF   001.85 029.3 m E Pg      2011/12/31 21:07:21.9   0.0                          T                                        4808843
LFF   001.85 029.3 m E Sg      2011/12/31 21:07:46.0   0.2                          T                5.5  .33 Ml 2.2         4808836
RJF   002.46 036.1 m E Pg      2011/12/31 21:07:33.1  -0.1                          T                                        4808844
RJF   002.46 036.1 m E Sg      2011/12/31 21:08:04.5  -0.3                          T                2.2  .26 Ml 1.9         4808835
CAF   002.46 048.7 m E Pg      2011/12/31 21:07:33.3   0.2                          T                                        4808842
CAF   002.46 048.7 m E Sn      2011/12/31 21:07:55.2  -0.1                          T                                        4808838
CAF   002.46 048.7 m E Sg      2011/12/31 21:08:05.1   0.3                          T                3.7  .37 Ml 2.3         4808837

.
EVENT     267947
    Date      Time       Latitude Longitude    Depth    Ndef Nsta Gap    Mag1  N    Mag2  N    Mag3  N   Author         ID
       rms   OT_Error      Smajor Sminor Az        Err   mdist  Mdist     Err        Err        Err      Quality

2011/12/31 23:59:34.3     43.3208    -.5446      3.0 f    20    5 127  Ml 1.8  4  Md 2.1  1              js067245    267967

      0.31   +-  0.08       1.9    1.2  140.27 +-  0.0    0.70   2.47   +-0.2      +-                    m i ke

PYRENEES
Sta     Dist  EvAz     Phase      Date       Time     TRes  Azim  AzRes  Slow  SRes Def   SNR       Amp   Per   Mag1   Mag2       ID
EPF   000.71 113.9 m E Pg      2011/12/31 23:59:47.8   0.1                          T                                        4808655
EPF   000.71 113.9 m E Sg      2011/12/31 23:59:57.2   0.2                          T               10.7  .32        Md 2.1  4808656
MTLF  002.02 088.5 m E Pn      2012/01/01 00:00:07.5   0.1                          T                                        4808667
MTLF  002.02 088.5 m E Pg      2012/01/01 00:00:11.6  -0.1                          T                                        4808666
MTLF  002.02 088.5 m E Sg      2012/01/01 00:00:37.5  -0.2                          T                 .5  .21 Ml 1.6         4808668
LFF   001.86 029.3 m E Pg      2012/01/01 00:00:09.0   0.1                          T                                        4808674
LFF   001.86 029.3 m E Sn      2012/01/01 00:00:28.0   0.0                          T                                        4808676
LFF   001.86 029.3 m E Sg      2012/01/01 00:00:32.9   0.0                          T                2.5  .25 Ml 2.0         4808675
RJF   002.47 036.0 m E Pg      2012/01/01 00:00:20.1  -0.1                          T                                        4808669
RJF   002.47 036.0 m E Sg      2012/01/01 00:00:51.7  -0.3                          T                2.9  .39 Ml 1.9         4808670
CAF   002.47 048.6 m E Pg      2012/01/01 00:00:20.4   0.2                          T                                        4808671
CAF   002.47 048.6 m E Sn      2012/01/01 00:00:42.5   0.0                          T                                        4808673
CAF   002.47 048.6 m E Sg      2012/01/01 00:00:52.2   0.2                          T                 .6  .19 Ml 1.8         4808672

.

DATA_TYPE ARRIVAL
Sta     Dist  EvAz     Phase      Date       Time     TRes  Azim  AzRes  Slow  SRes Def   SNR       Amp   Per   Mag1   Mag2       ID

STOP
