EVENT     265335
    Date      Time       Latitude Longitude    Depth    Ndef Nsta Gap    Mag1  N    Mag2  N    Mag3  N   Author         ID
       rms   OT_Error      Smajor Sminor Az        Err   mdist  Mdist     Err        Err        Err      Quality

2011/10/20 10:45:49.1     48.1125   -1.0532       .0 f    26    9 105  Ml 2.5  5  Md 2.5  4              js067245    265355

      0.69   +-  0.06       1.3    1.1  173.44 +-  0.0    0.31   3.32   +-0.2      +-0.1                 m i km

FRANCE
Sta     Dist  EvAz     Phase      Date       Time     TRes  Azim  AzRes  Slow  SRes Def   SNR       Amp   Per   Mag1   Mag2       ID
GRR   000.31 025.2 m E Pg      2011/10/20 10:45:55.3   0.0                          T                                        4774271
GRR   000.31 025.2 m E Sg      2011/10/20 10:45:59.4  -0.2                          T               25.3  .32        Md 2.4  4774261
FLN   000.75 030.1 m E Pg      2011/10/20 10:46:03.7   0.2                          T                                        4774269
FLN   000.75 030.1 m E Pn      2011/10/20 10:46:05.7   0.1 209.4  -1.1              T                                        4774260
FLN   000.75 030.1 m E Sg      2011/10/20 10:46:13.7   0.1                          T               16.6  .36        Md 2.7  4774257
FLN   000.75 030.1 m E Sn      2011/10/20 10:46:17.1  -0.1                          T                                        4776160
LDF   000.79 051.9 m E Pg      2011/10/20 10:46:04.1  -0.1                          T                                        4776163
LDF   000.79 051.9 m E Pn      2011/10/20 10:46:06.1   0.1                          T                                        4774270
LDF   000.79 051.9 m E Sn      2011/10/20 10:46:17.9  -0.1                          T                8.0  .22                4776161
SGMF  001.02 278.6 m E Pg      2011/10/20 10:46:08.4   0.0                          T                                        4774267
SGMF  001.02 278.6 m E Sn      2011/10/20 10:46:23.5   0.1                          T               18.6  .26 Ml 2.7 Md 2.5  4774266
QUIF  001.43 262.9 m E Pn      2011/10/20 10:46:14.7   0.0                          T                                        4774265
QUIF  001.43 262.9 m E Pg      2011/10/20 10:46:16.1   0.1                          T                                        4774258
QUIF  001.43 262.9 m E Sg      2011/10/20 10:46:34.8   0.0                          T                9.8  .31 Ml 2.5 Md 2.6  4774264
ROSF  001.50 279.4 m E Pn      2011/10/20 10:46:15.8   0.1                          T                                        4774268
ROSF  001.50 279.4 m E Pg      2011/10/20 10:46:17.4   0.1                          T                                        4776164
ROSF  001.50 279.4 m E Sg      2011/10/20 10:46:37.2   0.3                          T                6.3  .34 Ml 2.3         4774256
MFF   001.63 157.5 m E Pn      2011/10/20 10:46:17.7   0.2                          T                                        4774263
MFF   001.63 157.5 m E Pg      2011/10/20 10:46:19.5  -0.2                          T                                        4774259
MFF   001.63 157.5 m E Sg      2011/10/20 10:46:40.7  -0.3                          T                7.4  .26 Ml 2.7         4774262
AVF   003.27 112.2 m E Pn      2011/10/20 10:46:39.5  -0.3                          T                                        4776159
RJF   003.32 146.9 m E Sg      2011/10/20 10:47:33.3  -0.4                          T                4.6  .32 Ml 2.3         4776162

.
EVENT     265337
    Date      Time       Latitude Longitude    Depth    Ndef Nsta Gap    Mag1  N    Mag2  N    Mag3  N   Author         ID
       rms   OT_Error      Smajor Sminor Az        Err   mdist  Mdist     Err        Err        Err      Quality

2011/10/20 12:28:38.2     44.4053    9.4388     10.0 f    48   23 108  Ml 3.4 18                         js067245    265357

      0.99   +-  0.19       5.4    3.3   39.69 +-  0.0    0.11   6.51   +-0.3                            m i ke

NORTHERN ITALY
Sta     Dist  EvAz     Phase      Date       Time     TRes  Azim  AzRes  Slow  SRes Def   SNR       Amp   Per   Mag1   Mag2       ID
SBF   001.54 250.1 m E Pn      2011/10/20 12:29:03.4  -0.8                          T   001.0                                4773807
SBF   001.54 250.1 m E Sn      2011/10/20 12:29:23.9   0.8                          T   001.0      183.2  .36 Ml 3.8         4773808
MBDF  001.93 280.5 m E Pn      2011/10/20 12:29:08.9  -0.8                          T   001.0                                4773819
MBDF  001.93 280.5 m E Sn      2011/10/20 12:29:32.1  -0.5                          T   001.0       72.9  .37 Ml 3.5         4773820
PGF   001.88 189.9 m E Pn      2011/10/20 12:29:09.9   1.0                          T   001.0                                4773805
PGF   001.88 189.9 m E Sn      2011/10/20 12:29:31.5   0.2                          T   001.0       16.6  .24 Ml 3.3         4773806
FRF   002.19 248.2 m E Pn      2011/10/20 12:29:12.4  -0.5                          T   001.0                                4773794
FRF   002.19 248.2 m E Sn      2011/10/20 12:29:37.0  -1.4                          T   001.0         62  .36 Ml 3.5         4773795
LPG   002.20 300.7 m E Pn      2011/10/20 12:29:13.9   0.5                          T   001.0                                4773802
LPG   002.20 300.7 m E Sn      2011/10/20 12:29:40.0   1.9                          T   001.0       80.9  .56 Ml 3.4         4773803
LMR   002.37 244.2 m E Pn      2011/10/20 12:29:14.4  -1.0                          T   001.0                                4773798
LPL   002.22 301.0 m E Pn      2011/10/20 12:29:14.4   0.8                          T   001.0                                4773804
LMR   002.37 244.2 m E Sn      2011/10/20 12:29:43.0   0.1                          T   001.0       28.9  .28 Ml 3.3         4773799
ORIF  002.59 282.7 m E Pn      2011/10/20 12:29:18.4  -0.1                          T   001.0                                4773822
ORIF  002.59 282.7 m E Sn      2011/10/20 12:29:50.5   2.3                          T   001.0       52.1  .60 Ml 3.3         4773823
SMRF  002.81 262.6 m E Pn      2011/10/20 12:29:21.4  -0.1                          T   001.0                                4773826
SMRF  002.81 262.6 m E Sn      2011/10/20 12:29:53.5   0.1                          T   001.0                                4773827
SMRF  002.81 262.6 m E Sg      2011/10/20 12:30:04.6  -2.0                          T   001.0       24.8  .36 Ml 3.2         4773828
CABF  003.23 314.3 m E Pn      2011/10/20 12:29:28.0   0.8                          T   001.0                                4773814
CABF  003.23 314.3 m E Sn      2011/10/20 12:30:04.1   0.7                          T   001.0       28.1  .64 Ml 3.1         4773815
VIVF  003.43 279.2 m E Pn      2011/10/20 12:29:31.0   1.1                          T   001.0                                4773824
VIVF  003.43 279.2 m E Sn      2011/10/20 12:30:07.1  -1.1                          T   001.0        6.5  .27 Ml 2.9         4773825
HINF  003.86 333.1 m E Pn      2011/10/20 12:29:34.0  -1.7                          T   001.0                                4773817
HINF  003.86 333.1 m E Sn      2011/10/20 12:30:16.6  -1.8                          T   001.0         11  .28 Ml 3.2         4773818
LASF  004.02 267.3 m E Pn      2011/10/20 12:29:37.5  -0.5                          T   001.0                                4773797
HAU   004.19 330.3 m E Pn      2011/10/20 12:29:40.0  -0.3                          T   001.0                                4773796
CDF   004.28 340.3 m E Pn      2011/10/20 12:29:40.0  -0.5                          T   001.0                                4773793
SMF   004.53 301.6 m E Pn      2011/10/20 12:29:45.5   0.7                          T   001.0                                4773809
SMF   004.53 301.6 m E Sn      2011/10/20 12:30:34.7   0.4                          T   001.0       18.4  .28 Ml 3.6         4773810
LOR   004.84 308.3 m E Pn      2011/10/20 12:29:49.5   0.5                          T   001.0                                4773800
LOR   004.84 308.3 m E Sn      2011/10/20 12:30:42.2   0.4                          T   001.0       24.1  .32 Ml 3.7         4773801
SSF   004.93 304.7 m E Pn      2011/10/20 12:29:49.0  -0.3                          T   001.0                                4773811
AVF   004.89 301.3 m E Pn      2011/10/20 12:29:49.0   0.3                          T   001.0                                4773790
SSF   004.93 304.7 m E Sn      2011/10/20 12:30:43.2  -0.8                          T   001.0        8.1  .32 Ml 3.3         4773812
BGF   005.11 297.2 m E Pn      2011/10/20 12:29:53.5   0.8                          T   001.0                                4773791
BGF   005.11 297.2 m E Sn      2011/10/20 12:30:50.2   1.9                          T   001.0       18.9  .32 Ml 3.7         4773792
MTLF  005.33 261.0 m E Sn      2011/10/20 12:30:55.2   1.7                          T   001.0        3.5  .44 Ml 2.8         4773821
TCF   005.43 292.8 m E Sn      2011/10/20 12:30:57.2   1.2                          T   001.0        5.6  .32 Ml 3.3         4773813
GIVF  006.51 332.8 m E Sn      2011/10/20 12:31:22.8   1.2                          T   001.0         67  .76 Ml 4.1         4773816

.
EVENT     265343
    Date      Time       Latitude Longitude    Depth    Ndef Nsta Gap    Mag1  N    Mag2  N    Mag3  N   Author         ID
       rms   OT_Error      Smajor Sminor Az        Err   mdist  Mdist     Err        Err        Err      Quality

2011/10/20 13:55:31.5     47.9847    6.4027       .0 f    13    8 091  Ml 1.8  3  Md 1.7  3              js067245    265363

      0.24   +-  0.07       2.0    1.2   28.65 +-  0.0    0.04   1.86   +-0.2      +-0.1                 m i km

FRANCE
Sta     Dist  EvAz     Phase      Date       Time     TRes  Azim  AzRes  Slow  SRes Def   SNR       Amp   Per   Mag1   Mag2       ID
HAU   000.04 299.8 m E Pg      2011/10/20 13:55:32.9   0.2                          T                                        4776185
HAU   000.04 299.8 m E Sg      2011/10/20 13:55:34.1   0.8                          T              136.3  .52        Md 1.9  4776186
HINF  000.35 118.8 m E Pg      2011/10/20 13:55:38.6   0.0                          T                                        4776181
HINF  000.35 118.8 m E Sg      2011/10/20 13:55:43.3  -0.1                          T               32.1  .98        Md 1.7  4776182
THEF  000.37 311.8 m E Pg      2011/10/20 13:55:38.7  -0.2                          T                                        4776180
THEF  000.37 311.8 m E Sg      2011/10/20 13:55:43.9  -0.1                          T               70.4 1.17        Md 1.6  4776175
CDF   000.72 053.5 m E Pg      2011/10/20 13:55:45.6   0.0                          T                                        4776179
PAGF  000.73 321.8 m E Pg      2011/10/20 13:55:45.7   0.2                          T                                        4776183
PAGF  000.73 321.8 m E Pn      2011/10/20 13:55:47.4  -0.3 141.6  0.3               T                                        4776184
PAGF  000.73 321.8 m E Sg      2011/10/20 13:55:55.1  -0.2                          T                1.6  .42                4776177
SFTF  000.94 284.1 m E Sg      2011/10/20 13:56:01.8   0.0                          T                4.6  .31 Ml 2.0         4776176
CABF  001.39 189.0 m E Sg      2011/10/20 13:56:15.9  -0.1                          T                 .8  .21 Ml 1.6         4776178
LOR   001.86 248.3 m E Sg      2011/10/20 13:56:30.7   0.0                          T                1.1  .28 Ml 1.8         4776187

.
EVENT     265341
    Date      Time       Latitude Longitude    Depth    Ndef Nsta Gap    Mag1  N    Mag2  N    Mag3  N   Author         ID
       rms   OT_Error      Smajor Sminor Az        Err   mdist  Mdist     Err        Err        Err      Quality

2011/10/20 17:32:09.7     42.1540    3.2130      6.0 f    48   11 157  Ml 2.4  7  Md 2.5  2              js067245    265361

      0.32   +-  0.08       1.3     .9  126.48 +-  0.0    0.16   3.41   +-0.1      +-0.2                 m i ke

PYRENEES
Sta     Dist  EvAz     Phase      Date       Time     TRes  Azim  AzRes  Slow  SRes Def   SNR       Amp   Per   Mag1   Mag2       ID
MTLF  001.39 328.6 m E Pn      2011/10/20 17:32:34.4   0.4                          T                                        4774400
MTLF  001.39 328.6 m E Pg      2011/10/20 17:32:35.5  -0.2                          T                                        4774399
MTLF  001.39 328.6 m E Sn      2011/10/20 17:32:52.1   0.5                          T                8.3  .22 Ml 2.6 Md 2.3  4774398
LASF  001.98 013.6 m E Pn      2011/10/20 17:32:42.2   0.2                          T                                        4774397
LASF  001.98 013.6 m E Pg      2011/10/20 17:32:46.3  -0.2                          T                                        4774396
LASF  001.98 013.6 m E Sg      2011/10/20 17:33:11.4  -0.6                          T                3.4  .24 Ml 2.4         4774395
LMR   002.70 063.0 m E Pn      2011/10/20 17:32:52.0   0.3                          T                                        4774384
EPF   002.30 293.4 m E Pg      2011/10/20 17:32:52.5   0.1                          T                                        4774393
EPF   002.30 293.4 m E Sg      2011/10/20 17:33:20.8  -1.1                          T                3.7  .24 Ml 2.5 Md 2.6  4774394
FRF   002.89 059.7 m E Pn      2011/10/20 17:32:54.1  -0.2                          T                                        4774385
CAF   002.89 343.6 m E Pg      2011/10/20 17:33:02.9  -0.4                          T                                        4774388
CAF   002.89 343.6 m E Sg      2011/10/20 17:33:40.7   0.1                          T                1.6  .19 Ml 2.3         4774389
ETSF  002.89 286.2 m E Pg      2011/10/20 17:33:03.5   0.2                          T                                        4774391
ETSF  002.89 286.2 m E Sg      2011/10/20 17:33:40.0  -0.4                          T                3.4  .27 Ml 2.5         4774392
VIVF  002.90 021.0 m E Sg      2011/10/20 17:33:39.6  -1.2                          T                                        4774383
LFF   003.31 328.0 m E Sg      2011/10/20 17:33:53.9   0.3                          T                1.5  .23 Ml 2.1         4774387
RJF   003.38 339.2 m E Sg      2011/10/20 17:33:56.1   0.4                          T                                        4774386
SJPF  003.41 287.8 m E Sg      2011/10/20 17:33:56.6  -0.1                          T                2.0  .31 Ml 2.3         4774390

.
