EVENT     259699
    Date      Time       Latitude Longitude    Depth    Ndef Nsta Gap    Mag1  N    Mag2  N    Mag3  N   Author         ID
       rms   OT_Error      Smajor Sminor Az        Err   mdist  Mdist     Err        Err        Err      Quality

2011/05/25 01:42:02.7     43.7707   12.0357      2.0      29   14 276  Ml 2.9  9                         js067245    259699

      0.94   +-  0.63      12.7    7.6   99.95 +-  0.0    0.18   7.15   +-0.3                            m i ke

CENTRAL ITALY
Sta     Dist  EvAz     Phase      Date       Time     TRes  Azim  AzRes  Slow  SRes Def   SNR       Amp   Per   Mag1   Mag2       ID
PGF   002.54 242.2 m E Pn      2011/05/25 01:42:43.5   0.3                          T                                        4697770
PGF   002.54 242.2 m E Sn      2011/05/25 01:43:14.1   1.3                          T                5.2  .42 Ml 2.7         4697759
SBF   003.33 273.2 m E Pn      2011/05/25 01:42:53.2  -0.8                          T                                        4697774
SBF   003.33 273.2 m E Sn      2011/05/25 01:43:30.8  -0.9                          T               19.2  .58 Ml 3.0         4697769
FRF   003.92 268.8 m E Pn      2011/05/25 01:43:02.2   0.3                          T                                        4697773
LMR   004.04 265.7 m E Pn      2011/05/25 01:43:02.3  -1.2                          T                                        4697760
LMR   004.04 265.7 m E Sn      2011/05/25 01:43:48.1  -0.6                          T                1.3  .27 Ml 2.4         4697758
LPG   004.15 296.4 m E Pn      2011/05/25 01:43:05.1  -0.3                          T                                        4697772
LPL   004.17 296.6 m E Pn      2011/05/25 01:43:06.3   0.7                          T                                        4697771
ORIF  004.56 286.7 m E Pn      2011/05/25 01:43:12.3   1.5                          T                                        4697761
ORIF  004.56 286.7 m E Sn      2011/05/25 01:44:05.1   3.9                          T                5.0  .56 Ml 2.7         4697768
CABF  005.07 306.1 m E Pn      2011/05/25 01:43:18.6   0.8                          T                                        4697763
HINF  005.43 320.0 m E Pn      2011/05/25 01:43:22.2  -0.3                          T                                        4697766
HINF  005.43 320.0 m E Sn      2011/05/25 01:44:26.3   4.3                          T                5.0  .49 Ml 3.0         4697778
CDF   005.70 326.2 m E Pn      2011/05/25 01:43:25.4  -0.8                          T                                        4697765
CDF   005.70 326.2 m E Sn      2011/05/25 01:44:28.9   0.5                          T                4.7  .52 Ml 3.1         4697776
HAU   005.80 318.8 m E Pn      2011/05/25 01:43:26.9  -0.7                          T                                        4697767
HAU   005.80 318.8 m E Sn      2011/05/25 01:44:31.8   0.9                          T                7.5  .44 Ml 3.1         4697777
SMF   006.46 299.3 m E Pn      2011/05/25 01:43:36.4  -0.2                          T                                        4697780
SMF   006.46 299.3 m E Sn      2011/05/25 01:44:48.7   2.2                          T                5.7  .53 Ml 3.2         4697779
LOR   006.72 304.2 m E Pn      2011/05/25 01:43:40.7   0.6 119.1  0.7               T                                        4697764
LOR   006.72 304.2 m E Sn      2011/05/25 01:44:54.8   2.0                          T                1.9  .32 Ml 3.0         4697775
MTLF  007.15 269.9 m E Pn      2011/05/25 01:43:46.4   0.5                          T                                        4697762

.
EVENT     259700
    Date      Time       Latitude Longitude    Depth    Ndef Nsta Gap    Mag1  N    Mag2  N    Mag3  N   Author         ID
       rms   OT_Error      Smajor Sminor Az        Err   mdist  Mdist     Err        Err        Err      Quality

2011/05/25 01:51:15.0     43.7361   11.9983      7.0 f    28   19 275  Ml 3.0  8                         js067245    259700

      1.30   +-  0.75      15.7    8.9   87.64 +-  0.0    0.16   7.12   +-0.2                            m i ke

CENTRAL ITALY
Sta     Dist  EvAz     Phase      Date       Time     TRes  Azim  AzRes  Slow  SRes Def   SNR       Amp   Per   Mag1   Mag2       ID
PGF   002.50 242.6 m E Pn      2011/05/25 01:51:54.6   0.3                          T                                        4697804
SBF   003.31 273.8 m E Pn      2011/05/25 01:52:04.2  -1.1                          T                                        4697805
SBF   003.31 273.8 m E Sn      2011/05/25 01:52:41.7  -0.8                          T               19.0  .62 Ml 3.0         4697792
FRF   003.89 269.3 m E Pn      2011/05/25 01:52:12.5  -0.7                          T                                        4697807
FRF   003.89 269.3 m E Sn      2011/05/25 01:52:55.5  -0.8                          T                8.9  .60 Ml 2.8         4697791
LMR   004.01 266.1 m E Pn      2011/05/25 01:52:14.0  -0.8                          T                                        4697806
MBDF  003.89 286.6 m E Pn      2011/05/25 01:52:14.5   1.2                          T                                        4697801
LPG   004.14 297.0 m E Pn      2011/05/25 01:52:16.5  -0.4                          T                                        4697793
LPL   004.16 297.2 m E Pn      2011/05/25 01:52:17.0  -0.2                          T                                        4697794
LPL   004.16 297.2 m E Sn      2011/05/25 01:53:06.2   3.1                          T                4.3  .56 Ml 2.6         4697790
ORIF  004.55 287.2 m E Pn      2011/05/25 01:52:23.1   0.9                          T                                        4697802
SMRF  004.65 275.2 m E Pn      2011/05/25 01:52:24.2   0.6                          T                                        4697803
CABF  005.07 306.6 m E Pn      2011/05/25 01:52:30.3   0.9                          T                                        4697796
CDF   005.71 326.6 m E Pn      2011/05/25 01:52:36.9  -1.2                          T                                        4697799
CDF   005.71 326.6 m E Sn      2011/05/25 01:53:41.1   1.0                          T                3.6  .42 Ml 3.1         4697786
PAGF  006.50 320.1 m E Pn      2011/05/25 01:52:47.8  -0.8                          T                                        4697798
MEZF  006.78 317.1 m E Pn      2011/05/25 01:52:52.8   0.3                          T                                        4697797
AVF   006.82 299.6 m E Pn      2011/05/25 01:52:53.5   0.4                          T                                        4697795
MTLF  007.12 270.2 m E Pn      2011/05/25 01:52:57.4   0.2                          T                                        4697800
HINF  005.44 320.4 m E Sn      2011/05/25 01:53:35.3   1.8                          T                9.6  .64 Ml 3.1         4697787
HAU   005.81 319.2 m E Sn      2011/05/25 01:53:43.4   1.0                          T                6.2  .40 Ml 3.0         4697788
SMF   006.46 299.6 m E Sn      2011/05/25 01:54:00.3   2.6                          T                3.3  .47 Ml 3.0         4697789
LOR   006.72 304.5 m E Sn      2011/05/25 01:54:06.3   2.3                          T                5.7  .63 Ml 3.2         4697785

.
EVENT     259694
    Date      Time       Latitude Longitude    Depth    Ndef Nsta Gap    Mag1  N    Mag2  N    Mag3  N   Author         ID
       rms   OT_Error      Smajor Sminor Az        Err   mdist  Mdist     Err        Err        Err      Quality

2011/05/25 04:06:54.6     42.8852   -1.4436      2.0      62   21 063  Ml 3.1 16  Md 2.9  2              js067245    259694

      0.88   +-  0.11       2.2    2.0    6.88 +-  0.0    0.15   5.78   +-0.2      +-0.1                 m i ke

PYRENEES
Sta     Dist  EvAz     Phase      Date       Time     TRes  Azim  AzRes  Slow  SRes Def   SNR       Amp   Per   Mag1   Mag2       ID
SJPF  000.28 035.0 m E Pg      2011/05/25 04:06:59.4  -0.7                          T                                        4697819
SJPF  000.28 035.0 m E Sg      2011/05/25 04:07:04.0   0.1                          T              346.0  .30        Md 2.8  4697814
ETSF  000.65 088.5 m E Pg      2011/05/25 04:07:05.3  -1.7                          T                                        4697818
ETSF  000.65 088.5 m E Sg      2011/05/25 04:07:14.3  -1.2                          T              111.9  .42        Md 2.9  4697813
EPF   001.32 083.1 m E Pn      2011/05/25 04:07:17.3  -1.1                          T                                        4697817
EPF   001.32 083.1 m E Sg      2011/05/25 04:07:37.4   1.1                          T              128.4  .42 Ml 3.4         4697812
LFF   002.59 036.8 m E Pn      2011/05/25 04:07:34.8  -0.8                          T                                        4697839
MTLF  002.72 079.1 m E Pn      2011/05/25 04:07:39.5   2.0                          T                                        4697816
MTLF  002.72 079.1 m E Sn      2011/05/25 04:08:09.3   0.3                          T               11.0  .40 Ml 2.8         4697811
RJF   003.22 040.4 m E Pn      2011/05/25 04:07:43.3  -1.0                          T                                        4697838
RJF   003.22 040.4 m E Sn      2011/05/25 04:08:21.3   0.3                          T               10.6  .28 Ml 2.7         4697823
CAF   003.25 050.0 m E Pn      2011/05/25 04:07:43.4  -1.3                          T                                        4697840
CAF   003.25 050.0 m E Sn      2011/05/25 04:08:22.8   1.0                          T               10.4  .36 Ml 2.9         4697824
MFF   003.83 013.5 m E Pn      2011/05/25 04:07:52.7   0.2                          T                                        4697837
MFF   003.83 013.5 m E Sn      2011/05/25 04:08:36.0   0.5                          T               10.1  .50 Ml 3.1         4697822
LASF  004.04 071.0 m E Pn      2011/05/25 04:07:55.6   0.2                          T                                        4697815
TCF   004.29 036.2 m E Pn      2011/05/25 04:07:59.1   0.3                          T                                        4697831
TCF   004.29 036.2 m E Sn      2011/05/25 04:08:48.1   1.6                          T                6.0  .32 Ml 3.0         4698431
VIVF  004.84 063.9 m E Pn      2011/05/25 04:08:05.3  -1.1                          T                                        4697825
VIVF  004.84 063.9 m E Sn      2011/05/25 04:08:59.5  -0.2                          T               10.4  .44 Ml 3.2         4698450
BGF   004.78 038.3 m E Pn      2011/05/25 04:08:05.9   0.5                          T                                        4697836
BGF   004.78 038.3 m E Sn      2011/05/25 04:08:56.7  -1.5                          T               27.8  .60 Ml 3.5         4698433
QUIF  005.18 347.1 m E Pn      2011/05/25 04:08:10.3  -0.6                          T                                        4697828
QUIF  005.18 347.1 m E Sn      2011/05/25 04:09:11.0   3.4                          T                4.8  .44 Ml 2.9         4697820
AVF   005.18 039.5 m E Pn      2011/05/25 04:08:11.2   0.2                          T                                        4697834
AVF   005.18 039.5 m E Sn      2011/05/25 04:09:09.6   1.8                          T                7.1  .62 Ml 3.0         4698432
SMF   005.32 043.2 m E Pn      2011/05/25 04:08:12.5  -0.3                          T                                        4697830
SMF   005.32 043.2 m E Sn      2011/05/25 04:09:11.9   0.8                          T               14.9  .56 Ml 3.4         4698428
SSF   005.46 038.4 m E Pn      2011/05/25 04:08:14.5  -0.2                          T                                        4697833
SSF   005.46 038.4 m E Sn      2011/05/25 04:09:15.0   0.6                          T                6.9  .52 Ml 3.2         4698430
SGMF  005.43 352.1 m E Pn      2011/05/25 04:08:14.8   0.5                          T                                        4697827
GRR   005.52 004.1 m E Pn      2011/05/25 04:08:15.9   0.4                          T                                        4697826
GRR   005.52 004.1 m E Sn      2011/05/25 04:09:17.3   1.4                          T                3.3  .34 Ml 2.8         4697821
ROSF  005.60 347.4 m E Pn      2011/05/25 04:08:17.0   0.3                          T                                        4697829
ROSF  005.60 347.4 m E Sn      2011/05/25 04:09:19.3   1.5                          T                5.3  .48 Ml 3.0         4698427
LDF   005.78 008.7 m E Pn      2011/05/25 04:08:18.5  -0.7                          T                                        4698426
LOR   005.77 038.8 m E Pn      2011/05/25 04:08:18.9  -0.1                          T                                        4697832
LOR   005.77 038.8 m E Sn      2011/05/25 04:09:23.7   1.8                          T               13.6  .52 Ml 3.5         4698429

.
EVENT     259696
    Date      Time       Latitude Longitude    Depth    Ndef Nsta Gap    Mag1  N    Mag2  N    Mag3  N   Author         ID
       rms   OT_Error      Smajor Sminor Az        Err   mdist  Mdist     Err        Err        Err      Quality

2011/05/25 04:06:56.9     43.8318   12.0093      5.0 f    15    7 186  Ml 2.6  2                         js067245    259696

      1.83   +-  0.56      15.1    7.9   47.19 +-  0.0    0.14   5.64   +-0.2                            m i ke

CENTRAL ITALY
Sta     Dist  EvAz     Phase      Date       Time     TRes  Azim  AzRes  Slow  SRes Def   SNR       Amp   Per   Mag1   Mag2       ID
PGF   002.55 240.8 m E Pn      2011/05/25 04:07:37.3   0.1                          T                                        4698676
SBF   003.31 272.1 m E Pn      2011/05/25 04:07:47.2  -0.3                          T                                        4698680
SBF   003.31 272.1 m E Sn      2011/05/25 04:08:25.1   0.2                          T                7.5  .43 Ml 2.7         4698673
FRF   003.90 267.9 m E Pn      2011/05/25 04:07:55.2  -0.3                          T                                        4698679
FRF   003.90 267.9 m E Sn      2011/05/25 04:08:39.9   1.0                          T                1.4  .24 Ml 2.4         4698672
LPG   004.10 295.8 m E Pn      2011/05/25 04:07:58.8   0.2                          T                                        4698677
LPL   004.12 295.9 m E Pn      2011/05/25 04:07:59.7   0.9                          T                                        4698675
SMRF  004.65 274.0 m E Pn      2011/05/25 04:08:06.4   0.7                          T                                        4698678
CDF   005.64 326.0 m E Pn      2011/05/25 04:08:19.4   0.1                          T                                        4698674

.
