EVENT     284995
    Date      Time       Latitude Longitude    Depth    Ndef Nsta Gap    Mag1  N    Mag2  N    Mag3  N   Author         ID
       rms   OT_Error      Smajor Sminor Az        Err   mdist  Mdist     Err        Err        Err      Quality

2012/10/12 20:41:32.1     45.8487    7.4174      7.0 f   114   29 083  Ml 3.0 26  Md 3.0  3              bulletin    285095
                                                                                                         _ldg
      0.55   +-  0.04       1.0     .7  105.15 +-  0.0    0.23   6.19   +-0.3      +-0.1                 m i ke

NORTHERN ITALY
Sta     Dist  EvAz     Phase      Date       Time     TRes  Azim  AzRes  Slow  SRes Def   SNR       Amp   Per   Mag1   Mag2       ID
LPG   000.58 233.3 m E Pg      2012/10/12 20:41:42.5  -1.1                          T                                        5096539
LPG   000.58 233.3 m E Sg      2012/10/12 20:41:50.6  -0.8                          T               50.9  .16        Md 3.0  5096544
LPL   000.58 235.6 m E Pg      2012/10/12 20:41:42.5  -1.0                          T                                        5096540
LPL   000.58 235.6 m E Sg      2012/10/12 20:41:50.5  -0.7                          T               80.3  .34        Md 3.0  5096543
CABF  001.20 310.0 m E Pn      2012/10/12 20:41:54.0   0.2                          T                                        5096558
CABF  001.20 310.0 m E Pg      2012/10/12 20:41:54.7   0.1                          T                                        5096546
CABF  001.20 310.0 m E Sg      2012/10/12 20:42:10.7   0.6                          T               41.7  .21 Ml 3.2         5096545
MBDF  001.21 202.4 m E Pg      2012/10/12 20:41:54.7  -0.3                          T                                        5096538
MBDF  001.21 202.4 m E Sg      2012/10/12 20:42:09.3  -1.3                          T               39.0  .24 Ml 3.1 Md 2.9  5096541
ORIF  001.43 229.9 m E Pg      2012/10/12 20:41:58.1  -0.7                          T                                        5096537
ORIF  001.43 229.9 m E Sg      2012/10/12 20:42:16.1  -1.3                          T               32.6  .33 Ml 3.0         5096542
SBF   001.99 179.6 m E Pn      2012/10/12 20:42:04.5   0.0                          T                                        5096536
SBF   001.99 179.6 m E P       2012/10/12 20:42:06.4  -0.3                          T                                        5112726
SBF   001.99 179.6 m E Pg      2012/10/12 20:42:09.2   0.1                          T                                        5112727
SBF   001.99 179.6 m E Sg      2012/10/12 20:42:34.5  -0.2                          T               32.9  .45 Ml 3.1         5096582
HINF  002.01 349.1 m E P       2012/10/12 20:42:06.5  -0.4                          T                                        5112741
HINF  002.01 349.1 m E Pg      2012/10/12 20:42:09.7   0.3                          T                                        5096562
HINF  002.01 349.1 m E Sg      2012/10/12 20:42:35.4   0.1                          T               43.9  .34 Ml 3.3         5096561
VIVF  002.17 243.8 m E Pn      2012/10/12 20:42:06.9   0.0                          T                                        5096533
VIVF  002.17 243.8 m E P       2012/10/12 20:42:09.2  -0.2                          T                                        5112728
VIVF  002.17 243.8 m E Pg      2012/10/12 20:42:12.7   0.2                          T                                        5096581
VIVF  002.17 243.8 m E Sn      2012/10/12 20:42:32.5  -0.1                          T               20.7  .33 Ml 3.0         5112729
VIVF  002.17 243.8 m E Sg      2012/10/12 20:42:40.8   0.3                          T                9.1  .27 Ml 2.8         5096580
SMRF  002.28 215.6 m E P       2012/10/12 20:42:11.3   0.3                          T                                        5112722
FRF   002.35 193.8 m E P       2012/10/12 20:42:12.3   0.4                          T                                        5112723
FRF   002.35 193.8 m E Pg      2012/10/12 20:42:15.6  -0.2                          T                                        5096534
FRF   002.35 193.8 m E Sg      2012/10/12 20:42:45.8  -0.2                          T               12.9  .32 Ml 2.9         5096584
SMF   002.61 289.1 m E Pn      2012/10/12 20:42:12.9   0.1                          T                                        5096531
SMF   002.61 289.1 m E P       2012/10/12 20:42:15.4  -0.1                          T                                        5112738
SMF   002.61 289.1 m E Pg      2012/10/12 20:42:20.8   0.3                          T                                        5096571
SMF   002.61 289.1 m E Sn      2012/10/12 20:42:43.1   0.2                          T               18.1  .25 Ml 3.2         5112739
SMF   002.61 289.1 m E Sg      2012/10/12 20:42:54.5   0.5                          T               21.5  .22 Ml 3.3         5096587
CDF   002.57 357.9 m E P       2012/10/12 20:42:14.1  -0.9                          T                                        5112744
CDF   002.57 357.9 m E Pg      2012/10/12 20:42:19.8   0.0                          T                                        5096553
CDF   002.57 357.9 m E Sg      2012/10/12 20:42:52.8   0.0                          T               18.4  .36 Ml 3.2         5096552
LMR   002.60 194.8 m E P       2012/10/12 20:42:15.3   0.0                          T                                        5112724
LMR   002.60 194.8 m E Pg      2012/10/12 20:42:20.3   0.0                          T                                        5112725
LMR   002.60 194.8 m E Sg      2012/10/12 20:42:53.7   0.1                          T                5.4  .32 Ml 2.6         5096583
SFTF  002.86 326.2 m E Pn      2012/10/12 20:42:16.3   0.0                          T                                        5096528
SFTF  002.86 326.2 m E P       2012/10/12 20:42:19.3   0.1                          T                                        5112742
SFTF  002.86 326.2 m E Pg      2012/10/12 20:42:25.6   0.4 139.9  -4.6              T                                        5096559
SFTF  002.86 326.2 m E Sg      2012/10/12 20:43:01.7  -0.3                          T               15.8  .36 Ml 3.0         5096560
LOR   002.84 301.3 m E Pn      2012/10/12 20:42:16.4   0.4                          T                                        5096526
LOR   002.84 301.3 m E P       2012/10/12 20:42:18.6  -0.2                          T                                        5112749
LOR   002.84 301.3 m E Pg      2012/10/12 20:42:25.0   0.3 116.6  -2.1              T                                        5096550
LOR   002.84 301.3 m E Sg      2012/10/12 20:43:00.1  -1.0 131.2  12.4              T               18.9  .24 Ml 3.3         5096549
PAGF  002.94 337.5 m E Pn      2012/10/12 20:42:17.6   0.2                          T                                        5096523
PAGF  002.94 337.5 m E P       2012/10/12 20:42:20.2  -0.1                          T                                        5112743
PAGF  002.94 337.5 m E Pg      2012/10/12 20:42:26.7   0.0 159.8  3.5               T                                        5096554
PAGF  002.94 337.5 m E Sg      2012/10/12 20:43:04.3  -0.2                          T                4.1  .27 Ml 2.6         5112750
AVF   002.97 289.9 m E Pn      2012/10/12 20:42:18.1   0.3                          T                                        5096530
AVF   002.97 289.9 m E P       2012/10/12 20:42:20.4  -0.3                          T                                        5112740
AVF   002.97 289.9 m E Pg      2012/10/12 20:42:27.6   0.4                          T                                        5096570
AVF   002.97 289.9 m E Sg      2012/10/12 20:43:05.3   0.0                          T               11.1  .30 Ml 3.0         5096586
SSF   002.96 295.6 m E Pn      2012/10/12 20:42:18.1   0.4                          T                                        5096525
SSF   002.96 295.6 m E P       2012/10/12 20:42:20.4  -0.2                          T                                        5112748
SSF   002.96 295.6 m E Pg      2012/10/12 20:42:27.5   0.5                          T                                        5096547
SSF   002.96 295.6 m E Sg      2012/10/12 20:43:03.6  -1.6                          T               13.1  .28 Ml 3.2         5096548
MEZF  003.11 329.6 m E Pn      2012/10/12 20:42:19.6   0.0                          T                                        5096527
MEZF  003.11 329.6 m E Pg      2012/10/12 20:42:29.9   0.3 146.1  -1.7              T                                        5096557
MEZF  003.11 329.6 m E Sn      2012/10/12 20:42:54.3  -0.4                          T                                        5096555
MEZF  003.11 329.6 m E Sg      2012/10/12 20:43:09.4  -0.2                          T                8.5  .26 Ml 3.0         5096556
BGF   003.25 284.2 m E Pn      2012/10/12 20:42:21.8   0.2                          T                                        5096575
BGF   003.25 284.2 m E P       2012/10/12 20:42:24.3  -0.4                          T                                        5112736
BGF   003.25 284.2 m E Pg      2012/10/12 20:42:32.7   0.4                          T                                        5096576
BGF   003.25 284.2 m E Sg      2012/10/12 20:43:14.7   0.6                          T               38.4  .46 Ml 3.4         5096574
LASF  003.09 236.2 m E P       2012/10/12 20:42:22.2  -0.2                          T                                        5112730
LASF  003.09 236.2 m E Pg      2012/10/12 20:42:29.2  -0.1                          T                                        5096579
LASF  003.09 236.2 m E Sn      2012/10/12 20:42:54.3   0.0                          T                                        5096578
LASF  003.09 236.2 m E Sg      2012/10/12 20:43:09.3   0.3                          T                3.1  .33 Ml 2.4         5112731
HYF   003.59 295.0 m E Pn      2012/10/12 20:42:26.2   0.0                          T                                        5096572
HYF   003.59 295.0 m E P       2012/10/12 20:42:29.3  -0.2                          T                                        5112737
HYF   003.59 295.0 m E Sn      2012/10/12 20:43:06.6   0.2                          T                                        5096585
HYF   003.59 295.0 m E Sg      2012/10/12 20:43:24.9   0.2                          T                                        5096573
TCF   003.65 278.8 m E Pn      2012/10/12 20:42:26.8  -0.3                          T                                        5096566
TCF   003.65 278.8 m E P       2012/10/12 20:42:30.4   0.0                          T                                        5112747
TCF   003.65 278.8 m E Pg      2012/10/12 20:42:39.7   0.0                          T                                        5096567
TCF   003.65 278.8 m E Sn      2012/10/12 20:43:08.2   0.3                          T                                        5096568
TCF   003.65 278.8 m E Sg      2012/10/12 20:43:26.5  -0.1                          T                7.6  .28 Ml 3.0         5096569
CAF   003.88 258.2 m E Pn      2012/10/12 20:42:31.3   1.0                          T                                        5096522
CAF   003.88 258.2 m E P       2012/10/12 20:42:33.7   0.0                          T                                        5112733
CAF   003.88 258.2 m E Pg      2012/10/12 20:42:44.1   0.1                          T                                        5096577
CAF   003.88 258.2 m E Sg      2012/10/12 20:43:34.1   0.3                          T                2.3  .28 Ml 2.5         5112732
GIVF  004.60 338.7 m E P       2012/10/12 20:42:43.6  -0.2                          T                                        5112746
BAIF  004.73 334.1 m E P       2012/10/12 20:42:44.9  -0.8                          T                                        5112745
MFF   005.30 280.9 m E Pn      2012/10/12 20:42:49.6   0.0                          T                                        5096563
MFF   005.30 280.9 m E P       2012/10/12 20:42:53.4  -0.4                          T                                        5112734
MFF   005.30 280.9 m E Sn      2012/10/12 20:43:47.5   0.3                          T                                        5096564
MFF   005.30 280.9 m E Sg      2012/10/12 20:44:18.6   0.5                          T                1.7  .29 Ml 2.9         5096565
GRR   006.19 297.2 m E P       2012/10/12 20:43:04.2  -2.1                          T                                        5112735
RJF   004.18 264.6 m E Sg      2012/10/12 20:43:43.0  -0.1                          T                4.7  .35 Ml 2.5         5112751

.
EVENT     284996
    Date      Time       Latitude Longitude    Depth    Ndef Nsta Gap    Mag1  N    Mag2  N    Mag3  N   Author         ID
       rms   OT_Error      Smajor Sminor Az        Err   mdist  Mdist     Err        Err        Err      Quality

2012/10/13 00:25:05.3     44.6293    7.2464     13.0 f    30    7 128  Ml 1.6  4  Md 1.4  1              bulletin    285096
                                                                                                         _ldg
      0.33   +-  0.07       1.6     .9   77.41 +-  0.0    0.13   1.40   +-0.2      +-                    m i ke

NORTHERN ITALY
Sta     Dist  EvAz     Phase      Date       Time     TRes  Azim  AzRes  Slow  SRes Def   SNR       Amp   Per   Mag1   Mag2       ID
MBDF  000.35 286.2 m E Pg      2012/10/13 00:25:12.7   0.1                          T                                        5096601
MBDF  000.35 286.2 m E Sg      2012/10/13 00:25:17.4  -0.1                          T                5.5  .20        Md 1.4  5096588
LPG   000.94 338.2 m E Pg      2012/10/13 00:25:23.4   0.0                          T                                        5096598
LPG   000.94 338.2 m E Sg      2012/10/13 00:25:35.2  -0.4                          T                1.6  .30 Ml 1.5         5096591
LPL   000.96 337.9 m E Pg      2012/10/13 00:25:23.7   0.0                          T                                        5096600
LPL   000.96 337.9 m E Sg      2012/10/13 00:25:35.8  -0.5                          T                1.7  .27 Ml 1.6         5096590
ORIF  001.02 287.0 m E Pg      2012/10/13 00:25:24.5  -0.1                          T                                        5096599
ORIF  001.02 287.0 m E Sg      2012/10/13 00:25:37.3  -0.5                          T                  1  .28 Ml 1.4         5096589
FRF   001.15 202.2 m E Pg      2012/10/13 00:25:27.3   0.3                          T                                        5096596
FRF   001.15 202.2 m E Sg      2012/10/13 00:25:42.2   0.3                          T                1.5  .20 Ml 1.8         5096593
LMR   001.40 202.6 m E Pg      2012/10/13 00:25:31.0  -0.4                          T                                        5096595
LMR   001.40 202.6 m E Sg      2012/10/13 00:25:49.2  -0.4                          T                                        5096594
SMRF  001.37 242.0 m E Pg      2012/10/13 00:25:31.3   0.4                          T                                        5096597
SMRF  001.37 242.0 m E Sg      2012/10/13 00:25:49.3   0.7                          T                                        5096592

.
EVENT     284997
    Date      Time       Latitude Longitude    Depth    Ndef Nsta Gap    Mag1  N    Mag2  N    Mag3  N   Author         ID
       rms   OT_Error      Smajor Sminor Az        Err   mdist  Mdist     Err        Err        Err      Quality

2012/10/13 03:24:25.6     49.1135   -2.3486      8.0 f    18    6 246  Ml 2.4  6  Md 2.0  1              bulletin    285097
                                                                                                         _ldg
      0.44   +-  0.18       4.0    1.3  160.02 +-  0.0    0.87   1.56   +-0.1      +-                    m i ke

FRANCE
Sta     Dist  EvAz     Phase      Date       Time     TRes  Azim  AzRes  Slow  SRes Def   SNR       Amp   Per   Mag1   Mag2       ID
SGMF  000.87 189.2 m E Pg      2012/10/13 03:24:42.2   0.2                          T                                        5096609
SGMF  000.87 189.2 m E Sg      2012/10/13 03:24:53.5   0.2                          T                6.3  .19 Ml 2.3 Md 2.0  5096603
ROSF  000.99 218.6 m E Pn      2012/10/13 03:24:43.5  -0.7                          T                                        5096613
ROSF  000.99 218.6 m E Pg      2012/10/13 03:24:44.0  -0.1                          T                                        5112801
ROSF  000.99 218.6 m E Sg      2012/10/13 03:24:57.0   0.0                          T                6.8  .22 Ml 2.3         5096604
GRR   001.22 125.8 m E Pg      2012/10/13 03:24:48.2  -0.3                          T                                        5096612
GRR   001.22 125.8 m E Sg      2012/10/13 03:25:04.7   0.3                          T                6.4  .16 Ml 2.4         5096605
FLN   001.28 105.2 m E Pn      2012/10/13 03:24:48.4   0.2                          T                                        5096611
FLN   001.28 105.2 m E Pg      2012/10/13 03:24:49.6   0.1                          T                                        5112800
FLN   001.28 105.2 m E Sg      2012/10/13 03:25:05.6  -0.4                          T               11.6  .22 Ml 2.5         5096606
QUIF  001.32 204.7 m E Pg      2012/10/13 03:24:49.8  -0.4                          T                                        5096608
QUIF  001.32 204.7 m E Sg      2012/10/13 03:25:07.3   0.1                          T                6.7  .31 Ml 2.3         5096602
LDF   001.56 108.6 m E Pn      2012/10/13 03:24:52.1   0.2                          T                                        5096610
LDF   001.56 108.6 m E Pg      2012/10/13 03:24:54.8   0.1                          T                                        5112799
LDF   001.56 108.6 m E Sg      2012/10/13 03:25:14.0  -0.8                          T                                        5096607

.
