EVENT     273380
    Date      Time       Latitude Longitude    Depth    Ndef Nsta Gap    Mag1  N    Mag2  N    Mag3  N   Author         ID
       rms   OT_Error      Smajor Sminor Az        Err   mdist  Mdist     Err        Err        Err      Quality

2012/04/11 11:39:19.3     46.9170    6.3131       .0 f     5    3 184  Ml 2.0  2  Md 2.0  1              js067245    273400

      0.32   +-  0.24      25.2    3.5  111.26 +-  0.0    0.34   1.09   +-0.1      +-                    m i km

SWITZERLAND
Sta     Dist  EvAz     Phase      Date       Time     TRes  Azim  AzRes  Slow  SRes Def   SNR       Amp   Per   Mag1   Mag2       ID
CABF  000.34 207.0 m E Pg      2012/04/11 11:39:26.1  -0.2                          T                                        4910789
CABF  000.34 207.0 m E Sg      2012/04/11 11:39:31.6   0.5                          T              131.8  .98        Md 2.0  4910788
HINF  000.97 022.0 m E Pg      2012/04/11 11:39:38.0   0.2                          T                                        4911464
HINF  000.97 022.0 m E Sg      2012/04/11 11:39:50.2  -0.5                          T               14.1  .74 Ml 2.1         4911466
HAU   001.09 001.2 m E Sg      2012/04/11 11:39:54.3   0.0                          T               25.1 1.06 Ml 2.0         4911465

.
EVENT     273381
    Date      Time       Latitude Longitude    Depth    Ndef Nsta Gap    Mag1  N    Mag2  N    Mag3  N   Author         ID
       rms   OT_Error      Smajor Sminor Az        Err   mdist  Mdist     Err        Err        Err      Quality

2012/04/11 11:40:49.1     44.4391    5.9703       .0 f     7    3 231  Ml 2.0  1  Md 1.8  2              js067245    273401

      1.16   +-  0.46       9.5    4.6    1.48 +-  0.0    0.48   1.02   +-         +-0.1                 m i km

FRANCE
Sta     Dist  EvAz     Phase      Date       Time     TRes  Azim  AzRes  Slow  SRes Def   SNR       Amp   Per   Mag1   Mag2       ID
ORIF  000.48 352.4 m E Pg      2012/04/11 11:40:58.4  -0.3                          T                                        4911467
ORIF  000.48 352.4 m E Sg      2012/04/11 11:41:05.6   0.3                          T               22.4  .64        Md 1.8  4911469
MBDF  000.64 063.0 m E Pg      2012/04/11 11:41:01.7   0.0                          T                                        4911468
MBDF  000.64 063.0 m E Sg      2012/04/11 11:41:10.3   0.0                          T                7.0  .47        Md 1.9  4911470
VIVF  001.02 294.7 m E Pg      2012/04/11 11:41:08.8   0.3                          T                                        4911472
VIVF  001.02 294.7 m E Sg      2012/04/11 11:41:20.6  -1.2                          T                5.6  .36 Ml 2.0         4911471

.
EVENT     273382
    Date      Time       Latitude Longitude    Depth    Ndef Nsta Gap    Mag1  N    Mag2  N    Mag3  N   Author         ID
       rms   OT_Error      Smajor Sminor Az        Err   mdist  Mdist     Err        Err        Err      Quality

2012/04/11 12:45:45.1     41.3401    1.8878      5.0 f    16    3 208  Ml 2.2  3  Md 2.4  2              js067245    273402

      0.51   +-  0.28       4.6    2.6  145.50 +-  0.0    0.59   2.40   +-0.3      +-0.0                 m i ke

SPAIN
Sta     Dist  EvAz     Phase      Date       Time     TRes  Azim  AzRes  Slow  SRes Def   SNR       Amp   Per   Mag1   Mag2       ID
MTLF  002.01 006.9 m E Pg      2012/04/11 12:46:22.3  -0.2                          T                                        4910346
MTLF  002.01 006.9 m E Sg      2012/04/11 12:46:48.7   0.2                          T                1.2  .22 Ml 1.9 Md 2.3  4910349
EPF   002.04 326.3 m E Pg      2012/04/11 12:46:22.6  -0.5                          T                                        4910347
EPF   002.04 326.3 m E Sg      2012/04/11 12:46:49.3  -0.2                          T               13.8  .58 Ml 2.6 Md 2.4  4910350
ETSF  002.40 311.4 m E Pg      2012/04/11 12:46:30.5   0.9                          T                                        4910345
ETSF  002.40 311.4 m E Sg      2012/04/11 12:47:00.4  -0.1                          T                2.4  .35 Ml 2.1         4910348

.
EVENT     273383
    Date      Time       Latitude Longitude    Depth    Ndef Nsta Gap    Mag1  N    Mag2  N    Mag3  N   Author         ID
       rms   OT_Error      Smajor Sminor Az        Err   mdist  Mdist     Err        Err        Err      Quality

2012/04/11 12:58:24.3     46.8922    5.7637       .0 f     7    4 119  Ml 1.9  3  Md 1.7  1              js067245    273403

      0.23   +-  0.13       3.1    2.1   89.13 +-  0.0    0.36   1.34   +-0.3      +-                    m i km

FRANCE
Sta     Dist  EvAz     Phase      Date       Time     TRes  Azim  AzRes  Slow  SRes Def   SNR       Amp   Per   Mag1   Mag2       ID
CABF  000.36 141.5 m E Pg      2012/04/11 12:58:31.7   0.0                          T                                        4912503
CABF  000.36 141.5 m E Sg      2012/04/11 12:58:36.3  -0.2                          T               60.9  .62        Md 1.7  4912504
HAU   001.18 019.4 m E Pg      2012/04/11 12:58:46.9   0.2                          T                                        4912499
HAU   001.18 019.4 m E Sg      2012/04/11 12:59:01.7  -0.5                          T                3.8  .30 Ml 1.8         4912500
HINF  001.18 038.3 m E Pg      2012/04/11 12:58:47.7   0.9                          T                                        4912501
HINF  001.18 038.3 m E Sg      2012/04/11 12:59:02.4   0.1                          T                8.6  .40 Ml 2.2         4912502
SMF   001.34 260.1 m E Sg      2012/04/11 12:59:07.1  -0.1                          T                1.7  .37 Ml 1.6         4912498

.
EVENT     273384
    Date      Time       Latitude Longitude    Depth    Ndef Nsta Gap    Mag1  N    Mag2  N    Mag3  N   Author         ID
       rms   OT_Error      Smajor Sminor Az        Err   mdist  Mdist     Err        Err        Err      Quality

2012/04/11 13:14:30.9     49.6675   -1.7364       .0 f     8    4 293  Ml 2.4  3  Md 2.1  3              js067245    273404

      0.87   +-  0.55       9.2    4.5  170.58 +-  0.0    1.22   1.51   +-0.1      +-0.0                 m i km

FRANCE
Sta     Dist  EvAz     Phase      Date       Time     TRes  Azim  AzRes  Slow  SRes Def   SNR       Amp   Per   Mag1   Mag2       ID
FLN   001.22 137.3 m E Pg      2012/04/11 13:14:54.2   0.2 314.1  -4.1              T                                        4910797
FLN   001.22 137.3 m E Sg      2012/04/11 13:15:10.6   0.6 311.4  -6.9              T               12.5  .32 Ml 2.4 Md 2.2  4910796
GRR   001.40 155.4 m E Pg      2012/04/11 13:14:57.1  -0.2                          T                                        4910793
GRR   001.40 155.4 m E Sg      2012/04/11 13:15:16.0   0.3                          T                8.7  .18 Ml 2.5 Md 2.1  4910792
LDF   001.51 134.8 m E Pg      2012/04/11 13:14:59.2  -0.1                          T                                        4910795
LDF   001.51 134.8 m E Sg      2012/04/11 13:15:18.2  -0.8                          T                5.7  .31 Ml 2.3 Md 2.1  4910794
SGMF  001.51 201.2 m E Pg      2012/04/11 13:14:59.4   0.0                          T                                        4910791
SGMF  001.51 201.2 m E Sg      2012/04/11 13:15:19.6   0.4                          T                                        4910790

.
EVENT     273583
    Date      Time       Latitude Longitude    Depth    Ndef Nsta Gap    Mag1  N    Mag2  N    Mag3  N   Author         ID
       rms   OT_Error      Smajor Sminor Az        Err   mdist  Mdist     Err        Err        Err      Quality

2012/04/11 13:57:05.2     47.0744    5.9242       .0 f     7    4 126  Ml 2.1  3  Md 1.9  1              bulletin    273603
                                                                                                         _ldg
      0.29   +-  0.15       4.4    2.4   99.86 +-  0.0    0.48   1.42   +-0.1      +-                    m i km

FRANCE
Sta     Dist  EvAz     Phase      Date       Time     TRes  Azim  AzRes  Slow  SRes Def   SNR       Amp   Per   Mag1   Mag2       ID
CABF  000.48 166.3 m E Pg      2012/04/11 13:57:14.7   0.0                          T                                        4910808
CABF  000.48 166.3 m E Sg      2012/04/11 13:57:21.4   0.2                          T              168.4 1.78        Md 1.9  4910807
HINF  000.97 040.0 m E Pg      2012/04/11 13:57:23.4  -0.3                          T                                        4910810
HINF  000.97 040.0 m E Sg      2012/04/11 13:57:37.1   0.5                          T                4.9  .22 Ml 2.1         4910809
HAU   000.98 017.0 m E Pg      2012/04/11 13:57:23.7   0.0                          T                                        4910812
HAU   000.98 017.0 m E Sg      2012/04/11 13:57:37.2   0.6                          T               10.9  .26 Ml 2.2         4910811
LOR   001.42 278.6 m E Sg      2012/04/11 13:57:50.6   0.0                          T                2.2  .23 Ml 2.0         4912505

.
EVENT     273400
    Date      Time       Latitude Longitude    Depth    Ndef Nsta Gap    Mag1  N    Mag2  N    Mag3  N   Author         ID
       rms   OT_Error      Smajor Sminor Az        Err   mdist  Mdist     Err        Err        Err      Quality

2012/04/11 14:31:57.1     46.3537    4.5860       .0 f    12    6 204  Ml 2.1  4  Md 2.0  1              js067245    273420

      0.36   +-  0.25       6.7    2.5    7.35 +-  0.0    0.59   1.22   +-0.2      +-                    m i km

FRANCE
Sta     Dist  EvAz     Phase      Date       Time     TRes  Azim  AzRes  Slow  SRes Def   SNR       Amp   Per   Mag1   Mag2       ID
SMF   000.59 299.8 m E Pg      2012/04/11 14:32:08.1  -0.5                          T                                        4910823
SMF   000.59 299.8 m E Sg      2012/04/11 14:32:16.4  -0.2                          T               65.8 1.42        Md 2.0  4910822
AVF   000.96 297.6 m E Pg      2012/04/11 14:32:15.8   0.5                          T                                        4910821
AVF   000.96 297.6 m E Sg      2012/04/11 14:32:28.6   0.7                          T                5.5  .29 Ml 2.1         4910820
LOR   001.04 331.6 m E Pg      2012/04/11 14:32:16.6  -0.3                          T                                        4910815
LOR   001.04 331.6 m E Sg      2012/04/11 14:32:30.6   0.0                          T                4.4  .39 Ml 1.9         4910813
SSF   001.03 314.0 m E Pg      2012/04/11 14:32:16.7   0.1                          T                                        4910816
SSF   001.03 314.0 m E Sg      2012/04/11 14:32:30.3   0.2                          T                5.7  .47 Ml 2.0         4910814
CABF  001.07 075.5 m E Pg      2012/04/11 14:32:17.8   0.3                          T                                        4910819
CABF  001.07 075.5 m E Sg      2012/04/11 14:32:31.2  -0.4                          T                                        4910818
BGF   001.22 280.3 m E Pg      2012/04/11 14:32:19.9  -0.3                          T                                        4910817
BGF   001.22 280.3 m E Sg      2012/04/11 14:32:36.5   0.3                          T                8.0  .33 Ml 2.3         4911790

.
EVENT     273392
    Date      Time       Latitude Longitude    Depth    Ndef Nsta Gap    Mag1  N    Mag2  N    Mag3  N   Author         ID
       rms   OT_Error      Smajor Sminor Az        Err   mdist  Mdist     Err        Err        Err      Quality

2012/04/11 20:13:27.0     51.4374   16.0579      1.0 f    47    9 177  Ml 3.6  6                         bulletin    273412
                                                                                                         _ldg
      1.02   +-  0.33       8.7    4.1   22.43 +-  0.0    0.61   8.99   +-0.3                            m i sr

POLAND
Sta     Dist  EvAz     Phase      Date       Time     TRes  Azim  AzRes  Slow  SRes Def   SNR       Amp   Per   Mag1   Mag2       ID
LANF  005.84 248.3 m E Pn      2012/04/11 20:14:52.4  -0.1                          T                                        4910361
CDF   006.43 245.3 m E Pn      2012/04/11 20:15:00.8   0.3                          T                                        4907731
CDF   006.43 245.3 m E P       2012/04/11 20:15:04.0  -1.4                          T                                        4910360
CDF   006.43 245.3 m E Sg      2012/04/11 20:16:50.5   2.2                          T               34.4  .82 Ml 3.9         4907730
HINF  006.99 242.4 m E Pn      2012/04/11 20:15:08.6   0.4                          T                                        4907777
HINF  006.99 242.4 m E Sg      2012/04/11 20:17:05.6  -0.2                          T               14.4  .60 Ml 3.6         4910367
HAU   007.17 245.2 m E Pn      2012/04/11 20:15:11.0   0.4                          T                                        4907775
HAU   007.17 245.2 m E Sg      2012/04/11 20:17:11.0  -0.4                          T               15.7  .60 Ml 3.5         4910365
MEZF  007.68 251.8 m E Pn      2012/04/11 20:15:17.4  -0.1                          T                                        4910359
LOR   008.99 247.1 m E Pn      2012/04/11 20:15:35.8   0.4                          T                                        4910362
PAGF  007.26 250.6 m E Sg      2012/04/11 20:17:13.9  -0.2                          T                5.1  .76 Ml 3.1         4910364
GIVF  007.25 263.8 m E Pg      2012/04/11 20:17:14.4  93.5                          T                                        4912506
GIVF  007.25 263.8 m E Sg      2012/04/11 20:17:21.2   7.3                          T               14.2  .64 Ml 3.6         4910366
BAIF  007.64 264.2 m E Sg      2012/04/11 20:17:26.2   0.0                          T               26.4 1.06 Ml 3.8         4910363

.
EVENT     273401
    Date      Time       Latitude Longitude    Depth    Ndef Nsta Gap    Mag1  N    Mag2  N    Mag3  N   Author         ID
       rms   OT_Error      Smajor Sminor Az        Err   mdist  Mdist     Err        Err        Err      Quality

2012/04/11 20:58:07.6     42.8271   -7.2500     11.0 f    81   17 092  Ml 3.0 15  Md 3.1  2              js067245    273421

      1.26   +-  0.12       3.0    2.1  119.03 +-  0.0    0.51   9.71   +-0.3      +-0.0                 m i ke

SPAIN
Sta     Dist  EvAz     Phase      Date       Time     TRes  Azim  AzRes  Slow  SRes Def   SNR       Amp   Per   Mag1   Mag2       ID
SJPF  004.43 084.3 m E P       2012/04/11 20:59:15.6  -1.0                          T                                        4910412
ETSF  004.92 086.9 m E Pn      2012/04/11 20:59:19.3  -0.2                          T                                        4910402
ETSF  004.92 086.9 m E P       2012/04/11 20:59:23.0  -0.6                          T                                        4910413
ETSF  004.92 086.9 m E Sn      2012/04/11 21:00:14.3   1.3                          T                3.9  .41 Ml 2.8 Md 3.1  4910416
EPF   005.58 085.3 m E Pn      2012/04/11 20:59:27.1  -1.3                          T                                        4910415
EPF   005.58 085.3 m E P       2012/04/11 20:59:32.7  -0.1                          T                                        4910414
EPF   005.58 085.3 m E Sn      2012/04/11 21:00:29.7   1.0                          T                1.4  .31 Ml 2.7 Md 3.2  4910397
QUIF  005.85 028.1 m E Pn      2012/04/11 20:59:31.5  -0.5                          T                                        4910387
QUIF  005.85 028.1 m E Sn      2012/04/11 21:00:34.4  -0.7                          T                3.8  .26 Ml 3.2         4910418
LFF   006.15 067.2 m E Pn      2012/04/11 20:59:36.6   0.4                          T                                        4910394
ROSF  006.18 025.5 m E Pn      2012/04/11 20:59:36.6   0.1                          T                                        4910385
ROSF  006.18 025.5 m E Sn      2012/04/11 21:00:42.9   0.0                          T                2.5  .23 Ml 3.2         4910380
SGMF  006.35 029.6 m E Pn      2012/04/11 20:59:37.9  -0.9                          T                                        4910386
SGMF  006.35 029.6 m E Sn      2012/04/11 21:00:45.0  -2.1                          T                1.5  .28 Ml 2.9         4910403
MFF   006.31 050.9 m E Pn      2012/04/11 20:59:39.0   0.6                          T                                        4910401
MFF   006.31 050.9 m E Sn      2012/04/11 21:00:45.3  -0.9                          T                1.7  .30 Ml 3.1         4910400
RJF   006.78 065.6 m E Pn      2012/04/11 20:59:45.2   0.4                          T                                        4910392
RJF   006.78 065.6 m E Sn      2012/04/11 21:00:56.7  -0.8                          T                1.6  .22 Ml 2.8         4910393
MTLF  006.95 082.5 m E Pn      2012/04/11 20:59:48.3   1.2                          T                                        4910399
MTLF  006.95 082.5 m E Sn      2012/04/11 21:01:02.7   1.2                          T                 .3  .19 Ml 2.4         4910398
CAF   007.05 069.5 m E Pn      2012/04/11 20:59:48.8   0.4                          T                                        4910395
CAF   007.05 069.5 m E Sn      2012/04/11 21:01:03.6  -0.3                          T                  1  .26 Ml 2.8         4910396
GRR   007.14 036.7 m E Pn      2012/04/11 20:59:49.1  -0.5                          T                                        4910388
GRR   007.14 036.7 m E Sn      2012/04/11 21:01:03.8  -2.2                          T                1.9  .29 Ml 3.0         4910391
FLN   007.59 036.2 m E Pn      2012/04/11 20:59:55.5  -0.3 205.8  -15.3             T                                        4910417
LDF   007.62 038.4 m E Pn      2012/04/11 20:59:56.4   0.2                          T                                        4910389
LDF   007.62 038.4 m E Sn      2012/04/11 21:01:14.5  -3.0                          T                3.0  .45 Ml 3.2         4910390
TCF   007.59 059.6 m E Pn      2012/04/11 20:59:56.6   0.8                          T                                        4910378
TCF   007.59 059.6 m E Sn      2012/04/11 21:01:14.1  -2.6                          T                2.0  .29 Ml 3.2         4910377
BGF   008.10 059.1 m E Pn      2012/04/11 21:00:03.3   0.6                          T                                        4910384
BGF   008.10 059.1 m E Sn      2012/04/11 21:01:29.1   0.1                          T                3.9  .42 Ml 3.4         4910381
HYF   008.29 054.2 m E Pn      2012/04/11 21:00:05.6   0.3                          T                                        4910376
HYF   008.29 054.2 m E Sn      2012/04/11 21:01:35.1   1.7                          T                                        4910379

.
