EVENT     257511
    Date      Time       Latitude Longitude    Depth    Ndef Nsta Gap    Mag1  N    Mag2  N    Mag3  N   Author         ID
       rms   OT_Error      Smajor Sminor Az        Err   mdist  Mdist     Err        Err        Err      Quality

2011/03/24 06:52:22.6     47.1408    1.5854      2.0      22    9 193  Ml 2.0 11  Md 1.9  3              js067245    257511

      0.31   +-  0.09       2.0    1.0  166.85 +-  0.0    0.73   1.84   +-0.2      +-0.1                 m i ke

FRANCE
Sta     Dist  EvAz     Phase      Date       Time     TRes  Azim  AzRes  Slow  SRes Def   SNR       Amp   Per   Mag1   Mag2       ID
HYF   000.73 079.5 m E Pg      2011/03/24 06:52:36.3  -0.2                          T                                        4663600
HYF   000.73 079.5 m E Sg      2011/03/24 06:52:46.0   0.0                          T                                Md 2.0  4663599
TCF   000.96 153.0 m E Pg      2011/03/24 06:52:40.8   0.2                          T                                        4663584
TCF   000.96 153.0 m E Sg      2011/03/24 06:52:53.3   0.3                          T                3.0  .18 Ml 2.1 Md 1.9  4663574
BGF   001.04 123.5 m E Pg      2011/03/24 06:52:42.6   0.4                          T                                        4663580
BGF   001.04 123.5 m E Sg      2011/03/24 06:52:55.7   0.0                          T                9.9  .28 Ml 2.4 Md 1.9  4663577
AVF   001.26 105.5 m E Pg      2011/03/24 06:52:46.3   0.2                          T                                        4663581
AVF   001.26 105.5 m E Sg      2011/03/24 06:53:02.5   0.0                          T                2.2  .23 Ml 1.9         4663575
SSF   001.31 092.8 m E Pg      2011/03/24 06:52:47.2   0.0                          T                                        4663583
SSF   001.31 092.8 m E Sg      2011/03/24 06:53:04.3   0.1                          T                2.9  .43 Ml 1.9         4663572
MFF   001.30 246.2 m E Pg      2011/03/24 06:52:47.2   0.2                          T                                        4663598
MFF   001.30 246.2 m E Sg      2011/03/24 06:53:03.8   0.0                          T                1.8  .21 Ml 2.0         4663597
LOR   001.56 084.5 m E Pg      2011/03/24 06:52:51.4  -0.2 264.6  -1.5              T                                        4663582
LOR   001.56 084.5 m E Sg      2011/03/24 06:53:11.6  -0.1 263.0  -3.1              T                2.3  .31 Ml 1.9         4663573
SMF   001.62 106.9 m E Pg      2011/03/24 06:52:52.9   0.0                          T                                        4663605
SMF   001.62 106.9 m E Sg      2011/03/24 06:53:14.0   0.1                          T                3.0  .37 Ml 2.0         4663576
RJF   001.84 181.5 m E Pg      2011/03/24 06:52:56.3  -0.5                          T                                        4663595
RJF   001.84 181.5 m E Sg      2011/03/24 06:53:19.2  -1.3                          T                1.7  .22 Ml 1.7         4663596

.
EVENT     257554
    Date      Time       Latitude Longitude    Depth    Ndef Nsta Gap    Mag1  N    Mag2  N    Mag3  N   Author         ID
       rms   OT_Error      Smajor Sminor Az        Err   mdist  Mdist     Err        Err        Err      Quality

2011/03/24 12:25:20.3     41.8045    2.9565      8.0 f    81   16 104  Ml 2.8 19  Md 2.6  1              js067245    257554

      0.79   +-  0.12       2.3    1.5  149.80 +-  0.0    0.09   5.49   +-0.3      +-                    m i ke

SPAIN
Sta     Dist  EvAz     Phase      Date       Time     TRes  Azim  AzRes  Slow  SRes Def   SNR       Amp   Per   Mag1   Mag2       ID
MTLF  001.63 340.7 m E Pn      2011/03/24 12:25:47.7   0.0                          T                                        4663686
MTLF  001.63 340.7 m E Pg      2011/03/24 12:25:50.0  -0.7                          T                                        4663688
MTLF  001.63 340.7 m E Sg      2011/03/24 12:26:10.8  -1.0                          T               13.2  .20 Ml 2.9 Md 2.6  4663684
EPF   002.29 303.2 m E Pn      2011/03/24 12:25:56.8   0.1                          T                                        4663717
EPF   002.29 303.2 m E Pg      2011/03/24 12:26:02.0  -0.9                          T                                        4663687
EPF   002.29 303.2 m E Sg      2011/03/24 12:26:30.9  -1.6                          T               23.7  .22 Ml 3.3         4663685
LASF  002.36 015.9 m E Pn      2011/03/24 12:25:57.7   0.0                          T                                        4663719
LASF  002.36 015.9 m E Sn      2011/03/24 12:26:25.3   0.1                          T                                        4663762
LASF  002.36 015.9 m E Sg      2011/03/24 12:26:33.6  -1.1                          T                7.2  .20 Ml 2.8         4663682
ETSF  002.83 293.9 m E Pn      2011/03/24 12:26:03.8  -0.2                          T                                        4663716
ETSF  002.83 293.9 m E Pg      2011/03/24 12:26:10.7  -2.1                          T                                        4663723
ETSF  002.83 293.9 m E Sg      2011/03/24 12:26:49.1  -0.1                          T               32.9  .40 Ml 3.3         4663683
SMRF  002.90 040.7 m E Pn      2011/03/24 12:26:05.0   0.0                          T                                        4663710
SMRF  002.90 040.7 m E Sn      2011/03/24 12:26:38.4   0.5                          T                                        4663761
SMRF  002.90 040.7 m E Sg      2011/03/24 12:26:51.4   0.0                          T                5.0  .39 Ml 2.5         4663704
LMR   003.04 058.6 m E Pn      2011/03/24 12:26:07.0   0.2                          T                                        4663712
LMR   003.04 058.6 m E Sn      2011/03/24 12:26:42.4   1.2                          T                4.2  .24 Ml 2.7         4663707
FRF   003.24 055.9 m E Pn      2011/03/24 12:26:09.7   0.1                          T                                        4663711
FRF   003.24 055.9 m E Sn      2011/03/24 12:26:47.3   1.4                          T                3.4  .24 Ml 2.7         4663705
VIVF  003.30 021.7 m E Pn      2011/03/24 12:26:10.9   0.5                          T                                        4663718
VIVF  003.30 021.7 m E Sn      2011/03/24 12:26:47.8   0.4                          T                                        4663763
VIVF  003.30 021.7 m E Sg      2011/03/24 12:27:03.3  -0.6                          T                5.1  .24 Ml 2.8         4663702
SJPF  003.36 294.3 m E Pn      2011/03/24 12:26:11.0  -0.2                          T                                        4663715
SJPF  003.36 294.3 m E Pg      2011/03/24 12:26:21.4  -1.2                          T                                        4663722
SJPF  003.36 294.3 m E Sg      2011/03/24 12:27:04.2  -1.5                          T                9.0  .30 Ml 3.0         4663701
LFF   003.53 333.5 m E Pn      2011/03/24 12:26:13.3  -0.2                          T                                        4663714
LFF   003.53 333.5 m E Pg      2011/03/24 12:26:25.0  -0.6                          T                                        4663720
LFF   003.53 333.5 m E Sg      2011/03/24 12:27:09.5  -1.4                          T               15.9  .28 Ml 3.1         4663699
RJF   003.65 343.8 m E Pn      2011/03/24 12:26:15.3   0.1                          T                                        4663713
RJF   003.65 343.8 m E Sg      2011/03/24 12:27:13.7  -1.2                          T                3.5  .24 Ml 2.4         4663698
ORIF  003.77 033.4 m E Pn      2011/03/24 12:26:16.7  -0.2                          T                                        4663709
ORIF  003.77 033.4 m E Sn      2011/03/24 12:26:59.7   0.8                          T                2.4  .39 Ml 2.4         4663703
CAF   003.19 348.5 m E Pg      2011/03/24 12:26:18.5  -0.9                          T                                        4663721
CAF   003.19 348.5 m E Sg      2011/03/24 12:26:59.4  -1.0                          T                5.4  .26 Ml 2.8         4663700
SBF   003.88 056.5 m E Pn      2011/03/24 12:26:18.9   0.5                          T                                        4663708
SBF   003.88 056.5 m E Sn      2011/03/24 12:27:02.7   1.2                          T                1.5  .20 Ml 2.5         4663706
PGF   004.55 078.6 m E Pn      2011/03/24 12:26:26.2  -1.4                          T                                        4663690
PGF   004.55 078.6 m E Sn      2011/03/24 12:27:15.5  -2.1                          T                2.0  .27 Ml 2.9         4663689
TCF   004.51 353.4 m E Pn      2011/03/24 12:26:26.9   0.0                          T                                        4663696
TCF   004.51 353.4 m E Sg      2011/03/24 12:27:40.8  -1.0                          T                1.7  .27 Ml 2.6         4663697

.
EVENT     257559
    Date      Time       Latitude Longitude    Depth    Ndef Nsta Gap    Mag1  N    Mag2  N    Mag3  N   Author         ID
       rms   OT_Error      Smajor Sminor Az        Err   mdist  Mdist     Err        Err        Err      Quality

2011/03/25 01:01:42.3     46.2362    1.8455      2.0      76   29 074  Ml 2.5 29  Md 2.4  3              js067245    257559

      0.48   +-  0.04       1.0     .8  138.70 +-  0.0    0.26   4.29   +-0.3      +-0.0                 m i ke

FRANCE
Sta     Dist  EvAz     Phase      Date       Time     TRes  Azim  AzRes  Slow  SRes Def   SNR       Amp   Per   Mag1   Mag2       ID
TCF   000.26 078.3 m E Pg      2011/03/25 01:01:47.5   0.0                          T                                        4663823
TCF   000.26 078.3 m E Sg      2011/03/25 01:01:50.9  -0.1                          T               33.1  .22        Md 2.4  4663894
BGF   000.76 064.7 m E Pg      2011/03/25 01:01:57.0   0.2                          T                                        4668237
BGF   000.76 064.7 m E Pn      2011/03/25 01:01:59.1   0.5                          T                                        4663819
BGF   000.76 064.7 m E Sg      2011/03/25 01:02:06.2  -0.5                          T               53.4  .28        Md 2.4  4663895
RJF   000.96 194.0 m E Pg      2011/03/25 01:02:00.6   0.3                          T                                        4663816
RJF   000.96 194.0 m E Sg      2011/03/25 01:02:12.8   0.0                          T               35.3  .38 Ml 2.4         4663897
HYF   001.17 027.6 m E Pg      2011/03/25 01:02:04.4   0.2                          T                                        4663818
HYF   001.17 027.6 m E Sg      2011/03/25 01:02:19.6   0.3                          T                                        4663891
AVF   001.18 061.4 m E Pn      2011/03/25 01:02:04.5   0.3                          T                                        4663862
AVF   001.18 061.4 m E Pg      2011/03/25 01:02:05.3   0.9                          T                                        4668239
AVF   001.18 061.4 m E Sg      2011/03/25 01:02:19.2  -0.4                          T               12.2  .26 Ml 2.6         4663879
CAF   001.32 173.2 m E Pn      2011/03/25 01:02:06.6   0.4                          T                                        4663814
CAF   001.32 173.2 m E Pg      2011/03/25 01:02:07.1   0.1                          T                                        4668235
CAF   001.32 173.2 m E Sg      2011/03/25 01:02:23.9  -0.2                          T                8.5  .16 Ml 2.7         4663883
SSF   001.41 053.6 m E Pn      2011/03/25 01:02:08.1   0.7                          T                                        4663822
SSF   001.41 053.6 m E Pg      2011/03/25 01:02:08.8   0.2                          T                                        4668241
SSF   001.41 053.6 m E Sg      2011/03/25 01:02:26.3  -0.6                          T               12.6  .22 Ml 2.8         4663893
SMF   001.44 072.8 m E Pn      2011/03/25 01:02:08.5   0.7                          T                                        4663817
SMF   001.44 072.8 m E Pg      2011/03/25 01:02:09.5   0.2                          T                                        4668238
SMF   001.44 072.8 m E Sg      2011/03/25 01:02:27.4  -0.4                          T               10.7  .24 Ml 2.7         4663890
MFF   001.43 285.6 m E Pg      2011/03/25 01:02:09.0   0.1                          T                                        4663815
MFF   001.43 285.6 m E Sg      2011/03/25 01:02:27.1  -0.2                          T               11.3  .22 Ml 2.9         4663889
LFF   001.51 211.3 m E Pg      2011/03/25 01:02:10.2  -0.3                          T                                        4663813
LFF   001.51 211.3 m E Sg      2011/03/25 01:02:30.0   0.0                          T               10.6  .29 Ml 2.4         4663888
LOR   001.73 052.6 m E Pn      2011/03/25 01:02:12.3   0.6 234.1  0.1               T                                        4663821
LOR   001.73 052.6 m E Pg      2011/03/25 01:02:14.7   0.2 231.8  -2.2              T                                        4668240
LOR   001.73 052.6 m E Sg      2011/03/25 01:02:36.0  -0.8 214.2  -19.8             T               13.4  .24 Ml 2.9         4663892
VIVF  002.42 123.8 m E Pn      2011/03/25 01:02:20.9  -0.2                          T                                        4663850
VIVF  002.42 123.8 m E Pg      2011/03/25 01:02:26.9  -0.4                          T                                        4663871
VIVF  002.42 123.8 m E Sg      2011/03/25 01:02:58.2  -0.2                          T                6.6  .46 Ml 2.5         4663886
LASF  002.59 145.9 m E Pn      2011/03/25 01:02:23.1  -0.3                          T                                        4663849
LASF  002.59 145.9 m E Pg      2011/03/25 01:02:30.3  -0.1                          T                                        4663870
LASF  002.59 145.9 m E Sg      2011/03/25 01:03:03.5  -0.2                          T                3.5  .42 Ml 2.3         4663887
LDF   002.71 331.2 m E Pn      2011/03/25 01:02:25.7   0.6                          T                                        4663848
LDF   002.71 331.2 m E Pg      2011/03/25 01:02:32.2  -0.4                          T                                        4663866
LDF   002.71 331.2 m E Sg      2011/03/25 01:03:07.1  -0.3                          T                2.4  .35 Ml 2.2         4663881
GRR   002.83 320.5 m E Pn      2011/03/25 01:02:26.5  -0.2                          T                                        4663847
GRR   002.83 320.5 m E Pg      2011/03/25 01:02:34.8   0.0                          T                                        4663867
GRR   002.83 320.5 m E Sg      2011/03/25 01:03:11.1  -0.2                          T                2.5  .21 Ml 2.3         4663882
SFTF  002.93 046.7 m E Pn      2011/03/25 01:02:28.0  -0.1 227.5  -1.5              T                                        4663858
SFTF  002.93 046.7 m E Sg      2011/03/25 01:03:14.1  -0.3                          T                4.5  .34 Ml 2.5         4663875
FLN   002.98 328.9 m E Pn      2011/03/25 01:02:28.6  -0.1                          T                                        4663846
FLN   002.98 328.9 m E Pg      2011/03/25 01:02:37.4  -0.2 145.8  -1.4              T                                        4663865
FLN   002.98 328.9 m E Sg      2011/03/25 01:03:15.7  -0.2                          T                2.3  .25 Ml 2.2         4663880
CABF  002.96 081.2 m E Pn      2011/03/25 01:02:28.8   0.2                          T                                        4663843
CABF  002.96 081.2 m E Sg      2011/03/25 01:03:15.0  -0.3                          T                1.0  .29 Ml 2.0         4663842
MEZF  003.14 042.7 m E Pn      2011/03/25 01:02:30.8  -0.1                          T                                        4663857
MEZF  003.14 042.7 m E Sg      2011/03/25 01:03:20.5  -0.5                          T                5.6  .34 Ml 2.7         4663874
EPF   003.38 199.1 m E Pn      2011/03/25 01:02:34.0  -0.2                          T                                        4663852
EPF   003.38 199.1 m E Pg      2011/03/25 01:02:44.7  -0.3                          T                                        4663869
EPF   003.38 199.1 m E Sn      2011/03/25 01:03:12.3  -0.3                          T                                        4663853
EPF   003.38 199.1 m E Sg      2011/03/25 01:03:28.5   0.0                          T                2.1  .32 Ml 2.3         4663885
THEF  003.46 053.3 m E Pn      2011/03/25 01:02:34.9  -0.3                          T                                        4663859
THEF  003.46 053.3 m E Sg      2011/03/25 01:03:30.5  -0.3                          T                4.2  .30 Ml 2.7         4663876
PAGF  003.51 047.2 m E Pn      2011/03/25 01:02:35.7  -0.3                          T                                        4663856
PAGF  003.51 047.2 m E Sg      2011/03/25 01:03:32.2  -0.2                          T                 .8  .33 Ml 1.9         4663873
HAU   003.55 058.4 m E Pn      2011/03/25 01:02:36.2  -0.3                          T                                        4663861
HAU   003.55 058.4 m E Sg      2011/03/25 01:03:33.2  -0.4                          T                4.2  .38 Ml 2.4         4663877
SGMF  003.61 305.5 m E Pn      2011/03/25 01:02:37.2  -0.2                          T                                        4663864
SGMF  003.61 305.5 m E Sn      2011/03/25 01:03:17.9  -0.2                          T                2.0  .31 Ml 2.4         4663863
HINF  003.77 063.4 m E Pn      2011/03/25 01:02:39.5  -0.1                          T                                        4663860
HINF  003.77 063.4 m E Sg      2011/03/25 01:03:40.3  -0.4                          T                2.1  .24 Ml 2.5         4663878
ETSF  003.75 208.1 m E Pn      2011/03/25 01:02:39.7   0.3                          T                                        4663851
ETSF  003.75 208.1 m E Pg      2011/03/25 01:02:51.8  -0.2                          T                                        4663868
ETSF  003.75 208.1 m E Sg      2011/03/25 01:03:40.1   0.0                          T                 .9  .23 Ml 2.2         4663884
QUIF  003.81 298.0 m E Pn      2011/03/25 01:02:40.2   0.2                          T                                        4663845
QUIF  003.81 298.0 m E Sn      2011/03/25 01:03:22.8   0.0                          T                 .4  .23 Ml 1.8         4663844
CDF   004.29 057.5 m E Pn      2011/03/25 01:02:46.4  -0.2                          T                                        4663855
CDF   004.29 057.5 m E Sg      2011/03/25 01:03:56.4  -0.4                          T                1.3  .33 Ml 2.4         4663872
MTLF  002.91 174.6 m E Sg      2011/03/25 01:03:13.5  -0.1                          T                2.6  .28 Ml 2.4         4663854

.
