EVENT     287065
    Date      Time       Latitude Longitude    Depth    Ndef Nsta Gap    Mag1  N    Mag2  N    Mag3  N   Author         ID
       rms   OT_Error      Smajor Sminor Az        Err   mdist  Mdist     Err        Err        Err      Quality

2012/11/16 23:59:38.2     44.5005    6.7043      2.0      52   17 058  Ml 2.0 16  Md 1.9  3              bulletin    287165
                                                                                                         _ldg
      0.75   +-  0.06       1.6    1.3   67.22 +-  0.0    0.08   3.64   +-0.4      +-0.3                 m i ke

FRANCE
Sta     Dist  EvAz     Phase      Date       Time     TRes  Azim  AzRes  Slow  SRes Def   SNR       Amp   Per   Mag1   Mag2       ID
MBDF  000.23 011.9 m E Pg      2012/11/16 23:59:43.1   0.1                          T                                        5119268
MBDF  000.23 011.9 m E Sg      2012/11/16 23:59:47.0   0.8                          T               34.4  .20        Md 1.7  5119267
ORIF  000.72 305.7 m E Pg      2012/11/16 23:59:51.3  -0.7                          T                                        5119266
ORIF  000.72 305.7 m E Sg      2012/11/17 00:00:00.8  -0.6                          T                8.9  .21        Md 1.8  5119265
SBF   000.83 140.2 m E Pg      2012/11/16 23:59:54.0   0.1                          T                                        5133248
SBF   000.83 140.2 m E Sg      2012/11/17 00:00:04.6  -0.1                          T               22.2  .41                5133249
FRF   000.94 182.5 m E Pg      2012/11/16 23:59:55.9   0.0                          T                                        5119259
FRF   000.94 182.5 m E Sg      2012/11/17 00:00:08.4   0.2                          T               20.3  .21 Ml 2.8         5119258
SMRF  000.97 237.5 m E Pg      2012/11/16 23:59:57.1   0.7                          T                                        5119261
SMRF  000.97 237.5 m E Sg      2012/11/17 00:00:09.1   0.2                          T               16.6  .24 Ml 2.6         5119260
LPG   001.00 001.9 m E Pg      2012/11/16 23:59:57.1  -0.2                          T                                        5119263
LPG   001.00 001.9 m E Sg      2012/11/17 00:00:10.2  -0.1                          T                7.8  .26 Ml 2.3         5119262
LPL   001.02 001.1 m E Pg      2012/11/16 23:59:57.6   0.1                          T                                        5119264
LPL   001.02 001.1 m E Sn      2012/11/17 00:00:12.2   0.0                          T                2.5  .25 Ml 1.8         5119289
LMR   001.17 187.0 m E Pg      2012/11/17 23:59:59.9  -0.3                          T                                        5133250
LMR   001.17 187.0 m E Sg      2012/11/17 00:00:15.9   0.5                          T                9.6  .24 Ml 2.5         5133251
VIVF  001.49 284.5 m E Pn      2012/11/17 00:00:04.8   0.4                          T                                        5119291
VIVF  001.49 284.5 m E Sn      2012/11/17 00:00:24.4   1.0                          T                2.3  .29 Ml 1.9         5119290
LASF  002.09 259.3 m E Pn      2012/11/17 00:00:12.6   0.1                          T                                        5119288
LASF  002.09 259.3 m E Sn      2012/11/17 00:00:38.1   0.5                          T                 .2  .16 Ml 1.4         5119287
SMF   002.94 317.9 m E Pn      2012/11/17 00:00:23.8  -0.3                          T                                        5119278
SMF   002.94 317.9 m E Sn      2012/11/17 00:00:57.5  -0.4                          T                 .6  .21 Ml 1.8         5119277
AVF   003.28 315.4 m E Pn      2012/11/17 00:00:29.3   0.6                          T                                        5119276
AVF   003.28 315.4 m E Sn      2012/11/17 00:01:05.9  -0.1                          T                 .5  .31 Ml 1.7         5119275
SSF   003.40 320.0 m E Pn      2012/11/17 00:00:29.4  -0.9                          T                                        5119282
SSF   003.40 320.0 m E Sn      2012/11/17 00:01:07.6  -1.3                          T                 .2  .18 Ml 1.7         5119281
LOR   003.41 325.3 m E Pn      2012/11/17 00:00:31.1   0.7                          T                                        5119284
LOR   003.41 325.3 m E Sn      2012/11/17 00:01:08.7  -0.4                          T                 .7  .28 Ml 1.9         5119283
MTLF  003.44 251.9 m E Pn      2012/11/17 00:00:31.1   0.2                          T                                        5119286
MTLF  003.44 251.9 m E Sn      2012/11/17 00:01:10.6   0.7                          T                 .1  .15 Ml 1.5         5119285
HAU   003.51 356.1 m E Pn      2012/11/17 00:00:32.3   0.3                          T                                        5119280
HAU   003.51 356.1 m E Sn      2012/11/17 00:01:10.6  -1.0                          T                1.4  .24 Ml 2.1         5119279
TCF   003.64 301.0 m E Pn      2012/11/17 00:00:33.9   0.3                          T                                        5119274
TCF   003.64 301.0 m E Sn      2012/11/17 00:01:14.4  -0.1                          T                 .3  .20 Ml 1.8         5119273

.
EVENT     287067
    Date      Time       Latitude Longitude    Depth    Ndef Nsta Gap    Mag1  N    Mag2  N    Mag3  N   Author         ID
       rms   OT_Error      Smajor Sminor Az        Err   mdist  Mdist     Err        Err        Err      Quality

2012/11/17 00:10:49.6     44.4365    6.6041      2.0      20    7 074  Ml 0.9  4  Md 1.6  2              bulletin    287167
                                                                                                         _ldg
      0.60   +-  0.14       3.0    2.6   65.33 +-  0.0    0.16   3.11   +-0.2      +-0.4                 m i ke

FRANCE
Sta     Dist  EvAz     Phase      Date       Time     TRes  Azim  AzRes  Slow  SRes Def   SNR       Amp   Per   Mag1   Mag2       ID
MBDF  000.31 022.3 m E Pg      2012/11/17 00:10:55.4  -0.6                          T                                        5119324
MBDF  000.31 022.3 m E Sg      2012/11/17 00:10:59.4  -0.8                          T                1.4  .20        Md 1.3  5119323
ORIF  000.71 313.3 m E Pg      2012/11/17 00:11:03.5   0.4                          T                                        5119338
ORIF  000.71 313.3 m E Sg      2012/11/17 00:11:13.2   0.8                          T                 .4  .20                5119337
SMRF  000.87 238.5 m E Pg      2012/11/17 00:11:05.6  -0.4                          T                                        5119332
SMRF  000.87 238.5 m E Sg      2012/11/17 00:11:16.6  -0.8                          T                 .3  .18 Ml 1           5119331
SBF   000.83 133.5 m E Pg      2012/11/17 00:11:05.7   0.4                          T                                        5119330
SBF   000.83 133.5 m E Sg      2012/11/17 00:11:16.5   0.4                          T                3.2  .48                5119327
LPG   001.07 005.6 m E Pn      2012/11/17 00:11:09.8  -0.6                          T                                        5119334
LPG   001.07 005.6 m E Sn      2012/11/17 00:11:24.1  -0.7                          T                 .3  .23 Ml 1           5119333
LMR   001.10 183.6 m E Pn      2012/11/17 00:11:10.1  -0.3                          T                                        5119329
LMR   001.10 183.6 m E Sn      2012/11/17 00:11:24.6  -0.7                          T                 .2  .19 Ml 1           5119328
LPL   001.08 004.8 m E Pn      2012/11/17 00:11:10.2  -0.3                          T                                        5119336
LPL   001.08 004.8 m E Sn      2012/11/17 00:11:24.4  -0.8                          T                 .1  .26 Ml  .6         5119335

.
EVENT     287070
    Date      Time       Latitude Longitude    Depth    Ndef Nsta Gap    Mag1  N    Mag2  N    Mag3  N   Author         ID
       rms   OT_Error      Smajor Sminor Az        Err   mdist  Mdist     Err        Err        Err      Quality

2012/11/17 01:12:35.6     42.1677   10.1853      2.0 f    10    4 342  Ml 1.8  5  Md 1.8  1              bulletin    287170
                                                                                                         _ldg
      1.32   +-  1.07      28.4   18.2   17.27 +-  0.0    0.96   2.95   +-0.5      +-                    m i ke

CENTRAL ITALY
Sta     Dist  EvAz     Phase      Date       Time     TRes  Azim  AzRes  Slow  SRes Def   SNR       Amp   Per   Mag1   Mag2       ID
PGF   000.96 293.8 m E Pg      2012/11/17 01:12:54.2   0.5                          T                                        5119357
PGF   000.96 293.8 m E Sg      2012/11/17 01:13:06.7   0.6                          T                8.8  .22 Ml 2.6 Md 1.8  5119356
SBF   002.63 311.0 m E Pn      2012/11/17 01:13:17.4   0.1                          T                                        5119361
SBF   002.63 311.0 m E Sn      2012/11/17 01:13:47.1  -0.9                          T                 .3  .20 Ml 1.5         5119360
LMR   002.95 294.5 m E Pn      2012/11/17 01:13:20.9  -0.6                          T                                        5119359
LMR   002.95 294.5 m E Sn      2012/11/17 01:13:53.5  -1.9                          T                1.5  .52 Ml 1.9         5119358
FRF   002.95 299.3 m E Pn      2012/11/17 01:13:21.3  -0.2                          T                                        5119363
FRF   002.95 299.3 m E Sn      2012/11/17 01:13:53.9  -1.5                          T                 .2  .25 Ml 1.3         5119362

.
EVENT     287082
    Date      Time       Latitude Longitude    Depth    Ndef Nsta Gap    Mag1  N    Mag2  N    Mag3  N   Author         ID
       rms   OT_Error      Smajor Sminor Az        Err   mdist  Mdist     Err        Err        Err      Quality

2012/11/17 01:23:13.6     42.8312   -1.4173      2.0      16    4 142  Ml 1.3  3  Md 1.3  2              bulletin    287182
                                                                                                         _ldg
      0.31   +-  0.10       3.3    1.6  159.08 +-  0.0    0.05   2.71   +-0.5      +-0.2                 m i ke

PYRENEES
Sta     Dist  EvAz     Phase      Date       Time     TRes  Azim  AzRes  Slow  SRes Def   SNR       Amp   Per   Mag1   Mag2       ID
SJPF  000.32 026.5 m E Pg      2012/11/17 01:23:19.8   0.0                          T                                        5119717
SJPF  000.32 026.5 m E Sg      2012/11/17 01:23:23.4  -0.7                          T                1.6  .30        Md 1.4  5119716
ETSF  000.63 083.6 m E Pg      2012/11/17 01:23:25.7  -0.1                          T                                        5119723
ETSF  000.63 083.6 m E Sg      2012/11/17 01:23:33.9  -0.1                          T                 .4  .24        Md 1.1  5119722
EPF   001.31 080.6 m E Pg      2012/11/17 01:23:37.6  -0.4                          T                                        5119721
EPF   001.31 080.6 m E Sg      2012/11/17 01:23:54.6  -0.3                          T                 .1  .17 Ml  .8         5119720
MTLF  002.71 077.9 m E Pn      2012/11/17 01:23:56.2  -0.1                          T                                        5119719
MTLF  002.71 077.9 m E Sn      2012/11/17 01:24:27.4  -0.4                          T                 .3  .24 Ml 1.5         5119718

.
EVENT     287069
    Date      Time       Latitude Longitude    Depth    Ndef Nsta Gap    Mag1  N    Mag2  N    Mag3  N   Author         ID
       rms   OT_Error      Smajor Sminor Az        Err   mdist  Mdist     Err        Err        Err      Quality

2012/11/17 02:25:45.2     44.4883    6.7319      2.0      51   12 057  Ml 2.2 10  Md 2.0  3              bulletin    287169
                                                                                                         _ldg
      0.59   +-  0.07       1.6    1.3   64.93 +-  0.0    0.06   3.46   +-0.5      +-0.4                 m i ke

FRANCE
Sta     Dist  EvAz     Phase      Date       Time     TRes  Azim  AzRes  Slow  SRes Def   SNR       Amp   Per   Mag1   Mag2       ID
MBDF  000.24 006.7 m E Pg      2012/11/17 02:25:50.0  -0.2                          T                                        5119408
MBDF  000.24 006.7 m E Sg      2012/11/17 02:25:53.8   0.4                          T               22.8  .25        Md 1.6  5119407
ORIF  000.74 305.6 m E Pg      2012/11/17 02:25:58.4  -1.0                          T                                        5119406
ORIF  000.74 305.6 m E Sg      2012/11/17 02:26:08.3  -0.8                          T                7.6  .21        Md 2.1  5119405
SBF   000.80 140.8 m E Pg      2012/11/17 02:26:00.1  -0.3                          T                                        5119394
SBF   000.80 140.8 m E Sg      2012/11/17 02:26:10.9   0.0                          T                7.7  .20        Md 2.3  5119393
FRF   000.93 183.8 m E Pg      2012/11/17 02:26:02.5  -0.2                          T                                        5119398
FRF   000.93 183.8 m E Sg      2012/11/17 02:26:14.8   0.0                          T               15.3  .20 Ml 2.7         5119397
SMRF  000.98 238.8 m E Pg      2012/11/17 02:26:03.8   0.2                          T                                        5119400
SMRF  000.98 238.8 m E Sg      2012/11/17 02:26:16.0  -0.3                          T                5.1  .21 Ml 2.2         5119399
LPG   001.01 000.8 m E Pg      2012/11/17 02:26:04.2  -0.3                          T                                        5119402
LPG   001.01 000.8 m E Sg      2012/11/17 02:26:18.0   0.4                          T                3.0  .26 Ml 1.9         5119401
LPL   001.03 000.0 m E Pg      2012/11/17 02:26:04.7  -0.1                          T                                        5119404
LPL   001.03 000.0 m E Sg      2012/11/17 02:26:18.3   0.2                          T                1.6  .29 Ml 1.6         5119403
LMR   001.17 188.0 m E Pg      2012/11/17 02:26:07.4   0.5                          T                                        5119396
LMR   001.17 188.0 m E Sg      2012/11/17 02:26:22.1   0.0                          T                4.1  .17 Ml 2.3         5119395
VIVF  001.51 284.8 m E Pn      2012/11/17 02:26:12.1   0.4                          T                2.9  .39 Ml 1.9         5119410
VIVF  001.51 284.8 m E Sn      2012/11/17 02:26:29.1  -1.7                          T                                        5119409
LASF  002.11 259.7 m E Pn      2012/11/17 02:26:20.0   0.3                          T                                        5119414
LASF  002.11 259.7 m E Sn      2012/11/17 02:26:44.6  -0.3                          T                1.9  .35 Ml 2.0         5119413
PGF   002.55 138.8 m E Pn      2012/11/17 02:26:26.6   0.8                          T                                        5119392
PGF   002.55 138.8 m E Sn      2012/11/17 02:26:56.2   0.6                          T                 .9  .21 Ml 2.2         5119391
MTLF  003.46 252.2 m E Pn      2012/11/17 02:26:37.8  -0.2                          T                                        5119412
MTLF  003.46 252.2 m E Sn      2012/11/17 02:27:17.4   0.2                          T                 .3  .22 Ml 1.7         5119411

.
EVENT     287072
    Date      Time       Latitude Longitude    Depth    Ndef Nsta Gap    Mag1  N    Mag2  N    Mag3  N   Author         ID
       rms   OT_Error      Smajor Sminor Az        Err   mdist  Mdist     Err        Err        Err      Quality

2012/11/17 04:26:11.0     42.9091     .0541     15.0      10    4 194  Ml 1.3  3  Md 1.5  2              bulletin    287172
                                                                                                         _ldg
      0.17   +-  0.10       7.2    1.0  171.73 +-  0.0    0.24   1.64   +-0.3      +-0.0                 m i ke

PYRENEES
Sta     Dist  EvAz     Phase      Date       Time     TRes  Azim  AzRes  Slow  SRes Def   SNR       Amp   Per   Mag1   Mag2       ID
EPF   000.24 059.9 m E Pg      2012/11/17 04:26:16.5   0.0                          T                                        5119419
EPF   000.24 059.9 m E Sg      2012/11/17 04:26:20.0  -0.2                          T                1.9  .13        Md 1.4  5119418
ETSF  000.45 268.9 m E Pg      2012/11/17 04:26:20.1   0.0                          T                                        5119421
ETSF  000.45 268.9 m E Sg      2012/11/17 04:26:25.8  -0.5                          T                1.5  .20        Md 1.5  5119420
SJPF  000.96 282.7 m E Pn      2012/11/17 04:26:28.4   0.0                          T                                        5119426
SJPF  000.96 282.7 m E Sn      2012/11/17 04:26:41.2   0.2                          T                 .3  .24 Ml 1           5119427
MTLF  001.64 074.0 m E Pn      2012/11/17 04:26:37.7   0.0                          T                                        5119425
MTLF  001.64 074.0 m E Sn      2012/11/17 04:26:57.0  -0.3                          T                 .6  .32 Ml 1.4         5119424

.
