BEGIN GSE2.0
MSG_TYPE DATA
MSG_ID 13-JAN-1214:04:59  FRA_NDC
E-MAIL
DATA_TYPE BULLETIN
Reviewed Bulletin (REB) # P2012-001  from French NDC for regional phases     PERIOD 04 JAN 2012 TO 10 JAN 2012 S M.,J-P S
EVENT     268091
    Date      Time       Latitude Longitude    Depth    Ndef Nsta Gap    Mag1  N    Mag2  N    Mag3  N   Author         ID
       rms   OT_Error      Smajor Sminor Az        Err   mdist  Mdist     Err        Err        Err      Quality

2012/01/04 05:31:22.0     42.4956     .9028      2.0      10    3 081  Ml 1.5  2  Md 1.5  1              js067245    268111

      0.21   +-  0.07       1.6    1.4   78.63 +-  0.0    0.20   1.28   +-0.1      +-                    m i ke

PYRENEES
Sta     Dist  EvAz     Phase      Date       Time     TRes  Azim  AzRes  Slow  SRes Def   SNR       Amp   Per   Mag1   Mag2       ID
EPF   000.68 322.4 m E Pg      2012/01/04 05:31:34.6  -0.3                          T                                        4811424
EPF   000.68 322.4 m E Sg      2012/01/04 05:31:42.6  -1.1                          T                5.7  .26        Md 1.5  4811421
ETSF  001.15 291.0 m E Pg      2012/01/04 05:31:43.4  -0.3                          T                                        4811419
ETSF  001.15 291.0 m E Sg      2012/01/04 05:31:59.0   0.5                          T                 .8  .19 Ml 1.5         4811420
MTLF  001.28 048.4 m E Pg      2012/01/04 05:31:46.1   0.1                          T                                        4811423
MTLF  001.28 048.4 m E Sg      2012/01/04 05:32:02.6   0.0                          T                  1  .23 Ml 1.6         4811422

.
EVENT     268104
    Date      Time       Latitude Longitude    Depth    Ndef Nsta Gap    Mag1  N    Mag2  N    Mag3  N   Author         ID
       rms   OT_Error      Smajor Sminor Az        Err   mdist  Mdist     Err        Err        Err      Quality

2012/01/04 10:34:00.0     45.0193    6.5437      2.0      24    5 111  Ml 1.6  1  Md 1.6  2              js067245    268124

      0.25   +-  0.04        .8     .8    1.01 +-  0.0    0.20   1.34   +-         +-0.0                 m i ke

FRANCE
Sta     Dist  EvAz     Phase      Date       Time     TRes  Azim  AzRes  Slow  SRes Def   SNR       Amp   Per   Mag1   Mag2       ID
MBDF  000.33 150.9 m E Pg      2012/01/04 10:34:06.5  -0.2                          T                                        4811430
MBDF  000.33 150.9 m E Sg      2012/01/04 10:34:11.2   0.0                          T                9.2  .24        Md 1.6  4811434
ORIF  000.48 258.1 m E Pg      2012/01/04 10:34:09.5   0.1                          T                                        4811429
ORIF  000.48 258.1 m E Sg      2012/01/04 10:34:15.1  -0.6                          T                4.7  .20        Md 1.6  4811426
LPG   000.50 017.0 m E Pg      2012/01/04 10:34:09.9  -0.1                          T                                        4811428
LPG   000.50 017.0 m E Sg      2012/01/04 10:34:16.2  -0.4                          T                2.5  .24                4811425
LPL   000.51 014.9 m E Pg      2012/01/04 10:34:10.2   0.1                          T                                        4811427
LPL   000.51 014.9 m E Sg      2012/01/04 10:34:16.9   0.0                          T                3.9  .22                4811433
VIVF  001.34 263.7 m E Pg      2012/01/04 10:34:25.2   0.1                          T                                        4812264
VIVF  001.34 263.7 m E Sg      2012/01/04 10:34:42.4   0.0                          T                 .9  .19 Ml 1.6         4812265

.
EVENT     268106
    Date      Time       Latitude Longitude    Depth    Ndef Nsta Gap    Mag1  N    Mag2  N    Mag3  N   Author         ID
       rms   OT_Error      Smajor Sminor Az        Err   mdist  Mdist     Err        Err        Err      Quality

2012/01/04 13:52:51.5     43.1914    -.0905      2.0       5    3 214  Ml 1.8  1  Md 1.5  2              js067245    268126

      0.16   +-  0.29       9.4    1.9  168.72 +-  0.0    0.35   1.69   +-         +-0.1                 m i ke

PYRENEES
Sta     Dist  EvAz     Phase      Date       Time     TRes  Azim  AzRes  Slow  SRes Def   SNR       Amp   Per   Mag1   Mag2       ID
EPF   000.35 116.9 m E Pg      2012/01/04 13:52:58.5   0.1                          T                                        4811436
EPF   000.35 116.9 m E Sg      2012/01/04 13:53:02.9  -0.2                          T                9.1  .27        Md 1.6  4811435
ETSF  000.45 229.7 m E Pg      2012/01/04 13:53:00.2   0.0                          T                                        4811438
ETSF  000.45 229.7 m E Sg      2012/01/04 13:53:06.0  -0.2                          T                7.3  .26        Md 1.5  4811437
MTLF  001.69 084.1 m E Sg      2012/01/04 13:53:44.5  -0.3                          T                1.1  .26 Ml 1.8         4812266

.
EVENT     268129
    Date      Time       Latitude Longitude    Depth    Ndef Nsta Gap    Mag1  N    Mag2  N    Mag3  N   Author         ID
       rms   OT_Error      Smajor Sminor Az        Err   mdist  Mdist     Err        Err        Err      Quality

2012/01/04 15:19:31.0     44.6922    9.4768      2.0      34    9 130  Ml 2.4  4                         js067245    268149

      0.59   +-  0.12       3.1    1.8   34.61 +-  0.0    0.08   3.96   +-0.3                            m i ke

NORTHERN ITALY
Sta     Dist  EvAz     Phase      Date       Time     TRes  Azim  AzRes  Slow  SRes Def   SNR       Amp   Per   Mag1   Mag2       ID
SBF   001.68 241.2 m E Pn      2012/01/04 15:19:59.8  -0.1                          T                                        4811455
LPG   002.09 293.6 m E Pn      2012/01/04 15:20:05.4  -0.2                          T                                        4811454
LPG   002.09 293.6 m E P       2012/01/04 15:20:07.9   0.0                          T                                        4811443
LPL   002.11 293.9 m E Pn      2012/01/04 15:20:05.7  -0.1                          T                                        4811447
LPL   002.11 293.9 m E Pg      2012/01/04 15:20:10.7   0.2                          T                                        4811444
LPL   002.11 293.9 m E Sg      2012/01/04 15:20:37.9   0.2                          T                9.5  .46 Ml 2.5         4811458
PGF   002.17 189.4 m E Pn      2012/01/04 15:20:06.3  -0.2                          T                                        4811451
PGF   002.17 189.4 m E Sn      2012/01/04 15:20:32.0  -0.4                          T                                        4811450
MBDF  001.93 272.0 m E Pg      2012/01/04 15:20:07.9   0.9                          T                                        4811456
MBDF  001.93 272.0 m E Sg      2012/01/04 15:20:32.6   0.6                          T                2.9  .35 Ml 2.1         4811457
FRF   002.33 242.0 m E Pn      2012/01/04 15:20:08.2  -0.3                          T                                        4811453
FRF   002.33 242.0 m E Sg      2012/01/04 15:20:44.4   0.1                          T                2.2  .25 Ml 2.3         4811442
LMR   002.54 238.7 m E Pn      2012/01/04 15:20:10.6  -0.7                          T                                        4811452
ORIF  002.57 276.3 m E Pn      2012/01/04 15:20:12.3   0.4                          T                                        4811445
ORIF  002.57 276.3 m E P       2012/01/04 15:20:15.0   0.4                          T                                        4811446
HAU   003.96 327.9 m E Pn      2012/01/04 15:20:31.1   0.3                          T                                        4811449
HAU   003.96 327.9 m E Sn      2012/01/04 15:21:12.7  -2.4                          T                7.4  .34 Ml 2.8         4811448

.
EVENT     268131
    Date      Time       Latitude Longitude    Depth    Ndef Nsta Gap    Mag1  N    Mag2  N    Mag3  N   Author         ID
       rms   OT_Error      Smajor Sminor Az        Err   mdist  Mdist     Err        Err        Err      Quality

2012/01/04 20:14:23.8     43.1050    -.6114     10.2      15    6 218  Ml 2.4  5  Md 2.3  2              js067245    268151

      0.84   +-  0.28       5.2    2.9   98.16 +-  1.9    0.21   2.68   +-0.2      +-0.0                 m i ke

PYRENEES
Sta     Dist  EvAz     Phase      Date       Time     TRes  Azim  AzRes  Slow  SRes Def   SNR       Amp   Per   Mag1   Mag2       ID
ETSF  000.21 169.5 m E Pg      2012/01/04 20:14:28.5   0.1                          T                                        4811464
ETSF  000.21 169.5 m E Sg      2012/01/04 20:14:31.7   0.2                          T               59.5  .22        Md 2.3  4811461
EPF   000.70 095.8 m E Pn      2012/01/04 20:14:38.2  -0.1                          T                                        4811463
EPF   000.70 095.8 m E Sg      2012/01/04 20:14:47.1   0.7                          T               15.9  .25        Md 2.3  4811462
EPF   000.70 095.8 m E Sn      2012/01/04 20:14:49.0   0.5                          T                                        4811465
LFF   002.08 027.5 m E Pg      2012/01/04 20:15:02.1  -0.3                          T                                        4811689
LFF   002.08 027.5 m E Sg      2012/01/04 20:15:29.1  -0.1                          T                5.1  .26 Ml 2.3         4811687
MTLF  002.08 082.5 m E Pg      2012/01/04 20:15:02.2  -0.4                          T                                        4811459
MTLF  002.08 082.5 m E Sg      2012/01/04 20:15:29.5   0.1                          T                5.1  .30 Ml 2.5         4811460
RJF   002.68 034.1 m E Pg      2012/01/04 20:15:14.1   0.5                          T                                        4811688
RJF   002.68 034.1 m E Sg      2012/01/04 20:15:48.4   0.4                          T                3.2  .26 Ml 2.1         4811468
CAF   002.65 045.8 m E Sn      2012/01/04 20:15:35.3   0.2                          T                                        4811467
CAF   002.65 045.8 m E Sg      2012/01/04 20:15:47.6   0.4                          T                1.6  .20 Ml 2.3         4811466

.
EVENT     268136
    Date      Time       Latitude Longitude    Depth    Ndef Nsta Gap    Mag1  N    Mag2  N    Mag3  N   Author         ID
       rms   OT_Error      Smajor Sminor Az        Err   mdist  Mdist     Err        Err        Err      Quality

2012/01/05 02:45:48.7     43.0244     .1955      7.0 f    17    3 143  Ml 1.4  1  Md 1.4  2              js067245    268156

      1.37   +-  0.15       4.5    2.2    4.16 +-  0.0    0.11   1.51   +-         +-0.1                 m i ke

FRANCE
Sta     Dist  EvAz     Phase      Date       Time     TRes  Azim  AzRes  Slow  SRes Def   SNR       Amp   Per   Mag1   Mag2       ID
EPF   000.11 086.7 m E Pg      2012/01/05 02:45:51.6   0.2                          T                                        4811696
EPF   000.11 086.7 m E Sg      2012/01/05 02:45:53.6   0.4                          T               49.9  .18        Md 1.4  4811695
ETSF  000.57 257.5 m E Pg      2012/01/05 02:45:59.3  -0.3                          T                                        4811698
ETSF  000.57 257.5 m E Sg      2012/01/05 02:46:06.8  -0.3                          T                4.1  .20        Md 1.5  4811697
MTLF  001.51 077.2 m E Pg      2012/01/05 02:46:16.9   0.0                          T                                        4811693
MTLF  001.51 077.2 m E Sn      2012/01/05 02:46:34.4   1.1                          T                                        4811694
MTLF  001.51 077.2 m E Sg      2012/01/05 02:46:36.1  -0.3                          T                 .4  .19 Ml 1.4         4811692

.
EVENT     268133
    Date      Time       Latitude Longitude    Depth    Ndef Nsta Gap    Mag1  N    Mag2  N    Mag3  N   Author         ID
       rms   OT_Error      Smajor Sminor Az        Err   mdist  Mdist     Err        Err        Err      Quality

2012/01/05 03:11:50.0     42.2684    2.4492      5.0 f    19    3 120  Ml 1.9  4  Md 1.7  1              js067245    268153

      1.29   +-  0.17       3.2    2.5  146.52 +-  0.0    0.37   2.78   +-0.2      +-                    m i ke

PYRENEES
Sta     Dist  EvAz     Phase      Date       Time     TRes  Azim  AzRes  Slow  SRes Def   SNR       Amp   Per   Mag1   Mag2       ID
MTLF  001.09 351.0 m E Pg      2012/01/05 03:12:11.1   0.7                          T                                        4811703
MTLF  001.09 351.0 m E Sg      2012/01/05 03:12:24.5   0.0                          T                2.1  .26 Ml 1.8 Md 1.7  4811704
EPF   001.73 296.8 m E Pg      2012/01/05 03:12:21.7  -0.7                          T                                        4811702
EPF   001.73 296.8 m E Sg      2012/01/05 03:12:46.1   1.4                          T                2.4  .28 Ml 2.1         4811705
ETSF  002.31 286.8 m E Pg      2012/01/05 03:12:33.1   0.0                          T                                        4811701
ETSF  002.31 286.8 m E Sg      2012/01/05 03:13:02.7   0.0                          T                1.3  .24 Ml 2.0         4811706

.
EVENT     268132
    Date      Time       Latitude Longitude    Depth    Ndef Nsta Gap    Mag1  N    Mag2  N    Mag3  N   Author         ID
       rms   OT_Error      Smajor Sminor Az        Err   mdist  Mdist     Err        Err        Err      Quality

2012/01/05 04:40:31.6     46.0310    7.7055      2.0      30    6 060  Ml 2.2  6  Md 2.1  2              js067245    268152

      0.97   +-  0.10       2.2    1.6  117.35 +-  0.0    0.18   1.88   +-0.1      +-0.0                 m i ke

SWITZERLAND
Sta     Dist  EvAz     Phase      Date       Time     TRes  Azim  AzRes  Slow  SRes Def   SNR       Amp   Per   Mag1   Mag2       ID
LPG   000.85 231.7 m E Pg      2012/01/05 04:40:47.5  -0.6                          T                                        4811720
LPG   000.85 231.7 m E Sg      2012/01/05 04:40:59.0  -0.2                          T                4.1  .22 Ml 2.0 Md 2.1  4811714
LPL   000.85 233.3 m E Pg      2012/01/05 04:40:47.6  -0.4                          T                                        4811721
LPL   000.85 233.3 m E Sg      2012/01/05 04:40:59.0  -0.1                          T                3.1  .32        Md 2.0  4811715
CABF  001.26 297.9 m E Pg      2012/01/05 04:40:56.5   1.1                          T                                        4811713
CABF  001.26 297.9 m E Sg      2012/01/05 04:41:12.3   0.7                          T                5.5  .35 Ml 2.1         4811712
MBDF  001.46 207.1 m E Pg      2012/01/05 04:40:59.6   0.5                          T                                        4811719
MBDF  001.46 207.1 m E Sg      2012/01/05 04:41:17.5  -0.4                          T                4.7  .35 Ml 2.2         4811717
ORIF  001.70 229.7 m E Pg      2012/01/05 04:41:04.1   0.7                          T                                        4811718
ORIF  001.70 229.7 m E Sg      2012/01/05 04:41:26.3   1.0                          T                7.0  .52 Ml 2.3         4811716
HINF  001.88 342.2 m E Sg      2012/01/05 04:41:32.0   1.1                          T                3.9  .32 Ml 2.3         4811711

.
EVENT     268171
    Date      Time       Latitude Longitude    Depth    Ndef Nsta Gap    Mag1  N    Mag2  N    Mag3  N   Author         ID
       rms   OT_Error      Smajor Sminor Az        Err   mdist  Mdist     Err        Err        Err      Quality

2012/01/05 06:14:20.6     46.2898    7.1904      2.0      13    4 155  Ml 1.7  1                         js067245    268191

      0.24   +-  0.08       2.3    1.3  118.27 +-  0.0    0.07   1.65   +-                               m i ke

SWITZERLAND
Sta     Dist  EvAz     Phase      Date       Time     TRes  Azim  AzRes  Slow  SRes Def   SNR       Amp   Per   Mag1   Mag2       ID
LPL   000.84 202.6 m E Pg      2012/01/05 06:14:36.9   0.2                          T                                        4812656
LPL   000.84 202.6 m E Sg      2012/01/05 06:14:47.3  -0.2                          T                 .5  .26                4812659
LPG   000.85 201.3 m E Pg      2012/01/05 06:14:37.0   0.1                          T                                        4812657
LPG   000.85 201.3 m E Sg      2012/01/05 06:14:47.8  -0.2                          T                 .7  .29                4812658
CABF  000.83 293.3 m E Pn      2012/01/05 06:14:37.7  -0.1                          T                                        4812654
CABF  000.83 293.3 m E Sn      2012/01/05 06:14:49.2  -0.7                          T                 .9  .27                4812655
ORIF  001.65 214.3 m E Pg      2012/01/05 06:14:51.3  -0.2                          T                                        4812660
ORIF  001.65 214.3 m E Sn      2012/01/05 06:15:09.1  -0.5                          T                1.2  .31 Ml 1.7         4811722

.
EVENT     268158
    Date      Time       Latitude Longitude    Depth    Ndef Nsta Gap    Mag1  N    Mag2  N    Mag3  N   Author         ID
       rms   OT_Error      Smajor Sminor Az        Err   mdist  Mdist     Err        Err        Err      Quality

2012/01/05 09:33:13.6     43.1273    -.6882      2.0      30    6 110  Ml 2.0  4  Md 2.0  2              js067245    268178

      0.54   +-  0.10       2.1    1.3  174.18 +-  0.0    0.25   2.69   +-0.1      +-0.2                 m i ke

PYRENEES
Sta     Dist  EvAz     Phase      Date       Time     TRes  Azim  AzRes  Slow  SRes Def   SNR       Amp   Per   Mag1   Mag2       ID
ETSF  000.25 157.5 m E Pg      2012/01/05 09:33:18.2  -0.4                          T                                        4811858
ETSF  000.25 157.5 m E Sg      2012/01/05 09:33:21.0  -0.9                          T               59.4  .22        Md 2.2  4811856
EPF   000.76 097.0 m E Pg      2012/01/05 09:33:28.6   0.6                          T                                        4811855
EPF   000.76 097.0 m E Sg      2012/01/05 09:33:36.9  -0.9                          T               11.2  .28        Md 1.9  4811857
MTLF  002.13 083.3 m E Pg      2012/01/05 09:33:53.3   0.1                          T                                        4813025
MTLF  002.13 083.3 m E Sn      2012/01/05 09:34:13.8  -0.1                          T                                        4811854
MTLF  002.13 083.3 m E S       2012/01/05 09:34:18.1  -0.1                          T                                        4811853
MTLF  002.13 083.3 m E Sg      2012/01/05 09:34:20.6  -0.1                          T                2.2  .31 Ml 2.1         4813026
LFF   002.08 029.1 m E Sg      2012/01/05 09:34:18.4  -0.7                          T                3.4  .31 Ml 2.1         4813027
CAF   002.68 046.9 m E Sg      2012/01/05 09:34:37.7  -0.1                          T                1.2  .24 Ml 2.1         4813029
RJF   002.69 035.3 m E Sg      2012/01/05 09:34:38.2   0.0                          T                1.4  .22 Ml 1.8         4813028

.
