EVENT     257153
    Date      Time       Latitude Longitude    Depth    Ndef Nsta Gap    Mag1  N    Mag2  N    Mag3  N   Author         ID
       rms   OT_Error      Smajor Sminor Az        Err   mdist  Mdist     Err        Err        Err      Quality

2011/03/14 19:02:12.2     45.1195    6.5382      2.0      14    6 135  Ml 1.7  2  Md 1.6  3              js067245    257153

      0.15   +-  0.04       1.2     .7  113.52 +-  0.0    0.41   1.56   +-0.4      +-0.1                 m i ke

FRANCE
Sta     Dist  EvAz     Phase      Date       Time     TRes  Azim  AzRes  Slow  SRes Def   SNR       Amp   Per   Mag1   Mag2       ID
LPG   000.41 021.6 m E Pg      2011/03/14 19:02:20.4   0.0                          T                                        4660138
MBDF  000.43 157.0 m E Pg      2011/03/14 19:02:20.4  -0.2                          T                                        4660140
LPG   000.41 021.6 m E Sg      2011/03/14 19:02:26.2   0.4                          T                2.0  .27        Md 1.6  4660133
MBDF  000.43 157.0 m E Sg      2011/03/14 19:02:26.6   0.3                          T                1.7  .32        Md 1.5  4660135
LPL   000.42 019.0 m E Pg      2011/03/14 19:02:20.5  -0.1                          T                                        4660139
LPL   000.42 019.0 m E Sg      2011/03/14 19:02:26.2   0.1                          T                1.9  .24        Md 1.6  4660134
ORIF  000.51 246.9 m E Pg      2011/03/14 19:02:22.2   0.1                          T                                        4660137
ORIF  000.51 246.9 m E Sg      2011/03/14 19:02:28.7   0.0                          T                3.6  .34                4660136
SMRF  001.33 211.4 m E Pg      2011/03/14 19:02:37.2   0.0                          T                                        4660130
SMRF  001.33 211.4 m E Sg      2011/03/14 19:02:54.5   0.1                          T                 .7  .25 Ml 1.4         4660129
FRF   001.56 177.1 m E Pg      2011/03/14 19:02:41.4   0.1                          T                                        4660131
FRF   001.56 177.1 m E Sg      2011/03/14 19:03:01.6   0.2                          T                2.2  .33 Ml 1.9         4660132

.
EVENT     257156
    Date      Time       Latitude Longitude    Depth    Ndef Nsta Gap    Mag1  N    Mag2  N    Mag3  N   Author         ID
       rms   OT_Error      Smajor Sminor Az        Err   mdist  Mdist     Err        Err        Err      Quality

2011/03/14 19:02:49.8     45.1193    6.5368      2.0      12    5 135  Ml 1.2  1  Md 1.4  3              cm165940    257156

      0.15   +-  0.05       1.3     .7  120.57 +-  0.0    0.41   1.33   +-         +-0.1                 m i ke

FRANCE
Sta     Dist  EvAz     Phase      Date       Time     TRes  Azim  AzRes  Slow  SRes Def   SNR       Amp   Per   Mag1   Mag2       ID
LPG   000.41 021.7 m E Pg      2011/03/14 19:02:58.0  -0.1                          T                                        4660150
LPG   000.41 021.7 m E Sg      2011/03/14 19:03:03.8   0.3                          T                1.5  .26        Md 1.4  4660143
LPL   000.42 019.1 m E Pg      2011/03/14 19:02:58.0  -0.2                          T                                        4660149
LPL   000.42 019.1 m E Sg      2011/03/14 19:03:03.8   0.0                          T                1.2  .24        Md 1.4  4660144
MBDF  000.43 156.9 m E Pg      2011/03/14 19:02:58.1  -0.1                          T                                        4660147
MBDF  000.43 156.9 m E Sg      2011/03/14 19:03:04.2   0.3                          T                 .9  .24        Md 1.3  4660146
ORIF  000.51 246.9 m E Pg      2011/03/14 19:02:59.7   0.1                          T                                        4660148
ORIF  000.51 246.9 m E Sg      2011/03/14 19:03:06.3   0.0                          T                1.3  .26                4660145
SMRF  001.33 211.4 m E Pg      2011/03/14 19:03:14.7  -0.1                          T                                        4660152
SMRF  001.33 211.4 m E Sg      2011/03/14 19:03:32.1   0.1                          T                 .4  .23 Ml 1.2         4660151

.
EVENT     257155
    Date      Time       Latitude Longitude    Depth    Ndef Nsta Gap    Mag1  N    Mag2  N    Mag3  N   Author         ID
       rms   OT_Error      Smajor Sminor Az        Err   mdist  Mdist     Err        Err        Err      Quality

2011/03/14 23:59:08.2     47.5697   -4.2308      2.0      18    7 292  Ml 2.2  8  Md 2.3  3              js067245    257155

      0.13   +-  0.09       1.6    1.1   96.48 +-  0.0    0.80   2.95   +-0.2      +-0.0                 m i ke

FRANCE
Sta     Dist  EvAz     Phase      Date       Time     TRes  Azim  AzRes  Slow  SRes Def   SNR       Amp   Per   Mag1   Mag2       ID
QUIF  000.80 063.8 m E Pg      2011/03/14 23:59:23.2   0.0                          T                                        4660184
QUIF  000.80 063.8 m E Sg      2011/03/14 23:59:34.0   0.4                          T               12.2  .22        Md 2.3  4660179
ROSF  001.00 039.6 m E Pg      2011/03/14 23:59:27.1   0.2                          T                                        4660182
ROSF  001.00 039.6 m E Sg      2011/03/14 23:59:39.8  -0.2                          T                8.8  .30 Ml 2.3 Md 2.2  4660181
SGMF  001.32 058.1 m E Pg      2011/03/14 23:59:32.6  -0.2                          T                                        4660183
SGMF  001.32 058.1 m E Sg      2011/03/14 23:59:49.5  -0.3                          T                7.4  .37 Ml 2.3 Md 2.3  4660180
GRR   002.41 068.9 m E Pn      2011/03/14 23:59:46.9   0.1                          T                                        4660172
GRR   002.41 068.9 m E Sg      2011/03/15 00:00:23.9   0.0                          T                2.0  .28 Ml 2.0         4660178
FLN   002.78 063.2 m E Pn      2011/03/14 23:59:51.8   0.0                          T                                        4660174
FLN   002.78 063.2 m E Sg      2011/03/15 00:00:35.4   0.0                          T                1.9  .31 Ml 2.0         4660176
LDF   002.94 068.1 m E Pn      2011/03/14 23:59:54.0   0.0                          T                                        4660173
LDF   002.94 068.1 m E Sg      2011/03/15 00:00:40.4   0.0                          T                1.1  .27 Ml 2.0         4660177
MFF   002.95 107.6 m E Pn      2011/03/14 23:59:54.2   0.0                          T                                        4660171
MFF   002.95 107.6 m E Sg      2011/03/15 00:00:41.0   0.0                          T                 .8  .23 Ml 2.1         4660175

.
EVENT     257171
    Date      Time       Latitude Longitude    Depth    Ndef Nsta Gap    Mag1  N    Mag2  N    Mag3  N   Author         ID
       rms   OT_Error      Smajor Sminor Az        Err   mdist  Mdist     Err        Err        Err      Quality

2011/03/15 08:02:53.8     46.0367    6.8445      2.0      34   14 175  Ml 2.2 14  Md 2.1  3              js067245    257171

      0.20   +-  0.06       1.2     .7   82.38 +-  0.0    0.53   2.89   +-0.2      +-0.0                 m i ke

SWITZERLAND
Sta     Dist  EvAz     Phase      Date       Time     TRes  Azim  AzRes  Slow  SRes Def   SNR       Amp   Per   Mag1   Mag2       ID
LPL   000.53 188.6 m E Pg      2011/03/15 08:03:03.9  -0.2                          T                                        4660229
LPL   000.53 188.6 m E Sg      2011/03/15 08:03:10.7  -0.3                          T                8.3  .26        Md 2.1  4660223
LPG   000.54 186.9 m E Pg      2011/03/15 08:03:04.2  -0.3                          T                                        4660228
LPG   000.54 186.9 m E Sg      2011/03/15 08:03:10.9  -0.8                          T                8.5  .19        Md 2.1  4660222
CABF  000.78 317.9 m E Pg      2011/03/15 08:03:08.5   0.0                          T                                        4660219
CABF  000.78 317.9 m E Sg      2011/03/15 08:03:18.6  -0.1                          T                8.0  .28        Md 2.1  4660218
ORIF  001.31 211.6 m E Pg      2011/03/15 08:03:18.6   0.2                          T                                        4660227
ORIF  001.31 211.6 m E Sg      2011/03/15 08:03:35.1  -0.1                          T                7.1  .30 Ml 2.3         4660224
MBDF  001.31 182.3 m E Pg      2011/03/15 08:03:18.9   0.5                          T                                        4660226
MBDF  001.31 182.3 m E Sg      2011/03/15 08:03:35.3  -0.1                          T                3.0  .35 Ml 1.9         4660225
HINF  001.78 000.2 m E Pg      2011/03/15 08:03:27.1   0.1                          T                                        4660211
HINF  001.78 000.2 m E Sg      2011/03/15 08:03:49.9   0.0                          T                5.1  .30 Ml 2.4         4660215
SMF   002.17 287.4 m E Pn      2011/03/15 08:03:29.1   0.0                          T                                        4660193
SMF   002.17 287.4 m E Pg      2011/03/15 08:03:34.1   0.1                          T                                        4660209
SMF   002.17 287.4 m E Sg      2011/03/15 08:04:01.8  -0.2                          T                3.1  .20 Ml 2.4         4660217
VIVF  001.93 233.1 m E Pg      2011/03/15 08:03:29.9   0.2                          T                                        4660220
VIVF  001.93 233.1 m E Sg      2011/03/15 08:03:54.8   0.2                          T                7.1  .22 Ml 2.7         4660221
LOR   002.40 302.0 m E Pg      2011/03/15 08:03:38.2  -0.1                          T                                        4660214
LOR   002.40 302.0 m E Sg      2011/03/15 08:04:09.1  -0.1                          T                1.8  .26 Ml 2.2         4660205
BGF   002.82 282.1 m E Pn      2011/03/15 08:03:38.2   0.2                          T                                        4660195
BGF   002.82 282.1 m E Pg      2011/03/15 08:03:46.2   0.1                          T                                        4660208
BGF   002.82 282.1 m E Sg      2011/03/15 08:04:22.2  -0.1                          T                3.2  .28 Ml 2.4         4660202
CDF   002.39 006.9 m E Pg      2011/03/15 08:03:38.3   0.0                          T                                        4660212
CDF   002.39 006.9 m E Sg      2011/03/15 08:04:09.1  -0.1                          T                2.2  .35 Ml 2.2         4660203
SSF   002.52 295.2 m E Pg      2011/03/15 08:03:40.5  -0.1                          T                                        4660213
SSF   002.52 295.2 m E Sg      2011/03/15 08:04:12.9  -0.1                          T                1.6  .32 Ml 2.1         4660204
AVF   002.53 288.6 m E Pg      2011/03/15 08:03:40.8   0.1                          T                                        4660210
AVF   002.53 288.6 m E Sg      2011/03/15 08:04:13.1  -0.1                          T                2.0  .36 Ml 2.1         4660216
LASF  002.89 228.3 m E Pg      2011/03/15 08:03:47.2  -0.1                          T                                        4660206
LASF  002.89 228.3 m E Sg      2011/03/15 08:04:24.4   0.0                          T                1.5  .29 Ml 2.1         4660200

.
EVENT     257178
    Date      Time       Latitude Longitude    Depth    Ndef Nsta Gap    Mag1  N    Mag2  N    Mag3  N   Author         ID
       rms   OT_Error      Smajor Sminor Az        Err   mdist  Mdist     Err        Err        Err      Quality

2011/03/15 08:49:52.8     42.0821   -7.3040     10.0      43    9 044  Ml 3.1 10                         js067245    257178

      0.73   +-  0.12       3.4    2.3  121.41 +-  0.0    0.50   7.16   +-0.1                            m i ke

SPAIN
Sta     Dist  EvAz     Phase      Date       Time     TRes  Azim  AzRes  Slow  SRes Def   SNR       Amp   Per   Mag1   Mag2       ID
SJPF  004.60 075.0 m E Pn      2011/03/15 08:51:01.2   0.8                          T                                        4660279
SJPF  004.60 075.0 m E Sn      2011/03/15 08:51:50.5  -0.2                          T                                        4660318
SJPF  004.60 075.0 m E Sg      2011/03/15 08:52:17.1   0.0                          T                9.9  .46 Ml 3.1         4660310
ETSF  005.05 078.5 m E Pn      2011/03/15 08:51:07.9   1.2                          T                                        4660278
ETSF  005.05 078.5 m E Sn      2011/03/15 08:52:01.4  -0.2                          T                                        4660317
ETSF  005.05 078.5 m E Sg      2011/03/15 08:52:31.1  -0.1                          T                4.7  .31 Ml 3.1         4660309
EPF   005.72 077.9 m E Pn      2011/03/15 08:51:16.5   0.8                          T                                        4660277
EPF   005.72 077.9 m E Sn      2011/03/15 08:52:17.5  -0.1                          T                                        4660316
EPF   005.72 077.9 m E Sg      2011/03/15 08:52:51.9  -0.2                          T                3.2  .27 Ml 3.1         4660308
LFF   006.51 061.3 m E Pn      2011/03/15 08:51:26.2  -0.1                          T                                        4660273
LFF   006.51 061.3 m E Sn      2011/03/15 08:52:35.9  -0.4                          T                5.1  .31 Ml 3.2         4660315
QUIF  006.53 025.3 m E Pn      2011/03/15 08:51:26.8   0.3                          T                                        4660276
MFF   006.84 046.2 m E Pn      2011/03/15 08:51:31.5   0.7                          T                                        4660272
MFF   006.84 046.2 m E Sn      2011/03/15 08:52:43.6  -0.5                          T                2.0  .32 Ml 3.2         4660312
ROSF  006.87 023.1 m E Pn      2011/03/15 08:51:32.0   0.8                          T                                        4660275
ROSF  006.87 023.1 m E Sn      2011/03/15 08:52:43.0  -1.9                          T                4.3  .40 Ml 3.3         4660314
SGMF  007.02 026.9 m E Pn      2011/03/15 08:51:34.5   1.2                          T                                        4660274
SGMF  007.02 026.9 m E Sn      2011/03/15 08:52:47.6  -1.0                          T                1.2  .22 Ml 3.0         4660313
RJF   007.16 060.3 m E Pn      2011/03/15 08:51:34.9  -0.3                          T                                        4660271
RJF   007.16 060.3 m E Sn      2011/03/15 08:52:50.6  -1.2                          T                2.8  .25 Ml 3.0         4660311

.
