EVENT     275768
    Date      Time       Latitude Longitude    Depth    Ndef Nsta Gap    Mag1  N    Mag2  N    Mag3  N   Author         ID
       rms   OT_Error      Smajor Sminor Az        Err   mdist  Mdist     Err        Err        Err      Quality

2012/05/10 03:52:27.1     45.6244    6.9584      3.0 f    28    4 137  Ml 1.6  3  Md 1.5  2              bulletin    275868
                                                                                                         _ldg
      0.40   +-  0.07       1.6    1.0  136.25 +-  0.0    0.17   1.79   +-0.0      +-0.0                 m i ke

FRANCE
Sta     Dist  EvAz     Phase      Date       Time     TRes  Azim  AzRes  Slow  SRes Def   SNR       Amp   Per   Mag1   Mag2       ID
LPL   000.19 235.9 m E Pg      2012/05/10 03:52:31.2   0.0                          T                                        4941933
LPL   000.19 235.9 m E Sg      2012/05/10 03:52:33.6  -0.3                          T               10.1  .22        Md 1.5  4941932
LPG   000.19 229.0 m E Pg      2012/05/10 03:52:31.3  -0.1                          T                                        4941931
LPG   000.19 229.0 m E Sg      2012/05/10 03:52:33.9  -0.2                          T               11.4  .18        Md 1.5  4941930
MBDF  000.91 188.4 m E Pg      2012/05/10 03:52:44.7   0.4                          T                                        4941928
MBDF  000.91 188.4 m E Sg      2012/05/10 03:52:55.7  -0.4                          T                3.0  .38 Ml 1.7         4941929
VIVF  001.79 245.4 m E Pn      2012/05/10 03:52:57.3   0.1                          T                                        4942368
VIVF  001.79 245.4 m E Sn      2012/05/10 03:53:19.3   0.2                          T                 .7  .25 Ml 1.6         4942367

.
EVENT     275766
    Date      Time       Latitude Longitude    Depth    Ndef Nsta Gap    Mag1  N    Mag2  N    Mag3  N   Author         ID
       rms   OT_Error      Smajor Sminor Az        Err   mdist  Mdist     Err        Err        Err      Quality

2012/05/10 05:05:08.4     47.5790    3.2145 f     .0 f    11    6 276  Ml 2.9  1  Md 2.5  3              bulletin    275866
                                                                                                         _ldg
      0.39   +-  0.07    9999.9 9999.9   99.90 +-  0.0    0.54   1.46   +-         +-0.1                 m i km

FRANCE
Sta     Dist  EvAz     Phase      Date       Time     TRes  Azim  AzRes  Slow  SRes Def   SNR       Amp   Per   Mag1   Mag2       ID
SSF   000.55 158.9 m E Pg      2012/05/10 05:05:18.9  -0.3                          T                                        4941611
SSF   000.55 158.9 m E Sg      2012/05/10 05:05:26.8   0.1                          T                                Md 2.5  4941607
LOR   000.54 125.2 m E Pg      2012/05/10 05:05:19.1   0.3 298.1  -7.6              T                                        4941610
LOR   000.54 125.2 m E Sg      2012/05/10 05:05:26.1   0.0 288.8  -16.8             T               41.1 1.36        Md 2.5  4941609
AVF   000.79 173.1 m E Pg      2012/05/10 05:05:23.1  -0.4                          T                                        4941606
AVF   000.79 173.1 m E Sg      2012/05/10 05:05:34.9   0.9                          T               81.7 1.82        Md 2.6  4941602
SMF   001.03 155.2 m E Pn      2012/05/10 05:05:28.9   0.3                          T                                        4941605
SMF   001.03 155.2 m E Sn      2012/05/10 05:05:43.0   0.1                          T                                        4941603
TCF   001.46 208.4 m E Pn      2012/05/10 05:05:34.4  -0.1                          T                                        4941608
TCF   001.46 208.4 m E Sn      2012/05/10 05:05:52.7  -0.8                          T                                        4941604
BGF   001.05 194.0 m E Sg      2012/05/10 05:05:42.6   0.4                          T               44.8  .38 Ml 2.9         4945580

.
EVENT     275777
    Date      Time       Latitude Longitude    Depth    Ndef Nsta Gap    Mag1  N    Mag2  N    Mag3  N   Author         ID
       rms   OT_Error      Smajor Sminor Az        Err   mdist  Mdist     Err        Err        Err      Quality

2012/05/10 05:39:19.2     48.6160    8.7960 f     .0 f     6    3 339  Ml 2.7  3                         bulletin    275877
                                                                                                         _ldg
      0.42   +-  0.07    9999.9 9999.9   99.90 +-  0.0    1.03   1.74   +-0.3                            m i km

GERMANY
Sta     Dist  EvAz     Phase      Date       Time     TRes  Azim  AzRes  Slow  SRes Def   SNR       Amp   Per   Mag1   Mag2       ID
CDF   001.03 259.2 m E Pg      2012/05/10 05:39:38.5  -0.4                          T                                        4941951
CDF   001.03 259.2 m E Sg      2012/05/10 05:39:52.2  -0.2                          T               70.2  .61 Ml 3.0         4941950
HINF  001.53 239.1 m E Pn      2012/05/10 05:39:46.5   0.3                          T                                        4941949
HINF  001.53 239.1 m E Sn      2012/05/10 05:40:05.6  -0.2                          T               13.8  .34 Ml 2.7         4941948
HAU   001.74 250.4 m E Pn      2012/05/10 05:39:49.6   0.4                          T                                        4941946
HAU   001.74 250.4 m E Sn      2012/05/10 05:40:10.2  -0.8                          T               10.9  .38 Ml 2.4         4941947

.
EVENT     275778
    Date      Time       Latitude Longitude    Depth    Ndef Nsta Gap    Mag1  N    Mag2  N    Mag3  N   Author         ID
       rms   OT_Error      Smajor Sminor Az        Err   mdist  Mdist     Err        Err        Err      Quality

2012/05/10 06:24:10.9     43.4122    6.3488       .0 f     8    4 191  Ml 2.1  1  Md 1.9  2              bulletin    275878
                                                                                                         _ldg
      0.22   +-  0.12       2.9    1.7   27.89 +-  0.0    0.14   0.91   +-         +-0.1                 m i km

NEAR SOUTH COAST OF FRANCE
Sta     Dist  EvAz     Phase      Date       Time     TRes  Azim  AzRes  Slow  SRes Def   SNR       Amp   Per   Mag1   Mag2       ID
LMR   000.14 123.7 m E Pg      2012/05/10 06:24:14.0  -0.1                          T                                        4941978
LMR   000.14 123.7 m E Sg      2012/05/10 06:24:16.7   0.5                          T              163.2  .76        Md 2.0  4941977
FRF   000.26 055.5 m E Pg      2012/05/10 06:24:16.2  -0.1                          T                                        4941975
FRF   000.26 055.5 m E Sg      2012/05/10 06:24:20.2   0.1                          T               25.7  .68        Md 1.8  4941976
SMRF  000.80 315.4 m E Pg      2012/05/10 06:24:26.3   0.1                          T                                        4942003
SMRF  000.80 315.4 m E Sg      2012/05/10 06:24:36.8   0.1                          T                1.9  .24                4942002
SBF   000.91 059.9 m E Pg      2012/05/10 06:24:28.2  -0.1                          T                                        4941974
SBF   000.91 059.9 m E Sg      2012/05/10 06:24:40.8   0.5                          T                4.6  .24 Ml 2.1         4941973

.
EVENT     275780
    Date      Time       Latitude Longitude    Depth    Ndef Nsta Gap    Mag1  N    Mag2  N    Mag3  N   Author         ID
       rms   OT_Error      Smajor Sminor Az        Err   mdist  Mdist     Err        Err        Err      Quality

2012/05/10 07:19:52.6     43.8150    7.6433       .0 f     5    3 312  Ml 2.0  2  Md 1.8  1              bulletin    275880
                                                                                                         _ldg
      0.75   +-  1.82      33.2   20.9   75.57 +-  0.0    0.16   1.50   +-0.1      +-                    m i km

NEAR SOUTH COAST OF FRANCE
Sta     Dist  EvAz     Phase      Date       Time     TRes  Azim  AzRes  Slow  SRes Def   SNR       Amp   Per   Mag1   Mag2       ID
SBF   000.16 287.8 m E Pg      2012/05/10 07:19:56.7   0.5                          T                                        4942037
SBF   000.16 287.8 m E Sg      2012/05/10 07:19:58.0  -0.6                          T              146.3  .24        Md 1.8  4942036
LMR   000.95 240.1 m E Pg      2012/05/10 07:20:10.2  -0.5                          T                                        4942041
LMR   000.95 240.1 m E Sg      2012/05/10 07:20:24.8   1.4                          T                3.5  .24 Ml 2.0         4942042
SMRF  001.50 276.9 m E Sg      2012/05/10 07:20:39.8  -0.8                          T                5.1  .44 Ml 2.1         4945595

.
EVENT     275813
    Date      Time       Latitude Longitude    Depth    Ndef Nsta Gap    Mag1  N    Mag2  N    Mag3  N   Author         ID
       rms   OT_Error      Smajor Sminor Az        Err   mdist  Mdist     Err        Err        Err      Quality

2012/05/10 08:54:51.0     44.3996    7.4189       .0 f    28    8 140  Ml 1.8  6  Md 1.7  4              bulletin    275913
                                                                                                         _ldg
      0.37   +-  0.09       2.0    1.1   68.22 +-  0.0    0.16   2.58   +-0.2      +-0.1                 m i km

NORTHERN ITALY
Sta     Dist  EvAz     Phase      Date       Time     TRes  Azim  AzRes  Slow  SRes Def   SNR       Amp   Per   Mag1   Mag2       ID
SBF   000.54 178.7 m E Pg      2012/05/10 08:55:01.8   0.3                          T                                        4942391
SBF   000.54 178.7 m E Sg      2012/05/10 08:55:08.9   0.1                          T                3.3  .21        Md 1.6  4942390
MBDF  000.57 305.5 m E Pg      2012/05/10 08:55:02.3   0.1                          T                                        4942397
MBDF  000.57 305.5 m E Sg      2012/05/10 08:55:09.7  -0.1                          T                2.7  .18        Md 1.6  4942396
FRF   001.01 213.9 m E Pg      2012/05/10 08:55:10.4   0.2                          T                                        4942393
FRF   001.01 213.9 m E Sg      2012/05/10 08:55:23.6   0.2                          T                2.1  .29 Ml 1.7         4942392
LPG   001.20 336.9 m E Pg      2012/05/10 08:55:13.7  -0.3                          T                                        4942398
LPG   001.20 336.9 m E Sg      2012/05/10 08:55:29.5  -0.1                          T                3.0  .42 Ml 1.8 Md 1.8  4942387
LPL   001.22 336.7 m E Pg      2012/05/10 08:55:13.0  -0.3                          T                                        4943544
LPL   001.22 336.7 m E Sg      2012/05/10 08:55:29.5  -0.8                          T                3.5  .35 Ml 1.9 Md 1.8  4943543
LMR   001.25 212.0 m E Pg      2012/05/10 08:55:15.1   0.5                          T                                        4942395
LMR   001.25 212.0 m E Sg      2012/05/10 08:55:31.9   0.8                          T                2.8  .20 Ml 2.1         4942394
SMRF  001.39 252.9 m E Pn      2012/05/10 08:55:16.3   0.1                          T                                        4942389
SMRF  001.39 252.9 m E Sn      2012/05/10 08:55:34.0  -0.3                          T                1.1  .25 Ml 1.7         4942388
LASF  002.58 264.0 m E Pn      2012/05/10 08:55:32.5   0.1                          T                                        4943546
LASF  002.58 264.0 m E Sn      2012/05/10 08:56:02.5  -0.3                          T                 .5  .21 Ml 1.7         4943545

.
EVENT     275807
    Date      Time       Latitude Longitude    Depth    Ndef Nsta Gap    Mag1  N    Mag2  N    Mag3  N   Author         ID
       rms   OT_Error      Smajor Sminor Az        Err   mdist  Mdist     Err        Err        Err      Quality

2012/05/10 09:20:48.1     48.0186    6.6396       .0 f    11    5 126  Ml 2.0  2  Md 2.2  2              bulletin    275907
                                                                                                         _ldg
      0.97   +-  0.17       4.1    3.3  167.79 +-  0.0    0.20   1.46   +-0.1      +-0.1                 m i km

FRANCE
Sta     Dist  EvAz     Phase      Date       Time     TRes  Azim  AzRes  Slow  SRes Def   SNR       Amp   Per   Mag1   Mag2       ID
HAU   000.20 266.3 m E Pg      2012/05/10 09:20:52.5   0.2                          T                                        4945613
HAU   000.20 266.3 m E Sg      2012/05/10 09:20:55.9   0.6                          T              286.9  .60        Md 2.3  4945614
HINF  000.25 144.5 m E Pg      2012/05/10 09:20:53.4   0.1                          T                                        4945608
HINF  000.25 144.5 m E Sg      2012/05/10 09:20:56.4  -0.5                          T               66.1  .86        Md 2.1  4945609
CDF   000.58 047.0 m E Pg      2012/05/10 09:20:59.5   0.0                          T                                        4945610
CDF   000.58 047.0 m E Pn      2012/05/10 09:21:01.8  -0.5                          T                                        4945611
CDF   000.58 047.0 m E Sg      2012/05/10 09:21:08.5   1.2                          T                3.8  .19                4945612
SFTF  001.09 280.5 m E Pg      2012/05/10 09:21:08.4  -0.4 107.3  8.0               T                                        4945617
SFTF  001.09 280.5 m E Sg      2012/05/10 09:21:22.8  -0.3                          T                2.9  .16 Ml 2.1         4945618
CABF  001.46 195.1 m E Pn      2012/05/10 09:21:14.6   0.4                          T                                        4945615
CABF  001.46 195.1 m E Sg      2012/05/10 09:21:34.6   0.0                          T                5.1  .56 Ml 2.0         4945616

.
EVENT     275814
    Date      Time       Latitude Longitude    Depth    Ndef Nsta Gap    Mag1  N    Mag2  N    Mag3  N   Author         ID
       rms   OT_Error      Smajor Sminor Az        Err   mdist  Mdist     Err        Err        Err      Quality

2012/05/10 09:55:02.3     43.1736    5.9300       .0 f    20    8 145  Ml 2.4  4  Md 2.4  2              bulletin    275914
                                                                                                         _ldg
      0.34   +-  0.27       5.8    2.0   10.02 +-  0.0    0.41   2.40   +-0.5      +-0.2                 m i km

NEAR SOUTH COAST OF FRANCE
Sta     Dist  EvAz     Phase      Date       Time     TRes  Azim  AzRes  Slow  SRes Def   SNR       Amp   Per   Mag1   Mag2       ID
LMR   000.45 069.1 m E Pg      2012/05/10 09:55:11.5   0.3                          T                                        4942441
LMR   000.45 069.1 m E Sg      2012/05/10 09:55:17.2  -0.2                          T               22.2  .20        Md 2.5  4942440
FRF   000.65 053.2 m E Pg      2012/05/10 09:55:14.4  -0.5                          T                                        4942442
FRF   000.65 053.2 m E Sg      2012/05/10 09:55:23.3  -0.3                          T                9.5  .26        Md 2.2  4942443
SMRF  000.84 342.3 m E Pg      2012/05/10 09:55:18.6   0.1                          T                                        4942445
SMRF  000.84 342.3 m E Sn      2012/05/10 09:55:32.6   0.0                          T                9.8  .26                4942444
SBF   001.29 057.3 m E Pg      2012/05/10 09:55:26.6  -0.2                          T                                        4942438
SBF   001.29 057.3 m E Sg      2012/05/10 09:55:44.1   0.4                          T               20.6  .23 Ml 2.9         4942439
LASF  001.75 301.6 m E Pg      2012/05/10 09:55:35.3   0.1                          T                                        4944954
LASF  001.75 301.6 m E Sn      2012/05/10 09:55:54.4   0.1                          T                1.8  .30 Ml 1.9         4944955
PGF   002.34 104.4 m E Pn      2012/05/10 09:55:39.7  -0.8                          T                                        4942455
PGF   002.34 104.4 m E Sn      2012/05/10 09:56:07.6  -0.8                          T                4.0  .27 Ml 2.7         4942454
LPG   002.40 013.9 m E P       2012/05/10 09:55:44.4   0.6                          T                                        4944953
VIVF  001.91 332.1 m E Sn      2012/05/10 09:55:57.9  -0.2                          T                1.9  .35 Ml 1.9         4944956

.
EVENT     275812
    Date      Time       Latitude Longitude    Depth    Ndef Nsta Gap    Mag1  N    Mag2  N    Mag3  N   Author         ID
       rms   OT_Error      Smajor Sminor Az        Err   mdist  Mdist     Err        Err        Err      Quality

2012/05/10 10:54:16.4     49.5575    6.6224       .0 f    20   10 223  Ml 2.2  7  Md 2.2  3              bulletin    275912
                                                                                                         _ldg
      0.31   +-  0.16       3.1    1.4   54.38 +-  0.0    1.16   3.25   +-0.3      +-0.1                 m i ke

GERMANY
Sta     Dist  EvAz     Phase      Date       Time     TRes  Azim  AzRes  Slow  SRes Def   SNR       Amp   Per   Mag1   Mag2       ID
PAGF  001.16 210.8 m E Pg      2012/05/10 10:54:38.6   0.2                          T                                        4942488
PAGF  001.16 210.8 m E Sg      2012/05/10 10:54:53.6  -0.1                          T                2.0  .32 Ml 1.7 Md 2.3  4942483
CDF   001.22 159.2 m E Pg      2012/05/10 10:54:39.9   0.3                          T                                        4942489
CDF   001.22 159.2 m E Sg      2012/05/10 10:54:55.9   0.2                          T                3.3  .20 Ml 2.2 Md 2.1  4942484
GIVF  001.29 295.8 m E Pg      2012/05/10 10:54:41.0   0.4                          T                                        4942485
GIVF  001.29 295.8 m E Sg      2012/05/10 10:54:57.9   0.4                          T               12.7  .34 Ml 2.5 Md 2.2  4942481
MEZF  001.48 225.0 m E Pg      2012/05/10 10:54:43.9  -0.2  44.8  1.0               T                                        4942478
MEZF  001.48 225.0 m E Sg      2012/05/10 10:55:03.6   0.1                          T                8.3  .44 Ml 2.3         4942477
HAU   001.56 186.8 m E Pg      2012/05/10 10:54:45.5  -0.3                          T                                        4942487
HAU   001.56 186.8 m E Sg      2012/05/10 10:55:06.2   0.0                          T                9.9  .32 Ml 2.3         4942482
SFTF  001.71 218.3 m E Pn      2012/05/10 10:54:46.2   0.3                          T                                        4942475
SFTF  001.71 218.3 m E Sg      2012/05/10 10:55:10.9   0.1                          T                                        4942476
BAIF  001.64 288.7 m E Pg      2012/05/10 10:54:46.8  -0.4                          T                                        4942480
BAIF  001.64 288.7 m E Sg      2012/05/10 10:55:08.4  -0.2                          T                                        4942479
HINF  001.75 174.9 m E Pg      2012/05/10 10:54:49.0  -0.2                          T                                        4942486
HINF  001.75 174.9 m E Sg      2012/05/10 10:55:12.2   0.2                          T                3.8  .26 Ml 2.3         4942474
LOR   002.94 219.8 m E Pn      2012/05/10 10:55:02.4  -0.2  39.7  1.9               T                                        4942473
LOR   002.94 219.8 m E Sn      2012/05/10 10:55:37.0   0.3                          T                 .9  .18 Ml 2.1         4942472
SSF   003.25 221.0 m E Pn      2012/05/10 10:55:06.8  -0.1                          T                                        4942471
SSF   003.25 221.0 m E Sn      2012/05/10 10:55:44.4   0.3                          T                                        4942470

.
