EVENT     257505
    Date      Time       Latitude Longitude    Depth    Ndef Nsta Gap    Mag1  N    Mag2  N    Mag3  N   Author         ID
       rms   OT_Error      Smajor Sminor Az        Err   mdist  Mdist     Err        Err        Err      Quality

2011/03/23 22:43:55.7     42.2938    9.3028      3.0 f    19   11 324  Ml 2.4  4  Md 2.5  1              js067245    257505

      0.71   +-  0.42       7.4    5.3  132.51 +-  0.0    0.34   4.36   +-0.1      +-                    m i ke

CORSICA, FRANCE
Sta     Dist  EvAz     Phase      Date       Time     TRes  Azim  AzRes  Slow  SRes Def   SNR       Amp   Per   Mag1   Mag2       ID
PGF   000.34 318.6 m E Pg      2011/03/23 22:44:02.3  -0.2                          T                                        4663469
PGF   000.34 318.6 m E Sg      2011/03/23 22:44:07.3   0.2                          T               36.7  .29        Md 2.5  4663468
SBF   002.08 319.5 m E Pn      2011/03/23 22:44:28.7  -1.2                          T                                        4663467
SBF   002.08 319.5 m E Sn      2011/03/23 22:44:54.3  -0.5                          T                4.6  .24 Ml 2.5         4663460
LMR   002.30 297.8 m E Pn      2011/03/23 22:44:32.3  -0.5                          T                                        4663466
LMR   002.30 297.8 m E Sn      2011/03/23 22:45:00.6   0.7                          T                3.8  .33 Ml 2.4         4663459
FRF   002.33 303.9 m E Pn      2011/03/23 22:44:32.5  -0.6                          T                                        4663465
FRF   002.33 303.9 m E Sn      2011/03/23 22:45:00.9   0.4                          T                2.3  .30 Ml 2.2         4663458
MBDF  003.05 323.7 m E Pn      2011/03/23 22:44:41.8  -1.3                          T                                        4663463
MBDF  003.05 323.7 m E Sn      2011/03/23 22:45:16.9  -1.1                          T                7.4  .72 Ml 2.4         4663457
SMRF  003.20 302.9 m E Pn      2011/03/23 22:44:45.4   0.3                          T                                        4663464
ORIF  003.61 317.7 m E Pn      2011/03/23 22:44:52.3   1.5                          T                                        4663462
LPG   003.70 330.9 m E Pn      2011/03/23 22:44:52.6   0.5                          T                                        4663455
LPL   003.72 330.9 m E Pn      2011/03/23 22:44:52.8   0.5                          T                                        4663456
VIVF  004.23 308.9 m E Pn      2011/03/23 22:44:59.3   0.3                          T                                        4663461
LASF  004.36 295.9 m E Pn      2011/03/23 22:45:00.7  -0.1                          T                                        4663451

.
EVENT     257506
    Date      Time       Latitude Longitude    Depth    Ndef Nsta Gap    Mag1  N    Mag2  N    Mag3  N   Author         ID
       rms   OT_Error      Smajor Sminor Az        Err   mdist  Mdist     Err        Err        Err      Quality

2011/03/23 22:56:31.8     45.2205    7.0637      2.0      10    4 241  Ml 1.2  2  Md 1.3  3              js067245    257506

      0.27   +-  0.24       4.9    2.0   91.86 +-  0.0    0.35   0.89   +-0.1      +-0.1                 m i ke

NORTHERN ITALY
Sta     Dist  EvAz     Phase      Date       Time     TRes  Azim  AzRes  Slow  SRes Def   SNR       Amp   Per   Mag1   Mag2       ID
LPG   000.35 321.7 m E Pg      2011/03/23 22:56:39.0   0.0                          T                                        4663475
LPG   000.35 321.7 m E Sg      2011/03/23 22:56:42.9  -0.9                          T                1.9  .20        Md 1.4  4663474
LPL   000.38 321.8 m E Pg      2011/03/23 22:56:39.6   0.3                          T                                        4663476
LPL   000.38 321.8 m E Sg      2011/03/23 22:56:43.1  -1.3                          T                1.3  .21        Md 1.3  4663473
MBDF  000.54 202.9 m E Pg      2011/03/23 22:56:42.1  -0.1                          T                                        4663471
MBDF  000.54 202.9 m E Sg      2011/03/23 22:56:49.1  -0.1                          T                1.2  .16        Md 1.2  4663472
ORIF  000.89 250.6 m E Pg      2011/03/23 22:56:48.6  -0.1                          T                                        4663479
ORIF  000.89 250.6 m E Sg      2011/03/23 22:57:00.4   0.1                          T                1.2  .53 Ml 1.1         4663470

.
EVENT     257507
    Date      Time       Latitude Longitude    Depth    Ndef Nsta Gap    Mag1  N    Mag2  N    Mag3  N   Author         ID
       rms   OT_Error      Smajor Sminor Az        Err   mdist  Mdist     Err        Err        Err      Quality

2011/03/23 23:31:33.9     42.2986    9.3252      3.0 f    21   12 325  Ml 2.4  4  Md 2.5  1              js067245    257507

      0.62   +-  0.43       7.9    5.8  133.79 +-  0.0    0.35   5.89   +-0.2      +-                    m i ke

CORSICA, FRANCE
Sta     Dist  EvAz     Phase      Date       Time     TRes  Azim  AzRes  Slow  SRes Def   SNR       Amp   Per   Mag1   Mag2       ID
PGF   000.35 316.1 m E Pg      2011/03/23 23:31:40.8   0.0                          T                                        4663503
PGF   000.35 316.1 m E Sg      2011/03/23 23:31:45.9   0.4                          T               84.2  .30        Md 2.5  4663488
SBF   002.09 319.1 m E Pn      2011/03/23 23:32:06.8  -1.3                          T                                        4663502
SBF   002.09 319.1 m E Sn      2011/03/23 23:32:32.6  -0.5                          T                3.8  .18 Ml 2.5         4663489
LMR   002.32 297.5 m E Pn      2011/03/23 23:32:10.6  -0.5                          T                                        4663501
LMR   002.32 297.5 m E Sn      2011/03/23 23:32:39.0   0.6                          T                3.1  .24 Ml 2.4         4663490
FRF   002.34 303.6 m E Pn      2011/03/23 23:32:10.6  -0.8                          T                                        4663500
FRF   002.34 303.6 m E Sn      2011/03/23 23:32:39.2   0.2                          T                1.8  .24 Ml 2.2         4663491
MBDF  003.06 323.4 m E Pn      2011/03/23 23:32:20.1  -1.3                          T                                        4663495
MBDF  003.06 323.4 m E P       2011/03/23 23:32:23.6  -0.7                          T                                        4668199
MBDF  003.06 323.4 m E Sn      2011/03/23 23:32:55.5  -0.9                          T                3.4  .48 Ml 2.3         4663492
SMRF  003.22 302.7 m E Pn      2011/03/23 23:32:24.2   0.8                          T                                        4663499
ORIF  003.62 317.5 m E Pn      2011/03/23 23:32:29.5   0.4                          T                                        4663496
LPG   003.70 330.7 m E Pn      2011/03/23 23:32:30.9   0.6                          T                                        4663498
LPL   003.72 330.7 m E Pn      2011/03/23 23:32:31.1   0.6                          T                                        4663497
VIVF  004.24 308.7 m E Pn      2011/03/23 23:32:37.7   0.3                          T                                        4663493
LASF  004.38 295.8 m E Pn      2011/03/23 23:32:39.0  -0.2                          T                                        4663494
CAF   005.89 298.9 m E Pn      2011/03/23 23:32:59.9   0.0                          T                                        4663504

.
EVENT     257508
    Date      Time       Latitude Longitude    Depth    Ndef Nsta Gap    Mag1  N    Mag2  N    Mag3  N   Author         ID
       rms   OT_Error      Smajor Sminor Az        Err   mdist  Mdist     Err        Err        Err      Quality

2011/03/23 23:39:41.3     42.3041    9.2759      3.0 f    27   17 312  Ml 2.6  5  Md 2.6  1              js067245    257508

      0.50   +-  0.32       6.1    4.0  123.60 +-  0.0    0.32   6.73   +-0.3      +-                    m i ke

CORSICA, FRANCE
Sta     Dist  EvAz     Phase      Date       Time     TRes  Azim  AzRes  Slow  SRes Def   SNR       Amp   Per   Mag1   Mag2       ID
PGF   000.32 320.1 m E Pg      2011/03/23 23:39:47.5  -0.2                          T                                        4663534
PGF   000.32 320.1 m E Sg      2011/03/23 23:39:52.4   0.4                          T              142.1  .32        Md 2.6  4663533
SBF   002.06 319.7 m E Pn      2011/03/23 23:40:13.9  -1.3                          T                                        4663532
SBF   002.06 319.7 m E Sn      2011/03/23 23:40:39.7  -0.1                          T               16.1  .38 Ml 2.8         4663508
LMR   002.28 297.8 m E Pn      2011/03/23 23:40:17.5  -0.5                          T                                        4663531
LMR   002.28 297.8 m E Sn      2011/03/23 23:40:44.7  -0.3                          T                6.3  .20 Ml 2.8         4663509
FRF   002.30 303.9 m E Pn      2011/03/23 23:40:17.8  -0.6                          T                                        4663530
FRF   002.30 303.9 m E Sn      2011/03/23 23:40:45.5   0.0                          T                3.7  .26 Ml 2.5         4663510
MBDF  003.03 323.9 m E P       2011/03/23 23:40:30.2  -1.2                          T                                        4663525
MBDF  003.03 323.9 m E Sn      2011/03/23 23:41:02.1  -1.0                          T               11.3  .66 Ml 2.7         4663511
SMRF  003.18 302.9 m E Pn      2011/03/23 23:40:31.2   0.8                          T                                        4663529
ORIF  003.59 317.8 m E Pn      2011/03/23 23:40:37.6   1.5                          T                                        4663526
LPG   003.68 331.1 m E Pn      2011/03/23 23:40:37.9   0.4                          T                                        4663528
LPG   003.68 331.1 m E Sn      2011/03/23 23:41:19.2   0.4                          T                1.1  .35 Ml 2.1         4663535
LPL   003.70 331.1 m E Pn      2011/03/23 23:40:38.1   0.4                          T                                        4663527
VIVF  004.21 308.9 m E Pn      2011/03/23 23:40:44.6   0.3                          T                                        4663524
LASF  004.34 295.9 m E Pn      2011/03/23 23:40:45.8  -0.3                          T                                        4663523
MTLF  005.29 283.7 m E Pn      2011/03/23 23:40:58.8  -0.3                          T                                        4663522
SMF   005.83 320.0 m E Pn      2011/03/23 23:41:06.6   0.2                          T                                        4663518
CAF   005.85 299.0 m E Pn      2011/03/23 23:41:07.3   0.5                          T                                        4663521
AVF   006.17 318.7 m E Pn      2011/03/23 23:41:11.0   0.1                          T                                        4663517
BGF   006.27 314.9 m E Pn      2011/03/23 23:41:12.4   0.1                          T                                        4663519
LFF   006.73 295.9 m E Pn      2011/03/23 23:41:18.6   0.0                          T                                        4663516

.
EVENT     257514
    Date      Time       Latitude Longitude    Depth    Ndef Nsta Gap    Mag1  N    Mag2  N    Mag3  N   Author         ID
       rms   OT_Error      Smajor Sminor Az        Err   mdist  Mdist     Err        Err        Err      Quality

2011/03/23 23:52:05.8     43.0588    -.6491      2.0      22    4 110  Ml 1.4  1  Md 1.5  3              js067245    257514

      0.32   +-  0.09       1.9    1.3  162.48 +-  0.0    0.17   2.13   +-         +-0.0                 m i ke

PYRENEES
Sta     Dist  EvAz     Phase      Date       Time     TRes  Azim  AzRes  Slow  SRes Def   SNR       Amp   Per   Mag1   Mag2       ID
ETSF  000.17 157.6 m E Pg      2011/03/23 23:52:09.1  -0.3                          T                                        4663541
ETSF  000.17 157.6 m E Sg      2011/03/23 23:52:11.4  -0.5                          T                5.2  .22        Md 1.5  4663538
SJPF  000.43 277.6 m E Pg      2011/03/23 23:52:13.7  -0.3                          T                                        4663540
SJPF  000.43 277.6 m E Sg      2011/03/23 23:52:19.3  -0.3                          T                4.0  .33        Md 1.6  4663539
EPF   000.73 091.9 m E Pg      2011/03/23 23:52:19.7   0.1                          T                                        4663536
EPF   000.73 091.9 m E Sg      2011/03/23 23:52:29.1   0.0                          T                 .9  .22        Md 1.5  4663537
LFF   002.13 027.6 m E Pn      2011/03/23 23:52:40.7   0.1                          T                                        4663543
LFF   002.13 027.6 m E Sn      2011/03/23 23:53:06.4   0.4                          T                 .6  .26 Ml 1.4         4663542

.
EVENT     257510
    Date      Time       Latitude Longitude    Depth    Ndef Nsta Gap    Mag1  N    Mag2  N    Mag3  N   Author         ID
       rms   OT_Error      Smajor Sminor Az        Err   mdist  Mdist     Err        Err        Err      Quality

2011/03/24 02:20:27.5     42.3299    9.4611      3.0 f    11    5 334  Ml 1.5  3  Md 2.0  1              js067245    257510

      0.27   +-  0.23       3.8    3.0  124.86 +-  0.0    0.41   3.09   +-0.2      +-                    m i ke

CORSICA, FRANCE
Sta     Dist  EvAz     Phase      Date       Time     TRes  Azim  AzRes  Slow  SRes Def   SNR       Amp   Per   Mag1   Mag2       ID
PGF   000.41 302.7 m E Pg      2011/03/24 02:20:35.5   0.1                          T                                        4663550
PGF   000.41 302.7 m E Sg      2011/03/24 02:20:40.6  -0.2                          T               11.9  .37        Md 2.0  4663546
SBF   002.13 316.6 m E Pn      2011/03/24 02:21:02.5   0.2                          T                                        4663551
SBF   002.13 316.6 m E Sn      2011/03/24 02:21:27.6  -0.2                          T                 .9  .29 Ml 1.7         4663548
FRF   002.40 301.7 m E Pn      2011/03/24 02:21:05.6  -0.3                          T                                        4663552
FRF   002.40 301.7 m E Sn      2011/03/24 02:21:34.3   0.1                          T                 .3  .18 Ml 1.5         4663547
LMR   002.39 295.8 m E Pn      2011/03/24 02:21:05.8   0.1                          T                                        4663553
LMR   002.39 295.8 m E Sn      2011/03/24 02:21:34.3   0.5                          T                 .2  .20 Ml 1.4         4663549
MBDF  003.09 321.7 m E P       2011/03/24 02:21:17.5  -1.0                          T                                        4668200

.
EVENT     257515
    Date      Time       Latitude Longitude    Depth    Ndef Nsta Gap    Mag1  N    Mag2  N    Mag3  N   Author         ID
       rms   OT_Error      Smajor Sminor Az        Err   mdist  Mdist     Err        Err        Err      Quality

2011/03/24 03:24:51.3     42.8421    -.4862      2.0       8    4 224  Ml 1.4  1  Md 1.4  3              js067245    257515

      0.16   +-  0.16       4.7    1.2    4.60 +-  0.0    0.08   2.28   +-         +-0.0                 m i ke

PYRENEES
Sta     Dist  EvAz     Phase      Date       Time     TRes  Azim  AzRes  Slow  SRes Def   SNR       Amp   Per   Mag1   Mag2       ID
ETSF  000.08 316.5 m E Pg      2011/03/24 03:24:53.1  -0.1                          T                                        4663561
ETSF  000.08 316.5 m E Sg      2011/03/24 03:24:54.1  -0.3                          T               94.5  .27        Md 1.5  4663558
SJPF  000.61 296.8 m E Pg      2011/03/24 03:25:02.8   0.0                          T                                        4663556
SJPF  000.61 296.8 m E Sg      2011/03/24 03:25:11.1   0.3                          T                2.9  .36        Md 1.5  4663560
EPF   000.64 072.5 m E Pg      2011/03/24 03:25:03.4   0.0                          T                                        4663557
EPF   000.64 072.5 m E Sg      2011/03/24 03:25:11.9   0.2                          T                1.2  .15        Md 1.4  4663559
LFF   002.28 022.5 m E Pn      2011/03/24 03:25:28.0  -0.1                          T                                        4663555
LFF   002.28 022.5 m E Sn      2011/03/24 03:25:55.2   0.2                          T                 .6  .29 Ml 1.4         4663554

.
EVENT     257509
    Date      Time       Latitude Longitude    Depth    Ndef Nsta Gap    Mag1  N    Mag2  N    Mag3  N   Author         ID
       rms   OT_Error      Smajor Sminor Az        Err   mdist  Mdist     Err        Err        Err      Quality

2011/03/24 05:13:13.5     45.7617    6.9905      2.0      10    4 325  Ml 1.2  3  Md 1.2  3              js067245    257509

      1.20   +-  1.46      24.3   21.2  153.93 +-  0.0    0.30   1.15   +-0.2      +-0.1                 m i ke

FRANCE
Sta     Dist  EvAz     Phase      Date       Time     TRes  Azim  AzRes  Slow  SRes Def   SNR       Amp   Per   Mag1   Mag2       ID
LPL   000.30 216.5 m E Pg      2011/03/24 05:13:19.5  -0.3                          T                                Md 1.3  4663569
LPL   000.30 216.5 m E Sg      2011/03/24 05:13:20.9  -2.9                          T                6.1  .20                4663566
LPG   000.31 212.5 m E Pg      2011/03/24 05:13:20.0   0.0                          T                                Md 1.3  4663568
LPG   000.31 212.5 m E Sg      2011/03/24 05:13:21.7  -2.5                          T                5.8  .29                4663567
MBDF  001.05 188.6 m E Pg      2011/03/24 05:13:33.0  -0.3                          T                                Md 1.1  4663563
MBDF  001.05 188.6 m E Sg      2011/03/24 05:13:48.4   1.5                          T                1.3  .37 Ml 1.4         4663565
ORIF  001.15 223.3 m E Pg      2011/03/24 05:13:34.9  -0.3                          T                                        4663562
ORIF  001.15 223.3 m E Sg      2011/03/24 05:13:51.5   1.4                          T                 .4  .24 Ml 1.1         4663564

.
