EVENT     291339
    Date      Time       Latitude Longitude    Depth    Ndef Nsta Gap    Mag1  N    Mag2  N    Mag3  N   Author         ID
       rms   OT_Error      Smajor Sminor Az        Err   mdist  Mdist     Err        Err        Err      Quality

2013/02/02 11:41:08.2     44.1960   10.5213     14.0 f    57   20 161  Ml 2.6 12                         bulletin    291439
                                                                                                         _ldg
      0.51   +-  0.12       2.6    1.7   82.98 +-  0.0    0.09   5.90   +-0.4                            m i ke

NORTHERN ITALY
Sta     Dist  EvAz     Phase      Date       Time     TRes  Azim  AzRes  Slow  SRes Def   SNR       Amp   Per   Mag1   Mag2       ID
PGF   001.99 214.5 m E P       2013/02/02 11:41:42.2   0.1                          T                                        5195849
PGF   001.99 214.5 m E Sn      2013/02/02 11:42:02.6  -0.4                          T                3.6  .26 Ml 2.6         5185558
SBF   002.25 262.6 m E Pn      2013/02/02 11:41:43.7   0.3                          T                                        5185537
SBF   002.25 262.6 m E Sn      2013/02/02 11:42:09.2  -0.1                          T                7.1  .22 Ml 2.8         5185557
MBDF  002.74 282.5 m E Pn      2013/02/02 11:41:50.2   0.1                          T                                        5185532
MBDF  002.74 282.5 m E P       2013/02/02 11:41:53.2   0.2                          T                                        5195853
MBDF  002.74 282.5 m E Sn      2013/02/02 11:42:20.6  -0.4                          T                2.4  .39 Ml 2.1         5185561
MBDF  002.74 282.5 m E Sg      2013/02/02 11:42:34.4   0.0                          T                5.8  .41 Ml 2.5         5195848
FRF   002.87 258.6 m E Pn      2013/02/02 11:41:52.2   0.4                          T                                        5185535
FRF   002.87 258.6 m E Sn      2013/02/02 11:42:23.9  -0.2                          T                1.6  .23 Ml 2.3         5185555
LMR   003.03 254.9 m E Pn      2013/02/02 11:41:54.6   0.7                          T                                        5185536
LMR   003.03 254.9 m E Sn      2013/02/02 11:42:27.8  -0.1                          T                2.2  .26 Ml 2.4         5185556
LPG   002.98 297.2 m E P       2013/02/02 11:41:56.7   0.0                          T                                        5195851
LPL   003.00 297.4 m E P       2013/02/02 11:41:57.0   0.2                          T                                        5195852
ORIF  003.40 283.9 m E Pn      2013/02/02 11:41:59.2   0.2                          T                                        5185533
SMRF  003.57 268.2 m E P       2013/02/02 11:42:04.4  -0.2                          T                                        5195850
SMRF  003.57 268.2 m E Sn      2013/02/02 11:42:40.9   0.1                          T                1.9  .24 Ml 2.5         5185554
VIVF  004.23 281.0 m E Pn      2013/02/02 11:42:10.4   0.0                          T                                        5185531
HINF  004.43 326.1 m E Pn      2013/02/02 11:42:13.0  -0.1                          T                                        5185529
HINF  004.43 326.1 m E P       2013/02/02 11:42:16.2  -0.7                          T                                        5195857
HINF  004.43 326.1 m E Sn      2013/02/02 11:43:01.3  -0.1                          T               11.6  .46 Ml 3.1         5185519
LASF  004.80 270.9 m E Pn      2013/02/02 11:42:17.9  -0.1                          T                                        5185530
CDF   004.78 333.1 m E P       2013/02/02 11:42:20.7  -1.2                          T                                        5195861
CDF   004.78 333.1 m E Sn      2013/02/02 11:43:09.3  -0.4                          T                3.9  .35 Ml 3.0         5185523
HAU   004.79 324.2 m E P       2013/02/02 11:42:21.4  -0.6                          T                                        5195858
HAU   004.79 324.2 m E Sn      2013/02/02 11:43:09.9   0.0                          T               24.9  .52 Ml 3.3         5185520
SMF   005.30 299.8 m E Pn      2013/02/02 11:42:24.6  -0.3                          T                                        5185517
SMF   005.30 299.8 m E P       2013/02/02 11:42:29.3   0.1                          T                                        5195855
SFTF  005.53 318.4 m E Pn      2013/02/02 11:42:27.5  -0.4 139.7  5.2               T                                        5185521
SFTF  005.53 318.4 m E P       2013/02/02 11:42:32.0  -0.3                          T                                        5195859
LOR   005.58 305.7 m E Pn      2013/02/02 11:42:29.1   0.4 126.8  5.8               T                                        5185525
LOR   005.58 305.7 m E Sn      2013/02/02 11:43:28.9   0.0                          T                1.6  .31 Ml 2.7         5185524
PAGF  005.48 324.4 m E P       2013/02/02 11:42:31.4  -0.3                          T                                        5195860
BGF   005.90 296.3 m E Pn      2013/02/02 11:42:32.9  -0.1                          T                                        5185516
BGF   005.90 296.3 m E P       2013/02/02 11:42:37.5  -0.1                          T                                        5195854
AVF   005.67 299.7 m E P       2013/02/02 11:42:34.3   0.0                          T                                        5195856

.
EVENT     291340
    Date      Time       Latitude Longitude    Depth    Ndef Nsta Gap    Mag1  N    Mag2  N    Mag3  N   Author         ID
       rms   OT_Error      Smajor Sminor Az        Err   mdist  Mdist     Err        Err        Err      Quality

2013/02/02 12:22:29.5     47.9438   -5.5217     12.0 f    32    7 326  Ml 2.3  7  Md 2.3  1              bulletin    291440
                                                                                                         _ldg
      0.91   +-  0.28       5.4    4.2  166.99 +-  0.0    1.56   3.90   +-0.2      +-                    m i ke

NORTH ATLANTIC OCEAN
Sta     Dist  EvAz     Phase      Date       Time     TRes  Azim  AzRes  Slow  SRes Def   SNR       Amp   Per   Mag1   Mag2       ID
ROSF  001.56 074.5 m E P       2013/02/02 12:22:57.2  -0.1                          T                                        5185574
ROSF  001.56 074.5 m E Sn      2013/02/02 12:23:14.0  -0.2                          T                                        5195919
ROSF  001.56 074.5 m E Sg      2013/02/02 12:23:19.1   0.5                          T                4.0  .17 Ml 2.4 Md 2.3  5185570
QUIF  001.58 090.1 m E P       2013/02/02 12:22:57.7   0.0                          T                                        5185573
QUIF  001.58 090.1 m E Sn      2013/02/02 12:23:15.0   0.1                          T                                        5195920
QUIF  001.58 090.1 m E Sg      2013/02/02 12:23:19.4  -0.1                          T                7.8  .22 Ml 2.6         5185571
SGMF  002.01 080.0 m E Pn      2013/02/02 12:23:00.4  -1.1                          T                                        5195910
SGMF  002.01 080.0 m E P       2013/02/02 12:23:03.4  -0.4                          T                                        5195911
SGMF  002.01 080.0 m E Pg      2013/02/02 12:23:06.2  -0.7                          T                                        5185572
SGMF  002.01 080.0 m E Sn      2013/02/02 12:23:24.7  -0.3                          T                                        5195918
SGMF  002.01 080.0 m E Sg      2013/02/02 12:23:32.8   0.0                          T                1.2  .12 Ml 2.2         5185569
GRR   003.15 080.2 m E Pn      2013/02/02 12:23:17.5   0.5                          T                                        5185563
GRR   003.15 080.2 m E Pg      2013/02/02 12:23:27.8  -0.1                          T                                        5195928
GRR   003.15 080.2 m E Sn      2013/02/02 12:23:52.6   0.2                          T                                        5195916
GRR   003.15 080.2 m E Sg      2013/02/02 12:24:09.0   0.6                          T                3.1  .26 Ml 2.4         5185568
LDF   003.66 077.8 m E Pn      2013/02/02 12:23:24.2   0.1                          T                                        5185564
LDF   003.66 077.8 m E Pg      2013/02/02 12:23:37.5   0.1                          T                                        5195927
LDF   003.66 077.8 m E Sn      2013/02/02 12:24:04.6   0.0                          T                                        5195917
LDF   003.66 077.8 m E Sg      2013/02/02 12:24:24.3  -0.1                          T                1.0  .21 Ml 2.2         5185567
MFF   003.90 108.2 m E Pn      2013/02/02 12:23:26.8  -0.4                          T                                        5195912
MFF   003.90 108.2 m E Sn      2013/02/02 12:24:10.6   0.4                          T                                        5195913
MFF   003.90 108.2 m E Sg      2013/02/02 12:24:31.5  -0.2                          T                                        5195914
FLN   003.46 074.4 m E Pg      2013/02/02 12:23:33.6   0.0 254.5  -3.7              T                                        5195926
FLN   003.46 074.4 m E Sn      2013/02/02 12:23:59.8   0.2 248.8  -9.4              T                                        5195915
FLN   003.46 074.4 m E Sg      2013/02/02 12:24:17.4  -0.5 255.5  -2.7              T                2.8  .28 Ml 2.4         5185566

.
EVENT     291342
    Date      Time       Latitude Longitude    Depth    Ndef Nsta Gap    Mag1  N    Mag2  N    Mag3  N   Author         ID
       rms   OT_Error      Smajor Sminor Az        Err   mdist  Mdist     Err        Err        Err      Quality

2013/02/02 13:35:34.0     46.5268   14.6739      2.0     204   40 010  Ml 4.4 27                         bulletin    291442
                                                                                                         _ldg
      1.05   +-  0.08       2.1    1.9    6.65 +-  0.0    0.09  28.61   +-0.3                            m i ke

NORTHWESTERN BALKAN PEN.
Sta     Dist  EvAz     Phase      Date       Time     TRes  Azim  AzRes  Slow  SRes Def   SNR       Amp   Per   Mag1   Mag2       ID
LANF  005.24 300.4 m E P       2013/02/02 13:36:53.6  -1.8                          T                                        5187548
CDF   005.36 293.3 m E Pn      2013/02/02 13:36:54.7   1.8                          T                                        5185617
CDF   005.36 293.3 m E Sg      2013/02/02 13:38:23.0   1.1                          T              283.8  .74 Ml 4.6         5195945
HINF  005.49 286.4 m E Pn      2013/02/02 13:36:55.8   1.2                          T                                        5185614
HINF  005.49 286.4 m E Sn      2013/02/02 13:37:56.3   1.7                          T               88.4  .52 Ml 4.2         5185596
HINF  005.49 286.4 m E Sg      2013/02/02 13:38:25.7  -0.1                          T              302.6  .87 Ml 4.5         5195941
LPL   005.62 262.5 m E Pn      2013/02/02 13:36:56.6  -0.1                          T                                        5185605
LPL   005.62 262.5 m E P       2013/02/02 13:37:00.7  -0.3                          T                                        5195961
LPG   005.61 262.3 m E Pn      2013/02/02 13:36:56.7   0.1                          T                                        5185604
LPG   005.61 262.3 m E P       2013/02/02 13:37:00.9  -0.1                          T                                        5195960
LPG   005.61 262.3 m E Sn      2013/02/02 13:37:56.4  -1.5                          T              131.6  .72 Ml 4.3         5195956
MBDF  005.83 254.9 m E Pn      2013/02/02 13:36:59.9   0.6                          T                                        5185607
MBDF  005.83 254.9 m E Sn      2013/02/02 13:38:03.1   0.3                          T               85.8  .49 Ml 4.3         5195955
PGF   005.68 227.6 m E P       2013/02/02 13:37:00.3  -1.4                          T                                        5195958
PGF   005.68 227.6 m E Sn      2013/02/02 13:37:59.2   0.0                          T              102.5  .80 Ml 4.4         5195957
SBF   005.77 245.1 m E Pn      2013/02/02 13:37:00.4   2.0                          T                                        5185601
SBF   005.77 245.1 m E Sn      2013/02/02 13:38:01.5   0.3                          T              231.8  .61 Ml 4.6         5185588
HAU   005.86 287.7 m E Pn      2013/02/02 13:37:00.8   1.2                          T                                        5185615
HAU   005.86 287.7 m E Sg      2013/02/02 13:38:37.9   0.6                          T              378.9  .90 Ml 4.5         5195942
CABF  005.92 273.9 m E Pn      2013/02/02 13:37:02.5   1.9                          T                                        5185613
CABF  005.92 273.9 m E Sg      2013/02/02 13:38:40.0   0.6                          T              424.0 1.21 Ml 4.6         5195940
THEF  006.14 289.3 m E P       2013/02/02 13:37:05.8  -2.1                          T                                        5187552
PAGF  006.39 291.8 m E Pn      2013/02/02 13:37:08.3   1.5                          T                                        5195971
FRF   006.41 245.3 m E Pn      2013/02/02 13:37:08.8   1.7                          T                                        5185603
FRF   006.41 245.3 m E Sn      2013/02/02 13:38:16.1  -0.5                          T               83.4  .65 Ml 4.3         5185589
ORIF  006.36 258.5 m E P       2013/02/02 13:37:10.3  -1.0                          T                                        5195962
ORIF  006.36 258.5 m E Sn      2013/02/02 13:38:16.2   0.7                          T              129.5  .70 Ml 4.4         5185587
LMR   006.62 244.1 m E Pn      2013/02/02 13:37:11.5   1.6                          T                                        5185602
LMR   006.62 244.1 m E Sn      2013/02/02 13:38:22.0   0.6                          T               77.6  .61 Ml 4.3         5185600
SFTF  006.76 287.9 m E Pn      2013/02/02 13:37:13.6   1.8                          T                                        5195970
SFTF  006.76 287.9 m E Sg      2013/02/02 13:39:06.4   1.0                          T              390.2 1.20 Ml 4.7         5195943
MEZF  006.81 290.4 m E Pn      2013/02/02 13:37:14.1   1.5 110.1  6.8               T                                        5185616
MEZF  006.81 290.4 m E Sg      2013/02/02 13:39:07.6   0.5                          T              304.2 1.09 Ml 4.7         5195944
SMRF  006.91 251.6 m E P       2013/02/02 13:37:18.5  -0.4                          T                                        5195959
VIVF  007.20 260.2 m E Pn      2013/02/02 13:37:18.5   0.6                          T                                        5185608
VIVF  007.20 260.2 m E Sn      2013/02/02 13:38:36.0   0.5                          T               19.8  .51 Ml 3.9         5195954
SMF   007.47 274.8 m E Pn      2013/02/02 13:37:22.4   0.9                          T                                        5185611
SMF   007.47 274.8 m E Sn      2013/02/02 13:38:42.0   0.2                          T               51.3  .70 Ml 4.2         5195951
LOR   007.45 279.6 m E Pn      2013/02/02 13:37:23.0   1.8  97.7  6.0               T                                        5185620
LOR   007.45 279.6 m E Sn      2013/02/02 13:38:41.9   0.6                          T               21.1  .50 Ml 4.0         5185599
LOR   007.45 279.6 m E Sg      2013/02/02 13:39:27.4   0.4                          T              198.2 1.28 Ml 4.5         5195948
SSF   007.69 278.0 m E Pn      2013/02/02 13:37:26.2   1.8                          T                                        5185621
SSF   007.69 278.0 m E Sn      2013/02/02 13:38:47.6   0.6                          T               18.1  .55 Ml 4.0         5185598
GIVF  007.48 302.2 m E P       2013/02/02 13:37:26.6  -0.2                          T                                        5185618
GIVF  007.48 302.2 m E Sn      2013/02/02 13:38:42.2   0.1                          T              100.6  .68 Ml 4.5         5195950
GIVF  007.48 302.2 m E Sg      2013/02/02 13:39:29.2   1.3                          T              296.4 1.04 Ml 4.8         5195947
AVF   007.80 276.0 m E Pn      2013/02/02 13:37:27.2   1.3                          T                                        5185612
LASF  008.01 256.1 m E Pn      2013/02/02 13:37:30.3   1.4                          T                                        5185609
LASF  008.01 256.1 m E Sn      2013/02/02 13:38:55.1   0.3                          T               96.6  .76 Ml 4.5         5185586
BAIF  007.82 300.7 m E P       2013/02/02 13:37:30.6  -1.0                          T                                        5195972
BAIF  007.82 300.7 m E Sn      2013/02/02 13:38:48.3  -2.0                          T               90.2  .98 Ml 4.4         5185597
BAIF  007.82 300.7 m E Sg      2013/02/02 13:39:39.2   0.5                          T              347.6 1.30 Ml 4.8         5195946
BGF   008.16 274.5 m E Pn      2013/02/02 13:37:31.6   0.7                          T                                        5185610
HYF   008.28 279.5 m E Pn      2013/02/02 13:37:32.7   0.2                          T                                        5195939
HYF   008.28 279.5 m E P       2013/02/02 13:37:37.8  -0.2                          T                                        5195938
HYF   008.28 279.5 m E Sg      2013/02/02 13:39:53.7   0.8                          T                                        5195937
TCF   008.62 272.9 m E Pn      2013/02/02 13:37:38.5   1.3                          T                                        5185591
TCF   008.62 272.9 m E Sn      2013/02/02 13:39:09.8   0.4                          T               32.8  .71 Ml 4.2         5195949
CAF   008.97 264.3 m E Pn      2013/02/02 13:37:43.6   1.7                          T                                        5195965
RJF   009.26 267.2 m E Pn      2013/02/02 13:37:46.8   0.9                          T                                        5195967
MTLF  009.39 254.7 m E Pn      2013/02/02 13:37:49.2   1.6                          T                                        5185590
MTLF  009.39 254.7 m E Sn      2013/02/02 13:39:28.3   0.6                          T                9.3  .54 Ml 3.9         5195953
LFF   009.87 265.8 m E Pn      2013/02/02 13:37:54.9   0.7                          T                                        5195966
MFF   010.21 275.8 m E Pn      2013/02/02 13:37:58.3  -0.5                          T                                        5195968
LDF   010.22 287.1 m E Pn      2013/02/02 13:38:01.1   2.2                          T                                        5185595
FLN   010.47 287.8 m E Pn      2013/02/02 13:38:03.4   1.1 116.6  20.0              T                                        5185594
GRR   010.68 285.7 m E Pn      2013/02/02 13:38:05.5   0.3                          T                                        5185593
EPF   010.77 256.2 m E P       2013/02/02 13:38:13.5   1.0                          T                                        5195963
ETSF  011.43 257.0 m E P       2013/02/02 13:38:21.2  -0.3                          T                                        5195964
SGMF  011.81 284.7 m E Pn      2013/02/02 13:38:21.8   1.2                          T                                        5185592

.
