EVENT     267599
    Date      Time       Latitude Longitude    Depth    Ndef Nsta Gap    Mag1  N    Mag2  N    Mag3  N   Author         ID
       rms   OT_Error      Smajor Sminor Az        Err   mdist  Mdist     Err        Err        Err      Quality

2011/12/19 23:21:51.3     43.7506    8.4164      2.0      93   23 093  Ml 3.3 24  Md 3.0  3              js067245    267619

      0.82   +-  0.11       2.0    1.8  167.61 +-  0.0    0.41   7.65   +-0.4      +-0.1                 m i ke

CORSICA, FRANCE
Sta     Dist  EvAz     Phase      Date       Time     TRes  Azim  AzRes  Slow  SRes Def   SNR       Amp   Per   Mag1   Mag2       ID
SBF   000.72 279.3 m E Pg      2011/12/19 23:22:05.4   0.4                          T                                        4803225
SBF   000.72 279.3 m E Pn      2011/12/19 23:22:06.1  -0.9                          T   001.0                                4802291
SBF   000.72 279.3 m E Sg      2011/12/19 23:22:14.6   0.2                          T   001.0       4875  .32        Md 3.1  4802292
FRF   001.30 262.2 m E Pn      2011/12/19 23:22:13.5  -1.3                          T   001.0                                4802273
FRF   001.30 262.2 m E Pg      2011/12/19 23:22:16.5   0.9                          T   001.0                                4802274
FRF   001.30 262.2 m E Sn      2011/12/19 23:22:31.4  -0.4                          T   001.0                                4802276
FRF   001.30 262.2 m E Sg      2011/12/19 23:22:32.5   0.1                          T   001.0      181.9  .18 Ml 4.0 Md 3.1  4802275
PGF   001.28 160.3 m E Pn      2011/12/19 23:22:14.2  -0.4                          T   001.0                                4802288
PGF   001.28 160.3 m E Sn      2011/12/19 23:22:30.9  -0.4                          T   001.0       86.5  .22 Ml 3.8 Md 3.0  4802290
LMR   001.45 253.9 m E Pn      2011/12/19 23:22:15.5  -1.3                          T   001.0                                4802281
LMR   001.45 253.9 m E Pg      2011/12/19 23:22:19.2   0.9                          T                                        4803224
LMR   001.45 253.9 m E Sn      2011/12/19 23:22:34.7  -0.6                          T   001.0                                4802283
LMR   001.45 253.9 m E Sg      2011/12/19 23:22:36.8  -0.2                          T   001.0       69.5  .20 Ml 3.6         4802282
MBDF  001.53 310.1 m E Pn      2011/12/19 23:22:18.4   0.2                          T   001.0                                4802299
MBDF  001.53 310.1 m E Sn      2011/12/19 23:22:37.4  -0.2                          T   001.0      147.9  .28 Ml 3.8         4802300
MBDF  001.53 310.1 m E Sg      2011/12/19 23:22:39.9   0.0                          T              106.0  .26 Ml 3.7         4803245
LPG   002.11 326.3 m E Pn      2011/12/19 23:22:24.9  -1.4                          T   001.0                                4802286
LPG   002.11 326.3 m E Pg      2011/12/19 23:22:29.1  -1.9                          T                                        4803222
LPG   002.11 326.3 m E Sg      2011/12/19 23:22:58.0  -0.1                          T               87.7  .52 Ml 3.5         4803223
SMRF  002.07 277.2 m E Pn      2011/12/19 23:22:25.7   0.3                          T   001.0                                4802265
SMRF  002.07 277.2 m E Pg      2011/12/19 23:22:31.0   1.2                          T   001.0                                4802266
SMRF  002.07 277.2 m E Sg      2011/12/19 23:22:56.4  -0.1                          T   001.0      441.4  .36 Ml 4.3         4802267
ORIF  002.16 303.6 m E Pn      2011/12/19 23:22:26.3  -0.4                          T   001.0                                4802303
ORIF  002.16 303.6 m E Pg      2011/12/19 23:22:30.4  -1.3                          T                                        4803219
ORIF  002.16 303.6 m E Sg      2011/12/19 23:22:59.1  -0.4                          T   001.0      135.4  .44 Ml 3.7         4802304
LPL   002.14 326.3 m E Pn      2011/12/19 23:22:27.1   0.6                          T   001.0                                4802287
LPL   002.14 326.3 m E Pg      2011/12/19 23:22:29.4  -1.8                          T                                        4803220
LPL   002.14 326.3 m E Sg      2011/12/19 23:22:58.5  -0.3                          T               72.8  .53 Ml 3.4         4803221
VIVF  002.91 293.6 m E Pn      2011/12/19 23:22:36.5  -0.2                          T   001.0                                4802305
VIVF  002.91 293.6 m E Pg      2011/12/19 23:22:45.4   0.2                          T                                        4803253
VIVF  002.91 293.6 m E Sn      2011/12/19 23:23:09.5  -0.7                          T   001.0         41  .48 Ml 3.3         4802264
VIVF  002.91 293.6 m E Sg      2011/12/19 23:23:22.5  -0.1                          T               24.7  .32 Ml 3.3         4803254
LASF  003.31 277.2 m E Pn      2011/12/19 23:22:41.8  -0.4                          T   001.0                                4802279
LASF  003.31 277.2 m E Pg      2011/12/19 23:22:52.2  -0.5                          T                                        4803249
LASF  003.31 277.2 m E Sn      2011/12/19 23:23:19.5  -0.3                          T                                        4803252
LASF  003.31 277.2 m E S       2011/12/19 23:23:25.3  -0.6                          T                                        4803251
LASF  003.31 277.2 m E Sg      2011/12/19 23:23:35.4   0.2                          T                8.1  .25 Ml 3.0         4803250
CABF  003.30 330.9 m E Pn      2011/12/19 23:22:43.3   1.1                          T   001.0                                4802296
CABF  003.30 330.9 m E Sn      2011/12/19 23:23:21.4   1.7                          T   001.0          8  .32 Ml 2.9         4802297
HINF  004.21 345.5 m E Pn      2011/12/19 23:22:54.4  -0.1                          T   001.0                                4802298
HINF  004.21 345.5 m E Sn      2011/12/19 23:23:41.4   0.1                          T                4.8  .34 Ml 2.8         4803244
SMF   004.34 313.4 m E Pn      2011/12/19 23:22:56.4   0.2                          T   001.0                                4802293
SMF   004.34 313.4 m E Sn      2011/12/19 23:23:44.3  -0.1                          T   001.0        5.7  .28 Ml 3.0         4802294
MTLF  004.52 266.9 m E Pn      2011/12/19 23:22:58.8   0.1                          T   001.0                                4802301
MTLF  004.52 266.9 m E Sn      2011/12/19 23:23:48.2  -0.7                          T   001.0          4  .28 Ml 2.9         4802302
MTLF  004.52 266.9 m E Sg      2011/12/19 23:24:12.8  -0.3                          T                5.0  .36 Ml 2.9         4803248
HAU   004.49 342.0 m E Pn      2011/12/19 23:22:58.9   0.5                          T   001.0                                4802277
HAU   004.49 342.0 m E Sn      2011/12/19 23:23:48.4   0.2                          T   001.0        9.3  .32 Ml 3.0         4802278
CDF   004.73 350.7 m E Pn      2011/12/19 23:23:01.9   0.3                          T   001.0                                4802272
CAF   004.71 286.7 m E Pn      2011/12/19 23:23:01.9   0.7                          T   001.0                                4802271
CAF   004.71 286.7 m E Sn      2011/12/19 23:23:52.4  -0.8                          T                                        4803246
CAF   004.71 286.7 m E Sg      2011/12/19 23:24:18.5  -0.3                          T                2.7  .25 Ml 2.9         4803247
AVF   004.69 312.1 m E Pn      2011/12/19 23:23:02.4   1.4                          T   001.0                                4802269
AVF   004.69 312.1 m E Sg      2011/12/19 23:24:18.4   0.2                          T   001.0        4.2  .44 Ml 2.8         4802270
LOR   004.76 319.3 m E Pn      2011/12/19 23:23:02.6   0.7 133.7  -2.4              T   001.0                                4802284
LOR   004.76 319.3 m E Sn      2011/12/19 23:23:55.0   0.6                          T   001.0        3.2  .24 Ml 3.0         4802285
SSF   004.79 315.5 m E Pn      2011/12/19 23:23:03.2   0.9                          T   001.0                                4802295
LDF   007.65 312.2 m E Pn      2011/12/19 23:23:43.0   2.7                          T   001.0                                4802280
RJF   005.17 289.9 m E Sg      2011/12/19 23:24:32.7  -0.6                          T   001.0        5.2  .44 Ml 2.7         4802268

.
EVENT     267606
    Date      Time       Latitude Longitude    Depth    Ndef Nsta Gap    Mag1  N    Mag2  N    Mag3  N   Author         ID
       rms   OT_Error      Smajor Sminor Az        Err   mdist  Mdist     Err        Err        Err      Quality

2011/12/20 05:16:03.5     46.5995    9.9357      2.0      38    6 079  Ml 2.4  6                         js067245    267626

      0.75   +-  0.13       3.6    2.4    5.41 +-  0.0    0.19   2.90   +-0.3                            m i ke

SWITZERLAND
Sta     Dist  EvAz     Phase      Date       Time     TRes  Azim  AzRes  Slow  SRes Def   SNR       Amp   Per   Mag1   Mag2       ID
HINF  002.43 301.2 m E Pg      2011/12/20 05:16:48.5  -0.1                          T                                        4803265
HINF  002.43 301.2 m E Sg      2011/12/20 05:17:19.7  -0.1                          T                3.8  .24 Ml 2.5         4803258
LPG   002.48 244.7 m E Pg      2011/12/20 05:16:49.4  -0.4                          T                                        4803262
LPG   002.48 244.7 m E Sg      2011/12/20 05:17:21.8   0.2                          T                2.7  .34 Ml 2.2         4803261
LPL   002.48 245.3 m E Pg      2011/12/20 05:16:49.5  -0.2                          T                                        4803263
LPL   002.48 245.3 m E Sg      2011/12/20 05:17:22.0   0.4                          T                2.1  .28 Ml 2.2         4803260
CDF   002.56 316.1 m E Pg      2011/12/20 05:16:50.8  -0.2                          T                                        4803267
CDF   002.56 316.1 m E Sg      2011/12/20 05:17:23.9   0.0                          T                6.3  .30 Ml 2.8         4803255
HAU   002.82 301.3 m E Pg      2011/12/20 05:16:55.9   0.2                          T                                        4803266
HAU   002.82 301.3 m E Sn      2011/12/20 05:17:20.1  -0.1                          T                                        4803257
HAU   002.82 301.3 m E Sg      2011/12/20 05:17:31.4  -0.5                          T                4.6  .26 Ml 2.4         4803256
MBDF  002.90 231.0 m E Pg      2011/12/20 05:16:57.0  -0.5                          T                                        4803264
MBDF  002.90 231.0 m E Sg      2011/12/20 05:17:35.1   0.3                          T                1.4  .29 Ml 2.1         4803259

.
EVENT     267607
    Date      Time       Latitude Longitude    Depth    Ndef Nsta Gap    Mag1  N    Mag2  N    Mag3  N   Author         ID
       rms   OT_Error      Smajor Sminor Az        Err   mdist  Mdist     Err        Err        Err      Quality

2011/12/20 05:57:11.0     45.1224    7.2536     10.0      26    7 146  Ml 1.9  4  Md 1.8  3              js067245    267627

      0.20   +-  0.05       1.1     .6  104.05 +-  0.0    0.03   1.70   +-0.1      +-0.1                 m i ke

NORTHERN ITALY
Sta     Dist  EvAz     Phase      Date       Time     TRes  Azim  AzRes  Slow  SRes Def   SNR       Amp   Per   Mag1   Mag2       ID
LPG   000.52 316.8 m E Pg      2011/12/20 05:57:21.4   0.1                          T                                        4803268
LPG   000.52 316.8 m E Sg      2011/12/20 05:57:28.2   0.0                          T                9.0  .22        Md 1.9  4803269
MBDF  000.52 221.1 m E Pg      2011/12/20 05:57:21.5   0.2                          T                                        4803272
MBDF  000.52 221.1 m E Sg      2011/12/20 05:57:28.0  -0.3                          T                5.7  .18        Md 1.7  4803273
LPL   000.54 317.2 m E Pg      2011/12/20 05:57:21.8   0.1                          T                                        4803270
LPL   000.54 317.2 m E Sg      2011/12/20 05:57:28.3  -0.5                          T                5.1  .18        Md 1.9  4803271
ORIF  001.00 258.7 m E Pg      2011/12/20 05:57:29.9   0.1                          T                                        4803278
ORIF  001.00 258.7 m E Sg      2011/12/20 05:57:42.9   0.1                          T                2.9  .27 Ml 1.8         4803279
CABF  001.70 331.7 m E Pg      2011/12/20 05:57:42.5  -0.3                          T                                        4803274
CABF  001.70 331.7 m E Sg      2011/12/20 05:58:04.9   0.2                          T                1.7  .33 Ml 1.8         4803275
SBF   001.27 174.0 m E Sg      2011/12/20 05:57:51.2   0.0                          T                2.4  .25 Ml 1.9         4803276
FRF   001.62 195.8 m E Sg      2011/12/20 05:58:02.1  -0.1                          T                2.4  .26 Ml 2.1         4803277

.
EVENT     267620
    Date      Time       Latitude Longitude    Depth    Ndef Nsta Gap    Mag1  N    Mag2  N    Mag3  N   Author         ID
       rms   OT_Error      Smajor Sminor Az        Err   mdist  Mdist     Err        Err        Err      Quality

2011/12/20 12:33:24.4     43.0762    -.2204      2.0      12    5 108  Ml 2.0  4  Md 1.9  1              js067245    267640

      0.57   +-  0.15       3.5    2.1  177.46 +-  0.0    0.35   2.55   +-0.2      +-                    m i ke

PYRENEES
Sta     Dist  EvAz     Phase      Date       Time     TRes  Azim  AzRes  Slow  SRes Def   SNR       Amp   Per   Mag1   Mag2       ID
EPF   000.41 096.2 m E Pg      2011/12/20 12:33:32.3  -0.1                          T                                        4803284
EPF   000.41 096.2 m E Sg      2011/12/20 12:33:38.5   0.5                          T                4.8  .18        Md 1.9  4803285
MTLF  001.80 080.7 m E Sg      2011/12/20 12:34:20.7  -0.5                          T                1.3  .25 Ml 1.9         4803281
LFF   001.99 020.1 m E Sg      2011/12/20 12:34:27.1   0.2                          T                2.3  .20 Ml 2.1         4803283
CAF   002.48 040.9 m E Sg      2011/12/20 12:34:42.3   0.0                          T                2.1  .25 Ml 2.2         4803282
RJF   002.55 028.7 m E Sg      2011/12/20 12:34:44.9   0.2                          T                1.5  .22 Ml 1.8         4803280

.
EVENT     267621
    Date      Time       Latitude Longitude    Depth    Ndef Nsta Gap    Mag1  N    Mag2  N    Mag3  N   Author         ID
       rms   OT_Error      Smajor Sminor Az        Err   mdist  Mdist     Err        Err        Err      Quality

2011/12/20 17:09:23.9     44.5922    6.8557      2.0       8    4 193  Ml 1.3  2  Md 1.3  2              js067245    267641

      1.87   +-  0.48       8.9    4.9   93.22 +-  0.0    0.15   1.04   +-0.3      +-0.2                 m i ke

FRANCE
Sta     Dist  EvAz     Phase      Date       Time     TRes  Azim  AzRes  Slow  SRes Def   SNR       Amp   Per   Mag1   Mag2       ID
MBDF  000.15 336.0 m E Pg      2011/12/20 17:09:27.2   0.0                          T                                        4803290
MBDF  000.15 336.0 m E Sg      2011/12/20 17:09:29.8   0.5                          T               14.5  .20        Md 1.4  4803291
ORIF  000.77 295.5 m E Pg      2011/12/20 17:09:38.5   0.0                          T                                        4803288
ORIF  000.77 295.5 m E Sg      2011/12/20 17:09:48.6   0.1                          T                 .8  .20        Md 1.1  4803289
LPG   000.91 355.4 m E Sg      2011/12/20 17:09:52.4  -0.7                          T                 .4  .18 Ml 1.1         4803293
FRF   001.04 188.4 m E Sg      2011/12/20 17:09:56.9  -0.1                          T                1.3  .26 Ml 1.6         4803292

.
EVENT     267622
    Date      Time       Latitude Longitude    Depth    Ndef Nsta Gap    Mag1  N    Mag2  N    Mag3  N   Author         ID
       rms   OT_Error      Smajor Sminor Az        Err   mdist  Mdist     Err        Err        Err      Quality

2011/12/20 18:55:18.5     50.4155    4.4940      3.0 f    29    9 119  Ml 2.0  7  Md 1.8  2              js067245    267642

      0.41   +-  0.05       1.0     .8   56.61 +-  0.0    0.26   3.03   +-0.2      +-0.1                 m i ke

BELGIUM
Sta     Dist  EvAz     Phase      Date       Time     TRes  Azim  AzRes  Slow  SRes Def   SNR       Amp   Per   Mag1   Mag2       ID
GIVF  000.38 145.9 m E Pg      2011/12/20 18:55:25.7  -0.1                          T                                        4803298
GIVF  000.38 145.9 m E Sg      2011/12/20 18:55:30.6  -0.2                          T               20.8  .20        Md 1.7  4803299
BAIF  000.40 207.4 m E Pg      2011/12/20 18:55:26.1  -0.1                          T                                        4803296
BAIF  000.40 207.4 m E Sg      2011/12/20 18:55:31.9   0.4                          T                6.9  .25        Md 1.8  4803297
PAGF  002.03 156.2 m E Pn      2011/12/20 18:55:51.7  -0.1                          T                                        4803400
PAGF  002.03 156.2 m E Pg      2011/12/20 18:55:56.1  -0.1                          T                                        4803399
PAGF  002.03 156.2 m E Sg      2011/12/20 18:56:22.1  -0.2 341.6  4.4               T                 .6  .21 Ml 1.6         4803408
MEZF  001.95 169.0 m E Pg      2011/12/20 18:55:54.9   0.2                          T                                        4803401
MEZF  001.95 169.0 m E Sg      2011/12/20 18:56:20.1   0.2 343.2  -6.3              T                2.8  .28 Ml 2.2         4803407
THEF  002.40 155.3 m E Pn      2011/12/20 18:55:56.8   0.0                          T                                        4803397
THEF  002.40 155.3 m E Pg      2011/12/20 18:56:03.0  -0.1                          T                                        4803396
THEF  002.40 155.3 m E Sg      2011/12/20 18:56:33.9   0.0                          T                1.4  .19 Ml 2.2         4803405
SFTF  002.24 170.6 m E Pg      2011/12/20 18:55:59.9  -0.2                          T                                        4803398
SFTF  002.24 170.6 m E Sg      2011/12/20 18:56:29.0   0.0                          T                1.7  .19 Ml 2.2         4803406
HAU   002.70 152.5 m E Pn      2011/12/20 18:56:01.0   0.0                          T                                        4803395
HAU   002.70 152.5 m E Pg      2011/12/20 18:56:08.6  -0.1                          T                                        4803394
HAU   002.70 152.5 m E Sg      2011/12/20 18:56:43.3   0.0                          T                3.6  .28 Ml 2.2         4803404
CDF   002.71 136.8 m E Sn      2011/12/20 18:56:32.7   0.2                          T                 .4  .24 Ml 1.7         4803402
HINF  003.03 148.3 m E Sg      2011/12/20 18:56:53.4  -0.1                          T                  1  .24 Ml 2.0         4803403

.

DATA_TYPE ARRIVAL
Sta     Dist  EvAz     Phase      Date       Time     TRes  Azim  AzRes  Slow  SRes Def   SNR       Amp   Per   Mag1   Mag2       ID
EPF                m E Sg      2011/12/17                                                            7.9  .20                4802006
EPF                m E Pg      2011/12/17                                                                                    4802007

STOP
