EVENT     260986
    Date      Time       Latitude Longitude    Depth    Ndef Nsta Gap    Mag1  N    Mag2  N    Mag3  N   Author         ID
       rms   OT_Error      Smajor Sminor Az        Err   mdist  Mdist     Err        Err        Err      Quality

2011/07/03 06:44:47.3     42.8776     .1643      2.0       5    3 232  Ml 0.6  1  Md 1.4  2              js067245    260986

      0.14   +-  0.10       3.7     .6  159.41 +-  0.0    0.20   1.05   +-         +-0.2                 m i ke

PYRENEES
Sta     Dist  EvAz     Phase      Date       Time     TRes  Azim  AzRes  Slow  SRes Def   SNR       Amp   Per   Mag1   Mag2       ID
EPF   000.20 040.1 m E Pg      2011/07/03 06:44:51.3  -0.1                          T                                        4719010
EPF   000.20 040.1 m E Sg      2011/07/03 06:44:53.9  -0.3                          T                3.8  .28        Md 1.5  4719011
ETSF  000.53 272.5 m E Pg      2011/07/03 06:44:57.5   0.0                          T                                        4719008
ETSF  000.53 272.5 m E Sg      2011/07/03 06:45:04.5  -0.1                          T                1.2  .16        Md 1.3  4719009
SJPF  001.05 283.5 m E Sg      2011/07/03 06:45:20.6   0.1                          T                 .1  .26 Ml  .6         4719007

.
EVENT     261003
    Date      Time       Latitude Longitude    Depth    Ndef Nsta Gap    Mag1  N    Mag2  N    Mag3  N   Author         ID
       rms   OT_Error      Smajor Sminor Az        Err   mdist  Mdist     Err        Err        Err      Quality

2011/07/03 08:53:53.0     48.4931    7.8583     10.0      15    7 078  Ml 1.7  4  Md 1.7  1              js067245    261003

      0.25   +-  0.04        .9     .8   16.10 +-  0.0    0.22   1.42   +-0.4      +-                    m i ke

FRANCE
Sta     Dist  EvAz     Phase      Date       Time     TRes  Azim  AzRes  Slow  SRes Def   SNR       Amp   Per   Mag1   Mag2       ID
CDF   000.40 258.4 m E Pg      2011/07/03 08:54:01.2   0.2                          T                                        4719022
CDF   000.40 258.4 m E Sg      2011/07/03 08:54:06.2  -0.1                          T                1.9  .20        Md 1.7  4719023
LANF  000.49 355.9 m E Pg      2011/07/03 08:54:02.5   0.0                          T                                        4719014
LANF  000.49 355.9 m E Sg      2011/07/03 08:54:09.1   0.0                          T                2.0  .20                4719015
HINF  000.95 225.2 m E Pg      2011/07/03 08:54:11.0  -0.1                          T                                        4719020
HINF  000.95 225.2 m E Sg      2011/07/03 08:54:23.6   0.0                          T                4.5  .28 Ml 2.0         4719021
HAU   001.12 244.8 m E Pg      2011/07/03 08:54:14.0  -0.1                          T                                        4719018
HAU   001.12 244.8 m E Sg      2011/07/03 08:54:28.8   0.1                          T                3.1  .29 Ml 1.7         4719019
RUP   001.32 336.9 m E Pg      2011/07/03 08:54:17.5  -0.3                          T                                        4719012
RUP   001.32 336.9 m E Sg      2011/07/03 08:54:35.0   0.1                          T                                        4719013
THEF  001.27 258.7 m E Sg      2011/07/03 08:54:33.6   0.3                          T                2.9  .34 Ml 1.9         4719017
PAGF  001.42 273.3 m E Sg      2011/07/03 08:54:37.9   0.0                          T                 .5  .33 Ml 1.2         4719016

.
EVENT     261023
    Date      Time       Latitude Longitude    Depth    Ndef Nsta Gap    Mag1  N    Mag2  N    Mag3  N   Author         ID
       rms   OT_Error      Smajor Sminor Az        Err   mdist  Mdist     Err        Err        Err      Quality

2011/07/03 09:27:21.6     42.7166   -1.5859      2.0      15    3 287  Ml 1.5  1  Md 1.5  2              js067245    261023

      0.27   +-  0.29       4.5    2.4   32.86 +-  0.0    0.06   1.45   +-         +-0.3                 m i ke

PYRENEES
Sta     Dist  EvAz     Phase      Date       Time     TRes  Azim  AzRes  Slow  SRes Def   SNR       Amp   Per   Mag1   Mag2       ID
SJPF  000.48 033.6 m E Pg      2011/07/03 09:27:30.6  -0.1                          T                                        4719027
SJPF  000.48 033.6 m E Sg      2011/07/03 09:27:36.9  -0.2                          T                2.3  .23        Md 1.8  4719028
ETSF  000.78 076.1 m E Pg      2011/07/03 09:27:36.3  -0.1                          T                                        4719025
ETSF  000.78 076.1 m E Sg      2011/07/03 09:27:46.1  -0.4                          T                 .5  .24        Md 1.3  4719026
EPF   001.45 076.9 m E Sg      2011/07/03 09:28:07.4  -0.1                          T                 .8  .24 Ml 1.5         4719024

.
EVENT     261004
    Date      Time       Latitude Longitude    Depth    Ndef Nsta Gap    Mag1  N    Mag2  N    Mag3  N   Author         ID
       rms   OT_Error      Smajor Sminor Az        Err   mdist  Mdist     Err        Err        Err      Quality

2011/07/03 12:33:15.7     44.6262    6.6945      2.0      10    4 147  Ml 1.4  2  Md 1.5  2              js067245    261004

      0.20   +-  0.07       1.7    1.1   66.36 +-  0.0    0.11   0.89   +-0.0      +-0.2                 m i ke

FRANCE
Sta     Dist  EvAz     Phase      Date       Time     TRes  Azim  AzRes  Slow  SRes Def   SNR       Amp   Per   Mag1   Mag2       ID
MBDF  000.11 028.6 m E Pg      2011/07/03 12:33:18.4   0.1                          T                                        4715506
MBDF  000.11 028.6 m E Sg      2011/07/03 12:33:19.7  -0.4                          T                9.5  .27        Md 1.7  4715507
ORIF  000.65 297.0 m E Pg      2011/07/03 12:33:28.1   0.0                          T                                        4719029
ORIF  000.65 297.0 m E Sg      2011/07/03 12:33:36.2  -0.4                          T                1.6  .26        Md 1.4  4719030
LPG   000.87 002.6 m E Pg      2011/07/03 12:33:32.4   0.0                          T                                        4719032
LPG   000.87 002.6 m E Sg      2011/07/03 12:33:43.6  -0.1                          T                 .9  .22 Ml 1.4         4719033
LPL   000.89 001.7 m E Pg      2011/07/03 12:33:32.8   0.1                          T                                        4719031
LPL   000.89 001.7 m E Sg      2011/07/03 12:33:44.2  -0.1                          T                 .9  .24 Ml 1.3         4719034

.
EVENT     261005
    Date      Time       Latitude Longitude    Depth    Ndef Nsta Gap    Mag1  N    Mag2  N    Mag3  N   Author         ID
       rms   OT_Error      Smajor Sminor Az        Err   mdist  Mdist     Err        Err        Err      Quality

2011/07/03 12:34:04.2     44.7994    5.6601      2.0      17    8 131  Ml 1.9  3  Md 2.2  2              js067245    261005

      1.42   +-  0.21       3.8    3.4  131.66 +-  0.0    0.20   1.48   +-0.2      +-0.1                 m i ke

FRANCE
Sta     Dist  EvAz     Phase      Date       Time     TRes  Azim  AzRes  Slow  SRes Def   SNR       Amp   Per   Mag1   Mag2       ID
ORIF  000.20 052.7 m E Pg      2011/07/03 12:34:08.0  -0.2                          T                                        4715470
ORIF  000.20 052.7 m E Sg      2011/07/03 12:34:12.5   1.5                          T               23.8  .40        Md 2.1  4715469
VIVF  000.70 275.0 m E Pg      2011/07/03 12:34:16.3  -1.2                          T                                Md 2.2  4715515
VIVF  000.70 275.0 m E Sg      2011/07/03 12:34:25.9  -0.8                          T                9.2  .42                4715514
MBDF  000.79 094.8 m E Pg      2011/07/03 12:34:19.2  -0.1                          T                                        4719043
MBDF  000.79 094.8 m E Sg      2011/07/03 12:34:29.5  -0.2                          T                3.3  .38                4719044
SMRF  000.83 184.3 m E Pg      2011/07/03 12:34:20.5   0.7                          T                                        4715508
SMRF  000.83 184.3 m E Sg      2011/07/03 12:34:32.1   1.5                          T                5.3  .52                4715510
LPG   001.04 047.5 m E Pg      2011/07/03 12:34:23.8  -0.2                          T                                        4715512
LPG   001.04 047.5 m E Sg      2011/07/03 12:34:37.2  -0.3                          T                7.0  .50 Ml 2.0         4715511
LPL   001.04 046.2 m E Pg      2011/07/03 12:34:23.8  -0.2                          T                                        4715513
LPL   001.04 046.2 m E Sg      2011/07/03 12:34:37.2  -0.3                          T                2.8  .41 Ml 1.7         4715509
LASF  001.48 241.4 m E Pn      2011/07/03 12:34:30.7   0.6                          T                                        4715516
FRF   001.43 149.8 m E Pg      2011/07/03 12:34:30.9   0.1                          T                                        4719041
FRF   001.43 149.8 m E Sg      2011/07/03 12:34:49.5   0.2                          T                3.8  .37 Ml 2.1         4719042

.
EVENT     260987
    Date      Time       Latitude Longitude    Depth    Ndef Nsta Gap    Mag1  N    Mag2  N    Mag3  N   Author         ID
       rms   OT_Error      Smajor Sminor Az        Err   mdist  Mdist     Err        Err        Err      Quality

2011/07/03 13:30:35.2     46.3890    2.6937      2.0      12    6 138  Ml 1.8  2  Md 1.8  3              js067245    260987

      0.14   +-  0.04       1.2     .6  131.64 +-  0.0    0.20   1.19   +-0.0      +-0.3                 m i ke

FRANCE
Sta     Dist  EvAz     Phase      Date       Time     TRes  Azim  AzRes  Slow  SRes Def   SNR       Amp   Per   Mag1   Mag2       ID
BGF   000.20 032.0 m E Pg      2011/07/03 13:30:39.2   0.0                          T                                        4715472
BGF   000.20 032.0 m E Sg      2011/07/03 13:30:42.3   0.3                          T               35.0  .28        Md 1.7  4715471
TCF   000.35 253.4 m E Pg      2011/07/03 13:30:42.1   0.1                          T                                        4719053
TCF   000.35 253.4 m E Sg      2011/07/03 13:30:46.3  -0.4                          T                3.3  .20        Md 2.1  4719054
AVF   000.61 048.3 m E Pg      2011/07/03 13:30:46.6   0.0                          T                                        4719048
AVF   000.61 048.3 m E Sg      2011/07/03 13:30:54.6   0.0                          T                2.3  .26                4719049
SSF   000.87 039.4 m E Pg      2011/07/03 13:30:51.6   0.0                          T                                        4719051
SSF   000.87 039.4 m E Sg      2011/07/03 13:31:03.0   0.0                          T                2.5  .26 Ml 1.8         4719052
SMF   000.83 071.7 m E Pg      2011/07/03 13:30:51.8   0.9                          T                                        4719046
SMF   000.83 071.7 m E Sg      2011/07/03 13:31:01.6  -0.1                          T                                        4719045
SMF   000.83 071.7 m E Sn      2011/07/03 13:31:04.6   0.1                          T                3.4  .20                4719047
LOR   001.19 041.9 m E Sg      2011/07/03 13:31:12.5  -0.3                          T                1.9  .24 Ml 1.8         4719050

.
EVENT     260989
    Date      Time       Latitude Longitude    Depth    Ndef Nsta Gap    Mag1  N    Mag2  N    Mag3  N   Author         ID
       rms   OT_Error      Smajor Sminor Az        Err   mdist  Mdist     Err        Err        Err      Quality

2011/07/03 13:50:05.6     47.8454   -2.3313      4.0 f    15    6 215  Ml 1.8  3  Md 1.8  1              js067245    260989

      1.12   +-  0.41       8.2    3.9  165.41 +-  0.0    0.44   1.66   +-0.0      +-                    m i ke

FRANCE
Sta     Dist  EvAz     Phase      Date       Time     TRes  Azim  AzRes  Slow  SRes Def   SNR       Amp   Per   Mag1   Mag2       ID
SGMF  000.44 339.8 m E Pg      2011/07/03 13:50:13.6  -0.3                          T                                        4719070
SGMF  000.44 339.8 m E Sg      2011/07/03 13:50:17.7  -2.0                          T                6.4  .28        Md 1.8  4719071
QUIF  000.57 277.5 m E Pg      2011/07/03 13:50:16.0  -0.3                          T                                        4719062
QUIF  000.57 277.5 m E Pn      2011/07/03 13:50:18.0  -0.8                          T                                        4719063
QUIF  000.57 277.5 m E Sg      2011/07/03 13:50:24.5   0.8                          T                                        4719064
QUIF  000.57 277.5 m E Sn      2011/07/03 13:50:28.1   0.1                          T                1.5  .16                4719065
ROSF  000.80 308.2 m E Pg      2011/07/03 13:50:21.1   0.4                          T                                        4719066
ROSF  000.80 308.2 m E Pn      2011/07/03 13:50:22.7   0.7                          T                                        4719067
ROSF  000.80 308.2 m E Sg      2011/07/03 13:50:30.8  -0.3                          T                                        4719068
ROSF  000.80 308.2 m E Sn      2011/07/03 13:50:33.3  -0.4                          T                4.2  .26                4719069
GRR   001.13 060.6 m E Sg      2011/07/03 13:50:41.4   0.2                          T                2.3  .19 Ml 1.8         4719072
FLN   001.54 052.7 m E Sg      2011/07/03 13:50:53.9  -0.2                          T                1.6  .21 Ml 1.8         4719073
LDF   001.66 062.3 m E Sg      2011/07/03 13:50:57.4  -0.3                          T                1.1  .19 Ml 1.9         4719061

.
EVENT     260988
    Date      Time       Latitude Longitude    Depth    Ndef Nsta Gap    Mag1  N    Mag2  N    Mag3  N   Author         ID
       rms   OT_Error      Smajor Sminor Az        Err   mdist  Mdist     Err        Err        Err      Quality

2011/07/03 13:50:18.6     42.9007     .1715      2.0       8    4 197  Ml 1.4  2  Md 1.7  2              js067245    260988

      0.12   +-  0.08       3.3     .7  168.16 +-  0.0    0.18   1.56   +-0.6      +-0.2                 m i ke

PYRENEES
Sta     Dist  EvAz     Phase      Date       Time     TRes  Azim  AzRes  Slow  SRes Def   SNR       Amp   Per   Mag1   Mag2       ID
EPF   000.18 043.6 m E Pg      2011/07/03 13:50:22.2  -0.1                          T                                        4715522
EPF   000.18 043.6 m E Sg      2011/07/03 13:50:24.7  -0.1                          T               29.0  .20        Md 1.5  4715521
ETSF  000.54 270.0 m E Pg      2011/07/03 13:50:28.9   0.0                          T                                        4715520
ETSF  000.54 270.0 m E Sg      2011/07/03 13:50:35.6  -0.4                          T                5.8  .20        Md 1.8  4715519
SJPF  001.05 282.2 m E Pg      2011/07/03 13:50:38.3   0.1                          T                                        4719055
SJPF  001.05 282.2 m E Sg      2011/07/03 13:50:51.7  -0.1                          T                 .2  .15 Ml 1           4719056
MTLF  001.56 072.9 m E Pg      2011/07/03 13:50:47.7   0.0                          T                                        4719057
MTLF  001.56 072.9 m E Sg      2011/07/03 13:51:07.8   0.0                          T                 .9  .17 Ml 1.8         4719058

.
EVENT     261006
    Date      Time       Latitude Longitude    Depth    Ndef Nsta Gap    Mag1  N    Mag2  N    Mag3  N   Author         ID
       rms   OT_Error      Smajor Sminor Az        Err   mdist  Mdist     Err        Err        Err      Quality

2011/07/03 14:17:10.5     44.6619    6.6916      2.0      15    7 113  Ml 1.7  4  Md 2.1  1              js067245    261006

      0.25   +-  0.07       1.9    1.1   86.42 +-  0.0    0.09   2.12   +-0.2      +-                    m i ke

FRANCE
Sta     Dist  EvAz     Phase      Date       Time     TRes  Azim  AzRes  Slow  SRes Def   SNR       Amp   Per   Mag1   Mag2       ID
MBDF  000.09 041.2 m E Pg      2011/07/03 14:17:13.1   0.5                          T                                Md 2.1  4715529
MBDF  000.09 041.2 m E Sg      2011/07/03 14:17:13.6  -0.4                          T               14.2  .24                4715475
ORIF  000.63 294.2 m E Pg      2011/07/03 14:17:22.4  -0.2                          T                                        4715536
ORIF  000.63 294.2 m E Sg      2011/07/03 14:17:30.9   0.0                          T                1.4  .21                4715532
LPG   000.84 002.9 m E Pg      2011/07/03 14:17:26.6   0.0                          T                                        4715528
LPG   000.84 002.9 m E Sg      2011/07/03 14:17:37.3  -0.1                          T                1.4  .27                4715527
LPL   000.86 001.9 m E Pg      2011/07/03 14:17:26.8   0.0                          T                                        4719974
LPL   000.86 001.9 m E Sg      2011/07/03 14:17:37.8  -0.1                          T                1.1  .24 Ml 1.4         4719975
FRF   001.10 181.7 m E Pg      2011/07/03 14:17:30.9  -0.2                          T                                        4715535
FRF   001.10 181.7 m E Sg      2011/07/03 14:17:45.6   0.2                          T                2.8  .28 Ml 1.9         4715531
LMR   001.33 185.7 m E Pg      2011/07/03 14:17:35.6   0.2                          T                                        4715534
LMR   001.33 185.7 m E Sg      2011/07/03 14:17:53.2   0.6                          T                1.2  .20 Ml 1.8         4715530
LASF  002.12 254.9 m E Sg      2011/07/03 14:18:17.3   0.2                          T                1.1  .29 Ml 1.8         4719973

.
