EVENT     288109
    Date      Time       Latitude Longitude    Depth    Ndef Nsta Gap    Mag1  N    Mag2  N    Mag3  N   Author         ID
       rms   OT_Error      Smajor Sminor Az        Err   mdist  Mdist     Err        Err        Err      Quality

2012/12/07 16:06:13.1     44.1249    6.9433      6.4      21    9 131  Ml 1.9  6  Md 2.0  3              bulletin    288209
                                                                                                         _ldg
      0.32   +-  0.04       1.0     .7   80.16 +-  0.6    0.44   1.78   +-0.2      +-0.0                 m i ke

FRANCE
Sta     Dist  EvAz     Phase      Date       Time     TRes  Azim  AzRes  Slow  SRes Def   SNR       Amp   Per   Mag1   Mag2       ID
SBF   000.44 126.2 m E Pg      2012/12/07 16:06:21.8   0.1                          T                                        5133473
SBF   000.44 126.2 m E Sg      2012/12/07 16:06:27.3  -0.3                          T               45.3  .52        Md 2.0  5133484
FRF   000.60 200.9 m E Pg      2012/12/07 16:06:24.6   0.1                          T                                        5133475
FRF   000.60 200.9 m E Sg      2012/12/07 16:06:32.1  -0.4                          T               20.6  .30        Md 2.0  5133470
MBDF  000.61 348.5 m E Pg      2012/12/07 16:06:25.0   0.0                          T                                        5133480
MBDF  000.61 348.5 m E Pn      2012/12/07 16:06:26.9   0.0                          T                                        5138476
MBDF  000.61 348.5 m E Sg      2012/12/07 16:06:33.0   0.0                          T               11.9  .30        Md 2.0  5133472
LMR   000.85 201.8 m E Pg      2012/12/07 16:06:29.1   0.0                          T                                        5133474
LMR   000.85 201.8 m E Sg      2012/12/07 16:06:40.0  -0.2                          T                5.2  .20                5133469
SMRF  001.00 261.9 m E Pg      2012/12/07 16:06:32.1   0.2                          T                                        5133476
SMRF  001.00 261.9 m E Sg      2012/12/07 16:06:44.7  -0.1                          T                4.7  .20 Ml 2.2         5133471
ORIF  001.10 316.6 m E Pg      2012/12/07 16:06:33.7  -0.1                          T                                        5133479
ORIF  001.10 316.6 m E Sg      2012/12/07 16:06:48.1   0.0                          T                3.5  .27 Ml 2.0         5133481
LPG   001.38 354.4 m E Pn      2012/12/07 16:06:37.6   0.1                          T                                        5133477
LPG   001.38 354.4 m E Sn      2012/12/07 16:06:54.8  -0.2                          T                2.2  .33 Ml 1.8         5138478
LPL   001.40 353.9 m E Pg      2012/12/07 16:06:39.5   0.0                          T                                        5133478
LPL   001.40 353.9 m E Sg      2012/12/07 16:06:57.1  -0.5                          T                 .9  .21 Ml 1.6         5138477
VIVF  001.78 295.0 m E Pn      2012/12/07 16:06:42.7   0.0                          T                                        5133482
VIVF  001.78 295.0 m E Sn      2012/12/07 16:07:04.3   0.0                          T                1.8  .29 Ml 2.0         5133483

.
EVENT     288124
    Date      Time       Latitude Longitude    Depth    Ndef Nsta Gap    Mag1  N    Mag2  N    Mag3  N   Author         ID
       rms   OT_Error      Smajor Sminor Az        Err   mdist  Mdist     Err        Err        Err      Quality

2012/12/07 18:24:07.9     44.5417    7.1954      7.0 f    36    8 113  Ml 1.7  7  Md 1.7  2              bulletin    288224
                                                                                                         _ldg
      0.27   +-  0.03        .9     .5   70.60 +-  0.0    0.05   1.31   +-0.3      +-0.0                 m i ke

NORTHERN ITALY
Sta     Dist  EvAz     Phase      Date       Time     TRes  Azim  AzRes  Slow  SRes Def   SNR       Amp   Per   Mag1   Mag2       ID
MBDF  000.35 301.6 m E Pg      2012/12/07 18:24:15.1   0.0                          T                                        5133492
MBDF  000.35 301.6 m E Sg      2012/12/07 18:24:20.0   0.1                          T                                Md 1.7  5133491
SBF   000.70 165.7 m E Pg      2012/12/07 18:24:21.2  -0.1                          T                                        5138580
SBF   000.70 165.7 m E Pn      2012/12/07 18:24:22.8   0.0                          T                                        5138579
SBF   000.70 165.7 m E Sg      2012/12/07 18:24:30.6   0.1                          T                  1  .14        Md 1.8  5138578
LPG   001.01 341.9 m E Pg      2012/12/07 18:24:27.1  -0.2                          T                                        5138587
LPG   001.01 341.9 m E Sg      2012/12/07 18:24:40.4   0.1                          T                1.8  .32 Ml 1.6         5133486
ORIF  001.01 292.3 m E Pg      2012/12/07 18:24:27.2   0.1                          T                                        5138585
ORIF  001.01 292.3 m E Sg      2012/12/07 18:24:40.3   0.1                          T                1.7  .34 Ml 1.5         5138584
LPL   001.03 341.5 m E Pg      2012/12/07 18:24:27.7   0.2                          T                                        5138586
LPL   001.03 341.5 m E Sg      2012/12/07 18:24:41.1   0.2                          T                2.3  .32 Ml 1.7         5133485
FRF   001.06 202.2 m E Pg      2012/12/07 18:24:28.0   0.2                          T                                        5133489
FRF   001.06 202.2 m E Sg      2012/12/07 18:24:41.6   0.1                          T                3.3  .25 Ml 2.0         5133490
SMRF  001.29 244.6 m E Pn      2012/12/07 18:24:31.1   0.2                          T                                        5138583
SMRF  001.29 244.6 m E Sn      2012/12/07 18:24:47.4   0.0                          T                1.3  .24 Ml 1.7         5138582
LMR   001.31 202.6 m E Pg      2012/12/07 18:24:32.4   0.1                          T                                        5133488
LMR   001.31 202.6 m E Sn      2012/12/07 18:24:47.6   0.1                          T                                        5138581
LMR   001.31 202.6 m E Sg      2012/12/07 18:24:49.3   0.1                          T                3.3  .20 Ml 2.2         5133487

.
EVENT     288136
    Date      Time       Latitude Longitude    Depth    Ndef Nsta Gap    Mag1  N    Mag2  N    Mag3  N   Author         ID
       rms   OT_Error      Smajor Sminor Az        Err   mdist  Mdist     Err        Err        Err      Quality

2012/12/07 23:45:38.7     49.0509   -2.4768      4.0 f    16    6 244  Ml 2.1  6  Md 2.0  3              bulletin    288236
                                                                                                         _ldg
      0.60   +-  0.26       6.2    2.2  152.99 +-  0.0    0.80   1.62   +-0.1      +-0.1                 m i ke

FRANCE
Sta     Dist  EvAz     Phase      Date       Time     TRes  Azim  AzRes  Slow  SRes Def   SNR       Amp   Per   Mag1   Mag2       ID
SGMF  000.80 183.8 m E Pg      2012/12/07 23:45:53.7   0.0                          T                                        5133502
SGMF  000.80 183.8 m E Pn      2012/12/07 23:45:55.3   0.2                          T                                        5138610
SGMF  000.80 183.8 m E Sg      2012/12/07 23:46:04.0  -0.1                          T                2.0  .19        Md 2.0  5133501
ROSF  000.89 216.7 m E Pg      2012/12/07 23:45:55.4   0.0                          T                                        5133500
ROSF  000.89 216.7 m E Sg      2012/12/07 23:46:07.2   0.2                          T                5.6  .22 Ml 2.2 Md 1.9  5133499
QUIF  001.22 202.2 m E Pn      2012/12/07 23:46:00.2  -0.7                          T                                        5133498
QUIF  001.22 202.2 m E Pg      2012/12/07 23:46:01.7   0.1                          T                                        5138611
QUIF  001.22 202.2 m E Sn      2012/12/07 23:46:17.4   0.5                          T                5.6  .30 Ml 2.2         5138612
GRR   001.26 121.1 m E Pn      2012/12/07 23:46:01.1  -0.3                          T                                        5133494
GRR   001.26 121.1 m E Sn      2012/12/07 23:46:17.7  -0.1                          T                3.3  .19 Ml 2.0 Md 2.1  5133493
FLN   001.35 101.6 m E Pn      2012/12/07 23:46:02.5  -0.1 281.9  -1.2              T                                        5138607
FLN   001.35 101.6 m E Sn      2012/12/07 23:46:19.5  -0.4 280.1  -3.0              T                6.5  .30 Ml 2.2         5138606
LDF   001.62 105.5 m E Pn      2012/12/07 23:46:06.8   0.5                          T                                        5133496
LDF   001.62 105.5 m E Sn      2012/12/07 23:46:27.1   0.6                          T                1.1  .16 Ml 1.9         5133495

.
EVENT     288200
    Date      Time       Latitude Longitude    Depth    Ndef Nsta Gap    Mag1  N    Mag2  N    Mag3  N   Author         ID
       rms   OT_Error      Smajor Sminor Az        Err   mdist  Mdist     Err        Err        Err      Quality

2012/12/08 05:37:13.0     46.3104   12.8940      5.0 f    41   11 142  Ml 2.7  7                         bulletin    288300
                                                                                                         _ldg
      0.90   +-  0.16       4.2    2.3    1.23 +-  0.0    0.27   6.60   +-0.3                            m i ke

NORTHERN ITALY
Sta     Dist  EvAz     Phase      Date       Time     TRes  Azim  AzRes  Slow  SRes Def   SNR       Amp   Per   Mag1   Mag2       ID
CDF   004.36 300.9 m E Pn      2012/12/08 05:38:18.1   0.1                          T                                        5134854
CDF   004.36 300.9 m E Pg      2012/12/08 05:38:33.0  -0.8                          T                                        5134853
CDF   004.36 300.9 m E Sn      2012/12/08 05:39:05.8  -0.3                          T                                        5134852
CDF   004.36 300.9 m E Sg      2012/12/08 05:39:28.8  -0.9                          T                  1  .29 Ml 2.4         5134851
HINF  004.39 292.2 m E Pn      2012/12/08 05:38:18.4   0.0                          T                                        5134859
HINF  004.39 292.2 m E Sn      2012/12/08 05:39:06.6  -0.3                          T                3.5  .28 Ml 2.8         5134860
MBDF  004.59 252.0 m E Pn      2012/12/08 05:38:21.2   0.1                          T                                        5134840
CABF  004.71 276.1 m E Pn      2012/12/08 05:38:23.4   0.6                          T                                        5134850
CABF  004.71 276.1 m E Sn      2012/12/08 05:39:13.7  -0.9                          T                 .8  .24 Ml 2.3         5134849
HAU   004.78 293.2 m E Pn      2012/12/08 05:38:24.0   0.4                          T                                        5134856
HAU   004.78 293.2 m E Pg      2012/12/08 05:38:40.6  -0.8                          T                                        5134843
HAU   004.78 293.2 m E Sn      2012/12/08 05:39:15.6  -0.4                          T                5.1  .39 Ml 2.7         5134855
ORIF  005.11 256.7 m E Pn      2012/12/08 05:38:29.1   0.8                          T                                        5134839
SFTF  005.67 292.4 m E Pn      2012/12/08 05:38:35.7  -0.1                          T                                        5134844
SFTF  005.67 292.4 m E Sn      2012/12/08 05:39:37.5   0.0                          T                 .9  .21 Ml 2.6         5134845
LOR   006.28 282.0 m E Pn      2012/12/08 05:38:44.4   0.4                          T                                        5134848
LOR   006.28 282.0 m E Pg      2012/12/08 05:39:10.9   1.9                          T                                        5134857
LOR   006.28 282.0 m E Sn      2012/12/08 05:39:52.9   0.9                          T                2.9  .35 Ml 3.1         5134847
SMF   006.26 276.3 m E Pg      2012/12/08 05:39:08.8   0.1                          T                                        5134842
SSF   006.50 280.0 m E Pg      2012/12/08 05:39:12.9  -0.3                          T                                        5134858
SSF   006.50 280.0 m E Sn      2012/12/08 05:39:57.3   0.0                          T                 .6  .29 Ml 2.6         5134846
AVF   006.60 277.6 m E Pg      2012/12/08 05:39:14.5  -0.4                          T                                        5134841

.
EVENT     288160
    Date      Time       Latitude Longitude    Depth    Ndef Nsta Gap    Mag1  N    Mag2  N    Mag3  N   Author         ID
       rms   OT_Error      Smajor Sminor Az        Err   mdist  Mdist     Err        Err        Err      Quality

2012/12/08 14:08:22.7     44.7044    6.8030      4.0 f    45    9 053  Ml 2.2  5  Md 2.3  2              bulletin    288260
                                                                                                         _ldg
      0.63   +-  0.05       1.1     .8   69.32 +-  0.0    0.03   1.70   +-0.2      +-0.0                 m i ke

FRANCE
Sta     Dist  EvAz     Phase      Date       Time     TRes  Azim  AzRes  Slow  SRes Def   SNR       Amp   Per   Mag1   Mag2       ID
MBDF  000.03 314.9 m E Pg      2012/12/08 14:08:24.2   0.0                          T                                        5133602
MBDF  000.03 314.9 m E Sg      2012/12/08 14:08:25.2   0.1                          T              422.3  .20        Md 2.3  5133596
ORIF  000.69 288.4 m E Pg      2012/12/08 14:08:35.6  -0.3                          T                                        5133601
ORIF  000.69 288.4 m E Sg      2012/12/08 14:08:44.4  -0.6                          T               10.5  .24        Md 2.3  5133595
LPG   000.79 357.4 m E Pg      2012/12/08 14:08:38.0   0.0                          T                                        5133599
LPG   000.79 357.4 m E Pn      2012/12/08 14:08:39.4   0.0                          T                                        5134124
LPG   000.79 357.4 m E Sg      2012/12/08 14:08:48.5   0.1                          T                5.7  .20                5133593
LPG   000.79 357.4 m E Sn      2012/12/08 14:08:50.8  -0.2                          T                                        5138784
LPL   000.81 356.5 m E Pg      2012/12/08 14:08:38.3   0.0                          T                                        5133600
LPL   000.81 356.5 m E Sg      2012/12/08 14:08:48.8  -0.1                          T                5.5  .28                5133594
SBF   000.96 151.4 m E Pg      2012/12/08 14:08:40.8   0.1                          T                                        5134121
SBF   000.96 151.4 m E Sg      2012/12/08 14:08:53.3   0.2                          T                5.5  .20 Ml 2.2         5134120
SMRF  001.14 230.8 m E Pg      2012/12/08 14:08:44.3   0.1                          T                                        5134123
SMRF  001.14 230.8 m E Sg      2012/12/08 14:08:58.9   0.0                          T                1.9  .17 Ml 1.9         5134122
FRF   001.15 185.7 m E Pg      2012/12/08 14:08:44.4   0.2                          T                                        5133598
FRF   001.15 185.7 m E Sg      2012/12/08 14:08:59.3   0.2                          T                6.8  .18 Ml 2.5         5133592
LMR   001.39 188.9 m E Pg      2012/12/08 14:08:48.9   0.4                          T                                        5133597
LMR   001.39 188.9 m E Sn      2012/12/08 14:09:05.1   0.3                          T                                        5138783
LMR   001.39 188.9 m E Sg      2012/12/08 14:09:06.9   0.4                          T                4.5  .22 Ml 2.3         5133591
VIVF  001.52 276.5 m E Pn      2012/12/08 14:08:49.1   0.0                          T                                        5138781
VIVF  001.52 276.5 m E Pg      2012/12/08 14:08:51.3   0.1                          T                                        5134126
VIVF  001.52 276.5 m E Sn      2012/12/08 14:09:08.2   0.0                          T                                        5134125
VIVF  001.52 276.5 m E Sg      2012/12/08 14:09:10.6  -0.3                          T                1.8  .23 Ml 1.9         5138782

.
