BEGIN GSE2.0
MSG_TYPE DATA
MSG_ID 22-JAN-1309:54:54  FRA_NDC
E-MAIL
DATA_TYPE BULLETIN
Reviewed Bulletin (REB) # P2013-000  from French NDC for regional phases     PERIOD 01 JAN 2013 TO 01 JAN 2013 Cenalt JP S
EVENT     289285
    Date      Time       Latitude Longitude    Depth    Ndef Nsta Gap    Mag1  N    Mag2  N    Mag3  N   Author         ID
       rms   OT_Error      Smajor Sminor Az        Err   mdist  Mdist     Err        Err        Err      Quality

2013/01/01 00:18:50.8     43.0676    -.2129      2.0      30    8 105  Ml 2.0  6  Md 1.9  3              bulletin    289385
                                                                                                         _ldg
      0.45   +-  0.06       1.2    1.0  164.14 +-  0.0    0.21   3.12   +-0.3      +-0.2                 m i ke

PYRENEES
Sta     Dist  EvAz     Phase      Date       Time     TRes  Azim  AzRes  Slow  SRes Def   SNR       Amp   Per   Mag1   Mag2       ID
ETSF  000.31 236.5 m E Pg      2013/01/01 00:18:56.6  -0.2                          T                                        5151559
ETSF  000.31 236.5 m E Sg      2013/01/01 00:19:00.7  -0.2                          T               38.5  .23        Md 2.0  5151558
EPF   000.41 095.1 m E Pg      2013/01/01 00:18:58.8   0.1                          T                                        5151557
EPF   000.41 095.1 m E Sg      2013/01/01 00:19:04.5   0.4                          T                 10  .34        Md 1.9  5151556
SJPF  000.74 273.9 m E Pg      2013/01/01 00:19:05.0   0.2                          T                                        5151555
SJPF  000.74 273.9 m E Sg      2013/01/01 00:19:14.4  -0.1                          T                4.2  .26        Md 1.7  5151554
MTLF  001.80 080.4 m E Pn      2013/01/01 00:19:20.8  -0.2                          T                                        5168291
MTLF  001.80 080.4 m E Pg      2013/01/01 00:19:24.5   0.2                          T                                        5168292
MTLF  001.80 080.4 m E Sn      2013/01/01 00:19:43.2   0.1                          T                                        5168287
MTLF  001.80 080.4 m E Sg      2013/01/01 00:19:47.6   0.2                          T                1.0  .24 Ml 1.8         5168288
LFF   001.99 019.9 m E Pn      2013/01/01 00:19:23.6  -0.1                          T                                        5168290
LFF   001.99 019.9 m E Pg      2013/01/01 00:19:28.1   0.3                          T                                        5168289
LFF   001.99 019.9 m E Sn      2013/01/01 00:19:47.9   0.2                          T                                        5168283
LFF   001.99 019.9 m E Sg      2013/01/01 00:19:53.7   0.2                          T                4.6  .33 Ml 2.2         5174155
CAF   002.48 040.7 m E Pn      2013/01/01 00:19:30.3  -0.1                          T                                        5168284
CAF   002.48 040.7 m E Pg      2013/01/01 00:19:36.5  -0.3                          T                                        5168285
CAF   002.48 040.7 m E Sn      2013/01/01 00:19:59.3  -0.2                          T                                        5168286
CAF   002.48 040.7 m E Sg      2013/01/01 00:20:08.7  -0.1                          T                 .9  .19 Ml 2.0         5174153
RJF   002.56 028.5 m E Pg      2013/01/01 00:19:38.0  -0.2                          T                                        5174152
RJF   002.56 028.5 m E Sg      2013/01/01 00:20:11.2   0.1                          T                 .7  .18 Ml 1.6         5174154
LASF  003.12 069.8 m E Sg      2013/01/01 00:20:29.0   0.1                          T                1.1  .25 Ml 2.1         5174151

.
EVENT     289286
    Date      Time       Latitude Longitude    Depth    Ndef Nsta Gap    Mag1  N    Mag2  N    Mag3  N   Author         ID
       rms   OT_Error      Smajor Sminor Az        Err   mdist  Mdist     Err        Err        Err      Quality

2013/01/01 03:28:16.3     43.0637    -.2238      2.0       6    4 166  Ml 1.5  1  Md 1.4  2              bulletin    289386
                                                                                                         _ldg
      0.04   +-  0.03       1.6     .3  169.11 +-  0.0    0.30   1.81   +-         +-0.1                 m i ke

PYRENEES
Sta     Dist  EvAz     Phase      Date       Time     TRes  Azim  AzRes  Slow  SRes Def   SNR       Amp   Per   Mag1   Mag2       ID
ETSF  000.30 236.3 m E Pg      2013/01/01 03:28:22.1   0.0                          T                                        5151563
ETSF  000.30 236.3 m E Sg      2013/01/01 03:28:26.2   0.0                          T               12.3  .22        Md 1.5  5151562
EPF   000.41 094.4 m E Pg      2013/01/01 03:28:24.3   0.0                          T                                        5151561
EPF   000.41 094.4 m E Sg      2013/01/01 03:28:29.9   0.1                          T                2.7  .22        Md 1.4  5151560
SJPF  000.74 274.2 m E Sg      2013/01/01 03:28:39.8   0.0                          T                1.0  .23                5174157
MTLF  001.81 080.3 m E Sg      2013/01/01 03:29:13.1  -0.1                          T                 .4  .21 Ml 1.5         5174156

.
EVENT     289287
    Date      Time       Latitude Longitude    Depth    Ndef Nsta Gap    Mag1  N    Mag2  N    Mag3  N   Author         ID
       rms   OT_Error      Smajor Sminor Az        Err   mdist  Mdist     Err        Err        Err      Quality

2013/01/01 04:18:04.3     43.0757    -.2167      2.0      14    7 138  Ml 1.4  5  Md 1.5  2              bulletin    289387
                                                                                                         _ldg
      0.29   +-  0.10       3.0    1.4  161.72 +-  0.0    0.31   2.55   +-0.3      +-0.1                 m i ke

PYRENEES
Sta     Dist  EvAz     Phase      Date       Time     TRes  Azim  AzRes  Slow  SRes Def   SNR       Amp   Per   Mag1   Mag2       ID
ETSF  000.31 235.0 m E Pg      2013/01/01 04:18:10.1  -0.3                          T                                        5151567
ETSF  000.31 235.0 m E Sg      2013/01/01 04:18:14.1  -0.4                          T               11.6  .23        Md 1.6  5151566
EPF   000.41 096.2 m E Pg      2013/01/01 04:18:12.4   0.1                          T                                        5151565
EPF   000.41 096.2 m E Sg      2013/01/01 04:18:17.7   0.0                          T                5.0  .35        Md 1.4  5151564
SJPF  000.74 273.3 m E Pg      2013/01/01 04:18:18.8   0.5                          T                                        5168300
SJPF  000.74 273.3 m E Sg      2013/01/01 04:18:27.8  -0.1                          T                 .9  .22                5168299
MTLF  001.80 080.7 m E Pg      2013/01/01 04:18:38.0   0.2                          T                                        5174163
MTLF  001.80 080.7 m E Sg      2013/01/01 04:19:01.0   0.0                          T                 .2  .21 Ml 1.2         5168298
CAF   002.48 040.9 m E Pg      2013/01/01 04:18:49.9  -0.4                          T                                        5174164
CAF   002.48 040.9 m E Sg      2013/01/01 04:19:21.6  -0.6                          T                 .4  .22 Ml 1.5         5168293
LFF   001.99 020.0 m E Sg      2013/01/01 04:19:07.1   0.2                          T                1.6  .28 Ml 1.8         5168295
RJF   002.55 028.6 m E Sg      2013/01/01 04:19:24.6   0.1                          T                 .7  .22 Ml 1.5         5174165

.
EVENT     289297
    Date      Time       Latitude Longitude    Depth    Ndef Nsta Gap    Mag1  N    Mag2  N    Mag3  N   Author         ID
       rms   OT_Error      Smajor Sminor Az        Err   mdist  Mdist     Err        Err        Err      Quality

2013/01/01 05:07:20.6     43.0550    -.2199      2.0 f     7    4 165  Ml 0.9  1  Md 1.3  2              bulletin    289397
                                                                                                         _ldg
      0.13   +-  0.06       3.5     .9  173.83 +-  0.0    0.29   1.81   +-         +-0.1                 m i ke

PYRENEES
Sta     Dist  EvAz     Phase      Date       Time     TRes  Azim  AzRes  Slow  SRes Def   SNR       Amp   Per   Mag1   Mag2       ID
ETSF  000.29 238.0 m E Pg      2013/01/01 05:07:26.3  -0.1                          T                                        5151623
ETSF  000.29 238.0 m E Sg      2013/01/01 05:07:30.6   0.2                          T                4.8  .24        Md 1.4  5151620
EPF   000.41 093.3 m E Pg      2013/01/01 05:07:28.6   0.0                          T                                        5151622
EPF   000.41 093.3 m E Sg      2013/01/01 05:07:34.1   0.1                          T                1.6  .26        Md 1.3  5151621
SJPF  000.74 274.9 m E Pg      2013/01/01 05:07:34.6   0.1                          T                                        5151619
SJPF  000.74 274.9 m E Sg      2013/01/01 05:07:44.0  -0.2                          T                 .9  .22                5151618
MTLF  001.81 080.1 m E Sg      2013/01/01 05:08:17.3  -0.1                          T                 .1  .14 Ml  .9         5174166

.
EVENT     289298
    Date      Time       Latitude Longitude    Depth    Ndef Nsta Gap    Mag1  N    Mag2  N    Mag3  N   Author         ID
       rms   OT_Error      Smajor Sminor Az        Err   mdist  Mdist     Err        Err        Err      Quality

2013/01/01 05:09:20.5     43.0504    -.2097      2.0      13    8 146  Ml 1.4  4  Md 1.5  2              bulletin    289398
                                                                                                         _ldg
      0.33   +-  0.10       2.8    1.5  161.09 +-  0.0    0.30   3.55   +-0.2      +-0.0                 m i ke

PYRENEES
Sta     Dist  EvAz     Phase      Date       Time     TRes  Azim  AzRes  Slow  SRes Def   SNR       Amp   Per   Mag1   Mag2       ID
ETSF  000.30 239.5 m E Pg      2013/01/01 05:09:26.1  -0.2                          T                                        5151629
ETSF  000.30 239.5 m E Sg      2013/01/01 05:09:29.8  -0.6                          T                4.6  .22        Md 1.5  5151628
EPF   000.40 092.7 m E Pg      2013/01/01 05:09:28.3   0.0                          T                                        5151627
EPF   000.40 092.7 m E Sg      2013/01/01 05:09:33.9   0.2                          T                2.1  .31        Md 1.5  5151626
SJPF  000.75 275.2 m E Pg      2013/01/01 05:09:34.8   0.2                          T                                        5151624
SJPF  000.75 275.2 m E Sg      2013/01/01 05:09:44.5   0.2                          T                 .4  .17                5151625
MTLF  001.80 079.9 m E Pg      2013/01/01 05:09:53.9   0.0                          T                                        5174167
MTLF  001.80 079.9 m E Sg      2013/01/01 05:10:17.1   0.0                          T                 .2  .21 Ml 1.0         5168316
RJF   002.57 028.3 m E Pn      2013/01/01 05:10:01.6   0.3                          T                                        5168314
RJF   002.57 028.3 m E Sg      2013/01/01 05:10:40.7  -0.6                          T                 .5  .16 Ml 1.5         5168315
LFF   002.01 019.6 m E Sg      2013/01/01 05:10:23.1  -0.5                          T                 .6  .26 Ml 1.4         5168311
CAF   002.49 040.4 m E Sg      2013/01/01 05:10:38.2  -0.5                          T                 .4  .20 Ml 1.6         5174168
MFF   003.55 000.7 m E Sn      2013/01/01 05:10:55.2   0.5                          T                                        5168313

.
EVENT     290219
    Date      Time       Latitude Longitude    Depth    Ndef Nsta Gap    Mag1  N    Mag2  N    Mag3  N   Author         ID
       rms   OT_Error      Smajor Sminor Az        Err   mdist  Mdist     Err        Err        Err      Quality

2013/01/01 05:13:44.3     42.8622    1.5194      4.0 f    22    4 119  Ml 1.4  2  Md 1.8  2              bulletin    290319
                                                                                                         _ldg
      0.20   +-  0.04        .8     .6  170.13 +-  0.0    0.33   2.09   +-0.2      +-0.0                 m i ke

PYRENEES
Sta     Dist  EvAz     Phase      Date       Time     TRes  Azim  AzRes  Slow  SRes Def   SNR       Amp   Per   Mag1   Mag2       ID
MTLF  000.70 046.7 m E Pg      2013/01/01 05:13:57.6   0.0                          T                                        5168351
MTLF  000.70 046.7 m E Sg      2013/01/01 05:14:06.6  -0.1                          T                 .2  .13        Md 1.8  5168349
EPF   000.88 281.4 m E Pg      2013/01/01 05:14:00.9   0.0                          T                                        5168350
EPF   000.88 281.4 m E Sg      2013/01/01 05:14:12.4   0.0                          T                 .6  .21 Ml 1.2 Md 1.8  5168348
SJPF  002.03 278.0 m E Pn      2013/01/01 05:14:17.6   0.0                          T                                        5168355
SJPF  002.03 278.0 m E Sn      2013/01/01 05:14:41.8  -0.1                          T                1.1  .51 Ml 1.6         5168352
LASF  002.09 053.7 m E Pn      2013/01/01 05:14:18.4   0.0                          T                                        5168354
LASF  002.09 053.7 m E Sn      2013/01/01 05:14:43.7   0.4                          T                                        5168353

.
EVENT     289296
    Date      Time       Latitude Longitude    Depth    Ndef Nsta Gap    Mag1  N    Mag2  N    Mag3  N   Author         ID
       rms   OT_Error      Smajor Sminor Az        Err   mdist  Mdist     Err        Err        Err      Quality

2013/01/01 05:13:48.9     47.9274    6.4782     15.0      43   13 078  Ml 2.1 10  Md 2.0  2              bulletin    289396
                                                                                                         _ldg
      0.44   +-  0.05       1.1     .9  135.18 +-  0.0    0.12   3.34   +-0.2      +-0.1                 m i ke

FRANCE
Sta     Dist  EvAz     Phase      Date       Time     TRes  Azim  AzRes  Slow  SRes Def   SNR       Amp   Per   Mag1   Mag2       ID
HAU   000.12 311.9 m E Pg      2013/01/01 05:13:52.6   0.1                          T                                        5151646
HAU   000.12 311.9 m E Sg      2013/01/01 05:13:54.9  -0.1                          T               94.6  .25        Md 2.1  5151645
HINF  000.28 113.5 m E Pg      2013/01/01 05:13:54.9   0.0                          T                                        5151644
HINF  000.28 113.5 m E Sg      2013/01/01 05:13:58.8  -0.2                          T               24.5  .19        Md 1.9  5151643
CDF   000.72 047.5 m E Pg      2013/01/01 05:14:02.8   0.0                          T                                        5160257
CDF   000.72 047.5 m E Pn      2013/01/01 05:14:03.5   0.3                          T                                        5151639
CDF   000.72 047.5 m E Sg      2013/01/01 05:14:11.9  -0.5                          T                2.1  .19                5151635
PAGF  000.81 321.6 m E Pg      2013/01/01 05:14:04.1  -0.2 140.5  -0.5              T                                        5151667
PAGF  000.81 321.6 m E Sg      2013/01/01 05:14:14.9   0.0                          T                3.2  .23                5151666
SFTF  001.00 286.6 m E Pg      2013/01/01 05:14:07.8  -0.1 106.7  1.2               T                                        5151642
SFTF  001.00 286.6 m E Sn      2013/01/01 05:14:19.8  -0.1                          T                                        5151670
SFTF  001.00 286.6 m E Sg      2013/01/01 05:14:21.1   0.1                          T                8.4  .18 Ml 2.5         5151641
MEZF  001.11 301.6 m E Pn      2013/01/01 05:14:08.3  -0.1 121.5  1.0               T                                        5151668
MEZF  001.11 301.6 m E Pg      2013/01/01 05:14:10.1   0.2 119.6  -0.9              T                                        5151636
MEZF  001.11 301.6 m E Sn      2013/01/01 05:14:22.3  -0.2                          T                                        5151669
MEZF  001.11 301.6 m E Sg      2013/01/01 05:14:24.4   0.0                          T                4.8  .31 Ml 2.1         5151640
CABF  001.34 191.6 m E Pn      2013/01/01 05:14:12.3   0.7                          T                                        5151671
CABF  001.34 191.6 m E Pg      2013/01/01 05:14:14.1  -0.1                          T                                        5151638
CABF  001.34 191.6 m E Sg      2013/01/01 05:14:31.5  -0.2                          T                1.4  .16 Ml 1.9         5151637
SSF   002.19 247.8 m E Pn      2013/01/01 05:14:22.8  -0.3                          T                                        5151631
SSF   002.19 247.8 m E Pg      2013/01/01 05:14:30.0   0.3                          T                                        5151632
SSF   002.19 247.8 m E Sg      2013/01/01 05:14:57.0  -1.0                          T                 .6  .19 Ml 1.8         5151630
SMF   002.21 235.4 m E Pn      2013/01/01 05:14:23.1  -0.2                          T                                        5151661
SMF   002.21 235.4 m E Pg      2013/01/01 05:14:30.1   0.2                          T                                        5151660
SMF   002.21 235.4 m E Sn      2013/01/01 05:14:48.3  -0.3                          T                                        5151658
SMF   002.21 235.4 m E Sg      2013/01/01 05:14:58.3  -0.1                          T                1.0  .18 Ml 2.0         5151659
LOR   001.89 250.6 m E Pg      2013/01/01 05:14:24.8   0.6  72.0  3.4               T                                        5151633
LOR   001.89 250.6 m E Sg      2013/01/01 05:14:48.1  -0.5  73.8  5.1               T                1.2  .19 Ml 2.0         5151634
AVF   002.41 243.0 m E Pn      2013/01/01 05:14:26.1   0.1                          T                                        5151657
AVF   002.41 243.0 m E Pg      2013/01/01 05:14:33.9   0.3                          T                                        5151656
AVF   002.41 243.0 m E Sn      2013/01/01 05:14:53.2  -0.2                          T                                        5151655
AVF   002.41 243.0 m E Sg      2013/01/01 05:15:04.6  -0.1                          T                 .6  .18 Ml 1.8         5151654
GIVF  002.43 334.0 m E Pn      2013/01/01 05:14:26.4   0.0                          T                                        5151665
GIVF  002.43 334.0 m E Pg      2013/01/01 05:14:33.9  -0.2                          T                                        5151662
GIVF  002.43 334.0 m E Sn      2013/01/01 05:14:54.1   0.1                          T                                        5151663
GIVF  002.43 334.0 m E Sg      2013/01/01 05:15:05.3  -0.1                          T                2.2  .23 Ml 2.3         5151664
TCF   003.34 242.2 m E Pn      2013/01/01 05:14:39.0   0.2                          T                                        5151653
TCF   003.34 242.2 m E Pg      2013/01/01 05:14:50.7  -0.2                          T                                        5151652
TCF   003.34 242.2 m E Sn      2013/01/01 05:15:15.8   0.0                          T                                        5151651
TCF   003.34 242.2 m E Sg      2013/01/01 05:15:34.1   0.2                          T                 .9  .17 Ml 2.3         5151650

.
