BEGIN GSE2.0
MSG_TYPE DATA
MSG_ID 08-AVR-1314:27:24  FRA_NDC
E-MAIL
DATA_TYPE BULLETIN
Reviewed Bulletin (REB) # P2013-013  from French NDC for regional phases     PERIOD 27 MAR 2013 TO 02 AVR 2013 Cenalt JP S
EVENT     294801
    Date      Time       Latitude Longitude    Depth    Ndef Nsta Gap    Mag1  N    Mag2  N    Mag3  N   Author         ID
       rms   OT_Error      Smajor Sminor Az        Err   mdist  Mdist     Err        Err        Err      Quality

2013/03/27 00:10:15.1     46.1085    5.4433      2.0      59   16 081  Ml 1.8 17  Md 1.9  2              bulletin    294901
                                                                                                         _ldg
      0.65   +-  0.05       1.2     .8   46.39 +-  0.0    0.67   2.87   +-0.2      +-0.0                 m i ke

FRANCE
Sta     Dist  EvAz     Phase      Date       Time     TRes  Azim  AzRes  Slow  SRes Def   SNR       Amp   Per   Mag1   Mag2       ID
CABF  000.67 041.4 m E Pg      2013/03/27 00:10:27.9   0.0                          T                                        5237366
CABF  000.67 041.4 m E Pn      2013/03/27 00:10:30.1   0.0                          T                                        5240283
CABF  000.67 041.4 m E Sg      2013/03/27 00:10:36.6  -0.1                          T                5.8  .33        Md 1.9  5237369
CABF  000.67 041.4 m E Sn      2013/03/27 00:10:40.6  -0.1                          T                                        5240284
LPL   001.08 122.8 m E Pg      2013/03/27 00:10:35.5   0.0                          T                                        5237381
LPL   001.08 122.8 m E Sg      2013/03/27 00:10:49.6   0.1                          T                1.2  .29 Ml 1.5 Md 1.9  5237380
LPG   001.10 123.3 m E Pg      2013/03/27 00:10:36.1   0.1                          T                                        5237379
LPG   001.10 123.3 m E Sg      2013/03/27 00:10:50.3   0.0                          T                1.2  .21 Ml 1.6         5237378
ORIF  001.23 165.4 m E Pn      2013/03/27 00:10:37.6  -0.1                          T                                        5237383
ORIF  001.23 165.4 m E Pg      2013/03/27 00:10:38.3   0.2                          T                                        5240274
ORIF  001.23 165.4 m E Sn      2013/03/27 00:10:54.1   0.1                          T                2.2  .24 Ml 1.9         5237382
SMF   001.23 296.4 m E Pg      2013/03/27 00:10:38.5   0.4                          T                                        5237365
SMF   001.23 296.4 m E Sg      2013/03/27 00:10:53.9  -0.1                          T                4.0  .22 Ml 2.2         5237364
VIVF  001.36 203.7 m E Pn      2013/03/27 00:10:39.4  -0.1                          T                                        5240275
VIVF  001.36 203.7 m E Pg      2013/03/27 00:10:40.5   0.0                          T                                        5237385
VIVF  001.36 203.7 m E Sn      2013/03/27 00:10:56.9  -0.2                          T                                        5237384
VIVF  001.36 203.7 m E Sg      2013/03/27 00:10:58.2   0.0                          T                1.8  .18 Ml 2.0         5237396
AVF   001.60 296.0 m E Pn      2013/03/27 00:10:42.3  -0.3                          T                                        5240280
AVF   001.60 296.0 m E Pg      2013/03/27 00:10:44.7  -0.1                          T                                        5237361
AVF   001.60 296.0 m E Sn      2013/03/27 00:11:02.6   0.0                          T                                        5240279
AVF   001.60 296.0 m E Sg      2013/03/27 00:11:05.6   0.1                          T                 .9  .22 Ml 1.7         5237360
LOR   001.59 317.3 m E Pn      2013/03/27 00:10:42.5   0.0 133.1  -3.1              T                                        5237373
LOR   001.59 317.3 m E Pg      2013/03/27 00:10:44.6  -0.1 136.9  0.7               T                                        5237368
LOR   001.59 317.3 m E Sn      2013/03/27 00:11:02.6   0.0 140.1  3.9               T                                        5237372
LOR   001.59 317.3 m E Sg      2013/03/27 00:11:05.8   0.5 146.6  10.4              T                1.9  .16 Ml 2.2         5237367
SSF   001.64 306.2 m E Pn      2013/03/27 00:10:43.4   0.2                          T                                        5237377
SSF   001.64 306.2 m E Pg      2013/03/27 00:10:46.3   0.7                          T                                        5237376
SSF   001.64 306.2 m E Sn      2013/03/27 00:11:03.8   0.2                          T                 .3  .22 Ml 1.4         5237375
SSF   001.64 306.2 m E Sg      2013/03/27 00:11:07.1   0.2                          T                1.1  .24 Ml 1.8         5237374
MBDF  001.67 145.4 m E Pn      2013/03/27 00:10:43.8   0.1                          T                                        5237400
MBDF  001.67 145.4 m E Pg      2013/03/27 00:10:46.4   0.1                          T                                        5237399
MBDF  001.67 145.4 m E Sn      2013/03/27 00:11:04.5   0.0                          T                                        5237398
MBDF  001.67 145.4 m E Sg      2013/03/27 00:11:08.0   0.1                          T                 .6  .24 Ml 1.5         5237397
BGF   001.85 285.0 m E Pn      2013/03/27 00:10:46.8   0.6                          T                                        5237371
BGF   001.85 285.0 m E Pg      2013/03/27 00:10:50.5   0.9                          T                                        5237370
BGF   001.85 285.0 m E Sn      2013/03/27 00:11:08.7   0.0                          T                                        5237387
BGF   001.85 285.0 m E Sg      2013/03/27 00:11:12.7  -0.8                          T                2.4  .35 Ml 2.0         5237386
HINF  001.96 029.0 m E Pn      2013/03/27 00:10:47.6  -0.1                          T                                        5240271
HINF  001.96 029.0 m E Sg      2013/03/27 00:11:16.8  -0.1                          T                1.6  .29 Ml 1.9         5240272
HYF   002.25 302.0 m E Pn      2013/03/27 00:10:50.8  -0.8                          T                                        5237404
HYF   002.25 302.0 m E Pg      2013/03/27 00:10:56.7  -0.2                          T                                        5237403
HYF   002.25 302.0 m E Sn      2013/03/27 00:11:17.6  -0.7                          T                                        5237402
HYF   002.25 302.0 m E Sg      2013/03/27 00:11:25.7  -0.2                          T                                        5237401
TCF   002.25 275.7 m E Pn      2013/03/27 00:10:51.4  -0.2                          T                                        5240281
TCF   002.25 275.7 m E Pg      2013/03/27 00:10:56.8  -0.1                          T                                        5237363
TCF   002.25 275.7 m E Sn      2013/03/27 00:11:18.6   0.3                          T                                        5240282
TCF   002.25 275.7 m E Sg      2013/03/27 00:11:25.8  -0.1                          T                 .6  .18 Ml 1.8         5237362
LASF  002.32 209.5 m E Pn      2013/03/27 00:10:53.0   0.5                          T                                        5237388
LASF  002.32 209.5 m E Pg      2013/03/27 00:10:58.3   0.2                          T                                        5237391
LASF  002.32 209.5 m E Sn      2013/03/27 00:11:19.9   0.0                          T                 .5  .20 Ml 1.6         5237389
LASF  002.32 209.5 m E Sg      2013/03/27 00:11:27.9  -0.2                          T                 .9  .30 Ml 1.7         5237390
RJF   002.87 255.1 m E Pn      2013/03/27 00:11:00.2   0.3                          T                                        5240276
RJF   002.87 255.1 m E Sn      2013/03/27 00:11:32.9   0.0                          T                                        5240277
RJF   002.87 255.1 m E Sg      2013/03/27 00:11:44.7  -0.3                          T                                        5240278

.
EVENT     294803
    Date      Time       Latitude Longitude    Depth    Ndef Nsta Gap    Mag1  N    Mag2  N    Mag3  N   Author         ID
       rms   OT_Error      Smajor Sminor Az        Err   mdist  Mdist     Err        Err        Err      Quality

2013/03/27 01:31:20.7     44.5041    6.6887      3.0 f    39    9 047  Ml 1.5  6  Md 1.6  2              bulletin    294903
                                                                                                         _ldg
      0.60   +-  0.04       1.0     .7   61.21 +-  0.0    0.09   1.48   +-0.2      +-0.0                 m i ke

FRANCE
Sta     Dist  EvAz     Phase      Date       Time     TRes  Azim  AzRes  Slow  SRes Def   SNR       Amp   Per   Mag1   Mag2       ID
MBDF  000.23 014.8 m E Pg      2013/03/27 01:31:25.5   0.0                          T                                        5237442
MBDF  000.23 014.8 m E Sg      2013/03/27 01:31:28.7   0.0                          T                3.1  .18        Md 1.6  5237436
ORIF  000.71 306.0 m E Pg      2013/03/27 01:31:34.1  -0.2                          T                                        5237441
ORIF  000.71 306.0 m E Sg      2013/03/27 01:31:43.7   0.2                          T                1.5  .21        Md 1.5  5237435
SBF   000.84 139.8 m E Pg      2013/03/27 01:31:36.5   0.0                          T                                        5237444
SBF   000.84 139.8 m E Sg      2013/03/27 01:31:47.4   0.0                          T                1.3  .17                5237443
SMRF  000.96 237.0 m E Pg      2013/03/27 01:31:38.9   0.2                          T                                        5237513
FRF   000.94 181.8 m E Pg      2013/03/27 01:31:38.9   0.5                          T                                        5237438
FRF   000.94 181.8 m E Sg      2013/03/27 01:31:51.0   0.3                          T                2.1  .19 Ml 1.9         5237445
SMRF  000.96 237.0 m E Sg      2013/03/27 01:31:51.7   0.5                          T                 .8  .21 Ml 1.3         5237514
LPG   000.99 002.5 m E Pg      2013/03/27 01:31:39.8   0.1                          T                                        5237439
LPG   000.99 002.5 m E Sg      2013/03/27 01:31:52.5  -0.2                          T                1.1  .21 Ml 1.5         5237434
LPL   001.01 001.7 m E Pg      2013/03/27 01:31:39.9  -0.1                          T                                        5237440
LPL   001.01 001.7 m E Sg      2013/03/27 01:31:53.0  -0.1                          T                1.1  .27 Ml 1.4         5237447
LMR   001.18 186.4 m E Pn      2013/03/27 01:31:42.5   0.1                          T                                        5237437
LMR   001.18 186.4 m E Sg      2013/03/27 01:31:58.2   0.3                          T                 .7  .16 Ml 1.6         5237433
VIVF  001.48 284.5 m E Pn      2013/03/27 01:31:46.7   0.1                          T                                        5237446
VIVF  001.48 284.5 m E Sn      2013/03/27 01:32:04.3  -1.0                          T                                        5237448
VIVF  001.48 284.5 m E Sg      2013/03/27 01:32:07.6   0.2                          T                 .6  .25 Ml 1.4         5240285

.
EVENT     294804
    Date      Time       Latitude Longitude    Depth    Ndef Nsta Gap    Mag1  N    Mag2  N    Mag3  N   Author         ID
       rms   OT_Error      Smajor Sminor Az        Err   mdist  Mdist     Err        Err        Err      Quality

2013/03/27 02:57:15.7     44.5139    6.6516      2.0      27    9 050  Ml 1.4  6  Md 1.4  2              bulletin    294904
                                                                                                         _ldg
      0.35   +-  0.05       1.2     .9   76.69 +-  0.0    0.12   1.45   +-0.2      +-0.0                 m i ke

FRANCE
Sta     Dist  EvAz     Phase      Date       Time     TRes  Azim  AzRes  Slow  SRes Def   SNR       Amp   Per   Mag1   Mag2       ID
MBDF  000.23 021.8 m E Pg      2013/03/27 02:57:20.6   0.1                          T                                        5237456
MBDF  000.23 021.8 m E Sg      2013/03/27 02:57:23.6  -0.1                          T                5.9  .38        Md 1.4  5237455
ORIF  000.68 306.6 m E Pg      2013/03/27 02:57:28.4  -0.3                          T                                        5237454
ORIF  000.68 306.6 m E Sg      2013/03/27 02:57:37.7   0.0                          T                2.4  .31        Md 1.4  5237453
SBF   000.86 138.8 m E Pg      2013/03/27 02:57:32.1   0.1                          T                                        5237458
SBF   000.86 138.8 m E Sg      2013/03/27 02:57:43.3   0.1                          T                                        5237457
SMRF  000.94 235.6 m E Pg      2013/03/27 02:57:33.5   0.0                          T                                        5240287
SMRF  000.94 235.6 m E Sg      2013/03/27 02:57:45.7   0.0                          T                1.0  .22 Ml 1.4         5240286
FRF   000.95 180.2 m E Pg      2013/03/27 02:57:34.0   0.4                          T                                        5237452
FRF   000.95 180.2 m E Sg      2013/03/27 02:57:46.1   0.1                          T                 .8  .19 Ml 1.4         5237451
LPG   000.99 004.1 m E Pg      2013/03/27 02:57:34.7   0.1                          T                                        5237461
LPG   000.99 004.1 m E Sg      2013/03/27 02:57:47.4   0.0                          T                 .6  .25 Ml 1.2         5237462
LPL   001.00 003.2 m E Pg      2013/03/27 02:57:34.8   0.0                          T                                        5240289
LPL   001.00 003.2 m E Sg      2013/03/27 02:57:47.8  -0.1                          T                 .4  .21 Ml 1.1         5240288
LMR   001.18 185.0 m E Pg      2013/03/27 02:57:38.1   0.3                          T                                        5237460
LMR   001.18 185.0 m E Sg      2013/03/27 02:57:53.6   0.4                          T                1.2  .19 Ml 1.7         5237459
VIVF  001.45 284.3 m E Pn      2013/03/27 02:57:41.5   0.2                          T                                        5237516
VIVF  001.45 284.3 m E Sn      2013/03/27 02:57:59.8   0.0                          T                 .4  .18 Ml 1.4         5237515

.
EVENT     294805
    Date      Time       Latitude Longitude    Depth    Ndef Nsta Gap    Mag1  N    Mag2  N    Mag3  N   Author         ID
       rms   OT_Error      Smajor Sminor Az        Err   mdist  Mdist     Err        Err        Err      Quality

2013/03/27 03:32:32.3     42.8454   -1.8146      2.0      17    3 150  Ml 1.7  2  Md 1.7  2              bulletin    294905
                                                                                                         _ldg
      0.42   +-  0.15       3.2    2.1   12.78 +-  0.0    0.19   1.59   +-0.3      +-0.1                 m i ke

PYRENEES
Sta     Dist  EvAz     Phase      Date       Time     TRes  Azim  AzRes  Slow  SRes Def   SNR       Amp   Per   Mag1   Mag2       ID
SJPF  000.51 058.0 m E Pg      2013/03/27 03:32:42.0   0.1                          T                                        5237474
SJPF  000.51 058.0 m E Sg      2013/03/27 03:32:48.7   0.0                          T                5.7  .35        Md 1.7  5237476
ETSF  000.92 086.3 m E Pg      2013/03/27 03:32:49.8   0.1                          T                                        5237477
ETSF  000.92 086.3 m E Sg      2013/03/27 03:33:01.8   0.0                          T                  1  .22 Ml 1.4 Md 1.6  5237478
EPF   001.59 082.6 m E Pg      2013/03/27 03:33:02.1   0.1                          T                                        5237473
EPF   001.59 082.6 m E Sn      2013/03/27 03:33:19.7   0.0                          T                                        5240292
EPF   001.59 082.6 m E Sg      2013/03/27 03:33:22.7   0.1                          T                2.1  .30 Ml 1.9         5237475

.
EVENT     294806
    Date      Time       Latitude Longitude    Depth    Ndef Nsta Gap    Mag1  N    Mag2  N    Mag3  N   Author         ID
       rms   OT_Error      Smajor Sminor Az        Err   mdist  Mdist     Err        Err        Err      Quality

2013/03/27 04:59:09.3     42.8498    -.9139     15.0       6    3 239  Ml 1.4  1  Md 1.4  2              bulletin    294906
                                                                                                         _ldg
      0.12   +-  0.24       8.4    1.2   18.08 +-  0.0    0.27   0.94   +-         +-0.0                 m i ke

PYRENEES
Sta     Dist  EvAz     Phase      Date       Time     TRes  Azim  AzRes  Slow  SRes Def   SNR       Amp   Per   Mag1   Mag2       ID
ETSF  000.27 079.3 m E Pg      2013/03/27 04:59:15.1  -0.2                          T                                        5237526
ETSF  000.27 079.3 m E Sg      2013/03/27 04:59:19.3   0.1                          T                                Md 1.4  5237523
SJPF  000.35 319.2 m E Pg      2013/03/27 04:59:16.6   0.0                          T                                        5237525
SJPF  000.35 319.2 m E Sg      2013/03/27 04:59:21.3  -0.2                          T                5.3  .28        Md 1.4  5237524
EPF   000.94 078.5 m E Pg      2013/03/27 04:59:27.2   0.0                          T                                        5237521
EPF   000.94 078.5 m E Sg      2013/03/27 04:59:39.4  -0.1                          T                 .8  .22 Ml 1.4         5237522

.
