EVENT     267940
    Date      Time       Latitude Longitude    Depth    Ndef Nsta Gap    Mag1  N    Mag2  N    Mag3  N   Author         ID
       rms   OT_Error      Smajor Sminor Az        Err   mdist  Mdist     Err        Err        Err      Quality

2011/12/31 11:59:41.4     43.3250    -.5349      2.0      10    5 274  Ml 2.0  4  Md 2.3  1              js067245    267960

      0.16   +-  0.24       4.2    1.7   72.69 +-  0.0    0.70   2.47   +-0.2      +-                    m i ke

PYRENEES
Sta     Dist  EvAz     Phase      Date       Time     TRes  Azim  AzRes  Slow  SRes Def   SNR       Amp   Per   Mag1   Mag2       ID
EPF   000.70 114.4 m E Pg      2011/12/31 11:59:54.8   0.0                          T                                        4808719
EPF   000.70 114.4 m E Sg      2011/12/31 12:00:04.1   0.1                          T               14.2  .28        Md 2.3  4808720
LFF   001.86 029.2 m E Pg      2011/12/31 12:00:15.9   0.0                          T                                        4808718
LFF   001.86 029.2 m E Sg      2011/12/31 12:00:39.7  -0.1                          T                3.8  .30 Ml 2.1         4808711
MTLF  002.01 088.6 m E Pg      2011/12/31 12:00:18.5  -0.3                          T                                        4808715
MTLF  002.01 088.6 m E Sg      2011/12/31 12:00:44.5  -0.1                          T                1.5  .22 Ml 2.0         4808714
RJF   002.47 035.9 m E Pg      2011/12/31 12:00:27.1  -0.1                          T                                        4808717
RJF   002.47 035.9 m E Sg      2011/12/31 12:00:58.7  -0.2                          T                1.0  .19 Ml 1.7         4808712
CAF   002.46 048.6 m E Pg      2011/12/31 12:00:27.4   0.2                          T                                        4808716
CAF   002.46 048.6 m E Sg      2011/12/31 12:00:59.1   0.2                          T                1.6  .21 Ml 2.2         4808713

.
EVENT     267941
    Date      Time       Latitude Longitude    Depth    Ndef Nsta Gap    Mag1  N    Mag2  N    Mag3  N   Author         ID
       rms   OT_Error      Smajor Sminor Az        Err   mdist  Mdist     Err        Err        Err      Quality

2011/12/31 12:40:29.1     43.3265    -.5345      2.0      10    5 274  Ml 1.8  4  Md 2.1  1              js067245    267961

      0.15   +-  0.21       3.7    1.5   72.76 +-  0.0    0.70   2.47   +-0.2      +-                    m i ke

PYRENEES
Sta     Dist  EvAz     Phase      Date       Time     TRes  Azim  AzRes  Slow  SRes Def   SNR       Amp   Per   Mag1   Mag2       ID
EPF   000.70 114.5 m E Pg      2011/12/31 12:40:42.4   0.0                          T                                        4808729
EPF   000.70 114.5 m E Sg      2011/12/31 12:40:51.8   0.1                          T               10.2  .32        Md 2.1  4808730
LFF   001.86 029.2 m E Pg      2011/12/31 12:41:03.6   0.1                          T                                        4808727
LFF   001.86 029.2 m E Sg      2011/12/31 12:41:27.5   0.0                          T                1.2  .23 Ml 1.7         4808722
MTLF  002.01 088.6 m E Pg      2011/12/31 12:41:06.2  -0.2                          T                                        4808725
MTLF  002.01 088.6 m E Sg      2011/12/31 12:41:32.2  -0.1                          T                1.7  .30 Ml 1.9         4808724
RJF   002.47 036.0 m E Pg      2011/12/31 12:41:14.7  -0.1                          T                                        4808726
RJF   002.47 036.0 m E Sg      2011/12/31 12:41:46.3  -0.2                          T                1.1  .21 Ml 1.7         4808721
CAF   002.46 048.6 m E Pg      2011/12/31 12:41:15.0   0.2                          T                                        4808728
CAF   002.46 048.6 m E Sg      2011/12/31 12:41:46.7   0.3                          T                1.2  .22 Ml 2.0         4808723

.
EVENT     267942
    Date      Time       Latitude Longitude    Depth    Ndef Nsta Gap    Mag1  N    Mag2  N    Mag3  N   Author         ID
       rms   OT_Error      Smajor Sminor Az        Err   mdist  Mdist     Err        Err        Err      Quality

2011/12/31 12:54:51.2     43.3281    -.5502      2.0      10    5 275  Ml 1.6  4  Md 2.0  1              js067245    267962

      0.24   +-  0.30       5.3    2.2   72.78 +-  0.0    0.72   2.47   +-0.1      +-                    m i ke

PYRENEES
Sta     Dist  EvAz     Phase      Date       Time     TRes  Azim  AzRes  Slow  SRes Def   SNR       Amp   Per   Mag1   Mag2       ID
EPF   000.72 114.3 m E Pg      2011/12/31 12:55:04.7  -0.1                          T                                        4808762
EPF   000.72 114.3 m E Sg      2011/12/31 12:55:14.9   0.7                          T                5.6  .29        Md 2.0  4808763
LFF   001.86 029.5 m E Pg      2011/12/31 12:55:25.9   0.1                          T                                        4808760
LFF   001.86 029.5 m E Sg      2011/12/31 12:55:49.8   0.1                          T                 .9  .20 Ml 1.6         4808755
MTLF  002.02 088.7 m E Pg      2011/12/31 12:55:28.5  -0.2                          T                                        4808758
MTLF  002.02 088.7 m E Sg      2011/12/31 12:55:54.5  -0.2                          T                 .8  .24 Ml 1.7         4808757
RJF   002.47 036.2 m E Pg      2011/12/31 12:55:37.0  -0.1                          T                                        4808761
RJF   002.47 036.2 m E Sg      2011/12/31 12:56:08.6  -0.3                          T                 .8  .20 Ml 1.6         4808754
CAF   002.47 048.8 m E Pg      2011/12/31 12:55:37.2   0.1                          T                                        4808759
CAF   002.47 048.8 m E Sg      2011/12/31 12:56:09.0   0.1                          T                 .3  .19 Ml 1.5         4808756

.
EVENT     267943
    Date      Time       Latitude Longitude    Depth    Ndef Nsta Gap    Mag1  N    Mag2  N    Mag3  N   Author         ID
       rms   OT_Error      Smajor Sminor Az        Err   mdist  Mdist     Err        Err        Err      Quality

2011/12/31 13:46:58.0     43.3252    -.5451      2.0       9    5 275  Ml 1.8  3  Md 2.0  1              js067245    267963

      0.19   +-  0.29       5.3    2.2   70.28 +-  0.0    0.71   2.47   +-0.1      +-                    m i ke

PYRENEES
Sta     Dist  EvAz     Phase      Date       Time     TRes  Azim  AzRes  Slow  SRes Def   SNR       Amp   Per   Mag1   Mag2       ID
EPF   000.71 114.2 m E Pg      2011/12/31 13:47:11.6   0.0                          T                                        4808771
EPF   000.71 114.2 m E Sg      2011/12/31 13:47:21.1   0.2                          T                6.9  .30        Md 2.0  4808772
LFF   001.86 029.4 m E Pg      2011/12/31 13:47:32.6   0.0                          T                                        4808770
MTLF  002.02 088.6 m E Pg      2011/12/31 13:47:35.3  -0.2                          T                                        4808767
MTLF  002.02 088.6 m E Sg      2011/12/31 13:48:01.3  -0.2                          T                1.1  .25 Ml 1.8         4808766
RJF   002.47 036.1 m E Pg      2011/12/31 13:47:43.8  -0.1                          T                                        4808769
RJF   002.47 036.1 m E Sg      2011/12/31 13:48:15.5  -0.2                          T                1.4  .28 Ml 1.7         4808764
CAF   002.47 048.7 m E Pg      2011/12/31 13:47:44.2   0.3                          T                                        4808768
CAF   002.47 048.7 m E Sg      2011/12/31 13:48:15.9   0.2                          T                  1  .24 Ml 1.9         4808765

.
EVENT     267937
    Date      Time       Latitude Longitude    Depth    Ndef Nsta Gap    Mag1  N    Mag2  N    Mag3  N   Author         ID
       rms   OT_Error      Smajor Sminor Az        Err   mdist  Mdist     Err        Err        Err      Quality

2011/12/31 15:17:32.2     47.8963    6.4777     20.1      29   12 084  Ml 2.0  7  Md 2.1  3              js067245    267957

      0.75   +-  0.06       1.4    1.0  149.16 +-  0.6    0.14   2.19   +-0.3      +-0.3                 m i ke

FRANCE
Sta     Dist  EvAz     Phase      Date       Time     TRes  Azim  AzRes  Slow  SRes Def   SNR       Amp   Per   Mag1   Mag2       ID
HAU   000.14 321.5 m E Pg      2011/12/31 15:17:36.9   0.1                          T                                        4808782
HAU   000.14 321.5 m E Sg      2011/12/31 15:17:39.8  -0.1                          T               49.0  .28        Md 2.4  4808783
HINF  000.27 107.3 m E Pg      2011/12/31 15:17:38.6   0.2                          T                                        4808780
HINF  000.27 107.3 m E Sg      2011/12/31 15:17:42.8   0.1                          T               14.2  .22        Md 2.0  4808776
THEF  000.46 315.8 m E Pg      2011/12/31 15:17:42.0   0.3                          T                                        4808781
THEF  000.46 315.8 m E Sg      2011/12/31 15:17:48.1  -0.1                          T               11.6  .19        Md 1.9  4808775
CDF   000.74 045.7 m E Pn      2011/12/31 15:17:45.9  -0.3                          T                                        4808779
CDF   000.74 045.7 m E Pg      2011/12/31 15:17:46.5  -0.3                          T                                        4808778
CDF   000.74 045.7 m E Sg      2011/12/31 15:17:56.4  -0.3                          T                4.5  .18                4808773
PAGF  000.83 322.9 m E Pn      2011/12/31 15:17:47.3   0.1                          T                                        4808792
PAGF  000.83 322.9 m E Sg      2011/12/31 15:17:59.2   0.0 133.6  -8.8              T                 .6  .18                4808800
SFTF  001.01 288.3 m E Pn      2011/12/31 15:17:49.0   0.2 112.2  5.0               T                                        4808777
SFTF  001.01 288.3 m E Pg      2011/12/31 15:17:51.4  -0.1 105.1  -2.1              T                                        4808794
SFTF  001.01 288.3 m E Sg      2011/12/31 15:18:04.6  -0.2                          T                9.9  .17 Ml 2.6         4808774
MEZF  001.13 303.0 m E Pg      2011/12/31 15:17:53.6   0.0 117.8  -4.1              T                                        4808793
MEZF  001.13 303.0 m E Sg      2011/12/31 15:18:08.7   0.3                          T                4.2  .32 Ml 2.0         4808799
LANF  001.40 038.7 m E P       2011/12/31 15:17:57.1   0.1                          T                                        4808791
LANF  001.40 038.7 m E Pg      2011/12/31 15:17:58.6   0.1                          T                                        4808790
LANF  001.40 038.7 m E Sg      2011/12/31 15:18:16.9   0.2                          T                1.8  .14 Ml 2.1         4808801
CABF  001.31 191.8 m E Pg      2011/12/31 15:17:57.2   0.1                          T                                        4808804
CABF  001.31 191.8 m E Sn      2011/12/31 15:18:10.0   0.2                          T                                        4808798
CABF  001.31 191.8 m E Sg      2011/12/31 15:18:14.3   0.1                          T                2.1  .22 Ml 1.9         4808797
LOR   001.88 251.5 m E Pn      2011/12/31 15:18:01.7   0.1                          T                                        4808789
LOR   001.88 251.5 m E Pg      2011/12/31 15:18:07.3   0.0  75.5  5.9               T                                        4808788
LOR   001.88 251.5 m E Sg      2011/12/31 15:18:31.2  -0.5  68.8  -0.7              T                1.3  .18 Ml 2.0         4808803
SSF   002.18 248.6 m E Pg      2011/12/31 15:18:12.6  -0.2                          T                                        4808787
SSF   002.18 248.6 m E Sg      2011/12/31 15:18:40.7  -0.3                          T                 .7  .19 Ml 1.9         4808802
SMF   002.19 236.1 m E Pg      2011/12/31 15:18:13.0   0.0                          T                                        4808795
SMF   002.19 236.1 m E Sg      2011/12/31 15:18:41.2  -0.1                          T                 .6  .22 Ml 1.7         4808796

.
EVENT     267938
    Date      Time       Latitude Longitude    Depth    Ndef Nsta Gap    Mag1  N    Mag2  N    Mag3  N   Author         ID
       rms   OT_Error      Smajor Sminor Az        Err   mdist  Mdist     Err        Err        Err      Quality

2011/12/31 18:18:34.7     44.4857    8.4033      2.0      76   22 098  Ml 2.6 19  Md 2.6  2              js067245    267958

      0.74   +-  0.11       2.3    1.8  111.56 +-  0.0    0.12   4.96   +-0.4      +-0.1                 m i ke

NORTHERN ITALY
Sta     Dist  EvAz     Phase      Date       Time     TRes  Azim  AzRes  Slow  SRes Def   SNR       Amp   Per   Mag1   Mag2       ID
SBF   000.93 228.6 m E Pn      2011/12/31 18:18:53.1  -0.2                          T   001.0                                4806210
SBF   000.93 228.6 m E Sg      2011/12/31 18:19:04.0  -0.4                          T                                        4808818
SBF   000.93 228.6 m E Sn      2011/12/31 18:19:06.0  -0.4                          T   001.0       82.2  .20 Ml 3.4 Md 2.6  4806211
MBDF  001.19 282.3 m E Pn      2011/12/31 18:18:56.5  -0.4                          T   001.0                                4806217
MBDF  001.19 282.3 m E Pg      2011/12/31 18:18:57.0  -0.1                          T                                        4808823
MBDF  001.19 282.3 m E Sg      2011/12/31 18:19:12.4  -0.1                          T   001.0       28.2  .28 Ml 2.9 Md 2.5  4806218
LPG   001.55 311.4 m E Pn      2011/12/31 18:19:01.7  -0.2                          T   001.0                                4806205
LPG   001.55 311.4 m E Pg      2011/12/31 18:19:03.8  -0.1                          T                                        4808821
LPG   001.55 311.4 m E Sn      2011/12/31 18:19:21.4   0.0                          T   001.0        5.2  .32 Ml 2.3         4806206
LPG   001.55 311.4 m E Sg      2011/12/31 18:19:23.9   0.0                          T                6.8  .25 Ml 2.5         4808815
LPL   001.57 311.6 m E Pn      2011/12/31 18:19:02.1   0.0                          T   001.0                                4806207
LPL   001.57 311.6 m E Pg      2011/12/31 18:19:04.1  -0.2                          T                                        4808822
LPL   001.57 311.6 m E Sn      2011/12/31 18:19:21.5  -0.4                          T                8.4  .26 Ml 2.6         4808814
LPL   001.57 311.6 m E Sg      2011/12/31 18:19:24.6   0.1                          T                8.7  .34 Ml 2.5         4808813
FRF   001.57 234.5 m E Pg      2011/12/31 18:19:02.7  -1.2                          T   001.0                                4806197
FRF   001.57 234.5 m E Sn      2011/12/31 18:19:21.3  -0.3                          T   001.0                                4806198
FRF   001.57 234.5 m E Sg      2011/12/31 18:19:24.4   0.2                          T               43.3  .26 Ml 3.3         4808816
LMR   001.79 230.6 m E Pn      2011/12/31 18:19:05.0   0.2                          T   001.0                                4806201
LMR   001.79 230.6 m E Pg      2011/12/31 18:19:08.1   0.1                          T                                        4808819
LMR   001.79 230.6 m E Sn      2011/12/31 18:19:26.6  -0.2                          T   001.0                                4806202
LMR   001.79 230.6 m E Sg      2011/12/31 18:19:30.8  -0.2                          T               27.3  .22 Ml 3.3         4808817
PGF   001.98 167.2 m E Pn      2011/12/31 18:19:06.8  -0.9                          T   001.0                                4806208
PGF   001.98 167.2 m E Sn      2011/12/31 18:19:31.0  -0.7                          T   001.0        2.7  .25 Ml 2.5         4806209
ORIF  001.85 284.4 m E Pg      2011/12/31 18:19:08.5  -0.7                          T   001.0                                4806220
ORIF  001.85 284.4 m E Sn      2011/12/31 18:19:28.0  -0.4                          T   001.0       20.1  .48 Ml 2.8         4806221
ORIF  001.85 284.4 m E Sg      2011/12/31 18:19:33.1   0.0                          T               13.6  .35 Ml 2.8         4808812
SMRF  002.10 256.9 m E P       2011/12/31 18:19:11.4   0.0                          T   001.0                                4806224
SMRF  002.10 256.9 m E Pg      2011/12/31 18:19:13.6  -0.1                          T                                        4808820
SMRF  002.10 256.9 m E Sg      2011/12/31 18:19:40.4  -0.2                          T   001.0        8.9  .28 Ml 2.7         4806225
VIVF  002.69 279.2 m E Pn      2011/12/31 18:19:16.9  -0.2                          T   001.0                                4806222
VIVF  002.69 279.2 m E P       2011/12/31 18:19:18.8  -1.1                          T                                        4808824
VIVF  002.69 279.2 m E Sn      2011/12/31 18:19:48.3   0.0                          T   001.0        3.1  .40 Ml 2.2         4806223
CABF  002.68 323.4 m E P       2011/12/31 18:19:19.4  -0.3                          T   001.0                                4806214
CABF  002.68 323.4 m E Sn      2011/12/31 18:19:47.8  -0.4                          T                1.7  .37 Ml 2.0         4808811
LASF  003.29 264.4 m E P       2011/12/31 18:19:27.6  -0.8                          T   001.0                                4806200
HINF  003.50 342.6 m E Pn      2011/12/31 18:19:28.5   0.3                          T   001.0                                4806215
HINF  003.50 342.6 m E Sn      2011/12/31 18:20:08.1   0.3                          T   001.0        1.2  .24 Ml 2.2         4806216
HAU   003.80 338.7 m E Pn      2011/12/31 18:19:33.0   0.7                          T   001.0                                4806199
HAU   003.80 338.7 m E Sn      2011/12/31 18:20:15.1   0.2                          T                3.4  .26 Ml 2.5         4808810
SMF   003.86 305.6 m E Pn      2011/12/31 18:19:34.0   0.9                          T   001.0                                4806212
SMF   003.86 305.6 m E Sn      2011/12/31 18:20:16.4   0.0                          T   001.0        3.3  .60 Ml 2.4         4806213
THEF  004.10 336.8 m E Pn      2011/12/31 18:19:36.5   0.2                          T                                        4808826
CDF   004.00 349.2 m E Pn      2011/12/31 18:19:36.5   1.4                          T   001.0                                4806196
LOR   004.22 312.8 m E Pn      2011/12/31 18:19:38.9   0.9                          T   001.0                                4806203
LOR   004.22 312.8 m E Sn      2011/12/31 18:20:27.7   2.8                          T   001.0        2.5  .32 Ml 2.6         4806204
AVF   004.23 304.8 m E Pn      2011/12/31 18:19:39.0   1.0                          T   001.0                                4806193
BGF   004.42 299.9 m E Pn      2011/12/31 18:19:41.5   0.8                          T   001.0                                4806194
CAF   004.54 277.8 m E Pn      2011/12/31 18:19:43.0   0.7                          T   001.0                                4806195
RJF   004.96 281.9 m E P       2011/12/31 18:19:51.9  -0.2                          T                                        4808825

.
