EVENT     267495
    Date      Time       Latitude Longitude    Depth    Ndef Nsta Gap    Mag1  N    Mag2  N    Mag3  N   Author         ID
       rms   OT_Error      Smajor Sminor Az        Err   mdist  Mdist     Err        Err        Err      Quality

2011/12/15 16:44:40.1     42.9145    -.5768     15.0       6    3 152             Md 1.3  2              js067245    267515

      0.17   +-  0.11       7.6    1.8    7.02 +-  0.0    0.02   0.68              +-0.2                 m i ke

PYRENEES
Sta     Dist  EvAz     Phase      Date       Time     TRes  Azim  AzRes  Slow  SRes Def   SNR       Amp   Per   Mag1   Mag2       ID
ETSF  000.02 140.9 m E Pg      2011/12/15 16:44:43.0   0.0                          T                                        4801274
ETSF  000.02 140.9 m E Sg      2011/12/15 16:44:45.2   0.3                          T               12.9  .20        Md 1.5  4801275
SJPF  000.52 292.9 m E Pg      2011/12/15 16:44:50.1  -0.1                          T                                        4801272
SJPF  000.52 292.9 m E Sg      2011/12/15 16:44:57.6   0.4                          T                2.2  .26        Md 1.2  4801273
EPF   000.68 079.9 m E Pg      2011/12/15 16:44:53.3   0.0                          T                                        4801270
EPF   000.68 079.9 m E Sg      2011/12/15 16:45:02.5   0.1                          T                1.3  .20                4801271

.
EVENT     267492
    Date      Time       Latitude Longitude    Depth    Ndef Nsta Gap    Mag1  N    Mag2  N    Mag3  N   Author         ID
       rms   OT_Error      Smajor Sminor Az        Err   mdist  Mdist     Err        Err        Err      Quality

2011/12/15 18:22:47.9     47.4425    7.7505     10.0      27    8 104  Ml 2.3  8  Md 2.2  4              js067245    267512

      0.28   +-  0.04        .9     .6  170.74 +-  0.0    0.11   2.65   +-0.2      +-0.0                 m i ke

SWITZERLAND
Sta     Dist  EvAz     Phase      Date       Time     TRes  Azim  AzRes  Slow  SRes Def   SNR       Amp   Per   Mag1   Mag2       ID
HINF  000.71 302.0 m E Pg      2011/12/15 18:23:01.4  -0.1                          T                                        4801313
HINF  000.71 302.0 m E Sg      2011/12/15 18:23:10.7  -0.1                          T                5.1  .14        Md 2.2  4801312
CDF   001.02 342.0 m E Pg      2011/12/15 18:23:06.9  -0.3                          T                                        4801303
CDF   001.02 342.0 m E Sg      2011/12/15 18:23:20.5   0.0                          T                9.0  .28 Ml 2.4 Md 2.2  4801304
HAU   001.10 301.3 m E Pn      2011/12/15 18:23:07.8   0.0                          T                                        4801306
HAU   001.10 301.3 m E Pg      2011/12/15 18:23:08.5  -0.1                          T                                        4801310
HAU   001.10 301.3 m E Sg      2011/12/15 18:23:22.8  -0.1                          T               22.8  .28 Ml 2.6 Md 2.1  4801311
THEF  001.42 304.2 m E Pn      2011/12/15 18:23:12.1   0.0                          T                                        4801320
THEF  001.42 304.2 m E Pg      2011/12/15 18:23:14.6   0.1                          T                                        4801309
THEF  001.42 304.2 m E Sg      2011/12/15 18:23:32.7  -0.1                          T                8.7  .21 Ml 2.6         4801308
CABF  001.41 234.4 m E Pg      2011/12/15 18:23:13.9  -0.4                          T                                        4801307
CABF  001.41 234.4 m E Sn      2011/12/15 18:23:29.7   0.1                          T                                        4801322
CABF  001.41 234.4 m E Sg      2011/12/15 18:23:32.2  -0.3                          T                2.1  .18 Ml 2.1 Md 2.2  4801305
LANF  001.54 001.3 m E Sg      2011/12/15 18:23:36.6   0.0                          T                2.1  .21 Ml 2.0         4801324
SFTF  001.98 293.7 m E Sg      2011/12/15 18:23:50.3   0.0                          T                1.9  .18 Ml 2.2         4801325
LOR   002.65 267.7 m E Sg      2011/12/15 18:24:11.3   0.1                          T                1.3  .21 Ml 2.1         4801323

.
EVENT     267612
    Date      Time       Latitude Longitude    Depth    Ndef Nsta Gap    Mag1  N    Mag2  N    Mag3  N   Author         ID
       rms   OT_Error      Smajor Sminor Az        Err   mdist  Mdist     Err        Err        Err      Quality

2011/12/15 19:34:49.7     42.9591     .1430      2.0       8    4 188  Ml 1.7  2  Md 1.5  2              js067245    267632

      0.05   +-  0.03       2.2     .3  170.41 +-  0.0    0.16   1.57   +-0.1      +-0.4                 m i ke

PYRENEES
Sta     Dist  EvAz     Phase      Date       Time     TRes  Azim  AzRes  Slow  SRes Def   SNR       Amp   Per   Mag1   Mag2       ID
EPF   000.16 063.7 m E Pg      2011/12/15 19:34:53.1   0.0                          T                                        4802485
EPF   000.16 063.7 m E Sg      2011/12/15 19:34:55.3  -0.1                          T               34.9  .22        Md 1.8  4802486
ETSF  000.52 263.6 m E Pg      2011/12/15 19:34:59.7   0.0                          T                                        4802481
ETSF  000.52 263.6 m E Sg      2011/12/15 19:35:06.5   0.0                          T                5.6  .27        Md 1.3  4802484
SJPF  001.01 279.2 m E Pg      2011/12/15 19:35:08.7   0.0                          T                                        4802479
SJPF  001.01 279.2 m E Sg      2011/12/15 19:35:21.8   0.0                          T                1.3  .19 Ml 1.7         4802480
MTLF  001.57 075.2 m E Pg      2011/12/15 19:35:18.8   0.0                          T                                        4802482
MTLF  001.57 075.2 m E Sg      2011/12/15 19:35:39.2   0.1                          T                 .9  .16 Ml 1.8         4802483

.
EVENT     267494
    Date      Time       Latitude Longitude    Depth    Ndef Nsta Gap    Mag1  N    Mag2  N    Mag3  N   Author         ID
       rms   OT_Error      Smajor Sminor Az        Err   mdist  Mdist     Err        Err        Err      Quality

2011/12/15 21:38:24.6     45.9636    7.2466      2.0      24    5 069  Ml 1.5  2  Md 1.6  2              js067245    267514

      0.26   +-  0.05       1.0     .8   97.46 +-  0.0    0.16   1.42   +-0.3      +-0.0                 m i ke

NORTHERN ITALY
Sta     Dist  EvAz     Phase      Date       Time     TRes  Azim  AzRes  Slow  SRes Def   SNR       Amp   Per   Mag1   Mag2       ID
LPL   000.57 219.0 m E Pg      2011/12/15 21:38:35.7   0.0                          T                                        4801339
LPL   000.57 219.0 m E Sg      2011/12/15 21:38:43.9   0.6                          T                2.5  .26        Md 1.6  4801336
LPG   000.58 216.8 m E Pg      2011/12/15 21:38:35.9  -0.1                          T                                        4801338
LPG   000.58 216.8 m E Sg      2011/12/15 21:38:43.5  -0.2                          T                1.2  .19        Md 1.6  4801337
CABF  001.03 309.3 m E Pg      2011/12/15 21:38:43.7  -0.3                          T                                        4801333
CABF  001.03 309.3 m E Sg      2011/12/15 21:38:56.8  -0.6                          T                 .7  .21 Ml 1.3         4801332
MBDF  001.28 195.3 m E Pg      2011/12/15 21:38:49.0   0.3                          T                                        4801340
MBDF  001.28 195.3 m E Sg      2011/12/15 21:39:05.1  -0.2                          T                                        4801334
ORIF  001.42 223.1 m E Sg      2011/12/15 21:39:10.2   0.6                          T                1.2  .25 Ml 1.7         4801335

.
EVENT     267493
    Date      Time       Latitude Longitude    Depth    Ndef Nsta Gap    Mag1  N    Mag2  N    Mag3  N   Author         ID
       rms   OT_Error      Smajor Sminor Az        Err   mdist  Mdist     Err        Err        Err      Quality

2011/12/15 21:43:06.1     43.7677    6.4359      2.0      17    8 115  Ml 1.6  5  Md 1.5  3              js067245    267513

      0.32   +-  0.08       2.1    1.3   58.93 +-  0.0    0.26   1.76   +-0.1      +-0.2                 m i ke

NEAR SOUTH COAST OF FRANCE
Sta     Dist  EvAz     Phase      Date       Time     TRes  Azim  AzRes  Slow  SRes Def   SNR       Amp   Per   Mag1   Mag2       ID
FRF   000.26 143.4 m E Pg      2011/12/15 21:43:10.9  -0.4                          T                                        4801346
FRF   000.26 143.4 m E Sg      2011/12/15 21:43:15.4   0.7                          T                8.9  .27        Md 1.8  4801345
LMR   000.44 173.0 m E Pg      2011/12/15 21:43:14.5   0.0                          T                                        4801344
LMR   000.44 173.0 m E Sg      2011/12/15 21:43:21.0   0.7                          T                2.5  .21        Md 1.4  4801343
SMRF  000.66 288.8 m E Pg      2011/12/15 21:43:18.1  -0.5                          T                                        4801342
SMRF  000.66 288.8 m E Sg      2011/12/15 21:43:27.5   0.3                          T                1.3  .30        Md 1.3  4801341
SBF   000.73 082.1 m E Pg      2011/12/15 21:43:20.1   0.1                          T                                        4801365
SBF   000.73 082.1 m E Sg      2011/12/15 21:43:29.4  -0.2                          T                8.6  .35                4801364
MBDF  000.99 014.0 m E Pn      2011/12/15 21:43:25.6   0.0                          T                                        4801363
MBDF  000.99 014.0 m E Sg      2011/12/15 21:43:37.5  -0.2                          T                1.7  .23 Ml 1.7         4801362
ORIF  001.22 341.1 m E Pg      2011/12/15 21:43:29.1   0.1                          T                                        4801367
ORIF  001.22 341.1 m E Sg      2011/12/15 21:43:45.0   0.2                          T                3.4  .44 Ml 1.8         4801366
VIVF  001.67 311.3 m E Sn      2011/12/15 21:43:55.9   0.5                          T                                        4801360
VIVF  001.67 311.3 m E Sg      2011/12/15 21:43:58.7  -0.1                          T                 .5  .22 Ml 1.5         4801361
LPL   001.76 006.8 m E Sg      2011/12/15 21:44:01.5  -0.4                          T                 .6  .17 Ml 1.7         4801359

.
EVENT     267502
    Date      Time       Latitude Longitude    Depth    Ndef Nsta Gap    Mag1  N    Mag2  N    Mag3  N   Author         ID
       rms   OT_Error      Smajor Sminor Az        Err   mdist  Mdist     Err        Err        Err      Quality

2011/12/15 23:39:35.6     48.5471    8.9552     13.6      23    5 051  Ml 2.2  4  Md 2.1  2              js067245    267522

      0.31   +-  0.04        .8     .8  155.01 +-  0.5    0.09   2.00   +-0.4      +-0.1                 m i ke

GERMANY
Sta     Dist  EvAz     Phase      Date       Time     TRes  Azim  AzRes  Slow  SRes Def   SNR       Amp   Per   Mag1   Mag2       ID
LANF  000.88 300.1 m E Pg      2011/12/15 23:39:52.5   0.3                          T                                        4801368
LANF  000.88 300.1 m E Sg      2011/12/15 23:40:03.2  -0.5                          T                5.1  .24 Ml 2.1 Md 2.0  4801372
CDF   001.13 263.7 m E Pn      2011/12/15 23:39:55.5  -0.1                          T                                        4801377
CDF   001.13 263.7 m E Pg      2011/12/15 23:39:56.8  -0.1                          T                                        4802496
CDF   001.13 263.7 m E Sn      2011/12/15 23:40:09.8   0.0                          T                                        4802495
CDF   001.13 263.7 m E Sg      2011/12/15 23:40:11.4  -0.1                          T                4.0  .20 Ml 2.3 Md 2.2  4801378
HINF  001.59 243.3 m E Pg      2011/12/15 23:40:05.1  -0.2                          T                                        4801375
HINF  001.59 243.3 m E Sn      2011/12/15 23:40:20.6  -0.2                          T                                        4802494
HINF  001.59 243.3 m E Sg      2011/12/15 23:40:25.7   0.0                          T                  1  .19 Ml 1.8         4801376
RUP   001.70 313.6 m E Sn      2011/12/15 23:40:23.5   0.0                          T                                        4801370
RUP   001.70 313.6 m E Sg      2011/12/15 23:40:28.9  -0.4                          T                                        4801369
THEF  002.00 261.9 m E Sn      2011/12/15 23:40:30.7   0.1                          T                                        4801374
THEF  002.00 261.9 m E Sg      2011/12/15 23:40:38.5  -0.1                          T                7.0  .24 Ml 2.7         4801373

.
EVENT     267498
    Date      Time       Latitude Longitude    Depth    Ndef Nsta Gap    Mag1  N    Mag2  N    Mag3  N   Author         ID
       rms   OT_Error      Smajor Sminor Az        Err   mdist  Mdist     Err        Err        Err      Quality

2011/12/16 03:04:08.5     42.7475    1.9241      5.0 f    44    8 064  Ml 2.1  7  Md 1.9  3              js067245    267518

      0.26   +-  0.03        .7     .6  117.31 +-  0.0    0.21   2.90   +-0.2      +-0.2                 m i ke

PYRENEES
Sta     Dist  EvAz     Phase      Date       Time     TRes  Azim  AzRes  Slow  SRes Def   SNR       Amp   Per   Mag1   Mag2       ID
MTLF  000.63 019.8 m E Pg      2011/12/16 03:04:20.1  -0.3                          T                                        4801398
MTLF  000.63 019.8 m E Pn      2011/12/16 03:04:22.5   0.0                          T                                        4801399
MTLF  000.63 019.8 m E Sg      2011/12/16 03:04:29.0   0.3                          T                                Md 2.0  4801395
MTLF  000.63 019.8 m E Sn      2011/12/16 03:04:32.0  -0.4                          T               32.0  .22        Md 2.0  4801397
EPF   001.20 284.2 m E Pn      2011/12/16 03:04:30.7   0.4                          T                                        4801396
EPF   001.20 284.2 m E Sg      2011/12/16 03:04:46.9   0.4                          T                1.9  .21 Ml 1.9 Md 1.6  4801391
LASF  001.94 046.0 m E Pn      2011/12/16 03:04:41.3   0.9                          T                                        4801393
LASF  001.94 046.0 m E Pg      2011/12/16 03:04:44.5   0.0                          T                                        4801394
LASF  001.94 046.0 m E Sg      2011/12/16 03:05:09.5   0.1                          T                1.3  .20 Ml 2.0         4801392
ETSF  001.83 275.6 m E Pg      2011/12/16 03:04:42.6   0.0                          T                                        4801384
ETSF  001.83 275.6 m E Sg      2011/12/16 03:05:06.2  -0.1                          T                1.3  .22 Ml 2.0         4801390
CAF   002.18 002.6 m E Pg      2011/12/16 03:04:49.0   0.0                          T                                        4801383
CAF   002.18 002.6 m E Sg      2011/12/16 03:05:17.2   0.1                          T                3.1  .24 Ml 2.4         4801389
LFF   002.35 339.1 m E Pg      2011/12/16 03:04:52.4   0.3                          T                                        4801382
LFF   002.35 339.1 m E Sg      2011/12/16 03:05:22.1  -0.3                          T                2.7  .19 Ml 2.3         4801388
VIVF  002.90 042.4 m E Pg      2011/12/16 03:05:02.2   0.0                          T                                        4801385
VIVF  002.90 042.4 m E Sg      2011/12/16 03:05:40.1   0.6                          T                  1  .23 Ml 2.0         4801386
RJF   002.57 353.6 m E Sg      2011/12/16 03:05:29.6   0.3                          T                1.9  .21 Ml 2.0         4801387

.
EVENT     267504
    Date      Time       Latitude Longitude    Depth    Ndef Nsta Gap    Mag1  N    Mag2  N    Mag3  N   Author         ID
       rms   OT_Error      Smajor Sminor Az        Err   mdist  Mdist     Err        Err        Err      Quality

2011/12/16 06:55:45.8     47.8524   14.2497     10.0      53   11 042  Ml 2.9  6                         js067245    267524

      0.74   +-  0.12       2.7    2.1   64.25 +-  0.0    0.01   8.16   +-0.3                            m i ke

AUSTRIA
Sta     Dist  EvAz     Phase      Date       Time     TRes  Azim  AzRes  Slow  SRes Def   SNR       Amp   Per   Mag1   Mag2       ID
HINF  004.98 272.3 m E Pn      2011/12/16 06:56:58.6   0.0                          T                                        4802570
HINF  004.98 272.3 m E Sn      2011/12/16 06:57:53.2   0.3                          T                                        4802556
HINF  004.98 272.3 m E Sg      2011/12/16 06:58:22.2   0.3                          T                7.0  .37 Ml 3.1         4802557
RUP   005.10 293.9 m E Pn      2011/12/16 06:56:59.7  -0.5                          T                                        4802571
THEF  005.55 276.9 m E Pn      2011/12/16 06:57:06.4   0.1                          T                                        4802569
LPL   005.68 248.5 m E Pn      2011/12/16 06:57:08.3   0.0                          T                                        4802562
LPL   005.68 248.5 m E P       2011/12/16 06:57:12.8   0.1                          T                                        4802563
PAGF  005.74 280.2 m E Pn      2011/12/16 06:57:08.7  -0.2                          T                                        4802568
PAGF  005.74 280.2 m E Sg      2011/12/16 06:58:45.8   0.2                          T                 .7  .16 Ml 2.7         4802554
LPG   005.67 248.2 m E P       2011/12/16 06:57:12.7  -0.1                          T                                        4802561
LPG   005.67 248.2 m E Sn      2011/12/16 06:58:10.1   0.4                          T                                        4802559
LPG   005.67 248.2 m E Sg      2011/12/16 06:58:43.7  -0.1                          T                  1  .26 Ml 2.6         4802560
MBDF  006.05 241.7 m E Pn      2011/12/16 06:57:13.2  -0.1                          T                                        4802566
MBDF  006.05 241.7 m E P       2011/12/16 06:57:17.9   0.0                          T                                        4802565
MBDF  006.05 241.7 m E Sn      2011/12/16 06:58:18.8   0.3                          T                1.1  .24 Ml 2.8         4802558
ORIF  006.49 246.2 m E P       2011/12/16 06:57:22.5  -1.5                          T                                        4802564
LASF  008.16 246.3 m E Pn      2011/12/16 06:57:41.7  -0.2                          T                                        4802567
CDF   004.70 279.4 m E Sg      2011/12/16 06:58:13.5   0.2                          T                6.9  .34 Ml 3.2         4802553
HAU   005.31 274.6 m E Sg      2011/12/16 06:58:32.5   0.2                          T                4.7  .26 Ml 3.0         4802555

.
