EVENT     259975
    Date      Time       Latitude Longitude    Depth    Ndef Nsta Gap    Mag1  N    Mag2  N    Mag3  N   Author         ID
       rms   OT_Error      Smajor Sminor Az        Err   mdist  Mdist     Err        Err        Err      Quality

2011/06/05 13:30:40.7     43.0393    -.6290      2.0      48   11 046  Ml 2.4  9  Md 2.6  3              js067245    259975

      0.83   +-  0.09       2.2    1.6  177.56 +-  0.0    0.07   5.35   +-0.2      +-0.1                 m i ke

PYRENEES
Sta     Dist  EvAz     Phase      Date       Time     TRes  Azim  AzRes  Slow  SRes Def   SNR       Amp   Per   Mag1   Mag2       ID
ETSF  000.15 160.0 m E Pg      2011/06/05 13:30:43.6  -0.3                          T   001.0                                4701548
ETSF  000.15 160.0 m E Sg      2011/06/05 13:30:45.8  -0.2                          T   001.0      136.9  .26        Md 2.5  4701547
SJPF  000.44 279.8 m E Pg      2011/06/05 13:30:48.2  -1.0                          T                                        4704219
SJPF  000.44 279.8 m E Sg      2011/06/05 13:30:54.9  -0.2                          T   001.0       20.8  .24        Md 2.5  4701551
EPF   000.71 090.4 m E Pg      2011/06/05 13:30:52.8  -1.3                          T   001.0                                4701535
EPF   000.71 090.4 m E Sg      2011/06/05 13:31:03.2  -0.3                          T   001.0       17.2  .34        Md 2.6  4701536
MTLF  002.10 080.8 m E Pn      2011/06/05 13:31:15.6   0.5                          T   001.0                                4701549
MTLF  002.10 080.8 m E Pg      2011/06/05 13:31:19.9   0.1                          T                                        4704220
MTLF  002.10 080.8 m E Sn      2011/06/05 13:31:41.3   1.0                          T                3.6  .25 Ml 2.4         4704222
LFF   002.14 027.0 m E Pn      2011/06/05 13:31:16.0   0.4                          T   001.0                                4701539
LFF   002.14 027.0 m E Pg      2011/06/05 13:31:20.9   0.5                          T                                        4704225
LFF   002.14 027.0 m E Sg      2011/06/05 13:31:48.8   0.8                          T   001.0          9  .28 Ml 2.6         4701540
CAF   002.71 044.9 m E Pn      2011/06/05 13:31:23.5   0.1                          T                                        4704224
CAF   002.71 044.9 m E Pg      2011/06/05 13:31:32.1   1.2                          T                                        4704223
CAF   002.71 044.9 m E Sg      2011/06/05 13:32:06.6   0.8                          T   001.0          2  .24 Ml 2.3         4701534
RJF   002.74 033.5 m E Pn      2011/06/05 13:31:24.5   0.7                          T   001.0                                4701532
RJF   002.74 033.5 m E Pg      2011/06/05 13:31:31.8   0.3                          T                                        4704226
RJF   002.74 033.5 m E Sg      2011/06/05 13:32:07.5   0.8                          T   001.0        2.9  .24 Ml 2.1         4701533
TCF   003.83 031.0 m E Pn      2011/06/05 13:31:39.2   0.6                          T   001.0                                4701543
TCF   003.83 031.0 m E Sn      2011/06/05 13:32:22.1   0.5                          T   001.0                                4701544
TCF   003.83 031.0 m E Sg      2011/06/05 13:32:41.7   1.0                          T   001.0        2.0  .29 Ml 2.5         4701545
LASF  003.42 070.8 m E Sg      2011/06/05 13:32:28.8   0.8                          T                1.0  .26 Ml 2.1         4704221
MFF   003.58 005.3 m E Sg      2011/06/05 13:32:33.2   0.4                          T                1.7  .36 Ml 2.4         4704227
GRR   005.35 358.4 m E Sn      2011/06/05 13:32:57.1  -0.8                          T   001.0        1.7  .24 Ml 2.7         4701538

.
EVENT     259976
    Date      Time       Latitude Longitude    Depth    Ndef Nsta Gap    Mag1  N    Mag2  N    Mag3  N   Author         ID
       rms   OT_Error      Smajor Sminor Az        Err   mdist  Mdist     Err        Err        Err      Quality

2011/06/05 13:32:33.7     43.1117    -.6014      2.0      26    6 094  Ml 1.8  3  Md 2.0  2              js067245    259976

      0.51   +-  0.08       1.9    1.2    6.38 +-  0.0    0.08   2.67   +-0.3      +-0.1                 m i ke

PYRENEES
Sta     Dist  EvAz     Phase      Date       Time     TRes  Azim  AzRes  Slow  SRes Def   SNR       Amp   Per   Mag1   Mag2       ID
ETSF  000.22 171.7 m E Pg      2011/06/05 13:32:37.7  -0.5                          T                                        4704237
ETSF  000.22 171.7 m E Sg      2011/06/05 13:32:40.4  -0.7                          T               62.1  .22        Md 1.9  4704238
SJPF  000.46 270.4 m E Pg      2011/06/05 13:32:42.3  -0.2                          T                                        4704239
SJPF  000.46 270.4 m E Sg      2011/06/05 13:32:48.3  -0.3                          T                9.2  .24        Md 2.1  4704240
EPF   000.69 096.4 m E Pg      2011/06/05 13:32:47.2   0.2                          T                                        4704235
EPF   000.69 096.4 m E Sg      2011/06/05 13:32:57.1   1.1                          T                4.4  .22                4704236
MTLF  002.07 082.7 m E Pg      2011/06/05 13:33:12.1  -0.2                          T                                        4704233
MTLF  002.07 082.7 m E Sg      2011/06/05 13:33:38.8  -0.2                          T                1.1  .25 Ml 1.9         4704234
LFF   002.07 027.4 m E Pg      2011/06/05 13:33:12.1   0.0                          T                                        4704229
LFF   002.07 027.4 m E Sg      2011/06/05 13:33:38.4  -0.4                          T                2.7  .22 Ml 2.1         4704232
RJF   002.67 034.1 m E Pg      2011/06/05 13:33:23.4   0.1                          T                                        4704230
RJF   002.67 034.1 m E Sg      2011/06/05 13:33:57.1  -0.5                          T                 .6  .19 Ml 1.5         4704231

.
EVENT     259977
    Date      Time       Latitude Longitude    Depth    Ndef Nsta Gap    Mag1  N    Mag2  N    Mag3  N   Author         ID
       rms   OT_Error      Smajor Sminor Az        Err   mdist  Mdist     Err        Err        Err      Quality

2011/06/05 13:35:20.7     43.0735    -.5893      2.0       6    3 172             Md 1.8  2              js067245    259977

      0.19   +-  0.06       2.1     .9    4.31 +-  0.0    0.08   0.68              +-0.1                 m i ke

PYRENEES
Sta     Dist  EvAz     Phase      Date       Time     TRes  Azim  AzRes  Slow  SRes Def   SNR       Amp   Per   Mag1   Mag2       ID
ETSF  000.18 172.8 m E Pg      2011/06/05 13:35:24.3   0.0                          T                                        4704245
ETSF  000.18 172.8 m E Sg      2011/06/05 13:35:27.0   0.1                          T               14.4  .24        Md 1.8  4704246
SJPF  000.47 275.1 m E Pg      2011/06/05 13:35:28.7  -0.9                          T                                        4704243
SJPF  000.47 275.1 m E Sg      2011/06/05 13:35:35.9   0.0                          T                2.0  .25        Md 1.7  4704244
EPF   000.68 093.3 m E Pg      2011/06/05 13:35:33.5  -0.1                          T                                        4704241
EPF   000.68 093.3 m E Sg      2011/06/05 13:35:42.5  -0.1                          T                 .9  .22                4704242

.
EVENT     259979
    Date      Time       Latitude Longitude    Depth    Ndef Nsta Gap    Mag1  N    Mag2  N    Mag3  N   Author         ID
       rms   OT_Error      Smajor Sminor Az        Err   mdist  Mdist     Err        Err        Err      Quality

2011/06/05 18:41:34.3     42.9094     .2742      2.0       7    4 196  Ml 1.1  2  Md 1.3  2              js067245    259979

      0.28   +-  0.18       6.0    2.2  165.15 +-  0.0    0.13   1.49   +-0.2      +-0.1                 m i ke

PYRENEES
Sta     Dist  EvAz     Phase      Date       Time     TRes  Azim  AzRes  Slow  SRes Def   SNR       Amp   Per   Mag1   Mag2       ID
EPF   000.13 021.8 m E Pg      2011/06/05 18:41:36.9  -0.2                          T                                        4704252
EPF   000.13 021.8 m E Sg      2011/06/05 18:41:39.4   0.4                          T                2.6  .20        Md 1.4  4704253
ETSF  000.61 269.3 m E Pg      2011/06/05 18:41:46.0   0.0                          T                                        4704250
ETSF  000.61 269.3 m E Sg      2011/06/05 18:41:54.2   0.2                          T                1.1  .21        Md 1.3  4704251
MTLF  001.49 072.5 m E Pg      2011/06/05 18:42:01.9  -0.1                          T                                        4704248
MTLF  001.49 072.5 m E Sn      2011/06/05 18:42:19.8   0.6                          T                 .4  .24 Ml 1.3         4704249
SJPF  001.12 281.0 m E Sg      2011/06/05 18:42:09.6  -0.1                          T                 .2  .20 Ml  .9         4704247

.
EVENT     260002
    Date      Time       Latitude Longitude    Depth    Ndef Nsta Gap    Mag1  N    Mag2  N    Mag3  N   Author         ID
       rms   OT_Error      Smajor Sminor Az        Err   mdist  Mdist     Err        Err        Err      Quality

2011/06/06 11:26:44.1     43.8475   11.9717      2.0      34   16 183  Ml 3.0 14                         js067245    260002

      0.30   +-  0.13       2.9    1.9   56.17 +-  0.0    0.11   6.64   +-0.3                            m i ke

CENTRAL ITALY
Sta     Dist  EvAz     Phase      Date       Time     TRes  Azim  AzRes  Slow  SRes Def   SNR       Amp   Per   Mag1   Mag2       ID
PGF   002.53 240.2 m E Pn      2011/06/06 11:27:24.6   0.1                          T                                        4704440
PGF   002.53 240.2 m E Sn      2011/06/06 11:27:54.3   0.2                          T                5.6  .38 Ml 2.7         4704415
SBF   003.28 271.8 m E Pn      2011/06/06 11:27:33.3  -1.3                          T                                        4704441
SBF   003.28 271.8 m E Sn      2011/06/06 11:28:12.5   0.6                          T               25.5  .36 Ml 3.3         4704416
MBDF  003.84 285.0 m E Pn      2011/06/06 11:27:42.1  -0.2                          T                                        4704432
MBDF  003.84 285.0 m E Sn      2011/06/06 11:28:25.1  -0.3                          T                6.9  .31 Ml 3.0         4704423
FRF   003.87 267.6 m E Pn      2011/06/06 11:27:42.2  -0.4                          T                                        4704438
FRF   003.87 267.6 m E Sn      2011/06/06 11:28:26.1   0.1                          T                4.5  .29 Ml 2.8         4704418
LMR   004.00 264.5 m E Pn      2011/06/06 11:27:44.0  -0.4                          T                                        4704439
LMR   004.00 264.5 m E Sn      2011/06/06 11:28:29.1   0.1                          T                2.1  .22 Ml 2.6         4704417
LPG   004.07 295.7 m E Pn      2011/06/06 11:27:45.7   0.0                          T                                        4704435
LPG   004.07 295.7 m E P       2011/06/06 11:27:49.2   0.0                          T                                        4704436
LPG   004.07 295.7 m E Sn      2011/06/06 11:28:31.2   0.1                          T                6.6  .35 Ml 2.9         4704420
LPL   004.09 295.9 m E P       2011/06/06 11:27:49.5   0.0                          T                                        4704434
LPL   004.09 295.9 m E Sn      2011/06/06 11:28:31.4  -0.2                          T                7.9  .36 Ml 3.0         4704421
ORIF  004.50 285.9 m E Pn      2011/06/06 11:27:52.1   0.9                          T                                        4704433
ORIF  004.50 285.9 m E Sn      2011/06/06 11:28:41.1   0.1                          T                6.0  .46 Ml 2.9         4704422
SMRF  004.62 273.8 m E Pn      2011/06/06 11:27:53.0   0.1                          T                                        4704437
SMRF  004.62 273.8 m E Sn      2011/06/06 11:28:44.3   0.3                          T                1.6  .28 Ml 2.6         4704419
CABF  004.99 305.7 m E Pn      2011/06/06 11:27:59.2   1.3                          T                                        4704442
HINF  005.34 319.8 m E Pn      2011/06/06 11:28:02.5  -0.2                          T                                        4704429
HINF  005.34 319.8 m E Sn      2011/06/06 11:29:01.3   0.1                          T                9.7  .38 Ml 3.4         4704425
VIVF  005.33 283.4 m E Pn      2011/06/06 11:28:02.6   0.1                          T                                        4704431
CDF   005.61 326.1 m E Pn      2011/06/06 11:28:06.8   0.4                          T                                        4704444
CDF   005.61 326.1 m E Sn      2011/06/06 11:29:07.7   0.1                          T                6.6  .37 Ml 3.4         4704427
HAU   005.72 318.6 m E Pn      2011/06/06 11:28:08.4   0.7                          T                                        4704443
HAU   005.72 318.6 m E Sn      2011/06/06 11:29:10.2   0.1                          T               16.2  .38 Ml 3.4         4704426
SMF   006.38 298.8 m E Pn      2011/06/06 11:28:16.3  -0.6                          T                                        4704430
SMF   006.38 298.8 m E Sn      2011/06/06 11:29:26.4   0.4                          T                2.7  .33 Ml 3.1         4704424
LOR   006.64 303.8 m E Pn      2011/06/06 11:28:21.6   1.2                          T                                        4704445
LOR   006.64 303.8 m E Sn      2011/06/06 11:29:32.6   0.4                          T                7.8  .41 Ml 3.5         4704428

.
EVENT     260057
    Date      Time       Latitude Longitude    Depth    Ndef Nsta Gap    Mag1  N    Mag2  N    Mag3  N   Author         ID
       rms   OT_Error      Smajor Sminor Az        Err   mdist  Mdist     Err        Err        Err      Quality

2011/06/06 14:06:50.6     48.3694   -4.4826      2.0      18    9 320  Ml 1.9  2  Md 2.0  2              js067245    260057

      0.81   +-  0.40       7.4    7.0   45.54 +-  0.0    0.81   5.73   +-0.3      +-0.0                 m i ke

FRANCE
Sta     Dist  EvAz     Phase      Date       Time     TRes  Azim  AzRes  Slow  SRes Def   SNR       Amp   Per   Mag1   Mag2       ID
ROSF  000.81 091.9 m E Pg      2011/06/06 14:07:05.3  -0.4                          T                                        4704467
ROSF  000.81 091.9 m E Pn      2011/06/06 14:07:07.1  -0.2                          T                                        4704468
ROSF  000.81 091.9 m E Sg      2011/06/06 14:07:16.5   0.2                          T                                        4704469
ROSF  000.81 091.9 m E Sn      2011/06/06 14:07:18.7  -0.5                          T                4.6  .23        Md 1.9  4704470
QUIF  000.99 116.7 m E Pg      2011/06/06 14:07:08.6  -0.5                          T                                        4704462
QUIF  000.99 116.7 m E Pn      2011/06/06 14:07:09.6  -0.2                          T                                        4704461
QUIF  000.99 116.7 m E Sg      2011/06/06 14:07:22.3   0.3                          T                6.4  .27 Ml 2.2 Md 2.0  4704463
SGMF  001.29 094.4 m E Pn      2011/06/06 14:07:13.6  -0.3                          T                                        4704465
SGMF  001.29 094.4 m E Pg      2011/06/06 14:07:14.7   0.1                          T                                        4704464
SGMF  001.29 094.4 m E Sg      2011/06/06 14:07:31.7   0.4                          T                 .9  .16 Ml 1.7         4704466
FLN   002.69 080.1 m E Pn      2011/06/06 14:07:33.1   0.2 263.2  0.1               T                                        4704460
LDF   002.91 084.0 m E Pn      2011/06/06 14:07:36.5   0.6                          T                                        4704459
MFF   003.43 119.4 m E Pn      2011/06/06 14:07:43.8   0.7                          T                                        4704458
AVF   005.53 103.7 m E Pn      2011/06/06 14:08:11.8   0.1                          T                                        4704455
SSF   005.55 100.7 m E Pn      2011/06/06 14:08:12.1   0.2                          T                                        4704456
LOR   005.73 098.0 m E Pn      2011/06/06 14:08:13.9  -0.4 275.2  -8.9              T                                        4704457

.
EVENT     260058
    Date      Time       Latitude Longitude    Depth    Ndef Nsta Gap    Mag1  N    Mag2  N    Mag3  N   Author         ID
       rms   OT_Error      Smajor Sminor Az        Err   mdist  Mdist     Err        Err        Err      Quality

2011/06/06 18:54:58.4     42.7386    2.6101      2.0      31    5 073  Ml 1.6  4  Md 1.8  1              js067245    260058

      0.50   +-  0.07       1.3    1.2   64.55 +-  0.0    0.18   2.46   +-0.2      +-                    m i ke

PYRENEES
Sta     Dist  EvAz     Phase      Date       Time     TRes  Azim  AzRes  Slow  SRes Def   SNR       Amp   Per   Mag1   Mag2       ID
MTLF  000.67 334.6 m E Pg      2011/06/06 18:55:10.8  -0.2                          T                                        4704471
MTLF  000.67 334.6 m E Pn      2011/06/06 18:55:13.6   0.3                          T                                        4704472
MTLF  000.67 334.6 m E Sg      2011/06/06 18:55:20.3   0.5                          T                                        4704473
MTLF  000.67 334.6 m E Sn      2011/06/06 18:55:23.5  -0.2                          T                1.9  .18        Md 1.8  4704474
EPF   001.69 280.7 m E Pn      2011/06/06 18:55:27.3  -0.1                          T                                        4704479
EPF   001.69 280.7 m E Sg      2011/06/06 18:55:51.6  -0.3                          T                 .5  .22 Ml 1.5         4704480
LASF  001.62 033.8 m E Pg      2011/06/06 18:55:28.4  -0.1                          T                                        4704477
LASF  001.62 033.8 m E Sg      2011/06/06 18:55:49.2  -0.2                          T                 .6  .20 Ml 1.6         4704478
ETSF  002.34 275.0 m E Pn      2011/06/06 18:55:35.8  -0.4                          T                                        4704482
ETSF  002.34 275.0 m E Pg      2011/06/06 18:55:41.7  -0.2                          T                                        4704481
ETSF  002.34 275.0 m E Sg      2011/06/06 18:56:11.9  -0.1                          T                 .7  .19 Ml 1.9         4704483
CAF   002.22 349.9 m E Sg      2011/06/06 18:56:08.3   0.0                          T                 .5  .25 Ml 1.5         4704484

.
