EVENT     264265
    Date      Time       Latitude Longitude    Depth    Ndef Nsta Gap    Mag1  N    Mag2  N    Mag3  N   Author         ID
       rms   OT_Error      Smajor Sminor Az        Err   mdist  Mdist     Err        Err        Err      Quality

2011/09/23 01:16:53.9     43.0469    -.0325      2.0      42    8 096  Ml 1.9  6  Md 1.9  2              js067245    264285

      0.42   +-  0.06       1.2     .9    9.80 +-  0.0    0.17   3.01   +-0.1      +-0.1                 m i ke

PYRENEES
Sta     Dist  EvAz     Phase      Date       Time     TRes  Azim  AzRes  Slow  SRes Def   SNR       Amp   Per   Mag1   Mag2       ID
EPF   000.27 093.3 m E Pg      2011/09/23 01:16:59.2  -0.2                          T                                        4760008
EPF   000.27 093.3 m E Sg      2011/09/23 01:17:03.1   0.1                          T               18.8  .24        Md 1.9  4760009
ETSF  000.41 249.2 m E Pg      2011/09/23 01:17:01.6  -0.3                          T                                        4760011
ETSF  000.41 249.2 m E Sg      2011/09/23 01:17:07.3  -0.2                          T               39.4  .27        Md 1.8  4760010
SJPF  000.88 274.8 m E Pg      2011/09/23 01:17:10.3  -0.1                          T                                        4760003
SJPF  000.88 274.8 m E Sg      2011/09/23 01:17:21.6  -0.2                          T                                        4760002
SJPF  000.88 274.8 m E Sn      2011/09/23 01:17:23.7  -0.5                          T                2.8  .27 Ml 1.8         4760001
MTLF  001.67 079.1 m E Pn      2011/09/23 01:17:22.7   0.3                          T                                        4760007
MTLF  001.67 079.1 m E Pg      2011/09/23 01:17:25.1   0.1                          T                                        4760004
MTLF  001.67 079.1 m E Sn      2011/09/23 01:17:43.9   0.7                          T                1.4  .27 Ml 1.8         4760006
LFF   001.97 016.2 m E Pg      2011/09/23 01:17:30.8   0.3                          T                                        4760005
LFF   001.97 016.2 m E Sg      2011/09/23 01:17:55.9   0.0                          T                1.8  .27 Ml 1.9         4760000
CAF   002.41 038.1 m E Pn      2011/09/23 01:17:32.2  -0.3                          T                                        4767782
CAF   002.41 038.1 m E Pg      2011/09/23 01:17:38.4  -0.3                          T                                        4759998
CAF   002.41 038.1 m E Sg      2011/09/23 01:18:10.0   0.3                          T                1.0  .23 Ml 1.9         4759997
RJF   002.52 025.7 m E Pn      2011/09/23 01:17:33.9   0.0                          T                                        4767781
RJF   002.52 025.7 m E Pg      2011/09/23 01:17:40.3  -0.3                          T                                        4759999
RJF   002.52 025.7 m E Sg      2011/09/23 01:18:13.0   0.1                          T                1.4  .20 Ml 1.8         4767784
LASF  003.01 068.7 m E Sg      2011/09/23 01:18:28.4   0.1                          T                  1  .31 Ml 1.9         4767783

.
EVENT     264266
    Date      Time       Latitude Longitude    Depth    Ndef Nsta Gap    Mag1  N    Mag2  N    Mag3  N   Author         ID
       rms   OT_Error      Smajor Sminor Az        Err   mdist  Mdist     Err        Err        Err      Quality

2011/09/23 03:52:01.1     43.1411   -1.3016      2.0       6    3 338  Ml 1.2  1  Md 1.0  2              js067245    264286

      0.45   +-  0.87      27.3   15.4    4.22 +-  0.0    0.06   1.21   +-         +-0.3                 m i ke

PYRENEES
Sta     Dist  EvAz     Phase      Date       Time     TRes  Azim  AzRes  Slow  SRes Def   SNR       Amp   Per   Mag1   Mag2       ID
SJPF  000.06 116.3 m E Pg      2011/09/23 03:52:02.3  -0.4                          T                                        4760015
SJPF  000.06 116.3 m E Sg      2011/09/23 03:52:02.9  -0.9                          T               37.7  .21        Md 1.2  4760014
ETSF  000.60 113.7 m E Pg      2011/09/23 03:52:13.0   0.5                          T                                        4767789
ETSF  000.60 113.7 m E Sg      2011/09/23 03:52:20.1  -0.2                          T                1.4  .26        Md  .8  4760013
EPF   001.21 094.7 m E Pg      2011/09/23 03:52:23.8   0.0                          T                                        4767790
EPF   001.21 094.7 m E Sg      2011/09/23 03:52:39.0  -0.4                          T                 .6  .27 Ml 1.2         4767791

.
EVENT     264308
    Date      Time       Latitude Longitude    Depth    Ndef Nsta Gap    Mag1  N    Mag2  N    Mag3  N   Author         ID
       rms   OT_Error      Smajor Sminor Az        Err   mdist  Mdist     Err        Err        Err      Quality

2011/09/23 13:04:46.9     47.8569    6.5737       .0 f    18    8 093  Ml 1.9  4  Md 2.0  2              js067245    264328

      1.18   +-  0.11       2.4    2.0    1.00 +-  0.0    0.19   1.93   +-0.2      +-0.0                 m i km

FRANCE
Sta     Dist  EvAz     Phase      Date       Time     TRes  Azim  AzRes  Slow  SRes Def   SNR       Amp   Per   Mag1   Mag2       ID
HINF  000.19 102.0 m E Pg      2011/09/23 13:04:51.1   0.0                          T                                        4767802
HINF  000.19 102.0 m E Sg      2011/09/23 13:04:53.9   0.0                          T               62.8  .72        Md 2.0  4767803
HAU   000.21 314.5 m E Pg      2011/09/23 13:04:51.2  -0.2                          T                                        4767809
HAU   000.21 314.5 m E Sg      2011/09/23 13:04:53.9  -0.6                          T              144.0  .70        Md 2.0  4767810
THEF  000.54 313.9 m E Pg      2011/09/23 13:04:57.3  -0.2                          T                                        4767804
THEF  000.54 313.9 m E Sg      2011/09/23 13:05:04.7   0.0                          T               91.0 1.27                4767805
CDF   000.73 040.0 m E Pg      2011/09/23 13:05:01.1   0.0                          T                                        4767796
CDF   000.73 040.0 m E P       2011/09/23 13:05:02.5   0.1                          T                                        4767807
CDF   000.73 040.0 m E Sg      2011/09/23 13:05:10.7  -0.1                          T               20.3  .26                4767808
PAGF  000.90 321.2 m E Pn      2011/09/23 13:05:05.4   0.0                          T                                        4767794
PAGF  000.90 321.2 m E Sn      2011/09/23 13:05:18.5   0.0 148.0  7.4               T                5.2  .47 Ml 1.8         4767795
SFTF  001.09 289.2 m E Pg      2011/09/23 13:05:08.0   0.5 120.5  12.4              T                                        4767806
SFTF  001.09 289.2 m E Sg      2011/09/23 13:05:21.9   0.0 110.6  2.5               T                3.7  .18 Ml 2.2         4767793
CABF  001.29 195.1 m E Pg      2011/09/23 13:05:11.2  -0.3                          T                                        4767800
CABF  001.29 195.1 m E Sg      2011/09/23 13:05:28.8   0.5                          T                1.1  .19 Ml 1.7         4767801
LOR   001.93 253.2 m E Pn      2011/09/23 13:05:19.5   0.1                          T                                        4767798
LOR   001.93 253.2 m E Pg      2011/09/23 13:05:23.2   0.1  70.5  -0.8              T                                        4767797
LOR   001.93 253.2 m E Sg      2011/09/23 13:05:48.3   0.1  67.4  -3.8              T                2.0  .24 Ml 2.1         4767799

.
EVENT     264360
    Date      Time       Latitude Longitude    Depth    Ndef Nsta Gap    Mag1  N    Mag2  N    Mag3  N   Author         ID
       rms   OT_Error      Smajor Sminor Az        Err   mdist  Mdist     Err        Err        Err      Quality

2011/09/23 15:40:16.0     42.9734    -.9180      2.0      34    3 112  Ml 1.7  1  Md 1.8  2              js067245    264380

      0.33   +-  0.07       1.4    1.1  167.15 +-  0.0    0.20   0.92   +-         +-0.1                 m i ke

PYRENEES
Sta     Dist  EvAz     Phase      Date       Time     TRes  Azim  AzRes  Slow  SRes Def   SNR       Amp   Per   Mag1   Mag2       ID
ETSF  000.27 105.7 m E Pg      2011/09/23 15:40:21.1  -0.3                          T                                        4760097
ETSF  000.27 105.7 m E Sg      2011/09/23 15:40:24.6  -0.5                          T               12.2  .20        Md 1.8  4760098
SJPF  000.26 302.0 m E Pg      2011/09/23 15:40:21.5   0.3                          T                                        4760100
SJPF  000.26 302.0 m E Sg      2011/09/23 15:40:25.4   0.6                          T               18.3  .28        Md 1.9  4760099
EPF   000.92 086.0 m E Pg      2011/09/23 15:40:33.3  -0.1                          T                                        4760095
EPF   000.92 086.0 m E Sg      2011/09/23 15:40:45.1  -0.3                          T                2.0  .22 Ml 1.7         4760096

.
EVENT     264361
    Date      Time       Latitude Longitude    Depth    Ndef Nsta Gap    Mag1  N    Mag2  N    Mag3  N   Author         ID
       rms   OT_Error      Smajor Sminor Az        Err   mdist  Mdist     Err        Err        Err      Quality

2011/09/23 18:23:22.1     42.9526    -.9148      2.0      13    3 104  Ml 1.8  1  Md 1.8  2              js067245    264381

      0.52   +-  0.13       4.3    1.9  178.06 +-  0.0    0.21   1.27   +-         +-0.1                 m i ke

PYRENEES
Sta     Dist  EvAz     Phase      Date       Time     TRes  Azim  AzRes  Slow  SRes Def   SNR       Amp   Per   Mag1   Mag2       ID
ETSF  000.27 101.6 m E Pg      2011/09/23 18:23:27.2  -0.2                          T                                        4767815
ETSF  000.27 101.6 m E Sg      2011/09/23 18:23:30.8  -0.2                          T               14.3  .20        Md 1.7  4767811
SJPF  000.28 305.3 m E Pg      2011/09/23 18:23:27.5   0.0                          T                                        4767816
SJPF  000.28 305.3 m E Sg      2011/09/23 18:23:31.5   0.2                          T               21.9  .28        Md 1.8  4767812
EPF   000.92 084.8 m E Pg      2011/09/23 18:23:39.4  -0.1                          T                                        4767814
EPF   000.92 084.8 m E Sg      2011/09/23 18:23:51.2  -0.3                          T                2.3  .24 Ml 1.8         4767813

.
EVENT     264362
    Date      Time       Latitude Longitude    Depth    Ndef Nsta Gap    Mag1  N    Mag2  N    Mag3  N   Author         ID
       rms   OT_Error      Smajor Sminor Az        Err   mdist  Mdist     Err        Err        Err      Quality

2011/09/23 18:57:29.7     42.9198    -.9099      2.0      22    3 097  Ml 1.0  1  Md 1.4  2              js067245    264382

      0.32   +-  0.07       1.5    1.1  154.38 +-  0.0    0.23   0.92   +-         +-0.0                 m i ke

PYRENEES
Sta     Dist  EvAz     Phase      Date       Time     TRes  Azim  AzRes  Slow  SRes Def   SNR       Amp   Per   Mag1   Mag2       ID
ETSF  000.26 094.6 m E Pg      2011/09/23 18:57:35.0   0.1                          T                                        4760108
ETSF  000.26 094.6 m E Sg      2011/09/23 18:57:38.5   0.1                          T                1.7  .21        Md 1.4  4760107
SJPF  000.30 310.0 m E Pg      2011/09/23 18:57:35.4  -0.2                          T                                        4760105
SJPF  000.30 310.0 m E Sg      2011/09/23 18:57:39.3  -0.4                          T                4.0  .25        Md 1.4  4760106
EPF   000.92 082.7 m E Pg      2011/09/23 18:57:47.2   0.1                          T                                        4767820
EPF   000.92 082.7 m E Sg      2011/09/23 18:57:59.0  -0.1                          T                 .4  .22 Ml 1           4767821

.
EVENT     264363
    Date      Time       Latitude Longitude    Depth    Ndef Nsta Gap    Mag1  N    Mag2  N    Mag3  N   Author         ID
       rms   OT_Error      Smajor Sminor Az        Err   mdist  Mdist     Err        Err        Err      Quality

2011/09/23 20:06:19.0     43.1369   -1.1903      2.0      14    3 165  Ml 1.3  1  Md 1.4  2              js067245    264383

      0.26   +-  0.08       1.7    1.2  173.06 +-  0.0    0.03   1.87   +-         +-0.1                 m i ke

PYRENEES
Sta     Dist  EvAz     Phase      Date       Time     TRes  Azim  AzRes  Slow  SRes Def   SNR       Amp   Per   Mag1   Mag2       ID
SJPF  000.03 227.1 m E Pg      2011/09/23 20:06:20.1  -0.1                          T                                        4767826
SJPF  000.03 227.1 m E Sg      2011/09/23 20:06:20.8  -0.1                          T               75.5  .16        Md 1.5  4767827
ETSF  000.52 117.0 m E Pg      2011/09/23 20:06:28.6  -0.4                          T                                        4767824
ETSF  000.52 117.0 m E Sg      2011/09/23 20:06:35.1  -0.8                          T                3.2  .20        Md 1.3  4767825
EPF   001.13 094.9 m E Pg      2011/09/23 20:06:40.2   0.0                          T                                        4767822
EPF   001.13 094.9 m E Sg      2011/09/23 20:06:54.8   0.0                          T                 .6  .25 Ml 1.3         4767823

.
EVENT     264364
    Date      Time       Latitude Longitude    Depth    Ndef Nsta Gap    Mag1  N    Mag2  N    Mag3  N   Author         ID
       rms   OT_Error      Smajor Sminor Az        Err   mdist  Mdist     Err        Err        Err      Quality

2011/09/23 20:21:04.7     44.7878    6.5969      2.0      19    8 107  Ml 1.6  4  Md 1.6  2              js067245    264384

      0.53   +-  0.05       1.1     .8   79.06 +-  0.0    0.14   1.45   +-0.4      +-0.0                 m i ke

FRANCE
Sta     Dist  EvAz     Phase      Date       Time     TRes  Azim  AzRes  Slow  SRes Def   SNR       Amp   Per   Mag1   Mag2       ID
MBDF  000.14 116.0 m E Pg      2011/09/23 20:21:07.7  -0.2                          T                                        4760188
MBDF  000.14 116.0 m E Sg      2011/09/23 20:21:09.6  -0.2                          T               19.1  .20        Md 1.7  4760187
ORIF  000.53 284.6 m E Pg      2011/09/23 20:21:14.9   0.0                          T                                        4760185
ORIF  000.53 284.6 m E Sg      2011/09/23 20:21:21.6  -0.2                          T                3.8  .20        Md 1.6  4760186
LPG   000.72 008.7 m E Pg      2011/09/23 20:21:18.7   0.1                          T                                        4760179
LPG   000.72 008.7 m E Sg      2011/09/23 20:21:27.9  -0.1                          T                 .6  .18                4760180
LPL   000.73 007.5 m E Pg      2011/09/23 20:21:18.9   0.0                          T                                        4760184
LPL   000.73 007.5 m E Pn      2011/09/23 20:21:20.8   0.0                          T                                        4760181
LPL   000.73 007.5 m E Sg      2011/09/23 20:21:28.2  -0.2                          T                                        4760183
SMRF  001.09 222.4 m E Pg      2011/09/23 20:21:25.3   0.1                          T                                        4768149
SMRF  001.09 222.4 m E Sg      2011/09/23 20:21:39.5   0.1                          T                 .5  .29 Ml 1.1         4768150
SBF   001.10 146.7 m E Pg      2011/09/23 20:21:25.4   0.0                          T                                        4768147
SBF   001.10 146.7 m E Sg      2011/09/23 20:21:39.9   0.2                          T                3.3  .28 Ml 1.9         4768148
FRF   001.23 178.3 m E Pg      2011/09/23 20:21:27.6  -0.1                          T                                        4760178
FRF   001.23 178.3 m E Sg      2011/09/23 20:21:43.6   0.1                          T                2.1  .24 Ml 1.9         4760177
LMR   001.45 182.5 m E Pg      2011/09/23 20:21:32.0   0.1                          T                                        4760182
LMR   001.45 182.5 m E Sg      2011/09/23 20:21:51.0   0.4                          T                 .9  .26 Ml 1.6         4760176

.
EVENT     264365
    Date      Time       Latitude Longitude    Depth    Ndef Nsta Gap    Mag1  N    Mag2  N    Mag3  N   Author         ID
       rms   OT_Error      Smajor Sminor Az        Err   mdist  Mdist     Err        Err        Err      Quality

2011/09/23 22:35:46.6     44.0413    7.0684      2.0      10    5 140  Ml 1.3  1  Md 1.3  3              js067245    264385

      0.36   +-  0.14       2.8    2.5   69.93 +-  0.0    0.32   1.08   +-         +-0.1                 m i ke

NORTHERN ITALY
Sta     Dist  EvAz     Phase      Date       Time     TRes  Azim  AzRes  Slow  SRes Def   SNR       Amp   Per   Mag1   Mag2       ID
SBF   000.32 123.8 m E Pg      2011/09/23 22:35:52.9   0.0                          T                                        4760226
SBF   000.32 123.8 m E Sg      2011/09/23 22:35:57.5   0.3                          T                5.0  .25        Md 1.3  4760227
FRF   000.57 212.6 m E Pg      2011/09/23 22:35:56.9  -0.5                          T                                        4760224
FRF   000.57 212.6 m E Sg      2011/09/23 22:36:04.7  -0.2                          T                1.9  .22        Md 1.4  4760223
MBDF  000.72 342.8 m E Pg      2011/09/23 22:36:00.5   0.2                          T                                        4768151
MBDF  000.72 342.8 m E Sg      2011/09/23 22:36:08.8  -0.9                          T                 .3  .21                4768152
LMR   000.82 210.0 m E Pg      2011/09/23 22:36:01.8  -0.1                          T                                        4760225
LMR   000.82 210.0 m E Sg      2011/09/23 22:36:12.6   0.1                          T                  1  .19        Md 1.2  4760222
SMRF  001.08 267.1 m E Pg      2011/09/23 22:36:06.8   0.0                          T                                        4760221
SMRF  001.08 267.1 m E Sg      2011/09/23 22:36:21.5   0.6                          T                 .5  .19 Ml 1.3         4760220

.
