EVENT     288073
    Date      Time       Latitude Longitude    Depth    Ndef Nsta Gap    Mag1  N    Mag2  N    Mag3  N   Author         ID
       rms   OT_Error      Smajor Sminor Az        Err   mdist  Mdist     Err        Err        Err      Quality

2012/12/07 12:25:53.3     44.5520    6.6215      2.0      33   10 050  Ml 1.6  8  Md 1.6  2              bulletin    288173
                                                                                                         _ldg
      0.45   +-  0.05       1.0     .8   58.30 +-  0.0    0.15   2.09   +-0.3      +-0.1                 m i ke

FRANCE
Sta     Dist  EvAz     Phase      Date       Time     TRes  Azim  AzRes  Slow  SRes Def   SNR       Amp   Per   Mag1   Mag2       ID
MBDF  000.21 031.4 m E Pg      2012/12/07 12:25:57.6   0.0                          T                                        5133231
MBDF  000.21 031.4 m E Sg      2012/12/07 12:26:00.6   0.1                          T                2.7  .22        Md 1.7  5133229
ORIF  000.64 305.0 m E Pg      2012/12/07 12:26:05.5  -0.1                          T                                        5133230
ORIF  000.64 305.0 m E Sg      2012/12/07 12:26:13.6  -0.4                          T                3.0  .18        Md 1.5  5133228
SBF   000.90 139.4 m E Pg      2012/12/07 12:26:10.3   0.0                          T                                        5133560
SBF   000.90 139.4 m E Sg      2012/12/07 12:26:22.1   0.0                          T                2.3  .18 Ml 1.9         5133559
LPG   000.95 005.5 m E Pg      2012/12/07 12:26:11.6   0.1                          T                                        5133564
LPG   000.95 005.5 m E Sg      2012/12/07 12:26:23.7  -0.1                          T                 .4  .15 Ml 1.2         5133563
LPL   000.97 004.6 m E Pg      2012/12/07 12:26:11.7   0.0                          T                                        5133562
LPL   000.97 004.6 m E Sg      2012/12/07 12:26:24.4   0.1                          T                2.0  .40 Ml 1.5         5133561
SMRF  000.95 232.9 m E Pg      2012/12/07 12:26:11.8   0.6                          T                                        5138254
SMRF  000.95 232.9 m E Sg      2012/12/07 12:26:23.4  -0.1                          T                 .3  .16 Ml 1.1         5138253
FRF   000.99 178.9 m E Pn      2012/12/07 12:26:12.3  -0.3                          T                                        5138252
FRF   000.99 178.9 m E Sg      2012/12/07 12:26:24.7  -0.1                          T                2.9  .30 Ml 1.8         5138251
LMR   001.22 183.9 m E Pn      2012/12/07 12:26:16.5   0.8                          T                                        5133253
LMR   001.22 183.9 m E Sn      2012/12/07 12:26:31.7  -0.1                          T                2.0  .30 Ml 1.8         5133252
VIVF  001.42 283.0 m E Pn      2012/12/07 12:26:18.8   0.3                          T                                        5138250
VIVF  001.42 283.0 m E Sn      2012/12/07 12:26:36.2  -0.5                          T                1.5  .29 Ml 1.7         5138249
CABF  002.09 349.9 m E Pn      2012/12/07 12:26:27.7   0.0                          T                                        5138247
CABF  002.09 349.9 m E Pg      2012/12/07 12:26:32.5   0.2                          T                                        5138248
CABF  002.09 349.9 m E Sn      2012/12/07 12:26:52.7  -0.1                          T                1.9  .30 Ml 2.0         5138246

.
EVENT     288159
    Date      Time       Latitude Longitude    Depth    Ndef Nsta Gap    Mag1  N    Mag2  N    Mag3  N   Author         ID
       rms   OT_Error      Smajor Sminor Az        Err   mdist  Mdist     Err        Err        Err      Quality

2012/12/07 12:26:26.7     44.5422    6.6240      2.0      24    8 066  Ml 1.3  5  Md 1.3  2              bulletin    288259
                                                                                                         _ldg
      0.20   +-  0.03        .8     .6   53.89 +-  0.0    0.15   1.43   +-0.3      +-0.0                 m i ke

FRANCE
Sta     Dist  EvAz     Phase      Date       Time     TRes  Azim  AzRes  Slow  SRes Def   SNR       Amp   Per   Mag1   Mag2       ID
MBDF  000.21 029.6 m E Pg      2012/12/07 12:26:31.3   0.1                          T                                        5133555
MBDF  000.21 029.6 m E Sg      2012/12/07 12:26:34.1  -0.1                          T                 .8  .21        Md 1.3  5133558
ORIF  000.65 305.6 m E Pg      2012/12/07 12:26:39.2   0.0                          T                                        5133557
ORIF  000.65 305.6 m E Sg      2012/12/07 12:26:47.2  -0.5                          T                1.4  .25        Md 1.2  5133556
SBF   000.90 139.0 m E Pg      2012/12/07 12:26:43.6   0.0                          T                                        5133550
SBF   000.90 139.0 m E Sg      2012/12/07 12:26:55.4   0.1                          T                1.2  .20 Ml 1.5         5133549
SMRF  000.94 233.4 m E Pg      2012/12/07 12:26:44.5   0.0                          T                                        5138260
FRF   000.98 179.0 m E Pg      2012/12/07 12:26:45.1   0.0                          T                                        5138259
FRF   000.98 179.0 m E Sg      2012/12/07 12:26:58.0   0.1                          T                1.8  .23 Ml 1.7         5138258
LPG   000.96 005.4 m E Pg      2012/12/07 12:26:45.2   0.1                          T                                        5133554
LPG   000.96 005.4 m E Sg      2012/12/07 12:26:57.6   0.0                          T                 .4  .19 Ml 1.1         5133553
LPL   000.98 004.5 m E Pg      2012/12/07 12:26:45.4   0.1                          T                                        5133552
LPL   000.98 004.5 m E Sg      2012/12/07 12:26:57.9  -0.1                          T                 .2  .15 Ml 1           5133551
VIVF  001.43 283.4 m E Pg      2012/12/07 12:26:53.6   0.2                          T                                        5138262
VIVF  001.43 283.4 m E Sn      2012/12/07 12:27:10.0  -0.2                          T                 .3  .18 Ml 1.3         5138261

.
EVENT     288075
    Date      Time       Latitude Longitude    Depth    Ndef Nsta Gap    Mag1  N    Mag2  N    Mag3  N   Author         ID
       rms   OT_Error      Smajor Sminor Az        Err   mdist  Mdist     Err        Err        Err      Quality

2012/12/07 12:27:13.2     44.5517    6.5936      2.0      25    7 123  Ml 1.4  4  Md 1.5  1              bulletin    288175
                                                                                                         _ldg
      0.24   +-  0.04        .9     .6   61.79 +-  0.0    0.17   1.22   +-0.2      +-                    m i ke

FRANCE
Sta     Dist  EvAz     Phase      Date       Time     TRes  Azim  AzRes  Slow  SRes Def   SNR       Amp   Per   Mag1   Mag2       ID
MBDF  000.22 035.9 m E Pg      2012/12/07 12:27:17.6  -0.1                          T                                        5133254
MBDF  000.22 035.9 m E Sg      2012/12/07 12:27:20.7   0.0                          T                2.0  .19        Md 1.5  5133255
ORIF  000.63 306.0 m E Pg      2012/12/07 12:27:25.1  -0.1                          T                                        5133257
ORIF  000.63 306.0 m E Sg      2012/12/07 12:27:33.3  -0.2                          T                2.6  .18                5133256
SBF   000.92 138.4 m E Pg      2012/12/07 12:27:30.6   0.1                          T                                        5133566
SBF   000.92 138.4 m E Sg      2012/12/07 12:27:42.5   0.1                          T                1.1  .18 Ml 1.6         5133565
LPG   000.95 006.7 m E Pg      2012/12/07 12:27:31.3  -0.2                          T                                        5133261
LPG   000.95 006.7 m E Sg      2012/12/07 12:27:43.5  -0.3                          T                 .7  .20 Ml 1.3         5133260
LPL   000.97 005.8 m E Pg      2012/12/07 12:27:31.6  -0.1                          T                                        5133569
LPL   000.97 005.8 m E Sg      2012/12/07 12:27:44.1  -0.2                          T                 .6  .20 Ml 1.2         5133568
FRF   000.99 177.8 m E Pg      2012/12/07 12:27:31.8   0.0                          T                                        5133567
LMR   001.22 182.9 m E Pn      2012/12/07 12:27:36.0   0.4                          T                                        5133259
LMR   001.22 182.9 m E Sn      2012/12/07 12:27:51.8   0.1                          T                 .8  .18 Ml 1.6         5133258

.
EVENT     288158
    Date      Time       Latitude Longitude    Depth    Ndef Nsta Gap    Mag1  N    Mag2  N    Mag3  N   Author         ID
       rms   OT_Error      Smajor Sminor Az        Err   mdist  Mdist     Err        Err        Err      Quality

2012/12/07 12:28:06.5     44.5581    6.6372      2.0      19    5 162  Ml 1.1  2  Md 1.4  1              bulletin    288258
                                                                                                         _ldg
      0.29   +-  0.06       1.3     .8   51.20 +-  0.0    0.15   0.96   +-0.1      +-                    m i ke

FRANCE
Sta     Dist  EvAz     Phase      Date       Time     TRes  Azim  AzRes  Slow  SRes Def   SNR       Amp   Per   Mag1   Mag2       ID
MBDF  000.19 029.5 m E Pg      2012/12/07 12:28:10.6   0.0                          T                                        5133580
MBDF  000.19 029.5 m E Sg      2012/12/07 12:28:13.3   0.0                          T                1.3  .28        Md 1.4  5133578
ORIF  000.65 304.0 m E Pg      2012/12/07 12:28:19.0   0.2                          T                                        5133579
ORIF  000.65 304.0 m E Sg      2012/12/07 12:28:27.4   0.0                          T                1.3  .21                5133577
SBF   000.90 140.2 m E Pg      2012/12/07 12:28:23.7   0.2                          T                                        5133572
LPG   000.94 004.9 m E Pg      2012/12/07 12:28:24.6   0.0                          T                                        5133574
LPG   000.94 004.9 m E Sg      2012/12/07 12:28:36.8   0.0                          T                 .3  .19 Ml 1.0         5133573
LPL   000.96 004.0 m E Pg      2012/12/07 12:28:24.8   0.0                          T                                        5133576
LPL   000.96 004.0 m E Sg      2012/12/07 12:28:37.4   0.1                          T                 .6  .24 Ml 1.2         5133575

.
EVENT     288081
    Date      Time       Latitude Longitude    Depth    Ndef Nsta Gap    Mag1  N    Mag2  N    Mag3  N   Author         ID
       rms   OT_Error      Smajor Sminor Az        Err   mdist  Mdist     Err        Err        Err      Quality

2012/12/07 13:29:17.0     43.0883    -.1830     10.0 f   129   16 077  Ml 3.0 17  Md 3.0  3              bulletin    288181
                                                                                                         _ldg
      1.06   +-  0.08       1.7    1.5  159.84 +-  0.0    0.10   5.06   +-0.2      +-0.1                 m i ke

PYRENEES
Sta     Dist  EvAz     Phase      Date       Time     TRes  Azim  AzRes  Slow  SRes Def   SNR       Amp   Per   Mag1   Mag2       ID
ETSF  000.33 235.6 m E Pg      2012/12/07 13:29:22.6  -1.1                          T                                        5133288
ETSF  000.33 235.6 m E Sg      2012/12/07 13:29:27.3  -1.0                          T                                Md 3.2  5133277
EPF   000.39 098.4 m E Pg      2012/12/07 13:29:24.6   0.0                          T                                        5133287
EPF   000.39 098.4 m E Sg      2012/12/07 13:29:30.6   0.7                          T               67.5  .20        Md 3.1  5133276
SJPF  000.76 272.2 m E Pg      2012/12/07 13:29:30.3  -1.1                          T                                        5133286
SJPF  000.76 272.2 m E Pn      2012/12/07 13:29:32.4   0.1                          T                                        5138286
SJPF  000.76 272.2 m E Sg      2012/12/07 13:29:40.9  -0.5                          T               29.8  .28        Md 2.9  5133278
MTLF  001.77 081.0 m E Pn      2012/12/07 13:29:45.5  -0.5                          T                                        5138285
MTLF  001.77 081.0 m E Pg      2012/12/07 13:29:50.4   0.4                          T                                        5133285
MTLF  001.77 081.0 m E Sn      2012/12/07 13:30:07.5   0.3                          T                                        5138284
MTLF  001.77 081.0 m E Sg      2012/12/07 13:30:13.3   0.4                          T               11.0  .24 Ml 2.8         5133275
LFF   001.97 019.5 m E Pn      2012/12/07 13:29:48.2  -0.5                          T                                        5143523
LFF   001.97 019.5 m E Pg      2012/12/07 13:29:53.5  -0.1                          T                                        5133284
LFF   001.97 019.5 m E Sn      2012/12/07 13:30:12.1   0.3                          T                                        5143522
LFF   001.97 019.5 m E Sg      2012/12/07 13:30:18.9   0.0                          T               90.6  .36 Ml 3.4         5133280
CAF   002.45 040.7 m E Pn      2012/12/07 13:29:54.3  -1.0                          T                                        5138287
CAF   002.45 040.7 m E Pg      2012/12/07 13:30:02.5   0.0                          T                                        5133283
CAF   002.45 040.7 m E Sn      2012/12/07 13:30:23.2  -0.3                          T                                        5138288
CAF   002.45 040.7 m E Sg      2012/12/07 13:30:34.1   0.1                          T               17.6  .24 Ml 3.2         5133279
RJF   002.53 028.3 m E Pn      2012/12/07 13:29:55.2  -1.1                          T                                        5138291
RJF   002.53 028.3 m E Pg      2012/12/07 13:30:03.5  -0.4                          T                                        5133282
RJF   002.53 028.3 m E Sn      2012/12/07 13:30:25.5   0.2                          T                                        5138290
RJF   002.53 028.3 m E Sg      2012/12/07 13:30:36.4  -0.1                          T               18.7  .24 Ml 2.9         5133281
LASF  003.10 070.0 m E Pn      2012/12/07 13:30:03.5  -0.6                          T                                        5133303
LASF  003.10 070.0 m E Pg      2012/12/07 13:30:14.7   0.3                          T                                        5138282
LASF  003.10 070.0 m E Sn      2012/12/07 13:30:38.9   0.0                          T                                        5138283
LASF  003.10 070.0 m E Sg      2012/12/07 13:30:55.1   0.9                          T                5.1  .26 Ml 2.7         5133304
MFF   003.51 000.4 m E Pn      2012/12/07 13:30:10.0   0.3                          T                                        5133290
MFF   003.51 000.4 m E Pg      2012/12/07 13:30:21.9  -0.2                          T                                        5133291
MFF   003.51 000.4 m E Sn      2012/12/07 13:30:49.2   0.3                          T                                        5138289
MFF   003.51 000.4 m E Sg      2012/12/07 13:31:07.3   0.1                          T                4.5  .21 Ml 3.0         5133298
TCF   003.63 027.2 m E Pn      2012/12/07 13:30:11.3   0.0                          T                                        5138299
TCF   003.63 027.2 m E Pg      2012/12/07 13:30:24.0  -0.1                          T                                        5133292
TCF   003.63 027.2 m E Sn      2012/12/07 13:30:50.7  -0.9                          T                                        5138298
TCF   003.63 027.2 m E Sg      2012/12/07 13:31:10.7   0.0                          T                7.8  .24 Ml 3.1         5133299
VIVF  003.93 061.6 m E Pn      2012/12/07 13:30:16.3   1.0                          T                                        5138281
VIVF  003.93 061.6 m E Pg      2012/12/07 13:30:29.9   0.2                          T                                        5138280
VIVF  003.93 061.6 m E Sn      2012/12/07 13:30:58.2  -0.5                          T                                        5138279
VIVF  003.93 061.6 m E Sg      2012/12/07 13:31:19.7  -0.3                          T                3.9  .31 Ml 2.7         5138278
BGF   004.08 030.8 m E Pn      2012/12/07 13:30:17.5   0.0                          T                                        5138293
BGF   004.08 030.8 m E Pg      2012/12/07 13:30:31.9  -0.6                          T                                        5133295
BGF   004.08 030.8 m E Sn      2012/12/07 13:31:02.5   0.0                          T                                        5138292
BGF   004.08 030.8 m E Sg      2012/12/07 13:31:25.5   0.5                          T               31.8  .36 Ml 3.6         5133296
AVF   004.47 032.9 m E Pn      2012/12/07 13:30:22.7   0.0                          T                                        5138296
AVF   004.47 032.9 m E Pg      2012/12/07 13:30:39.6   0.0                          T                                        5133293
AVF   004.47 032.9 m E Sn      2012/12/07 13:31:12.0   0.3                          T                                        5138297
AVF   004.47 032.9 m E Sg      2012/12/07 13:31:37.0  -0.1                          T                6.2  .36 Ml 3.0         5133297
SMF   004.56 037.4 m E Pn      2012/12/07 13:30:24.5   0.5                          T                                        5133289
SMF   004.56 037.4 m E Pg      2012/12/07 13:30:41.9   0.5                          T                                        5133294
SMF   004.56 037.4 m E Sn      2012/12/07 13:31:14.0   0.1                          T                                        5138295
SMF   004.56 037.4 m E Sg      2012/12/07 13:31:39.6  -0.3                          T                3.0  .25 Ml 2.8         5138294
SSF   004.75 032.1 m E Pn      2012/12/07 13:30:27.2   0.6                          T                                        5138301
SSF   004.75 032.1 m E Pg      2012/12/07 13:30:44.6  -0.3                          T                                        5138300
SSF   004.75 032.1 m E Sn      2012/12/07 13:31:18.1  -0.4                          T                                        5138302
SSF   004.75 032.1 m E Sg      2012/12/07 13:31:45.9   0.0                          T                2.8  .29 Ml 2.9         5138303
LOR   005.06 033.0 m E Pn      2012/12/07 13:30:31.6   0.7                          T                                        5138307
LOR   005.06 033.0 m E Pg      2012/12/07 13:30:51.1   0.5                          T                                        5138306
LOR   005.06 033.0 m E Sn      2012/12/07 13:31:26.1   0.2                          T                                        5138305
LOR   005.06 033.0 m E Sg      2012/12/07 13:31:55.3  -0.3                          T                7.4  .49 Ml 3.1         5138304

.
