EVENT     271489
    Date      Time       Latitude Longitude    Depth    Ndef Nsta Gap    Mag1  N    Mag2  N    Mag3  N   Author         ID
       rms   OT_Error      Smajor Sminor Az        Err   mdist  Mdist     Err        Err        Err      Quality

2012/03/09 04:17:53.7     42.8778   -1.2042      2.0      15    2 072  Ml 1.6  1  Md 1.4  2              js067245    271509

      0.61   +-  0.17       3.9    2.9  167.18 +-  0.0    0.04   1.28   +-         +-0.1                 m i ke

PYRENEES
Sta     Dist  EvAz     Phase      Date       Time     TRes  Azim  AzRes  Slow  SRes Def   SNR       Amp   Per   Mag1   Mag2       ID
SJPF  000.24 356.3 m E Pg      2012/03/09 04:17:58.5   0.1                          T                                        4876092
SJPF  000.24 356.3 m E Sg      2012/03/09 04:18:01.6   0.0                          T               63.9 1.08        Md 1.5  4876091
EPF   001.14 081.8 m E Pg      2012/03/09 04:18:15.1  -0.1                          T                                        4876089
EPF   001.14 081.8 m E P       2012/03/09 04:18:17.2   0.4                          T                                        4876088
EPF   001.14 081.8 m E Sg      2012/03/09 04:18:30.5   0.5                          T                1.4  .25 Ml 1.6 Md 1.3  4876090

.
EVENT     271490
    Date      Time       Latitude Longitude    Depth    Ndef Nsta Gap    Mag1  N    Mag2  N    Mag3  N   Author         ID
       rms   OT_Error      Smajor Sminor Az        Err   mdist  Mdist     Err        Err        Err      Quality

2012/03/09 06:17:59.7     44.5061    6.6963      2.0      43    9 046  Ml 2.2  6  Md 2.0  3              js067245    271510

      0.50   +-  0.07       1.5    1.2   62.76 +-  0.0    0.09   1.72   +-0.2      +-0.1                 m i ke

FRANCE
Sta     Dist  EvAz     Phase      Date       Time     TRes  Azim  AzRes  Slow  SRes Def   SNR       Amp   Per   Mag1   Mag2       ID
MBDF  000.23 013.6 m E Pg      2012/03/09 06:18:04.5   0.0                          T                                        4876249
MBDF  000.23 013.6 m E Sg      2012/03/09 06:18:07.9   0.3                          T               19.9  .18        Md 2.0  4876248
ORIF  000.71 305.6 m E Pg      2012/03/09 06:18:13.0  -0.3                          T                                        4876247
ORIF  000.71 305.6 m E Sg      2012/03/09 06:18:22.7   0.0                          T                6.6  .24        Md 2.0  4876240
SBF   000.83 140.2 m E Pg      2012/03/09 06:18:15.3  -0.2                          T                                        4876235
SBF   000.83 140.2 m E Sg      2012/03/09 06:18:26.2  -0.2                          T               10.7  .28        Md 2.2  4876234
FRF   000.95 182.2 m E Pg      2012/03/09 06:18:17.4  -0.1                          T                                        4876242
FRF   000.95 182.2 m E Sg      2012/03/09 06:18:29.4  -0.4                          T                9.0  .20 Ml 2.5         4876237
LPG   000.99 002.2 m E Pg      2012/03/09 06:18:18.6  -0.1                          T                                        4876245
LPG   000.99 002.2 m E Sg      2012/03/09 06:18:31.8   0.2                          T                5.6  .29 Ml 2.1         4876241
LPL   001.01 001.4 m E Pg      2012/03/09 06:18:18.9   0.0                          T                                        4876246
LPL   001.01 001.4 m E Sg      2012/03/09 06:18:32.5   0.4                          T                3.9  .20 Ml 2.1         4876239
SMRF  000.96 237.1 m E Pn      2012/03/09 06:18:19.5   0.8                          T                                        4876244
SMRF  000.96 237.1 m E Sn      2012/03/09 06:18:31.0  -1.2                          T                5.5  .33 Ml 2.0         4876238
LMR   001.18 186.6 m E Pg      2012/03/09 06:18:22.6   0.8                          T                                        4876243
LMR   001.18 186.6 m E Sg      2012/03/09 06:18:36.6  -0.5                          T                7.2  .27 Ml 2.3         4876236
VIVF  001.49 284.3 m E Pg      2012/03/09 06:18:26.6  -0.9                          T                                        4876233
VIVF  001.49 284.3 m E Sg      2012/03/09 06:18:45.5  -1.2                          T                3.0  .31 Ml 2.0         4876232

.
EVENT     271507
    Date      Time       Latitude Longitude    Depth    Ndef Nsta Gap    Mag1  N    Mag2  N    Mag3  N   Author         ID
       rms   OT_Error      Smajor Sminor Az        Err   mdist  Mdist     Err        Err        Err      Quality

2012/03/09 06:35:51.3     44.4986    6.7004      2.0      20    6 076  Ml 1.4  4  Md 1.3  1              js067245    271527

      1.09   +-  0.11       2.7    1.9   72.70 +-  0.0    0.08   1.17   +-0.3      +-                    m i ke

FRANCE
Sta     Dist  EvAz     Phase      Date       Time     TRes  Azim  AzRes  Slow  SRes Def   SNR       Amp   Per   Mag1   Mag2       ID
MBDF  000.23 012.5 m E Pg      2012/03/09 06:35:56.5   0.4                          T                                        4876251
MBDF  000.23 012.5 m E Sg      2012/03/09 06:35:59.9   0.6                          T                2.7  .22        Md 1.3  4876252
ORIF  000.72 305.9 m E Pg      2012/03/09 06:36:04.9  -0.1                          T                                        4876250
ORIF  000.72 305.9 m E Sg      2012/03/09 06:36:14.5   0.1                          T                1.5  .24                4876288
FRF   000.94 182.4 m E Pg      2012/03/09 06:36:09.5   0.6                          T                                        4877043
FRF   000.94 182.4 m E Sg      2012/03/09 06:36:21.5   0.4                          T                2.7  .26 Ml 1.8         4877042
LPG   001.00 002.1 m E Pg      2012/03/09 06:36:10.5   0.1                          T                                        4877044
LPG   001.00 002.1 m E Sg      2012/03/09 06:36:24.0   0.6                          T                 .5  .22 Ml 1.1         4877039
SMRF  000.96 237.5 m E Sn      2012/03/09 06:36:23.2  -0.5                          T                 .8  .26 Ml 1.3         4877040
LMR   001.17 186.8 m E Sg      2012/03/09 06:36:29.0   0.6                          T                 .6  .23 Ml 1.4         4877041

.
EVENT     271491
    Date      Time       Latitude Longitude    Depth    Ndef Nsta Gap    Mag1  N    Mag2  N    Mag3  N   Author         ID
       rms   OT_Error      Smajor Sminor Az        Err   mdist  Mdist     Err        Err        Err      Quality

2012/03/09 06:59:33.8     44.5236    6.6895      4.0 f    86   24 040  Ml 2.8 17  Md 2.6  3              js067245    271511

      0.41   +-  0.03        .9     .7   56.76 +-  0.0    0.10   4.09   +-0.2      +-0.0                 m i ke

FRANCE
Sta     Dist  EvAz     Phase      Date       Time     TRes  Azim  AzRes  Slow  SRes Def   SNR       Amp   Per   Mag1   Mag2       ID
MBDF  000.21 016.0 m E Pg      2012/03/09 06:59:38.5   0.2                          T   001.0                                4869172
MBDF  000.21 016.0 m E Sg      2012/03/09 06:59:41.2   0.0                          T              162.4  .20        Md 2.6  4876296
ORIF  000.70 304.7 m E Pg      2012/03/09 06:59:47.0  -0.1                          T   001.0                                4869175
ORIF  000.70 304.7 m E Sg      2012/03/09 06:59:56.2  -0.1                          T               82.5  .20        Md 2.6  4876295
SBF   000.85 140.7 m E Pg      2012/03/09 06:59:49.8  -0.1                          T   001.0                                4869165
SBF   000.85 140.7 m E P       2012/03/09 06:59:51.7   0.1                          T                                        4876302
SBF   000.85 140.7 m E Sg      2012/03/09 07:00:00.6  -0.4                          T   001.0       55.5  .20        Md 2.5  4869166
FRF   000.96 181.8 m E Pg      2012/03/09 06:59:51.9   0.0                          T                                        4877069
FRF   000.96 181.8 m E P       2012/03/09 06:59:54.1   0.3                          T   001.0                                4869151
FRF   000.96 181.8 m E Sg      2012/03/09 07:00:04.8   0.4                          T   001.0       48.3  .18 Ml 3.3         4869152
LPG   000.98 002.6 m E Pg      2012/03/09 06:59:52.3  -0.2                          T   001.0                                4869160
LPG   000.98 002.6 m E Sg      2012/03/09 07:00:05.4   0.3                          T   001.0       18.2  .24 Ml 2.7         4869161
LPL   000.99 001.7 m E Pg      2012/03/09 06:59:52.7   0.0                          T                                        4877067
LPL   000.99 001.7 m E Pn      2012/03/09 06:59:53.3   0.2                          T   001.0                                4869162
LPL   000.99 001.7 m E Sg      2012/03/09 07:00:05.4  -0.2                          T               22.9  .31 Ml 2.7         4876300
SMRF  000.97 236.0 m E Pn      2012/03/09 06:59:52.8   0.2                          T                                        4876297
SMRF  000.97 236.0 m E P       2012/03/09 06:59:54.1   0.2                          T                                        4877068
SMRF  000.97 236.0 m E Sg      2012/03/09 07:00:04.5  -0.1                          T                                        4877066
SMRF  000.97 236.0 m E Sn      2012/03/09 07:00:06.4   0.4                          T   001.0       33.7  .30 Ml 2.9         4869179
LMR   001.20 186.3 m E Pg      2012/03/09 06:59:56.3   0.2                          T   001.0                                4869156
LMR   001.20 186.3 m E P       2012/03/09 06:59:57.6   0.3                          T                                        4876301
LMR   001.20 186.3 m E Sg      2012/03/09 07:00:12.0   0.4                          T   001.0       29.1  .20 Ml 3.1         4869157
VIVF  001.48 283.7 m E Pg      2012/03/09 07:00:00.9  -0.4                          T   001.0                                4869176
VIVF  001.48 283.7 m E Sn      2012/03/09 07:00:18.2   0.1                          T                                        4877065
VIVF  001.48 283.7 m E Sg      2012/03/09 07:00:20.5   0.1                          T   001.0       28.7  .28 Ml 3.0         4869177
LASF  002.08 258.6 m E Pn      2012/03/09 07:00:08.2   0.5                          T   001.0                                4869153
LASF  002.08 258.6 m E Sn      2012/03/09 07:00:33.1   0.5                          T   001.0        6.1  .23 Ml 2.7         4869154
CABF  002.13 348.8 m E P       2012/03/09 07:00:11.5   0.7                          T   001.0                                4869170
CABF  002.13 348.8 m E Sg      2012/03/09 07:00:40.2  -0.7                          T   001.0        5.8  .28 Ml 2.5         4869171
PGF   002.59 138.8 m E Pn      2012/03/09 07:00:15.2   0.4                          T   001.0                                4869163
PGF   002.59 138.8 m E Sn      2012/03/09 07:00:45.4   0.5                          T   001.0        8.4  .24 Ml 3.1         4869164
SMF   002.92 317.7 m E P       2012/03/09 07:00:21.8  -0.2                          T   001.0                                4869167
SMF   002.92 317.7 m E Sg      2012/03/09 07:01:05.4   0.1                          T   001.0        5.8  .26 Ml 2.8         4869168
CAF   003.32 278.6 m E Pn      2012/03/09 07:00:25.2   0.6                          T   001.0                                4869148
CAF   003.32 278.6 m E Sn      2012/03/09 07:01:02.8   0.6                          T   001.0        4.0  .29 Ml 2.6         4869149
AVF   003.26 315.3 m E P       2012/03/09 07:00:26.9   0.1                          T   001.0                                4869146
AVF   003.26 315.3 m E Sg      2012/03/09 07:01:16.5   0.5                          T                7.9  .48 Ml 2.7         4876304
MTLF  003.44 251.5 m E P       2012/03/09 07:00:28.1  -1.3                          T   001.0                                4869173
MTLF  003.44 251.5 m E Sn      2012/03/09 07:01:05.4   0.4                          T   001.0        1.6  .29 Ml 2.3         4869174
LOR   003.38 325.2 m E P       2012/03/09 07:00:28.2  -0.4 144.4  1.2               T   001.0                                4869158
LOR   003.38 325.2 m E Sn      2012/03/09 07:01:03.9   0.2                          T   001.0          4  .28 Ml 2.7         4869159
LOR   003.38 325.2 m E Sg      2012/03/09 07:01:19.9   0.0                          T                7.9  .50 Ml 2.7         4876306
BGF   003.38 308.3 m E P       2012/03/09 07:00:28.3  -0.2                          T   001.0                                4869147
HAU   003.49 356.2 m E P       2012/03/09 07:00:29.7  -0.4                          T                                        4876293
TCF   003.61 300.8 m E P       2012/03/09 07:00:31.1  -0.7                          T   001.0                                4869169
THEF  003.74 352.8 m E P       2012/03/09 07:00:33.1  -0.5                          T                                        4876292
CDF   003.91 005.7 m E P       2012/03/09 07:00:35.4  -0.8                          T   001.0                                4869150
PAGF  004.09 351.0 m E P       2012/03/09 07:00:38.3  -0.2 168.4  -1.9              T                                        4876291
SSF   003.38 319.9 m E Sg      2012/03/09 07:01:20.3   0.7                          T                4.3  .28 Ml 2.8         4876305

.
EVENT     271509
    Date      Time       Latitude Longitude    Depth    Ndef Nsta Gap    Mag1  N    Mag2  N    Mag3  N   Author         ID
       rms   OT_Error      Smajor Sminor Az        Err   mdist  Mdist     Err        Err        Err      Quality

2012/03/09 07:51:49.9     44.4576    6.2865      2.0      35   12 038  Ml 2.1  6  Md 2.0  2              js067245    271529

      0.83   +-  0.07       1.6    1.4  106.86 +-  0.0    0.27   3.15   +-0.4      +-0.0                 m i ke

FRANCE
Sta     Dist  EvAz     Phase      Date       Time     TRes  Azim  AzRes  Slow  SRes Def   SNR       Amp   Per   Mag1   Mag2       ID
MBDF  000.44 052.0 m E Pg      2012/03/09 07:51:58.7   0.2                          T                                        4876335
MBDF  000.44 052.0 m E Sg      2012/03/09 07:52:04.6   0.2                          T                5.3  .24        Md 2.0  4876327
ORIF  000.54 328.0 m E Pg      2012/03/09 07:52:00.1  -0.3                          T                                        4876334
ORIF  000.54 328.0 m E Sg      2012/03/09 07:52:07.6   0.0                          T                6.3  .22        Md 1.9  4876326
SMRF  000.70 227.0 m E Pg      2012/03/09 07:52:03.0  -0.3                          T                                        4876332
SMRF  000.70 227.0 m E Sg      2012/03/09 07:52:12.7   0.3                          T                6.6  .37                4876322
FRF   000.93 163.7 m E Pg      2012/03/09 07:52:07.7   0.3                          T                                        4876331
FRF   000.93 163.7 m E Sg      2012/03/09 07:52:19.6   0.0                          T               19.6  .22 Ml 2.8         4876324
SBF   001.02 125.3 m E Pg      2012/03/09 07:52:09.2   0.1                          T                                        4877078
LMR   001.13 171.8 m E Pg      2012/03/09 07:52:10.7  -0.4                          T                                        4876330
LMR   001.13 171.8 m E Sg      2012/03/09 07:52:25.8  -0.1                          T                8.8  .26 Ml 2.4         4876323
LPG   001.09 017.4 m E Pg      2012/03/09 07:52:10.9   0.1                          T                                        4876333
LPG   001.09 017.4 m E Sg      2012/03/09 07:52:24.7  -0.1                          T                3.1  .35 Ml 1.8         4877074
LPL   001.11 016.5 m E Pg      2012/03/09 07:52:11.2   0.3                          T                                        4876325
LPL   001.11 016.5 m E Sg      2012/03/09 07:52:25.3   0.1                          T                4.0  .35 Ml 1.9         4877075
VIVF  001.22 289.6 m E Pg      2012/03/09 07:52:12.6  -0.2                          T                                        4876329
VIVF  001.22 289.6 m E Sg      2012/03/09 07:52:28.9   0.4                          T                2.5  .22 Ml 2.0         4876328
LASF  001.79 258.5 m E P       2012/03/09 07:52:21.8  -0.4                          T                                        4877080
LASF  001.79 258.5 m E Sg      2012/03/09 07:52:45.8  -0.5                          T                 .7  .24 Ml 1.6         4877076
CABF  002.16 356.4 m E P       2012/03/09 07:52:27.3  -0.3                          T                                        4877077
MTLF  003.15 250.6 m E P       2012/03/09 07:52:41.8   0.2                          T                                        4877079

.
EVENT     271529
    Date      Time       Latitude Longitude    Depth    Ndef Nsta Gap    Mag1  N    Mag2  N    Mag3  N   Author         ID
       rms   OT_Error      Smajor Sminor Az        Err   mdist  Mdist     Err        Err        Err      Quality

2012/03/09 09:49:28.6     44.3056    7.4134       .0 f    25    6 123  Ml 2.3  4  Md 1.7  2              js067245    271549

      0.48   +-  0.10       2.2    1.3   57.36 +-  0.0    0.08   1.36   +-0.2      +-0.0                 m i km

NORTHERN ITALY
Sta     Dist  EvAz     Phase      Date       Time     TRes  Azim  AzRes  Slow  SRes Def   SNR       Amp   Per   Mag1   Mag2       ID
SBF   000.44 178.0 m E Pg      2012/03/09 09:49:37.9   0.4                          T                                        4876353
SBF   000.44 178.0 m E Sg      2012/03/09 09:49:43.6   0.1                          T               32.1  .38        Md 1.8  4876357
MBDF  000.62 312.7 m E Pg      2012/03/09 09:49:41.4   0.5                          T                                        4876351
MBDF  000.62 312.7 m E Sg      2012/03/09 09:49:50.6   1.4                          T               14.7  .36        Md 1.7  4876350
FRF   000.93 216.9 m E Pg      2012/03/09 09:49:47.9   1.6                          T                                        4876355
FRF   000.93 216.9 m E Sg      2012/03/09 09:49:58.8   0.3                          T                8.2  .28 Ml 2.3         4876356
LMR   001.17 214.3 m E Pg      2012/03/09 09:49:51.5   0.8                          T                                        4876352
LMR   001.17 214.3 m E Sg      2012/03/09 09:50:06.1   0.0                          T               14.3  .28 Ml 2.6         4876354
ORIF  001.25 299.8 m E Pg      2012/03/09 09:49:52.4   0.0                          T                                        4876361
ORIF  001.25 299.8 m E Sg      2012/03/09 09:50:09.1   0.2                          T                4.3  .27 Ml 2.1         4876358
SMRF  001.36 256.7 m E Sg      2012/03/09 09:50:12.0  -0.1                          T                6.6  .38 Ml 2.2         4877081

.
