EVENT     297812
    Date      Time       Latitude Longitude    Depth    Ndef Nsta Gap    Mag1  N    Mag2  N    Mag3  N   Author         ID
       rms   OT_Error      Smajor Sminor Az        Err   mdist  Mdist     Err        Err        Err      Quality

2013/05/11 09:50:10.2     47.8293    7.9980      2.0      18    4 093  Ml 1.8  2  Md 2.0  3              bulletin    297912
                                                                                                         _ldg
      0.56   +-  0.17       3.8    2.6   35.71 +-  0.0    0.13   1.78   +-0.4      +-0.1                 m i ke

SWITZERLAND
Sta     Dist  EvAz     Phase      Date       Time     TRes  Azim  AzRes  Slow  SRes Def   SNR       Amp   Per   Mag1   Mag2       ID
HINF  000.77 269.5 m E Pg      2013/05/11 09:50:24.7   0.0                          T                                        5278799
HINF  000.77 269.5 m E Sg      2013/05/11 09:50:34.3  -0.6                          T                4.4  .18        Md 2.0  5278797
CDF   000.76 320.6 m E Pg      2013/05/11 09:50:25.4   0.8                          T                                        5278800
CDF   000.76 320.6 m E Sg      2013/05/11 09:50:35.4   0.9                          T                5.1  .22        Md 1.9  5278795
HAU   001.12 279.6 m E Pg      2013/05/11 09:50:30.6  -0.6                          T                                        5278798
HAU   001.12 279.6 m E Sg      2013/05/11 09:50:46.2   0.4                          T                7.3  .24 Ml 2.1 Md 2.0  5278796
CABF  001.78 227.6 m E Pn      2013/05/11 09:50:39.3  -1.0                          T                                        5278802
CABF  001.78 227.6 m E Sn      2013/05/11 09:51:01.4  -0.8                          T                 .5  .20 Ml 1.5         5278801

.
EVENT     297814
    Date      Time       Latitude Longitude    Depth    Ndef Nsta Gap    Mag1  N    Mag2  N    Mag3  N   Author         ID
       rms   OT_Error      Smajor Sminor Az        Err   mdist  Mdist     Err        Err        Err      Quality

2013/05/11 22:48:17.4     46.7865    6.5264      4.0 f    49   17 074  Ml 2.2 11  Md 2.5  3              bulletin    297914
                                                                                                         _ldg
      0.39   +-  0.06       1.2    1.1  107.63 +-  0.0    0.08   3.62   +-0.2      +-0.0                 m i ke

SWITZERLAND
Sta     Dist  EvAz     Phase      Date       Time     TRes  Azim  AzRes  Slow  SRes Def   SNR       Amp   Per   Mag1   Mag2       ID
CABF  000.35 240.0 m E Pg      2013/05/11 22:48:24.7   0.4                          T   001.0                                5278909
CABF  000.35 240.0 m E Sg      2013/05/11 22:48:29.1   0.1                          T   001.0       12.7  .28        Md 2.4  5278910
HINF  001.05 012.1 m E Pg      2013/05/11 22:48:37.0  -0.3                          T   001.0                                5278911
HINF  001.05 012.1 m E Sg      2013/05/11 22:48:50.3  -0.6                          T   001.0        7.9  .20 Ml 2.4 Md 2.5  5278912
HINF  001.05 012.1 m E Sn      2013/05/11 22:48:51.7   0.0                          T   001.0                                5278913
HAU   001.23 354.4 m E Pn      2013/05/11 22:48:39.7   0.0                          T                                        5278923
HAU   001.23 354.4 m E Pg      2013/05/11 22:48:40.6   0.3                          T   001.0                                5278895
HAU   001.23 354.4 m E Sg      2013/05/11 22:48:56.6   0.4                          T   001.0        9.4  .24 Ml 2.3 Md 2.5  5278896
LPL   001.28 173.5 m E Pn      2013/05/11 22:48:40.7   0.0                          T                                        5278917
LPL   001.28 173.5 m E Pg      2013/05/11 22:48:41.4  -0.2                          T                                        5278916
LPL   001.28 173.5 m E Sg      2013/05/11 22:48:57.7  -0.4                          T   001.0        2.3  .24 Ml 1.9         5278903
LPG   001.30 173.0 m E Pg      2013/05/11 22:48:41.9  -0.1                          T   001.0                                5278900
LPG   001.30 173.0 m E Sn      2013/05/11 22:48:58.5   0.7                          T   001.0                                5278901
LPG   001.30 173.0 m E Sg      2013/05/11 22:49:00.0   1.2                          T   001.0        2.5  .20 Ml 2.0         5278902
CDF   001.70 017.0 m E Pn      2013/05/11 22:48:45.6  -0.7                          T   001.0                                5278893
CDF   001.70 017.0 m E Sn      2013/05/11 22:49:06.8  -0.5                          T                                        5278924
CDF   001.70 017.0 m E Sg      2013/05/11 22:49:10.6  -0.6                          T   001.0        3.4  .24 Ml 2.4         5278894
SFTF  001.74 325.1 m E Pn      2013/05/11 22:48:47.3   0.6                          T                                        5278927
SFTF  001.74 325.1 m E Sg      2013/05/11 22:49:12.3   0.0                          T                                        5278926
PAGF  001.85 343.3 m E Pn      2013/05/11 22:48:48.3   0.1                          T                                        5278930
LOR   001.89 285.8 m E Pg      2013/05/11 22:48:51.6  -0.9                          T   001.0                                5278897
LOR   001.89 285.8 m E Sn      2013/05/11 22:49:11.6   0.1                          T   001.0                                5278898
LOR   001.89 285.8 m E Sg      2013/05/11 22:49:16.2  -0.6                          T   001.0        2.7  .20 Ml 2.3         5278899
SMF   001.85 266.6 m E Pg      2013/05/11 22:48:51.6  -0.3                          T   001.0                                5278904
SMF   001.85 266.6 m E Sn      2013/05/11 22:49:10.5  -0.2                          T   001.0                                5278905
SMF   001.85 266.6 m E Sg      2013/05/11 22:49:16.0   0.2                          T   001.0        2.4  .24 Ml 2.2         5278906
AVF   002.18 271.3 m E Pn      2013/05/11 22:48:52.2  -0.4                          T                                        5278922
AVF   002.18 271.3 m E Pg      2013/05/11 22:48:56.7  -1.2                          T   001.0                                5278890
AVF   002.18 271.3 m E Sn      2013/05/11 22:49:18.2  -0.3                          T                                        5278921
AVF   002.18 271.3 m E Sg      2013/05/11 22:49:25.3  -0.7                          T   001.0        2.3  .60 Ml 1.8         5278891
VIVF  002.33 214.5 m E Pn      2013/05/11 22:48:54.4  -0.3                          T                                        5278919
VIVF  002.33 214.5 m E Sg      2013/05/11 22:49:30.6   0.1                          T                                        5278918
SSF   002.09 278.7 m E Pg      2013/05/11 22:48:57.0   0.8                          T   001.0                                5278907
SSF   002.09 278.7 m E Sn      2013/05/11 22:49:16.0  -0.4                          T                                        5278925
SSF   002.09 278.7 m E Sg      2013/05/11 22:49:22.6  -0.5                          T   001.0        2.1  .20 Ml 2.3         5278908
BGF   002.54 266.2 m E Pn      2013/05/11 22:48:57.7   0.0                          T                                        5278920
BGF   002.54 266.2 m E Sn      2013/05/11 22:49:27.1  -0.1                          T   001.0        6.6  .68 Ml 2.3         5278892
HYF   002.70 281.7 m E Pn      2013/05/11 22:48:59.8   0.0                          T                                        5278928
BAIF  003.62 335.6 m E Pn      2013/05/11 22:49:13.3   1.0                          T                                        5278929
ORIF  001.92 193.8 m E Sg      2013/05/11 22:49:17.5  -0.6                          T   001.0        1.9  .24 Ml 2.1         5278889

.
EVENT     297815
    Date      Time       Latitude Longitude    Depth    Ndef Nsta Gap    Mag1  N    Mag2  N    Mag3  N   Author         ID
       rms   OT_Error      Smajor Sminor Az        Err   mdist  Mdist     Err        Err        Err      Quality

2013/05/11 23:14:32.1     42.6085     .9192      2.0      54    8 046  Ml 1.9  8  Md 2.0  1              bulletin    297915
                                                                                                         _ldg
      0.66   +-  0.07       1.4    1.2   37.97 +-  0.0    0.12   2.73   +-0.2      +-                    m i ke

PYRENEES
Sta     Dist  EvAz     Phase      Date       Time     TRes  Azim  AzRes  Slow  SRes Def   SNR       Amp   Per   Mag1   Mag2       ID
EPF   000.60 314.9 m E Pg      2013/05/11 23:14:43.1  -0.4                          T                                        5278959
EPF   000.60 314.9 m E Sg      2013/05/11 23:14:51.4   0.0                          T                6.0  .20        Md 2.0  5278958
ETSF  001.13 285.4 m E Pg      2013/05/11 23:14:53.3   0.0                          T                                        5278955
ETSF  001.13 285.4 m E Sg      2013/05/11 23:15:08.0   0.1                          T                2.3  .20 Ml 1.9         5278954
MTLF  001.20 052.0 m E Pg      2013/05/11 23:14:55.0   0.4                          T                                        5278956
MTLF  001.20 052.0 m E Sg      2013/05/11 23:15:10.2   0.1                          T                 .7  .13 Ml 1.7         5278957
LFF   002.33 356.9 m E Pg      2013/05/11 23:15:15.3  -0.1                          T                                        5291196
LFF   002.33 356.9 m E Sn      2013/05/11 23:15:37.3   0.1                          T                                        5291203
LFF   002.33 356.9 m E Sg      2013/05/11 23:15:45.5   0.1                          T                1.4  .28 Ml 1.8         5291206
CAF   002.46 019.3 m E Pg      2013/05/11 23:15:17.8   0.0                          T                                        5291199
CAF   002.46 019.3 m E Sn      2013/05/11 23:15:40.1  -0.2                          T                                        5291204
CAF   002.46 019.3 m E Sg      2013/05/11 23:15:49.4  -0.1                          T                2.5  .27 Ml 2.3         5291205
LASF  002.60 054.6 m E Pg      2013/05/11 23:15:20.3   0.0                          T                                        5291198
LASF  002.60 054.6 m E Sg      2013/05/11 23:15:53.7   0.0                          T                 .7  .23 Ml 1.8         5291201
RJF   002.73 008.9 m E Pg      2013/05/11 23:15:22.6  -0.1                          T                                        5291197
RJF   002.73 008.9 m E Sn      2013/05/11 23:15:46.7   0.0                          T                                        5291202
RJF   002.73 008.9 m E Sg      2013/05/11 23:15:58.1   0.3                          T                1.6  .25 Ml 1.8         5291207
SJPF  001.66 288.5 m E Sg      2013/05/11 23:15:24.5   0.2                          T                1.3  .23 Ml 1.9         5291200

.
EVENT     297816
    Date      Time       Latitude Longitude    Depth    Ndef Nsta Gap    Mag1  N    Mag2  N    Mag3  N   Author         ID
       rms   OT_Error      Smajor Sminor Az        Err   mdist  Mdist     Err        Err        Err      Quality

2013/05/12 05:48:29.1     44.4851    6.6699      2.0      25    7 070  Ml 1.6  2  Md 1.7  2              bulletin    297916
                                                                                                         _ldg
      0.42   +-  0.08       1.8    1.4   97.69 +-  0.0    0.10   1.16   +-0.4      +-0.1                 m i ke

FRANCE
Sta     Dist  EvAz     Phase      Date       Time     TRes  Azim  AzRes  Slow  SRes Def   SNR       Amp   Per   Mag1   Mag2       ID
MBDF  000.25 016.7 m E Pg      2013/05/12 05:48:34.4   0.1                          T                                Md 1.7  5278966
MBDF  000.25 016.7 m E Sg      2013/05/12 05:48:37.9   0.2                          T                3.6  .21                5278967
ORIF  000.71 307.8 m E Pg      2013/05/12 05:48:42.2  -0.4                          T                                        5278969
ORIF  000.71 307.8 m E Sg      2013/05/12 05:48:51.6  -0.3                          T                1.5  .20        Md 1.8  5278968
SMRF  000.94 237.5 m E Pg      2013/05/12 05:48:46.5  -0.2                          T                                        5278971
SMRF  000.94 237.5 m E Sg      2013/05/12 05:49:00.1   1.2                          T                                        5278972
FRF   000.92 181.0 m E Pg      2013/05/12 05:48:46.7   0.3                          T                                        5278962
FRF   000.92 181.0 m E Sg      2013/05/12 05:48:59.8   1.3                          T                2.1  .18 Ml 1.9         5278963
LPL   001.03 002.4 m E Pg      2013/05/12 05:48:48.7   0.0                          T                                        5278970
LPG   001.01 003.2 m E Pg      2013/05/12 05:48:48.8   0.4                          T                                        5278965
LPG   001.01 003.2 m E Sg      2013/05/12 05:49:01.9   0.3                          T                 .9  .25 Ml 1.4         5278964
LMR   001.16 185.8 m E Pg      2013/05/12 05:48:50.9   0.2                          T                                        5278961
LMR   001.16 185.8 m E Sg      2013/05/12 05:49:06.0   0.3                          T                                        5278960

.
EVENT     297817
    Date      Time       Latitude Longitude    Depth    Ndef Nsta Gap    Mag1  N    Mag2  N    Mag3  N   Author         ID
       rms   OT_Error      Smajor Sminor Az        Err   mdist  Mdist     Err        Err        Err      Quality

2013/05/12 06:30:56.1     47.7994    5.5873     15.0      28   11 075  Ml 1.4  7  Md 1.7  2              bulletin    297917
                                                                                                         _ldg
      0.64   +-  0.06       1.5    1.0  150.61 +-  0.0    0.55   1.83   +-0.3      +-0.1                 m i ke

FRANCE
Sta     Dist  EvAz     Phase      Date       Time     TRes  Azim  AzRes  Slow  SRes Def   SNR       Amp   Per   Mag1   Mag2       ID
HAU   000.55 067.8 m E Pg      2013/05/12 06:31:07.2   0.3                          T                                        5278978
HAU   000.55 067.8 m E Sg      2013/05/12 06:31:14.7   0.3                          T                7.0  .32        Md 1.6  5278974
SFTF  000.55 318.0 m E Pg      2013/05/12 06:31:07.4   0.5 137.9  0.3               T                                        5278977
SFTF  000.55 318.0 m E Sg      2013/05/12 06:31:14.0  -0.3 135.6  -2.0              T                3.6  .17        Md 1.8  5278973
PAGF  000.76 006.9 m E Pg      2013/05/12 06:31:10.4  -0.3                          T                                        5278980
PAGF  000.76 006.9 m E Sn      2013/05/12 06:31:21.4   0.0 186.6  -0.4              T                2.0  .20                5278981
MEZF  000.79 333.2 m E Pg      2013/05/12 06:31:11.2   0.0 154.9  2.1               T                                        5278979
MEZF  000.79 333.2 m E Sg      2013/05/12 06:31:21.0  -0.6                          T                2.3  .26                5278982
HINF  000.85 088.4 m E Pn      2013/05/12 06:31:11.6  -0.6                          T                                        5278976
HINF  000.85 088.4 m E Pg      2013/05/12 06:31:12.2  -0.2                          T                                        5291234
HINF  000.85 088.4 m E Sg      2013/05/12 06:31:24.1   0.5                          T                2.0  .24                5278975
LOR   001.29 246.2 m E Pn      2013/05/12 06:31:18.2   0.2                          T                                        5291225
LOR   001.29 246.2 m E Pg      2013/05/12 06:31:20.0  -0.3                          T                                        5291224
LOR   001.29 246.2 m E Sg      2013/05/12 06:31:36.8  -0.2  76.4  11.4              T                  1  .22 Ml 1.6         5278984
CABF  001.24 163.8 m E Pg      2013/05/12 06:31:19.5   0.0                          T                                        5291232
CABF  001.24 163.8 m E Sg      2013/05/12 06:31:35.6   0.0                          T                 .2  .22 Ml 1           5291233
CDF   001.29 060.9 m E Pg      2013/05/12 06:31:20.5   0.1                          T                                        5291223
CDF   001.29 060.9 m E Sn      2013/05/12 06:31:34.1   0.1                          T                 .4  .21 Ml 1.4         5291235
CDF   001.29 060.9 m E Sg      2013/05/12 06:31:37.2   0.1                          T                 .6  .20 Ml 1.5         5278983
SSF   001.59 243.2 m E Pn      2013/05/12 06:31:22.4   0.2                          T                                        5291237
SSF   001.59 243.2 m E Pg      2013/05/12 06:31:25.9   0.0                          T                                        5291236
SSF   001.59 243.2 m E Sg      2013/05/12 06:31:46.5  -0.1                          T                 .1  .13 Ml 1.2         5291238
SMF   001.66 226.5 m E Pn      2013/05/12 06:31:23.1   0.0                          T                                        5291226
SMF   001.66 226.5 m E Sg      2013/05/12 06:31:48.5   0.0                          T                  1  .25 Ml 1.7         5291227
AVF   001.83 237.3 m E Pn      2013/05/12 06:31:25.7   0.4                          T                                        5291230
AVF   001.83 237.3 m E Pg      2013/05/12 06:31:30.1  -0.1                          T                                        5291229
AVF   001.83 237.3 m E Sn      2013/05/12 06:31:46.7  -0.1                          T                                        5291228
AVF   001.83 237.3 m E Sg      2013/05/12 06:31:53.7  -0.1                          T                 .3  .22 Ml 1.2         5291231

.
