EVENT     277716
    Date      Time       Latitude Longitude    Depth    Ndef Nsta Gap    Mag1  N    Mag2  N    Mag3  N   Author         ID
       rms   OT_Error      Smajor Sminor Az        Err   mdist  Mdist     Err        Err        Err      Quality

2012/06/07 18:00:42.7     44.8989   11.2013      2.0      70   25 090  Ml 3.4 21                         bulletin    277825
                                                                                                         _ldg
      0.52   +-  0.13       3.0    2.0   75.42 +-  0.0    0.15   6.49   +-0.3                            m i ke

NORTHERN ITALY
Sta     Dist  EvAz     Phase      Date       Time     TRes  Azim  AzRes  Slow  SRes Def   SNR       Amp   Per   Mag1   Mag2       ID
PGF   002.84 215.0 m E Pn      2012/06/07 18:01:27.7   0.4                          T                                        4991292
PGF   002.84 215.0 m E Sn      2012/06/07 18:02:00.2   0.1                          T              128.8  .80 Ml 3.8         4991250
SBF   002.89 250.3 m E Pn      2012/06/07 18:01:28.3   0.4                          T                                        4991291
SBF   002.89 250.3 m E Sn      2012/06/07 18:02:00.9  -0.4                          T               83.0  .41 Ml 3.7         4991251
MBDF  003.16 268.4 m E Pn      2012/06/07 18:01:31.7   0.0                          T                                        4991284
MBDF  003.16 268.4 m E Sn      2012/06/07 18:02:07.5  -0.3                          T               26.6  .47 Ml 3.2         4991257
LPL   003.22 282.6 m E Pn      2012/06/07 18:01:32.3  -0.3                          T                                        4991286
LPL   003.22 282.6 m E Sn      2012/06/07 18:02:08.4  -0.8                          T               55.8  .76 Ml 3.3         4991255
LPG   003.20 282.3 m E Pn      2012/06/07 18:01:32.9   0.5                          T                                        4991287
LPG   003.20 282.3 m E Sn      2012/06/07 18:02:08.5  -0.5                          T               46.3  .68 Ml 3.3         4991254
FRF   003.54 249.4 m E Pn      2012/06/07 18:01:36.9   0.3                          T                                        4991289
FRF   003.54 249.4 m E Sn      2012/06/07 18:02:16.6   0.0                          T               50.2  .50 Ml 3.6         4991253
LMR   003.72 246.8 m E Pn      2012/06/07 18:01:39.3   0.1                          T                                        4991290
LMR   003.72 246.8 m E Sn      2012/06/07 18:02:21.0   0.0                          T               31.8  .40 Ml 3.5         4991252
ORIF  003.78 272.2 m E Pn      2012/06/07 18:01:39.7  -0.4                          T                                        4991285
ORIF  003.78 272.2 m E Sn      2012/06/07 18:02:22.7   0.1                          T               33.5  .54 Ml 3.4         4991256
CABF  003.97 297.4 m E Pn      2012/06/07 18:01:42.6  -0.1                          T                                        4991276
CABF  003.97 297.4 m E Sn      2012/06/07 18:02:26.6  -0.4                          T               37.6  .70 Ml 3.4         4991262
SMRF  004.13 259.1 m E Pn      2012/06/07 18:01:45.0   0.1                          T                                        4991288
HINF  004.19 315.7 m E Pn      2012/06/07 18:01:45.5  -0.1                          T                                        4991275
HINF  004.19 315.7 m E Sn      2012/06/07 18:02:32.0  -0.3                          T               13.7  .29 Ml 3.4         4991263
CDF   004.43 323.8 m E Pn      2012/06/07 18:01:50.5   1.5                          T                                        4991272
CDF   004.43 323.8 m E Sn      2012/06/07 18:02:38.3   0.2                          T               25.7  .52 Ml 3.5         4991268
VIVF  004.64 271.8 m E Pn      2012/06/07 18:01:51.8   0.0                          T                                        4991283
VIVF  004.64 271.8 m E Sn      2012/06/07 18:02:42.8  -0.2                          T                1.8  .21 Ml 2.7         4991258
HAU   004.57 314.5 m E Pn      2012/06/07 18:01:52.0   1.2                          T                                        4991274
HAU   004.57 314.5 m E Sn      2012/06/07 18:02:41.1  -0.3                          T               34.1  .36 Ml 3.5         4991264
LANF  004.70 331.5 m E Pn      2012/06/07 18:01:52.9   0.4                          T                                        4991271
THEF  004.90 314.7 m E Pn      2012/06/07 18:01:56.0   0.8                          T                                        4991273
THEF  004.90 314.7 m E Sn      2012/06/07 18:02:48.8  -0.4                          T                7.8  .24 Ml 3.4         4991265
SMF   005.44 291.3 m E Pn      2012/06/07 18:02:02.5  -0.1                          T                                        4991282
SMF   005.44 291.3 m E Sn      2012/06/07 18:03:01.8  -0.2                          T               23.3  .58 Ml 3.6         4991260
LOR   005.63 297.5 m E Pn      2012/06/07 18:02:06.7   1.5                          T                                        4991270
LOR   005.63 297.5 m E Sn      2012/06/07 18:03:06.4  -0.3                          T                6.5  .28 Ml 3.4         4991269
SSF   005.78 294.7 m E Pn      2012/06/07 18:02:06.9  -0.3                          T                                        4991277
SSF   005.78 294.7 m E Sn      2012/06/07 18:03:09.8  -0.5                          T                                        4991261
AVF   005.80 291.8 m E Pn      2012/06/07 18:02:08.4   0.9                          T                                        4991278
BGF   006.08 288.8 m E Pn      2012/06/07 18:02:11.1  -0.2                          T                                        4991280
BGF   006.08 288.8 m E Sn      2012/06/07 18:03:17.1  -0.3                          T               27.6  .65 Ml 3.7         4991259
HYF   006.41 294.7 m E Pn      2012/06/07 18:02:15.5  -0.3                          T                                        4991281
CAF   006.49 273.5 m E Pn      2012/06/07 18:02:17.7   0.8                          T                                        4991279
PAGF  005.25 316.1 m E Sn      2012/06/07 18:02:57.4  -0.1                          T               19.1  .55 Ml 3.5         4991267
SFTF  005.38 310.1 m E Sn      2012/06/07 18:03:00.2  -0.6                          T                4.3  .30 Ml 3.1         4991266

.
EVENT     277718
    Date      Time       Latitude Longitude    Depth    Ndef Nsta Gap    Mag1  N    Mag2  N    Mag3  N   Author         ID
       rms   OT_Error      Smajor Sminor Az        Err   mdist  Mdist     Err        Err        Err      Quality

2012/06/07 19:29:50.7     50.1342    3.8556       .0 f    21    9 272  Ml 2.2  7  Md 1.9  2              bulletin    277827
                                                                                                         _ldg
      1.18   +-  0.36       5.9    3.7  127.41 +-  0.0    0.24   2.87   +-0.2      +-0.0                 m i km

BELGIUM
Sta     Dist  EvAz     Phase      Date       Time     TRes  Azim  AzRes  Slow  SRes Def   SNR       Amp   Per   Mag1   Mag2       ID
BAIF  000.24 108.2 m E Pg      2012/06/07 19:29:55.4  -0.3                          T                                        4991391
BAIF  000.24 108.2 m E Sg      2012/06/07 19:29:59.1   0.0                          T               18.9  .19        Md 1.9  4991390
GIVF  000.62 092.6 m E Pg      2012/06/07 19:30:02.9   0.1                          T                                        4991389
GIVF  000.62 092.6 m E Sg      2012/06/07 19:30:11.1   0.0                          T               11.1  .23        Md 1.9  4991388
MEZF  001.81 153.9 m E Pn      2012/06/07 19:30:21.8   0.2 324.6  -10.3             T                                        4991385
MEZF  001.81 153.9 m E Sn      2012/06/07 19:30:43.2  -0.9                          T                                        4991386
MEZF  001.81 153.9 m E Sg      2012/06/07 19:30:48.3   0.1 337.2  2.3               T                3.6  .25 Ml 2.3         5017066
PAGF  002.00 141.6 m E Pn      2012/06/07 19:30:24.2   0.0 317.1  -5.9              T                                        4991379
PAGF  002.00 141.6 m E Sn      2012/06/07 19:30:48.8   0.3                          T                5.2  .33 Ml 2.4         4991380
SFTF  002.08 157.7 m E Pn      2012/06/07 19:30:25.4   0.1 332.2  -6.3              T                                        4991378
SFTF  002.08 157.7 m E Sn      2012/06/07 19:30:50.1  -0.4                          T                                        4991387
SFTF  002.08 157.7 m E Sg      2012/06/07 19:30:57.1   0.5                          T                3.7  .23 Ml 2.4         5017067
THEF  002.37 142.9 m E Pn      2012/06/07 19:30:29.7   0.5                          T                                        4991376
THEF  002.37 142.9 m E Sn      2012/06/07 19:30:57.2  -0.2                          T                1.2  .16 Ml 2.2         4991377
HAU   002.69 141.5 m E Pn      2012/06/07 19:30:33.9   0.3                          T                                        4991375
HAU   002.69 141.5 m E Sn      2012/06/07 19:31:04.8  -0.3                          T                 .9  .19 Ml 1.8         4991374
HAU   002.69 141.5 m E Sg      2012/06/07 19:31:15.8   0.2                          T                                        5017065
LANF  002.82 112.7 m E Pn      2012/06/07 19:30:34.8  -0.6                          T                                        4991384
LANF  002.82 112.7 m E Sn      2012/06/07 19:31:07.7  -0.4                          T                1.1  .13 Ml 2.3         4991383
LOR   002.87 180.0 m E Sn      2012/06/07 19:31:09.0  -0.4                          T                                        4991382
LOR   002.87 180.0 m E Sg      2012/06/07 19:31:21.3   0.1 356.4  -3.5              T                 .8  .17 Ml 2.1         4991381

.
EVENT     277717
    Date      Time       Latitude Longitude    Depth    Ndef Nsta Gap    Mag1  N    Mag2  N    Mag3  N   Author         ID
       rms   OT_Error      Smajor Sminor Az        Err   mdist  Mdist     Err        Err        Err      Quality

2012/06/07 19:56:26.8     44.8755   11.0645      2.0      66   24 126  Ml 2.9 19                         bulletin    277826
                                                                                                         _ldg
      0.42   +-  0.09       2.1    1.7  159.02 +-  0.0    1.05   6.96   +-0.2                            m i ke

NORTHERN ITALY
Sta     Dist  EvAz     Phase      Date       Time     TRes  Azim  AzRes  Slow  SRes Def   SNR       Amp   Per   Mag1   Mag2       ID
PGF   002.77 213.5 m E Pn      2012/06/07 19:57:10.7   0.3                          T                                        4991369
PGF   002.77 213.5 m E Sn      2012/06/07 19:57:42.8   0.4                          T                6.6  .31 Ml 2.9         4991334
SBF   002.79 250.0 m E Pn      2012/06/07 19:57:11.8   1.1                          T                                        4991368
SBF   002.79 250.0 m E Sn      2012/06/07 19:57:43.6   0.7                          T               10.9  .20 Ml 3.1         4991335
MBDF  003.06 268.7 m E Pn      2012/06/07 19:57:14.2  -0.2                          T                                        4991362
LPG   003.11 283.0 m E Pn      2012/06/07 19:57:15.1  -0.3                          T                                        4991365
LPG   003.11 283.0 m E Sn      2012/06/07 19:57:50.6  -0.3                          T               13.3  .52 Ml 2.9         4991338
LPL   003.13 283.3 m E Pn      2012/06/07 19:57:15.6   0.2                          T                                        4991364
LPL   003.13 283.3 m E Sn      2012/06/07 19:57:51.2   0.0                          T               21.1  .55 Ml 3.0         4991339
FRF   003.44 249.1 m E Pn      2012/06/07 19:57:20.5   1.1                          T                                        4991366
FRF   003.44 249.1 m E Sn      2012/06/07 19:57:58.4   0.1                          T                6.4  .18 Ml 3.1         4991337
LMR   003.62 246.4 m E Pn      2012/06/07 19:57:22.4   0.5                          T                                        4991367
LMR   003.62 246.4 m E Sn      2012/06/07 19:58:03.2   0.5                          T                6.0  .21 Ml 3.0         4991336
ORIF  003.68 272.5 m E Pn      2012/06/07 19:57:23.8   0.9                          T                                        4991363
ORIF  003.68 272.5 m E Sn      2012/06/07 19:58:04.3   0.0                          T               25.9  .59 Ml 3.2         4991340
CABF  003.89 298.2 m E Pn      2012/06/07 19:57:26.2   0.5                          T                                        4991372
CABF  003.89 298.2 m E Sn      2012/06/07 19:58:09.3   0.0                          T                2.6  .24 Ml 2.7         4991344
HINF  004.14 316.7 m E Pn      2012/06/07 19:57:28.8  -0.2                          T                                        4991373
HINF  004.14 316.7 m E Sn      2012/06/07 19:58:15.3   0.1                          T                1.8  .20 Ml 2.6         4991345
CDF   004.40 324.9 m E Pn      2012/06/07 19:57:32.9   0.4                          T                                        4991370
CDF   004.40 324.9 m E Sn      2012/06/07 19:58:21.4   0.1                          T                 .7  .15 Ml 2.5         4991350
VIVF  004.54 272.0 m E Pn      2012/06/07 19:57:34.2  -0.3                          T                                        4991361
VIVF  004.54 272.0 m E Sn      2012/06/07 19:58:24.9   0.1                          T                1.3  .17 Ml 2.7         4991341
HAU   004.52 315.5 m E Pn      2012/06/07 19:57:34.5   0.3                          T                                        4991371
HAU   004.52 315.5 m E Sn      2012/06/07 19:58:24.2   0.0                          T               12.4  .20 Ml 3.3         4991346
LASF  005.22 263.7 m E Pn      2012/06/07 19:57:43.4  -0.3                          T                                        4991360
LASF  005.22 263.7 m E Sn      2012/06/07 19:58:39.3  -1.6                          T                1.2  .18 Ml 2.7         4991333
SFTF  005.33 310.8 m E Pn      2012/06/07 19:57:45.2   0.1                          T                                        4991355
SFTF  005.33 310.8 m E Sn      2012/06/07 19:58:43.5   0.1                          T                1.7  .21 Ml 2.9         4991349
SMF   005.36 291.8 m E Pn      2012/06/07 19:57:46.0   0.4                          T                                        4991359
SMF   005.36 291.8 m E Sn      2012/06/07 19:58:44.1   0.0                          T                3.0  .20 Ml 3.1         4991343
MEZF  005.50 313.4 m E Pn      2012/06/07 19:57:47.7   0.2                          T                                        4991348
MEZF  005.50 313.4 m E Sn      2012/06/07 19:58:47.8   0.2                          T                                        4991347
LOR   005.56 298.1 m E Pn      2012/06/07 19:57:48.5   0.3                          T                                        4991354
LOR   005.56 298.1 m E Sn      2012/06/07 19:58:49.6   0.7                          T                2.3  .26 Ml 2.9         4991353
SSF   005.70 295.2 m E Pn      2012/06/07 19:57:50.4   0.1                          T                                        4991356
AVF   005.72 292.3 m E Pn      2012/06/07 19:57:50.4  -0.1                          T                                        4991358
BGF   006.00 289.2 m E Pn      2012/06/07 19:57:54.2   0.0                          T                                        4991342
TCF   006.37 285.9 m E Pn      2012/06/07 19:57:59.4   0.0                          T                                        4991357
GIVF  006.72 323.3 m E Pn      2012/06/07 19:58:04.4   0.3                          T                                        4991351
BAIF  006.96 320.6 m E Pn      2012/06/07 19:58:07.5   0.1                          T                                        4991352

.
