EVENT     263214
    Date      Time       Latitude Longitude    Depth    Ndef Nsta Gap    Mag1  N    Mag2  N    Mag3  N   Author         ID
       rms   OT_Error      Smajor Sminor Az        Err   mdist  Mdist     Err        Err        Err      Quality

2011/08/27 03:13:42.0     50.2475   12.4509     10.0 f    46   15 109  Ml 3.3 17                         js067245    263214

      0.41   +-  0.07       1.6    1.0  129.61 +-  0.0    0.01   7.67   +-0.3                            m i ke

GERMANY
Sta     Dist  EvAz     Phase      Date       Time     TRes  Azim  AzRes  Slow  SRes Def   SNR       Amp   Per   Mag1   Mag2       ID
RUP   003.52 263.1 m E Pg      2011/08/27 03:14:46.1  -1.2                          T                                        4742160
HAU   004.59 243.1 m E Pn      2011/08/27 03:14:50.3   0.9                          T                                        4742183
HAU   004.59 243.1 m E Pg      2011/08/27 03:15:07.1   0.0                          T                                        4742166
HAU   004.59 243.1 m E Sg      2011/08/27 03:16:05.6  -0.3                          T               14.4  .27 Ml 3.3         4742173
CDF   003.85 243.5 m E Pg      2011/08/27 03:14:53.5   0.1                          T                                        4742182
CDF   003.85 243.5 m E Sn      2011/08/27 03:15:22.9   0.9                          T                                        4742164
CDF   003.85 243.5 m E Sg      2011/08/27 03:15:42.4  -0.5                          T               21.2  .30 Ml 3.6         4742169
THEF  004.69 246.9 m E Pg      2011/08/27 03:15:09.0   0.2                          T                                        4742167
THEF  004.69 246.9 m E Sg      2011/08/27 03:16:09.0   0.1                          T               13.9  .25 Ml 3.6         4742172
LOR   006.41 245.6 m E Pn      2011/08/27 03:15:14.8   0.5                          T                                        4742188
LOR   006.41 245.6 m E Pg      2011/08/27 03:15:40.3  -0.3                          T                                        4742187
LOR   006.41 245.6 m E Sg      2011/08/27 03:17:03.0   0.2                          T                5.1  .30 Ml 3.4         4742186
SFTF  005.27 250.0 m E Pg      2011/08/27 03:15:18.4  -1.1                          T                                        4742159
SFTF  005.27 250.0 m E Sg      2011/08/27 03:16:25.4  -1.6                          T                5.1  .24 Ml 3.3         4742171
CABF  005.58 231.8 m E Pg      2011/08/27 03:15:25.7   0.4                          T                                        4742184
CABF  005.58 231.8 m E Sg      2011/08/27 03:16:39.2   2.3                          T                7.2  .43 Ml 3.2         4742175
HINF  004.41 238.7 m E Sn      2011/08/27 03:15:35.8   0.3                          T                                        4742165
HINF  004.41 238.7 m E Sg      2011/08/27 03:16:00.7   0.4                          T               19.6  .32 Ml 3.5         4742174
SMF   006.77 241.1 m E Pg      2011/08/27 03:15:47.8   0.7                          T                                        4742181
SMF   006.77 241.1 m E Sg      2011/08/27 03:17:13.5  -0.2                          T                6.7  .30 Ml 3.6         4742177
PAGF  004.71 251.5 m E Sg      2011/08/27 03:16:08.3  -1.2                          T                3.9  .44 Ml 2.8         4742170
GIVF  004.90 271.2 m E Sg      2011/08/27 03:16:13.6  -2.0                          T                5.5  .26 Ml 3.2         4742185
SSF   006.73 245.1 m E Sg      2011/08/27 03:17:12.6   0.1                          T                5.9  .39 Ml 3.5         4742168
AVF   006.96 243.7 m E Sg      2011/08/27 03:17:18.8  -1.0                          T                1.6  .30 Ml 3.0         4742176
ORIF  006.94 222.3 m E Sg      2011/08/27 03:17:21.5   2.3                          T                2.2  .41 Ml 3.0         4742163
BGF   007.38 243.7 m E Sg      2011/08/27 03:17:33.1   0.2                          T               10.7  .44 Ml 3.7         4742178

.
EVENT     263270
    Date      Time       Latitude Longitude    Depth    Ndef Nsta Gap    Mag1  N    Mag2  N    Mag3  N   Author         ID
       rms   OT_Error      Smajor Sminor Az        Err   mdist  Mdist     Err        Err        Err      Quality

2011/08/27 07:54:49.7     36.8707   -4.1230     40.0 f    41    3 151                                    js067245    263270

                                               +-         0.48   7.04                                    m i ke

STRAIT OF GIBRALTAR
Sta     Dist  EvAz     Phase      Date       Time     TRes  Azim  AzRes  Slow  SRes Def   SNR       Amp   Per   Mag1   Mag2       ID
SJPF  006.62 018.7 m E Pn      2011/08/27 07:56:25.2   2.0                          T                                        4742244
SJPF  006.62 018.7 m E P       2011/08/27 07:56:26.7  -0.4                          T                                        4742327
SJPF  006.62 018.7 m E Sg      2011/08/27 07:57:35.1   1.8                          T                                        4742328
ETSF  006.61 023.4 m E P       2011/08/27 07:56:26.6  -0.5                          T                                        4742243
ETSF  006.61 023.4 m E Sg      2011/08/27 07:57:33.2  -0.1                          T                                        4742304
EPF   007.04 027.7 m E Pn      2011/08/27 07:56:31.0   2.0                          T                                        4742248
EPF   007.04 027.7 m E Sg      2011/08/27 07:57:44.8   1.4                          T                                        4742305

.
EVENT     263217
    Date      Time       Latitude Longitude    Depth    Ndef Nsta Gap    Mag1  N    Mag2  N    Mag3  N   Author         ID
       rms   OT_Error      Smajor Sminor Az        Err   mdist  Mdist     Err        Err        Err      Quality

2011/08/27 11:50:22.0     45.9602    2.7944      3.0 f    54   19 053  Ml 2.5 19  Md 2.4  3              js067245    263217

      0.53   +-  0.05       1.0     .8  114.40 +-  0.0    0.16   3.42   +-0.2      +-0.0                 m i ke

FRANCE
Sta     Dist  EvAz     Phase      Date       Time     TRes  Azim  AzRes  Slow  SRes Def   SNR       Amp   Per   Mag1   Mag2       ID
TCF   000.52 309.1 m E Pg      2011/08/27 11:50:32.1   0.1                          T                                        4742282
TCF   000.52 309.1 m E Sg      2011/08/27 11:50:38.9   0.1                          T                7.8  .20        Md 2.5  4742274
TCF   000.52 309.1 m E Sn      2011/08/27 11:50:43.0   0.2                          T                                        4753163
BGF   000.60 003.4 m E Pg      2011/08/27 11:50:33.5   0.1                          T                                        4742285
BGF   000.60 003.4 m E Sg      2011/08/27 11:50:41.4   0.2                          T               34.0  .21        Md 2.4  4742256
BGF   000.60 003.4 m E Sn      2011/08/27 11:50:45.4   0.0                          T                                        4753162
AVF   000.92 024.8 m E Pg      2011/08/27 11:50:39.1  -0.1                          T                                        4742283
AVF   000.92 024.8 m E Sg      2011/08/27 11:50:50.8  -0.3                          T               16.9  .21 Ml 2.7         4742273
SMF   001.00 046.3 m E Pg      2011/08/27 11:50:40.8   0.1                          T                                        4742284
SMF   001.00 046.3 m E Sg      2011/08/27 11:50:54.5   0.8                          T                7.2  .18 Ml 2.4         4742272
RJF   001.11 234.3 m E Pg      2011/08/27 11:50:42.9   0.1                          T                                        4753160
RJF   001.11 234.3 m E P       2011/08/27 11:50:44.7   0.3                          T                                        4754791
RJF   001.11 234.3 m E Sg      2011/08/27 11:50:57.4   0.2                          T               13.2  .22 Ml 2.3         4753161
CAF   001.16 206.7 m E Pn      2011/08/27 11:50:43.2  -0.3                          T                                        4753157
CAF   001.16 206.7 m E Pg      2011/08/27 11:50:43.7   0.1                          T                                        4742277
CAF   001.16 206.7 m E Sg      2011/08/27 11:50:59.0   0.4                          T               16.8  .20 Ml 2.8         4742268
SSF   001.21 023.8 m E Pg      2011/08/27 11:50:44.4  -0.1                          T                                        4742281
SSF   001.21 023.8 m E Sg      2011/08/27 11:51:00.4   0.3                          T               14.4  .23 Ml 2.8         4742275
HYF   001.31 355.4 m E Pg      2011/08/27 11:50:46.3  -0.2                          T                                        4753164
HYF   001.31 355.4 m E Sg      2011/08/27 11:51:03.6   0.1                          T                                        4742271
LOR   001.50 028.9 m E Pg      2011/08/27 11:50:49.8  -0.2 215.1  5.4               T                                        4742280
LOR   001.50 028.9 m E Sg      2011/08/27 11:51:08.9  -0.4 205.5  -4.2              T                8.5  .20 Ml 2.7         4742276
VIVF  001.72 129.2 m E Pn      2011/08/27 11:50:50.8  -0.4                          T                                        4753156
VIVF  001.72 129.2 m E Pg      2011/08/27 11:50:53.5  -0.6                          T                                        4742279
VIVF  001.72 129.2 m E Sg      2011/08/27 11:51:16.3   0.0                          T                4.3  .22 Ml 2.4         4742265
LFF   001.77 235.5 m E Pg      2011/08/27 11:50:55.1   0.3                          T                                        4742262
LFF   001.77 235.5 m E Sg      2011/08/27 11:51:18.1   0.4                          T               11.3  .36 Ml 2.5         4742263
LASF  002.03 157.8 m E Pn      2011/08/27 11:50:55.5   0.2                          T                                        4753155
LASF  002.03 157.8 m E Pg      2011/08/27 11:51:00.0   0.3                          T                                        4742260
LASF  002.03 157.8 m E Sg      2011/08/27 11:51:25.6  -0.2                          T                4.0  .24 Ml 2.4         4742266
MFF   002.14 288.5 m E Pn      2011/08/27 11:50:57.5   0.8                          T                                        4753158
MFF   002.14 288.5 m E Pg      2011/08/27 11:51:01.3  -0.4                          T                                        4742261
MFF   002.14 288.5 m E Sg      2011/08/27 11:51:29.5   0.3                          T                8.1  .23 Ml 2.9         4742255
MTLF  002.65 189.1 m E Pg      2011/08/27 11:51:11.5   0.3                          T                                        4742278
MTLF  002.65 189.1 m E Sg      2011/08/27 11:51:44.9  -0.3                          T                1.6  .20 Ml 2.3         4742267
EPF   003.42 211.8 m E Pn      2011/08/27 11:51:14.3   0.1                          T                                        4754789
EPF   003.42 211.8 m E Pg      2011/08/27 11:51:25.3   0.0                          T                                        4754788
EPF   003.42 211.8 m E Sg      2011/08/27 11:52:09.4   0.3                          T                1.1  .25 Ml 2.2         4754790
MEZF  002.97 030.4 m E Pg      2011/08/27 11:51:17.3   0.3 210.8  -1.2              T                                        4754785
MEZF  002.97 030.4 m E Sg      2011/08/27 11:51:54.9  -0.4                          T                5.6  .36 Ml 2.6         4742258
HAU   003.18 048.7 m E Pg      2011/08/27 11:51:21.1   0.2                          T                                        4742257
HAU   003.18 048.7 m E Sg      2011/08/27 11:52:01.8   0.1                          T                2.5  .29 Ml 2.2         4754786
CABF  002.37 072.9 m E Sg      2011/08/27 11:51:35.2  -1.5                          T                3.6  .33 Ml 2.3         4742259
HINF  003.35 054.8 m E Sg      2011/08/27 11:52:07.1   0.2                          T                1.1  .22 Ml 2.2         4754787

.
EVENT     263964
    Date      Time       Latitude Longitude    Depth    Ndef Nsta Gap    Mag1  N    Mag2  N    Mag3  N   Author         ID
       rms   OT_Error      Smajor Sminor Az        Err   mdist  Mdist     Err        Err        Err      Quality

2011/08/27 12:32:41.5     43.0989    -.8542      2.0      21    3 169  Ml 1.1  1  Md 1.3  2              js067245    263965

      0.23   +-  0.07       1.4     .9    5.59 +-  0.0    0.11   0.88   +-         +-0.2                 m i ke

PYRENEES
Sta     Dist  EvAz     Phase      Date       Time     TRes  Azim  AzRes  Slow  SRes Def   SNR       Amp   Per   Mag1   Mag2       ID
ETSF  000.29 132.7 m E Pg      2011/08/27 12:32:46.5  -0.9                          T                                        4754795
ETSF  000.29 132.7 m E Sg      2011/08/27 12:32:50.8  -0.5                          T                2.0  .26        Md 1.5  4754796
SJPF  000.27 273.2 m E Pg      2011/08/27 12:32:46.8  -0.1                          T                                        4754793
SJPF  000.27 273.2 m E Sg      2011/08/27 12:32:50.5  -0.1                          T                4.4  .39        Md 1.2  4754794
EPF   000.88 094.1 m E Sg      2011/08/27 12:33:09.4  -0.1                          T                 .4  .21 Ml 1.1         4754792

.
EVENT     263271
    Date      Time       Latitude Longitude    Depth    Ndef Nsta Gap    Mag1  N    Mag2  N    Mag3  N   Author         ID
       rms   OT_Error      Smajor Sminor Az        Err   mdist  Mdist     Err        Err        Err      Quality

2011/08/28 05:43:13.3     43.1370   -1.0787     15.0      12    3 170  Ml 1.0  1  Md 1.5  2              js067245    263271

      0.23   +-  0.08       2.3    1.1  179.99 +-  0.0    0.11   1.04   +-         +-0.2                 m i ke

PYRENEES
Sta     Dist  EvAz     Phase      Date       Time     TRes  Azim  AzRes  Slow  SRes Def   SNR       Amp   Per   Mag1   Mag2       ID
SJPF  000.11 257.6 m E Pg      2011/08/28 05:43:17.0   0.2                          T                                        4742294
SJPF  000.11 257.6 m E Sg      2011/08/28 05:43:19.5   0.3                          T                2.6  .19        Md 1.6  4742292
ETSF  000.45 121.8 m E Pg      2011/08/28 05:43:22.0  -0.3                          T                                        4742293
ETSF  000.45 121.8 m E Sg      2011/08/28 05:43:28.2  -0.3                          T                1.8  .23        Md 1.3  4742291
EPF   001.04 095.4 m E Pg      2011/08/28 05:43:33.1   0.0                          T                                        4742290
EPF   001.04 095.4 m E Sg      2011/08/28 05:43:47.4   0.7                          T                 .3  .18 Ml 1.0         4742289

.
EVENT     263239
    Date      Time       Latitude Longitude    Depth    Ndef Nsta Gap    Mag1  N    Mag2  N    Mag3  N   Author         ID
       rms   OT_Error      Smajor Sminor Az        Err   mdist  Mdist     Err        Err        Err      Quality

2011/08/28 05:50:20.7     43.1378   -1.0794     15.0      12    3 170  Ml 1.1  1  Md 1.4  2              js067245    263239

      0.23   +-  0.09       2.5    1.2  179.96 +-  0.0    0.11   1.05   +-         +-0.1                 m i ke

PYRENEES
Sta     Dist  EvAz     Phase      Date       Time     TRes  Azim  AzRes  Slow  SRes Def   SNR       Amp   Per   Mag1   Mag2       ID
SJPF  000.11 257.1 m E Pg      2011/08/28 05:50:24.5   0.3                          T                                        4742300
SJPF  000.11 257.1 m E Sg      2011/08/28 05:50:26.9   0.2                          T                4.7  .23        Md 1.5  4742298
ETSF  000.45 121.9 m E Pg      2011/08/28 05:50:29.4  -0.4                          T                                        4742299
ETSF  000.45 121.9 m E Sg      2011/08/28 05:50:35.7  -0.3                          T                3.7  .29        Md 1.4  4742297
EPF   001.05 095.4 m E Pg      2011/08/28 05:50:40.7   0.1                          T                                        4742295
EPF   001.05 095.4 m E Sg      2011/08/28 05:50:54.7   0.5                          T                 .5  .24 Ml 1.1         4742296

.
EVENT     263240
    Date      Time       Latitude Longitude    Depth    Ndef Nsta Gap    Mag1  N    Mag2  N    Mag3  N   Author         ID
       rms   OT_Error      Smajor Sminor Az        Err   mdist  Mdist     Err        Err        Err      Quality

2011/08/28 06:45:08.8     50.2595   12.4535     10.0 f    37   12 109  Ml 2.9 12                         js067245    263240

      0.39   +-  0.08       1.6    1.0  129.67 +-  0.0    0.06   7.39   +-0.3                            m i ke

GERMANY
Sta     Dist  EvAz     Phase      Date       Time     TRes  Azim  AzRes  Slow  SRes Def   SNR       Amp   Per   Mag1   Mag2       ID
RUP   003.53 263.0 m E Pn      2011/08/28 06:46:02.9   1.0                          T                                        4742307
RUP   003.53 263.0 m E Sg      2011/08/28 06:46:59.1  -0.4                          T                                        4742325
CDF   003.86 243.3 m E Pn      2011/08/28 06:46:07.4   1.0                          T                                        4742312
CDF   003.86 243.3 m E Pg      2011/08/28 06:46:21.7   1.3                          T                                        4742316
CDF   003.86 243.3 m E Sg      2011/08/28 06:47:09.9   0.0                          T                6.2  .26 Ml 3.1         4742324
HINF  004.42 238.6 m E Pg      2011/08/28 06:46:30.4  -0.3                          T                                        4742318
HINF  004.42 238.6 m E Sg      2011/08/28 06:47:27.0  -0.5                          T                4.8  .25 Ml 3.0         4742322
HAU   004.60 243.0 m E Pg      2011/08/28 06:46:34.6   0.6                          T                                        4742317
HAU   004.60 243.0 m E Sg      2011/08/28 06:47:33.1   0.1                          T                7.7  .32 Ml 3.0         4742323
CABF  005.59 231.7 m E Pg      2011/08/28 06:46:53.1   0.7                          T                                        4742319
CABF  005.59 231.7 m E Sg      2011/08/28 06:48:03.8  -0.2                          T                4.1  .52 Ml 2.9         4742309
SSF   006.73 245.1 m E Pg      2011/08/28 06:47:13.1  -0.2                          T                                        4742315
SSF   006.73 245.1 m E Sg      2011/08/28 06:48:40.1   0.6                          T                2.5  .39 Ml 3.1         4742310
SMF   006.77 241.0 m E Pg      2011/08/28 06:47:14.6   0.6                          T                                        4742314
SMF   006.77 241.0 m E Sg      2011/08/28 06:48:41.8   1.0                          T                3.8  .48 Ml 3.1         4742321
THEF  004.69 246.8 m E Sg      2011/08/28 06:47:35.9   0.0                          T                3.0  .25 Ml 2.9         4742308
PAGF  004.71 251.4 m E Sg      2011/08/28 06:47:36.7   0.3                          T                1.5  .45 Ml 2.3         4742313
BAIF  005.30 271.0 m E Sg      2011/08/28 06:47:54.2  -0.7                          T                2.0  .41 Ml 2.6         4742311
LOR   006.42 245.5 m E Sg      2011/08/28 06:48:30.6   0.8                          T                2.6  .34 Ml 3.1         4742326
BGF   007.39 243.6 m E Sg      2011/08/28 06:49:00.5   0.5                          T                4.5  .42 Ml 3.3         4742320

.
