EVENT     260229
    Date      Time       Latitude Longitude    Depth    Ndef Nsta Gap    Mag1  N    Mag2  N    Mag3  N   Author         ID
       rms   OT_Error      Smajor Sminor Az        Err   mdist  Mdist     Err        Err        Err      Quality

2011/06/11 13:01:19.0     42.9754     .1589      2.0      54   14 034  Ml 2.6 13  Md 2.6  3              js067245    260229

      0.51   +-  0.06       1.2    1.0    8.47 +-  0.0    0.14   5.47   +-0.2      +-0.1                 m i ke

PYRENEES
Sta     Dist  EvAz     Phase      Date       Time     TRes  Azim  AzRes  Slow  SRes Def   SNR       Amp   Per   Mag1   Mag2       ID
EPF   000.14 067.5 m E Pg      2011/06/11 13:01:22.1   0.0                          T   001.0                                4705518
EPF   000.14 067.5 m E Sg      2011/06/11 13:01:24.7   0.5                          T   001.0      292.8  .24        Md 2.8  4705519
ETSF  000.53 262.0 m E Pg      2011/06/11 13:01:28.8  -0.4                          T   001.0                                4705526
ETSF  000.53 262.0 m E Sg      2011/06/11 13:01:35.7  -0.5                          T   001.0       77.3  .32        Md 2.6  4705527
SJPF  001.02 278.2 m E Pn      2011/06/11 13:01:38.8   0.1                          T   001.0                                4705532
SJPF  001.02 278.2 m E Sg      2011/06/11 13:01:51.4  -0.1                          T   001.0        4.5  .20 Ml 2.2 Md 2.5  4705533
MTLF  001.55 075.7 m E Pn      2011/06/11 13:01:46.1   0.2                          T   001.0                                4705528
MTLF  001.55 075.7 m E Pg      2011/06/11 13:01:47.6  -0.3                          T   001.0                                4705529
MTLF  001.55 075.7 m E Sg      2011/06/11 13:02:06.9  -1.0                          T   001.0       12.6  .24 Ml 2.8         4705530
LFF   002.01 011.9 m E Pn      2011/06/11 13:01:52.8   0.6                          T                                        4706594
LFF   002.01 011.9 m E Pg      2011/06/11 13:01:56.6   0.4                          T   001.0                                4705521
LFF   002.01 011.9 m E Sg      2011/06/11 13:02:21.8  -0.4                          T   001.0       10.9  .32 Ml 2.6         4705522
CAF   002.39 034.6 m E Pn      2011/06/11 13:01:56.7  -0.6                          T                                        4706593
CAF   002.39 034.6 m E Pg      2011/06/11 13:02:01.9  -1.4                          T   001.0                                4705516
CAF   002.39 034.6 m E Sn      2011/06/11 13:02:25.5   0.1                          T   001.0        4.7  .16 Ml 2.8         4705517
CAF   002.39 034.6 m E Sg      2011/06/11 13:02:35.1   1.1                          T                4.9  .16 Ml 2.8         4706589
RJF   002.53 022.3 m E Pn      2011/06/11 13:01:59.3   0.2                          T                                        4706595
RJF   002.53 022.3 m E Pg      2011/06/11 13:02:05.4  -0.4                          T   001.0                                4705514
RJF   002.53 022.3 m E Sg      2011/06/11 13:02:39.6   1.3                          T                5.0  .20 Ml 2.4         4706588
LASF  002.91 066.5 m E Sg      2011/06/11 13:02:50.1  -0.1                          T   001.0        3.9  .24 Ml 2.6         4705520
MFF   003.63 356.7 m E Sg      2011/06/11 13:03:11.6  -1.3                          T   001.0        1.7  .28 Ml 2.5         4705524
TCF   003.62 023.1 m E Sg      2011/06/11 13:03:13.2   0.6                          T   001.0        1.7  .20 Ml 2.5         4705525
VIVF  003.76 058.5 m E Sg      2011/06/11 13:03:18.2   1.2                          T   001.0        2.2  .28 Ml 2.5         4705534
BGF   004.06 027.2 m E Sg      2011/06/11 13:03:26.7   0.4                          T   001.0        5.6  .32 Ml 2.9         4705515
QUIF  005.47 335.8 m E Sn      2011/06/11 13:03:40.8   1.9                          T   001.0          5  .80 Ml 2.8         4705531
LPG   005.37 059.7 m E Sg      2011/06/11 13:04:08.9   1.6                          T   001.0        1.5  .16 Ml 2.9         4705523

.
EVENT     260230
    Date      Time       Latitude Longitude    Depth    Ndef Nsta Gap    Mag1  N    Mag2  N    Mag3  N   Author         ID
       rms   OT_Error      Smajor Sminor Az        Err   mdist  Mdist     Err        Err        Err      Quality

2011/06/11 15:50:48.3     42.9036    -.7193     15.0       6    3 207             Md 1.9  2              js067245    260230

      0.28   +-  0.33      19.3    2.9   12.47 +-  0.0    0.12   0.79              +-0.2                 m i ke

PYRENEES
Sta     Dist  EvAz     Phase      Date       Time     TRes  Azim  AzRes  Slow  SRes Def   SNR       Amp   Per   Mag1   Mag2       ID
ETSF  000.12 092.4 m E Pg      2011/06/11 15:50:52.0   0.0                          T                                        4706602
ETSF  000.12 092.4 m E Sg      2011/06/11 15:50:54.1  -0.4                          T                9.3  .28        Md 2.0  4706603
SJPF  000.43 299.6 m E Pg      2011/06/11 15:50:56.8  -0.1                          T                                        4706604
SJPF  000.43 299.6 m E Sg      2011/06/11 15:51:02.9   0.2                          T                5.8  .22        Md 1.7  4706605
EPF   000.79 080.4 m E Pg      2011/06/11 15:51:03.7   0.3                          T                                        4706600
EPF   000.79 080.4 m E Sg      2011/06/11 15:51:13.3  -0.5                          T                2.4  .23                4706601

.
EVENT     260429
    Date      Time       Latitude Longitude    Depth    Ndef Nsta Gap    Mag1  N    Mag2  N    Mag3  N   Author         ID
       rms   OT_Error      Smajor Sminor Az        Err   mdist  Mdist     Err        Err        Err      Quality

2011/06/11 17:44:00.5     42.4063    1.3972     10.0      16    5 067  Ml 1.6  5  Md 1.8  1              js067245    260429

      0.30   +-  0.07       1.5    1.2   19.11 +-  0.0    0.12   2.45   +-0.1      +-                    m i ke

PYRENEES
Sta     Dist  EvAz     Phase      Date       Time     TRes  Azim  AzRes  Slow  SRes Def   SNR       Amp   Per   Mag1   Mag2       ID
EPF   001.00 309.0 m E Pg      2011/06/11 17:44:19.0  -0.3                          T                                        4707514
EPF   001.00 309.0 m E Sg      2011/06/11 17:44:32.0  -0.3                          T                1.1  .21 Ml 1.5 Md 1.8  4707515
MTLF  001.11 032.6 m E Pg      2011/06/11 17:44:21.2  -0.2                          T                                        4707516
MTLF  001.11 032.6 m E Sg      2011/06/11 17:44:35.7  -0.1                          T                1.3  .23 Ml 1.6         4707517
ETSF  001.52 289.5 m E P       2011/06/11 17:44:27.8  -0.5                          T                                        4707512
ETSF  001.52 289.5 m E Sg      2011/06/11 17:44:49.3   0.5                          T                1.0  .33 Ml 1.6         4707513
SJPF  002.06 291.0 m E Sg      2011/06/11 17:45:05.3   0.0                          T                 .3  .25 Ml 1.4         4707511
LASF  002.45 046.3 m E Sg      2011/06/11 17:45:17.5  -0.1                          T                 .6  .24 Ml 1.7         4707510

.
EVENT     260231
    Date      Time       Latitude Longitude    Depth    Ndef Nsta Gap    Mag1  N    Mag2  N    Mag3  N   Author         ID
       rms   OT_Error      Smajor Sminor Az        Err   mdist  Mdist     Err        Err        Err      Quality

2011/06/11 18:33:09.2     45.8102   10.1587      2.0      37   17 102  Ml 2.5  9                         js067245    260231

      0.37   +-  0.09       2.0    1.7  120.47 +-  0.0    0.33   5.13   +-0.2                            m i ke

NORTHERN ITALY
Sta     Dist  EvAz     Phase      Date       Time     TRes  Azim  AzRes  Slow  SRes Def   SNR       Amp   Per   Mag1   Mag2       ID
LPG   002.41 263.8 m E P       2011/06/11 18:33:50.7   0.0                          T                                        4706630
LPG   002.41 263.8 m E Sn      2011/06/11 18:34:16.6   0.0                          T                3.4  .30 Ml 2.4         4706678
LPL   002.42 264.3 m E P       2011/06/11 18:33:50.9   0.1                          T                                        4706631
LPL   002.42 264.3 m E Sn      2011/06/11 18:34:16.6  -0.1                          T                6.7  .42 Ml 2.5         4706679
MBDF  002.63 246.8 m E Pn      2011/06/11 18:33:51.0   0.1                          T                                        4706629
MBDF  002.63 246.8 m E Sn      2011/06/11 18:34:21.7   0.2                          T                3.0  .35 Ml 2.3         4706677
SBF   002.75 225.8 m E Pn      2011/06/11 18:33:52.4  -0.1                          T                                        4706684
SBF   002.75 225.8 m E P       2011/06/11 18:33:55.1  -0.1                          T                                        4706624
CABF  002.94 287.3 m E P       2011/06/11 18:33:58.0   0.0                          T                                        4706637
HINF  003.03 312.7 m E P       2011/06/11 18:33:58.9  -0.3                          T                                        4706638
HINF  003.03 312.7 m E Sn      2011/06/11 18:34:31.4   0.4                          T                                        4706618
HINF  003.03 312.7 m E Sg      2011/06/11 18:34:44.2  -0.2                          T                4.1  .28 Ml 2.6         4706619
CDF   003.26 323.9 m E P       2011/06/11 18:34:02.3  -0.3                          T                                        4706640
CDF   003.26 323.9 m E Sn      2011/06/11 18:34:36.5  -0.1                          T                                        4706681
CDF   003.26 323.9 m E Sg      2011/06/11 18:34:52.5   0.8                          T                2.8  .34 Ml 2.5         4706682
ORIF  003.15 255.1 m E P       2011/06/11 18:34:02.4   1.5                          T                                        4706628
FRF   003.37 229.3 m E P       2011/06/11 18:34:03.6  -0.4                          T                                        4706626
FRF   003.37 229.3 m E Sn      2011/06/11 18:34:39.0   0.0                          T                1.9  .28 Ml 2.4         4706623
HAU   003.41 311.4 m E P       2011/06/11 18:34:04.2  -0.5                          T                                        4706639
HAU   003.41 311.4 m E Sn      2011/06/11 18:34:40.1   0.0                          T                6.8  .40 Ml 2.5         4706680
LMR   003.60 227.8 m E Pn      2011/06/11 18:34:04.7   0.7                          T                                        4706625
VIVF  003.98 258.1 m E Pn      2011/06/11 18:34:09.2   0.0                          T                                        4706633
VIVF  003.98 258.1 m E P       2011/06/11 18:34:12.3  -0.5                          T                                        4706632
SMRF  003.74 242.2 m E P       2011/06/11 18:34:09.8   0.5                          T                                        4706627
SMF   004.46 283.0 m E P       2011/06/11 18:34:18.7  -0.8                          T                                        4706635
SMF   004.46 283.0 m E Sn      2011/06/11 18:35:04.8  -0.5                          T                3.2  .28 Ml 2.8         4706620
LOR   004.59 290.8 m E P       2011/06/11 18:34:20.2  -1.1                          T                                        4706641
LOR   004.59 290.8 m E Sn      2011/06/11 18:35:07.6  -0.6                          T                2.4  .32 Ml 2.7         4706683
AVF   004.82 284.2 m E P       2011/06/11 18:34:23.3  -1.3                          T                                        4706636
BGF   005.13 281.0 m E P       2011/06/11 18:34:27.8  -1.2                          T                                        4706634

.
EVENT     260232
    Date      Time       Latitude Longitude    Depth    Ndef Nsta Gap    Mag1  N    Mag2  N    Mag3  N   Author         ID
       rms   OT_Error      Smajor Sminor Az        Err   mdist  Mdist     Err        Err        Err      Quality

2011/06/11 20:55:53.0     43.1062    -.6005      2.0      34    4 162  Ml 1.4  1  Md 1.8  2              js067245    260232

      0.49   +-  0.14       2.6    1.6    2.09 +-  0.0    0.21   2.26   +-         +-0.0                 m i ke

PYRENEES
Sta     Dist  EvAz     Phase      Date       Time     TRes  Azim  AzRes  Slow  SRes Def   SNR       Amp   Per   Mag1   Mag2       ID
ETSF  000.21 171.7 m E Pg      2011/06/11 20:55:56.2  -1.1                          T                                        4706689
ETSF  000.21 171.7 m E Sg      2011/06/11 20:55:58.6  -1.6                          T               11.0  .22        Md 1.8  4706690
SJPF  000.46 271.1 m E Pg      2011/06/11 20:56:01.8   0.0                          T                                        4706687
SJPF  000.46 271.1 m E Sg      2011/06/11 20:56:08.7   0.9                          T                1.3  .16        Md 1.8  4706688
EPF   000.69 096.0 m E Pg      2011/06/11 20:56:06.1  -0.1                          T                                        4706685
EPF   000.69 096.0 m E Sg      2011/06/11 20:56:16.1   0.8                          T                1.3  .22                4706686
MTLF  002.07 082.5 m E Sg      2011/06/11 20:56:57.9  -0.3                          T                 .5  .34 Ml 1.4         4706691

.
EVENT     260233
    Date      Time       Latitude Longitude    Depth    Ndef Nsta Gap    Mag1  N    Mag2  N    Mag3  N   Author         ID
       rms   OT_Error      Smajor Sminor Az        Err   mdist  Mdist     Err        Err        Err      Quality

2011/06/11 22:46:49.1     39.3329    -.2918     10.0 f   153   13 103  Ml 2.9  9                         js067245    260233

      0.81   +-  0.09       2.5    1.2  124.99 +-  0.0    1.04   9.43   +-0.3                            m i ke

SPAIN
Sta     Dist  EvAz     Phase      Date       Time     TRes  Azim  AzRes  Slow  SRes Def   SNR       Amp   Per   Mag1   Mag2       ID
ETSF  003.57 356.8 m E Pn      2011/06/11 22:47:43.8   1.1                          T                                        4706716
ETSF  003.57 356.8 m E Pg      2011/06/11 22:47:54.7  -0.6                          T                                        4706717
ETSF  003.57 356.8 m E Sn      2011/06/11 22:48:21.8  -0.6                          T                                        4706704
ETSF  003.57 356.8 m E Sg      2011/06/11 22:48:40.3  -0.8                          T               22.8  .64 Ml 3.1         4706705
EPF   003.72 007.1 m E Pn      2011/06/11 22:47:45.8   0.9                          T                                        4706714
EPF   003.72 007.1 m E Pg      2011/06/11 22:47:59.1   0.9                          T                                        4706715
EPF   003.72 007.1 m E Sn      2011/06/11 22:48:25.6  -0.5                          T                                        4706706
EPF   003.72 007.1 m E Sg      2011/06/11 22:48:45.8  -0.2                          T               21.9  .36 Ml 3.4         4706707
SJPF  003.84 349.7 m E Pn      2011/06/11 22:47:47.4   1.0                          T                                        4706718
SJPF  003.84 349.7 m E Sn      2011/06/11 22:48:28.8  -0.1                          T                                        4706702
SJPF  003.84 349.7 m E Sg      2011/06/11 22:48:49.1  -0.5                          T                7.5  .29 Ml 3.0         4706703
MTLF  004.43 024.4 m E Pn      2011/06/11 22:47:54.2  -0.1                          T                                        4706712
MTLF  004.43 024.4 m E Pg      2011/06/11 22:48:10.9  -0.1                          T                                        4706713
MTLF  004.43 024.4 m E Sn      2011/06/11 22:48:43.2   0.3                          T                                        4706708
MTLF  004.43 024.4 m E Sg      2011/06/11 22:49:06.5  -1.3                          T                7.7  .44 Ml 3.0         4706709
LFF   005.65 007.5 m E Pn      2011/06/11 22:48:11.1   0.1                          T                                        4706720
LFF   005.65 007.5 m E Sn      2011/06/11 22:49:11.9  -0.3                          T                                        4706699
LFF   005.65 007.5 m E Sg      2011/06/11 22:49:46.7   0.5                          T                5.8  .41 Ml 3.0         4706700
CAF   005.86 016.6 m E Pn      2011/06/11 22:48:13.4  -0.4                          T                                        4706719
CAF   005.86 016.6 m E Sn      2011/06/11 22:49:17.4   0.4                          T                                        4706698
CAF   005.86 016.6 m E Sg      2011/06/11 22:49:52.3  -0.2                          T                2.3  .33 Ml 2.9         4706701
RJF   006.12 012.1 m E Pn      2011/06/11 22:48:17.5   0.1                          T                                        4706721
RJF   006.12 012.1 m E Sn      2011/06/11 22:49:22.4  -0.8                          T                                        4706696
RJF   006.12 012.1 m E Sg      2011/06/11 22:49:59.9  -0.7                          T                1.2  .22 Ml 2.5         4706697
LMR   006.49 049.8 m E Pn      2011/06/11 22:48:22.0  -0.4                          T                                        4706711
LMR   006.49 049.8 m E Sn      2011/06/11 22:49:31.9  -0.3                          T                 .7  .24 Ml 2.7         4706710
TCF   007.19 014.0 m E Pn      2011/06/11 22:48:31.7  -0.2                          T                                        4706727
TCF   007.19 014.0 m E Sn      2011/06/11 22:49:48.6  -0.3                          T                                        4706694
TCF   007.19 014.0 m E Sg      2011/06/11 22:50:34.2   0.1                          T                 .5  .25 Ml 2.6         4706695
QUIF  008.83 347.3 m E Pn      2011/06/11 22:48:54.1  -0.2                          T                                        4706724
SGMF  009.07 350.4 m E Pn      2011/06/11 22:48:57.7   0.2                          T                                        4706725
LDF   009.26 000.7 m E Pn      2011/06/11 22:48:59.4  -0.7                          T                                        4706722
FLN   009.43 359.2 m E Pn      2011/06/11 22:49:01.8  -0.6                          T                                        4706723

.
