BEGIN GSE2.0
MSG_TYPE DATA
MSG_ID 02-AVR-1314:12:40  FRA_NDC
E-MAIL
DATA_TYPE BULLETIN
Reviewed Bulletin (REB) # P2013-012  from French NDC for regional phases     PERIOD 20 MAR 2013 TO 26 MAR 2013 Cenalt JP S
EVENT     294693
    Date      Time       Latitude Longitude    Depth    Ndef Nsta Gap    Mag1  N    Mag2  N    Mag3  N   Author         ID
       rms   OT_Error      Smajor Sminor Az        Err   mdist  Mdist     Err        Err        Err      Quality

2013/03/20 00:15:49.4     42.7928    2.5536      4.0 f    18    3 100  Ml 1.3  2  Md 1.7  1              bulletin    294793
                                                                                                         _ldg
      0.53   +-  0.07       1.5    1.0   68.35 +-  0.0    0.35   1.64   +-0.1      +-                    m i ke

PYRENEES
Sta     Dist  EvAz     Phase      Date       Time     TRes  Azim  AzRes  Slow  SRes Def   SNR       Amp   Per   Mag1   Mag2       ID
MTLF  000.60 335.9 m E Pg      2013/03/20 00:16:00.7  -0.2                          T                                        5237571
MTLF  000.60 335.9 m E Pn      2013/03/20 00:16:03.0  -0.1                          T                                        5237572
MTLF  000.60 335.9 m E Sg      2013/03/20 00:16:09.4   0.7                          T                                        5237573
MTLF  000.60 335.9 m E Sn      2013/03/20 00:16:13.1   0.4                          T                1.8  .22        Md 1.7  5237574
LASF  001.60 036.1 m E Sg      2013/03/20 00:16:39.7   0.0                          T                 .4  .25 Ml 1.2         5237569
EPF   001.64 279.1 m E Sg      2013/03/20 00:16:41.3   0.0                          T                 .5  .28 Ml 1.3         5237570

.
EVENT     294254
    Date      Time       Latitude Longitude    Depth    Ndef Nsta Gap    Mag1  N    Mag2  N    Mag3  N   Author         ID
       rms   OT_Error      Smajor Sminor Az        Err   mdist  Mdist     Err        Err        Err      Quality

2013/03/20 03:20:59.0     48.2006     .2599      2.0      24    7 222  Ml 1.6  6  Md 1.8  3              bulletin    294354
                                                                                                         _ldg
      0.91   +-  0.18       3.8    2.0   66.17 +-  0.0    0.47   2.36   +-0.2      +-0.1                 m i ke

FRANCE
Sta     Dist  EvAz     Phase      Date       Time     TRes  Azim  AzRes  Slow  SRes Def   SNR       Amp   Per   Mag1   Mag2       ID
LDF   000.47 327.2 m E Pg      2013/03/20 03:21:07.7  -0.3                          T                                        5237592
LDF   000.47 327.2 m E Pn      2013/03/20 03:21:08.0  -0.8                          T                                        5230628
LDF   000.47 327.2 m E Sg      2013/03/20 03:21:14.4   0.2                          T                3.0  .19        Md 1.7  5230627
FLN   000.75 319.0 m E Pg      2013/03/20 03:21:13.1   0.0 142.0  3.6               T                                        5230626
FLN   000.75 319.0 m E Sg      2013/03/20 03:21:22.7  -0.1 135.7  -2.7              T                1.6  .17        Md 1.8  5230625
GRR   000.77 284.5 m E Pg      2013/03/20 03:21:13.7   0.2                          T                                        5230624
GRR   000.77 284.5 m E Sg      2013/03/20 03:21:24.0   0.5                          T                5.4  .15        Md 1.9  5230623
MFF   001.62 189.9 m E Pn      2013/03/20 03:21:27.2   0.3                          T                                        5230631
MFF   001.62 189.9 m E Pg      2013/03/20 03:21:29.1  -0.1                          T                                        5230630
MFF   001.62 189.9 m E Sg      2013/03/20 03:21:48.4  -1.7                          T                 .9  .22 Ml 1.9         5230629
SGMF  001.88 272.7 m E Pn      2013/03/20 03:21:30.7   0.2                          T                                        5230636
SGMF  001.88 272.7 m E Sg      2013/03/20 03:21:57.0  -1.3                          T                 .4  .15 Ml 1.6         5230635
QUIF  002.32 264.2 m E Pn      2013/03/20 03:21:36.8   0.5                          T                                        5230634
QUIF  002.32 264.2 m E Pg      2013/03/20 03:21:42.0   0.1                          T                                        5230633
QUIF  002.32 264.2 m E Sg      2013/03/20 03:22:11.6  -0.1                          T                 .3  .16 Ml 1.5         5230632
ROSF  002.36 274.6 m E Pn      2013/03/20 03:21:37.3   0.3                          T                                        5230639
ROSF  002.36 274.6 m E Pg      2013/03/20 03:21:42.7  -0.2                          T                                        5230638
ROSF  002.36 274.6 m E Sg      2013/03/20 03:22:13.4   0.1                          T                 .8  .22 Ml 1.8         5230637

.
EVENT     294255
    Date      Time       Latitude Longitude    Depth    Ndef Nsta Gap    Mag1  N    Mag2  N    Mag3  N   Author         ID
       rms   OT_Error      Smajor Sminor Az        Err   mdist  Mdist     Err        Err        Err      Quality

2013/03/20 04:05:40.2     45.2282    6.9261      2.0      13    5 216  Ml 1.2  1  Md 1.4  3              bulletin    294355
                                                                                                         _ldg
      0.40   +-  0.11       2.6    1.1   89.16 +-  0.0    0.30   1.58   +-         +-0.2                 m i ke

FRANCE
Sta     Dist  EvAz     Phase      Date       Time     TRes  Azim  AzRes  Slow  SRes Def   SNR       Amp   Per   Mag1   Mag2       ID
LPG   000.30 335.5 m E Pg      2013/03/20 04:05:46.3  -0.1                          T                                        5230649
LPG   000.30 335.5 m E Sg      2013/03/20 04:05:50.6   0.3                          T                4.1  .24        Md 1.5  5230648
LPL   000.32 334.7 m E Pg      2013/03/20 04:05:46.7   0.0                          T                                        5230651
LPL   000.32 334.7 m E Sg      2013/03/20 04:05:50.7  -0.2                          T                5.1  .31        Md 1.5  5230650
MBDF  000.51 192.4 m E Pg      2013/03/20 04:05:50.2   0.1                          T                                        5230647
MBDF  000.51 192.4 m E Pn      2013/03/20 04:05:52.1  -0.1                          T                                        5230656
MBDF  000.51 192.4 m E Sg      2013/03/20 04:05:56.5  -0.4                          T                1.2  .19        Md 1.2  5230646
ORIF  000.80 247.7 m E Pg      2013/03/20 04:05:55.7   0.2                          T                                        5230655
ORIF  000.80 247.7 m E Sg      2013/03/20 04:06:05.8  -0.1                          T                 .2  .22                5230654
SMRF  001.58 218.1 m E Pn      2013/03/20 04:06:07.6   0.0                          T                                        5230653
SMRF  001.58 218.1 m E Sn      2013/03/20 04:06:27.2  -0.1                          T                 .3  .23 Ml 1.2         5230652

.
EVENT     294276
    Date      Time       Latitude Longitude    Depth    Ndef Nsta Gap    Mag1  N    Mag2  N    Mag3  N   Author         ID
       rms   OT_Error      Smajor Sminor Az        Err   mdist  Mdist     Err        Err        Err      Quality

2013/03/20 04:50:50.0     42.7158   -1.7213      2.0      20    4 105  Ml 2.0  2  Md 2.1  1              bulletin    294376
                                                                                                         _ldg
      0.35   +-  0.10       1.8    1.5  136.18 +-  0.0    0.12   2.85   +-0.2      +-                    m i ke

PYRENEES
Sta     Dist  EvAz     Phase      Date       Time     TRes  Azim  AzRes  Slow  SRes Def   SNR       Amp   Per   Mag1   Mag2       ID
SJPF  000.54 042.4 m E Pg      2013/03/20 04:51:00.3   0.0                          T                                Md 2.1  5230664
SJPF  000.54 042.4 m E Sg      2013/03/20 04:51:07.6   0.2                          T                                        5230659
ETSF  000.87 077.5 m E Pg      2013/03/20 04:51:06.9   0.3                          T                                        5230663
ETSF  000.87 077.5 m E Sg      2013/03/20 04:51:18.2   0.3                          T                2.8  .25 Ml 1.8         5230662
EPF   001.55 077.6 m E Pg      2013/03/20 04:51:19.2   0.2                          T                                        5230660
EPF   001.55 077.6 m E Sg      2013/03/20 04:51:39.1   0.2                          T                2.4  .20 Ml 2.1         5230661
LFF   002.85 037.9 m E Pn      2013/03/20 04:51:33.7  -0.9                          T                                        5230825
LFF   002.85 037.9 m E Sn      2013/03/20 04:52:07.4   0.0                          T                                        5230824

.
EVENT     294334
    Date      Time       Latitude Longitude    Depth    Ndef Nsta Gap    Mag1  N    Mag2  N    Mag3  N   Author         ID
       rms   OT_Error      Smajor Sminor Az        Err   mdist  Mdist     Err        Err        Err      Quality

2013/03/20 07:17:39.7     42.7425   -1.7733      2.0      17    3 106  Ml 1.7  2  Md 2.1  1              bulletin    294434
                                                                                                         _ldg
      0.60   +-  0.18       3.7    2.8  161.53 +-  0.0    0.15   1.93   +-0.3      +-                    m i ke

PYRENEES
Sta     Dist  EvAz     Phase      Date       Time     TRes  Azim  AzRes  Slow  SRes Def   SNR       Amp   Per   Mag1   Mag2       ID
SJPF  000.55 047.2 m E Pg      2013/03/20 07:17:49.4  -0.7                          T                                        5230724
SJPF  000.55 047.2 m E Sg      2013/03/20 07:17:57.9   0.6                          T                3.8  .24        Md 2.1  5230723
ETSF  000.91 079.7 m E Pg      2013/03/20 07:17:57.6   0.7                          T                                        5230721
ETSF  000.91 079.7 m E Sg      2013/03/20 07:18:09.2   0.6                          T                1.1  .21 Ml 1.5         5230722
EPF   001.58 078.8 m E Pg      2013/03/20 07:18:09.3   0.1                          T                                        5230720
EPF   001.58 078.8 m E Sg      2013/03/20 07:18:30.7   1.1                          T                2.1  .30 Ml 1.9         5230719

.
EVENT     294326
    Date      Time       Latitude Longitude    Depth    Ndef Nsta Gap    Mag1  N    Mag2  N    Mag3  N   Author         ID
       rms   OT_Error      Smajor Sminor Az        Err   mdist  Mdist     Err        Err        Err      Quality

2013/03/20 07:32:11.8     42.7325   -1.7304      2.0      18    3 104  Ml 1.9  2  Md 2.1  1              bulletin    294426
                                                                                                         _ldg
      0.47   +-  0.13       2.4    2.0  139.83 +-  0.0    0.12   1.93   +-0.3      +-                    m i ke

PYRENEES
Sta     Dist  EvAz     Phase      Date       Time     TRes  Azim  AzRes  Slow  SRes Def   SNR       Amp   Per   Mag1   Mag2       ID
SJPF  000.53 044.1 m E Pg      2013/03/20 07:32:22.0   0.1                          T                                Md 2.1  5230716
SJPF  000.53 044.1 m E Sg      2013/03/20 07:32:29.0   0.1                          T                                        5230714
ETSF  000.88 078.7 m E Pg      2013/03/20 07:32:28.8   0.5                          T                                        5230715
ETSF  000.88 078.7 m E Sg      2013/03/20 07:32:39.9   0.2                          T                1.9  .23 Ml 1.7         5230713
EPF   001.55 078.2 m E Pg      2013/03/20 07:32:40.8   0.1                          T                                        5230717
EPF   001.55 078.2 m E Sg      2013/03/20 07:33:00.9   0.2                          T                3.4  .36 Ml 2.0         5230718

.
EVENT     294360
    Date      Time       Latitude Longitude    Depth    Ndef Nsta Gap    Mag1  N    Mag2  N    Mag3  N   Author         ID
       rms   OT_Error      Smajor Sminor Az        Err   mdist  Mdist     Err        Err        Err      Quality

2013/03/20 10:35:49.1     45.6843    7.6426       .0 f    21    5 125  Ml 1.7  2                         bulletin    294460
                                                                                                         _ldg
      0.19   +-  0.05       1.1     .7  117.86 +-  0.0    0.10   2.25   +-0.1                            m i km

NORTHERN ITALY
Sta     Dist  EvAz     Phase      Date       Time     TRes  Azim  AzRes  Slow  SRes Def   SNR       Amp   Per   Mag1   Mag2       ID
LPL   000.66 255.6 m E Pg      2013/03/20 10:36:02.1   0.0                          T                                        5230908
LPL   000.66 255.6 m E Sg      2013/03/20 10:36:10.7  -0.3                          T                6.4  .24                5230906
LPG   000.65 253.7 m E Pg      2013/03/20 10:36:02.2   0.1                          T                                        5230909
LPG   000.65 253.7 m E Sg      2013/03/20 10:36:10.6  -0.2                          T                7.1  .18                5230907
MBDF  001.14 213.1 m E Pg      2013/03/20 10:36:11.0   0.1                          T                                        5230905
MBDF  001.14 213.1 m E Sg      2013/03/20 10:36:25.5  -0.3                          T                1.3  .21 Ml 1.7         5230902
ORIF  001.46 239.0 m E Pn      2013/03/20 10:36:15.2  -0.1                          T                                        5230904
ORIF  001.46 239.0 m E Sn      2013/03/20 10:36:33.9  -0.3                          T                1.7  .27 Ml 1.8         5230910
VIVF  002.25 249.5 m E Pn      2013/03/20 10:36:25.8  -0.3                          T                                        5230903

.
EVENT     294358
    Date      Time       Latitude Longitude    Depth    Ndef Nsta Gap    Mag1  N    Mag2  N    Mag3  N   Author         ID
       rms   OT_Error      Smajor Sminor Az        Err   mdist  Mdist     Err        Err        Err      Quality

2013/03/20 11:10:59.4     43.4993    6.5935       .0 f    20    6 141  Ml 1.8  2  Md 1.9  1              bulletin    294458
                                                                                                         _ldg
      0.43   +-  0.15       3.6    2.5  143.32 +-  0.0    0.07   1.51   +-0.3      +-                    m i km

NEAR SOUTH COAST OF FRANCE
Sta     Dist  EvAz     Phase      Date       Time     TRes  Azim  AzRes  Slow  SRes Def   SNR       Amp   Per   Mag1   Mag2       ID
FRF   000.07 032.3 m E Pg      2013/03/20 11:11:00.4  -0.8                          T                                        5230881
FRF   000.07 032.3 m E Sg      2013/03/20 11:11:01.7  -0.7                          T              393.7  .41        Md 1.9  5230877
LMR   000.18 200.4 m E Pg      2013/03/20 11:11:03.1   0.0                          T                                        5230880
LMR   000.18 200.4 m E Sg      2013/03/20 11:11:06.0   0.2                          T                4.0  .17                5230876
SBF   000.71 058.9 m E Pg      2013/03/20 11:11:12.9  -0.2                          T                                        5230879
SBF   000.71 058.9 m E Sg      2013/03/20 11:11:22.5  -0.1                          T                6.6  .22                5230875
SMRF  000.88 303.2 m E Pg      2013/03/20 11:11:16.2   0.0                          T                                        5230878
SMRF  000.88 303.2 m E Sg      2013/03/20 11:11:27.8   0.0                          T                1.3  .20 Ml 1.6         5230874
MBDF  001.23 005.9 m E Pg      2013/03/20 11:11:22.7  -0.1                          T                                        5230873
MBDF  001.23 005.9 m E Sg      2013/03/20 11:11:39.4   0.4                          T                                        5230872
ORIF  001.51 340.4 m E Pn      2013/03/20 11:11:26.3   0.0                          T                                        5230871
ORIF  001.51 340.4 m E Sn      2013/03/20 11:11:45.5  -0.1                          T                3.5  .38 Ml 2.0         5230870

.
EVENT     294354
    Date      Time       Latitude Longitude    Depth    Ndef Nsta Gap    Mag1  N    Mag2  N    Mag3  N   Author         ID
       rms   OT_Error      Smajor Sminor Az        Err   mdist  Mdist     Err        Err        Err      Quality

2013/03/20 13:22:07.6     47.1982    7.2118       .0 f    22    8 052  Ml 2.2  7  Md 2.2  1              bulletin    294454
                                                                                                         _ldg
      0.31   +-  0.07       1.6    1.4   28.45 +-  0.0    0.20   2.53   +-0.1      +-                    m i km

SWITZERLAND
Sta     Dist  EvAz     Phase      Date       Time     TRes  Azim  AzRes  Slow  SRes Def   SNR       Amp   Per   Mag1   Mag2       ID
HINF  000.66 338.7 m E Pg      2013/03/20 13:22:20.4   0.0                          T                                        5237730
HINF  000.66 338.7 m E Pn      2013/03/20 13:22:22.5  -0.4                          T                                        5237731
HINF  000.66 338.7 m E Sg      2013/03/20 13:22:29.3  -0.1                          T                                        5230859
HINF  000.66 338.7 m E Sn      2013/03/20 13:22:33.2  -0.3                          T                7.5  .29        Md 2.2  5230856
CABF  000.97 233.1 m E Pg      2013/03/20 13:22:25.7  -0.4                          T                                        5230857
CABF  000.97 233.1 m E Sn      2013/03/20 13:22:40.3  -0.5                          T                7.5  .30 Ml 2.2         5230855
HAU   001.00 324.4 m E Pg      2013/03/20 13:22:26.7   0.1                          T                                        5230858
HAU   001.00 324.4 m E Sg      2013/03/20 13:22:40.0   0.3                          T                8.5  .24 Ml 2.1         5230854
CDF   001.22 002.0 m E Pn      2013/03/20 13:22:30.1  -0.3                          T                                        5230853
CDF   001.22 002.0 m E Sg      2013/03/20 13:22:46.6   0.0                          T                5.7  .31 Ml 2.3         5230849
LOR   002.29 273.0 m E Pg      2013/03/20 13:22:50.4   0.2                          T                                        5237734
LOR   002.29 273.0 m E Sg      2013/03/20 13:23:19.8  -0.1                          T                2.2  .28 Ml 2.2         5230848
SFTF  001.78 305.3 m E Sg      2013/03/20 13:23:04.6   0.5                          T                3.4  .28 Ml 2.2         5237732
SMF   002.38 257.8 m E Sg      2013/03/20 13:23:23.0   0.3                          T                2.0  .25 Ml 2.2         5237729
SSF   002.53 268.3 m E Sg      2013/03/20 13:23:27.9   0.3                          T                1.9  .27 Ml 2.3         5237733

.
