BEGIN GSE2.0
MSG_TYPE DATA
MSG_ID 19-NOV-1213:29:22  FRA_NDC
E-MAIL
DATA_TYPE BULLETIN
Reviewed Bulletin (REB) # P2012-044  from French NDC for regional phases     PERIOD 31 OCT 2012 TO 06 NOV 2012 Cenalt JP S
EVENT     286129
    Date      Time       Latitude Longitude    Depth    Ndef Nsta Gap    Mag1  N    Mag2  N    Mag3  N   Author         ID
       rms   OT_Error      Smajor Sminor Az        Err   mdist  Mdist     Err        Err        Err      Quality

2012/10/31 00:15:32.7     43.0459    -.8540      2.0      12    3 140  Ml 1.1  1  Md 1.3  2              bulletin    286229
                                                                                                         _ldg
      0.21   +-  0.06       2.4    1.0    1.48 +-  0.0    0.12   0.88   +-         +-0.1                 m i ke

PYRENEES
Sta     Dist  EvAz     Phase      Date       Time     TRes  Azim  AzRes  Slow  SRes Def   SNR       Amp   Per   Mag1   Mag2       ID
ETSF  000.26 124.1 m E Pg      2012/10/31 00:15:38.2   0.2                          T                                        5107203
ETSF  000.26 124.1 m E Sg      2012/10/31 00:15:41.4  -0.1                          T                                Md 1.3  5107200
SJPF  000.28 284.1 m E Pg      2012/10/31 00:15:38.4   0.1                          T                                        5107202
SJPF  000.28 284.1 m E Sg      2012/10/31 00:15:42.0   0.0                          T                                Md 1.2  5107201
EPF   000.88 090.6 m E Pg      2012/10/31 00:15:49.2   0.0                          T                                        5107205
EPF   000.88 090.6 m E Sg      2012/10/31 00:16:00.6   0.0                          T                 .5  .20 Ml 1.1         5107204

.
EVENT     286190
    Date      Time       Latitude Longitude    Depth    Ndef Nsta Gap    Mag1  N    Mag2  N    Mag3  N   Author         ID
       rms   OT_Error      Smajor Sminor Az        Err   mdist  Mdist     Err        Err        Err      Quality

2012/10/31 00:56:31.1     45.4442    7.5999      4.0 f    28    4 163  Ml 1.3  3  Md 1.6  2              bulletin    286290
                                                                                                         _ldg
      0.17   +-  0.05       1.0     .7  132.09 +-  0.0    0.12   1.33   +-0.1      +-0.0                 m i ke

NORTHERN ITALY
Sta     Dist  EvAz     Phase      Date       Time     TRes  Azim  AzRes  Slow  SRes Def   SNR       Amp   Per   Mag1   Mag2       ID
LPG   000.60 275.4 m E Pg      2012/10/31 00:56:42.8  -0.1                          T                                        5108270
LPG   000.60 275.4 m E Pn      2012/10/31 00:56:45.2   0.0                          T                                        5108262
LPG   000.60 275.4 m E Sg      2012/10/31 00:56:50.8   0.0                          T                1.5  .19        Md 1.6  5108268
LPG   000.60 275.4 m E Sn      2012/10/31 00:56:54.7  -0.1                          T                                        5108259
LPL   000.61 277.1 m E Pg      2012/10/31 00:56:43.1   0.1                          T                                        5108269
LPL   000.61 277.1 m E Pn      2012/10/31 00:56:45.3  -0.1                          T                                        5108261
LPL   000.61 277.1 m E Sg      2012/10/31 00:56:51.1   0.0                          T                  1  .26        Md 1.5  5108267
LPL   000.61 277.1 m E Sn      2012/10/31 00:56:54.9  -0.2                          T                                        5108260
MBDF  000.93 219.6 m E Pg      2012/10/31 00:56:48.9   0.2                          T                                        5108266
MBDF  000.93 219.6 m E Sg      2012/10/31 00:57:00.8   0.0                          T                 .9  .19 Ml 1.5         5108265
ORIF  001.33 247.2 m E Pn      2012/10/31 00:56:54.8   0.0                          T                                        5108264
ORIF  001.33 247.2 m E Sn      2012/10/31 00:57:11.8  -0.1                          T                 .4  .19 Ml 1.3         5108263

.
EVENT     286130
    Date      Time       Latitude Longitude    Depth    Ndef Nsta Gap    Mag1  N    Mag2  N    Mag3  N   Author         ID
       rms   OT_Error      Smajor Sminor Az        Err   mdist  Mdist     Err        Err        Err      Quality

2012/10/31 06:43:48.8     44.4906    6.6612      3.0 f    33    9 055  Ml 1.8  6  Md 1.7  2              bulletin    286230
                                                                                                         _ldg
      0.28   +-  0.05       1.0     .8   46.89 +-  0.0    0.10   1.46   +-0.3      +-0.4                 m i ke

FRANCE
Sta     Dist  EvAz     Phase      Date       Time     TRes  Azim  AzRes  Slow  SRes Def   SNR       Amp   Per   Mag1   Mag2       ID
MBDF  000.25 018.4 m E Pg      2012/10/31 06:43:54.1   0.2                          T                                        5106867
MBDF  000.25 018.4 m E Sg      2012/10/31 06:43:57.6   0.2                          T                8.4  .18        Md 2.0  5106866
ORIF  000.70 307.8 m E Pg      2012/10/31 06:44:02.2   0.0                          T                                        5106865
ORIF  000.70 307.8 m E Sg      2012/10/31 06:44:11.1  -0.3                          T                5.0  .25        Md 1.4  5106864
SBF   000.84 138.1 m E Pg      2012/10/31 06:44:04.8   0.1                          T                                        5118485
SBF   000.84 138.1 m E Sg      2012/10/31 06:44:15.7   0.1                          T                3.5  .19                5118484
FRF   000.93 180.6 m E Pg      2012/10/31 06:44:06.2  -0.1                          T                                        5118486
FRF   000.93 180.6 m E Sg      2012/10/31 06:44:18.2  -0.1                          T                4.4  .24 Ml 2.1         5118482
LPG   001.01 003.6 m E Pg      2012/10/31 06:44:08.0  -0.1                          T                                        5118487
LPG   001.01 003.6 m E Sg      2012/10/31 06:44:21.1  -0.1                          T                1.4  .20 Ml 1.7         5118480
LPL   001.03 002.8 m E Pg      2012/10/31 06:44:08.2  -0.1                          T                                        5118488
LPL   001.03 002.8 m E Sg      2012/10/31 06:44:21.6  -0.1                          T                2.1  .24 Ml 1.8         5118479
VIVF  001.46 285.1 m E Pg      2012/10/31 06:44:15.9  -0.2                          T                                        5118489
VIVF  001.46 285.1 m E Sn      2012/10/31 06:44:32.4  -0.6                          T                 .8  .20 Ml 1.6         5118490
SMRF  000.93 237.0 m E Sn      2012/10/31 06:44:20.3  -0.1                          T                1.4  .25 Ml 1.5         5118481
LMR   001.16 185.5 m E Sn      2012/10/31 06:44:25.8   0.1                          T                4.1  .24 Ml 2.1         5118483

.
EVENT     286140
    Date      Time       Latitude Longitude    Depth    Ndef Nsta Gap    Mag1  N    Mag2  N    Mag3  N   Author         ID
       rms   OT_Error      Smajor Sminor Az        Err   mdist  Mdist     Err        Err        Err      Quality

2012/10/31 08:15:24.2     43.7073    8.0251     10.0 f    46    8 124  Ml 2.4  7  Md 2.4  1              bulletin    286240
                                                                                                         _ldg
      0.49   +-  0.13       2.2    1.9  144.73 +-  0.0    0.23   2.33   +-0.2      +-                    m i ke

CORSICA, FRANCE
Sta     Dist  EvAz     Phase      Date       Time     TRes  Azim  AzRes  Slow  SRes Def   SNR       Amp   Per   Mag1   Mag2       ID
SBF   000.45 290.2 m E Pg      2012/10/31 08:15:34.2   1.1                          T                                        5106910
SBF   000.45 290.2 m E Sg      2012/10/31 08:15:40.3   1.0                          T              126.6  .22        Md 2.4  5106909
FRF   001.01 262.1 m E Pg      2012/10/31 08:15:43.0  -0.2                          T                                        5106906
FRF   001.01 262.1 m E Sg      2012/10/31 08:15:55.6  -0.8                          T                8.1  .16 Ml 2.6         5106905
LMR   001.16 251.8 m E Pn      2012/10/31 08:15:44.9  -0.1                          T                                        5106908
LMR   001.16 251.8 m E Sn      2012/10/31 08:15:58.9  -1.1                          T                5.4  .19 Ml 2.3         5106907
PGF   001.36 148.0 m E Pn      2012/10/31 08:15:47.6  -0.2                          T                                        5118496
PGF   001.36 148.0 m E Sn      2012/10/31 08:16:04.8   0.0                          T                3.5  .22 Ml 2.4         5118495
MBDF  001.36 318.9 m E Pn      2012/10/31 08:15:47.7  -0.2                          T                                        5118494
MBDF  001.36 318.9 m E Pg      2012/10/31 08:15:49.8   0.0                          T                                        5106904
MBDF  001.36 318.9 m E Sg      2012/10/31 08:16:07.1  -0.4                          T               11.6  .32 Ml 2.5         5106903
SMRF  001.79 279.5 m E Pn      2012/10/31 08:15:53.1  -0.5                          T                                        5118492
SMRF  001.79 279.5 m E Pg      2012/10/31 08:15:57.5  -0.1                          T                                        5106902
SMRF  001.79 279.5 m E Sg      2012/10/31 08:16:20.8   0.0                          T                2.1  .19 Ml 2.2         5106901
ORIF  001.96 308.9 m E Pn      2012/10/31 08:15:55.5  -0.4                          T                                        5118493
ORIF  001.96 308.9 m E Pg      2012/10/31 08:16:00.9   0.1                          T                                        5106900
ORIF  001.96 308.9 m E Sn      2012/10/31 08:16:18.6  -0.4                          T                                        5118491
ORIF  001.96 308.9 m E Sg      2012/10/31 08:16:26.0   0.0                          T                2.6  .27 Ml 2.2         5106899
LPG   002.01 333.5 m E Sn      2012/10/31 08:16:20.2  -0.3                          T                2.1  .20 Ml 2.2         5106897

.
EVENT     286166
    Date      Time       Latitude Longitude    Depth    Ndef Nsta Gap    Mag1  N    Mag2  N    Mag3  N   Author         ID
       rms   OT_Error      Smajor Sminor Az        Err   mdist  Mdist     Err        Err        Err      Quality

2012/10/31 14:41:28.9     48.1664    6.8074      2.0      12    6 123  Ml 1.9  3  Md 1.9  2              bulletin    286266
                                                                                                         _ldg
      0.19   +-  0.07       1.5    1.3   26.31 +-  0.0    0.35   1.63   +-0.2      +-0.0                 m i ke

FRANCE
Sta     Dist  EvAz     Phase      Date       Time     TRes  Azim  AzRes  Slow  SRes Def   SNR       Amp   Per   Mag1   Mag2       ID
HINF  000.35 175.0 m E Pg      2012/10/31 14:41:35.9   0.1                          T                                        5107181
HINF  000.35 175.0 m E Sg      2012/10/31 14:41:40.4  -0.1                          T                7.3  .20        Md 1.9  5107180
CDF   000.40 051.7 m E Pg      2012/10/31 14:41:36.8   0.0                          T                                        5107179
CDF   000.40 051.7 m E Sg      2012/10/31 14:41:41.8  -0.3                          T                9.6  .30        Md 1.9  5107178
PAGF  000.82 298.7 m E Pg      2012/10/31 14:41:44.6   0.2                          T                                        5107189
PAGF  000.82 298.7 m E Sg      2012/10/31 14:41:55.4   0.4                          T                 .8  .19                5107188
SFTF  001.18 272.5 m E Pg      2012/10/31 14:41:51.0   0.0                          T                                        5107185
SFTF  001.18 272.5 m E Sg      2012/10/31 14:42:06.5   0.1                          T                1.3  .19 Ml 1.7         5107184
MEZF  001.22 286.6 m E Pg      2012/10/31 14:41:51.4  -0.3                          T                                        5107187
MEZF  001.22 286.6 m E Sg      2012/10/31 14:42:07.4  -0.1                          T                4.2  .22 Ml 2.2         5107186
CABF  001.63 197.7 m E Pn      2012/10/31 14:41:57.1   0.1                          T                                        5107183
CABF  001.63 197.7 m E Sn      2012/10/31 14:42:17.1  -0.3                          T                1.2  .19 Ml 1.9         5107182

.
EVENT     286169
    Date      Time       Latitude Longitude    Depth    Ndef Nsta Gap    Mag1  N    Mag2  N    Mag3  N   Author         ID
       rms   OT_Error      Smajor Sminor Az        Err   mdist  Mdist     Err        Err        Err      Quality

2012/10/31 18:52:33.7     43.1170    -.1804      4.0 f    10    5 160  Ml 1.2  2  Md 1.2  3              bulletin    286269
                                                                                                         _ldg
      0.26   +-  0.09       4.8    1.5  169.69 +-  0.0    0.35   3.09   +-0.3      +-0.1                 m i ke

PYRENEES
Sta     Dist  EvAz     Phase      Date       Time     TRes  Azim  AzRes  Slow  SRes Def   SNR       Amp   Per   Mag1   Mag2       ID
ETSF  000.35 232.0 m E Pg      2012/10/31 18:52:40.8   0.2                          T                                        5107193
ETSF  000.35 232.0 m E Sg      2012/10/31 18:52:44.8  -0.6                          T                4.7  .29        Md 1.2  5107190
EPF   000.39 102.6 m E Pg      2012/10/31 18:52:41.1  -0.2                          T                                        5107192
EPF   000.39 102.6 m E Sg      2012/10/31 18:52:46.9   0.4                          T                2.2  .20        Md 1.2  5107191
SJPF  000.76 270.1 m E Pg      2012/10/31 18:52:48.1  -0.1                          T                                        5107199
SJPF  000.76 270.1 m E Sg      2012/10/31 18:52:58.4   0.2                          T                 .5  .22        Md 1.1  5107198
MTLF  001.77 081.9 m E Pn      2012/10/31 18:53:03.5   0.2                          T                                        5107197
MTLF  001.77 081.9 m E Sn      2012/10/31 18:53:25.1   0.2                          T                 .7  .38 Ml 1.4         5107196
LASF  003.09 070.5 m E Pn      2012/10/31 18:53:21.1  -0.2                          T                                        5107195
LASF  003.09 070.5 m E Sn      2012/10/31 18:53:56.2  -0.3                          T                     .14 Ml 1           5107194

.
EVENT     286405
    Date      Time       Latitude Longitude    Depth    Ndef Nsta Gap    Mag1  N    Mag2  N    Mag3  N   Author         ID
       rms   OT_Error      Smajor Sminor Az        Err   mdist  Mdist     Err        Err        Err      Quality

2012/10/31 21:35:40.1     37.1698  -12.9586     20.0 f    51    6 302  Ml 3.5  3                         bulletin    286505
                                                                                                         _ldg
      0.78   +-  0.40       7.8    6.4   56.21 +-  0.0    3.30  15.03   +-0.1                            m i ke

NORTH ATLANTIC OCEAN
Sta     Dist  EvAz     Phase      Date       Time     TRes  Azim  AzRes  Slow  SRes Def   SNR       Amp   Per   Mag1   Mag2       ID
SJPF  010.76 052.9 m E Pn      2012/10/31 21:38:10.6   0.2                          T                                        5118518
SJPF  010.76 052.9 m E Sn      2012/10/31 21:40:03.5   0.1                          T                1.9  .40 Ml 3.5         5118515
ETSF  011.09 055.1 m E Pn      2012/10/31 21:38:15.4   0.5                          T                                        5118517
ETSF  011.09 055.1 m E Sn      2012/10/31 21:40:10.9  -0.4                          T                1.6  .48 Ml 3.4         5118514
EPF   011.74 056.0 m E Pn      2012/10/31 21:38:24.8   1.0                          T                                        5118516
EPF   011.74 056.0 m E Sn      2012/10/31 21:40:26.8   0.0                          T                1.0  .28 Ml 3.5         5118513
RJF   013.58 048.7 m E Pn      2012/10/31 21:38:48.5  -0.3                          T                                        5118520
CAF   013.72 050.9 m E Pn      2012/10/31 21:38:50.2  -0.5                          T                                        5118519
BGF   015.03 046.4 m E P       2012/10/31 21:39:13.4   0.2                          T                                        5118521

.
