EVENT     261718
    Date      Time       Latitude Longitude    Depth    Ndef Nsta Gap    Mag1  N    Mag2  N    Mag3  N   Author         ID
       rms   OT_Error      Smajor Sminor Az        Err   mdist  Mdist     Err        Err        Err      Quality

2011/07/24 19:51:01.4     43.1185    -.6238      2.0      54   12 072  Ml 2.6  9  Md 2.8  3              js067245    261718

      0.78   +-  0.09       2.1    1.5  174.15 +-  0.0    0.06   4.67   +-0.2      +-0.1                 m i ke

PYRENEES
Sta     Dist  EvAz     Phase      Date       Time     TRes  Azim  AzRes  Slow  SRes Def   SNR       Amp   Per   Mag1   Mag2       ID
ETSF  000.22 167.8 m E Pg      2011/07/24 19:51:04.9  -1.1                          T                                        4726813
ETSF  000.22 167.8 m E Sg      2011/07/24 19:51:07.9  -1.1                          T              416.8  .21        Md 2.8  4726805
SJPF  000.44 269.5 m E Pg      2011/07/24 19:51:09.4  -0.4                          T                                        4726812
SJPF  000.44 269.5 m E Sg      2011/07/24 19:51:16.2   0.6                          T              113.4  .23        Md 2.8  4726806
EPF   000.71 096.8 m E Pg      2011/07/24 19:51:14.7  -0.2                          T                                        4726811
EPF   000.71 096.8 m E Sg      2011/07/24 19:51:24.4   0.2                          T               30.5  .22        Md 2.8  4726804
MTLF  002.09 082.9 m E Pg      2011/07/24 19:51:39.4  -0.7                          T                                        4726810
MTLF  002.09 082.9 m E Sg      2011/07/24 19:52:06.9  -0.2                          T                7.2  .26 Ml 2.7         4726803
LFF   002.07 027.9 m E Pg      2011/07/24 19:51:40.3   0.6                          T                                        4726809
LFF   002.07 027.9 m E Sg      2011/07/24 19:52:07.5   1.0                          T               10.3  .27 Ml 2.6         4726801
CAF   002.65 046.1 m E Pn      2011/07/24 19:51:43.4   0.1                          T                                        4726808
CAF   002.65 046.1 m E Pg      2011/07/24 19:51:50.5   0.0                          T                                        4728305
CAF   002.65 046.1 m E Sg      2011/07/24 19:52:25.2   0.6                          T                2.6  .17 Ml 2.5         4726800
RJF   002.67 034.4 m E Pn      2011/07/24 19:51:43.7   0.1                          T                                        4726807
RJF   002.67 034.4 m E Pg      2011/07/24 19:51:51.0   0.1                          T                                        4728304
RJF   002.67 034.4 m E Sg      2011/07/24 19:52:26.4   1.1                          T                7.9  .26 Ml 2.5         4726802
MFF   003.50 005.4 m E Pn      2011/07/24 19:51:54.3  -0.5                          T                                        4728311
MFF   003.50 005.4 m E Pg      2011/07/24 19:52:06.0  -0.1                          T                                        4728310
MFF   003.50 005.4 m E Sg      2011/07/24 19:52:51.2   0.0                          T                                        4728312
LASF  003.39 072.1 m E P       2011/07/24 19:51:56.5   0.0                          T                                        4728300
LASF  003.39 072.1 m E Sg      2011/07/24 19:52:48.2   0.3                          T                1.2  .15 Ml 2.4         4728309
VIVF  004.20 063.7 m E Pn      2011/07/24 19:52:04.1  -0.3                          T                                        4728306
VIVF  004.20 063.7 m E P       2011/07/24 19:52:08.0   0.0                          T                                        4728307
VIVF  004.20 063.7 m E Sg      2011/07/24 19:53:13.0   0.1                          T                2.9  .37 Ml 2.6         4728308
BGF   004.23 034.5 m E Sg      2011/07/24 19:53:13.5  -0.5                          T               12.1  .42 Ml 3.2         4728302
AVF   004.63 036.2 m E Sg      2011/07/24 19:53:27.1   0.7                          T                1.3  .31 Ml 2.4         4728301

.
EVENT     261728
    Date      Time       Latitude Longitude    Depth    Ndef Nsta Gap    Mag1  N    Mag2  N    Mag3  N   Author         ID
       rms   OT_Error      Smajor Sminor Az        Err   mdist  Mdist     Err        Err        Err      Quality

2011/07/25 02:57:22.6     47.4909    9.7473      2.0      59    9 047  Ml 2.4  6  Md 2.6  4              js067245    261728

      0.57   +-  0.06       1.1    1.1  151.67 +-  0.0    0.22   4.97   +-0.3      +-0.1                 m i ke

GERMANY
Sta     Dist  EvAz     Phase      Date       Time     TRes  Azim  AzRes  Slow  SRes Def   SNR       Amp   Per   Mag1   Mag2       ID
HINF  001.98 280.5 m E Pn      2011/07/25 02:57:54.9  -0.5                          T                                        4726833
HINF  001.98 280.5 m E Pg      2011/07/25 02:57:59.3  -0.1                          T                                        4726827
HINF  001.98 280.5 m E Sn      2011/07/25 02:58:18.7  -0.6                          T                                        4726820
HINF  001.98 280.5 m E Sg      2011/07/25 02:58:24.8  -0.2                          T                6.0  .24 Ml 2.6 Md 2.5  4726822
CDF   001.90 299.9 m E Pg      2011/07/25 02:57:58.0   0.0                          T                                        4726829
CDF   001.90 299.9 m E Sg      2011/07/25 02:58:22.5   0.0                          T                4.8  .18 Ml 2.7 Md 2.6  4726817
HAU   002.35 283.9 m E Pn      2011/07/25 02:58:00.3  -0.2                          T                                        4726832
HAU   002.35 283.9 m E Pg      2011/07/25 02:58:06.4   0.2                          T                                        4726828
HAU   002.35 283.9 m E Sg      2011/07/25 02:58:36.7   0.2                          T                6.1  .33 Ml 2.3 Md 2.5  4726821
THEF  002.63 287.7 m E Pg      2011/07/25 02:58:11.5   0.1                          T                                        4726826
CABF  002.65 252.0 m E Pg      2011/07/25 02:58:11.7  -0.2                          T                                        4726831
CABF  002.65 252.0 m E Sn      2011/07/25 02:58:35.1  -0.3                          T                                        4726819
CABF  002.65 252.0 m E Sg      2011/07/25 02:58:46.0   0.0                          T                3.1  .27 Ml 2.4 Md 2.6  4726823
PAGF  002.90 293.0 m E Pg      2011/07/25 02:58:16.5   0.2 105.4  -4.6              T                                        4726825
PAGF  002.90 293.0 m E Sg      2011/07/25 02:58:53.9   0.2 112.4  2.4               T                 .9  .30 Ml 1.9         4726818
LANF  001.98 319.7 m E Sg      2011/07/25 02:58:26.0   1.2                          T                7.1  .24 Ml 2.7         4726816
AVF   004.42 263.2 m E Pn      2011/07/25 02:58:28.7   0.2                          T                                        4726830
RUP   002.84 322.1 m E Sn      2011/07/25 02:58:38.8  -1.1                          T                                        4726814
RUP   002.84 322.1 m E Sg      2011/07/25 02:58:53.0   1.2                          T                                        4726815

.
EVENT     261872
    Date      Time       Latitude Longitude    Depth    Ndef Nsta Gap    Mag1  N    Mag2  N    Mag3  N   Author         ID
       rms   OT_Error      Smajor Sminor Az        Err   mdist  Mdist     Err        Err        Err      Quality

2011/07/25 03:41:20.5     42.7708   -1.1939      2.0      22    3 100  Ml 0.9  1  Md 1.0  2              js067245    261872

      0.21   +-  0.05       1.2     .7   56.82 +-  0.0    0.05   1.16   +-         +-0.1                 m i ke

PYRENEES
Sta     Dist  EvAz     Phase      Date       Time     TRes  Azim  AzRes  Slow  SRes Def   SNR       Amp   Per   Mag1   Mag2       ID
SJPF  000.34 356.2 m E Pg      2011/07/25 03:41:26.7  -0.4                          T                                        4729085
SJPF  000.34 356.2 m E Sg      2011/07/25 03:41:31.6  -0.1                          T                 .4  .25        Md 1.1  4729086
ETSF  000.48 074.5 m E Pg      2011/07/25 03:41:29.9   0.1                          T                                        4729083
ETSF  000.48 074.5 m E Sg      2011/07/25 03:41:36.5   0.3                          T                 .3  .19        Md  .9  4729084
EPF   001.16 076.5 m E Pg      2011/07/25 03:41:41.9  -0.3                          T                                        4729081
EPF   001.16 076.5 m E Sg      2011/07/25 03:41:57.4   0.2                          T                 .2  .23 Ml  .9         4729082

.
