EVENT     278096
    Date      Time       Latitude Longitude    Depth    Ndef Nsta Gap    Mag1  N    Mag2  N    Mag3  N   Author         ID
       rms   OT_Error      Smajor Sminor Az        Err   mdist  Mdist     Err        Err        Err      Quality

2012/06/13 15:40:32.1     47.8757    8.9958       .0 f     7    5 303  Ml 2.5  5                         bulletin    278196
                                                                                                         _ldg
      0.62   +-  1.09      16.2   12.8  107.09 +-  0.0    1.27   2.04   +-0.1                            m i km

SWITZERLAND
Sta     Dist  EvAz     Phase      Date       Time     TRes  Azim  AzRes  Slow  SRes Def   SNR       Amp   Per   Mag1   Mag2       ID
CDF   001.27 295.6 m E Pg      2012/06/13 15:40:55.9  -0.3                          T                                        5000605
CDF   001.27 295.6 m E Sg      2012/06/13 15:41:13.1   0.2                          T               13.9  .38 Ml 2.6         5000604
HINF  001.44 268.5 m E Pg      2012/06/13 15:40:59.7   0.3                          T                                        5019491
HINF  001.44 268.5 m E Sg      2012/06/13 15:41:16.8  -1.5                          T                5.8  .28 Ml 2.3         5000609
LANF  001.36 324.8 m E Sg      2012/06/13 15:41:15.6   0.1                          T               12.1  .35 Ml 2.5         5019488
HAU   001.78 275.2 m E Sg      2012/06/13 15:41:29.2   0.4                          T               12.0  .30 Ml 2.5         5019490
THEF  002.04 281.0 m E Sg      2012/06/13 15:41:37.7   0.8                          T                8.8  .36 Ml 2.6         5019489

.
EVENT     278114
    Date      Time       Latitude Longitude    Depth    Ndef Nsta Gap    Mag1  N    Mag2  N    Mag3  N   Author         ID
       rms   OT_Error      Smajor Sminor Az        Err   mdist  Mdist     Err        Err        Err      Quality

2012/06/14 00:50:52.3     43.5738    6.6663      5.5      10    5 143  Ml 1.2  2  Md 1.2  3              bulletin    278214
                                                                                                         _ldg
      0.15   +-  0.05       1.6    1.2  100.03 +-  0.6    0.02   1.16   +-0.3      +-0.0                 m i ke

NEAR SOUTH COAST OF FRANCE
Sta     Dist  EvAz     Phase      Date       Time     TRes  Azim  AzRes  Slow  SRes Def   SNR       Amp   Per   Mag1   Mag2       ID
FRF   000.02 227.2 m E Pg      2012/06/14 00:50:53.7   0.0                          T                                        5001047
FRF   000.02 227.2 m E Sg      2012/06/14 00:50:54.9   0.2                          T               10.1  .17        Md 1.1  5001044
LMR   000.27 205.6 m E Pg      2012/06/14 00:50:57.6  -0.1                          T                                        5001046
LMR   000.27 205.6 m E Sg      2012/06/14 00:51:01.2  -0.1                          T                2.5  .17        Md 1.2  5001045
SBF   000.63 062.3 m E Pn      2012/06/14 00:51:06.3   0.0                          T                                        5019509
SBF   000.63 062.3 m E Sn      2012/06/14 00:51:16.4   0.2                          T                 .7  .25                5019510
SMRF  000.89 297.3 m E Pg      2012/06/14 00:51:09.2   0.1                          T                                        5019501
SMRF  000.89 297.3 m E Sg      2012/06/14 00:51:20.5  -0.1                          T                 .2  .14 Ml 1   Md 1.2  5019502
MBDF  001.16 003.7 m E Pg      2012/06/14 00:51:14.2   0.0                          T                                        5019507
MBDF  001.16 003.7 m E Sg      2012/06/14 00:51:28.8  -0.4                          T                 .7  .22 Ml 1.4         5019508

.
EVENT     278098
    Date      Time       Latitude Longitude    Depth    Ndef Nsta Gap    Mag1  N    Mag2  N    Mag3  N   Author         ID
       rms   OT_Error      Smajor Sminor Az        Err   mdist  Mdist     Err        Err        Err      Quality

2012/06/14 02:11:27.8     44.6989    6.7331      2.0      35    8 090  Ml 1.8  3  Md 1.9  2              bulletin    278198
                                                                                                         _ldg
      0.30   +-  0.05       1.2     .8   60.17 +-  0.0    0.04   1.48   +-0.2      +-0.1                 m i ke

FRANCE
Sta     Dist  EvAz     Phase      Date       Time     TRes  Azim  AzRes  Slow  SRes Def   SNR       Amp   Per   Mag1   Mag2       ID
MBDF  000.04 044.3 m E Pg      2012/06/14 02:11:29.3   0.1                          T                                        5000653
MBDF  000.04 044.3 m E Sg      2012/06/14 02:11:30.3   0.3                          T              162.9  .18        Md 2.0  5000652
ORIF  000.65 290.2 m E Pg      2012/06/14 02:11:40.2   0.0                          T                                Md 1.8  5000651
ORIF  000.65 290.2 m E Sg      2012/06/14 02:11:48.0  -0.7                          T                4.7  .20                5000656
LPG   000.80 000.9 m E Pg      2012/06/14 02:11:43.3   0.0                          T                                        5000649
LPG   000.80 000.9 m E Sg      2012/06/14 02:11:53.4  -0.2                          T                2.3  .35                5000654
LPL   000.82 360.0 m E Pg      2012/06/14 02:11:43.6   0.1                          T                                        5000650
LPL   000.82 360.0 m E Sg      2012/06/14 02:11:54.0  -0.1                          T                2.2  .44                5000655
SBF   000.98 148.6 m E Pg      2012/06/14 02:11:47.1   0.9                          T                                        5000643
SBF   000.98 148.6 m E Sg      2012/06/14 02:11:59.5   0.6                          T                                        5000644
FRF   001.14 183.2 m E Pn      2012/06/14 02:11:49.7   0.6                          T                                        5000648
FRF   001.14 183.2 m E Sg      2012/06/14 02:12:04.5   0.6                          T                1.9  .19 Ml 1.9         5000646
VIVF  001.48 276.8 m E Pn      2012/06/14 02:11:53.7  -0.1                          T                                        5000642
VIVF  001.48 276.8 m E Sn      2012/06/14 02:12:11.7  -0.8                          T                 .7  .22 Ml 1.5         5000641
LMR   001.37 186.8 m E Pg      2012/06/14 02:11:53.9   0.5                          T                                        5000647
LMR   001.37 186.8 m E Sn      2012/06/14 02:12:11.6   1.6                          T                1.6  .24 Ml 1.8         5000645

.
EVENT     278111
    Date      Time       Latitude Longitude    Depth    Ndef Nsta Gap    Mag1  N    Mag2  N    Mag3  N   Author         ID
       rms   OT_Error      Smajor Sminor Az        Err   mdist  Mdist     Err        Err        Err      Quality

2012/06/14 04:28:54.9     43.0337    -.1138      3.0 f     8    4 158  Ml 1.4  1  Md 1.8  2              bulletin    278211
                                                                                                         _ldg
      0.23   +-  0.06       2.3     .9    1.78 +-  0.0    0.14   1.73   +-         +-0.0                 m i ke

PYRENEES
Sta     Dist  EvAz     Phase      Date       Time     TRes  Azim  AzRes  Slow  SRes Def   SNR       Amp   Per   Mag1   Mag2       ID
EPF   000.33 090.4 m E Pg      2012/06/14 04:29:01.3  -0.1                          T                                        5001043
EPF   000.33 090.4 m E Sg      2012/06/14 04:29:05.7  -0.2                          T                2.7  .16        Md 1.7  5001041
ETSF  000.35 247.7 m E Pg      2012/06/14 04:29:01.7  -0.1                          T                                        5001042
ETSF  000.35 247.7 m E Sg      2012/06/14 04:29:06.5  -0.1                          T                3.7  .25        Md 1.8  5001040
SJPF  000.82 276.0 m E Pg      2012/06/14 04:29:10.1  -0.2                          T                                        5006463
SJPF  000.82 276.0 m E Sg      2012/06/14 04:29:20.7  -0.2                          T                 .2  .16                5001039
MTLF  001.73 079.0 m E Pn      2012/06/14 04:29:24.1  -0.1                          T                                        5006462
MTLF  001.73 079.0 m E Sn      2012/06/14 04:29:45.9   0.4                          T                 .4  .20 Ml 1.4         5006461

.
EVENT     278108
    Date      Time       Latitude Longitude    Depth    Ndef Nsta Gap    Mag1  N    Mag2  N    Mag3  N   Author         ID
       rms   OT_Error      Smajor Sminor Az        Err   mdist  Mdist     Err        Err        Err      Quality

2012/06/14 06:48:30.4     44.9444   11.1357      2.0     174   31 025  Ml 4.1 29                         bulletin    278208
                                                                                                         _ldg
      0.90   +-  0.08       2.2    1.9   39.58 +-  0.0    0.19  10.47   +-0.3                            m i ke

NORTHERN ITALY
Sta     Dist  EvAz     Phase      Date       Time     TRes  Azim  AzRes  Slow  SRes Def   SNR       Amp   Per   Mag1   Mag2       ID
SBF   002.86 249.1 m E Pn      2012/06/14 06:49:15.3   0.0                          T                                        5001037
SBF   002.86 249.1 m E Sn      2012/06/14 06:49:50.1   1.8                          T              767.9  .44 Ml 4.6         5001014
PGF   002.85 213.6 m E Pn      2012/06/14 06:49:15.3   0.2                          T                                        5001038
PGF   002.85 213.6 m E Sn      2012/06/14 06:49:48.5   0.5                          T              140.1  .32 Ml 4.3         5001015
MBDF  003.11 267.5 m E Pn      2012/06/14 06:49:17.9  -0.9                          T                                        5001030
MBDF  003.11 267.5 m E Sn      2012/06/14 06:49:53.9  -0.4                          T              208.9  .60 Ml 4.0         5001007
MBDF  003.11 267.5 m E Sg      2012/06/14 06:50:08.1  -0.1                          T   001.0      138.8  .44 Ml 4.0         5001290
LPL   003.16 282.0 m E Pn      2012/06/14 06:49:20.2   0.7                          T                                        5001032
LPL   003.16 282.0 m E Sn      2012/06/14 06:49:56.0   0.4                          T              111.3  .38 Ml 3.9         5001009
LPG   003.15 281.7 m E Pn      2012/06/14 06:49:21.1   1.7                          T                                        5001033
LPG   003.15 281.7 m E Sn      2012/06/14 06:49:56.2   0.9                          T              256.9  .58 Ml 4.1         5001010
LPG   003.15 281.7 m E Sg      2012/06/14 06:50:09.1  -0.4                          T   001.0      180.4  .48 Ml 4.0         5001286
FRF   003.51 248.4 m E Pn      2012/06/14 06:49:23.0  -1.0                          T                                        5001035
FRF   003.51 248.4 m E Sn      2012/06/14 06:50:04.2   0.6                          T              266.7  .38 Ml 4.4         5001012
LMR   003.70 245.8 m E Pn      2012/06/14 06:49:26.7   0.1                          T                                        5001036
LMR   003.70 245.8 m E Sn      2012/06/14 06:50:08.2   0.1                          T              287.5  .34 Ml 4.5         5001013
ORIF  003.73 271.5 m E Pn      2012/06/14 06:49:28.3   1.1                          T                                        5001031
ORIF  003.73 271.5 m E Sn      2012/06/14 06:50:09.0  -0.1                          T              191.6  .58 Ml 4.1         5001008
CABF  003.91 297.0 m E Pn      2012/06/14 06:49:30.4   0.9                          T                                        5001022
CABF  003.91 297.0 m E Sn      2012/06/14 06:50:12.6  -0.6                          T   001.0       68.6  .48 Ml 3.8         5001289
SMRF  004.10 258.3 m E Pn      2012/06/14 06:49:32.9   0.9                          T                                        5001034
SMRF  004.10 258.3 m E Sn      2012/06/14 06:50:17.7   0.0                          T               78.9  .46 Ml 3.9         5001011
HINF  004.13 315.6 m E Pn      2012/06/14 06:49:33.0   0.5                          T                                        5001021
HINF  004.13 315.6 m E Sn      2012/06/14 06:50:18.3  -0.2                          T              103.4  .36 Ml 4.1         5000995
CDF   004.37 323.9 m E Pn      2012/06/14 06:49:36.6   0.7                          T                                        5001017
CDF   004.37 323.9 m E Sn      2012/06/14 06:50:24.7   0.4                          T              110.9  .64 Ml 4.1         5000990
HAU   004.51 314.5 m E Pn      2012/06/14 06:49:38.2   0.6                          T                                        5001020
HAU   004.51 314.5 m E Sn      2012/06/14 06:50:27.3  -0.2                          T              313.2  .42 Ml 4.4         5000994
VIVF  004.59 271.2 m E Pn      2012/06/14 06:49:38.3  -0.5                          T                                        5001029
VIVF  004.59 271.2 m E Sn      2012/06/14 06:50:29.2  -0.4                          T               16.9  .24 Ml 3.6         5001006
THEF  004.83 314.6 m E Pn      2012/06/14 06:49:43.2   1.2                          T                                        5001019
THEF  004.83 314.6 m E Sn      2012/06/14 06:50:35.6   0.4                          T               79.2  .25 Ml 4.3         5000993
LASF  005.28 263.1 m E Pn      2012/06/14 06:49:47.7  -0.4                          T                                        5001004
LASF  005.28 263.1 m E Sn      2012/06/14 06:50:46.0   0.1                          T               30.7  .62 Ml 3.6         5001005
SMF   005.38 291.0 m E Pn      2012/06/14 06:49:48.2  -1.2                          T                                        5001026
SMF   005.38 291.0 m E Sn      2012/06/14 06:50:48.2  -0.1                          T              109.5  .48 Ml 4.3         5000999
SFTF  005.32 310.0 m E Pn      2012/06/14 06:49:49.8   1.1                          T                                        5001018
SFTF  005.32 310.0 m E Sn      2012/06/14 06:50:47.1   0.2                          T               34.2  .32 Ml 4.0         5000991
LOR   005.57 297.2 m E Pn      2012/06/14 06:49:52.8   0.8                          T                                        5001016
LOR   005.57 297.2 m E Sn      2012/06/14 06:50:52.5  -0.3                          T               34.2  .24 Ml 4.2         5000989
SSF   005.72 294.4 m E Pn      2012/06/14 06:49:54.7   0.6                          T                                        5001023
SSF   005.72 294.4 m E Sn      2012/06/14 06:50:56.8   0.3                          T               39.3  .60 Ml 3.9         5000996
AVF   005.74 291.5 m E Pn      2012/06/14 06:49:55.0   0.7                          T                                        5001025
AVF   005.74 291.5 m E Sn      2012/06/14 06:50:55.5  -1.4                          T               25.0  .57 Ml 3.7         5000998
BGF   006.02 288.5 m E Pn      2012/06/14 06:49:58.9   0.7                          T                                        5001028
BGF   006.02 288.5 m E Sn      2012/06/14 06:51:05.1   1.5                          T              196.0  .54 Ml 4.7         5001001
HYF   006.35 294.5 m E Pn      2012/06/14 06:50:03.4   0.7                          T                                        5001027
HYF   006.35 294.5 m E Sn      2012/06/14 06:51:11.6   0.1                          T                                        5001000
CAF   006.44 273.0 m E Pn      2012/06/14 06:50:03.8  -0.1                          T                                        5001003
CAF   006.44 273.0 m E Sn      2012/06/14 06:51:12.3  -1.4                          T               16.2  .58 Ml 3.6         5001002
TCF   006.40 285.3 m E Pn      2012/06/14 06:50:04.3   0.9                          T                                        5001024
TCF   006.40 285.3 m E Sn      2012/06/14 06:51:13.4   0.6                          T               66.4  .76 Ml 4.1         5000997
MTLF  006.61 259.1 m E Pn      2012/06/14 06:50:08.6   2.3                          T   001.0                                5001291
MTLF  006.61 259.1 m E Sn      2012/06/14 06:51:19.8   2.0                          T   001.0                                5001292
MTLF  006.61 259.1 m E Sg      2012/06/14 06:51:54.4  -2.9                          T   001.0        5.1  .48 Ml 3.2         5001282
MFF   008.06 285.9 m E Pn      2012/06/14 06:50:24.6  -1.3                          T   001.0                                5001287
MFF   008.06 285.9 m E Sn      2012/06/14 06:51:54.4   2.0                          T   001.0       15.7  .52 Ml 4.1         5001288
FLN   008.83 299.8 m E Pn      2012/06/14 06:50:37.7   1.3                          T   001.0                                5001284
GRR   008.94 296.9 m E Pn      2012/06/14 06:50:39.7   1.8                          T   001.0                                5001285
MEZF  005.49 312.6 m E Sn      2012/06/14 06:50:51.3   0.3                          T               40.4  .36 Ml 4.0         5000992
ROSF  010.47 294.0 m E Pn      2012/06/14 06:51:01.3   2.5                          T   001.0                                5001283

.
