EVENT     287609
    Date      Time       Latitude Longitude    Depth    Ndef Nsta Gap    Mag1  N    Mag2  N    Mag3  N   Author         ID
       rms   OT_Error      Smajor Sminor Az        Err   mdist  Mdist     Err        Err        Err      Quality

2012/11/28 23:50:46.7     36.8353    5.0641     10.0 f   150   37 084  Ml 4.1 35                         bulletin    287709
                                                                                                         _ldg
      1.12   +-  0.17       4.0    3.4    5.99 +-  0.0    3.21  80.93   +-0.3                            m i ke

NORTHERN ALGERIA
Sta     Dist  EvAz     Phase      Date       Time     TRes  Azim  AzRes  Slow  SRes Def   SNR       Amp   Per   Mag1   Mag2       ID
PGF   006.46 026.8 m E Pn      2012/11/28 23:52:20.8   1.1                          T                                        5127503
PGF   006.46 026.8 m E P       2012/11/28 23:52:24.3  -0.3                          T                                        5127502
PGF   006.46 026.8 m E Sn      2012/11/28 23:53:28.8  -0.4                          T              197.7  .56 Ml 5.0         5127501
LMR   006.58 009.2 m E Pn      2012/11/28 23:52:22.2   1.0                          T                                        5127498
LMR   006.58 009.2 m E Sn      2012/11/28 23:53:32.0   0.0                          T               32.0  .32 Ml 4.2         5127469
FRF   006.83 009.7 m E Pn      2012/11/28 23:52:26.2   1.6                          T                                        5127496
FRF   006.83 009.7 m E P       2012/11/28 23:52:29.2  -0.4                          T                                        5127497
FRF   006.83 009.7 m E Sn      2012/11/28 23:53:38.0   0.2                          T               39.7  .26 Ml 4.4         5127468
MTLF  006.85 342.3 m E P       2012/11/28 23:52:28.6  -1.3                          T                                        5127488
MTLF  006.85 342.3 m E Sn      2012/11/28 23:53:38.9   0.5                          T               21.3  .32 Ml 4.1         5127460
SBF   007.25 013.7 m E Pn      2012/11/28 23:52:30.1  -0.3                          T                                        5127500
SBF   007.25 013.7 m E P       2012/11/28 23:52:34.5  -1.0                          T                                        5127499
SBF   007.25 013.7 m E Sn      2012/11/28 23:53:47.4  -0.5                          T               84.5  .52 Ml 4.5         5127470
SMRF  007.14 003.0 m E P       2012/11/28 23:52:33.8  -0.3                          T                                        5127495
SMRF  007.14 003.0 m E Sn      2012/11/28 23:53:46.4   1.0                          T               26.2  .42 Ml 4.1         5127467
LASF  007.29 353.1 m E P       2012/11/28 23:52:34.7  -1.4                          T                                        5127489
LASF  007.29 353.1 m E Sn      2012/11/28 23:53:49.4   0.5                          T               55.0  .34 Ml 4.5         5127461
EPF   007.17 331.1 m E P       2012/11/28 23:52:35.0   0.5                          T                                        5127487
EPF   007.17 331.1 m E Sn      2012/11/28 23:53:47.3   1.2                          T               55.6  .46 Ml 4.4         5127459
ETSF  007.44 326.2 m E P       2012/11/28 23:52:38.2   0.0                          T                                        5127486
ETSF  007.44 326.2 m E Sn      2012/11/28 23:53:53.7   1.1                          T               17.3  .40 Ml 4.0         5127458
SJPF  007.91 324.4 m E P       2012/11/28 23:52:44.7  -0.1                          T                                        5127485
SJPF  007.91 324.4 m E Sn      2012/11/28 23:54:04.7   1.0                          T               14.0  .51 Ml 3.8         5127457
MBDF  007.99 008.8 m E P       2012/11/28 23:52:44.9  -1.2                          T                                        5127491
MBDF  007.99 008.8 m E Sn      2012/11/28 23:54:06.2   0.4                          T               32.4  .68 Ml 4.1         5127463
VIVF  008.02 358.0 m E P       2012/11/28 23:52:46.2  -0.1                          T                                        5127490
VIVF  008.02 358.0 m E Sn      2012/11/28 23:54:06.6   0.3                          T               43.6  .34 Ml 4.5         5127462
ORIF  008.10 004.1 m E P       2012/11/28 23:52:47.1  -0.3                          T                                        5127492
ORIF  008.10 004.1 m E Sn      2012/11/28 23:54:08.8   0.5                          T               12.0  .52 Ml 3.8         5127464
CAF   008.39 345.2 m E P       2012/11/28 23:52:49.5  -2.0                          T                                        5127484
CAF   008.39 345.2 m E Sn      2012/11/28 23:54:16.1   0.8                          T               17.3  .44 Ml 4.1         5127456
LFF   008.73 339.3 m E P       2012/11/28 23:52:55.8  -0.3                          T                                        5127483
LFF   008.73 339.3 m E Sn      2012/11/28 23:54:24.3   1.1                          T               15.2  .40 Ml 3.9         5127455
LPG   008.75 007.8 m E P       2012/11/28 23:52:55.9  -0.8                          T                                        5127494
LPG   008.75 007.8 m E Sn      2012/11/28 23:54:24.8   0.8                          T               15.8  .54 Ml 4.0         5127466
LPL   008.76 007.7 m E P       2012/11/28 23:52:56.0  -0.9                          T                                        5127493
LPL   008.76 007.7 m E Sn      2012/11/28 23:54:24.6   0.3                          T               31.7  .66 Ml 4.2         5127465
RJF   008.87 343.6 m E P       2012/11/28 23:52:57.3  -0.9                          T                                        5127482
RJF   008.87 343.6 m E Sn      2012/11/28 23:54:27.8   1.1                          T                8.7  .28 Ml 3.7         5127454
CABF  009.80 004.1 m E Pn      2012/11/28 23:53:05.0  -0.2                          T                                        5127433
CABF  009.80 004.1 m E P       2012/11/28 23:53:10.7  -0.4                          T                                        5127432
TCF   009.68 348.2 m E P       2012/11/28 23:53:08.8  -0.6                          T                                        5127478
TCF   009.68 348.2 m E Sn      2012/11/28 23:54:46.8   0.7                          T               11.4  .55 Ml 4.0         5127449
BGF   009.85 351.0 m E P       2012/11/28 23:53:11.1  -0.6                          T                                        5127481
BGF   009.85 351.0 m E Sn      2012/11/28 23:54:50.6   0.4                          T                8.8  .32 Ml 4.1         5127453
SMF   009.84 355.1 m E P       2012/11/28 23:53:11.3  -0.2                          T                                        5127480
SMF   009.84 355.1 m E Sn      2012/11/28 23:54:50.7   0.8                          T                6.5  .35 Ml 4.0         5127451
AVF   010.03 353.2 m E P       2012/11/28 23:53:11.7  -2.4                          T                                        5127479
AVF   010.03 353.2 m E Sn      2012/11/28 23:54:54.6   0.3                          T                1.7  .27 Ml 3.5         5127450
SSF   010.28 354.0 m E Pn      2012/11/28 23:53:12.1   0.4                          T                                        5127439
SSF   010.28 354.0 m E Sn      2012/11/28 23:55:00.7   0.3                          T                2.7  .30 Ml 3.8         5127441
LOR   010.46 355.5 m E Pn      2012/11/28 23:53:14.4   0.2                          T                                        5127438
LOR   010.46 355.5 m E Sn      2012/11/28 23:55:04.8   0.1                          T                3.3  .34 Ml 3.8         5127442
MFF   010.50 339.9 m E P       2012/11/28 23:53:20.2  -0.3                          T                                        5127477
MFF   010.50 339.9 m E Sn      2012/11/28 23:55:06.6   1.0                          T                7.1  .56 Ml 4.1         5127448
HINF  011.05 006.3 m E Pn      2012/11/28 23:53:22.3   0.1                          T                                        5127476
HINF  011.05 006.3 m E Sn      2012/11/28 23:55:19.1   0.3                          T                5.1  .41 Ml 4.0         5127447
HAU   011.20 004.4 m E Pn      2012/11/28 23:53:24.6   0.4                          T                                        5127471
HAU   011.20 004.4 m E Sn      2012/11/28 23:55:22.5   0.1                          T               12.6  .40 Ml 4.2         5127440
CDF   011.68 007.3 m E Pn      2012/11/28 23:53:30.9   0.1                          T                                        5127472
CDF   011.68 007.3 m E Sn      2012/11/28 23:55:33.8  -0.1                          T               12.2  .94 Ml 4.2         5127443
PAGF  011.72 002.2 m E Pn      2012/11/28 23:53:31.0  -0.3                          T                                        5127473
PAGF  011.72 002.2 m E Sn      2012/11/28 23:55:34.6  -0.2                          T                5.7  .39 Ml 4.1         5127444
SFTF  011.36 359.9 m E P       2012/11/28 23:53:31.4  -0.9                          T                                        5127475
SFTF  011.36 359.9 m E Sn      2012/11/28 23:55:26.4   0.2                          T                8.1  .52 Ml 4.1         5127446
MEZF  011.66 360.0 m E P       2012/11/28 23:53:36.0  -0.3                          T                                        5127474
MEZF  011.66 360.0 m E Sn      2012/11/28 23:55:33.7   0.5                          T                4.9  .39 Ml 4.1         5127445
LDF   012.35 343.7 m E Pn      2012/11/28 23:53:40.2   0.4                          T                                        5127435
FLN   012.59 342.9 m E Pn      2012/11/28 23:53:43.3   0.2                          T                                        5127434
BAIF  013.23 357.6 m E Pn      2012/11/28 23:53:52.5   0.7                          T                                        5127437
GIVF  013.26 359.3 m E Pn      2012/11/28 23:53:52.7   0.5                          T                                        5127436
HYF   010.58 351.0 m E Sn      2012/11/28 23:55:07.6   0.1                          T                                        5127452

.
EVENT     287610
    Date      Time       Latitude Longitude    Depth    Ndef Nsta Gap    Mag1  N    Mag2  N    Mag3  N   Author         ID
       rms   OT_Error      Smajor Sminor Az        Err   mdist  Mdist     Err        Err        Err      Quality

2012/11/29 01:59:56.5     47.8229    8.1632     10.0      21    6 057  Ml 1.7  5  Md 1.9  3              bulletin    287710
                                                                                                         _ldg
      0.37   +-  0.06       1.3    1.0  168.82 +-  0.0    0.12   2.19   +-0.3      +-0.0                 m i ke

SWITZERLAND
Sta     Dist  EvAz     Phase      Date       Time     TRes  Azim  AzRes  Slow  SRes Def   SNR       Amp   Per   Mag1   Mag2       ID
CDF   000.84 315.1 m E Pg      2012/11/29 02:00:12.5   0.0                          T                                        5127516
CDF   000.84 315.1 m E Sg      2012/11/29 02:00:22.7  -0.7                          T                5.5  .26        Md 1.9  5127515
HINF  000.88 270.1 m E Pg      2012/11/29 02:00:13.1  -0.2                          T                                        5127514
HINF  000.88 270.1 m E Sg      2012/11/29 02:00:24.8   0.0                          T                2.6  .26 Ml 1.8 Md 1.8  5127513
HAU   001.23 279.2 m E Pn      2012/11/29 02:00:17.8  -0.5                          T                                        5127512
HAU   001.23 279.2 m E Pg      2012/11/29 02:00:19.8   0.1                          T                                        5138849
HAU   001.23 279.2 m E Sg      2012/11/29 02:00:35.5  -0.2                          T                1.6  .18 Ml 1.7 Md 1.9  5127511
PAGF  001.79 295.1 m E Pn      2012/11/29 02:00:25.6  -0.2 115.3  2.1               T                                        5127510
PAGF  001.79 295.1 m E Sn      2012/11/29 02:00:46.9  -0.3                          T                1.7  .19 Ml 2.1         5127509
CABF  001.86 230.2 m E Pg      2012/11/29 02:00:31.5   0.1                          T                                        5127505
CABF  001.86 230.2 m E Sg      2012/11/29 02:00:54.8  -0.6                          T                 .2  .15 Ml 1.4         5127504
MEZF  002.19 289.2 m E Pg      2012/11/29 02:00:37.1  -0.1                          T                                        5138850
MEZF  002.19 289.2 m E Sg      2012/11/29 02:01:05.4   0.0                          T                 .5  .19 Ml 1.7         5127507

.
EVENT     287612
    Date      Time       Latitude Longitude    Depth    Ndef Nsta Gap    Mag1  N    Mag2  N    Mag3  N   Author         ID
       rms   OT_Error      Smajor Sminor Az        Err   mdist  Mdist     Err        Err        Err      Quality

2012/11/29 06:11:10.7     45.8113    7.5228      5.0 f    34    9 077  Ml 1.7  8  Md 1.9  2              bulletin    287712
                                                                                                         _ldg
      0.30   +-  0.06       1.2    1.0  144.47 +-  0.0    0.21   2.58   +-0.3      +-0.0                 m i ke

NORTHERN ITALY
Sta     Dist  EvAz     Phase      Date       Time     TRes  Azim  AzRes  Slow  SRes Def   SNR       Amp   Per   Mag1   Mag2       ID
LPG   000.63 240.2 m E Pg      2012/11/29 06:11:22.6  -0.3                          T                                        5127640
LPG   000.63 240.2 m E Sg      2012/11/29 06:11:30.7  -0.5                          T                3.8  .19        Md 1.8  5127639
LPL   000.63 242.3 m E Pg      2012/11/29 06:11:23.2   0.3                          T                                        5127642
LPL   000.63 242.3 m E Sg      2012/11/29 06:11:31.0  -0.2                          T                1.7  .25        Md 1.9  5127641
MBDF  001.21 206.3 m E Pg      2012/11/29 06:11:33.5   0.1                          T                                        5127638
MBDF  001.21 206.3 m E Sg      2012/11/29 06:11:48.8  -0.3                          T                 .9  .22 Ml 1.5         5127637
ORIF  001.46 232.9 m E Pn      2012/11/29 06:11:36.5   0.3                          T                                        5127668
ORIF  001.46 232.9 m E Sn      2012/11/29 06:11:54.7   0.1                          T                1.0  .27 Ml 1.6         5127667
SBF   001.95 181.9 m E Pn      2012/11/29 06:11:43.4   0.6                          T                                        5127672
SBF   001.95 181.9 m E Sn      2012/11/29 06:12:06.9   0.7                          T                 .7  .15 Ml 1.8         5127671
VIVF  002.23 245.6 m E Pn      2012/11/29 06:11:47.0   0.5                          T                                        5127664
VIVF  002.23 245.6 m E Sn      2012/11/29 06:12:13.6   0.9                          T                 .7  .19 Ml 1.8         5127663
SMRF  002.30 217.7 m E Pn      2012/11/29 06:11:47.8   0.3                          T                                        5127666
SMRF  002.30 217.7 m E Sn      2012/11/29 06:12:14.7   0.2                          T                 .3  .18 Ml 1.5         5127665
FRF   002.34 195.8 m E Pn      2012/11/29 06:11:48.0   0.0                          T                                        5127676
FRF   002.34 195.8 m E Sn      2012/11/29 06:12:15.2  -0.1                          T                2.5  .28 Ml 2.3         5127675
LMR   002.58 196.7 m E Pn      2012/11/29 06:11:51.3   0.1                          T                                        5127674
LMR   002.58 196.7 m E Sn      2012/11/29 06:12:21.4   0.2                          T                 .8  .33 Ml 1.7         5127673

.
EVENT     287620
    Date      Time       Latitude Longitude    Depth    Ndef Nsta Gap    Mag1  N    Mag2  N    Mag3  N   Author         ID
       rms   OT_Error      Smajor Sminor Az        Err   mdist  Mdist     Err        Err        Err      Quality

2012/11/29 08:52:47.0     45.9292    7.7406      3.0 f    29    4 069  Ml 1.9  3  Md 2.1  2              bulletin    287720
                                                                                                         _ldg
      0.23   +-  0.04       1.0     .7  133.13 +-  0.0    0.10   2.49   +-0.3      +-0.1                 m i ke

NORTHERN ITALY
Sta     Dist  EvAz     Phase      Date       Time     TRes  Azim  AzRes  Slow  SRes Def   SNR       Amp   Per   Mag1   Mag2       ID
LPG   000.82 238.4 m E Pg      2012/11/29 08:53:02.5  -0.2                          T                                        5127728
LPG   000.82 238.4 m E Sg      2012/11/29 08:53:13.1  -0.3                          T                7.2  .21        Md 2.0  5127727
LPL   000.82 240.1 m E Pg      2012/11/29 08:53:02.6  -0.1                          T                                        5127730
LPL   000.82 240.1 m E Sg      2012/11/29 08:53:13.2  -0.2                          T                7.0  .40        Md 2.1  5127729
MBDF  001.38 210.0 m E Pn      2012/11/29 08:53:11.5  -0.2                          T                                        5127731
MBDF  001.38 210.0 m E Pg      2012/11/29 08:53:13.0   0.0                          T                                        5127726
MBDF  001.38 210.0 m E Sn      2012/11/29 08:53:28.7  -0.7                          T                4.4  .24 Ml 2.3         5127725
SMRF  002.49 219.0 m E Pn      2012/11/29 08:53:26.7   0.1                          T                                        5127733
SMRF  002.49 219.0 m E Sn      2012/11/29 08:53:55.4  -0.3                          T                1.2  .37 Ml 1.8         5127732

.
