EVENT     263120
    Date      Time       Latitude Longitude    Depth    Ndef Nsta Gap    Mag1  N    Mag2  N    Mag3  N   Author         ID
       rms   OT_Error      Smajor Sminor Az        Err   mdist  Mdist     Err        Err        Err      Quality

2011/08/26 02:17:30.5     50.2322   12.4751     10.0      61   16 046  Ml 3.1 17                         js067245    263120

      0.77   +-  0.11       2.7    1.9  136.37 +-  0.0    0.02   7.67   +-0.2                            m i ke

GERMANY
Sta     Dist  EvAz     Phase      Date       Time     TRes  Azim  AzRes  Slow  SRes Def   SNR       Amp   Per   Mag1   Mag2       ID
RUP   003.54 263.4 m E Pn      2011/08/26 02:18:25.8   2.2                          T                                        4741804
RUP   003.54 263.4 m E Sg      2011/08/26 02:19:20.9  -0.6                          T                                        4741777
CDF   003.86 243.8 m E Pn      2011/08/26 02:18:29.2   1.2                          T                                        4741803
CDF   003.86 243.8 m E Pg      2011/08/26 02:18:41.3  -0.7                          T                                        4741796
CDF   003.86 243.8 m E Sg      2011/08/26 02:19:32.5   1.0                          T                7.6  .22 Ml 3.3         4741778
HINF  004.42 239.0 m E Pn      2011/08/26 02:18:35.3  -0.3                          T                                        4741800
HINF  004.42 239.0 m E Pg      2011/08/26 02:18:52.5   0.2                          T                                        4741792
HINF  004.42 239.0 m E Sg      2011/08/26 02:19:47.4  -1.6                          T                8.7  .29 Ml 3.2         4741783
HAU   004.60 243.4 m E Pn      2011/08/26 02:18:39.2   1.2                          T                                        4741801
HAU   004.60 243.4 m E Pg      2011/08/26 02:18:56.0   0.4                          T                                        4741793
HAU   004.60 243.4 m E Sg      2011/08/26 02:19:53.8  -0.8                          T               17.2  .36 Ml 3.2         4741782
THEF  004.70 247.2 m E Pn      2011/08/26 02:18:40.0   0.6                          T                                        4741802
THEF  004.70 247.2 m E Pg      2011/08/26 02:18:58.0   0.6                          T                                        4741794
THEF  004.70 247.2 m E Sg      2011/08/26 02:19:58.5   0.9                          T                7.3  .22 Ml 3.3         4741807
CABF  005.59 232.0 m E Pn      2011/08/26 02:18:50.5  -1.0                          T                                        4741799
CABF  005.59 232.0 m E Pg      2011/08/26 02:19:15.1   1.3                          T                                        4741791
CABF  005.59 232.0 m E Sg      2011/08/26 02:20:25.4   0.0                          T                1.6  .26 Ml 2.8         4741784
PAGF  004.72 251.7 m E Pg      2011/08/26 02:18:57.2  -0.5                          T                                        4741795
PAGF  004.72 251.7 m E Sg      2011/08/26 02:19:56.8  -1.4                          T                4.4  .58 Ml 2.7         4741779
LOR   006.42 245.8 m E Pn      2011/08/26 02:19:03.2   0.4                          T                                        4741806
LOR   006.42 245.8 m E Pg      2011/08/26 02:19:29.7   0.6                          T                                        4741798
LOR   006.42 245.8 m E Sg      2011/08/26 02:20:52.2   0.7                          T                2.5  .26 Ml 3.2         4741774
SSF   006.74 245.3 m E Pn      2011/08/26 02:19:08.5   1.4                          T                                        4741805
SSF   006.74 245.3 m E Pg      2011/08/26 02:19:35.0   0.1                          T                                        4741797
SSF   006.74 245.3 m E Sg      2011/08/26 02:21:01.5   0.3                          T                1.7  .25 Ml 3.1         4741773
SMF   006.77 241.3 m E Pg      2011/08/26 02:19:36.2   0.6                          T                                        4741790
SMF   006.77 241.3 m E Sg      2011/08/26 02:21:03.0   0.6                          T                3.3  .29 Ml 3.3         4741786
GIVF  004.92 271.4 m E Sg      2011/08/26 02:20:02.1  -2.4                          T                9.7  .34 Ml 3.3         4741775
MEZF  005.15 253.2 m E Sg      2011/08/26 02:20:12.2   0.4                          T                3.5  .27 Ml 3.0         4741780
SFTF  005.28 250.2 m E Sg      2011/08/26 02:20:13.7  -2.0                          T                1.3  .18 Ml 2.8         4741781
BAIF  005.32 271.3 m E Sg      2011/08/26 02:20:15.4  -1.6                          T                8.9  .48 Ml 3.2         4741776
AVF   006.97 243.9 m E Sg      2011/08/26 02:21:11.0   2.5                          T                2.0  .58 Ml 2.8         4741785
BGF   007.39 243.8 m E Sg      2011/08/26 02:21:23.1   1.5                          T                8.5  .47 Ml 3.6         4741787

.
EVENT     263121
    Date      Time       Latitude Longitude    Depth    Ndef Nsta Gap    Mag1  N    Mag2  N    Mag3  N   Author         ID
       rms   OT_Error      Smajor Sminor Az        Err   mdist  Mdist     Err        Err        Err      Quality

2011/08/26 02:32:25.8     50.2386   12.4562     10.0      33    5 066  Ml 2.8  4                         js067245    263121

      0.40   +-  0.07       1.6    1.4  132.48 +-  0.0    0.01   4.91   +-0.1                            m i ke

GERMANY
Sta     Dist  EvAz     Phase      Date       Time     TRes  Azim  AzRes  Slow  SRes Def   SNR       Amp   Per   Mag1   Mag2       ID
RUP   003.52 263.3 m E Pn      2011/08/26 02:33:20.9   2.1                          T                                        4741811
RUP   003.52 263.3 m E Sg      2011/08/26 02:34:16.1  -0.4                          T                                        4741817
CDF   003.85 243.6 m E Pn      2011/08/26 02:33:24.7   1.5                          T                                        4741810
CDF   003.85 243.6 m E Pg      2011/08/26 02:33:38.9   1.7                          T                                        4741812
CDF   003.85 243.6 m E Sg      2011/08/26 02:34:27.3   0.7                          T                3.7  .30 Ml 2.8         4741816
HAU   004.59 243.2 m E Pg      2011/08/26 02:33:51.9   1.1                          T                                        4741809
HAU   004.59 243.2 m E Sg      2011/08/26 02:34:50.5   0.8                          T                2.8  .28 Ml 2.6         4741815
HINF  004.41 238.8 m E Sg      2011/08/26 02:34:44.8   0.7                          T                5.0  .40 Ml 2.8         4741814
GIVF  004.91 271.3 m E Sg      2011/08/26 02:34:58.8  -0.7                          T                2.0  .21 Ml 2.8         4741813

.
EVENT     263122
    Date      Time       Latitude Longitude    Depth    Ndef Nsta Gap    Mag1  N    Mag2  N    Mag3  N   Author         ID
       rms   OT_Error      Smajor Sminor Az        Err   mdist  Mdist     Err        Err        Err      Quality

2011/08/26 02:36:25.9     50.2288   12.4687     10.0      55   11 041  Ml 2.9 10                         js067245    263122

      0.60   +-  0.09       2.3    1.7  132.58 +-  0.0    0.01   7.90   +-0.3                            m i ke

GERMANY
Sta     Dist  EvAz     Phase      Date       Time     TRes  Azim  AzRes  Slow  SRes Def   SNR       Amp   Per   Mag1   Mag2       ID
RUP   003.53 263.5 m E Pn      2011/08/26 02:37:21.2   2.2                          T                                        4741825
RUP   003.53 263.5 m E Pg      2011/08/26 02:37:31.7   0.3                          T                                        4741831
RUP   003.53 263.5 m E Sg      2011/08/26 02:38:16.5  -0.2                          T                                        4741838
CDF   003.85 243.8 m E Pn      2011/08/26 02:37:24.6   1.2                          T                                        4741826
CDF   003.85 243.8 m E Pg      2011/08/26 02:37:37.4   0.1                          T                                        4741832
CDF   003.85 243.8 m E Sg      2011/08/26 02:38:27.3   0.5                          T                5.0  .25 Ml 3.0         4741837
HINF  004.41 239.0 m E Pn      2011/08/26 02:37:30.8  -0.1                          T                                        4741821
HINF  004.41 239.0 m E Pg      2011/08/26 02:37:48.1   0.4                          T                                        4741828
HINF  004.41 239.0 m E Sg      2011/08/26 02:38:44.4   0.1                          T                7.3  .33 Ml 3.1         4741833
HAU   004.59 243.4 m E Pn      2011/08/26 02:37:33.5   0.1                          T                                        4741820
HAU   004.59 243.4 m E Pg      2011/08/26 02:37:50.4  -0.5                          T                                        4741829
HAU   004.59 243.4 m E Sg      2011/08/26 02:38:50.4   0.5                          T                8.8  .32 Ml 3.0         4741834
TCF   007.90 244.0 m E Pn      2011/08/26 02:38:18.4   0.0                          T                                        4741824
LOR   006.42 245.8 m E Pg      2011/08/26 02:38:24.8   0.3                          T                                        4741830
LOR   006.42 245.8 m E Sg      2011/08/26 02:39:47.9   1.2                          T                2.0  .28 Ml 3.0         4741823
SMF   006.77 241.3 m E Pg      2011/08/26 02:38:32.0   1.0                          T                                        4741827
SMF   006.77 241.3 m E Sg      2011/08/26 02:39:57.4  -0.2                          T                2.9  .34 Ml 3.1         4741819
THEF  004.69 247.2 m E Sg      2011/08/26 02:38:54.4   1.5                          T                6.1  .27 Ml 3.2         4741835
PAGF  004.71 251.8 m E Sg      2011/08/26 02:38:54.7   1.1                          T                 .8  .27 Ml 2.3         4741836
CABF  005.58 232.0 m E Sg      2011/08/26 02:39:20.7   0.0                          T                1.9  .34 Ml 2.7         4741818
SSF   006.73 245.3 m E Sg      2011/08/26 02:39:56.9   0.4                          T                 .8  .18 Ml 3.0         4741822

.
EVENT     263094
    Date      Time       Latitude Longitude    Depth    Ndef Nsta Gap    Mag1  N    Mag2  N    Mag3  N   Author         ID
       rms   OT_Error      Smajor Sminor Az        Err   mdist  Mdist     Err        Err        Err      Quality

2011/08/26 03:11:22.0     49.0428    9.3173     16.8      32    8 062  Ml 2.5  8  Md 2.6  1              js067245    263094

      0.56   +-  0.09       1.6    1.4  116.16 +-  0.9    0.28   4.40   +-0.1      +-                    m i ke

GERMANY
Sta     Dist  EvAz     Phase      Date       Time     TRes  Azim  AzRes  Slow  SRes Def   SNR       Amp   Per   Mag1   Mag2       ID
CDF   001.49 245.7 m E Pn      2011/08/26 03:11:46.9   0.3                          T                                        4741847
CDF   001.49 245.7 m E Pg      2011/08/26 03:11:48.8  -1.3                          T                                        4741860
CDF   001.49 245.7 m E Sg      2011/08/26 03:12:09.0  -0.4                          T                8.2  .30 Ml 2.6 Md 2.6  4741840
RUP   001.62 294.9 m E Pn      2011/08/26 03:11:48.0  -0.2                          T                                        4741853
RUP   001.62 294.9 m E Pg      2011/08/26 03:11:51.5  -0.8                          T                                        4741852
RUP   001.62 294.9 m E Sn      2011/08/26 03:12:09.0   1.6                          T                                        4741854
RUP   001.62 294.9 m E Sg      2011/08/26 03:12:12.9  -0.4                          T                                        4741859
HINF  002.05 234.1 m E Pn      2011/08/26 03:11:53.4  -0.7                          T                                        4741846
HINF  002.05 234.1 m E Pg      2011/08/26 03:11:58.7  -1.6                          T                                        4741845
HINF  002.05 234.1 m E Sn      2011/08/26 03:12:20.3   2.5                          T                                        4741843
HINF  002.05 234.1 m E Sg      2011/08/26 03:12:25.7  -1.0                          T                7.7  .29 Ml 2.6         4741842
HAU   002.23 243.4 m E Pn      2011/08/26 03:11:56.2  -0.4                          T                                        4741848
HAU   002.23 243.4 m E Pg      2011/08/26 03:12:01.7  -1.9                          T                                        4741844
HAU   002.23 243.4 m E Sg      2011/08/26 03:12:33.3   1.0                          T                9.4  .28 Ml 2.6         4741841
THEF  002.35 251.0 m E Sg      2011/08/26 03:12:35.7  -0.4                          T                4.8  .27 Ml 2.5         4741851
LOR   004.06 246.1 m E Pg      2011/08/26 03:12:36.2  -1.1                          T                                        4741856
LOR   004.06 246.1 m E Sn      2011/08/26 03:13:06.6   0.8                          T                                        4741855
LOR   004.06 246.1 m E Sg      2011/08/26 03:13:29.5   0.1                          T                1.9  .30 Ml 2.5         4741858
SSF   004.37 245.2 m E Sg      2011/08/26 03:13:38.5  -0.6                          T                 .9  .22 Ml 2.4         4741857
SMF   004.40 239.0 m E Sg      2011/08/26 03:13:39.3  -0.6                          T                  1  .24 Ml 2.4         4741850

.
EVENT     263249
    Date      Time       Latitude Longitude    Depth    Ndef Nsta Gap    Mag1  N    Mag2  N    Mag3  N   Author         ID
       rms   OT_Error      Smajor Sminor Az        Err   mdist  Mdist     Err        Err        Err      Quality

2011/08/26 05:06:53.6     43.9084   11.8745      2.0      23   10 166  Ml 2.9  5                         js067245    263249

      0.20   +-  0.07       2.0    1.1   57.26 +-  0.0    0.13   5.62   +-0.3                            m i ke

CENTRAL ITALY
Sta     Dist  EvAz     Phase      Date       Time     TRes  Azim  AzRes  Slow  SRes Def   SNR       Amp   Per   Mag1   Mag2       ID
PGF   002.50 238.1 m E Pn      2011/08/26 05:07:32.7  -1.0                          T                                        4741964
PGF   002.50 238.1 m E Sn      2011/08/26 05:08:03.0   0.0                          T                5.2  .52 Ml 2.6         4753038
SBF   003.21 270.7 m E Pn      2011/08/26 05:07:43.8   0.6                          T                                        4741965
SBF   003.21 270.7 m E Sn      2011/08/26 05:08:20.0   0.2                          T                4.2  .35 Ml 2.6         4753037
FRF   003.80 266.6 m E Pn      2011/08/26 05:07:51.1  -0.1                          T                                        4741961
LMR   003.94 263.5 m E Pn      2011/08/26 05:07:52.5  -0.6                          T                                        4741962
LPL   004.00 295.5 m E P       2011/08/26 05:07:58.4   0.7                          T                                        4741963
ORIF  004.41 285.3 m E P       2011/08/26 05:08:04.5   1.2                          T                                        4741960
CABF  004.90 305.5 m E Pn      2011/08/26 05:08:06.2   0.0                          T                                        4753039
HINF  005.25 319.9 m E Pn      2011/08/26 05:08:11.1   0.1                          T                                        4753040
HINF  005.25 319.9 m E Sn      2011/08/26 05:09:08.8   0.3                          T                6.1  .49 Ml 3.0         4753041
CDF   005.52 326.3 m E Pn      2011/08/26 05:08:14.6  -0.2                          T                                        4753044
CDF   005.52 326.3 m E Sn      2011/08/26 05:09:14.9  -0.1                          T                4.4  .44 Ml 3.1         4753045
HAU   005.62 318.7 m E Pn      2011/08/26 05:08:16.2   0.1                          T                                        4753042
HAU   005.62 318.7 m E Sn      2011/08/26 05:09:17.4  -0.1                          T                8.7  .39 Ml 3.1         4753043

.
