EVENT     269716
    Date      Time       Latitude Longitude    Depth    Ndef Nsta Gap    Mag1  N    Mag2  N    Mag3  N   Author         ID
       rms   OT_Error      Smajor Sminor Az        Err   mdist  Mdist     Err        Err        Err      Quality

2012/02/07 05:20:06.2     44.5504    9.4273      2.0      38    9 093  Ml 2.2  4                         js067245    269736

      0.37   +-  0.06       1.7     .9   19.97 +-  0.0    0.22   3.40   +-0.3                            m i ke

NORTHERN ITALY
Sta     Dist  EvAz     Phase      Date       Time     TRes  Azim  AzRes  Slow  SRes Def   SNR       Amp   Per   Mag1   Mag2       ID
SBF   001.59 245.1 m E Pn      2012/02/07 05:20:33.6  -0.1                          T                                        4833189
SBF   001.59 245.1 m E Sg      2012/02/07 05:20:57.3   0.9                          T                8.9  .28 Ml 2.6         4833194
MBDF  001.90 276.2 m E Pn      2012/02/07 05:20:38.4   0.3                          T                                        4833192
MBDF  001.90 276.2 m E Pg      2012/02/07 05:20:41.7  -0.1                          T                                        4833245
MBDF  001.90 276.2 m E Sg      2012/02/07 05:21:05.3  -1.0                          T                4.4  .40 Ml 2.2         4833185
LPL   002.14 297.8 m E Pn      2012/02/07 05:20:40.6  -0.8                          T                                        4833188
LPL   002.14 297.8 m E Pg      2012/02/07 05:20:46.5   0.3                          T                                        4833187
LPL   002.14 297.8 m E Sg      2012/02/07 05:21:13.7  -0.2                          T                3.5  .45 Ml 2.1         4833195
FRF   002.24 244.7 m E P       2012/02/07 05:20:44.0  -0.8                          T                                        4833247
FRF   002.24 244.7 m E Pg      2012/02/07 05:20:47.6  -0.1                          T                                        4833246
FRF   002.24 244.7 m E Sn      2012/02/07 05:21:08.6  -0.3                          T                                        4833190
LMR   002.43 241.0 m E Pn      2012/02/07 05:20:45.5   0.4                          T                                        4833193
LMR   002.43 241.0 m E Sn      2012/02/07 05:21:12.9  -0.8                          T                                        4833191
LPG   002.12 297.5 m E Pg      2012/02/07 05:20:46.3   0.3                          T                                        4833196
ORIF  002.55 279.5 m E Pg      2012/02/07 05:20:53.7   0.0                          T                                        4833186
CABF  003.12 312.5 m E P       2012/02/07 05:20:57.4  -0.2                          T                                        4833248
CABF  003.12 312.5 m E Sn      2012/02/07 05:21:29.9  -0.4                          T                 .8  .25 Ml 1.9         4833249
VIVF  003.40 276.8 m E Pn      2012/02/07 05:20:58.1  -0.2                          T                                        4833244

.
EVENT     269774
    Date      Time       Latitude Longitude    Depth    Ndef Nsta Gap    Mag1  N    Mag2  N    Mag3  N   Author         ID
       rms   OT_Error      Smajor Sminor Az        Err   mdist  Mdist     Err        Err        Err      Quality

2012/02/07 17:19:20.0     48.1212   -2.0058       .0 f    33   13 127  Ml 2.2  6  Md 2.2  1              js067245    269794

      0.87   +-  0.10       3.4    1.8    5.80 +-  0.0    0.39   4.26   +-0.1      +-                    m i km

FRANCE
Sta     Dist  EvAz     Phase      Date       Time     TRes  Azim  AzRes  Slow  SRes Def   SNR       Amp   Per   Mag1   Mag2       ID
SGMF  000.39 290.1 m E Pg      2012/02/07 17:19:27.4  -0.3                          T                                        4833218
SGMF  000.39 290.1 m E Sg      2012/02/07 17:19:32.9  -0.2                          T                4.7  .24        Md 2.2  4833277
GRR   000.81 070.4 m E Pg      2012/02/07 17:19:35.3  -0.2                          T                                        4833291
GRR   000.81 070.4 m E Pn      2012/02/07 17:19:37.0  -0.2                          T                                        4833290
GRR   000.81 070.4 m E Sg      2012/02/07 17:19:46.2   0.0                          T                                        4833282
GRR   000.81 070.4 m E Sn      2012/02/07 17:19:48.8  -0.7                          T                3.4  .22                4833283
QUIF  000.81 255.7 m E Pg      2012/02/07 17:19:35.3   0.0                          T                                        4833297
QUIF  000.81 255.7 m E Pn      2012/02/07 17:19:37.2   0.0                          T                                        4833296
QUIF  000.81 255.7 m E Sg      2012/02/07 17:19:46.0   0.0                          T                                        4833278
QUIF  000.81 255.7 m E Sn      2012/02/07 17:19:49.2   0.0                          T               10.3  .22                4833279
ROSF  000.87 284.7 m E Pg      2012/02/07 17:19:36.4  -0.3                          T                                        4833299
ROSF  000.87 284.7 m E P       2012/02/07 17:19:38.6   0.1                          T                                        4833298
ROSF  000.87 284.7 m E Sg      2012/02/07 17:19:48.2  -0.1                          T                                        4833275
ROSF  000.87 284.7 m E Sn      2012/02/07 17:19:50.9  -0.1                          T                8.2  .31 Ml 2.2         4833276
FLN   001.20 057.1 m E Pg      2012/02/07 17:19:42.5  -0.2 229.6  -8.6              T                                        4833295
FLN   001.20 057.1 m E P       2012/02/07 17:19:43.9  -0.1                          T                                        4833294
FLN   001.20 057.1 m E Sg      2012/02/07 17:19:58.2  -0.2                          T                8.1  .28 Ml 2.2         4833280
LDF   001.34 068.7 m E Pg      2012/02/07 17:19:45.1  -0.2                          T                                        4833293
LDF   001.34 068.7 m E P       2012/02/07 17:19:45.8  -0.2                          T                                        4833292
LDF   001.34 068.7 m E Sg      2012/02/07 17:20:02.8  -0.1                          T                3.5  .24 Ml 2.1         4833281
MFF   001.98 139.6 m E Pn      2012/02/07 17:19:55.0   1.9                          T                                        4833288
MFF   001.98 139.6 m E Pg      2012/02/07 17:19:56.2  -0.7                          T                                        4833289
MFF   001.98 139.6 m E Sg      2012/02/07 17:20:22.3  -0.4                          T                1.9  .23 Ml 2.3         4833284
BGF   003.65 113.6 m E Pn      2012/02/07 17:20:16.5   0.6                          T                                        4833301
RJF   003.72 138.0 m E Pn      2012/02/07 17:20:16.9   0.1                          T                                        4833287
RJF   003.72 138.0 m E Sg      2012/02/07 17:21:16.7  -0.2                          T                2.5  .33 Ml 2.1         4833285
AVF   003.87 108.1 m E Pn      2012/02/07 17:20:19.2   0.3                          T                                        4833302
SSF   003.88 103.8 m E Pn      2012/02/07 17:20:19.3   0.3                          T                                        4833303
LOR   004.05 100.0 m E Pn      2012/02/07 17:20:21.7   0.3 304.9  20.6              T                                        4833304
CAF   004.26 137.2 m E Pn      2012/02/07 17:20:23.4  -0.8                          T                                        4833286

.
EVENT     269775
    Date      Time       Latitude Longitude    Depth    Ndef Nsta Gap    Mag1  N    Mag2  N    Mag3  N   Author         ID
       rms   OT_Error      Smajor Sminor Az        Err   mdist  Mdist     Err        Err        Err      Quality

2012/02/07 20:50:42.5     44.3059    7.3324     10.0 f   120   36 060  Ml 3.0 36  Md 2.9  7              js067245    269795

      1.37   +-  0.10       2.6    1.8   48.65 +-  0.0    0.06   7.91   +-0.3      +-0.0                 m i ke

NORTHERN ITALY
Sta     Dist  EvAz     Phase      Date       Time     TRes  Azim  AzRes  Slow  SRes Def   SNR       Amp   Per   Mag1   Mag2       ID
SBF   000.45 170.5 m E Pg      2012/02/07 20:50:51.3   0.0                          T   001.0                                4832436
SBF   000.45 170.5 m E Sg      2012/02/07 20:50:57.2  -0.1                          T              288.4  .16                4832463
MBDF  000.58 316.6 m E Pg      2012/02/07 20:50:52.0  -1.8                          T   001.0                                4832444
MBDF  000.58 316.6 m E Sg      2012/02/07 20:50:59.5  -2.1                          T   001.0      586.3  .40        Md 2.9  4832445
FRF   000.89 213.9 m E Pg      2012/02/07 20:50:58.5  -0.8                          T   001.0                                4832423
FRF   000.89 213.9 m E Sg      2012/02/07 20:51:09.8  -1.3                          T   001.0      150.1  .22 Ml 3.6 Md 2.9  4832424
LMR   001.14 211.8 m E Pn      2012/02/07 20:51:03.0   0.1                          T   001.0                                4832430
LMR   001.14 211.8 m E Sg      2012/02/07 20:51:17.3  -1.3                          T   001.0      158.8  .20 Ml 3.8         4832431
ORIF  001.20 301.1 m E Pn      2012/02/07 20:51:03.5  -0.4                          T   001.0                                4832449
ORIF  001.20 301.1 m E Sg      2012/02/07 20:51:19.8  -1.0                          T               51.9  .24 Ml 3.2 Md 2.9  4832465
LPG   001.26 341.1 m E Pn      2012/02/07 20:51:04.2  -0.7                          T   001.0                                4832433
LPG   001.26 341.1 m E Sg      2012/02/07 20:51:20.4  -2.4                          T               93.0  .48 Ml 3.2 Md 2.9  4832464
LPL   001.28 340.8 m E Pn      2012/02/07 20:51:04.4  -0.7                          T   001.0                                4832434
LPL   001.28 340.8 m E Sg      2012/02/07 20:51:21.2  -2.2                          T               50.0  .36 Ml 3.1 Md 2.9  4832454
SMRF  001.31 256.0 m E Pg      2012/02/07 20:51:06.5  -0.5                          T   001.0                                4832452
SMRF  001.31 256.0 m E Sg      2012/02/07 20:51:23.7  -0.2                          T   001.0      274.9  .36 Ml 3.8 Md 2.9  4832453
VIVF  001.98 287.1 m E Pn      2012/02/07 20:51:14.8   0.4                          T   001.0                                4832450
VIVF  001.98 287.1 m E Pg      2012/02/07 20:51:18.0  -1.3                          T                                        4833263
VIVF  001.98 287.1 m E Sn      2012/02/07 20:51:38.4   0.7                          T               14.3  .27 Ml 2.9         4832455
VIVF  001.98 287.1 m E Sg      2012/02/07 20:51:44.1  -0.8                          T   001.0       22.5  .32 Ml 3.0 Md 2.9  4832451
PGF   002.14 144.8 m E Pn      2012/02/07 20:51:16.6   0.0                          T   001.0                                4832435
PGF   002.14 144.8 m E Sn      2012/02/07 20:51:41.7   0.2                          T               12.6  .22 Ml 3.2         4832462
LASF  002.51 266.0 m E Pn      2012/02/07 20:51:21.5  -0.1                          T   001.0                                4832427
LASF  002.51 266.0 m E Sn      2012/02/07 20:51:50.5   0.1                          T                9.6  .30 Ml 2.8         4832466
LASF  002.51 266.0 m E Sg      2012/02/07 20:52:00.5  -1.0                          T               11.7  .36 Ml 2.8         4833262
CABF  002.47 339.6 m E Pn      2012/02/07 20:51:22.2   1.1                          T   001.0                                4832442
CABF  002.47 339.6 m E Pg      2012/02/07 20:51:27.5  -0.9                          T                                        4833269
CABF  002.47 339.6 m E Sg      2012/02/07 20:51:59.4  -0.8                          T                9.1  .43 Ml 2.6         4833345
SMF   003.39 314.8 m E Pn      2012/02/07 20:51:34.9   1.3                          T   001.0                                4832437
SMF   003.39 314.8 m E Pg      2012/02/07 20:51:44.8  -0.5                          T                                        4832456
SMF   003.39 314.8 m E Sn      2012/02/07 20:52:13.1   1.7                          T   001.0       13.6  .48 Ml 3.0         4832438
SMF   003.39 314.8 m E Sg      2012/02/07 20:52:28.5  -0.4                          T                7.6  .30 Ml 2.9         4833259
HINF  003.53 354.7 m E Pn      2012/02/07 20:51:35.7   0.2                          T   001.0                                4832443
HINF  003.53 354.7 m E Pg      2012/02/07 20:51:47.0  -0.9                          T                                        4833270
HINF  003.53 354.7 m E Sn      2012/02/07 20:52:15.1   0.3                          T                3.5  .24 Ml 2.7         4832470
HAU   003.76 349.9 m E Pn      2012/02/07 20:51:38.9   0.2                          T   001.0                                4832426
HAU   003.76 349.9 m E Sn      2012/02/07 20:52:21.2   0.8                          T               11.8  .30 Ml 3.0         4832471
AVF   003.74 313.0 m E Pn      2012/02/07 20:51:39.8   1.5                          T   001.0                                4832419
AVF   003.74 313.0 m E Pg      2012/02/07 20:51:51.3  -0.4                          T                                        4833257
AVF   003.74 313.0 m E Sn      2012/02/07 20:52:21.5   1.7                          T                2.2  .25 Ml 2.5         4832467
AVF   003.74 313.0 m E Sg      2012/02/07 20:52:39.4  -0.3                          T                1.9  .32 Ml 2.4         4833258
CAF   003.81 281.2 m E Pn      2012/02/07 20:51:40.2   0.9                          T   001.0                                4832421
CAF   003.81 281.2 m E Sn      2012/02/07 20:52:23.2   1.6                          T                2.8  .20 Ml 2.8         4833267
MTLF  003.83 257.2 m E Pn      2012/02/07 20:51:40.5   1.0                          T   001.0                                4832447
MTLF  003.83 257.2 m E Sn      2012/02/07 20:52:23.2   1.3                          T   001.0        2.9  .25 Ml 2.7         4832448
SSF   003.84 317.1 m E Pn      2012/02/07 20:51:41.0   1.3                          T   001.0                                4832439
SSF   003.84 317.1 m E Sn      2012/02/07 20:52:23.9   1.6                          T                7.2  .34 Ml 3.0         4832472
LOR   003.83 321.9 m E Pn      2012/02/07 20:51:41.0   1.4 148.3  8.9               T   001.0                                4832432
LOR   003.83 321.9 m E Sn      2012/02/07 20:52:24.1   2.1 144.3  4.9               T               11.7  .46 Ml 3.0         4832473
BGF   003.88 307.1 m E Pn      2012/02/07 20:51:41.6   1.4                          T   001.0                                4832420
BGF   003.88 307.1 m E Sn      2012/02/07 20:52:24.7   1.6                          T                7.1  .30 Ml 3.0         4832468
BGF   003.88 307.1 m E Sg      2012/02/07 20:52:42.9  -1.1                          T                9.6  .40 Ml 3.0         4833268
CDF   004.11 359.5 m E Pn      2012/02/07 20:51:43.7   0.2                          T   001.0                                4832422
CDF   004.11 359.5 m E Sn      2012/02/07 20:52:29.1   0.4                          T                2.4  .20 Ml 2.9         4832469
TCF   004.12 300.5 m E Pn      2012/02/07 20:51:44.7   1.2                          T   001.0                                4832440
TCF   004.12 300.5 m E Sn      2012/02/07 20:52:30.3   1.3                          T                1.6  .25 Ml 2.5         4832460
SFTF  004.21 338.6 m E Pn      2012/02/07 20:51:46.2   1.4 145.3  -11.7             T                                        4833347
SFTF  004.21 338.6 m E Sn      2012/02/07 20:52:32.3   1.2                          T                4.7  .28 Ml 2.9         4833255
RJF   004.26 285.6 m E Pn      2012/02/07 20:51:46.6   1.2                          T   001.0                                4832418
RJF   004.26 285.6 m E Sg      2012/02/07 20:52:55.4  -0.5                          T                                        4833341
MEZF  004.48 340.2 m E Pn      2012/02/07 20:51:48.2  -0.3                          T   001.0                                4832446
MEZF  004.48 340.2 m E P       2012/02/07 20:51:50.9  -1.4                          T                                        4833348
MEZF  004.48 340.2 m E Sn      2012/02/07 20:52:38.3   0.8                          T                6.1  .44 Ml 2.9         4832459
PAGF  004.39 345.9 m E Pn      2012/02/07 20:51:48.7   1.5                          T                                        4833346
PAGF  004.39 345.9 m E Sn      2012/02/07 20:52:37.3   1.9                          T                  1  .26 Ml 2.3         4833254
LFF   004.75 280.0 m E Pn      2012/02/07 20:51:52.3   0.3                          T   001.0                                4832429
MFF   005.74 296.2 m E Pn      2012/02/07 20:52:07.5   2.0                          T                                        4833261
BAIF  006.14 340.8 m E Pn      2012/02/07 20:52:12.4   1.4                          T   001.0                                4832441
LDF   006.70 312.4 m E Pn      2012/02/07 20:52:20.4   1.8                          T   001.0                                4832428
GRR   006.98 308.6 m E Pn      2012/02/07 20:52:24.2   1.8                          T   001.0                                4832425
GRR   006.98 308.6 m E Sg      2012/02/07 20:54:19.8  -1.2                          T                3.5  .28 Ml 3.2         4833343
FLN   006.99 312.4 m E Pn      2012/02/07 20:52:24.5   1.9 127.9  1.2               T                                        4833260
THEF  004.03 347.2 m E Sn      2012/02/07 20:52:28.6   1.9                          T                7.7  .27 Ml 3.1         4833256
SGMF  007.91 303.4 m E Pn      2012/02/07 20:52:35.0   0.0                          T                                        4833342
EPF   005.23 258.3 m E Sn      2012/02/07 20:52:56.8   1.3                          T                                        4833340
EPF   005.23 258.3 m E Sg      2012/02/07 20:53:25.8  -0.6                          T                                        4833339

.

DATA_TYPE ARRIVAL
Sta     Dist  EvAz     Phase      Date       Time     TRes  Azim  AzRes  Slow  SRes Def   SNR       Amp   Per   Mag1   Mag2       ID

STOP
