EVENT     271482
    Date      Time       Latitude Longitude    Depth    Ndef Nsta Gap    Mag1  N    Mag2  N    Mag3  N   Author         ID
       rms   OT_Error      Smajor Sminor Az        Err   mdist  Mdist     Err        Err        Err      Quality

2012/03/08 18:26:21.8     44.4811    6.6636      2.0     154   38 022  Ml 3.4 29  Md 3.4  3              js067245    271502

      0.87   +-  0.06       1.4    1.3   60.30 +-  0.0    0.09   6.52   +-0.3      +-0.0                 m i ke

FRANCE
Sta     Dist  EvAz     Phase      Date       Time     TRes  Azim  AzRes  Slow  SRes Def   SNR       Amp   Per   Mag1   Mag2       ID
MBDF  000.26 017.4 m E Pg      2012/03/08 18:26:27.2   0.1                          T   001.0                                4867039
MBDF  000.26 017.4 m E Sg      2012/03/08 18:26:30.9   0.3                          T             2153.7  .32        Md 3.5  4876796
ORIF  000.71 308.3 m E Pg      2012/03/08 18:26:35.7   0.4                          T   001.0                                4867044
ORIF  000.71 308.3 m E Sg      2012/03/08 18:26:44.9   0.3                          T              417.0  .22        Md 3.4  4876797
SBF   000.83 137.8 m E Pg      2012/03/08 18:26:37.5   0.0                          T   001.0                                4867024
SBF   000.83 137.8 m E Sg      2012/03/08 18:26:48.1  -0.2                          T   001.0      335.5  .24                4867025
FRF   000.92 180.8 m E Pg      2012/03/08 18:26:39.5   0.4                          T   001.0                                4867006
FRF   000.92 180.8 m E Sg      2012/03/08 18:26:50.6  -0.4                          T   001.0      608.8  .20 Ml 4.3         4867007
FRF   000.92 180.8 m E Sn      2012/03/08 18:26:53.0  -0.1                          T                                        4876800
SMRF  000.93 237.5 m E Pn      2012/03/08 18:26:40.6   0.3                          T                                        4876802
SMRF  000.93 237.5 m E P       2012/03/08 18:26:41.3   0.0                          T   001.0                                4867049
SMRF  000.93 237.5 m E Sg      2012/03/08 18:26:51.7   0.3                          T   001.0      349.7  .28 Ml 3.9         4867050
SMRF  000.93 237.5 m E Sn      2012/03/08 18:26:53.7   0.2                          T                                        4876799
LPG   001.02 003.5 m E Pg      2012/03/08 18:26:41.3   0.0                          T                                        4876803
LPG   001.02 003.5 m E Pn      2012/03/08 18:26:41.9   0.1                          T   001.0                                4867018
LPG   001.02 003.5 m E Sg      2012/03/08 18:26:54.7   0.3                          T   001.0      218.9  .32 Ml 3.7         4867019
LPL   001.04 002.7 m E Pg      2012/03/08 18:26:41.6   0.1                          T   001.0                                4867020
LPL   001.04 002.7 m E Sg      2012/03/08 18:26:55.1   0.2                          T              164.0  .38 Ml 3.5         4876798
LMR   001.15 185.6 m E Pg      2012/03/08 18:26:43.7   0.4                          T                                        4876801
LMR   001.15 185.6 m E P       2012/03/08 18:26:44.8  -0.1                          T   001.0                                4867014
LMR   001.15 185.6 m E Sg      2012/03/08 18:26:58.2  -0.1                          T   001.0      273.7  .24 Ml 4.0         4867015
VIVF  001.47 285.5 m E Pg      2012/03/08 18:26:49.4   0.2                          T   001.0                                4867047
VIVF  001.47 285.5 m E Sn      2012/03/08 18:27:06.8   0.5                          T                                        4876795
VIVF  001.47 285.5 m E Sg      2012/03/08 18:27:08.7   0.5                          T   001.0       98.7  .24 Ml 3.6         4867048
LASF  002.06 259.6 m E Pn      2012/03/08 18:26:56.1   0.5                          T                                        4876804
LASF  002.06 259.6 m E P       2012/03/08 18:26:58.1   0.3                          T   001.0                                4867011
LASF  002.06 259.6 m E Sn      2012/03/08 18:27:20.6   0.2                          T               29.6  .24 Ml 3.3         4876794
CABF  002.17 349.4 m E P       2012/03/08 18:27:00.2   0.7                          T   001.0                                4867035
CABF  002.17 349.4 m E Sn      2012/03/08 18:27:22.7  -0.4                          T                                        4876779
CABF  002.17 349.4 m E Sg      2012/03/08 18:27:30.3   0.2                          T              130.6  .62 Ml 3.6 Md 3.4  4876780
PGF   002.57 137.9 m E Pn      2012/03/08 18:27:03.6   0.8                          T   001.0                                4867022
PGF   002.57 137.9 m E Sn      2012/03/08 18:27:32.6  -0.2                          T   001.0       36.2  .28 Ml 3.7         4867023
SMF   002.94 318.5 m E P       2012/03/08 18:27:10.3  -0.2                          T   001.0                                4867026
SMF   002.94 318.5 m E Sg      2012/03/08 18:27:54.1   0.2                          T   001.0       30.4  .28 Ml 3.4         4867027
AVF   003.28 316.0 m E P       2012/03/08 18:27:14.9  -0.4                          T   001.0                                4866998
AVF   003.28 316.0 m E Sn      2012/03/08 18:27:49.7   0.3                          T   001.0                                4866999
AVF   003.28 316.0 m E Sg      2012/03/08 18:28:05.2   0.7                          T   001.0         33  .52 Ml 3.3         4867000
CAF   003.31 279.3 m E P       2012/03/08 18:27:15.1  -0.7                          T   001.0                                4867002
CAF   003.31 279.3 m E Sn      2012/03/08 18:27:50.5   0.3                          T                8.7  .25 Ml 3.0         4876788
CAF   003.31 279.3 m E Sg      2012/03/08 18:28:05.8   0.1                          T               27.0  .61 Ml 3.1         4876789
HINF  003.34 002.2 m E P       2012/03/08 18:27:15.2  -1.1                          T   001.0                                4867037
HINF  003.34 002.2 m E Sn      2012/03/08 18:27:51.1   0.1                          T   001.0       18.3  .36 Ml 3.2         4867038
MTLF  003.41 252.0 m E P       2012/03/08 18:27:16.0  -1.2                          T   001.0                                4867043
MTLF  003.41 252.0 m E Sn      2012/03/08 18:27:52.7   0.1                          T                6.6  .20 Ml 3.0         4876793
SSF   003.40 320.5 m E P       2012/03/08 18:27:16.5  -0.5                          T   001.0                                4867028
BGF   003.39 309.1 m E P       2012/03/08 18:27:16.5  -0.4                          T   001.0                                4867001
BGF   003.39 309.1 m E Pg      2012/03/08 18:27:24.9   0.3                          T                                        4876806
SSF   003.40 320.5 m E Sn      2012/03/08 18:27:52.0  -0.4                          T   001.0                                4867029
BGF   003.39 309.1 m E Sn      2012/03/08 18:27:52.4   0.1                          T                                        4876782
SSF   003.40 320.5 m E Sg      2012/03/08 18:28:08.2  -0.1                          T   001.0       36.0  .50 Ml 3.5         4867030
BGF   003.39 309.1 m E Sg      2012/03/08 18:28:09.6   1.4                          T               71.4  .34 Ml 3.8         4876783
LOR   003.41 325.9 m E P       2012/03/08 18:27:16.8  -0.4 153.2  9.3               T   001.0                                4867016
LOR   003.41 325.9 m E Sn      2012/03/08 18:27:52.6   0.0 152.7  8.8               T               22.1  .41 Ml 3.3         4876775
LOR   003.41 325.9 m E Sg      2012/03/08 18:28:08.7   0.0                          T   001.0       27.3  .30 Ml 3.5         4867017
HAU   003.53 356.6 m E P       2012/03/08 18:27:18.0  -0.9                          T   001.0                                4867009
HAU   003.53 356.6 m E Sn      2012/03/08 18:27:56.2   0.6                          T   001.0         54  .28 Ml 3.6         4867010
TCF   003.62 301.5 m E P       2012/03/08 18:27:19.8  -0.4                          T   001.0                                4867031
TCF   003.62 301.5 m E Sn      2012/03/08 18:27:58.3   0.5                          T                                        4876774
TCF   003.62 301.5 m E Sg      2012/03/08 18:28:15.6   0.3                          T   001.0       37.5  .68 Ml 3.3         4867032
RJF   003.75 284.5 m E P       2012/03/08 18:27:21.5  -0.5                          T   001.0                                4866997
THEF  003.78 353.2 m E P       2012/03/08 18:27:21.8  -0.5                          T                                        4876808
CDF   003.96 005.9 m E P       2012/03/08 18:27:23.0  -2.0                          T   001.0                                4867003
CDF   003.96 005.9 m E Sn      2012/03/08 18:28:05.8   0.0                          T   001.0        7.3  .24 Ml 3.2         4867004
SFTF  003.89 343.8 m E P       2012/03/08 18:27:23.9  -0.1 145.1  -17.5             T                                        4876809
SFTF  003.89 343.8 m E Sn      2012/03/08 18:28:04.0  -0.2                          T                                        4876777
SFTF  003.89 343.8 m E Sg      2012/03/08 18:28:23.8   0.0                          T               20.7  .34 Ml 3.4         4876778
HYF   003.96 316.2 m E P       2012/03/08 18:27:24.0  -1.0                          T                                        4876807
HYF   003.96 316.2 m E Sg      2012/03/08 18:28:26.4   0.6                          T                                        4876781
PAGF  004.13 351.3 m E P       2012/03/08 18:27:27.0  -0.3 168.7  -1.9              T                                        4876810
PAGF  004.13 351.3 m E Sn      2012/03/08 18:28:10.3   0.5                          T                6.4  .39 Ml 2.9         4876776
MEZF  004.17 345.1 m E P       2012/03/08 18:27:27.7  -0.3 168.6  4.7               T   001.0                                4867040
MEZF  004.17 345.1 m E Sn      2012/03/08 18:28:10.9   0.1                          T   001.0                                4867041
MEZF  004.17 345.1 m E Sg      2012/03/08 18:28:32.5   0.0                          T   001.0       23.4  .44 Ml 3.4         4867042
LFF   004.25 278.3 m E P       2012/03/08 18:27:28.6  -0.4                          T   001.0                                4867013
LFF   004.25 278.3 m E Sn      2012/03/08 18:28:12.9   0.2                          T                                        4876786
LFF   004.25 278.3 m E Sg      2012/03/08 18:28:35.5   0.7                          T               11.0  .35 Ml 3.0         4876787
EPF   004.80 254.6 m E P       2012/03/08 18:27:36.6  -0.4                          T                                        4876792
EPF   004.80 254.6 m E Sn      2012/03/08 18:28:26.1   0.1                          T                                        4876790
EPF   004.80 254.6 m E Sg      2012/03/08 18:28:52.4   0.0                          T                6.3  .33 Ml 3.1         4876791
MFF   005.23 296.3 m E P       2012/03/08 18:27:42.2  -0.8                          T   001.0                                4867021
GIVF  005.76 348.1 m E P       2012/03/08 18:27:49.3  -1.1                          T   001.0                                4867036
BAIF  005.83 344.2 m E P       2012/03/08 18:27:49.8  -1.5                          T   001.0                                4867033
BAIF  005.83 344.2 m E Sn      2012/03/08 18:28:51.4   1.1                          T   001.0        6.3  .28 Ml 3.4         4867034
SJPF  005.87 259.3 m E P       2012/03/08 18:27:49.9  -2.2                          T   001.0                                4867045
LDF   006.23 313.7 m E P       2012/03/08 18:27:55.7  -1.4                          T   001.0                                4867012
GRR   006.50 309.6 m E P       2012/03/08 18:27:59.2  -1.7                          T   001.0                                4867008
FLN   006.52 313.6 m E P       2012/03/08 18:28:00.2  -1.0 134.8  6.4               T   001.0                                4867005

.
EVENT     271483
    Date      Time       Latitude Longitude    Depth    Ndef Nsta Gap    Mag1  N    Mag2  N    Mag3  N   Author         ID
       rms   OT_Error      Smajor Sminor Az        Err   mdist  Mdist     Err        Err        Err      Quality

2012/03/08 18:43:53.3     44.4923    6.7029      2.0      39    8 038  Ml 2.0  5  Md 2.2  1              js067245    271503

      0.84   +-  0.08       1.6    1.4   70.83 +-  0.0    0.08   1.92   +-0.3      +-                    m i ke

FRANCE
Sta     Dist  EvAz     Phase      Date       Time     TRes  Azim  AzRes  Slow  SRes Def   SNR       Amp   Per   Mag1   Mag2       ID
MBDF  000.24 011.8 m E Pg      2012/03/08 18:43:58.3   0.1                          T                                        4876920
MBDF  000.24 011.8 m E Sg      2012/03/08 18:44:01.7   0.2                          T               20.9  .32        Md 2.2  4876907
ORIF  000.73 306.3 m E Pg      2012/03/08 18:44:06.8  -0.3                          T                                        4876922
ORIF  000.73 306.3 m E Sg      2012/03/08 18:44:16.4  -0.1                          T                7.3  .26                4876909
SBF   000.82 139.8 m E Pg      2012/03/08 18:44:09.1   0.3                          T                                        4876915
SBF   000.82 139.8 m E Sg      2012/03/08 18:44:19.7   0.2                          T                2.6  .22                4876914
FRF   000.93 182.5 m E Pg      2012/03/08 18:44:11.2   0.4                          T                                        4876917
FRF   000.93 182.5 m E Sg      2012/03/08 18:44:23.2   0.3                          T                7.1  .18 Ml 2.4         4876912
SMRF  000.96 237.9 m E Pg      2012/03/08 18:44:12.2   0.8                          T                                        4876918
SMRF  000.96 237.9 m E Sn      2012/03/08 18:44:24.8  -0.8                          T                5.1  .31 Ml 2.0         4876911
LPG   001.01 001.9 m E Pg      2012/03/08 18:44:12.3  -0.2                          T                                        4876919
LPG   001.01 001.9 m E Sg      2012/03/08 18:44:25.7   0.1                          T                2.8  .26 Ml 1.8         4876910
LMR   001.17 187.0 m E Pg      2012/03/08 18:44:16.1   1.0                          T                                        4876916
LMR   001.17 187.0 m E Sg      2012/03/08 18:44:30.5   0.3                          T                3.0  .21 Ml 2.1         4876913
VIVF  001.49 284.8 m E Pg      2012/03/08 18:44:20.5  -0.6                          T                                        4876921
VIVF  001.49 284.8 m E Sg      2012/03/08 18:44:39.6  -0.8                          T                 .9  .21 Ml 1.6         4876908

.
EVENT     271502
    Date      Time       Latitude Longitude    Depth    Ndef Nsta Gap    Mag1  N    Mag2  N    Mag3  N   Author         ID
       rms   OT_Error      Smajor Sminor Az        Err   mdist  Mdist     Err        Err        Err      Quality

2012/03/08 18:52:59.8     44.5010    6.6978      2.0      34    8 040  Ml 1.8  5  Md 2.3  1              js067245    271522

      0.54   +-  0.08       1.6    1.4   54.24 +-  0.0    0.08   1.49   +-0.2      +-                    m i ke

FRANCE
Sta     Dist  EvAz     Phase      Date       Time     TRes  Azim  AzRes  Slow  SRes Def   SNR       Amp   Per   Mag1   Mag2       ID
MBDF  000.23 013.1 m E Pg      2012/03/08 18:53:04.7   0.1                          T                                        4876955
MBDF  000.23 013.1 m E Sg      2012/03/08 18:53:08.4   0.7                          T               12.2  .33        Md 2.3  4876941
ORIF  000.72 305.9 m E Pg      2012/03/08 18:53:13.2  -0.2                          T                                        4876956
ORIF  000.72 305.9 m E Sg      2012/03/08 18:53:23.0   0.2                          T                3.2  .25                4876943
SBF   000.83 140.0 m E Pg      2012/03/08 18:53:16.0   0.5                          T                                        4876949
SBF   000.83 140.0 m E Sg      2012/03/08 18:53:26.4   0.2                          T                 .9  .16                4876948
FRF   000.94 182.3 m E Pg      2012/03/08 18:53:18.1   0.7                          T                                        4876951
FRF   000.94 182.3 m E Sg      2012/03/08 18:53:29.6   0.0                          T                2.9  .22 Ml 2.0         4876946
LPG   001.00 002.2 m E Pg      2012/03/08 18:53:18.8   0.0                          T                                        4876953
LPG   001.00 002.2 m E Sg      2012/03/08 18:53:32.1   0.3                          T                1.2  .23 Ml 1.5         4876944
SMRF  000.96 237.3 m E Pn      2012/03/08 18:53:19.4   0.7                          T                                        4876952
SMRF  000.96 237.3 m E Sn      2012/03/08 18:53:31.4  -0.8                          T                3.5  .31 Ml 1.8         4876945
LMR   001.17 186.7 m E Pg      2012/03/08 18:53:22.4   0.7                          T                                        4876950
LMR   001.17 186.7 m E Sg      2012/03/08 18:53:37.4   0.5                          T                2.1  .23 Ml 1.9         4876947
VIVF  001.49 284.5 m E Pg      2012/03/08 18:53:27.0  -0.6                          T                                        4876954
VIVF  001.49 284.5 m E Sg      2012/03/08 18:53:46.2  -0.5                          T                1.5  .30 Ml 1.7         4876942

.
EVENT     271488
    Date      Time       Latitude Longitude    Depth    Ndef Nsta Gap    Mag1  N    Mag2  N    Mag3  N   Author         ID
       rms   OT_Error      Smajor Sminor Az        Err   mdist  Mdist     Err        Err        Err      Quality

2012/03/09 01:34:05.7     42.3701    1.7695      5.0 f    28    3 044  Ml 1.8  4  Md 2.0  2              js067245    271508

      0.37   +-  0.05       1.2     .9    9.69 +-  0.0    0.19   2.56   +-0.2      +-0.1                 m i ke

PYRENEES
Sta     Dist  EvAz     Phase      Date       Time     TRes  Azim  AzRes  Slow  SRes Def   SNR       Amp   Per   Mag1   Mag2       ID
MTLF  001.02 018.6 m E Pg      2012/03/09 01:34:25.5   0.7                          T                                        4876072
MTLF  001.02 018.6 m E Sg      2012/03/09 01:34:38.1  -0.1                          T                  1  .18 Ml 1.5 Md 1.9  4876073
EPF   001.24 302.5 m E Pg      2012/03/09 01:34:29.6   0.6                          T                                        4876070
EPF   001.24 302.5 m E Sg      2012/03/09 01:34:44.5  -0.6                          T                1.6  .17 Ml 1.9 Md 2.1  4876071
CAF   002.56 004.7 m E Sg      2012/03/09 01:35:26.5   0.3                          T                 .9  .21 Ml 1.9         4876069

.
