EVENT     278888
    Date      Time       Latitude Longitude    Depth    Ndef Nsta Gap    Mag1  N    Mag2  N    Mag3  N   Author         ID
       rms   OT_Error      Smajor Sminor Az        Err   mdist  Mdist     Err        Err        Err      Quality

2012/06/29 14:32:04.5     46.3647    6.1116      2.0      43   19 131  Ml 2.4 18  Md 2.4  2              bulletin    278988
                                                                                                         _ldg
      0.67   +-  0.05       1.3     .8   82.12 +-  0.0    0.25   2.70   +-0.3      +-0.4                 m i ke

SWITZERLAND
Sta     Dist  EvAz     Phase      Date       Time     TRes  Azim  AzRes  Slow  SRes Def   SNR       Amp   Per   Mag1   Mag2       ID
CABF  000.25 356.1 m E Pg      2012/06/29 14:32:09.3  -0.2                          T                                        5015352
CABF  000.25 356.1 m E Sg      2012/06/29 14:32:12.8  -0.1                          T               76.1  .24        Md 2.7  5015351
LPL   000.95 152.7 m E Pg      2012/06/29 14:32:22.8   0.1                          T                                        5015348
LPL   000.95 152.7 m E Sg      2012/06/29 14:32:35.2   0.2                          T                4.8  .28 Ml 2.0 Md 2.1  5015347
LPG   000.98 152.5 m E Pg      2012/06/29 14:32:22.9  -0.2                          T                                        5015350
LPG   000.98 152.5 m E Sn      2012/06/29 14:32:37.9   0.4                          T                6.7  .20 Ml 2.3         5015349
HINF  001.54 019.0 m E Pn      2012/06/29 14:32:31.5   0.2                          T                                        5015354
HINF  001.54 019.0 m E Pg      2012/06/29 14:32:33.3   0.0                          T                                        5025057
HINF  001.54 019.0 m E Sg      2012/06/29 14:32:53.4   0.3                          T                                        5015353
ORIF  001.46 186.5 m E Pg      2012/06/29 14:32:32.0   0.2                          T                                        5015345
ORIF  001.46 186.5 m E Sg      2012/06/29 14:32:50.8   0.3                          T                7.4  .23 Ml 2.5         5015346
SMF   001.59 281.0 m E Pg      2012/06/29 14:32:34.2   0.0                          T                                        5015341
SMF   001.59 281.0 m E Sg      2012/06/29 14:32:54.4  -0.4                          T                8.4  .17 Ml 2.8         5015342
VIVF  001.82 214.3 m E Pn      2012/06/29 14:32:35.1   0.0                          T                                        5015344
VIVF  001.82 214.3 m E Pg      2012/06/29 14:32:38.4   0.1                          T                                        5025051
VIVF  001.82 214.3 m E Sn      2012/06/29 14:32:57.4   0.1                          T                                        5025045
VIVF  001.82 214.3 m E Sg      2012/06/29 14:33:01.7   0.0                          T                2.3  .17 Ml 2.3         5015343
HAU   001.65 005.5 m E Pg      2012/06/29 14:32:35.1  -0.1                          T                                        5015360
HAU   001.65 005.5 m E Sg      2012/06/29 14:32:56.2  -0.3                          T               17.6  .25 Ml 2.7         5015359
MBDF  001.70 164.0 m E Pg      2012/06/29 14:32:36.1  -0.3                          T                                        5025049
MBDF  001.70 164.0 m E Sg      2012/06/29 14:32:58.1  -0.2                          T                1.9  .30 Ml 1.9         5025050
AVF   001.95 283.6 m E Pn      2012/06/29 14:32:37.2   0.3                          T                                        5015366
AVF   001.95 283.6 m E Pg      2012/06/29 14:32:40.7   0.0                          T                                        5025055
AVF   001.95 283.6 m E Sn      2012/06/29 14:33:00.5   0.0                          T                1.3  .16 Ml 2.1         5015365
AVF   001.95 283.6 m E Sg      2012/06/29 14:33:05.9   0.1                          T                1.7  .27 Ml 2.0         5025056
LOR   001.79 301.1 m E Pg      2012/06/29 14:32:38.0   0.2 114.8  -4.7              T                                        5025060
LOR   001.79 301.1 m E Sg      2012/06/29 14:32:59.9  -1.1 126.1  6.6               T                3.8  .18 Ml 2.5         5025061
THEF  001.87 357.6 m E Pg      2012/06/29 14:32:39.0  -0.2                          T                                        5015358
THEF  001.87 357.6 m E Sg      2012/06/29 14:33:02.7  -0.5                          T               16.9  .28 Ml 3.0         5015357
SSF   001.92 292.2 m E Pg      2012/06/29 14:32:40.4   0.2                          T                                        5015362
SSF   001.92 292.2 m E Sg      2012/06/29 14:33:04.6  -0.4                          T                4.3  .29 Ml 2.4         5015361
BGF   002.27 276.1 m E Pn      2012/06/29 14:32:41.3   0.1                          T                                        5025053
BGF   002.27 276.1 m E Pg      2012/06/29 14:32:46.3  -0.3                          T                                        5025052
BGF   002.27 276.1 m E Sg      2012/06/29 14:33:15.5  -0.2                          T                6.3  .29 Ml 2.6         5025054
SMRF  002.42 189.2 m E Pn      2012/06/29 14:32:42.8  -0.4                          T                                        5025047
SMRF  002.42 189.2 m E Pg      2012/06/29 14:32:49.2  -0.3                          T                                        5025046
SMRF  002.42 189.2 m E Sg      2012/06/29 14:33:20.6   0.1                          T                1.6  .38 Ml 1.9         5025048
MEZF  002.26 341.8 m E Pg      2012/06/29 14:32:46.5   0.1 165.1  4.1               T                                        5015356
MEZF  002.26 341.8 m E Sg      2012/06/29 14:33:15.6   0.2 172.1  11.1              T                6.2  .38 Ml 2.5         5015355
TCF   002.70 269.8 m E Pn      2012/06/29 14:32:47.6   0.5                          T                                        5015364
TCF   002.70 269.8 m E Sn      2012/06/29 14:33:18.9   0.4                          T                 .9  .16 Ml 2.2         5015363
CDF   002.20 020.7 m E Sg      2012/06/29 14:33:13.9   0.2                          T                4.1  .26 Ml 2.6         5025059
PAGF  002.21 353.3 m E Sg      2012/06/29 14:33:14.2   0.3 174.4  1.3               T                1.1  .16 Ml 2.1         5025058

.
EVENT     278894
    Date      Time       Latitude Longitude    Depth    Ndef Nsta Gap    Mag1  N    Mag2  N    Mag3  N   Author         ID
       rms   OT_Error      Smajor Sminor Az        Err   mdist  Mdist     Err        Err        Err      Quality

2012/06/29 19:12:04.7     42.6605    1.0316      5.0 f    53    7 042  Ml 1.9  6  Md 2.2  1              bulletin    278994
                                                                                                         _ldg
      0.43   +-  0.05       1.1     .9   28.24 +-  0.0    0.16   2.67   +-0.2      +-                    m i ke

PYRENEES
Sta     Dist  EvAz     Phase      Date       Time     TRes  Azim  AzRes  Slow  SRes Def   SNR       Amp   Per   Mag1   Mag2       ID
EPF   000.63 306.2 m E Pg      2012/06/29 19:12:16.4  -0.4                          T                                        5015473
EPF   000.63 306.2 m E Sg      2012/06/29 19:12:24.3  -0.7                          T               10.0  .24        Md 2.2  5015472
MTLF  001.10 051.6 m E Pg      2012/06/29 19:12:26.0   0.6                          T                                        5015471
MTLF  001.10 051.6 m E Sg      2012/06/29 19:12:39.8   0.0                          T                3.1  .22 Ml 2.0         5015470
ETSF  001.20 282.0 m E Pg      2012/06/29 19:12:26.8  -0.4                          T                                        5015469
ETSF  001.20 282.0 m E Sg      2012/06/29 19:12:41.9  -0.7                          T                1.3  .16 Ml 1.8         5015468
SJPF  001.72 286.0 m E Pg      2012/06/29 19:12:36.8   0.1                          T                                        5015475
SJPF  001.72 286.0 m E Sg      2012/06/29 19:12:58.7  -0.2                          T                2.0  .24 Ml 2.1         5015474
LFF   002.29 354.8 m E Pn      2012/06/29 19:12:41.4   0.1                          T                                        5015483
LFF   002.29 354.8 m E Sg      2012/06/29 19:13:16.1  -0.5                          T                1.3  .22 Ml 1.9         5015477
CAF   002.38 017.9 m E Pn      2012/06/29 19:12:43.2   0.5                          T                                        5015479
CAF   002.38 017.9 m E Pg      2012/06/29 19:12:49.2   0.1                          T                                        5015484
CAF   002.38 017.9 m E Sn      2012/06/29 19:13:10.7   0.1                          T                 .7  .19 Ml 1.9         5015480
CAF   002.38 017.9 m E Sg      2012/06/29 19:13:19.7   0.0                          T                                        5015476
RJF   002.67 007.4 m E Pn      2012/06/29 19:12:46.6   0.1                          T                                        5015481
RJF   002.67 007.4 m E Pg      2012/06/29 19:12:54.2   0.0                          T                                        5015482
RJF   002.67 007.4 m E Sg      2012/06/29 19:13:27.9  -0.6                          T                 .6  .16 Ml 1.6         5015478

.
EVENT     278895
    Date      Time       Latitude Longitude    Depth    Ndef Nsta Gap    Mag1  N    Mag2  N    Mag3  N   Author         ID
       rms   OT_Error      Smajor Sminor Az        Err   mdist  Mdist     Err        Err        Err      Quality

2012/06/29 20:06:06.2     43.1392    -.4949      2.0       6    3 192             Md 1.5  3              bulletin    278995
                                                                                                         _ldg
      0.26   +-  0.15       4.3    2.2     .53 +-  0.0    0.25   0.62              +-0.2                 m i ke

PYRENEES
Sta     Dist  EvAz     Phase      Date       Time     TRes  Azim  AzRes  Slow  SRes Def   SNR       Amp   Per   Mag1   Mag2       ID
ETSF  000.25 191.1 m E Pg      2012/06/29 20:06:10.9  -0.2                          T                                        5015489
ETSF  000.25 191.1 m E Sg      2012/06/29 20:06:14.4  -0.1                          T                4.0  .28        Md 1.7  5015486
SJPF  000.54 267.5 m E Pg      2012/06/29 20:06:16.5   0.1                          T                                        5015488
SJPF  000.54 267.5 m E Sg      2012/06/29 20:06:22.7  -0.7                          T                2.9  .22        Md 1.4  5015485
EPF   000.62 099.8 m E Pg      2012/06/29 20:06:17.9  -0.1                          T                                        5015487
EPF   000.62 099.8 m E Sg      2012/06/29 20:06:26.0  -0.2                          T                2.9  .41        Md 1.5  5015490

.
EVENT     278897
    Date      Time       Latitude Longitude    Depth    Ndef Nsta Gap    Mag1  N    Mag2  N    Mag3  N   Author         ID
       rms   OT_Error      Smajor Sminor Az        Err   mdist  Mdist     Err        Err        Err      Quality

2012/06/30 03:35:50.2     43.0245   -1.1691      2.0       6    3 229  Ml 1.5  1  Md 1.7  2              bulletin    278997
                                                                                                         _ldg
      0.06   +-  0.10       3.4     .6   35.82 +-  0.0    0.10   1.11   +-         +-0.2                 m i ke

PYRENEES
Sta     Dist  EvAz     Phase      Date       Time     TRes  Azim  AzRes  Slow  SRes Def   SNR       Amp   Per   Mag1   Mag2       ID
SJPF  000.10 335.2 m E Pg      2012/06/30 03:35:52.4   0.0                          T                                        5015507
SJPF  000.10 335.2 m E Sg      2012/06/30 03:35:53.7  -0.1                          T               23.6  .22        Md 1.8  5015502
ETSF  000.47 105.5 m E Pg      2012/06/30 03:35:59.1   0.0                          T                                        5015506
ETSF  000.47 105.5 m E Sg      2012/06/30 03:36:05.4   0.1                          T                5.1  .26        Md 1.5  5015503
EPF   001.11 089.2 m E Pg      2012/06/30 03:36:10.9   0.0                          T                                        5015505
EPF   001.11 089.2 m E Sg      2012/06/30 03:36:25.3   0.0                          T                 .9  .23 Ml 1.5         5015504

.
EVENT     278902
    Date      Time       Latitude Longitude    Depth    Ndef Nsta Gap    Mag1  N    Mag2  N    Mag3  N   Author         ID
       rms   OT_Error      Smajor Sminor Az        Err   mdist  Mdist     Err        Err        Err      Quality

2012/06/30 04:35:53.9     42.5240     .6423      8.0 f    19    6 066  Ml 1.3  5  Md 1.6  2              bulletin    279002
                                                                                                         _ldg
      0.34   +-  0.07       1.7    1.2   32.88 +-  0.0    0.36   2.85   +-0.1      +-0.0                 m i ke

PYRENEES
Sta     Dist  EvAz     Phase      Date       Time     TRes  Azim  AzRes  Slow  SRes Def   SNR       Amp   Per   Mag1   Mag2       ID
EPF   000.55 336.4 m E Pg      2012/06/30 04:36:04.3  -0.2                          T                                        5015669
EPF   000.55 336.4 m E Sg      2012/06/30 04:36:11.8   0.0                          T                2.2  .18        Md 1.7  5015668
ETSF  000.96 293.3 m E Pg      2012/06/30 04:36:11.9  -0.2                          T                                        5015667
ETSF  000.96 293.3 m E Sg      2012/06/30 04:36:24.6   0.0                          T                 .8  .21 Ml 1.4 Md 1.6  5015666
MTLF  001.42 054.2 m E Pn      2012/06/30 04:36:18.3   0.0                          T                                        5015663
MTLF  001.42 054.2 m E Sg      2012/06/30 04:36:39.3   0.7                          T                 .8  .33 Ml 1.4         5015662
SJPF  001.49 293.8 m E Pg      2012/06/30 04:36:21.7  -0.1                          T                                        5015665
SJPF  001.49 293.8 m E Sg      2012/06/30 04:36:41.5   0.4                          T                 .3  .17 Ml 1.3         5015664
CAF   002.61 022.8 m E Pn      2012/06/30 04:36:34.5  -0.1                          T                                        5015671
CAF   002.61 022.8 m E Sn      2012/06/30 04:37:04.7   0.1                          T                 .1  .16 Ml 1.2         5015670
RJF   002.85 012.5 m E Pn      2012/06/30 04:36:37.9   0.1                          T                                        5015673
RJF   002.85 012.5 m E Sn      2012/06/30 04:37:10.4   0.2                          T                 .7  .34 Ml 1.3         5015672

.
EVENT     278898
    Date      Time       Latitude Longitude    Depth    Ndef Nsta Gap    Mag1  N    Mag2  N    Mag3  N   Author         ID
       rms   OT_Error      Smajor Sminor Az        Err   mdist  Mdist     Err        Err        Err      Quality

2012/06/30 06:43:32.1     43.1215   -1.1392      2.0      17    5 105  Ml 1.8  3  Md 2.0  2              bulletin    278998
                                                                                                         _ldg
      0.53   +-  0.15       3.7    2.2  179.80 +-  0.0    0.06   2.46   +-0.2      +-0.1                 m i ke

PYRENEES
Sta     Dist  EvAz     Phase      Date       Time     TRes  Azim  AzRes  Slow  SRes Def   SNR       Amp   Per   Mag1   Mag2       ID
SJPF  000.06 262.6 m E Pg      2012/06/30 06:43:33.8   0.1                          T                                        5015513
SJPF  000.06 262.6 m E Sg      2012/06/30 06:43:35.2   0.5                          T                                Md 2.1  5015508
ETSF  000.48 117.4 m E Pg      2012/06/30 06:43:40.8  -0.6                          T                                        5015512
ETSF  000.48 117.4 m E Sg      2012/06/30 06:43:46.9  -0.8                          T               12.5  .28        Md 1.9  5015509
EPF   001.09 094.3 m E Pg      2012/06/30 06:43:53.0   0.5                          T                                        5015511
EPF   001.09 094.3 m E Sg      2012/06/30 06:44:07.0   0.4                          T                2.8  .24 Ml 1.9         5015510
LFF   002.27 036.1 m E Sg      2012/06/30 06:44:43.1  -0.2                          T                2.0  .33 Ml 1.9         5025095
MTLF  002.46 083.7 m E Sg      2012/06/30 06:44:49.4  -0.1                          T                 .6  .32 Ml 1.6         5025096

.
EVENT     278899
    Date      Time       Latitude Longitude    Depth    Ndef Nsta Gap    Mag1  N    Mag2  N    Mag3  N   Author         ID
       rms   OT_Error      Smajor Sminor Az        Err   mdist  Mdist     Err        Err        Err      Quality

2012/06/30 08:51:28.0     45.0140    7.3459     20.0 f    33    8 089  Ml 2.3  5  Md 2.4  3              bulletin    278999
                                                                                                         _ldg
      0.27   +-  0.06       1.6     .9   83.42 +-  0.0    0.15   1.78   +-0.2      +-0.1                 m i ke

NORTHERN ITALY
Sta     Dist  EvAz     Phase      Date       Time     TRes  Azim  AzRes  Slow  SRes Def   SNR       Amp   Per   Mag1   Mag2       ID
MBDF  000.50 235.1 m E Pn      2012/06/30 08:51:39.1   0.3                          T                                        5015521
MBDF  000.50 235.1 m E Sg      2012/06/30 08:51:45.4   0.1                          T               19.8  .20        Md 2.3  5015514
LPG   000.64 319.2 m E Pg      2012/06/30 08:51:41.0   0.0                          T                                        5015523
LPG   000.64 319.2 m E Sg      2012/06/30 08:51:48.9  -0.7                          T               17.6  .18        Md 2.3  5015516
LPL   000.66 319.4 m E Pg      2012/06/30 08:51:41.4   0.1                          T                                        5015524
LPL   000.66 319.4 m E Sg      2012/06/30 08:51:49.7  -0.6                          T               30.5  .28        Md 2.4  5015515
ORIF  001.05 265.3 m E Pg      2012/06/30 08:51:48.4   0.4                          T                                        5015522
ORIF  001.05 265.3 m E Sg      2012/06/30 08:52:01.5  -0.2                          T               20.2  .34 Ml 2.6         5015526
SBF   001.15 176.8 m E P       2012/06/30 08:51:49.2  -0.2                          T                                        5015527
SBF   001.15 176.8 m E Pg      2012/06/30 08:51:49.9   0.0                          T                                        5025097
SBF   001.15 176.8 m E Sg      2012/06/30 08:52:04.7  -0.3                          T                6.3  .20 Ml 2.4         5015609
SMRF  001.64 231.3 m E Pn      2012/06/30 08:51:54.1  -0.1                          T                                        5015611
SMRF  001.64 231.3 m E Pg      2012/06/30 08:51:58.6  -0.1                          T                                        5025099
SMRF  001.64 231.3 m E Sg      2012/06/30 08:52:20.3   0.3                          T                1.6  .23 Ml 1.9         5015610
FRF   001.54 199.3 m E Pg      2012/06/30 08:51:56.7  -0.2                          T                                        5015520
FRF   001.54 199.3 m E Sg      2012/06/30 08:52:16.7  -0.1                          T                4.7  .21 Ml 2.4         5015525
LMR   001.78 200.0 m E P       2012/06/30 08:51:58.4   0.1                          T                                        5015518
LMR   001.78 200.0 m E Pg      2012/06/30 08:52:01.3   0.0                          T                                        5025098
LMR   001.78 200.0 m E Sg      2012/06/30 08:52:24.2  -0.3                          T                2.5  .19 Ml 2.3         5015517

.
