EVENT     281785
    Date      Time       Latitude Longitude    Depth    Ndef Nsta Gap    Mag1  N    Mag2  N    Mag3  N   Author         ID
       rms   OT_Error      Smajor Sminor Az        Err   mdist  Mdist     Err        Err        Err      Quality

2012/08/24 01:02:06.2     44.6098    6.7020      2.0      26    8 063  Ml 1.7  6  Md 1.6  2              bulletin    281885
                                                                                                         _ldg
      0.35   +-  0.06       1.3    1.1   48.48 +-  0.0    0.13   1.47   +-0.3      +-0.1                 m i ke

FRANCE
Sta     Dist  EvAz     Phase      Date       Time     TRes  Azim  AzRes  Slow  SRes Def   SNR       Amp   Per   Mag1   Mag2       ID
MBDF  000.13 022.9 m E Pg      2012/08/24 01:02:09.3   0.2                          T                                        5052240
MBDF  000.13 022.9 m E Sg      2012/08/24 01:02:11.1   0.2                          T               21.3  .38        Md 1.7  5052229
ORIF  000.66 298.1 m E Pg      2012/08/24 01:02:18.6  -0.3                          T                                        5052239
ORIF  000.66 298.1 m E Sg      2012/08/24 01:02:27.0  -0.6                          T                2.6  .26        Md 1.6  5052230
SBF   000.91 144.5 m E Pg      2012/08/24 01:02:23.5   0.0                          T                                        5052233
SBF   000.91 144.5 m E Sg      2012/08/24 01:02:35.5   0.2                          T                2.3  .18 Ml 1.9         5052228
LPL   000.91 001.4 m E Pg      2012/08/24 01:02:24.4   0.9                          T                                        5052238
LPL   000.91 001.4 m E Sn      2012/08/24 01:02:37.8   0.3                          T                1.1  .34 Ml 1.3         5052224
FRF   001.05 182.2 m E Pg      2012/08/24 01:02:26.0   0.1                          T                                        5052236
FRF   001.05 182.2 m E Sn      2012/08/24 01:02:40.9   0.3                          T                5.7  .46 Ml 2.0         5052231
SMRF  001.03 232.3 m E Pn      2012/08/24 01:02:26.4   0.3                          T                                        5052237
SMRF  001.03 232.3 m E Sg      2012/08/24 01:02:39.4   0.5                          T                1.8  .33 Ml 1.6         5052227
LMR   001.28 186.3 m E Pg      2012/08/24 01:02:30.3   0.2                          T                                        5058665
LMR   001.28 186.3 m E Sg      2012/08/24 01:02:47.1   0.3                          T                1.7  .20 Ml 1.9         5052232
VIVF  001.47 280.4 m E Pg      2012/08/24 01:02:34.0   0.4                          T                                        5058664
VIVF  001.47 280.4 m E Sg      2012/08/24 01:02:52.8   0.2                          T                 .5  .26 Ml 1.3         5052241

.
EVENT     281839
    Date      Time       Latitude Longitude    Depth    Ndef Nsta Gap    Mag1  N    Mag2  N    Mag3  N   Author         ID
       rms   OT_Error      Smajor Sminor Az        Err   mdist  Mdist     Err        Err        Err      Quality

2012/08/24 06:06:48.8     46.3303    7.4470      2.0      38   12 045  Ml 2.1 10  Md 1.7  3              bulletin    281939
                                                                                                         _ldg
      0.24   +-  0.04        .8     .7   76.43 +-  0.0    0.11   2.71   +-0.2      +-0.1                 m i ke

SWITZERLAND
Sta     Dist  EvAz     Phase      Date       Time     TRes  Azim  AzRes  Slow  SRes Def   SNR       Amp   Per   Mag1   Mag2       ID
LPL   000.95 211.8 m E Pg      2012/08/24 06:07:07.4   0.3                          T                                        5058666
LPL   000.95 211.8 m E Sg      2012/08/24 06:07:19.5   0.1                          T                2.4  .24 Ml 1.8 Md 1.8  5058669
CABF  000.98 287.1 m E Pg      2012/08/24 06:07:07.5   0.1                          T                                        5058673
CABF  000.98 287.1 m E P       2012/08/24 06:07:09.5   0.0                          T                                        5052489
CABF  000.98 287.1 m E Sn      2012/08/24 06:07:21.7   0.0                          T                6.2  .41 Ml 2.0 Md 1.7  5052488
LPG   000.96 210.5 m E Pg      2012/08/24 06:07:07.6   0.3                          T                                        5058667
LPG   000.96 210.5 m E Sg      2012/08/24 06:07:20.2   0.3                          T                5.2  .26 Ml 2.1 Md 1.7  5058668
HINF  001.54 344.9 m E Pg      2012/08/24 06:07:17.7   0.0                          T                                        5058675
HINF  001.54 344.9 m E Sn      2012/08/24 06:07:34.7  -0.4                          T                                        5058676
HINF  001.54 344.9 m E Sg      2012/08/24 06:07:37.3  -0.2                          T                2.9  .18 Ml 2.3         5052487
HAU   001.84 336.3 m E Pn      2012/08/24 06:07:19.7   0.0                          T                                        5052485
HAU   001.84 336.3 m E Pg      2012/08/24 06:07:23.0   0.0                          T                                        5058677
HAU   001.84 336.3 m E Sg      2012/08/24 06:07:46.5  -0.2                          T                4.3  .28 Ml 2.1         5052484
MBDF  001.67 196.7 m E Pg      2012/08/24 06:07:20.4   0.3                          T                                        5058671
CDF   002.09 356.9 m E Pg      2012/08/24 06:07:27.9   0.1                          T                                        5058674
LOR   002.64 292.1 m E Pn      2012/08/24 06:07:31.5   0.9                          T                                        5052478
LOR   002.64 292.1 m E Pg      2012/08/24 06:07:38.2   0.4                          T                                        5052477
LOR   002.64 292.1 m E Sg      2012/08/24 06:08:11.8   0.1                          T                 .6  .21 Ml 1.8         5052476
MEZF  002.71 324.1 m E Pn      2012/08/24 06:07:31.6   0.1                          T                                        5052479
MEZF  002.71 324.1 m E Sg      2012/08/24 06:08:14.4   0.3                          T                4.9  .38 Ml 2.5         5058678
THEF  002.14 333.0 m E Sg      2012/08/24 06:07:56.1  -0.1                          T                2.9  .24 Ml 2.3         5058679
VIVF  002.44 233.9 m E Sg      2012/08/24 06:08:06.0   0.4                          T                1.5  .33 Ml 2.0         5058670
SMF   002.51 278.5 m E Sg      2012/08/24 06:08:07.5  -0.2                          T                1.1  .23 Ml 2.0         5058672

.
EVENT     281840
    Date      Time       Latitude Longitude    Depth    Ndef Nsta Gap    Mag1  N    Mag2  N    Mag3  N   Author         ID
       rms   OT_Error      Smajor Sminor Az        Err   mdist  Mdist     Err        Err        Err      Quality

2012/08/24 06:10:34.8     45.2267    7.3909     10.0      20    5 137  Ml 1.5  3  Md 1.5  2              bulletin    281940
                                                                                                         _ldg
      0.23   +-  0.06       1.6    1.0  109.90 +-  0.0    0.12   2.00   +-0.5      +-0.0                 m i ke

NORTHERN ITALY
Sta     Dist  EvAz     Phase      Date       Time     TRes  Azim  AzRes  Slow  SRes Def   SNR       Amp   Per   Mag1   Mag2       ID
LPG   000.53 301.2 m E Pg      2012/08/24 06:10:44.1  -1.1                          T                                        5052503
LPG   000.53 301.2 m E Sg      2012/08/24 06:10:51.9  -0.3                          T                1.8  .20        Md 1.5  5052500
LPL   000.55 302.2 m E Pg      2012/08/24 06:10:44.5  -1.1                          T                                        5052502
LPL   000.55 302.2 m E Sg      2012/08/24 06:10:52.3  -0.5                          T                1.3  .21        Md 1.6  5052501
ORIF  001.11 254.5 m E Pn      2012/08/24 06:10:55.1   0.1                          T                                        5052509
ORIF  001.11 254.5 m E Sn      2012/08/24 06:11:09.2  -0.2                          T                 .9  .35 Ml 1.3         5052508
SBF   001.36 178.7 m E Pn      2012/08/24 06:10:58.4   0.1                          T                                        5052507
SBF   001.36 178.7 m E Sn      2012/08/24 06:11:15.3  -0.1                          T                3.0  .23 Ml 2.1         5052506
LMR   002.00 198.8 m E Pn      2012/08/24 06:11:06.9   0.0                          T                                        5052505
LMR   002.00 198.8 m E Sn      2012/08/24 06:11:30.1  -0.3                          T                 .2  .20 Ml 1.2         5052504

.
EVENT     281992
    Date      Time       Latitude Longitude    Depth    Ndef Nsta Gap    Mag1  N    Mag2  N    Mag3  N   Author         ID
       rms   OT_Error      Smajor Sminor Az        Err   mdist  Mdist     Err        Err        Err      Quality

2012/08/24 12:17:24.6     46.6490    4.4975       .0 f    40   15 062  Ml 1.9 11  Md 2.0  3              bulletin    282092
                                                                                                         _ldg
      0.48   +-  0.03        .7     .6    3.99 +-  0.0    0.45   2.48   +-0.2      +-0.1                 m i km

FRANCE
Sta     Dist  EvAz     Phase      Date       Time     TRes  Azim  AzRes  Slow  SRes Def   SNR       Amp   Per   Mag1   Mag2       ID
SMF   000.45 269.8 m E Pg      2012/08/24 12:17:33.3  -0.2                          T                                        5054932
SMF   000.45 269.8 m E Sg      2012/08/24 12:17:39.9   0.2                          T                7.1  .16        Md 1.8  5054927
LOR   000.76 325.0 m E Pg      2012/08/24 12:17:38.9  -0.3 144.7  0.1               T                                        5054924
LOR   000.76 325.0 m E Sg      2012/08/24 12:17:49.4   0.1 155.7  11.2              T               12.3  .18        Md 2.0  5054923
LOR   000.76 325.0 m E Sn      2012/08/24 12:17:52.5  -0.2                          T                                        5054922
SSF   000.80 301.6 m E Pg      2012/08/24 12:17:39.8  -0.1                          T                                        5054934
SSF   000.80 301.6 m E Pn      2012/08/24 12:17:41.4  -0.2                          T                                        5054911
SSF   000.80 301.6 m E Sg      2012/08/24 12:17:50.5   0.1                          T                                        5054929
SSF   000.80 301.6 m E Sn      2012/08/24 12:17:53.7   0.1                          T               11.3  .20        Md 2.1  5054910
AVF   000.80 280.6 m E Pg      2012/08/24 12:17:40.0   0.1                          T                                        5054933
AVF   000.80 280.6 m E Sg      2012/08/24 12:17:50.8   0.3                          T                4.7  .22                5054928
CABF  001.10 091.4 m E Pg      2012/08/24 12:17:45.4   0.0                          T                                        5054925
CABF  001.10 091.4 m E Sg      2012/08/24 12:17:59.8  -0.1                          T                1.9  .25 Ml 1.7         5054912
BGF   001.14 266.0 m E Pg      2012/08/24 12:17:46.3   0.1                          T                                        5054931
BGF   001.14 266.0 m E Sg      2012/08/24 12:18:01.4   0.2                          T                4.9  .22 Ml 2.2         5054926
HYF   001.42 296.6 m E Pn      2012/08/24 12:17:50.1   0.0                          T                                        5054908
SFTF  001.60 013.1 m E Pn      2012/08/24 12:17:52.6   0.1                          T                                        5054921
SFTF  001.60 013.1 m E Sn      2012/08/24 12:18:12.9   0.1                          T                4.7  .24 Ml 2.4         5054920
TCF   001.62 258.0 m E Pn      2012/08/24 12:17:52.9   0.0                          T                                        5054930
TCF   001.62 258.0 m E Sg      2012/08/24 12:18:16.4   0.2                          T                4.8  .56 Ml 2.1         5054909
VIVF  001.80 176.0 m E Pn      2012/08/24 12:17:55.3   0.0                          T                                        5054904
VIVF  001.80 176.0 m E Sn      2012/08/24 12:18:17.5  -0.1                          T                1.2  .20 Ml 1.9         5054903
HAU   001.85 042.2 m E Pn      2012/08/24 12:17:56.3   0.3                          T                                        5054919
HAU   001.85 042.2 m E Sn      2012/08/24 12:18:18.9   0.0                          T                                        5054918
HAU   001.85 042.2 m E Sg      2012/08/24 12:18:23.3   0.0                          T                3.6  .46 Ml 1.8         5054917
LPL   001.92 125.3 m E Pn      2012/08/24 12:17:57.3   0.0                          T                                        5054902
LPL   001.92 125.3 m E Sn      2012/08/24 12:18:20.4  -0.5                          T                1.2  .27 Ml 1.8         5054901
HINF  001.99 053.1 m E Pn      2012/08/24 12:17:57.8  -0.1                          T                                        5054916
HINF  001.99 053.1 m E Pg      2012/08/24 12:18:01.8   0.0                          T                                        5054915
HINF  001.99 053.1 m E Sn      2012/08/24 12:18:22.1   0.0                          T                                        5054914
HINF  001.99 053.1 m E Sg      2012/08/24 12:18:27.4  -0.2                          T                  1  .22 Ml 1.9         5054913
ORIF  001.98 150.3 m E Pn      2012/08/24 12:17:58.0   0.1                          T                                        5054900
ORIF  001.98 150.3 m E Sn      2012/08/24 12:18:22.1  -0.1                          T                 .8  .18 Ml 1.8         5054899
RJF   002.48 238.2 m E Pn      2012/08/24 12:18:04.5   0.0                          T                                        5054907
RJF   002.48 238.2 m E Pg      2012/08/24 12:18:10.7  -0.1                          T                                        5054906
RJF   002.48 238.2 m E Sg      2012/08/24 12:18:42.7  -0.1                          T                 .7  .19 Ml 1.5         5054905

.
EVENT     282169
    Date      Time       Latitude Longitude    Depth    Ndef Nsta Gap    Mag1  N    Mag2  N    Mag3  N   Author         ID
       rms   OT_Error      Smajor Sminor Az        Err   mdist  Mdist     Err        Err        Err      Quality

2012/08/24 14:48:01.7     46.3415    7.4288      2.0      11    2 147  Ml 1.6  2                         bulletin    282269
                                                                                                         _ldg
      0.09   +-  0.03        .7     .4  155.96 +-  0.0    0.09   0.97   +-0.3                            m i ke

SWITZERLAND
Sta     Dist  EvAz     Phase      Date       Time     TRes  Azim  AzRes  Slow  SRes Def   SNR       Amp   Per   Mag1   Mag2       ID
LPL   000.96 210.7 m E Pg      2012/08/24 14:48:20.0   0.1                          T                                        5055614
LPL   000.96 210.7 m E Sg      2012/08/24 14:48:32.5   0.1                          T                 .9  .24 Ml 1.4         5055611
LPG   000.97 209.5 m E Pg      2012/08/24 14:48:20.2  -0.1                          T                                        5055613
LPG   000.97 209.5 m E Sg      2012/08/24 14:48:32.7  -0.1                          T                2.2  .19 Ml 1.8         5055612

.
