EVENT     277614
    Date      Time       Latitude Longitude    Depth    Ndef Nsta Gap    Mag1  N    Mag2  N    Mag3  N   Author         ID
       rms   OT_Error      Smajor Sminor Az        Err   mdist  Mdist     Err        Err        Err      Quality

2012/06/06 01:45:01.1     45.9017     .6248      2.0     152   39 061  Ml 3.4 40  Md 2.9  4              bulletin    277723
                                                                                                         _ldg
      0.57   +-  0.04        .8     .8  108.22 +-  0.0    0.87   6.97   +-0.4      +-0.1                 m i ke

FRANCE
Sta     Dist  EvAz     Phase      Date       Time     TRes  Azim  AzRes  Slow  SRes Def   SNR       Amp   Per   Mag1   Mag2       ID
RJF   000.87 133.3 m E Pg      2012/06/06 01:45:16.8  -0.6                          T                                        4988220
RJF   000.87 133.3 m E Sg      2012/06/06 01:45:27.9  -0.7                          T              255.6  .22 Ml 3.5 Md 3.0  4992811
MFF   000.88 322.9 m E Pg      2012/06/06 01:45:17.3  -0.3                          T                                        4988217
MFF   000.88 322.9 m E Sg      2012/06/06 01:45:28.9  -0.2                          T               93.7  .18 Ml 3.6 Md 2.9  4992802
LFF   000.97 175.1 m E Pg      2012/06/06 01:45:18.9  -0.3                          T                                        4988219
LFF   000.97 175.1 m E Sg      2012/06/06 01:45:31.8   0.0                          T              269.0  .26 Ml 3.6 Md 2.8  4992812
TCF   001.17 070.1 m E Pg      2012/06/06 01:45:22.8  -0.2                          T                                        4988216
TCF   001.17 070.1 m E Sg      2012/06/06 01:45:37.9  -0.2                          T              219.9  .18 Ml 4.0 Md 2.9  4992806
CAF   001.41 133.4 m E Pg      2012/06/06 01:45:25.8  -1.6                          T                                        4988218
CAF   001.41 133.4 m E Sg      2012/06/06 01:45:45.5  -0.1                          T              142.4  .20 Ml 3.8         4988237
BGF   001.68 066.2 m E Pn      2012/06/06 01:45:29.8   0.1                          T                                        4988202
BGF   001.68 066.2 m E Pg      2012/06/06 01:45:32.4   0.0                          T                                        4988221
BGF   001.68 066.2 m E Sg      2012/06/06 01:45:53.2  -0.7                          T              332.3  .29 Ml 4.2         4988236
HYF   001.95 044.7 m E Pn      2012/06/06 01:45:33.9   0.4                          T                                        4988204
HYF   001.95 044.7 m E Pg      2012/06/06 01:45:37.8   0.5                          T                                        4988203
HYF   001.95 044.7 m E Sg      2012/06/06 01:46:02.8   0.4                          T                                        4988235
AVF   002.09 063.8 m E Pn      2012/06/06 01:45:35.3   0.0                          T                                        4988207
AVF   002.09 063.8 m E Pg      2012/06/06 01:45:39.4  -0.5                          T                                        4992809
AVF   002.09 063.8 m E Sn      2012/06/06 01:45:59.8  -0.5                          T                                        4992808
AVF   002.09 063.8 m E Sg      2012/06/06 01:46:04.9  -1.9                          T               35.5  .24 Ml 3.4         4992807
SSF   002.30 058.7 m E Pn      2012/06/06 01:45:38.2  -0.1                          T                                        4992805
SSF   002.30 058.7 m E Pg      2012/06/06 01:45:43.6  -0.3                          T                                        4992804
SSF   002.30 058.7 m E Sg      2012/06/06 01:46:11.8  -1.7                          T               43.1  .23 Ml 3.6         4992803
SMF   002.35 070.4 m E Pn      2012/06/06 01:45:38.8  -0.1                          T                                        4988206
SMF   002.35 070.4 m E Pg      2012/06/06 01:45:44.6  -0.2                          T                                        4988205
SMF   002.35 070.4 m E Sn      2012/06/06 01:46:07.2   0.5                          T                                        4992810
SMF   002.35 070.4 m E Sg      2012/06/06 01:46:13.7  -1.3                          T               19.1  .19 Ml 3.3         4988234
LOR   002.62 057.3 m E Pn      2012/06/06 01:45:42.3  -0.2 240.7  1.0               T                                        4988215
LOR   002.62 057.3 m E Pg      2012/06/06 01:45:49.4  -0.3 240.0  0.3               T                                        4988214
LOR   002.62 057.3 m E Sn      2012/06/06 01:46:13.0   0.0                          T                                        4992757
LOR   002.62 057.3 m E Sg      2012/06/06 01:46:20.9  -2.4                          T               64.8  .34 Ml 3.6         4992756
GRR   002.69 338.4 m E Pn      2012/06/06 01:45:43.1  -0.4                          T                                        4988210
GRR   002.69 338.4 m E Pg      2012/06/06 01:45:51.2   0.3                          T                                        4992792
GRR   002.69 338.4 m E Sn      2012/06/06 01:46:14.9   0.2                          T                                        4992791
GRR   002.69 338.4 m E Sg      2012/06/06 01:46:25.3  -0.1                          T               45.7  .22 Ml 3.5         4992790
LDF   002.74 349.6 m E Pn      2012/06/06 01:45:44.3   0.1                          T                                        4992789
LDF   002.74 349.6 m E Pg      2012/06/06 01:45:52.0   0.1                          T                                        4992788
LDF   002.74 349.6 m E Sn      2012/06/06 01:46:15.9   0.0                          T                                        4992787
LDF   002.74 349.6 m E Sg      2012/06/06 01:46:26.6  -0.6                          T               34.5  .26 Ml 3.5         4992786
EPF   002.88 184.2 m E Pn      2012/06/06 01:45:44.8  -1.3                          T                                        4988227
EPF   002.88 184.2 m E Pg      2012/06/06 01:45:54.3  -0.3                          T                                        4988226
EPF   002.88 184.2 m E Sn      2012/06/06 01:46:18.0  -1.3                          T                                        4992755
EPF   002.88 184.2 m E Sg      2012/06/06 01:46:30.9  -0.6                          T                8.6  .19 Ml 3.0         4988240
MTLF  002.80 155.5 m E Pn      2012/06/06 01:45:44.8  -0.2                          T                                        4988229
MTLF  002.80 155.5 m E Pg      2012/06/06 01:45:52.9  -0.2                          T                                        4988228
MTLF  002.80 155.5 m E Sg      2012/06/06 01:46:28.1  -0.9                          T               15.4  .20 Ml 3.3         4988241
FLN   002.96 345.7 m E Pn      2012/06/06 01:45:46.9  -0.3                          T                                        4992785
FLN   002.96 345.7 m E Pg      2012/06/06 01:45:56.0   0.1 162.5  -2.3              T                                        4992784
FLN   002.96 345.7 m E Sn      2012/06/06 01:46:21.2   0.0                          T                                        4992783
FLN   002.96 345.7 m E Sg      2012/06/06 01:46:33.6  -0.3                          T               46.6  .26 Ml 3.5         4992782
LASF  002.93 127.4 m E Pn      2012/06/06 01:45:47.1   0.2                          T                                        4988231
LASF  002.93 127.4 m E Pg      2012/06/06 01:45:55.8   0.3                          T                                        4988230
LASF  002.93 127.4 m E Sg      2012/06/06 01:46:33.1  -0.1                          T               29.3  .27 Ml 3.4         4988242
ETSF  003.12 196.2 m E Pn      2012/06/06 01:45:48.0  -1.4                          T                                        4988225
ETSF  003.12 196.2 m E Pg      2012/06/06 01:45:58.5  -0.5                          T                                        4988224
ETSF  003.12 196.2 m E Sg      2012/06/06 01:46:38.8  -0.3                          T                9.0  .27 Ml 3.0         4988239
SJPF  003.09 206.0 m E Pn      2012/06/06 01:45:48.8  -0.1                          T                                        4988223
SJPF  003.09 206.0 m E Pg      2012/06/06 01:45:58.3   0.0                          T                                        4988222
SJPF  003.09 206.0 m E Sg      2012/06/06 01:46:37.4  -0.5                          T                8.7  .24 Ml 3.0         4988238
VIVF  003.04 108.7 m E Pn      2012/06/06 01:45:49.2   0.9                          T                                        4988233
VIVF  003.04 108.7 m E Pg      2012/06/06 01:45:57.7   0.2                          T                                        4988232
VIVF  003.04 108.7 m E Sg      2012/06/06 01:46:36.4  -0.1                          T                9.3  .22 Ml 3.1         4988243
SGMF  003.20 318.4 m E Pn      2012/06/06 01:45:50.8   0.3                          T                                        4988208
SGMF  003.20 318.4 m E Pg      2012/06/06 01:46:00.4  -0.1                          T                                        4992798
SGMF  003.20 318.4 m E Sn      2012/06/06 01:46:26.7  -0.3                          T                                        4992797
SGMF  003.20 318.4 m E Sg      2012/06/06 01:46:41.4  -0.2                          T               30.9  .30 Ml 3.5         4992796
QUIF  003.29 309.2 m E Pn      2012/06/06 01:45:52.0   0.4                          T                                        4992801
QUIF  003.29 309.2 m E Pg      2012/06/06 01:46:01.9  -0.1                          T                                        4992800
QUIF  003.29 309.2 m E Sg      2012/06/06 01:46:43.8  -0.4                          T               20.2  .23 Ml 3.4         4992799
ROSF  003.61 313.9 m E Pn      2012/06/06 01:45:56.4   0.4                          T                                        4988209
ROSF  003.61 313.9 m E Pg      2012/06/06 01:46:08.0   0.1                          T                                        4992795
ROSF  003.61 313.9 m E Sn      2012/06/06 01:46:36.4  -0.2                          T                                        4992794
ROSF  003.61 313.9 m E Sg      2012/06/06 01:46:54.0  -0.2                          T               19.8  .22 Ml 3.5         4992793
ORIF  003.83 103.0 m E Pn      2012/06/06 01:45:59.3   0.1                          T                                        4992754
ORIF  003.83 103.0 m E Pg      2012/06/06 01:46:13.7   1.6                          T                                        4992753
ORIF  003.83 103.0 m E Sn      2012/06/06 01:46:42.4   0.3                          T                                        4992752
ORIF  003.83 103.0 m E Sg      2012/06/06 01:47:01.6   0.4                          T                7.0  .46 Ml 2.8         4992751
CABF  003.86 077.4 m E Pn      2012/06/06 01:45:59.7   0.2                          T                                        4992781
CABF  003.86 077.4 m E Pg      2012/06/06 01:46:12.7   0.1                          T                                        4992780
CABF  003.86 077.4 m E Sn      2012/06/06 01:46:42.7   0.0                          T                                        4992779
CABF  003.86 077.4 m E Sg      2012/06/06 01:47:02.4   0.4                          T               35.9  .62 Ml 3.4         4992778
MEZF  003.98 047.6 m E Pn      2012/06/06 01:46:01.4   0.3                          T                                        4992734
MEZF  003.98 047.6 m E Pg      2012/06/06 01:46:14.3  -0.5 228.5  -2.4              T                                        4988211
MEZF  003.98 047.6 m E Sg      2012/06/06 01:47:05.3  -0.6                          T               23.8  .42 Ml 3.4         4992769
SMRF  004.01 116.9 m E Pn      2012/06/06 01:46:02.3   0.8                          T                                        4992743
SMRF  004.01 116.9 m E Pg      2012/06/06 01:46:16.3   1.0                          T                                        4992742
SMRF  004.01 116.9 m E Sn      2012/06/06 01:46:46.6   0.4                          T                                        4992741
SMRF  004.01 116.9 m E Sg      2012/06/06 01:47:07.1   0.3                          T                2.1  .23 Ml 2.6         4992740
LPL   004.30 093.0 m E Pn      2012/06/06 01:46:05.5  -0.2                          T                                        4992750
LPL   004.30 093.0 m E Pg      2012/06/06 01:46:21.3   0.4                          T                                        4992749
LPL   004.30 093.0 m E Sg      2012/06/06 01:47:14.3  -1.7                          T                3.5  .27 Ml 2.8         4992748
LPG   004.31 093.2 m E Pn      2012/06/06 01:46:06.2   0.3                          T                                        4992747
LPG   004.31 093.2 m E Pg      2012/06/06 01:46:21.9   0.7                          T                                        4992746
LPG   004.31 093.2 m E Sn      2012/06/06 01:46:54.2   0.4                          T                                        4992745
LPG   004.31 093.2 m E Sg      2012/06/06 01:47:16.1  -0.5                          T                5.6  .39 Ml 2.9         4992744
PAGF  004.37 050.8 m E Pn      2012/06/06 01:46:06.7   0.3                          T                                        4992765
PAGF  004.37 050.8 m E Pg      2012/06/06 01:46:22.2   0.2 229.9  -4.7              T                                        4992764
PAGF  004.37 050.8 m E Sn      2012/06/06 01:46:54.8  -0.2                          T                                        4992763
PAGF  004.37 050.8 m E Sg      2012/06/06 01:47:17.0  -1.1                          T               12.5  .33 Ml 3.3         4992762
HAU   004.45 059.7 m E Pn      2012/06/06 01:46:07.6   0.1                          T                                        4992774
HAU   004.45 059.7 m E Sn      2012/06/06 01:46:56.4  -0.4                          T                                        4992773
HAU   004.45 059.7 m E Sg      2012/06/06 01:47:20.2  -0.3                          T               18.9  .30 Ml 3.3         4992772
HINF  004.68 063.6 m E Pn      2012/06/06 01:46:10.7   0.0                          T                                        4992777
HINF  004.68 063.6 m E Sn      2012/06/06 01:47:01.3  -1.1                          T                                        4992776
HINF  004.68 063.6 m E Sg      2012/06/06 01:47:27.4  -0.4                          T               11.6  .32 Ml 3.4         4992775
SFTF  003.80 051.0 m E Pg      2012/06/06 01:46:12.5   1.2                          T                                        4992766
SFTF  003.80 051.0 m E Sn      2012/06/06 01:46:41.7   0.5                          T                                        4992768
SFTF  003.80 051.0 m E Sg      2012/06/06 01:46:58.9  -1.2                          T               24.9  .38 Ml 3.4         4992767
BAIF  004.81 028.7 m E Pn      2012/06/06 01:46:12.6   0.3                          T                                        4988213
FRF   004.89 116.5 m E Pn      2012/06/06 01:46:13.8   0.3                          T                                        4992739
FRF   004.89 116.5 m E Pg      2012/06/06 01:46:31.1  -0.4                          T                                        4992738
LMR   004.92 119.3 m E Pn      2012/06/06 01:46:14.4   0.5                          T                                        4992737
LMR   004.92 119.3 m E Pg      2012/06/06 01:46:32.7   0.6                          T                                        4992736
LMR   004.92 119.3 m E Sn      2012/06/06 01:47:09.1   1.1                          T                 .5  .18 Ml 2.3         4992735
GIVF  005.06 032.3 m E Pn      2012/06/06 01:46:15.9   0.1                          T                                        4988212
CDF   005.19 058.6 m E Pn      2012/06/06 01:46:17.8   0.2                          T                                        4992761
CDF   005.19 058.6 m E Pg      2012/06/06 01:46:37.3   0.2                          T                                        4992760
CDF   005.19 058.6 m E Sn      2012/06/06 01:47:13.5  -1.0                          T                                        4992759
CDF   005.19 058.6 m E Sg      2012/06/06 01:47:43.5   0.0                          T               11.7  .42 Ml 3.5         4992758
THEF  004.34 055.7 m E Pg      2012/06/06 01:46:21.7   0.2                          T                                        4992771
THEF  004.34 055.7 m E Sg      2012/06/06 01:47:16.8  -0.4                          T               25.2  .30 Ml 3.6         4992770

.
