EVENT     266777
    Date      Time       Latitude Longitude    Depth    Ndef Nsta Gap    Mag1  N    Mag2  N    Mag3  N   Author         ID
       rms   OT_Error      Smajor Sminor Az        Err   mdist  Mdist     Err        Err        Err      Quality

2011/11/26 04:43:33.6     42.7470   -1.5932      2.0      13    3 289  Ml 2.0  1  Md 1.4  2              js067245    266797

      0.28   +-  0.21       3.7    2.8   11.29 +-  0.0    0.03   1.45   +-         +-0.0                 m i ke

PYRENEES
Sta     Dist  EvAz     Phase      Date       Time     TRes  Azim  AzRes  Slow  SRes Def   SNR       Amp   Per   Mag1   Mag2       ID
SJPF  000.46 036.3 m E Pg      2011/11/26 04:43:42.5   0.1                          T                                        4792496
SJPF  000.46 036.3 m E Sg      2011/11/26 04:43:48.5   0.1                          T                8.6  .26        Md 1.3  4792497
ETSF  000.78 078.4 m E Pg      2011/11/26 04:43:48.2  -0.2                          T                                        4792935
ETSF  000.78 078.4 m E Sg      2011/11/26 04:43:57.9  -0.6                          T                5.7  .29        Md 1.4  4792937
EPF   001.45 078.1 m E Pg      2011/11/26 04:44:01.0   0.3                          T                                        4792495
EPF   001.45 078.1 m E Sg      2011/11/26 04:44:18.9  -0.5                          T                1.9  .22 Ml 2.0         4792936

.
EVENT     266778
    Date      Time       Latitude Longitude    Depth    Ndef Nsta Gap    Mag1  N    Mag2  N    Mag3  N   Author         ID
       rms   OT_Error      Smajor Sminor Az        Err   mdist  Mdist     Err        Err        Err      Quality

2011/11/26 05:02:07.4     42.8014   -1.5583      2.0      33    7 077  Ml 1.8  5  Md 2.2  3              js067245    266798

      0.45   +-  0.11       1.8    1.8  170.36 +-  0.0    0.03   3.37   +-0.3      +-0.1                 m i ke

PYRENEES
Sta     Dist  EvAz     Phase      Date       Time     TRes  Azim  AzRes  Slow  SRes Def   SNR       Amp   Per   Mag1   Mag2       ID
SJPF  000.40 038.0 m E Pg      2011/11/26 05:02:14.6  -0.4                          T                                        4792538
SJPF  000.40 038.0 m E Sg      2011/11/26 05:02:20.1  -0.2                          T               10.1  .26        Md 2.4  4792537
ETSF  000.74 082.1 m E Pg      2011/11/26 05:02:21.3  -0.2                          T                                        4792536
ETSF  000.74 082.1 m E Sg      2011/11/26 05:02:31.7   0.5                          T                3.4  .23        Md 2.1  4793526
EPF   001.41 080.0 m E Pg      2011/11/26 05:02:34.7   0.8                          T                                        4792535
EPF   001.41 080.0 m E Sg      2011/11/26 05:02:52.3   0.2                          T                4.0  .19 Ml 2.3 Md 2.2  4793525
LFF   002.71 037.1 m E Pn      2011/11/26 05:02:50.2   0.1                          T                                        4793516
LFF   002.71 037.1 m E Sn      2011/11/26 05:03:21.4  -0.1                          T                                        4793520
LFF   002.71 037.1 m E Sg      2011/11/26 05:03:32.4   0.0                          T                1.1  .30 Ml 1.8         4793523
RJF   003.34 040.5 m E Pn      2011/11/26 05:02:59.2   0.4                          T                                        4793517
RJF   003.34 040.5 m E Sn      2011/11/26 05:03:36.7   0.1                          T                 .8  .24 Ml 1.7         4793524
MTLF  002.82 077.7 m E Pg      2011/11/26 05:02:59.3  -0.4                          T                                        4793514
MTLF  002.82 077.7 m E Sn      2011/11/26 05:03:24.1   0.0                          T                                        4793518
MTLF  002.82 077.7 m E Sg      2011/11/26 05:03:35.9  -0.1                          T                 .4  .23 Ml 1.6         4793519
CAF   003.37 049.7 m E P       2011/11/26 05:03:02.1  -0.2                          T                                        4793515
CAF   003.37 049.7 m E Sn      2011/11/26 05:03:37.3  -0.1                          T                                        4793521
CAF   003.37 049.7 m E Sg      2011/11/26 05:03:53.2   0.0                          T                 .4  .19 Ml 1.9         4793522

.
EVENT     266779
    Date      Time       Latitude Longitude    Depth    Ndef Nsta Gap    Mag1  N    Mag2  N    Mag3  N   Author         ID
       rms   OT_Error      Smajor Sminor Az        Err   mdist  Mdist     Err        Err        Err      Quality

2011/11/26 05:26:34.1     42.7279   -1.6301      2.0      16    3 292  Ml 1.2  1  Md 1.3  2              js067245    266799

      0.10   +-  0.10       1.6    1.2   36.23 +-  0.0    0.06   1.48   +-         +-0.0                 m i ke

PYRENEES
Sta     Dist  EvAz     Phase      Date       Time     TRes  Azim  AzRes  Slow  SRes Def   SNR       Amp   Per   Mag1   Mag2       ID
SJPF  000.49 037.5 m E Pg      2011/11/26 05:26:43.4   0.0                          T                                        4792539
SJPF  000.49 037.5 m E Sg      2011/11/26 05:26:49.8   0.0                          T                 .6  .19        Md 1.3  4792540
ETSF  000.81 077.4 m E Pg      2011/11/26 05:26:49.4   0.0                          T                                        4792940
ETSF  000.81 077.4 m E Sg      2011/11/26 05:26:59.8  -0.1                          T                 .3  .19        Md 1.3  4792941
EPF   001.48 077.5 m E Pg      2011/11/26 05:27:01.7   0.0                          T                                        4792938
EPF   001.48 077.5 m E Sg      2011/11/26 05:27:20.7  -0.2                          T                 .3  .22 Ml 1.2         4792939

.
EVENT     266785
    Date      Time       Latitude Longitude    Depth    Ndef Nsta Gap    Mag1  N    Mag2  N    Mag3  N   Author         ID
       rms   OT_Error      Smajor Sminor Az        Err   mdist  Mdist     Err        Err        Err      Quality

2011/11/26 06:08:30.4     44.5531    6.8744      2.0      16    7 194  Ml 1.5  5  Md 1.7  2              js067245    266805

      0.27   +-  0.11       3.2    1.3   94.15 +-  0.0    0.19   1.25   +-0.2      +-0.1                 m i ke

FRANCE
Sta     Dist  EvAz     Phase      Date       Time     TRes  Azim  AzRes  Slow  SRes Def   SNR       Amp   Per   Mag1   Mag2       ID
MBDF  000.19 337.1 m E Pg      2011/11/26 06:08:34.1  -0.2                          T                                        4792556
MBDF  000.19 337.1 m E Sg      2011/11/26 06:08:37.2   0.2                          T                3.7  .16        Md 1.6  4792555
ORIF  000.80 297.6 m E Pg      2011/11/26 06:08:45.4  -0.1                          T                                        4792545
ORIF  000.80 297.6 m E Sg      2011/11/26 06:08:55.5  -0.4                          T                1.2  .29        Md 1.7  4792544
LPL   000.97 354.1 m E Pg      2011/11/26 06:08:48.5  -0.3                          T                                        4792552
LPL   000.97 354.1 m E Pn      2011/11/26 06:08:49.8   0.2                          T                                        4792542
LPL   000.97 354.1 m E Sg      2011/11/26 06:09:01.5   0.1                          T                1.5  .32 Ml 1.5         4792554
LPG   000.95 354.8 m E Pg      2011/11/26 06:08:48.7   0.1                          T                                        4792551
LPG   000.95 354.8 m E Sg      2011/11/26 06:09:01.1   0.3                          T                1.4  .26 Ml 1.5         4792553
LPG   000.95 354.8 m E Sn      2011/11/26 06:09:02.8   0.0                          T                                        4792541
FRF   001.01 189.5 m E Pg      2011/11/26 06:08:48.9  -0.4                          T                                        4792550
FRF   001.01 189.5 m E Sg      2011/11/26 06:09:01.8  -0.5                          T                2.3  .22 Ml 1.9         4792547
SMRF  001.10 238.7 m E Pg      2011/11/26 06:08:51.3   0.4                          T                                        4792543
SMRF  001.10 238.7 m E Sg      2011/11/26 06:09:05.1  -0.1                          T                 .7  .23 Ml 1.3         4792546
LMR   001.25 192.3 m E Pg      2011/11/26 06:08:54.0   0.4                          T                                        4792549
LMR   001.25 192.3 m E Sg      2011/11/26 06:09:09.6  -0.2                          T                 .7  .19 Ml 1.5         4792548

.
EVENT     266786
    Date      Time       Latitude Longitude    Depth    Ndef Nsta Gap    Mag1  N    Mag2  N    Mag3  N   Author         ID
       rms   OT_Error      Smajor Sminor Az        Err   mdist  Mdist     Err        Err        Err      Quality

2011/11/26 07:09:44.2     46.0343    6.8761      4.0 f    21    6 070  Ml 1.9  3  Md 1.8  2              js067245    266806

      0.21   +-  0.04       1.0     .7  109.47 +-  0.0    0.03   1.95   +-0.2      +-0.0                 m i ke

SWITZERLAND
Sta     Dist  EvAz     Phase      Date       Time     TRes  Azim  AzRes  Slow  SRes Def   SNR       Amp   Per   Mag1   Mag2       ID
LPL   000.53 191.0 m E Pg      2011/11/26 07:09:54.4  -0.2                          T                                        4792565
LPL   000.53 191.0 m E Sg      2011/11/26 07:10:01.4  -0.1                          T                1.7  .30        Md 1.8  4792560
LPG   000.54 189.3 m E Pg      2011/11/26 07:09:54.7  -0.2                          T                                        4792564
LPG   000.54 189.3 m E Sg      2011/11/26 07:10:01.9  -0.2                          T                2.0  .19        Md 1.8  4792563
CABF  000.79 316.8 m E Pg      2011/11/26 07:09:59.5   0.2                          T                                        4792558
CABF  000.79 316.8 m E Sg      2011/11/26 07:10:09.8   0.1                          T                3.5  .33                4792566
CABF  000.79 316.8 m E Sn      2011/11/26 07:10:12.2  -0.1                          T                                        4792557
ORIF  001.32 212.5 m E Pg      2011/11/26 07:10:09.2   0.2                          T                                        4792559
ORIF  001.32 212.5 m E Sg      2011/11/26 07:10:26.3   0.4                          T                1.7  .25 Ml 1.8         4792562
HINF  001.78 359.5 m E Sg      2011/11/26 07:10:40.0  -0.4                          T                 .9  .21 Ml 1.8         4792567
VIVF  001.95 233.6 m E Sg      2011/11/26 07:10:45.4  -0.1                          T                2.2  .29 Ml 2.1         4792561

.
EVENT     266780
    Date      Time       Latitude Longitude    Depth    Ndef Nsta Gap    Mag1  N    Mag2  N    Mag3  N   Author         ID
       rms   OT_Error      Smajor Sminor Az        Err   mdist  Mdist     Err        Err        Err      Quality

2011/11/26 08:11:59.0     42.3078   -8.4609     10.0     109   18 138  Ml 3.3 20                         js067245    266800

      1.25   +-  0.14       3.2    1.8   97.66 +-  0.0    0.37  11.70   +-0.3                            m i ke

SPAIN
Sta     Dist  EvAz     Phase      Date       Time     TRes  Azim  AzRes  Slow  SRes Def   SNR       Amp   Per   Mag1   Mag2       ID
SJPF  005.39 079.0 m E Pn      2011/11/26 08:13:17.0  -0.3                          T   001.0                                4791675
SJPF  005.39 079.0 m E P       2011/11/26 08:13:22.3   0.7                          T                                        4793036
SJPF  005.39 079.0 m E Sn      2011/11/26 08:14:14.9  -0.8                          T                2.9  .28 Ml 3.0         4793032
SJPF  005.39 079.0 m E Sg      2011/11/26 08:14:48.8   1.0                          T                1.9  .23 Ml 2.9         4793033
ETSF  005.86 081.6 m E Pn      2011/11/26 08:13:24.6   0.8                          T   001.0                                4791669
ETSF  005.86 081.6 m E Sn      2011/11/26 08:14:27.3   0.3                          T                4.6  .32 Ml 3.2         4792568
EPF   006.53 080.7 m E Pn      2011/11/26 08:13:32.1  -0.7                          T                                        4792572
EPF   006.53 080.7 m E P       2011/11/26 08:13:39.0   1.3                          T   001.0                                4791660
EPF   006.53 080.7 m E Sn      2011/11/26 08:14:42.0  -1.0                          T                2.2  .22 Ml 3.2         4793031
QUIF  006.74 031.9 m E Pn      2011/11/26 08:13:35.3  -0.3                          T   001.0                                4791671
QUIF  006.74 031.9 m E P       2011/11/26 08:13:40.9   0.3                          T                                        4792578
QUIF  006.74 031.9 m E Sn      2011/11/26 08:14:47.1  -0.9                          T                4.2  .26 Ml 3.4         4792569
ROSF  007.05 029.4 m E Pn      2011/11/26 08:13:39.7  -0.2                          T   001.0                                4791672
ROSF  007.05 029.4 m E P       2011/11/26 08:13:44.9  -0.1                          T                                        4792580
ROSF  007.05 029.4 m E Sn      2011/11/26 08:14:46.8  -8.6                          T                                        4793034
SGMF  007.26 033.0 m E Pn      2011/11/26 08:13:42.6  -0.1                          T   001.0                                4791673
SGMF  007.26 033.0 m E P       2011/11/26 08:13:48.3   0.4                          T                                        4792579
SGMF  007.26 033.0 m E Sn      2011/11/26 08:14:59.2  -1.1                          T   001.0        1.8  .18 Ml 3.3         4791674
MFF   007.34 051.4 m E Pn      2011/11/26 08:13:43.4  -0.3                          T   001.0                                4791666
MFF   007.34 051.4 m E P       2011/11/26 08:13:48.7  -0.2                          T                                        4792574
MFF   007.34 051.4 m E Sn      2011/11/26 08:15:00.9  -1.3                          T   001.0        3.0  .25 Ml 3.6         4791667
RJF   007.81 064.1 m E Pn      2011/11/26 08:13:49.3  -1.0                          T                                        4792573
RJF   007.81 064.1 m E Sn      2011/11/26 08:15:12.6  -1.0                          T   001.0        2.3  .23 Ml 3.1         4791677
RJF   007.81 064.1 m E Sg      2011/11/26 08:16:04.5   1.1                          T   001.0         .9  .20 Ml 2.7         4791653
GRR   008.10 038.8 m E Pn      2011/11/26 08:13:52.9  -1.2                          T   001.0                                4791662
GRR   008.10 038.8 m E Sn      2011/11/26 08:15:18.7  -1.7                          T   001.0        2.1  .22 Ml 3.3         4791663
CAF   008.07 067.5 m E Pn      2011/11/26 08:13:53.5  -0.3                          T   001.0                                4791657
CAF   008.07 067.5 m E Sn      2011/11/26 08:15:18.6  -1.2                          T   001.0        1.5  .21 Ml 3.3         4791658
CAF   008.07 067.5 m E Sg      2011/11/26 08:16:12.2   0.7                          T   001.0         .7  .23 Ml 2.9         4791659
MTLF  007.92 078.9 m E Pn      2011/11/26 08:13:57.6   5.9                          T                                        4793037
FLN   008.54 038.2 m E Pn      2011/11/26 08:13:59.7  -0.4 215.3  -8.6              T                                        4792577
FLN   008.54 038.2 m E P       2011/11/26 08:14:05.5  -0.2 211.9  -12.0             T                                        4792576
FLN   008.54 038.2 m E Sn      2011/11/26 08:15:28.6  -2.4                          T   001.0        3.3  .31 Ml 3.4         4791661
TCF   008.62 058.9 m E Pn      2011/11/26 08:14:00.4  -1.0                          T                                        4793038
TCF   008.62 058.9 m E Sn      2011/11/26 08:15:30.0  -3.1                          T   001.0        3.9  .26 Ml 3.7         4791668
LDF   008.59 040.1 m E Pn      2011/11/26 08:14:00.5  -0.3                          T   001.0                                4791664
LDF   008.59 040.1 m E P       2011/11/26 08:14:06.3  -0.2                          T                                        4792575
LDF   008.59 040.1 m E Sn      2011/11/26 08:15:29.8  -2.4                          T   001.0          1  .18 Ml 3.2         4791665
BGF   009.14 058.4 m E Pn      2011/11/26 08:14:07.0  -0.3                          T   001.0                                4791656
BGF   009.14 058.4 m E Sn      2011/11/26 08:15:44.2  -1.0                          T                3.8  .28 Ml 3.7         4792571
AVF   009.55 058.0 m E Pn      2011/11/26 08:14:13.5  -0.4                          T   001.0                                4791654
AVF   009.55 058.0 m E Sn      2011/11/26 08:15:53.7  -1.3                          T   001.0         .6  .18 Ml 3.2         4791655
LOR   010.06 056.3 m E Pn      2011/11/26 08:14:20.9   0.0 243.5  -1.4              T                                        4792582
LOR   010.06 056.3 m E Sn      2011/11/26 08:16:06.5  -0.9                          T                1.3  .31 Ml 3.4         4793035
BAIF  011.70 044.2 m E Sn      2011/11/26 08:16:45.9  -0.6                          T                  1  .28 Ml 3.5         4793024

.
EVENT     266787
    Date      Time       Latitude Longitude    Depth    Ndef Nsta Gap    Mag1  N    Mag2  N    Mag3  N   Author         ID
       rms   OT_Error      Smajor Sminor Az        Err   mdist  Mdist     Err        Err        Err      Quality

2011/11/26 08:39:55.0     45.9235    6.9418      2.0      14    5 144  Ml 1.7  2  Md 1.6  2              js067245    266807

      0.26   +-  0.07       2.1     .9   93.24 +-  0.0    0.14   1.25   +-0.1      +-0.0                 m i ke

FRANCE
Sta     Dist  EvAz     Phase      Date       Time     TRes  Azim  AzRes  Slow  SRes Def   SNR       Amp   Per   Mag1   Mag2       ID
LPL   000.43 199.9 m E Pg      2011/11/26 08:40:03.4  -0.1                          T                                        4792585
LPL   000.43 199.9 m E Sg      2011/11/26 08:40:09.2  -0.1                          T                2.8  .24        Md 1.6  4792590
LPG   000.45 197.5 m E Pg      2011/11/26 08:40:03.7  -0.2                          T                                        4792587
LPG   000.45 197.5 m E Sg      2011/11/26 08:40:09.9   0.1                          T                4.1  .18        Md 1.7  4792589
LPG   000.45 197.5 m E Sn      2011/11/26 08:40:10.3   0.0                          T                                        4792586
CABF  000.91 319.6 m E Pn      2011/11/26 08:40:13.4   0.1                          T                                        4792584
ORIF  001.25 217.0 m E Pg      2011/11/26 08:40:18.6   0.1                          T                                        4792588
ORIF  001.25 217.0 m E Sg      2011/11/26 08:40:35.0   0.3                          T                1.8  .25 Ml 1.8         4792591
MBDF  001.20 185.8 m E Sg      2011/11/26 08:40:33.1  -0.1                          T                1.2  .26 Ml 1.6         4792592

.
