EVENT     259951
    Date      Time       Latitude Longitude    Depth    Ndef Nsta Gap    Mag1  N    Mag2  N    Mag3  N   Author         ID
       rms   OT_Error      Smajor Sminor Az        Err   mdist  Mdist     Err        Err        Err      Quality

2011/06/02 11:45:01.0     44.7045    6.7410      2.0      18    9 105  Ml 1.6  5  Md 1.3  1              js067245    259951

      0.20   +-  0.05       1.3     .9   77.75 +-  0.0    0.03   1.48   +-0.3      +-                    m i ke

FRANCE
Sta     Dist  EvAz     Phase      Date       Time     TRes  Azim  AzRes  Slow  SRes Def   SNR       Amp   Per   Mag1   Mag2       ID
MBDF  000.03 044.1 m E Pg      2011/06/02 11:45:02.1  -0.1                          T                                        4703834
MBDF  000.03 044.1 m E Sg      2011/06/02 11:45:03.5   0.5                          T               54.5  .17        Md 1.3  4703835
ORIF  000.65 289.5 m E Pg      2011/06/02 11:45:13.5   0.2                          T                                        4703832
ORIF  000.65 289.5 m E Sg      2011/06/02 11:45:21.8  -0.1                          T                6.2  .24                4703833
LPG   000.79 000.5 m E Pg      2011/06/02 11:45:16.1  -0.2                          T                                        4703830
LPG   000.79 000.5 m E Sg      2011/06/02 11:45:26.7   0.1                          T                1.4  .16                4703831
LPL   000.81 359.6 m E Pg      2011/06/02 11:45:16.6   0.0                          T                                        4703828
LPL   000.81 359.6 m E Sg      2011/06/02 11:45:26.8  -0.3                          T                1.0  .20                4703820
SBF   000.98 149.1 m E Pg      2011/06/02 11:45:19.5   0.1                          T                                        4703825
SBF   000.98 149.1 m E Sg      2011/06/02 11:45:32.2   0.1                          T                3.5  .25 Ml 2.0         4703824
FRF   001.15 183.4 m E Pg      2011/06/02 11:45:22.0  -0.4                          T                                        4703829
FRF   001.15 183.4 m E Sg      2011/06/02 11:45:37.4   0.2                          T                1.3  .20 Ml 1.7         4703822
LMR   001.38 187.0 m E Pg      2011/06/02 11:45:26.6  -0.1                          T                                        4703826
LMR   001.38 187.0 m E Sg      2011/06/02 11:45:44.6   0.1                          T                 .9  .18 Ml 1.7         4703823
VIVF  001.48 276.6 m E Pg      2011/06/02 11:45:28.6   0.0                          T                                        4703827
VIVF  001.48 276.6 m E Sg      2011/06/02 11:45:47.7   0.0                          T                 .2  .16 Ml 1.1         4703819
SMRF  001.11 229.4 m E Sg      2011/06/02 11:45:36.4   0.2                          T                1.0  .26 Ml 1.5         4703821

.
EVENT     259954
    Date      Time       Latitude Longitude    Depth    Ndef Nsta Gap    Mag1  N    Mag2  N    Mag3  N   Author         ID
       rms   OT_Error      Smajor Sminor Az        Err   mdist  Mdist     Err        Err        Err      Quality

2011/06/03 13:22:50.7     43.7911   12.0324     10.0 f    25   14 275  Ml 3.0  9                         js067245    259954

      0.45   +-  0.35       7.0    4.0  108.25 +-  0.0    0.18   7.14   +-0.3                            m i ke

CENTRAL ITALY
Sta     Dist  EvAz     Phase      Date       Time     TRes  Azim  AzRes  Slow  SRes Def   SNR       Amp   Per   Mag1   Mag2       ID
PGF   002.54 241.8 m E Pn      2011/06/03 13:23:30.6   0.2                          T                                        4703869
PGF   002.54 241.8 m E Sn      2011/06/03 13:24:00.6   1.1                          T               11.4  .43 Ml 3.0         4703868
SBF   003.33 272.8 m E Pn      2011/06/03 13:23:40.2  -0.7                          T                                        4703870
SBF   003.33 272.8 m E Sn      2011/06/03 13:24:18.7   0.5                          T               25.7  .42 Ml 3.3         4703855
FRF   003.91 268.5 m E Pn      2011/06/03 13:23:48.8  -0.1                          T                                        4703872
FRF   003.91 268.5 m E Sn      2011/06/03 13:24:32.0  -0.1                          T                4.9  .26 Ml 3.0         4703857
LMR   004.04 265.4 m E Pn      2011/06/03 13:23:50.4  -0.1                          T                                        4703871
LMR   004.04 265.4 m E Sn      2011/06/03 13:24:35.2   0.1                          T                3.4  .30 Ml 2.7         4703856
LPL   004.16 296.4 m E Pn      2011/06/03 13:23:52.9   0.4                          T                                        4703873
SMRF  004.67 274.5 m E Pn      2011/06/03 13:23:58.9  -0.4                          T                                        4703866
SMRF  004.67 274.5 m E P       2011/06/03 13:24:03.0  -0.2                          T                                        4703867
CABF  005.06 305.9 m E Pn      2011/06/03 13:24:05.0   0.4                          T                                        4703874
VIVF  005.39 283.9 m E Pn      2011/06/03 13:24:09.1   0.1                          T                                        4703865
HINF  005.41 319.8 m E Pn      2011/06/03 13:24:09.5   0.2                          T                                        4703875
HINF  005.41 319.8 m E Sn      2011/06/03 13:25:07.9  -0.1                          T                5.7  .35 Ml 3.2         4703860
CDF   005.68 326.1 m E Pn      2011/06/03 13:24:12.5  -0.5                          T                                        4703876
CDF   005.68 326.1 m E Sn      2011/06/03 13:25:14.9   0.4                          T                5.1  .37 Ml 3.3         4703862
HAU   005.79 318.7 m E Pn      2011/06/03 13:24:14.4   0.0                          T                                        4703864
HAU   005.79 318.7 m E Sn      2011/06/03 13:25:17.5   0.6                          T                8.7  .41 Ml 3.2         4703861
LOR   006.71 304.0 m E Pn      2011/06/03 13:24:28.6   1.6                          T                                        4703877
LOR   006.71 304.0 m E Sn      2011/06/03 13:25:39.6   0.6                          T                3.3  .31 Ml 3.2         4703863
MTLF  007.14 269.8 m E Pn      2011/06/03 13:24:33.2   0.3                          T                                        4703859
LPG   004.14 296.2 m E Sn      2011/06/03 13:24:36.8  -1.0                          T                3.2  .43 Ml 2.6         4703858

.
EVENT     259955
    Date      Time       Latitude Longitude    Depth    Ndef Nsta Gap    Mag1  N    Mag2  N    Mag3  N   Author         ID
       rms   OT_Error      Smajor Sminor Az        Err   mdist  Mdist     Err        Err        Err      Quality

2011/06/03 15:11:20.1     42.9165    1.5091      2.0      45    8 066  Ml 2.3  7  Md 2.1  2              js067245    259955

      0.35   +-  0.03        .6     .6  153.43 +-  0.0    0.28   3.00   +-0.2      +-0.0                 m i ke

PYRENEES
Sta     Dist  EvAz     Phase      Date       Time     TRes  Azim  AzRes  Slow  SRes Def   SNR       Amp   Per   Mag1   Mag2       ID
MTLF  000.67 050.5 m E Pg      2011/06/03 15:11:32.8   0.0                          T                                        4703898
MTLF  000.67 050.5 m E P       2011/06/03 15:11:34.4   0.1                          T                                        4703899
MTLF  000.67 050.5 m E Sg      2011/06/03 15:11:41.8   0.2                          T                                        4703900
MTLF  000.67 050.5 m E Sn      2011/06/03 15:11:45.2  -0.3                          T                6.4  .18        Md 2.2  4703901
EPF   000.87 277.9 m E Pg      2011/06/03 15:11:36.4  -0.1                          T                                        4703896
EPF   000.87 277.9 m E Sg      2011/06/03 15:11:47.8   0.1                          T               22.7  .26 Ml 2.7 Md 2.1  4703897
ETSF  001.52 270.0 m E Pg      2011/06/03 15:11:48.6   0.1                          T                                        4703894
ETSF  001.52 270.0 m E Sg      2011/06/03 15:12:08.1  -0.1                          T                2.7  .24 Ml 2.1         4703895
CAF   002.05 011.1 m E Pg      2011/06/03 15:11:58.3   0.1                          T                                        4703886
CAF   002.05 011.1 m E Sg      2011/06/03 15:12:24.2  -0.4                          T                3.6  .22 Ml 2.4         4703893
LASF  002.06 055.0 m E Pg      2011/06/03 15:11:58.5   0.1                          T                                        4703885
LASF  002.06 055.0 m E Sg      2011/06/03 15:12:25.2   0.1                          T                1.6  .24 Ml 2.0         4703890
LFF   002.10 344.9 m E Pg      2011/06/03 15:11:59.1   0.0                          T                                        4703887
LFF   002.10 344.9 m E Sg      2011/06/03 15:12:25.8  -0.2                          T                6.6  .28 Ml 2.4         4703892
RJF   002.39 000.1 m E Pg      2011/06/03 15:12:04.5   0.1                          T                                        4703888
RJF   002.39 000.1 m E Sg      2011/06/03 15:12:35.2   0.0                          T                2.5  .20 Ml 2.1         4703891
VIVF  003.00 048.6 m E Sg      2011/06/03 15:12:54.5   0.3                          T                1.5  .27 Ml 2.2         4703889

.
EVENT     259956
    Date      Time       Latitude Longitude    Depth    Ndef Nsta Gap    Mag1  N    Mag2  N    Mag3  N   Author         ID
       rms   OT_Error      Smajor Sminor Az        Err   mdist  Mdist     Err        Err        Err      Quality

2011/06/03 22:46:45.7     43.1684   -1.1080     15.0      19    5 088  Ml 1.5  3  Md 1.9  2              js067245    259956

      0.25   +-  0.05       1.3     .9  174.73 +-  0.0    0.10   2.88   +-0.1      +-0.1                 m i ke

PYRENEES
Sta     Dist  EvAz     Phase      Date       Time     TRes  Azim  AzRes  Slow  SRes Def   SNR       Amp   Per   Mag1   Mag2       ID
SJPF  000.10 237.3 m E Pg      2011/06/03 22:46:49.1   0.0                          T                                        4703904
SJPF  000.10 237.3 m E Sg      2011/06/03 22:46:51.1  -0.3                          T               27.3  .18        Md 1.8  4703905
ETSF  000.48 123.6 m E Pg      2011/06/03 22:46:55.1  -0.2                          T                                        4703902
ETSF  000.48 123.6 m E Sg      2011/06/03 22:47:01.5  -0.5                          T                4.2  .24        Md 2.0  4703903
EPF   001.07 096.9 m E Pn      2011/06/03 22:47:04.7   0.0                          T                                        4703910
EPF   001.07 096.9 m E Pg      2011/06/03 22:47:05.8  -0.1                          T                                        4703909
EPF   001.07 096.9 m E Sg      2011/06/03 22:47:19.8  -0.1                          T                 .7  .16 Ml 1.5         4703911
CAF   002.88 051.4 m E Pn      2011/06/03 22:47:29.3  -0.1                          T                                        4703908
CAF   002.88 051.4 m E Sn      2011/06/03 22:48:01.6   0.0                          T                 .3  .26 Ml 1.5         4703907
LFF   002.22 036.3 m E Sg      2011/06/03 22:47:55.3  -0.1                          T                 .8  .23 Ml 1.6         4703906

.
EVENT     259957
    Date      Time       Latitude Longitude    Depth    Ndef Nsta Gap    Mag1  N    Mag2  N    Mag3  N   Author         ID
       rms   OT_Error      Smajor Sminor Az        Err   mdist  Mdist     Err        Err        Err      Quality

2011/06/04 02:41:54.9     42.9026    -.0799      2.0       6    4 194  Ml 0.8  2  Md 1.6  2              js067245    259957

      0.17   +-  0.17      11.5    1.3  171.55 +-  0.0    0.33   1.74   +-0.2      +-0.1                 m i ke

PYRENEES
Sta     Dist  EvAz     Phase      Date       Time     TRes  Azim  AzRes  Slow  SRes Def   SNR       Amp   Per   Mag1   Mag2       ID
EPF   000.33 067.4 m E Pg      2011/06/04 02:42:01.4  -0.1                          T                                        4703912
EPF   000.33 067.4 m E Sg      2011/06/04 02:42:06.1   0.2                          T                2.1  .19        Md 1.6  4703913
ETSF  000.35 269.5 m E Pg      2011/06/04 02:42:01.9   0.1                          T                                        4703914
ETSF  000.35 269.5 m E Sg      2011/06/04 02:42:06.2  -0.3                          T                1.5  .26        Md 1.7  4703915
SJPF  000.87 284.5 m E Sg      2011/06/04 02:42:22.5   0.0                          T                 .2  .18 Ml  .7         4703917
MTLF  001.74 074.6 m E Sg      2011/06/04 02:42:49.5  -0.2                          T                 .2  .27 Ml 1           4703916

.
EVENT     260124
    Date      Time       Latitude Longitude    Depth    Ndef Nsta Gap    Mag1  N    Mag2  N    Mag3  N   Author         ID
       rms   OT_Error      Smajor Sminor Az        Err   mdist  Mdist     Err        Err        Err      Quality

2011/06/04 03:56:47.9     36.5360  -11.3358     20.0 f    75    6 285  Ml 3.1  3                         js067245    260124

      0.51   +-  0.22       4.3    3.1   46.65 +-  0.0    2.10  13.16   +-0.2                            m i ke

NORTH ATLANTIC OCEAN
Sta     Dist  EvAz     Phase      Date       Time     TRes  Azim  AzRes  Slow  SRes Def   SNR       Amp   Per   Mag1   Mag2       ID
SJPF  010.17 046.7 m E Pn      2011/06/04 03:59:10.3   0.1                          T                                        4704006
SJPF  010.17 046.7 m E Sn      2011/06/04 04:00:58.1   1.0                          T                1.2  .38 Ml 3.3         4704010
ETSF  010.45 049.3 m E Pn      2011/06/04 03:59:14.4   0.4                          T                                        4704005
ETSF  010.45 049.3 m E Sn      2011/06/04 04:01:03.6  -0.2                          T                 .3  .24 Ml 2.9         4704012
EPF   011.07 050.6 m E Pn      2011/06/04 03:59:23.4   0.9                          T                                        4704004
EPF   011.07 050.6 m E Sn      2011/06/04 04:01:18.3  -0.4                          T                 .4  .25 Ml 3.1         4704011
LFF   012.41 043.7 m E Pn      2011/06/04 03:59:40.0  -0.6                          T                                        4704007
RJF   013.07 044.0 m E Pn      2011/06/04 03:59:48.2  -1.4                          T                                        4704009
CAF   013.16 046.3 m E Pn      2011/06/04 03:59:50.2  -0.7                          T                                        4704008

.
EVENT     260054
    Date      Time       Latitude Longitude    Depth    Ndef Nsta Gap    Mag1  N    Mag2  N    Mag3  N   Author         ID
       rms   OT_Error      Smajor Sminor Az        Err   mdist  Mdist     Err        Err        Err      Quality

2011/06/04 05:41:43.0     50.0232    8.6700     10.0      17    6 173  Ml 2.0  5  Md 2.4  1              js067245    260054

      0.44   +-  0.12       2.4    1.3   62.30 +-  0.0    0.25   2.88   +-0.1      +-                    m i ke

GERMANY
Sta     Dist  EvAz     Phase      Date       Time     TRes  Azim  AzRes  Slow  SRes Def   SNR       Amp   Per   Mag1   Mag2       ID
RUP   001.09 253.4 m E Pn      2011/06/04 05:42:03.0   0.2                          T                                        4704026
RUP   001.09 253.4 m E Sn      2011/06/04 05:42:17.0  -0.1                          T                                Md 2.4  4704027
LANF  001.19 208.7 m E Pn      2011/06/04 05:42:04.0  -0.1                          T                                        4704024
LANF  001.19 208.7 m E Sg      2011/06/04 05:42:20.5  -0.2                          T                2.7  .19 Ml 2.0         4704025
CDF   001.85 210.1 m E Pn      2011/06/04 05:42:13.2  -0.1                          T                                        4704021
CDF   001.85 210.1 m E Pg      2011/06/04 05:42:17.6   0.0                          T                                        4704020
CDF   001.85 210.1 m E Sn      2011/06/04 05:42:35.3  -0.1                          T                                        4704023
CDF   001.85 210.1 m E Sg      2011/06/04 05:42:41.5  -0.1                          T                1.6  .24 Ml 2.1         4704022
HINF  002.51 209.2 m E Pn      2011/06/04 05:42:21.9  -0.3                          T                                        4704014
HINF  002.51 209.2 m E Pg      2011/06/04 05:42:29.7   0.0                          T                                        4704013
HINF  002.51 209.2 m E Sg      2011/06/04 05:43:02.1   0.0                          T                1.3  .22 Ml 2.1         4704015
GIVF  002.48 273.3 m E P       2011/06/04 05:42:24.6   0.3                          T                                        4704018
GIVF  002.48 273.3 m E Sg      2011/06/04 05:43:01.1   0.1                          T                  1  .19 Ml 2.0         4704019
BAIF  002.88 272.4 m E P       2011/06/04 05:42:30.2   0.2                          T                                        4704016
BAIF  002.88 272.4 m E Sg      2011/06/04 05:43:12.6  -0.8                          T                1.1  .31 Ml 1.9         4704017

.
