EVENT     264035
    Date      Time       Latitude Longitude    Depth    Ndef Nsta Gap    Mag1  N    Mag2  N    Mag3  N   Author         ID
       rms   OT_Error      Smajor Sminor Az        Err   mdist  Mdist     Err        Err        Err      Quality

2011/09/17 13:41:44.9     41.6486   14.7156     20.0 f   133    9 062  Ml 3.4  6                         js067245    264055

      1.16   +-  0.11       4.6    2.5   31.45 +-  0.0    0.14   8.70   +-0.3                            m i ke

SOUTHERN ITALY
Sta     Dist  EvAz     Phase      Date       Time     TRes  Azim  AzRes  Slow  SRes Def   SNR       Amp   Per   Mag1   Mag2       ID
PGF   004.35 283.8 m E P       2011/09/17 13:42:52.4   0.6                          T                                        4757884
PGF   004.35 283.8 m E Sn      2011/09/17 13:43:35.5   0.4                          T                5.2  .40 Ml 3.1         4766082
SBF   005.80 294.9 m E P       2011/09/17 13:43:12.8   0.5                          T                                        4757882
SBF   005.80 294.9 m E Sn      2011/09/17 13:44:08.6  -1.1                          T                6.9  .59 Ml 3.1         4766081
FRF   006.25 290.5 m E P       2011/09/17 13:43:18.5  -0.2                          T                                        4757879
LMR   006.30 288.2 m E P       2011/09/17 13:43:18.6  -0.7                          T                                        4757883
MBDF  006.57 300.6 m E P       2011/09/17 13:43:25.0   1.7                          T                                        4757881
MBDF  006.57 300.6 m E Sn      2011/09/17 13:44:29.0   0.7                          T                5.6  .73 Ml 3.1         4766080
ORIF  007.23 299.8 m E P       2011/09/17 13:43:33.3   0.8                          T                                        4757880
CDF   008.57 324.6 m E Pn      2011/09/17 13:43:45.9   0.4                          T                                        4757877
CDF   008.57 324.6 m E P       2011/09/17 13:43:51.2   0.1                          T                                        4757876
CDF   008.57 324.6 m E Sn      2011/09/17 13:45:16.0   0.1                          T                4.3  .48 Ml 3.6         4766077
HAU   008.70 319.8 m E Pn      2011/09/17 13:43:47.4   0.1                          T                                        4766083
HAU   008.70 319.8 m E Sn      2011/09/17 13:45:19.4   0.4                          T                7.9  .32 Ml 3.7         4766078
HINF  008.32 320.4 m E Sn      2011/09/17 13:45:10.4   0.4                          T                6.5  .38 Ml 3.7         4766079

.
EVENT     264036
    Date      Time       Latitude Longitude    Depth    Ndef Nsta Gap    Mag1  N    Mag2  N    Mag3  N   Author         ID
       rms   OT_Error      Smajor Sminor Az        Err   mdist  Mdist     Err        Err        Err      Quality

2011/09/17 14:07:42.4     44.5839   10.2882      2.0      29   12 151  Ml 2.6  9                         js067245    264056

      0.67   +-  0.19       4.4    2.8   68.77 +-  0.0    0.18   4.36   +-0.2                            m i ke

NORTHERN ITALY
Sta     Dist  EvAz     Phase      Date       Time     TRes  Azim  AzRes  Slow  SRes Def   SNR       Amp   Per   Mag1   Mag2       ID
SBF   002.17 251.6 m E Pn      2011/09/17 14:08:17.0  -0.9                          T                                        4757925
SBF   002.17 251.6 m E Sn      2011/09/17 14:08:44.3   0.5                          T               13.4  .31 Ml 2.9         4757922
PGF   002.24 205.2 m E Pn      2011/09/17 14:08:18.5  -0.3                          T                                        4757916
PGF   002.24 205.2 m E Sn      2011/09/17 14:08:45.4   0.0                          T                3.6  .30 Ml 2.6         4766091
MBDF  002.51 274.5 m E Pn      2011/09/17 14:08:23.5   0.9                          T                                        4757927
MBDF  002.51 274.5 m E Sn      2011/09/17 14:08:52.8   0.8                          T                4.7  .35 Ml 2.4         4757918
LPL   002.69 291.5 m E Pn      2011/09/17 14:08:24.7  -0.3                          T                                        4766093
LPL   002.69 291.5 m E P       2011/09/17 14:08:28.1   0.4                          T                                        4757921
LPL   002.69 291.5 m E Sn      2011/09/17 14:08:56.6   0.4                          T                5.7  .38 Ml 2.5         4766090
LPG   002.67 291.3 m E Pn      2011/09/17 14:08:25.2   0.4                          T                                        4766092
FRF   002.82 250.0 m E Pn      2011/09/17 14:08:25.8  -0.7                          T                                        4757928
FRF   002.82 250.0 m E Sn      2011/09/17 14:09:00.0   0.9                          T                4.6  .31 Ml 2.6         4757923
LMR   003.00 246.7 m E Pn      2011/09/17 14:08:28.2  -0.8                          T                                        4757929
LMR   003.00 246.7 m E Sn      2011/09/17 14:09:03.6   0.2                          T                7.4  .34 Ml 2.8         4757924
ORIF  003.16 277.6 m E Pn      2011/09/17 14:08:32.1   0.8                          T                                        4757926
ORIF  003.16 277.6 m E Sn      2011/09/17 14:09:08.1   0.7                          T                3.5  .38 Ml 2.4         4757920
SMRF  003.44 261.5 m E Pn      2011/09/17 14:08:35.3   0.3                          T                                        4757919
CABF  003.58 306.0 m E Pn      2011/09/17 14:08:37.2   0.2                          T                                        4766094
HINF  004.02 324.8 m E Pn      2011/09/17 14:08:42.9  -0.1                          T                                        4766095
HINF  004.02 324.8 m E Sn      2011/09/17 14:09:27.9   0.1                          T                1.7  .30 Ml 2.4         4766089
CDF   004.36 332.6 m E Pn      2011/09/17 14:08:45.3  -2.3                          T                                        4766096
CDF   004.36 332.6 m E Sn      2011/09/17 14:09:36.0   0.0                          T                1.5  .20 Ml 2.7         4766088

.
EVENT     264037
    Date      Time       Latitude Longitude    Depth    Ndef Nsta Gap    Mag1  N    Mag2  N    Mag3  N   Author         ID
       rms   OT_Error      Smajor Sminor Az        Err   mdist  Mdist     Err        Err        Err      Quality

2011/09/17 14:32:09.2     44.6446   10.2299      2.0      30    9 092  Ml 2.9  4                         js067245    264057

      0.54   +-  0.13       2.9    2.4   61.81 +-  0.0    0.13   3.94   +-0.1                            m i ke

NORTHERN ITALY
Sta     Dist  EvAz     Phase      Date       Time     TRes  Azim  AzRes  Slow  SRes Def   SNR       Amp   Per   Mag1   Mag2       ID
SBF   002.15 249.7 m E Pn      2011/09/17 14:32:44.8   0.4                          T                                        4757984
SBF   002.15 249.7 m E Sn      2011/09/17 14:33:10.3   0.2                          T               14.7  .32 Ml 2.9         4757979
PGF   002.28 203.5 m E Pn      2011/09/17 14:32:46.2   0.1                          T                                        4757969
PGF   002.28 203.5 m E P       2011/09/17 14:32:48.5   0.0                          T                                        4757968
PGF   002.28 203.5 m E Pg      2011/09/17 14:32:51.0  -0.6                          T                                        4757967
PGF   002.28 203.5 m E Sn      2011/09/17 14:33:13.2   0.0                          T                5.3  .24 Ml 2.8         4757970
LPL   002.63 290.6 m E Pn      2011/09/17 14:32:50.8  -0.3                          T                                        4757973
LPL   002.63 290.6 m E Pg      2011/09/17 14:32:58.1  -0.1                          T                                        4757965
LPL   002.63 290.6 m E S       2011/09/17 14:33:26.8   0.2                          T                                        4757971
LPL   002.63 290.6 m E Sg      2011/09/17 14:33:31.9  -0.1                          T                                        4757972
MBDF  002.47 273.1 m E P       2011/09/17 14:32:51.4   0.1                          T                                        4757966
MBDF  002.47 273.1 m E Sn      2011/09/17 14:33:14.6  -3.1                          T                                        4757977
FRF   002.80 248.5 m E Pn      2011/09/17 14:32:53.4   0.3                          T                                        4757982
FRF   002.80 248.5 m E Sn      2011/09/17 14:33:27.1   1.6                          T                5.6  .28 Ml 2.7         4757981
LMR   002.99 245.3 m E Pn      2011/09/17 14:32:55.5  -0.2                          T                                        4757983
LMR   002.99 245.3 m E Sn      2011/09/17 14:33:30.1   0.1                          T               10.7  .34 Ml 2.9         4757980
ORIF  003.11 276.6 m E Pn      2011/09/17 14:32:59.4   2.0                          T                                        4757978
CABF  003.51 305.5 m E Pn      2011/09/17 14:33:03.1   0.2                          T                                        4757976
CABF  003.51 305.5 m E P       2011/09/17 14:33:06.3   0.2                          T                                        4757975
HINF  003.94 324.7 m E Sn      2011/09/17 14:33:52.5  -0.4                          T                                        4757974

.
EVENT     264028
    Date      Time       Latitude Longitude    Depth    Ndef Nsta Gap    Mag1  N    Mag2  N    Mag3  N   Author         ID
       rms   OT_Error      Smajor Sminor Az        Err   mdist  Mdist     Err        Err        Err      Quality

2011/09/17 16:50:24.3     42.9472   -1.1745      2.0       6    3 251  Ml 1.3  1  Md 1.1  2              js067245    264048

      0.35   +-  0.20       5.3    1.1   38.17 +-  0.0    0.17   1.11   +-         +-0.2                 m i ke

PYRENEES
Sta     Dist  EvAz     Phase      Date       Time     TRes  Azim  AzRes  Slow  SRes Def   SNR       Amp   Per   Mag1   Mag2       ID
SJPF  000.17 347.4 m E Pg      2011/09/17 16:50:27.6  -0.2                          T                                        4766101
SJPF  000.17 347.4 m E Sg      2011/09/17 16:50:29.7  -0.5                          T                6.0  .18        Md 1.3  4766102
ETSF  000.45 095.9 m E Pg      2011/09/17 16:50:32.8  -0.4                          T                                        4766099
ETSF  000.45 095.9 m E Sg      2011/09/17 16:50:38.9  -0.3                          T                2.1  .36        Md 1.0  4766100
EPF   001.11 085.2 m E Pg      2011/09/17 16:50:45.0  -0.2                          T                                        4766097
EPF   001.11 085.2 m E Sg      2011/09/17 16:50:59.2  -0.5                          T                 .7  .24 Ml 1.3         4766098

.
EVENT     264038
    Date      Time       Latitude Longitude    Depth    Ndef Nsta Gap    Mag1  N    Mag2  N    Mag3  N   Author         ID
       rms   OT_Error      Smajor Sminor Az        Err   mdist  Mdist     Err        Err        Err      Quality

2011/09/17 17:03:35.1     44.6409   10.4479     10.0 f    37   17 119  Ml 2.7 10  Md 2.8  3              js067245    264058

      0.76   +-  0.26       6.0    3.0   70.49 +-  0.0    0.16   6.02   +-0.3      +-0.1                 m i ke

NORTHERN ITALY
Sta     Dist  EvAz     Phase      Date       Time     TRes  Azim  AzRes  Slow  SRes Def   SNR       Amp   Per   Mag1   Mag2       ID
SBF   002.30 251.3 m E Pn      2011/09/17 17:04:10.8  -0.6                          T   001.0                                4753985
SBF   002.30 251.3 m E Sn      2011/09/17 17:04:39.0   0.9                          T   001.0       16.4  .36 Ml 2.9 Md 2.8  4753986
PGF   002.34 207.2 m E Pn      2011/09/17 17:04:12.0  -0.1                          T   001.0                                4753984
PGF   002.34 207.2 m E P       2011/09/17 17:04:14.4  -0.2                          T                                        4757992
PGF   002.34 207.2 m E Sn      2011/09/17 17:04:40.3   1.2                          T                2.7  .22 Ml 2.6 Md 2.6  4757996
MBDF  002.62 273.2 m E Pn      2011/09/17 17:04:16.4   0.4                          T   001.0                                4753991
MBDF  002.62 273.2 m E P       2011/09/17 17:04:17.5  -1.2                          T                                        4757991
MBDF  002.62 273.2 m E Sn      2011/09/17 17:04:46.2   0.2                          T   001.0        2.3  .24 Ml 2.3         4753992
LPG   002.76 289.4 m E Pn      2011/09/17 17:04:18.3   0.4                          T   001.0                                4753982
FRF   002.94 249.8 m E Pn      2011/09/17 17:04:19.4  -0.7                          T   001.0                                4753979
FRF   002.94 249.8 m E Sn      2011/09/17 17:04:52.6  -0.8                          T                9.9  .33 Ml 2.9         4757997
LPL   002.77 289.7 m E Pn      2011/09/17 17:04:19.6   1.5                          T   001.0                                4753983
LMR   003.13 246.7 m E Pn      2011/09/17 17:04:21.6  -1.0                          T   001.0                                4753980
LMR   003.13 246.7 m E Sn      2011/09/17 17:04:56.4  -1.4                          T               10.0  .45 Ml 2.8 Md 2.8  4757995
ORIF  003.26 276.5 m E Pn      2011/09/17 17:04:25.1   0.5                          T   001.0                                4753993
ORIF  003.26 276.5 m E Sn      2011/09/17 17:05:02.5   1.3                          T   001.0                                4753994
SMRF  003.56 260.9 m E Pn      2011/09/17 17:04:29.4   0.9                          T   001.0                                4753997
CABF  003.64 304.3 m E Pn      2011/09/17 17:04:29.8   0.1                          T   001.0                                4753988
HINF  004.04 323.1 m E Pn      2011/09/17 17:04:34.5  -0.6                          T   001.0                                4753989
HINF  004.04 323.1 m E Sn      2011/09/17 17:05:20.5   0.9                          T   001.0          3  .28 Ml 2.7         4753990
VIVF  004.12 275.0 m E Pn      2011/09/17 17:04:36.2   0.0                          T                                        4757994
VIVF  004.12 275.0 m E Sn      2011/09/17 17:05:22.5   0.9                          T   001.0                                4753995
VIVF  004.12 275.0 m E Sg      2011/09/17 17:05:45.1   0.8                          T   001.0          2  .52 Ml 2.3         4753996
CDF   004.36 331.0 m E Pn      2011/09/17 17:04:39.2  -0.3                          T   001.0                                4753977
CDF   004.36 331.0 m E Sn      2011/09/17 17:05:26.2  -1.2                          T   001.0        4.7  .31 Ml 3.0         4753978
HAU   004.40 321.3 m E Pn      2011/09/17 17:04:39.9  -0.2                          T                                        4757993
LOR   005.29 302.1 m E Pn      2011/09/17 17:04:52.2   0.1                          T                                        4757990
LOR   005.29 302.1 m E Sn      2011/09/17 17:05:50.7   1.2                          T   001.0        3.2  .30 Ml 3.0         4753981
BGF   005.67 292.4 m E Pn      2011/09/17 17:04:58.5   1.3                          T   001.0                                4753976
TCF   006.02 288.8 m E Sn      2011/09/17 17:06:07.7   0.7                          T   001.0        3.8  .80 Ml 2.8         4753987

.
EVENT     264039
    Date      Time       Latitude Longitude    Depth    Ndef Nsta Gap    Mag1  N    Mag2  N    Mag3  N   Author         ID
       rms   OT_Error      Smajor Sminor Az        Err   mdist  Mdist     Err        Err        Err      Quality

2011/09/17 17:14:54.8     44.6321   10.4252     10.0 f    37   16 116  Ml 2.8 10  Md 2.7  2              js067245    264059

      0.77   +-  0.21       5.3    2.8   76.32 +-  0.0    0.15   5.40   +-0.2      +-0.0                 m i ke

NORTHERN ITALY
Sta     Dist  EvAz     Phase      Date       Time     TRes  Azim  AzRes  Slow  SRes Def   SNR       Amp   Per   Mag1   Mag2       ID
SBF   002.28 251.4 m E Pn      2011/09/17 17:15:30.4  -0.5                          T   001.0                                4753964
SBF   002.28 251.4 m E Sn      2011/09/17 17:15:57.1  -0.3                          T               16.4  .30 Ml 3.0 Md 2.7  4758008
PGF   002.33 206.9 m E Pn      2011/09/17 17:15:31.2  -0.3                          T   001.0                                4753963
PGF   002.33 206.9 m E Sn      2011/09/17 17:15:57.4  -1.0                          T                5.8  .30 Ml 2.8         4758004
MBDF  002.61 273.4 m E Pn      2011/09/17 17:15:36.4   1.0                          T   001.0                                4753969
MBDF  002.61 273.4 m E Sn      2011/09/17 17:16:08.2   3.0                          T   001.0       13.4  .52 Ml 2.8         4753970
LPG   002.74 289.7 m E Pn      2011/09/17 17:15:37.4  -0.1                          T                                        4758003
FRF   002.93 249.8 m E Pn      2011/09/17 17:15:39.1  -0.5                          T   001.0                                4753957
FRF   002.93 249.8 m E Sn      2011/09/17 17:16:13.3   0.6                          T   001.0        8.8  .30 Ml 2.9         4753958
LPL   002.76 290.0 m E P       2011/09/17 17:15:40.5   0.1                          T   001.0                                4753962
LMR   003.11 246.7 m E Pn      2011/09/17 17:15:41.2  -0.9                          T   001.0                                4753961
LMR   003.11 246.7 m E Sn      2011/09/17 17:16:16.2  -0.8                          T                8.2  .29 Ml 2.9 Md 2.7  4758009
ORIF  003.25 276.6 m E Pn      2011/09/17 17:15:44.6   0.5                          T   001.0                                4753971
ORIF  003.25 276.6 m E P       2011/09/17 17:15:46.9  -0.3                          T                                        4758006
ORIF  003.25 276.6 m E Sn      2011/09/17 17:16:22.1   1.6                          T   001.0        8.2  .40 Ml 2.8         4753972
ORIF  003.25 276.6 m E S       2011/09/17 17:16:27.8   1.2                          T                                        4758005
SMRF  003.54 261.0 m E Pn      2011/09/17 17:15:48.1   0.1                          T   001.0                                4753974
SMRF  003.54 261.0 m E Sn      2011/09/17 17:16:31.5   4.0                          T   001.0          5  .48 Ml 2.6         4753975
CABF  003.63 304.6 m E Pn      2011/09/17 17:15:49.4   0.2                          T   001.0                                4753966
CABF  003.63 304.6 m E Sn      2011/09/17 17:16:30.3   0.7                          T   001.0          5  .56 Ml 2.5         4753967
HINF  004.04 323.4 m E Pn      2011/09/17 17:15:54.5  -0.2                          T                                        4758007
HINF  004.04 323.4 m E Sn      2011/09/17 17:16:38.6  -0.6                          T   001.0        3.3  .34 Ml 2.6         4753968
VIVF  004.10 275.1 m E Pn      2011/09/17 17:15:55.7   0.1                          T   001.0                                4753973
CDF   004.36 331.2 m E Pn      2011/09/17 17:15:58.6  -0.6                          T   001.0                                4753955
CDF   004.36 331.2 m E Sn      2011/09/17 17:16:44.7  -2.4                          T   001.0        4.4  .36 Ml 2.9         4753956
HAU   004.40 321.5 m E Pn      2011/09/17 17:15:59.4  -0.3                          T   001.0                                4753959
SMF   005.04 295.9 m E Pn      2011/09/17 17:16:08.7   0.4                          T   001.0                                4753965
AVF   005.40 296.0 m E Pn      2011/09/17 17:16:13.2   0.0                          T   001.0                                4753954

.
