EVENT     282385
    Date      Time       Latitude Longitude    Depth    Ndef Nsta Gap    Mag1  N    Mag2  N    Mag3  N   Author         ID
       rms   OT_Error      Smajor Sminor Az        Err   mdist  Mdist     Err        Err        Err      Quality

2012/09/01 02:36:27.7     48.1179   -3.8824      6.0 f    23    7 302  Ml 1.9  5  Md 2.0  3              bulletin    282485
                                                                                                         _ldg
      0.90   +-  0.40       6.3    4.5   89.39 +-  0.0    0.46   2.96   +-0.1      +-0.5                 m i ke

FRANCE
Sta     Dist  EvAz     Phase      Date       Time     TRes  Azim  AzRes  Slow  SRes Def   SNR       Amp   Per   Mag1   Mag2       ID
ROSF  000.46 061.5 m E Pg      2012/09/01 02:36:36.0  -0.6                          T                                        5062847
ROSF  000.46 061.5 m E Pn      2012/09/01 02:36:38.1  -0.1                          T                                        5062848
ROSF  000.46 061.5 m E Sg      2012/09/01 02:36:43.1   0.4                          T                                        5059092
ROSF  000.46 061.5 m E Sn      2012/09/01 02:36:45.6   0.3                          T                6.3  .19        Md 1.7  5059088
QUIF  000.52 112.4 m E Pg      2012/09/01 02:36:38.0   0.4                          T                                        5059090
QUIF  000.52 112.4 m E Sg      2012/09/01 02:36:45.4   0.8                          T               13.8  .26        Md 1.8  5059086
SGMF  000.90 080.8 m E Pn      2012/09/01 02:36:44.5  -0.8                          T                                        5059091
SGMF  000.90 080.8 m E Pg      2012/09/01 02:36:45.1   0.5                          T                                        5062846
SGMF  000.90 080.8 m E Sg      2012/09/01 02:36:56.9   0.6                          T                3.2  .18 Ml 2.0         5059087
GRR   002.04 081.3 m E Pn      2012/09/01 02:37:01.3   0.6                          T                                        5059089
GRR   002.04 081.3 m E Pg      2012/09/01 02:37:05.3  -0.2                          T                                        5062842
GRR   002.04 081.3 m E Sg      2012/09/01 02:37:32.2   0.3                          T                1.5  .25 Ml 1.9         5059085
FLN   002.35 072.8 m E Pg      2012/09/01 02:37:11.3   0.0                          T                                        5062851
FLN   002.35 072.8 m E Sg      2012/09/01 02:37:40.9  -0.8                          T                1.8  .28 Ml 1.9         5062843
LDF   002.55 077.9 m E Pg      2012/09/01 02:37:15.6   0.6                          T                                        5062841
LDF   002.55 077.9 m E Sg      2012/09/01 02:37:48.0   0.2                          T                 .9  .24 Ml 1.9         5062845
MFF   002.96 119.5 m E P       2012/09/01 02:37:16.4   0.2                          T                                        5062853
MFF   002.96 119.5 m E Pg      2012/09/01 02:37:22.6   0.1                          T                                        5062852
MFF   002.96 119.5 m E Sg      2012/09/01 02:37:58.7  -1.9                          T                 .7  .22 Ml 2.1         5062844

.
EVENT     282390
    Date      Time       Latitude Longitude    Depth    Ndef Nsta Gap    Mag1  N    Mag2  N    Mag3  N   Author         ID
       rms   OT_Error      Smajor Sminor Az        Err   mdist  Mdist     Err        Err        Err      Quality

2012/09/01 05:23:06.7     46.3155    7.5588      2.0      29   10 061  Ml 1.9  8  Md 1.9  4              bulletin    282490
                                                                                                         _ldg
      0.18   +-  0.03        .7     .5   95.45 +-  0.0    0.09   2.77   +-0.3      +-0.1                 m i ke

SWITZERLAND
Sta     Dist  EvAz     Phase      Date       Time     TRes  Azim  AzRes  Slow  SRes Def   SNR       Amp   Per   Mag1   Mag2       ID
LPG   000.99 214.9 m E Pg      2012/09/01 05:23:25.7   0.0                          T                                        5059330
LPL   000.99 216.1 m E Pg      2012/09/01 05:23:25.7   0.2                          T                                        5059329
LPL   000.99 216.1 m E Sg      2012/09/01 05:23:38.3   0.1                          T                1.5  .27 Ml 1.5 Md 1.9  5059328
LPG   000.99 214.9 m E Sg      2012/09/01 05:23:38.8   0.2                          T                 .8  .21 Ml 1.4 Md 1.8  5059327
CABF  001.06 286.7 m E Pn      2012/09/01 05:23:26.9  -0.1                          T                                        5059346
CABF  001.06 286.7 m E Sg      2012/09/01 05:23:40.5   0.1                          T                                Md 1.9  5059340
CABF  001.06 286.7 m E Sn      2012/09/01 05:23:41.7   0.2                          T                1.7  .20 Ml 1.8         5059345
HINF  001.58 342.4 m E Pn      2012/09/01 05:23:34.2   0.2                          T                                        5059344
HINF  001.58 342.4 m E Pg      2012/09/01 05:23:36.2   0.0                          T                                        5059343
HINF  001.58 342.4 m E Sn      2012/09/01 05:23:53.7  -0.1                          T                                        5059342
HINF  001.58 342.4 m E Sg      2012/09/01 05:23:56.5   0.0                          T                3.5  .28 Ml 2.2 Md 2.1  5059341
MBDF  001.68 199.5 m E Pn      2012/09/01 05:23:35.5  -0.1                          T                                        5059326
HAU   001.88 334.4 m E Pn      2012/09/01 05:23:37.4  -0.8                          T                                        5059339
HAU   001.88 334.4 m E Sn      2012/09/01 05:24:01.2   0.1                          T                                        5059338
HAU   001.88 334.4 m E Sg      2012/09/01 05:24:06.0   0.0                          T                2.9  .25 Ml 2.0         5059337
CDF   002.11 354.9 m E Pn      2012/09/01 05:23:41.5   0.2                          T                                        5059332
CDF   002.11 354.9 m E Sn      2012/09/01 05:24:06.6   0.1                          T                1.0  .33 Ml 1.8         5059331
THEF  002.19 331.5 m E Pn      2012/09/01 05:23:42.4   0.1                          T                                        5059336
THEF  002.19 331.5 m E Sn      2012/09/01 05:24:08.4   0.0                          T                2.0  .30 Ml 2.1         5059335
SFTF  002.55 318.7 m E Pn      2012/09/01 05:23:47.3   0.0 138.5  1.7               T                                        5059334
SFTF  002.55 318.7 m E Sn      2012/09/01 05:24:17.2   0.1                          T                1.3  .19 Ml 2.2         5059333
MEZF  002.77 323.0 m E Pn      2012/09/01 05:23:50.0  -0.2                          T                                        5059325

.
EVENT     282386
    Date      Time       Latitude Longitude    Depth    Ndef Nsta Gap    Mag1  N    Mag2  N    Mag3  N   Author         ID
       rms   OT_Error      Smajor Sminor Az        Err   mdist  Mdist     Err        Err        Err      Quality

2012/09/01 06:02:00.5     44.9539   11.0236      2.0      46   11 112  Ml 2.3 13  Md 0.9  1              bulletin    282486
                                                                                                         _ldg
      0.56   +-  0.13       3.3    2.3  101.48 +-  0.0    0.12   4.44   +-0.3      +-                    m i ke

NORTHERN ITALY
Sta     Dist  EvAz     Phase      Date       Time     TRes  Azim  AzRes  Slow  SRes Def   SNR       Amp   Per   Mag1   Mag2       ID
PGF   002.82 212.1 m E Pn      2012/09/01 06:02:44.5  -0.2                          T                                        5059201
SBF   002.79 248.3 m E Pn      2012/09/01 06:02:44.5   0.1                          T                                        5059200
SBF   002.79 248.3 m E Sn      2012/09/01 06:03:16.8   0.1                          T               10.7  .40 Ml 2.8         5059188
PGF   002.82 212.1 m E Sn      2012/09/01 06:03:17.5   0.2                          T                2.2  .26 Ml 2.6         5059187
LPG   003.07 281.7 m E Pn      2012/09/01 06:02:48.6   0.2                          T                                        5059196
LPG   003.07 281.7 m E Sn      2012/09/01 06:03:23.5   0.0                          T                1.6  .42 Ml 2.0         5059192
LPL   003.08 282.0 m E Pn      2012/09/01 06:02:48.8   0.3                          T                                        5059195
LPL   003.08 282.0 m E Sn      2012/09/01 06:03:23.4  -0.4                          T                 .6  .25 Ml 1.8         5059193
FRF   003.44 247.6 m E Pn      2012/09/01 06:02:53.3   0.2                          T                                        5059198
FRF   003.44 247.6 m E Sn      2012/09/01 06:03:32.3   0.3                          T                1.1  .18 Ml 2.4         5059190
LMR   003.63 245.1 m E Pn      2012/09/01 06:02:55.7   0.0                          T                                        5059199
LMR   003.63 245.1 m E Sn      2012/09/01 06:03:36.8   0.2                          T                1.6  .25 Ml 2.4         5059189
ORIF  003.65 271.3 m E Pn      2012/09/01 06:02:56.3   0.1                          T                                        5059194
ORIF  003.65 271.3 m E Sn      2012/09/01 06:03:37.4   0.1                          T                1.7  .33 Ml 2.3         5059186
SMRF  004.02 257.8 m E Pn      2012/09/01 06:03:01.1   0.1                          T                                        5059197
SMRF  004.02 257.8 m E Sn      2012/09/01 06:03:46.1   0.1                          T                 .4  .19 Ml 2.0         5059191
HINF  004.07 316.3 m E Pn      2012/09/01 06:03:01.4  -0.3                          T                                        5059185
HINF  004.07 316.3 m E Sn      2012/09/01 06:03:46.4  -0.6                          T                1.7  .26 Ml 2.5         5059184
CDF   004.31 324.6 m E Pn      2012/09/01 06:03:05.1   0.0                          T                                        5059202
CDF   004.31 324.6 m E Sn      2012/09/01 06:03:52.9  -0.2                          T                1.2  .26 Ml 2.5         5059181
HAU   004.44 315.0 m E Pn      2012/09/01 06:03:06.3  -0.5                          T                                        5059183
HAU   004.44 315.0 m E Sn      2012/09/01 06:03:56.2   0.2                          T                2.8  .24 Ml 2.6         5059182

.
EVENT     282422
    Date      Time       Latitude Longitude    Depth    Ndef Nsta Gap    Mag1  N    Mag2  N    Mag3  N   Author         ID
       rms   OT_Error      Smajor Sminor Az        Err   mdist  Mdist     Err        Err        Err      Quality

2012/09/01 16:45:53.5     44.0818    8.6740      2.0      46    8 079  Ml 1.9 10  Md 2.0  2              bulletin    282522
                                                                                                         _ldg
      0.30   +-  0.05       1.2     .8  172.97 +-  0.0    0.27   2.24   +-0.3      +-0.1                 m i ke

NORTHERN ITALY
Sta     Dist  EvAz     Phase      Date       Time     TRes  Azim  AzRes  Slow  SRes Def   SNR       Amp   Per   Mag1   Mag2       ID
SBF   000.92 256.7 m E Pg      2012/09/01 16:46:10.9   0.1                          T                                        5059840
SBF   000.92 256.7 m E Sg      2012/09/01 16:46:23.1   0.4                          T               17.5  .24 Ml 2.6 Md 1.9  5059839
MBDF  001.51 296.0 m E Pn      2012/09/01 16:46:19.9  -0.1                          T                                        5059833
MBDF  001.51 296.0 m E Pg      2012/09/01 16:46:21.8   0.0                          T                                        5062867
MBDF  001.51 296.0 m E Sg      2012/09/01 16:46:41.2  -0.1                          T                5.2  .34 Ml 2.2 Md 2.0  5059832
FRF   001.56 251.2 m E Pn      2012/09/01 16:46:20.5   0.0                          T                                        5059836
FRF   001.56 251.2 m E Pg      2012/09/01 16:46:22.3  -0.1                          T                                        5059835
FRF   001.56 251.2 m E Sn      2012/09/01 16:46:40.0   0.0                          T                 .9  .15 Ml 1.9         5059834
PGF   001.55 171.1 m E Pn      2012/09/01 16:46:20.5   0.0                          T                                        5059827
PGF   001.55 171.1 m E Sn      2012/09/01 16:46:40.3   0.3                          T                 .6  .18 Ml 1.8         5059826
LMR   001.74 245.3 m E Pn      2012/09/01 16:46:23.2   0.3                          T                                        5059838
LMR   001.74 245.3 m E Sn      2012/09/01 16:46:44.3   0.0                          T                1.2  .23 Ml 1.9         5059837
LPL   001.99 316.7 m E Pn      2012/09/01 16:46:26.7   0.1                          T                                        5059829
LPL   001.99 316.7 m E Sn      2012/09/01 16:46:50.9   0.2                          T                 .5  .25 Ml 1.5         5059828
ORIF  002.17 293.7 m E Pn      2012/09/01 16:46:29.0   0.2                          T                                        5059831
ORIF  002.17 293.7 m E Sn      2012/09/01 16:46:54.8   0.1                          T                 .3  .15 Ml 1.6         5059830
SMRF  002.24 268.4 m E Pg      2012/09/01 16:46:34.9  -0.1                          T                                        5062868
SMRF  002.24 268.4 m E Sg      2012/09/01 16:47:03.7  -0.1                          T                1.5  .31 Ml 1.9         5062869

.
