EVENT     271050
    Date      Time       Latitude Longitude    Depth    Ndef Nsta Gap    Mag1  N    Mag2  N    Mag3  N   Author         ID
       rms   OT_Error      Smajor Sminor Az        Err   mdist  Mdist     Err        Err        Err      Quality

2012/02/29 16:44:14.7     44.8321    9.0530      2.0      95   25 058  Ml 3.0 27  Md 2.8  2              js067245    271071

      0.92   +-  0.12       2.9    2.3  109.74 +-  0.0    0.29   7.61   +-0.3      +-0.0                 m i ke

NORTHERN ITALY
Sta     Dist  EvAz     Phase      Date       Time     TRes  Azim  AzRes  Slow  SRes Def   SNR       Amp   Per   Mag1   Mag2       ID
SBF   001.51 230.7 m E Pn      2012/02/29 16:44:41.7   0.6                          T   001.0                                4856752
SBF   001.51 230.7 m E Sg      2012/02/29 16:45:02.8   0.4                          T   001.0       63.1  .24 Ml 3.5 Md 2.8  4856753
MBDF  001.63 267.1 m E Pn      2012/02/29 16:44:42.5  -0.3                          T   001.0                                4856762
MBDF  001.63 267.1 m E Pg      2012/02/29 16:44:45.6   0.5                          T                                        4863832
MBDF  001.63 267.1 m E Sn      2012/02/29 16:45:03.0  -0.1                          T   001.0         52  .28 Ml 3.4         4856763
MBDF  001.63 267.1 m E Sg      2012/02/29 16:45:05.9  -0.3                          T               52.5  .28 Ml 3.4 Md 2.8  4863820
LPG   001.76 293.0 m E Pn      2012/02/29 16:44:44.7  -0.1                          T   001.0                                4856747
LPG   001.76 293.0 m E P       2012/02/29 16:44:45.7  -1.1                          T                                        4863819
LPG   001.76 293.0 m E Sn      2012/02/29 16:45:06.1  -0.4                          T   001.0       24.9  .27 Ml 3.1         4856748
LPL   001.78 293.4 m E Pn      2012/02/29 16:44:45.0   0.0                          T   001.0                                4856749
FRF   002.15 234.5 m E Pn      2012/02/29 16:44:50.4   0.7                          T   001.0                                4856736
FRF   002.15 234.5 m E Sn      2012/02/29 16:45:16.6   1.3                          T   001.0        8.2  .24 Ml 2.8         4856737
FRF   002.15 234.5 m E Sg      2012/02/29 16:45:21.1  -1.1                          T               22.3  .26 Ml 3.2         4863818
PGF   002.28 181.0 m E Pn      2012/02/29 16:44:51.6  -0.1                          T   001.0                                4856750
PGF   002.28 181.0 m E Sn      2012/02/29 16:45:18.2  -0.6                          T   001.0        7.9  .36 Ml 2.9         4856751
ORIF  002.26 273.3 m E P       2012/02/29 16:44:53.0  -0.7                          T   001.0                                4856765
ORIF  002.26 273.3 m E Sn      2012/02/29 16:45:18.0  -0.1                          T   001.0       22.3  .30 Ml 3.1         4856766
LMR   002.37 231.6 m E Pn      2012/02/29 16:44:53.1   0.4                          T   001.0                                4856742
LMR   002.37 231.6 m E Pg      2012/02/29 16:44:58.9   0.3                          T                                        4863817
LMR   002.37 231.6 m E Sn      2012/02/29 16:45:20.5  -0.1                          T   001.0       15.1  .28 Ml 3.0         4856743
LMR   002.37 231.6 m E Sg      2012/02/29 16:45:27.5  -1.6                          T   001.0        9.3  .23 Ml 2.9         4856744
CABF  002.73 311.6 m E Pn      2012/02/29 16:44:58.2   0.3                          T   001.0                                4856758
CABF  002.73 311.6 m E Sn      2012/02/29 16:45:28.9  -0.7                          T   001.0        6.1  .30 Ml 2.7         4856759
CABF  002.73 311.6 m E Sg      2012/02/29 16:45:40.6  -0.1                          T   001.0        7.4  .33 Ml 2.7         4856760
SMRF  002.64 252.3 m E Pn      2012/02/29 16:44:58.9   2.5                          T   001.0                                4856771
SMRF  002.64 252.3 m E Sn      2012/02/29 16:45:28.1   1.0                          T   001.0       11.1  .34 Ml 2.9         4856772
VIVF  003.12 272.0 m E Pn      2012/02/29 16:45:03.6   0.6                          T   001.0                                4856768
VIVF  003.12 272.0 m E Sn      2012/02/29 16:45:39.6   1.1                          T   001.0        4.2  .26 Ml 2.7         4856769
HINF  003.35 333.7 m E Pn      2012/02/29 16:45:06.2   0.0                          T   001.0                                4856761
HINF  003.35 333.7 m E Sn      2012/02/29 16:45:45.5   1.3                          T                9.2  .36 Ml 2.9         4863823
HAU   003.68 330.5 m E Pn      2012/02/29 16:45:10.6  -0.1                          T   001.0                                4856738
HAU   003.68 330.5 m E Sn      2012/02/29 16:45:51.0  -1.1                          T   001.0       18.0  .28 Ml 3.2         4856739
HAU   003.68 330.5 m E Sg      2012/02/29 16:46:10.6   0.4                          T   001.0        7.9  .34 Ml 2.7         4856740
CDF   003.78 341.8 m E Pn      2012/02/29 16:45:11.8  -0.3                          T   001.0                                4856735
LASF  003.80 260.3 m E P       2012/02/29 16:45:13.9  -1.7                          T   001.0                                4856741
LASF  003.80 260.3 m E Sn      2012/02/29 16:45:54.6  -0.2                          T                3.5  .27 Ml 2.7         4863814
SMF   004.07 298.3 m E Pn      2012/02/29 16:45:15.3  -0.7                          T   001.0                                4856754
SMF   004.07 298.3 m E P       2012/02/29 16:45:17.8  -1.7                          T                                        4863822
SMF   004.07 298.3 m E Sn      2012/02/29 16:46:01.0  -0.4                          T   001.0        3.8  .24 Ml 2.9         4856755
SMF   004.07 298.3 m E Sg      2012/02/29 16:46:22.2  -0.2                          T   001.0        3.9  .34 Ml 2.7         4856756
PAGF  004.37 329.6 m E Pn      2012/02/29 16:45:20.2   0.2                          T                                        4863824
PAGF  004.37 329.6 m E Sn      2012/02/29 16:46:10.0   1.5                          T                1.5  .41 Ml 2.3         4863815
LOR   004.36 305.8 m E Pn      2012/02/29 16:45:21.4   1.5 130.9  8.8               T                                        4863825
LOR   004.36 305.8 m E Sn      2012/02/29 16:46:08.0  -0.2                          T   001.0       16.2  .22 Ml 3.6         4856745
LOR   004.36 305.8 m E Sg      2012/02/29 16:46:31.7   0.4                          T   001.0        3.6  .40 Ml 2.7         4856746
AVF   004.44 298.2 m E Pn      2012/02/29 16:45:21.5   0.6                          T   001.0                                4856770
SSF   004.47 301.9 m E Pn      2012/02/29 16:45:23.5   2.2                          T   001.0                                4856757
BGF   004.68 293.8 m E Pn      2012/02/29 16:45:24.6   0.4                          T   001.0                                4856731
BGF   004.68 293.8 m E P       2012/02/29 16:45:27.0  -1.1                          T                                        4863821
BGF   004.68 293.8 m E Sn      2012/02/29 16:46:17.5   1.6                          T   001.0        8.4  .38 Ml 3.1         4856732
BGF   004.68 293.8 m E Sg      2012/02/29 16:46:40.3  -0.9                          T   001.0        4.1  .32 Ml 2.9         4856733
CAF   004.97 273.5 m E Pn      2012/02/29 16:45:29.5   1.3                          T   001.0                                4856734
MTLF  005.14 255.6 m E P       2012/02/29 16:45:32.3  -2.4                          T   001.0                                4856764
SJPF  007.61 260.6 m E Pn      2012/02/29 16:46:04.6   0.5                          T   001.0                                4856767
TCF   005.02 289.3 m E Sn      2012/02/29 16:46:22.9  -1.1                          T                3.8  .38 Ml 2.9         4863816

.
EVENT     271051
    Date      Time       Latitude Longitude    Depth    Ndef Nsta Gap    Mag1  N    Mag2  N    Mag3  N   Author         ID
       rms   OT_Error      Smajor Sminor Az        Err   mdist  Mdist     Err        Err        Err      Quality

2012/02/29 17:21:09.0     44.4994    6.7465      2.0      57    9 045  Ml 2.0  6  Md 1.9  4              js067245    271072

      1.37   +-  0.15       3.5    2.8   59.08 +-  0.0    0.05   4.74   +-0.2      +-0.1                 m i ke

FRANCE
Sta     Dist  EvAz     Phase      Date       Time     TRes  Azim  AzRes  Slow  SRes Def   SNR       Amp   Per   Mag1   Mag2       ID
MBDF  000.23 004.5 m E Pg      2012/02/29 17:21:13.4  -0.3                          T                                        4863626
MBDF  000.23 004.5 m E Sg      2012/02/29 17:21:17.1   0.3                          T               29.0  .32        Md 2.0  4863642
ORIF  000.75 304.4 m E Pg      2012/02/29 17:21:21.8  -1.3                          T                                        4863641
ORIF  000.75 304.4 m E Sg      2012/02/29 17:21:31.2  -1.7                          T                5.1  .20        Md 1.9  4863640
SBF   000.81 141.8 m E Pg      2012/02/29 17:21:24.3   0.1                          T                                        4863644
FRF   000.94 184.4 m E Pg      2012/02/29 17:21:26.2  -0.4                          T                                        4863643
FRF   000.94 184.4 m E P       2012/02/29 17:21:27.6  -1.1                          T                                        4863629
FRF   000.94 184.4 m E Sg      2012/02/29 17:21:38.1  -0.8                          T                4.0  .20 Ml 2.1 Md 2.0  4863645
FRF   000.94 184.4 m E Sn      2012/02/29 17:21:40.0  -0.8                          T                                        4863672
SMRF  000.99 238.5 m E Pn      2012/02/29 17:21:27.7  -0.6                          T                                        4863634
SMRF  000.99 238.5 m E Sg      2012/02/29 17:21:39.7  -0.7                          T                5.9  .36 Ml 2.0         4863633
LPG   001.00 000.2 m E Pg      2012/02/29 17:21:27.8  -0.2                          T                                        4863636
LPG   001.00 000.2 m E P       2012/02/29 17:21:29.9  -0.4                          T                                        4863635
LPG   001.00 000.2 m E Sg      2012/02/29 17:21:40.8  -0.2                          T                2.0  .22 Ml 1.8         4863637
LPL   001.02 359.4 m E Pg      2012/02/29 17:21:28.1  -0.2                          T                                        4863639
LPL   001.02 359.4 m E Sg      2012/02/29 17:21:41.9   0.4                          T                2.6  .30 Ml 1.8 Md 1.8  4863638
LMR   001.18 188.5 m E P       2012/02/29 17:21:31.5  -1.0                          T                                        4863628
LMR   001.18 188.5 m E Sg      2012/02/29 17:21:45.6  -0.6                          T                4.6  .24 Ml 2.2         4863627
VIVF  001.52 284.3 m E Pn      2012/02/29 17:21:35.5   0.0                          T                                        4863630
VIVF  001.52 284.3 m E Pg      2012/02/29 17:21:36.5  -0.8                          T                                        4863631
VIVF  001.52 284.3 m E Sg      2012/02/29 17:21:55.0  -2.0                          T                2.2  .29 Ml 1.9         4863632

.
EVENT     271071
    Date      Time       Latitude Longitude    Depth    Ndef Nsta Gap    Mag1  N    Mag2  N    Mag3  N   Author         ID
       rms   OT_Error      Smajor Sminor Az        Err   mdist  Mdist     Err        Err        Err      Quality

2012/02/29 17:35:42.3     42.3354     .8167      2.0      13    2 064  Ml 1.7  1                         js067245    271092

      0.41   +-  0.10       2.0    1.6   44.15 +-  0.0    0.03   1.69   +-                               m i ke

PYRENEES
Sta     Dist  EvAz     Phase      Date       Time     TRes  Azim  AzRes  Slow  SRes Def   SNR       Amp   Per   Mag1   Mag2       ID
EPF   000.78 333.3 m E Pg      2012/02/29 17:35:57.0  -0.1                          T                                        4863675
EPF   000.78 333.3 m E Sg      2012/02/29 17:36:07.2   0.0                          T                1.4  .22                4863676
SJPF  001.69 298.0 m E Pg      2012/02/29 17:36:14.1   0.2                          T                                        4863673
SJPF  001.69 298.0 m E Sg      2012/02/29 17:36:35.5  -0.2                          T                1.2  .31 Ml 1.7         4863674

.
EVENT     271052
    Date      Time       Latitude Longitude    Depth    Ndef Nsta Gap    Mag1  N    Mag2  N    Mag3  N   Author         ID
       rms   OT_Error      Smajor Sminor Az        Err   mdist  Mdist     Err        Err        Err      Quality

2012/02/29 22:13:03.0     44.8003    9.0304      2.0      98   22 071  Ml 2.6 22  Md 2.8  3              js067245    271073

      0.80   +-  0.09       2.2    1.9   32.98 +-  0.0    0.30   5.12   +-0.3      +-0.1                 m i ke

NORTHERN ITALY
Sta     Dist  EvAz     Phase      Date       Time     TRes  Azim  AzRes  Slow  SRes Def   SNR       Amp   Per   Mag1   Mag2       ID
SBF   001.48 231.3 m E P       2012/02/29 22:13:30.1  -0.8                          T   001.0                                4856840
SBF   001.48 231.3 m E Sn      2012/02/29 22:13:46.8  -1.1                          T   001.0        8.3  .22 Ml 2.6         4856842
SBF   001.48 231.3 m E Sg      2012/02/29 22:13:51.0   1.2                          T               18.1  .22 Ml 2.9 Md 2.8  4863898
MBDF  001.61 268.2 m E Pn      2012/02/29 22:13:30.9   0.0                          T   001.0                                4856848
MBDF  001.61 268.2 m E Pg      2012/02/29 22:13:33.9   0.7                          T                                        4863894
MBDF  001.61 268.2 m E Sn      2012/02/29 22:13:49.4  -1.7                          T   001.0       20.1  .36 Ml 2.8 Md 2.7  4856849
MBDF  001.61 268.2 m E Sg      2012/02/29 22:13:54.3   0.3                          T               18.6  .32 Ml 2.9         4863858
LPL   001.78 294.6 m E Pn      2012/02/29 22:13:33.4   0.1                          T   001.0                                4856836
LPL   001.78 294.6 m E Sn      2012/02/29 22:13:53.1  -2.0                          T   001.0       10.2  .32 Ml 2.7 Md 2.7  4856837
LPG   001.76 294.2 m E Pn      2012/02/29 22:13:34.4   1.3                          T   001.0                                4856835
LPG   001.76 294.2 m E Sn      2012/02/29 22:13:53.7  -1.1                          T                 10  .24 Ml 2.8         4863896
FRF   002.12 235.0 m E Pn      2012/02/29 22:13:38.1   0.4                          T   001.0                                4856826
FRF   002.12 235.0 m E P       2012/02/29 22:13:39.7  -0.3                          T                                        4863890
FRF   002.12 235.0 m E Sg      2012/02/29 22:14:11.0   1.4                          T                                        4863899
PGF   002.25 180.6 m E Pn      2012/02/29 22:13:38.9  -0.7                          T   001.0                                4856838
PGF   002.25 180.6 m E Sn      2012/02/29 22:14:05.5  -0.9                          T   001.0        1.8  .22 Ml 2.4         4856839
LMR   002.33 232.0 m E Pn      2012/02/29 22:13:40.9   0.3                          T   001.0                                4856831
LMR   002.33 232.0 m E Pg      2012/02/29 22:13:47.0   0.7                          T   001.0                                4856832
LMR   002.33 232.0 m E Sg      2012/02/29 22:14:16.0   0.6                          T   001.0        4.3  .28 Ml 2.5         4856833
ORIF  002.24 274.1 m E P       2012/02/29 22:13:41.9   0.0                          T   001.0                                4856851
ORIF  002.24 274.1 m E Sg      2012/02/29 22:14:14.3   0.6                          T   001.0        6.9  .32 Ml 2.6         4856852
CABF  002.74 312.3 m E Pn      2012/02/29 22:13:45.3  -1.0                          T   001.0                                4856845
CABF  002.74 312.3 m E Pg      2012/02/29 22:13:53.6  -0.4                          T                                        4863892
CABF  002.74 312.3 m E Sn      2012/02/29 22:14:17.4  -0.7                          T   001.0        2.3  .24 Ml 2.3         4856846
SMRF  002.61 252.8 m E P       2012/02/29 22:13:46.7  -0.4                          T   001.0                                4856855
SMRF  002.61 252.8 m E Sg      2012/02/29 22:14:25.3   0.3                          T                3.7  .25 Ml 2.5         4863897
VIVF  003.10 272.6 m E Pn      2012/02/29 22:13:52.1   0.9                          T   001.0                                4856853
VIVF  003.10 272.6 m E Pg      2012/02/29 22:14:01.1   0.6                          T                                        4863895
VIVF  003.10 272.6 m E Sn      2012/02/29 22:14:25.7  -0.8                          T   001.0        1.2  .20 Ml 2.2         4856854
HINF  003.37 334.2 m E Pn      2012/02/29 22:13:54.4  -0.5                          T                                        4863861
HINF  003.37 334.2 m E Sn      2012/02/29 22:14:31.3  -1.8                          T   001.0        3.8  .34 Ml 2.6         4856847
HAU   003.70 330.9 m E Pn      2012/02/29 22:13:58.6  -0.7                          T   001.0                                4856828
HAU   003.70 330.9 m E Sn      2012/02/29 22:14:39.8  -1.1                          T   001.0        5.9  .30 Ml 2.7         4856829
CDF   003.81 342.1 m E Pn      2012/02/29 22:14:00.0  -0.9                          T   001.0                                4856825
LASF  003.78 260.8 m E Pn      2012/02/29 22:14:00.8   0.5                          T                                        4863859
LASF  003.78 260.8 m E P       2012/02/29 22:14:02.8  -0.8                          T                                        4863891
SMF   004.08 298.7 m E Pn      2012/02/29 22:14:06.5   2.1                          T   001.0                                4856843
SMF   004.08 298.7 m E Sn      2012/02/29 22:14:49.1  -0.7                          T                                        4863893
LOR   004.37 306.3 m E Pn      2012/02/29 22:14:08.1  -0.2 126.2  3.7               T                                        4863862
LOR   004.37 306.3 m E Sn      2012/02/29 22:14:56.5  -0.3                          T   001.0        6.1  .24 Ml 3.1         4856834
AVF   004.44 298.6 m E Pn      2012/02/29 22:14:10.0   0.7                          T   001.0                                4856821
AVF   004.44 298.6 m E Sn      2012/02/29 22:14:57.3  -1.2                          T   001.0         .6  .25 Ml 2.1         4856822
AVF   004.44 298.6 m E Sg      2012/02/29 22:15:22.1  -0.1                          T                                        4863860
BGF   004.68 294.3 m E Pn      2012/02/29 22:14:12.5   0.0                          T   001.0                                4856823
BGF   004.68 294.3 m E Sn      2012/02/29 22:15:02.6  -1.6                          T   001.0        2.7  .36 Ml 2.7         4856824
MTLF  005.12 255.8 m E P       2012/02/29 22:14:20.6  -2.1                          T   001.0                                4856850
TCF   005.02 289.7 m E Sn      2012/02/29 22:15:12.8   0.4                          T   001.0         .7  .21 Ml 2.5         4856844
SSF   004.47 302.4 m E Sg      2012/02/29 22:15:23.2   0.2                          T                1.2  .32 Ml 2.4         4863883

.
