BEGIN GSE2.0
MSG_TYPE DATA
MSG_ID 17-JUL-1209:01:37  FRA_NDC
E-MAIL
DATA_TYPE BULLETIN
Reviewed Bulletin (REB) # P2012-027  from French NDC for regional phases     PERIOD 04 JUL 2012 TO 10 JUL 2012 Cenalt JP S
EVENT     279059
    Date      Time       Latitude Longitude    Depth    Ndef Nsta Gap    Mag1  N    Mag2  N    Mag3  N   Author         ID
       rms   OT_Error      Smajor Sminor Az        Err   mdist  Mdist     Err        Err        Err      Quality

2012/07/04 01:32:53.6     36.1847   -9.7135     30.0      38    3 280  Ml 3.0  3                         bulletin    279159
                                                                                                         _ldg
      1.33   +-  0.71      13.9    8.9   32.94 +-  0.0    1.18  10.33   +-0.3                            m i ke

WEST OF GIBRALTAR
Sta     Dist  EvAz     Phase      Date       Time     TRes  Azim  AzRes  Slow  SRes Def   SNR       Amp   Per   Mag1   Mag2       ID
SJPF  009.52 040.8 m E P       2012/07/04 01:35:11.7  -0.1                          T                                        5018040
SJPF  009.52 040.8 m E Sn      2012/07/04 01:36:46.9   0.6                          T                 .4  .26 Ml 2.9         5027320
ETSF  009.74 043.7 m E P       2012/07/04 01:35:14.7  -0.2                          T                                        5018039
ETSF  009.74 043.7 m E Sn      2012/07/04 01:36:51.5   0.0                          T                 .8  .48 Ml 2.9         5027319
EPF   010.33 045.5 m E P       2012/07/04 01:35:23.7   0.7                          T                                        5018038
EPF   010.33 045.5 m E Sn      2012/07/04 01:37:05.5  -0.2                          T                1.5  .39 Ml 3.3         5027318

.
EVENT     279078
    Date      Time       Latitude Longitude    Depth    Ndef Nsta Gap    Mag1  N    Mag2  N    Mag3  N   Author         ID
       rms   OT_Error      Smajor Sminor Az        Err   mdist  Mdist     Err        Err        Err      Quality

2012/07/04 07:44:17.6     35.1720   -3.0678     10.0 f    57    3 247  Ml 3.3  3                         bulletin    279178
                                                                                                         _ldg
      1.24   +-  0.51      10.9    5.5  166.79 +-  0.0    0.16   8.74   +-0.1                            m i ke

STRAIT OF GIBRALTAR
Sta     Dist  EvAz     Phase      Date       Time     TRes  Azim  AzRes  Slow  SRes Def   SNR       Amp   Per   Mag1   Mag2       ID
ETSF  007.96 013.4 m E P       2012/07/04 07:46:16.5   0.1                          T                                        5018358
ETSF  007.96 013.4 m E Sn      2012/07/04 07:47:35.0  -0.8                          T                3.7  .67 Ml 3.2         5018405
SJPF  008.06 009.7 m E P       2012/07/04 07:46:19.0   1.3                          T                                        5018359
SJPF  008.06 009.7 m E Sn      2012/07/04 07:47:37.6  -0.4                          T                3.9  .48 Ml 3.3         5018406
EPF   008.28 017.6 m E P       2012/07/04 07:46:20.5  -0.3                          T                                        5018357
EPF   008.28 017.6 m E Sn      2012/07/04 07:47:43.1  -0.3                          T                3.5  .46 Ml 3.4         5018404

.
EVENT     279072
    Date      Time       Latitude Longitude    Depth    Ndef Nsta Gap    Mag1  N    Mag2  N    Mag3  N   Author         ID
       rms   OT_Error      Smajor Sminor Az        Err   mdist  Mdist     Err        Err        Err      Quality

2012/07/04 08:08:06.3     43.5138    6.6142       .0 f    25    9 143  Ml 2.0  6  Md 1.9  4              bulletin    279172
                                                                                                         _ldg
      0.30   +-  0.13       2.5    1.6  162.68 +-  0.0    0.05   2.07   +-0.2      +-0.3                 m i km

NEAR SOUTH COAST OF FRANCE
Sta     Dist  EvAz     Phase      Date       Time     TRes  Azim  AzRes  Slow  SRes Def   SNR       Amp   Per   Mag1   Mag2       ID
FRF   000.05 026.8 m E Pg      2012/07/04 08:08:07.2  -0.4                          T                                        5018227
FRF   000.05 026.8 m E Sg      2012/07/04 08:08:08.2  -0.3                          T              497.2  .20        Md 1.4  5018226
LMR   000.20 203.1 m E Pg      2012/07/04 08:08:10.0  -0.4                          T                                        5018225
LMR   000.20 203.1 m E Sg      2012/07/04 08:08:13.1  -0.2                          T              190.5  .60        Md 1.9  5018224
SBF   000.69 059.3 m E Pg      2012/07/04 08:08:19.7   0.1                          T                                        5018221
SBF   000.69 059.3 m E Sn      2012/07/04 08:08:33.2   0.4                          T               41.7  .24        Md 2.0  5018220
SMRF  000.88 301.9 m E Pg      2012/07/04 08:08:23.4   0.3                          T                                        5018223
SMRF  000.88 301.9 m E Sg      2012/07/04 08:08:35.0   0.1                          T               11.4  .37 Ml 2.2 Md 2.2  5018222
MBDF  001.22 005.3 m E Pg      2012/07/04 08:08:29.6   0.1                          T                                        5018219
MBDF  001.22 005.3 m E Sg      2012/07/04 08:08:45.3  -0.1                          T                3.3  .28 Ml 2.0         5018218
ORIF  001.50 339.6 m E Pg      2012/07/04 08:08:34.8   0.2                          T                                        5018217
ORIF  001.50 339.6 m E Sg      2012/07/04 08:08:54.4   0.2                          T                3.4  .25 Ml 2.2         5018216
VIVF  001.94 314.5 m E Pn      2012/07/04 08:08:38.9   0.0                          T                                        5018231
VIVF  001.94 314.5 m E Sn      2012/07/04 08:09:02.0  -0.6                          T                1.7  .26 Ml 2.0         5018230
LASF  002.07 286.7 m E Pn      2012/07/04 08:08:41.0   0.3                          T                                        5018229
LASF  002.07 286.7 m E Sn      2012/07/04 08:09:06.5   0.6                          T                  1  .28 Ml 1.8         5018228
LPG   001.99 002.8 m E Pg      2012/07/04 08:08:43.3  -0.5                          T                                        5018233
LPG   001.99 002.8 m E Sg      2012/07/04 08:09:09.5   0.0                          T                1.5  .24 Ml 2.0         5018232

.
EVENT     279079
    Date      Time       Latitude Longitude    Depth    Ndef Nsta Gap    Mag1  N    Mag2  N    Mag3  N   Author         ID
       rms   OT_Error      Smajor Sminor Az        Err   mdist  Mdist     Err        Err        Err      Quality

2012/07/04 09:16:19.9     47.9113   -1.5154       .0 f    14    7 126  Ml 2.2  4  Md 2.4  2              bulletin    279179
                                                                                                         _ldg
      0.65   +-  0.12       3.0    1.7  171.33 +-  0.0    0.65   1.61   +-0.2      +-0.1                 m i km

FRANCE
Sta     Dist  EvAz     Phase      Date       Time     TRes  Azim  AzRes  Slow  SRes Def   SNR       Amp   Per   Mag1   Mag2       ID
GRR   000.65 042.4 m E Pg      2012/07/04 09:16:32.7   0.3                          T   001.0                                5018411
GRR   000.65 042.4 m E Sg      2012/07/04 09:16:41.2   0.1                          T   001.0        6.5  .20        Md 2.4  5018412
SGMF  000.78 296.6 m E Pg      2012/07/04 09:16:35.0   0.2                          T   001.0                                5018407
SGMF  000.78 296.6 m E Sg      2012/07/04 09:16:45.0  -0.2                          T   001.0       28.7  .80        Md 2.3  5018408
FLN   001.10 038.6 m E Pg      2012/07/04 09:16:40.9   0.2 213.2  -6.2              T   001.0                                5018409
FLN   001.10 038.6 m E Sn      2012/07/04 09:16:55.5  -0.6                          T   001.0        8.8  .36 Ml 2.1         5018410
QUIF  001.11 270.9 m E Pg      2012/07/04 09:16:41.0   0.0                          T   001.0                                5018419
QUIF  001.11 270.9 m E Sg      2012/07/04 09:16:55.5   0.0                          T   001.0        8.4  .24 Ml 2.4         5018422
LDF   001.15 053.2 m E Pg      2012/07/04 09:16:41.4  -0.3                          T   001.0                                5018413
LDF   001.15 053.2 m E Sg      2012/07/04 09:16:56.9   0.0                          T   001.0        3.2  .20 Ml 2.1         5018414
ROSF  001.25 290.5 m E Pg      2012/07/04 09:16:43.2  -0.4                          T                                        5018425
ROSF  001.25 290.5 m E Sg      2012/07/04 09:17:00.2   0.3                          T   001.0        6.8  .24 Ml 2.4         5018423
MFF   001.61 144.0 m E Pn      2012/07/04 09:16:48.1   0.1                          T                                        5018424
MFF   001.61 144.0 m E Sn      2012/07/04 09:17:08.5   0.1                          T   001.0                                5018415

.
EVENT     279088
    Date      Time       Latitude Longitude    Depth    Ndef Nsta Gap    Mag1  N    Mag2  N    Mag3  N   Author         ID
       rms   OT_Error      Smajor Sminor Az        Err   mdist  Mdist     Err        Err        Err      Quality

2012/07/04 12:20:22.7     42.8640    -.8361      2.0       5    3 230  Ml 1.5  1  Md 1.5  2              bulletin    279188
                                                                                                         _ldg
      0.08   +-  0.16       6.1     .8   14.12 +-  0.0    0.21   0.88   +-         +-0.0                 m i ke

PYRENEES
Sta     Dist  EvAz     Phase      Date       Time     TRes  Azim  AzRes  Slow  SRes Def   SNR       Amp   Per   Mag1   Mag2       ID
ETSF  000.21 080.3 m E Pg      2012/07/04 12:20:26.9   0.0                          T                                        5018505
ETSF  000.21 080.3 m E Sg      2012/07/04 12:20:29.7  -0.1                          T                6.9  .18        Md 1.5  5018502
SJPF  000.38 311.3 m E Pg      2012/07/04 12:20:30.0   0.0                          T                                        5018504
SJPF  000.38 311.3 m E Sg      2012/07/04 12:20:35.0  -0.1                          T                2.9  .22        Md 1.5  5018503
EPF   000.88 078.7 m E Sg      2012/07/04 12:20:50.9   0.1                          T                1.3  .26 Ml 1.5         5027362

.
EVENT     279089
    Date      Time       Latitude Longitude    Depth    Ndef Nsta Gap    Mag1  N    Mag2  N    Mag3  N   Author         ID
       rms   OT_Error      Smajor Sminor Az        Err   mdist  Mdist     Err        Err        Err      Quality

2012/07/04 13:27:15.0     38.4388   15.1959    159.0 f   272   38 018  Ml 3.7  5                         bulletin    279189
                                                                                                         _ldg
      2.18   +-  0.19       5.1    4.7   62.07 +-  0.0    0.17  58.79   +-0.1                            m i ke

SICILY, ITALY
Sta     Dist  EvAz     Phase      Date       Time     TRes  Azim  AzRes  Slow  SRes Def   SNR       Amp   Per   Mag1   Mag2       ID
PGF   006.26 313.0 m E Pn      2012/07/04 13:28:45.4   0.0                          T                                        5018938
PGF   006.26 313.0 m E Sn      2012/07/04 13:29:52.6  -0.6                          T               31.0 1.22 Ml 3.8         5018899
SBF   007.98 315.3 m E Pn      2012/07/04 13:29:07.6  -0.7                          T                                        5018937
SBF   007.98 315.3 m E Sn      2012/07/04 13:30:32.7  -0.8                          T                                        5018900
LMR   008.20 309.4 m E Pn      2012/07/04 13:29:09.5  -1.7                          T                                        5018936
LMR   008.20 309.4 m E Sn      2012/07/04 13:30:37.3  -1.2                          T               17.1  .86 Ml 3.8         5018898
FRF   008.24 311.1 m E Pn      2012/07/04 13:29:10.6  -1.2                          T                                        5018935
FRF   008.24 311.1 m E Sn      2012/07/04 13:30:37.7  -2.0                          T                7.0  .51 Ml 3.6         5018897
MBDF  008.90 317.6 m E Pn      2012/07/04 13:29:21.2   0.2                          T                                        5018930
SMRF  009.12 310.4 m E Pn      2012/07/04 13:29:23.4  -0.3                          T                                        5018934
SMRF  009.12 310.4 m E Sn      2012/07/04 13:30:59.3  -1.0                          T                8.0  .78 Ml 3.6         5018896
LPG   009.45 321.0 m E Pn      2012/07/04 13:29:28.4   0.0                          T                                        5018933
LPL   009.47 321.0 m E Pn      2012/07/04 13:29:29.1   0.4                          T                                        5018932
ORIF  009.51 315.9 m E Pn      2012/07/04 13:29:29.4   0.3                          T                                        5018931
LASF  010.22 307.0 m E Pn      2012/07/04 13:29:36.1  -2.4                          T                                        5018928
VIVF  010.15 312.5 m E Pn      2012/07/04 13:29:38.2   0.6                          T                                        5018929
CABF  010.57 323.5 m E Pn      2012/07/04 13:29:41.9  -1.5                          T                                        5018911
MTLF  010.97 300.6 m E Pn      2012/07/04 13:29:45.7  -3.0                          T                                        5018927
HINF  011.17 329.7 m E Pn      2012/07/04 13:29:48.4  -3.0                          T                                        5018910
CDF   011.50 332.6 m E Pn      2012/07/04 13:29:52.6  -3.4                          T                                        5018905
HAU   011.53 328.9 m E Pn      2012/07/04 13:29:52.7  -3.5                          T                                        5018909
SMF   011.71 318.1 m E Pn      2012/07/04 13:29:57.3  -1.4                          T                                        5018920
LANF  011.81 335.5 m E Pn      2012/07/04 13:29:58.1  -1.9                          T                                        5018904
THEF  011.85 328.6 m E Pn      2012/07/04 13:29:59.9  -0.6                          T                                        5018908
SFTF  012.24 326.2 m E Pn      2012/07/04 13:30:03.1  -2.7 142.3  3.1               T                                        5018907
PAGF  012.22 328.9 m E Pn      2012/07/04 13:30:03.4  -2.1                          T                                        5018906
LOR   012.12 320.4 m E Pn      2012/07/04 13:30:03.5  -0.6 134.8  2.2               T                                        5018901
EPF   012.16 296.8 m E Pn      2012/07/04 13:30:04.1  -0.8                          T                                        5018926
SSF   012.16 318.9 m E Pn      2012/07/04 13:30:04.4  -0.3                          T                                        5018918
BGF   012.19 315.7 m E Pn      2012/07/04 13:30:04.5  -0.7                          T                                        5018921
AVF   012.06 317.6 m E Pn      2012/07/04 13:30:05.0   1.6                          T                                        5018919
RJF   012.28 308.3 m E Pn      2012/07/04 13:30:05.9  -0.5                          T                                        5018922
LFF   012.60 305.6 m E Pn      2012/07/04 13:30:08.8  -1.8                          T                                        5018923
ETSF  012.76 295.4 m E Pn      2012/07/04 13:30:12.2  -0.7                          T                                        5018925
SJPF  013.29 295.8 m E Pn      2012/07/04 13:30:21.2   1.2                          T                                        5018924
GIVF  013.81 330.9 m E Pn      2012/07/04 13:30:23.5  -3.6                          T                                        5018903
BAIF  014.02 329.5 m E Pn      2012/07/04 13:30:25.6  -4.2                          T                                        5018902
MFF   013.93 310.7 m E Pn      2012/07/04 13:30:28.9   0.2                          T                                        5018917
LDF   015.02 317.4 m E Pn      2012/07/04 13:30:39.3  -4.2                          T                                        5018913
FLN   015.31 317.4 m E Pn      2012/07/04 13:30:42.1  -5.4                          T                                        5018912
SGMF  016.18 313.0 m E Pn      2012/07/04 13:30:48.3 -10.9                          T                                        5018915
QUIF  016.37 311.2 m E Pn      2012/07/04 13:30:51.3 -10.4                          T                                        5018916
ROSF  016.64 312.4 m E Pn      2012/07/04 13:30:53.3 -12.1                          T                                        5018914

.
EVENT     279112
    Date      Time       Latitude Longitude    Depth    Ndef Nsta Gap    Mag1  N    Mag2  N    Mag3  N   Author         ID
       rms   OT_Error      Smajor Sminor Az        Err   mdist  Mdist     Err        Err        Err      Quality

2012/07/04 15:42:09.9     41.0197    1.2907      5.0 f    33    4 097  Ml 2.2  5                         bulletin    279212
                                                                                                         _ldg
      0.65   +-  0.15       2.5    2.1  130.06 +-  0.0    0.31   5.96   +-0.7                            m i ke

SPAIN
Sta     Dist  EvAz     Phase      Date       Time     TRes  Azim  AzRes  Slow  SRes Def   SNR       Amp   Per   Mag1   Mag2       ID
EPF   002.13 340.9 m E Pg      2012/07/04 15:42:49.9   0.3                          T                                        5019370
EPF   002.13 340.9 m E Sg      2012/07/04 15:43:18.0   1.0                          T                1.1  .20 Ml 2.0         5019369
ETSF  002.33 324.3 m E Pg      2012/07/04 15:42:53.2   0.0                          T                                        5019368
ETSF  002.33 324.3 m E Sg      2012/07/04 15:43:24.6   1.4                          T                1.1  .28 Ml 1.9         5019367
MTLF  002.42 016.2 m E Pg      2012/07/04 15:42:54.1  -0.7                          T                                        5019364
MTLF  002.42 016.2 m E Sg      2012/07/04 15:43:26.2   0.3                          T                 .6  .28 Ml 1.7         5019363
SJPF  002.81 319.0 m E Pg      2012/07/04 15:43:02.1   0.1                          T                                        5019366
SJPF  002.81 319.0 m E Sg      2012/07/04 15:43:38.9   0.9                          T                1.3  .29 Ml 2.1         5019365

.
