EVENT     264852
    Date      Time       Latitude Longitude    Depth    Ndef Nsta Gap    Mag1  N    Mag2  N    Mag3  N   Author         ID
       rms   OT_Error      Smajor Sminor Az        Err   mdist  Mdist     Err        Err        Err      Quality

2011/10/08 22:04:31.7     43.9504   11.9352     10.0 f    44   13 059  Ml 2.8  4  Md 2.6  1              js067245    264872

      0.66   +-  0.11       2.8    2.5   15.78 +-  0.0    0.08   5.62   +-0.2      +-                    m i ke

CENTRAL ITALY
Sta     Dist  EvAz     Phase      Date       Time     TRes  Azim  AzRes  Slow  SRes Def   SNR       Amp   Per   Mag1   Mag2       ID
PGF   002.56 237.9 m E Pn      2011/10/08 22:05:12.3   0.7                          T                                        4768562
PGF   002.56 237.9 m E Sn      2011/10/08 22:05:42.1   1.1                          T                4.6  .28 Ml 2.8 Md 2.6  4768552
SBF   003.25 270.0 m E Pn      2011/10/08 22:05:22.2   1.2                          T                                        4768558
SBF   003.25 270.0 m E Sn      2011/10/08 22:05:58.2   0.8                          T                4.9  .29 Ml 2.7         4768553
FRF   003.85 266.0 m E Pn      2011/10/08 22:05:30.2   1.2                          T                                        4768560
FRF   003.85 266.0 m E Sn      2011/10/08 22:06:13.1   1.5                          T                4.1  .48 Ml 2.6         4768544
LMR   003.99 263.0 m E Pn      2011/10/08 22:05:30.7  -0.1                          T                                        4768559
LMR   003.99 263.0 m E Sn      2011/10/08 22:06:15.0   0.1                          T                                        4768549
MBDF  003.79 283.6 m E P       2011/10/08 22:05:32.3   0.6                          T                                        4768556
LPG   004.01 294.5 m E P       2011/10/08 22:05:35.4   0.4                          T                                        4768550
LPL   004.02 294.7 m E Pn      2011/10/08 22:05:36.0   4.3                          T                                        4768561
ORIF  004.44 284.7 m E Pn      2011/10/08 22:05:37.4   0.1                          T                                        4768551
ORIF  004.44 284.7 m E P       2011/10/08 22:05:41.4   0.4                          T                                        4768555
SMRF  004.59 272.5 m E Pn      2011/10/08 22:05:41.7   2.5                          T                                        4768554
HINF  005.25 319.2 m E P       2011/10/08 22:05:51.8  -0.5                          T                                        4768545
VIVF  005.28 282.4 m E P       2011/10/08 22:05:52.5  -0.3                          T                                        4768557
CDF   005.51 325.7 m E Pn      2011/10/08 22:05:54.5   2.7                          T                                        4768548
CDF   005.51 325.7 m E Sn      2011/10/08 22:06:51.8   0.4                          T                6.0  .57 Ml 3.1         4768578
HAU   005.62 318.1 m E Pn      2011/10/08 22:05:56.0   2.8                          T                                        4768546
HAU   005.62 318.1 m E P       2011/10/08 22:05:57.5  -0.1                          T                                        4768547

.
EVENT     264847
    Date      Time       Latitude Longitude    Depth    Ndef Nsta Gap    Mag1  N    Mag2  N    Mag3  N   Author         ID
       rms   OT_Error      Smajor Sminor Az        Err   mdist  Mdist     Err        Err        Err      Quality

2011/10/08 23:44:01.7     41.5895   -6.4542      2.0      86    4 044  Ml 2.6  4                         js067245    264867

      0.89   +-  0.08       1.8    1.8  176.73 +-  0.0    0.30   6.89   +-0.1                            m i ke

PORTUGAL
Sta     Dist  EvAz     Phase      Date       Time     TRes  Azim  AzRes  Slow  SRes Def   SNR       Amp   Per   Mag1   Mag2       ID
SJPF  004.16 066.8 m E Pn      2011/10/08 23:45:05.2   1.0                          T                                        4771629
SJPF  004.16 066.8 m E Sg      2011/10/08 23:46:11.0  -1.2                          T                1.4  .21 Ml 2.5         4771628
ETSF  004.57 071.4 m E Pn      2011/10/08 23:45:10.9   1.1                          T                                        4768582
ETSF  004.57 071.4 m E Sn      2011/10/08 23:46:00.1  -0.2                          T                                        4771624
ETSF  004.57 071.4 m E Sg      2011/10/08 23:46:24.6  -0.2                          T                1.6  .31 Ml 2.5         4771627
EPF   005.24 071.8 m E Pn      2011/10/08 23:45:18.6  -0.3                          T                                        4768581
EPF   005.24 071.8 m E P       2011/10/08 23:45:21.4  -1.7                          T                                        4769679
EPF   005.24 071.8 m E Sn      2011/10/08 23:46:16.1  -0.2                          T                                        4771625
EPF   005.24 071.8 m E Sg      2011/10/08 23:46:45.6  -0.2                          T                1.2  .26 Ml 2.6         4771626
RJF   006.89 054.7 m E Pn      2011/10/08 23:45:41.3   0.1                          T                                        4768580
RJF   006.89 054.7 m E Sn      2011/10/08 23:46:55.1  -0.5                          T                1.7  .25 Ml 2.7         4768579

.
EVENT     264861
    Date      Time       Latitude Longitude    Depth    Ndef Nsta Gap    Mag1  N    Mag2  N    Mag3  N   Author         ID
       rms   OT_Error      Smajor Sminor Az        Err   mdist  Mdist     Err        Err        Err      Quality

2011/10/09 00:47:19.8     42.7269   -1.7412      2.0      32    3 156  Ml 1.6  2  Md 1.6  2              js067245    264881

      0.57   +-  0.19       3.7    2.3   18.83 +-  0.0    0.13   1.56   +-0.2      +-0.2                 m i ke

PYRENEES
Sta     Dist  EvAz     Phase      Date       Time     TRes  Azim  AzRes  Slow  SRes Def   SNR       Amp   Per   Mag1   Mag2       ID
SJPF  000.54 044.3 m E Pg      2011/10/09 00:47:30.3   0.1                          T                                        4767819
SJPF  000.54 044.3 m E Sg      2011/10/09 00:47:37.4   0.1                          T                3.5  .30        Md 1.8  4767818
ETSF  000.89 078.4 m E Pg      2011/10/09 00:47:36.5   0.0                          T                                        4772129
ETSF  000.89 078.4 m E Sg      2011/10/09 00:47:47.7  -0.5                          T                1.3  .25 Ml 1.5 Md 1.5  4768612
EPF   001.56 078.1 m E Pg      2011/10/09 00:47:49.0   0.1                          T                                        4767817
EPF   001.56 078.1 m E Sg      2011/10/09 00:48:09.6   0.6                          T                 .9  .17 Ml 1.8         4768613

.
EVENT     264853
    Date      Time       Latitude Longitude    Depth    Ndef Nsta Gap    Mag1  N    Mag2  N    Mag3  N   Author         ID
       rms   OT_Error      Smajor Sminor Az        Err   mdist  Mdist     Err        Err        Err      Quality

2011/10/09 02:35:39.9     44.6634    6.7264      2.0       6    3 266             Md 1.5  2              js067245    264873

      0.23   +-  0.35       7.9    3.4  159.90 +-  0.0    0.07   0.85              +-0.3                 m i ke

FRANCE
Sta     Dist  EvAz     Phase      Date       Time     TRes  Azim  AzRes  Slow  SRes Def   SNR       Amp   Per   Mag1   Mag2       ID
MBDF  000.07 026.8 m E Pg      2011/10/09 02:35:41.7  -0.1                          T                                        4768057
MBDF  000.07 026.8 m E Sg      2011/10/09 02:35:42.5  -0.5                          T             1096.4  .38        Md 1.6  4768055
ORIF  000.65 293.2 m E Pg      2011/10/09 02:35:52.4   0.0                          T                                        4772131
ORIF  000.65 293.2 m E Sg      2011/10/09 02:36:00.7  -0.3                          T                 .9  .23        Md 1.3  4768056
LPL   000.85 000.3 m E Pg      2011/10/09 02:35:56.5   0.2                          T                                        4772130
LPL   000.85 000.3 m E Sg      2011/10/09 02:36:07.2  -0.1                          T                 .8  .20                4768054

.
EVENT     264862
    Date      Time       Latitude Longitude    Depth    Ndef Nsta Gap    Mag1  N    Mag2  N    Mag3  N   Author         ID
       rms   OT_Error      Smajor Sminor Az        Err   mdist  Mdist     Err        Err        Err      Quality

2011/10/09 04:12:49.1     43.1185   -1.2160     11.0 f    14    3 158  Ml 0.9  1  Md 1.2  2              js067245    264882

      0.30   +-  0.09       2.2    1.4  172.92 +-  0.0    0.01   1.14   +-         +-0.2                 m i ke

PYRENEES
Sta     Dist  EvAz     Phase      Date       Time     TRes  Azim  AzRes  Slow  SRes Def   SNR       Amp   Per   Mag1   Mag2       ID
SJPF  000.01 231.7 m E Pg      2011/10/09 04:12:51.4   0.2                          T                                        4768161
SJPF  000.01 231.7 m E Sg      2011/10/09 04:12:52.6  -0.1                          T                2.5  .17        Md 1.3  4768160
ETSF  000.53 114.3 m E Pg      2011/10/09 04:12:59.1  -0.3                          T                                        4768159
ETSF  000.53 114.3 m E Sg      2011/10/09 04:13:06.1  -0.5                          T                 .6  .25        Md 1.1  4768158
EPF   001.14 093.9 m E Pg      2011/10/09 04:13:10.7   0.1                          T                                        4768157
EPF   001.14 093.9 m E Sg      2011/10/09 04:13:25.0  -0.5                          T                 .2  .22 Ml  .9         4772132

.
EVENT     264939
    Date      Time       Latitude Longitude    Depth    Ndef Nsta Gap    Mag1  N    Mag2  N    Mag3  N   Author         ID
       rms   OT_Error      Smajor Sminor Az        Err   mdist  Mdist     Err        Err        Err      Quality

2011/10/09 04:33:42.6     53.2748    3.7370      3.0 f    52   21 165  Ml 2.8 12                         js067245    264959

      0.77   +-  0.21       4.9    2.5   29.45 +-  0.0    0.83   8.43   +-0.3                            m i ke

NORTH SEA
Sta     Dist  EvAz     Phase      Date       Time     TRes  Azim  AzRes  Slow  SRes Def   SNR       Amp   Per   Mag1   Mag2       ID
GIVF  003.25 167.6 m E Pn      2011/10/09 04:34:32.2  -0.3                          T                                        4768355
GIVF  003.25 167.6 m E Pg      2011/10/09 04:34:41.9  -0.8                          T                                        4768356
GIVF  003.25 167.6 m E Sn      2011/10/09 04:35:08.9  -0.5                          T                                        4772149
GIVF  003.25 167.6 m E Sg      2011/10/09 04:35:23.7  -0.8                          T                4.1  .19 Ml 2.8         4768346
BAIF  003.23 174.6 m E Pn      2011/10/09 04:34:33.2   0.9                          T                                        4768371
BAIF  003.23 174.6 m E Sn      2011/10/09 04:35:08.9  -0.1                          T                                        4768347
BAIF  003.23 174.6 m E Sg      2011/10/09 04:35:25.0   1.0                          T                6.2  .52 Ml 2.6         4768348
RUP   004.14 148.5 m E Pn      2011/10/09 04:34:43.7  -1.0                          T                                        4768370
MEZF  004.85 169.6 m E Pn      2011/10/09 04:34:54.0  -0.4                          T                                        4768353
PAGF  004.89 164.3 m E Pn      2011/10/09 04:34:54.9   0.0 352.0  6.2               T                                        4768354
PAGF  004.89 164.3 m E Sn      2011/10/09 04:35:47.4  -1.3                          T                 .8  .41 Ml 2.1         4768349
THEF  005.25 163.3 m E Pn      2011/10/09 04:34:59.4  -0.4                          T                                        4768369
FLN   005.24 212.2 m E Pn      2011/10/09 04:35:00.0   0.3  34.3  5.3               T                                        4768366
FLN   005.24 212.2 m E Sn      2011/10/09 04:35:57.2   0.1                          T                2.8  .37 Ml 2.7         4772150
LDF   005.28 209.0 m E Pn      2011/10/09 04:35:01.9   1.6                          T                                        4768367
LDF   005.28 209.0 m E Sn      2011/10/09 04:35:58.9   0.9                          T                                        4769760
GRR   005.69 212.6 m E Pn      2011/10/09 04:35:05.8   0.1                          T                                        4768365
GRR   005.69 212.6 m E Sn      2011/10/09 04:36:07.9   0.2                          T                1.5  .23 Ml 2.7         4768361
LOR   006.01 179.2 m E Pn      2011/10/09 04:35:09.3  -0.9   1.3  2.0               T                                        4768372
LOR   006.01 179.2 m E Sn      2011/10/09 04:36:15.0  -0.6                          T                1.6  .26 Ml 2.9         4768358
HINF  005.81 158.8 m E P       2011/10/09 04:35:11.4  -0.5                          T                                        4772151
SSF   006.22 181.5 m E Pn      2011/10/09 04:35:13.6   0.6                          T                                        4772152
SSF   006.22 181.5 m E P       2011/10/09 04:35:17.4  -0.3                          T                                        4768357
SSF   006.22 181.5 m E Sn      2011/10/09 04:36:20.2  -0.2                          T                1.2  .27 Ml 2.9         4768647
SGMF  006.42 221.0 m E Pn      2011/10/09 04:35:16.3   0.7                          T                                        4769763
SMF   006.64 179.4 m E Pn      2011/10/09 04:35:18.5  -0.2                          T                                        4768360
SMF   006.64 179.4 m E Sn      2011/10/09 04:36:29.4  -1.1                          T                1.2  .36 Ml 2.7         4768359
BGF   006.75 185.2 m E Pn      2011/10/09 04:35:20.9   0.7                          T                                        4768363
BGF   006.75 185.2 m E Sn      2011/10/09 04:36:33.9   0.8                          T                3.5  .36 Ml 3.2         4768362
CABF  006.84 166.3 m E Pn      2011/10/09 04:35:21.5  -0.1                          T                                        4768352
MFF   007.13 202.1 m E Pn      2011/10/09 04:35:24.7  -0.7                          T                                        4769765
LPL   008.01 164.7 m E Pn      2011/10/09 04:35:38.8   1.2                          T                                        4768351
CAF   008.43 188.1 m E Pn      2011/10/09 04:35:43.4   0.3                          T                                        4769764
SFTF  005.14 170.2 m E Sn      2011/10/09 04:35:53.5  -1.2                          T                1.9  .26 Ml 2.8         4768350
ROSF  006.65 224.7 m E Sn      2011/10/09 04:36:30.7   0.1                          T                2.4  .32 Ml 3.1         4769762

.
EVENT     264863
    Date      Time       Latitude Longitude    Depth    Ndef Nsta Gap    Mag1  N    Mag2  N    Mag3  N   Author         ID
       rms   OT_Error      Smajor Sminor Az        Err   mdist  Mdist     Err        Err        Err      Quality

2011/10/09 06:48:16.0     42.9051    -.8847      2.0       6    3 218  Ml 1.0  1  Md 1.0  2              js067245    264883

      0.22   +-  0.40      17.8    2.2   17.91 +-  0.0    0.24   0.91   +-         +-0.2                 m i ke

PYRENEES
Sta     Dist  EvAz     Phase      Date       Time     TRes  Azim  AzRes  Slow  SRes Def   SNR       Amp   Per   Mag1   Mag2       ID
ETSF  000.24 091.4 m E Pg      2011/10/09 06:48:20.6  -0.3                          T                                        4768188
ETSF  000.24 091.4 m E Sg      2011/10/09 06:48:24.1   0.0                          T                3.4  .16        Md 1.1  4768187
SJPF  000.32 309.9 m E Pg      2011/10/09 06:48:22.4   0.1                          T                                        4768186
SJPF  000.32 309.9 m E Sg      2011/10/09 06:48:26.2  -0.5                          T                2.2  .27        Md  .9  4768185
EPF   000.91 081.7 m E Pg      2011/10/09 06:48:33.3   0.1                          T                                        4768183
EPF   000.91 081.7 m E Sg      2011/10/09 06:48:44.9   0.0                          T                 .7  .36 Ml 1.0         4768184

.
EVENT     264864
    Date      Time       Latitude Longitude    Depth    Ndef Nsta Gap    Mag1  N    Mag2  N    Mag3  N   Author         ID
       rms   OT_Error      Smajor Sminor Az        Err   mdist  Mdist     Err        Err        Err      Quality

2011/10/09 06:51:02.4     43.1132    -.7517     10.0      16    3 148             Md 2.0  2              js067245    264884

      0.41   +-  0.11       3.0    1.5   10.41 +-  0.0    0.05   1.57              +-0.0                 m i ke

PYRENEES
Sta     Dist  EvAz     Phase      Date       Time     TRes  Azim  AzRes  Slow  SRes Def   SNR       Amp   Per   Mag1   Mag2       ID
ETSF  000.26 146.6 m E Pg      2011/10/09 06:51:07.4  -0.4                          T                                        4768195
ETSF  000.26 146.6 m E Sg      2011/10/09 06:51:10.9  -0.5                          T               20.8  .17        Md 2.0  4768194
SJPF  000.35 270.2 m E Pg      2011/10/09 06:51:09.3   0.0                          T                                        4768193
SJPF  000.35 270.2 m E Sg      2011/10/09 06:51:14.3   0.2                          T               14.2  .25        Md 2.1  4768192
EPF   000.80 095.5 m E Pg      2011/10/09 06:51:17.6  -0.1                          T                                        4768191
EPF   000.80 095.5 m E Sg      2011/10/09 06:51:29.0   0.7                          T                  1  .19                4768190

.
