EVENT     261169
    Date      Time       Latitude Longitude    Depth    Ndef Nsta Gap    Mag1  N    Mag2  N    Mag3  N   Author         ID
       rms   OT_Error      Smajor Sminor Az        Err   mdist  Mdist     Err        Err        Err      Quality

2011/07/07 20:04:16.7     41.9563    7.6866     30.0      49   16 222                                    js067245    261169

                                               +-         1.14   6.17                                    m i ke

WESTERN MEDITERRANEAN SEA
Sta     Dist  EvAz     Phase      Date       Time     TRes  Azim  AzRes  Slow  SRes Def   SNR       Amp   Per   Mag1   Mag2       ID
PGF   001.14 058.3 m E Pn      2011/07/07 20:04:35.8   0.0                          T                                        4717237
PGF   001.14 058.3 m E Sn      2011/07/07 20:04:49.7   0.1                          T              112.4  .15                4717223
LMR   001.63 328.1 m E Pn      2011/07/07 20:04:41.1  -1.1                          T                                        4717235
LMR   001.63 328.1 m E Sn      2011/07/07 20:04:58.7  -2.3                          T              113.9  .20                4717221
FRF   001.78 334.8 m E Pn      2011/07/07 20:04:43.4  -0.8                          T                                        4717234
FRF   001.78 334.8 m E Sn      2011/07/07 20:05:02.2  -2.3                          T               73.4  .25                4717220
SBF   001.91 354.5 m E Pn      2011/07/07 20:04:44.9  -1.3                          T                                        4717236
SBF   001.91 354.5 m E Sn      2011/07/07 20:05:05.4  -2.6                          T               53.9  .21                4717222
SMRF  002.54 323.2 m E Pn      2011/07/07 20:04:55.1   0.4                          T                                        4723423
SMRF  002.54 323.2 m E Sn      2011/07/07 20:05:25.1   2.2                          T               26.1  .38                4723424
ORIF  003.24 336.7 m E Pn      2011/07/07 20:05:04.7   0.5                          T                                        4717232
ORIF  003.24 336.7 m E Sn      2011/07/07 20:05:39.7   0.2                          T                5.7  .26                4723425
LASF  003.52 308.3 m E Pn      2011/07/07 20:05:07.0  -0.9                          T                                        4717230
LASF  003.52 308.3 m E Sn      2011/07/07 20:05:44.2  -1.9                          T               21.7  .18                4717217
VIVF  003.64 323.9 m E Pn      2011/07/07 20:05:09.4  -0.1                          T                                        4717231
VIVF  003.64 323.9 m E Sn      2011/07/07 20:05:48.2  -0.7                          T                3.6  .17                4717218
LPL   003.63 349.3 m E Pg      2011/07/07 20:05:11.5   2.0                          T                                        4723421
LPL   003.63 349.3 m E Pn      2011/07/07 20:05:11.7   2.1                          T                                        4717233
LPG   003.60 349.5 m E Pn      2011/07/07 20:05:12.5   3.1                          T                                        4723422
LPG   003.60 349.5 m E Sn      2011/07/07 20:05:52.2   3.8                          T                2.7  .21                4723426
MTLF  004.26 290.8 m E Pn      2011/07/07 20:05:17.4  -0.6                          T                                        4717229
MTLF  004.26 290.8 m E Sn      2011/07/07 20:06:02.6  -1.2                          T               11.1  .28                4717216
CAF   005.06 307.8 m E Pn      2011/07/07 20:05:29.1   0.3                          T                                        4717226
CAF   005.06 307.8 m E Sn      2011/07/07 20:06:21.7  -1.1                          T                4.6  .24                4717214
MBDF  002.85 346.8 m E Sn      2011/07/07 20:05:30.6   0.4                          T               16.0  .36                4717219
EPF   005.54 283.6 m E Pn      2011/07/07 20:05:35.1  -0.3                          T                                        4717228
RJF   005.59 308.9 m E Pn      2011/07/07 20:05:36.5   0.5                          T                                        4717225
RJF   005.59 308.9 m E Sn      2011/07/07 20:06:36.8   1.3                          T                3.1  .21                4717213
ETSF  006.17 281.5 m E Pn      2011/07/07 20:05:45.3   1.2                          T                                        4717227
ETSF  006.17 281.5 m E Sn      2011/07/07 20:06:52.9   3.4                          T                2.6  .25                4717215

.
EVENT     261176
    Date      Time       Latitude Longitude    Depth    Ndef Nsta Gap    Mag1  N    Mag2  N    Mag3  N   Author         ID
       rms   OT_Error      Smajor Sminor Az        Err   mdist  Mdist     Err        Err        Err      Quality

2011/07/07 20:25:20.7     41.9453    7.6537     30.0      37   15 219                                    js067245    261176

                                               +-         1.17   6.15                                    m i ke

WESTERN MEDITERRANEAN SEA
Sta     Dist  EvAz     Phase      Date       Time     TRes  Azim  AzRes  Slow  SRes Def   SNR       Amp   Per   Mag1   Mag2       ID
PGF   001.17 058.5 m E Pn      2011/07/07 20:25:39.8  -0.4                          T                                        4717259
PGF   001.17 058.5 m E Sn      2011/07/07 20:25:53.3  -1.0                          T              165.7  .22 Ml 4.0         4717250
LMR   001.62 329.1 m E Pn      2011/07/07 20:25:45.1  -1.0                          T                                        4717252
LMR   001.62 329.1 m E Sn      2011/07/07 20:26:02.3  -2.6                          T               72.5  .18 Ml 3.7         4717248
FRF   001.78 335.7 m E Pn      2011/07/07 20:25:47.3  -0.9                          T                                        4717253
FRF   001.78 335.7 m E Sn      2011/07/07 20:26:06.2  -2.3                          T               29.8  .16 Ml 3.5         4717247
SBF   001.92 355.3 m E Pn      2011/07/07 20:25:49.6  -0.7                          T                                        4717251
SBF   001.92 355.3 m E Sn      2011/07/07 20:26:09.5  -2.6                          T               30.9  .20 Ml 3.4         4717249
SMRF  002.54 323.8 m E Pn      2011/07/07 20:25:59.1   0.5                          T                                        4717254
SMRF  002.54 323.8 m E Sn      2011/07/07 20:26:29.1   2.4                          T               15.9  .30 Ml 3.0         4724457
MBDF  002.85 347.3 m E Pn      2011/07/07 20:26:05.0   2.0                          T                                        4723427
MBDF  002.85 347.3 m E Sn      2011/07/07 20:26:34.1  -0.3                          T               11.3  .38 Ml 2.9         4717238
ORIF  003.24 337.1 m E Pn      2011/07/07 20:26:09.1   0.9                          T                                        4717243
ORIF  003.24 337.1 m E Sn      2011/07/07 20:26:43.8   0.3                          T                2.6  .24 Ml 2.5         4724459
LASF  003.51 308.7 m E Pn      2011/07/07 20:26:11.6  -0.1                          T                                        4717255
LASF  003.51 308.7 m E Sn      2011/07/07 20:26:48.1  -1.6                          T               16.8  .32 Ml 3.3         4717245
VIVF  003.63 324.3 m E Pn      2011/07/07 20:26:13.1  -0.3                          T                                        4717240
VIVF  003.63 324.3 m E Sn      2011/07/07 20:26:51.2  -1.6                          T                2.2  .22 Ml 2.6         4717246
LPL   003.63 349.7 m E Pn      2011/07/07 20:26:15.6   2.0                          T                                        4717242
LPG   003.61 349.9 m E Pn      2011/07/07 20:26:16.4   2.9                          T                                        4717241
LPG   003.61 349.9 m E Sn      2011/07/07 20:26:56.5   3.9                          T                2.7  .30 Ml 2.5         4724458
MTLF  004.25 291.0 m E Pn      2011/07/07 20:26:21.4  -0.3                          T                                        4717256
MTLF  004.25 291.0 m E Sn      2011/07/07 20:27:06.9  -0.5                          T               10.7  .28 Ml 3.3         4717244
CAF   005.04 308.1 m E Pn      2011/07/07 20:26:33.0   0.4                          T                                        4717258
CAF   005.04 308.1 m E Sn      2011/07/07 20:27:24.7  -1.7                          T                2.1  .22 Ml 2.9         4724455
EPF   005.52 283.8 m E Pn      2011/07/07 20:26:39.1   0.0                          T                                        4717257
EPF   005.52 283.8 m E Sn      2011/07/07 20:27:37.8   0.1                          T                4.1  .31 Ml 3.1         4724456
ETSF  006.15 281.7 m E Pn      2011/07/07 20:26:49.1   1.3                          T                                        4717239

.
EVENT     261194
    Date      Time       Latitude Longitude    Depth    Ndef Nsta Gap    Mag1  N    Mag2  N    Mag3  N   Author         ID
       rms   OT_Error      Smajor Sminor Az        Err   mdist  Mdist     Err        Err        Err      Quality

2011/07/07 20:28:25.4     41.9235    7.6489     25.0      30   15 224  Ml 2.9 13  Md 2.8  4              js067245    261194

      2.06   +-  0.59      13.5    7.4  176.87 +-  0.0    1.18   6.15   +-0.4      +-0.1                 m i ke

WESTERN MEDITERRANEAN SEA
Sta     Dist  EvAz     Phase      Date       Time     TRes  Azim  AzRes  Slow  SRes Def   SNR       Amp   Per   Mag1   Mag2       ID
PGF   001.18 057.6 m E Pn      2011/07/07 20:28:44.8   0.0                          T                                        4717284
PGF   001.18 057.6 m E Sn      2011/07/07 20:28:58.6  -0.3                          T               60.8  .17 Ml 3.7 Md 2.9  4717265
LMR   001.64 329.6 m E Pn      2011/07/07 20:28:49.8  -1.1                          T                                        4717282
LMR   001.64 329.6 m E Sn      2011/07/07 20:29:07.5  -2.3                          T               31.2  .20 Ml 3.3 Md 2.8  4717267
FRF   001.80 336.1 m E Pn      2011/07/07 20:28:52.1  -0.9                          T                                        4717281
FRF   001.80 336.1 m E Sn      2011/07/07 20:29:11.5  -2.0                          T               14.7  .16 Ml 3.2 Md 2.9  4717268
SBF   001.94 355.4 m E Pn      2011/07/07 20:28:53.9  -1.3                          T                                        4717283
SBF   001.94 355.4 m E Sn      2011/07/07 20:29:14.5  -2.6                          T               18.1  .19 Ml 3.2 Md 2.8  4717266
SMRF  002.55 324.1 m E Pn      2011/07/07 20:29:04.1   0.7                          T                                        4723436
SMRF  002.55 324.1 m E Sn      2011/07/07 20:29:33.7   2.0                          T                7.3  .33 Ml 2.7         4723437
MBDF  002.87 347.4 m E Pn      2011/07/07 20:29:09.1   1.2                          T                                        4723435
MBDF  002.87 347.4 m E Sn      2011/07/07 20:29:39.3  -0.2                          T                3.7  .25 Ml 2.6         4717269
ORIF  003.26 337.3 m E Pn      2011/07/07 20:29:13.7   0.6                          T                                        4723432
LASF  003.52 309.0 m E Pn      2011/07/07 20:29:15.8  -0.7                          T                                        4717279
LASF  003.52 309.0 m E Sn      2011/07/07 20:29:52.9  -1.7                          T                7.5  .27 Ml 3.0         4717271
VIVF  003.65 324.5 m E Pn      2011/07/07 20:29:18.1  -0.2                          T                                        4717280
VIVF  003.65 324.5 m E Sn      2011/07/07 20:29:57.5  -0.3                          T                1.0  .18 Ml 2.3         4717270
LPL   003.65 349.8 m E Pn      2011/07/07 20:29:20.7   2.1                          T                                        4723434
LPL   003.65 349.8 m E Sn      2011/07/07 20:30:01.1   2.9                          T                1.6  .28 Ml 2.3         4723433
MTLF  004.25 291.3 m E Pn      2011/07/07 20:29:26.0  -0.5                          T                                        4717278
MTLF  004.25 291.3 m E Sn      2011/07/07 20:30:11.9  -0.3                          T                6.1  .35 Ml 3.0         4717272
CAF   005.05 308.3 m E Pn      2011/07/07 20:29:37.9   0.4                          T                                        4717276
CAF   005.05 308.3 m E Sn      2011/07/07 20:30:30.0  -1.4                          T                 .5  .17 Ml 2.4         4717274
EPF   005.52 284.0 m E Pn      2011/07/07 20:29:43.5  -0.2                          T                                        4717277
RJF   005.59 309.3 m E Pn      2011/07/07 20:29:45.2   0.4                          T                                        4717275
ETSF  006.15 281.9 m E Sn      2011/07/07 20:31:01.9   4.1                          T                1.4  .34 Ml 2.7         4717273

.
EVENT     261195
    Date      Time       Latitude Longitude    Depth    Ndef Nsta Gap    Mag1  N    Mag2  N    Mag3  N   Author         ID
       rms   OT_Error      Smajor Sminor Az        Err   mdist  Mdist     Err        Err        Err      Quality

2011/07/07 20:37:51.8     41.9997    7.6337     25.0      14    9 229  Ml 2.1  6  Md 2.4  3              js067245    261195

      1.02   +-  0.47      12.8    5.5    6.23 +-  0.0    1.15   4.21   +-0.3      +-0.1                 m i ke

WESTERN MEDITERRANEAN SEA
Sta     Dist  EvAz     Phase      Date       Time     TRes  Azim  AzRes  Slow  SRes Def   SNR       Amp   Per   Mag1   Mag2       ID
PGF   001.15 061.1 m E Pn      2011/07/07 20:38:10.7  -0.2                          T                                        4717289
PGF   001.15 061.1 m E Sn      2011/07/07 20:38:24.7   0.0                          T                2.7  .16 Ml 2.3 Md 2.3  4717285
LMR   001.57 328.5 m E Pn      2011/07/07 20:38:16.3  -0.1                          T                                        4717290
LMR   001.57 328.5 m E Sn      2011/07/07 20:38:34.0  -0.6                          T                3.9  .19 Ml 2.4 Md 2.4  4717287
FRF   001.72 335.4 m E Pn      2011/07/07 20:38:18.4  -0.1                          T                                        4717291
FRF   001.72 335.4 m E Sn      2011/07/07 20:38:37.6  -0.6                          T                2.0  .26 Ml 2.1 Md 2.4  4717288
MBDF  002.80 347.3 m E Pn      2011/07/07 20:38:34.9   1.5                          T                                        4723441
SBF   001.87 355.6 m E Sn      2011/07/07 20:38:40.5  -1.3                          T                2.0  .21 Ml 2.1         4717286
LASF  003.46 308.1 m E Pn      2011/07/07 20:38:41.9  -0.3                          T                                        4723443
VIVF  003.58 323.9 m E Pn      2011/07/07 20:38:43.9   0.1                          T                                        4723442
MTLF  004.21 290.4 m E Pn      2011/07/07 20:38:52.3  -0.1                          T                                        4723444
SMRF  002.49 323.3 m E Sn      2011/07/07 20:38:59.9   3.4                          T                 .2  .09 Ml 1.6         4723440

.
EVENT     261196
    Date      Time       Latitude Longitude    Depth    Ndef Nsta Gap    Mag1  N    Mag2  N    Mag3  N   Author         ID
       rms   OT_Error      Smajor Sminor Az        Err   mdist  Mdist     Err        Err        Err      Quality

2011/07/07 20:39:30.8     41.9782    7.6660     30.0      40   15 129  Ml 2.9 15  Md 2.8  4              js067245    261196

      1.65   +-  0.50      10.9    6.6  169.57 +-  0.0    1.14   6.16   +-0.5      +-0.2                 m i ke

WESTERN MEDITERRANEAN SEA
Sta     Dist  EvAz     Phase      Date       Time     TRes  Azim  AzRes  Slow  SRes Def   SNR       Amp   Per   Mag1   Mag2       ID
PGF   001.14 059.6 m E Pn      2011/07/07 20:39:49.6  -0.3                          T                                        4717394
PGF   001.14 059.6 m E Sn      2011/07/07 20:40:03.4  -0.4                          T               93.6  .25 Ml 3.7 Md 2.9  4717381
LMR   001.60 328.2 m E Pn      2011/07/07 20:39:54.8  -1.2                          T                                        4717396
LMR   001.60 328.2 m E Sn      2011/07/07 20:40:12.2  -2.3                          T               52.3  .21 Ml 3.5 Md 2.9  4717383
FRF   001.75 335.0 m E Pn      2011/07/07 20:39:57.0  -1.0                          T                                        4717397
FRF   001.75 335.0 m E Sn      2011/07/07 20:40:16.0  -2.1                          T               25.8  .25 Ml 3.2 Md 2.8  4717384
SBF   001.89 354.9 m E Pn      2011/07/07 20:39:59.9  -0.1                          T                                        4717395
SBF   001.89 354.9 m E Sn      2011/07/07 20:40:19.6  -1.9                          T               17.2  .27 Ml 3.0 Md 2.5  4717382
SMRF  002.52 323.2 m E Pn      2011/07/07 20:40:08.9   0.4                          T                                        4717398
SMRF  002.52 323.2 m E Sn      2011/07/07 20:40:38.9   2.5                          T                8.7  .32 Ml 2.8         4717385
ORIF  003.21 336.7 m E Pn      2011/07/07 20:40:18.6   0.6                          T                                        4717400
LASF  003.49 308.2 m E Pn      2011/07/07 20:40:21.1  -0.5                          T                                        4717402
LASF  003.49 308.2 m E Sn      2011/07/07 20:40:58.1  -1.4                          T               10.1  .19 Ml 3.3         4717388
VIVF  003.61 323.8 m E Pn      2011/07/07 20:40:23.0  -0.3                          T                                        4717401
VIVF  003.61 323.8 m E Sn      2011/07/07 20:41:00.6  -1.8                          T                1.7  .23 Ml 2.4         4717387
LPL   003.60 349.5 m E Pn      2011/07/07 20:40:25.1   1.7                          T                                        4717399
LPL   003.60 349.5 m E Sn      2011/07/07 20:41:06.2   3.8                          T                2.6  .37 Ml 2.4         4723449
MTLF  004.24 290.5 m E Pn      2011/07/07 20:40:31.0  -0.8                          T                                        4717403
MTLF  004.24 290.5 m E Sn      2011/07/07 20:41:16.3  -1.1                          T                5.6  .30 Ml 3.0         4717389
CAF   005.03 307.7 m E Pn      2011/07/07 20:40:42.7   0.2                          T                                        4717406
CAF   005.03 307.7 m E Sn      2011/07/07 20:41:35.4  -0.8                          T                1.6  .20 Ml 2.8         4717392
MBDF  002.82 346.9 m E Sn      2011/07/07 20:40:43.8   0.0                          T                5.3  .26 Ml 2.7         4717386
EPF   005.52 283.4 m E Pn      2011/07/07 20:40:48.6  -0.6                          T                                        4717404
EPF   005.52 283.4 m E Sn      2011/07/07 20:41:48.1   0.2                          T                 .4  .15 Ml 2.5         4717390
RJF   005.56 308.8 m E Pn      2011/07/07 20:40:50.1   0.3                          T                                        4717407
RJF   005.56 308.8 m E Sn      2011/07/07 20:41:47.3  -1.7                          T                 .1  .06 Ml 2.0         4717393
ETSF  006.16 281.3 m E Pn      2011/07/07 20:40:59.2   1.3                          T                                        4717405
ETSF  006.16 281.3 m E Sn      2011/07/07 20:42:06.7   3.5                          T                2.8  .38 Ml 3.0         4717391

.
