BEGIN GSE2.0
MSG_TYPE DATA
MSG_ID 04-APR-1212:01:16  FRA_NDC
E-MAIL
DATA_TYPE BULLETIN
Reviewed Bulletin (REB) # P2012-013  from French NDC for regional phases     PERIOD 28 MAR 2012 TO 03 APR 2012 S M., J-P S
EVENT     272569
    Date      Time       Latitude Longitude    Depth    Ndef Nsta Gap    Mag1  N    Mag2  N    Mag3  N   Author         ID
       rms   OT_Error      Smajor Sminor Az        Err   mdist  Mdist     Err        Err        Err      Quality

2012/03/28 00:19:49.6     46.5715    5.4401      2.0      34   17 059  Ml 1.9 18  Md 2.0  3              js067245    272589

      1.19   +-  0.11       2.2    1.8   35.75 +-  0.0    0.45   2.25   +-0.3      +-0.2                 m i ke

FRANCE
Sta     Dist  EvAz     Phase      Date       Time     TRes  Azim  AzRes  Slow  SRes Def   SNR       Amp   Per   Mag1   Mag2       ID
CABF  000.45 084.7 m E Pg      2012/03/28 00:19:58.2  -0.1                          T                                        4897888
CABF  000.45 084.7 m E Sg      2012/03/28 00:20:03.7  -0.5                          T                3.3  .22        Md 1.7  4897883
SMF   001.10 274.4 m E Pg      2012/03/28 00:20:10.3   0.0                          T                                        4897887
SMF   001.10 274.4 m E Sg      2012/03/28 00:20:24.9   0.3                          T                6.2  .18 Ml 2.4         4897882
LOR   001.29 303.3 m E Pg      2012/03/28 00:20:13.4  -0.3 124.1  1.9               T                                        4898030
LOR   001.29 303.3 m E Sg      2012/03/28 00:20:31.2   0.8 138.7  16.5              T                2.9  .18 Ml 2.2         4898031
SSF   001.42 291.0 m E Pg      2012/03/28 00:20:15.1  -0.9                          T                                        4898029
SSF   001.42 291.0 m E Sg      2012/03/28 00:20:34.2  -0.1                          T                1.6  .22 Ml 2.0         4898020
LPL   001.39 139.1 m E Pg      2012/03/28 00:20:15.7  -0.1                          T                                        4897884
LPL   001.39 139.1 m E Sg      2012/03/28 00:20:31.2  -2.5                          T                 .9  .31 Ml 1.4 Md 2.1  4898034
LPG   001.41 139.1 m E Pg      2012/03/28 00:20:16.5   0.3                          T                                        4897885
LPG   001.41 139.1 m E Sg      2012/03/28 00:20:34.2  -0.3                          T                1.1  .31 Ml 1.6         4898014
AVF   001.45 279.4 m E Pg      2012/03/28 00:20:17.4   0.7                          T                                        4897886
AVF   001.45 279.4 m E Sg      2012/03/28 00:20:35.8   0.3                          T                2.4  .34 Ml 1.9         4897881
HAU   001.56 023.0 m E Pg      2012/03/28 00:20:18.7   0.0                          T                                        4898028
HAU   001.56 023.0 m E Sg      2012/03/28 00:20:38.5  -0.5                          T                5.1  .22 Ml 2.2         4898033
HINF  001.57 037.2 m E Pg      2012/03/28 00:20:18.8  -0.2                          T                                        4898018
HINF  001.57 037.2 m E Sg      2012/03/28 00:20:38.3  -1.0                          T                1.4  .22 Ml 1.9         4897880
ORIF  001.68 169.3 m E Pn      2012/03/28 00:20:18.8   0.4                          T                                        4898015
ORIF  001.68 169.3 m E Pg      2012/03/28 00:20:21.1   0.0                          T                                        4898016
ORIF  001.68 169.3 m E Sg      2012/03/28 00:20:42.1  -0.6                          T                1.2  .22 Ml 1.9 Md 2.1  4897968
BGF   001.79 270.5 m E Pg      2012/03/28 00:20:23.2   0.3                          T                                        4898021
BGF   001.79 270.5 m E Sn      2012/03/28 00:20:39.8  -1.9                          T                                        4898026
BGF   001.79 270.5 m E Sg      2012/03/28 00:20:46.3   0.4                          T                2.4  .34 Ml 2.0         4898027
VIVF  001.80 197.7 m E Pg      2012/03/28 00:20:23.4   0.4                          T                                        4898035
VIVF  001.80 197.7 m E Sg      2012/03/28 00:20:46.9   0.6                          T                 .8  .18 Ml 1.8         4898036
MBDF  002.07 152.7 m E Pg      2012/03/28 00:20:28.8   0.6                          T                                        4898017
SFTF  001.66 350.7 m E Sg      2012/03/28 00:20:42.6   0.8                          T                1.7  .21 Ml 2.0         4898032
THEF  001.70 012.6 m E Sg      2012/03/28 00:20:42.9  -0.2                          T                3.0  .31 Ml 2.1         4898023
MEZF  001.95 352.4 m E Sg      2012/03/28 00:20:51.6   0.7                          T                3.9  .43 Ml 2.1         4898024
TCF   002.25 263.9 m E Sg      2012/03/28 00:20:59.6  -0.8                          T                 .6  .24 Ml 1.7         4898019

.
EVENT     272571
    Date      Time       Latitude Longitude    Depth    Ndef Nsta Gap    Mag1  N    Mag2  N    Mag3  N   Author         ID
       rms   OT_Error      Smajor Sminor Az        Err   mdist  Mdist     Err        Err        Err      Quality

2012/03/28 02:08:28.7     42.4063    1.9017      7.0 f    24    3 060  Ml 1.3  4  Md 1.6  1              js067245    272591

      0.43   +-  0.06       1.3    1.0    6.38 +-  0.0    0.09   1.88   +-0.2      +-                    m i ke

PYRENEES
Sta     Dist  EvAz     Phase      Date       Time     TRes  Azim  AzRes  Slow  SRes Def   SNR       Amp   Per   Mag1   Mag2       ID
MTLF  000.96 013.8 m E Pg      2012/03/28 02:08:47.4   0.6                          T                                        4898038
MTLF  000.96 013.8 m E Sg      2012/03/28 02:08:59.3   0.0                          T                 .4  .18 Ml 1.1 Md 1.6  4898037
EPF   001.31 299.0 m E Sn      2012/03/28 02:09:09.1   0.5                          T                                        4898042
EPF   001.31 299.0 m E Sg      2012/03/28 02:09:11.2   1.0                          T                 .7  .37 Ml 1.2         4898044
ETSF  001.88 286.0 m E Sg      2012/03/28 02:09:28.7   0.7                          T                 .6  .26 Ml 1.5         4898043

.
EVENT     272608
    Date      Time       Latitude Longitude    Depth    Ndef Nsta Gap    Mag1  N    Mag2  N    Mag3  N   Author         ID
       rms   OT_Error      Smajor Sminor Az        Err   mdist  Mdist     Err        Err        Err      Quality

2012/03/28 09:35:00.9     48.8021    6.0145       .0 f    14    8 229  Ml 2.3  3  Md 2.5  2              js067245    272628

      0.91   +-  0.28       4.5    2.4    9.33 +-  0.0    0.31   2.11   +-0.2      +-0.0                 m i km

FRANCE
Sta     Dist  EvAz     Phase      Date       Time     TRes  Azim  AzRes  Slow  SRes Def   SNR       Amp   Per   Mag1   Mag2       ID
PAGF  000.31 217.9 m E Pg      2012/03/28 09:35:07.7   0.4  35.6  -2.1              T                                        4898067
PAGF  000.31 217.9 m E Sg      2012/03/28 09:35:11.1  -0.6  32.2  -5.5              T               73.4  .95        Md 2.5  4898066
THEF  000.57 181.4 m E Pg      2012/03/28 09:35:12.2   0.1                          T                                        4898291
THEF  000.57 181.4 m E Sg      2012/03/28 09:35:19.3  -0.5                          T               35.7  .61        Md 2.4  4898292
MEZF  000.71 245.2 m E Pg      2012/03/28 09:35:14.7   0.2  66.8  2.3               T                                        4898294
MEZF  000.71 245.2 m E Sg      2012/03/28 09:35:23.5  -0.4  68.7  4.2               T               11.6  .30                4898295
HAU   000.83 164.3 m E Pg      2012/03/28 09:35:16.8   0.0                          T                                        4898064
HAU   000.83 164.3 m E Sg      2012/03/28 09:35:26.8  -1.0                          T                                        4898062
CDF   000.92 114.5 m E Pg      2012/03/28 09:35:17.8  -0.8                          T                                        4898065
CDF   000.92 114.5 m E Sg      2012/03/28 09:35:31.8   0.9                          T               27.5  .76 Ml 2.4         4898061
HINF  001.13 150.1 m E Pg      2012/03/28 09:35:22.9   0.4                          T                                        4898290
HINF  001.13 150.1 m E Sg      2012/03/28 09:35:37.7   0.3                          T                                        4898063
SFTF  000.88 227.7 m E Sg      2012/03/28 09:35:29.1  -0.4  40.6  -6.5              T                8.5  .43 Ml 2.1         4898293
LOR   002.11 224.1 m E Sg      2012/03/28 09:36:07.7   0.0  46.1  3.5               T                6.0  .48 Ml 2.3         4898296

.
EVENT     272631
    Date      Time       Latitude Longitude    Depth    Ndef Nsta Gap    Mag1  N    Mag2  N    Mag3  N   Author         ID
       rms   OT_Error      Smajor Sminor Az        Err   mdist  Mdist     Err        Err        Err      Quality

2012/03/28 16:15:05.5     44.4793    6.6943      2.0      43    9 046  Ml 2.1  6  Md 2.1  2              js067245    272651

      0.39   +-  0.05        .9     .8   56.68 +-  0.0    0.08   1.49   +-0.2      +-0.0                 m i ke

FRANCE
Sta     Dist  EvAz     Phase      Date       Time     TRes  Azim  AzRes  Slow  SRes Def   SNR       Amp   Per   Mag1   Mag2       ID
MBDF  000.25 012.5 m E Pg      2012/03/28 16:15:10.4  -0.2                          T                                        4898079
MBDF  000.25 012.5 m E Sg      2012/03/28 16:15:14.7   0.5                          T               28.8  .30        Md 2.1  4898068
ORIF  000.73 307.4 m E Pg      2012/03/28 16:15:19.0  -0.3                          T                                        4898078
ORIF  000.73 307.4 m E Sg      2012/03/28 16:15:28.6  -0.2                          T                5.5  .20                4898069
SBF   000.81 138.9 m E Pg      2012/03/28 16:15:21.1   0.2                          T                                        4898074
SBF   000.81 138.9 m E Sg      2012/03/28 16:15:31.4  -0.1                          T                7.8  .18        Md 2.1  4898073
FRF   000.92 182.2 m E Pg      2012/03/28 16:15:23.2   0.4                          T                                        4898076
FRF   000.92 182.2 m E Sg      2012/03/28 16:15:35.2   0.5                          T                9.4  .18 Ml 2.5         4898071
SMRF  000.95 238.4 m E Pn      2012/03/28 16:15:24.7   0.5                          T                                        4898077
SMRF  000.95 238.4 m E Sn      2012/03/28 16:15:37.8   0.2                          T                6.5  .36 Ml 2.0         4898070
LPL   001.04 001.5 m E Pg      2012/03/28 16:15:25.7   0.5                          T                                        4898084
LPL   001.04 001.5 m E Sg      2012/03/28 16:15:39.3   0.6                          T                4.0  .30 Ml 2.0         4898082
LMR   001.15 186.7 m E P       2012/03/28 16:15:28.0  -0.6                          T                                        4898075
LMR   001.15 186.7 m E Sg      2012/03/28 16:15:42.0   0.0                          T                3.3  .18 Ml 2.2         4898072
VIVF  001.49 285.3 m E P       2012/03/28 16:15:32.7  -0.8                          T                                        4898083
VIVF  001.49 285.3 m E Sg      2012/03/28 16:15:51.7  -0.8                          T                3.0  .44 Ml 1.9         4898081
LPG   001.02 002.3 m E Sg      2012/03/28 16:15:38.8   0.6                          T                3.0  .21 Ml 2.0         4898086

.
EVENT     272630
    Date      Time       Latitude Longitude    Depth    Ndef Nsta Gap    Mag1  N    Mag2  N    Mag3  N   Author         ID
       rms   OT_Error      Smajor Sminor Az        Err   mdist  Mdist     Err        Err        Err      Quality

2012/03/28 16:19:29.9     43.7958    8.4658      2.0      39    7 158  Ml 1.8  8  Md 2.0  2              js067245    272650

      0.49   +-  0.12       2.3    1.8   55.46 +-  0.0    0.39   2.17   +-0.2      +-0.0                 m i ke

CORSICA, FRANCE
Sta     Dist  EvAz     Phase      Date       Time     TRes  Azim  AzRes  Slow  SRes Def   SNR       Amp   Per   Mag1   Mag2       ID
SBF   000.75 275.5 m E Pg      2012/03/28 16:19:44.0  -0.1                          T                                        4898096
SBF   000.75 275.5 m E Sg      2012/03/28 16:19:53.5  -0.5                          T               10.8  .24        Md 2.0  4898088
PGF   001.31 162.4 m E Pn      2012/03/28 16:19:53.7   0.0                          T                                        4898095
PGF   001.31 162.4 m E Sn      2012/03/28 16:20:09.5  -1.2                          T                1.3  .22 Ml 2.0         4898092
FRF   001.34 260.5 m E Pg      2012/03/28 16:19:55.3   0.3                          T                                        4898087
FRF   001.34 260.5 m E Sg      2012/03/28 16:20:11.1  -1.2                          T                1.7  .20 Ml 1.9         4898089
LMR   001.50 252.7 m E Pg      2012/03/28 16:19:58.4   0.6                          T                                        4898107
LMR   001.50 252.7 m E Sg      2012/03/28 16:20:17.8   0.6                          T                 .9  .31 Ml 1.5         4898106
MBDF  001.53 308.0 m E Pg      2012/03/28 16:19:58.7   0.0                          T                                        4898090
MBDF  001.53 308.0 m E Sn      2012/03/28 16:20:15.1  -1.0                          T                                        4898105
MBDF  001.53 308.0 m E Sg      2012/03/28 16:20:17.9  -0.6                          T                5.5  .56 Ml 2.0 Md 2.0  4898091
ORIF  002.17 302.1 m E Pg      2012/03/28 16:20:09.3  -1.0                          T                                        4898103
ORIF  002.17 302.1 m E Sn      2012/03/28 16:20:31.3   0.0                          T                1.5  .39 Ml 1.8         4898102
ORIF  002.17 302.1 m E Sg      2012/03/28 16:20:39.0   0.7                          T                 .8  .22 Ml 1.8         4898101
SMRF  002.10 275.9 m E Sg      2012/03/28 16:20:36.1   0.1                          T                1.3  .24 Ml 2.0         4898104

.
EVENT     272633
    Date      Time       Latitude Longitude    Depth    Ndef Nsta Gap    Mag1  N    Mag2  N    Mag3  N   Author         ID
       rms   OT_Error      Smajor Sminor Az        Err   mdist  Mdist     Err        Err        Err      Quality

2012/03/28 17:22:41.2     37.1711   -4.3106      2.0      96    5 108  Ml 3.2  4                         js067245    272653

      0.88   +-  0.12       3.0    1.8  166.14 +-  0.0    0.70   9.23   +-0.1                            m i ke

SPAIN
Sta     Dist  EvAz     Phase      Date       Time     TRes  Azim  AzRes  Slow  SRes Def   SNR       Amp   Per   Mag1   Mag2       ID
SJPF  006.39 020.8 m E Pn      2012/03/28 17:24:14.8   0.8                          T                                        4898116
SJPF  006.39 020.8 m E Sn      2012/03/28 17:25:24.0   0.7                          T                2.6  .25 Ml 3.2         4898112
ETSF  006.40 025.5 m E Pn      2012/03/28 17:24:15.5   1.2                          T                                        4898115
ETSF  006.40 025.5 m E Sg      2012/03/28 17:26:02.5   0.9                          T                4.3  .42 Ml 3.2         4898117
EPF   006.85 029.9 m E Pn      2012/03/28 17:24:21.3   0.9                          T                                        4898114
EPF   006.85 029.9 m E Sn      2012/03/28 17:25:33.8  -0.5                          T                4.1  .36 Ml 3.3         4898113
EPF   006.85 029.9 m E Sg      2012/03/28 17:26:17.0   1.4                          T                4.1  .38 Ml 3.3         4898108
CAF   009.12 029.9 m E Pn      2012/03/28 17:24:51.7   0.5                          T                                        4898109
RJF   009.23 026.5 m E Pn      2012/03/28 17:24:52.5  -0.2                          T                                        4898110
RJF   009.23 026.5 m E P       2012/03/28 17:24:57.9  -0.6                          T                                        4898111

.
