EVENT     257292
    Date      Time       Latitude Longitude    Depth    Ndef Nsta Gap    Mag1  N    Mag2  N    Mag3  N   Author         ID
       rms   OT_Error      Smajor Sminor Az        Err   mdist  Mdist     Err        Err        Err      Quality

2011/03/17 16:08:52.1     44.4868    6.9151      2.0      33   11 048  Ml 2.6 11  Md 2.7  3              js067245    257292

      0.20   +-  0.04       1.0     .7   56.09 +-  0.0    0.13   2.46   +-0.2      +-0.0                 m i ke

FRANCE
Sta     Dist  EvAz     Phase      Date       Time     TRes  Azim  AzRes  Slow  SRes Def   SNR       Amp   Per   Mag1   Mag2       ID
MBDF  000.26 336.9 m E Pg      2011/03/17 16:08:57.4   0.0                          T                                        4661103
MBDF  000.26 336.9 m E Sg      2011/03/17 16:09:01.0   0.1                          T               73.2  .20        Md 2.7  4661095
SBF   000.73 148.9 m E Pg      2011/03/17 16:09:06.1   0.3                          T                                        4661097
SBF   000.73 148.9 m E Sg      2011/03/17 16:09:15.1  -0.3                          T               72.0  .50        Md 2.7  4661094
ORIF  000.86 300.7 m E Pg      2011/03/17 16:09:08.2  -0.1                          T                                        4661102
ORIF  000.86 300.7 m E Sg      2011/03/17 16:09:19.7   0.3                          T               18.6  .30 Ml 2.5 Md 2.6  4661111
FRF   000.95 191.9 m E Pg      2011/03/17 16:09:09.9   0.1                          T                                        4661099
FRF   000.95 191.9 m E Sg      2011/03/17 16:09:22.1   0.0                          T               27.6  .26 Ml 2.9         4661114
LPL   001.04 352.9 m E Pg      2011/03/17 16:09:11.9   0.1                          T                                        4661091
LPL   001.04 352.9 m E Sg      2011/03/17 16:09:25.3   0.1                          T               14.3  .40 Ml 2.4         4661112
LPG   001.02 353.5 m E Pg      2011/03/17 16:09:12.0   0.5                          T                                        4661101
LPG   001.02 353.5 m E Sg      2011/03/17 16:09:24.8   0.1                          T               10.8  .31 Ml 2.4         4661113
SMRF  001.09 242.5 m E Pg      2011/03/17 16:09:12.6   0.1                          T                                        4661100
SMRF  001.09 242.5 m E Sg      2011/03/17 16:09:26.5  -0.1                          T               34.0  .34 Ml 2.9         4661092
LMR   001.19 194.4 m E Pg      2011/03/17 16:09:14.2  -0.1                          T                                        4661098
LMR   001.19 194.4 m E Sg      2011/03/17 16:09:29.6   0.0                          T               31.1  .32 Ml 2.9         4661093
VIVF  001.64 283.8 m E Pg      2011/03/17 16:09:22.2  -0.5                          T                                        4661096
VIVF  001.64 283.8 m E Sg      2011/03/17 16:09:44.1   0.2                          T                9.0  .26 Ml 2.6         4661110
LASF  002.23 260.5 m E Pn      2011/03/17 16:09:28.3   0.0                          T                                        4661108
LASF  002.23 260.5 m E Sn      2011/03/17 16:09:55.3   0.4                          T                2.4  .26 Ml 2.2         4661109
PGF   002.46 141.2 m E Pn      2011/03/17 16:09:31.6   0.1                          T                                        4661115
PGF   002.46 141.2 m E Sn      2011/03/17 16:10:00.4   0.0                          T                9.2  .43 Ml 2.9         4661116

.
EVENT     257300
    Date      Time       Latitude Longitude    Depth    Ndef Nsta Gap    Mag1  N    Mag2  N    Mag3  N   Author         ID
       rms   OT_Error      Smajor Sminor Az        Err   mdist  Mdist     Err        Err        Err      Quality

2011/03/17 21:47:22.6     51.8666    3.0774       .0 f    44   29 257  Ml 2.4  9                         js067245    257300

      0.32   +-  0.22       4.8    2.2    3.95 +-  0.0    1.95   7.10   +-0.2                            m i sm

THE NETHERLANDS
Sta     Dist  EvAz     Phase      Date       Time     TRes  Azim  AzRes  Slow  SRes Def   SNR       Amp   Per   Mag1   Mag2       ID
BAIF  001.95 158.0 m E Pn      2011/03/17 21:47:55.4   0.2                          T                                        4661198
BAIF  001.95 158.0 m E Pg      2011/03/17 21:48:01.6   2.6                          T                                        4661171
BAIF  001.95 158.0 m E Sn      2011/03/17 21:48:19.3   0.2                          T                3.4  .20 Ml 2.4         4661182
GIVF  002.08 147.3 m E Pn      2011/03/17 21:47:57.0  -0.2                          T                                        4661196
GIVF  002.08 147.3 m E Pg      2011/03/17 21:48:04.0   2.5                          T                                        4661170
GIVF  002.08 147.3 m E Sn      2011/03/17 21:48:22.5   0.1                          T                5.8  .27 Ml 2.6         4661169
RUP   003.33 129.1 m E Pn      2011/03/17 21:48:14.2   0.0                          T                                        4661197
RUP   003.33 129.1 m E Sn      2011/03/17 21:48:51.6  -0.7                          T                                        4661163
MEZF  003.60 158.6 m E Pn      2011/03/17 21:48:17.8   0.0                          T                                        4661176
PAGF  003.73 151.8 m E Pn      2011/03/17 21:48:19.6   0.0                          T                                        4661167
FLN   003.85 217.7 m E Pn      2011/03/17 21:48:21.3   0.0                          T                                        4661195
FLN   003.85 217.7 m E Sn      2011/03/17 21:49:04.2  -0.5                          T                1.9  .24 Ml 2.4         4661164
SFTF  003.88 160.2 m E Pn      2011/03/17 21:48:21.6   0.0                          T                                        4661179
LDF   003.87 213.3 m E Pn      2011/03/17 21:48:21.8   0.4                          T                                        4661194
LDF   003.87 213.3 m E Sn      2011/03/17 21:49:04.8  -0.3                          T                 .8  .26 Ml 2.1         4661165
THEF  004.10 151.6 m E Pn      2011/03/17 21:48:24.6   0.0                          T                                        4661175
LANF  004.18 131.9 m E Pn      2011/03/17 21:48:25.5  -0.3                          T                                        4661168
GRR   004.30 217.6 m E Pn      2011/03/17 21:48:27.3  -0.1                          T                                        4661193
CDF   004.39 140.4 m E Pn      2011/03/17 21:48:28.7   0.0                          T                                        4661184
HAU   004.40 150.1 m E Pn      2011/03/17 21:48:29.0   0.2                          T                                        4661181
HYF   004.61 183.7 m E Pn      2011/03/17 21:48:31.3  -0.3                          T                                        4661178
LOR   004.63 173.4 m E Pn      2011/03/17 21:48:32.6   0.7                          T                                        4661201
LOR   004.63 173.4 m E Sn      2011/03/17 21:49:23.4   0.1                          T                1.2  .33 Ml 2.4         4661172
HINF  004.73 147.5 m E Pn      2011/03/17 21:48:33.4   0.1                          T                                        4661180
SSF   004.82 176.5 m E Pn      2011/03/17 21:48:34.8   0.4                          T                                        4661200
SSF   004.82 176.5 m E Sn      2011/03/17 21:49:28.0   0.2                          T                 .8  .33 Ml 2.3         4661162
AVF   005.08 177.9 m E Pn      2011/03/17 21:48:37.2  -0.8                          T                                        4661177
SGMF  005.12 227.3 m E Pn      2011/03/17 21:48:38.7   0.2                          T                                        4661189
SMF   005.25 174.2 m E Pn      2011/03/17 21:48:40.2  -0.2                          T                                        4661185
BGF   005.32 181.7 m E Pn      2011/03/17 21:48:41.7   0.5                          T                                        4661186
ROSF  005.40 231.6 m E Pn      2011/03/17 21:48:42.2  -0.1                          T                                        4661173
MFF   005.68 203.1 m E Pn      2011/03/17 21:48:45.0  -1.1                          T                                        4661192
TCF   005.61 186.2 m E Pn      2011/03/17 21:48:45.1  -0.2                          T                                        4661199
TCF   005.61 186.2 m E Sn      2011/03/17 21:49:47.0   0.1                          T                 .4  .20 Ml 2.4         4661161
CABF  005.62 158.3 m E Pn      2011/03/17 21:48:45.6   0.2                          T                                        4661174
QUIF  005.65 228.0 m E Pn      2011/03/17 21:48:46.1   0.4                          T                                        4661188
RJF   006.65 189.6 m E Pn      2011/03/17 21:48:59.5   0.2                          T                                        4661191
CAF   006.98 185.9 m E Pn      2011/03/17 21:49:03.2  -0.7                          T                                        4661190
CAF   006.98 185.9 m E Sn      2011/03/17 21:50:19.7   0.3                          T                 .9  .30 Ml 2.7         4661166
LFF   007.10 193.5 m E Pn      2011/03/17 21:49:04.8  -0.7                          T                                        4661183

.
EVENT     257301
    Date      Time       Latitude Longitude    Depth    Ndef Nsta Gap    Mag1  N    Mag2  N    Mag3  N   Author         ID
       rms   OT_Error      Smajor Sminor Az        Err   mdist  Mdist     Err        Err        Err      Quality

2011/03/18 01:39:32.2     43.1898    -.8971      2.0      53   10 094  Ml 2.2 11  Md 2.2  3              js067245    257301

      0.52   +-  0.06       1.4    1.0  149.20 +-  0.0    0.18   4.99   +-0.2      +-0.0                 m i ke

PYRENEES
Sta     Dist  EvAz     Phase      Date       Time     TRes  Azim  AzRes  Slow  SRes Def   SNR       Amp   Per   Mag1   Mag2       ID
SJPF  000.25 252.4 m E Pg      2011/03/18 01:39:37.3   0.1                          T                                        4661214
SJPF  000.25 252.4 m E Sg      2011/03/18 01:39:40.8   0.2                          T              120.4  .18        Md 2.2  4661211
ETSF  000.38 139.5 m E Pg      2011/03/18 01:39:39.1  -0.6                          T                                        4661213
ETSF  000.38 139.5 m E Sg      2011/03/18 01:39:43.8  -0.9                          T               41.9  .18        Md 2.2  4661210
EPF   000.92 099.6 m E Pg      2011/03/18 01:39:49.6   0.0                          T                                        4661212
EPF   000.92 099.6 m E Sg      2011/03/18 01:40:01.5   0.0                          T               10.3  .28 Ml 2.3 Md 2.2  4661224
LFF   002.11 033.4 m E Pn      2011/03/18 01:40:06.1  -0.6                          T                                        4661208
LFF   002.11 033.4 m E Pg      2011/03/18 01:40:11.4   0.1                          T                                        4661221
LFF   002.11 033.4 m E Sg      2011/03/18 01:40:38.3  -0.2                          T                8.4  .46 Ml 2.3         4661226
MTLF  002.28 085.1 m E Pn      2011/03/18 01:40:08.9  -0.1                          T                                        4661205
MTLF  002.28 085.1 m E Sg      2011/03/18 01:40:43.8  -0.1                          T                1.7  .22 Ml 2.2         4661223
CAF   002.75 049.9 m E Pn      2011/03/18 01:40:15.0  -0.5                          T                                        4661209
CAF   002.75 049.9 m E Pg      2011/03/18 01:40:23.3   0.1                          T                                        4661219
CAF   002.75 049.9 m E Sn      2011/03/18 01:40:47.3  -0.1                          T                 .8  .19 Ml 2.0         4661225
RJF   002.73 038.5 m E Pn      2011/03/18 01:40:15.1  -0.1                          T                                        4661207
RJF   002.73 038.5 m E Pg      2011/03/18 01:40:23.1   0.2                          T                                        4661220
RJF   002.73 038.5 m E Sn      2011/03/18 01:40:46.8  -0.1                          T                2.4  .20 Ml 2.1         4661227
MFF   003.45 008.6 m E Pn      2011/03/18 01:40:25.5   0.5                          T                                        4661206
LASF  003.56 074.0 m E Pn      2011/03/18 01:40:25.5  -1.0                          T                                        4661204
LASF  003.56 074.0 m E Sn      2011/03/18 01:41:06.7   0.0                          T                 .9  .29 Ml 2.0         4661222
MFF   003.45 008.6 m E Sg      2011/03/18 01:41:20.6   0.2                          T                1.9  .34 Ml 2.4         4661228
TCF   003.81 034.5 m E Pn      2011/03/18 01:40:29.6  -0.2                          T                                        4661202
TCF   003.81 034.5 m E Sn      2011/03/18 01:41:12.6   0.0                          T                1.4  .45 Ml 2.1         4661230

.
EVENT     257294
    Date      Time       Latitude Longitude    Depth    Ndef Nsta Gap    Mag1  N    Mag2  N    Mag3  N   Author         ID
       rms   OT_Error      Smajor Sminor Az        Err   mdist  Mdist     Err        Err        Err      Quality

2011/03/18 04:17:09.9     43.0226    4.9395      2.0       8    4 249  Ml 2.0  4  Md 2.0  3              js067245    257294

      0.14   +-  0.16       3.3    1.2   17.00 +-  0.0    1.06   1.36   +-0.3      +-0.0                 m i ke

NEAR SOUTH COAST OF FRANCE
Sta     Dist  EvAz     Phase      Date       Time     TRes  Azim  AzRes  Slow  SRes Def   SNR       Amp   Per   Mag1   Mag2       ID
SMRF  001.06 025.7 m E Pg      2011/03/18 04:17:29.9   0.1                          T                                        4661238
SMRF  001.06 025.7 m E Sg      2011/03/18 04:17:43.6   0.1                          T                1.7  .18 Ml 1.8 Md 2.1  4661233
LMR   001.19 074.3 m E Pg      2011/03/18 04:17:32.2   0.1                          T                                        4661236
LMR   001.19 074.3 m E Sg      2011/03/18 04:17:47.5   0.0                          T                3.8  .22 Ml 2.2 Md 2.1  4661235
LASF  001.31 323.6 m E Pg      2011/03/18 04:17:34.4  -0.1                          T                                        4661231
LASF  001.31 323.6 m E Sg      2011/03/18 04:17:51.5   0.0                          T                1.7  .29 Ml 1.7 Md 2.0  4661232
FRF   001.36 066.1 m E Pg      2011/03/18 04:17:35.2   0.0                          T                                        4661237
FRF   001.36 066.1 m E Sg      2011/03/18 04:17:52.4  -0.4                          T                5.8  .30 Ml 2.3         4661234

.
EVENT     257302
    Date      Time       Latitude Longitude    Depth    Ndef Nsta Gap    Mag1  N    Mag2  N    Mag3  N   Author         ID
       rms   OT_Error      Smajor Sminor Az        Err   mdist  Mdist     Err        Err        Err      Quality

2011/03/18 07:03:37.2     41.2123    9.3839      2.0      21   11 318  Ml 3.0  8                         js067245    257302

      0.19   +-  0.19       4.2    3.3   94.07 +-  0.0    1.37   5.02   +-0.5                            m i ke

CORSICA, FRANCE
Sta     Dist  EvAz     Phase      Date       Time     TRes  Azim  AzRes  Slow  SRes Def   SNR       Amp   Per   Mag1   Mag2       ID
PGF   001.37 348.0 m E Pn      2011/03/18 07:04:01.5  -0.3                          T                                        4661254
PGF   001.37 348.0 m E Sn      2011/03/18 07:04:19.6   0.3                          T              132.0  .34 Ml 3.8         4661253
LMR   003.01 315.8 m E Pn      2011/03/18 07:04:23.9  -0.1                          T                                        4661250
LMR   003.01 315.8 m E Sn      2011/03/18 07:04:58.2  -0.3                          T                7.3  .40 Ml 2.7         4661251
SBF   003.02 332.1 m E Pn      2011/03/18 07:04:24.3   0.2                          T                                        4661249
SBF   003.02 332.1 m E Sn      2011/03/18 07:04:58.5  -0.3                          T                9.8  .30 Ml 2.9         4661252
FRF   003.10 320.1 m E Pn      2011/03/18 07:04:25.1  -0.1                          T                                        4661244
FRF   003.10 320.1 m E Sn      2011/03/18 07:05:00.3  -0.5                          T                6.8  .30 Ml 2.8         4661239
SMRF  003.94 315.8 m E Pn      2011/03/18 07:04:36.6  -0.1                          T                                        4661248
MBDF  004.00 332.3 m E Pn      2011/03/18 07:04:37.8   0.1                          T                                        4661256
MBDF  004.00 332.3 m E Sn      2011/03/18 07:05:22.4  -0.1                          T               11.3  .63 Ml 2.9         4661242
ORIF  004.51 326.4 m E Pn      2011/03/18 07:04:44.3  -0.3                          T                                        4661246
LPG   004.69 336.7 m E Pn      2011/03/18 07:04:47.4   0.1                          T                                        4661245
LPG   004.69 336.7 m E Sn      2011/03/18 07:05:39.3   0.1                          T                  1  .34 Ml 2.3         4661240
LPL   004.72 336.7 m E Pn      2011/03/18 07:04:47.7   0.2                          T                                        4661255
LPL   004.72 336.7 m E Sn      2011/03/18 07:05:39.8   0.2                          T                2.1  .34 Ml 2.6         4661241
LASF  004.98 306.9 m E Pn      2011/03/18 07:04:51.0   0.1                          T                                        4661247
VIVF  005.02 318.1 m E Pn      2011/03/18 07:04:51.6   0.1                          T                                        4661243

.
EVENT     257311
    Date      Time       Latitude Longitude    Depth    Ndef Nsta Gap    Mag1  N    Mag2  N    Mag3  N   Author         ID
       rms   OT_Error      Smajor Sminor Az        Err   mdist  Mdist     Err        Err        Err      Quality

2011/03/18 09:14:48.6     43.0788    -.7211      2.0       8    4 128  Ml 2.2  1  Md 2.1  3              js067245    257311

      0.14   +-  0.05       1.5    1.0   15.80 +-  0.0    0.22   2.14   +-         +-0.1                 m i ke

PYRENEES
Sta     Dist  EvAz     Phase      Date       Time     TRes  Azim  AzRes  Slow  SRes Def   SNR       Amp   Per   Mag1   Mag2       ID
ETSF  000.22 146.5 m E Pg      2011/03/18 09:14:52.8  -0.2                          T                                        4661291
ETSF  000.22 146.5 m E Sg      2011/03/18 09:14:56.0   0.0                          T               16.2  .24        Md 2.1  4661288
SJPF  000.37 275.5 m E Pg      2011/03/18 09:14:55.8  -0.1                          T                                        4661290
SJPF  000.37 275.5 m E Sg      2011/03/18 09:15:00.7  -0.1                          T               17.4  .28        Md 2.1  4661289
EPF   000.78 093.2 m E Pg      2011/03/18 09:15:03.5   0.1                          T                                        4661286
EPF   000.78 093.2 m E Sg      2011/03/18 09:15:13.7   0.1                          T                3.6  .31        Md 2.0  4661287
LFF   002.14 029.0 m E Pn      2011/03/18 09:15:23.4  -0.1                          T                                        4661285
LFF   002.14 029.0 m E Sn      2011/03/18 09:15:48.9  -0.2                          T                7.6  .51 Ml 2.2         4661284

.
