EVENT     270395
    Date      Time       Latitude Longitude    Depth    Ndef Nsta Gap    Mag1  N    Mag2  N    Mag3  N   Author         ID
       rms   OT_Error      Smajor Sminor Az        Err   mdist  Mdist     Err        Err        Err      Quality

2012/02/18 17:40:14.7     41.5733    2.6063      5.0 f    36    6 139  Ml 2.1  6                         js067245    270415

      0.55   +-  0.17       2.8    1.6  144.00 +-  0.0    0.23   3.61   +-0.3                            m i ke

SPAIN
Sta     Dist  EvAz     Phase      Date       Time     TRes  Azim  AzRes  Slow  SRes Def   SNR       Amp   Per   Mag1   Mag2       ID
EPF   002.22 311.6 m E Pn      2012/02/18 17:40:51.8   1.3                          T                                        4842427
EPF   002.22 311.6 m E Pg      2012/02/18 17:40:56.4   0.3                          T                                        4842433
EPF   002.22 311.6 m E Sn      2012/02/18 17:41:18.7   1.9                          T                                        4842429
EPF   002.22 311.6 m E Sg      2012/02/18 17:41:24.2  -0.4                          T                3.9  .22 Ml 2.5         4842440
ETSF  002.70 300.5 m E Pn      2012/02/18 17:40:56.2  -0.8                          T                                        4842432
ETSF  002.70 300.5 m E Sg      2012/02/18 17:41:38.3  -1.2                          T                1.6  .21 Ml 2.2         4842439
LASF  002.67 019.8 m E Pn      2012/02/18 17:40:58.0   1.5                          T                                        4842430
LASF  002.67 019.8 m E Sg      2012/02/18 17:41:38.1  -0.3                          T                 .6  .21 Ml 1.8         4842435
VIVF  003.61 024.0 m E Pn      2012/02/18 17:41:09.5   0.2                          T                                        4842428
VIVF  003.61 024.0 m E Sg      2012/02/18 17:42:07.0  -1.0                          T                 .4  .25 Ml 1.8         4842434
SJPF  003.23 299.7 m E Pg      2012/02/18 17:41:14.6   0.0                          T                                        4842431
SJPF  003.23 299.7 m E Sg      2012/02/18 17:41:56.4   0.3                          T                  1  .25 Ml 2.1         4842438
CAF   003.37 353.4 m E Pg      2012/02/18 17:41:17.5   0.2                          T                                        4842436
CAF   003.37 353.4 m E Sg      2012/02/18 17:42:01.5   1.0                          T                 .9  .24 Ml 2.1         4842437

.
EVENT     270396
    Date      Time       Latitude Longitude    Depth    Ndef Nsta Gap    Mag1  N    Mag2  N    Mag3  N   Author         ID
       rms   OT_Error      Smajor Sminor Az        Err   mdist  Mdist     Err        Err        Err      Quality

2012/02/18 17:42:31.5     41.5746    2.6055      4.0 f    71   14 098  Ml 2.5 15  Md 2.8  2              js067245    270416

      0.55   +-  0.10       1.8    1.3  148.54 +-  0.0    0.23   5.40   +-0.3      +-0.0                 m i ke

SPAIN
Sta     Dist  EvAz     Phase      Date       Time     TRes  Azim  AzRes  Slow  SRes Def   SNR       Amp   Per   Mag1   Mag2       ID
EPF   002.22 311.6 m E Pn      2012/02/18 17:43:08.8   1.4                          T                                        4842549
EPF   002.22 311.6 m E Pg      2012/02/18 17:43:12.9   0.0                          T                                        4842546
EPF   002.22 311.6 m E Sg      2012/02/18 17:43:41.0  -0.5                          T               12.5  .20 Ml 3.1 Md 2.8  4842556
LASF  002.66 019.8 m E Pn      2012/02/18 17:43:14.3   0.9                          T                                        4842542
LASF  002.66 019.8 m E Sn      2012/02/18 17:43:43.6  -0.6                          T                                        4842545
LASF  002.66 019.8 m E Sg      2012/02/18 17:43:55.0  -0.3                          T                4.1  .31 Ml 2.5         4842551
ETSF  002.70 300.4 m E Pn      2012/02/18 17:43:14.9   1.0                          T                                        4842550
ETSF  002.70 300.4 m E Pg      2012/02/18 17:43:21.4  -0.3                          T                                        4842547
ETSF  002.70 300.4 m E Sg      2012/02/18 17:43:55.0  -1.3                          T                8.7  .34 Ml 2.8 Md 2.7  4842555
SJPF  003.23 299.7 m E Pn      2012/02/18 17:43:22.2   1.1                          T                                        4842548
SJPF  003.23 299.7 m E Sn      2012/02/18 17:43:59.3   1.6                          T                                        4842523
SJPF  003.23 299.7 m E Sg      2012/02/18 17:44:11.6  -1.2                          T                6.3  .32 Ml 2.8         4842554
LMR   003.38 057.4 m E Pn      2012/02/18 17:43:23.6   0.5                          T                                        4842526
LMR   003.38 057.4 m E Sn      2012/02/18 17:44:00.8  -0.5                          T                1.8  .25 Ml 2.4         4842528
FRF   003.58 055.0 m E Pn      2012/02/18 17:43:26.5   0.6                          T                                        4842524
FRF   003.58 055.0 m E Sn      2012/02/18 17:44:06.4   0.2                          T                 .7  .18 Ml 2.2         4842529
VIVF  003.61 024.0 m E Pn      2012/02/18 17:43:26.8   0.5                          T                                        4842540
VIVF  003.61 024.0 m E P       2012/02/18 17:43:29.7   0.1                          T                                        4842541
VIVF  003.61 024.0 m E Sn      2012/02/18 17:44:07.9   1.0                          T                                        4842543
VIVF  003.61 024.0 m E Sg      2012/02/18 17:44:24.5  -0.3                          T                1.7  .28 Ml 2.3         4842544
LFF   003.63 338.6 m E Pn      2012/02/18 17:43:27.0   0.5                          T                                        4842533
LFF   003.63 338.6 m E Pg      2012/02/18 17:43:38.8   0.1                          T                                        4842534
LFF   003.63 338.6 m E Sg      2012/02/18 17:44:26.1   0.8                          T                5.2  .29 Ml 2.6         4842552
SMRF  003.25 041.3 m E Pg      2012/02/18 17:43:30.9  -0.8                          T                                        4842525
SMRF  003.25 041.3 m E Sg      2012/02/18 17:44:14.3   0.9                          T                2.5  .28 Ml 2.4         4842530
MFF   005.40 339.4 m E Pn      2012/02/18 17:43:51.2   0.5                          T                                        4842532
MFF   005.40 339.4 m E Pg      2012/02/18 17:44:11.6   0.2                          T                                        4842531
MFF   005.40 339.4 m E Sg      2012/02/18 17:45:20.8   0.2                          T                 .5  .26 Ml 2.4         4842536
TCF   004.72 356.7 m E Pg      2012/02/18 17:43:59.3   0.4                          T                                        4842538
TCF   004.72 356.7 m E Sg      2012/02/18 17:44:58.9  -0.5                          T                 .4  .18 Ml 2.1         4842539
CAF   003.37 353.5 m E Sg      2012/02/18 17:44:17.0  -0.4                          T                3.3  .30 Ml 2.5         4842553
RJF   003.81 348.4 m E Sg      2012/02/18 17:44:30.8  -0.2                          T                2.1  .27 Ml 2.2         4842535
PGF   004.86 076.3 m E Sn      2012/02/18 17:44:35.7  -1.0                          T                1.5  .22 Ml 2.9         4842527

.
EVENT     270398
    Date      Time       Latitude Longitude    Depth    Ndef Nsta Gap    Mag1  N    Mag2  N    Mag3  N   Author         ID
       rms   OT_Error      Smajor Sminor Az        Err   mdist  Mdist     Err        Err        Err      Quality

2012/02/18 22:11:48.1     37.3555   -2.5979      2.0      64    3 075  Ml 2.6  3                         js067245    270418

      0.91   +-  0.13       2.7    2.2  137.86 +-  0.0    0.37   6.26   +-0.2                            m i ke

SPAIN
Sta     Dist  EvAz     Phase      Date       Time     TRes  Azim  AzRes  Slow  SRes Def   SNR       Amp   Per   Mag1   Mag2       ID
ETSF  005.75 015.1 m E Pn      2012/02/18 22:13:13.6   1.3                          T                                        4842559
ETSF  005.75 015.1 m E Sg      2012/02/18 22:14:48.2   0.0                          T                 .7  .31 Ml 2.4         4843780
SJPF  005.85 009.9 m E Pn      2012/02/18 22:13:15.2   1.7                          T                                        4842560
SJPF  005.85 009.9 m E Sn      2012/02/18 22:14:17.1  -0.1                          T                 .9  .32 Ml 2.5         4843779
EPF   006.10 020.7 m E Pn      2012/02/18 22:13:18.7   1.7                          T                                        4842558
EPF   006.10 020.7 m E Sn      2012/02/18 22:14:22.3  -1.0                          T                1.0  .18 Ml 2.9         4843781

.
EVENT     270399
    Date      Time       Latitude Longitude    Depth    Ndef Nsta Gap    Mag1  N    Mag2  N    Mag3  N   Author         ID
       rms   OT_Error      Smajor Sminor Az        Err   mdist  Mdist     Err        Err        Err      Quality

2012/02/18 23:36:03.1     40.7694    1.1217     20.0 f    66   11 051  Ml 2.6  9  Md 3.0  2              js067245    270419

      0.40   +-  0.07       1.4    1.0  155.81 +-  0.0    0.19   4.96   +-0.4      +-0.0                 m i ke

BALEARIC ISLANDS, SPAIN
Sta     Dist  EvAz     Phase      Date       Time     TRes  Azim  AzRes  Slow  SRes Def   SNR       Amp   Per   Mag1   Mag2       ID
EPF   002.33 345.8 m E Pn      2012/02/18 23:36:38.7   0.1                          T                                        4843824
EPF   002.33 345.8 m E P       2012/02/18 23:36:41.3   0.0                          T                                        4842582
EPF   002.33 345.8 m E Pg      2012/02/18 23:36:45.5  -1.1                          T                                        4842598
EPF   002.33 345.8 m E Sg      2012/02/18 23:37:16.4  -0.3                          T               22.8  .24 Ml 3.3 Md 3.0  4842597
ETSF  002.47 330.0 m E Pn      2012/02/18 23:36:40.8   0.2                          T                                        4842591
ETSF  002.47 330.0 m E Pg      2012/02/18 23:36:48.7  -0.4                          T                                        4842595
ETSF  002.47 330.0 m E Sg      2012/02/18 23:37:20.3  -0.6                          T               16.4  .36 Ml 3.0 Md 3.0  4842596
SJPF  002.92 324.0 m E Pn      2012/02/18 23:36:46.6   0.0                          T                                        4842594
SJPF  002.92 324.0 m E P       2012/02/18 23:36:50.0   0.3                          T                                        4842592
SJPF  002.92 324.0 m E Pg      2012/02/18 23:36:57.1  -0.3                          T                                        4842581
SJPF  002.92 324.0 m E Sg      2012/02/18 23:37:34.4  -0.6                          T                9.7  .28 Ml 3.0         4842590
LASF  003.88 030.6 m E P       2012/02/18 23:37:03.3   0.1                          T                                        4843820
LASF  003.88 030.6 m E Sg      2012/02/18 23:38:04.8   0.1                          T                                        4842589
LFF   004.18 356.3 m E Pn      2012/02/18 23:37:03.7   0.0                          T                                        4842587
LFF   004.18 356.3 m E P       2012/02/18 23:37:07.0  -0.4                          T                                        4842586
LFF   004.18 356.3 m E Pg      2012/02/18 23:37:21.1   0.7                          T                                        4842585
LFF   004.18 356.3 m E Sn      2012/02/18 23:37:48.8  -0.1                          T                                        4843818
LFF   004.18 356.3 m E Sg      2012/02/18 23:38:14.0  -0.1                          T                4.3  .33 Ml 2.6         4842588
CAF   004.21 009.2 m E Pn      2012/02/18 23:37:05.7   1.4                          T                                        4842593
CAF   004.21 009.2 m E Pg      2012/02/18 23:37:21.4   0.3                          T                                        4842580
CAF   004.21 009.2 m E Sn      2012/02/18 23:37:49.5  -0.4                          T                                        4843819
CAF   004.21 009.2 m E Sg      2012/02/18 23:38:14.4  -0.8                          T                1.3  .22 Ml 2.5         4842583
RJF   004.54 003.5 m E Pn      2012/02/18 23:37:09.3   0.6                          T                                        4843825
RJF   004.54 003.5 m E Pg      2012/02/18 23:37:27.2   0.1                          T                                        4842584
RJF   004.54 003.5 m E Sg      2012/02/18 23:38:25.8   0.4                          T                1.0  .19 Ml 2.2         4842576
SMRF  004.60 044.4 m E P       2012/02/18 23:37:13.7   0.2                          T                                        4843823
SMRF  004.60 044.4 m E Sg      2012/02/18 23:38:27.3   0.0                          T                1.1  .41 Ml 2.2         4843821
FRF   004.96 054.0 m E Pn      2012/02/18 23:37:14.6   0.2                          T                                        4843822
LMR   004.76 055.7 m E P       2012/02/18 23:37:15.0  -0.7                          T                                        4842577
LMR   004.76 055.7 m E Sn      2012/02/18 23:38:03.2   0.3                          T                1.8  .32 Ml 2.6         4842578
VIVF  004.85 031.4 m E Sg      2012/02/18 23:38:35.1   0.1                          T                1.0  .32 Ml 2.3         4842579

.
EVENT     270401
    Date      Time       Latitude Longitude    Depth    Ndef Nsta Gap    Mag1  N    Mag2  N    Mag3  N   Author         ID
       rms   OT_Error      Smajor Sminor Az        Err   mdist  Mdist     Err        Err        Err      Quality

2012/02/19 00:00:42.4     42.3624    1.7824      4.0 f    36    9 062  Ml 2.1 10  Md 2.1  2              js067245    270421

      0.36   +-  0.06       1.2    1.0  153.74 +-  0.0    0.18   4.26   +-0.2      +-0.2                 m i ke

PYRENEES
Sta     Dist  EvAz     Phase      Date       Time     TRes  Azim  AzRes  Slow  SRes Def   SNR       Amp   Per   Mag1   Mag2       ID
EPF   001.26 302.6 m E Pn      2012/02/19 00:01:05.6   0.4                          T                                        4842620
EPF   001.26 302.6 m E Pg      2012/02/19 00:01:06.2   0.2                          T                                        4842619
EPF   001.26 302.6 m E Sg      2012/02/19 00:01:22.1  -0.1                          T                4.7  .24 Ml 2.2 Md 2.3  4842612
ETSF  001.81 288.0 m E Pg      2012/02/19 00:01:17.0   0.8                          T                                        4842618
ETSF  001.81 288.0 m E Sg      2012/02/19 00:01:40.2   0.7                          T                3.5  .28 Ml 2.3 Md 2.0  4842617
CAF   002.57 004.5 m E Pn      2012/02/19 00:01:23.7   0.6                          T                                        4842605
CAF   002.57 004.5 m E Pg      2012/02/19 00:01:29.8  -0.4                          T                                        4842604
CAF   002.57 004.5 m E Sn      2012/02/19 00:01:55.1   2.2                          T                                        4842615
CAF   002.57 004.5 m E Sg      2012/02/19 00:02:02.9  -0.4                          T                2.6  .28 Ml 2.3         4842616
LFF   002.68 344.0 m E Pn      2012/02/19 00:01:24.4  -0.2                          T                                        4842606
LFF   002.68 344.0 m E Pg      2012/02/19 00:01:31.9  -0.3                          T                                        4842607
LFF   002.68 344.0 m E Sg      2012/02/19 00:02:05.5  -1.3                          T                2.2  .29 Ml 2.1         4842613
LASF  002.29 040.8 m E Pg      2012/02/19 00:01:25.2   0.3                          T                                        4842611
LASF  002.29 040.8 m E Sn      2012/02/19 00:01:46.0  -0.2                          T                                        4842609
LASF  002.29 040.8 m E Sg      2012/02/19 00:01:54.4   0.0                          T                1.1  .28 Ml 1.9         4842610
SJPF  002.34 289.7 m E Pg      2012/02/19 00:01:27.0   1.1                          T                                        4842603
SJPF  002.34 289.7 m E Sg      2012/02/19 00:01:56.2   0.2                          T                1.2  .27 Ml 1.9         4842614
RJF   002.95 356.3 m E Sg      2012/02/19 00:02:14.3  -0.6                          T                 .7  .19 Ml 1.7         4842608
VIVF  003.26 039.1 m E Sg      2012/02/19 00:02:25.0   0.3                          T                1.2  .34 Ml 2.0         4842599
BGF   004.26 009.9 m E Sg      2012/02/19 00:02:56.0   0.0                          T                1.6  .29 Ml 2.4         4842601

.
