BEGIN GSE2.0
MSG_TYPE DATA
MSG_ID 03-FEB-1114:36:30  FRA_NDC
E-MAIL
DATA_TYPE BULLETIN
Reviewed Bulletin (REB) # P2011-004  from French NDC for regional phases     PERIOD 26 JAN 2011 TO 01 FEB 2011 C M., J-P S
EVENT     255181
    Date      Time       Latitude Longitude    Depth    Ndef Nsta Gap    Mag1  N    Mag2  N    Mag3  N   Author         ID
       rms   OT_Error      Smajor Sminor Az        Err   mdist  Mdist     Err        Err        Err      Quality

2011/01/26 01:03:47.1     42.7841   -1.2305      2.0      14    3 190  Ml 1.2  1  Md 1.3  2              js067245    255201

      0.46   +-  0.18       4.1    2.1  179.10 +-  0.0    0.06   1.18   +-         +-0.0                 m i ke

PYRENEES
Sta     Dist  EvAz     Phase      Date       Time     TRes  Azim  AzRes  Slow  SRes Def   SNR       Amp   Per   Mag1   Mag2       ID
SJPF  000.33 000.7 m E Pg      2011/01/26 01:03:53.8   0.3                          T                                        4638044
SJPF  000.33 000.7 m E Sg      2011/01/26 01:03:58.0   0.1                          T                2.7  .20        Md 1.3  4638041
ETSF  000.51 076.7 m E Pg      2011/01/26 01:03:57.1   0.3                          T                                        4638043
ETSF  000.51 076.7 m E Sg      2011/01/26 01:04:04.0   0.5                          T                1.4  .36        Md 1.3  4638042
EPF   001.18 077.4 m E Pg      2011/01/26 01:04:08.6  -0.6                          T                                        4638039
EPF   001.18 077.4 m E Sg      2011/01/26 01:04:25.1   0.6                          T                 .8  .36 Ml 1.2         4638040

.
EVENT     255182
    Date      Time       Latitude Longitude    Depth    Ndef Nsta Gap    Mag1  N    Mag2  N    Mag3  N   Author         ID
       rms   OT_Error      Smajor Sminor Az        Err   mdist  Mdist     Err        Err        Err      Quality

2011/01/26 01:27:09.4     43.1786   18.7638     10.0 f    56   10 058  Ml 3.7  3                         js067245    255202

      0.65   +-  0.10       2.9    2.4   18.01 +-  0.0    0.11  10.29   +-0.1                            m i ke

NORTHWESTERN BALKAN PEN.
Sta     Dist  EvAz     Phase      Date       Time     TRes  Azim  AzRes  Slow  SRes Def   SNR       Amp   Per   Mag1   Mag2       ID
PGF   007.20 268.3 m E Pn      2011/01/26 01:28:52.6   0.1                          T                                        4638046
SBF   008.26 278.6 m E Pn      2011/01/26 01:29:07.4   0.5                          T                                        4638047
MBDF  008.79 284.3 m E Pn      2011/01/26 01:29:14.3   0.1                          T                                        4638057
FRF   008.84 276.6 m E Pn      2011/01/26 01:29:14.5  -0.1                          T                                        4638050
LMR   008.95 275.2 m E Pn      2011/01/26 01:29:16.4   0.3                          T                                        4638048
LPG   008.92 289.2 m E Pn      2011/01/26 01:29:16.7   0.6                          T                                        4638054
LPL   008.93 289.3 m E Pn      2011/01/26 01:29:16.7   0.5                          T                                        4638055
LPG   008.92 289.2 m E Sn      2011/01/26 01:30:50.8   0.1                          T               11.1  .72 Ml 3.7         4638053
LPL   008.93 289.3 m E Sn      2011/01/26 01:30:51.4   0.4                          T               10.4  .72 Ml 3.7         4638052
ORIF  009.44 285.0 m E Pn      2011/01/26 01:29:23.0   0.0                          T                                        4638056
ORIF  009.44 285.0 m E Sn      2011/01/26 01:31:03.6   0.5                          T                6.4  .66 Ml 3.6         4638045
SMRF  009.61 279.3 m E Pn      2011/01/26 01:29:25.6   0.4                          T                                        4638049
VIVF  010.29 284.2 m E Pn      2011/01/26 01:29:34.1  -0.4                          T                                        4638051

.
EVENT     255183
    Date      Time       Latitude Longitude    Depth    Ndef Nsta Gap    Mag1  N    Mag2  N    Mag3  N   Author         ID
       rms   OT_Error      Smajor Sminor Az        Err   mdist  Mdist     Err        Err        Err      Quality

2011/01/26 01:34:05.6     43.2623    3.7181      2.0      35   14 125  Ml 2.2 15  Md 2.2  3              js067245    255203

      0.21   +-  0.04        .9     .6  130.78 +-  0.0    0.82   3.38   +-0.3      +-0.0                 m i ke

NEAR SOUTH COAST OF FRANCE
Sta     Dist  EvAz     Phase      Date       Time     TRes  Azim  AzRes  Slow  SRes Def   SNR       Amp   Per   Mag1   Mag2       ID
LASF  000.82 007.0 m E Pg      2011/01/26 01:34:21.0  -0.1                          T                                        4638095
LASF  000.82 007.0 m E Sg      2011/01/26 01:34:31.4  -0.4                          T               10.9  .26        Md 2.2  4638092
MTLF  001.10 274.6 m E Pg      2011/01/26 01:34:26.2  -0.1                          T                                        4638094
MTLF  001.10 274.6 m E Sg      2011/01/26 01:34:40.4   0.0                          T                9.1  .20 Ml 2.5 Md 2.1  4638093
SMRF  001.53 061.5 m E Pg      2011/01/26 01:34:34.1   0.0                          T                                        4638085
SMRF  001.53 061.5 m E Sg      2011/01/26 01:34:55.3   1.4                          T                5.4  .44 Ml 2.1 Md 2.2  4638065
VIVF  001.74 023.0 m E Pn      2011/01/26 01:34:35.2   0.0                          T                                        4638087
VIVF  001.74 023.0 m E Pg      2011/01/26 01:34:38.0   0.0                          T                                        4638088
VIVF  001.74 023.0 m E Sg      2011/01/26 01:35:00.0  -0.4                          T                5.4  .29 Ml 2.4         4638091
CAF   002.05 325.0 m E Pn      2011/01/26 01:34:39.8   0.4                          T                                        4638079
CAF   002.05 325.0 m E Pg      2011/01/26 01:34:43.9   0.2                          T                                        4638082
CAF   002.05 325.0 m E Sg      2011/01/26 01:35:10.0  -0.1                          T                1.1  .22 Ml 1.9         4638067
LMR   002.04 087.0 m E Pg      2011/01/26 01:34:41.8  -1.7                          T                                        4638084
LMR   002.04 087.0 m E Sg      2011/01/26 01:35:09.6  -0.2                          T                2.6  .19 Ml 2.4         4638063
FRF   002.15 081.0 m E Pg      2011/01/26 01:34:44.7  -0.9                          T                                        4638083
FRF   002.15 081.0 m E Sg      2011/01/26 01:35:13.4   0.0                          T                3.1  .39 Ml 2.2         4638064
EPF   002.48 265.8 m E Pn      2011/01/26 01:34:45.4   0.1                          T                                        4638086
EPF   002.48 265.8 m E Pg      2011/01/26 01:34:51.9   0.1                          T                                        4638089
EPF   002.48 265.8 m E Sg      2011/01/26 01:35:23.6  -0.2                          T                1.5  .22 Ml 2.1         4638090
RJF   002.58 323.0 m E Pn      2011/01/26 01:34:46.7   0.1                          T                                        4638081
RJF   002.58 323.0 m E Sg      2011/01/26 01:35:26.8   0.0                          T                1.5  .23 Ml 1.8         4638069
LFF   002.72 309.0 m E Pn      2011/01/26 01:34:48.4  -0.1                          T                                        4638080
LFF   002.72 309.0 m E Sg      2011/01/26 01:35:31.1   0.0                          T                3.2  .34 Ml 2.2         4638068
ETSF  003.15 264.8 m E Pn      2011/01/26 01:34:54.5   0.0                          T                                        4638078
ETSF  003.15 264.8 m E Sg      2011/01/26 01:35:44.7   0.0                          T                1.5  .40 Ml 2.0         4638066
TCF   003.21 341.0 m E Pn      2011/01/26 01:34:55.2   0.0                          T                                        4638074
TCF   003.21 341.0 m E Sg      2011/01/26 01:35:46.3  -0.1                          T                 .8  .38 Ml 1.8         4638073
BGF   003.35 349.7 m E Pn      2011/01/26 01:34:57.3   0.2                          T                                        4638076
BGF   003.35 349.7 m E Sg      2011/01/26 01:35:50.6  -0.2                          T                4.3  .38 Ml 2.6         4638071
SMF   003.38 001.4 m E Pn      2011/01/26 01:34:57.4  -0.1                          T                                        4638075
SMF   003.38 001.4 m E Sg      2011/01/26 01:35:51.5  -0.3                          T                1.7  .28 Ml 2.3         4638072

.
EVENT     255184
    Date      Time       Latitude Longitude    Depth    Ndef Nsta Gap    Mag1  N    Mag2  N    Mag3  N   Author         ID
       rms   OT_Error      Smajor Sminor Az        Err   mdist  Mdist     Err        Err        Err      Quality

2011/01/26 01:53:23.3     43.2516    3.7017      2.0      22   10 204  Ml 1.9 10  Md 2.0  3              js067245    255204

      0.42   +-  0.09       1.9     .9  164.38 +-  0.0    0.83   2.72   +-0.3      +-0.0                 m i ke

NEAR SOUTH COAST OF FRANCE
Sta     Dist  EvAz     Phase      Date       Time     TRes  Azim  AzRes  Slow  SRes Def   SNR       Amp   Per   Mag1   Mag2       ID
LASF  000.83 007.7 m E Pg      2011/01/26 01:53:38.9   0.0                          T                                        4638121
LASF  000.83 007.7 m E Sg      2011/01/26 01:53:49.3  -0.5                          T                5.7  .29        Md 2.0  4638117
MTLF  001.09 275.2 m E Pg      2011/01/26 01:53:42.9  -0.7                          T                                        4638120
MTLF  001.09 275.2 m E Sg      2011/01/26 01:53:57.7  -0.1                          T                3.5  .16 Ml 2.2 Md 2.0  4638116
SMRF  001.54 061.3 m E Pg      2011/01/26 01:53:52.2   0.1                          T                                        4638108
SMRF  001.54 061.3 m E Sg      2011/01/26 01:54:11.9   0.0                          T                 .7  .25 Ml 1.5 Md 2.1  4638114
VIVF  001.75 023.2 m E Pg      2011/01/26 01:53:55.8  -0.1                          T                                        4638119
VIVF  001.75 023.2 m E Sg      2011/01/26 01:54:18.4  -0.1                          T                4.4  .36 Ml 2.2         4638118
CAF   002.05 325.4 m E Pn      2011/01/26 01:53:57.0  -0.1                          T                                        4638110
CAF   002.05 325.4 m E Sg      2011/01/26 01:54:28.0   0.3                          T                1.5  .29 Ml 1.9         4638113
ORIF  002.29 042.5 m E Pn      2011/01/26 01:54:00.6   0.2                          T                                        4638106
ORIF  002.29 042.5 m E Sg      2011/01/26 01:54:35.5   0.2                          T                 .6  .35 Ml 1.5         4638105
EPF   002.47 266.0 m E Pn      2011/01/26 01:54:02.8   0.0                          T                                        4638109
EPF   002.47 266.0 m E Sg      2011/01/26 01:54:40.9  -0.1                          T                1.4  .32 Ml 1.9         4638115
RJF   002.58 323.3 m E Pn      2011/01/26 01:54:04.6   0.3                          T                                        4638112
RJF   002.58 323.3 m E Sg      2011/01/26 01:54:44.6   0.2                          T                1.4  .28 Ml 1.7         4638103
MBDF  002.66 055.3 m E Pn      2011/01/26 01:54:05.3  -0.2                          T                                        4638107
MBDF  002.66 055.3 m E Sg      2011/01/26 01:54:47.2   0.1                          T                 .5  .21 Ml 1.7         4638104
LFF   002.72 309.4 m E Pn      2011/01/26 01:54:06.0  -0.1                          T                                        4638111
LFF   002.72 309.4 m E Sg      2011/01/26 01:54:48.9   0.2                          T                2.6  .38 Ml 2.0         4638102

.
EVENT     255193
    Date      Time       Latitude Longitude    Depth    Ndef Nsta Gap    Mag1  N    Mag2  N    Mag3  N   Author         ID
       rms   OT_Error      Smajor Sminor Az        Err   mdist  Mdist     Err        Err        Err      Quality

2011/01/26 07:38:48.0     48.4260    8.4906     13.3      13    5 047  Ml 1.9  3  Md 1.9  3              js067245    255213

      0.30   +-  0.06       1.1     .9  145.76 +-  0.8    0.14   1.68   +-0.2      +-0.2                 m i ke

GERMANY
Sta     Dist  EvAz     Phase      Date       Time     TRes  Azim  AzRes  Slow  SRes Def   SNR       Amp   Per   Mag1   Mag2       ID
LANF  000.72 321.0 m E Pg      2011/01/26 07:39:01.8   0.0                          T                                        4638130
LANF  000.72 321.0 m E Sg      2011/01/26 07:39:10.9  -0.4                          T                6.8  .36        Md 2.1  4638126
CDF   000.81 269.5 m E Pg      2011/01/26 07:39:03.3  -0.2                          T                                        4638131
CDF   000.81 269.5 m E Sg      2011/01/26 07:39:14.1   0.0                          T                5.4  .30        Md 1.8  4638125
HINF  001.26 241.5 m E Pg      2011/01/26 07:39:11.6   0.0                          T                                        4638129
HINF  001.26 241.5 m E Sg      2011/01/26 07:39:27.5  -0.4                          T                2.5  .26 Ml 1.9 Md 1.8  4638122
HAU   001.49 254.4 m E Pg      2011/01/26 07:39:15.7  -0.3                          T                                        4638128
HAU   001.49 254.4 m E Sg      2011/01/26 07:39:35.2  -0.2                          T                1.5  .19 Ml 1.7         4638123
THEF  001.68 264.2 m E Pg      2011/01/26 07:39:18.8  -0.5                          T                                        4638127
THEF  001.68 264.2 m E Sg      2011/01/26 07:39:40.9  -0.2                          T                7.2  .66 Ml 2.2         4638124

.
EVENT     255204
    Date      Time       Latitude Longitude    Depth    Ndef Nsta Gap    Mag1  N    Mag2  N    Mag3  N   Author         ID
       rms   OT_Error      Smajor Sminor Az        Err   mdist  Mdist     Err        Err        Err      Quality

2011/01/26 10:51:46.8     43.4094    3.1626       .0 f    10    4 227  Ml 2.1  2  Md 2.0  1              js067245    255224

      0.52   +-  0.20       4.5    1.8  145.79 +-  0.0    0.69   1.81   +-0.0      +-                    m i km

NEAR SOUTH COAST OF FRANCE
Sta     Dist  EvAz     Phase      Date       Time     TRes  Azim  AzRes  Slow  SRes Def   SNR       Amp   Per   Mag1   Mag2       ID
MTLF  000.69 264.7 m E Pg      2011/01/26 10:52:00.1   0.0                          T                                        4639450
MTLF  000.69 264.7 m E Sg      2011/01/26 10:52:09.4   0.0                          T                2.1  .20        Md 2.0  4639451
LASF  000.84 036.8 m E Pg      2011/01/26 10:52:02.4  -0.4                          T                                        4639448
LASF  000.84 036.8 m E Sg      2011/01/26 10:52:14.8   0.9                          T                8.0  .23                4639449
CAF   001.71 332.8 m E Pn      2011/01/26 10:52:16.3   0.0                          T                                        4639445
CAF   001.71 332.8 m E Pg      2011/01/26 10:52:19.0   0.1                          T                                        4639444
CAF   001.71 332.8 m E Sg      2011/01/26 10:52:41.1   0.0                          T                2.6  .27 Ml 2.1         4639447
VIVF  001.81 036.4 m E Sg      2011/01/26 10:52:44.6   0.3                          T                1.6  .21 Ml 2.1         4639446

.
EVENT     255206
    Date      Time       Latitude Longitude    Depth    Ndef Nsta Gap    Mag1  N    Mag2  N    Mag3  N   Author         ID
       rms   OT_Error      Smajor Sminor Az        Err   mdist  Mdist     Err        Err        Err      Quality

2011/01/26 11:37:00.4     42.8957     .4817      2.0       6    3 200  Ml 2.2  1  Md 2.1  3              js067245    255226

      0.14   +-  0.11       3.5    1.4  177.64 +-  0.0    0.17   1.35   +-         +-0.0                 m i ke

PYRENEES
Sta     Dist  EvAz     Phase      Date       Time     TRes  Azim  AzRes  Slow  SRes Def   SNR       Amp   Per   Mag1   Mag2       ID
EPF   000.17 322.3 m E Pg      2011/01/26 11:37:03.8  -0.1                          T                                        4638165
EPF   000.17 322.3 m E Sg      2011/01/26 11:37:06.5   0.2                          T               99.3  .56        Md 2.1  4638164
ETSF  000.76 270.6 m E Pg      2011/01/26 11:37:14.8  -0.1                          T                                        4638162
ETSF  000.76 270.6 m E Sg      2011/01/26 11:37:25.2   0.3                          T                5.0  .38        Md 2.1  4638163
MTLF  001.35 070.1 m E Pg      2011/01/26 11:37:25.5   0.0                          T                                        4638160
MTLF  001.35 070.1 m E Sg      2011/01/26 11:37:42.9   0.0                          T                5.6  .32 Ml 2.2 Md 2.1  4638161

.
