EVENT     266578
    Date      Time       Latitude Longitude    Depth    Ndef Nsta Gap    Mag1  N    Mag2  N    Mag3  N   Author         ID
       rms   OT_Error      Smajor Sminor Az        Err   mdist  Mdist     Err        Err        Err      Quality

2011/11/21 23:34:54.9     45.1822    4.1116      2.0      55   19 050  Ml 2.2 20  Md 2.3  6              js067245    266598

      0.48   +-  0.06       1.2    1.0   41.73 +-  0.0    0.51   2.72   +-0.3      +-0.1                 m i ke

FRANCE
Sta     Dist  EvAz     Phase      Date       Time     TRes  Azim  AzRes  Slow  SRes Def   SNR       Amp   Per   Mag1   Mag2       ID
VIVF  000.51 129.1 m E Pg      2011/11/21 23:35:04.8   0.0                          T   001.0                                4789388
VIVF  000.51 129.1 m E Sg      2011/11/21 23:35:11.6   0.1                          T   001.0        8.0  .26        Md 2.3  4789389
LASF  001.12 189.4 m E Pg      2011/11/21 23:35:16.0   0.1                          T   001.0                                4789371
LASF  001.12 189.4 m E Sg      2011/11/21 23:35:30.2  -0.2                          T                8.6  .22 Ml 2.5 Md 2.2  4789929
ORIF  001.28 101.3 m E Pn      2011/11/21 23:35:18.7   0.4                          T   001.0                                4789385
ORIF  001.28 101.3 m E Pg      2011/11/21 23:35:19.9   1.0                          T   001.0                                4789386
ORIF  001.28 101.3 m E Sn      2011/11/21 23:35:34.7  -0.3                          T   001.0        5.3  .37 Ml 2.1 Md 2.3  4789387
CAF   001.47 260.7 m E Pn      2011/11/21 23:35:20.7  -0.1                          T                                        4790470
CAF   001.47 260.7 m E Pg      2011/11/21 23:35:21.9  -0.5                          T   001.0                                4789369
CAF   001.47 260.7 m E Sn      2011/11/21 23:35:39.5   0.0                          T                                        4789916
CAF   001.47 260.7 m E Sg      2011/11/21 23:35:40.8  -0.7                          T                5.3  .22 Ml 2.4 Md 2.3  4789943
SMRF  001.60 138.5 m E Pn      2011/11/21 23:35:22.9   0.4                          T   001.0                                4789390
SMRF  001.60 138.5 m E Pg      2011/11/21 23:35:25.1   0.4                          T   001.0                                4789391
SMF   001.48 352.7 m E Pg      2011/11/21 23:35:23.1   0.7                          T                                        4789931
SMF   001.48 352.7 m E Sn      2011/11/21 23:35:39.0  -0.6                          T   001.0        3.9  .16 Ml 2.4         4789377
SMF   001.48 352.7 m E Sg      2011/11/21 23:35:41.9   0.4                          T                4.3  .18 Ml 2.4         4789926
TCF   001.73 310.4 m E Pn      2011/11/21 23:35:24.8   0.5                          T                                        4790473
TCF   001.73 310.4 m E Pg      2011/11/21 23:35:27.0  -0.1                          T                                        4789912
TCF   001.73 310.4 m E Sn      2011/11/21 23:35:46.2   0.5                          T   001.0        1.4  .24 Ml 1.9         4789381
TCF   001.73 310.4 m E Sg      2011/11/21 23:35:48.9  -0.6                          T                 .9  .18 Ml 1.9         4789925
BGF   001.64 327.7 m E Pg      2011/11/21 23:35:25.5   0.1                          T   001.0                                4789367
BGF   001.64 327.7 m E Sn      2011/11/21 23:35:43.9   0.5                          T   001.0        5.9  .32 Ml 2.4 Md 2.4  4789368
AVF   001.69 342.1 m E Pg      2011/11/21 23:35:25.6  -0.8                          T   001.0                                4789365
AVF   001.69 342.1 m E Sn      2011/11/21 23:35:43.7  -1.0                          T   001.0        2.7  .20 Ml 2.3         4789366
AVF   001.69 342.1 m E Sg      2011/11/21 23:35:47.6  -0.6                          T                2.6  .20 Ml 2.2         4789927
RJF   001.84 274.7 m E Pn      2011/11/21 23:35:26.0   0.3                          T                                        4790471
RJF   001.84 274.7 m E Pg      2011/11/21 23:35:28.0  -0.1                          T   001.0                                4789392
RJF   001.84 274.7 m E Sg      2011/11/21 23:35:51.9  -0.8                          T   001.0        5.4  .26 Ml 2.2         4789364
CABF  001.99 043.3 m E Pn      2011/11/21 23:35:28.0   0.1                          T   001.0                                4789382
CABF  001.99 043.3 m E Pg      2011/11/21 23:35:31.0   0.1                          T   001.0                                4789383
CABF  001.99 043.3 m E Sg      2011/11/21 23:35:57.3  -0.2                          T   001.0        1.8  .23 Ml 2.1         4789384
LPG   001.89 079.4 m E Pg      2011/11/21 23:35:29.5  -0.9                          T   001.0                                4789373
LPG   001.89 079.4 m E Sg      2011/11/21 23:35:54.5  -0.2                          T   001.0        1.3  .25 Ml 1.9         4789374
SSF   001.93 347.6 m E Pg      2011/11/21 23:35:30.5  -0.2                          T   001.0                                4789378
SSF   001.93 347.6 m E Sg      2011/11/21 23:35:55.6   0.1                          T   001.0        1.5  .20 Ml 2.2         4789379
LPL   001.88 078.8 m E Pg      2011/11/21 23:35:31.0   0.9                          T   001.0                                4789375
LPL   001.88 078.8 m E Sg      2011/11/21 23:35:54.3   0.0                          T   001.0        1.3  .24 Ml 1.9         4789376
HYF   002.32 334.4 m E Pn      2011/11/21 23:35:31.9  -0.4                          T                                        4789946
HYF   002.32 334.4 m E Sg      2011/11/21 23:36:07.6  -0.3                          T                                        4789945
LOR   002.09 355.3 m E Pg      2011/11/21 23:35:34.4   0.5                          T                                        4789911
LOR   002.09 355.3 m E Sg      2011/11/21 23:36:00.2  -0.6 176.7  1.6               T   001.0        1.8  .25 Ml 2.1         4789372
MTLF  002.29 217.1 m E Pg      2011/11/21 23:35:36.4  -1.0                          T                                        4789928
MTLF  002.29 217.1 m E Sn      2011/11/21 23:35:59.4   0.4                          T                                        4789915
MTLF  002.29 217.1 m E Sg      2011/11/21 23:36:06.9   0.1                          T                1.2  .24 Ml 2.0         4789914
SBF   002.72 117.9 m E Pg      2011/11/21 23:35:45.1  -0.3                          T                                        4789941
SBF   002.72 117.9 m E Sg      2011/11/21 23:36:19.5  -0.8                          T               30.4  .76 Ml 3.0         4789942
LFF   002.40 265.4 m E Sg      2011/11/21 23:36:10.3  -0.1                          T                2.7  .24 Ml 2.2         4789944

.
EVENT     266622
    Date      Time       Latitude Longitude    Depth    Ndef Nsta Gap    Mag1  N    Mag2  N    Mag3  N   Author         ID
       rms   OT_Error      Smajor Sminor Az        Err   mdist  Mdist     Err        Err        Err      Quality

2011/11/21 23:44:06.2     45.1778    4.0932      2.0      24   14 060  Ml 1.8 13  Md 1.9  4              js067245    266642

      0.36   +-  0.09       1.8    1.3   57.86 +-  0.0    0.52   2.28   +-0.2      +-0.1                 m i ke

FRANCE
Sta     Dist  EvAz     Phase      Date       Time     TRes  Azim  AzRes  Slow  SRes Def   SNR       Amp   Per   Mag1   Mag2       ID
VIVF  000.52 127.8 m E Pg      2011/11/21 23:44:16.0  -0.1                          T                                        4789962
VIVF  000.52 127.8 m E Sg      2011/11/21 23:44:23.0  -0.1                          T                3.5  .29        Md 1.8  4789961
LASF  001.11 188.8 m E Pg      2011/11/21 23:44:27.4   0.3                          T                                        4789959
LASF  001.11 188.8 m E Sg      2011/11/21 23:44:41.4  -0.1                          T                3.6  .27 Ml 2.0 Md 1.9  4789960
CAF   001.46 260.8 m E Pn      2011/11/21 23:44:31.8  -0.1                          T                                        4790476
CAF   001.46 260.8 m E Pg      2011/11/21 23:44:33.1  -0.3                          T                                        4789984
CAF   001.46 260.8 m E Sg      2011/11/21 23:44:51.9  -0.4                          T                1.8  .23 Ml 1.9 Md 2.0  4789958
SMF   001.48 353.3 m E Pg      2011/11/21 23:44:34.3   0.5                          T                                        4789990
SMF   001.48 353.3 m E Sg      2011/11/21 23:44:53.0   0.2                          T                2.3  .22 Ml 2.1         4789957
TCF   001.72 310.8 m E Pn      2011/11/21 23:44:35.8   0.4                          T                                        4790475
TCF   001.72 310.8 m E Pg      2011/11/21 23:44:38.3   0.0                          T                                        4789995
TCF   001.72 310.8 m E Sg      2011/11/21 23:44:59.9  -0.6                          T                 .7  .22 Ml 1.7         4789994
AVF   001.69 342.5 m E Pg      2011/11/21 23:44:36.7  -0.9                          T                                        4790474
AVF   001.69 342.5 m E Sg      2011/11/21 23:44:58.9  -0.7                          T                 .8  .19 Ml 1.8         4789956
BGF   001.63 328.2 m E Pg      2011/11/21 23:44:36.8   0.3                          T                                        4789989
BGF   001.63 328.2 m E Sg      2011/11/21 23:44:58.2   0.5                          T                1.6  .26 Ml 1.9         4789988
LOR   002.10 355.6 m E Pg      2011/11/21 23:44:45.8   0.7                          T                                        4789991
LOR   002.10 355.6 m E Sg      2011/11/21 23:45:11.3  -0.9                          T                 .8  .19 Ml 1.9         4789992
ORIF  001.29 100.9 m E Sn      2011/11/21 23:44:46.1  -0.4                          T                 .4  .18 Ml 1.3         4789981
MTLF  002.28 216.9 m E Pg      2011/11/21 23:44:47.6  -0.9                          T                                        4789982
RJF   001.82 274.9 m E Sg      2011/11/21 23:45:03.3  -0.3                          T                1.8  .21 Ml 1.8         4789985
LPL   001.89 078.8 m E Sg      2011/11/21 23:45:05.9  -0.1                          T                 .7  .24 Ml 1.7         4789997
SSF   001.93 348.0 m E Sg      2011/11/21 23:45:06.6  -0.2                          T                 .7  .21 Ml 1.8         4789993
CABF  002.00 043.5 m E Sg      2011/11/21 23:45:08.7  -0.5                          T                 .8  .27 Ml 1.7         4789996

.
EVENT     266586
    Date      Time       Latitude Longitude    Depth    Ndef Nsta Gap    Mag1  N    Mag2  N    Mag3  N   Author         ID
       rms   OT_Error      Smajor Sminor Az        Err   mdist  Mdist     Err        Err        Err      Quality

2011/11/22 00:51:20.2     42.5823    1.0399      4.0 f    43    8 044  Ml 1.8  7  Md 1.9  4              js067245    266606

      0.66   +-  0.05       1.2    1.0   23.65 +-  0.0    0.16   2.74   +-0.2      +-0.2                 m i ke

PYRENEES
Sta     Dist  EvAz     Phase      Date       Time     TRes  Azim  AzRes  Slow  SRes Def   SNR       Amp   Per   Mag1   Mag2       ID
EPF   000.68 311.2 m E Pg      2011/11/22 00:51:32.8  -0.4                          T                                        4790017
EPF   000.68 311.2 m E Sg      2011/11/22 00:51:41.7  -0.4                          T                3.8  .18                4790016
EPF   000.68 311.2 m E Sn      2011/11/22 00:51:44.8  -0.8                          T                                Md 1.7  4789999
MTLF  001.15 048.3 m E Pg      2011/11/22 00:51:41.9   0.2                          T                                        4790015
MTLF  001.15 048.3 m E Sg      2011/11/22 00:51:56.7   0.1                          T                2.2  .23 Ml 1.9 Md 1.7  4790014
ETSF  001.22 285.6 m E Pg      2011/11/22 00:51:43.1   0.0                          T                                        4790009
ETSF  001.22 285.6 m E Sg      2011/11/22 00:51:58.8  -0.2                          T                3.6  .27 Ml 2.0 Md 1.8  4790013
SJPF  001.75 288.4 m E Pn      2011/11/22 00:51:49.9   0.3                          T                                        4790007
SJPF  001.75 288.4 m E Pg      2011/11/22 00:51:52.8   0.0                          T                                        4790008
SJPF  001.75 288.4 m E Sg      2011/11/22 00:52:15.4   0.0                          T                1.7  .27 Ml 1.9 Md 2.2  4790012
CAF   002.46 017.2 m E Pn      2011/11/22 00:51:59.7   0.4                          T                                        4790000
CAF   002.46 017.2 m E Pg      2011/11/22 00:52:05.3  -0.6                          T                                        4790011
CAF   002.46 017.2 m E Sg      2011/11/22 00:52:37.8   0.3                          T                 .4  .17 Ml 1.7         4790010
LASF  002.54 053.0 m E Pn      2011/11/22 00:52:00.8   0.3                          T                                        4790002
LASF  002.54 053.0 m E Pg      2011/11/22 00:52:07.6   0.2                          T                                        4790003
LASF  002.54 053.0 m E Sg      2011/11/22 00:52:40.2   0.1                          T                                        4790004
RJF   002.74 007.0 m E Pg      2011/11/22 00:52:11.0  -0.1                          T                                        4790006
RJF   002.74 007.0 m E Sg      2011/11/22 00:52:46.2  -0.1                          T                 .6  .21 Ml 1.5         4790005
LFF   002.37 354.8 m E Sg      2011/11/22 00:52:34.4  -0.2                          T                 .8  .21 Ml 1.7         4790001

.
EVENT     266587
    Date      Time       Latitude Longitude    Depth    Ndef Nsta Gap    Mag1  N    Mag2  N    Mag3  N   Author         ID
       rms   OT_Error      Smajor Sminor Az        Err   mdist  Mdist     Err        Err        Err      Quality

2011/11/22 00:54:37.9     42.9809     .1591      2.0      45   10 039  Ml 2.0  9  Md 1.9  4              js067245    266607

      0.72   +-  0.09       1.7    1.5   31.99 +-  0.0    0.09   3.66   +-0.1      +-0.2                 m i ke

PYRENEES
Sta     Dist  EvAz     Phase      Date       Time     TRes  Azim  AzRes  Slow  SRes Def   SNR       Amp   Per   Mag1   Mag2       ID
EPF   000.14 069.5 m E Pg      2011/11/22 00:54:40.7  -0.2                          T                                        4790029
EPF   000.14 069.5 m E Sg      2011/11/22 00:54:42.3  -0.7                          T               54.9  .22        Md 1.8  4790028
ETSF  000.53 261.4 m E Pg      2011/11/22 00:54:47.2  -0.9                          T                                        4790027
ETSF  000.53 261.4 m E Sg      2011/11/22 00:54:54.1  -1.1                          T                4.7  .22        Md 1.8  4790026
SJPF  001.02 277.9 m E Pg      2011/11/22 00:54:57.8   0.7                          T                                        4790023
SJPF  001.02 277.9 m E Sg      2011/11/22 00:55:10.3  -0.1                          T                2.1  .24 Ml 1.8 Md 1.7  4790060
MTLF  001.55 075.9 m E Pg      2011/11/22 00:55:06.5  -0.2                          T                                        4790022
MTLF  001.55 075.9 m E Sg      2011/11/22 00:55:27.4   0.7                          T                1.9  .21 Ml 2.0 Md 2.2  4790025
LFF   002.00 011.9 m E Pg      2011/11/22 00:55:15.4   0.3                          T                                        4790021
LFF   002.00 011.9 m E Sg      2011/11/22 00:55:41.4   0.5                          T                1.7  .19 Ml 2.0         4790020
CAF   002.38 034.6 m E Pg      2011/11/22 00:55:22.7   0.5                          T                                        4790061
CAF   002.38 034.6 m E Sg      2011/11/22 00:55:52.2  -0.6                          T                1.6  .24 Ml 2.1         4790018
RJF   002.52 022.3 m E Pg      2011/11/22 00:55:24.2  -0.4                          T                                        4790024
RJF   002.52 022.3 m E Sg      2011/11/22 00:55:56.9  -0.2                          T                2.5  .22 Ml 2.0         4790019
LASF  002.90 066.6 m E Sg      2011/11/22 00:56:08.9  -0.1                          T                 .9  .25 Ml 2.0         4790101
TCF   003.62 023.2 m E Sg      2011/11/22 00:56:31.5   0.2                          T                 .6  .25 Ml 2.0         4790105
MFF   003.63 356.7 m E Sg      2011/11/22 00:56:32.6   1.0                          T                 .3  .25 Ml 1.9         4790107

.
EVENT     266592
    Date      Time       Latitude Longitude    Depth    Ndef Nsta Gap    Mag1  N    Mag2  N    Mag3  N   Author         ID
       rms   OT_Error      Smajor Sminor Az        Err   mdist  Mdist     Err        Err        Err      Quality

2011/11/22 08:02:23.6     44.2910    7.4370      2.0      12    7 201  Ml 1.6  4  Md 1.5  2              js067245    266612

      0.18   +-  0.11       2.6     .9   80.46 +-  0.0    0.43   1.32   +-0.2      +-0.1                 m i ke

NORTHERN ITALY
Sta     Dist  EvAz     Phase      Date       Time     TRes  Azim  AzRes  Slow  SRes Def   SNR       Amp   Per   Mag1   Mag2       ID
SBF   000.43 180.2 m E Pg      2011/11/22 08:02:32.1   0.2                          T                                        4790171
SBF   000.43 180.2 m E Sg      2011/11/22 08:02:37.1  -0.5                          T                5.6  .20        Md 1.4  4790169
MBDF  000.65 312.7 m E Pg      2011/11/22 08:02:36.1   0.0                          T                                        4790113
MBDF  000.65 312.7 m E Sg      2011/11/22 08:02:44.2  -0.3                          T                1.3  .19        Md 1.5  4790168
FRF   000.93 218.3 m E Pg      2011/11/22 08:02:40.9  -0.1                          T                                        4790114
FRF   000.93 218.3 m E Sg      2011/11/22 08:02:53.3   0.3                          T                  1  .16 Ml 1.6         4790111
LMR   001.17 215.4 m E Pg      2011/11/22 08:02:45.4  -0.1                          T                                        4790115
LMR   001.17 215.4 m E Sg      2011/11/22 08:03:01.0   0.3                          T                1.9  .22 Ml 1.8         4790112
ORIF  001.28 300.0 m E Pg      2011/11/22 08:02:47.6   0.0                          T                                        4790478
ORIF  001.28 300.0 m E Sg      2011/11/22 08:03:04.2   0.1                          T                 .9  .27 Ml 1.5         4790479
LPL   001.32 338.0 m E Pg      2011/11/22 08:02:48.7   0.0                          T                                        4790477
LPG   001.30 338.2 m E Sg      2011/11/22 08:03:05.3   0.2                          T                 .6  .26 Ml 1.3         4790480

.
