EVENT     258744
    Date      Time       Latitude Longitude    Depth    Ndef Nsta Gap    Mag1  N    Mag2  N    Mag3  N   Author         ID
       rms   OT_Error      Smajor Sminor Az        Err   mdist  Mdist     Err        Err        Err      Quality

2011/04/29 04:00:44.5     43.0991    -.3848      2.0      41    7 104  Ml 1.9  4  Md 2.0  3              js067245    258744

      0.31   +-  0.04       1.1     .6  163.16 +-  0.0    0.03   2.59   +-0.2      +-0.1                 m i ke

PYRENEES
Sta     Dist  EvAz     Phase      Date       Time     TRes  Azim  AzRes  Slow  SRes Def   SNR       Amp   Per   Mag1   Mag2       ID
ETSF  000.24 212.6 m E Pg      2011/04/29 04:00:49.0  -0.4                          T                                        4681832
ETSF  000.24 212.6 m E Sg      2011/04/29 04:00:52.2  -0.4                          T                8.7  .18        Md 2.1  4681833
EPF   000.54 097.1 m E Pg      2011/04/29 04:00:54.3  -0.5                          T                                        4681828
EPF   000.54 097.1 m E Sg      2011/04/29 04:01:02.1   0.3                          T                5.8  .30        Md 2.0  4681829
SJPF  000.62 271.6 m E Pg      2011/04/29 04:00:56.2   0.0                          T                                        4681830
SJPF  000.62 271.6 m E Sg      2011/04/29 04:01:04.6   0.3                          T                2.7  .26        Md 1.8  4681831
MTLF  001.92 081.9 m E Pg      2011/04/29 04:01:20.2   0.0                          T                                        4681838
MTLF  001.92 081.9 m E Sg      2011/04/29 04:01:45.1   0.2                          T                 .6  .19 Ml 1.7         4681839
LFF   002.01 023.4 m E Pg      2011/04/29 04:01:21.9   0.0                          T                                        4681836
LFF   002.01 023.4 m E Sg      2011/04/29 04:01:48.1   0.3                          T                2.7  .27 Ml 2.0         4681841
CAF   002.54 043.2 m E Pg      2011/04/29 04:01:31.5  -0.2                          T                                        4681837
CAF   002.54 043.2 m E Sg      2011/04/29 04:02:04.6   0.2                          T                  1  .23 Ml 2.0         4681840
RJF   002.59 031.2 m E Pg      2011/04/29 04:01:32.6  -0.1                          T                                        4681835
RJF   002.59 031.2 m E Sg      2011/04/29 04:02:06.1   0.1                          T                1.2  .21 Ml 1.8         4681842

.
EVENT     258755
    Date      Time       Latitude Longitude    Depth    Ndef Nsta Gap    Mag1  N    Mag2  N    Mag3  N   Author         ID
       rms   OT_Error      Smajor Sminor Az        Err   mdist  Mdist     Err        Err        Err      Quality

2011/04/29 09:19:27.2     48.1249    5.9594       .0 f    17    8 101  Ml 2.2  2  Md 2.1  2              js067245    258755

      0.61   +-  0.06       1.4     .9   29.07 +-  0.0    0.11   1.52   +-0.1      +-0.1                 m i km

FRANCE
Sta     Dist  EvAz     Phase      Date       Time     TRes  Azim  AzRes  Slow  SRes Def   SNR       Amp   Per   Mag1   Mag2       ID
THEF  000.11 012.6 m E Pg      2011/04/29 09:19:29.5  -0.2                          T                                        4682025
THEF  000.11 012.6 m E Sg      2011/04/29 09:19:31.3  -0.2                          T              167.7  .49        Md 2.1  4682026
HAU   000.29 114.5 m E Pg      2011/04/29 09:19:32.9  -0.2                          T                                        4682023
HAU   000.29 114.5 m E Sg      2011/04/29 09:19:36.8  -0.3                          T               55.4  .52        Md 2.0  4682024
PAGF  000.46 340.1 m E Pg      2011/04/29 09:19:36.0  -0.2 161.7  1.7               T                                        4682017
PAGF  000.46 340.1 m E Sg      2011/04/29 09:19:42.8   0.4                          T                2.0  .39                4682022
SFTF  000.62 277.8 m E Pg      2011/04/29 09:19:39.2   0.1  96.4  -0.7              T                                        4682013
SFTF  000.62 277.8 m E Sg      2011/04/29 09:19:47.4  -0.2                          T                7.9  .42                4682014
HINF  000.68 116.8 m E Pg      2011/04/29 09:19:40.5   0.3                          T                                        4682011
HINF  000.68 116.8 m E Sg      2011/04/29 09:19:49.2   0.0                          T                                        4682012
HINF  000.68 116.8 m E Sn      2011/04/29 09:19:53.1  -0.3                          T                                        4682021
MEZF  000.71 302.3 m E Pg      2011/04/29 09:19:40.9   0.0                          T                                        4682015
MEZF  000.71 302.3 m E Sg      2011/04/29 09:19:50.0  -0.3 112.9  -8.7              T               10.5  .20                4682016
CDF   000.93 071.4 m E Pn      2011/04/29 09:19:46.1   0.0                          T                                        4682018
CDF   000.93 071.4 m E Sg      2011/04/29 09:19:56.8  -0.3                          T                                        4682019
CDF   000.93 071.4 m E Sn      2011/04/29 09:19:59.4   0.0                          T               10.4  .50 Ml 2.2         4682020
CABF  001.52 176.7 m E Sg      2011/04/29 09:20:15.6   0.0                          T                7.1  .59 Ml 2.1         4682010

.
EVENT     258781
    Date      Time       Latitude Longitude    Depth    Ndef Nsta Gap    Mag1  N    Mag2  N    Mag3  N   Author         ID
       rms   OT_Error      Smajor Sminor Az        Err   mdist  Mdist     Err        Err        Err      Quality

2011/04/29 10:39:30.6     43.1370    -.0328      3.0 f    18    4 167  Ml 1.5  3  Md 1.7  2              js067245    258781

      0.57   +-  0.15       4.2    2.0    4.35 +-  0.0    0.29   1.66   +-0.1      +-0.1                 m i ke

PYRENEES
Sta     Dist  EvAz     Phase      Date       Time     TRes  Azim  AzRes  Slow  SRes Def   SNR       Amp   Per   Mag1   Mag2       ID
EPF   000.29 111.2 m E Pg      2011/04/29 10:39:36.2  -0.2                          T                                        4682308
EPF   000.29 111.2 m E Sg      2011/04/29 10:39:40.4   0.0                          T               10.4  .26        Md 1.8  4682307
ETSF  000.45 238.5 m E Pg      2011/04/29 10:39:38.1  -1.3                          T                                        4682309
ETSF  000.45 238.5 m E Sg      2011/04/29 10:39:43.9  -1.5                          T                6.3  .24        Md 1.6  4682306
SJPF  000.87 268.8 m E Pg      2011/04/29 10:39:46.7  -0.3                          T                                        4682310
SJPF  000.87 268.8 m E Sg      2011/04/29 10:39:57.8  -0.6                          T                1.3  .28 Ml 1.4         4682311
MTLF  001.66 082.2 m E Pn      2011/04/29 10:39:58.5  -0.3                          T                                        4682313
MTLF  001.66 082.2 m E Sn      2011/04/29 10:40:19.3  -0.1                          T                 .6  .26 Ml 1.4         4682312

.
EVENT     258783
    Date      Time       Latitude Longitude    Depth    Ndef Nsta Gap    Mag1  N    Mag2  N    Mag3  N   Author         ID
       rms   OT_Error      Smajor Sminor Az        Err   mdist  Mdist     Err        Err        Err      Quality

2011/04/29 16:29:37.4     45.1853    5.6563      2.0      68   21 047  Ml 2.1 20  Md 2.0  3              js067245    258783

      0.57   +-  0.03        .6     .5   39.00 +-  0.0    0.09   3.49   +-0.3      +-0.0                 m i ke

FRANCE
Sta     Dist  EvAz     Phase      Date       Time     TRes  Azim  AzRes  Slow  SRes Def   SNR       Amp   Per   Mag1   Mag2       ID
ORIF  000.31 149.2 m E Pg      2011/04/29 16:29:43.6   0.0                          T                                        4682370
ORIF  000.31 149.2 m E Sg      2011/04/29 16:29:47.4  -0.3                          T               17.6  .18        Md 2.0  4682365
VIVF  000.77 245.1 m E Pg      2011/04/29 16:29:52.1   0.1                          T                                        4682369
VIVF  000.77 245.1 m E Sg      2011/04/29 16:30:01.9  -0.1                          T                8.8  .20        Md 2.0  4682366
LPL   000.83 066.0 m E Pg      2011/04/29 16:29:53.1  -0.1                          T                                        4682367
LPL   000.83 066.0 m E Sg      2011/04/29 16:30:03.9  -0.1                          T                3.4  .22        Md 1.9  4682329
LPG   000.83 067.6 m E Pg      2011/04/29 16:29:53.3  -0.1                          T                                        4682362
LPG   000.83 067.6 m E Sg      2011/04/29 16:30:04.3   0.0                          T                3.3  .30                4682328
MBDF  000.91 119.7 m E Pg      2011/04/29 16:29:54.7   0.0                          T                                        4682368
MBDF  000.91 119.7 m E Sg      2011/04/29 16:30:06.7   0.1                          T                1.1  .18 Ml 1.6         4682364
SMRF  001.21 182.8 m E Pg      2011/04/29 16:30:00.2   0.2                          T                                        4682361
SMRF  001.21 182.8 m E Sg      2011/04/29 16:30:15.9   0.2                          T                1.6  .32 Ml 1.6         4682327
CABF  001.46 011.8 m E Pn      2011/04/29 16:30:03.2   0.1                          T                                        4682321
CABF  001.46 011.8 m E Pg      2011/04/29 16:30:04.9   0.2                          T                                        4682352
CABF  001.46 011.8 m E Sg      2011/04/29 16:30:23.4   0.0                          T                5.0  .22 Ml 2.4         4682345
LASF  001.70 229.8 m E Pn      2011/04/29 16:30:05.9  -0.4                          T                                        4682382
LASF  001.70 229.8 m E Pg      2011/04/29 16:30:09.0   0.0                          T                                        4682363
LASF  001.70 229.8 m E Sg      2011/04/29 16:30:31.0   0.1                          T                1.5  .26 Ml 1.9         4682330
FRF   001.77 156.0 m E Pn      2011/04/29 16:30:07.2  -0.1                          T                                        4682381
FRF   001.77 156.0 m E Pg      2011/04/29 16:30:10.5   0.1                          T                                        4682360
FRF   001.77 156.0 m E Sg      2011/04/29 16:30:33.3   0.1                          T                1.8  .26 Ml 2.0         4682326
SBF   001.83 135.5 m E Pn      2011/04/29 16:30:08.2   0.0                          T                                        4682379
SBF   001.83 135.5 m E Pg      2011/04/29 16:30:11.6   0.0                          T                                        4682323
SBF   001.83 135.5 m E Sg      2011/04/29 16:30:35.3   0.1                          T                2.7  .30 Ml 2.1         4682324
SMF   001.93 319.7 m E Pn      2011/04/29 16:30:09.5   0.0                          T                                        4682319
SMF   001.93 319.7 m E Pg      2011/04/29 16:30:13.3   0.0                          T                                        4682354
SMF   001.93 319.7 m E Sg      2011/04/29 16:30:38.2  -0.1                          T                2.0  .20 Ml 2.2         4682343
LMR   001.95 161.4 m E Pn      2011/04/29 16:30:09.8   0.2                          T                                        4682380
LMR   001.95 161.4 m E Pg      2011/04/29 16:30:13.6   0.0                          T                                        4682359
LMR   001.95 161.4 m E Sg      2011/04/29 16:30:38.9   0.2                          T                 .7  .23 Ml 1.7         4682325
AVF   002.27 315.8 m E Pn      2011/04/29 16:30:13.9  -0.1                          T                                        4682320
AVF   002.27 315.8 m E Pg      2011/04/29 16:30:19.5   0.0                          T                                        4682353
AVF   002.27 315.8 m E Sg      2011/04/29 16:30:48.8   0.0                          T                2.7  .58 Ml 1.9         4682344
SSF   002.40 322.2 m E Pn      2011/04/29 16:30:15.7  -0.2                          T                                        4682317
SSF   002.40 322.2 m E Pg      2011/04/29 16:30:21.9   0.0                          T                                        4682350
SSF   002.40 322.2 m E Sn      2011/04/29 16:30:44.1   0.1                          T                                        4682346
SSF   002.40 322.2 m E Sg      2011/04/29 16:30:52.9   0.1                          T                1.3  .30 Ml 2.0         4682347
BGF   002.40 306.0 m E Pn      2011/04/29 16:30:15.7   0.0                          T                                        4682383
BGF   002.40 306.0 m E Pg      2011/04/29 16:30:21.7  -0.1                          T                                        4682355
BGF   002.40 306.0 m E Sg      2011/04/29 16:30:52.6  -0.1                          T                7.0  .48 Ml 2.5         4682341
LOR   002.43 329.7 m E Pn      2011/04/29 16:30:16.2   0.0                          T                                        4682318
LOR   002.43 329.7 m E Pg      2011/04/29 16:30:22.3  -0.2 144.5  -3.9              T                                        4682351
LOR   002.43 329.7 m E Sn      2011/04/29 16:30:44.7  -0.1 150.8  2.4               T                                        4682349
LOR   002.43 329.7 m E Sg      2011/04/29 16:30:53.4  -0.3 141.9  -6.5              T                1.2  .21 Ml 2.1         4682348
CAF   002.56 265.5 m E Pn      2011/04/29 16:30:18.1   0.1                          T                                        4682333
CAF   002.56 265.5 m E Pg      2011/04/29 16:30:24.9   0.0                          T                                        4682357
CAF   002.56 265.5 m E Sg      2011/04/29 16:30:57.8   0.1                          T                1.8  .32 Ml 2.1         4682340
HINF  002.76 017.0 m E Pn      2011/04/29 16:30:20.7  -0.1                          T                                        4682322
HINF  002.76 017.0 m E Sn      2011/04/29 16:30:52.8   0.1                          T                3.1  .37 Ml 2.3         4682316
RJF   002.93 273.8 m E Pn      2011/04/29 16:30:23.2   0.2                          T                                        4682335
RJF   002.93 273.8 m E Pg      2011/04/29 16:30:31.5  -0.2                          T                                        4682337
RJF   002.93 273.8 m E Sg      2011/04/29 16:31:09.3   0.0                          T                3.4  .45 Ml 2.0         4682336
MTLF  003.08 234.5 m E Pn      2011/04/29 16:30:25.2   0.1                          T                                        4682332
MTLF  003.08 234.5 m E Pg      2011/04/29 16:30:34.4  -0.1                          T                                        4682358
MTLF  003.08 234.5 m E Sg      2011/04/29 16:31:14.1   0.0                          T                1.3  .33 Ml 2.0         4682331
LFF   003.49 267.7 m E Pn      2011/04/29 16:30:30.8   0.1                          T                                        4682334
LFF   003.49 267.7 m E Pg      2011/04/29 16:30:41.8  -0.2                          T                                        4682338
LFF   003.49 267.7 m E Sg      2011/04/29 16:31:26.9   0.1                          T                3.6  .20 Ml 2.6         4682339

.
