EVENT     293316
    Date      Time       Latitude Longitude    Depth    Ndef Nsta Gap    Mag1  N    Mag2  N    Mag3  N   Author         ID
       rms   OT_Error      Smajor Sminor Az        Err   mdist  Mdist     Err        Err        Err      Quality

2013/03/06 21:48:01.6     42.5931   -1.7598      2.0 f    14    3 224  Ml 1.4  2  Md 1.5  2              bulletin    293416
                                                                                                         _ldg
      0.40   +-  0.27       5.7    2.4    1.22 +-  0.0    0.22   1.61   +-0.3      +-0.0                 m i ke

PYRENEES
Sta     Dist  EvAz     Phase      Date       Time     TRes  Azim  AzRes  Slow  SRes Def   SNR       Amp   Per   Mag1   Mag2       ID
SJPF  000.65 036.9 m E Pg      2013/03/06 21:48:13.8  -0.1                          T                                        5218347
SJPF  000.65 036.9 m E Sg      2013/03/06 21:48:22.4  -0.1                          T                 .8  .21        Md 1.5  5218346
ETSF  000.94 070.5 m E Pg      2013/03/06 21:48:19.4   0.1                          T                                        5218345
ETSF  000.94 070.5 m E Sg      2013/03/06 21:48:31.2  -0.2                          T                 .5  .17 Ml 1.2 Md 1.4  5218344
EPF   001.61 073.5 m E Pg      2013/03/06 21:48:31.5   0.0                          T                                        5218343
EPF   001.61 073.5 m E Sg      2013/03/06 21:48:52.3   0.0                          T                 .6  .18 Ml 1.6         5218342

.
EVENT     293298
    Date      Time       Latitude Longitude    Depth    Ndef Nsta Gap    Mag1  N    Mag2  N    Mag3  N   Author         ID
       rms   OT_Error      Smajor Sminor Az        Err   mdist  Mdist     Err        Err        Err      Quality

2013/03/06 22:40:56.7     46.0991   -1.7188      3.0 f   242   41 094  Ml 3.9 56  Md 3.8  2              bulletin    293398
                                                                                                         _ldg
      0.89   +-  0.05       1.0     .9  112.46 +-  0.0    1.20   8.48   +-0.3      +-0.0                 m i ke

FRANCE
Sta     Dist  EvAz     Phase      Date       Time     TRes  Azim  AzRes  Slow  SRes Def   SNR       Amp   Per   Mag1   Mag2       ID
MFF   001.20 064.6 m E Pn      2013/03/06 22:41:19.0   0.2                          T   001.0                                5218183
MFF   001.20 064.6 m E P       2013/03/06 22:41:19.9  -0.5                          T                                        5219416
MFF   001.20 064.6 m E Sn      2013/03/06 22:41:34.7   0.1                          T   001.0      670.6  .18 Ml 4.6 Md 3.8  5218184
QUIF  002.07 332.0 m E Pn      2013/03/06 22:41:30.6   0.0                          T   001.0                                5218201
QUIF  002.07 332.0 m E Pg      2013/03/06 22:41:35.1   0.0                          T                                        5218297
QUIF  002.07 332.0 m E Sn      2013/03/06 22:41:53.9  -1.4                          T   001.0      188.7  .24 Ml 4.1         5218202
QUIF  002.07 332.0 m E Sg      2013/03/06 22:42:01.8   0.0                          T              178.4  .22 Ml 4.1 Md 3.8  5218260
LFF   002.08 123.0 m E Pn      2013/03/06 22:41:30.8   0.1                          T   001.0                                5218177
LFF   002.08 123.0 m E Pg      2013/03/06 22:41:33.7  -1.6                          T                                        5218247
LFF   002.08 123.0 m E Sn      2013/03/06 22:41:54.3  -1.3                          T                                        5218246
LFF   002.08 123.0 m E Sg      2013/03/06 22:42:01.9  -0.3                          T   001.0      427.6  .31 Ml 4.2         5218178
SGMF  002.23 345.5 m E Pn      2013/03/06 22:41:32.8   0.1                          T   001.0                                5218205
SGMF  002.23 345.5 m E Pg      2013/03/06 22:41:38.1   0.0                          T                                        5218296
SGMF  002.23 345.5 m E Sn      2013/03/06 22:41:57.7  -1.5                          T                                        5218261
SGMF  002.23 345.5 m E Sg      2013/03/06 22:42:06.3  -0.5                          T   001.0      158.6  .24 Ml 4.1         5218206
GRR   002.36 014.0 m E Pn      2013/03/06 22:41:34.6   0.1                          T   001.0                                5218169
GRR   002.36 014.0 m E Pg      2013/03/06 22:41:40.0  -0.6                          T                                        5218294
GRR   002.36 014.0 m E Sn      2013/03/06 22:42:02.0  -0.4                          T                                        5218264
GRR   002.36 014.0 m E Sg      2013/03/06 22:42:11.6   0.6                          T   001.0      159.8  .22 Ml 4.0         5218170
RJF   002.40 108.2 m E Pn      2013/03/06 22:41:35.2   0.0                          T   001.0                                5218155
RJF   002.40 108.2 m E Pg      2013/03/06 22:41:40.8  -0.5                          T                                        5218248
RJF   002.40 108.2 m E Sn      2013/03/06 22:42:02.3  -1.0                          T                                        5218250
RJF   002.40 108.2 m E Sg      2013/03/06 22:42:12.1  -0.1                          T              218.0  .22 Ml 4.0         5218249
ROSF  002.48 335.2 m E Pn      2013/03/06 22:41:36.3   0.2                          T   001.0                                5218203
ROSF  002.48 335.2 m E Pg      2013/03/06 22:41:42.7   0.0                          T                                        5218295
ROSF  002.48 335.2 m E Sn      2013/03/06 22:42:03.7  -1.4                          T   001.0       69.4  .20 Ml 3.9         5218204
ROSF  002.48 335.2 m E Sg      2013/03/06 22:42:14.1  -0.4                          T               76.0  .21 Ml 3.9         5218262
LDF   002.72 022.9 m E Pn      2013/03/06 22:41:39.4   0.0                          T   001.0                                5218175
LDF   002.72 022.9 m E Pg      2013/03/06 22:41:46.8  -0.4                          T                                        5218293
LDF   002.72 022.9 m E Sn      2013/03/06 22:42:10.5  -0.4                          T   001.0      110.8  .28 Ml 3.9         5218176
LDF   002.72 022.9 m E Sg      2013/03/06 22:42:22.8   0.7                          T              116.4  .29 Ml 3.9         5218265
TCF   002.74 084.6 m E Pn      2013/03/06 22:41:40.0   0.3                          T   001.0                                5218190
TCF   002.74 084.6 m E Pg      2013/03/06 22:41:47.1  -0.4                          T                                        5218259
TCF   002.74 084.6 m E Sn      2013/03/06 22:42:11.0  -0.3                          T   001.0                                5218191
TCF   002.74 084.6 m E Sg      2013/03/06 22:42:23.1   0.4                          T   001.0      166.4  .26 Ml 4.2         5218192
FLN   002.79 017.0 m E Pn      2013/03/06 22:41:40.6   0.1 196.0  -1.9              T   001.0                                5218163
FLN   002.79 017.0 m E Pg      2013/03/06 22:41:48.1  -0.4 196.1  -1.8              T   001.0                                5218164
FLN   002.79 017.0 m E Sn      2013/03/06 22:42:11.8  -0.8                          T   001.0                                5218165
FLN   002.79 017.0 m E Sg      2013/03/06 22:42:25.0   0.6                          T   001.0      177.0  .32 Ml 4.0         5218166
CAF   002.91 112.4 m E Pn      2013/03/06 22:41:42.3   0.3                          T   001.0                                5218159
CAF   002.91 112.4 m E Pg      2013/03/06 22:41:50.2  -0.4                          T                                        5218245
CAF   002.91 112.4 m E Sn      2013/03/06 22:42:14.3  -1.1                          T   001.0      102.8  .20 Ml 4.1         5218160
CAF   002.91 112.4 m E Sg      2013/03/06 22:42:27.5  -0.5                          T              164.1  .33 Ml 4.1         5218244
SJPF  003.01 173.1 m E Pn      2013/03/06 22:41:42.7  -0.7                          T                                        5218300
SJPF  003.01 173.1 m E Pg      2013/03/06 22:41:50.8  -1.6                          T                                        5218243
SJPF  003.01 173.1 m E Sn      2013/03/06 22:42:14.4  -3.4                          T                                        5218326
SJPF  003.01 173.1 m E Sg      2013/03/06 22:42:29.2  -1.9                          T               42.6  .28 Ml 3.6         5218242
BGF   003.20 080.1 m E Pn      2013/03/06 22:41:46.0   0.1                          T   001.0                                5218157
BGF   003.20 080.1 m E Pg      2013/03/06 22:41:56.1   0.2                          T                                        5218328
BGF   003.20 080.1 m E Sn      2013/03/06 22:42:22.0  -0.3                          T                                        5218251
BGF   003.20 080.1 m E Sg      2013/03/06 22:42:37.9   0.9                          T   001.0      572.5  .46 Ml 4.6         5218158
ETSF  003.31 165.1 m E Pn      2013/03/06 22:41:46.2  -1.3                          T                                        5218299
ETSF  003.31 165.1 m E Pg      2013/03/06 22:41:56.4  -1.6                          T                                        5218240
ETSF  003.31 165.1 m E Sn      2013/03/06 22:42:22.1  -2.9                          T                                        5218241
ETSF  003.31 165.1 m E Sg      2013/03/06 22:42:38.6  -1.9                          T               25.7  .29 Ml 3.4         5218325
HYF   003.22 067.1 m E Pn      2013/03/06 22:41:46.5   0.3                          T                                        5218301
HYF   003.22 067.1 m E Pg      2013/03/06 22:41:57.2   0.8                          T                                        5218253
HYF   003.22 067.1 m E Sg      2013/03/06 22:42:39.2   1.5                          T                                        5218252
EPF   003.40 153.7 m E Pn      2013/03/06 22:41:47.9  -0.9                          T                                        5218298
EPF   003.40 153.7 m E Pg      2013/03/06 22:41:57.9  -1.9                          T                                        5218239
EPF   003.40 153.7 m E Sn      2013/03/06 22:42:24.6  -2.7                          T                                        5218238
EPF   003.40 153.7 m E Sg      2013/03/06 22:42:41.7  -1.8                          T               68.3  .26 Ml 3.9         5218237
AVF   003.57 077.0 m E Pn      2013/03/06 22:41:50.9  -0.1                          T   001.0                                5218156
AVF   003.57 077.0 m E Pg      2013/03/06 22:42:02.5  -0.4                          T                                        5218257
AVF   003.57 077.0 m E Sn      2013/03/06 22:42:30.0  -1.2                          T                                        5218258
AVF   003.57 077.0 m E Sg      2013/03/06 22:42:47.4  -1.3                          T              127.0  .40 Ml 4.1         5218256
SSF   003.73 073.2 m E Pn      2013/03/06 22:41:53.0  -0.2                          T   001.0                                5218189
SSF   003.73 073.2 m E Pg      2013/03/06 22:42:05.1  -0.6                          T                                        5218292
SSF   003.73 073.2 m E Sn      2013/03/06 22:42:34.6  -0.4                          T                                        5218290
SSF   003.73 073.2 m E Sg      2013/03/06 22:42:54.6   1.0                          T               46.4  .28 Ml 3.9         5218289
SMF   003.89 079.9 m E Pn      2013/03/06 22:41:55.1  -0.2                          T   001.0                                5218187
SMF   003.89 079.9 m E Pg      2013/03/06 22:42:08.2  -0.5                          T                                        5218254
SMF   003.89 079.9 m E Sn      2013/03/06 22:42:38.2  -0.6                          T                                        5218255
SMF   003.89 079.9 m E Sg      2013/03/06 22:42:59.6   1.0                          T   001.0       43.4  .27 Ml 3.8         5218188
MTLF  003.93 133.1 m E Pn      2013/03/06 22:41:55.9   0.0                          T   001.0                                5218199
MTLF  003.93 133.1 m E Pg      2013/03/06 22:42:08.7  -0.8                          T                                        5218235
MTLF  003.93 133.1 m E Sn      2013/03/06 22:42:38.6  -1.3                          T                                        5218236
MTLF  003.93 133.1 m E Sg      2013/03/06 22:42:59.8  -0.2                          T   001.0       32.1  .24 Ml 3.8         5218200
LOR   004.01 071.0 m E Pn      2013/03/06 22:41:56.7  -0.3 248.7  -6.3              T   001.0                                5218181
LOR   004.01 071.0 m E Pg      2013/03/06 22:42:10.7  -0.3 250.1  -5.0              T                                        5218291
LOR   004.01 071.0 m E Sn      2013/03/06 22:42:41.4  -0.4                          T                                        5218288
LOR   004.01 071.0 m E Sg      2013/03/06 22:43:03.2   0.7 248.9  -6.2              T   001.0       56.4  .30 Ml 3.9         5218182
LASF  004.44 115.1 m E Pn      2013/03/06 22:42:03.5   0.7                          T   001.0                                5218173
LASF  004.44 115.1 m E Pg      2013/03/06 22:42:19.7   0.9                          T                                        5218234
LASF  004.44 115.1 m E Sn      2013/03/06 22:42:52.5   0.6                          T                                        5218233
LASF  004.44 115.1 m E Sg      2013/03/06 22:43:15.4  -0.3                          T   001.0       33.7  .25 Ml 3.9         5218174
VIVF  004.66 103.2 m E Pn      2013/03/06 22:42:06.5   0.5                          T   001.0                                5218207
VIVF  004.66 103.2 m E Pg      2013/03/06 22:42:22.9  -0.1                          T                                        5218232
VIVF  004.66 103.2 m E Sn      2013/03/06 22:42:57.9   0.5                          T                                        5218231
VIVF  004.66 103.2 m E Sg      2013/03/06 22:43:22.4  -0.4                          T   001.0       28.9  .34 Ml 3.7         5218208
SFTF  005.07 063.0 m E Pn      2013/03/06 22:42:11.2  -0.3 240.9  -7.1              T                                        5218302
SFTF  005.07 063.0 m E Pg      2013/03/06 22:42:33.4   2.9                          T                                        5218275
SFTF  005.07 063.0 m E Sn      2013/03/06 22:43:06.0  -1.0 239.7  -8.3              T                                        5218274
SFTF  005.07 063.0 m E Sg      2013/03/06 22:43:33.8  -1.6 240.1  -7.9              T               38.2  .42 Ml 3.8         5218273
MEZF  005.20 060.0 m E Pn      2013/03/06 22:42:12.9  -0.2 240.3  -4.6              T   001.0                                5218198
MEZF  005.20 060.0 m E Pg      2013/03/06 22:42:33.5   0.8 241.5  -3.4              T                                        5218277
MEZF  005.20 060.0 m E Sn      2013/03/06 22:43:09.8  -0.2                          T                                        5218327
MEZF  005.20 060.0 m E Sg      2013/03/06 22:43:40.4   1.0 239.5  -5.5              T               37.8  .40 Ml 3.9         5218276
CABF  005.43 081.8 m E Pn      2013/03/06 22:42:16.3  -0.2                          T   001.0                                5218194
CABF  005.43 081.8 m E Pg      2013/03/06 22:42:36.8  -0.4                          T                                        5218268
CABF  005.43 081.8 m E Sn      2013/03/06 22:43:15.3  -0.4                          T                                        5218267
CABF  005.43 081.8 m E Sg      2013/03/06 22:43:47.4   0.7                          T               23.9  .43 Ml 3.7         5218266
ORIF  005.47 099.7 m E Pn      2013/03/06 22:42:17.2   0.2                          T                                        5218230
ORIF  005.47 099.7 m E Sn      2013/03/06 22:43:16.7   0.0                          T                                        5218228
ORIF  005.47 099.7 m E Sg      2013/03/06 22:43:47.9  -0.1                          T               24.8  .49 Ml 3.7         5218229
PAGF  005.63 061.4 m E Pn      2013/03/06 22:42:18.5  -0.4 241.6  -5.3              T                                        5218303
PAGF  005.63 061.4 m E Pg      2013/03/06 22:42:42.2   1.5 239.9  -6.9              T                                        5218280
PAGF  005.63 061.4 m E Sn      2013/03/06 22:43:19.6  -0.7                          T                                        5218279
PAGF  005.63 061.4 m E Sg      2013/03/06 22:43:54.4   1.6 239.9  -7.0              T              178.9  .71 Ml 4.4         5218278
SMRF  005.59 109.7 m E Pn      2013/03/06 22:42:19.1   0.6                          T   001.0                                5218209
SMRF  005.59 109.7 m E Pg      2013/03/06 22:42:40.0   0.0                          T                                        5218219
SMRF  005.59 109.7 m E Sn      2013/03/06 22:43:19.6   0.1                          T                                        5218218
SMRF  005.59 109.7 m E Sg      2013/03/06 22:43:51.6  -0.1                          T               25.5  .54 Ml 3.7         5218217
BAIF  005.61 042.9 m E Pn      2013/03/06 22:42:19.2   0.5                          T   001.0                                5218193
BAIF  005.61 042.9 m E Sn      2013/03/06 22:43:19.0  -0.9                          T                                        5218287
BAIF  005.61 042.9 m E Sg      2013/03/06 22:43:52.8   0.6                          T               25.2  .54 Ml 3.7         5218286
HAU   005.83 068.0 m E Pn      2013/03/06 22:42:20.8  -1.1                          T   001.0                                5218171
HAU   005.83 068.0 m E Pg      2013/03/06 22:42:46.8   2.3                          T                                        5218272
HAU   005.83 068.0 m E Sn      2013/03/06 22:43:23.6  -1.7                          T   001.0       22.7  .40 Ml 3.6         5218172
HAU   005.83 068.0 m E Sg      2013/03/06 22:44:00.4   1.1                          T               41.0  .40 Ml 3.8         5218271
LPL   005.94 092.6 m E Pn      2013/03/06 22:42:23.6   0.1                          T                                        5218226
LPL   005.94 092.6 m E Pg      2013/03/06 22:42:47.2   0.5                          T                                        5218227
LPL   005.94 092.6 m E Sn      2013/03/06 22:43:27.9  -0.2                          T                                        5218224
LPL   005.94 092.6 m E Sg      2013/03/06 22:44:02.6  -0.2                          T               14.3  .48 Ml 3.6         5218225
GIVF  005.94 045.2 m E Pn      2013/03/06 22:42:23.6   0.4                          T   001.0                                5218195
GIVF  005.94 045.2 m E Pg      2013/03/06 22:42:45.9  -0.5                          T                                        5218284
GIVF  005.94 045.2 m E Sn      2013/03/06 22:43:26.6  -1.1                          T                                        5218285
GIVF  005.94 045.2 m E Sg      2013/03/06 22:44:02.9   0.5                          T               31.0  .53 Ml 3.8         5218283
LPG   005.95 092.8 m E Pn      2013/03/06 22:42:24.1   0.3                          T                                        5218223
LPG   005.95 092.8 m E Pg      2013/03/06 22:42:46.4  -0.7                          T                                        5218222
LPG   005.95 092.8 m E Sn      2013/03/06 22:43:28.2  -0.4                          T                                        5218221
LPG   005.95 092.8 m E Sg      2013/03/06 22:44:02.2  -1.1                          T               23.7  .44 Ml 3.8         5218220
HINF  006.11 070.6 m E Pn      2013/03/06 22:42:25.3  -0.4                          T   001.0                                5218196
