BEGIN GSE2.0
MSG_TYPE DATA
MSG_ID 13-MAI-1308:35:21  FRA_NDC
E-MAIL
DATA_TYPE BULLETIN
Reviewed Bulletin (REB) # P2013-016  from French NDC for regional phases     PERIOD 17 AVR 2013 TO 23 AVR 2013 Cenalt JP S
EVENT     296213
    Date      Time       Latitude Longitude    Depth    Ndef Nsta Gap    Mag1  N    Mag2  N    Mag3  N   Author         ID
       rms   OT_Error      Smajor Sminor Az        Err   mdist  Mdist     Err        Err        Err      Quality

2013/04/17 04:01:16.9     44.5228    6.6827      2.0      43    9 047  Ml 1.6  6  Md 1.8  2              bulletin    296313
                                                                                                         _ldg
      0.44   +-  0.07       1.5    1.1   67.21 +-  0.0    0.10   2.46   +-0.3      +-0.1                 m i ke

FRANCE
Sta     Dist  EvAz     Phase      Date       Time     TRes  Azim  AzRes  Slow  SRes Def   SNR       Amp   Per   Mag1   Mag2       ID
MBDF  000.21 017.2 m E Pg      2013/04/17 04:01:21.3  -0.1                          T                                        5259835
MBDF  000.21 017.2 m E Sg      2013/04/17 04:01:24.0  -0.3                          T                8.8  .20        Md 1.7  5259833
ORIF  000.70 304.9 m E Pg      2013/04/17 04:01:29.8  -0.4                          T                                Md 1.9  5259834
ORIF  000.70 304.9 m E Sg      2013/04/17 04:01:38.5  -0.7                          T                1.8  .17                5259843
SBF   000.85 140.4 m E Pg      2013/04/17 04:01:34.3   1.3                          T                                        5259844
SBF   000.85 140.4 m E Sg      2013/04/17 04:01:44.4   0.3                          T                3.4  .31                5259838
FRF   000.96 181.6 m E Pg      2013/04/17 04:01:35.6   0.6                          T                                        5259845
FRF   000.96 181.6 m E Sg      2013/04/17 04:01:48.0   0.6                          T                3.1  .20 Ml 2.0         5259839
LPG   000.98 002.8 m E Pg      2013/04/17 04:01:35.6   0.0                          T                                        5259831
LPG   000.98 002.8 m E Sg      2013/04/17 04:01:47.5  -0.8                          T                  1  .21 Ml 1.5         5259841
SMRF  000.97 235.9 m E Pg      2013/04/17 04:01:35.7   0.6                          T                                        5259830
SMRF  000.97 235.9 m E Sg      2013/04/17 04:01:47.7   0.0                          T                1.0  .19 Ml 1.5         5259840
LPL   000.99 002.0 m E Pg      2013/04/17 04:01:35.9   0.1                          T                                        5259832
LPL   000.99 002.0 m E Sg      2013/04/17 04:01:48.4  -0.4                          T                 .7  .22 Ml 1.3         5259842
LMR   001.20 186.1 m E Pn      2013/04/17 04:01:39.6   0.7                          T                                        5259836
LMR   001.20 186.1 m E Sn      2013/04/17 04:01:55.2   0.4                          T                1.7  .20 Ml 1.9         5259837
VIVF  001.47 283.8 m E Pn      2013/04/17 04:01:42.9   0.1                          T                                        5259849
VIVF  001.47 283.8 m E Sn      2013/04/17 04:02:01.5   0.0                          T                1.1  .30 Ml 1.6         5259848

.
EVENT     296216
    Date      Time       Latitude Longitude    Depth    Ndef Nsta Gap    Mag1  N    Mag2  N    Mag3  N   Author         ID
       rms   OT_Error      Smajor Sminor Az        Err   mdist  Mdist     Err        Err        Err      Quality

2013/04/17 04:12:11.4     43.1572   18.6845      2.0      59   11 051  Ml 3.4  2                         bulletin    296316
                                                                                                         _ldg
      1.39   +-  0.16       4.2    3.6   21.48 +-  0.0    0.17  10.79   +-0.4                            m i ke

NORTHWESTERN BALKAN PEN.
Sta     Dist  EvAz     Phase      Date       Time     TRes  Azim  AzRes  Slow  SRes Def   SNR       Amp   Per   Mag1   Mag2       ID
PGF   007.14 268.4 m E P       2013/04/17 04:13:59.8   0.1                          T                                        5260285
SBF   008.21 278.8 m E P       2013/04/17 04:14:14.9   0.4                          T                                        5260294
FRF   008.78 276.7 m E P       2013/04/17 04:14:22.9   0.5                          T                                        5260292
MBDF  008.74 284.4 m E P       2013/04/17 04:14:22.9   0.9                          T                                        5260289
LMR   008.89 275.3 m E P       2013/04/17 04:14:23.9   0.0                          T                                        5260295
LPG   008.87 289.4 m E P       2013/04/17 04:14:24.3   0.3                          T                                        5260286
LPG   008.87 289.4 m E Sn      2013/04/17 04:15:50.2  -2.9                          T                1.5  .37 Ml 3.1         5260296
LPL   008.89 289.5 m E P       2013/04/17 04:14:26.4   2.2                          T                                        5260290
LPL   008.89 289.5 m E Sn      2013/04/17 04:15:53.1  -0.2                          T                6.2  .45 Ml 3.7         5260297
ORIF  009.39 285.2 m E P       2013/04/17 04:14:32.1   1.1                          T                                        5260288
SMRF  009.55 279.4 m E P       2013/04/17 04:14:33.5   0.4                          T                                        5260291
VIVF  010.24 284.4 m E P       2013/04/17 04:14:42.9   0.3                          T                                        5260293
LASF  010.79 280.0 m E P       2013/04/17 04:14:50.4   0.2                          T                                        5260287

.
EVENT     296220
    Date      Time       Latitude Longitude    Depth    Ndef Nsta Gap    Mag1  N    Mag2  N    Mag3  N   Author         ID
       rms   OT_Error      Smajor Sminor Az        Err   mdist  Mdist     Err        Err        Err      Quality

2013/04/17 07:09:39.3     42.7575   -1.6870      2.0      28    5 102  Ml 2.1  4  Md 2.4  1              bulletin    296320
                                                                                                         _ldg
      0.30   +-  0.11       1.9    1.4  122.81 +-  0.0    0.08   2.92   +-0.3      +-                    m i ke

PYRENEES
Sta     Dist  EvAz     Phase      Date       Time     TRes  Azim  AzRes  Slow  SRes Def   SNR       Amp   Per   Mag1   Mag2       ID
SJPF  000.49 043.5 m E Pg      2013/04/17 07:09:48.7   0.0                          T                                        5260065
SJPF  000.49 043.5 m E Sg      2013/04/17 07:09:55.3   0.1                          T                7.3  .22        Md 2.4  5260062
ETSF  000.84 080.0 m E Pg      2013/04/17 07:09:55.2   0.0                          T                                        5260063
ETSF  000.84 080.0 m E Sg      2013/04/17 07:10:06.3   0.1                          T                5.2  .23                5260061
EPF   001.51 078.9 m E Pg      2013/04/17 07:10:07.9   0.3                          T                                        5260064
EPF   001.51 078.9 m E Sg      2013/04/17 07:10:27.3   0.2                          T                5.6  .25 Ml 2.4         5260060
LFF   002.80 038.0 m E Pn      2013/04/17 07:10:23.3   0.1                          T                                        5261638
LFF   002.80 038.0 m E Sg      2013/04/17 07:11:07.0  -0.2                          T                3.0  .27 Ml 2.3         5261637
MTLF  002.92 077.2 m E Pn      2013/04/17 07:10:25.1   0.2                          T                                        5261640
MTLF  002.92 077.2 m E Sg      2013/04/17 07:11:11.1   0.1                          T                  1  .28 Ml 2.0         5261639

.
EVENT     296219
    Date      Time       Latitude Longitude    Depth    Ndef Nsta Gap    Mag1  N    Mag2  N    Mag3  N   Author         ID
       rms   OT_Error      Smajor Sminor Az        Err   mdist  Mdist     Err        Err        Err      Quality

2013/04/17 07:16:51.2     46.0263    6.8813      2.0      46   12 053  Ml 2.3  9  Md 2.2  2              bulletin    296319
                                                                                                         _ldg
      0.27   +-  0.04        .8     .7   97.82 +-  0.0    0.13   2.56   +-0.2      +-0.1                 m i ke

SWITZERLAND
Sta     Dist  EvAz     Phase      Date       Time     TRes  Azim  AzRes  Slow  SRes Def   SNR       Amp   Per   Mag1   Mag2       ID
LPL   000.52 191.6 m E Pg      2013/04/17 07:17:01.5   0.1                          T                                        5260070
LPL   000.52 191.6 m E Sg      2013/04/17 07:17:08.2   0.0                          T               11.6  .26        Md 2.2  5260068
LPG   000.54 189.8 m E Pg      2013/04/17 07:17:01.8   0.0                          T                                        5260069
LPG   000.54 189.8 m E Sg      2013/04/17 07:17:09.0   0.2                          T               24.6  .26        Md 2.3  5260067
CABF  000.80 317.0 m E Pg      2013/04/17 07:17:06.0  -0.4                          T                                        5260082
CABF  000.80 317.0 m E Sg      2013/04/17 07:17:16.7  -0.2                          T                4.0  .22                5260073
ORIF  001.31 212.8 m E Pn      2013/04/17 07:17:15.0   0.1                          T                                        5260085
ORIF  001.31 212.8 m E Sn      2013/04/17 07:17:32.1   0.1                          T                7.8  .34 Ml 2.3         5260086
MBDF  001.30 183.5 m E Pn      2013/04/17 07:17:15.2   0.3                          T                                        5260084
MBDF  001.30 183.5 m E Sn      2013/04/17 07:17:31.9   0.1                          T                1.9  .20 Ml 1.9         5260087
HINF  001.79 359.4 m E Pn      2013/04/17 07:17:21.3  -0.1                          T                                        5260081
HINF  001.79 359.4 m E Sn      2013/04/17 07:17:42.7  -0.7                          T                5.8  .28 Ml 2.5         5260074
VIVF  001.95 233.8 m E Pn      2013/04/17 07:17:23.4  -0.1                          T                                        5260083
VIVF  001.95 233.8 m E Sn      2013/04/17 07:17:47.1   0.0                          T                8.0  .30 Ml 2.6         5260088
HAU   002.01 349.8 m E Pn      2013/04/17 07:17:24.5   0.1                          T                                        5260080
HAU   002.01 349.8 m E Sn      2013/04/17 07:17:48.6  -0.1                          T                4.5  .26 Ml 2.2         5260075
SMF   002.20 287.5 m E Pn      2013/04/17 07:17:26.7  -0.2                          T                                        5260071
SMF   002.20 287.5 m E Sn      2013/04/17 07:17:52.9  -0.1                          T                4.6  .20 Ml 2.6         5260090
CDF   002.40 006.3 m E Pn      2013/04/17 07:17:29.7  -0.1                          T                                        5260079
CDF   002.40 006.3 m E Sn      2013/04/17 07:17:58.1   0.1                          T                2.0  .27 Ml 2.3         5260076
LOR   002.42 301.9 m E Pn      2013/04/17 07:17:30.4   0.4                          T                                        5260078
LOR   002.42 301.9 m E Sn      2013/04/17 07:17:58.3  -0.2                          T                2.3  .31 Ml 2.2         5260077
AVF   002.56 288.7 m E Pn      2013/04/17 07:17:31.9   0.1                          T                                        5260072
AVF   002.56 288.7 m E Sn      2013/04/17 07:18:01.5  -0.1                          T                 .9  .19 Ml 2.0         5260089

.
EVENT     296221
    Date      Time       Latitude Longitude    Depth    Ndef Nsta Gap    Mag1  N    Mag2  N    Mag3  N   Author         ID
       rms   OT_Error      Smajor Sminor Az        Err   mdist  Mdist     Err        Err        Err      Quality

2013/04/17 07:51:44.9     43.6155    3.0755       .0 f    51   16 084  Ml 2.3 16  Md 2.2  2              bulletin    296321
                                                                                                         _ldg
      0.65   +-  0.06       1.7    1.2  139.90 +-  0.0    0.68   4.47   +-0.3      +-0.0                 m i sm

NEAR SOUTH COAST OF FRANCE
Sta     Dist  EvAz     Phase      Date       Time     TRes  Azim  AzRes  Slow  SRes Def   SNR       Amp   Per   Mag1   Mag2       ID
MTLF  000.68 246.6 m E Pg      2013/04/17 07:51:57.5  -0.6                          T                                        5262460
MTLF  000.68 246.6 m E Pn      2013/04/17 07:52:00.2  -0.3                          T                                        5262465
MTLF  000.68 246.6 m E Sg      2013/04/17 07:52:06.7  -0.5                          T                                        5260169
MTLF  000.68 246.6 m E Sn      2013/04/17 07:52:10.0  -1.3                          T                8.6  .18        Md 2.2  5260167
LASF  000.73 050.6 m E Pg      2013/04/17 07:51:59.9   0.9                          T                                        5262466
LASF  000.73 050.6 m E Pn      2013/04/17 07:52:01.6   0.5                          T                                        5262467
LASF  000.73 050.6 m E Sg      2013/04/17 07:52:07.5  -1.2                          T                                        5260168
LASF  000.73 050.6 m E Sn      2013/04/17 07:52:13.3   0.9                          T               45.7  .22        Md 2.2  5260166
CAF   001.50 331.3 m E Pn      2013/04/17 07:52:11.7   0.1                          T                                        5260183
CAF   001.50 331.3 m E Pg      2013/04/17 07:52:13.5   0.3                          T                                        5262462
CAF   001.50 331.3 m E Sn      2013/04/17 07:52:30.6  -0.2                          T                7.6  .20 Ml 2.6         5260178
VIVF  001.69 042.2 m E Pn      2013/04/17 07:52:13.7  -0.5                          T                                        5260162
VIVF  001.69 042.2 m E Pg      2013/04/17 07:52:17.3   0.5                          T                                        5262464
VIVF  001.69 042.2 m E Sn      2013/04/17 07:52:34.4  -1.0                          T                4.2  .24 Ml 2.4         5260161
SMRF  001.85 077.9 m E Pn      2013/04/17 07:52:16.5   0.2                          T                                        5261677
SMRF  001.85 077.9 m E Sn      2013/04/17 07:52:38.3  -0.8                          T                                        5261676
SMRF  001.85 077.9 m E Sg      2013/04/17 07:52:43.2  -0.3                          T                1.4  .22 Ml 2.0         5261675
RJF   002.02 327.1 m E Pn      2013/04/17 07:52:18.9   0.2                          T                                        5260182
RJF   002.02 327.1 m E Sn      2013/04/17 07:52:43.2  -0.2                          T                4.7  .18 Ml 2.3         5260180
EPF   002.08 254.6 m E Pn      2013/04/17 07:52:19.5   0.0                          T                                        5260165
EPF   002.08 254.6 m E P       2013/04/17 07:52:21.1  -0.5                          T                                        5262463
EPF   002.08 254.6 m E Pg      2013/04/17 07:52:24.7   0.8                          T                                        5262459
EPF   002.08 254.6 m E Sn      2013/04/17 07:52:45.1   0.3                          T                6.0  .20 Ml 2.7         5260164
LFF   002.14 309.1 m E Pn      2013/04/17 07:52:20.2   0.0                          T                                        5260181
LFF   002.14 309.1 m E Sn      2013/04/17 07:52:45.8  -0.3                          T                4.5  .24 Ml 2.3         5260179
LMR   002.52 095.2 m E Pn      2013/04/17 07:52:25.8   0.4                          T                                        5261674
LMR   002.52 095.2 m E Sg      2013/04/17 07:53:03.7  -0.7                          T                1.4  .23 Ml 2.1         5261673
TCF   002.74 347.4 m E Pn      2013/04/17 07:52:29.0   0.5                          T                                        5261686
TCF   002.74 347.4 m E Sn      2013/04/17 07:53:00.0  -0.6                          T                                        5261685
TCF   002.74 347.4 m E Sg      2013/04/17 07:53:11.6   0.1                          T                1.5  .21 Ml 2.3         5261684
ETSF  002.75 256.1 m E Pn      2013/04/17 07:52:29.6   0.9                          T                                        5260163
ETSF  002.75 256.1 m E Sn      2013/04/17 07:53:01.1   0.3                          T                2.0  .19 Ml 2.4         5260175
SMF   003.08 009.9 m E Pn      2013/04/17 07:52:33.4   0.4                          T                                        5261683
SMF   003.08 009.9 m E Sg      2013/04/17 07:53:20.9  -1.1                          T                1.3  .22 Ml 2.2         5261682
AVF   003.18 003.4 m E Pn      2013/04/17 07:52:34.4   0.0                          T                                        5261688
AVF   003.18 003.4 m E Sg      2013/04/17 07:53:25.0  -0.2                          T                1.2  .26 Ml 2.1         5261687
SSF   003.46 004.9 m E Pn      2013/04/17 07:52:38.5   0.3                          T                                        5261679
SSF   003.46 004.9 m E Sg      2013/04/17 07:53:33.4  -0.5                          T                1.4  .31 Ml 2.3         5261678
LOR   003.69 008.3 m E Pn      2013/04/17 07:52:41.6   0.1                          T                                        5261681
LOR   003.69 008.3 m E Sg      2013/04/17 07:53:41.3   0.0 194.6  5.8               T                1.7  .33 Ml 2.3         5261680
PGF   004.47 101.8 m E Pn      2013/04/17 07:52:51.8  -0.3                          T                                        5260177
PGF   004.47 101.8 m E Sn      2013/04/17 07:53:41.4  -0.5                          T                  1  .21 Ml 2.7         5260176

.
