EVENT     258102
    Date      Time       Latitude Longitude    Depth    Ndef Nsta Gap    Mag1  N    Mag2  N    Mag3  N   Author         ID
       rms   OT_Error      Smajor Sminor Az        Err   mdist  Mdist     Err        Err        Err      Quality

2011/04/08 23:23:29.1     48.1970    9.0325      5.0 f    27   10 061  Ml 2.0  9  Md 2.1  3              js067245    258102

      0.44   +-  0.06       1.2    1.0  100.61 +-  0.0    0.14   2.67   +-0.2      +-0.1                 m i ke

GERMANY
Sta     Dist  EvAz     Phase      Date       Time     TRes  Azim  AzRes  Slow  SRes Def   SNR       Amp   Per   Mag1   Mag2       ID
LANF  001.13 314.4 m E Pg      2011/04/08 23:23:50.5   0.2                          T                                        4671510
LANF  001.13 314.4 m E Sg      2011/04/08 23:24:04.7  -0.3                          T                4.5  .21 Ml 2.2 Md 2.2  4671505
CDF   001.19 281.1 m E Pg      2011/04/08 23:23:51.2  -0.4                          T                                        4671517
CDF   001.19 281.1 m E Sg      2011/04/08 23:24:06.6  -0.4                          T                4.2  .18 Ml 2.4 Md 2.0  4671516
HINF  001.51 256.2 m E Pg      2011/04/08 23:23:57.2  -0.1                          T                                        4671513
HINF  001.51 256.2 m E Sg      2011/04/08 23:24:16.5  -0.4                          T                3.8  .35 Ml 2.1 Md 2.0  4671514
HAU   001.81 264.9 m E Pg      2011/04/08 23:24:02.6  -0.2                          T                                        4671512
HAU   001.81 264.9 m E Sg      2011/04/08 23:24:25.8  -0.3                          T                2.8  .26 Ml 2.0         4671515
PAGF  002.23 280.5 m E Pn      2011/04/08 23:24:05.4   0.4                          T                                        4671499
PAGF  002.23 280.5 m E Sn      2011/04/08 23:24:31.6   0.3 104.0  6.0               T                 .5  .25 Ml 1.6         4671498
RUP   001.99 319.9 m E Pg      2011/04/08 23:24:06.2   0.1                          T                                        4671509
RUP   001.99 319.9 m E Sg      2011/04/08 23:24:31.6  -0.2                          T                                        4671504
THEF  002.03 272.0 m E Pg      2011/04/08 23:24:06.9   0.0                          T                                        4671511
THEF  002.03 272.0 m E Sg      2011/04/08 23:24:32.6  -0.4                          T                2.4  .40 Ml 2.0         4671506
MEZF  002.67 278.0 m E Pn      2011/04/08 23:24:11.3   0.4 104.0  8.9               T                                        4671501
MEZF  002.67 278.0 m E Sg      2011/04/08 23:24:52.5  -0.5                          T                1.3  .25 Ml 2.1         4671502
SFTF  002.67 271.7 m E Pn      2011/04/08 23:24:11.4   0.4                          T                                        4671500
SFTF  002.67 271.7 m E Sg      2011/04/08 23:24:52.7  -0.3                          T                 .7  .19 Ml 1.9         4671503
CABF  002.55 232.7 m E Pg      2011/04/08 23:24:16.7   0.1                          T                                        4671508
CABF  002.55 232.7 m E Sg      2011/04/08 23:24:49.4   0.0                          T                 .9  .38 Ml 1.7         4671507

.
EVENT     258103
    Date      Time       Latitude Longitude    Depth    Ndef Nsta Gap    Mag1  N    Mag2  N    Mag3  N   Author         ID
       rms   OT_Error      Smajor Sminor Az        Err   mdist  Mdist     Err        Err        Err      Quality

2011/04/09 01:42:03.0     43.0684    -.4990     10.1      10    4 166  Ml 1.6  2  Md 1.5  3              js067245    258103

      0.08   +-  0.12       4.2     .6    5.37 +-  3.3    0.18   2.00   +-0.2      +-0.0                 m i ke

PYRENEES
Sta     Dist  EvAz     Phase      Date       Time     TRes  Azim  AzRes  Slow  SRes Def   SNR       Amp   Per   Mag1   Mag2       ID
ETSF  000.18 194.6 m E Pg      2011/04/09 01:42:07.0   0.0                          T                                        4671589
ETSF  000.18 194.6 m E Sg      2011/04/09 01:42:09.7   0.0                          T               14.6  .29        Md 1.5  4671586
SJPF  000.53 275.1 m E Pg      2011/04/09 01:42:13.4   0.1                          T                                        4671584
SJPF  000.53 275.1 m E Sg      2011/04/09 01:42:20.1  -0.2                          T                 .5  .25        Md 1.5  4671585
EPF   000.62 093.3 m E Pg      2011/04/09 01:42:14.8   0.0                          T                                        4671588
EPF   000.62 093.3 m E Sg      2011/04/09 01:42:23.1   0.2                          T                 .9  .19        Md 1.5  4671587
MTLF  002.00 081.3 m E Pg      2011/04/09 01:42:40.2   0.0                          T                                        4671583
MTLF  002.00 081.3 m E Sg      2011/04/09 01:43:06.1   0.0                          T                 .6  .36 Ml 1.4         4671582

.
EVENT     258104
    Date      Time       Latitude Longitude    Depth    Ndef Nsta Gap    Mag1  N    Mag2  N    Mag3  N   Author         ID
       rms   OT_Error      Smajor Sminor Az        Err   mdist  Mdist     Err        Err        Err      Quality

2011/04/09 07:27:35.5     44.3860    8.0854      3.0 f    20    9 261  Ml 1.9  9  Md 2.0  3              js067245    258104

      0.15   +-  0.11       1.9     .8   89.59 +-  0.0    0.70   2.48   +-0.2      +-0.1                 m i ke

NORTHERN ITALY
Sta     Dist  EvAz     Phase      Date       Time     TRes  Azim  AzRes  Slow  SRes Def   SNR       Amp   Per   Mag1   Mag2       ID
SBF   000.70 222.1 m E Pg      2011/04/09 07:27:48.8  -0.1                          T                                        4671622
SBF   000.70 222.1 m E Sg      2011/04/09 07:27:58.0   0.0                          T               10.7  .32        Md 2.1  4671623
MBDF  001.00 290.4 m E Pg      2011/04/09 07:27:54.2  -0.3                          T                                        4671627
MBDF  001.00 290.4 m E Sg      2011/04/09 07:28:07.4  -0.1                          T                2.5  .33 Ml 1.7 Md 2.0  4671626
FRF   001.33 232.0 m E Pg      2011/04/09 07:28:00.5   0.2                          T                                        4671629
FRF   001.33 232.0 m E Sg      2011/04/09 07:28:17.3  -0.2                          T                9.6  .65 Ml 2.2 Md 1.9  4671625
LPG   001.46 320.0 m E Pg      2011/04/09 07:28:03.1  -0.1                          T                                        4671615
LPG   001.46 320.0 m E Sg      2011/04/09 07:28:21.8  -0.2                          T                1.7  .35 Ml 1.7         4671613
LPL   001.48 320.1 m E Pg      2011/04/09 07:28:03.5   0.0                          T                                        4671616
LPL   001.48 320.1 m E Sg      2011/04/09 07:28:22.3  -0.3                          T                1.7  .35 Ml 1.7         4671614
LMR   001.55 227.9 m E Pg      2011/04/09 07:28:04.2  -0.2                          T                                        4671628
LMR   001.55 227.9 m E Sg      2011/04/09 07:28:24.3  -0.1                          T                7.0  .46 Ml 2.3         4671624
ORIF  001.66 289.5 m E Pg      2011/04/09 07:28:06.6   0.1                          T                                        4671617
ORIF  001.66 289.5 m E Sg      2011/04/09 07:28:27.9  -0.1                          T                 .8  .22 Ml 1.7         4671618
SMRF  001.85 258.1 m E Pg      2011/04/09 07:28:10.0   0.0                          T                                        4671621
SMRF  001.85 258.1 m E Sg      2011/04/09 07:28:33.8  -0.1                          T                3.6  .47 Ml 2.1         4671612
VIVF  002.48 282.1 m E Pn      2011/04/09 07:28:14.9  -0.1                          T                                        4671620
VIVF  002.48 282.1 m E Sn      2011/04/09 07:28:44.1   0.0                          T                2.2  .48 Ml 2.0         4671619

.
EVENT     258166
    Date      Time       Latitude Longitude    Depth    Ndef Nsta Gap    Mag1  N    Mag2  N    Mag3  N   Author         ID
       rms   OT_Error      Smajor Sminor Az        Err   mdist  Mdist     Err        Err        Err      Quality

2011/04/09 12:09:17.8     48.6727     .2274       .0 f    11    5 265  Ml 1.8  2  Md 2.3  3              js067245    258166

      0.44   +-  0.20       3.5    2.0   45.94 +-  0.0    0.25   2.09   +-0.1      +-0.1                 m i km

FRANCE
Sta     Dist  EvAz     Phase      Date       Time     TRes  Azim  AzRes  Slow  SRes Def   SNR       Amp   Per   Mag1   Mag2       ID
LDF   000.25 251.3 m E Pg      2011/04/09 12:09:22.7  -0.2                          T                                        4671753
LDF   000.25 251.3 m E Sg      2011/04/09 12:09:25.9  -0.5                          T               28.3 1.20        Md 2.4  4671754
FLN   000.48 281.1 m E Pg      2011/04/09 12:09:27.0  -0.1  98.0  -2.6              T                                        4671751
FLN   000.48 281.1 m E Sg      2011/04/09 12:09:34.4   0.7 103.7  3.1               T                3.4  .28        Md 2.2  4671752
GRR   000.78 248.9 m E Pg      2011/04/09 12:09:32.8   0.2                          T                                        4671749
GRR   000.78 248.9 m E Sg      2011/04/09 12:09:42.7  -0.2                          T               20.9 1.16        Md 2.4  4671750
MFF   002.09 187.1 m E Pn      2011/04/09 12:09:52.5   0.1                          T                                        4671756
MFF   002.09 187.1 m E Pg      2011/04/09 12:09:56.7  -0.1                          T                                        4671755
MFF   002.09 187.1 m E Sg      2011/04/09 12:10:23.8  -0.1                          T                  1  .33 Ml 1.9         4671757
SGMF  001.90 258.3 m E Pg      2011/04/09 12:09:53.5   0.1                          T                                        4671758
SGMF  001.90 258.3 m E Sg      2011/04/09 12:10:18.1   0.0                          T                1.6  .42 Ml 1.8         4671759

.
EVENT     258107
    Date      Time       Latitude Longitude    Depth    Ndef Nsta Gap    Mag1  N    Mag2  N    Mag3  N   Author         ID
       rms   OT_Error      Smajor Sminor Az        Err   mdist  Mdist     Err        Err        Err      Quality

2011/04/09 12:47:56.1     43.4888    5.5538      2.0      32   12 158  Ml 2.2 11  Md 2.1  3              js067245    258107

      0.95   +-  0.14       2.4    1.8   15.10 +-  0.0    0.24   2.70   +-0.3      +-0.0                 m i ke

NEAR SOUTH COAST OF FRANCE
Sta     Dist  EvAz     Phase      Date       Time     TRes  Azim  AzRes  Slow  SRes Def   SNR       Amp   Per   Mag1   Mag2       ID
SMRF  000.49 001.8 m E Pg      2011/04/09 12:48:06.1   0.7                          T                                        4671651
SMRF  000.49 001.8 m E Sg      2011/04/09 12:48:12.1   0.2                          T               19.2  .24        Md 2.1  4671647
LMR   000.71 102.2 m E Pg      2011/04/09 12:48:09.8   0.3                          T                                        4671649
LMR   000.71 102.2 m E Sg      2011/04/09 12:48:18.4  -0.5                          T               16.0  .22        Md 2.1  4671645
FRF   000.80 084.5 m E Pg      2011/04/09 12:48:10.9  -0.2                          T                                        4671650
FRF   000.80 084.5 m E Sg      2011/04/09 12:48:21.3  -0.2                          T               19.0  .20        Md 2.1  4671646
LASF  001.36 296.1 m E Pg      2011/04/09 12:48:21.5  -0.1                          T                                        4671655
LASF  001.36 296.1 m E Sg      2011/04/09 12:48:39.4   0.3                          T                3.0  .21 Ml 2.1         4671644
SBF   001.42 074.0 m E Pg      2011/04/09 12:48:22.2  -0.3                          T                                        4671648
SBF   001.42 074.0 m E Sg      2011/04/09 12:48:41.0   0.2                          T               24.9  .28 Ml 2.9         4671640
ORIF  001.45 009.2 m E Pg      2011/04/09 12:48:23.3   0.1                          T                                        4671652
ORIF  001.45 009.2 m E Sg      2011/04/09 12:48:42.0   0.1                          T                5.3  .34 Ml 2.2         4671641
VIVF  001.51 335.4 m E Pg      2011/04/09 12:48:24.2   0.0                          T                                        4671654
VIVF  001.51 335.4 m E Sn      2011/04/09 12:48:40.8  -0.7                          T                1.6  .16 Ml 2.0         4671643
MBDF  001.52 034.9 m E Pg      2011/04/09 12:48:25.1   0.6                          T                                        4671653
MBDF  001.52 034.9 m E Sg      2011/04/09 12:48:44.2   0.1                          T                5.5  .30 Ml 2.3         4671642
MTLF  002.44 267.7 m E Pn      2011/04/09 12:48:34.8  -0.2                          T                                        4671636
MTLF  002.44 267.7 m E Sn      2011/04/09 12:49:06.8   3.2                          T                1.3  .24 Ml 2.0         4671637
LPG   002.18 022.7 m E Pg      2011/04/09 12:48:37.3   0.3                          T                                        4671634
LPG   002.18 022.7 m E Sg      2011/04/09 12:49:05.8   0.7                          T                1.7  .25 Ml 2.1         4671632
LPL   002.20 022.2 m E Pg      2011/04/09 12:48:37.4   0.3                          T                                        4671635
LPL   002.20 022.2 m E Sg      2011/04/09 12:49:06.1   0.7                          T                2.6  .41 Ml 2.1         4671633
PGF   002.70 109.2 m E Pn      2011/04/09 12:48:39.2   0.5                          T                                        4671639
PGF   002.70 109.2 m E Sn      2011/04/09 12:49:09.7  -0.3                          T                1.8  .26 Ml 2.4         4671638

.
EVENT     258108
    Date      Time       Latitude Longitude    Depth    Ndef Nsta Gap    Mag1  N    Mag2  N    Mag3  N   Author         ID
       rms   OT_Error      Smajor Sminor Az        Err   mdist  Mdist     Err        Err        Err      Quality

2011/04/09 12:53:23.8     43.5025    5.5686      2.0      24   10 157  Ml 1.5  7  Md 1.8  3              js067245    258108

      0.66   +-  0.22       3.8    2.1   31.61 +-  0.0    0.22   2.69   +-0.2      +-0.0                 m i ke

NEAR SOUTH COAST OF FRANCE
Sta     Dist  EvAz     Phase      Date       Time     TRes  Azim  AzRes  Slow  SRes Def   SNR       Amp   Per   Mag1   Mag2       ID
SMRF  000.47 000.6 m E Pg      2011/04/09 12:53:33.8   0.8                          T                                        4671712
SMRF  000.47 000.6 m E Sg      2011/04/09 12:53:39.7   0.6                          T                1.5  .21        Md 1.9  4671707
LMR   000.71 103.5 m E Pg      2011/04/09 12:53:37.3   0.2                          T                                        4671710
LMR   000.71 103.5 m E Sg      2011/04/09 12:53:46.0  -0.3                          T                1.3  .21        Md 1.8  4671709
FRF   000.79 085.4 m E Pg      2011/04/09 12:53:38.5  -0.1                          T                                        4671711
FRF   000.79 085.4 m E Sg      2011/04/09 12:53:49.0   0.1                          T                2.2  .26        Md 1.8  4671708
LASF  001.37 295.4 m E Pg      2011/04/09 12:53:49.1  -0.3                          T                                        4671704
LASF  001.37 295.4 m E Sg      2011/04/09 12:54:05.5  -1.5                          T                 .6  .24 Ml 1.4         4671700
SBF   001.40 074.5 m E Pg      2011/04/09 12:53:49.8  -0.2                          T                                        4671706
SBF   001.40 074.5 m E Sg      2011/04/09 12:54:08.7   0.6                          T                1.4  .21 Ml 1.8         4671705
ORIF  001.43 008.9 m E Pg      2011/04/09 12:53:50.9   0.2                          T                                        4671702
ORIF  001.43 008.9 m E Sg      2011/04/09 12:54:09.6   0.4                          T                 .7  .35 Ml 1.3         4671697
VIVF  001.50 334.8 m E Pg      2011/04/09 12:53:51.9   0.1                          T                                        4671703
VIVF  001.50 334.8 m E Sn      2011/04/09 12:54:08.8  -0.2                          T                 .8  .27 Ml 1.5         4671699
MBDF  001.50 034.9 m E Pg      2011/04/09 12:53:52.7   0.8                          T                                        4671701
MBDF  001.50 034.9 m E Sg      2011/04/09 12:54:10.0  -1.3                          T                 .5  .21 Ml 1.4         4671698
PGF   002.69 109.6 m E Pn      2011/04/09 12:54:06.6   0.3                          T                                        4672386
MTLF  002.45 267.4 m E Sn      2011/04/09 12:54:34.5   2.8                          T                 .6  .29 Ml 1.6         4672387

.
