EVENT     261197
    Date      Time       Latitude Longitude    Depth    Ndef Nsta Gap    Mag1  N    Mag2  N    Mag3  N   Author         ID
       rms   OT_Error      Smajor Sminor Az        Err   mdist  Mdist     Err        Err        Err      Quality

2011/07/07 20:45:10.7     42.0572    7.6203     25.0       9    5 243  Ml 1.9  5  Md 2.2  2              js067245    261197

      0.99   +-  0.29       7.8    3.1   15.04 +-  0.0    1.13   3.42   +-0.2      +-0.1                 m i ke

WESTERN MEDITERRANEAN SEA
Sta     Dist  EvAz     Phase      Date       Time     TRes  Azim  AzRes  Slow  SRes Def   SNR       Amp   Per   Mag1   Mag2       ID
PGF   001.13 063.9 m E Pn      2011/07/07 20:45:29.5   0.0                          T                                        4717412
PGF   001.13 063.9 m E Sn      2011/07/07 20:45:42.9  -0.3                          T                1.7  .19 Ml 2.1 Md 2.1  4717410
LMR   001.52 327.7 m E Pn      2011/07/07 20:45:34.3  -0.3                          T                                        4717413
LMR   001.52 327.7 m E Sn      2011/07/07 20:45:51.8  -0.4                          T                2.5  .27 Ml 2.0 Md 2.3  4717411
FRF   001.66 334.8 m E Sn      2011/07/07 20:45:55.6  -0.1                          T                 .7  .25 Ml 1.6         4717409
SBF   001.81 355.8 m E Sn      2011/07/07 20:45:59.2  -0.1                          T                 .9  .24 Ml 1.7         4723453
LASF  003.42 307.5 m E Pn      2011/07/07 20:46:00.8   0.3                          T                                        4723452

.
EVENT     261198
    Date      Time       Latitude Longitude    Depth    Ndef Nsta Gap    Mag1  N    Mag2  N    Mag3  N   Author         ID
       rms   OT_Error      Smajor Sminor Az        Err   mdist  Mdist     Err        Err        Err      Quality

2011/07/07 21:10:15.1     41.9845    7.6162     25.0      13    6 229  Ml 2.0  5  Md 2.2  3              js067245    261198

      2.45   +-  0.60      16.2    7.6    2.49 +-  0.0    1.17   4.21   +-0.2      +-0.1                 m i ke

WESTERN MEDITERRANEAN SEA
Sta     Dist  EvAz     Phase      Date       Time     TRes  Azim  AzRes  Slow  SRes Def   SNR       Amp   Per   Mag1   Mag2       ID
PGF   001.17 060.8 m E Pn      2011/07/07 21:10:34.3  -0.1                          T                                        4717419
PGF   001.17 060.8 m E Sn      2011/07/07 21:10:47.9  -0.5                          T                3.3  .22 Ml 2.3 Md 2.1  4717416
LMR   001.58 329.2 m E Pn      2011/07/07 21:10:39.2  -0.5                          T                                        4717418
LMR   001.58 329.2 m E Sn      2011/07/07 21:10:56.9  -1.0                          T                1.2  .19 Ml 1.9 Md 2.3  4717415
FRF   001.73 336.0 m E Pn      2011/07/07 21:10:41.5  -0.3                          T                                        4717417
FRF   001.73 336.0 m E Sn      2011/07/07 21:11:00.6  -1.0                          T                 .9  .21 Ml 1.8 Md 2.2  4717414
SBF   001.88 356.0 m E Sn      2011/07/07 21:11:04.2  -1.2                          T                1.3  .21 Ml 2.0         4723458
LASF  003.46 308.4 m E Pn      2011/07/07 21:11:05.4  -0.1                          T                                        4723459
MTLF  004.21 290.6 m E Pn      2011/07/07 21:11:15.5  -0.1                          T                                        4723460

.
EVENT     261199
    Date      Time       Latitude Longitude    Depth    Ndef Nsta Gap    Mag1  N    Mag2  N    Mag3  N   Author         ID
       rms   OT_Error      Smajor Sminor Az        Err   mdist  Mdist     Err        Err        Err      Quality

2011/07/07 21:29:37.6     42.0268    7.6219     25.0       9    4 265  Ml 2.1  5  Md 2.3  3              js067245    261199

      1.85   +-  0.53      13.5    4.7   20.60 +-  0.0    1.15   1.84   +-0.1      +-0.0                 m i ke

WESTERN MEDITERRANEAN SEA
Sta     Dist  EvAz     Phase      Date       Time     TRes  Azim  AzRes  Slow  SRes Def   SNR       Amp   Per   Mag1   Mag2       ID
PGF   001.15 062.5 m E Pn      2011/07/07 21:29:56.6  -0.1                          T                                        4717434
PGF   001.15 062.5 m E Sn      2011/07/07 21:30:10.5   0.1                          T                2.2  .17 Ml 2.2 Md 2.3  4717429
LMR   001.54 328.2 m E Pn      2011/07/07 21:30:01.8   0.0                          T                                        4717433
LMR   001.54 328.2 m E Sn      2011/07/07 21:30:19.4  -0.3                          T                2.5  .21 Ml 2.2 Md 2.3  4717430
FRF   001.69 335.2 m E Pn      2011/07/07 21:30:04.1   0.2                          T                                        4717432
FRF   001.69 335.2 m E Sn      2011/07/07 21:30:23.1  -0.2                          T                2.5  .34 Ml 2.0 Md 2.3  4717431
SBF   001.84 355.8 m E Sn      2011/07/07 21:30:26.3  -0.7                          T                2.4  .27 Ml 2.1         4723463

.
EVENT     261200
    Date      Time       Latitude Longitude    Depth    Ndef Nsta Gap    Mag1  N    Mag2  N    Mag3  N   Author         ID
       rms   OT_Error      Smajor Sminor Az        Err   mdist  Mdist     Err        Err        Err      Quality

2011/07/07 21:32:20.0     41.9984    7.6255     25.0       9    4 267  Ml 2.0  5  Md 2.2  3              js067245    261200

      2.08   +-  0.69      17.6    6.3   20.17 +-  0.0    1.16   1.87   +-0.2      +-0.1                 m i ke

WESTERN MEDITERRANEAN SEA
Sta     Dist  EvAz     Phase      Date       Time     TRes  Azim  AzRes  Slow  SRes Def   SNR       Amp   Per   Mag1   Mag2       ID
PGF   001.16 061.2 m E Pn      2011/07/07 21:32:39.2   0.0                          T                                        4717440
PGF   001.16 061.2 m E Sn      2011/07/07 21:32:53.0  -0.1                          T                3.7  .23 Ml 2.3 Md 2.1  4717437
LMR   001.57 328.7 m E Pn      2011/07/07 21:32:44.6   0.1                          T                                        4717439
LMR   001.57 328.7 m E Sn      2011/07/07 21:33:02.2  -0.5                          T                3.9  .38 Ml 2.1 Md 2.2  4717436
FRF   001.72 335.6 m E Pn      2011/07/07 21:32:46.8   0.2                          T                                        4717438
FRF   001.72 335.6 m E Sn      2011/07/07 21:33:05.8  -0.5                          T                1.2  .20 Ml 1.9 Md 2.3  4717435
SBF   001.87 355.8 m E Sn      2011/07/07 21:33:09.0  -1.0                          T                1.6  .27 Ml 1.9         4723466

.
EVENT     261201
    Date      Time       Latitude Longitude    Depth    Ndef Nsta Gap    Mag1  N    Mag2  N    Mag3  N   Author         ID
       rms   OT_Error      Smajor Sminor Az        Err   mdist  Mdist     Err        Err        Err      Quality

2011/07/07 23:12:10.0     41.9876    7.6622     25.0      24   14 223  Ml 2.7  9  Md 2.5  4              js067245    261201

      1.19   +-  0.40      10.0    5.1    1.58 +-  0.0    1.14   5.84   +-0.4      +-0.2                 m i ke

WESTERN MEDITERRANEAN SEA
Sta     Dist  EvAz     Phase      Date       Time     TRes  Azim  AzRes  Slow  SRes Def   SNR       Amp   Per   Mag1   Mag2       ID
PGF   001.14 060.1 m E Pn      2011/07/07 23:12:29.0   0.1                          T                                        4717462
PGF   001.14 060.1 m E Sn      2011/07/07 23:12:42.8   0.2                          T               26.7  .18 Ml 3.3 Md 2.7  4717451
LMR   001.59 328.1 m E Pn      2011/07/07 23:12:34.2  -0.6                          T                                        4717460
LMR   001.59 328.1 m E Sn      2011/07/07 23:12:51.7  -1.6                          T               20.0  .18 Ml 3.1 Md 2.6  4717449
FRF   001.74 334.9 m E Pn      2011/07/07 23:12:36.4  -0.6                          T                                        4717459
FRF   001.74 334.9 m E Sn      2011/07/07 23:12:55.5  -1.3                          T               16.5  .29 Ml 2.9 Md 2.3  4717448
SBF   001.88 355.0 m E Pn      2011/07/07 23:12:38.2  -0.8                          T                                        4717461
SBF   001.88 355.0 m E Sn      2011/07/07 23:12:59.1  -1.2                          T                                Md 2.3  4717450
SMRF  002.51 323.1 m E Pn      2011/07/07 23:12:48.3   0.9                          T                                        4717458
SMRF  002.51 323.1 m E Sn      2011/07/07 23:13:18.2   3.0                          T                1.6  .16 Ml 2.3         4723469
ORIF  003.20 336.7 m E Pn      2011/07/07 23:12:57.9   0.9                          T                                        4717457
LASF  003.48 308.1 m E Pn      2011/07/07 23:13:00.7   0.0                          T                                        4717455
LASF  003.48 308.1 m E Sn      2011/07/07 23:13:37.6  -0.9                          T                3.3  .19 Ml 2.8         4717447
VIVF  003.60 323.8 m E Pn      2011/07/07 23:13:01.9  -0.4                          T                                        4717456
VIVF  003.60 323.8 m E Sn      2011/07/07 23:13:40.4  -0.9                          T                 .7  .22 Ml 2.0         4723471
MTLF  004.24 290.4 m E Pn      2011/07/07 23:13:10.4  -0.5                          T                                        4717454
MTLF  004.24 290.4 m E Sn      2011/07/07 23:13:56.9   0.4                          T                3.6  .35 Ml 2.7         4717446
CAF   005.02 307.7 m E Pn      2011/07/07 23:13:22.2   0.6                          T                                        4717453
MBDF  002.81 347.0 m E Sn      2011/07/07 23:13:23.4   0.8                          T                3.0  .25 Ml 2.5         4723470
EPF   005.51 283.3 m E Pn      2011/07/07 23:13:27.4  -0.9                          T                                        4723472
RJF   005.56 308.7 m E Pn      2011/07/07 23:13:29.6   0.7                          T                                        4717452
LFF   005.84 302.7 m E Pn      2011/07/07 23:13:33.2   0.5                          T                                        4723473

.
EVENT     261202
    Date      Time       Latitude Longitude    Depth    Ndef Nsta Gap    Mag1  N    Mag2  N    Mag3  N   Author         ID
       rms   OT_Error      Smajor Sminor Az        Err   mdist  Mdist     Err        Err        Err      Quality

2011/07/08 00:39:01.8     42.0585    7.6745     10.0 f    10    5 258  Ml 2.1  6  Md 2.4  3              js067245    261202

      1.99   +-  0.99      25.6    8.4   20.55 +-  0.0    1.10   2.46   +-0.5      +-0.1                 m i ke

WESTERN MEDITERRANEAN SEA
Sta     Dist  EvAz     Phase      Date       Time     TRes  Azim  AzRes  Slow  SRes Def   SNR       Amp   Per   Mag1   Mag2       ID
PGF   001.10 063.1 m E Pn      2011/07/08 00:39:22.0   0.2                          T                                        4717529
PGF   001.10 063.1 m E Sn      2011/07/08 00:39:35.7  -0.4                          T                5.4  .18 Ml 2.6 Md 2.4  4717526
LMR   001.54 326.4 m E Pn      2011/07/08 00:39:27.2  -0.4                          T                                        4717528
LMR   001.54 326.4 m E Sn      2011/07/08 00:39:44.7  -1.7                          T                3.1  .19 Ml 2.3 Md 2.3  4717524
FRF   001.68 333.6 m E Pn      2011/07/08 00:39:29.4  -0.1                          T                                        4717527
FRF   001.68 333.6 m E Sn      2011/07/08 00:39:48.5  -1.3                          T                3.8  .33 Ml 2.2 Md 2.4  4717523
SBF   001.81 354.5 m E Sn      2011/07/08 00:39:52.1  -1.0                          T                1.6  .19 Ml 2.1         4717525
SMRF  002.46 321.9 m E Sn      2011/07/08 00:40:11.2   2.7                          T                 .2  .16 Ml 1.3         4723477

.
EVENT     261203
    Date      Time       Latitude Longitude    Depth    Ndef Nsta Gap    Mag1  N    Mag2  N    Mag3  N   Author         ID
       rms   OT_Error      Smajor Sminor Az        Err   mdist  Mdist     Err        Err        Err      Quality

2011/07/08 01:21:49.1     44.6189    7.6099      2.0      19    7 214  Ml 2.3  5  Md 2.4  6              js067245    261203

      0.45   +-  0.25       4.5    2.2   76.90 +-  0.0    0.59   2.11   +-0.2      +-0.1                 m i ke

NORTHERN ITALY
Sta     Dist  EvAz     Phase      Date       Time     TRes  Azim  AzRes  Slow  SRes Def   SNR       Amp   Per   Mag1   Mag2       ID
MBDF  000.61 280.5 m E Pg      2011/07/08 01:22:01.4   0.6                          T                                        4717563
MBDF  000.61 280.5 m E Sg      2011/07/08 01:22:09.6   0.8                          T                9.6  .19        Md 2.4  4717556
SBF   000.77 189.5 m E Pg      2011/07/08 01:22:03.5  -0.1                          T                                        4717551
SBF   000.77 189.5 m E Sg      2011/07/08 01:22:13.3  -0.3                          T                4.5  .21        Md 2.5  4717550
FRF   001.27 213.6 m E Pg      2011/07/08 01:22:12.5  -0.2                          T                                        4717560
FRF   001.27 213.6 m E Sg      2011/07/08 01:22:29.4   0.3                          T                5.5  .19 Ml 2.4 Md 2.5  4717553
ORIF  001.27 284.3 m E Pg      2011/07/08 01:22:13.4   0.5                          T                                        4717562
ORIF  001.27 284.3 m E Sg      2011/07/08 01:22:28.2  -1.1                          T                4.7  .26 Ml 2.2 Md 2.3  4717555
LMR   001.51 212.1 m E Pn      2011/07/08 01:22:15.6   0.1                          T                                        4717559
LMR   001.51 212.1 m E Sn      2011/07/08 01:22:34.6   0.1                          T                                        4723478
LMR   001.51 212.1 m E Sg      2011/07/08 01:22:36.7   0.0                          T                5.6  .26 Ml 2.4 Md 2.3  4717552
SMRF  001.60 247.0 m E Pg      2011/07/08 01:22:18.7  -0.2                          T                                        4723479
SMRF  001.60 247.0 m E Sg      2011/07/08 01:22:39.0  -0.5                          T                4.5  .25 Ml 2.3 Md 2.5  4717554
VIVF  002.11 277.5 m E Pn      2011/07/08 01:22:23.7   0.0                          T                                        4717558
VIVF  002.11 277.5 m E Sn      2011/07/08 01:22:48.3  -0.6                          T                1.2  .20 Ml 2.0         4717557

.
EVENT     261204
    Date      Time       Latitude Longitude    Depth    Ndef Nsta Gap    Mag1  N    Mag2  N    Mag3  N   Author         ID
       rms   OT_Error      Smajor Sminor Az        Err   mdist  Mdist     Err        Err        Err      Quality

2011/07/08 02:32:18.9     42.0215    7.6512     25.0      19   12 228  Ml 2.3  9  Md 2.6  4              js067245    261204

      0.59   +-  0.40      10.1    4.8     .92 +-  0.0    1.13   5.53   +-0.4      +-0.2                 m i ke

WESTERN MEDITERRANEAN SEA
Sta     Dist  EvAz     Phase      Date       Time     TRes  Azim  AzRes  Slow  SRes Def   SNR       Amp   Per   Mag1   Mag2       ID
LMR   001.56 327.7 m E Pn      2011/07/08 02:32:42.8  -0.5                          T                                        4717589
LMR   001.56 327.7 m E Sn      2011/07/08 02:33:00.5  -0.9                          T                5.6  .18 Ml 2.6 Md 2.4  4717581
FRF   001.71 334.7 m E Pn      2011/07/08 02:32:45.1  -0.3                          T                                        4717588
FRF   001.71 334.7 m E Sn      2011/07/08 02:33:04.1  -0.8                          T                3.0  .19 Ml 2.4 Md 2.5  4717580
PGF   001.13 061.8 m E Sn      2011/07/08 02:32:51.1  -0.2                          T               13.0  .24 Ml 2.9 Md 2.8  4717583
SMRF  002.48 322.8 m E Pn      2011/07/08 02:32:56.9   0.9                          T                                        4717587
SMRF  002.48 322.8 m E Sn      2011/07/08 02:33:26.7   3.4                          T                 .6  .29 Ml 1.6         4723487
ORIF  003.17 336.6 m E Pn      2011/07/08 02:33:06.8   1.4                          T                                        4717578
SBF   001.85 355.1 m E Sn      2011/07/08 02:33:07.9  -0.4                          T                7.7  .22 Ml 2.7 Md 2.5  4717582
LASF  003.46 307.7 m E Pn      2011/07/08 02:33:09.2   0.0                          T                                        4717586
LASF  003.46 307.7 m E Sn      2011/07/08 02:33:46.2  -0.6                          T                  1  .24 Ml 2.1         4723489
VIVF  003.57 323.6 m E Pn      2011/07/08 02:33:11.3   0.5                          T                                        4717579
MTLF  004.22 290.0 m E Pn      2011/07/08 02:33:18.8  -0.7                          T                                        4723490
MTLF  004.22 290.0 m E Sn      2011/07/08 02:34:04.2  -0.7                          T                 .4  .26 Ml 1.9         4723491
CAF   005.00 307.4 m E Pn      2011/07/08 02:33:30.8   0.6                          T                                        4717585
MBDF  002.78 347.0 m E Sn      2011/07/08 02:33:31.9   1.1                          T                1.6  .34 Ml 2.0         4723488
RJF   005.53 308.5 m E Pn      2011/07/08 02:33:37.8   0.4                          T                                        4717584

.
