EVENT     271952
    Date      Time       Latitude Longitude    Depth    Ndef Nsta Gap    Mag1  N    Mag2  N    Mag3  N   Author         ID
       rms   OT_Error      Smajor Sminor Az        Err   mdist  Mdist     Err        Err        Err      Quality

2012/03/15 03:15:02.2     43.0980     .0808      2.0     198   39 059  Ml 3.4 41  Md 3.4  3              js067245    271972

      0.88   +-  0.05       1.1     .9  137.14 +-  0.0    0.10   7.73   +-0.3      +-0.1                 m i ke

FRANCE
Sta     Dist  EvAz     Phase      Date       Time     TRes  Azim  AzRes  Slow  SRes Def   SNR       Amp   Per   Mag1   Mag2       ID
EPF   000.20 109.5 m E Pg      2012/03/15 03:15:06.3   0.0                          T   001.0                                4873429
EPF   000.20 109.5 m E Sg      2012/03/15 03:15:09.3   0.2                          T              742.0  .18        Md 3.4  4882633
ETSF  000.51 247.2 m E Pg      2012/03/15 03:15:11.0  -1.1                          T   001.0                                4873458
ETSF  000.51 247.2 m E Sg      2012/03/15 03:15:17.3  -1.4                          T   001.0      648.8  .22        Md 3.3  4873459
SJPF  000.96 271.4 m E Pg      2012/03/15 03:15:19.3  -0.9                          T                                        4882657
SJPF  000.96 271.4 m E Pn      2012/03/15 03:15:21.6   0.5                          T   001.0                                4873469
SJPF  000.96 271.4 m E Sg      2012/03/15 03:15:32.8   0.2                          T   001.0       63.4  .22 Ml 3.3 Md 3.4  4873470
MTLF  001.58 080.4 m E Pn      2012/03/15 03:15:28.5  -1.0                          T   001.0                                4873461
MTLF  001.58 080.4 m E Pg      2012/03/15 03:15:31.8   0.1                          T                                        4882656
MTLF  001.58 080.4 m E Sg      2012/03/15 03:15:52.6   0.6                          T               42.7  .18 Ml 3.4         4873476
LFF   001.90 014.3 m E Pn      2012/03/15 03:15:33.6  -0.3                          T   001.0                                4873440
LFF   001.90 014.3 m E Pg      2012/03/15 03:15:38.5   0.9                          T                                        4882659
LFF   001.90 014.3 m E Sn      2012/03/15 03:15:56.8  -0.2                          T   001.0                                4873441
LFF   001.90 014.3 m E Sg      2012/03/15 03:16:02.2   0.2                          T   001.0      261.2  .32 Ml 3.9         4873442
CAF   002.32 037.4 m E Pn      2012/03/15 03:15:38.8  -0.9                          T   001.0                                4873427
CAF   002.32 037.4 m E Pg      2012/03/15 03:15:46.3   0.9                          T                                        4882658
CAF   002.32 037.4 m E Sn      2012/03/15 03:16:06.6  -0.5                          T   001.0         46  .16 Ml 3.7         4873428
CAF   002.32 037.4 m E Sg      2012/03/15 03:16:15.3   0.1                          T               52.2  .18 Ml 3.7         4873477
RJF   002.44 024.6 m E Pn      2012/03/15 03:15:40.1  -1.1                          T   001.0                                4873420
RJF   002.44 024.6 m E Pg      2012/03/15 03:15:47.7   0.3                          T   001.0                                4873421
RJF   002.44 024.6 m E Sg      2012/03/15 03:16:19.4   0.7                          T               85.3  .20 Ml 3.6         4873478
LASF  002.91 069.1 m E Pn      2012/03/15 03:15:46.9  -0.9                          T   001.0                                4873437
LASF  002.91 069.1 m E P       2012/03/15 03:15:50.9   0.4                          T                                        4882655
LASF  002.91 069.1 m E Pg      2012/03/15 03:15:56.4   0.1                          T                                        4882654
LASF  002.91 069.1 m E Sg      2012/03/15 03:16:33.7   0.0                          T               22.1  .28 Ml 3.3         4873475
TCF   003.53 024.7 m E Pn      2012/03/15 03:15:55.1  -1.1                          T   001.0                                4873480
TCF   003.53 024.7 m E Pg      2012/03/15 03:16:07.3  -0.3                          T                                        4882668
TCF   003.53 024.7 m E Sn      2012/03/15 03:16:35.1  -0.9                          T   001.0                                4873455
TCF   003.53 024.7 m E Sg      2012/03/15 03:16:53.2   0.2                          T   001.0       26.9  .28 Ml 3.6         4873456
MFF   003.51 357.4 m E Pn      2012/03/15 03:15:55.9   0.2                          T   001.0                                4873447
MFF   003.51 357.4 m E Pg      2012/03/15 03:16:07.2   0.0                          T                                        4882660
MFF   003.51 357.4 m E Sn      2012/03/15 03:16:33.6  -1.8                          T   001.0                                4873448
MFF   003.51 357.4 m E Sg      2012/03/15 03:16:52.2   0.0                          T   001.0       27.0  .24 Ml 3.8         4873449
VIVF  003.75 060.5 m E Pn      2012/03/15 03:15:59.3   0.1                          T   001.0                                4873471
VIVF  003.75 060.5 m E Pg      2012/03/15 03:16:11.5  -0.2                          T                                        4882653
VIVF  003.75 060.5 m E Sg      2012/03/15 03:16:59.2  -0.7                          T   001.0       14.5  .30 Ml 3.3         4873472
BGF   003.98 028.7 m E Pn      2012/03/15 03:16:01.0  -1.2                          T   001.0                                4873425
BGF   003.98 028.7 m E Pg      2012/03/15 03:16:16.2   0.3                          T                                        4882663
BGF   003.98 028.7 m E Sg      2012/03/15 03:17:06.7  -0.2                          T   001.0      119.9  .34 Ml 4.2         4873426
SMRF  004.09 075.7 m E Pn      2012/03/15 03:16:03.8   0.1                          T   001.0                                4873473
SMRF  004.09 075.7 m E Pg      2012/03/15 03:16:19.0   1.1                          T                                        4882652
SMRF  004.09 075.7 m E Sg      2012/03/15 03:17:10.3  -0.2                          T               14.7  .70 Ml 3.0         4882650
AVF   004.36 031.0 m E Pn      2012/03/15 03:16:07.0  -0.4                          T   001.0                                4873422
AVF   004.36 031.0 m E Pg      2012/03/15 03:16:23.1   0.2                          T                                        4882667
AVF   004.36 031.0 m E Sn      2012/03/15 03:16:56.2   0.4                          T   001.0                                4873423
AVF   004.36 031.0 m E Sg      2012/03/15 03:17:18.3  -0.5                          T   001.0       30.0  .42 Ml 3.6         4873424
SMF   004.44 035.7 m E Pn      2012/03/15 03:16:08.3  -0.2                          T   001.0                                4873450
SMF   004.44 035.7 m E Pg      2012/03/15 03:16:25.2   0.8                          T                                        4882666
SMF   004.44 035.7 m E Sg      2012/03/15 03:17:21.5   0.2                          T   001.0        9.4  .24 Ml 3.3         4873451
HYF   004.55 022.6 m E Pn      2012/03/15 03:16:09.3  -0.7                          T                                        4882665
HYF   004.55 022.6 m E Pg      2012/03/15 03:16:26.5   0.2                          T                                        4882664
HYF   004.55 022.6 m E Sg      2012/03/15 03:17:25.4   0.7                          T                                        4882644
ORIF  004.56 064.5 m E Pn      2012/03/15 03:16:09.6  -0.6                          T   001.0                                4873462
ORIF  004.56 064.5 m E Sg      2012/03/15 03:17:25.3   0.1                          T                3.9  .41 Ml 2.8         4882647
SSF   004.65 030.3 m E Pn      2012/03/15 03:16:11.4   0.1                          T   001.0                                4873452
SSF   004.65 030.3 m E Pg      2012/03/15 03:16:29.0   0.9                          T                                        4882669
SSF   004.65 030.3 m E Sn      2012/03/15 03:17:00.7  -1.9                          T   001.0                                4873453
SSF   004.65 030.3 m E Sg      2012/03/15 03:17:27.4  -0.4                          T   001.0       11.7  .28 Ml 3.5         4873454
LMR   004.70 084.9 m E Pn      2012/03/15 03:16:12.0   0.0                          T   001.0                                4873443
LMR   004.70 084.9 m E Sg      2012/03/15 03:17:30.2   0.7                          T   001.0        2.8  .24 Ml 2.9         4873444
FRF   004.81 082.2 m E Pn      2012/03/15 03:16:13.2  -0.4                          T   001.0                                4873432
FRF   004.81 082.2 m E Sg      2012/03/15 03:17:33.8   0.9                          T   001.0        5.7  .38 Ml 3.0         4873433
LOR   004.95 031.3 m E Pn      2012/03/15 03:16:15.6   0.2 202.5  -11.5             T   001.0                                4873445
LOR   004.95 031.3 m E Pg      2012/03/15 03:16:34.2   0.4 221.2  7.2               T                                        4882670
LOR   004.95 031.3 m E Sg      2012/03/15 03:17:36.8  -0.5 205.3  -8.7              T   001.0       18.4  .36 Ml 3.6         4873446
GRR   005.33 353.2 m E Pn      2012/03/15 03:16:19.9  -0.7                          T   001.0                                4873434
GRR   005.33 353.2 m E Sn      2012/03/15 03:17:16.7  -2.3                          T   001.0                                4873435
GRR   005.33 353.2 m E Sg      2012/03/15 03:17:50.4   1.3                          T   001.0       14.4  .36 Ml 3.4         4873436
QUIF  005.33 335.8 m E Pn      2012/03/15 03:16:20.0  -0.6                          T   001.0                                4873463
QUIF  005.33 335.8 m E Sn      2012/03/15 03:17:19.3   0.4                          T   001.0        3.3  .24 Ml 3.1         4873464
QUIF  005.33 335.8 m E Sg      2012/03/15 03:17:49.4   0.3                          T                5.1  .21 Ml 3.3         4882646
LPG   005.35 061.1 m E Pn      2012/03/15 03:16:21.0  -0.3                          T                                        4882651
LPG   005.35 061.1 m E Sg      2012/03/15 03:17:50.2   0.0                          T                6.1  .60 Ml 3.0         4882649
LDF   005.50 358.6 m E Pn      2012/03/15 03:16:22.0  -0.9                          T   001.0                                4873438
LDF   005.50 358.6 m E Sg      2012/03/15 03:17:55.1   0.8                          T   001.0       12.5  .36 Ml 3.5         4873439
SGMF  005.48 341.2 m E Pn      2012/03/15 03:16:22.7   0.1                          T   001.0                                4873467
SGMF  005.48 341.2 m E Sn      2012/03/15 03:17:21.6  -0.8                          T                                        4882634
SGMF  005.48 341.2 m E Sg      2012/03/15 03:17:53.6  -0.1                          T   001.0          6  .28 Ml 3.3         4873468
CABF  005.53 048.5 m E Pn      2012/03/15 03:16:23.3  -0.1                          T   001.0                                4873457
CABF  005.53 048.5 m E Sg      2012/03/15 03:17:55.8   0.4                          T                5.4  .39 Ml 3.1         4882643
FLN   005.68 356.2 m E Pn      2012/03/15 03:16:24.2  -1.1 180.0  4.2               T   001.0                                4873430
FLN   005.68 356.2 m E Sg      2012/03/15 03:18:00.4   0.4 175.4  -0.4              T   001.0                                4873431
ROSF  005.74 337.0 m E Pn      2012/03/15 03:16:25.7  -0.4                          T   001.0                                4873465
ROSF  005.74 337.0 m E P       2012/03/15 03:16:31.0   0.4                          T                                        4882661
ROSF  005.74 337.0 m E Sn      2012/03/15 03:17:26.8  -2.0                          T   001.0          7  .56 Ml 3.1         4873466
ROSF  005.74 337.0 m E Sg      2012/03/15 03:18:02.7   0.9                          T                3.3  .26 Ml 3.1         4882645
MBDF  005.10 069.1 m E Sg      2012/03/15 03:17:40.4  -1.7                          T   001.0        1.5  .20 Ml 2.8         4873460
LPL   005.35 060.9 m E Sg      2012/03/15 03:17:49.8  -0.2                          T                3.8  .47 Ml 2.9         4882648
SFTF  006.18 032.5 m E Sg      2012/03/15 03:18:15.7   0.2                          T                9.6  .39 Ml 3.5         4882640
MEZF  006.42 031.0 m E Sg      2012/03/15 03:18:23.7   0.5                          T               14.2  .49 Ml 3.6         4882639
HAU   006.59 039.7 m E Sg      2012/03/15 03:18:28.9   0.4                          T                7.8  .48 Ml 3.2         4882641
HINF  006.70 042.9 m E Sg      2012/03/15 03:18:32.2   0.2                          T                2.6  .32 Ml 3.1         4882642
PAGF  006.73 033.9 m E Sg      2012/03/15 03:18:33.9   1.1                          T                3.1  .67 Ml 2.9         4882638
CDF   007.32 040.9 m E Sg      2012/03/15 03:18:51.4   0.2                          T                2.7  .39 Ml 3.2         4882637
BAIF  007.52 020.8 m E Sg      2012/03/15 03:18:57.7   0.3                          T                6.2  .71 Ml 3.3         4882636
GIVF  007.73 023.3 m E Sg      2012/03/15 03:19:04.4   0.5                          T                3.2  .25 Ml 3.5         4882635

.
