EVENT     287073
    Date      Time       Latitude Longitude    Depth    Ndef Nsta Gap    Mag1  N    Mag2  N    Mag3  N   Author         ID
       rms   OT_Error      Smajor Sminor Az        Err   mdist  Mdist     Err        Err        Err      Quality

2012/11/17 05:41:11.3     44.4901    6.7185      2.0      38    9 056  Ml 2.4  6  Md 2.4  1              bulletin    287173
                                                                                                         _ldg
      0.90   +-  0.08       1.8    1.3   55.06 +-  0.0    0.07   1.50   +-0.3      +-                    m i ke

FRANCE
Sta     Dist  EvAz     Phase      Date       Time     TRes  Azim  AzRes  Slow  SRes Def   SNR       Amp   Per   Mag1   Mag2       ID
MBDF  000.24 009.0 m E Pg      2012/11/17 05:41:15.9  -0.4                          T                                        5119442
MBDF  000.24 009.0 m E Sg      2012/11/17 05:41:19.4  -0.1                          T               40.0  .30        Md 2.4  5119428
ORIF  000.74 305.9 m E Pg      2012/11/17 05:41:24.3  -1.1                          T                                        5119441
ORIF  000.74 305.9 m E Sg      2012/11/17 05:41:34.7  -0.3                          T               12.4  .26                5133264
SBF   000.81 140.3 m E Pg      2012/11/17 05:41:26.9   0.2                          T                                        5119435
SBF   000.81 140.3 m E Sg      2012/11/17 05:41:37.2   0.0                          T               19.8  .31                5119434
FRF   000.93 183.2 m E Pg      2012/11/17 05:41:29.7   0.9                          T                                        5119437
FRF   000.93 183.2 m E Sn      2012/11/17 05:41:42.6  -0.3                          T               21.9  .18 Ml 2.9         5119432
SMRF  000.97 238.4 m E Pg      2012/11/17 05:41:30.0   0.4                          T                                        5119438
SMRF  000.97 238.4 m E Sg      2012/11/17 05:41:42.3   0.1                          T               19.6  .28 Ml 2.6         5119431
LPL   001.03 000.5 m E Pg      2012/11/17 05:41:30.5  -0.3                          T                                        5119440
LPL   001.03 000.5 m E Sg      2012/11/17 05:41:44.4   0.2                          T                6.3  .28 Ml 2.2         5119429
LPG   001.01 001.3 m E Pg      2012/11/17 05:41:31.7   1.1                          T                                        5119439
LPG   001.01 001.3 m E Sg      2012/11/17 05:41:43.5  -0.2                          T                8.3  .28 Ml 2.3         5119430
LMR   001.17 187.5 m E Pg      2012/11/17 05:41:33.3   0.2                          T                                        5119436
LMR   001.17 187.5 m E Sg      2012/11/17 05:41:47.8  -0.4                          T                9.3  .20 Ml 2.6         5119433
VIVF  001.50 284.8 m E Pn      2012/11/17 05:41:37.7   0.0                          T                                        5133266
VIVF  001.50 284.8 m E Pg      2012/11/17 05:41:39.5   0.1                          T                                        5133265
VIVF  001.50 284.8 m E Sg      2012/11/17 05:41:59.6   0.8                          T                2.0  .25 Ml 2.0         5133267

.
EVENT     287074
    Date      Time       Latitude Longitude    Depth    Ndef Nsta Gap    Mag1  N    Mag2  N    Mag3  N   Author         ID
       rms   OT_Error      Smajor Sminor Az        Err   mdist  Mdist     Err        Err        Err      Quality

2012/11/17 09:29:34.7     51.5079    6.4916      1.0 f    36   12 236  Ml 2.9 10                         bulletin    287174
                                                                                                         _ldg
      0.84   +-  0.41       7.0    4.1  171.64 +-  0.0    0.35   5.68   +-0.2                            m i sr

GERMANY
Sta     Dist  EvAz     Phase      Date       Time     TRes  Azim  AzRes  Slow  SRes Def   SNR       Amp   Per   Mag1   Mag2       ID
GIVF  001.76 217.6 m E Pg      2012/11/17 09:30:06.0  -1.4                          T                                        5119452
GIVF  001.76 217.6 m E Sg      2012/11/17 09:30:28.1  -2.1                          T               28.0  .24 Ml 3.2         5119451
BAIF  002.05 225.9 m E Pg      2012/11/17 09:30:11.9  -0.8                          T                                        5119474
BAIF  002.05 225.9 m E Sg      2012/11/17 09:30:37.3  -1.9                          T               15.3  .31 Ml 2.9         5119462
PAGF  003.00 189.8 m E Pn      2012/11/17 09:30:22.8   1.4                          T                                        5119449
PAGF  003.00 189.8 m E Pg      2012/11/17 09:30:29.7  -0.5                          T                                        5119473
PAGF  003.00 189.8 m E Sg      2012/11/17 09:31:07.2  -1.5                          T               11.3  .46 Ml 2.8         5119472
CDF   003.14 170.4 m E Pn      2012/11/17 09:30:23.6   0.1                          T                                        5119450
CDF   003.14 170.4 m E Pg      2012/11/17 09:30:33.6   0.6                          T                                        5119469
CDF   003.14 170.4 m E Sg      2012/11/17 09:31:12.9  -0.4                          T                7.5  .52 Ml 2.7         5119466
MEZF  003.15 197.7 m E Pn      2012/11/17 09:30:24.1   0.6                          T                                        5119446
MEZF  003.15 197.7 m E Pg      2012/11/17 09:30:36.3   3.3                          T                                        5119461
MEZF  003.15 197.7 m E Sg      2012/11/17 09:31:14.0   0.5                          T               10.3  .38 Ml 2.9         5119465
SFTF  003.44 196.4 m E Pn      2012/11/17 09:30:28.5   1.1                          T                                        5119459
SFTF  003.44 196.4 m E Pg      2012/11/17 09:30:38.1  -0.2                          T                                        5119460
SFTF  003.44 196.4 m E Sg      2012/11/17 09:31:22.2  -0.3                          T                8.7  .28 Ml 3.0         5119464
HAU   003.51 181.6 m E Pg      2012/11/17 09:30:39.7   0.0                          T                                        5119470
HAU   003.51 181.6 m E Sg      2012/11/17 09:31:24.5  -0.2                          T                8.8  .34 Ml 2.7         5119471
LOR   004.58 203.1 m E Pn      2012/11/17 09:30:43.0   0.1                          T                                        5119448
LOR   004.58 203.1 m E Pg      2012/11/17 09:31:01.1   1.7                          T                                        5119455
LOR   004.58 203.1 m E Sn      2012/11/17 09:31:31.7  -1.9                          T                                        5119453
LOR   004.58 203.1 m E Sg      2012/11/17 09:31:58.0  -0.1                          T                4.3  .29 Ml 3.0         5119454
SSF   004.86 204.9 m E Pn      2012/11/17 09:30:46.8   0.1                          T                                        5119456
SSF   004.86 204.9 m E Sg      2012/11/17 09:32:08.6   1.8                          T                4.5  .39 Ml 3.0         5133270
CABF  004.91 183.3 m E Pn      2012/11/17 09:30:47.4  -0.1                          T                                        5119458
CABF  004.91 183.3 m E Pg      2012/11/17 09:31:06.5   0.9                          T                                        5119457
GRR   005.68 239.5 m E Pn      2012/11/17 09:30:58.0   0.1                          T                                        5119468
GRR   005.68 239.5 m E Sn      2012/11/17 09:31:58.1  -1.8                          T                                        5119467
HINF  003.70 176.2 m E Sg      2012/11/17 09:31:32.3   1.5                          T                4.7  .46 Ml 2.6         5119463

.
EVENT     287075
    Date      Time       Latitude Longitude    Depth    Ndef Nsta Gap    Mag1  N    Mag2  N    Mag3  N   Author         ID
       rms   OT_Error      Smajor Sminor Az        Err   mdist  Mdist     Err        Err        Err      Quality

2012/11/17 11:41:14.9     44.1169    7.1594      8.0 f    27    7 046  Ml 1.8  4  Md 1.6  2              bulletin    287175
                                                                                                         _ldg
      0.32   +-  0.06       1.2    1.2   98.45 +-  0.0    0.10   1.43   +-0.4      +-0.0                 m i ke

NORTHERN ITALY
Sta     Dist  EvAz     Phase      Date       Time     TRes  Azim  AzRes  Slow  SRes Def   SNR       Amp   Per   Mag1   Mag2       ID
SBF   000.32 141.8 m E Pg      2012/11/17 11:41:21.6   0.3                          T                                        5119479
SBF   000.32 141.8 m E Sg      2012/11/17 11:41:25.8   0.0                          T                7.0  .31        Md 1.6  5119478
FRF   000.67 213.9 m E Pg      2012/11/17 11:41:26.8  -0.7                          T                                        5119482
FRF   000.67 213.9 m E Sg      2012/11/17 11:41:35.6  -0.7                          T                2.7  .23                5119476
MBDF  000.67 335.6 m E Pg      2012/11/17 11:41:28.1   0.3                          T                                        5133273
MBDF  000.67 335.6 m E Sg      2012/11/17 11:41:36.8   0.2                          T                2.3  .28        Md 1.6  5133274
LMR   000.91 211.3 m E Pg      2012/11/17 11:41:31.8  -0.2                          T                                        5119480
LMR   000.91 211.3 m E Sg      2012/11/17 11:41:43.4  -0.5                          T                5.1  .26 Ml 2.1         5119477
SMRF  001.15 263.5 m E Pg      2012/11/17 11:41:37.3   0.9                          T                                        5119481
SMRF  001.15 263.5 m E Sg      2012/11/17 11:41:51.3  -0.1                          T                5.4  .25 Ml 2.2         5119475
ORIF  001.22 311.6 m E Sg      2012/11/17 11:41:53.4  -0.1                          T                  1  .28 Ml 1.5         5133271
LPL   001.43 347.9 m E Sg      2012/11/17 11:42:00.2  -0.2                          T                 .8  .26 Ml 1.5         5133272

.
EVENT     287077
    Date      Time       Latitude Longitude    Depth    Ndef Nsta Gap    Mag1  N    Mag2  N    Mag3  N   Author         ID
       rms   OT_Error      Smajor Sminor Az        Err   mdist  Mdist     Err        Err        Err      Quality

2012/11/18 00:47:57.3     43.0565    -.5407      4.0 f    12    5 127  Ml 1.3  3  Md 1.2  3              bulletin    287177
                                                                                                         _ldg
      0.70   +-  0.10       2.8    1.8  165.75 +-  0.0    0.16   2.65   +-0.1      +-0.1                 m i ke

PYRENEES
Sta     Dist  EvAz     Phase      Date       Time     TRes  Azim  AzRes  Slow  SRes Def   SNR       Amp   Per   Mag1   Mag2       ID
ETSF  000.16 184.9 m E Pg      2012/11/18 00:48:00.7  -0.1                          T                                        5119605
ETSF  000.16 184.9 m E Sg      2012/11/18 00:48:03.4   0.3                          T                3.1  .22        Md 1.2  5119604
SJPF  000.50 276.7 m E Pg      2012/11/18 00:48:07.0   0.0                          T                                        5119603
SJPF  000.50 276.7 m E Sg      2012/11/18 00:48:13.6  -0.1                          T                 .6  .22        Md 1.3  5119602
EPF   000.65 092.0 m E Pg      2012/11/18 00:48:09.7   0.0                          T                                        5119606
EPF   000.65 092.0 m E Sg      2012/11/18 00:48:18.0  -0.1                          T                1.7  .27        Md 1.1  5119601
MTLF  002.04 081.0 m E Pn      2012/11/18 00:48:30.5  -0.1                          T                                        5119608
MTLF  002.04 081.0 m E Sn      2012/11/18 00:48:55.5   0.4                          T                 .2  .19 Ml 1.3         5119607
CAF   002.65 044.3 m E Pn      2012/11/18 00:48:39.0  -0.1                          T                                        5119610
CAF   002.65 044.3 m E Sn      2012/11/18 00:49:09.6  -0.1                          T                 .1  .17 Ml 1.1         5119609

.
EVENT     287078
    Date      Time       Latitude Longitude    Depth    Ndef Nsta Gap    Mag1  N    Mag2  N    Mag3  N   Author         ID
       rms   OT_Error      Smajor Sminor Az        Err   mdist  Mdist     Err        Err        Err      Quality

2012/11/18 02:34:50.6     43.6972    6.3825      2.0      27   11 116  Ml 1.2  8  Md 1.5  2              bulletin    287178
                                                                                                         _ldg
      0.20   +-  0.04       1.1     .7   53.03 +-  0.0    0.24   2.23   +-0.4      +-0.1                 m i ke

NEAR SOUTH COAST OF FRANCE
Sta     Dist  EvAz     Phase      Date       Time     TRes  Azim  AzRes  Slow  SRes Def   SNR       Amp   Per   Mag1   Mag2       ID
FRF   000.24 125.3 m E Pg      2012/11/18 02:34:55.1  -0.2                          T                                        5119620
FRF   000.24 125.3 m E Sg      2012/11/18 02:34:58.4  -0.1                          T                3.4  .18        Md 1.6  5119619
LMR   000.37 165.7 m E Pg      2012/11/18 02:34:57.7  -0.1                          T                                        5119618
LMR   000.37 165.7 m E Sg      2012/11/18 02:35:03.2   0.3                          T                2.3  .19        Md 1.4  5119617
SMRF  000.65 295.8 m E Pg      2012/11/18 02:35:02.7  -0.2                          T                                        5133302
SMRF  000.65 295.8 m E P       2012/11/18 02:35:04.4   0.0                          T                                        5119614
SMRF  000.65 295.8 m E Sg      2012/11/18 02:35:11.8   0.4                          T                 .7  .18                5119613
SBF   000.78 077.4 m E Pg      2012/11/18 02:35:05.5   0.1                          T                                        5119616
SBF   000.78 077.4 m E Sg      2012/11/18 02:35:15.5  -0.1                          T                3.5  .22                5119615
MBDF  001.07 015.1 m E Pg      2012/11/18 02:35:10.8   0.0                          T                                        5119628
MBDF  001.07 015.1 m E Sg      2012/11/18 02:35:24.6   0.0                          T                 .2  .14 Ml 1.0         5119627
ORIF  001.27 343.7 m E Pg      2012/11/18 02:35:14.5   0.0                          T                                        5119630
ORIF  001.27 343.7 m E Sg      2012/11/18 02:35:31.1   0.1                          T                 .7  .29 Ml 1.3         5119629
VIVF  001.69 313.9 m E Pn      2012/11/18 02:35:19.5   0.0                          T                                        5119626
VIVF  001.69 313.9 m E Sn      2012/11/18 02:35:40.4   0.0                          T                 .5  .21 Ml 1.5         5119625
LPL   001.84 007.7 m E Pn      2012/11/18 02:35:21.7   0.0                          T                                        5119632
LPL   001.84 007.7 m E Pg      2012/11/18 02:35:24.9  -0.1                          T                                        5133300
LPL   001.84 007.7 m E Sg      2012/11/18 02:35:48.5  -0.3                          T                 .2  .21 Ml 1.2         5119631
LPG   001.82 008.2 m E Pn      2012/11/18 02:35:21.8   0.2                          T                                        5119634
LPG   001.82 008.2 m E Pg      2012/11/18 02:35:24.6  -0.3                          T                                        5133301
LPG   001.82 008.2 m E Sg      2012/11/18 02:35:48.3   0.0                          T                     .16 Ml  .6         5119633
LASF  001.86 282.6 m E Pn      2012/11/18 02:35:22.0   0.2                          T                                        5119624
LASF  001.86 282.6 m E Sn      2012/11/18 02:35:43.8  -0.8                          T                 .2  .22 Ml 1.1         5119623
PGF   002.23 120.0 m E Pn      2012/11/18 02:35:27.0   0.1                          T                                        5119622
PGF   002.23 120.0 m E Sn      2012/11/18 02:35:53.7   0.2                          T                 .5  .22 Ml 1.9         5119621

.
EVENT     287079
    Date      Time       Latitude Longitude    Depth    Ndef Nsta Gap    Mag1  N    Mag2  N    Mag3  N   Author         ID
       rms   OT_Error      Smajor Sminor Az        Err   mdist  Mdist     Err        Err        Err      Quality

2012/11/18 02:46:27.8     47.9475    7.5751      9.0 f    25    8 045  Ml 1.5  6  Md 1.6  2              bulletin    287179
                                                                                                         _ldg
      0.58   +-  0.07       1.7    1.2  179.95 +-  0.0    0.19   2.60   +-0.3      +-0.0                 m i ke

SWITZERLAND
Sta     Dist  EvAz     Phase      Date       Time     TRes  Azim  AzRes  Slow  SRes Def   SNR       Amp   Per   Mag1   Mag2       ID
CDF   000.51 336.8 m E Pg      2012/11/18 02:46:36.8  -0.9                          T                                        5119641
CDF   000.51 336.8 m E Sg      2012/11/18 02:46:43.5  -0.9                          T                1.1  .21        Md 1.6  5119640
HINF  000.50 255.2 m E Pg      2012/11/18 02:46:37.4  -0.1                          T                                        5119639
HINF  000.50 255.2 m E Sg      2012/11/18 02:46:43.7  -0.6                          T                1.8  .21        Md 1.6  5119638
HAU   000.83 274.5 m E Pg      2012/11/18 02:46:43.3  -0.2                          T                                        5119642
HAU   000.83 274.5 m E Sg      2012/11/18 02:46:53.8  -0.4                          T                3.0  .21                5119637
PAGF  001.38 296.9 m E Pn      2012/11/18 02:46:52.3   0.7                          T                                        5119656
PAGF  001.38 296.9 m E Sn      2012/11/18 02:47:08.7  -0.1                          T                1.4  .20 Ml 1.8         5119655
SFTF  001.72 279.6 m E Pn      2012/11/18 02:46:56.8   0.5                          T                                        5119652
SFTF  001.72 279.6 m E Sn      2012/11/18 02:47:18.3   1.3                          T                 .5  .15 Ml 1.6         5119651
MEZF  001.78 289.1 m E Pn      2012/11/18 02:46:57.0   0.0                          T                                        5119654
MEZF  001.78 289.1 m E Sn      2012/11/18 02:47:18.8   0.5                          T                1.6  .38 Ml 1.8         5119653
CABF  001.68 217.7 m E Pg      2012/11/18 02:46:58.9  -0.3                          T                                        5119647
CABF  001.68 217.7 m E Sg      2012/11/18 02:47:20.9   0.1                          T                 .2  .24 Ml 1.1         5119646
LOR   002.60 256.3 m E Pn      2012/11/18 02:47:08.6   0.3                          T                                        5119650
LOR   002.60 256.3 m E Sn      2012/11/18 02:47:38.6   0.4                          T                                        5119649
LOR   002.60 256.3 m E Sg      2012/11/18 02:47:49.1  -0.6  65.4  -8.1              T                 .1  .11 Ml 1.2         5119648

.
