EVENT     257092
    Date      Time       Latitude Longitude    Depth    Ndef Nsta Gap    Mag1  N    Mag2  N    Mag3  N   Author         ID
       rms   OT_Error      Smajor Sminor Az        Err   mdist  Mdist     Err        Err        Err      Quality

2011/03/13 02:11:48.7     47.1261    1.5423      2.0      26   10 115  Ml 2.0 12  Md 2.0  3              js067245    257092

      0.29   +-  0.07       1.6    1.1  179.32 +-  0.0    0.76   1.85   +-0.3      +-0.1                 m i ke

FRANCE
Sta     Dist  EvAz     Phase      Date       Time     TRes  Azim  AzRes  Slow  SRes Def   SNR       Amp   Per   Mag1   Mag2       ID
HYF   000.76 078.8 m E Pg      2011/03/13 02:12:03.6   0.5                          T                                        4659826
HYF   000.76 078.8 m E Sg      2011/03/13 02:12:13.1   0.1                          T                                Md 2.1  4659815
TCF   000.96 151.0 m E Pg      2011/03/13 02:12:06.9   0.2                          T                                        4659832
TCF   000.96 151.0 m E Sg      2011/03/13 02:12:19.3   0.2                          T                3.9  .22 Ml 2.1 Md 2.0  4659812
BGF   001.06 121.9 m E Pg      2011/03/13 02:12:09.0   0.4                          T                                        4659825
BGF   001.06 121.9 m E Sg      2011/03/13 02:12:22.6   0.2                          T                9.5  .28 Ml 2.4 Md 1.9  4659816
AVF   001.28 104.5 m E Pg      2011/03/13 02:12:12.2  -0.5                          T                                        4659828
AVF   001.28 104.5 m E Sg      2011/03/13 02:12:29.4   0.1                          T                2.7  .32 Ml 1.9         4659813
MFF   001.27 246.3 m E Pg      2011/03/13 02:12:12.2  -0.3                          T                                        4659823
MFF   001.27 246.3 m E Sg      2011/03/13 02:12:29.0   0.1                          T                4.8  .28 Ml 2.3         4659819
SSF   001.34 092.0 m E Pg      2011/03/13 02:12:13.2  -0.6                          T                                        4659831
SSF   001.34 092.0 m E Sg      2011/03/13 02:12:31.3   0.1                          T                1.6  .23 Ml 1.9         4659811
LOR   001.59 084.0 m E Pn      2011/03/13 02:12:16.4   0.3                          T                                        4659829
LOR   001.59 084.0 m E Pg      2011/03/13 02:12:18.1  -0.2                          T                                        4659830
LOR   001.59 084.0 m E Sg      2011/03/13 02:12:38.8   0.0                          T                2.5  .28 Ml 2.0         4659810
SMF   001.65 106.1 m E Pg      2011/03/13 02:12:19.3  -0.2                          T                                        4659827
SMF   001.65 106.1 m E Sg      2011/03/13 02:12:39.8  -0.9                          T                2.4  .35 Ml 1.9         4659814
RJF   001.82 180.6 m E Pg      2011/03/13 02:12:22.6   0.0                          T                                        4659822
RJF   001.82 180.6 m E Sg      2011/03/13 02:12:46.2   0.0                          T                1.7  .26 Ml 1.7         4659820
LDF   001.85 323.3 m E Pg      2011/03/13 02:12:23.1   0.0                          T                                        4659821
LDF   001.85 323.3 m E Sg      2011/03/13 02:12:46.5  -0.4                          T                 .3  .18 Ml 1.4         4659818

.
EVENT     257099
    Date      Time       Latitude Longitude    Depth    Ndef Nsta Gap    Mag1  N    Mag2  N    Mag3  N   Author         ID
       rms   OT_Error      Smajor Sminor Az        Err   mdist  Mdist     Err        Err        Err      Quality

2011/03/13 08:42:42.2     42.3721    1.3677      2.0      31    8 064  Ml 2.2  9  Md 2.4  3              js067245    257099

      0.69   +-  0.10       2.2    1.7  167.78 +-  0.0    0.17   3.00   +-0.2      +-0.0                 m i ke

PYRENEES
Sta     Dist  EvAz     Phase      Date       Time     TRes  Azim  AzRes  Slow  SRes Def   SNR       Amp   Per   Mag1   Mag2       ID
EPF   001.00 311.3 m E Pg      2011/03/13 08:43:00.4  -0.6                          T                                        4659885
EPF   001.00 311.3 m E Sg      2011/03/13 08:43:13.7  -0.3                          T                6.4  .32 Ml 2.1 Md 2.4  4659880
MTLF  001.15 032.5 m E Pg      2011/03/13 08:43:03.8   0.1                          T                                        4659882
MTLF  001.15 032.5 m E Sg      2011/03/13 08:43:18.4  -0.2                          T               13.5  .40 Ml 2.4 Md 2.4  4659881
ETSF  001.52 291.0 m E Pg      2011/03/13 08:43:10.2  -0.3                          T                                        4659884
ETSF  001.52 291.0 m E Sg      2011/03/13 08:43:29.9  -0.1                          T                6.7  .28 Ml 2.4 Md 2.3  4659879
SJPF  002.05 292.1 m E Pg      2011/03/13 08:43:19.8  -0.4                          T                                        4659883
SJPF  002.05 292.1 m E Sg      2011/03/13 08:43:46.5  -0.2                          T                1.4  .19 Ml 2.1         4659878
LASF  002.49 046.0 m E Pn      2011/03/13 08:43:21.9   0.0                          T                                        4659870
LASF  002.49 046.0 m E Sg      2011/03/13 08:44:00.4  -0.1                          T                2.6  .35 Ml 2.2         4659877
LFF   002.61 350.2 m E Pn      2011/03/13 08:43:23.3  -0.1                          T                                        4659872
LFF   002.61 350.2 m E Sg      2011/03/13 08:44:04.1   0.1                          T                4.9  .33 Ml 2.3         4659875
CAF   002.60 011.0 m E Pn      2011/03/13 08:43:23.3  -0.1                          T                                        4659871
CAF   002.60 011.0 m E Sg      2011/03/13 08:44:03.6  -0.3                          T                2.3  .22 Ml 2.3         4659876
RJF   002.93 002.1 m E Pn      2011/03/13 08:43:27.5  -0.4                          T                                        4659873
RJF   002.93 002.1 m E Sg      2011/03/13 08:44:14.2  -0.1                          T                1.1  .22 Ml 1.8         4659874

.
EVENT     257093
    Date      Time       Latitude Longitude    Depth    Ndef Nsta Gap    Mag1  N    Mag2  N    Mag3  N   Author         ID
       rms   OT_Error      Smajor Sminor Az        Err   mdist  Mdist     Err        Err        Err      Quality

2011/03/13 13:20:39.4     42.9998   -8.5040      2.0      70   19 130  Ml 3.2 23                         js067245    257093

      0.70   +-  0.12       2.8    1.7  108.00 +-  0.0    0.35   9.72   +-0.3                            m i ke

SPAIN
Sta     Dist  EvAz     Phase      Date       Time     TRes  Azim  AzRes  Slow  SRes Def   SNR       Amp   Per   Mag1   Mag2       ID
SJPF  005.33 086.3 m E Pn      2011/03/13 13:21:58.0   0.1                          T                                        4659926
SJPF  005.33 086.3 m E Sn      2011/03/13 13:22:55.9  -0.4                          T                2.7  .19 Ml 3.1         4659891
ETSF  005.83 088.3 m E Pn      2011/03/13 13:22:06.2   1.5                          T                                        4659925
ETSF  005.83 088.3 m E Sn      2011/03/13 13:23:07.4  -0.8                          T                7.3  .26 Ml 3.5         4659890
QUIF  006.19 035.5 m E Pn      2011/03/13 13:22:10.3   0.9                          T                                        4659922
QUIF  006.19 035.5 m E Sn      2011/03/13 13:23:15.1  -1.5                          T                1.8  .23 Ml 3.0         4659899
ROSF  006.47 032.7 m E Pn      2011/03/13 13:22:13.2  -0.1                          T                                        4659920
ROSF  006.47 032.7 m E Sn      2011/03/13 13:23:22.2  -1.2                          T                  1  .21 Ml 2.8         4659901
EPF   006.48 086.7 m E Pn      2011/03/13 13:22:15.6   2.1                          T                                        4659924
EPF   006.48 086.7 m E Sn      2011/03/13 13:23:22.7  -1.1                          T                3.8  .40 Ml 3.2         4659889
SGMF  006.71 036.4 m E Pn      2011/03/13 13:22:16.3  -0.2                          T                                        4659921
SGMF  006.71 036.4 m E Sn      2011/03/13 13:23:27.6  -1.4                          T                 .6  .25 Ml 2.6         4659900
MFF   006.95 055.9 m E Pn      2011/03/13 13:22:20.0   0.2                          T                                        4659910
MFF   006.95 055.9 m E Sn      2011/03/13 13:23:32.2  -2.7                          T                2.1  .26 Ml 3.3         4659895
LFF   006.95 070.6 m E Pn      2011/03/13 13:22:20.1   0.3                          T                                        4659908
LFF   006.95 070.6 m E Sn      2011/03/13 13:23:33.6  -1.1                          T                2.5  .25 Ml 3.1         4659893
RJF   007.57 068.8 m E Pn      2011/03/13 13:22:28.4   0.1                          T                                        4659909
RJF   007.57 068.8 m E Sn      2011/03/13 13:23:48.8  -0.7                          T                6.7  .20 Ml 3.5         4659894
GRR   007.59 042.2 m E Pn      2011/03/13 13:22:29.0   0.4                          T                                        4659911
GRR   007.59 042.2 m E Sn      2011/03/13 13:23:49.8  -0.4                          T                2.2  .34 Ml 3.0         4659896
CAF   007.86 072.2 m E Pn      2011/03/13 13:22:32.1  -0.2                          T                                        4659923
CAF   007.86 072.2 m E Sn      2011/03/13 13:23:55.1  -1.6                          T                2.6  .18 Ml 3.6         4659892
FLN   008.03 041.4 m E Pn      2011/03/13 13:22:35.2   0.7                          T                                        4659913
FLN   008.03 041.4 m E Sn      2011/03/13 13:23:59.8  -0.8                          T                1.7  .39 Ml 2.9         4659898
LDF   008.10 043.4 m E Pn      2011/03/13 13:22:36.0   0.5                          T                                        4659912
LDF   008.10 043.4 m E Sn      2011/03/13 13:24:00.4  -1.8                          T                1.1  .31 Ml 2.9         4659897
TCF   008.32 063.0 m E Pn      2011/03/13 13:22:38.3  -0.2                          T                                        4659918
TCF   008.32 063.0 m E Sn      2011/03/13 13:24:05.2  -2.3                          T                5.0  .48 Ml 3.5         4659904
BGF   008.82 062.3 m E Pn      2011/03/13 13:22:45.4   0.1                          T                                        4659914
BGF   008.82 062.3 m E Sn      2011/03/13 13:24:18.8  -0.8                          T                6.0  .44 Ml 3.7         4659903
AVF   009.23 061.7 m E Pn      2011/03/13 13:22:50.9   0.1                          T                                        4659915
AVF   009.23 061.7 m E Sn      2011/03/13 13:24:27.9  -1.4                          T                3.0  .65 Ml 3.3         4659907
SSF   009.42 060.3 m E Pn      2011/03/13 13:22:53.8   0.3                          T                                        4659917
SSF   009.42 060.3 m E Sn      2011/03/13 13:24:33.7  -0.2                          T                 .8  .23 Ml 3.3         4659905
SMF   009.50 063.2 m E Pn      2011/03/13 13:22:54.5  -0.1                          T                                        4659944
SMF   009.50 063.2 m E Sn      2011/03/13 13:24:36.0   0.2                          T                1.1  .28 Ml 3.2         4659945
LOR   009.72 059.7 m E Pn      2011/03/13 13:22:57.9   0.3                          T                                        4659916
LOR   009.72 059.7 m E Sn      2011/03/13 13:24:40.3  -0.8                          T                1.4  .38 Ml 3.3         4659906

.
EVENT     257100
    Date      Time       Latitude Longitude    Depth    Ndef Nsta Gap    Mag1  N    Mag2  N    Mag3  N   Author         ID
       rms   OT_Error      Smajor Sminor Az        Err   mdist  Mdist     Err        Err        Err      Quality

2011/03/13 13:43:40.7     51.0256    6.2972      2.0      33   13 178  Ml 2.0 13                         js067245    257100

      0.15   +-  0.06       1.3     .8  143.08 +-  0.0    0.37   4.37   +-0.3                            m i ke

GERMANY
Sta     Dist  EvAz     Phase      Date       Time     TRes  Azim  AzRes  Slow  SRes Def   SNR       Amp   Per   Mag1   Mag2       ID
GIVF  001.32 226.0 m E Pn      2011/03/13 13:44:04.4   0.0                          T                                        4659979
GIVF  001.32 226.0 m E Sn      2011/03/13 13:44:21.4  -0.2                          T               11.6  .42 Ml 2.4         4659977
RUP   001.41 159.5 m E Pn      2011/03/13 13:44:05.9   0.0                          T                                        4659975
RUP   001.41 159.5 m E Sn      2011/03/13 13:44:23.9  -0.1                          T                                        4659974
BAIF  001.65 234.8 m E Pn      2011/03/13 13:44:08.9   0.0                          T                                        4659976
BAIF  001.65 234.8 m E Sn      2011/03/13 13:44:29.4   0.0                          T                3.1  .20 Ml 2.3         4659978
LANF  002.27 154.0 m E Pn      2011/03/13 13:44:17.3  -0.1                          T                                        4659972
LANF  002.27 154.0 m E Sn      2011/03/13 13:44:44.4   0.1                          T                1.3  .24 Ml 2.0         4659973
PAGF  002.50 188.7 m E Pn      2011/03/13 13:44:20.5  -0.1                          T                                        4659970
PAGF  002.50 188.7 m E Sn      2011/03/13 13:44:50.0   0.1                          T                 .4  .38 Ml 1.4         4659959
MEZF  002.65 198.2 m E Pn      2011/03/13 13:44:22.7   0.1                          T                                        4659969
MEZF  002.65 198.2 m E Sn      2011/03/13 13:44:53.4  -0.1                          T                2.5  .42 Ml 2.1         4659958
CDF   002.69 166.0 m E Pn      2011/03/13 13:44:23.3   0.0                          T                                        4659971
CDF   002.69 166.0 m E Sn      2011/03/13 13:44:54.6   0.0                          T                 .6  .28 Ml 1.8         4659960
THEF  002.81 184.1 m E Pn      2011/03/13 13:44:24.8   0.0                          T                                        4659967
THEF  002.81 184.1 m E Sn      2011/03/13 13:44:57.2   0.0                          T                1.1  .29 Ml 1.9         4659956
SFTF  002.94 196.7 m E Pn      2011/03/13 13:44:26.6   0.0                          T                                        4659968
SFTF  002.94 196.7 m E Sn      2011/03/13 13:45:00.2  -0.1                          T                2.1  .34 Ml 2.2         4659957
HAU   003.02 179.4 m E Pn      2011/03/13 13:44:27.8   0.0                          T                                        4659966
HAU   003.02 179.4 m E Sn      2011/03/13 13:45:02.3   0.0                          T                 .9  .29 Ml 1.7         4659955
HINF  003.23 173.3 m E Pn      2011/03/13 13:44:30.6   0.0                          T                                        4659965
HINF  003.23 173.3 m E Sn      2011/03/13 13:45:07.4   0.0                          T                2.6  .67 Ml 2.1         4659954
LOR   004.09 204.0 m E Pn      2011/03/13 13:44:42.3   0.1                          T                                        4659964
LOR   004.09 204.0 m E Sn      2011/03/13 13:45:27.8   0.0                          T                 .8  .33 Ml 2.0         4659962
SSF   004.37 205.9 m E Pn      2011/03/13 13:44:46.1   0.1                          T                                        4659963
SSF   004.37 205.9 m E Sn      2011/03/13 13:45:34.7   0.1                          T                 .4  .36 Ml 1.9         4659961

.
EVENT     257101
    Date      Time       Latitude Longitude    Depth    Ndef Nsta Gap    Mag1  N    Mag2  N    Mag3  N   Author         ID
       rms   OT_Error      Smajor Sminor Az        Err   mdist  Mdist     Err        Err        Err      Quality

2011/03/13 14:17:53.6     43.0887   -1.5885      2.0      18    4 205  Ml 1.9  2  Md 2.1  3              js067245    257101

      0.24   +-  0.11       2.0    1.1   90.74 +-  0.0    0.09   2.50   +-0.1      +-0.0                 m i ke

PYRENEES
Sta     Dist  EvAz     Phase      Date       Time     TRes  Azim  AzRes  Slow  SRes Def   SNR       Amp   Per   Mag1   Mag2       ID
SJPF  000.27 084.6 m E Pg      2011/03/13 14:17:58.7  -0.2                          T                                        4660011
SJPF  000.27 084.6 m E Sg      2011/03/13 14:18:02.3  -0.3                          T               15.6  .18        Md 2.2  4660006
ETSF  000.78 103.8 m E Pg      2011/03/13 14:18:08.2  -0.1                          T                                        4660009
ETSF  000.78 103.8 m E Sg      2011/03/13 14:18:18.7   0.1                          T                2.5  .23        Md 2.1  4660007
EPF   001.41 091.7 m E Pg      2011/03/13 14:18:20.0  -0.1                          T                                        4660010
EPF   001.41 091.7 m E Sg      2011/03/13 14:18:38.5   0.1                          T                1.6  .24 Ml 1.8 Md 2.1  4660008
LFF   002.50 041.4 m E Pn      2011/03/13 14:18:33.5   0.0                          T                                        4660005
LFF   002.50 041.4 m E Sg      2011/03/13 14:19:12.2   0.1                          T                2.5  .40 Ml 1.9         4660004

.
EVENT     257095
    Date      Time       Latitude Longitude    Depth    Ndef Nsta Gap    Mag1  N    Mag2  N    Mag3  N   Author         ID
       rms   OT_Error      Smajor Sminor Az        Err   mdist  Mdist     Err        Err        Err      Quality

2011/03/14 02:11:16.8     45.5741    6.8522      2.0      10    4 308  Ml 1.4  2  Md 1.7  3              js067245    257095

      0.16   +-  0.19       3.1    2.2   17.00 +-  0.0    0.10   0.95   +-0.0      +-0.0                 m i ke

FRANCE
Sta     Dist  EvAz     Phase      Date       Time     TRes  Azim  AzRes  Slow  SRes Def   SNR       Amp   Per   Mag1   Mag2       ID
LPG   000.10 222.9 m E Pg      2011/03/14 02:11:19.2  -0.2                          T                                        4660026
LPG   000.10 222.9 m E Sg      2011/03/14 02:11:20.7  -0.3                          T                7.6  .23        Md 1.7  4660023
LPL   000.10 235.6 m E Pg      2011/03/14 02:11:19.3  -0.1                          T                                        4660027
LPL   000.10 235.6 m E Sg      2011/03/14 02:11:20.6  -0.3                          T               14.3  .26        Md 1.7  4660024
MBDF  000.85 183.9 m E Pg      2011/03/14 02:11:33.0   0.0                          T                                        4660020
MBDF  000.85 183.9 m E Sg      2011/03/14 02:11:44.1   0.1                          T                1.3  .32        Md 1.6  4660022
ORIF  000.95 226.7 m E Pg      2011/03/14 02:11:34.8   0.1                          T                                        4660021
ORIF  000.95 226.7 m E Sg      2011/03/14 02:11:47.2   0.2                          T                1.6  .36 Ml 1.4         4660025

.
