EVENT     265798
    Date      Time       Latitude Longitude    Depth    Ndef Nsta Gap    Mag1  N    Mag2  N    Mag3  N   Author         ID
       rms   OT_Error      Smajor Sminor Az        Err   mdist  Mdist     Err        Err        Err      Quality

2011/10/29 18:00:27.4     43.8418    7.6819      2.0      11    5 192  Ml 1.6  3  Md 1.7  2              js067245    265818

      0.29   +-  0.23       4.1    3.8   54.55 +-  0.0    0.18   1.68   +-0.3      +-0.4                 m i ke

NEAR SOUTH COAST OF FRANCE
Sta     Dist  EvAz     Phase      Date       Time     TRes  Azim  AzRes  Slow  SRes Def   SNR       Amp   Per   Mag1   Mag2       ID
SBF   000.18 276.9 m E Pg      2011/10/29 18:00:31.0  -0.1                          T                                        4779777
SBF   000.18 276.9 m E Sg      2011/10/29 18:00:33.9   0.3                          T               33.0  .22        Md 1.9  4779776
FRF   000.80 249.8 m E Pg      2011/10/29 18:00:42.0  -0.4                          T                                        4779775
FRF   000.80 249.8 m E Sg      2011/10/29 18:00:52.3  -0.6                          T                2.5  .20        Md 1.4  4779774
LMR   000.99 239.6 m E Pg      2011/10/29 18:00:46.4   0.5                          T                                        4779773
LMR   000.99 239.6 m E Sg      2011/10/29 18:00:58.8   0.0                          T                4.2  .34 Ml 1.9         4779772
SMRF  001.53 275.8 m E Pn      2011/10/29 18:00:54.2   0.2                          T                                        4779782
SMRF  001.53 275.8 m E Sn      2011/10/29 18:01:13.3   0.0                          T                 .4  .21 Ml 1.3         4779781
ORIF  001.68 310.4 m E Pn      2011/10/29 18:00:56.1  -0.1                          T                                        4779780
ORIF  001.68 310.4 m E Sn      2011/10/29 18:01:16.9  -0.1                          T                 .6  .22 Ml 1.5         4779779

.
EVENT     265799
    Date      Time       Latitude Longitude    Depth    Ndef Nsta Gap    Mag1  N    Mag2  N    Mag3  N   Author         ID
       rms   OT_Error      Smajor Sminor Az        Err   mdist  Mdist     Err        Err        Err      Quality

2011/10/29 18:16:18.3     51.5116    6.6167      1.0 f    57   24 239  Ml 3.0 19  Md 3.1  4              js067245    265819

      0.43   +-  0.15       2.5    2.0   10.64 +-  0.0    0.29   7.08   +-0.3      +-0.3                 m i sr

GERMANY
Sta     Dist  EvAz     Phase      Date       Time     TRes  Azim  AzRes  Slow  SRes Def   SNR       Amp   Per   Mag1   Mag2       ID
RUP   001.83 171.0 m E Pn      2011/10/29 18:16:49.4   0.2                          T                                        4779829
RUP   001.83 171.0 m E P       2011/10/29 18:16:51.6   0.2                          T                                        4779813
RUP   001.83 171.0 m E Sg      2011/10/29 18:17:14.5  -1.6                          T                                Md 3.5  4779793
GIVF  001.81 219.6 m E Pn      2011/10/29 18:16:50.5   1.6                          T                                        4779828
GIVF  001.81 219.6 m E Sn      2011/10/29 18:17:11.5   0.3                          T               52.4  .38 Ml 3.3         4779827
GIVF  001.81 219.6 m E Sg      2011/10/29 18:17:15.1  -0.3                          T                                Md 3.0  4779795
BAIF  002.11 227.4 m E Pn      2011/10/29 18:16:53.1   0.1                          T                                        4779824
BAIF  002.11 227.4 m E Pg      2011/10/29 18:16:57.7   0.2                          T                                        4779880
BAIF  002.11 227.4 m E Sn      2011/10/29 18:17:18.3   0.1                          T               36.6  .66 Ml 3.0 Md 3.0  4779823
BAIF  002.11 227.4 m E S       2011/10/29 18:17:22.3  -0.2                          T                                        4779878
BAIF  002.11 227.4 m E Sg      2011/10/29 18:17:24.9   0.2                          T                                        4779794
MEZF  003.18 199.1 m E Pn      2011/10/29 18:17:07.0  -0.4                          T                                        4779822
MEZF  003.18 199.1 m E Pg      2011/10/29 18:17:16.8  -0.4                          T                                        4779811
MEZF  003.18 199.1 m E Sg      2011/10/29 18:17:57.8  -0.2                          T                                        4779791
CDF   003.13 171.9 m E Pn      2011/10/29 18:17:07.3   0.3                          T                                        4779830
CDF   003.13 171.9 m E Pg      2011/10/29 18:17:16.6   0.1                          T                                        4779812
CDF   003.13 171.9 m E Sg      2011/10/29 18:17:55.4  -1.3                          T               10.9  .54 Ml 2.9 Md 3.0  4779792
PAGF  003.02 191.3 m E Pg      2011/10/29 18:17:13.5  -0.7                          T                                        4779816
PAGF  003.02 191.3 m E Sg      2011/10/29 18:17:53.5   0.5                          T                6.8  .64 Ml 2.5         4779790
THEF  003.31 187.2 m E Pg      2011/10/29 18:17:20.2   0.6                          T                                        4779786
THEF  003.31 187.2 m E Sg      2011/10/29 18:18:03.0   0.8                          T                8.7  .25 Ml 3.0         4779789
SFTF  003.46 197.8 m E Pg      2011/10/29 18:17:23.4   0.9                          T                                        4779787
SFTF  003.46 197.8 m E Sg      2011/10/29 18:18:07.7   0.8                          T               12.6  .48 Ml 2.9         4779877
HINF  003.70 177.5 m E Pg      2011/10/29 18:17:26.9   0.0                          T                                        4779788
HINF  003.70 177.5 m E Sn      2011/10/29 18:17:55.9  -0.5                          T                                        4779831
HINF  003.70 177.5 m E Sg      2011/10/29 18:18:15.0   0.5                          T                5.1  .46 Ml 2.6         4779784
LOR   004.61 204.0 m E Pn      2011/10/29 18:17:27.0   0.0                          T                                        4779826
LOR   004.61 204.0 m E Sn      2011/10/29 18:18:17.8  -0.4                          T               10.5  .64 Ml 3.0         4779818
LOR   004.61 204.0 m E Sg      2011/10/29 18:18:43.8   0.9                          T                                        4779815
SSF   004.90 205.8 m E Pn      2011/10/29 18:17:31.2   0.2                          T                                        4779825
SSF   004.90 205.8 m E Sn      2011/10/29 18:18:23.6  -1.3                          T               18.1  .62 Ml 3.4         4779817
SSF   004.90 205.8 m E Sg      2011/10/29 18:18:51.7   0.0                          T                                        4779814
CABF  004.92 184.3 m E Pn      2011/10/29 18:17:31.5   0.1                          T                                        4779810
AVF   005.19 205.6 m E Pn      2011/10/29 18:17:34.9   0.0                          T                                        4779821
AVF   005.19 205.6 m E Sn      2011/10/29 18:18:31.8   0.0                          T                8.8  .69 Ml 3.0         4779832
SMF   005.20 201.6 m E Pn      2011/10/29 18:17:35.2   0.2                          T                                        4779820
SMF   005.20 201.6 m E Pg      2011/10/29 18:17:54.7   0.2                          T                                        4779881
SMF   005.20 201.6 m E Sn      2011/10/29 18:18:32.1  -0.1                          T                                        4779882
SMF   005.20 201.6 m E Sg      2011/10/29 18:19:01.4   0.2                          T                9.0  .54 Ml 3.1         4779785
FLN   005.33 241.7 m E Pn      2011/10/29 18:17:37.2   0.4                          T                                        4779804
FLN   005.33 241.7 m E Sn      2011/10/29 18:18:35.5   0.3                          T                                        4779797
BGF   005.54 208.0 m E Pn      2011/10/29 18:17:39.5  -0.2                          T                                        4779819
BGF   005.54 208.0 m E Sn      2011/10/29 18:18:39.3  -1.0                          T               12.2  .38 Ml 3.5         4779808
BGF   005.54 208.0 m E Sg      2011/10/29 18:19:11.7  -0.1                          T               14.8  .52 Ml 3.4         4779783
LANF  002.65 162.8 m E Sg      2011/10/29 18:17:41.6   0.1                          T               22.4  .57 Ml 2.9         4779879
GRR   005.75 240.0 m E Pn      2011/10/29 18:17:42.6   0.1                          T                                        4779803
GRR   005.75 240.0 m E Sn      2011/10/29 18:18:43.6  -1.6                          T                5.9  .29 Ml 3.2         4779802
TCF   005.98 210.8 m E Pn      2011/10/29 18:17:45.5  -0.2                          T                                        4779796
MFF   006.62 224.7 m E Pn      2011/10/29 18:17:54.3  -0.1                          T                                        4779801
MFF   006.62 224.7 m E Sn      2011/10/29 18:19:06.0  -0.1                          T                4.1  .52 Ml 3.3         4779798
SGMF  006.76 244.8 m E Pn      2011/10/29 18:17:56.1  -0.2                          T                                        4779805
RJF   007.08 210.6 m E Pn      2011/10/29 18:18:00.5  -0.1                          T                                        4779800
HAU   003.51 182.9 m E Sg      2011/10/29 18:18:07.2  -1.3                          T               13.8  .46 Ml 2.8         4779809
LDF   005.23 238.7 m E Sn      2011/10/29 18:18:32.8  -0.1                          T                1.3  .26 Ml 2.6         4779799

.
EVENT     265800
    Date      Time       Latitude Longitude    Depth    Ndef Nsta Gap    Mag1  N    Mag2  N    Mag3  N   Author         ID
       rms   OT_Error      Smajor Sminor Az        Err   mdist  Mdist     Err        Err        Err      Quality

2011/10/29 19:08:09.8     43.0796    -.6544      2.0       5    3 178             Md 1.5  2              js067245    265820

      0.22   +-  0.20       6.6    2.6   25.17 +-  0.0    0.19   0.73              +-0.5                 m i ke

PYRENEES
Sta     Dist  EvAz     Phase      Date       Time     TRes  Azim  AzRes  Slow  SRes Def   SNR       Amp   Per   Mag1   Mag2       ID
ETSF  000.19 158.8 m E Pg      2011/10/29 19:08:13.7  -0.1                          T                                        4779837
ETSF  000.19 158.8 m E Sg      2011/10/29 19:08:16.6   0.2                          T                 10  .20        Md 1.9  4779836
SJPF  000.42 274.8 m E Pg      2011/10/29 19:08:17.7  -0.1                          T                                        4779834
SJPF  000.42 274.8 m E Sg      2011/10/29 19:08:23.9   0.5                          T                3.7  .22        Md 1.2  4779835
EPF   000.73 093.5 m E Sg      2011/10/29 19:08:33.3   0.2                          T                 .6  .19                4779833

.
EVENT     265801
    Date      Time       Latitude Longitude    Depth    Ndef Nsta Gap    Mag1  N    Mag2  N    Mag3  N   Author         ID
       rms   OT_Error      Smajor Sminor Az        Err   mdist  Mdist     Err        Err        Err      Quality

2011/10/29 22:47:36.7     43.0253     .2098      2.0      66    7 079  Ml 2.1  4  Md 2.4  2              js067245    265821

      0.62   +-  0.07       1.6    1.0    4.22 +-  0.0    0.10   2.71   +-0.2      +-0.0                 m i ke

FRANCE
Sta     Dist  EvAz     Phase      Date       Time     TRes  Azim  AzRes  Slow  SRes Def   SNR       Amp   Per   Mag1   Mag2       ID
EPF   000.10 087.0 m E Pg      2011/10/29 22:47:39.4   0.5                          T                                        4779852
EPF   000.10 087.0 m E Sg      2011/10/29 22:47:40.5   0.2                          T               48.4  .22        Md 2.4  4779851
ETSF  000.58 257.6 m E Pg      2011/10/29 22:47:46.7  -1.1                          T                                        4779849
ETSF  000.58 257.6 m E Sg      2011/10/29 22:47:54.2  -1.2                          T               10.2  .28        Md 2.4  4779850
SJPF  001.06 275.3 m E Pg      2011/10/29 22:47:58.5   2.1                          T                                        4779840
SJPF  001.06 275.3 m E Sg      2011/10/29 22:48:10.6   0.4                          T                2.3  .24 Ml 1.8         4779841
MTLF  001.50 077.2 m E Pg      2011/10/29 22:48:04.9   0.2                          T                                        4779848
MTLF  001.50 077.2 m E Sg      2011/10/29 22:48:24.3   0.2                          T                2.5  .22 Ml 2.1         4779847
LFF   001.95 011.1 m E Pn      2011/10/29 22:48:09.2   0.1                          T                                        4779844
LFF   001.95 011.1 m E Pg      2011/10/29 22:48:12.7  -0.3                          T                                        4779839
LFF   001.95 011.1 m E Sg      2011/10/29 22:48:38.4   0.3                          T                4.1  .32 Ml 2.1         4779843
CAF   002.32 034.5 m E Pg      2011/10/29 22:48:19.7  -0.2                          T                                        4779845
CAF   002.32 034.5 m E Sg      2011/10/29 22:48:50.4   0.6                          T                2.3  .26 Ml 2.2         4779846
RJF   002.46 022.0 m E Pg      2011/10/29 22:48:22.2  -0.3                          T                                        4779842
RJF   002.46 022.0 m E Sg      2011/10/29 22:48:53.7  -0.4                          T                                        4779853

.
EVENT     265802
    Date      Time       Latitude Longitude    Depth    Ndef Nsta Gap    Mag1  N    Mag2  N    Mag3  N   Author         ID
       rms   OT_Error      Smajor Sminor Az        Err   mdist  Mdist     Err        Err        Err      Quality

2011/10/29 23:28:04.1     42.8360     .4706      2.0      29    5 054  Ml 1.5  1  Md 1.7  2              js067245    265822

      0.45   +-  0.07       1.5    1.1   19.31 +-  0.0    0.22   2.39   +-         +-0.3                 m i ke

PYRENEES
Sta     Dist  EvAz     Phase      Date       Time     TRes  Azim  AzRes  Slow  SRes Def   SNR       Amp   Per   Mag1   Mag2       ID
EPF   000.22 333.8 m E Pg      2011/10/29 23:28:08.5   0.0                          T                                        4779888
EPF   000.22 333.8 m E Sg      2011/10/29 23:28:11.7   0.2                          T               42.2  .16        Md 1.5  4779887
ETSF  000.76 275.1 m E Pg      2011/10/29 23:28:18.6   0.0                          T                                        4779883
ETSF  000.76 275.1 m E Sg      2011/10/29 23:28:27.4  -1.0                          T                2.1  .26        Md 1.9  4779886
MTLF  001.38 067.9 m E Pg      2011/10/29 23:28:29.9   0.1                          T                                        4779884
MTLF  001.38 067.9 m E Sg      2011/10/29 23:28:47.8   0.2                          T                 .7  .20 Ml 1.5         4779885
SJPF  001.27 283.1 m E Sg      2011/10/29 23:28:44.2  -0.3                          T                                        4779889
CAF   002.39 028.3 m E Sg      2011/10/29 23:29:18.6  -0.6                          T                                        4779890

.
