EVENT     258962
    Date      Time       Latitude Longitude    Depth    Ndef Nsta Gap    Mag1  N    Mag2  N    Mag3  N   Author         ID
       rms   OT_Error      Smajor Sminor Az        Err   mdist  Mdist     Err        Err        Err      Quality

2011/05/05 12:38:39.5     47.6300    6.2319       .0 f    12    7 119  Ml 2.0  4  Md 2.0  1              js067245    258962

      0.14   +-  0.03        .7     .5  107.54 +-  0.0    0.38   1.65   +-0.2      +-                    m i km

FRANCE
Sta     Dist  EvAz     Phase      Date       Time     TRes  Azim  AzRes  Slow  SRes Def   SNR       Amp   Per   Mag1   Mag2       ID
HAU   000.38 011.7 m E Pg      2011/05/05 12:38:47.1   0.0                          T                                        4684856
HAU   000.38 011.7 m E Sg      2011/05/05 12:38:52.3  -0.2                          T               87.7  .90        Md 2.0  4684857
HINF  000.46 065.8 m E Pg      2011/05/05 12:38:48.6   0.0                          T                                        4684852
HINF  000.46 065.8 m E Sg      2011/05/05 12:38:54.8  -0.1                          T               37.0  .88                4684855
THEF  000.62 345.1 m E Pg      2011/05/05 12:38:51.6   0.1                          T                                        4684849
THEF  000.62 345.1 m E Sg      2011/05/05 12:38:59.8   0.0                          T               24.1  .60                4684850
CABF  001.02 185.6 m E Pg      2011/05/05 12:38:59.0   0.0                          T                                        4684851
CABF  001.02 185.6 m E Sn      2011/05/05 12:39:14.2   0.1                          T               13.6  .59 Ml 2.2         4684854
CDF   001.05 041.5 m E Pg      2011/05/05 12:38:59.6   0.0                          T                                        4684848
CDF   001.05 041.5 m E Sg      2011/05/05 12:39:13.3   0.0                          T               10.6  .70 Ml 2.1         4684853
PAGF  000.99 340.0 m E Sg      2011/05/05 12:39:11.2  -0.1                          T                2.8  .36 Ml 1.7         4684847
LOR   001.65 258.2 m E Sg      2011/05/05 12:39:31.9  -0.1  74.9  -1.5              T                1.1  .20 Ml 1.9         4684846

.
EVENT     258964
    Date      Time       Latitude Longitude    Depth    Ndef Nsta Gap    Mag1  N    Mag2  N    Mag3  N   Author         ID
       rms   OT_Error      Smajor Sminor Az        Err   mdist  Mdist     Err        Err        Err      Quality

2011/05/05 16:57:43.0     44.6136    7.1686      2.0      15    9 183  Ml 1.4  7  Md 1.5  1              js067245    258964

      0.37   +-  0.15       3.3    1.7   75.96 +-  0.0    0.31   1.80   +-0.3      +-                    m i ke

NORTHERN ITALY
Sta     Dist  EvAz     Phase      Date       Time     TRes  Azim  AzRes  Slow  SRes Def   SNR       Amp   Per   Mag1   Mag2       ID
MBDF  000.31 291.9 m E Pg      2011/05/05 16:57:49.4   0.3                          T                                        4685123
MBDF  000.31 291.9 m E Sg      2011/05/05 16:57:53.9   0.7                          T                6.1  .22        Md 1.5  4685124
SBF   000.77 165.6 m E Pg      2011/05/05 16:57:58.1   0.5                          T                                        4685119
SBF   000.77 165.6 m E Sg      2011/05/05 16:58:07.4  -0.4                          T                1.6  .22                4685120
LPL   000.95 341.3 m E Pg      2011/05/05 16:58:00.7  -0.5                          T                                        4685113
LPG   000.93 341.7 m E Pg      2011/05/05 16:58:00.7  -0.2                          T                                        4685114
LPG   000.93 341.7 m E Sg      2011/05/05 16:58:13.0   0.0                          T                 .5  .23 Ml 1.2         4685115
LPL   000.95 341.3 m E Sg      2011/05/05 16:58:14.4   0.8                          T                 .4  .23 Ml 1.1         4685116
ORIF  000.97 288.8 m E Pg      2011/05/05 16:58:01.2  -0.1                          T                                        4685117
ORIF  000.97 288.8 m E Sg      2011/05/05 16:58:13.6  -0.3                          T                 .9  .25 Ml 1.4         4685118
FRF   001.12 199.8 m E Pg      2011/05/05 16:58:03.9   0.0                          T                                        4685121
FRF   001.12 199.8 m E Sg      2011/05/05 16:58:17.8  -0.6                          T                 .9  .18 Ml 1.6         4685122
SMRF  001.31 241.4 m E Sg      2011/05/05 16:58:24.3  -0.2                          T                 .3  .25 Ml 1.1         4685111
LMR   001.37 200.6 m E Sg      2011/05/05 16:58:26.0  -0.2                          T                1.4  .23 Ml 1.8         4685110
VIVF  001.80 278.6 m E Sg      2011/05/05 16:58:39.6   0.0                          T                 .6  .26 Ml 1.5         4685112

.
EVENT     258965
    Date      Time       Latitude Longitude    Depth    Ndef Nsta Gap    Mag1  N    Mag2  N    Mag3  N   Author         ID
       rms   OT_Error      Smajor Sminor Az        Err   mdist  Mdist     Err        Err        Err      Quality

2011/05/05 17:29:17.2     44.6120    7.2720      2.0      30   10 172  Ml 2.4  9  Md 2.4  1              js067245    258965

      0.33   +-  0.09       1.8     .9   70.92 +-  0.0    0.31   2.51   +-0.3      +-                    m i ke

NORTHERN ITALY
Sta     Dist  EvAz     Phase      Date       Time     TRes  Azim  AzRes  Slow  SRes Def   SNR       Amp   Per   Mag1   Mag2       ID
MBDF  000.38 288.0 m E Pg      2011/05/05 17:29:24.9   0.3                          T                                        4685134
MBDF  000.38 288.0 m E Sg      2011/05/05 17:29:29.5  -0.1                          T              134.8  .22        Md 2.4  4685135
SBF   000.76 171.0 m E Pg      2011/05/05 17:29:31.7   0.2                          T                                        4685125
SBF   000.76 171.0 m E Sg      2011/05/05 17:29:41.4  -0.1                          T               10.7  .18                4685144
LPG   000.96 337.6 m E Pg      2011/05/05 17:29:35.7   0.2                          T                                        4685130
LPG   000.96 337.6 m E Sg      2011/05/05 17:29:48.0   0.0                          T                8.3  .20 Ml 2.4         4685140
LPL   000.98 337.3 m E Pg      2011/05/05 17:29:36.1   0.3                          T                                        4685131
LPL   000.98 337.3 m E Sg      2011/05/05 17:29:48.6   0.0                          T                9.5  .24 Ml 2.4         4685139
ORIF  001.04 287.7 m E Pg      2011/05/05 17:29:36.8   0.1                          T                                        4685132
ORIF  001.04 287.7 m E Sg      2011/05/05 17:29:49.2  -1.0                          T                8.8  .20 Ml 2.5         4685133
FRF   001.14 203.4 m E Pg      2011/05/05 17:29:38.8   0.2                          T                                        4685128
FRF   001.14 203.4 m E Sg      2011/05/05 17:29:53.3  -0.1                          T               23.4  .22 Ml 2.9         4685142
LMR   001.39 203.6 m E Pg      2011/05/05 17:29:42.6  -0.5                          T                                        4685126
LMR   001.39 203.6 m E Sg      2011/05/05 17:30:00.6  -0.4                          T               15.3  .20 Ml 2.9         4685143
SMRF  001.37 243.0 m E Pg      2011/05/05 17:29:42.9   0.0                          T                                        4685145
SMRF  001.37 243.0 m E P       2011/05/05 17:29:43.6   0.0                          T                                        4685129
SMRF  001.37 243.0 m E Sg      2011/05/05 17:30:01.0   0.3                          T                4.4  .22 Ml 2.3         4685141
VIVF  001.87 278.4 m E Pn      2011/05/05 17:29:48.6   0.1                          T                                        4685146
VIVF  001.87 278.4 m E Sg      2011/05/05 17:30:16.2   0.2                          T                3.6  .39 Ml 2.1         4685147
LASF  002.51 258.9 m E Sg      2011/05/05 17:30:36.3   0.3                          T                 .8  .24 Ml 1.9         4685138

.
EVENT     258966
    Date      Time       Latitude Longitude    Depth    Ndef Nsta Gap    Mag1  N    Mag2  N    Mag3  N   Author         ID
       rms   OT_Error      Smajor Sminor Az        Err   mdist  Mdist     Err        Err        Err      Quality

2011/05/05 18:44:08.6     44.6095    7.2555      2.0      14    9 191  Ml 1.4  7  Md 1.6  1              js067245    258966

      0.30   +-  0.14       2.8    1.4   85.60 +-  0.0    0.36   1.86   +-0.2      +-                    m i ke

NORTHERN ITALY
Sta     Dist  EvAz     Phase      Date       Time     TRes  Azim  AzRes  Slow  SRes Def   SNR       Amp   Per   Mag1   Mag2       ID
MBDF  000.36 288.9 m E Pg      2011/05/05 18:44:16.0   0.2                          T                                        4685185
MBDF  000.36 288.9 m E Sg      2011/05/05 18:44:20.6  -0.1                          T                5.8  .20        Md 1.6  4685186
LPG   000.96 338.3 m E Pg      2011/05/05 18:44:26.8  -0.1                          T                                        4685182
LPG   000.96 338.3 m E Sg      2011/05/05 18:44:39.2  -0.2                          T                 .7  .22 Ml 1.3         4685176
LPL   000.98 338.0 m E Pg      2011/05/05 18:44:27.3   0.1                          T                                        4685183
LPL   000.98 338.0 m E Sg      2011/05/05 18:44:39.8  -0.1                          T                  1  .25 Ml 1.4         4685175
ORIF  001.03 288.0 m E Pg      2011/05/05 18:44:28.0   0.0                          T                                        4685184
ORIF  001.03 288.0 m E Sg      2011/05/05 18:44:40.3  -1.0                          T                 .6  .25 Ml 1.2         4685174
FRF   001.14 202.9 m E Pg      2011/05/05 18:44:30.0   0.1                          T                                        4685181
FRF   001.14 202.9 m E Sg      2011/05/05 18:44:44.4  -0.1                          T                1.1  .19 Ml 1.7         4685178
SBF   000.76 170.1 m E Sg      2011/05/05 18:44:32.5  -0.3                          T                 .8  .18                4685180
LMR   001.38 203.2 m E Sg      2011/05/05 18:44:51.8  -0.5                          T                 .7  .20 Ml 1.5         4685179
SMRF  001.36 242.9 m E Sg      2011/05/05 18:44:52.1   0.5                          T                 .3  .24 Ml 1.1         4685177
VIVF  001.86 278.5 m E Sg      2011/05/05 18:45:07.4   0.3                          T                 .8  .24 Ml 1.7         4685173

.
EVENT     258967
    Date      Time       Latitude Longitude    Depth    Ndef Nsta Gap    Mag1  N    Mag2  N    Mag3  N   Author         ID
       rms   OT_Error      Smajor Sminor Az        Err   mdist  Mdist     Err        Err        Err      Quality

2011/05/05 18:44:36.3     44.6060    7.2563      2.0      16    9 191  Ml 1.7  7                         js067245    258967

      0.30   +-  0.13       2.6    1.3   77.45 +-  0.0    0.34   1.86   +-0.3                            m i ke

NORTHERN ITALY
Sta     Dist  EvAz     Phase      Date       Time     TRes  Azim  AzRes  Slow  SRes Def   SNR       Amp   Per   Mag1   Mag2       ID
MBDF  000.37 289.4 m E Pg      2011/05/05 18:44:43.8   0.2                          T                                        4685202
MBDF  000.37 289.4 m E Sg      2011/05/05 18:44:48.4   0.0                          T                7.1  .16                4685203
SBF   000.75 170.1 m E Pg      2011/05/05 18:44:50.6   0.1                          T                                        4685196
SBF   000.75 170.1 m E Sg      2011/05/05 18:45:00.3  -0.1                          T                1.6  .19                4685195
LPG   000.96 338.3 m E Pg      2011/05/05 18:44:54.6   0.0                          T                                        4685199
LPG   000.96 338.3 m E Sg      2011/05/05 18:45:06.9  -0.2                          T                1.5  .28 Ml 1.5         4685191
LPL   000.98 338.0 m E Pg      2011/05/05 18:44:55.1   0.1                          T                                        4685200
LPL   000.98 338.0 m E Sg      2011/05/05 18:45:07.5  -0.2                          T                1.1  .24 Ml 1.5         4685190
ORIF  001.03 288.1 m E Pg      2011/05/05 18:44:55.8   0.1                          T                                        4685201
ORIF  001.03 288.1 m E Sg      2011/05/05 18:45:08.0  -1.0                          T                1.8  .32 Ml 1.6         4685189
FRF   001.13 203.0 m E Pg      2011/05/05 18:44:57.7   0.3                          T                                        4685198
FRF   001.13 203.0 m E Sg      2011/05/05 18:45:12.2   0.0                          T                2.4  .22 Ml 2.0         4685193
LMR   001.38 203.2 m E Pg      2011/05/05 18:45:01.6  -0.4                          T                                        4685197
LMR   001.38 203.2 m E Sg      2011/05/05 18:45:19.6  -0.3                          T                3.2  .24 Ml 2.1         4685194
SMRF  001.36 243.0 m E Sg      2011/05/05 18:45:19.9   0.6                          T                 .5  .25 Ml 1.3         4685192
VIVF  001.86 278.6 m E Sg      2011/05/05 18:45:35.1   0.3                          T                1.0  .30 Ml 1.7         4685188

.
EVENT     258986
    Date      Time       Latitude Longitude    Depth    Ndef Nsta Gap    Mag1  N    Mag2  N    Mag3  N   Author         ID
       rms   OT_Error      Smajor Sminor Az        Err   mdist  Mdist     Err        Err        Err      Quality

2011/05/05 18:44:50.5     47.9027    6.4822     15.0      16    7 095  Ml 2.1  3                         js067245    258986

      1.31   +-  0.13       3.1    2.7   32.46 +-  0.0    0.14   1.32   +-0.2                            m i ke

FRANCE
Sta     Dist  EvAz     Phase      Date       Time     TRes  Azim  AzRes  Slow  SRes Def   SNR       Amp   Per   Mag1   Mag2       ID
HAU   000.14 318.9 m E Pg      2011/05/05 18:44:54.4   0.1                          T                                        4685095
HAU   000.14 318.9 m E Sg      2011/05/05 18:44:57.1   0.1                          T                                        4685094
HINF  000.26 108.9 m E Pg      2011/05/05 18:44:56.4   0.1                          T                                        4685087
HINF  000.26 108.9 m E Sg      2011/05/05 18:45:00.3   0.0                          T               29.0  .17                4685088
CDF   000.74 045.9 m E Pg      2011/05/05 18:45:04.5  -0.2                          T                                        4685096
CDF   000.74 045.9 m E P       2011/05/05 18:45:05.2  -0.5                          T                                        4685092
CDF   000.74 045.9 m E Sg      2011/05/05 18:45:14.6   0.1                          T               11.6  .19                4685093
PAGF  000.83 322.5 m E Pg      2011/05/05 18:45:06.5   0.3 155.6  13.7              T                                        4685090
PAGF  000.83 322.5 m E Sg      2011/05/05 18:45:17.0  -0.1                          T                2.0  .18                4685091
SFTF  001.01 287.9 m E Pn      2011/05/05 18:45:08.5  -0.2 111.9  5.1               T                                        4685089
SFTF  001.01 287.9 m E Pg      2011/05/05 18:45:09.6  -0.1                          T                                        4700489
SFTF  001.01 287.9 m E Sg      2011/05/05 18:45:23.1   0.2                          T                5.8  .16 Ml 2.4         4685084
CABF  001.32 191.9 m E Pn      2011/05/05 18:45:13.0   0.1                          T                                        4685085
CABF  001.32 191.9 m E Pg      2011/05/05 18:45:15.5   0.2                          T                                        4700488
CABF  001.32 191.9 m E Sg      2011/05/05 18:45:32.7   0.2                          T                1.6  .18 Ml 1.9         4685086
MEZF  001.13 302.6 m E Sg      2011/05/05 18:45:26.6   0.1                          T                2.2  .15 Ml 2.0         4685083

.
