EVENT     275250
    Date      Time       Latitude Longitude    Depth    Ndef Nsta Gap    Mag1  N    Mag2  N    Mag3  N   Author         ID
       rms   OT_Error      Smajor Sminor Az        Err   mdist  Mdist     Err        Err        Err      Quality

2012/05/02 07:21:53.3     44.4974    6.7072      2.0      38   10 055  Ml 2.0  7  Md 2.0  2              bulletin    275350
                                                                                                         _ldg
      0.53   +-  0.06       1.3    1.0   58.85 +-  0.0    0.08   2.56   +-0.3      +-0.2                 m i ke

FRANCE
Sta     Dist  EvAz     Phase      Date       Time     TRes  Azim  AzRes  Slow  SRes Def   SNR       Amp   Per   Mag1   Mag2       ID
MBDF  000.23 011.3 m E Pg      2012/05/02 07:21:58.1   0.0                          T                                        4934703
MBDF  000.23 011.3 m E Sg      2012/05/02 07:22:01.7   0.3                          T               21.6  .28        Md 1.9  4934702
ORIF  000.72 305.8 m E Pg      2012/05/02 07:22:06.5  -0.6                          T                                        4937795
ORIF  000.72 305.8 m E Sg      2012/05/02 07:22:16.5  -0.1                          T                3.2  .20                4934701
SBF   000.82 140.2 m E Pg      2012/05/02 07:22:08.9   0.1                          T                                        4934696
SBF   000.82 140.2 m E Sg      2012/05/02 07:22:19.5  -0.1                          T                5.1  .20        Md 2.1  4934692
FRF   000.94 182.7 m E Pg      2012/05/02 07:22:10.9   0.0                          T                                        4934699
FRF   000.94 182.7 m E Sg      2012/05/02 07:22:22.7  -0.3                          T                4.8  .18 Ml 2.3         4934691
LPG   001.00 001.8 m E Pg      2012/05/02 07:22:12.1  -0.3                          T                                        4934700
LPG   001.00 001.8 m E Sg      2012/05/02 07:22:25.7   0.3                          T                4.5  .26 Ml 2.1         4934690
SMRF  000.97 237.7 m E Pg      2012/05/02 07:22:12.3   0.8                          T                                        4934693
SMRF  000.97 237.7 m E Sg      2012/05/02 07:22:25.6   1.6                          T                6.5  .34 Ml 2.1         4934694
LPL   001.02 001.0 m E Pg      2012/05/02 07:22:12.8   0.1                          T                                        4934695
LPL   001.02 001.0 m E Sg      2012/05/02 07:22:26.2   0.3                          T                2.7  .30 Ml 1.8         4934689
LMR   001.17 187.1 m E Pg      2012/05/02 07:22:15.4   0.2                          T                                        4934698
LMR   001.17 187.1 m E Sg      2012/05/02 07:22:30.5   0.2                          T                4.1  .20 Ml 2.2         4934697
VIVF  001.50 284.6 m E Pn      2012/05/02 07:22:19.8   0.3                          T                                        4934688
VIVF  001.50 284.6 m E Sn      2012/05/02 07:22:38.8   0.4                          T                 .7  .20 Ml 1.6         4934687
PGF   002.56 138.7 m E Pn      2012/05/02 07:22:34.6   0.5                          T                                        4934684
PGF   002.56 138.7 m E Sn      2012/05/02 07:23:04.0  -0.1                          T                1.1  .22 Ml 2.2         4934683

.
EVENT     275251
    Date      Time       Latitude Longitude    Depth    Ndef Nsta Gap    Mag1  N    Mag2  N    Mag3  N   Author         ID
       rms   OT_Error      Smajor Sminor Az        Err   mdist  Mdist     Err        Err        Err      Quality

2012/05/02 07:26:14.3     44.5030    6.7064      2.0      77   25 050  Ml 2.7 13  Md 2.6  2              bulletin    275351
                                                                                                         _ldg
      0.58   +-  0.07       1.6    1.1   42.02 +-  0.0    0.08   4.11   +-0.4      +-0.0                 m i ke

FRANCE
Sta     Dist  EvAz     Phase      Date       Time     TRes  Azim  AzRes  Slow  SRes Def   SNR       Amp   Per   Mag1   Mag2       ID
MBDF  000.23 011.7 m E Pg      2012/05/02 07:26:19.2   0.1                          T                                        4934754
MBDF  000.23 011.7 m E Sg      2012/05/02 07:26:22.5   0.3                          T              224.6  .30                4934738
ORIF  000.72 305.5 m E Pg      2012/05/02 07:26:27.7  -0.3                          T                                        4937814
ORIF  000.72 305.5 m E Sg      2012/05/02 07:26:37.2  -0.3                          T               46.8  .22        Md 2.6  4934739
SBF   000.83 140.4 m E Pg      2012/05/02 07:26:30.0   0.0                          T                                        4934748
SBF   000.83 140.4 m E Sg      2012/05/02 07:26:40.7   0.0                          T               43.2  .24        Md 2.5  4934745
FRF   000.94 182.6 m E Pg      2012/05/02 07:26:32.0   0.0                          T                                        4934750
FRF   000.94 182.6 m E Sg      2012/05/02 07:26:44.3   0.0                          T               57.0  .20 Ml 3.3         4934743
LPG   001.00 001.8 m E Pg      2012/05/02 07:26:33.4   0.0                          T                                        4934752
LPG   001.00 001.8 m E Sg      2012/05/02 07:26:47.0   0.7                          T               22.3  .28 Ml 2.7         4934741
SMRF  000.97 237.4 m E Pg      2012/05/02 07:26:33.4   0.9                          T                                        4934751
SMRF  000.97 237.4 m E Sg      2012/05/02 07:26:45.7   0.6                          T               44.2  .32 Ml 2.9         4934742
LPL   001.01 001.0 m E Pg      2012/05/02 07:26:33.7   0.1                          T                                        4934753
LPL   001.01 001.0 m E Sg      2012/05/02 07:26:47.8   1.0                          T               16.8  .26 Ml 2.6         4934740
LMR   001.18 187.0 m E Pg      2012/05/02 07:26:36.8   0.4                          T                                        4934749
LMR   001.18 187.0 m E Sg      2012/05/02 07:26:51.7   0.1                          T               30.2  .20 Ml 3.1         4934744
VIVF  001.49 284.4 m E P       2012/05/02 07:26:41.4  -1.0                          T                                        4934737
VIVF  001.49 284.4 m E Sn      2012/05/02 07:27:00.5   1.0                          T                                        4934736
VIVF  001.49 284.4 m E Sg      2012/05/02 07:27:02.2   0.7                          T               13.9  .30 Ml 2.7         4937817
LASF  002.09 259.2 m E P       2012/05/02 07:26:49.0  -1.9                          T                                        4934735
LASF  002.09 259.2 m E Sn      2012/05/02 07:27:14.1   0.4                          T                2.0  .20 Ml 2.2         4934734
CABF  002.15 348.6 m E P       2012/05/02 07:26:52.2   0.3                          T                                        4934725
CABF  002.15 348.6 m E Sg      2012/05/02 07:27:23.2   1.0                          T                                        4934726
PGF   002.57 138.7 m E Pn      2012/05/02 07:26:55.9   0.7                          T                                        4934747
PGF   002.57 138.7 m E Sn      2012/05/02 07:27:25.4   0.2                          T                5.8  .30 Ml 2.9         4934746
SMF   002.94 317.8 m E Pn      2012/05/02 07:27:00.6   0.5                          T                                        4934728
SMF   002.94 317.8 m E Pg      2012/05/02 07:27:09.1   0.3                          T                                        4937805
SMF   002.94 317.8 m E Sg      2012/05/02 07:27:46.6   0.0                          T                                        4937806
AVF   003.28 315.4 m E P       2012/05/02 07:27:06.9  -1.0                          T                                        4934719
AVF   003.28 315.4 m E Sg      2012/05/02 07:27:55.6  -1.6                          T                                        4937807
CAF   003.34 278.9 m E P       2012/05/02 07:27:07.0  -1.7                          T                                        4934731
CAF   003.34 278.9 m E Sn      2012/05/02 07:27:43.8   0.3                          T                2.0  .27 Ml 2.4         4934730
MTLF  003.44 251.9 m E Pn      2012/05/02 07:27:08.1   1.0                          T                                        4934733
MTLF  003.44 251.9 m E Sn      2012/05/02 07:27:46.8   0.8                          T                 .6  .22 Ml 2.0         4934732
MTLF  003.44 251.9 m E Sg      2012/05/02 07:28:03.8   1.5                          T                                        4937816
BGF   003.40 308.5 m E P       2012/05/02 07:27:08.6  -1.1                          T                                        4934729
BGF   003.40 308.5 m E Pg      2012/05/02 07:27:18.2   0.8                          T                                        4937804
SSF   003.40 319.9 m E P       2012/05/02 07:27:08.6  -1.0                          T                                        4934720
SSF   003.40 319.9 m E Sg      2012/05/02 07:28:02.0   1.0                          T                4.1  .40 Ml 2.6         4937811
LOR   003.41 325.3 m E P       2012/05/02 07:27:08.9  -0.8                          T                                        4937813
LOR   003.41 325.3 m E Sg      2012/05/02 07:28:01.7   0.5                          T                3.6  .38 Ml 2.5         4937812
HAU   003.51 356.1 m E P       2012/05/02 07:27:10.3  -0.9                          T                                        4934722
HAU   003.51 356.1 m E Sn      2012/05/02 07:27:50.1   2.4                          T                                        4937815
TCF   003.64 301.0 m E P       2012/05/02 07:27:11.7  -1.2                          T                                        4937810
THEF  003.76 352.7 m E P       2012/05/02 07:27:14.1  -0.6                          T                                        4934721
CDF   003.93 005.5 m E P       2012/05/02 07:27:15.7  -1.5                          T                                        4937809
PAGF  004.11 350.9 m E P       2012/05/02 07:27:19.2  -0.5                          T                                        4937808
HINF  003.32 001.7 m E S       2012/05/02 07:27:49.6   0.6                          T                                        4934723

.
EVENT     275274
    Date      Time       Latitude Longitude    Depth    Ndef Nsta Gap    Mag1  N    Mag2  N    Mag3  N   Author         ID
       rms   OT_Error      Smajor Sminor Az        Err   mdist  Mdist     Err        Err        Err      Quality

2012/05/02 07:33:36.8     43.1527     .5633     25.0       6    2 207  Ml 1.6  2  Md 1.5  1              bulletin    275374
                                                                                                         _ldg
      0.79   +-  0.17      11.3    1.9  159.70 +-  0.0    0.20   1.22   +-0.1      +-                    m i ke

FRANCE
Sta     Dist  EvAz     Phase      Date       Time     TRes  Azim  AzRes  Slow  SRes Def   SNR       Amp   Per   Mag1   Mag2       ID
EPF   000.20 233.3 m E Pg      2012/05/02 07:33:42.6  -0.1                          T                                        4937821
EPF   000.20 233.3 m E Sg      2012/05/02 07:33:46.8   0.0                          T               10.9  .30        Md 1.5  4937820
MTLF  001.22 080.6 m E Pg      2012/05/02 07:34:00.0   0.0                          T                                        4937818
MTLF  001.22 080.6 m E Sg      2012/05/02 07:34:15.9  -0.2                          T                 .8  .21 Ml 1.5         4937819

.
EVENT     275289
    Date      Time       Latitude Longitude    Depth    Ndef Nsta Gap    Mag1  N    Mag2  N    Mag3  N   Author         ID
       rms   OT_Error      Smajor Sminor Az        Err   mdist  Mdist     Err        Err        Err      Quality

2012/05/02 09:16:28.0     47.1604    6.0250       .0 f    18   10 135  Ml 2.4  9  Md 2.2  1              bulletin    275389
                                                                                                         _ldg
      1.02   +-  0.21       4.2    2.8  128.86 +-  0.0    0.55   1.72   +-0.2      +-                    m i km

FRANCE
Sta     Dist  EvAz     Phase      Date       Time     TRes  Azim  AzRes  Slow  SRes Def   SNR       Amp   Per   Mag1   Mag2       ID
CABF  000.55 175.5 m E Pg      2012/05/02 09:16:38.4  -0.4                          T                                        4934807
CABF  000.55 175.5 m E Sg      2012/05/02 09:16:47.1   0.8                          T               41.0  .60        Md 2.2  4934800
HINF  000.86 040.2 m E Pg      2012/05/02 09:16:44.2  -0.3                          T                                        4934805
HINF  000.86 040.2 m E Sg      2012/05/02 09:16:56.1   0.1                          T               11.7  .33 Ml 2.3         4934801
HAU   000.87 014.4 m E Pg      2012/05/02 09:16:44.9   0.2                          T                                        4934806
HAU   000.87 014.4 m E Sg      2012/05/02 09:16:57.3   1.0                          T               13.4  .24 Ml 2.3         4934802
THEF  001.07 358.9 m E Pg      2012/05/02 09:16:48.4   0.2                          T                                        4934804
THEF  001.07 358.9 m E Sg      2012/05/02 09:17:02.7   0.4                          T                9.9  .28 Ml 2.4         4934803
LOR   001.48 275.0 m E Pg      2012/05/02 09:16:56.4   0.6  96.4  3.0               T                                        4937843
LOR   001.48 275.0 m E Sg      2012/05/02 09:17:13.5  -1.6  99.1  5.7               T               13.0  .32 Ml 2.7         4934798
SMF   001.58 251.8 m E Pg      2012/05/02 09:16:58.0   0.3                          T                                        4934814
SMF   001.58 251.8 m E Sg      2012/05/02 09:17:17.8  -0.6                          T                2.8  .26 Ml 2.1         4934815
SFTF  001.24 327.8 m E Sg      2012/05/02 09:17:08.9   1.3                          T               13.6  .38 Ml 2.5         4934816
PAGF  001.41 351.9 m E Sg      2012/05/02 09:17:11.1  -1.9                          T                                        4934817
CDF   001.51 033.5 m E Sg      2012/05/02 09:17:14.9  -1.3                          T                3.4  .20 Ml 2.4         4934799
SSF   001.72 267.6 m E Sg      2012/05/02 09:17:23.1   0.4                          T               10.4  .52 Ml 2.5         4934797

.
EVENT     275290
    Date      Time       Latitude Longitude    Depth    Ndef Nsta Gap    Mag1  N    Mag2  N    Mag3  N   Author         ID
       rms   OT_Error      Smajor Sminor Az        Err   mdist  Mdist     Err        Err        Err      Quality

2012/05/02 09:34:23.1     48.1803    -.2212       .0 f    12    5 169  Ml 2.4  2  Md 1.9  2              bulletin    275390
                                                                                                         _ldg
      1.89   +-  0.26       6.2    3.6   80.24 +-  0.0    0.42   1.58   +-0.1      +-0.0                 m i km

FRANCE
Sta     Dist  EvAz     Phase      Date       Time     TRes  Azim  AzRes  Slow  SRes Def   SNR       Amp   Per   Mag1   Mag2       ID
LDF   000.42 009.0 m E Pg      2012/05/02 09:34:32.1   0.7                          T                                        4934840
LDF   000.42 009.0 m E Sg      2012/05/02 09:34:37.8   0.6                          T              105.8 1.02        Md 1.9  4934844
GRR   000.47 296.3 m E Pg      2012/05/02 09:34:32.6   0.2                          T                                        4934842
GRR   000.47 296.3 m E Sg      2012/05/02 09:34:38.8   0.0                          T               66.0  .74        Md 1.9  4934841
FLN   000.61 343.5 m E Pg      2012/05/02 09:34:33.8  -1.0 160.4  -2.9              T                                        4934839
FLN   000.61 343.5 m E Sg      2012/05/02 09:34:43.2   0.2                          T               50.1  .76                4934843
SGMF  001.56 273.6 m E Pg      2012/05/02 09:34:52.4  -0.1                          T                                        4934838
SGMF  001.56 273.6 m E Sg      2012/05/02 09:35:12.4  -0.4                          T               13.5  .60 Ml 2.4         4934835
MFF   001.58 178.1 m E Pg      2012/05/02 09:34:52.7  -0.1                          T                                        4934837
MFF   001.58 178.1 m E Sg      2012/05/02 09:35:13.7   0.4                          T                4.1  .34 Ml 2.3         4934836

.
EVENT     275291
    Date      Time       Latitude Longitude    Depth    Ndef Nsta Gap    Mag1  N    Mag2  N    Mag3  N   Author         ID
       rms   OT_Error      Smajor Sminor Az        Err   mdist  Mdist     Err        Err        Err      Quality

2012/05/02 09:52:46.3     46.0639    3.2256       .0 f    18   10 103  Ml 2.3  5  Md 2.0  2              bulletin    275391
                                                                                                         _ldg
      0.88   +-  0.19       4.1    3.0  105.71 +-  0.0    0.56   1.58   +-0.2      +-0.1                 m i km

FRANCE
Sta     Dist  EvAz     Phase      Date       Time     TRes  Azim  AzRes  Slow  SRes Def   SNR       Amp   Per   Mag1   Mag2       ID
BGF   000.56 332.1 m E Pg      2012/05/02 09:52:57.5   0.2                          T                                        4934937
BGF   000.56 332.1 m E Sg      2012/05/02 09:53:04.4  -0.4                          T               23.8  .38        Md 1.9  4934938
SMF   000.72 036.0 m E Pg      2012/05/02 09:53:00.6   0.4                          T                                        4934906
SMF   000.72 036.0 m E Sg      2012/05/02 09:53:10.8   0.9                          T                9.2  .27                4934904
AVF   000.73 006.8 m E Pg      2012/05/02 09:53:00.8   0.5                          T                                        4934907
AVF   000.73 006.8 m E Sg      2012/05/02 09:53:12.3   2.1                          T               10.0  .30                4934905
TCF   000.74 288.0 m E Pg      2012/05/02 09:53:01.1   0.5                          T                                        4934908
TCF   000.74 288.0 m E Sg      2012/05/02 09:53:10.7   0.2                          T               89.4  .96        Md 2.0  4934902
SSF   001.02 010.9 m E Pg      2012/05/02 09:53:04.5  -1.1                          T                                        4934912
SSF   001.02 010.9 m E Sg      2012/05/02 09:53:19.2   0.2                          T                7.2  .37 Ml 2.2         4934911
LOR   001.28 019.7 m E Pg      2012/05/02 09:53:09.6  -0.9 203.7  3.5               T                                        4934909
LOR   001.28 019.7 m E Sg      2012/05/02 09:53:27.2  -0.1 193.0  -7.2              T               11.1  .34 Ml 2.5         4934910
CAF   001.40 216.1 m E Pg      2012/05/02 09:53:12.2  -0.5                          T                4.1  .26 Ml 2.2         4934939
CAF   001.40 216.1 m E Sg      2012/05/02 09:53:31.6   0.5                          T                                        4934943
VIVF  001.58 139.3 m E Pg      2012/05/02 09:53:16.1   0.1                          T                                        4934941
VIVF  001.58 139.3 m E Sg      2012/05/02 09:53:37.3   0.6                          T               13.8  .56 Ml 2.5         4934942
HYF   001.27 341.7 m E Sg      2012/05/02 09:53:26.2  -0.8                          T                                        4934903
RJF   001.42 238.2 m E Sg      2012/05/02 09:53:31.8   0.2                          T                8.4  .38 Ml 2.0         4934940

.
