EVENT     283367
    Date      Time       Latitude Longitude    Depth    Ndef Nsta Gap    Mag1  N    Mag2  N    Mag3  N   Author         ID
       rms   OT_Error      Smajor Sminor Az        Err   mdist  Mdist     Err        Err        Err      Quality

2012/09/14 06:43:06.1     43.1648    5.9492       .0 f    24    9 227  Ml 2.2  7  Md 1.9  3              bulletin    283467
                                                                                                         _ldg
      0.43   +-  0.24       5.2    2.5   33.99 +-  0.0    0.44   3.38   +-0.5      +-0.0                 m i km

NEAR SOUTH COAST OF FRANCE
Sta     Dist  EvAz     Phase      Date       Time     TRes  Azim  AzRes  Slow  SRes Def   SNR       Amp   Per   Mag1   Mag2       ID
LMR   000.44 067.4 m E Pg      2012/09/14 06:43:14.8   0.0                          T                                        5070742
LMR   000.44 067.4 m E Sg      2012/09/14 06:43:21.1   0.2                          T               15.0  .22        Md 1.9  5070746
FRF   000.64 051.9 m E Pg      2012/09/14 06:43:18.6   0.1                          T                                        5070741
FRF   000.64 051.9 m E Sg      2012/09/14 06:43:27.2   0.1                          T               11.5  .43        Md 1.9  5070745
SMRF  000.86 341.6 m E Pg      2012/09/14 06:43:22.8   0.3                          T                                        5070740
SMRF  000.86 341.6 m E Sg      2012/09/14 06:43:32.8  -1.0                          T                4.7  .27 Ml 2.0 Md 1.9  5070739
SBF   001.29 056.6 m E Pn      2012/09/14 06:43:30.1   0.2                          T                                        5070738
SBF   001.29 056.6 m E Sn      2012/09/14 06:43:47.2   0.2                          T               25.7  .28 Ml 2.9         5070737
MBDF  001.67 020.5 m E Pn      2012/09/14 06:43:35.4   0.2                          T                                        5070750
MBDF  001.67 020.5 m E Sn      2012/09/14 06:43:55.9  -0.3                          T                4.7  .48 Ml 2.1         5070749
ORIF  001.75 358.4 m E Pn      2012/09/14 06:43:36.2  -0.1                          T                                        5070752
ORIF  001.75 358.4 m E Sn      2012/09/14 06:43:57.5  -0.6                          T                1.3  .24 Ml 1.9         5070751
VIVF  001.93 331.9 m E Pn      2012/09/14 06:43:38.1  -0.4                          T                                        5070748
VIVF  001.93 331.9 m E Sn      2012/09/14 06:44:01.4  -0.8                          T                 .4  .20 Ml 1.5         5070747
PGF   002.33 104.3 m E Pn      2012/09/14 06:43:43.7  -0.3                          T                                        5070744
PGF   002.33 104.3 m E Sn      2012/09/14 06:44:12.1   0.2                          T                6.0  .44 Ml 2.7         5070743
LPG   002.40 013.6 m E Pn      2012/09/14 06:43:45.2  -0.1                          T                                        5070753
LPG   002.40 013.6 m E Sn      2012/09/14 06:44:13.4  -0.5                          T                1.7  .24 Ml 2.1         5070754

.
EVENT     283313
    Date      Time       Latitude Longitude    Depth    Ndef Nsta Gap    Mag1  N    Mag2  N    Mag3  N   Author         ID
       rms   OT_Error      Smajor Sminor Az        Err   mdist  Mdist     Err        Err        Err      Quality

2012/09/14 06:45:08.3     47.8219    5.8833       .0 f    15    9 083  Ml 2.1  5  Md 2.1  2              bulletin    283413
                                                                                                         _ldg
      0.75   +-  0.08       1.7    1.2  164.79 +-  0.0    0.36   1.82   +-0.2      +-0.0                 m i km

FRANCE
Sta     Dist  EvAz     Phase      Date       Time     TRes  Azim  AzRes  Slow  SRes Def   SNR       Amp   Per   Mag1   Mag2       ID
HAU   000.36 059.4 m E Pg      2012/09/14 06:45:15.3  -0.4                          T                                        5069914
HAU   000.36 059.4 m E Sg      2012/09/14 06:45:21.1   0.5                          T               75.8  .82        Md 2.2  5069913
HINF  000.65 090.1 m E Pg      2012/09/14 06:45:21.1   0.1                          T                                        5070402
HINF  000.65 090.1 m E Pn      2012/09/14 06:45:23.4   0.0                          T                                        5069912
HINF  000.65 090.1 m E Sn      2012/09/14 06:45:34.2   0.2                          T               14.5  .32        Md 2.1  5069911
PAGF  000.74 351.8 m E Pg      2012/09/14 06:45:22.5  -0.1 166.6  -5.1              T                                        5069916
PAGF  000.74 351.8 m E Sg      2012/09/14 06:45:32.7   0.3 169.9  -1.9              T               13.8  .35                5069915
CDF   001.10 057.2 m E Pg      2012/09/14 06:45:29.5   0.1                          T                                        5069910
CDF   001.10 057.2 m E Sn      2012/09/14 06:45:45.2   0.3                          T                7.5  .32 Ml 2.3         5069909
SFTF  000.68 304.4 m E Sg      2012/09/14 06:45:30.5  -0.2 125.5  1.8               T                9.6  .40                5070405
LOR   001.48 248.8 m E Pg      2012/09/14 06:45:36.1  -0.1  66.2  -1.1              T                                        5070407
LOR   001.48 248.8 m E Sg      2012/09/14 06:45:55.4  -0.1  74.5  7.3               T                2.4  .27 Ml 2.0         5070408
MEZF  000.88 321.0 m E Sg      2012/09/14 06:45:36.9   0.2                          T               10.5  .32 Ml 2.3         5070406
CABF  001.22 173.4 m E Sg      2012/09/14 06:45:47.7   0.3                          T                5.5  .43 Ml 2.0         5070403
SMF   001.82 230.5 m E Sg      2012/09/14 06:46:06.3   0.1                          T                3.5  .42 Ml 2.1         5070404

.
EVENT     283352
    Date      Time       Latitude Longitude    Depth    Ndef Nsta Gap    Mag1  N    Mag2  N    Mag3  N   Author         ID
       rms   OT_Error      Smajor Sminor Az        Err   mdist  Mdist     Err        Err        Err      Quality

2012/09/14 09:37:14.0     43.1413   -1.0230      2.0      15    7 135  Ml 2.4  6  Md 2.4  2              bulletin    283452
                                                                                                         _ldg
      0.27   +-  0.09       2.2    1.6  162.45 +-  0.0    0.15   2.85   +-0.2      +-0.0                 m i ke

PYRENEES
Sta     Dist  EvAz     Phase      Date       Time     TRes  Azim  AzRes  Slow  SRes Def   SNR       Amp   Per   Mag1   Mag2       ID
SJPF  000.15 259.3 m E Pg      2012/09/14 09:37:17.3   0.2                          T                                        5070360
SJPF  000.15 259.3 m E Sg      2012/09/14 09:37:19.2   0.0                          T               77.5  .22        Md 2.4  5070357
ETSF  000.42 125.3 m E Pg      2012/09/14 09:37:22.0  -0.1                          T                                        5070359
ETSF  000.42 125.3 m E Sg      2012/09/14 09:37:27.7   0.0                          T               31.7  .32        Md 2.4  5070356
EPF   001.00 095.9 m E Pg      2012/09/14 09:37:33.8   0.9                          T                                        5070440
EPF   001.00 095.9 m E Sg      2012/09/14 09:37:46.5   0.5                          T               23.4  .30 Ml 2.7         5070355
LFF   002.20 034.7 m E Pn      2012/09/14 09:37:49.4  -0.3                          T                                        5070442
LFF   002.20 034.7 m E Sg      2012/09/14 09:38:23.4   0.2                          T                6.2  .32 Ml 2.4         5070444
MTLF  002.38 084.1 m E Pg      2012/09/14 09:37:58.0  -0.1                          T                                        5070438
MTLF  002.38 084.1 m E Sg      2012/09/14 09:38:27.7  -1.0                          T                4.4  .35 Ml 2.4         5070439
RJF   002.83 039.3 m E P       2012/09/14 09:38:01.1   0.0                          T                                        5070441
RJF   002.83 039.3 m E Sg      2012/09/14 09:38:42.5  -0.3                          T                5.6  .25 Ml 2.4         5070443
CAF   002.85 050.2 m E P       2012/09/14 09:38:01.5   0.0                          T                                        5070373
CAF   002.85 050.2 m E Sn      2012/09/14 09:38:32.4   0.8                          T                1.6  .27 Ml 2.2         5070372
CAF   002.85 050.2 m E Sg      2012/09/14 09:38:43.7   0.2                          T                3.1  .29 Ml 2.4         5070445

.
EVENT     283353
    Date      Time       Latitude Longitude    Depth    Ndef Nsta Gap    Mag1  N    Mag2  N    Mag3  N   Author         ID
       rms   OT_Error      Smajor Sminor Az        Err   mdist  Mdist     Err        Err        Err      Quality

2012/09/14 10:04:59.4     42.9892   -1.1684      2.0      31    7 052  Ml 2.3  5  Md 2.2  2              bulletin    283453
                                                                                                         _ldg
      0.39   +-  0.06       1.3    1.1  161.29 +-  0.0    0.13   3.03   +-0.2      +-0.0                 m i ke

PYRENEES
Sta     Dist  EvAz     Phase      Date       Time     TRes  Azim  AzRes  Slow  SRes Def   SNR       Amp   Per   Mag1   Mag2       ID
SJPF  000.13 341.5 m E Pg      2012/09/14 10:05:02.4   0.3                          T                                        5070348
SJPF  000.13 341.5 m E Sg      2012/09/14 10:05:04.3   0.2                          T              279.3  .24        Md 2.2  5070347
ETSF  000.46 101.2 m E Pg      2012/09/14 10:05:07.9  -0.4                          T                                        5070354
ETSF  000.46 101.2 m E Sg      2012/09/14 10:05:13.9  -0.4                          T               31.2  .40        Md 2.2  5070353
EPF   001.11 087.4 m E Pn      2012/09/14 10:05:20.0  -0.3                          T                                        5070346
EPF   001.11 087.4 m E Sn      2012/09/14 10:05:34.8  -0.5                          T                8.1  .22 Ml 2.4         5070345
LFF   002.39 034.6 m E Pn      2012/09/14 10:05:37.3  -0.4                          T                                        5070432
LFF   002.39 034.6 m E Sg      2012/09/14 10:06:13.4  -1.0                          T                4.1  .28 Ml 2.3         5070435
MTLF  002.50 080.8 m E P       2012/09/14 10:05:41.7  -0.1                          T                                        5070349
MTLF  002.50 080.8 m E Sn      2012/09/14 10:06:08.7   0.1                          T                3.0  .32 Ml 2.3         5070350
CAF   003.03 049.2 m E P       2012/09/14 10:05:49.5   0.0                          T                                        5070352
CAF   003.03 049.2 m E Sn      2012/09/14 10:06:21.1  -0.2                          T                2.3  .17 Ml 2.6         5070351
RJF   003.02 038.9 m E Pg      2012/09/14 10:05:55.1  -0.2                          T                                        5070433
RJF   003.02 038.9 m E Sn      2012/09/14 10:06:20.6  -0.2                          T                2.5  .29 Ml 2.0         5070434

.
EVENT     283335
    Date      Time       Latitude Longitude    Depth    Ndef Nsta Gap    Mag1  N    Mag2  N    Mag3  N   Author         ID
       rms   OT_Error      Smajor Sminor Az        Err   mdist  Mdist     Err        Err        Err      Quality

2012/09/14 10:12:43.2     45.3158    3.2378       .0 f    23   12 096  Ml 2.6 14  Md 2.2  3              bulletin    283435
                                                                                                         _ldg
      0.66   +-  0.09       1.7    1.3   91.37 +-  0.0    0.86   2.69   +-0.3      +-0.1                 m i km

FRANCE
Sta     Dist  EvAz     Phase      Date       Time     TRes  Azim  AzRes  Slow  SRes Def   SNR       Amp   Per   Mag1   Mag2       ID
CAF   000.92 245.3 m E Pg      2012/09/14 10:13:01.0   0.3                          T                                        5070270
CAF   000.92 245.3 m E Sg      2012/09/14 10:13:13.3   0.4                          T               14.1  .30 Ml 2.4 Md 2.2  5070269
VIVF  001.12 113.8 m E Pg      2012/09/14 10:13:04.5   0.1                          T                                        5070266
VIVF  001.12 113.8 m E Sg      2012/09/14 10:13:19.3   0.3                          T               13.8  .26 Ml 2.6         5070265
RJF   001.21 270.1 m E Pg      2012/09/14 10:13:05.9  -0.3                          T                                        5070268
RJF   001.21 270.1 m E Sg      2012/09/14 10:13:22.9   0.8                          T               14.5  .28 Ml 2.3         5070267
TCF   001.21 323.9 m E Pg      2012/09/14 10:13:06.1  -0.1                          T                                        5070274
TCF   001.21 323.9 m E Sg      2012/09/14 10:13:22.2   0.3                          T               25.6  .78 Ml 2.5         5070273
BGF   001.27 347.7 m E Pg      2012/09/14 10:13:07.3   0.0                          T                                        5070262
BGF   001.27 347.7 m E Sg      2012/09/14 10:13:23.9   0.0                          T               93.2  .30 Ml 3.4 Md 2.1  5070261
LASF  001.32 160.2 m E Pg      2012/09/14 10:13:07.8  -0.3                          T                                        5070264
LASF  001.32 160.2 m E Sg      2012/09/14 10:13:25.5   0.2                          T               39.1  .50 Ml 2.8         5070263
SMF   001.39 017.3 m E Pg      2012/09/14 10:13:09.9   0.3                          T                                        5070260
SMF   001.39 017.3 m E Sg      2012/09/14 10:13:27.9   0.2                          T               21.8  .40 Ml 2.7         5070259
AVF   001.48 003.1 m E Pg      2012/09/14 10:13:11.0   0.0                          T                                        5070276
AVF   001.48 003.1 m E Sg      2012/09/14 10:13:31.1   0.8                          T               12.5  .36 Ml 2.6         5070275
LOR   002.00 012.2 m E Pg      2012/09/14 10:13:20.9   0.2 200.8  8.1               T                                        5070272
LOR   002.00 012.2 m E Sg      2012/09/14 10:13:46.9   0.2                          T                4.7  .26 Ml 2.5         5070271
LFF   001.81 258.9 m E Sg      2012/09/14 10:13:40.5  -0.1                          T               13.0  .38 Ml 2.5         5071747
MTLF  002.11 200.7 m E Sg      2012/09/14 10:13:50.0   0.1                          T                2.9  .22 Ml 2.3         5071745
MFF   002.69 299.8 m E Sg      2012/09/14 10:14:08.3   0.2                          T                4.5  .28 Ml 2.7         5071746

.
EVENT     283348
    Date      Time       Latitude Longitude    Depth    Ndef Nsta Gap    Mag1  N    Mag2  N    Mag3  N   Author         ID
       rms   OT_Error      Smajor Sminor Az        Err   mdist  Mdist     Err        Err        Err      Quality

2012/09/14 12:39:32.3     46.6917    1.3825      3.0 f    24   10 086  Ml 2.4 11  Md 2.3  6              bulletin    283448
                                                                                                         _ldg
      0.41   +-  0.07       1.6    1.0  173.29 +-  0.0    1.02   2.42   +-0.2      +-0.2                 m i ke

FRANCE
Sta     Dist  EvAz     Phase      Date       Time     TRes  Azim  AzRes  Slow  SRes Def   SNR       Amp   Per   Mag1   Mag2       ID
BGF   001.02 097.0 m E Pn      2012/09/14 12:39:52.3   0.4                          T                                        5070427
BGF   001.02 097.0 m E Sg      2012/09/14 12:40:04.2  -0.4                          T                                Md 2.1  5070421
BGF   001.02 097.0 m E Sn      2012/09/14 12:40:06.1   0.3                          T               31.9  .28 Ml 2.9         5072147
MFF   001.06 265.7 m E Pg      2012/09/14 12:39:52.3   0.3                          T                                        5070425
MFF   001.06 265.7 m E Sg      2012/09/14 12:40:05.2  -0.6                          T                4.7  .16 Ml 2.5 Md 2.2  5070423
AVF   001.36 085.1 m E Pg      2012/09/14 12:39:57.2  -0.4                          T                                        5070424
AVF   001.36 085.1 m E Sg      2012/09/14 12:40:15.3   0.1                          T                4.4  .20 Ml 2.3 Md 2.3  5070422
RJF   001.39 176.1 m E Pg      2012/09/14 12:39:58.2  -0.1                          T                                        5070426
RJF   001.39 176.1 m E Sn      2012/09/14 12:40:14.7   0.0                          T                                        5072145
RJF   001.39 176.1 m E Sg      2012/09/14 12:40:16.0  -0.2                          T                6.0  .22 Ml 2.1 Md 2.3  5070420
SMF   001.69 090.7 m E Pn      2012/09/14 12:40:01.0   0.0                          T                                        5070447
SMF   001.69 090.7 m E Pg      2012/09/14 12:40:03.8   0.0                          T                                        5072142
SMF   001.69 090.7 m E Sn      2012/09/14 12:40:22.1   0.1                          T                                        5072148
SMF   001.69 090.7 m E Sg      2012/09/14 12:40:25.7   0.0                          T                2.6  .21 Ml 2.2 Md 2.3  5070446
LOR   001.79 070.3 m E Pn      2012/09/14 12:40:02.2  -0.2                          T                                        5070450
LOR   001.79 070.3 m E Pg      2012/09/14 12:40:05.7   0.0                          T                                        5072149
LOR   001.79 070.3 m E Sn      2012/09/14 12:40:24.6   0.3                          T                3.5  .24 Ml 2.3 Md 2.6  5070449
CAF   001.83 164.6 m E Pg      2012/09/14 12:40:06.3  -0.1                          T                                        5072143
CAF   001.83 164.6 m E Sg      2012/09/14 12:40:29.7  -0.2                          T                2.7  .24 Ml 2.2         5072144
HYF   001.04 055.7 m E Sn      2012/09/14 12:40:06.5   0.2                          T                                        5072228
LFF   001.81 194.6 m E Sg      2012/09/14 12:40:27.9  -1.3                          T               12.2  .41 Ml 2.5         5072141
FLN   002.42 329.4 m E Sg      2012/09/14 12:40:48.2  -0.3                          T                2.6  .27 Ml 2.1         5072146

.
