EVENT     266788
    Date      Time       Latitude Longitude    Depth    Ndef Nsta Gap    Mag1  N    Mag2  N    Mag3  N   Author         ID
       rms   OT_Error      Smajor Sminor Az        Err   mdist  Mdist     Err        Err        Err      Quality

2011/11/26 15:15:44.3     44.5242    6.8528      4.0 f    15    7 152  Ml 1.9  3                         js067245    266808

      1.10   +-  0.19       4.4    2.5   71.82 +-  0.0    0.21   1.22   +-0.2                            m i ke

FRANCE
Sta     Dist  EvAz     Phase      Date       Time     TRes  Azim  AzRes  Slow  SRes Def   SNR       Amp   Per   Mag1   Mag2       ID
MBDF  000.21 344.0 m E Pg      2011/11/26 15:15:49.2   0.4                          T                                        4792604
MBDF  000.21 344.0 m E Sg      2011/11/26 15:15:52.2   0.4                          T                6.6  .24                4792603
ORIF  000.80 299.9 m E Pg      2011/11/26 15:15:59.2  -0.3                          T                                        4792601
ORIF  000.80 299.9 m E Sg      2011/11/26 15:16:08.6  -1.3                          T                1.6  .24                4792597
SBF   000.78 147.4 m E Pg      2011/11/26 15:15:59.4   0.2                          T                                        4792593
SBF   000.78 147.4 m E Sg      2011/11/26 15:16:09.4   0.0                          T                2.9  .22                4792594
FRF   000.97 188.8 m E Pg      2011/11/26 15:16:01.8  -0.9                          T                                        4792595
FRF   000.97 188.8 m E Sg      2011/11/26 15:16:15.3   0.0                          T                3.7  .18 Ml 2.2         4792599
LPL   001.00 355.1 m E Pg      2011/11/26 15:16:03.1  -0.2                          T                                        4792602
SMRF  001.07 239.6 m E Pg      2011/11/26 15:16:04.8   0.4                          T                                        4792596
SMRF  001.07 239.6 m E Sg      2011/11/26 15:16:19.5   1.2                          T                1.8  .24 Ml 1.7         4792598
LMR   001.22 191.9 m E Sg      2011/11/26 15:16:23.2   0.4                          T                1.3  .20 Ml 1.8         4792600

.
EVENT     266781
    Date      Time       Latitude Longitude    Depth    Ndef Nsta Gap    Mag1  N    Mag2  N    Mag3  N   Author         ID
       rms   OT_Error      Smajor Sminor Az        Err   mdist  Mdist     Err        Err        Err      Quality

2011/11/26 15:53:40.3     42.9508   -1.5455      2.0      35    3 162  Ml 1.2  1  Md 1.2  2              js067245    266801

      0.35   +-  0.11       1.9    1.3   90.51 +-  0.0    0.00   1.39   +-         +-0.3                 m i ke

PYRENEES
Sta     Dist  EvAz     Phase      Date       Time     TRes  Azim  AzRes  Slow  SRes Def   SNR       Amp   Per   Mag1   Mag2       ID
SJPF  000.29 055.2 m E Pg      2011/11/26 15:53:45.5  -0.3                          T                                        4792609
SJPF  000.29 055.2 m E Sg      2011/11/26 15:53:49.8   0.1                          T                1.4  .20        Md 1.4  4792608
ETSF  000.73 093.8 m E Pg      2011/11/26 15:53:54.2   0.1                          T                                        4793228
ETSF  000.73 093.8 m E Sg      2011/11/26 15:54:03.9   0.3                          T                 .3  .18        Md 1.1  4792610
EPF   001.39 086.1 m E Pg      2011/11/26 15:54:06.5   0.3                          T                                        4793226
EPF   001.39 086.1 m E Sg      2011/11/26 15:54:24.2   0.1                          T                 .4  .22 Ml 1.2         4793227

.
EVENT     266782
    Date      Time       Latitude Longitude    Depth    Ndef Nsta Gap    Mag1  N    Mag2  N    Mag3  N   Author         ID
       rms   OT_Error      Smajor Sminor Az        Err   mdist  Mdist     Err        Err        Err      Quality

2011/11/26 18:38:04.9     42.5189     .9580      4.0 f    30    3 048  Ml 1.7  2  Md 2.0  3              js067245    266802

      0.41   +-  0.06       1.3     .9   30.13 +-  0.0    0.19   1.85   +-0.0      +-0.1                 m i ke

PYRENEES
Sta     Dist  EvAz     Phase      Date       Time     TRes  Azim  AzRes  Slow  SRes Def   SNR       Amp   Per   Mag1   Mag2       ID
EPF   000.68 318.5 m E Pg      2011/11/26 18:38:17.6  -0.3                          T                                        4792616
EPF   000.68 318.5 m E Sg      2011/11/26 18:38:26.5  -0.4                          T                2.5  .16        Md 2.0  4792617
MTLF  001.24 048.0 m E Pg      2011/11/26 18:38:27.2  -0.9                          T                                        4792614
MTLF  001.24 048.0 m E Sg      2011/11/26 18:38:44.4   0.4                          T                1.5  .25 Ml 1.7 Md 2.1  4792615
ETSF  001.18 289.3 m E Pg      2011/11/26 18:38:27.2   0.1                          T                                        4792613
ETSF  001.18 289.3 m E P       2011/11/26 18:38:28.3   0.0                          T                                        4792611
ETSF  001.18 289.3 m E Sg      2011/11/26 18:38:42.2  -0.2                          T                2.2  .32 Ml 1.7 Md 2.0  4792612

.
EVENT     266783
    Date      Time       Latitude Longitude    Depth    Ndef Nsta Gap    Mag1  N    Mag2  N    Mag3  N   Author         ID
       rms   OT_Error      Smajor Sminor Az        Err   mdist  Mdist     Err        Err        Err      Quality

2011/11/26 20:13:14.7     43.0936   -1.4289      2.0      20    3 124  Ml 1.1  1  Md 1.2  2              js067245    266803

      0.39   +-  0.12       2.1    1.8  111.63 +-  0.0    0.14   1.30   +-         +-0.0                 m i ke

PYRENEES
Sta     Dist  EvAz     Phase      Date       Time     TRes  Azim  AzRes  Slow  SRes Def   SNR       Amp   Per   Mag1   Mag2       ID
SJPF  000.15 082.4 m E Pg      2011/11/26 20:13:18.1   0.2                          T                                        4792622
SJPF  000.15 082.4 m E Sg      2011/11/26 20:13:20.2   0.2                          T                6.8  .18        Md 1.2  4792621
ETSF  000.67 106.7 m E Pg      2011/11/26 20:13:27.0  -0.5                          T                                        4792620
ETSF  000.67 106.7 m E Sg      2011/11/26 20:13:35.2  -0.9                          T                 .6  .30        Md 1.2  4792619
EPF   001.30 092.2 m E Sg      2011/11/26 20:13:55.9   0.0                          T                 .3  .22 Ml 1.1         4792618

.
EVENT     266784
    Date      Time       Latitude Longitude    Depth    Ndef Nsta Gap    Mag1  N    Mag2  N    Mag3  N   Author         ID
       rms   OT_Error      Smajor Sminor Az        Err   mdist  Mdist     Err        Err        Err      Quality

2011/11/26 20:53:34.8     45.1071    7.0908      3.0 f    22    7 200  Ml 1.6  4  Md 1.7  3              js067245    266804

      1.16   +-  0.16       3.6    1.7   78.98 +-  0.0    0.44   1.82   +-0.1      +-0.1                 m i ke

NORTHERN ITALY
Sta     Dist  EvAz     Phase      Date       Time     TRes  Azim  AzRes  Slow  SRes Def   SNR       Amp   Per   Mag1   Mag2       ID
MBDF  000.44 210.9 m E Pg      2011/11/26 20:53:43.4  -0.1                          T                                        4792639
MBDF  000.44 210.9 m E Sg      2011/11/26 20:53:49.2  -0.1                          T                6.0  .18        Md 1.7  4792640
LPG   000.46 328.6 m E Pg      2011/11/26 20:53:44.0   0.1                          T                                        4792642
LPG   000.46 328.6 m E Sg      2011/11/26 20:53:49.4  -0.6                          T               11.4  .24        Md 1.8  4792641
LPG   000.46 328.6 m E Sn      2011/11/26 20:53:51.2  -0.2                          T                                        4792646
LPL   000.48 328.4 m E Pg      2011/11/26 20:53:44.4   0.1                          T                                        4792643
LPL   000.48 328.4 m E Pn      2011/11/26 20:53:45.5  -0.1                          T                                        4792635
LPL   000.48 328.4 m E Sg      2011/11/26 20:53:50.5  -0.1                          T                4.2  .20        Md 1.8  4792636
LPL   000.48 328.4 m E Sn      2011/11/26 20:53:52.6  -0.3                          T                                        4792645
ORIF  000.88 258.0 m E Pg      2011/11/26 20:53:51.5   0.1                          T                                        4792638
ORIF  000.88 258.0 m E Pn      2011/11/26 20:53:52.5  -0.1                          T                                        4792644
ORIF  000.88 258.0 m E Sg      2011/11/26 20:54:02.8  -0.1                          T                2.2  .29 Ml 1.6         4792637
ORIF  000.88 258.0 m E Sn      2011/11/26 20:54:05.1  -0.1                          T                                        4792632
SBF   001.27 168.7 m E Pn      2011/11/26 20:53:57.8   0.0                          T                                        4792630
SBF   001.27 168.7 m E Sn      2011/11/26 20:54:14.6   0.3                          T                 .7  .19 Ml 1.5         4792629
FRF   001.58 191.8 m E Pg      2011/11/26 20:54:04.6   0.4                          T                                        4792633
FRF   001.58 191.8 m E Sg      2011/11/26 20:54:24.7   0.2                          T                1.2  .24 Ml 1.8         4792631
LMR   001.82 193.5 m E Pn      2011/11/26 20:54:04.8  -0.5                          T                                        4792634

.
EVENT     266789
    Date      Time       Latitude Longitude    Depth    Ndef Nsta Gap    Mag1  N    Mag2  N    Mag3  N   Author         ID
       rms   OT_Error      Smajor Sminor Az        Err   mdist  Mdist     Err        Err        Err      Quality

2011/11/27 04:51:17.6     44.1861    6.9441      2.0      30   10 138  Ml 2.1  8  Md 2.1  2              js067245    266809

      1.27   +-  0.09       2.3    1.4   69.19 +-  0.0    0.48   2.22   +-0.2      +-0.1                 m i ke

FRANCE
Sta     Dist  EvAz     Phase      Date       Time     TRes  Azim  AzRes  Slow  SRes Def   SNR       Amp   Per   Mag1   Mag2       ID
SBF   000.48 132.2 m E Pg      2011/11/27 04:51:27.1   0.2                          T                                        4792140
SBF   000.48 132.2 m E Sg      2011/11/27 04:51:33.4   0.3                          T               15.4  .23        Md 2.1  4792141
MBDF  000.55 347.2 m E Pg      2011/11/27 04:51:28.3  -0.1                          T                                        4792149
MBDF  000.55 347.2 m E Pn      2011/11/27 04:51:31.1  -0.1                          T                                        4792172
MBDF  000.55 347.2 m E Sg      2011/11/27 04:51:35.5  -0.1                          T                7.8  .25        Md 2.1  4792148
FRF   000.66 199.1 m E Pg      2011/11/27 04:51:29.8  -0.3                          T                                        4792153
FRF   000.66 199.1 m E Pn      2011/11/27 04:51:32.1  -0.3                          T                                        4792169
FRF   000.66 199.1 m E Sg      2011/11/27 04:51:38.4  -0.4                          T               14.3  .18                4792152
LMR   000.91 200.4 m E Pg      2011/11/27 04:51:34.2  -0.4                          T                                        4792150
LMR   000.91 200.4 m E Sg      2011/11/27 04:51:46.2  -0.3                          T                8.0  .20 Ml 2.4         4792151
SMRF  001.01 258.5 m E Pg      2011/11/27 04:51:37.1   0.6                          T                                        4792144
SMRF  001.01 258.5 m E Sg      2011/11/27 04:51:49.8   0.1                          T                5.2  .20 Ml 2.2         4792143
SMRF  001.01 258.5 m E Sn      2011/11/27 04:51:51.3   0.2                          T                                        4792170
ORIF  001.06 314.3 m E Pg      2011/11/27 04:51:37.3  -0.2                          T                                        4792147
ORIF  001.06 314.3 m E Sg      2011/11/27 04:51:50.6  -0.6                          T                5.4  .33 Ml 2.1         4792171
LPG   001.32 354.1 m E Pg      2011/11/27 04:51:42.2  -0.4                          T                                        4792145
LPG   001.32 354.1 m E Sg      2011/11/27 04:51:59.5  -0.1                          T                2.7  .32 Ml 1.9         4792174
LPG   001.32 354.1 m E S       2011/11/27 04:52:01.7  -0.2                          T                                        4792167
LPL   001.34 353.6 m E Pg      2011/11/27 04:51:42.6  -0.3                          T                                        4792146
LPL   001.34 353.6 m E Sg      2011/11/27 04:52:00.4   0.2                          T                2.1  .30 Ml 1.8         4792166
VIVF  001.76 293.2 m E Pn      2011/11/27 04:51:47.9   0.5                          T                                        4792139
VIVF  001.76 293.2 m E Pg      2011/11/27 04:51:50.5   0.1                          T                                        4792165
VIVF  001.76 293.2 m E Sn      2011/11/27 04:52:09.4   0.3                          T                1.4  .22 Ml 2.0         4792142
PGF   002.22 136.8 m E Pn      2011/11/27 04:51:53.6  -0.1                          T                                        4792138
PGF   002.22 136.8 m E Sn      2011/11/27 04:52:19.5  -0.6                          T                1.4  .20 Ml 2.3         4792173

.
EVENT     266793
    Date      Time       Latitude Longitude    Depth    Ndef Nsta Gap    Mag1  N    Mag2  N    Mag3  N   Author         ID
       rms   OT_Error      Smajor Sminor Az        Err   mdist  Mdist     Err        Err        Err      Quality

2011/11/27 05:49:41.5     43.1808   -1.0236     10.0 f    73   19 049  Ml 2.6 11  Md 2.6  2              js067245    266813

      0.84   +-  0.09       2.0    1.6  145.46 +-  0.0    0.07   5.39   +-0.3      +-0.4                 m i ke

PYRENEES
Sta     Dist  EvAz     Phase      Date       Time     TRes  Azim  AzRes  Slow  SRes Def   SNR       Amp   Per   Mag1   Mag2       ID
SJPF  000.16 245.5 m E Pg      2011/11/27 05:49:44.8  -0.4                          T   001.0                        Md 2.4  4791927
SJPF  000.16 245.5 m E Sg      2011/11/27 05:49:47.2  -0.6                          T              350.2  .20        Md 2.9  4792181
ETSF  000.44 129.5 m E Pg      2011/11/27 05:49:49.7  -0.5                          T   001.0                                4791922
ETSF  000.44 129.5 m E Sg      2011/11/27 05:49:55.8  -0.3                          T               46.4  .20                4792180
EPF   001.01 098.1 m E Pn      2011/11/27 05:50:00.9   0.7                          T   001.0                                4791905
EPF   001.01 098.1 m E Sg      2011/11/27 05:50:13.2  -0.5                          T   001.0       13.8  .22 Ml 2.6         4791906
LFF   002.17 035.3 m E Pn      2011/11/27 05:50:17.2   1.3                          T   001.0                                4791909
LFF   002.17 035.3 m E Pg      2011/11/27 05:50:21.4  -0.5                          T                                        4792185
LFF   002.17 035.3 m E Sn      2011/11/27 05:50:41.1  -0.2                          T                                        4793248
LFF   002.17 035.3 m E Sg      2011/11/27 05:50:50.0   0.2                          T                7.5  .33 Ml 2.4         4793249
MTLF  002.37 085.0 m E Pn      2011/11/27 05:50:19.0   0.2                          T   001.0                                4791923
MTLF  002.37 085.0 m E Sn      2011/11/27 05:50:46.2   0.0                          T                3.6  .24 Ml 2.5         4793250
CAF   002.83 050.9 m E Pn      2011/11/27 05:50:25.3   0.3                          T   001.0                                4791902
CAF   002.83 050.9 m E P       2011/11/27 05:50:28.5   0.7                          T                                        4792182
CAF   002.83 050.9 m E Sn      2011/11/27 05:50:57.5   0.4                          T                1.9  .13 Ml 2.6         4792183
MFF   003.48 010.0 m E Pn      2011/11/27 05:50:33.3  -0.5                          T   001.0                                4791914
MFF   003.48 010.0 m E Sn      2011/11/27 05:51:12.7   0.2                          T   001.0                                4791915
MFF   003.48 010.0 m E Sg      2011/11/27 05:51:30.3  -0.3                          T   001.0        1.2  .24 Ml 2.4         4791916
LASF  003.65 074.2 m E Pn      2011/11/27 05:50:36.5   0.3                          T   001.0                                4791908
TCF   003.87 035.4 m E Pn      2011/11/27 05:50:38.1  -1.0                          T   001.0                                4791919
TCF   003.87 035.4 m E Sn      2011/11/27 05:51:21.4  -0.5                          T   001.0         .5  .19 Ml 2.1         4791920
TCF   003.87 035.4 m E Sg      2011/11/27 05:51:42.8  -0.1                          T   001.0         .6  .20 Ml 2.2         4791921
BGF   004.36 037.8 m E Pn      2011/11/27 05:50:45.3  -0.5                          T   001.0                                4791901
BGF   004.36 037.8 m E Sg      2011/11/27 05:51:58.3   0.3                          T                6.2  .43 Ml 2.9         4793247
VIVF  004.44 065.9 m E Pn      2011/11/27 05:50:47.0   0.1                          T   001.0                                4791928
AVF   004.76 039.2 m E Pn      2011/11/27 05:50:51.2   0.0                          T   001.0                                4791900
SMF   004.89 043.2 m E Pn      2011/11/27 05:50:53.1   0.0                          T   001.0                                4791917
QUIF  004.97 343.1 m E Pn      2011/11/27 05:50:54.5   0.5                          T   001.0                                4791924
SSF   005.03 038.0 m E Pn      2011/11/27 05:50:55.0   0.1                          T   001.0                                4791918
RJF   002.80 039.8 m E Sn      2011/11/27 05:50:56.4   0.0                          T                                        4792191
RJF   002.80 039.8 m E Sg      2011/11/27 05:51:09.3  -0.2                          T                                        4792190
LOR   005.35 038.5 m E Pn      2011/11/27 05:50:59.5   0.2                          T   001.0                                4791912
LOR   005.35 038.5 m E Sn      2011/11/27 05:51:56.2  -1.0                          T   001.0        3.4  .76 Ml 2.6         4791913
SGMF  005.19 348.6 m E Sn      2011/11/27 05:51:52.7  -0.7                          T   001.0        9.4  .88 Ml 2.9         4791926
ROSF  005.39 343.8 m E Sn      2011/11/27 05:51:56.7  -1.5                          T   001.0       18.8  .88 Ml 3.3         4791925

.
