EVENT     260580
    Date      Time       Latitude Longitude    Depth    Ndef Nsta Gap    Mag1  N    Mag2  N    Mag3  N   Author         ID
       rms   OT_Error      Smajor Sminor Az        Err   mdist  Mdist     Err        Err        Err      Quality

2011/06/20 00:53:14.9     41.1537     .7824     10.0      26    3 150  Ml 1.5  3                         js067245    260580

      0.34   +-  0.08       2.1     .9  126.31 +-  0.0    0.30   2.43   +-0.3                            m i ke

SPAIN
Sta     Dist  EvAz     Phase      Date       Time     TRes  Azim  AzRes  Slow  SRes Def   SNR       Amp   Per   Mag1   Mag2       ID
EPF   001.90 350.2 m E Pg      2011/06/20 00:53:50.3  -0.2                          T                                        4710515
EPF   001.90 350.2 m E Sg      2011/06/20 00:54:15.1   0.1                          T                1.1  .23 Ml 1.9         4710517
ETSF  002.01 330.6 m E Pg      2011/06/20 00:53:52.3  -0.1                          T                                        4710514
ETSF  002.01 330.6 m E Sg      2011/06/20 00:54:18.9   0.6                          T                 .5  .29 Ml 1.5         4710516
MTLF  002.43 025.5 m E Pg      2011/06/20 00:54:00.3   0.2                          T                                        4710512
MTLF  002.43 025.5 m E Sg      2011/06/20 00:54:30.9  -0.5                          T                 .3  .32 Ml 1.2         4710513

.
EVENT     260582
    Date      Time       Latitude Longitude    Depth    Ndef Nsta Gap    Mag1  N    Mag2  N    Mag3  N   Author         ID
       rms   OT_Error      Smajor Sminor Az        Err   mdist  Mdist     Err        Err        Err      Quality

2011/06/20 20:24:38.3     41.3014     .4409      2.0      12    3 109  Ml 1.3  3                         js067245    260582

      0.70   +-  0.18       3.7    3.0  126.37 +-  0.0    0.35   2.43   +-0.2                            m i ke

SPAIN
Sta     Dist  EvAz     Phase      Date       Time     TRes  Azim  AzRes  Slow  SRes Def   SNR       Amp   Per   Mag1   Mag2       ID
EPF   001.73 357.5 m E Pg      2011/06/20 20:25:09.7  -0.9                          T                                        4710519
EPF   001.73 357.5 m E Sg      2011/06/20 20:25:33.2   0.4                          T                 .6  .23 Ml 1.6         4710522
ETSF  001.76 335.3 m E Pg      2011/06/20 20:25:10.5  -0.6                          T                                        4710520
ETSF  001.76 335.3 m E Sg      2011/06/20 20:25:34.1   0.3                          T                 .2  .20 Ml 1.1         4710521
MTLF  002.43 032.3 m E Sg      2011/06/20 20:25:54.6   0.0                          T                 .2  .20 Ml 1.2         4710518

.
EVENT     260583
    Date      Time       Latitude Longitude    Depth    Ndef Nsta Gap    Mag1  N    Mag2  N    Mag3  N   Author         ID
       rms   OT_Error      Smajor Sminor Az        Err   mdist  Mdist     Err        Err        Err      Quality

2011/06/20 20:51:40.2     43.5956    6.7594      2.0       9    4 153  Ml 1.5  1  Md 1.4  2              js067245    260583

      0.09   +-  0.04       1.0     .6  151.80 +-  0.0    0.09   0.94   +-         +-0.2                 m i ke

NEAR SOUTH COAST OF FRANCE
Sta     Dist  EvAz     Phase      Date       Time     TRes  Azim  AzRes  Slow  SRes Def   SNR       Amp   Per   Mag1   Mag2       ID
FRF   000.09 247.0 m E Pg      2011/06/20 20:51:42.2   0.0                          T                                        4710530
FRF   000.09 247.0 m E Sg      2011/06/20 20:51:43.4  -0.2                          T                6.2  .19        Md 1.5  4710531
LMR   000.32 214.9 m E Pg      2011/06/20 20:51:46.5   0.1                          T                                        4710528
LMR   000.32 214.9 m E Sg      2011/06/20 20:51:50.6  -0.1                          T                  1  .19        Md 1.2  4710529
SBF   000.56 061.1 m E Pg      2011/06/20 20:51:50.9   0.0                          T                                        4710526
SBF   000.56 061.1 m E Sg      2011/06/20 20:51:58.1  -0.1                          T                  1  .23                4710527
SMRF  000.94 294.3 m E Pg      2011/06/20 20:51:57.9   0.1                          T                                        4710523
SMRF  000.94 294.3 m E Sn      2011/06/20 20:52:12.0   0.0                          T                1.3  .27 Ml 1.5         4710525
SMRF  000.94 294.3 m E S       2011/06/20 20:52:14.4  -0.1                          T                                        4710524

.
EVENT     260594
    Date      Time       Latitude Longitude    Depth    Ndef Nsta Gap    Mag1  N    Mag2  N    Mag3  N   Author         ID
       rms   OT_Error      Smajor Sminor Az        Err   mdist  Mdist     Err        Err        Err      Quality

2011/06/21 02:10:49.7     43.8045   12.3507     20.0 f    32   11 057  Ml 2.6  5                         js067245    260594

      0.30   +-  0.05       1.5    1.1  171.58 +-  0.0    0.30   7.37   +-0.3                            m i ke

CENTRAL ITALY
Sta     Dist  EvAz     Phase      Date       Time     TRes  Azim  AzRes  Slow  SRes Def   SNR       Amp   Per   Mag1   Mag2       ID
SBF   003.56 272.6 m E P       2011/06/21 02:11:45.4   0.1                          T                                        4710538
SBF   003.56 272.6 m E Sn      2011/06/21 02:12:20.7  -0.2                          T                2.4  .36 Ml 2.4         4710537
FRF   004.14 268.6 m E P       2011/06/21 02:11:53.5  -0.2                          T                                        4710540
FRF   004.14 268.6 m E Sn      2011/06/21 02:12:35.2   0.4                          T                2.5  .42 Ml 2.5         4710536
LMR   004.27 265.7 m E P       2011/06/21 02:11:55.1  -0.2                          T                                        4710539
LPG   004.34 294.9 m E P       2011/06/21 02:11:56.5  -0.2                          T                                        4710543
LPL   004.36 295.1 m E P       2011/06/21 02:11:57.1   0.2                          T                                        4710544
LPL   004.36 295.1 m E Sn      2011/06/21 02:12:40.5   0.3                          T                 .9  .32 Ml 2.2         4710535
SMRF  004.90 274.3 m E Pn      2011/06/21 02:11:59.8  -0.4                          T                                        4710542
SMRF  004.90 274.3 m E P       2011/06/21 02:12:04.6   0.2                          T                                        4710541
ORIF  004.77 285.7 m E P       2011/06/21 02:12:03.9   1.2                          T                                        4710545
CDF   005.80 324.3 m E P       2011/06/21 02:12:16.3  -0.8                          T                                        4710548
CDF   005.80 324.3 m E Sn      2011/06/21 02:13:14.7   0.1                          T                2.2  .43 Ml 2.9         4710532
HAU   005.93 317.2 m E P       2011/06/21 02:12:18.1  -0.8                          T                                        4710547
HAU   005.93 317.2 m E Sn      2011/06/21 02:13:17.4  -0.2                          T                5.0  .37 Ml 3.0         4710534
HAU   005.93 317.2 m E S       2011/06/21 02:13:27.7   0.4                          T                                        4710533
SSF   007.02 300.7 m E P       2011/06/21 02:12:33.2  -1.0                          T                                        4710549
MTLF  007.37 269.9 m E P       2011/06/21 02:12:38.1  -1.0                          T                                        4710546

.
EVENT     260595
    Date      Time       Latitude Longitude    Depth    Ndef Nsta Gap    Mag1  N    Mag2  N    Mag3  N   Author         ID
       rms   OT_Error      Smajor Sminor Az        Err   mdist  Mdist     Err        Err        Err      Quality

2011/06/21 04:25:07.2     43.6286    8.4772     10.0 f    13    6 207  Ml 2.1  4  Md 2.4  1              js067245    260595

      0.59   +-  0.28       8.9    3.2   38.24 +-  0.0    0.79   2.13   +-0.2      +-                    m i ke

CORSICA, FRANCE
Sta     Dist  EvAz     Phase      Date       Time     TRes  Azim  AzRes  Slow  SRes Def   SNR       Amp   Per   Mag1   Mag2       ID
SBF   000.79 287.6 m E Pg      2011/06/21 04:25:21.8  -0.5                          T                                        4710574
SBF   000.79 287.6 m E Sg      2011/06/21 04:25:33.0   0.4                          T               38.7  .20        Md 2.4  4710575
PGF   001.15 160.3 m E Pn      2011/06/21 04:25:27.5  -0.3                          T                                        4710572
PGF   001.15 160.3 m E Sn      2011/06/21 04:25:43.9   1.3                          T                1.3  .26 Ml 1.8         4710573
FRF   001.33 267.7 m E Pn      2011/06/21 04:25:29.9  -0.3                          T                                        4710578
FRF   001.33 267.7 m E Sn      2011/06/21 04:25:47.4   0.5                          T                                        4710579
LMR   001.46 259.1 m E Pn      2011/06/21 04:25:31.7  -0.3                          T                                        4710576
LMR   001.46 259.1 m E Sn      2011/06/21 04:25:50.8   0.8                          T                2.7  .23 Ml 2.1         4710577
MBDF  001.65 312.4 m E Pn      2011/06/21 04:25:35.1   0.4                          T                                        4710580
MBDF  001.65 312.4 m E Sn      2011/06/21 04:25:55.2   0.6                          T                2.0  .27 Ml 2.0         4710581
SMRF  002.13 280.4 m E Pg      2011/06/21 04:25:46.6  -0.2                          T                                        4710582
SMRF  002.13 280.4 m E Sg      2011/06/21 04:26:15.3   1.0                          T                3.8  .34 Ml 2.3         4710583

.
EVENT     260596
    Date      Time       Latitude Longitude    Depth    Ndef Nsta Gap    Mag1  N    Mag2  N    Mag3  N   Author         ID
       rms   OT_Error      Smajor Sminor Az        Err   mdist  Mdist     Err        Err        Err      Quality

2011/06/21 05:30:38.3     43.6159    8.4662     10.0 f    20    8 192  Ml 2.4  6  Md 2.2  1              js067245    260596

      0.51   +-  0.19       5.6    2.7   48.17 +-  0.0    0.79   2.27   +-0.2      +-                    m i ke

CORSICA, FRANCE
Sta     Dist  EvAz     Phase      Date       Time     TRes  Azim  AzRes  Slow  SRes Def   SNR       Amp   Per   Mag1   Mag2       ID
SBF   000.79 288.7 m E Pg      2011/06/21 05:30:52.7  -0.6                          T                                        4710557
SBF   000.79 288.7 m E Sg      2011/06/21 05:31:03.8   0.2                          T              120.4  .20        Md 2.2  4710558
PGF   001.14 159.7 m E Pn      2011/06/21 05:30:58.6  -0.2                          T                                        4710555
PGF   001.14 159.7 m E Sn      2011/06/21 05:31:14.8   1.3                          T                                        4710556
FRF   001.32 268.2 m E Pn      2011/06/21 05:31:00.8  -0.4                          T                                        4710565
FRF   001.32 268.2 m E Sn      2011/06/21 05:31:18.3   0.4                          T                6.9  .23 Ml 2.5         4710560
LMR   001.45 259.5 m E Pn      2011/06/21 05:31:02.5  -0.4                          T                                        4710564
LMR   001.45 259.5 m E Sn      2011/06/21 05:31:21.7   0.7                          T                4.2  .20 Ml 2.4         4710559
MBDF  001.65 312.9 m E Pn      2011/06/21 05:31:05.9   0.1                          T                                        4710562
MBDF  001.65 312.9 m E Sn      2011/06/21 05:31:26.3   0.5                          T               14.8  .52 Ml 2.6         4710563
ORIF  002.27 305.9 m E Pn      2011/06/21 05:31:13.8  -0.4                          T                                        4710570
ORIF  002.27 305.9 m E Sn      2011/06/21 05:31:40.8   0.3                          T                6.2  .56 Ml 2.3         4710569
SMRF  002.12 280.8 m E Pg      2011/06/21 05:31:17.7  -0.1                          T                                        4710566
SMRF  002.12 280.8 m E Sg      2011/06/21 05:31:46.1   0.9                          T               12.6  .38 Ml 2.8         4710561
LPG   002.25 327.5 m E Pg      2011/06/21 05:31:20.3  -0.1                          T                                        4710567
LPG   002.25 327.5 m E Sn      2011/06/21 05:31:39.9  -0.4                          T                4.3  .46 Ml 2.2         4710568

.
EVENT     260603
    Date      Time       Latitude Longitude    Depth    Ndef Nsta Gap    Mag1  N    Mag2  N    Mag3  N   Author         ID
       rms   OT_Error      Smajor Sminor Az        Err   mdist  Mdist     Err        Err        Err      Quality

2011/06/21 10:36:43.7     44.1086    7.1504      2.0      18    9 095  Ml 2.0  6  Md 2.0  1              js067245    260603

      0.32   +-  0.08       1.7    1.2   80.84 +-  0.0    0.10   2.06   +-0.4      +-                    m i ke

NORTHERN ITALY
Sta     Dist  EvAz     Phase      Date       Time     TRes  Azim  AzRes  Slow  SRes Def   SNR       Amp   Per   Mag1   Mag2       ID
SBF   000.32 140.0 m E Pg      2011/06/21 10:36:50.3   0.3                          T                                        4710590
SBF   000.32 140.0 m E Sg      2011/06/21 10:36:54.9   0.5                          T               12.8  .36        Md 2.0  4710591
FRF   000.66 213.8 m E Pg      2011/06/21 10:36:56.0  -0.2                          T                                        4710586
FRF   000.66 213.8 m E Sg      2011/06/21 10:37:05.0   0.3                          T                6.1  .21                4710587
MBDF  000.68 336.4 m E Pg      2011/06/21 10:36:56.7   0.0                          T                                        4710843
MBDF  000.68 336.4 m E Sg      2011/06/21 10:37:05.0  -0.5                          T                2.6  .22                4710844
LMR   000.90 211.2 m E Pg      2011/06/21 10:37:00.6  -0.1                          T                                        4710588
LMR   000.90 211.2 m E Sg      2011/06/21 10:37:12.5   0.0                          T                7.4  .20 Ml 2.4         4710589
SMRF  001.14 263.9 m E Pg      2011/06/21 10:37:06.0   0.8                          T                                        4710584
SMRF  001.14 263.9 m E Sg      2011/06/21 10:37:20.3   0.3                          T                9.1  .24 Ml 2.5         4710585
ORIF  001.22 312.1 m E Sg      2011/06/21 10:37:22.5   0.2                          T                1.6  .27 Ml 1.7         4710848
LPG   001.42 348.6 m E Sg      2011/06/21 10:37:28.8  -0.1                          T                 .5  .17 Ml 1.4         4710846
LPL   001.44 348.2 m E Sg      2011/06/21 10:37:29.4   0.0                          T                1.3  .29 Ml 1.7         4710847
PGF   002.06 138.5 m E Sn      2011/06/21 10:37:41.6  -0.9                          T                1.4  .20 Ml 2.3         4710845

.
EVENT     260604
    Date      Time       Latitude Longitude    Depth    Ndef Nsta Gap    Mag1  N    Mag2  N    Mag3  N   Author         ID
       rms   OT_Error      Smajor Sminor Az        Err   mdist  Mdist     Err        Err        Err      Quality

2011/06/21 10:37:38.2     44.6914    7.2560      2.0      27    9 171  Ml 2.5  8  Md 2.2  1              js067245    260604

      0.33   +-  0.10       1.9    1.1   76.72 +-  0.0    0.35   1.85   +-0.3      +-                    m i ke

NORTHERN ITALY
Sta     Dist  EvAz     Phase      Date       Time     TRes  Azim  AzRes  Slow  SRes Def   SNR       Amp   Per   Mag1   Mag2       ID
MBDF  000.35 276.0 m E Pg      2011/06/21 10:37:45.5   0.4                          T                                        4710857
MBDF  000.35 276.0 m E Sg      2011/06/21 10:37:49.8   0.0                          T              214.4  .26        Md 2.2  4710858
SBF   000.84 171.1 m E Pg      2011/06/21 10:37:53.8  -0.2                          T                                        4710849
SBF   000.84 171.1 m E Sg      2011/06/21 10:38:04.9  -0.1                          T                9.1  .20                4710850
LPG   000.88 336.3 m E Pg      2011/06/21 10:37:55.2   0.1                          T                                        4710854
LPG   000.88 336.3 m E Sg      2011/06/21 10:38:06.7   0.1                          T               12.8  .22 Ml 2.5         4710873
LPL   000.90 336.0 m E Pg      2011/06/21 10:37:55.6   0.2                          T                                        4710855
LPL   000.90 336.0 m E Sg      2011/06/21 10:38:07.2   0.0                          T               14.8  .26 Ml 2.5         4710874
ORIF  001.01 283.5 m E Pg      2011/06/21 10:37:57.5   0.3                          T                                        4710856
ORIF  001.01 283.5 m E Sg      2011/06/21 10:38:09.5  -0.7                          T                8.0  .22 Ml 2.4         4710875
FRF   001.21 201.4 m E Pg      2011/06/21 10:38:01.0   0.2                          T                                        4710852
FRF   001.21 201.4 m E Sg      2011/06/21 10:38:16.6   0.1                          T               15.3  .20 Ml 2.8         4710871
SMRF  001.40 239.9 m E Pg      2011/06/21 10:38:04.8   0.4                          T                                        4710853
SMRF  001.40 239.9 m E Sg      2011/06/21 10:38:22.9   0.4                          T                3.1  .24 Ml 2.1         4710872
LMR   001.46 201.9 m E Pg      2011/06/21 10:38:05.2  -0.2                          T                                        4710851
LMR   001.46 201.9 m E Sg      2011/06/21 10:38:24.5   0.2                          T               18.3  .24 Ml 2.9         4710870
VIVF  001.85 276.0 m E Pn      2011/06/21 10:38:09.2   0.0                          T                                        4710878
VIVF  001.85 276.0 m E P       2011/06/21 10:38:10.9  -0.4                          T                                        4710879
VIVF  001.85 276.0 m E Pg      2011/06/21 10:38:12.6   0.0                          T                                        4710877
VIVF  001.85 276.0 m E Sg      2011/06/21 10:38:36.5   0.1                          T                2.4  .30 Ml 2.1         4710876

.
EVENT     260614
    Date      Time       Latitude Longitude    Depth    Ndef Nsta Gap    Mag1  N    Mag2  N    Mag3  N   Author         ID
       rms   OT_Error      Smajor Sminor Az        Err   mdist  Mdist     Err        Err        Err      Quality

2011/06/21 14:28:53.3     43.1226    -.5428      2.0       6    3 170             Md 1.6  2              js067245    260614

      0.32   +-  0.11       3.4    1.4    9.87 +-  0.0    0.12   0.65              +-0.1                 m i ke

PYRENEES
Sta     Dist  EvAz     Phase      Date       Time     TRes  Azim  AzRes  Slow  SRes Def   SNR       Amp   Per   Mag1   Mag2       ID
ETSF  000.22 183.1 m E Pg      2011/06/21 14:28:57.8  -0.1                          T                                        4710882
ETSF  000.22 183.1 m E Sg      2011/06/21 14:29:01.1   0.1                          T                6.2  .18        Md 1.6  4710883
SJPF  000.50 269.2 m E Pg      2011/06/21 14:29:02.6  -0.2                          T                                        4710880
SJPF  000.50 269.2 m E Sg      2011/06/21 14:29:09.3  -0.2                          T                3.0  .22        Md 1.5  4710881
EPF   000.65 097.8 m E Pg      2011/06/21 14:29:05.7  -0.1                          T                                        4710884
EPF   000.65 097.8 m E Sg      2011/06/21 14:29:14.4   0.1                          T                2.4  .27                4710885

.
