EVENT     278198
    Date      Time       Latitude Longitude    Depth    Ndef Nsta Gap    Mag1  N    Mag2  N    Mag3  N   Author         ID
       rms   OT_Error      Smajor Sminor Az        Err   mdist  Mdist     Err        Err        Err      Quality

2012/06/15 10:21:04.5     47.8173    5.8798       .0 f    18   10 083  Ml 2.4  6  Md 2.2  1              bulletin    278298
                                                                                                         _ldg
      0.99   +-  0.11       2.3    1.8  159.07 +-  0.0    0.37   1.82   +-0.2      +-                    m i km

FRANCE
Sta     Dist  EvAz     Phase      Date       Time     TRes  Azim  AzRes  Slow  SRes Def   SNR       Amp   Per   Mag1   Mag2       ID
HAU   000.37 058.9 m E Pg      2012/06/15 10:21:11.4  -0.4                          T                                        5019951
HAU   000.37 058.9 m E Sg      2012/06/15 10:21:16.6  -0.4                          T               67.8  .82        Md 2.2  5019952
HINF  000.66 089.7 m E Pg      2012/06/15 10:21:17.5   0.3                          T                                        5019942
HINF  000.66 089.7 m E Sg      2012/06/15 10:21:25.9  -0.1                          T               15.1  .64                5019943
PAGF  000.75 352.1 m E Pg      2012/06/15 10:21:19.1   0.3 169.2  -2.8              T                                        5019948
PAGF  000.75 352.1 m E Sn      2012/06/15 10:21:32.6   0.2 168.1  -3.9              T               12.8  .36                5019949
SFTF  000.69 304.8 m E Pn      2012/06/15 10:21:20.0   0.0 128.2  4.0               T                                        5019944
SFTF  000.69 304.8 m E Sg      2012/06/15 10:21:27.2   0.3                          T               15.1  .44                5019945
MEZF  000.88 321.3 m E Pg      2012/06/15 10:21:20.5  -0.8 132.1  -8.6              T                                        5019946
MEZF  000.88 321.3 m E Sn      2012/06/15 10:21:36.0   0.4                          T               10.5  .44 Ml 2.1         5019947
CDF   001.11 057.0 m E Pg      2012/06/15 10:21:26.0   0.4                          T                                        5019956
CDF   001.11 057.0 m E Sg      2012/06/15 10:21:40.6   0.5                          T                8.7  .52 Ml 2.2         5019950
CABF  001.22 173.2 m E Pg      2012/06/15 10:21:27.4  -0.1                          T                                        5019940
CABF  001.22 173.2 m E Sg      2012/06/15 10:21:43.4  -0.1                          T               13.7  .52 Ml 2.3         5019941
LOR   001.48 248.9 m E Pg      2012/06/15 10:21:32.4   0.1  70.2  2.8               T                                        5019953
LOR   001.48 248.9 m E Sg      2012/06/15 10:21:51.6   0.1  70.2  2.8               T               10.2  .48 Ml 2.4         5019955
SSF   001.78 245.7 m E Sg      2012/06/15 10:22:00.9  -0.1                          T                8.1  .48 Ml 2.5         5019954
SMF   001.82 230.6 m E Sg      2012/06/15 10:22:02.4   0.2                          T               14.3  .48 Ml 2.6         5019939

.
EVENT     278223
    Date      Time       Latitude Longitude    Depth    Ndef Nsta Gap    Mag1  N    Mag2  N    Mag3  N   Author         ID
       rms   OT_Error      Smajor Sminor Az        Err   mdist  Mdist     Err        Err        Err      Quality

2012/06/15 14:16:43.0     47.9216    6.3043       .0 f     9    5 199  Ml 1.8  1  Md 1.8  2              bulletin    278323
                                                                                                         _ldg
      0.35   +-  0.15       3.2    1.6   30.86 +-  0.0    0.09   1.02   +-         +-0.3                 m i km

FRANCE
Sta     Dist  EvAz     Phase      Date       Time     TRes  Azim  AzRes  Slow  SRes Def   SNR       Amp   Per   Mag1   Mag2       ID
HAU   000.09 019.3 m E Pg      2012/06/15 14:16:45.3   0.0                          T                                        5019961
HAU   000.09 019.3 m E Sg      2012/06/15 14:16:46.8   0.1                          T              155.9  .56        Md 2.0  5019962
THEF  000.37 326.0 m E Pg      2012/06/15 14:16:50.5   0.1                          T                                        5019957
THEF  000.37 326.0 m E Sg      2012/06/15 14:16:55.9   0.4                          T               59.5 1.12                5019958
HINF  000.38 105.7 m E Pg      2012/06/15 14:16:50.8   0.1                          T                                        5019959
HINF  000.38 105.7 m E Sg      2012/06/15 14:16:56.0   0.0                          T               52.2 1.04        Md 1.6  5019960
CDF   000.82 052.6 m E Pg      2012/06/15 14:16:58.4  -0.3                          T                                        5019964
CDF   000.82 052.6 m E Sg      2012/06/15 14:17:09.7   0.2                          T                2.5  .31                5019965
MEZF  001.02 305.2 m E Sn      2012/06/15 14:17:17.0  -0.4 127.4  3.2               T                3.5  .38 Ml 1.8         5019963

.
EVENT     278224
    Date      Time       Latitude Longitude    Depth    Ndef Nsta Gap    Mag1  N    Mag2  N    Mag3  N   Author         ID
       rms   OT_Error      Smajor Sminor Az        Err   mdist  Mdist     Err        Err        Err      Quality

2012/06/15 15:25:27.3     44.7726    7.2648     10.0 f    38    9 142  Ml 2.0  6  Md 2.0  3              bulletin    278324
                                                                                                         _ldg
      0.67   +-  0.13       3.2    1.7   76.45 +-  0.0    0.06   1.85   +-0.2      +-0.1                 m i ke

NORTHERN ITALY
Sta     Dist  EvAz     Phase      Date       Time     TRes  Azim  AzRes  Slow  SRes Def   SNR       Amp   Per   Mag1   Mag2       ID
MBDF  000.35 262.8 m E Pg      2012/06/15 15:25:34.5   0.0                          T                                        5002781
MBDF  000.35 262.8 m E Sg      2012/06/15 15:25:38.4  -0.9                          T               16.8  .22        Md 1.9  5002777
LPG   000.81 333.6 m E Pg      2012/06/15 15:25:42.9  -0.1                          T                                        5002779
LPG   000.81 333.6 m E Sg      2012/06/15 15:25:52.9  -0.7                          T                6.9  .22        Md 2.1  5002774
LPL   000.83 333.3 m E Pg      2012/06/15 15:25:43.3   0.0                          T                                        5002780
LPL   000.83 333.3 m E Sg      2012/06/15 15:25:53.5  -0.8                          T                8.5  .26        Md 2.1  5002775
SBF   000.92 172.3 m E Pg      2012/06/15 15:25:45.8   1.1                          T                                        5002765
SBF   000.92 172.3 m E Sg      2012/06/15 15:25:58.6   2.0                          T                5.2  .18 Ml 2.2         5002764
ORIF  001.00 278.9 m E Pg      2012/06/15 15:25:45.9  -0.3                          T                                        5002778
ORIF  001.00 278.9 m E Sg      2012/06/15 15:25:58.1  -1.0                          T                4.6  .22 Ml 2.1         5002776
FRF   001.29 200.4 m E Pg      2012/06/15 15:25:52.4   1.0                          T                                        5002771
FRF   001.29 200.4 m E Sg      2012/06/15 15:26:08.9   0.7                          T                2.3  .18 Ml 2.1         5002770
SMRF  001.45 237.3 m E Pn      2012/06/15 15:25:53.5   1.6                          T                                        5002767
SMRF  001.45 237.3 m E Sn      2012/06/15 15:26:11.3   1.4                          T                1.2  .29 Ml 1.6         5002766
LMR   001.54 201.0 m E Pg      2012/06/15 15:25:56.6   0.6                          T                                        5002769
LMR   001.54 201.0 m E Sg      2012/06/15 15:26:16.0   0.2                          T                2.0  .23 Ml 2.0         5002768
VIVF  001.85 273.5 m E Pn      2012/06/15 15:25:58.3   0.9                          T                                        5002773
VIVF  001.85 273.5 m E Sn      2012/06/15 15:26:20.3   0.9                          T                                        5002772

.
EVENT     278226
    Date      Time       Latitude Longitude    Depth    Ndef Nsta Gap    Mag1  N    Mag2  N    Mag3  N   Author         ID
       rms   OT_Error      Smajor Sminor Az        Err   mdist  Mdist     Err        Err        Err      Quality

2012/06/15 22:13:48.4     44.8680   11.3514      2.0     111   32 059  Ml 4.0 18                         bulletin    278326
                                                                                                         _ldg
      1.05   +-  0.12       3.5    2.5   60.22 +-  0.0    0.20  10.48   +-0.3                            m i ke

NORTHERN ITALY
Sta     Dist  EvAz     Phase      Date       Time     TRes  Azim  AzRes  Slow  SRes Def   SNR       Amp   Per   Mag1   Mag2       ID
PGF   002.88 217.2 m E Pn      2012/06/15 22:14:33.8   0.3                          T                                        5002988
PGF   002.88 217.2 m E Sn      2012/06/15 22:15:06.5  -0.2                          T   001.0      295.6  .64 Ml 4.3         5002966
SBF   002.98 251.7 m E Pn      2012/06/15 22:14:35.8   0.9                          T   001.0                                5002967
SBF   002.98 251.7 m E Sn      2012/06/15 22:15:10.2   1.1                          T              614.9  .60 Ml 4.4         5002987
MBDF  003.26 269.1 m E Pn      2012/06/15 22:14:38.4  -0.4                          T   001.0                                5002950
MBDF  003.26 269.1 m E Sn      2012/06/15 22:15:15.5  -0.4                          T   001.0      191.2  .68 Ml 3.9         5002959
LPG   003.31 282.6 m E Pn      2012/06/15 22:14:40.3   0.6                          T   001.0                                5002961
LPL   003.33 282.9 m E Pn      2012/06/15 22:14:41.3   1.5                          T   001.0                                5002964
FRF   003.63 250.5 m E Pn      2012/06/15 22:14:44.2   0.6                          T   001.0                                5002949
FRF   003.63 250.5 m E Sn      2012/06/15 22:15:23.6  -0.8                          T   001.0       86.7  .40 Ml 3.9         5002951
LMR   003.81 248.0 m E Pn      2012/06/15 22:14:46.3   0.2                          T   001.0                                5002956
LMR   003.81 248.0 m E Sn      2012/06/15 22:15:26.6  -2.2                          T   001.0       98.6  .34 Ml 4.1         5002957
ORIF  003.89 272.7 m E Pn      2012/06/15 22:14:48.5   1.2                          T   001.0                                5002978
CABF  004.08 297.2 m E Pn      2012/06/15 22:14:50.5   0.7                          T   001.0                                5002976
CABF  004.08 297.2 m E Sn      2012/06/15 22:15:33.1  -2.2                          T   001.0       70.1  .56 Ml 3.8         5002977
HINF  004.29 315.0 m E Pn      2012/06/15 22:14:53.1   0.4                          T   001.0                                5002947
SMRF  004.23 259.9 m E Pn      2012/06/15 22:14:56.0   4.1                          T   001.0                                5002939
SMRF  004.23 259.9 m E Sn      2012/06/15 22:15:38.6  -0.4                          T   001.0       71.5  .68 Ml 3.7         5002940
CDF   004.52 323.1 m E Pn      2012/06/15 22:14:56.6   0.7                          T   001.0                                5002945
CDF   004.52 323.1 m E Sn      2012/06/15 22:15:46.1   0.2                          T   001.0                                5002946
CDF   004.52 323.1 m E Sg      2012/06/15 22:16:07.7  -2.4                          T   001.0      113.6  .66 Ml 4.1         5002948
HAU   004.67 314.0 m E Pn      2012/06/15 22:14:58.2   0.4                          T   001.0                                5002953
HAU   004.67 314.0 m E Sn      2012/06/15 22:15:47.1  -2.3                          T   001.0       65.6  .30 Ml 3.9         5002954
VIVF  004.75 272.2 m E Pn      2012/06/15 22:14:59.3   0.4                          T   001.0                                5002937
VIVF  004.75 272.2 m E Sn      2012/06/15 22:15:50.7  -0.6                          T   001.0                                5002938
LASF  005.42 264.2 m E Pn      2012/06/15 22:15:08.8   0.8                          T   001.0                                5002955
PAGF  005.34 315.6 m E Pn      2012/06/15 22:15:09.0   2.0 135.6  4.0               T                                        5002991
SFTF  005.49 309.7 m E Pn      2012/06/15 22:15:09.9   0.9 129.8  4.7               T                                        5002990
SMF   005.55 291.3 m E Pn      2012/06/15 22:15:10.1   0.3                          T   001.0                                5002968
SMF   005.55 291.3 m E Sn      2012/06/15 22:16:09.2  -1.2                          T   001.0       33.8  .43 Ml 3.9         5002969
MEZF  005.66 312.2 m E Pn      2012/06/15 22:15:12.5   1.3                          T   001.0                                5002962
LOR   005.74 297.4 m E Pn      2012/06/15 22:15:12.9   0.6 117.8  5.8               T   001.0                                5002958
LOR   005.74 297.4 m E Sn      2012/06/15 22:16:12.4  -2.5                          T   001.0       62.5  .46 Ml 4.2         5002960
SSF   005.89 294.6 m E Pn      2012/06/15 22:15:14.7   0.3                          T   001.0                                5002970
SSF   005.89 294.6 m E Sn      2012/06/15 22:16:17.2  -1.4                          T   001.0       21.0  .48 Ml 3.8         5002971
AVF   005.91 291.8 m E Pn      2012/06/15 22:15:15.1   0.4                          T   001.0                                5002941
AVF   005.91 291.8 m E Sn      2012/06/15 22:16:16.7  -2.3                          T   001.0       32.6  .72 Ml 3.7         5002942
BGF   006.19 288.8 m E Pn      2012/06/15 22:15:19.0   0.5                          T   001.0                                5002943
HYF   006.52 294.7 m E Pn      2012/06/15 22:15:24.2   1.2                          T                                        5002989
TCF   006.57 285.7 m E Pn      2012/06/15 22:15:24.6   0.9                          T   001.0                                5002972
TCF   006.57 285.7 m E Sn      2012/06/15 22:16:31.8  -3.0                          T   001.0       16.1  .44 Ml 3.8         5002974
CAF   006.60 273.8 m E Pn      2012/06/15 22:15:25.2   1.1                          T   001.0                                5002944
MTLF  006.75 260.1 m E Pn      2012/06/15 22:15:29.1   2.9                          T   001.0                                5002963
MTLF  006.75 260.1 m E Sn      2012/06/15 22:16:36.8  -2.3                          T   001.0        5.3  .42 Ml 3.3         5002973
BAIF  007.10 319.6 m E Pn      2012/06/15 22:15:34.6   3.8                          T   001.0                                5002975
MFF   008.23 286.2 m E Pn      2012/06/15 22:15:46.7   0.5                          T   001.0                                5002965
GRR   009.11 297.1 m E Pn      2012/06/15 22:15:59.7   1.5                          T   001.0                                5002952
SGMF  010.16 294.4 m E Pn      2012/06/15 22:16:15.7   3.2                          T   001.0                                5002980
QUIF  010.48 292.1 m E Pn      2012/06/15 22:16:17.6   0.7                          T   001.0                                5002979

.
EVENT     278264
    Date      Time       Latitude Longitude    Depth    Ndef Nsta Gap    Mag1  N    Mag2  N    Mag3  N   Author         ID
       rms   OT_Error      Smajor Sminor Az        Err   mdist  Mdist     Err        Err        Err      Quality

2012/06/16 00:05:22.9     48.1703    7.6651     16.0      22    8 042  Ml 1.8  5  Md 1.9  2              bulletin    278364
                                                                                                         _ldg
      0.29   +-  0.05       1.0     .8   17.64 +-  0.8    0.21   1.77   +-0.2      +-0.2                 m i ke

FRANCE
Sta     Dist  EvAz     Phase      Date       Time     TRes  Azim  AzRes  Slow  SRes Def   SNR       Amp   Per   Mag1   Mag2       ID
CDF   000.36 313.1 m E Pg      2012/06/16 00:05:30.1  -0.2                          T                                        5006223
CDF   000.36 313.1 m E Sg      2012/06/16 00:05:35.1  -0.3                          T                4.3  .36        Md 1.7  5006222
HINF  000.65 237.3 m E Pg      2012/06/16 00:05:35.3  -0.1                          T                                        5006217
HINF  000.65 237.3 m E Sg      2012/06/16 00:05:44.4   0.2                          T                3.0  .24        Md 2.0  5006216
LANF  000.82 006.5 m E Pg      2012/06/16 00:05:38.4   0.0                          T                                        5019970
LANF  000.82 006.5 m E Sg      2012/06/16 00:05:49.5   0.3                          T                3.9  .38                5019971
HAU   000.90 259.9 m E Pg      2012/06/16 00:05:40.0   0.0                          T                                        5006215
HAU   000.90 259.9 m E Sg      2012/06/16 00:05:52.0   0.2                          T                2.8  .26 Ml 1.6         5006214
THEF  001.12 273.6 m E Pg      2012/06/16 00:05:44.1   0.1                          T                                        5006213
THEF  001.12 273.6 m E Sg      2012/06/16 00:05:58.9   0.3                          T                1.5  .18 Ml 1.8         5006212
PAGF  001.35 287.3 m E Pg      2012/06/16 00:05:47.6  -0.6                          T                                        5006221
PAGF  001.35 287.3 m E Sg      2012/06/16 00:06:05.5  -0.2                          T                1.4  .23 Ml 1.8         5006220
SFTF  001.76 272.1 m E Pn      2012/06/16 00:05:51.2   0.1                          T                                        5006218
SFTF  001.76 272.1 m E Sn      2012/06/16 00:06:12.0   0.3                          T                                        5019973
SFTF  001.76 272.1 m E Sg      2012/06/16 00:06:18.4  -0.1                          T                1.4  .20 Ml 2.0         5006219
MEZF  001.77 281.7 m E Pg      2012/06/16 00:05:56.0   0.0                          T                                        5019972
MEZF  001.77 281.7 m E Sg      2012/06/16 00:06:19.0   0.0                          T                2.5  .36 Ml 2.0         5019974

.
