EVENT     295286
    Date      Time       Latitude Longitude    Depth    Ndef Nsta Gap    Mag1  N    Mag2  N    Mag3  N   Author         ID
       rms   OT_Error      Smajor Sminor Az        Err   mdist  Mdist     Err        Err        Err      Quality

2013/04/04 02:27:16.3     37.7958   -1.8192     10.0 f   171   26 116  Ml 3.7 16                         bulletin    295386
                                                                                                         _ldg
      1.00   +-  0.11       2.5    1.4  144.18 +-  0.0    0.46  13.00   +-0.3                            m i ke

SPAIN
Sta     Dist  EvAz     Phase      Date       Time     TRes  Azim  AzRes  Slow  SRes Def   SNR       Amp   Per   Mag1   Mag2       ID
ETSF  005.19 010.3 m E Pn      2013/04/04 02:28:32.8   0.8                          T                                        5243856
ETSF  005.19 010.3 m E Pg      2013/04/04 02:28:52.3   0.0                          T                                        5243877
ETSF  005.19 010.3 m E Sn      2013/04/04 02:29:27.8  -0.4                          T                                        5243878
ETSF  005.19 010.3 m E Sg      2013/04/04 02:29:58.0  -0.8                          T               41.7  .58 Ml 3.8         5243887
SJPF  005.33 004.7 m E Pn      2013/04/04 02:28:34.7   0.9                          T                                        5243852
SJPF  005.33 004.7 m E Pg      2013/04/04 02:28:54.8  -0.1                          T                                        5250361
SJPF  005.33 004.7 m E Sn      2013/04/04 02:29:31.3  -0.4                          T                                        5243876
SJPF  005.33 004.7 m E Sg      2013/04/04 02:30:02.8  -0.4                          T               57.0  .60 Ml 3.9         5243886
EPF   005.48 016.8 m E Pn      2013/04/04 02:28:36.7   0.8                          T                                        5243855
EPF   005.48 016.8 m E Pg      2013/04/04 02:28:57.2  -0.5                          T                                        5250362
EPF   005.48 016.8 m E Sn      2013/04/04 02:29:34.6  -0.6                          T               23.3  .37 Ml 3.8         5243858
EPF   005.48 016.8 m E Sg      2013/04/04 02:30:07.5  -0.5                          T               49.0  .55 Ml 3.9         5243888
MTLF  006.33 027.7 m E Pn      2013/04/04 02:28:49.2   1.8                          T                                        5243854
MTLF  006.33 027.7 m E Sn      2013/04/04 02:29:55.5   0.0                          T                5.9  .42 Ml 3.3         5243857
MTLF  006.33 027.7 m E Sg      2013/04/04 02:30:33.6  -0.9                          T               13.2  .45 Ml 3.6         5243889
LFF   007.39 014.3 m E Pn      2013/04/04 02:29:02.0   0.2                          T                                        5243851
LFF   007.39 014.3 m E Pg      2013/04/04 02:29:34.1   1.3                          T                                        5250360
LFF   007.39 014.3 m E Sn      2013/04/04 02:30:20.2  -0.7                          T               12.5  .43 Ml 3.6         5250359
LASF  007.60 032.6 m E Pn      2013/04/04 02:29:05.0   0.3                          T                                        5243880
LASF  007.60 032.6 m E Sn      2013/04/04 02:30:25.7  -0.2                          T                                        5250357
LASF  007.60 032.6 m E Sg      2013/04/04 02:31:13.2  -0.9                          T               49.2 1.22 Ml 4.0         5250358
CAF   007.70 021.1 m E Pn      2013/04/04 02:29:06.8   0.7                          T                                        5243853
CAF   007.70 021.1 m E Sn      2013/04/04 02:30:26.8  -1.4                          T               10.0  .56 Ml 3.6         5243885
RJF   007.91 017.4 m E Pn      2013/04/04 02:29:08.7  -0.2                          T                                        5243850
RJF   007.91 017.4 m E Sn      2013/04/04 02:30:32.3  -0.8                          T                4.5  .37 Ml 3.2         5243862
LMR   008.41 046.3 m E Pn      2013/04/04 02:29:15.4  -0.3                          T                                        5243883
LMR   008.41 046.3 m E Sn      2013/04/04 02:30:45.0  -0.1                          T                3.6  .36 Ml 3.5         5243884
VIVF  008.58 032.6 m E Pn      2013/04/04 02:29:18.0   0.0                          T                                        5243881
MFF   008.89 007.5 m E Pn      2013/04/04 02:29:22.3   0.1                          T                                        5243865
MFF   008.89 007.5 m E Sn      2013/04/04 02:30:56.0  -0.5                          T                2.2  .33 Ml 3.5         5243860
TCF   009.00 018.2 m E Pn      2013/04/04 02:29:23.7  -0.1                          T                                        5243864
TCF   009.00 018.2 m E Sn      2013/04/04 02:30:58.8  -0.5                          T                2.9  .40 Ml 3.5         5243861
ORIF  009.17 036.7 m E Pn      2013/04/04 02:29:26.5   0.4                          T                                        5243879
BGF   009.41 020.1 m E Pn      2013/04/04 02:29:29.1  -0.3                          T                                        5243849
PGF   009.54 056.8 m E Pn      2013/04/04 02:29:31.3   0.1                          T                                        5250363
AVF   009.77 021.4 m E Pn      2013/04/04 02:29:34.4   0.2                          T                                        5243863
SMF   009.79 023.6 m E Pn      2013/04/04 02:29:34.4  -0.1                          T                                        5243874
SSF   010.06 021.3 m E Pn      2013/04/04 02:29:37.9  -0.2                          T                                        5243871
LPL   010.02 036.9 m E Pn      2013/04/04 02:29:38.0   0.1                          T                                        5243882
HYF   010.02 017.7 m E Pn      2013/04/04 02:29:38.2   0.5                          T                                        5243875
QUIF  010.16 354.9 m E Pn      2013/04/04 02:29:39.5  -0.1                          T                                        5243873
QUIF  010.16 354.9 m E Sn      2013/04/04 02:31:26.7  -0.4                          T                9.6  .35 Ml 4.2         5243872
SGMF  010.47 357.3 m E Pn      2013/04/04 02:29:43.3  -0.4                          T                                        5243866
ROSF  010.59 354.7 m E Pn      2013/04/04 02:29:44.9  -0.5                          T                                        5243867
ROSF  010.59 354.7 m E Sn      2013/04/04 02:31:37.1  -0.1                          T               18.1  .54 Ml 4.3         5243859
GRR   010.61 003.5 m E Pn      2013/04/04 02:29:45.9   0.2                          T                                        5243868
LDF   010.86 006.0 m E Pn      2013/04/04 02:29:49.6   0.5                          T                                        5243869
BAIF  013.00 017.5 m E Pn      2013/04/04 02:30:17.5  -0.6                          T                                        5243870

.
EVENT     295416
    Date      Time       Latitude Longitude    Depth    Ndef Nsta Gap    Mag1  N    Mag2  N    Mag3  N   Author         ID
       rms   OT_Error      Smajor Sminor Az        Err   mdist  Mdist     Err        Err        Err      Quality

2013/04/04 04:22:20.7     51.7458    7.0768      1.0 f    22    9 299  Ml 2.3  8                         bulletin    295516
                                                                                                         _ldg
      0.56   +-  0.22       3.7    3.4   78.25 +-  0.0    0.40   4.95   +-0.2                            m i sr

GERMANY
Sta     Dist  EvAz     Phase      Date       Time     TRes  Azim  AzRes  Slow  SRes Def   SNR       Amp   Per   Mag1   Mag2       ID
GIVF  002.18 221.8 m E Pn      2013/04/04 04:22:56.4   0.2                          T                                        5246122
GIVF  002.18 221.8 m E Pg      2013/04/04 04:23:01.2   0.0                          T                                        5246121
GIVF  002.18 221.8 m E Sg      2013/04/04 04:23:29.4   0.2                          T                2.7  .19 Ml 2.4         5246120
BAIF  002.48 228.2 m E Pn      2013/04/04 04:23:00.4   0.0                          T                                        5246119
BAIF  002.48 228.2 m E Sg      2013/04/04 04:23:38.7   0.0                          T                1.6  .22 Ml 2.2         5246118
PAGF  003.31 195.7 m E Pn      2013/04/04 04:23:11.7  -0.1                          T                                        5246129
PAGF  003.31 195.7 m E Sg      2013/04/04 04:24:03.8  -0.7  21.6  6.9               T                3.1  .38 Ml 2.4         5246128
CDF   003.34 177.7 m E Pn      2013/04/04 04:23:12.4   0.2                          T                                        5246117
CDF   003.34 177.7 m E Pg      2013/04/04 04:23:22.5  -0.2                          T                                        5246116
CDF   003.34 177.7 m E Sg      2013/04/04 04:24:05.4  -0.2                          T                1.8  .29 Ml 2.4         5246115
MEZF  003.50 202.6 m E Pn      2013/04/04 04:23:14.9   0.6                          T                                        5246127
MEZF  003.50 202.6 m E Sg      2013/04/04 04:24:10.8   0.4  25.5  4.4               T                3.1  .32 Ml 2.5         5246126
HAU   003.77 187.5 m E Pn      2013/04/04 04:23:17.9  -0.1                          T                                        5246124
HAU   003.77 187.5 m E Sg      2013/04/04 04:24:18.4  -0.7                          T                1.7  .30 Ml 2.1         5246123
SFTF  003.78 201.2 m E Pn      2013/04/04 04:23:18.3   0.2                          T                                        5246125
HINF  003.94 182.2 m E Pn      2013/04/04 04:23:19.8  -0.4                          T                                        5246133
HINF  003.94 182.2 m E Sg      2013/04/04 04:24:24.5   0.4                          T                 .9  .25 Ml 2.2         5246132
LOR   004.95 206.3 m E Pn      2013/04/04 04:23:33.6  -0.4                          T                                        5246131
LOR   004.95 206.3 m E Sg      2013/04/04 04:24:55.6  -0.1  27.5  3.6               T                1.9  .40 Ml 2.5         5246130

.
EVENT     295296
    Date      Time       Latitude Longitude    Depth    Ndef Nsta Gap    Mag1  N    Mag2  N    Mag3  N   Author         ID
       rms   OT_Error      Smajor Sminor Az        Err   mdist  Mdist     Err        Err        Err      Quality

2013/04/04 04:50:46.8     43.1551   18.7035     10.0 f    38    8 064  Ml 3.8  6                         bulletin    295396
                                                                                                         _ldg
      0.74   +-  0.12       2.6    2.5   19.43 +-  0.0    0.28   9.57   +-0.4                            m i ke

NORTHWESTERN BALKAN PEN.
Sta     Dist  EvAz     Phase      Date       Time     TRes  Azim  AzRes  Slow  SRes Def   SNR       Amp   Per   Mag1   Mag2       ID
SBF   008.22 278.8 m E P       2013/04/04 04:52:50.6   1.4                          T                                        5243926
SBF   008.22 278.8 m E Sn      2013/04/04 04:54:11.6   0.3                          T               13.9  .51 Ml 3.9         5250374
MBDF  008.75 284.4 m E P       2013/04/04 04:52:55.6  -1.1                          T                                        5243925
MBDF  008.75 284.4 m E Sn      2013/04/04 04:54:24.1   0.0                          T               11.6  .64 Ml 3.8         5243919
FRF   008.80 276.8 m E P       2013/04/04 04:52:55.9  -1.2                          T                                        5250376
LPG   008.88 289.4 m E P       2013/04/04 04:52:58.8   0.1                          T                                        5243923
LPG   008.88 289.4 m E Sn      2013/04/04 04:54:28.4   1.0                          T               24.0  .74 Ml 4.1         5243920
LPL   008.90 289.5 m E P       2013/04/04 04:52:59.0   0.2                          T                                        5243924
LPL   008.90 289.5 m E Sn      2013/04/04 04:54:28.0   0.3                          T               25.6  .70 Ml 4.1         5243921
ORIF  009.40 285.2 m E P       2013/04/04 04:53:05.9   0.3                          T                                        5243922
ORIF  009.40 285.2 m E Sn      2013/04/04 04:54:40.2   0.6                          T               18.1  .68 Ml 4.1         5250377
SMRF  009.57 279.4 m E P       2013/04/04 04:53:07.5  -0.4                          T                                        5250375
LMR   008.90 275.3 m E Sn      2013/04/04 04:54:27.5   0.0                          T                 .8  .28 Ml 3.0         5250373

.
EVENT     295297
    Date      Time       Latitude Longitude    Depth    Ndef Nsta Gap    Mag1  N    Mag2  N    Mag3  N   Author         ID
       rms   OT_Error      Smajor Sminor Az        Err   mdist  Mdist     Err        Err        Err      Quality

2013/04/04 05:07:44.3     47.3463    6.3311       .0 f    22    9 156  Ml 2.0  6  Md 2.1  2              bulletin    295397
                                                                                                         _ldg
      0.85   +-  0.06       1.5     .9  110.57 +-  0.0    0.59   2.11   +-0.2      +-0.1                 m i km

FRANCE
Sta     Dist  EvAz     Phase      Date       Time     TRes  Azim  AzRes  Slow  SRes Def   SNR       Amp   Per   Mag1   Mag2       ID
HINF  000.59 036.7 m E Pg      2013/04/04 05:07:55.8   0.0                          T                                        5243932
HINF  000.59 036.7 m E Pn      2013/04/04 05:07:58.5  -0.1                          T                                        5250704
HINF  000.59 036.7 m E Sg      2013/04/04 05:08:03.7   0.0                          T                2.8  .22        Md 2.1  5243931
HAU   000.66 001.0 m E Pg      2013/04/04 05:07:57.1   0.0                          T                                        5243930
HAU   000.66 001.0 m E P       2013/04/04 05:07:58.3   0.0                          T                                        5250706
HAU   000.66 001.0 m E Pn      2013/04/04 05:07:59.6   0.1                          T                                        5250705
HAU   000.66 001.0 m E Sn      2013/04/04 05:08:10.1   0.0                          T                5.9  .28        Md 2.2  5243929
CABF  000.75 192.9 m E Pg      2013/04/04 05:07:59.0   0.1                          T                                        5250691
CABF  000.75 192.9 m E Pn      2013/04/04 05:08:00.7  -0.2                          T                                        5243927
CABF  000.75 192.9 m E Sg      2013/04/04 05:08:08.9   0.0                          T                                        5250699
CABF  000.75 192.9 m E Sn      2013/04/04 05:08:12.6   0.2                          T                3.6  .20                5243928
SFTF  001.22 315.1 m E Pn      2013/04/04 05:08:07.2   0.0 135.1  1.0               T                                        5244214
SFTF  001.22 315.1 m E Sn      2013/04/04 05:08:23.6   0.0                          T                3.0  .33 Ml 1.9         5250381
CDF   001.24 030.5 m E Pn      2013/04/04 05:08:07.4  -0.1                          T                                        5243934
CDF   001.24 030.5 m E Sg      2013/04/04 05:08:24.3   0.2                          T                5.4  .28 Ml 2.3         5250382
PAGF  001.28 341.6 m E Pg      2013/04/04 05:08:08.4   0.0                          T                                        5244213
PAGF  001.28 341.6 m E Sg      2013/04/04 05:08:25.0  -0.1 152.4  -8.7              T                3.7  .26 Ml 2.1         5250701
MEZF  001.44 323.8 m E Pg      2013/04/04 05:08:11.4   0.0 145.5  2.7               T                                        5250379
MEZF  001.44 323.8 m E Sg      2013/04/04 05:08:30.2   0.0 146.2  3.3               T                3.2  .34 Ml 2.0         5250700
LOR   001.68 268.3 m E Pn      2013/04/04 05:08:13.4  -0.1                          T                                        5250703
LOR   001.68 268.3 m E Sg      2013/04/04 05:08:37.9   0.0  74.3  -12.1             T                2.7  .24 Ml 2.2         5250702
AVF   002.11 255.8 m E Sg      2013/04/04 05:08:51.2   0.1                          T                 .7  .28 Ml 1.6         5250698

.
