EVENT     269604
    Date      Time       Latitude Longitude    Depth    Ndef Nsta Gap    Mag1  N    Mag2  N    Mag3  N   Author         ID
       rms   OT_Error      Smajor Sminor Az        Err   mdist  Mdist     Err        Err        Err      Quality

2012/02/03 20:00:04.3     46.6202    6.9730      8.0 f    48   19 042  Ml 2.2 18  Md 2.1  4              js067245    269624

      1.00   +-  0.07       1.5    1.1   93.92 +-  0.0    0.15   3.31   +-0.3      +-0.1                 m i ke

SWITZERLAND
Sta     Dist  EvAz     Phase      Date       Time     TRes  Azim  AzRes  Slow  SRes Def   SNR       Amp   Per   Mag1   Mag2       ID
CABF  000.61 269.5 m E Pg      2012/02/03 20:00:16.2   0.1                          T                                        4832015
CABF  000.61 269.5 m E P       2012/02/03 20:00:17.3  -0.1                          T                                        4831975
CABF  000.61 269.5 m E Sg      2012/02/03 20:00:24.6   0.5                          T                6.4  .27        Md 2.1  4831976
LPL   001.12 188.7 m E Pg      2012/02/03 20:00:25.5  -0.1                          T                                        4831995
LPL   001.12 188.7 m E P       2012/02/03 20:00:27.2   0.6                          T                                        4831984
LPL   001.12 188.7 m E Sg      2012/02/03 20:00:40.1   0.0                          T                1.8  .24 Ml 1.8 Md 2.1  4831996
LPG   001.13 187.9 m E Pg      2012/02/03 20:00:25.8  -0.2                          T                                        4831998
LPG   001.13 187.9 m E P       2012/02/03 20:00:27.6   0.7                          T                                        4831985
LPG   001.13 187.9 m E Sg      2012/02/03 20:00:40.7   0.1                          T                7.2  .34 Ml 2.2 Md 2.1  4831997
HINF  001.20 356.1 m E Pg      2012/02/03 20:00:26.9   0.0                          T                                        4832014
HINF  001.20 356.1 m E Sg      2012/02/03 20:00:42.5   0.1                          T               10.4  .18 Ml 2.7 Md 2.2  4832005
HAU   001.45 343.2 m E Pg      2012/02/03 20:00:31.3  -0.2                          T                                        4832013
HAU   001.45 343.2 m E Sg      2012/02/03 20:00:49.7  -0.5                          T                8.6  .30 Ml 2.3         4832004
CDF   001.80 006.4 m E Pg      2012/02/03 20:00:37.9  -0.1                          T                                        4832012
CDF   001.80 006.4 m E Sg      2012/02/03 20:01:00.3  -1.1                          T                2.9  .31 Ml 2.2         4832008
ORIF  001.87 204.6 m E Pg      2012/02/03 20:00:39.1  -0.1                          T                                        4831986
ORIF  001.87 204.6 m E Sg      2012/02/03 20:01:03.8   0.5                          T                2.6  .36 Ml 2.0         4831993
MBDF  001.90 184.3 m E Pg      2012/02/03 20:00:39.6  -0.2                          T                                        4831992
AVF   002.50 275.2 m E Pn      2012/02/03 20:00:44.0   0.6                          T                                        4831991
AVF   002.50 275.2 m E Sg      2012/02/03 20:01:22.3  -0.5                          T                1.8  .27 Ml 2.1         4832000
SMF   002.16 271.8 m E Pg      2012/02/03 20:00:44.3  -0.2                          T                                        4831990
SMF   002.16 271.8 m E Sg      2012/02/03 20:01:11.8  -0.4                          T                4.3  .20 Ml 2.6         4832001
LOR   002.23 288.0 m E Pg      2012/02/03 20:00:45.7  -0.1 112.5  6.7               T                                        4832011
LOR   002.23 288.0 m E Sg      2012/02/03 20:01:13.0  -1.5 127.6  21.8              T                2.9  .21 Ml 2.4         4832010
BGF   002.85 270.2 m E Pn      2012/02/03 20:00:48.9   0.7                          T                                        4831989
BGF   002.85 270.2 m E Sg      2012/02/03 20:01:33.2  -0.5                          T                5.2  .33 Ml 2.6         4831999
THEF  001.74 337.9 m E Sn      2012/02/03 20:00:55.1   0.9                          T                                        4831974
THEF  001.74 337.9 m E Sg      2012/02/03 20:00:59.7   0.5                          T                4.3  .28 Ml 2.3         4832006
TCF   003.31 266.0 m E Pn      2012/02/03 20:00:55.3   0.7                          T                                        4831982
MEZF  002.29 326.1 m E Sn      2012/02/03 20:01:07.6   0.3                          T                                        4831973
MEZF  002.29 326.1 m E Sg      2012/02/03 20:01:16.8   0.5                          T                1.7  .27 Ml 2.1         4832002
SFTF  002.06 321.1 m E Sg      2012/02/03 20:01:08.8  -0.4                          T                2.9  .23 Ml 2.3         4832007
PAGF  002.11 336.9 m E Sg      2012/02/03 20:01:08.9  -1.9                          T                 .4  .22 Ml 1.5         4832003
SSF   002.42 281.8 m E Sn      2012/02/03 20:01:11.2   0.7                          T                                        4831981
SSF   002.42 281.8 m E Sg      2012/02/03 20:01:19.8  -0.6                          T                1.6  .27 Ml 2.2         4832009
VIVF  002.39 223.2 m E Sg      2012/02/03 20:01:19.3  -0.2                          T                1.4  .21 Ml 2.1         4831994

.
EVENT     269624
    Date      Time       Latitude Longitude    Depth    Ndef Nsta Gap    Mag1  N    Mag2  N    Mag3  N   Author         ID
       rms   OT_Error      Smajor Sminor Az        Err   mdist  Mdist     Err        Err        Err      Quality

2012/02/03 23:41:52.7     42.7566   -1.1189      2.0      11    2 210  Ml 1.3  1  Md 1.0  2              js067245    269644

      0.27   +-  0.25       5.1    1.7   13.37 +-  0.0    0.12   1.11   +-         +-0.1                 m i ke

PYRENEES
Sta     Dist  EvAz     Phase      Date       Time     TRes  Azim  AzRes  Slow  SRes Def   SNR       Amp   Per   Mag1   Mag2       ID
SJPF  000.36 347.7 m E Pg      2012/02/03 23:41:59.4  -0.4                          T                                        4833093
SJPF  000.36 347.7 m E Sg      2012/02/03 23:42:04.6  -0.1                          T                 .7  .23        Md 1.1  4832018
EPF   001.11 075.2 m E Pg      2012/02/03 23:42:13.3  -0.1                          T                                        4832017
EPF   001.11 075.2 m E Sg      2012/02/03 23:42:28.3   0.5                          T                 .9  .31 Ml 1.3 Md 1.0  4832016

.
EVENT     269609
    Date      Time       Latitude Longitude    Depth    Ndef Nsta Gap    Mag1  N    Mag2  N    Mag3  N   Author         ID
       rms   OT_Error      Smajor Sminor Az        Err   mdist  Mdist     Err        Err        Err      Quality

2012/02/04 12:12:38.5     43.6649    7.7991      2.0      16    4 236  Ml 1.3  2  Md 1.3  3              js067245    269629

      0.38   +-  0.27       4.4    2.5  121.83 +-  0.0    0.20   1.29   +-0.1      +-0.1                 m i ke

NEAR SOUTH COAST OF FRANCE
Sta     Dist  EvAz     Phase      Date       Time     TRes  Azim  AzRes  Slow  SRes Def   SNR       Amp   Per   Mag1   Mag2       ID
SBF   000.33 307.0 m E Pg      2012/02/04 12:12:45.7   0.8                          T                                        4832225
SBF   000.33 307.0 m E Sg      2012/02/04 12:12:49.4   0.0                          T               32.1  .24        Md 1.5  4832224
FRF   000.84 263.3 m E Pg      2012/02/04 12:12:54.7   0.3                          T                                        4832230
FRF   000.84 263.3 m E Sg      2012/02/04 12:13:05.8   0.5                          T                1.6  .29        Md 1.2  4832229
LMR   001.00 251.0 m E Pg      2012/02/04 12:12:56.6  -0.5                          T                                        4832231
LMR   001.00 251.0 m E Sg      2012/02/04 12:13:07.7  -2.3                          T                 .5  .20 Ml 1.2         4832228
MBDF  001.29 325.5 m E Pg      2012/02/04 12:13:03.1   0.2                          T                                        4832226
MBDF  001.29 325.5 m E Sg      2012/02/04 12:13:19.6   0.0                          T                 .7  .24 Ml 1.4 Md 1.4  4832227

.
EVENT     269607
    Date      Time       Latitude Longitude    Depth    Ndef Nsta Gap    Mag1  N    Mag2  N    Mag3  N   Author         ID
       rms   OT_Error      Smajor Sminor Az        Err   mdist  Mdist     Err        Err        Err      Quality

2012/02/04 15:36:29.8     46.1469   -1.5039     15.0      44   19 151  Ml 2.5 20  Md 2.6  3              js067245    269627

      1.43   +-  0.15       2.9    1.8   52.27 +-  0.0    1.04   3.86   +-0.2      +-0.2                 m i ke

FRANCE
Sta     Dist  EvAz     Phase      Date       Time     TRes  Azim  AzRes  Slow  SRes Def   SNR       Amp   Per   Mag1   Mag2       ID
MFF   001.04 063.7 m E Pg      2012/02/04 15:36:50.0   0.4                          T   001.0                                4830411
MFF   001.04 063.7 m E Sg      2012/02/04 15:37:03.3   0.1                          T   001.0       18.2  .24 Ml 2.9 Md 2.4  4830412
QUIF  002.10 327.9 m E Pg      2012/02/04 15:37:08.9  -0.1                          T                                        4832247
QUIF  002.10 327.9 m E Sg      2012/02/04 15:37:36.5   0.4                          T   001.0        5.1  .23 Ml 2.6 Md 2.7  4830421
SGMF  002.23 341.6 m E Pg      2012/02/04 15:37:11.7   0.4                          T   001.0                                4830425
SGMF  002.23 341.6 m E Sg      2012/02/04 15:37:38.5  -1.5                          T   001.0        4.6  .28 Ml 2.5 Md 2.7  4830427
RJF   002.28 110.6 m E Pg      2012/02/04 15:37:11.7  -0.5                          T   001.0                                4830395
RJF   002.28 110.6 m E Sn      2012/02/04 15:37:31.8   0.5                          T                                        4832244
RJF   002.28 110.6 m E Sg      2012/02/04 15:37:39.1  -2.4                          T                7.0  .22 Ml 2.4         4832245
GRR   002.29 010.9 m E Pg      2012/02/04 15:37:12.5   0.2                          T   001.0                                4830404
GRR   002.29 010.9 m E Sg      2012/02/04 15:37:41.0  -0.8                          T   001.0        6.4  .22 Ml 2.6         4830405
ROSF  002.50 331.8 m E Pg      2012/02/04 15:37:16.5   0.2                          T   001.0                                4830423
ROSF  002.50 331.8 m E Sg      2012/02/04 15:37:47.7  -0.8                          T   001.0        1.3  .22 Ml 2.1         4830424
LDF   002.62 020.5 m E Pg      2012/02/04 15:37:18.4  -0.1                          T   001.0                                4830406
LDF   002.62 020.5 m E Sn      2012/02/04 15:37:41.5   2.0                          T   001.0                                4830407
LDF   002.62 020.5 m E Sg      2012/02/04 15:37:51.3  -1.0                          T   001.0        5.1  .31 Ml 2.5         4830408
TCF   002.58 085.5 m E Pg      2012/02/04 15:37:18.8   0.9                          T   001.0                                4830419
TCF   002.58 085.5 m E Sg      2012/02/04 15:37:50.5  -0.6                          T   001.0        3.4  .27 Ml 2.5         4830420
AVF   003.42 077.4 m E Pn      2012/02/04 15:37:22.9   2.2                          T   001.0                                4830396
AVF   003.42 077.4 m E Pg      2012/02/04 15:37:33.4   0.3                          T                                        4832237
AVF   003.42 077.4 m E Sn      2012/02/04 15:37:59.1   0.6                          T   001.0                                4830397
AVF   003.42 077.4 m E Sg      2012/02/04 15:38:15.6  -1.5                          T   001.0         .9  .30 Ml 2.0         4830398
SJPF  003.04 176.1 m E Pg      2012/02/04 15:37:26.0  -0.2                          T                                        4832240
SJPF  003.04 176.1 m E Sn      2012/02/04 15:37:48.9  -0.7                          T   001.0       10.8  .96 Ml 2.5         4830428
BGF   003.04 080.7 m E Pg      2012/02/04 15:37:26.8   0.6                          T                                        4832242
BGF   003.04 080.7 m E Sg      2012/02/04 15:38:04.8  -0.5                          T   001.0       13.5  .38 Ml 3.0         4830399
EPF   003.38 156.4 m E Pg      2012/02/04 15:37:32.4  -0.2                          T                                        4832241
EPF   003.38 156.4 m E Sn      2012/02/04 15:37:57.5  -0.2                          T   001.0                                4830401
EPF   003.38 156.4 m E Sg      2012/02/04 15:38:16.5   0.4                          T   001.0        3.3  .28 Ml 2.6         4830402
LFF   001.99 126.6 m E Sg      2012/02/04 15:37:33.7   1.2                          T   001.0       13.6  .20 Ml 2.9         4830409
SMF   003.73 080.4 m E Pg      2012/02/04 15:37:39.0   0.0                          T                                        4832243
SMF   003.73 080.4 m E Sg      2012/02/04 15:38:27.3   0.3                          T   001.0        1.3  .25 Ml 2.3         4830415
FLN   002.71 014.5 m E Sg      2012/02/04 15:37:53.2  -1.8                          T   001.0        3.6  .26 Ml 2.4         4830403
CAF   002.79 114.7 m E Sg      2012/02/04 15:37:56.5  -1.1                          T   001.0        3.7  .35 Ml 2.4         4830400
SSF   003.57 073.4 m E Sn      2012/02/04 15:38:02.1  -0.1                          T   001.0                                4830417
SSF   003.57 073.4 m E Sg      2012/02/04 15:38:22.1   0.2                          T   001.0        1.8  .23 Ml 2.5         4830418
MTLF  003.86 135.3 m E Sn      2012/02/04 15:38:09.3   0.2                          T                                        4832239
MTLF  003.86 135.3 m E Sg      2012/02/04 15:38:30.9   0.0                          T                                        4832238
LOR   003.86 071.2 m E Sg      2012/02/04 15:38:30.2  -0.6 228.1  -26.9             T   001.0        2.1  .33 Ml 2.4         4830410

.
EVENT     269610
    Date      Time       Latitude Longitude    Depth    Ndef Nsta Gap    Mag1  N    Mag2  N    Mag3  N   Author         ID
       rms   OT_Error      Smajor Sminor Az        Err   mdist  Mdist     Err        Err        Err      Quality

2012/02/04 17:47:45.4     44.7208    6.6483      2.0      17    9 080  Ml 1.4  1  Md 1.2  3              js067245    269630

      1.15   +-  0.12       2.3    2.0   52.05 +-  0.0    0.09   1.41   +-         +-0.0                 m i ke

FRANCE
Sta     Dist  EvAz     Phase      Date       Time     TRes  Azim  AzRes  Slow  SRes Def   SNR       Amp   Per   Mag1   Mag2       ID
MBDF  000.09 086.0 m E Pg      2012/02/04 17:47:47.4  -0.2                          T                                        4832252
MBDF  000.09 086.0 m E Sg      2012/02/04 17:47:48.8  -0.2                          T               28.1  .27        Md 1.2  4832251
ORIF  000.58 290.1 m E Pg      2012/02/04 17:47:56.6   0.1                          T                                        4832250
ORIF  000.58 290.1 m E Sg      2012/02/04 17:48:03.9  -0.3                          T                3.7  .22        Md 1.2  4832257
LPG   000.78 005.3 m E Pg      2012/02/04 17:48:00.4  -0.1                          T                                        4832248
LPG   000.78 005.3 m E Sg      2012/02/04 17:48:10.6  -0.1                          T                1.3  .25                4832255
LPL   000.80 004.3 m E Pg      2012/02/04 17:48:01.0   0.2                          T                                        4832249
LPL   000.80 004.3 m E Sg      2012/02/04 17:48:10.9  -0.2                          T                1.2  .24        Md 1.2  4832256
SBF   001.03 146.3 m E Pg      2012/02/04 17:48:04.7   0.0                          T                                        4832322
SBF   001.03 146.3 m E Sg      2012/02/04 17:48:18.3   0.2                          T                                        4832323
LMR   001.39 184.2 m E Pg      2012/02/04 17:48:11.3  -0.1                          T                                        4832321
VIVF  001.41 276.2 m E Pg      2012/02/04 17:48:12.1   0.3                          T                                        4832317
VIVF  001.41 276.2 m E Sg      2012/02/04 17:48:29.7  -0.4                          T                 .8  .29 Ml 1.4         4832318
SMRF  001.07 226.3 m E Sg      2012/02/04 17:48:19.9   0.5                          T                                        4832319
FRF   001.16 180.1 m E Sg      2012/02/04 17:48:22.7   0.6                          T                                        4832320

.
