EVENT     300425
    Date      Time       Latitude Longitude    Depth    Ndef Nsta Gap    Mag1  N    Mag2  N    Mag3  N   Author         ID
       rms   OT_Error      Smajor Sminor Az        Err   mdist  Mdist     Err        Err        Err      Quality

2013/06/06 10:43:08.6     45.0069    6.9040      7.0 f    29    8 083  Ml 1.6  3  Md 1.7  1              bulletin    300525
                                                                                                         _ldg
      0.23   +-  0.04        .9     .7   81.71 +-  0.0    0.12   1.70   +-0.2      +-                    m i ke

FRANCE
Sta     Dist  EvAz     Phase      Date       Time     TRes  Azim  AzRes  Slow  SRes Def   SNR       Amp   Per   Mag1   Mag2       ID
MBDF  000.30 198.7 m E Pg      2013/06/06 10:43:14.8   0.2                          T                                        5305333
MBDF  000.30 198.7 m E Sg      2013/06/06 10:43:18.9   0.2                          T                8.4  .20        Md 1.7  5305330
LPG   000.50 347.7 m E Pg      2013/06/06 10:43:18.5  -0.1                          T                                        5305362
LPG   000.50 347.7 m E Sg      2013/06/06 10:43:25.0  -0.3                          T                2.7  .24                5305328
LPL   000.52 346.7 m E Pg      2013/06/06 10:43:19.1   0.2                          T                                        5305332
LPL   000.52 346.7 m E Sg      2013/06/06 10:43:26.0   0.1                          T                1.6  .21                5305363
ORIF  000.73 263.4 m E Pg      2013/06/06 10:43:22.6   0.1                          T                                        5305331
ORIF  000.73 263.4 m E Sg      2013/06/06 10:43:32.1   0.0                          T                2.2  .22                5305329
SBF   001.21 161.4 m E Pg      2013/06/06 10:43:31.4   0.2                          T                                        5305360
SBF   001.21 161.4 m E Sn      2013/06/06 10:43:46.8   0.8                          T                2.2  .34 Ml 1.7         5305357
SMRF  001.40 223.2 m E Pn      2013/06/06 10:43:33.8   0.9                          T                                        5305355
FRF   001.46 187.4 m E Pn      2013/06/06 10:43:34.4   0.7                          T                                        5305361
FRF   001.46 187.4 m E Sg      2013/06/06 10:43:54.5  -0.1                          T                 .6  .14 Ml 1.7         5305356
LMR   001.70 189.8 m E Pn      2013/06/06 10:43:37.5   0.6                          T                                        5305359
LMR   001.70 189.8 m E Sg      2013/06/06 10:44:02.1   0.1                          T                 .3  .18 Ml 1.3         5305358

.
EVENT     300405
    Date      Time       Latitude Longitude    Depth    Ndef Nsta Gap    Mag1  N    Mag2  N    Mag3  N   Author         ID
       rms   OT_Error      Smajor Sminor Az        Err   mdist  Mdist     Err        Err        Err      Quality

2013/06/06 11:11:25.1     47.6670    5.9858       .0 f    18    9 100  Ml 2.0  6  Md 2.0  1              bulletin    300505
                                                                                                         _ldg
      0.90   +-  0.08       1.6    1.2  151.21 +-  0.0    0.42   1.79   +-0.1      +-                    m i km

FRANCE
Sta     Dist  EvAz     Phase      Date       Time     TRes  Azim  AzRes  Slow  SRes Def   SNR       Amp   Per   Mag1   Mag2       ID
HAU   000.42 035.6 m E Pg      2013/06/06 11:11:32.8  -0.6                          T                                        5304992
HAU   000.42 035.6 m E Sg      2013/06/06 11:11:38.8  -0.3                          T               62.1 1.08        Md 2.0  5304991
HINF  000.60 075.3 m E Pg      2013/06/06 11:11:36.9   0.0                          T                                        5304990
HINF  000.60 075.3 m E Sg      2013/06/06 11:11:45.0   0.0                          T                4.6  .20                5304989
SFTF  000.83 310.5 m E Pg      2013/06/06 11:11:41.0   0.0 131.2  1.4               T                                        5304988
SFTF  000.83 310.5 m E Sg      2013/06/06 11:11:52.0   0.0 142.5  12.7              T                4.5  .17                5304987
PAGF  000.91 349.0 m E Pg      2013/06/06 11:11:42.5   0.2 167.4  -1.4              T                                        5304997
PAGF  000.91 349.0 m E Sg      2013/06/06 11:11:54.4   0.1 168.2  -0.6              T                3.9  .23 Ml 2.0         5304996
MEZF  001.04 323.5 m E Pg      2013/06/06 11:11:44.9   0.0                          T                                        5304999
MEZF  001.04 323.5 m E Sg      2013/06/06 11:11:58.8   0.2 148.9  6.1               T                                        5304998
CABF  001.06 176.2 m E Pg      2013/06/06 11:11:45.4   0.1                          T                                        5304993
CABF  001.06 176.2 m E Sn      2013/06/06 11:12:00.7   0.2                          T                1.6  .18 Ml 1.8         5305000
CDF   001.14 048.8 m E Pg      2013/06/06 11:11:47.1   0.2                          T                                        5304995
CDF   001.14 048.8 m E Sg      2013/06/06 11:12:01.9   0.1                          T                3.1  .22 Ml 2.1         5304994
LOR   001.50 255.3 m E Pg      2013/06/06 11:11:53.3   0.1                          T                                        5307822
LOR   001.50 255.3 m E Sg      2013/06/06 11:12:12.7  -0.1                          T                3.1  .30 Ml 2.1         5307823
SMF   001.79 235.9 m E Sg      2013/06/06 11:12:21.5  -0.3                          T                2.0  .30 Ml 2.0         5307821

.
EVENT     300412
    Date      Time       Latitude Longitude    Depth    Ndef Nsta Gap    Mag1  N    Mag2  N    Mag3  N   Author         ID
       rms   OT_Error      Smajor Sminor Az        Err   mdist  Mdist     Err        Err        Err      Quality

2013/06/06 13:48:26.0     42.9771    -.2646      2.0      10    4 167  Ml 1.5  2  Md 1.5  3              bulletin    300512
                                                                                                         _ldg
      0.24   +-  0.08       6.7    1.3  173.10 +-  0.0    0.23   1.85   +-0.1      +-0.0                 m i ke

PYRENEES
Sta     Dist  EvAz     Phase      Date       Time     TRes  Azim  AzRes  Slow  SRes Def   SNR       Amp   Per   Mag1   Mag2       ID
ETSF  000.23 250.2 m E Pg      2013/06/06 13:48:30.8   0.1                          T                                        5304944
ETSF  000.23 250.2 m E Sg      2013/06/06 13:48:33.5  -0.4                          T                5.6  .23        Md 1.5  5304943
EPF   000.45 083.0 m E Pg      2013/06/06 13:48:34.5  -0.1                          T                                        5304941
EPF   000.45 083.0 m E Sg      2013/06/06 13:48:40.9   0.4                          T                2.3  .21        Md 1.4  5304942
SJPF  000.72 281.3 m E Pg      2013/06/06 13:48:39.8   0.2                          T                                        5304946
SJPF  000.72 281.3 m E Sg      2013/06/06 13:48:48.4  -0.5                          T                                Md 1.5  5304945
MTLF  001.85 077.8 m E Pn      2013/06/06 13:48:56.8  -0.2                          T                                        5304950
MTLF  001.85 077.8 m E Sn      2013/06/06 13:49:19.9   0.3                          T                 .4  .21 Ml 1.5         5304949

.
EVENT     300418
    Date      Time       Latitude Longitude    Depth    Ndef Nsta Gap    Mag1  N    Mag2  N    Mag3  N   Author         ID
       rms   OT_Error      Smajor Sminor Az        Err   mdist  Mdist     Err        Err        Err      Quality

2013/06/06 17:10:45.5     43.1088    -.3259      2.0      15    6 120  Ml 1.9  4  Md 2.1  3              bulletin    300518
                                                                                                         _ldg
      0.47   +-  0.07       2.4    1.3  158.76 +-  0.0    0.27   2.50   +-0.3      +-0.1                 m i ke

PYRENEES
Sta     Dist  EvAz     Phase      Date       Time     TRes  Azim  AzRes  Slow  SRes Def   SNR       Amp   Per   Mag1   Mag2       ID
ETSF  000.27 219.3 m E Pg      2013/06/06 17:10:51.2   0.3                          T                                        5305016
ETSF  000.27 219.3 m E Sg      2013/06/06 17:10:54.4  -0.2                          T               18.3  .21        Md 2.1  5305015
EPF   000.49 098.9 m E Pg      2013/06/06 17:10:54.9  -0.1                          T                                        5305014
EPF   000.49 098.9 m E Sg      2013/06/06 17:11:01.2  -0.3                          T                7.7  .21        Md 2.1  5305013
SJPF  000.66 270.7 m E Pg      2013/06/06 17:10:57.6  -0.3                          T                                        5305012
SJPF  000.66 270.7 m E Sg      2013/06/06 17:11:07.1   0.5                          T                3.3  .26        Md 2.0  5305011
MTLF  001.87 082.0 m E Pn      2013/06/06 17:11:16.7  -0.1                          T                                        5305026
MTLF  001.87 082.0 m E Sg      2013/06/06 17:11:44.7   0.2                          T                 .6  .21 Ml 1.6         5305025
LFF   001.99 022.4 m E Pn      2013/06/06 17:11:18.2  -0.1                          T                                        5305024
LFF   001.99 022.4 m E Sn      2013/06/06 17:11:42.4   0.1                          T                5.4  .34 Ml 2.2         5305023
CAF   002.50 042.7 m E Pn      2013/06/06 17:11:25.8   0.4                          T                                        5305022
CAF   002.50 042.7 m E Pg      2013/06/06 17:11:31.9  -0.1                          T                                        5305021
CAF   002.50 042.7 m E Sn      2013/06/06 17:11:54.9   0.1                          T                1.2  .17 Ml 2.2         5305020

.
EVENT     300419
    Date      Time       Latitude Longitude    Depth    Ndef Nsta Gap    Mag1  N    Mag2  N    Mag3  N   Author         ID
       rms   OT_Error      Smajor Sminor Az        Err   mdist  Mdist     Err        Err        Err      Quality

2013/06/06 21:56:04.7     42.8287    -.2450      2.0       5    3 222             Md 1.1  2              bulletin    300519
                                                                                                         _ldg
      0.16   +-  0.30      13.7    1.6  177.70 +-  0.0    0.24   0.77              +-0.0                 m i ke

PYRENEES
Sta     Dist  EvAz     Phase      Date       Time     TRes  Azim  AzRes  Slow  SRes Def   SNR       Amp   Per   Mag1   Mag2       ID
ETSF  000.24 286.9 m E Pg      2013/06/06 21:56:09.6   0.0                          T                                        5305030
ETSF  000.24 286.9 m E Sg      2013/06/06 21:56:13.1   0.2                          T                4.4  .22        Md 1.1  5305029
EPF   000.47 064.7 m E Pg      2013/06/06 21:56:13.8   0.0                          T                                        5305028
EPF   000.47 064.7 m E Sg      2013/06/06 21:56:20.2   0.1                          T                1.2  .19        Md 1.2  5305027
SJPF  000.77 291.9 m E Sg      2013/06/06 21:56:29.0  -0.3                          T                1.1  .31                5307825

.
EVENT     300422
    Date      Time       Latitude Longitude    Depth    Ndef Nsta Gap    Mag1  N    Mag2  N    Mag3  N   Author         ID
       rms   OT_Error      Smajor Sminor Az        Err   mdist  Mdist     Err        Err        Err      Quality

2013/06/06 22:00:24.6     44.0938    6.8615      2.0       8    3 293  Ml 1.6  1  Md 1.7  3              bulletin    300522
                                                                                                         _ldg
      0.26   +-  0.42       8.0    3.7   51.27 +-  0.0    0.56   0.94   +-         +-0.2                 m i ke

FRANCE
Sta     Dist  EvAz     Phase      Date       Time     TRes  Azim  AzRes  Slow  SRes Def   SNR       Amp   Per   Mag1   Mag2       ID
FRF   000.56 196.3 m E Pg      2013/06/06 22:00:35.4   0.2                          T                                        5307832
FRF   000.56 196.3 m E Sg      2013/06/06 22:00:42.1  -0.4                          T                1.0  .18        Md 2.0  5307833
LMR   000.80 198.7 m E Pg      2013/06/06 22:00:39.3  -0.3                          T                                        5307826
LMR   000.80 198.7 m E Pn      2013/06/06 22:00:41.5   0.2                          T                                        5307827
LMR   000.80 198.7 m E Sg      2013/06/06 22:00:50.3   0.2                          T                                        5307828
LMR   000.80 198.7 m E Sn      2013/06/06 22:00:53.4   0.3                          T                1.5  .24        Md 1.5  5307829
SMRF  000.94 263.2 m E Pg      2013/06/06 22:00:42.1  -0.1                          T                                        5307830
SMRF  000.94 263.2 m E Sg      2013/06/06 22:00:54.7   0.3                          T                1.6  .26 Ml 1.6 Md 1.7  5307831

.
