EVENT     259968
    Date      Time       Latitude Longitude    Depth    Ndef Nsta Gap    Mag1  N    Mag2  N    Mag3  N   Author         ID
       rms   OT_Error      Smajor Sminor Az        Err   mdist  Mdist     Err        Err        Err      Quality

2011/06/04 22:18:36.7     43.8419   12.1839      2.0      68   27 096  Ml 3.4 18                         js067245    259968

      1.08   +-  0.19       4.9    3.5  160.39 +-  0.0    0.20   9.33   +-0.3                            m i ke

CENTRAL ITALY
Sta     Dist  EvAz     Phase      Date       Time     TRes  Azim  AzRes  Slow  SRes Def   SNR       Amp   Per   Mag1   Mag2       ID
PGF   002.66 242.1 m E Pn      2011/06/04 22:19:18.8  -0.2                          T   001.0                                4702026
PGF   002.66 242.1 m E Sn      2011/06/04 22:19:49.4  -0.5                          T               31.1  .40 Ml 3.5         4704144
SBF   003.44 272.0 m E Pn      2011/06/04 22:19:28.6  -0.8                          T   001.0                                4702027
SBF   003.44 272.0 m E Sn      2011/06/04 22:20:08.3   0.1                          T   001.0       55.7  .44 Ml 3.6         4702028
MBDF  003.99 284.7 m E Pn      2011/06/04 22:19:36.3  -0.7                          T   001.0                                4702036
MBDF  003.99 284.7 m E Sn      2011/06/04 22:20:22.0   0.5                          T               24.5  .54 Ml 3.3         4704139
FRF   004.02 267.9 m E Pn      2011/06/04 22:19:36.4  -0.9                          T   001.0                                4702017
FRF   004.02 267.9 m E Sn      2011/06/04 22:20:21.4  -0.8                          T               34.9  .44 Ml 3.6         4704142
LMR   004.15 264.9 m E Pn      2011/06/04 22:19:38.2  -0.8                          T   001.0                                4702021
LMR   004.15 264.9 m E Sn      2011/06/04 22:20:23.7  -1.7                          T               10.2  .34 Ml 3.2         4704143
LPL   004.23 295.2 m E Pn      2011/06/04 22:19:40.4  -0.1                          T   001.0                                4702025
LPL   004.23 295.2 m E Sn      2011/06/04 22:20:28.3   0.8                          T               11.6  .35 Ml 3.2         4704140
LPG   004.21 295.0 m E Pn      2011/06/04 22:19:40.8   0.5                          T   001.0                                4702024
LPG   004.21 295.0 m E Sn      2011/06/04 22:20:27.9   0.7                          T               24.0  .60 Ml 3.3         4704141
ORIF  004.65 285.6 m E Pn      2011/06/04 22:19:46.9   1.0                          T   001.0                                4702039
SMRF  004.78 273.9 m E Pn      2011/06/04 22:19:47.9   0.3                          T   001.0                                4702042
SMRF  004.78 273.9 m E Sn      2011/06/04 22:20:41.1   0.8                          T   001.0         12  .52 Ml 3.2         4702043
CABF  005.12 304.9 m E Pn      2011/06/04 22:19:53.8   1.4                          T   001.0                                4702032
VIVF  005.48 283.3 m E Pn      2011/06/04 22:19:56.8  -0.4                          T   001.0                                4702040
VIVF  005.48 283.3 m E Sg      2011/06/04 22:21:26.8  -1.6                          T   001.0        3.8  .56 Ml 2.8         4702041
HINF  005.45 318.7 m E Pn      2011/06/04 22:19:57.5   0.7                          T   001.0                                4702034
HINF  005.45 318.7 m E Sn      2011/06/04 22:20:55.7  -0.6                          T   001.0       16.2  .40 Ml 3.6         4702035
CDF   005.70 325.0 m E Pn      2011/06/04 22:20:01.0   0.7                          T   001.0                                4702015
CDF   005.70 325.0 m E Sn      2011/06/04 22:21:02.2  -0.3                          T   001.0       14.2  .40 Ml 3.7         4702016
HAU   005.82 317.7 m E Pn      2011/06/04 22:20:02.7   0.9                          T   001.0                                4702018
HAU   005.82 317.7 m E Sn      2011/06/04 22:21:05.5   0.2                          T               37.8  .38 Ml 3.8         4704137
LASF  006.02 275.1 m E Pn      2011/06/04 22:20:03.9  -0.6                          T   001.0                                4702019
LASF  006.02 275.1 m E Sn      2011/06/04 22:21:10.2   0.3                          T   001.0        2.8  .40 Ml 2.9         4702020
PAGF  006.50 318.7 m E Pn      2011/06/04 22:20:11.6   0.5                          T                                        4704147
SMF   006.52 298.4 m E Pn      2011/06/04 22:20:12.4   1.0                          T   001.0                                4702029
SMF   006.52 298.4 m E Sn      2011/06/04 22:21:22.2   0.2                          T                8.5  .38 Ml 3.5         4704138
SFTF  006.62 313.8 m E Pn      2011/06/04 22:20:13.5   0.9 126.1  -2.6              T                                        4704146
LOR   006.77 303.3 m E Pn      2011/06/04 22:20:15.4   0.6 125.0  7.7               T   001.0                                4702022
LOR   006.77 303.3 m E Sn      2011/06/04 22:21:28.3   0.3                          T   001.0       11.2  .40 Ml 3.7         4702023
MEZF  006.80 315.8 m E Pn      2011/06/04 22:20:16.2   1.1                          T   001.0                                4702037
MEZF  006.80 315.8 m E Sn      2011/06/04 22:21:30.3   1.8                          T   001.0          9  .52 Ml 3.5         4702038
SSF   006.90 300.8 m E Pn      2011/06/04 22:20:16.9   0.4                          T   001.0                                4702030
AVF   006.89 298.4 m E Pn      2011/06/04 22:20:17.5   1.2                          T   001.0                                4702010
AVF   006.89 298.4 m E Sn      2011/06/04 22:21:29.8  -0.9                          T   001.0        4.6  .60 Ml 3.1         4702011
BGF   007.13 295.6 m E Pn      2011/06/04 22:20:20.5   0.8                          T   001.0                                4702012
BGF   007.13 295.6 m E Sn      2011/06/04 22:21:37.3   0.8                          T   001.0       10.1  .48 Ml 3.6         4702013
MTLF  007.25 269.5 m E Pn      2011/06/04 22:20:21.4   0.1                          T                                        4704145
CAF   007.33 282.0 m E Pn      2011/06/04 22:20:22.0   0.6                          T   001.0                                4702014
TCF   007.47 292.6 m E Pn      2011/06/04 22:20:24.2  -0.1                          T   001.0                                4702031
ETSF  009.33 268.6 m E Pn      2011/06/04 22:20:50.7   1.0                          T   001.0                                4702033

.
EVENT     259969
    Date      Time       Latitude Longitude    Depth    Ndef Nsta Gap    Mag1  N    Mag2  N    Mag3  N   Author         ID
       rms   OT_Error      Smajor Sminor Az        Err   mdist  Mdist     Err        Err        Err      Quality

2011/06/05 02:16:54.2     43.1077   -1.0262      2.0      16    3 081  Ml 1.6  1  Md 1.8  2              js067245    259969

      0.43   +-  0.09       1.9    1.3   14.89 +-  0.0    0.08   1.75   +-         +-0.2                 m i ke

PYRENEES
Sta     Dist  EvAz     Phase      Date       Time     TRes  Azim  AzRes  Slow  SRes Def   SNR       Amp   Per   Mag1   Mag2       ID
SJPF  000.15 272.3 m E Pg      2011/06/05 02:16:57.2  -0.1                          T                                        4704152
SJPF  000.15 272.3 m E Sg      2011/06/05 02:16:59.6   0.2                          T               21.6  .24        Md 1.9  4704153
ETSF  000.40 121.2 m E Pg      2011/06/05 02:17:01.3  -0.8                          T                                        4704150
ETSF  000.40 121.2 m E Sg      2011/06/05 02:17:06.5  -0.9                          T                5.5  .20        Md 1.7  4704151
EPF   001.00 094.0 m E Pg      2011/06/05 02:17:13.8   0.7                          T                                        4704148
EPF   001.00 094.0 m E Sg      2011/06/05 02:17:26.2   0.1                          T                1.0  .18 Ml 1.6         4704149

.
EVENT     259970
    Date      Time       Latitude Longitude    Depth    Ndef Nsta Gap    Mag1  N    Mag2  N    Mag3  N   Author         ID
       rms   OT_Error      Smajor Sminor Az        Err   mdist  Mdist     Err        Err        Err      Quality

2011/06/05 08:13:10.0     42.9095   -1.1546      2.0      16    3 076  Ml 1.3  1  Md 1.3  2              js067245    259970

      0.29   +-  0.07       1.5    1.1  179.32 +-  0.0    0.09   1.77   +-         +-0.3                 m i ke

PYRENEES
Sta     Dist  EvAz     Phase      Date       Time     TRes  Azim  AzRes  Slow  SRes Def   SNR       Amp   Per   Mag1   Mag2       ID
SJPF  000.21 345.8 m E Pg      2011/06/05 08:13:15.0   0.8                          T                                        4704158
SJPF  000.21 345.8 m E Sg      2011/06/05 08:13:18.1   0.9                          T                5.3  .18        Md 1.5  4704159
ETSF  000.44 091.2 m E Pg      2011/06/05 08:13:18.4  -0.1                          T                                        4704156
ETSF  000.44 091.2 m E Sg      2011/06/05 08:13:23.8  -0.5                          T                2.6  .26        Md 1.1  4704157
EPF   001.10 083.2 m E Pg      2011/06/05 08:13:30.7   0.0                          T                                        4704154
EPF   001.10 083.2 m E Sg      2011/06/05 08:13:44.7  -0.3                          T                 .7  .26 Ml 1.3         4704155

.
EVENT     260056
    Date      Time       Latitude Longitude    Depth    Ndef Nsta Gap    Mag1  N    Mag2  N    Mag3  N   Author         ID
       rms   OT_Error      Smajor Sminor Az        Err   mdist  Mdist     Err        Err        Err      Quality

2011/06/05 08:58:34.7     50.3701    7.3995     10.0 f    11    5 087  Ml 2.0  4  Md 2.1  1              js067245    260056

      0.39   +-  0.09       1.7    1.6  148.14 +-  0.0    0.17   2.07   +-0.2      +-                    m i ke

GERMANY
Sta     Dist  EvAz     Phase      Date       Time     TRes  Azim  AzRes  Slow  SRes Def   SNR       Amp   Per   Mag1   Mag2       ID
RUP   000.70 198.2 m E Pg      2011/06/05 08:58:47.7  -0.4                          T                                        4704183
RUP   000.70 198.2 m E Sg      2011/06/05 08:58:57.0  -0.4                          T                                Md 2.1  4704184
LANF  001.42 169.1 m E Pg      2011/06/05 08:59:01.2   0.1                          T                                        4704181
LANF  001.42 169.1 m E Sg      2011/06/05 08:59:19.7   0.2                          T                2.8  .27 Ml 2.0         4704182
GIVF  001.68 261.8 m E Pg      2011/06/05 08:59:05.9   0.0                          T                                        4704180
GIVF  001.68 261.8 m E Sg      2011/06/05 08:59:27.8   0.3                          T                4.3  .27 Ml 2.3         4704185
CDF   001.96 182.4 m E Pg      2011/06/05 08:59:10.8  -0.5                          T                                        4704178
CDF   001.96 182.4 m E Sg      2011/06/05 08:59:36.7   0.1                          T                 .7  .25 Ml 1.7         4704179
BAIF  002.07 262.6 m E Sg      2011/06/05 08:59:39.8  -0.1                          T                1.6  .25 Ml 2.0         4704186

.
EVENT     259971
    Date      Time       Latitude Longitude    Depth    Ndef Nsta Gap    Mag1  N    Mag2  N    Mag3  N   Author         ID
       rms   OT_Error      Smajor Sminor Az        Err   mdist  Mdist     Err        Err        Err      Quality

2011/06/05 09:25:58.3     43.8462   12.0232      2.0      17   11 274  Ml 2.8  7                         js067245    259971

      0.49   +-  0.51      10.8    5.1  108.60 +-  0.0    2.56   7.14   +-0.3                            m i ke

CENTRAL ITALY
Sta     Dist  EvAz     Phase      Date       Time     TRes  Azim  AzRes  Slow  SRes Def   SNR       Amp   Per   Mag1   Mag2       ID
PGF   002.56 240.6 m E Pn      2011/06/05 09:26:39.1  -0.1                          T                                        4704194
PGF   002.56 240.6 m E Sn      2011/06/05 09:27:09.9   0.9                          T                6.8  .44 Ml 2.8         4704193
SBF   003.32 271.9 m E Pn      2011/06/05 09:26:48.2  -1.2                          T                                        4704195
SBF   003.32 271.9 m E Sn      2011/06/05 09:27:28.3   1.2                          T                9.8  .34 Ml 3.0         4704192
FRF   003.91 267.7 m E Pn      2011/06/05 09:26:56.7  -0.6                          T                                        4704196
FRF   003.91 267.7 m E Sn      2011/06/05 09:27:40.9  -0.2                          T                2.3  .36 Ml 2.5         4704190
LPG   004.11 295.5 m E Pn      2011/06/05 09:27:00.9   0.5                          T                                        4704197
CABF  005.02 305.5 m E Pn      2011/06/05 09:27:12.6   0.0                          T                                        4704200
HINF  005.37 319.5 m E Pn      2011/06/05 09:27:17.3   0.1                          T                                        4704201
HINF  005.37 319.5 m E Sn      2011/06/05 09:28:15.4  -0.6                          T                2.0  .35 Ml 2.7         4704189
CDF   005.63 325.8 m E Pn      2011/06/05 09:27:20.7  -0.3                          T                                        4704203
CDF   005.63 325.8 m E Sn      2011/06/05 09:28:22.0  -0.4                          T                1.7  .25 Ml 3.0         4704187
HAU   005.74 318.4 m E Pn      2011/06/05 09:27:23.0   0.7                          T                                        4704202
HAU   005.74 318.4 m E Sn      2011/06/05 09:28:24.5  -0.4                          T                6.6  .34 Ml 3.1         4704188
SMF   006.42 298.7 m E Pn      2011/06/05 09:27:32.6   1.1                          T                                        4704199
MTLF  007.14 269.3 m E Pn      2011/06/05 09:27:41.1  -0.2                          T                                        4704198
LMR   004.04 264.6 m E Sn      2011/06/05 09:27:43.6  -0.5                          T                2.2  .40 Ml 2.4         4704191

.
EVENT     259972
    Date      Time       Latitude Longitude    Depth    Ndef Nsta Gap    Mag1  N    Mag2  N    Mag3  N   Author         ID
       rms   OT_Error      Smajor Sminor Az        Err   mdist  Mdist     Err        Err        Err      Quality

2011/06/05 11:13:12.4     43.0267    -.2428      2.0       8    5 124  Ml 1.8  2  Md 1.8  2              js067245    259972

      0.33   +-  0.07       2.8    1.0    2.53 +-  0.0    0.12   2.04   +-0.2      +-0.0                 m i ke

PYRENEES
Sta     Dist  EvAz     Phase      Date       Time     TRes  Azim  AzRes  Slow  SRes Def   SNR       Amp   Per   Mag1   Mag2       ID
ETSF  000.27 241.2 m E Pg      2011/06/05 11:13:17.6   0.0                          T                                        4704210
ETSF  000.27 241.2 m E Sg      2011/06/05 11:13:21.3   0.0                          T                8.8  .22        Md 1.8  4704211
EPF   000.43 089.3 m E Pg      2011/06/05 11:13:20.6  -0.1                          T                                        4704206
EPF   000.43 089.3 m E Sg      2011/06/05 11:13:27.2   0.9                          T                5.4  .18        Md 1.8  4704207
SJPF  000.72 277.2 m E Pg      2011/06/05 11:13:26.0  -0.1                          T                                        4704208
SJPF  000.72 277.2 m E Sg      2011/06/05 11:13:36.4   0.8                          T                1.2  .16                4704209
MTLF  001.83 079.3 m E Sg      2011/06/05 11:14:09.9   0.0                          T                 .8  .26 Ml 1.7         4704204
LFF   002.04 020.0 m E Sg      2011/06/05 11:14:16.5   0.0                          T                1.9  .26 Ml 1.9         4704205

.
EVENT     259978
    Date      Time       Latitude Longitude    Depth    Ndef Nsta Gap    Mag1  N    Mag2  N    Mag3  N   Author         ID
       rms   OT_Error      Smajor Sminor Az        Err   mdist  Mdist     Err        Err        Err      Quality

2011/06/05 13:13:35.0     43.1339     .0076      2.0       7    4 172  Ml 0.9  2  Md 1.7  2              js067245    259978

      0.19   +-  0.11       4.9    1.3  171.88 +-  0.0    0.26   1.63   +-0.4      +-0.0                 m i ke

FRANCE
Sta     Dist  EvAz     Phase      Date       Time     TRes  Azim  AzRes  Slow  SRes Def   SNR       Amp   Per   Mag1   Mag2       ID
EPF   000.26 112.9 m E Pg      2011/06/05 13:13:40.3   0.0                          T                                        4704217
EPF   000.26 112.9 m E Sg      2011/06/05 13:13:44.0   0.1                          T                3.7  .24        Md 1.7  4704218
ETSF  000.48 240.7 m E Pg      2011/06/05 13:13:44.2   0.0                          T                                        4704215
ETSF  000.48 240.7 m E Sg      2011/06/05 13:13:50.0  -0.5                          T                2.0  .22        Md 1.7  4704216
SJPF  000.90 269.1 m E Sg      2011/06/05 13:14:04.0   0.2                          T                 .1  .20 Ml  .6         4704214
MTLF  001.63 081.9 m E Pg      2011/06/05 13:14:05.2  -0.2                          T                                        4704212
MTLF  001.63 081.9 m E Sg      2011/06/05 13:14:26.5   0.1                          T                 .4  .29 Ml 1.3         4704213

.
