EVENT     270162
    Date      Time       Latitude Longitude    Depth    Ndef Nsta Gap    Mag1  N    Mag2  N    Mag3  N   Author         ID
       rms   OT_Error      Smajor Sminor Az        Err   mdist  Mdist     Err        Err        Err      Quality

2012/02/15 20:46:36.8     41.4902   12.9777     10.0      76   23 081  Ml 3.2  7                         js067245    270182

      0.78   +-  0.10       2.9    1.7   18.87 +-  0.0    0.28  10.74   +-0.2                            m i ke

SOUTHERN ITALY
Sta     Dist  EvAz     Phase      Date       Time     TRes  Azim  AzRes  Slow  SRes Def   SNR       Amp   Per   Mag1   Mag2       ID
PGF   003.15 290.9 m E Pn      2012/02/15 20:47:25.0   0.3                          T                                        4839497
PGF   003.15 290.9 m E Sn      2012/02/15 20:47:59.6  -0.4                          T               21.4  .47 Ml 3.4         4839496
SBF   004.72 302.0 m E Pn      2012/02/15 20:47:46.3   0.2                          T                                        4839498
SBF   004.72 302.0 m E Sn      2012/02/15 20:48:37.3  -0.4                          T               13.9  .47 Ml 3.3         4839495
FRF   005.12 296.0 m E Pn      2012/02/15 20:47:51.3   0.0                          T                                        4839500
LMR   005.13 293.2 m E Pn      2012/02/15 20:47:51.5   0.0                          T                                        4839499
LMR   005.13 293.2 m E Sn      2012/02/15 20:48:47.1  -0.2                          T                2.8  .32 Ml 2.9         4839494
MBDF  005.58 307.5 m E Pn      2012/02/15 20:47:59.8   2.0                          T                                        4839505
MBDF  005.58 307.5 m E Sn      2012/02/15 20:48:57.7  -0.4                          T                6.5  .55 Ml 3.1         4839493
SMRF  005.99 297.0 m E Pn      2012/02/15 20:48:04.6   1.3                          T                                        4839501
LPG   006.04 313.6 m E P       2012/02/15 20:48:08.1  -0.9                          T                                        4839502
LPL   006.07 313.6 m E P       2012/02/15 20:48:08.8  -0.4                          T                                        4839503
ORIF  006.22 305.8 m E P       2012/02/15 20:48:10.4  -0.8                          T                                        4839504
VIVF  006.94 301.8 m E Pn      2012/02/15 20:48:16.9   0.6                          T                                        4839506
CABF  007.13 318.2 m E Pn      2012/02/15 20:48:18.4  -0.5                          T                                        4839517
CABF  007.13 318.2 m E P       2012/02/15 20:48:23.6  -0.4                          T                                        4839516
LASF  007.19 294.1 m E Pn      2012/02/15 20:48:19.8   0.1                          T                                        4839507
HINF  007.68 327.5 m E Pn      2012/02/15 20:48:26.4   0.1                          T                                        4839518
HINF  007.68 327.5 m E Sn      2012/02/15 20:49:48.2  -0.1                          T                3.1  .47 Ml 3.2         4839492
CDF   008.01 331.7 m E Pn      2012/02/15 20:48:30.9  -0.1                          T                                        4839520
CDF   008.01 331.7 m E Sn      2012/02/15 20:49:56.2  -0.1                          T                2.2  .43 Ml 3.2         4839490
HAU   008.04 326.3 m E Pn      2012/02/15 20:48:31.3   0.1                          T                                        4839519
HAU   008.04 326.3 m E Sn      2012/02/15 20:49:56.7  -0.2                          T                3.3  .44 Ml 3.1         4839491
SMF   008.35 311.1 m E Pn      2012/02/15 20:48:35.2  -0.3                          T                                        4839514
SMF   008.35 311.1 m E P       2012/02/15 20:48:40.2  -0.8                          T                                        4839513
CAF   008.68 296.9 m E Pn      2012/02/15 20:48:40.2   0.3                          T                                        4839508
AVF   008.71 310.7 m E Pn      2012/02/15 20:48:41.3   1.0                          T                                        4839515
BGF   008.88 308.2 m E Pn      2012/02/15 20:48:42.4  -0.2                          T                                        4839512
LOR   008.71 314.6 m E P       2012/02/15 20:48:44.0  -2.1                          T                                        4839522
RJF   009.17 298.4 m E Pn      2012/02/15 20:48:46.5  -0.1                          T                                        4839509
TCF   009.13 305.3 m E P       2012/02/15 20:48:48.6  -3.2                          T                                        4839521
MFF   010.74 302.8 m E Pn      2012/02/15 20:49:08.9   1.0                          T                                        4839510

.
EVENT     270176
    Date      Time       Latitude Longitude    Depth    Ndef Nsta Gap    Mag1  N    Mag2  N    Mag3  N   Author         ID
       rms   OT_Error      Smajor Sminor Az        Err   mdist  Mdist     Err        Err        Err      Quality

2012/02/15 20:55:09.1     44.3463    7.2706      2.0      21    7 110  Ml 1.3  5  Md 1.4  2              js067245    270196

      0.32   +-  0.07       1.6    1.1   66.18 +-  0.0    0.11   1.23   +-0.5      +-0.1                 m i ke

NORTHERN ITALY
Sta     Dist  EvAz     Phase      Date       Time     TRes  Azim  AzRes  Slow  SRes Def   SNR       Amp   Per   Mag1   Mag2       ID
MBDF  000.52 317.0 m E Pg      2012/02/15 20:55:18.8  -0.4                          T                                        4839532
MBDF  000.52 317.0 m E Sg      2012/02/15 20:55:26.2   0.1                          T                3.1  .22        Md 1.3  4839533
SBF   000.50 166.2 m E Pg      2012/02/15 20:55:18.9   0.3                          T                                        4839530
SBF   000.50 166.2 m E Sg      2012/02/15 20:55:25.5   0.3                          T                3.4  .27        Md 1.4  4839531
FRF   000.91 210.1 m E Pg      2012/02/15 20:55:25.9  -0.2                          T                                        4839528
FRF   000.91 210.1 m E Sg      2012/02/15 20:55:37.6  -0.2                          T                2.3  .22 Ml 1.8         4839529
LMR   001.15 208.8 m E Pg      2012/02/15 20:55:30.6   0.0                          T                                        4839526
LMR   001.15 208.8 m E Sg      2012/02/15 20:55:45.5   0.0                          T                2.2  .22 Ml 1.9         4839527
ORIF  001.15 300.4 m E Sg      2012/02/15 20:55:45.5   0.1                          T                 .2  .19 Ml  .9         4839525
LPG   001.21 342.4 m E Sg      2012/02/15 20:55:47.6  -0.1                          T                 .2  .17 Ml  .9         4839523
LPL   001.23 342.1 m E Sg      2012/02/15 20:55:48.2  -0.1                          T                 .4  .21 Ml 1.2         4839524

.
EVENT     270164
    Date      Time       Latitude Longitude    Depth    Ndef Nsta Gap    Mag1  N    Mag2  N    Mag3  N   Author         ID
       rms   OT_Error      Smajor Sminor Az        Err   mdist  Mdist     Err        Err        Err      Quality

2012/02/16 00:38:19.7     43.1141   -1.1343      2.0      11    2 162  Ml 1.3  1  Md 1.3  2              js067245    270184

      0.38   +-  0.12       3.3    1.9    3.54 +-  0.0    0.07   1.08   +-         +-0.5                 m i ke

PYRENEES
Sta     Dist  EvAz     Phase      Date       Time     TRes  Azim  AzRes  Slow  SRes Def   SNR       Amp   Per   Mag1   Mag2       ID
SJPF  000.07 269.3 m E Pg      2012/02/16 00:38:21.8   0.4                          T                                        4839534
SJPF  000.07 269.3 m E Sg      2012/02/16 00:38:23.3   0.8                          T               12.7  .18        Md 1.7  4839535
EPF   001.08 093.9 m E Pg      2012/02/16 00:38:40.1   0.1                          T                                        4839536
EPF   001.08 093.9 m E Sg      2012/02/16 00:38:54.0  -0.1                          T                 .7  .24 Ml 1.3 Md 1.0  4839537

.
EVENT     270165
    Date      Time       Latitude Longitude    Depth    Ndef Nsta Gap    Mag1  N    Mag2  N    Mag3  N   Author         ID
       rms   OT_Error      Smajor Sminor Az        Err   mdist  Mdist     Err        Err        Err      Quality

2012/02/16 03:24:01.3     42.3681    1.7736     12.0 f    35    6 061  Ml 1.8  6                         js067245    270185

      0.41   +-  0.07       1.5    1.2  169.93 +-  0.0    0.19   2.94   +-0.3                            m i ke

PYRENEES
Sta     Dist  EvAz     Phase      Date       Time     TRes  Azim  AzRes  Slow  SRes Def   SNR       Amp   Per   Mag1   Mag2       ID
EPF   001.25 302.5 m E Pg      2012/02/16 03:24:24.3  -0.4                          T                                        4839543
EPF   001.25 302.5 m E Sg      2012/02/16 03:24:41.0   0.1                          T                3.8  .21 Ml 2.2         4839544
LASF  002.29 041.0 m E Sg      2012/02/16 03:25:13.4   0.1                          T                 .8  .25 Ml 1.8         4839538
SJPF  002.33 289.6 m E Sg      2012/02/16 03:25:14.7   0.0                          T                 .5  .19 Ml 1.7         4839542
CAF   002.57 004.6 m E Sg      2012/02/16 03:25:22.0   0.0                          T                1.8  .25 Ml 2.2         4839541
LFF   002.68 344.1 m E Sg      2012/02/16 03:25:25.6   0.2                          T                  1  .26 Ml 1.8         4839540
RJF   002.94 356.5 m E Sg      2012/02/16 03:25:33.8   0.1                          T                 .5  .20 Ml 1.5         4839539

.
EVENT     270163
    Date      Time       Latitude Longitude    Depth    Ndef Nsta Gap    Mag1  N    Mag2  N    Mag3  N   Author         ID
       rms   OT_Error      Smajor Sminor Az        Err   mdist  Mdist     Err        Err        Err      Quality

2012/02/16 07:06:12.2     51.5706    6.8597      1.0 f    57   19 112  Ml 3.0 18  Md 3.0  1              js067245    270183

      1.05   +-  0.11       2.2    1.8  125.07 +-  0.0    0.24   6.77   +-0.2      +-                    m i sr

GERMANY
Sta     Dist  EvAz     Phase      Date       Time     TRes  Azim  AzRes  Slow  SRes Def   SNR       Amp   Per   Mag1   Mag2       ID
GIVF  001.96 222.1 m E Pn      2012/02/16 07:06:45.2   0.4                          T   001.0                                4838592
GIVF  001.96 222.1 m E Pg      2012/02/16 07:06:48.7   0.1                          T                                        4839584
GIVF  001.96 222.1 m E Sn      2012/02/16 07:07:08.7   0.1                          T   001.0       98.5  .56 Ml 3.4 Md 3.0  4838593
BAIF  002.26 229.1 m E Pn      2012/02/16 07:06:49.2   0.3                          T                                        4839583
BAIF  002.26 229.1 m E Pg      2012/02/16 07:06:54.1  -0.1                          T                                        4839582
BAIF  002.26 229.1 m E Sn      2012/02/16 07:07:16.3   0.4                          T               15.9  .35 Ml 2.9         4839567
CDF   003.17 175.0 m E Pn      2012/02/16 07:07:01.7   0.2                          T   001.0                                4838578
CDF   003.17 175.0 m E Pg      2012/02/16 07:07:10.3  -0.8                          T                                        4839581
CDF   003.17 175.0 m E Sn      2012/02/16 07:07:37.7  -0.1                          T                                        4839570
CDF   003.17 175.0 m E Sg      2012/02/16 07:07:52.6   0.7                          T               12.0  .47 Ml 3.0         4839566
SFTF  003.57 200.0 m E Pn      2012/02/16 07:07:07.0   0.3                          T                                        4839578
SFTF  003.57 200.0 m E Pg      2012/02/16 07:07:18.3  -0.1                          T                                        4839577
SFTF  003.57 200.0 m E Sg      2012/02/16 07:08:04.3   0.1  22.9  4.3               T               10.9  .32 Ml 3.1         4839563
PAGF  003.11 194.1 m E Pg      2012/02/16 07:07:09.4  -0.4  22.3  9.1               T                                        4839580
PAGF  003.11 194.1 m E Sg      2012/02/16 07:07:50.1   0.3  13.0  -0.2              T                5.8  .56 Ml 2.5         4839565
HINF  003.76 180.1 m E P       2012/02/16 07:07:12.5  -0.2                          T                                        4839576
HINF  003.76 180.1 m E Sg      2012/02/16 07:08:10.1   0.0                          T                5.6  .32 Ml 2.8         4839561
MEZF  003.29 201.5 m E Pg      2012/02/16 07:07:12.6  -0.5  28.2  8.1               T                                        4839579
MEZF  003.29 201.5 m E Sg      2012/02/16 07:07:55.4   0.1  24.7  4.6               T               19.6  .42 Ml 3.2         4839564
LOR   004.73 205.6 m E Pn      2012/02/16 07:07:23.3   0.7  36.4  13.0              T   001.0                                4838584
LOR   004.73 205.6 m E Sn      2012/02/16 07:08:13.4  -1.5  20.3  -3.1              T   001.0        3.3  .24 Ml 3.0         4838585
LOR   004.73 205.6 m E Sg      2012/02/16 07:08:40.5   0.1  23.2  -0.1              T                6.2  .31 Ml 3.1         4839569
CABF  004.99 186.1 m E Pn      2012/02/16 07:07:25.8  -0.4                          T   001.0                                4838591
SSF   005.02 207.2 m E Pn      2012/02/16 07:07:26.3  -0.2                          T   001.0                                4838588
SSF   005.02 207.2 m E Sg      2012/02/16 07:08:48.7  -0.7                          T                8.0  .36 Ml 3.3         4839568
SMF   005.31 203.1 m E Pn      2012/02/16 07:07:29.8  -0.7                          T   001.0                                4838586
SMF   005.31 203.1 m E Sg      2012/02/16 07:08:59.0   0.4                          T   001.0        5.6  .36 Ml 3.1         4838587
AVF   005.31 207.0 m E Pn      2012/02/16 07:07:30.3  -0.1                          T   001.0                                4838577
LDF   005.39 239.2 m E Pn      2012/02/16 07:07:31.3  -0.3                          T   001.0                                4838582
LDF   005.39 239.2 m E Sn      2012/02/16 07:08:31.0   0.4                          T   001.0        6.9  .64 Ml 3.0         4838583
FLN   005.49 242.1 m E Pn      2012/02/16 07:07:33.0   0.1  59.6  3.2               T                                        4839574
FLN   005.49 242.1 m E Sn      2012/02/16 07:08:33.2   0.2  72.2  15.8              T   001.0        3.5  .32 Ml 2.9         4838579
BGF   005.67 209.3 m E Pn      2012/02/16 07:07:35.3   0.0                          T                                        4839575
BGF   005.67 209.3 m E Sn      2012/02/16 07:08:37.0  -0.2                          T                                        4839571
BGF   005.67 209.3 m E Sg      2012/02/16 07:09:10.2   0.5                          T               14.7  .48 Ml 3.5         4839560
GRR   005.91 240.4 m E Pn      2012/02/16 07:07:38.3  -0.3                          T   001.0                                4838580
GRR   005.91 240.4 m E Sn      2012/02/16 07:08:42.2  -0.8                          T                4.8  .24 Ml 3.2         4839572
TCF   006.11 211.9 m E Pn      2012/02/16 07:07:42.8   1.4                          T   001.0                                4838589
TCF   006.11 211.9 m E Sn      2012/02/16 07:08:48.0   0.2                          T   001.0        2.5  .36 Ml 3.0         4838590
HAU   003.58 185.5 m E Sn      2012/02/16 07:07:46.4  -1.1                          T   001.0       13.5  .40 Ml 2.9         4838581
HAU   003.58 185.5 m E Sg      2012/02/16 07:08:04.9   0.2                          T               14.9  .42 Ml 2.9         4839562
MFF   006.77 225.5 m E Pn      2012/02/16 07:07:50.1  -0.3                          T                                        4839573

.
EVENT     270227
    Date      Time       Latitude Longitude    Depth    Ndef Nsta Gap    Mag1  N    Mag2  N    Mag3  N   Author         ID
       rms   OT_Error      Smajor Sminor Az        Err   mdist  Mdist     Err        Err        Err      Quality

2012/02/16 10:52:46.1     47.5676    8.1582       .0 f    13    4 127  Ml 2.2  4                         js067245    270247

      0.47   +-  0.11       2.9    1.8  163.32 +-  0.0    0.05   1.71   +-0.1                            m i km

SWITZERLAND
Sta     Dist  EvAz     Phase      Date       Time     TRes  Azim  AzRes  Slow  SRes Def   SNR       Amp   Per   Mag1   Mag2       ID
HINF  000.92 286.3 m E Pn      2012/02/16 10:53:04.5  -0.3                          T                                        4839587
HINF  000.92 286.3 m E Sg      2012/02/16 10:53:15.5  -0.3                          T                                        4839593
HINF  000.92 286.3 m E Sn      2012/02/16 10:53:17.7  -0.4                          T                7.1  .20 Ml 2.3         4839594
CDF   001.03 325.3 m E Pn      2012/02/16 10:53:06.3  -0.2                          T                                        4839590
CDF   001.03 325.3 m E Sn      2012/02/16 10:53:20.7  -0.2                          T                4.8  .24 Ml 2.2         4839591
HAU   001.30 290.4 m E Pg      2012/02/16 10:53:10.2  -0.4                          T                                        4839588
HAU   001.30 290.4 m E P       2012/02/16 10:53:11.3  -0.2                          T                                        4839589
HAU   001.30 290.4 m E Sg      2012/02/16 10:53:27.3  -0.2                          T                5.1  .21 Ml 2.1         4839592
CABF  001.71 236.7 m E Pg      2012/02/16 10:53:18.0  -0.3                          T                                        4839585
CABF  001.71 236.7 m E Sg      2012/02/16 10:53:40.0  -0.5                          T                2.3  .23 Ml 2.1         4839586

.
EVENT     270195
    Date      Time       Latitude Longitude    Depth    Ndef Nsta Gap    Mag1  N    Mag2  N    Mag3  N   Author         ID
       rms   OT_Error      Smajor Sminor Az        Err   mdist  Mdist     Err        Err        Err      Quality

2012/02/16 11:52:25.4     45.7177    6.9735      2.0      17    5 112  Ml 1.5  3  Md 1.4  2              js067245    270215

      0.18   +-  0.04       1.0     .6  102.00 +-  0.0    0.09   1.11   +-0.2      +-0.0                 m i ke

FRANCE
Sta     Dist  EvAz     Phase      Date       Time     TRes  Azim  AzRes  Slow  SRes Def   SNR       Amp   Per   Mag1   Mag2       ID
LPL   000.26 220.1 m E Pg      2012/02/16 11:52:30.9   0.1                          T                                        4839595
LPL   000.26 220.1 m E Sg      2012/02/16 11:52:34.3  -0.1                          T                9.1  .31        Md 1.4  4839596
LPG   000.27 215.4 m E Pg      2012/02/16 11:52:31.1   0.0                          T                                        4839597
LPG   000.27 215.4 m E Sg      2012/02/16 11:52:35.0   0.3                          T               10.0  .18        Md 1.4  4839598
CABF  001.09 325.7 m E Pg      2012/02/16 11:52:45.8   0.0                          T                                        4839601
CABF  001.09 325.7 m E Sg      2012/02/16 11:52:59.9   0.0                          T                1.0  .22 Ml 1.5         4839602
MBDF  001.00 188.3 m E Sg      2012/02/16 11:52:57.3   0.0                          T                 .7  .25 Ml 1.2         4839600
ORIF  001.11 224.4 m E Sg      2012/02/16 11:53:00.6  -0.1                          T                1.4  .26 Ml 1.6         4839599

.
