EVENT     262751
    Date      Time       Latitude Longitude    Depth    Ndef Nsta Gap    Mag1  N    Mag2  N    Mag3  N   Author         ID
       rms   OT_Error      Smajor Sminor Az        Err   mdist  Mdist     Err        Err        Err      Quality

2011/08/20 10:40:58.0     44.7556    8.3027      2.0      16    8 270  Ml 2.2  8  Md 1.9  1              js067245    262751

      0.35   +-  0.33       5.3    2.7   77.05 +-  0.0    1.09   2.59   +-0.3      +-                    m i ke

NORTHERN ITALY
Sta     Dist  EvAz     Phase      Date       Time     TRes  Azim  AzRes  Slow  SRes Def   SNR       Amp   Per   Mag1   Mag2       ID
SBF   001.09 215.2 m E Pg      2011/08/20 10:41:18.6   0.1                          T                                        4739690
SBF   001.09 215.2 m E Sg      2011/08/20 10:41:32.7   0.1                          T               17.6  .32 Ml 2.6         4739681
MBDF  001.09 269.0 m E Pg      2011/08/20 10:41:19.1   0.4                          T                                        4739688
MBDF  001.09 269.0 m E Sg      2011/08/20 10:41:32.0  -0.8                          T                5.5  .24 Ml 2.2 Md 1.9  4739685
LPG   001.33 304.6 m E Pg      2011/08/20 10:41:23.0  -0.1                          T                                        4739680
FRF   001.69 225.5 m E Pg      2011/08/20 10:41:29.1  -0.4                          T                                        4739691
FRF   001.69 225.5 m E Sg      2011/08/20 10:41:51.5   0.3                          T                3.5  .22 Ml 2.4         4739683
ORIF  001.73 276.2 m E Pg      2011/08/20 10:41:30.4   0.0                          T                                        4739687
ORIF  001.73 276.2 m E Sg      2011/08/20 10:41:52.4  -0.3                          T                2.7  .28 Ml 2.1         4739684
LMR   001.92 222.9 m E Pg      2011/08/20 10:41:33.4  -0.4                          T                                        4739689
LMR   001.92 222.9 m E Sg      2011/08/20 10:41:58.9   0.4                          T                5.3  .27 Ml 2.5         4739682
SMRF  002.11 249.2 m E Pg      2011/08/20 10:41:37.5   0.3                          T                                        4739686
SMRF  002.11 249.2 m E Sg      2011/08/20 10:42:04.2  -0.1                          T                1.8  .29 Ml 2.0         4739679
VIVF  002.59 273.5 m E Sn      2011/08/20 10:42:10.1   0.8                          T                 .5  .16 Ml 1.8         4739678

.
EVENT     262752
    Date      Time       Latitude Longitude    Depth    Ndef Nsta Gap    Mag1  N    Mag2  N    Mag3  N   Author         ID
       rms   OT_Error      Smajor Sminor Az        Err   mdist  Mdist     Err        Err        Err      Quality

2011/08/20 10:49:03.5     45.9205   15.3624     10.0      35   10 050  Ml 3.1  4                         js067245    262752

      0.37   +-  0.07       2.1    1.6  179.04 +-  0.0    0.04   8.76   +-0.1                            m i ke

NORTHWESTERN BALKAN PEN.
Sta     Dist  EvAz     Phase      Date       Time     TRes  Azim  AzRes  Slow  SRes Def   SNR       Amp   Per   Mag1   Mag2       ID
LPG   006.05 269.1 m E P       2011/08/20 10:50:36.0   0.3                          T                                        4739710
HINF  006.14 291.1 m E P       2011/08/20 10:50:36.3  -0.4                          T                                        4739720
HINF  006.14 291.1 m E Sn      2011/08/20 10:51:38.9   0.8                          T                3.0  .29 Ml 3.1         4739709
CABF  006.47 279.5 m E P       2011/08/20 10:50:41.0  -0.4                          T                                        4739719
HAU   006.51 291.9 m E P       2011/08/20 10:50:41.6  -0.4                          T                                        4739721
FRF   006.64 252.3 m E P       2011/08/20 10:50:43.6  -0.2                          T                                        4739714
FRF   006.64 252.3 m E Sn      2011/08/20 10:51:50.6   0.5                          T                3.2  .43 Ml 3.1         4739712
LMR   006.83 250.9 m E P       2011/08/20 10:50:45.9  -0.4                          T                                        4739713
LMR   006.83 250.9 m E Sn      2011/08/20 10:51:54.5   0.0                          T                1.1  .24 Ml 2.9         4739711
VIVF  007.60 265.8 m E P       2011/08/20 10:50:56.5  -0.7                          T                                        4739715
SMF   008.02 279.3 m E P       2011/08/20 10:51:02.7  -0.3                          T                                        4739717
LOR   008.04 283.8 m E P       2011/08/20 10:51:03.5   0.1                          T                                        4739722
LOR   008.04 283.8 m E Sn      2011/08/20 10:52:24.0   0.4                          T                2.0  .39 Ml 3.2         4739708
AVF   008.36 280.3 m E P       2011/08/20 10:51:07.2  -0.5                          T                                        4739718

.
EVENT     262753
    Date      Time       Latitude Longitude    Depth    Ndef Nsta Gap    Mag1  N    Mag2  N    Mag3  N   Author         ID
       rms   OT_Error      Smajor Sminor Az        Err   mdist  Mdist     Err        Err        Err      Quality

2011/08/20 12:05:10.1     44.7406    8.1119      2.0      17    8 214  Ml 1.8  7  Md 1.8  1              js067245    262753

      0.19   +-  0.12       2.2    1.1   51.93 +-  0.0    0.96   2.28   +-0.2      +-                    m i ke

NORTHERN ITALY
Sta     Dist  EvAz     Phase      Date       Time     TRes  Azim  AzRes  Slow  SRes Def   SNR       Amp   Per   Mag1   Mag2       ID
MBDF  000.96 269.6 m E Pg      2011/08/20 12:05:28.2  -0.1                          T                                        4739735
MBDF  000.96 269.6 m E Sg      2011/08/20 12:05:40.9   0.2                          T                2.3  .22 Ml 1.8 Md 1.8  4739734
SBF   001.00 209.2 m E Pg      2011/08/20 12:05:29.2   0.2                          T                                        4739739
SBF   001.00 209.2 m E Sg      2011/08/20 12:05:42.0  -0.1                          T                6.6  .26 Ml 2.2         4739730
LPL   001.25 308.9 m E Pg      2011/08/20 12:05:34.0   0.2                          T                                        4739727
LPL   001.25 308.9 m E Sg      2011/08/20 12:05:50.0   0.2                          T                1.2  .31 Ml 1.5         4739728
FRF   001.58 222.3 m E Pg      2011/08/20 12:05:39.5  -0.1                          T                                        4739737
FRF   001.58 222.3 m E Sg      2011/08/20 12:06:00.2   0.2                          T                1.6  .22 Ml 2.0         4739732
ORIF  001.60 277.2 m E Pg      2011/08/20 12:05:39.8  -0.3                          T                                        4739736
ORIF  001.60 277.2 m E Sg      2011/08/20 12:06:01.1   0.4                          T                1.5  .26 Ml 1.8         4739733
LMR   001.82 220.0 m E Pg      2011/08/20 12:05:43.9  -0.1                          T                                        4739738
LMR   001.82 220.0 m E Sg      2011/08/20 12:06:07.9   0.4                          T                 .7  .15 Ml 1.9         4739731
SMRF  001.97 248.1 m E Pg      2011/08/20 12:05:46.6  -0.3                          T                                        4739726
PGF   002.28 163.3 m E Pg      2011/08/20 12:05:52.8   0.1                          T                                        4739729

.
EVENT     262754
    Date      Time       Latitude Longitude    Depth    Ndef Nsta Gap    Mag1  N    Mag2  N    Mag3  N   Author         ID
       rms   OT_Error      Smajor Sminor Az        Err   mdist  Mdist     Err        Err        Err      Quality

2011/08/20 13:08:13.5     45.0305    6.4536      2.0      22   10 119  Ml 2.1  6  Md 1.9  3              js067245    262754

      1.19   +-  0.26       5.6    4.3   96.11 +-  0.0    0.38   1.70   +-0.2      +-0.1                 m i ke

FRANCE
Sta     Dist  EvAz     Phase      Date       Time     TRes  Azim  AzRes  Slow  SRes Def   SNR       Amp   Per   Mag1   Mag2       ID
MBDF  000.38 143.2 m E Pg      2011/08/20 13:08:19.7  -1.3                          T                                        4739875
MBDF  000.38 143.2 m E Sg      2011/08/20 13:08:25.2  -0.9                          T               12.7  .27        Md 1.9  4739867
ORIF  000.42 254.8 m E Pg      2011/08/20 13:08:20.6  -1.2                          T                                        4739874
ORIF  000.42 254.8 m E Sg      2011/08/20 13:08:25.5  -1.9                          T               10.1  .24        Md 2.1  4739866
LPG   000.51 024.1 m E Pg      2011/08/20 13:08:23.1  -0.5                          T                                        4739872
LPG   000.51 024.1 m E Sg      2011/08/20 13:08:29.9  -0.5                          T                3.1  .23        Md 1.9  4739864
LPL   000.52 022.0 m E Pg      2011/08/20 13:08:23.6  -0.2                          T                                        4739873
LPL   000.52 022.0 m E Sg      2011/08/20 13:08:29.5  -1.2                          T                6.7  .21                4739865
SMRF  001.23 211.1 m E Pg      2011/08/20 13:08:37.4   0.9                          T                                        4739871
SMRF  001.23 211.1 m E Sg      2011/08/20 13:08:53.6   1.2                          T                6.5  .44 Ml 2.1         4739863
VIVF  001.28 262.8 m E Pg      2011/08/20 13:08:37.8   0.4                          T                                        4739876
VIVF  001.28 262.8 m E Sg      2011/08/20 13:08:56.6   2.6                          T                3.2  .35 Ml 1.9         4739877
SBF   001.36 148.6 m E Pg      2011/08/20 13:08:40.1   1.1                          T                                        4739868
SBF   001.36 148.6 m E Sg      2011/08/20 13:08:57.8   1.2                          T                8.1  .32 Ml 2.4         4739860
FRF   001.48 174.5 m E Pg      2011/08/20 13:08:41.2   0.1                          T                                        4739870
FRF   001.48 174.5 m E Sg      2011/08/20 13:09:01.5   1.4                          T                2.1  .24 Ml 2.0         4739862
CABF  001.60 350.9 m E Pg      2011/08/20 13:08:44.5   1.1                          T                                        4739879
CABF  001.60 350.9 m E Sg      2011/08/20 13:09:06.5   2.3                          T                2.0  .26 Ml 2.0         4739878
LMR   001.70 178.6 m E Pg      2011/08/20 13:08:44.5  -0.5                          T                                        4739869
LMR   001.70 178.6 m E Sg      2011/08/20 13:09:05.2  -1.8                          T                3.1  .26 Ml 2.2         4739861

.
EVENT     262755
    Date      Time       Latitude Longitude    Depth    Ndef Nsta Gap    Mag1  N    Mag2  N    Mag3  N   Author         ID
       rms   OT_Error      Smajor Sminor Az        Err   mdist  Mdist     Err        Err        Err      Quality

2011/08/20 13:15:20.7     45.0251    6.4372      2.0      16    7 119  Ml 1.5  3  Md 1.5  3              js067245    262755

      0.55   +-  0.16       3.4    2.8  124.04 +-  0.0    0.38   1.69   +-0.1      +-0.1                 m i ke

FRANCE
Sta     Dist  EvAz     Phase      Date       Time     TRes  Azim  AzRes  Slow  SRes Def   SNR       Amp   Per   Mag1   Mag2       ID
MBDF  000.38 141.3 m E Pg      2011/08/20 13:15:27.7  -0.5                          T                                        4739894
MBDF  000.38 141.3 m E Sg      2011/08/20 13:15:33.2  -0.1                          T                3.3  .28        Md 1.4  4739887
ORIF  000.41 255.1 m E Pg      2011/08/20 13:15:28.7   0.0                          T                                        4739893
ORIF  000.41 255.1 m E Sg      2011/08/20 13:15:33.3  -0.8                          T                2.3  .23        Md 1.5  4739886
LPG   000.52 025.0 m E Pg      2011/08/20 13:15:30.7  -0.3                          T                                        4739891
LPG   000.52 025.0 m E Sg      2011/08/20 13:15:38.6   0.7                          T                 .9  .25        Md 1.5  4739884
LPL   000.53 022.9 m E Pg      2011/08/20 13:15:31.6   0.5                          T                                        4739892
LPL   000.53 022.9 m E Sg      2011/08/20 13:15:37.1  -1.0                          T                1.2  .17                4739885
VIVF  001.26 262.9 m E Pg      2011/08/20 13:15:44.5   0.1                          T                                        4739889
VIVF  001.26 262.9 m E Sg      2011/08/20 13:16:01.2   0.5                          T                 .9  .34 Ml 1.3         4739888
FRF   001.47 174.1 m E Pg      2011/08/20 13:15:49.1   0.9                          T                                        4739895
FRF   001.47 174.1 m E Sg      2011/08/20 13:16:09.0   1.9                          T                 .8  .28 Ml 1.5         4739883
LMR   001.69 178.2 m E Pg      2011/08/20 13:15:51.6  -0.6                          T                                        4739890
LMR   001.69 178.2 m E Sg      2011/08/20 13:16:14.5   0.5                          T                 .6  .24 Ml 1.5         4739882

.
EVENT     262756
    Date      Time       Latitude Longitude    Depth    Ndef Nsta Gap    Mag1  N    Mag2  N    Mag3  N   Author         ID
       rms   OT_Error      Smajor Sminor Az        Err   mdist  Mdist     Err        Err        Err      Quality

2011/08/20 13:51:55.4     44.4468    7.3292      2.0      19    9 193  Ml 2.1  8  Md 2.1  2              js067245    262756

      0.48   +-  0.18       3.9    1.7   77.84 +-  0.0    0.49   1.94   +-0.5      +-0.3                 m i ke

NORTHERN ITALY
Sta     Dist  EvAz     Phase      Date       Time     TRes  Azim  AzRes  Slow  SRes Def   SNR       Amp   Per   Mag1   Mag2       ID
MBDF  000.49 305.3 m E Pg      2011/08/20 13:52:05.0   0.1                          T                                        4739758
MBDF  000.49 305.3 m E Sg      2011/08/20 13:52:11.5   0.2                          T                9.6  .19        Md 1.9  4739752
SBF   000.59 172.5 m E Pg      2011/08/20 13:52:06.8   0.1                          T                                        4739754
SBF   000.59 172.5 m E Sg      2011/08/20 13:52:14.4   0.0                          T                9.1  .22        Md 2.3  4739746
FRF   001.01 209.3 m E Pg      2011/08/20 13:52:14.2  -0.3                          T                                        4739756
FRF   001.01 209.3 m E Sg      2011/08/20 13:52:27.0  -0.6                          T               10.9  .23 Ml 2.5         4739747
ORIF  001.14 295.0 m E Pg      2011/08/20 13:52:16.8   0.0                          T                                        4739757
ORIF  001.14 295.0 m E Sg      2011/08/20 13:52:30.7  -0.8                          T                1.3  .21 Ml 1.7         4739744
LPG   001.13 338.9 m E Pg      2011/08/20 13:52:16.9   0.0                          T                                        4739745
LPG   001.13 338.9 m E Sg      2011/08/20 13:52:31.5   0.0                          T                1.3  .19 Ml 1.7         4739742
LPL   001.15 338.6 m E Pg      2011/08/20 13:52:17.3   0.1                          T                                        4739750
LPL   001.15 338.6 m E Sg      2011/08/20 13:52:31.5  -0.7                          T                3.7  .30 Ml 2.0         4739743
LMR   001.26 208.3 m E Pg      2011/08/20 13:52:19.1   0.1                          T                                        4739755
LMR   001.26 208.3 m E Sg      2011/08/20 13:52:34.5  -0.8                          T               22.1  .26 Ml 2.9         4739753
SMRF  001.35 250.1 m E Pg      2011/08/20 13:52:21.7   1.1                          T                                        4739749
SMRF  001.35 250.1 m E Sg      2011/08/20 13:52:39.4   1.4                          T                5.5  .27 Ml 2.3         4739748
VIVF  001.94 283.1 m E Sn      2011/08/20 13:52:52.2   1.0                          T                 .6  .18 Ml 1.7         4739751

.
