EVENT     275314
    Date      Time       Latitude Longitude    Depth    Ndef Nsta Gap    Mag1  N    Mag2  N    Mag3  N   Author         ID
       rms   OT_Error      Smajor Sminor Az        Err   mdist  Mdist     Err        Err        Err      Quality

2012/05/02 12:08:01.0     44.4751    6.6667      2.0      28    8 070  Ml 1.7  5  Md 1.7  3              bulletin    275414
                                                                                                         _ldg
      0.64   +-  0.05       1.1     .9   73.56 +-  0.0    0.10   1.15   +-0.3      +-0.1                 m i ke

FRANCE
Sta     Dist  EvAz     Phase      Date       Time     TRes  Azim  AzRes  Slow  SRes Def   SNR       Amp   Per   Mag1   Mag2       ID
MBDF  000.26 016.5 m E Pg      2012/05/02 12:08:06.3  -0.1                          T                                        4937608
MBDF  000.26 016.5 m E Sg      2012/05/02 12:08:09.8  -0.1                          T                3.4  .18        Md 1.6  4937607
ORIF  000.72 308.6 m E Pg      2012/05/02 12:08:14.5  -0.2                          T                                        4937606
ORIF  000.72 308.6 m E Sg      2012/05/02 12:08:23.9  -0.1                          T                3.6  .34        Md 1.6  4937605
SBF   000.82 137.6 m E Pg      2012/05/02 12:08:16.8   0.2                          T                                        4937596
SBF   000.82 137.6 m E Sg      2012/05/02 12:08:27.0  -0.4                          T                 .7  .14        Md 1.7  4937595
FRF   000.91 180.9 m E Pg      2012/05/02 12:08:17.9  -0.3                          T                                        4937598
FRF   000.91 180.9 m E Sg      2012/05/02 12:08:29.8  -0.3                          T                1.8  .19 Ml 1.8         4937597
SMRF  000.93 237.9 m E Pg      2012/05/02 12:08:18.6   0.1                          T                                        4937600
SMRF  000.93 237.9 m E Sg      2012/05/02 12:08:30.5  -0.2                          T                 .6  .19 Ml 1.3         4937599
LPG   001.02 003.3 m E Pg      2012/05/02 12:08:20.6   0.0                          T                                        4937602
LPG   001.02 003.3 m E Sg      2012/05/02 12:08:34.1   0.2                          T                6.8  .32 Ml 2.2         4937601
LPL   001.04 002.5 m E Pg      2012/05/02 12:08:20.8  -0.1                          T                                        4937604
LPL   001.04 002.5 m E Sg      2012/05/02 12:08:34.8   0.4                          T                2.9  .28 Ml 1.8         4937603
LMR   001.15 185.8 m E Pg      2012/05/02 12:08:23.0   0.6                          T                                        4937594
LMR   001.15 185.8 m E Sg      2012/05/02 12:08:37.2  -0.2                          T                 .6  .18 Ml 1.4         4937593

.
EVENT     275315
    Date      Time       Latitude Longitude    Depth    Ndef Nsta Gap    Mag1  N    Mag2  N    Mag3  N   Author         ID
       rms   OT_Error      Smajor Sminor Az        Err   mdist  Mdist     Err        Err        Err      Quality

2012/05/02 12:25:07.2     44.4670    6.6618      2.0      26    7 071  Ml 1.5  4  Md 1.7  3              bulletin    275415
                                                                                                         _ldg
      0.17   +-  0.03        .6     .5   59.02 +-  0.0    0.11   1.14   +-0.4      +-0.1                 m i ke

FRANCE
Sta     Dist  EvAz     Phase      Date       Time     TRes  Azim  AzRes  Slow  SRes Def   SNR       Amp   Per   Mag1   Mag2       ID
MBDF  000.27 016.7 m E Pg      2012/05/02 12:25:12.6  -0.1                          T                                        4937624
MBDF  000.27 016.7 m E Sg      2012/05/02 12:25:16.2  -0.2                          T                6.6  .32        Md 1.6  4937623
ORIF  000.72 309.3 m E Pg      2012/05/02 12:25:20.9   0.1                          T                                        4937622
ORIF  000.72 309.3 m E Sg      2012/05/02 12:25:30.2   0.0                          T                1.7  .25        Md 1.7  4937621
SBF   000.82 137.1 m E Pg      2012/05/02 12:25:22.6  -0.1                          T                                        4937612
SBF   000.82 137.1 m E Sg      2012/05/02 12:25:33.7   0.3                          T                1.9  .25        Md 1.8  4937611
FRF   000.91 180.7 m E Pg      2012/05/02 12:25:24.2   0.0                          T                                        4937616
FRF   000.91 180.7 m E Sg      2012/05/02 12:25:35.7  -0.2                          T                4.3  .25 Ml 2.0         4937615
SMRF  000.92 238.2 m E Pg      2012/05/02 12:25:24.6   0.0                          T                                        4937618
SMRF  000.92 238.2 m E Sg      2012/05/02 12:25:36.2  -0.3                          T                 .5  .18 Ml 1.2         4937617
LPL   001.05 002.7 m E Pg      2012/05/02 12:25:27.1   0.0                          T                                        4937620
LPL   001.05 002.7 m E Sg      2012/05/02 12:25:40.8   0.1                          T                 .4  .19 Ml 1.2         4937619
LMR   001.14 185.6 m E Pg      2012/05/02 12:25:28.4   0.0                          T                                        4937614
LMR   001.14 185.6 m E Sg      2012/05/02 12:25:43.4   0.2                          T                  1  .19 Ml 1.6         4937613

.
EVENT     275316
    Date      Time       Latitude Longitude    Depth    Ndef Nsta Gap    Mag1  N    Mag2  N    Mag3  N   Author         ID
       rms   OT_Error      Smajor Sminor Az        Err   mdist  Mdist     Err        Err        Err      Quality

2012/05/02 12:27:10.1     44.4757    6.6693      2.0      28    7 070  Ml 1.4  4  Md 1.7  3              bulletin    275416
                                                                                                         _ldg
      0.21   +-  0.04        .8     .6   63.30 +-  0.0    0.10   1.15   +-0.2      +-0.1                 m i ke

FRANCE
Sta     Dist  EvAz     Phase      Date       Time     TRes  Azim  AzRes  Slow  SRes Def   SNR       Amp   Per   Mag1   Mag2       ID
MBDF  000.26 016.2 m E Pg      2012/05/02 12:27:15.4  -0.1                          T                                        4937640
MBDF  000.26 016.2 m E Sg      2012/05/02 12:27:18.9  -0.1                          T                2.4  .20        Md 1.5  4937639
ORIF  000.72 308.4 m E Pg      2012/05/02 12:27:23.8   0.0                          T                                        4937638
ORIF  000.72 308.4 m E Sg      2012/05/02 12:27:33.1   0.0                          T                 .8  .18        Md 1.7  4937627
SBF   000.82 137.8 m E Pg      2012/05/02 12:27:25.7   0.0                          T                                        4937631
SBF   000.82 137.8 m E Sg      2012/05/02 12:27:36.6   0.2                          T                1.3  .16        Md 1.8  4937630
FRF   000.91 181.0 m E Pg      2012/05/02 12:27:27.3   0.0                          T                                        4937633
FRF   000.91 181.0 m E Sg      2012/05/02 12:27:38.9  -0.3                          T                1.6  .20 Ml 1.7         4937632
SMRF  000.93 238.0 m E Pg      2012/05/02 12:27:27.7   0.1                          T                                        4937635
SMRF  000.93 238.0 m E Sg      2012/05/02 12:27:39.8   0.0                          T                 .7  .25 Ml 1.2         4937634
LPL   001.04 002.4 m E Pg      2012/05/02 12:27:29.9   0.0                          T                                        4937637
LPL   001.04 002.4 m E Sg      2012/05/02 12:27:43.4   0.0                          T                 .9  .27 Ml 1.3         4937636
LMR   001.15 185.8 m E Pg      2012/05/02 12:27:31.5   0.0                          T                                        4937629
LMR   001.15 185.8 m E Sg      2012/05/02 12:27:46.5   0.1                          T                 .5  .15 Ml 1.4         4937628

.
EVENT     275307
    Date      Time       Latitude Longitude    Depth    Ndef Nsta Gap    Mag1  N    Mag2  N    Mag3  N   Author         ID
       rms   OT_Error      Smajor Sminor Az        Err   mdist  Mdist     Err        Err        Err      Quality

2012/05/02 15:17:54.6     47.5539    3.5890       .0 f    12    5 299  Ml 2.2  2  Md 2.0  1              bulletin    275407
                                                                                                         _ldg
      1.22   +-  0.42       6.6    2.9  155.26 +-  0.0    0.34   1.12   +-0.2      +-                    m i km

FRANCE
Sta     Dist  EvAz     Phase      Date       Time     TRes  Azim  AzRes  Slow  SRes Def   SNR       Amp   Per   Mag1   Mag2       ID
LOR   000.34 147.2 m E Pg      2012/05/02 15:18:01.3  -0.2  36.2  -3.6              T                                        4935446
LOR   000.34 147.2 m E Sg      2012/05/02 15:18:05.8  -0.4 338.6  11.2              T               56.9  .92        Md 2.0  4937928
SSF   000.50 186.6 m E Pg      2012/05/02 15:18:04.2  -0.1                          T                                        4937927
SSF   000.50 186.6 m E Sg      2012/05/02 15:18:10.8  -0.2                          T               26.4  .76                4937931
AVF   000.78 192.0 m E Pg      2012/05/02 15:18:09.8   0.2                          T                                        4935441
AVF   000.78 192.0 m E Sg      2012/05/02 15:18:20.5   0.6                          T                4.4  .30                4935440
SMF   000.93 169.2 m E Pg      2012/05/02 15:18:12.4   0.2                          T                                        4935442
SMF   000.93 169.2 m E Sg      2012/05/02 15:18:25.5   1.0                          T                8.0  .40 Ml 2.1         4935443
BGF   001.12 207.3 m E Pg      2012/05/02 15:18:15.7  -0.1                          T                                        4935445
BGF   001.12 207.3 m E Sg      2012/05/02 15:18:30.1  -0.4                          T               11.1  .38 Ml 2.3         4935444

.
EVENT     275320
    Date      Time       Latitude Longitude    Depth    Ndef Nsta Gap    Mag1  N    Mag2  N    Mag3  N   Author         ID
       rms   OT_Error      Smajor Sminor Az        Err   mdist  Mdist     Err        Err        Err      Quality

2012/05/02 15:51:45.3     42.8081    1.7782       .0 f    16    4 108  Ml 1.7  3  Md 2.1  1              bulletin    275420
                                                                                                         _ldg
      0.80   +-  0.15       3.1    2.5  178.08 +-  0.0    0.36   2.22   +-0.0      +-                    m i km

PYRENEES
Sta     Dist  EvAz     Phase      Date       Time     TRes  Azim  AzRes  Slow  SRes Def   SNR       Amp   Per   Mag1   Mag2       ID
MTLF  000.62 031.0 m E Pg      2012/05/02 15:51:56.9  -0.5                          T                                        4937953
MTLF  000.62 031.0 m E Sg      2012/05/02 15:52:05.5  -0.2                          T                1.3  .25        Md 2.1  4937950
EPF   001.08 282.4 m E Pg      2012/05/02 15:52:06.0   0.1                          T                                        4937952
EPF   001.08 282.4 m E Sg      2012/05/02 15:52:19.7  -0.4                          T                2.2  .34 Ml 1.7         4937951
ETSF  001.72 273.8 m E Sg      2012/05/02 15:52:40.0  -0.1                          T                1.3  .31 Ml 1.7         4941389
LASF  001.97 049.4 m E Sg      2012/05/02 15:52:48.0   0.0                          T                1.0  .32 Ml 1.7         4941388

.
EVENT     275476
    Date      Time       Latitude Longitude    Depth    Ndef Nsta Gap    Mag1  N    Mag2  N    Mag3  N   Author         ID
       rms   OT_Error      Smajor Sminor Az        Err   mdist  Mdist     Err        Err        Err      Quality

2012/05/02 16:25:32.7     44.5011    6.6642      2.0      32    9 055  Ml 1.5  6  Md 1.8  1              bulletin    275576
                                                                                                         _ldg
      0.22   +-  0.04        .8     .6   59.89 +-  0.0    0.11   1.46   +-0.3      +-                    m i ke

FRANCE
Sta     Dist  EvAz     Phase      Date       Time     TRes  Azim  AzRes  Slow  SRes Def   SNR       Amp   Per   Mag1   Mag2       ID
MBDF  000.24 018.7 m E Pg      2012/05/02 16:25:37.5  -0.1                          T                                        4937706
MBDF  000.24 018.7 m E Sg      2012/05/02 16:25:41.0   0.1                          T                4.9  .18        Md 1.8  4937705
ORIF  000.70 307.0 m E Pg      2012/05/02 16:25:46.2   0.2                          T                                        4937704
ORIF  000.70 307.0 m E Sg      2012/05/02 16:25:55.0  -0.1                          T                4.2  .30                4937703
SBF   000.85 138.7 m E Pg      2012/05/02 16:25:48.7   0.1                          T                                        4937692
SBF   000.85 138.7 m E Sg      2012/05/02 16:25:59.6  -0.1                          T                2.0  .18                4937691
SMRF  000.94 236.5 m E Pg      2012/05/02 16:25:50.3  -0.1                          T                                        4937698
SMRF  000.94 236.5 m E Sg      2012/05/02 16:26:02.8   0.1                          T                1.2  .29 Ml 1.4         4937697
FRF   000.94 180.8 m E Pg      2012/05/02 16:25:50.7   0.3                          T                                        4937696
FRF   000.94 180.8 m E Sg      2012/05/02 16:26:01.6  -1.0                          T                4.7  .26 Ml 2.1         4937695
LPG   001.00 003.5 m E Pg      2012/05/02 16:25:51.7  -0.1                          T                                        4937700
LPG   001.00 003.5 m E Sg      2012/05/02 16:26:04.8   0.0                          T                 .8  .19 Ml 1.4         4937699
LPL   001.02 002.7 m E Pg      2012/05/02 16:25:52.2   0.2                          T                                        4937702
LPL   001.02 002.7 m E Sg      2012/05/02 16:26:05.2   0.0                          T                 .7  .27 Ml 1.3         4937701
LMR   001.17 185.5 m E Pg      2012/05/02 16:25:54.7   0.1                          T                                        4937694
LMR   001.17 185.5 m E Sg      2012/05/02 16:26:10.0   0.2                          T                  1  .16 Ml 1.7         4937693
VIVF  001.46 284.7 m E Pn      2012/05/02 16:25:58.6   0.1                          T                                        4937690
VIVF  001.46 284.7 m E Sn      2012/05/02 16:26:17.1   0.0                          T                 .3  .16 Ml 1.3         4937689

.
EVENT     275505
    Date      Time       Latitude Longitude    Depth    Ndef Nsta Gap    Mag1  N    Mag2  N    Mag3  N   Author         ID
       rms   OT_Error      Smajor Sminor Az        Err   mdist  Mdist     Err        Err        Err      Quality

2012/05/02 18:20:45.5     43.7824    2.2097       .0 f    12    6 103  Ml 2.0  4  Md 1.8  1              bulletin    275605
                                                                                                         _ldg
      2.25   +-  0.25       5.4    4.2   96.91 +-  0.0    0.44   1.60   +-0.2      +-                    m i km

FRANCE
Sta     Dist  EvAz     Phase      Date       Time     TRes  Azim  AzRes  Slow  SRes Def   SNR       Amp   Per   Mag1   Mag2       ID
MTLF  000.44 179.3 m E Pg      2012/05/02 18:20:53.9  -0.3                          T                                        4937967
MTLF  000.44 179.3 m E Sg      2012/05/02 18:21:01.0   0.8                          T                2.8  .30        Md 1.8  4937966
CAF   001.15 354.8 m E Pg      2012/05/02 18:21:07.4   0.1                          T                                        4941392
CAF   001.15 354.8 m E Sg      2012/05/02 18:21:21.7  -0.7                          T                5.2  .34 Ml 2.1         4941393
LASF  001.23 075.6 m E Pg      2012/05/02 18:21:09.2   0.5                          T                                        4937964
LASF  001.23 075.6 m E Sg      2012/05/02 18:21:25.8   1.1                          T                3.2  .22 Ml 2.1         4937965
EPF   001.56 241.8 m E Pg      2012/05/02 18:21:14.2  -0.6                          T                                        4937970
EPF   001.56 241.8 m E Sg      2012/05/02 18:21:36.8   1.7                          T                                        4937969
LFF   001.57 318.2 m E Sg      2012/05/02 18:21:34.6  -0.7                          T                5.3  .32 Ml 2.1         4941391
RJF   001.60 342.2 m E Sg      2012/05/02 18:21:36.4   0.0                          T                3.8  .42 Ml 1.7         4941390

.
EVENT     275310
    Date      Time       Latitude Longitude    Depth    Ndef Nsta Gap    Mag1  N    Mag2  N    Mag3  N   Author         ID
       rms   OT_Error      Smajor Sminor Az        Err   mdist  Mdist     Err        Err        Err      Quality

2012/05/03 02:32:17.5     44.6366    7.2581      2.0      35    9 132  Ml 1.6  7  Md 1.7  1              bulletin    275410
                                                                                                         _ldg
      0.40   +-  0.08       1.8    1.1   70.72 +-  0.0    0.13   2.44   +-0.2      +-                    m i ke

NORTHERN ITALY
Sta     Dist  EvAz     Phase      Date       Time     TRes  Azim  AzRes  Slow  SRes Def   SNR       Amp   Per   Mag1   Mag2       ID
MBDF  000.36 284.8 m E Pg      2012/05/03 02:32:24.7   0.1                          T                                        4935471
MBDF  000.36 284.8 m E Sg      2012/05/03 02:32:29.3  -0.1                          T               16.7  .23        Md 1.7  4935470
SBF   000.78 170.6 m E Pg      2012/05/03 02:32:32.5   0.2                          T                                        4935461
SBF   000.78 170.6 m E Sg      2012/05/03 02:32:43.1   0.5                          T                1.5  .17                4935460
LPG   000.93 337.5 m E Pg      2012/05/03 02:32:35.3  -0.1                          T                                        4935465
LPG   000.93 337.5 m E Sg      2012/05/03 02:32:45.9  -1.6                          T                1.0  .22 Ml 1.5         4935464
LPL   000.96 337.2 m E Pg      2012/05/03 02:32:35.8   0.1                          T                                        4935463
LPL   000.96 337.2 m E Sg      2012/05/03 02:32:46.0  -2.1                          T                 .8  .24 Ml 1.3         4935462
ORIF  001.02 286.5 m E Pg      2012/05/03 02:32:37.3   0.6                          T                                        4935459
ORIF  001.02 286.5 m E Sg      2012/05/03 02:32:48.8  -1.2                          T                 .9  .24 Ml 1.4         4935458
FRF   001.16 202.5 m E Pg      2012/05/03 02:32:39.9   0.7                          T                                        4935469
FRF   001.16 202.5 m E Sg      2012/05/03 02:32:54.1  -0.1                          T                1.3  .26 Ml 1.6         4935468
SMRF  001.38 241.9 m E Pg      2012/05/03 02:32:42.5  -0.8                          T                                        4941140
LMR   001.41 202.8 m E Pg      2012/05/03 02:32:43.7  -0.1                          T                                        4935467
LMR   001.41 202.8 m E Sg      2012/05/03 02:33:02.4   0.4                          T                1.3  .18 Ml 1.9         4935466
PGF   002.44 148.2 m E Pn      2012/05/03 02:32:56.9   0.2                          T                                        4941142
PGF   002.44 148.2 m E Sn      2012/05/03 02:33:25.2  -0.2                          T                 .2  .17 Ml 1.7         4941141

.
