EVENT     274552
    Date      Time       Latitude Longitude    Depth    Ndef Nsta Gap    Mag1  N    Mag2  N    Mag3  N   Author         ID
       rms   OT_Error      Smajor Sminor Az        Err   mdist  Mdist     Err        Err        Err      Quality

2012/04/26 05:27:01.7     48.5841    8.8542       .0 f     7    4 300  Ml 2.4  3  Md 2.3  2              bulletin    274652
                                                                                                         _ldg
      0.09   +-  0.17       2.9    1.6  106.47 +-  0.0    0.80   1.77   +-0.3      +-0.1                 m i km

GERMANY
Sta     Dist  EvAz     Phase      Date       Time     TRes  Azim  AzRes  Slow  SRes Def   SNR       Amp   Per   Mag1   Mag2       ID
LANF  000.80 300.2 m E Pg      2012/04/26 05:27:17.0  -0.1                          T                                        4923981
LANF  000.80 300.2 m E Sg      2012/04/26 05:27:27.8   0.2                          T               13.7  .26        Md 2.4  4923982
CDF   001.06 261.3 m E Pg      2012/04/26 05:27:22.0   0.0                          T                                        4923984
CDF   001.06 261.3 m E Sg      2012/04/26 05:27:35.9  -0.1                          T               30.3  .50 Ml 2.7 Md 2.2  4923983
HAU   001.77 251.9 m E Pg      2012/04/26 05:27:35.0   0.1                          T                                        4923985
HAU   001.77 251.9 m E Sg      2012/04/26 05:27:57.9  -0.1                          T                4.2  .31 Ml 2.1         4923979
HINF  001.54 240.9 m E Sg      2012/04/26 05:27:50.8  -0.1                          T                8.6  .31 Ml 2.5         4923980

.
EVENT     274555
    Date      Time       Latitude Longitude    Depth    Ndef Nsta Gap    Mag1  N    Mag2  N    Mag3  N   Author         ID
       rms   OT_Error      Smajor Sminor Az        Err   mdist  Mdist     Err        Err        Err      Quality

2012/04/26 06:53:04.0     47.8151    1.8382       .0 f    17    6 242  Ml 2.1  7                         bulletin    274655
                                                                                                         _ldg
      1.20   +-  0.26       5.3    2.8  175.18 +-  0.0    1.36   1.82   +-0.4                            m i km

FRANCE
Sta     Dist  EvAz     Phase      Date       Time     TRes  Azim  AzRes  Slow  SRes Def   SNR       Amp   Per   Mag1   Mag2       ID
SSF   001.36 123.0 m E Pg      2012/04/26 06:53:29.6  -0.1                          T                                        4923994
SSF   001.36 123.0 m E Sg      2012/04/26 06:53:47.1  -0.3                          T                8.7  .46 Ml 2.3         4923995
BGF   001.43 151.0 m E Pn      2012/04/26 06:53:29.7   0.0                          T                                        4923993
BGF   001.43 151.0 m E Sn      2012/04/26 06:53:48.4   0.1                          T               27.2  .52 Ml 2.7         4923992
AVF   001.45 134.3 m E Pn      2012/04/26 06:53:30.0   0.0                          T                                        4924025
AVF   001.45 134.3 m E Pg      2012/04/26 06:53:31.5   0.2                          T                                        4924027
AVF   001.45 134.3 m E Sn      2012/04/26 06:53:48.5  -0.2                          T                                        4924026
AVF   001.45 134.3 m E Sg      2012/04/26 06:53:50.0  -0.3                          T                1.9  .40 Ml 1.7         4924028
LOR   001.47 111.0 m E Pg      2012/04/26 06:53:32.0   0.2 283.9  -8.6              T                                        4923997
LOR   001.47 111.0 m E Sn      2012/04/26 06:53:49.3   0.1 307.1  14.6              T                                        4924024
LOR   001.47 111.0 m E Sg      2012/04/26 06:53:50.8  -0.2                          T                1.5  .22 Ml 1.9         4923996
TCF   001.55 170.4 m E Pg      2012/04/26 06:53:33.3   0.1                          T                                        4924029
TCF   001.55 170.4 m E Sg      2012/04/26 06:53:53.5   0.2                          T                1.7  .25 Ml 1.9         4924030
MFF   001.82 228.8 m E Pn      2012/04/26 06:53:34.8  -0.1                          T                                        4933389
MFF   001.82 228.8 m E Sn      2012/04/26 06:53:57.5   0.1                          T                  1  .20 Ml 2.0         4933388

.
EVENT     274589
    Date      Time       Latitude Longitude    Depth    Ndef Nsta Gap    Mag1  N    Mag2  N    Mag3  N   Author         ID
       rms   OT_Error      Smajor Sminor Az        Err   mdist  Mdist     Err        Err        Err      Quality

2012/04/26 07:05:42.3     49.2830    8.1040     25.0      14    5 108  Ml 2.0  4  Md 1.9  1              bulletin    274689
                                                                                                         _ldg
      0.30   +-  0.05       1.5     .9  119.78 +-  0.0    0.04   1.75   +-0.1      +-                    m i ke

GERMANY
Sta     Dist  EvAz     Phase      Date       Time     TRes  Azim  AzRes  Slow  SRes Def   SNR       Amp   Per   Mag1   Mag2       ID
LANF  000.36 213.1 m E Pg      2012/04/26 07:05:50.7   0.3                          T                                        4924352
LANF  000.36 213.1 m E Sg      2012/04/26 07:05:55.4  -0.6                          T               14.1  .22        Md 1.9  4924351
CDF   001.03 212.4 m E Pn      2012/04/26 07:05:59.8   0.2                          T                                        4934709
CDF   001.03 212.4 m E Pg      2012/04/26 07:06:01.9  -0.2                          T                                        4924355
CDF   001.03 212.4 m E Sg      2012/04/26 07:06:15.0  -0.7                          T                2.8  .25 Ml 2.0         4924353
HINF  001.69 210.0 m E Pn      2012/04/26 07:06:08.2  -0.3                          T                                        4933390
HINF  001.69 210.0 m E Sg      2012/04/26 07:06:36.0   0.1                          T                1.8  .23 Ml 2.0         4924366
HAU   001.73 223.0 m E Pn      2012/04/26 07:06:09.4   0.4                          T                                        4924363
HAU   001.73 223.0 m E Sg      2012/04/26 07:06:37.2   0.0                          T                2.2  .22 Ml 1.9         4924365
THEF  001.75 233.7 m E Pn      2012/04/26 07:06:09.8   0.5                          T                                        4933391
THEF  001.75 233.7 m E Sg      2012/04/26 07:06:37.9   0.0                          T                2.4  .27 Ml 2.1         4924364

.
EVENT     274561
    Date      Time       Latitude Longitude    Depth    Ndef Nsta Gap    Mag1  N    Mag2  N    Mag3  N   Author         ID
       rms   OT_Error      Smajor Sminor Az        Err   mdist  Mdist     Err        Err        Err      Quality

2012/04/26 07:44:19.4     44.2956    7.4320       .0 f    16    4 176  Ml 1.9  3  Md 2.0  2              bulletin    274661
                                                                                                         _ldg
      0.36   +-  0.26       5.6    1.9   88.90 +-  0.0    0.09   1.27   +-0.3      +-0.0                 m i km

NORTHERN ITALY
Sta     Dist  EvAz     Phase      Date       Time     TRes  Azim  AzRes  Slow  SRes Def   SNR       Amp   Per   Mag1   Mag2       ID
SBF   000.43 179.7 m E Pg      2012/04/26 07:44:27.7  -0.4                          T                                        4924005
SBF   000.43 179.7 m E Sg      2012/04/26 07:44:33.8  -0.1                          T                4.7  .21        Md 2.0  4924004
MBDF  000.64 312.6 m E Pg      2012/04/26 07:44:31.9   0.0                          T                                        4923998
MBDF  000.64 312.6 m E Sg      2012/04/26 07:44:40.4  -0.2                          T                4.2  .37        Md 1.9  4923999
FRF   000.93 217.9 m E Pg      2012/04/26 07:44:36.7  -0.4                          T                                        4924002
FRF   000.93 217.9 m E Sg      2012/04/26 07:44:49.4   0.0                          T                6.5  .36 Ml 2.1         4924003
LMR   001.17 215.1 m E Pg      2012/04/26 07:44:41.4  -0.2                          T                                        4924001
LMR   001.17 215.1 m E Sg      2012/04/26 07:44:57.6   0.7                          T                4.8  .32 Ml 2.1         4924000

.
EVENT     274571
    Date      Time       Latitude Longitude    Depth    Ndef Nsta Gap    Mag1  N    Mag2  N    Mag3  N   Author         ID
       rms   OT_Error      Smajor Sminor Az        Err   mdist  Mdist     Err        Err        Err      Quality

2012/04/26 08:57:48.4     45.8782    4.6456       .0 f    19    7 120  Ml 2.1  7  Md 1.8  1              bulletin    274671
                                                                                                         _ldg
      0.99   +-  0.09       2.5    1.4   55.85 +-  0.0    0.95   1.49   +-0.2      +-                    m i km

FRANCE
Sta     Dist  EvAz     Phase      Date       Time     TRes  Azim  AzRes  Slow  SRes Def   SNR       Amp   Per   Mag1   Mag2       ID
SMF   000.95 324.3 m E Pg      2012/04/26 08:58:06.7   0.3                          T                                        4924035
SMF   000.95 324.3 m E Sg      2012/04/26 08:58:19.6   0.6                          T                5.3  .30 Ml 2.0         4924034
VIVF  001.02 178.9 m E Pg      2012/04/26 08:58:07.8   0.0                          T                                        4934761
VIVF  001.02 178.9 m E Sg      2012/04/26 08:58:21.4   0.1                          T                2.8  .21 Ml 2.0 Md 1.8  4924076
CABF  001.24 053.3 m E Pg      2012/04/26 08:58:12.4   0.5                          T                                        4934759
CABF  001.24 053.3 m E Sg      2012/04/26 08:58:27.8  -0.3                          T                3.2  .31 Ml 1.9         4934760
AVF   001.28 316.0 m E Pg      2012/04/26 08:58:12.5   0.0                          T                                        4924032
AVF   001.28 316.0 m E Sg      2012/04/26 08:58:29.5   0.2                          T                2.3  .22 Ml 2.0         4924033
BGF   001.42 299.2 m E Pn      2012/04/26 08:58:13.8  -0.2                          T                                        4934762
BGF   001.42 299.2 m E Pg      2012/04/26 08:58:15.3   0.1                          T                                        4924031
BGF   001.42 299.2 m E Sg      2012/04/26 08:58:33.7  -0.1                          T                7.2  .34 Ml 2.3         4924060
SSF   001.42 326.8 m E Pg      2012/04/26 08:58:15.0  -0.2                          T                                        4934756
SSF   001.42 326.8 m E Sg      2012/04/26 08:58:33.7   0.0                          T                3.2  .24 Ml 2.2         4934755
LOR   001.49 339.0 m E Pg      2012/04/26 08:58:16.4  -0.1 159.3  1.0               T                                        4934758
LOR   001.49 339.0 m E Sg      2012/04/26 08:58:35.6  -0.4 169.4  11.0              T                3.6  .30 Ml 2.1         4934757

.
EVENT     274580
    Date      Time       Latitude Longitude    Depth    Ndef Nsta Gap    Mag1  N    Mag2  N    Mag3  N   Author         ID
       rms   OT_Error      Smajor Sminor Az        Err   mdist  Mdist     Err        Err        Err      Quality

2012/04/26 09:28:10.3     47.2103    3.7043       .0 f    16    6 192  Ml 2.1  2  Md 1.9  3              bulletin    274680
                                                                                                         _ldg
      0.46   +-  0.11       1.7    1.3   74.80 +-  0.0    0.12   1.38   +-0.0      +-0.2                 m i km

FRANCE
Sta     Dist  EvAz     Phase      Date       Time     TRes  Azim  AzRes  Slow  SRes Def   SNR       Amp   Per   Mag1   Mag2       ID
LOR   000.12 061.1 m E Pg      2012/04/26 09:28:13.1   0.0 242.3  1.1               T                                        4924118
LOR   000.12 061.1 m E Sg      2012/04/26 09:28:15.3   0.2                          T              266.1  .75        Md 2.0  4924117
SSF   000.20 222.4 m E Pg      2012/04/26 09:28:14.5  -0.1                          T                                        4924116
SSF   000.20 222.4 m E Sg      2012/04/26 09:28:17.8   0.3                          T              143.1  .85        Md 1.6  4924115
AVF   000.48 210.0 m E Pg      2012/04/26 09:28:19.8   0.0                          T                                        4924113
AVF   000.48 210.0 m E Sg      2012/04/26 09:28:26.5   0.2                          T                 .9  .20                4934772
SMF   000.57 170.5 m E Pg      2012/04/26 09:28:20.9  -0.6                          T                                        4924112
SMF   000.57 170.5 m E Sg      2012/04/26 09:28:27.8  -1.4                          T                2.6  .24                4934771
BGF   000.88 222.3 m E Pg      2012/04/26 09:28:27.1   0.0                          T                                        4924111
BGF   000.88 222.3 m E Pn      2012/04/26 09:28:29.0   0.5                          T                                        4934769
BGF   000.88 222.3 m E Sg      2012/04/26 09:28:38.6  -0.1                          T                6.4  .30 Ml 2.1         4934770
BGF   000.88 222.3 m E Sn      2012/04/26 09:28:42.0   0.7                          T                                        4934768
TCF   001.38 228.6 m E Pg      2012/04/26 09:28:36.4   0.0                          T                                        4934767
TCF   001.38 228.6 m E Sg      2012/04/26 09:28:51.8  -2.5                          T                2.0  .20 Ml 2.0         4934773

.
EVENT     274581
    Date      Time       Latitude Longitude    Depth    Ndef Nsta Gap    Mag1  N    Mag2  N    Mag3  N   Author         ID
       rms   OT_Error      Smajor Sminor Az        Err   mdist  Mdist     Err        Err        Err      Quality

2012/04/26 09:30:04.4     43.5152    6.5935       .0 f    19    5 126  Ml 1.8  1  Md 1.9  3              bulletin    274681
                                                                                                         _ldg
      0.34   +-  0.11       2.6    2.0  150.30 +-  0.0    0.06   1.41   +-         +-0.3                 m i km

NEAR SOUTH COAST OF FRANCE
Sta     Dist  EvAz     Phase      Date       Time     TRes  Azim  AzRes  Slow  SRes Def   SNR       Amp   Per   Mag1   Mag2       ID
FRF   000.06 040.4 m E Pg      2012/04/26 09:30:05.4  -0.5                          T                                        4924090
FRF   000.06 040.4 m E Sg      2012/04/26 09:30:06.7  -0.2                          T               84.1  .14        Md 1.6  4924089
LMR   000.19 198.8 m E Pg      2012/04/26 09:30:08.3  -0.2                          T                                        4924087
LMR   000.19 198.8 m E Sg      2012/04/26 09:30:11.4   0.0                          T                5.8  .13        Md 2.1  4924088
SBF   000.70 060.0 m E Pg      2012/04/26 09:30:17.9  -0.1                          T                                        4924086
SBF   000.70 060.0 m E Pn      2012/04/26 09:30:20.3   0.0                          T                                        4934777
SBF   000.70 060.0 m E Sg      2012/04/26 09:30:27.7   0.4                          T                4.3  .18        Md 2.1  4924085
SMRF  000.87 302.3 m E Pg      2012/04/26 09:30:21.4   0.3                          T                                        4924108
SMRF  000.87 302.3 m E Pn      2012/04/26 09:30:22.3  -0.2                          T                                        4934774
SMRF  000.87 302.3 m E Sg      2012/04/26 09:30:32.6   0.0                          T                1.7  .17 Ml 1.8         4924107
MBDF  001.22 006.0 m E Pg      2012/04/26 09:30:27.7   0.1                          T                                        4934776
MBDF  001.22 006.0 m E Sg      2012/04/26 09:30:42.5  -1.1                          T                                        4934775

.
EVENT     274583
    Date      Time       Latitude Longitude    Depth    Ndef Nsta Gap    Mag1  N    Mag2  N    Mag3  N   Author         ID
       rms   OT_Error      Smajor Sminor Az        Err   mdist  Mdist     Err        Err        Err      Quality

2012/04/26 09:45:01.8     44.5665    4.6177       .0 f    14    7 098  Ml 2.2  5  Md 2.0  3              bulletin    274683
                                                                                                         _ldg
      1.32   +-  0.13       3.0    2.1  166.77 +-  0.0    0.29   2.32   +-0.2      +-0.1                 m i km

FRANCE
Sta     Dist  EvAz     Phase      Date       Time     TRes  Azim  AzRes  Slow  SRes Def   SNR       Amp   Per   Mag1   Mag2       ID
VIVF  000.29 007.7 m E Pg      2012/04/26 09:45:07.8   0.0                          T                                        4924150
VIVF  000.29 007.7 m E Sg      2012/04/26 09:45:11.9  -0.1                          T              112.5 1.04        Md 1.9  4924149
LASF  000.73 228.3 m E Pg      2012/04/26 09:45:15.6  -0.4                          T                                        4924147
LASF  000.73 228.3 m E Sg      2012/04/26 09:45:26.8   1.0                          T               19.9  .29        Md 2.0  4924148
SMRF  000.91 130.3 m E Pg      2012/04/26 09:45:19.5   0.4                          T                                        4924146
SMRF  000.91 130.3 m E Sg      2012/04/26 09:45:30.8  -0.4                          T               13.4  .42 Ml 2.3 Md 2.1  4924145
ORIF  000.97 068.2 m E Pg      2012/04/26 09:45:20.4   0.1                          T                                        4937288
ORIF  000.97 068.2 m E Sg      2012/04/26 09:45:32.7  -0.3                          T                8.1  .47 Ml 2.0         4937289
CAF   001.85 282.1 m E Pg      2012/04/26 09:45:36.4  -0.2                          T                                        4937291
CAF   001.85 282.1 m E Sg      2012/04/26 09:46:00.6  -0.1                          T                7.7  .37 Ml 2.5         4937292
LPG   001.78 057.6 m E Sg      2012/04/26 09:45:58.3  -0.3                          T                2.5  .32 Ml 2.1         4937287
RJF   002.32 289.6 m E Sg      2012/04/26 09:46:15.6   0.3                          T                6.8  .34 Ml 2.2         4937290

.
