BEGIN GSE2.0
MSG_TYPE DATA
MSG_ID 08-APR-1109:31:31  FRA_NDC
E-MAIL
DATA_TYPE BULLETIN
Reviewed Bulletin (REB) # P2011-013  from French NDC for regional phases     PERIOD 30 MAR 2011 TO 05 APR 2011 C M., J-P S
EVENT     257749
    Date      Time       Latitude Longitude    Depth    Ndef Nsta Gap    Mag1  N    Mag2  N    Mag3  N   Author         ID
       rms   OT_Error      Smajor Sminor Az        Err   mdist  Mdist     Err        Err        Err      Quality

2011/03/30 02:48:56.0     42.6553    2.2170      2.0      22    8 069  Ml 2.1  7  Md 2.1  1              js067245    257749

      0.80   +-  0.15       3.5    2.7  125.27 +-  0.0    0.25   2.83   +-0.2      +-                    m i ke

PYRENEES
Sta     Dist  EvAz     Phase      Date       Time     TRes  Azim  AzRes  Slow  SRes Def   SNR       Amp   Per   Mag1   Mag2       ID
MTLF  000.69 000.0 m E Pg      2011/03/30 02:49:06.3  -2.7                          T                                        4668829
MTLF  000.69 000.0 m E Pn      2011/03/30 02:49:08.3  -2.8                          T                                        4668830
MTLF  000.69 000.0 m E Sg      2011/03/30 02:49:14.1  -3.8                          T                5.6  .33                4668831
MTLF  000.69 000.0 m E Sn      2011/03/30 02:49:18.1  -3.7                          T                3.0  .20        Md 2.1  4668832
EPF   001.43 285.8 m E Pn      2011/03/30 02:49:21.5   0.1                          T                                        4665986
EPF   001.43 285.8 m E Sn      2011/03/30 02:49:39.8   0.2                          T                2.1  .20 Ml 2.0         4665985
LASF  001.86 039.5 m E Pn      2011/03/30 02:49:27.8   0.7                          T                                        4665987
LASF  001.86 039.5 m E Sn      2011/03/30 02:49:50.0   0.3                          T                2.2  .23 Ml 2.2         4665984
ETSF  002.06 277.7 m E Pn      2011/03/30 02:49:30.1   0.2                          T                                        4665977
ETSF  002.06 277.7 m E Sn      2011/03/30 02:49:54.8   0.2                          T                3.1  .40 Ml 2.1         4665983
CAF   002.27 357.3 m E Pn      2011/03/30 02:49:33.1   0.3                          T                                        4665976
CAF   002.27 357.3 m E Sn      2011/03/30 02:50:00.1   0.4                          T                2.5  .22 Ml 2.3         4665981
LFF   002.52 335.4 m E Pn      2011/03/30 02:49:36.4   0.3                          T                                        4665975
LFF   002.52 335.4 m E Sn      2011/03/30 02:50:05.9   0.3                          T                7.3  .40 Ml 2.4         4665980
RJF   002.70 349.4 m E Pn      2011/03/30 02:49:38.7   0.2                          T                                        4665974
RJF   002.70 349.4 m E Sn      2011/03/30 02:50:10.2   0.4                          T                2.0  .27 Ml 1.9         4665979
VIVF  002.83 038.1 m E Pn      2011/03/30 02:49:40.5   0.2                          T                                        4665978
VIVF  002.83 038.1 m E Sn      2011/03/30 02:50:13.0   0.0                          T                1.5  .28 Ml 2.1         4665982

.
EVENT     257750
    Date      Time       Latitude Longitude    Depth    Ndef Nsta Gap    Mag1  N    Mag2  N    Mag3  N   Author         ID
       rms   OT_Error      Smajor Sminor Az        Err   mdist  Mdist     Err        Err        Err      Quality

2011/03/30 04:17:12.8     51.5909   16.1317      1.0 f    91   26 051  Ml 4.0 25                         js067245    257750

      0.51   +-  0.11       3.1    1.6  176.72 +-  0.0    0.76  59.79   +-0.3                            m i sr

POLAND
Sta     Dist  EvAz     Phase      Date       Time     TRes  Azim  AzRes  Slow  SRes Def   SNR       Amp   Per   Mag1   Mag2       ID
LANF  005.94 247.2 m E Pn      2011/03/30 04:18:40.1   0.5                          T                                        4666094
LANF  005.94 247.2 m E Sg      2011/03/30 04:20:18.9   0.1                          T              164.1 1.13 Ml 4.2         4666066
RUP   006.07 255.4 m E Pn      2011/03/30 04:18:43.8   2.3                          T                                        4666098
RUP   006.07 255.4 m E Sg      2011/03/30 04:20:22.8  -0.1                          T                                        4666067
CDF   006.53 244.3 m E Pn      2011/03/30 04:18:48.9   1.1                          T                                        4666097
CDF   006.53 244.3 m E Sg      2011/03/30 04:20:37.2  -0.2                          T               65.0  .82 Ml 4.2         4666065
HINF  007.10 241.5 m E Pn      2011/03/30 04:18:55.4  -0.1                          T                                        4666093
HINF  007.10 241.5 m E Sg      2011/03/30 04:20:55.1   0.0                          T               79.3 1.14 Ml 4.1         4666059
HAU   007.28 244.3 m E Pn      2011/03/30 04:18:57.6  -0.3                          T                                        4666092
HAU   007.28 244.3 m E Sg      2011/03/30 04:21:00.4   0.0                          T               51.5 1.02 Ml 3.8         4666060
GIVF  007.31 262.7 m E Pn      2011/03/30 04:18:58.2  -0.1                          T                                        4666074
GIVF  007.31 262.7 m E Sg      2011/03/30 04:21:01.4  -0.2                          T               12.4  .51 Ml 3.7         4666069
THEF  007.36 246.8 m E Pn      2011/03/30 04:18:58.5  -0.5                          T                                        4666091
THEF  007.36 246.8 m E Sg      2011/03/30 04:21:02.6  -0.4                          T               83.9 1.33 Ml 4.1         4666061
PAGF  007.35 249.7 m E Pn      2011/03/30 04:19:00.8   1.9                          T                                        4666089
PAGF  007.35 249.7 m E Sg      2011/03/30 04:21:02.9   0.1                          T               27.1 1.13 Ml 3.7         4666064
BAIF  007.71 263.2 m E Pn      2011/03/30 04:19:03.6   0.0                          T                                        4666075
BAIF  007.71 263.2 m E Sg      2011/03/30 04:21:13.6  -0.3                          T               39.2 1.08 Ml 3.9         4666068
MEZF  007.77 250.9 m E Pn      2011/03/30 04:19:04.6   0.1                          T                                        4666088
MEZF  007.77 250.9 m E Sg      2011/03/30 04:21:15.7  -0.3                          T               19.0  .67 Ml 3.8         4666063
SFTF  007.92 249.0 m E Pn      2011/03/30 04:19:06.7   0.1                          T                                        4666090
SFTF  007.92 249.0 m E Sg      2011/03/30 04:21:20.5  -0.1                          T               65.0 1.24 Ml 4.1         4666062
CABF  008.26 236.8 m E Pn      2011/03/30 04:19:11.6   0.3                          T                                        4666087
CABF  008.26 236.8 m E Sg      2011/03/30 04:21:31.3   0.0                          T               69.9 1.14 Ml 4.3         4666058
LPL   008.70 229.4 m E Pn      2011/03/30 04:19:18.8   1.3                          T                                        4666079
LPL   008.70 229.4 m E Sg      2011/03/30 04:21:45.1  -0.2                          T               25.1 1.20 Ml 3.8         4666050
LPG   008.71 229.2 m E Pn      2011/03/30 04:19:20.5   2.8                          T                                        4666078
LPG   008.71 229.2 m E Sg      2011/03/30 04:21:45.4   0.0                          T               47.7 1.38 Ml 4.1         4666049
LOR   009.09 246.4 m E Pn      2011/03/30 04:19:22.4  -0.1  70.4  13.3              T                                        4666096
LOR   009.09 246.4 m E Sg      2011/03/30 04:21:57.2   0.1                          T               41.1 1.22 Ml 4.1         4666072
MBDF  009.28 225.9 m E Pn      2011/03/30 04:19:25.5   0.1                          T                                        4666081
MBDF  009.28 225.9 m E Sg      2011/03/30 04:22:03.0  -0.2                          T               20.5 1.20 Ml 3.8         4666052
SSF   009.41 246.1 m E Pn      2011/03/30 04:19:26.8   0.0                          T                                        4666095
SSF   009.41 246.1 m E Sg      2011/03/30 04:22:07.1   0.2                          T               32.5 1.18 Ml 4.2         4666071
SMF   009.45 243.2 m E Pn      2011/03/30 04:19:27.2  -0.2                          T                                        4666085
SMF   009.45 243.2 m E Sg      2011/03/30 04:22:08.1  -0.3                          T               43.9 1.30 Ml 4.2         4666056
ORIF  009.55 229.7 m E Pn      2011/03/30 04:19:28.8  -0.1                          T                                        4666080
ORIF  009.55 229.7 m E Sg      2011/03/30 04:22:11.5   0.0                          T               15.7 1.12 Ml 3.8         4666051
AVF   009.64 245.1 m E Pn      2011/03/30 04:19:29.8  -0.2                          T                                        4666086
AVF   009.64 245.1 m E Sg      2011/03/30 04:22:14.3   0.0                          T               43.3 1.22 Ml 4.2         4666057
SBF   009.69 220.5 m E Pn      2011/03/30 04:19:31.5   0.7                          T                                        4666076
HYF   009.79 249.1 m E Pn      2011/03/30 04:19:32.3   0.2                          T                                        4666084
HYF   009.79 249.1 m E Sg      2011/03/30 04:22:19.0   0.0                          T                                        4666053
BGF   010.06 245.2 m E Pn      2011/03/30 04:19:35.6  -0.2                          T                                        4666083
BGF   010.06 245.2 m E Sg      2011/03/30 04:22:27.5   0.1                          T               16.8  .76 Ml 4.1         4666055
FRF   010.27 222.2 m E Pn      2011/03/30 04:19:40.2   1.7                          T                                        4666077
FRF   010.27 222.2 m E Sn      2011/03/30 04:21:27.4  -0.3                          T                2.3  .27 Ml 3.7         4666048
LMR   010.51 222.0 m E Pn      2011/03/30 04:19:41.9   0.1                          T                                        4666047
TCF   010.58 245.3 m E Pn      2011/03/30 04:19:42.8   0.0                          T                                        4666073
TCF   010.58 245.3 m E Sg      2011/03/30 04:22:43.5   0.0                          T               45.4 1.52 Ml 4.3         4666070

.
EVENT     257763
    Date      Time       Latitude Longitude    Depth    Ndef Nsta Gap    Mag1  N    Mag2  N    Mag3  N   Author         ID
       rms   OT_Error      Smajor Sminor Az        Err   mdist  Mdist     Err        Err        Err      Quality

2011/03/30 13:01:12.2     47.5723    7.8104     10.0      85   23 035  Ml 3.0 23  Md 2.8  3              js067245    257763

      0.43   +-  0.03        .7     .5  141.07 +-  0.0    0.21   4.46   +-0.3      +-0.1                 m i ke

SWITZERLAND
Sta     Dist  EvAz     Phase      Date       Time     TRes  Azim  AzRes  Slow  SRes Def   SNR       Amp   Per   Mag1   Mag2       ID
HINF  000.69 291.1 m E Pg      2011/03/30 13:01:25.4   0.0                          T                                        4666517
HINF  000.69 291.1 m E Sg      2011/03/30 13:01:33.2  -1.3                          T              141.3  .24        Md 2.8  4666508
CDF   000.91 337.1 m E Pg      2011/03/30 13:01:29.4  -0.1                          T                                        4666518
CDF   000.91 337.1 m E Sg      2011/03/30 13:01:40.9  -0.6                          T              106.4  .28 Ml 3.5 Md 2.8  4666510
HAU   001.08 294.3 m E Pn      2011/03/30 13:01:31.3  -0.5                          T                                        4666512
HAU   001.08 294.3 m E Pg      2011/03/30 13:01:32.2  -0.3                          T                                        4666516
HAU   001.08 294.3 m E Sg      2011/03/30 13:01:46.4   0.0                          T              252.3  .34 Ml 3.5 Md 2.7  4666549
THEF  001.39 298.9 m E Pn      2011/03/30 13:01:36.8   0.9                          T                                        4666511
THEF  001.39 298.9 m E Pg      2011/03/30 13:01:37.7  -0.4                          T                                        4666515
THEF  001.39 298.9 m E Sg      2011/03/30 13:01:55.6  -0.5                          T               49.8  .18 Ml 3.4         4666509
CABF  001.52 231.4 m E Pn      2011/03/30 13:01:37.5  -0.4                          T                                        4666513
CABF  001.52 231.4 m E Pg      2011/03/30 13:01:40.4  -0.3                          T                                        4666514
CABF  001.52 231.4 m E Sg      2011/03/30 13:02:00.6   0.3                          T               17.7  .18 Ml 3.0         4666548
LANF  001.41 359.9 m E Pg      2011/03/30 13:01:38.3  -0.2                          T                                        4666589
LANF  001.41 359.9 m E Sg      2011/03/30 13:01:56.6  -0.1                          T               13.0  .19 Ml 2.8         4666553
MEZF  002.07 297.7 m E Pn      2011/03/30 13:01:45.2   0.0                          T                                        4666574
MEZF  002.07 297.7 m E Sg      2011/03/30 13:02:17.3  -0.1 109.2  -6.4              T               23.6  .30 Ml 3.1         4666551
LPL   002.19 200.3 m E Pn      2011/03/30 13:01:46.6  -0.5                          T                                        4666565
LPL   002.19 200.3 m E Pg      2011/03/30 13:01:53.0  -0.1                          T                                        4666579
LPL   002.19 200.3 m E Sg      2011/03/30 13:02:21.4   0.2                          T                4.9  .24 Ml 2.6         4666538
RUP   002.19 347.1 m E Pn      2011/03/30 13:01:46.9   0.0                          T                                        4666575
RUP   002.19 347.1 m E Pg      2011/03/30 13:01:53.0   0.1                          T                                        4666590
RUP   002.19 347.1 m E Sg      2011/03/30 13:02:21.0   0.0                          T                                        4666554
LPG   002.20 199.8 m E Pn      2011/03/30 13:01:47.3  -0.1                          T                                        4666564
LPG   002.20 199.8 m E Pg      2011/03/30 13:01:53.5   0.1                          T                                        4666578
LPG   002.20 199.8 m E Sg      2011/03/30 13:02:21.6  -0.1                          T                5.1  .20 Ml 2.7         4666537
LOR   002.70 265.0 m E Pn      2011/03/30 13:01:54.8   1.0                          T                                        4666577
LOR   002.70 265.0 m E Pg      2011/03/30 13:02:02.5   0.2  87.8  5.8               T                                        4666593
LOR   002.70 265.0 m E Sg      2011/03/30 13:02:37.2   0.2  79.6  -2.5              T               37.6  .22 Ml 3.6         4666559
SMF   002.87 252.6 m E Pn      2011/03/30 13:01:55.8  -0.3                          T                                        4666571
SMF   002.87 252.6 m E Pg      2011/03/30 13:02:05.4   0.1                          T                                        4666586
SMF   002.87 252.6 m E Sg      2011/03/30 13:02:42.3   0.1                          T               13.1  .22 Ml 3.2         4666546
MBDF  002.94 194.6 m E Pn      2011/03/30 13:01:56.3  -0.9                          T                                        4666567
MBDF  002.94 194.6 m E Pg      2011/03/30 13:02:06.7  -0.1                          T                                        4666581
MBDF  002.94 194.6 m E Sg      2011/03/30 13:02:44.6   0.1                          T               10.7  .52 Ml 2.7         4666540
ORIF  002.97 207.5 m E Pn      2011/03/30 13:01:57.4  -0.2                          T                                        4666566
ORIF  002.97 207.5 m E Pg      2011/03/30 13:02:07.6   0.2                          T                                        4666580
ORIF  002.97 207.5 m E Sg      2011/03/30 13:02:45.6   0.0                          T                7.3  .28 Ml 2.8         4666539
SSF   002.97 261.7 m E Pn      2011/03/30 13:01:58.4   0.9                          T                                        4666576
SSF   002.97 261.7 m E Pg      2011/03/30 13:02:07.4   0.2                          T                                        4666592
SSF   002.97 261.7 m E Sg      2011/03/30 13:02:45.6   0.1                          T               10.9  .22 Ml 3.2         4666558
AVF   003.14 257.2 m E Pn      2011/03/30 13:01:59.5  -0.3                          T                                        4666572
AVF   003.14 257.2 m E Pg      2011/03/30 13:02:10.3   0.0                          T                                        4666587
AVF   003.14 257.2 m E Sg      2011/03/30 13:02:50.9   0.2                          T                3.1  .24 Ml 2.6         4666547
GIVF  003.21 323.2 m E Pn      2011/03/30 13:02:00.9   0.2                          T                                        4666562
GIVF  003.21 323.2 m E Sg      2011/03/30 13:02:52.8  -0.1                          T                5.4  .29 Ml 2.7         4666556
VIVF  003.48 219.9 m E Pn      2011/03/30 13:02:02.7  -1.8                          T                                        4666568
VIVF  003.48 219.9 m E Pg      2011/03/30 13:02:16.9   0.2                          T                                        4666582
VIVF  003.48 219.9 m E Sg      2011/03/30 13:03:00.3  -1.1                          T                8.4  .30 Ml 3.0         4666541
BAIF  003.44 317.6 m E Pn      2011/03/30 13:02:03.6  -0.4                          T                                        4666561
BAIF  003.44 317.6 m E Sg      2011/03/30 13:03:00.1   0.0                          T                2.5  .23 Ml 2.6         4666555
BGF   003.54 255.2 m E Pn      2011/03/30 13:02:04.4  -0.8                          T                                        4666570
BGF   003.54 255.2 m E Pg      2011/03/30 13:02:18.0   0.2                          T                                        4666584
BGF   003.54 255.2 m E Sg      2011/03/30 13:03:03.6   0.3                          T               10.2  .28 Ml 3.1         4666544
HYF   003.52 267.0 m E P       2011/03/30 13:02:08.6   0.3                          T                                        4666585
HYF   003.52 267.0 m E Pg      2011/03/30 13:02:17.3  -0.1                          T                                        4668834
HYF   003.52 267.0 m E Sg      2011/03/30 13:03:02.9   0.2                          T                                        4666545
TCF   004.05 253.5 m E Pn      2011/03/30 13:02:11.3  -0.9                          T                                        4666560
TCF   004.05 253.5 m E Pg      2011/03/30 13:02:27.3   0.2                          T                                        4666591
TCF   004.05 253.5 m E Sg      2011/03/30 13:03:17.9  -1.1                          T                3.3  .32 Ml 2.7         4666557
LASF  004.46 219.8 m E Pn      2011/03/30 13:02:16.6  -1.1                          T                                        4666563
LASF  004.46 219.8 m E Sg      2011/03/30 13:03:32.3   0.5                          T                2.3  .28 Ml 2.7         4666542

.
