EVENT     261453
    Date      Time       Latitude Longitude    Depth    Ndef Nsta Gap    Mag1  N    Mag2  N    Mag3  N   Author         ID
       rms   OT_Error      Smajor Sminor Az        Err   mdist  Mdist     Err        Err        Err      Quality

2011/07/15 17:35:11.3     41.9319    7.6489     30.0      29   14 225  Ml 2.7 12  Md 2.5  2              js067245    261453

      1.52   +-  0.50      11.6    6.5  178.69 +-  0.0    1.18   5.52   +-0.4      +-0.0                 m i ke

WESTERN MEDITERRANEAN SEA
Sta     Dist  EvAz     Phase      Date       Time     TRes  Azim  AzRes  Slow  SRes Def   SNR       Amp   Per   Mag1   Mag2       ID
PGF   001.18 058.0 m E Pn      2011/07/15 17:35:30.8   0.0                          T                                        4721641
PGF   001.18 058.0 m E Sn      2011/07/15 17:35:44.5  -0.6                          T               20.1  .17 Ml 3.2 Md 2.5  4721627
LMR   001.63 329.4 m E Pn      2011/07/15 17:35:36.1  -0.8                          T                                        4721639
LMR   001.63 329.4 m E Sn      2011/07/15 17:35:53.6  -2.2                          T               25.6  .18 Ml 3.3 Md 2.5  4721625
FRF   001.79 335.9 m E Pn      2011/07/15 17:35:38.3  -0.7                          T                                        4721638
FRF   001.79 335.9 m E Sn      2011/07/15 17:35:56.9  -2.6                          T               10.5  .16 Ml 3.0         4721624
SBF   001.94 355.4 m E Pn      2011/07/15 17:35:39.7  -1.4                          T                                        4721640
SBF   001.94 355.4 m E Sn      2011/07/15 17:36:00.8  -2.2                          T               12.6  .21 Ml 3.0         4721626
SMRF  002.55 324.0 m E Pn      2011/07/15 17:35:50.2   0.9                          T                                        4721637
SMRF  002.55 324.0 m E Sn      2011/07/15 17:36:19.6   2.0                          T                2.3  .19 Ml 2.4         4721623
MBDF  002.87 347.4 m E Pn      2011/07/15 17:35:55.5   1.7                          T                                        4721634
MBDF  002.87 347.4 m E Sn      2011/07/15 17:36:25.3   0.0                          T                3.2  .29 Ml 2.4         4721622
ORIF  003.25 337.3 m E Pn      2011/07/15 17:36:00.0   1.0                          T                                        4721635
LASF  003.51 308.9 m E Pn      2011/07/15 17:36:01.9  -0.5                          T                                        4721632
LASF  003.51 308.9 m E Sn      2011/07/15 17:36:39.1  -1.4                          T                4.7  .21 Ml 2.9         4721620
VIVF  003.64 324.4 m E Pn      2011/07/15 17:36:04.4   0.2                          T                                        4721633
VIVF  003.64 324.4 m E Sn      2011/07/15 17:36:43.6   0.0                          T                 .5  .14 Ml 2.1         4721621
LPG   003.62 350.0 m E P       2011/07/15 17:36:06.7  -0.5                          T                                        4721636
LPL   003.64 349.8 m E P       2011/07/15 17:36:06.9  -0.6                          T                                        4725397
LPL   003.64 349.8 m E Sn      2011/07/15 17:36:46.8   2.9                          T                1.6  .30 Ml 2.3         4725396
MTLF  004.25 291.2 m E Pn      2011/07/15 17:36:11.9  -0.5                          T                                        4721631
MTLF  004.25 291.2 m E Sn      2011/07/15 17:36:58.3   0.2                          T                4.3  .32 Ml 2.8         4721619
CAF   005.05 308.2 m E Pn      2011/07/15 17:36:24.0   0.6                          T                                        4721629
CAF   005.05 308.2 m E Sn      2011/07/15 17:37:16.7  -0.5                          T                 .7  .20 Ml 2.5         4721618
EPF   005.52 283.9 m E Pn      2011/07/15 17:36:29.3  -0.4                          T                                        4721630

.
EVENT     261454
    Date      Time       Latitude Longitude    Depth    Ndef Nsta Gap    Mag1  N    Mag2  N    Mag3  N   Author         ID
       rms   OT_Error      Smajor Sminor Az        Err   mdist  Mdist     Err        Err        Err      Quality

2011/07/15 18:23:13.1     36.9503   -2.0216     10.0 f    66    6 092  Ml 2.4  3                         js067245    261454

      1.07   +-  0.20       4.6    3.1  148.48 +-  0.0    0.15  11.42   +-0.2                            m i ke

STRAIT OF GIBRALTAR
Sta     Dist  EvAz     Phase      Date       Time     TRes  Azim  AzRes  Slow  SRes Def   SNR       Amp   Per   Mag1   Mag2       ID
ETSF  006.05 010.3 m E Pn      2011/07/15 18:24:41.1   0.7                          T                                        4721648
ETSF  006.05 010.3 m E Sn      2011/07/15 18:25:45.5   0.0                          T                 .3  .23 Ml 2.2         4721643
SJPF  006.19 005.4 m E Pn      2011/07/15 18:24:42.2   0.0                          T                                        4721647
SJPF  006.19 005.4 m E Sn      2011/07/15 18:25:49.4   0.6                          T                 .5  .27 Ml 2.4         4721642
EPF   006.34 015.9 m E Pn      2011/07/15 18:24:45.6   1.3                          T                                        4721646
EPF   006.34 015.9 m E Sn      2011/07/15 18:25:52.7   0.2                          T                 .8  .26 Ml 2.7         4721645
QUIF  010.99 356.0 m E Pn      2011/07/15 18:25:47.7   0.1                          T                                        4725400
SGMF  011.30 358.2 m E Pn      2011/07/15 18:25:51.8   0.0                          T                                        4725399
ROSF  011.42 355.8 m E Pn      2011/07/15 18:25:53.2  -0.2                          T                                        4725398

.
EVENT     261455
    Date      Time       Latitude Longitude    Depth    Ndef Nsta Gap    Mag1  N    Mag2  N    Mag3  N   Author         ID
       rms   OT_Error      Smajor Sminor Az        Err   mdist  Mdist     Err        Err        Err      Quality

2011/07/15 19:45:29.5     44.0095    7.3569      2.0      12    7 175  Ml 2.1  2  Md 2.1  2              js067245    261455

      0.45   +-  0.21       4.6    2.9   81.80 +-  0.0    0.16   1.57   +-0.0      +-0.1                 m i ke

NORTHERN ITALY
Sta     Dist  EvAz     Phase      Date       Time     TRes  Azim  AzRes  Slow  SRes Def   SNR       Amp   Per   Mag1   Mag2       ID
SBF   000.16 158.8 m E Pg      2011/07/15 19:45:33.0   0.1                          T                                        4725401
SBF   000.16 158.8 m E Sg      2011/07/15 19:45:35.7   0.7                          T               32.3  .22        Md 2.1  4725402
FRF   000.68 229.1 m E Pg      2011/07/15 19:45:42.2  -0.2                          T                                        4725408
FRF   000.68 229.1 m E Sg      2011/07/15 19:45:50.9  -0.4                          T                2.8  .26        Md 2.2  4725409
MBDF  000.83 329.9 m E Pg      2011/07/15 19:45:44.8  -0.6                          T                                        4725405
MBDF  000.83 329.9 m E Sg      2011/07/15 19:45:56.7   0.5                          T                2.6  .28                4725406
LMR   000.91 222.6 m E Pg      2011/07/15 19:45:46.4  -0.3                          T                                        4725410
LMR   000.91 222.6 m E Sg      2011/07/15 19:45:58.1  -0.4                          T                4.1  .19 Ml 2.1         4721652
SMRF  001.29 269.1 m E Pg      2011/07/15 19:45:54.0   0.5                          T                                        4725407
SMRF  001.29 269.1 m E Sg      2011/07/15 19:46:11.2   1.0                          T                3.6  .24 Ml 2.1         4721650
ORIF  001.39 311.2 m E Pg      2011/07/15 19:45:54.8  -0.9                          T                                        4725403
LPL   001.57 343.8 m E Pg      2011/07/15 19:45:59.2   0.1                          T                                        4725404

.
EVENT     261458
    Date      Time       Latitude Longitude    Depth    Ndef Nsta Gap    Mag1  N    Mag2  N    Mag3  N   Author         ID
       rms   OT_Error      Smajor Sminor Az        Err   mdist  Mdist     Err        Err        Err      Quality

2011/07/16 00:51:38.1     43.0654   -1.4436      2.0      18    3 130  Ml 1.1  1  Md 1.1  2              js067245    261458

      0.19   +-  0.06       1.1     .9   91.89 +-  0.0    0.14   1.31   +-         +-0.3                 m i ke

PYRENEES
Sta     Dist  EvAz     Phase      Date       Time     TRes  Azim  AzRes  Slow  SRes Def   SNR       Amp   Per   Mag1   Mag2       ID
SJPF  000.17 073.3 m E Pg      2011/07/16 00:51:41.5  -0.1                          T                                        4723776
SJPF  000.17 073.3 m E Sg      2011/07/16 00:51:44.0   0.1                          T                 .9  .14        Md 1.3  4723775
ETSF  000.67 104.1 m E Pg      2011/07/16 00:51:50.5  -0.4                          T                                        4723772
ETSF  000.67 104.1 m E Sg      2011/07/16 00:52:00.4   0.8                          T                 .4  .22        Md  .9  4723773
EPF   001.31 090.9 m E Pn      2011/07/16 00:52:01.6  -0.1                          T                                        4723769
EPF   001.31 090.9 m E Sg      2011/07/16 00:52:19.4  -0.1                          T                 .3  .19 Ml 1.1         4723768

.
EVENT     261457
    Date      Time       Latitude Longitude    Depth    Ndef Nsta Gap    Mag1  N    Mag2  N    Mag3  N   Author         ID
       rms   OT_Error      Smajor Sminor Az        Err   mdist  Mdist     Err        Err        Err      Quality

2011/07/16 01:27:35.0     47.3481    7.0932      2.0      35   15 096  Ml 2.2 13  Md 2.3  3              js067245    261457

      0.53   +-  0.05       1.0     .9  114.62 +-  0.0    0.10   3.01   +-0.4      +-0.1                 m i ke

SWITZERLAND
Sta     Dist  EvAz     Phase      Date       Time     TRes  Azim  AzRes  Slow  SRes Def   SNR       Amp   Per   Mag1   Mag2       ID
HINF  000.50 341.0 m E Pg      2011/07/16 01:27:44.5  -0.1                          T                                        4721677
HINF  000.50 341.0 m E Sg      2011/07/16 01:27:51.1   0.0                          T               12.5  .24        Md 2.5  4721670
HAU   000.83 322.8 m E Pg      2011/07/16 01:27:50.9   0.3                          T                                        4725422
HAU   000.83 322.8 m E Pn      2011/07/16 01:27:52.0  -0.2                          T                                        4725423
HAU   000.83 322.8 m E Sg      2011/07/16 01:28:01.5   0.0                          T                                        4721678
HAU   000.83 322.8 m E Sn      2011/07/16 01:28:04.1  -0.2                          T               53.6  .25        Md 2.3  4721671
CABF  001.01 223.4 m E Pg      2011/07/16 01:27:54.2   0.1                          T                                        4721676
CABF  001.01 223.4 m E Sn      2011/07/16 01:28:08.6   0.0                          T                6.0  .26 Ml 2.2 Md 2.2  4721669
CDF   001.07 006.5 m E Pg      2011/07/16 01:27:55.1  -0.1                          T                                        4721680
CDF   001.07 006.5 m E Sn      2011/07/16 01:28:10.0  -0.1                          T               15.6  .29 Ml 2.7         4721674
THEF  001.15 320.3 m E Pg      2011/07/16 01:27:56.7   0.2                          T                                        4721679
THEF  001.15 320.3 m E Sg      2011/07/16 01:28:11.8   0.3                          T                9.3  .21 Ml 2.5         4721672
PAGF  001.52 323.2 m E Pg      2011/07/16 01:28:03.1  -0.3 140.2  -2.0              T                                        4721675
PAGF  001.52 323.2 m E Sg      2011/07/16 01:28:22.4  -0.6 144.3  2.1               T                1.1  .26 Ml 1.7         4721673
SFTF  001.63 302.5 m E Pn      2011/07/16 01:28:03.1   0.0 121.2  0.2               T                                        4721662
SFTF  001.63 302.5 m E Pg      2011/07/16 01:28:05.3  -0.1 124.3  3.3               T                                        4725424
SFTF  001.63 302.5 m E Sn      2011/07/16 01:28:23.0  -0.3                          T                                        4725425
SFTF  001.63 302.5 m E Sg      2011/07/16 01:28:26.4   0.0 124.7  3.7               T                3.8  .27 Ml 2.2         4721663
MEZF  001.79 310.8 m E Pn      2011/07/16 01:28:05.3   0.1                          T                                        4725426
MEZF  001.79 310.8 m E Sg      2011/07/16 01:28:31.7   0.2 133.4  4.1               T                8.5  .36 Ml 2.5         4725427
LPL   001.85 187.9 m E Pg      2011/07/16 01:28:09.7   0.0                          T                                        4725419
LPL   001.85 187.9 m E Sg      2011/07/16 01:28:33.4  -0.2                          T                1.1  .28 Ml 1.8         4725418
LOR   002.20 269.1 m E Pg      2011/07/16 01:28:15.9   0.0  91.8  5.0               T                                        4721664
LOR   002.20 269.1 m E Sg      2011/07/16 01:28:44.0  -0.3  82.3  -4.4              T                3.2  .25 Ml 2.4         4721665
SMF   002.33 253.7 m E Pg      2011/07/16 01:28:19.5   1.1                          T                                        4721668
SMF   002.33 253.7 m E Sg      2011/07/16 01:28:48.0  -0.4                          T                2.0  .26 Ml 2.2         4721666
AVF   002.62 259.1 m E Pg      2011/07/16 01:28:23.7   0.2                          T                                        4721667
AVF   002.62 259.1 m E Sg      2011/07/16 01:28:57.0  -0.2                          T                 .3  .22 Ml 1.5         4725421
BGF   003.01 256.3 m E Pg      2011/07/16 01:28:30.9   0.0                          T                                        4725420
BGF   003.01 256.3 m E Sg      2011/07/16 01:29:10.3   0.7                          T                2.4  .30 Ml 2.3         4721661
VIVF  003.01 214.9 m E Pg      2011/07/16 01:28:31.3   0.5                          T                                        4721659
VIVF  003.01 214.9 m E Sg      2011/07/16 01:29:09.5   0.1                          T                2.4  .29 Ml 2.3         4721660
SSF   002.46 264.6 m E Sg      2011/07/16 01:28:52.3  -0.1                          T                 .8  .25 Ml 1.9         4725428

.
EVENT     261459
    Date      Time       Latitude Longitude    Depth    Ndef Nsta Gap    Mag1  N    Mag2  N    Mag3  N   Author         ID
       rms   OT_Error      Smajor Sminor Az        Err   mdist  Mdist     Err        Err        Err      Quality

2011/07/16 12:28:22.2     42.8102     .1854      2.0       8    4 209  Ml 1.4  2  Md 1.7  2              js067245    261459

      0.34   +-  0.25       7.8    2.2  169.16 +-  0.0    0.25   1.58   +-0.1      +-0.0                 m i ke

PYRENEES
Sta     Dist  EvAz     Phase      Date       Time     TRes  Azim  AzRes  Slow  SRes Def   SNR       Amp   Per   Mag1   Mag2       ID
EPF   000.25 027.3 m E Pg      2011/07/16 12:28:27.4   0.2                          T                                        4721688
EPF   000.25 027.3 m E Sg      2011/07/16 12:28:29.9  -0.6                          T               19.2  .21        Md 1.7  4721686
ETSF  000.55 279.4 m E Pg      2011/07/16 12:28:32.7  -0.2                          T                                        4721687
ETSF  000.55 279.4 m E Sg      2011/07/16 12:28:41.0   0.8                          T                2.9  .29        Md 1.6  4721685
SJPF  001.08 286.8 m E Pg      2011/07/16 12:28:42.4   0.0                          T                                        4721681
SJPF  001.08 286.8 m E Sg      2011/07/16 12:28:56.0  -0.4                          T                 .6  .22 Ml 1.3         4721683
MTLF  001.58 069.7 m E Pg      2011/07/16 12:28:51.6  -0.1                          T                                        4721682
MTLF  001.58 069.7 m E Sg      2011/07/16 12:29:12.2   0.1                          T                 .9  .35 Ml 1.5         4721684

.
EVENT     261460
    Date      Time       Latitude Longitude    Depth    Ndef Nsta Gap    Mag1  N    Mag2  N    Mag3  N   Author         ID
       rms   OT_Error      Smajor Sminor Az        Err   mdist  Mdist     Err        Err        Err      Quality

2011/07/16 14:50:09.1     43.0778    -.4744      2.0       6    3 180             Md 1.5  1              js067245    261460

      0.12   +-  0.07       2.2    1.2  177.41 +-  0.0    0.19   0.60              +-                    m i ke

PYRENEES
Sta     Dist  EvAz     Phase      Date       Time     TRes  Azim  AzRes  Slow  SRes Def   SNR       Amp   Per   Mag1   Mag2       ID
ETSF  000.19 199.2 m E Pg      2011/07/16 14:50:12.9  -0.1                          T                                        4723850
ETSF  000.19 199.2 m E Sg      2011/07/16 14:50:15.9   0.2                          T                5.4  .25        Md 1.5  4723849
SJPF  000.55 273.9 m E Pg      2011/07/16 14:50:19.5  -0.1                          T                                        4725430
SJPF  000.55 273.9 m E Sg      2011/07/16 14:50:27.0   0.2                          T                 .4  .26                4725431
EPF   000.60 094.3 m E Pg      2011/07/16 14:50:20.5   0.0                          T                                        4725429
EPF   000.60 094.3 m E Sg      2011/07/16 14:50:28.3   0.0                          T                2.1  .36                4725432

.
EVENT     261530
    Date      Time       Latitude Longitude    Depth    Ndef Nsta Gap    Mag1  N    Mag2  N    Mag3  N   Author         ID
       rms   OT_Error      Smajor Sminor Az        Err   mdist  Mdist     Err        Err        Err      Quality

2011/07/16 15:11:29.3     42.8092   -1.3630      2.0      22    3 106  Ml 1.2  1  Md 1.3  2              js067245    261530

      0.21   +-  0.05       1.3     .8  172.37 +-  0.0    0.01   1.27   +-         +-0.2                 m i ke

PYRENEES
Sta     Dist  EvAz     Phase      Date       Time     TRes  Azim  AzRes  Slow  SRes Def   SNR       Amp   Per   Mag1   Mag2       ID
SJPF  000.32 018.4 m E Pg      2011/07/16 15:11:35.9   0.4                          T                                        4723785
SJPF  000.32 018.4 m E Sg      2011/07/16 15:11:40.5   0.7                          T                1.5  .24        Md 1.5  4723784
ETSF  000.60 081.1 m E Pg      2011/07/16 15:11:40.6  -0.1                          T                                        4723782
ETSF  000.60 081.1 m E Sg      2011/07/16 15:11:48.4  -0.1                          T                 .2  .23        Md 1.2  4723783
EPF   001.27 079.4 m E Pg      2011/07/16 15:11:53.0  -0.1                          T                                        4723781
EPF   001.27 079.4 m E Sg      2011/07/16 15:12:09.5   0.0                          T                 .5  .28 Ml 1.2         4723780

.
