EVENT     260195
    Date      Time       Latitude Longitude    Depth    Ndef Nsta Gap    Mag1  N    Mag2  N    Mag3  N   Author         ID
       rms   OT_Error      Smajor Sminor Az        Err   mdist  Mdist     Err        Err        Err      Quality

2011/06/10 04:28:04.3     43.7611   11.9699      2.0      24   12 173  Ml 2.8  9                         js067245    260195

      0.86   +-  0.31       7.6    5.0   50.87 +-  0.0    0.14   7.10   +-0.2                            m i ke

CENTRAL ITALY
Sta     Dist  EvAz     Phase      Date       Time     TRes  Azim  AzRes  Slow  SRes Def   SNR       Amp   Per   Mag1   Mag2       ID
PGF   002.49 241.9 m E Pn      2011/06/10 04:28:44.0  -0.2                          T                                        4706169
PGF   002.49 241.9 m E Sn      2011/06/10 04:29:14.3   1.0                          T                5.5  .31 Ml 2.8         4706168
SBF   003.28 273.3 m E Pn      2011/06/10 04:28:54.4  -0.5                          T                                        4706170
SBF   003.28 273.3 m E Sn      2011/06/10 04:29:33.0   0.7                          T                9.5  .33 Ml 3.0         4706167
FRF   003.87 268.9 m E Pn      2011/06/10 04:29:02.8   0.0                          T                                        4706172
FRF   003.87 268.9 m E Sn      2011/06/10 04:29:44.6  -1.5                          T                3.0  .29 Ml 2.7         4706165
MBDF  003.86 286.3 m E Pn      2011/06/10 04:29:03.8   1.0                          T                                        4706175
LMR   003.99 265.7 m E Pn      2011/06/10 04:29:04.1  -0.4                          T                                        4706171
LMR   003.99 265.7 m E Sn      2011/06/10 04:29:48.6  -0.5                          T                2.1  .28 Ml 2.5         4706166
LPL   004.13 297.0 m E Pn      2011/06/10 04:29:07.5   0.9                          T                                        4706174
LPL   004.13 297.0 m E Sn      2011/06/10 04:29:54.9   2.2                          T                2.6  .35 Ml 2.6         4706163
LPG   004.11 296.8 m E Pn      2011/06/10 04:29:07.8   1.3                          T                                        4706173
LPG   004.11 296.8 m E Sn      2011/06/10 04:29:54.0   1.7                          T                1.6  .22 Ml 2.5         4706164
CABF  005.04 306.5 m E Pn      2011/06/10 04:29:20.0   1.1                          T                                        4706177
HINF  005.41 320.4 m E Pn      2011/06/10 04:29:23.9   0.0                          T                                        4706178
HINF  005.41 320.4 m E Sn      2011/06/10 04:30:23.2   0.2                          T                5.2  .42 Ml 3.1         4706162
CDF   005.68 326.6 m E Pn      2011/06/10 04:29:27.8   0.1                          T                                        4706180
CDF   005.68 326.6 m E Sn      2011/06/10 04:30:29.0  -0.6                          T                3.7  .36 Ml 3.1         4706160
HAU   005.78 319.2 m E Pn      2011/06/10 04:29:27.9  -1.0                          T                                        4706179
HAU   005.78 319.2 m E Sn      2011/06/10 04:30:31.2  -0.6                          T                3.6  .25 Ml 3.0         4706161
MTLF  007.10 270.0 m E Pn      2011/06/10 04:29:47.1   0.3                          T                                        4706176

.
EVENT     260214
    Date      Time       Latitude Longitude    Depth    Ndef Nsta Gap    Mag1  N    Mag2  N    Mag3  N   Author         ID
       rms   OT_Error      Smajor Sminor Az        Err   mdist  Mdist     Err        Err        Err      Quality

2011/06/10 12:29:55.3     48.2474   -3.2735     15.0      10    4 192  Ml 2.0  1  Md 1.4  2              js067245    260214

      1.75   +-  0.17       4.0    1.5    1.59 +-  0.0    0.09   1.62   +-         +-0.4                 m i ke

FRANCE
Sta     Dist  EvAz     Phase      Date       Time     TRes  Azim  AzRes  Slow  SRes Def   SNR       Amp   Per   Mag1   Mag2       ID
ROSF  000.09 360.0 m E Pg      2011/06/10 12:29:58.5   0.0                          T                                        4706195
ROSF  000.09 360.0 m E Sg      2011/06/10 12:30:00.8   0.1                          T               13.3  .18        Md 1.7  4706196
QUIF  000.34 167.6 m E Pg      2011/06/10 12:30:02.3   0.0                          T                                        4706190
QUIF  000.34 167.6 m E Sg      2011/06/10 12:30:07.1  -0.1                          T               12.4  .20        Md 1.1  4706191
SGMF  000.48 088.9 m E Pg      2011/06/10 12:30:04.9   0.2                          T                                        4706192
SGMF  000.48 088.9 m E Sg      2011/06/10 12:30:11.3  -0.1                          T                7.9  .28                4706193
SGMF  000.48 088.9 m E Sn      2011/06/10 12:30:13.6  -0.2                          T                5.5  .32                4706194
GRR   001.62 084.1 m E Sn      2011/06/10 12:30:40.9  -0.1                          T                2.1  .18 Ml 2.0         4706197

.
EVENT     260215
    Date      Time       Latitude Longitude    Depth    Ndef Nsta Gap    Mag1  N    Mag2  N    Mag3  N   Author         ID
       rms   OT_Error      Smajor Sminor Az        Err   mdist  Mdist     Err        Err        Err      Quality

2011/06/10 12:53:32.3     45.2500    6.5496      2.0      43   18 071  Ml 2.4 12  Md 2.3  3              js067245    260215

      0.32   +-  0.05       1.2     .8   79.14 +-  0.0    0.29   2.90   +-0.2      +-0.0                 m i ke

FRANCE
Sta     Dist  EvAz     Phase      Date       Time     TRes  Azim  AzRes  Slow  SRes Def   SNR       Amp   Per   Mag1   Mag2       ID
LPG   000.29 029.8 m E Pg      2011/06/10 12:53:37.9  -0.3                          T                                        4706248
LPG   000.29 029.8 m E Sg      2011/06/10 12:53:42.7   0.6                          T               76.7  .20        Md 2.3  4706249
LPL   000.30 025.7 m E Pg      2011/06/10 12:53:38.2  -0.1                          T                                        4706254
LPL   000.30 025.7 m E Sg      2011/06/10 12:53:41.7  -0.6                          T               70.8  .20        Md 2.3  4706255
MBDF  000.55 163.2 m E Pg      2011/06/10 12:53:42.5  -0.3                          T                                        4706245
MBDF  000.55 163.2 m E Sg      2011/06/10 12:53:50.9   0.9                          T               20.0  .27        Md 2.3  4706247
ORIF  000.58 235.3 m E Pg      2011/06/10 12:53:42.9  -0.5                          T                                        4706244
ORIF  000.58 235.3 m E Sg      2011/06/10 12:53:50.4  -0.6                          T               42.0  .22                4706246
SMRF  001.45 209.0 m E Pn      2011/06/10 12:53:58.1   0.2                          T                                        4706275
SMRF  001.45 209.0 m E Pg      2011/06/10 12:53:59.6   0.2                          T                                        4706274
SMRF  001.45 209.0 m E Sg      2011/06/10 12:54:18.4   0.2                          T                4.4  .34 Ml 2.1         4706259
VIVF  001.39 254.2 m E Pg      2011/06/10 12:53:58.8   0.6                          T                                        4706251
VIVF  001.39 254.2 m E Sg      2011/06/10 12:54:16.2   0.0                          T               22.0  .30 Ml 2.9         4706252
CABF  001.40 346.8 m E Pg      2011/06/10 12:53:58.9   0.4                          T                                        4706250
CABF  001.40 346.8 m E Sg      2011/06/10 12:54:16.7   0.1                          T                6.7  .21 Ml 2.5         4706253
SBF   001.52 155.1 m E Pg      2011/06/10 12:54:00.9   0.2                          T                                        4706278
SBF   001.52 155.1 m E Sg      2011/06/10 12:54:20.8   0.4                          T               18.6  .41 Ml 2.7         4706256
FRF   001.69 177.6 m E Pn      2011/06/10 12:54:01.3   0.2                          T                                        4706276
FRF   001.69 177.6 m E Pg      2011/06/10 12:54:04.0   0.3                          T                                        4706266
FRF   001.69 177.6 m E Sg      2011/06/10 12:54:25.6   0.1                          T                3.2  .20 Ml 2.4         4706258
LMR   001.92 180.9 m E Pg      2011/06/10 12:54:08.1   0.3                          T                                        4706277
LMR   001.92 180.9 m E Sg      2011/06/10 12:54:32.8   0.2                          T                2.7  .23 Ml 2.3         4706257
SMF   002.35 307.4 m E Pn      2011/06/10 12:54:10.1   0.1                          T                                        4706268
SMF   002.35 307.4 m E Pg      2011/06/10 12:54:15.8  -0.1                          T                                        4706267
SMF   002.35 307.4 m E Sg      2011/06/10 12:54:46.3   0.2                          T                3.2  .21 Ml 2.5         4706260
LASF  002.25 239.5 m E Pg      2011/06/10 12:54:14.4   0.3                          T                                        4706273
LOR   002.75 318.2 m E Pn      2011/06/10 12:54:15.5  -0.1                          T                                        4706270
LOR   002.75 318.2 m E Pg      2011/06/10 12:54:23.2  -0.1                          T                                        4706269
LOR   002.75 318.2 m E Sg      2011/06/10 12:54:58.5  -0.1                          T                2.9  .28 Ml 2.4         4706265
SSF   002.79 311.7 m E Pg      2011/06/10 12:54:24.0   0.1                          T                                        4706271
SSF   002.79 311.7 m E Sg      2011/06/10 12:55:00.2   0.4                          T                1.9  .26 Ml 2.3         4706264
BGF   002.90 298.1 m E Pg      2011/06/10 12:54:25.7  -0.3                          T                                        4706272
HINF  002.58 004.6 m E Sg      2011/06/10 12:54:53.5   0.2                          T                4.9  .28 Ml 2.6         4706262
AVF   002.71 305.8 m E Sg      2011/06/10 12:54:57.3   0.0                          T                2.6  .26 Ml 2.4         4706261
HAU   002.76 357.2 m E Sg      2011/06/10 12:54:59.3   0.3                          T                4.1  .24 Ml 2.4         4706263

.
EVENT     260216
    Date      Time       Latitude Longitude    Depth    Ndef Nsta Gap    Mag1  N    Mag2  N    Mag3  N   Author         ID
       rms   OT_Error      Smajor Sminor Az        Err   mdist  Mdist     Err        Err        Err      Quality

2011/06/10 13:05:42.9     45.2521    6.5473      2.0      27   13 124  Ml 1.8  9  Md 1.9  2              js067245    260216

      0.35   +-  0.08       1.6    1.1   88.06 +-  0.0    0.28   2.78   +-0.2      +-0.0                 m i ke

FRANCE
Sta     Dist  EvAz     Phase      Date       Time     TRes  Azim  AzRes  Slow  SRes Def   SNR       Amp   Per   Mag1   Mag2       ID
LPG   000.28 030.3 m E Pg      2011/06/10 13:05:48.5  -0.3                          T                                        4706300
LPG   000.28 030.3 m E Sg      2011/06/10 13:05:53.0   0.3                          T               13.4  .20        Md 1.9  4706301
LPL   000.29 026.2 m E Pg      2011/06/10 13:05:48.8  -0.1                          T                                        4706302
LPL   000.29 026.2 m E Sg      2011/06/10 13:05:52.3  -0.6                          T               13.2  .20        Md 1.9  4706303
MBDF  000.55 163.1 m E Pg      2011/06/10 13:05:53.1  -0.4                          T                                        4706299
MBDF  000.55 163.1 m E Sg      2011/06/10 13:06:01.5   0.8                          T                3.5  .23                4706284
ORIF  000.58 235.0 m E Pg      2011/06/10 13:05:53.5  -0.5                          T                                        4706298
ORIF  000.58 235.0 m E Sg      2011/06/10 13:06:01.0  -0.6                          T                8.1  .24                4706283
VIVF  001.39 254.1 m E Pg      2011/06/10 13:06:09.4   0.6                          T                                        4706294
VIVF  001.39 254.1 m E Sg      2011/06/10 13:06:26.8   0.1                          T                4.7  .34 Ml 2.1         4706285
CABF  001.40 346.9 m E Pg      2011/06/10 13:06:09.4   0.4                          T                                        4706292
CABF  001.40 346.9 m E Sg      2011/06/10 13:06:27.2   0.2                          T                1.6  .28 Ml 1.8         4706287
SMRF  001.45 208.9 m E Pg      2011/06/10 13:06:10.2   0.2                          T                                        4706297
SMRF  001.45 208.9 m E Sg      2011/06/10 13:06:29.0   0.2                          T                 .7  .17 Ml 1.6         4706282
SBF   001.53 155.1 m E Pg      2011/06/10 13:06:11.5   0.1                          T                                        4706295
SBF   001.53 155.1 m E Sg      2011/06/10 13:06:31.4   0.3                          T                 .6  .22 Ml 1.5         4706279
FRF   001.69 177.5 m E Pg      2011/06/10 13:06:14.6   0.2                          T                                        4706296
FRF   001.69 177.5 m E Sg      2011/06/10 13:06:36.3   0.1                          T                1.8  .16 Ml 2.2         4706281
SMF   002.35 307.4 m E Pg      2011/06/10 13:06:26.4   0.0                          T                                        4706293
SMF   002.35 307.4 m E Sg      2011/06/10 13:06:56.8   0.2                          T                1.5  .30 Ml 2.0         4706286
LOR   002.75 318.2 m E Pg      2011/06/10 13:06:33.7  -0.1                          T                                        4706291
LOR   002.75 318.2 m E Sg      2011/06/10 13:07:09.1  -0.1                          T                1.1  .27 Ml 2.0         4706289
SSF   002.78 311.7 m E Pg      2011/06/10 13:06:34.6   0.1                          T                                        4706290
SSF   002.78 311.7 m E Sg      2011/06/10 13:07:10.7   0.5                          T                 .4  .20 Ml 1.8         4706288
LMR   001.92 180.8 m E Sg      2011/06/10 13:06:43.4   0.2                          T                 .8  .24 Ml 1.7         4706280

.
EVENT     260262
    Date      Time       Latitude Longitude    Depth    Ndef Nsta Gap    Mag1  N    Mag2  N    Mag3  N   Author         ID
       rms   OT_Error      Smajor Sminor Az        Err   mdist  Mdist     Err        Err        Err      Quality

2011/06/10 15:31:49.8     47.7119    8.4570     10.0       9    3 072  Ml 1.5  3                         js067245    260262

      0.25   +-  0.06       1.2     .9  168.17 +-  0.0    0.06   1.45   +-0.0                            m i ke

SWITZERLAND
Sta     Dist  EvAz     Phase      Date       Time     TRes  Azim  AzRes  Slow  SRes Def   SNR       Amp   Per   Mag1   Mag2       ID
CDF   001.06 311.9 m E Pg      2011/06/10 15:32:09.9   0.1                          T                                        4706376
CDF   001.06 311.9 m E Sg      2011/06/10 15:32:23.4  -0.2                          T                 .6  .16 Ml 1.5         4706377
HINF  001.09 276.1 m E Pg      2011/06/10 15:32:10.4   0.1                          T                                        4706374
HINF  001.09 276.1 m E Sg      2011/06/10 15:32:24.3  -0.1                          T                 .9  .24 Ml 1.5         4706375
HAU   001.45 282.5 m E Sg      2011/06/10 15:32:35.8   0.0                          T                1.1  .22 Ml 1.5         4706373

.
EVENT     260220
    Date      Time       Latitude Longitude    Depth    Ndef Nsta Gap    Mag1  N    Mag2  N    Mag3  N   Author         ID
       rms   OT_Error      Smajor Sminor Az        Err   mdist  Mdist     Err        Err        Err      Quality

2011/06/10 19:54:01.7     51.5980    6.5115      1.0 f    29   13 250  Ml 2.8  9  Md 3.0  2              js067245    260220

      0.84   +-  0.23       3.9    2.7    2.81 +-  0.0    0.39   5.74   +-0.3      +-0.2                 m i sr

GERMANY
Sta     Dist  EvAz     Phase      Date       Time     TRes  Azim  AzRes  Slow  SRes Def   SNR       Amp   Per   Mag1   Mag2       ID
RUP   001.93 169.4 m E Pn      2011/06/10 19:54:33.7  -0.2                          T                                        4706436
RUP   001.93 169.4 m E Pg      2011/06/10 19:54:37.7   0.0                          T                                        4706437
RUP   001.93 169.4 m E Sg      2011/06/10 19:55:02.2  -0.3                          T                                Md 3.2  4706421
BAIF  002.12 224.4 m E Pn      2011/06/10 19:54:36.2  -0.3                          T                                        4706438
BAIF  002.12 224.4 m E Pg      2011/06/10 19:54:40.8  -0.3                          T                                        4706439
BAIF  002.12 224.4 m E Sn      2011/06/10 19:55:01.9  -0.1                          T               14.8  .32 Ml 2.9 Md 2.9  4706420
CDF   003.23 170.9 m E Pn      2011/06/10 19:54:51.2  -0.5                          T                                        4706434
CDF   003.23 170.9 m E Pg      2011/06/10 19:55:01.7   0.1                          T                                        4706435
CDF   003.23 170.9 m E Sg      2011/06/10 19:55:43.2   0.1                          T                7.4  .58 Ml 2.7         4706422
MEZF  003.24 197.4 m E Pn      2011/06/10 19:54:51.6  -0.1  19.7  3.4               T                                        4706432
MEZF  003.24 197.4 m E Sg      2011/06/10 19:55:43.6   0.3                          T                7.0  .32 Ml 2.8         4706424
SFTF  003.53 196.2 m E Pn      2011/06/10 19:54:56.2   0.6                          T                                        4706431
SFTF  003.53 196.2 m E Sg      2011/06/10 19:55:52.5   0.2                          T                7.2  .28 Ml 3.0         4706425
PAGF  003.09 189.7 m E Pg      2011/06/10 19:54:58.5  -0.5  15.0  5.9               T                                        4706433
PAGF  003.09 189.7 m E Sg      2011/06/10 19:55:39.2   0.6  13.7  4.5               T                1.3  .31 Ml 2.1         4706423
LOR   004.67 202.8 m E Pn      2011/06/10 19:55:11.2   0.0  30.9  10.1              T                                        4706441
LOR   004.67 202.8 m E Sn      2011/06/10 19:56:02.6  -0.2                          T                                        4706419
LOR   004.67 202.8 m E Sg      2011/06/10 19:56:27.8  -0.1  19.9  -0.8              T                4.4  .35 Ml 2.9         4706416
SSF   004.95 204.6 m E Pn      2011/06/10 19:55:15.1   0.1                          T                                        4706440
SSF   004.95 204.6 m E Sn      2011/06/10 19:56:09.0  -0.4                          T                                        4706418
SSF   004.95 204.6 m E Sg      2011/06/10 19:56:36.7   0.0                          T                2.5  .35 Ml 2.8         4706417
AVF   005.24 204.5 m E Pn      2011/06/10 19:55:19.2   0.3                          T                                        4706430
SMF   005.26 200.5 m E Pn      2011/06/10 19:55:19.5   0.3                          T                                        4706429
BGF   005.59 206.9 m E Pn      2011/06/10 19:55:24.0   0.2                          T                                        4706428
HAU   003.60 181.7 m E Sg      2011/06/10 19:55:54.2  -0.3                          T                3.9  .27 Ml 2.5         4706426
GRR   005.74 238.8 m E Sn      2011/06/10 19:56:27.9  -0.3                          T                4.3  .24 Ml 3.2         4706427

.
