BEGIN GSE2.0
MSG_TYPE DATA
MSG_ID 10-DEC-1214:30:07  FRA_NDC
E-MAIL
DATA_TYPE BULLETIN
Reviewed Bulletin (REB) # P2012-046  from French NDC for regional phases     PERIOD 14 NOV 2012 TO 20 NOV 2012 Cenalt JP S
EVENT     286905
    Date      Time       Latitude Longitude    Depth    Ndef Nsta Gap    Mag1  N    Mag2  N    Mag3  N   Author         ID
       rms   OT_Error      Smajor Sminor Az        Err   mdist  Mdist     Err        Err        Err      Quality

2012/11/14 00:32:09.9     43.8492    7.7759      3.0 f    37    7 096  Ml 2.0  7  Md 1.7  2              bulletin    287005
                                                                                                         _ldg
      0.35   +-  0.09       1.5    1.3  151.18 +-  0.0    0.05   1.73   +-0.3      +-0.0                 m i ke

NEAR SOUTH COAST OF FRANCE
Sta     Dist  EvAz     Phase      Date       Time     TRes  Azim  AzRes  Slow  SRes Def   SNR       Amp   Per   Mag1   Mag2       ID
SBF   000.25 273.3 m E Pg      2012/11/14 00:32:15.2   0.3                          T                                        5116666
SBF   000.25 273.3 m E Sg      2012/11/14 00:32:18.4   0.1                          T               54.4  .20        Md 1.7  5116667
FRF   000.87 251.0 m E Pg      2012/11/14 00:32:26.5   0.2                          T                                        5116663
FRF   000.87 251.0 m E Sg      2012/11/14 00:32:37.5  -0.1                          T                3.5  .17 Ml 2.1 Md 1.7  5116662
LMR   001.05 241.2 m E Pg      2012/11/14 00:32:29.4  -0.3                          T                                        5116665
LMR   001.05 241.2 m E Sg      2012/11/14 00:32:43.3  -0.1                          T                1.7  .16 Ml 1.9         5116664
MBDF  001.14 320.9 m E Pg      2012/11/14 00:32:31.5   0.1                          T                                        5116956
MBDF  001.14 320.9 m E Sg      2012/11/14 00:32:46.1  -0.1                          T                1.2  .19 Ml 1.7         5116955
PGF   001.58 145.0 m E Pn      2012/11/14 00:32:36.6  -0.6                          T                                        5116960
PGF   001.58 145.0 m E Sn      2012/11/14 00:32:56.2  -0.8                          T                1.9  .27 Ml 2.1         5116959
SMRF  001.60 275.3 m E Pg      2012/11/14 00:32:38.9  -0.8                          T                                        5116958
SMRF  001.60 275.3 m E Sg      2012/11/14 00:32:59.7  -0.6                          T                4.8  .23 Ml 2.4         5116957
ORIF  001.73 308.8 m E Pn      2012/11/14 00:32:38.9  -0.4                          T                                        5116954
ORIF  001.73 308.8 m E Pg      2012/11/14 00:32:42.2   0.0                          T                                        5116953
ORIF  001.73 308.8 m E Sn      2012/11/14 00:32:59.3  -1.2                          T                                        5116952
ORIF  001.73 308.8 m E Sg      2012/11/14 00:33:04.3  -0.3                          T                 .9  .22 Ml 1.8         5116951

.
EVENT     286908
    Date      Time       Latitude Longitude    Depth    Ndef Nsta Gap    Mag1  N    Mag2  N    Mag3  N   Author         ID
       rms   OT_Error      Smajor Sminor Az        Err   mdist  Mdist     Err        Err        Err      Quality

2012/11/14 03:11:00.2     44.9604    -.3552     10.0 f    29   10 165  Ml 1.9 10  Md 2.2  2              bulletin    287008
                                                                                                         _ldg
      0.56   +-  0.17       3.2    2.3   84.52 +-  0.0    0.78   3.38   +-0.2      +-0.1                 m i ke

FRANCE
Sta     Dist  EvAz     Phase      Date       Time     TRes  Azim  AzRes  Slow  SRes Def   SNR       Amp   Per   Mag1   Mag2       ID
LFF   000.78 091.2 m E Pg      2012/11/14 03:11:14.9  -0.1                          T                                        5117007
LFF   000.78 091.2 m E Pn      2012/11/14 03:11:16.5   0.8                          T                                        5117001
LFF   000.78 091.2 m E Sg      2012/11/14 03:11:24.4  -0.8                          T                                        5132463
LFF   000.78 091.2 m E Sn      2012/11/14 03:11:27.3   0.6                          T                5.3  .27        Md 2.1  5117002
RJF   001.37 074.8 m E Pn      2012/11/14 03:11:23.1  -0.7                          T                                        5117006
RJF   001.37 074.8 m E Pg      2012/11/14 03:11:25.7  -0.2                          T                                        5132464
RJF   001.37 074.8 m E Sg      2012/11/14 03:11:43.4  -0.2                          T                2.0  .16 Ml 1.7 Md 2.2  5117005
MFF   001.65 005.0 m E Pn      2012/11/14 03:11:27.2  -0.4                          T                                        5116995
MFF   001.65 005.0 m E Pg      2012/11/14 03:11:30.8  -0.1                          T                                        5116994
MFF   001.65 005.0 m E Sn      2012/11/14 03:11:48.0   0.4                          T                                        5116993
MFF   001.65 005.0 m E Sg      2012/11/14 03:11:52.9   0.6                          T                1.1  .24 Ml 1.9         5116992
CAF   001.72 090.3 m E Pn      2012/11/14 03:11:29.2   0.6                          T                                        5116999
CAF   001.72 090.3 m E Pg      2012/11/14 03:11:31.9  -0.4                          T                                        5117004
CAF   001.72 090.3 m E Sn      2012/11/14 03:11:48.7  -0.5                          T                                        5117000
CAF   001.72 090.3 m E Sg      2012/11/14 03:11:54.3  -0.2                          T                1.4  .18 Ml 2.0         5117003
EPF   001.99 165.2 m E Pn      2012/11/14 03:11:32.9   0.5                          T                                        5116998
EPF   001.99 165.2 m E Sn      2012/11/14 03:11:56.5   0.6                          T                                        5116996
EPF   001.99 165.2 m E Sg      2012/11/14 03:12:02.1  -1.0                          T                  1  .23 Ml 1.8         5116997
TCF   002.24 052.7 m E Pn      2012/11/14 03:11:36.5   0.8                          T                                        5116991
TCF   002.24 052.7 m E Sn      2012/11/14 03:12:03.5   1.8                          T                                        5116990
TCF   002.24 052.7 m E Sg      2012/11/14 03:12:10.9   0.3                          T                 .4  .17 Ml 1.7         5116989
HYF   003.11 041.0 m E Pn      2012/11/14 03:11:47.1  -0.4                          T                                        5132603
HYF   003.11 041.0 m E Pg      2012/11/14 03:11:57.4  -0.4                          T                                        5132602
SJPF  001.95 199.1 m E Sg      2012/11/14 03:12:00.8  -0.9                          T                1.0  .24 Ml 1.8         5116988
BGF   002.75 053.4 m E Sg      2012/11/14 03:12:26.8   0.1                          T                3.0  .45 Ml 2.2         5132462
SMF   003.38 058.7 m E Sg      2012/11/14 03:12:46.4   0.0                          T                 .8  .27 Ml 2.0         5132601

.
EVENT     286939
    Date      Time       Latitude Longitude    Depth    Ndef Nsta Gap    Mag1  N    Mag2  N    Mag3  N   Author         ID
       rms   OT_Error      Smajor Sminor Az        Err   mdist  Mdist     Err        Err        Err      Quality

2012/11/14 10:50:36.1     43.9305    7.2343       .0 f    25    7 087  Ml 2.4  3  Md 1.9  1              bulletin    287039
                                                                                                         _ldg
      0.50   +-  0.11       2.1    1.7   25.35 +-  0.0    0.14   1.63   +-0.3      +-                    m i km

NEAR SOUTH COAST OF FRANCE
Sta     Dist  EvAz     Phase      Date       Time     TRes  Azim  AzRes  Slow  SRes Def   SNR       Amp   Per   Mag1   Mag2       ID
SBF   000.16 114.8 m E Pg      2012/11/14 10:50:39.5  -0.3                          T                                        5117232
SBF   000.16 114.8 m E Sg      2012/11/14 10:50:42.4   0.2                          T               99.5  .48        Md 1.9  5117226
FRF   000.56 229.2 m E Pg      2012/11/14 10:50:46.1  -1.0                          T                                        5117230
FRF   000.56 229.2 m E Sg      2012/11/14 10:50:54.2  -0.5                          T               12.3  .29                5117224
LMR   000.80 221.7 m E Pg      2012/11/14 10:50:50.7  -0.7                          T                                        5117231
LMR   000.80 221.7 m E Sg      2012/11/14 10:51:02.9   1.0                          T                9.1  .27                5117225
MBDF  000.86 337.5 m E Pg      2012/11/14 10:50:53.2   0.4                          T                                        5117227
MBDF  000.86 337.5 m E Sg      2012/11/14 10:51:04.1  -0.2                          T                7.6  .34 Ml 2.1         5117220
SMRF  001.20 272.7 m E Pg      2012/11/14 10:50:59.0   0.1                          T                                        5117229
SMRF  001.20 272.7 m E Sg      2012/11/14 10:51:15.3   0.7                          T               16.2  .27 Ml 2.7         5117223
ORIF  001.38 316.0 m E Pg      2012/11/14 10:51:02.7   0.4                          T                                        5117228
ORIF  001.38 316.0 m E Sg      2012/11/14 10:51:21.6   1.2                          T                7.9  .40 Ml 2.3         5117221
LPL   001.63 347.5 m E Pg      2012/11/14 10:51:08.2   1.3                          T                                        5117222

.
EVENT     286956
    Date      Time       Latitude Longitude    Depth    Ndef Nsta Gap    Mag1  N    Mag2  N    Mag3  N   Author         ID
       rms   OT_Error      Smajor Sminor Az        Err   mdist  Mdist     Err        Err        Err      Quality

2012/11/14 20:43:18.5     51.4848    6.5899      1.0 f    64   16 092  Ml 2.7 16  Md 2.7  1              bulletin    287056
                                                                                                         _ldg
      0.66   +-  0.10       1.9    1.5  137.21 +-  0.0    0.29   6.59   +-0.2      +-                    m i ke

GERMANY
Sta     Dist  EvAz     Phase      Date       Time     TRes  Azim  AzRes  Slow  SRes Def   SNR       Amp   Per   Mag1   Mag2       ID
GIVF  001.78 219.7 m E Pn      2012/11/14 20:43:48.7   0.0                          T                                        5117601
GIVF  001.78 219.7 m E Pg      2012/11/14 20:43:51.1  -0.6                          T                                        5117364
GIVF  001.78 219.7 m E Sg      2012/11/14 20:44:14.5  -0.2                          T               24.7  .27 Ml 3.1 Md 2.7  5117363
BAIF  002.08 227.6 m E Pn      2012/11/14 20:43:52.8   0.1                          T                                        5117600
BAIF  002.08 227.6 m E Pg      2012/11/14 20:43:57.1   0.0                          T                                        5117362
BAIF  002.08 227.6 m E Sn      2012/11/14 20:44:17.8   0.0                          T                                        5117639
BAIF  002.08 227.6 m E Sg      2012/11/14 20:44:23.5  -0.4                          T               15.4  .44 Ml 2.8         5117361
PAGF  002.99 191.1 m E Pn      2012/11/14 20:44:05.0   0.0                          T                                        5117628
PAGF  002.99 191.1 m E Pg      2012/11/14 20:44:13.7  -0.1                          T                                        5117627
PAGF  002.99 191.1 m E Sg      2012/11/14 20:44:51.5  -0.7                          T                3.5  .30 Ml 2.5         5117626
CDF   003.11 171.5 m E Pn      2012/11/14 20:44:06.6  -0.2                          T                                        5117631
CDF   003.11 171.5 m E Pg      2012/11/14 20:44:16.8   0.6                          T                                        5117630
CDF   003.11 171.5 m E Sn      2012/11/14 20:44:42.1  -0.4                          T                                        5117602
CDF   003.11 171.5 m E Sg      2012/11/14 20:44:54.5  -1.6                          T                7.9  .60 Ml 2.7         5117629
MEZF  003.15 199.0 m E Pn      2012/11/14 20:44:07.9   0.6  14.9  -2.9              T                                        5117625
MEZF  003.15 199.0 m E Pg      2012/11/14 20:44:16.8   0.0  31.1  13.3              T                                        5117624
MEZF  003.15 199.0 m E Sn      2012/11/14 20:44:43.3   0.1                          T                                        5117623
MEZF  003.15 199.0 m E Sg      2012/11/14 20:44:56.9  -0.3                          T                5.0  .28 Ml 2.7         5117622
SFTF  003.43 197.6 m E Pn      2012/11/14 20:44:11.2   0.0  12.8  -3.6              T                                        5117621
SFTF  003.43 197.6 m E Pg      2012/11/14 20:44:22.5   0.4  13.6  -2.8              T                                        5117620
SFTF  003.43 197.6 m E Sn      2012/11/14 20:44:49.7  -0.4                          T                                        5117619
SFTF  003.43 197.6 m E Sg      2012/11/14 20:45:05.7  -0.5                          T                6.9  .32 Ml 2.9         5117618
HAU   003.49 182.7 m E Pn      2012/11/14 20:44:11.9   0.0                          T                                        5117634
HAU   003.49 182.7 m E Pg      2012/11/14 20:44:22.9  -0.2                          T                                        5117633
HAU   003.49 182.7 m E Sg      2012/11/14 20:45:07.4  -0.5                          T                8.6  .52 Ml 2.5         5117632
HINF  003.68 177.2 m E Pn      2012/11/14 20:44:14.2  -0.3                          T                                        5117617
HINF  003.68 177.2 m E Pg      2012/11/14 20:44:26.5  -0.1                          T                                        5117616
HINF  003.68 177.2 m E Sg      2012/11/14 20:45:13.4  -0.4                          T                2.4  .35 Ml 2.4         5117615
LOR   004.58 204.0 m E Pn      2012/11/14 20:44:26.6  -0.3  27.9  6.0               T                                        5117360
LOR   004.58 204.0 m E Sn      2012/11/14 20:45:17.2  -0.3                          T                                        5117638
LOR   004.58 204.0 m E Sg      2012/11/14 20:45:42.0   0.0                          T                3.2  .36 Ml 2.7         5117637
SSF   004.87 205.7 m E Pn      2012/11/14 20:44:30.7   0.1                          T                                        5117359
SSF   004.87 205.7 m E Sn      2012/11/14 20:45:24.3   0.0                          T                                        5117635
SSF   004.87 205.7 m E Sg      2012/11/14 20:45:50.6  -0.3                          T                3.8  .36 Ml 3.0         5117636
AVF   005.16 205.6 m E Pn      2012/11/14 20:44:34.6   0.0                          T                                        5117608
AVF   005.16 205.6 m E Sg      2012/11/14 20:45:59.5  -0.4                          T                1.4  .36 Ml 2.5         5117605
SMF   005.17 201.5 m E Pn      2012/11/14 20:44:34.8   0.0                          T                                        5117607
SMF   005.17 201.5 m E Sg      2012/11/14 20:46:00.2  -0.2                          T                3.2  .31 Ml 2.9         5117606
FLN   005.30 241.8 m E Pn      2012/11/14 20:44:37.1   0.5  62.4  6.0               T                                        5117614
FLN   005.30 241.8 m E Sn      2012/11/14 20:45:34.4  -0.4                          T                1.6  .24 Ml 2.6         5117603
GRR   005.72 240.1 m E Pn      2012/11/14 20:44:42.4   0.2                          T                                        5117613
GRR   005.72 240.1 m E Sn      2012/11/14 20:45:44.7  -0.1                          T                                        5117612
GRR   005.72 240.1 m E Sg      2012/11/14 20:46:17.6   0.1                          T                2.6  .27 Ml 2.9         5117611
MFF   006.59 224.8 m E Pn      2012/11/14 20:44:54.0  -0.2                          T                                        5117610
MFF   006.59 224.8 m E Sn      2012/11/14 20:46:05.4  -0.2                          T                 .4  .22 Ml 2.7         5117609
BGF   005.51 208.0 m E Sn      2012/11/14 20:45:39.6  -0.1                          T                                        5117604

.
EVENT     286995
    Date      Time       Latitude Longitude    Depth    Ndef Nsta Gap    Mag1  N    Mag2  N    Mag3  N   Author         ID
       rms   OT_Error      Smajor Sminor Az        Err   mdist  Mdist     Err        Err        Err      Quality

2012/11/14 23:55:07.0     46.1891    1.7849     25.0       6    4 325  Ml 1.4  2  Md 1.4  1              js067245    287095

      0.16   +-  0.23       4.5    3.4  137.04 +-  0.0    0.31   1.49   +-0.0      +-                    m i ke

FRANCE
Sta     Dist  EvAz     Phase      Date       Time     TRes  Azim  AzRes  Slow  SRes Def   SNR       Amp   Per   Mag1   Mag2       ID
TCF   000.31 071.3 m E Pg      2012/11/14 23:55:14.4   0.0                          T                                        5117588
TCF   000.31 071.3 m E Sg      2012/11/14 23:55:19.2  -0.2                          T                4.1  .24        Md 1.4  5117589
BGF   000.82 063.0 m E Pg      2012/11/14 23:55:22.9  -0.1                          T                                        5117582
BGF   000.82 063.0 m E Sg      2012/11/14 23:55:34.5   0.4                          T                5.2  .29                5117583
AVF   001.24 060.4 m E Sg      2012/11/14 23:55:46.6  -0.1                          T                  1  .34 Ml 1.4         5117587
SMF   001.49 071.5 m E Sg      2012/11/14 23:55:54.6   0.0                          T                 .4  .19 Ml 1.4         5117586

.
