EVENT     279760
    Date      Time       Latitude Longitude    Depth    Ndef Nsta Gap    Mag1  N    Mag2  N    Mag3  N   Author         ID
       rms   OT_Error      Smajor Sminor Az        Err   mdist  Mdist     Err        Err        Err      Quality

2012/07/19 02:20:38.5     44.5154    6.7013      2.0      48   12 046  Ml 2.1  7  Md 2.4  5              bulletin    279860
                                                                                                         _ldg
      0.53   +-  0.04       1.0     .8   56.26 +-  0.0    0.09   3.33   +-0.2      +-0.1                 m i ke

FRANCE
Sta     Dist  EvAz     Phase      Date       Time     TRes  Azim  AzRes  Slow  SRes Def   SNR       Amp   Per   Mag1   Mag2       ID
MBDF  000.22 013.3 m E Pg      2012/07/19 02:20:43.0   0.0                          T                                Md 2.3  5029874
MBDF  000.22 013.3 m E Sg      2012/07/19 02:20:45.8  -0.1                          T               39.8  .42        Md 2.5  5029875
ORIF  000.71 304.8 m E Pg      2012/07/19 02:20:51.7  -0.3                          T                                        5029873
ORIF  000.71 304.8 m E Sg      2012/07/19 02:21:00.9  -0.4                          T                8.8  .27        Md 2.4  5029879
SBF   000.84 140.8 m E Pg      2012/07/19 02:20:54.5   0.2                          T                                        5029870
SBF   000.84 140.8 m E Sg      2012/07/19 02:21:05.4   0.1                          T                5.4  .19                5029898
FRF   000.96 182.4 m E Pg      2012/07/19 02:20:56.4   0.0                          T                                        5029901
FRF   000.96 182.4 m E Sg      2012/07/19 02:21:09.0   0.2                          T                8.6  .22 Ml 2.4         5029900
SMRF  000.97 236.7 m E Pg      2012/07/19 02:20:56.8   0.0                          T                                        5029872
SMRF  000.97 236.7 m E Pn      2012/07/19 02:20:57.7   0.2                          T                                        5029902
SMRF  000.97 236.7 m E Sn      2012/07/19 02:21:11.1   0.0                          T                5.1  .26 Ml 2.1         5029903
LPG   000.98 002.1 m E Pg      2012/07/19 02:20:57.1  -0.1                          T                                        5029909
LPG   000.98 002.1 m E Sg      2012/07/19 02:21:09.7  -0.3                          T                6.7  .24 Ml 2.3 Md 2.3  5029908
LPL   001.00 001.3 m E Pg      2012/07/19 02:20:57.4  -0.1                          T                                        5029876
LPL   001.00 001.3 m E Sg      2012/07/19 02:21:10.2  -0.3                          T                3.4  .30 Ml 1.9 Md 2.3  5029880
LMR   001.19 186.8 m E Pn      2012/07/19 02:21:01.0   0.5                          T                                        5029871
LMR   001.19 186.8 m E Sg      2012/07/19 02:21:16.0  -0.1                          T                3.8  .20 Ml 2.2         5029899
VIVF  001.49 284.0 m E Pn      2012/07/19 02:21:04.5  -0.1                          T                                        5029906
VIVF  001.49 284.0 m E Pg      2012/07/19 02:21:06.1  -0.1                          T                                        5029869
VIVF  001.49 284.0 m E Sn      2012/07/19 02:21:23.4   0.0                          T                                        5029897
VIVF  001.49 284.0 m E Sg      2012/07/19 02:21:25.5   0.1                          T                1.4  .25 Ml 1.8         5029896
PGF   002.58 138.8 m E Pn      2012/07/19 02:21:19.6   0.0                          T                                        5029905
PGF   002.58 138.8 m E Sn      2012/07/19 02:21:49.3  -0.3                          T                  1  .19 Ml 2.3         5029868
CAF   003.33 278.7 m E Pn      2012/07/19 02:21:29.9   0.2                          T                                        5029904
LASF  002.09 258.9 m E Sn      2012/07/19 02:21:37.9   0.1                          T                                        5029907

.
EVENT     279811
    Date      Time       Latitude Longitude    Depth    Ndef Nsta Gap    Mag1  N    Mag2  N    Mag3  N   Author         ID
       rms   OT_Error      Smajor Sminor Az        Err   mdist  Mdist     Err        Err        Err      Quality

2012/07/19 07:37:04.1     44.2614    7.3783      2.0      19    6 153  Ml 1.7  4  Md 1.7  1              bulletin    279911
                                                                                                         _ldg
      0.18   +-  0.05       1.3     .6   55.26 +-  0.0    0.04   1.34   +-0.2      +-                    m i ke

NORTHERN ITALY
Sta     Dist  EvAz     Phase      Date       Time     TRes  Azim  AzRes  Slow  SRes Def   SNR       Amp   Per   Mag1   Mag2       ID
SBF   000.40 174.1 m E Pg      2012/07/19 07:37:11.9   0.0                          T                                        5030409
SBF   000.40 174.1 m E Sg      2012/07/19 07:37:17.1  -0.1                          T                7.8  .37        Md 1.7  5030410
MBDF  000.64 317.2 m E Pg      2012/07/19 07:37:16.3   0.0                          T                                        5030403
MBDF  000.64 317.2 m E Sg      2012/07/19 07:37:24.6  -0.1                          T                1.4  .25                5030404
FRF   000.88 217.3 m E Pg      2012/07/19 07:37:20.6   0.0                          T                                        5030406
FRF   000.88 217.3 m E Sn      2012/07/19 07:37:34.7   0.2                          T                2.2  .29 Ml 1.7         5030407
LMR   001.12 214.5 m E Pg      2012/07/19 07:37:25.0  -0.1                          T                                        5030405
LMR   001.12 214.5 m E Sn      2012/07/19 07:37:40.4   0.1                          T                4.9  .32 Ml 2.1         5030408
SMRF  001.33 258.2 m E Pn      2012/07/19 07:37:28.0   0.0                          T                                        5038361
SMRF  001.33 258.2 m E Sn      2012/07/19 07:37:45.2  -0.1                          T                1.3  .29 Ml 1.6         5038362
LPL   001.34 340.1 m E Sg      2012/07/19 07:37:46.7   0.0                          T                1.0  .27 Ml 1.5         5038360

.
EVENT     279812
    Date      Time       Latitude Longitude    Depth    Ndef Nsta Gap    Mag1  N    Mag2  N    Mag3  N   Author         ID
       rms   OT_Error      Smajor Sminor Az        Err   mdist  Mdist     Err        Err        Err      Quality

2012/07/19 09:28:39.2     41.8462    9.5761      2.0      13    4 335  Ml 2.5  3  Md 2.6  1              bulletin    279912
                                                                                                         _ldg
      0.67   +-  0.41       9.5    7.2   67.39 +-  0.0    0.82   4.08   +-0.2      +-                    m i ke

CORSICA, FRANCE
Sta     Dist  EvAz     Phase      Date       Time     TRes  Azim  AzRes  Slow  SRes Def   SNR       Amp   Per   Mag1   Mag2       ID
PGF   000.82 328.8 m E Pg      2012/07/19 09:28:55.2   0.4                          T                                        5030415
PGF   000.82 328.8 m E Pn      2012/07/19 09:28:56.3   0.0                          T                                        5030416
PGF   000.82 328.8 m E Sg      2012/07/19 09:29:05.4  -0.2                          T               46.1  .24        Md 2.6  5030417
SBF   002.56 322.7 m E Pn      2012/07/19 09:29:19.3  -0.6                          T                                        5030418
SBF   002.56 322.7 m E Sn      2012/07/19 09:29:50.0   0.3                          T                6.8  .28 Ml 2.7         5030422
LMR   002.71 304.3 m E Pn      2012/07/19 09:29:22.0   0.1                          T                                        5030420
LMR   002.71 304.3 m E Sn      2012/07/19 09:29:51.9  -1.4                          T                2.8  .28 Ml 2.4         5030414
FRF   002.76 309.4 m E Pn      2012/07/19 09:29:22.6   0.1                          T                                        5030419
FRF   002.76 309.4 m E Sn      2012/07/19 09:29:54.3  -0.1                          T                3.5  .37 Ml 2.4         5030421

.
EVENT     279819
    Date      Time       Latitude Longitude    Depth    Ndef Nsta Gap    Mag1  N    Mag2  N    Mag3  N   Author         ID
       rms   OT_Error      Smajor Sminor Az        Err   mdist  Mdist     Err        Err        Err      Quality

2012/07/19 18:10:59.3     47.1125    9.6388      2.0      30   13 110  Ml 2.5 10  Md 2.5  2              bulletin    279919
                                                                                                         _ldg
      0.67   +-  0.15       3.0    2.2  119.26 +-  0.0    0.19   4.38   +-0.2      +-0.1                 m i ke

GERMANY
Sta     Dist  EvAz     Phase      Date       Time     TRes  Azim  AzRes  Slow  SRes Def   SNR       Amp   Per   Mag1   Mag2       ID
HINF  002.02 291.5 m E Pn      2012/07/19 18:11:33.0   0.4                          T                                        5036637
HINF  002.02 291.5 m E Sg      2012/07/19 18:12:02.9   0.1                          T                6.7  .34 Ml 2.5         5036652
CDF   002.06 310.1 m E Pn      2012/07/19 18:11:34.3   1.0                          T                                        5036657
CDF   002.06 310.1 m E Sg      2012/07/19 18:12:04.6   0.4                          T               26.9  .70 Ml 2.9         5036656
HAU   002.40 293.1 m E P       2012/07/19 18:11:39.2  -1.1                          T                                        5036638
HAU   002.40 293.1 m E Sg      2012/07/19 18:12:13.7  -1.1                          T               10.1  .30 Ml 2.6         5036653
CABF  002.49 259.7 m E Pg      2012/07/19 18:11:46.2   0.7                          T                                        5036636
CABF  002.49 259.7 m E Sg      2012/07/19 18:12:18.1   0.5                          T                5.0  .46 Ml 2.3         5036651
LPG   002.57 232.1 m E Pg      2012/07/19 18:11:46.7  -0.7                          T                                        5036648
LPG   002.57 232.1 m E Sg      2012/07/19 18:12:20.6   0.1                          T               15.7  .86 Ml 2.6 Md 2.6  5036647
LPL   002.57 232.7 m E Pg      2012/07/19 18:11:47.6   0.4                          T                                        5036649
LPL   002.57 232.7 m E Sg      2012/07/19 18:12:21.9   1.6                          T                4.5  .55 Ml 2.2 Md 2.5  5036650
PAGF  003.01 300.1 m E P       2012/07/19 18:11:48.3  -0.6                          T                                        5036639
MBDF  003.11 221.0 m E Pg      2012/07/19 18:11:56.6  -0.6                          T                                        5036646
MBDF  003.11 221.0 m E Sg      2012/07/19 18:12:37.3   0.1                          T                8.4  .64 Ml 2.6         5036643
LOR   003.94 274.4 m E P       2012/07/19 18:12:02.0  -0.3  97.0  6.9               T                                        5036641
LOR   003.94 274.4 m E Sg      2012/07/19 18:13:02.8  -0.1                          T                2.3  .30 Ml 2.5         5036654
ORIF  003.42 231.4 m E Pg      2012/07/19 18:12:03.0   0.3                          T                                        5036645
ORIF  003.42 231.4 m E Sg      2012/07/19 18:12:46.4  -0.2                          T                2.3  .43 Ml 2.2         5036644
SSF   004.19 271.5 m E P       2012/07/19 18:12:04.5  -1.3                          T                                        5036640
GIVF  004.38 314.9 m E Pn      2012/07/19 18:12:04.7   0.0                          T                                        5036655
THEF  002.70 295.7 m E Sg      2012/07/19 18:12:24.3   0.1                          T                9.9  .41 Ml 2.7         5036642

.
EVENT     280002
    Date      Time       Latitude Longitude    Depth    Ndef Nsta Gap    Mag1  N    Mag2  N    Mag3  N   Author         ID
       rms   OT_Error      Smajor Sminor Az        Err   mdist  Mdist     Err        Err        Err      Quality

2012/07/20 00:47:36.9     42.1028    7.0975     25.0 f    11    5 257  Ml 1.6  5                         bulletin    280102
                                                                                                         _ldg
      1.29   +-  0.62      15.1    5.0   31.05 +-  0.0    1.30   2.18   +-0.4                            m i ke

WESTERN MEDITERRANEAN SEA
Sta     Dist  EvAz     Phase      Date       Time     TRes  Azim  AzRes  Slow  SRes Def   SNR       Amp   Per   Mag1   Mag2       ID
LMR   001.30 340.8 m E Pn      2012/07/20 00:47:57.8  -0.1                          T                                        5032021
LMR   001.30 340.8 m E Sn      2012/07/20 00:48:13.4   0.1                          T                1.4  .17 Ml 1.9         5032020
FRF   001.49 347.3 m E Pn      2012/07/20 00:48:00.5   0.0                          T                                        5032019
FRF   001.49 347.3 m E Sn      2012/07/20 00:48:17.9   0.0                          T                 .8  .18 Ml 1.7         5032018
PGF   001.48 071.8 m E Pn      2012/07/20 00:48:01.0   0.6                          T                                        5032016
PGF   001.48 071.8 m E Sn      2012/07/20 00:48:17.0  -0.6                          T                                        5032017
SBF   001.78 007.9 m E Pn      2012/07/20 00:48:04.0  -0.4                          T                                        5036675
SBF   001.78 007.9 m E Sn      2012/07/20 00:48:24.3  -0.4                          T                1.6  .21 Ml 2.0         5036674
SMRF  002.18 329.7 m E Sn      2012/07/20 00:48:34.0  -0.3                          T                 .2  .18 Ml 1.4         5036676

.
EVENT     279993
    Date      Time       Latitude Longitude    Depth    Ndef Nsta Gap    Mag1  N    Mag2  N    Mag3  N   Author         ID
       rms   OT_Error      Smajor Sminor Az        Err   mdist  Mdist     Err        Err        Err      Quality

2012/07/20 00:47:43.7     42.0981    7.0870     25.0      17    5 258  Ml 2.0  5  Md 2.3  3              bulletin    280093
                                                                                                         _ldg
      1.39   +-  0.65      15.3    5.7   27.99 +-  0.0    1.31   2.95   +-0.3      +-0.2                 m i ke

WESTERN MEDITERRANEAN SEA
Sta     Dist  EvAz     Phase      Date       Time     TRes  Azim  AzRes  Slow  SRes Def   SNR       Amp   Per   Mag1   Mag2       ID
LMR   001.31 341.2 m E Pn      2012/07/20 00:48:04.2  -0.5                          T                                        5031930
LMR   001.31 341.2 m E Sn      2012/07/20 00:48:20.0  -0.2                          T                3.7  .18 Ml 2.3 Md 2.2  5031929
FRF   001.50 347.7 m E Pn      2012/07/20 00:48:07.2  -0.1                          T                                        5031928
FRF   001.50 347.7 m E Sn      2012/07/20 00:48:24.6  -0.2                          T                1.2  .19 Ml 1.9 Md 2.5  5031925
PGF   001.49 071.8 m E Pn      2012/07/20 00:48:07.8   0.4                          T                                        5031922
PGF   001.49 071.8 m E Sn      2012/07/20 00:48:23.6  -1.1                          T                1.6  .23 Ml 2.1 Md 2.3  5031923
SBF   001.78 008.1 m E Pn      2012/07/20 00:48:11.2  -0.1                          T                                        5031927
SBF   001.78 008.1 m E Sn      2012/07/20 00:48:31.9   0.3                          T                2.4  .25 Ml 2.2         5031926
SMRF  002.18 329.9 m E Pn      2012/07/20 00:48:17.3   0.6                          T                                        5031924
SMRF  002.18 329.9 m E Sn      2012/07/20 00:48:40.5  -0.6                          T                 .4  .19 Ml 1.6         5031939

.
EVENT     279820
    Date      Time       Latitude Longitude    Depth    Ndef Nsta Gap    Mag1  N    Mag2  N    Mag3  N   Author         ID
       rms   OT_Error      Smajor Sminor Az        Err   mdist  Mdist     Err        Err        Err      Quality

2012/07/20 03:39:17.1     44.7058    6.6940      2.0      30    8 067  Ml 2.0  3  Md 2.1  2              bulletin    279920
                                                                                                         _ldg
      0.50   +-  0.08       2.1    1.4   93.06 +-  0.0    0.06   1.38   +-0.2      +-0.1                 m i ke

FRANCE
Sta     Dist  EvAz     Phase      Date       Time     TRes  Azim  AzRes  Slow  SRes Def   SNR       Amp   Per   Mag1   Mag2       ID
MBDF  000.06 069.1 m E Pg      2012/07/20 03:39:18.5  -0.3                          T                                        5030480
MBDF  000.06 069.1 m E Sg      2012/07/20 03:39:20.1   0.3                          T               60.5  .28        Md 2.1  5030469
ORIF  000.62 290.4 m E Pg      2012/07/20 03:39:28.6  -0.3                          T                                        5030479
ORIF  000.62 290.4 m E Sg      2012/07/20 03:39:36.0  -1.0                          T                4.2  .20        Md 2.1  5030472
LPG   000.79 002.9 m E Pg      2012/07/20 03:39:32.4   0.0                          T                                        5031965
LPG   000.79 002.9 m E PKP2    2012/07/20 03:39:34.1  -0.1                          T                                        5030477
LPG   000.79 002.9 m E Sg      2012/07/20 03:39:42.6  -0.1                          T                3.0  .25                5030473
LPL   000.81 001.9 m E Pg      2012/07/20 03:39:32.7   0.1                          T                                        5030478
LPL   000.81 001.9 m E Sg      2012/07/20 03:39:43.3   0.1                          T                4.0  .39                5030467
SBF   001.00 147.5 m E Pn      2012/07/20 03:39:36.8   0.3                          T                                        5036677
SBF   001.00 147.5 m E Sn      2012/07/20 03:39:48.7  -1.7                          T                                        5036678
SMRF  001.08 228.1 m E Pn      2012/07/20 03:39:38.3   0.6                          T                                        5030476
SMRF  001.08 228.1 m E PKP2    2012/07/20 03:39:39.4   0.1                          T                                        5031805
SMRF  001.08 228.1 m E Sg      2012/07/20 03:39:52.3   0.8                          T                3.1  .32 Ml 1.8         5030471
FRF   001.15 181.7 m E Pg      2012/07/20 03:39:38.6   0.1                          T                                        5030475
FRF   001.15 181.7 m E PKP2    2012/07/20 03:39:40.0  -0.1                          T                                        5031964
FRF   001.15 181.7 m E Sg      2012/07/20 03:39:54.3   1.0                          T                4.2  .21 Ml 2.2         5030470
LMR   001.38 185.6 m E Pn      2012/07/20 03:39:42.0   0.4                          T                                        5031963
LMR   001.38 185.6 m E PKP2    2012/07/20 03:39:43.5   0.0                          T                                        5030474
LMR   001.38 185.6 m E Sn      2012/07/20 03:40:00.7   1.3                          T                2.0  .25 Ml 1.9         5030468

.
