EVENT     284099
    Date      Time       Latitude Longitude    Depth    Ndef Nsta Gap    Mag1  N    Mag2  N    Mag3  N   Author         ID
       rms   OT_Error      Smajor Sminor Az        Err   mdist  Mdist     Err        Err        Err      Quality

2012/09/28 12:00:50.4     44.5377    9.7751      2.0      50    8 104  Ml 2.3 10                         bulletin    284200
                                                                                                         _ldg
      0.68   +-  0.10       2.5    1.7   22.05 +-  0.0    0.29   4.95   +-0.3                            m i ke

NORTHERN ITALY
Sta     Dist  EvAz     Phase      Date       Time     TRes  Azim  AzRes  Slow  SRes Def   SNR       Amp   Per   Mag1   Mag2       ID
SBF   001.81 249.0 m E Pn      2012/09/28 12:01:21.9   0.9                          T                                        5081355
SBF   001.81 249.0 m E Sn      2012/09/28 12:01:44.0   0.8                          T               10.7  .29 Ml 2.7         5081354
PGF   002.07 196.1 m E Pn      2012/09/28 12:01:24.5  -0.1                          T                                        5081369
PGF   002.07 196.1 m E Sn      2012/09/28 12:01:49.3   0.0                          T                1.2  .20 Ml 2.2         5081368
MBDF  002.15 276.1 m E Pn      2012/09/28 12:01:26.5   0.8                          T                                        5081357
MBDF  002.15 276.1 m E Sn      2012/09/28 12:01:51.4   0.0                          T                2.0  .24 Ml 2.2         5081356
FRF   002.46 247.7 m E Pn      2012/09/28 12:01:30.0   0.3                          T                                        5081359
FRF   002.46 247.7 m E Sn      2012/09/28 12:01:59.1   0.5                          T                4.1  .18 Ml 2.7         5081358
LMR   002.65 244.1 m E Pn      2012/09/28 12:01:32.3   0.0                          T                                        5081361
LMR   002.65 244.1 m E Sn      2012/09/28 12:02:02.4  -0.6                          T                4.2  .26 Ml 2.6         5081360
ORIF  002.80 279.2 m E Pn      2012/09/28 12:01:33.9  -0.7                          T                                        5081363
ORIF  002.80 279.2 m E Sn      2012/09/28 12:02:06.5  -0.4                          T                2.9  .29 Ml 2.4         5081362
SMRF  003.07 260.9 m E Pn      2012/09/28 12:01:37.8  -0.3                          T                                        5081371
SMRF  003.07 260.9 m E Sn      2012/09/28 12:02:13.7   0.5                          T                1.1  .27 Ml 2.1         5081370
LOR   004.95 305.6 m E Pn      2012/09/28 12:02:03.1  -0.6                          T                                        5081367
LOR   004.95 305.6 m E Sn      2012/09/28 12:02:58.1   0.0                          T                1.2  .29 Ml 2.5         5081366

.
EVENT     284100
    Date      Time       Latitude Longitude    Depth    Ndef Nsta Gap    Mag1  N    Mag2  N    Mag3  N   Author         ID
       rms   OT_Error      Smajor Sminor Az        Err   mdist  Mdist     Err        Err        Err      Quality

2012/09/28 20:15:19.6     47.2637    6.7991     11.0 f    19    9 201  Ml 1.8  6  Md 1.9  3              bulletin    284201
                                                                                                         _ldg
      0.30   +-  0.08       1.6     .9  115.56 +-  0.0    0.55   2.40   +-0.3      +-0.1                 m i ke

FRANCE
Sta     Dist  EvAz     Phase      Date       Time     TRes  Azim  AzRes  Slow  SRes Def   SNR       Amp   Per   Mag1   Mag2       ID
HINF  000.55 003.8 m E Pg      2012/09/28 20:15:30.6   0.3                          T                                        5081380
HINF  000.55 003.8 m E Sg      2012/09/28 20:15:37.5  -0.2                          T                2.2  .20        Md 1.8  5081381
HINF  000.55 003.8 m E Sn      2012/09/28 20:15:40.9   0.2                          T                3.3  .18        Md 1.9  5082221
CABF  000.81 217.0 m E Pg      2012/09/28 20:15:35.2   0.1                          T                                        5082228
CABF  000.81 217.0 m E Pn      2012/09/28 20:15:35.6   0.0                          T                                        5081377
CABF  000.81 217.0 m E Sg      2012/09/28 20:15:45.9   0.1                          T                1.0  .18                5081376
CDF   001.19 015.4 m E Pg      2012/09/28 20:15:41.8  -0.3                          T                                        5081379
CDF   001.19 015.4 m E Sg      2012/09/28 20:15:57.5  -0.1                          T                7.0  .30 Ml 2.4 Md 2.0  5081378
PAGF  001.48 331.2 m E Pg      2012/09/28 20:15:47.0  -0.3 150.7  0.3               T                                        5082231
PAGF  001.48 331.2 m E Sg      2012/09/28 20:16:06.6   0.2                          T                 .4  .18 Ml 1.4         5081382
SFTF  001.52 309.0 m E Pg      2012/09/28 20:15:48.0   0.1 130.6  2.9               T                                        5082229
SFTF  001.52 309.0 m E Sg      2012/09/28 20:16:07.8   0.3                          T                1.7  .21 Ml 1.9         5081374
MEZF  001.71 317.1 m E Pg      2012/09/28 20:15:51.3  -0.1                          T                                        5082230
MEZF  001.71 317.1 m E Sg      2012/09/28 20:16:13.2  -0.3                          T                 .7  .17 Ml 1.8         5081384
LOR   002.00 271.2 m E Pg      2012/09/28 20:15:56.8   0.0  88.3  -0.8              T                                        5082233
LOR   002.00 271.2 m E Sg      2012/09/28 20:16:22.6  -0.2                          T                1.1  .23 Ml 1.9         5081388
SSF   002.26 266.1 m E Pg      2012/09/28 20:16:01.6   0.1                          T                                        5082232
SSF   002.26 266.1 m E Sg      2012/09/28 20:16:30.7   0.1                          T                 .3  .16 Ml 1.6         5081386
AVF   002.40 259.9 m E Pg      2012/09/28 20:16:04.1  -0.1                          T                                        5082227

.
EVENT     284101
    Date      Time       Latitude Longitude    Depth    Ndef Nsta Gap    Mag1  N    Mag2  N    Mag3  N   Author         ID
       rms   OT_Error      Smajor Sminor Az        Err   mdist  Mdist     Err        Err        Err      Quality

2012/09/29 00:39:43.6     38.4778   14.8015    250.0 f    87   40 037  Ml 4.2  2                         bulletin    284202
                                                                                                         _ldg
      0.94   +-  0.07       2.5    2.0   55.85 +-  0.0    0.12  16.38   +-0.1                            m i ke

SICILY, ITALY
Sta     Dist  EvAz     Phase      Date       Time     TRes  Azim  AzRes  Slow  SRes Def   SNR       Amp   Per   Mag1   Mag2       ID
PGF   006.01 314.4 m E P       2012/09/29 00:41:12.8   0.2                          T                                        5081447
SBF   007.73 316.4 m E P       2012/09/29 00:41:34.6   0.1                          T                                        5081446
SBF   007.73 316.4 m E Sn      2012/09/29 00:43:02.8   2.3                          T               55.0  .96 Ml 4.1         5082238
LMR   007.93 310.3 m E P       2012/09/29 00:41:36.4  -0.5                          T                                        5081445
FRF   007.98 312.1 m E P       2012/09/29 00:41:37.2  -0.3                          T                                        5081444
MBDF  008.67 318.6 m E P       2012/09/29 00:41:47.6   1.2                          T                                        5081485
SMRF  008.86 311.3 m E P       2012/09/29 00:41:49.3   0.7                          T   001.0                                5081463
ORIF  009.27 316.8 m E P       2012/09/29 00:41:55.0   1.1                          T                                        5081486
LPG   009.22 322.1 m E P       2012/09/29 00:41:55.2   1.7                          T                                        5081487
LPL   009.24 322.1 m E P       2012/09/29 00:41:55.3   1.5                          T   001.0                                5081456
LPL   009.24 322.1 m E Sn      2012/09/29 00:43:38.3   2.5                          T               37.5  .88 Ml 4.2         5082237
LASF  009.95 307.7 m E P       2012/09/29 00:42:01.8  -0.7                          T   001.0                                5081451
VIVF  009.90 313.3 m E P       2012/09/29 00:42:02.6   0.8                          T                                        5081484
CABF  010.36 324.5 m E P       2012/09/29 00:42:07.3  -0.3                          T   001.0                                5081460
MTLF  010.69 301.0 m E P       2012/09/29 00:42:11.0  -0.8                          T                                        5081473
HINF  010.99 330.7 m E P       2012/09/29 00:42:14.3  -1.3                          T   001.0                                5081462
CDF   011.33 333.6 m E P       2012/09/29 00:42:18.7  -1.2                          T   001.0                                5081448
SMF   011.48 318.8 m E P       2012/09/29 00:42:21.1  -0.6                          T                                        5081480
CAF   011.49 308.2 m E P       2012/09/29 00:42:21.7  -0.1                          T                                        5081483
AVF   011.83 318.3 m E P       2012/09/29 00:42:25.2  -0.8                          T                                        5081479
LOR   011.89 321.1 m E P       2012/09/29 00:42:26.9   0.0 137.5  3.8               T                                        5081476
SSF   011.93 319.6 m E P       2012/09/29 00:42:26.9  -0.3                          T                                        5081475
PAGF  012.03 329.8 m E P       2012/09/29 00:42:27.4  -1.1 148.8  5.2               T                                        5081467
EPF   011.87 297.1 m E P       2012/09/29 00:42:27.5   0.9                          T                                        5081472
SFTF  012.03 327.0 m E P       2012/09/29 00:42:27.8  -0.7 136.4  -3.9              T                                        5081465
BGF   011.95 316.3 m E P       2012/09/29 00:42:28.3   0.8                          T                                        5081482
RJF   012.01 308.8 m E P       2012/09/29 00:42:29.1   0.8                          T   001.0                                5081464
TCF   012.14 314.0 m E P       2012/09/29 00:42:29.6  -0.3                          T                                        5081478
MEZF  012.26 328.0 m E P       2012/09/29 00:42:31.2  -0.1 150.9  9.7               T                                        5081466
LFF   012.32 306.1 m E P       2012/09/29 00:42:31.9  -0.2                          T   001.0                                5081453
ETSF  012.47 295.6 m E P       2012/09/29 00:42:33.9  -0.2                          T                                        5081471
HYF   012.51 318.5 m E P       2012/09/29 00:42:34.9   0.4                          T                                        5081481
SJPF  012.99 295.9 m E P       2012/09/29 00:42:39.3  -1.2                          T                                        5081470
GIVF  013.63 331.7 m E P       2012/09/29 00:42:48.6   0.3                          T                                        5081474
MFF   013.67 311.2 m E P       2012/09/29 00:42:49.7   0.9                          T   001.0                                5081457
BAIF  013.83 330.3 m E P       2012/09/29 00:42:50.5  -0.2                          T   001.0                                5081459
LDF   014.79 317.9 m E P       2012/09/29 00:43:00.7  -1.7                          T   001.0                                5081452
GRR   015.06 316.2 m E P       2012/09/29 00:43:03.9  -1.7                          T   001.0                                5081450
FLN   015.08 317.9 m E P       2012/09/29 00:43:04.1  -1.8 138.7  11.4              T   001.0                                5081449
SGMF  015.93 313.4 m E P       2012/09/29 00:43:13.7  -2.1                          T                                        5081469
QUIF  016.11 311.6 m E P       2012/09/29 00:43:16.3  -1.6                          T                                        5081477
ROSF  016.38 312.8 m E P       2012/09/29 00:43:18.5  -2.4                          T                                        5081468

.
EVENT     284102
    Date      Time       Latitude Longitude    Depth    Ndef Nsta Gap    Mag1  N    Mag2  N    Mag3  N   Author         ID
       rms   OT_Error      Smajor Sminor Az        Err   mdist  Mdist     Err        Err        Err      Quality

2012/09/29 03:27:08.2     44.4989    2.7716      7.0 f    37   13 081  Ml 1.9 14  Md 1.8  1              bulletin    284203
                                                                                                         _ldg
      0.56   +-  0.05       1.1    1.0  104.91 +-  0.0    0.66   2.87   +-0.3      +-                    m i ke

FRANCE
Sta     Dist  EvAz     Phase      Date       Time     TRes  Azim  AzRes  Slow  SRes Def   SNR       Amp   Per   Mag1   Mag2       ID
CAF   000.66 310.5 m E Pg      2012/09/29 03:27:21.0   0.2                          T                                        5081495
CAF   000.66 310.5 m E Pn      2012/09/29 03:27:22.5   0.0                          T                                        5081496
CAF   000.66 310.5 m E Sg      2012/09/29 03:27:29.5   0.1                          T                2.4  .14        Md 1.8  5081494
LASF  000.89 118.1 m E Pg      2012/09/29 03:27:25.1   0.2                          T                                        5081517
LASF  000.89 118.1 m E Sg      2012/09/29 03:27:36.3  -0.2                          T                1.1  .19 Ml 1.5         5081516
MTLF  001.22 199.3 m E Pn      2012/09/29 03:27:30.2   0.1                          T                                        5081522
MTLF  001.22 199.3 m E Sn      2012/09/29 03:27:45.3  -0.7                          T                2.7  .17 Ml 2.1         5081521
RJF   001.20 312.5 m E Pg      2012/09/29 03:27:30.3  -0.4                          T                                        5081491
RJF   001.20 312.5 m E Sg      2012/09/29 03:27:45.6  -0.6                          T                6.2  .19 Ml 2.1         5081490
VIVF  001.40 074.6 m E Pn      2012/09/29 03:27:32.6   0.1                          T                                        5081513
VIVF  001.40 074.6 m E Pg      2012/09/29 03:27:34.5   0.1                          T                                        5081515
VIVF  001.40 074.6 m E Sg      2012/09/29 03:27:52.1  -0.5                          T                 .9  .20 Ml 1.7         5081514
LFF   001.51 287.6 m E Pg      2012/09/29 03:27:36.5   0.1                          T                                        5081493
LFF   001.51 287.6 m E Sg      2012/09/29 03:27:56.0   0.0                          T                2.0  .17 Ml 2.0         5081492
TCF   001.83 347.7 m E Pn      2012/09/29 03:27:38.5   0.1                          T                                        5081498
TCF   001.83 347.7 m E Sn      2012/09/29 03:28:00.0  -0.5                          T                                        5081497
TCF   001.83 347.7 m E Sg      2012/09/29 03:28:06.2   0.2                          T                1.4  .24 Ml 2.0         5082241
BGF   002.06 001.4 m E Pn      2012/09/29 03:27:41.7   0.2                          T                                        5081502
BGF   002.06 001.4 m E Sn      2012/09/29 03:28:05.7  -0.2                          T                                        5081501
BGF   002.06 001.4 m E Sg      2012/09/29 03:28:13.2   0.2                          T                2.6  .26 Ml 2.2         5082239
SMF   002.27 018.9 m E Pn      2012/09/29 03:27:44.2  -0.2                          T                                        5081505
SMF   002.27 018.9 m E Sn      2012/09/29 03:28:10.7  -0.3                          T                                        5081504
SMF   002.27 018.9 m E Sg      2012/09/29 03:28:19.5  -0.2                          T                 .4  .17 Ml 1.6         5081503
EPF   002.29 231.0 m E Pn      2012/09/29 03:27:44.9   0.1                          T                                        5081520
EPF   002.29 231.0 m E Sn      2012/09/29 03:28:11.6   0.1                          T                                        5081519
EPF   002.29 231.0 m E Sg      2012/09/29 03:28:20.3  -0.1                          T                 .9  .23 Ml 1.9         5082242
AVF   002.33 009.9 m E Pn      2012/09/29 03:27:45.0  -0.1                          T                                        5081500
AVF   002.33 009.9 m E Sg      2012/09/29 03:28:21.8   0.5                          T                 .6  .21 Ml 1.7         5081499
SSF   002.61 011.1 m E Pn      2012/09/29 03:27:49.1   0.1                          T                                        5081508
SSF   002.61 011.1 m E Sn      2012/09/29 03:28:19.4   0.3                          T                                        5081507
SSF   002.61 011.1 m E Sg      2012/09/29 03:28:30.1  -0.2                          T                 .3  .26 Ml 1.4         5081506
LOR   002.87 014.9 m E Pn      2012/09/29 03:27:52.9   0.3                          T                                        5081512
LOR   002.87 014.9 m E Pg      2012/09/29 03:28:01.2  -0.3                          T                                        5081511
LOR   002.87 014.9 m E Sn      2012/09/29 03:28:25.5   0.2                          T                                        5081510
LOR   002.87 014.9 m E Sg      2012/09/29 03:28:38.7   0.3                          T                 .7  .20 Ml 1.9         5081509

.
