EVENT     253336
    Date      Time       Latitude Longitude    Depth    Ndef Nsta Gap    Mag1  N    Mag2  N    Mag3  N   Author         ID
       rms   OT_Error      Smajor Sminor Az        Err   mdist  Mdist     Err        Err        Err      Quality

2011/01/04 06:03:43.6     45.2815    7.3264      2.0      10    4 276  Ml 1.6  2  Md 1.7  3              js067245    253356

      0.16   +-  0.21       3.7    1.7   81.50 +-  0.0    0.46   1.09   +-0.4      +-0.0                 m i ke

NORTHERN ITALY
Sta     Dist  EvAz     Phase      Date       Time     TRes  Azim  AzRes  Slow  SRes Def   SNR       Amp   Per   Mag1   Mag2       ID
LPG   000.46 298.3 m E Pg      2011/01/04 06:03:52.7  -0.1                          T                                        4577191
LPG   000.46 298.3 m E Sg      2011/01/04 06:03:59.0   0.1                          T                3.1  .25        Md 1.7  4577185
LPL   000.48 299.5 m E Pg      2011/01/04 06:03:53.2   0.1                          T                                        4577192
LPL   000.48 299.5 m E Sg      2011/01/04 06:03:59.7   0.3                          T                3.7  .33        Md 1.7  4577186
MBDF  000.68 215.6 m E Pg      2011/01/04 06:03:56.9   0.2                          T                                        4577190
MBDF  000.68 215.6 m E Sg      2011/01/04 06:04:05.7   0.2                          T                3.3  .29        Md 1.7  4577189
ORIF  001.09 251.0 m E Pg      2011/01/04 06:04:03.9  -0.2                          T                                        4577187
ORIF  001.09 251.0 m E Sg      2011/01/04 06:04:18.1  -0.1                          T                1.4  .45 Ml 1.4         4577188

.
EVENT     253335
    Date      Time       Latitude Longitude    Depth    Ndef Nsta Gap    Mag1  N    Mag2  N    Mag3  N   Author         ID
       rms   OT_Error      Smajor Sminor Az        Err   mdist  Mdist     Err        Err        Err      Quality

2011/01/04 06:09:31.3     42.2625     .6638      2.0      27    4 063  Ml 1.9  4  Md 2.0  3              js067245    253355

      0.45   +-  0.07       1.4    1.1    8.65 +-  0.0    0.10   2.08   +-0.3      +-0.0                 m i ke

PYRENEES
Sta     Dist  EvAz     Phase      Date       Time     TRes  Azim  AzRes  Slow  SRes Def   SNR       Amp   Per   Mag1   Mag2       ID
EPF   000.80 342.8 m E Pg      2011/01/04 06:09:46.4   0.0                          T                                        4577208
EPF   000.80 342.8 m E Sg      2011/01/04 06:09:57.0   0.1                          T                2.7  .20        Md 2.0  4577202
ETSF  001.10 305.5 m E Pg      2011/01/04 06:09:52.2   0.2                          T                                        4577207
ETSF  001.10 305.5 m E Sg      2011/01/04 06:10:06.4   0.0                          T                4.8  .37 Ml 2.0 Md 2.0  4577203
MTLF  001.57 046.2 m E Pg      2011/01/04 06:10:00.7   0.1                          T                                        4577201
MTLF  001.57 046.2 m E Sg      2011/01/04 06:10:21.8   0.9                          T                 .8  .32 Ml 1.5 Md 2.0  4577204
SJPF  001.63 302.0 m E Pg      2011/01/04 06:10:01.4  -0.3                          T                                        4577206
SJPF  001.63 302.0 m E Sg      2011/01/04 06:10:22.9   0.2                          T                3.4  .27 Ml 2.2         4577205

.
EVENT     253344
    Date      Time       Latitude Longitude    Depth    Ndef Nsta Gap    Mag1  N    Mag2  N    Mag3  N   Author         ID
       rms   OT_Error      Smajor Sminor Az        Err   mdist  Mdist     Err        Err        Err      Quality

2011/01/04 11:18:44.4     42.9093   -1.0291      2.0      13    3 138  Ml 1.8  1  Md 1.9  3              js067245    253364

      0.43   +-  0.10       2.1    1.3    2.23 +-  0.0    0.13   1.68   +-         +-0.1                 m i ke

PYRENEES
Sta     Dist  EvAz     Phase      Date       Time     TRes  Azim  AzRes  Slow  SRes Def   SNR       Amp   Per   Mag1   Mag2       ID
SJPF  000.25 324.9 m E Pg      2011/01/04 11:18:49.2  -0.2                          T                                        4577214
SJPF  000.25 324.9 m E Sg      2011/01/04 11:18:52.2  -0.6                          T               23.1  .20        Md 1.9  4577212
ETSF  000.35 091.6 m E Pg      2011/01/04 11:18:51.0  -0.2                          T                                        4577213
ETSF  000.35 091.6 m E Sg      2011/01/04 11:18:54.9  -0.9                          T                8.4  .24        Md 1.9  4577211
EPF   001.01 082.7 m E Pg      2011/01/04 11:19:03.2  -0.2                          T                                        4577209
EPF   001.01 082.7 m E Sg      2011/01/04 11:19:16.4  -0.2                          T                2.7  .29 Ml 1.8 Md 1.8  4577210

.
EVENT     253385
    Date      Time       Latitude Longitude    Depth    Ndef Nsta Gap    Mag1  N    Mag2  N    Mag3  N   Author         ID
       rms   OT_Error      Smajor Sminor Az        Err   mdist  Mdist     Err        Err        Err      Quality

2011/01/04 13:27:30.1     46.1301    3.4809       .0 f    18    7 120  Ml 2.1  5  Md 1.9  3              js067245    253405

      0.77   +-  0.10       2.0    1.4  117.27 +-  0.0    0.26   1.53   +-0.3      +-0.1                 m i km

FRANCE
Sta     Dist  EvAz     Phase      Date       Time     TRes  Azim  AzRes  Slow  SRes Def   SNR       Amp   Per   Mag1   Mag2       ID
SMF   000.57 025.7 m E Pg      2011/01/04 13:27:41.1  -0.1                          T                                        4577232
SMF   000.57 025.7 m E Pn      2011/01/04 13:27:43.7  -0.4                          T                                        4577225
SMF   000.57 025.7 m E Sg      2011/01/04 13:27:48.9  -0.1                          T                3.4  .20        Md 1.9  4577219
BGF   000.61 314.5 m E Pg      2011/01/04 13:27:42.1   0.1                          T                                        4577233
BGF   000.61 314.5 m E Pn      2011/01/04 13:27:44.6  -0.1                          T                                        4577224
BGF   000.61 314.5 m E Sg      2011/01/04 13:27:50.4   0.2                          T                7.9  .39        Md 1.9  4577226
AVF   000.67 352.4 m E Pg      2011/01/04 13:27:42.9  -0.1                          T                                        4577231
AVF   000.67 352.4 m E Sg      2011/01/04 13:27:51.9   0.0                          T                1.6  .22                4577220
TCF   000.90 280.6 m E Pg      2011/01/04 13:27:47.2  -0.1                          T                                        4577230
TCF   000.90 280.6 m E Sg      2011/01/04 13:27:59.5   0.4                          T                5.3  .28 Ml 2.1         4577221
SSF   000.93 001.1 m E Pg      2011/01/04 13:27:48.2   0.4                          T                                        4577229
SSF   000.93 001.1 m E Sg      2011/01/04 13:28:00.1   0.0                          T               26.0  .60 Ml 2.5         4577222
LOR   001.17 012.7 m E Pg      2011/01/04 13:27:52.3   0.0 199.7  6.6               T                                        4577228
LOR   001.17 012.7 m E Sg      2011/01/04 13:28:07.6   0.0 202.1  9.0               T                1.8  .29 Ml 1.7         4577227
VIVF  001.53 146.2 m E Pg      2011/01/04 13:27:58.7  -0.2                          T                                        4577223
VIVF  001.53 146.2 m E Sg      2011/01/04 13:28:18.6  -0.1                          T                8.5  .58 Ml 2.2         4577217

.
EVENT     253388
    Date      Time       Latitude Longitude    Depth    Ndef Nsta Gap    Mag1  N    Mag2  N    Mag3  N   Author         ID
       rms   OT_Error      Smajor Sminor Az        Err   mdist  Mdist     Err        Err        Err      Quality

2011/01/04 16:09:13.8     44.1153    4.3392       .0 f    14    5 145  Ml 1.7  5  Md 1.6  3              js067245    253408

      0.74   +-  0.08       2.3    1.2  159.63 +-  0.0    0.35   1.82   +-0.3      +-0.0                 m i km

FRANCE
Sta     Dist  EvAz     Phase      Date       Time     TRes  Azim  AzRes  Slow  SRes Def   SNR       Amp   Per   Mag1   Mag2       ID
LASF  000.35 263.7 m E Pg      2011/01/04 16:09:21.0   0.1                          T                                        4577255
LASF  000.35 263.7 m E Sg      2011/01/04 16:09:25.6  -0.1                          T                4.0  .26        Md 1.6  4577253
VIVF  000.78 017.8 m E Pg      2011/01/04 16:09:28.7   0.0                          T                                        4577254
VIVF  000.78 017.8 m E Sg      2011/01/04 16:09:38.9  -0.2                          T                9.1  .26        Md 1.6  4577252
SMRF  000.90 098.5 m E Pg      2011/01/04 16:09:31.1   0.1                          T                                        4577251
SMRF  000.90 098.5 m E Sg      2011/01/04 16:09:43.1   0.1                          T                2.2  .33 Ml 1.6 Md 1.6  4577250
MTLF  001.72 244.0 m E Pg      2011/01/04 16:09:46.0  -0.1                          T                                        4578105
MTLF  001.72 244.0 m E Sg      2011/01/04 16:10:08.8   0.3                          T                1.2  .28 Ml 1.8         4578106
CAF   001.82 297.3 m E Pg      2011/01/04 16:09:47.9   0.0                          T                                        4578104
CAF   001.82 297.3 m E Sg      2011/01/04 16:10:11.4  -0.1                          T                1.3  .22 Ml 1.9         4578107

.
EVENT     253391
    Date      Time       Latitude Longitude    Depth    Ndef Nsta Gap    Mag1  N    Mag2  N    Mag3  N   Author         ID
       rms   OT_Error      Smajor Sminor Az        Err   mdist  Mdist     Err        Err        Err      Quality

2011/01/04 16:57:37.7     43.4133    1.9260       .0 f    14    5 108  Ml 2.0  4  Md 2.0  3              js067245    253411

      0.41   +-  0.09       1.7    1.4  140.82 +-  0.0    0.22   1.89   +-0.2      +-0.0                 m i km

FRANCE
Sta     Dist  EvAz     Phase      Date       Time     TRes  Azim  AzRes  Slow  SRes Def   SNR       Amp   Per   Mag1   Mag2       ID
MTLF  000.22 108.6 m E Pg      2011/01/04 16:57:42.6   0.1                          T                                        4577273
MTLF  000.22 108.6 m E Sg      2011/01/04 16:57:46.0   0.3                          T               10.9  .24        Md 2.0  4577270
EPF   001.22 252.3 m E Pn      2011/01/04 16:58:00.1  -0.5                          T                                        4577272
EPF   001.22 252.3 m E Pg      2011/01/04 16:58:01.2   0.3                          T                                        4578108
EPF   001.22 252.3 m E Sg      2011/01/04 16:58:17.3   0.5                          T                4.4  .22 Ml 2.2 Md 2.0  4577269
CAF   001.52 003.7 m E Pg      2011/01/04 16:58:06.4   0.1                          T                                        4577265
CAF   001.52 003.7 m E Sg      2011/01/04 16:58:26.2   0.2                          T                4.1  .32 Ml 2.2 Md 2.1  4577267
LASF  001.55 064.0 m E Pg      2011/01/04 16:58:06.4  -0.4                          T                                        4577271
LASF  001.55 064.0 m E Sg      2011/01/04 16:58:27.2   0.2                          T                2.3  .28 Ml 2.0         4577268
ETSF  001.89 255.1 m E Pg      2011/01/04 16:58:13.6   0.4                          T                                        4577264
ETSF  001.89 255.1 m E Sg      2011/01/04 16:58:36.9  -0.8                          T                1.1  .34 Ml 1.7         4577266

.
EVENT     253411
    Date      Time       Latitude Longitude    Depth    Ndef Nsta Gap    Mag1  N    Mag2  N    Mag3  N   Author         ID
       rms   OT_Error      Smajor Sminor Az        Err   mdist  Mdist     Err        Err        Err      Quality

2011/01/04 18:38:34.4     50.9238    6.5960      1.0 f    13    4 154  Ml 2.0  3  Md 2.3  3              js067245    253431

      0.32   +-  0.13       3.0    2.2  160.50 +-  0.0    0.01   2.10   +-0.1      +-0.1                 m i sr

GERMANY
Sta     Dist  EvAz     Phase      Date       Time     TRes  Azim  AzRes  Slow  SRes Def   SNR       Amp   Per   Mag1   Mag2       ID
RUP   001.26 166.1 m E Pg      2011/01/04 18:38:58.0  -0.1                          T                                        4577496
RUP   001.26 166.1 m E Sg      2011/01/04 18:39:14.2  -0.1                          T                                Md 2.2  4577499
GIVF  001.40 234.7 m E Pg      2011/01/04 18:39:00.6   0.1                          T                                        4577498
GIVF  001.40 234.7 m E Sg      2011/01/04 18:39:18.9   0.2                          T                2.6  .21 Ml 2.1 Md 2.4  4577501
BAIF  001.75 241.3 m E Pg      2011/01/04 18:39:07.0  -0.1                          T                                        4577497
BAIF  001.75 241.3 m E Sg      2011/01/04 18:39:29.5  -0.2                          T                1.2  .18 Ml 2.0 Md 2.4  4577500
LANF  002.10 157.7 m E Pg      2011/01/04 18:39:13.4   0.0                          T                                        4577495
LANF  002.10 157.7 m E Sg      2011/01/04 18:39:40.2  -0.2                          T                 .8  .13 Ml 2.0         4577494

.

DATA_TYPE ARRIVAL
Sta     Dist  EvAz     Phase      Date       Time     TRes  Azim  AzRes  Slow  SRes Def   SNR       Amp   Per   Mag1   Mag2       ID

STOP
