EVENT     269122
    Date      Time       Latitude Longitude    Depth    Ndef Nsta Gap    Mag1  N    Mag2  N    Mag3  N   Author         ID
       rms   OT_Error      Smajor Sminor Az        Err   mdist  Mdist     Err        Err        Err      Quality

2012/01/25 22:28:39.1     47.1216    7.5137     10.0      35   13 066  Ml 2.1 12  Md 2.2  1              js067245    269142

      1.16   +-  0.06       1.4    1.0   80.67 +-  0.0    0.09   3.01   +-0.4      +-                    m i ke

SWITZERLAND
Sta     Dist  EvAz     Phase      Date       Time     TRes  Azim  AzRes  Slow  SRes Def   SNR       Amp   Per   Mag1   Mag2       ID
HINF  000.83 327.4 m E Pg      2012/01/25 22:28:54.7  -0.1                          T                                        4825963
HINF  000.83 327.4 m E Pn      2012/01/25 22:28:55.4   0.1                          T                                        4825964
HINF  000.83 327.4 m E Sg      2012/01/25 22:29:05.3  -0.3                          T                                        4825951
HINF  000.83 327.4 m E Sn      2012/01/25 22:29:07.0   0.2                          T               15.4  .24        Md 2.2  4825952
CABF  001.10 243.0 m E Pg      2012/01/25 22:29:00.1   0.2                          T                                        4825961
CABF  001.10 243.0 m E P       2012/01/25 22:29:01.0   0.2                          T                                        4825962
CABF  001.10 243.0 m E Sg      2012/01/25 22:29:14.3   0.0                          T                7.6  .24 Ml 2.4         4825953
HAU   001.19 318.7 m E Pg      2012/01/25 22:29:01.1  -0.3                          T                                        4825965
HAU   001.19 318.7 m E P       2012/01/25 22:29:01.9   0.0                          T                                        4825966
HAU   001.19 318.7 m E Sg      2012/01/25 22:29:16.9   0.2                          T                7.8  .20 Ml 2.3         4825950
CDF   001.30 353.0 m E Pn      2012/01/25 22:29:02.2   0.4                          T                                        4825972
CDF   001.30 353.0 m E Pg      2012/01/25 22:29:03.6   0.1                          T                                        4825971
CDF   001.30 353.0 m E Sg      2012/01/25 22:29:20.5   0.1                          T                8.6  .22 Ml 2.7         4825945
THEF  001.51 317.7 m E Pg      2012/01/25 22:29:07.2  -0.1                          T                                        4825967
THEF  001.51 317.7 m E Sg      2012/01/25 22:29:26.8   0.0                          T                5.8  .28 Ml 2.4         4825949
PAGF  001.87 320.6 m E Pn      2012/01/25 22:29:09.8   0.3 137.0  -2.3              T                                        4825970
PAGF  001.87 320.6 m E Pg      2012/01/25 22:29:14.1   0.1 131.9  -7.4              T                                        4825969
PAGF  001.87 320.6 m E Sg      2012/01/25 22:29:38.0  -0.1 133.5  -5.9              T                 .2  .15 Ml 1.2         4825946
LPL   001.69 198.9 m E Pg      2012/01/25 22:29:11.0   0.1                          T                                        4825960
LPL   001.69 198.9 m E Sg      2012/01/25 22:29:32.7  -0.1                          T                1.3  .25 Ml 1.8         4825956
LPG   001.71 198.3 m E Pg      2012/01/25 22:29:11.2  -0.1                          T                                        4825959
LPG   001.71 198.3 m E Sg      2012/01/25 22:29:33.3   0.0                          T                2.1  .26 Ml 2.0         4825957
SFTF  001.99 303.8 m E Pg      2012/01/25 22:29:16.1  -0.1 120.8  -1.2              T                                        4825968
SFTF  001.99 303.8 m E Sg      2012/01/25 22:29:42.0   0.1                          T                1.7  .19 Ml 2.1         4825948
ORIF  002.48 207.9 m E Pg      2012/01/25 22:29:25.2  -0.1                          T                                        4825958
ORIF  002.48 207.9 m E Sg      2012/01/25 22:29:56.9  -0.3                          T                 .8  .22 Ml 1.8         4825955
MEZF  002.16 310.7 m E Sg      2012/01/25 22:29:46.8  -0.2 146.0  17.1              T                3.0  .27 Ml 2.3         4825947
LOR   002.50 274.7 m E Sg      2012/01/25 22:29:57.5  -0.1 113.2  21.2              T                1.7  .23 Ml 2.2         4825944
VIVF  003.01 222.2 m E Sg      2012/01/25 22:30:13.5  -0.2                          T                 .9  .21 Ml 2.1         4825954

.
EVENT     269125
    Date      Time       Latitude Longitude    Depth    Ndef Nsta Gap    Mag1  N    Mag2  N    Mag3  N   Author         ID
       rms   OT_Error      Smajor Sminor Az        Err   mdist  Mdist     Err        Err        Err      Quality

2012/01/25 22:40:13.6     43.1405    -.4278      2.0      26    7 108  Ml 1.8  4  Md 1.9  3              js067245    269145

      0.24   +-  0.05       1.0     .7  171.08 +-  0.0    0.21   2.58   +-0.1      +-0.1                 m i ke

PYRENEES
Sta     Dist  EvAz     Phase      Date       Time     TRes  Azim  AzRes  Slow  SRes Def   SNR       Amp   Per   Mag1   Mag2       ID
ETSF  000.26 201.8 m E Pg      2012/01/25 22:40:18.6  -0.3                          T                                        4825984
ETSF  000.26 201.8 m E Sg      2012/01/25 22:40:22.2  -0.3                          T               19.0  .24        Md 2.0  4825992
EPF   000.57 100.8 m E Pg      2012/01/25 22:40:24.6   0.0                          T                                        4825982
EPF   000.57 100.8 m E Sg      2012/01/25 22:40:32.4   0.2                          T                4.3  .22        Md 1.8  4825993
SJPF  000.58 267.6 m E Pg      2012/01/25 22:40:25.0   0.2                          T                                        4825983
SJPF  000.58 267.6 m E Sg      2012/01/25 22:40:32.3  -0.1                          T                1.9  .21        Md 1.8  4825994
MTLF  001.94 083.2 m E Pg      2012/01/25 22:40:49.7  -0.1                          T                                        4825996
MTLF  001.94 083.2 m E Sg      2012/01/25 22:41:14.8  -0.1                          T                1.0  .29 Ml 1.7         4825988
LFF   001.99 024.7 m E Pg      2012/01/25 22:40:50.7   0.2                          T                                        4825995
LFF   001.99 024.7 m E Sg      2012/01/25 22:41:16.2   0.1                          T                 .9  .18 Ml 1.7         4825990
CAF   002.53 044.3 m E Sg      2012/01/25 22:41:33.0  -0.2                          T                1.2  .27 Ml 2.0         4825991
RJF   002.58 032.2 m E Sg      2012/01/25 22:41:34.5   0.0                          T                1.4  .26 Ml 1.7         4825989

.
EVENT     269123
    Date      Time       Latitude Longitude    Depth    Ndef Nsta Gap    Mag1  N    Mag2  N    Mag3  N   Author         ID
       rms   OT_Error      Smajor Sminor Az        Err   mdist  Mdist     Err        Err        Err      Quality

2012/01/25 23:01:06.9     44.9061   10.5109     10.0     141   37 039  Ml 3.6 29                         js067245    269143

      1.30   +-  0.13       3.1    2.7   75.20 +-  0.0    0.18  10.08   +-0.3                            m i ke

NORTHERN ITALY
Sta     Dist  EvAz     Phase      Date       Time     TRes  Azim  AzRes  Slow  SRes Def   SNR       Amp   Per   Mag1   Mag2       ID
SBF   002.44 245.8 m E Pn      2012/01/25 23:01:45.1   0.0                          T   001.0                                4822158
SBF   002.44 245.8 m E Sn      2012/01/25 23:02:12.9  -0.3                          T   001.0      176.9  .24 Ml 4.2         4822159
PGF   002.60 205.5 m E Pn      2012/01/25 23:01:47.2  -0.1                          T   001.0                                4822156
PGF   002.60 205.5 m E Sn      2012/01/25 23:02:16.5  -0.6                          T   001.0      115.6  .24 Ml 4.3         4822157
MBDF  002.67 267.5 m E Pn      2012/01/25 23:01:47.4  -0.9                          T   001.0                                4822171
MBDF  002.67 267.5 m E Sn      2012/01/25 23:02:18.5  -0.3                          T               28.3  .27 Ml 3.4         4826014
MBDF  002.67 267.5 m E Sg      2012/01/25 23:02:31.0   0.1                          T               52.4  .37 Ml 3.5         4826015
LPG   002.72 283.9 m E Pn      2012/01/25 23:01:48.5  -0.7                          T   001.0                                4822150
LPG   002.72 283.9 m E Sn      2012/01/25 23:02:19.2  -1.1                          T                                        4826018
LPG   002.72 283.9 m E Sg      2012/01/25 23:02:33.2   0.4                          T   001.0       56.2  .40 Ml 3.5         4822151
LPL   002.74 284.2 m E Pn      2012/01/25 23:01:49.0  -0.4                          T   001.0                                4822152
LPL   002.74 284.2 m E Pg      2012/01/25 23:01:57.5  -0.5                          T   001.0                                4822153
LPL   002.74 284.2 m E Sn      2012/01/25 23:02:19.1  -1.5                          T   001.0                                4822154
LPL   002.74 284.2 m E Sg      2012/01/25 23:02:33.0  -0.2                          T   001.0       51.7  .36 Ml 3.5         4822155
FRF   003.09 245.5 m E Pn      2012/01/25 23:01:54.0   0.2                          T   001.0                                4822140
FRF   003.09 245.5 m E Sn      2012/01/25 23:02:28.6   0.1                          T   001.0       50.1  .20 Ml 3.9         4822141
LMR   003.28 242.8 m E Pn      2012/01/25 23:01:56.5   0.0                          T   001.0                                4822148
LMR   003.28 242.8 m E Sn      2012/01/25 23:02:33.1  -0.1                          T               94.7  .24 Ml 4.1         4826021
ORIF  003.29 271.8 m E Pn      2012/01/25 23:01:57.9   1.2                          T   001.0                                4822174
ORIF  003.29 271.8 m E Sn      2012/01/25 23:02:33.5  -0.1                          T               48.1  .38 Ml 3.6         4826016
ORIF  003.29 271.8 m E Sg      2012/01/25 23:02:50.1  -0.2                          T               48.8  .46 Ml 3.5         4826017
CABF  003.53 300.4 m E Pn      2012/01/25 23:02:01.3   1.2                          T   001.0                                4822166
CABF  003.53 300.4 m E Sn      2012/01/25 23:02:39.6   0.2                          T   001.0       18.1  .24 Ml 3.4         4822167
SMRF  003.66 257.0 m E Pn      2012/01/25 23:02:02.5   0.9                          T   001.0                                4822179
SMRF  003.66 257.0 m E Sn      2012/01/25 23:02:41.7  -0.5                          T                4.7  .22 Ml 2.9         4826019
SMRF  003.66 257.0 m E Sg      2012/01/25 23:03:00.9  -0.7                          T               19.3  .31 Ml 3.4         4826020
HINF  003.86 320.3 m E Pn      2012/01/25 23:02:04.6   0.2                          T   001.0                                4822169
HINF  003.86 320.3 m E Sn      2012/01/25 23:02:46.9  -0.1                          T               30.4  .24 Ml 3.7         4826011
HINF  003.86 320.3 m E Sg      2012/01/25 23:03:07.7  -0.2                          T   001.0       26.6  .36 Ml 3.5         4822170
VIVF  004.15 271.4 m E Pn      2012/01/25 23:02:08.3  -0.1                          T   001.0                                4822177
VIVF  004.15 271.4 m E Sn      2012/01/25 23:02:54.7   0.7                          T   001.0          7  .20 Ml 3.2         4822178
CDF   004.15 328.7 m E Pn      2012/01/25 23:02:08.7   0.2                          T   001.0                                4822139
CDF   004.15 328.7 m E Sn      2012/01/25 23:02:54.2   0.0                          T               17.0  .22 Ml 3.7         4826005
HAU   004.23 318.6 m E Pn      2012/01/25 23:02:09.5   0.1                          T   001.0                                4822143
HAU   004.23 318.6 m E Sn      2012/01/25 23:02:55.8  -0.1                          T               53.4  .20 Ml 3.9         4826010
LANF  004.48 336.5 m E Pn      2012/01/25 23:02:13.3   0.5                          T                                        4826028
LANF  004.48 336.5 m E Sn      2012/01/25 23:03:02.1   0.3                          T                                        4826004
THEF  004.55 318.5 m E Pn      2012/01/25 23:02:14.3   0.5                          T                                        4826025
THEF  004.55 318.5 m E Sn      2012/01/25 23:03:03.7   0.0                          T                                        4826009
LASF  004.83 262.5 m E Pn      2012/01/25 23:02:17.3  -0.3                          T   001.0                                4822144
LASF  004.83 262.5 m E Sn      2012/01/25 23:03:09.9  -0.4                          T   001.0        9.5  .48 Ml 3.1         4822145
PAGF  004.91 319.7 m E Pn      2012/01/25 23:02:19.3   0.6                          T                                        4826027
PAGF  004.91 319.7 m E Sn      2012/01/25 23:03:12.0  -0.2                          T                3.6  .22 Ml 3.1         4826006
SMF   004.98 292.8 m E Pn      2012/01/25 23:02:20.2   0.6                          T   001.0                                4822160
SMF   004.98 292.8 m E Sn      2012/01/25 23:03:13.4  -0.4                          T               27.8  .36 Ml 3.8         4826012
SFTF  005.01 313.1 m E Pn      2012/01/25 23:02:20.9   0.8                          T                                        4826026
SFTF  005.01 313.1 m E Sn      2012/01/25 23:03:14.6   0.0                          T               18.8  .29 Ml 3.7         4826008
LOR   005.20 299.4 m E Pn      2012/01/25 23:02:23.2   0.7                          T   001.0                                4822149
LOR   005.20 299.4 m E Sn      2012/01/25 23:03:18.9  -0.1                          T               33.4  .28 Ml 4.0         4826003
MEZF  005.20 315.7 m E Pn      2012/01/25 23:02:23.5   0.9                          T   001.0                                4822172
MEZF  005.20 315.7 m E Sn      2012/01/25 23:03:18.9  -0.2                          T               11.1  .24 Ml 3.6         4826007
SSF   005.34 296.3 m E Pn      2012/01/25 23:02:25.1   0.6                          T   001.0                                4822161
SSF   005.34 296.3 m E Sn      2012/01/25 23:03:21.2  -1.1                          T   001.0       11.1  .32 Ml 3.6         4822162
AVF   005.34 293.2 m E Pn      2012/01/25 23:02:25.1   0.6                          T   001.0                                4822134
AVF   005.34 293.2 m E Sn      2012/01/25 23:03:22.2  -0.3                          T   001.0        3.8  .24 Ml 3.1         4822135
BGF   005.61 289.8 m E Pn      2012/01/25 23:02:28.8   0.5                          T   001.0                                4822136
BGF   005.61 289.8 m E Sn      2012/01/25 23:03:28.5  -0.5                          T   001.0       21.3  .44 Ml 3.7         4822137
CAF   006.00 273.2 m E Pn      2012/01/25 23:02:33.7   0.2                          T   001.0                                4822138
HYF   005.96 296.1 m E Pn      2012/01/25 23:02:33.9   0.8                          T                                        4826024
HYF   005.96 296.1 m E Sn      2012/01/25 23:03:37.1  -0.3                          T                                        4826013
TCF   005.99 286.3 m E Pn      2012/01/25 23:02:33.9   0.6                          T                                        4826029
TCF   005.99 286.3 m E Sn      2012/01/25 23:03:38.1   0.2                          T   001.0        7.6  .31 Ml 3.5         4822163
MTLF  006.17 258.2 m E Pn      2012/01/25 23:02:36.5   0.6                          T   001.0                                4822173
BAIF  006.69 322.6 m E Pn      2012/01/25 23:02:43.6   0.7                          T   001.0                                4822164
BAIF  006.69 322.6 m E Sn      2012/01/25 23:03:58.4   3.7                          T   001.0        4.4  .52 Ml 3.1         4822165
GIVF  006.47 325.5 m E P       2012/01/25 23:02:44.2  -0.5                          T   001.0                                4822168
LFF   006.94 273.7 m E Pn      2012/01/25 23:02:47.5   1.2                          T   001.0                                4822147
LDF   008.18 300.6 m E Pn      2012/01/25 23:03:04.9   1.7                          T   001.0                                4822146
FLN   008.47 301.0 m E Pn      2012/01/25 23:03:08.2   1.2                          T                                        4826022
GRR   008.56 298.0 m E Pn      2012/01/25 23:03:08.7   0.3                          T   001.0                                4822142
SGMF  009.60 295.0 m E Pn      2012/01/25 23:03:23.2   0.7                          T   001.0                                4822176
ROSF  010.08 294.8 m E Pn      2012/01/25 23:03:29.3   0.2                          T   001.0                                4822175

.
EVENT     269155
    Date      Time       Latitude Longitude    Depth    Ndef Nsta Gap    Mag1  N    Mag2  N    Mag3  N   Author         ID
       rms   OT_Error      Smajor Sminor Az        Err   mdist  Mdist     Err        Err        Err      Quality

2012/01/25 23:34:25.4     44.5349    8.4200     10.0 f    37    8 105  Ml 1.7  8  Md 1.9  1              js067245    269175

      0.22   +-  0.07       1.1     .9   65.07 +-  0.0    0.09   2.69   +-0.3      +-                    m i ke

NORTHERN ITALY
Sta     Dist  EvAz     Phase      Date       Time     TRes  Azim  AzRes  Slow  SRes Def   SNR       Amp   Per   Mag1   Mag2       ID
SBF   000.98 226.9 m E Pg      2012/01/25 23:34:43.8  -0.1                          T                                        4826056
SBF   000.98 226.9 m E Sg      2012/01/25 23:34:56.3  -0.3                          T                4.9  .27 Ml 2.1 Md 1.9  4826055
MBDF  001.19 279.8 m E Pg      2012/01/25 23:34:47.9  -0.1                          T                                        4826062
MBDF  001.19 279.8 m E Sg      2012/01/25 23:35:03.9   0.4                          T                1.8  .26 Ml 1.7         4826049
LPG   001.53 309.7 m E Pg      2012/01/25 23:34:54.4   0.1                          T                                        4826059
LPG   001.53 309.7 m E Sg      2012/01/25 23:35:14.0   0.0                          T                 .4  .26 Ml 1.2         4826052
LPL   001.55 309.9 m E Pg      2012/01/25 23:34:54.4  -0.2                          T                                        4826060
LPL   001.55 309.9 m E Sg      2012/01/25 23:35:14.5   0.0                          T                 .6  .25 Ml 1.4         4826051
FRF   001.61 233.3 m E Pg      2012/01/25 23:34:55.5   0.1                          T                                        4826058
FRF   001.61 233.3 m E Sg      2012/01/25 23:35:16.1  -0.1                          T                1.5  .22 Ml 2.0         4826053
LMR   001.83 229.6 m E Pg      2012/01/25 23:34:59.3  -0.2                          T                                        4826057
LMR   001.83 229.6 m E Sg      2012/01/25 23:35:22.9  -0.1                          T                2.1  .26 Ml 2.1         4826054
ORIF  001.85 282.8 m E Pg      2012/01/25 23:34:59.6  -0.4                          T                                        4826061
ORIF  001.85 282.8 m E Sg      2012/01/25 23:35:24.1   0.2                          T                 .3  .24 Ml 1.3         4826050
VIVF  002.69 278.2 m E Sg      2012/01/25 23:35:50.1   0.1                          T                  1  .35 Ml 1.8         4826048

.
