EVENT     259542
    Date      Time       Latitude Longitude    Depth    Ndef Nsta Gap    Mag1  N    Mag2  N    Mag3  N   Author         ID
       rms   OT_Error      Smajor Sminor Az        Err   mdist  Mdist     Err        Err        Err      Quality

2011/05/22 02:13:15.2     45.7266    6.4786      2.0      71   26 030  Ml 2.3 25  Md 2.4  2              js067245    259542

      0.46   +-  0.05       1.2    1.0   83.79 +-  0.0    0.11   4.60   +-0.4      +-0.0                 m i ke

FRANCE
Sta     Dist  EvAz     Phase      Date       Time     TRes  Azim  AzRes  Slow  SRes Def   SNR       Amp   Per   Mag1   Mag2       ID
LPL   000.28 139.6 m E Pg      2011/05/22 02:13:20.9   0.0                          T                                        4698521
LPL   000.28 139.6 m E Sg      2011/05/22 02:13:24.5  -0.2                          T   001.0       34.2  .20        Md 2.4  4694608
LPG   000.30 140.0 m E Pg      2011/05/22 02:13:21.4   0.0                          T                                        4698520
LPG   000.30 140.0 m E Sg      2011/05/22 02:13:24.9  -0.6                          T   001.0       73.8  .24        Md 2.4  4694607
ORIF  000.91 207.8 m E Pg      2011/05/22 02:13:31.6  -0.9                          T   001.0                                4694627
ORIF  000.91 207.8 m E Sg      2011/05/22 02:13:44.0  -0.4                          T   001.0       11.7  .24 Ml 2.5         4694628
CABF  000.93 343.1 m E Pg      2011/05/22 02:13:32.8   0.0                          T                                        4698528
CABF  000.93 343.1 m E Pn      2011/05/22 02:13:34.5   0.8                          T   001.0                                4694617
CABF  000.93 343.1 m E Sg      2011/05/22 02:13:44.4  -0.3                          T   001.0        9.8  .20 Ml 2.5         4694618
MBDF  001.02 168.2 m E Pg      2011/05/22 02:13:34.4  -0.2                          T   001.0                                4694622
MBDF  001.02 168.2 m E Sg      2011/05/22 02:13:48.0   0.2                          T   001.0       11.8  .52 Ml 2.2         4694623
VIVF  001.54 236.3 m E Pn      2011/05/22 02:13:42.5   0.4                          T   001.0                                4694629
VIVF  001.54 236.3 m E Pg      2011/05/22 02:13:44.1   0.0                          T                                        4698522
VIVF  001.54 236.3 m E Sn      2011/05/22 02:14:01.3  -0.2                          T   001.0       48.1  .24 Ml 3.4         4694630
VIVF  001.54 236.3 m E Sg      2011/05/22 02:14:04.0   0.0                          T               45.8  .22 Ml 3.4         4698523
SMF   002.05 297.6 m E Pn      2011/05/22 02:13:49.2   0.2                          T   001.0                                4694611
SMF   002.05 297.6 m E Pg      2011/05/22 02:13:52.9  -0.4                          T                                        4698527
SMF   002.05 297.6 m E Sg      2011/05/22 02:14:19.3  -0.5                          T   001.0       10.8  .20 Ml 2.9         4694612
HINF  002.11 006.9 m E Pn      2011/05/22 02:13:49.4  -0.4                          T   001.0                                4694619
HINF  002.11 006.9 m E Pg      2011/05/22 02:13:54.5   0.1                          T   001.0                                4694620
HINF  002.11 006.9 m E Sg      2011/05/22 02:14:21.0  -0.6                          T   001.0        3.5  .28 Ml 2.3         4694621
SMRF  001.86 200.5 m E Pg      2011/05/22 02:13:50.1   0.1                          T   001.0                                4694631
SMRF  001.86 200.5 m E Sg      2011/05/22 02:14:13.7  -0.3                          T                 .5  .15 Ml 1.6         4698541
HAU   002.28 357.8 m E Pn      2011/05/22 02:13:52.1  -0.1                          T   001.0                                4694599
HAU   002.28 357.8 m E Pg      2011/05/22 02:13:57.5  -0.1                          T   001.0                                4694600
HAU   002.28 357.8 m E Sg      2011/05/22 02:14:26.1  -0.9                          T   001.0        3.3  .20 Ml 2.3         4694601
SBF   001.98 159.6 m E Pg      2011/05/22 02:13:52.4   0.2                          T   001.0                                4694609
SBF   001.98 159.6 m E Sg      2011/05/22 02:14:18.0   0.2                          T   001.0        5.1  .40 Ml 2.3         4694610
FRF   002.17 176.8 m E P       2011/05/22 02:13:52.8  -0.1                          T   001.0                                4694598
FRF   002.17 176.8 m E Pg      2011/05/22 02:13:55.8   0.2                          T                                        4698544
FRF   002.17 176.8 m E Sg      2011/05/22 02:14:23.6   0.2                          T                1.4  .25 Ml 2.0         4698542
AVF   002.42 297.3 m E Pn      2011/05/22 02:13:54.0   0.1                          T   001.0                                4694590
AVF   002.42 297.3 m E Pg      2011/05/22 02:14:00.8   0.7                          T                                        4698526
AVF   002.42 297.3 m E Sn      2011/05/22 02:14:21.8  -0.5                          T   001.0                                4694591
AVF   002.42 297.3 m E Sg      2011/05/22 02:14:30.4  -0.7                          T   001.0        5.6  .44 Ml 2.4         4694592
LMR   002.39 179.5 m E P       2011/05/22 02:13:55.0  -0.1                          T   001.0                                4694604
LASF  002.49 229.4 m E Pn      2011/05/22 02:13:55.0   1.0                          T   001.0                                4694602
LMR   002.39 179.5 m E Pg      2011/05/22 02:13:59.6   0.0                          T                                        4698543
LMR   002.39 179.5 m E Sg      2011/05/22 02:14:30.5   0.1                          T   001.0         .6  .19 Ml 1.8         4694605
LASF  002.49 229.4 m E Sg      2011/05/22 02:14:33.6   0.1                          T   001.0        1.8  .20 Ml 2.3         4694603
CDF   002.74 011.2 m E Pn      2011/05/22 02:13:57.5  -1.0                          T   001.0                                4694595
CDF   002.74 011.2 m E Sn      2011/05/22 02:14:29.9  -0.3                          T   001.0                                4694596
CDF   002.74 011.2 m E Sg      2011/05/22 02:14:40.8  -0.6                          T   001.0          1  .20 Ml 2.2         4694597
BGF   002.66 289.5 m E Pn      2011/05/22 02:13:57.7   0.5                          T                                        4698525
BGF   002.66 289.5 m E Pg      2011/05/22 02:14:04.9   0.4                          T                                        4698524
BGF   002.66 289.5 m E Sg      2011/05/22 02:14:38.5  -0.2                          T                2.2  .22 Ml 2.3         4698540
SSF   002.45 304.1 m E Pg      2011/05/22 02:13:58.0  -1.8                          T   001.0                                4694613
SSF   002.45 304.1 m E Sg      2011/05/22 02:14:32.0  -0.3                          T   001.0        2.2  .28 Ml 2.3         4694614
LOR   002.38 311.4 m E Pg      2011/05/22 02:13:59.8   0.4                          T                                        4698529
LOR   002.38 311.4 m E Sg      2011/05/22 02:14:29.7  -0.3                          T   001.0        3.5  .24 Ml 2.5         4694606
CAF   003.21 257.1 m E Pn      2011/05/22 02:14:06.5   1.6                          T   001.0                                4694593
CAF   003.21 257.1 m E Sg      2011/05/22 02:14:54.2  -1.9                          T   001.0          2  .40 Ml 2.2         4694594
BAIF  004.60 341.4 m E Pn      2011/05/22 02:14:24.6   1.0                          T   001.0                                4694616
MEZF  002.94 341.2 m E Sn      2011/05/22 02:14:34.1  -0.8                          T   001.0        4.3  .32 Ml 2.5         4694624
MEZF  002.94 341.2 m E Sg      2011/05/22 02:14:47.8   0.2                          T                  1  .19 Ml 2.1         4698538
SFTF  002.67 338.8 m E Sg      2011/05/22 02:14:39.0   0.0                          T                 .9  .11 Ml 2.3         4698539
PAGF  002.88 350.0 m E Sg      2011/05/22 02:14:45.5   0.0                          T                 .3  .19 Ml 1.5         4698537
TCF   003.03 282.2 m E Sg      2011/05/22 02:14:49.8  -0.5                          T   001.0          1  .28 Ml 2.0         4694615
MTLF  003.87 233.5 m E Sg      2011/05/22 02:15:15.6  -1.0                          T   001.0          1  .36 Ml 2.1         4694625

.
EVENT     259543
    Date      Time       Latitude Longitude    Depth    Ndef Nsta Gap    Mag1  N    Mag2  N    Mag3  N   Author         ID
       rms   OT_Error      Smajor Sminor Az        Err   mdist  Mdist     Err        Err        Err      Quality

2011/05/22 04:25:45.9     44.3308   11.8556     30.0      40   13 094  Ml 2.7  8                         js067245    259543

      1.03   +-  0.16       3.9    3.3  146.92 +-  0.0    0.25   6.09   +-0.3                            m i ke

NORTHERN ITALY
Sta     Dist  EvAz     Phase      Date       Time     TRes  Azim  AzRes  Slow  SRes Def   SNR       Amp   Per   Mag1   Mag2       ID
PGF   002.74 230.4 m E Pn      2011/05/22 04:26:26.3  -0.3                          T                                        4698546
PGF   002.74 230.4 m E Sn      2011/05/22 04:26:55.2  -1.6                          T                5.5  .26 Ml 2.9         4698545
SBF   003.22 263.2 m E Pn      2011/05/22 04:26:33.9   0.9                          T                                        4698547
SBF   003.22 263.2 m E Sn      2011/05/22 04:27:08.8   0.6                          T               12.8  .36 Ml 3.0         4698609
MBDF  003.66 278.0 m E Pn      2011/05/22 04:26:38.6  -0.6                          T                                        4698606
MBDF  003.66 278.0 m E Sn      2011/05/22 04:27:18.5  -0.2                          T                1.5  .27 Ml 2.3         4698604
LPG   003.81 289.6 m E Pn      2011/05/22 04:26:38.6  -2.8                          T                                        4698551
LPG   003.81 289.6 m E Sn      2011/05/22 04:27:23.2   0.6                          T                1.2  .27 Ml 2.2         4698605
FRF   003.84 260.2 m E Pn      2011/05/22 04:26:41.4   0.0                          T                                        4698549
FRF   003.84 260.2 m E Sn      2011/05/22 04:27:22.8  -0.1                          T                6.5  .24 Ml 3.1         4698607
LMR   003.99 257.4 m E Pn      2011/05/22 04:26:42.5  -1.0                          T                                        4698548
LMR   003.99 257.4 m E Sn      2011/05/22 04:27:26.5  -0.1                          T                3.2  .26 Ml 2.8         4698608
SMRF  004.53 267.7 m E Pn      2011/05/22 04:26:52.1   1.2                          T                                        4698550
CABF  004.65 301.4 m E Pn      2011/05/22 04:26:52.3  -0.3                          T                                        4698554
HINF  004.93 316.8 m E Pn      2011/05/22 04:26:55.9  -0.4                          T                                        4698555
HINF  004.93 316.8 m E Sn      2011/05/22 04:27:48.7  -0.2                          T                  1  .20 Ml 2.5         4698603
VIVF  005.16 278.4 m E Pn      2011/05/22 04:26:58.8  -0.6                          T                                        4698552
CDF   005.17 323.8 m E Pn      2011/05/22 04:26:59.6   0.0                          T                                        4698557
CDF   005.17 323.8 m E Sn      2011/05/22 04:27:54.4  -0.3                          T                1.7  .27 Ml 2.8         4698602
HAU   005.30 315.8 m E Pn      2011/05/22 04:27:01.3  -0.1                          T                                        4698556
SMF   006.09 295.1 m E Pn      2011/05/22 04:27:11.6  -0.5                          T                                        4698553

.
EVENT     259535
    Date      Time       Latitude Longitude    Depth    Ndef Nsta Gap    Mag1  N    Mag2  N    Mag3  N   Author         ID
       rms   OT_Error      Smajor Sminor Az        Err   mdist  Mdist     Err        Err        Err      Quality

2011/05/22 08:04:44.5     42.9707   -1.2902      2.0      19    3 115  Ml 1.1  1  Md 1.0  2              js067245    259535

      0.09   +-  0.03        .5     .5  159.36 +-  0.0    0.13   1.20   +-         +-0.3                 m i ke

PYRENEES
Sta     Dist  EvAz     Phase      Date       Time     TRes  Azim  AzRes  Slow  SRes Def   SNR       Amp   Per   Mag1   Mag2       ID
SJPF  000.15 018.5 m E Pg      2011/05/22 08:04:47.7   0.1                          T                                        4698683
SJPF  000.15 018.5 m E Sg      2011/05/22 08:04:50.0   0.2                          T               10.5  .21        Md 1.3  4698684
ETSF  000.54 097.4 m E Pg      2011/05/22 08:04:54.7  -0.2                          T                                        4698687
ETSF  000.54 097.4 m E Sg      2011/05/22 08:05:02.0   0.0                          T                 .8  .22        Md  .8  4698688
EPF   001.20 086.6 m E Sg      2011/05/22 08:05:22.5   0.0                          T                 .3  .23 Ml 1.1         4698686

.
EVENT     259544
    Date      Time       Latitude Longitude    Depth    Ndef Nsta Gap    Mag1  N    Mag2  N    Mag3  N   Author         ID
       rms   OT_Error      Smajor Sminor Az        Err   mdist  Mdist     Err        Err        Err      Quality

2011/05/22 09:54:29.5     45.0125    7.2324      2.0      25    9 165  Ml 2.1  7  Md 2.1  1              js067245    259544

      0.40   +-  0.09       1.7    1.0   90.85 +-  0.0    0.14   1.82   +-0.3      +-                    m i ke

NORTHERN ITALY
Sta     Dist  EvAz     Phase      Date       Time     TRes  Azim  AzRes  Slow  SRes Def   SNR       Amp   Per   Mag1   Mag2       ID
MBDF  000.43 229.1 m E Pg      2011/05/22 09:54:38.0   0.0                          T                                        4698708
MBDF  000.43 229.1 m E Sg      2011/05/22 09:54:43.5  -0.3                          T               25.3  .22        Md 2.1  4698709
LPG   000.59 325.2 m E Pg      2011/05/22 09:54:40.9  -0.2                          T                                        4698702
LPG   000.59 325.2 m E Sg      2011/05/22 09:54:48.7  -0.2                          T               24.5  .20                4698703
LPL   000.62 325.2 m E Pg      2011/05/22 09:54:41.4   0.0                          T                                        4698704
LPL   000.62 325.2 m E Sg      2011/05/22 09:54:49.3  -0.2                          T               31.2  .30                4698705
ORIF  000.96 264.9 m E Pg      2011/05/22 09:54:47.8   0.1                          T                                        4698706
ORIF  000.96 264.9 m E Sg      2011/05/22 09:55:00.5   0.2                          T                5.9  .24 Ml 2.2         4698707
SBF   001.16 172.7 m E Pg      2011/05/22 09:54:51.4   0.1                          T                                        4698721
SBF   001.16 172.7 m E Sg      2011/05/22 09:55:06.2  -0.1                          T                5.7  .30 Ml 2.2         4698722
FRF   001.51 196.4 m E Pg      2011/05/22 09:54:56.6  -1.1                          T                                        4698700
FRF   001.51 196.4 m E Sg      2011/05/22 09:55:17.0  -0.2                          T                2.6  .16 Ml 2.3         4698701
SMRF  001.57 229.4 m E Pg      2011/05/22 09:54:59.0   0.0                          T                                        4698724
SMRF  001.57 229.4 m E Sg      2011/05/22 09:55:19.2  -0.1                          T                1.0  .31 Ml 1.6         4698725
VIVF  001.82 266.0 m E Pn      2011/05/22 09:55:00.2   0.0                          T                                        4698719
VIVF  001.82 266.0 m E Pg      2011/05/22 09:55:03.5   0.0                          T                                        4698718
VIVF  001.82 266.0 m E Sg      2011/05/22 09:55:27.1   0.1                          T                1.1  .24 Ml 1.8         4698723
LMR   001.76 197.5 m E Pg      2011/05/22 09:55:02.0  -0.1                          T                                        4698720
LMR   001.76 197.5 m E Sg      2011/05/22 09:55:25.3   0.4                          T                2.8  .22 Ml 2.3         4698699

.
EVENT     259537
    Date      Time       Latitude Longitude    Depth    Ndef Nsta Gap    Mag1  N    Mag2  N    Mag3  N   Author         ID
       rms   OT_Error      Smajor Sminor Az        Err   mdist  Mdist     Err        Err        Err      Quality

2011/05/22 10:31:13.4     42.9824   -1.2783      2.0      40    7 052  Ml 2.1  5  Md 2.4  2              js067245    259537

      0.47   +-  0.08       1.4    1.1  105.23 +-  0.0    0.14   3.10   +-0.2      +-0.1                 m i ke

PYRENEES
Sta     Dist  EvAz     Phase      Date       Time     TRes  Azim  AzRes  Slow  SRes Def   SNR       Amp   Per   Mag1   Mag2       ID
SJPF  000.14 016.6 m E Pg      2011/05/22 10:31:16.6   0.3                          T                                        4698747
SJPF  000.14 016.6 m E Sg      2011/05/22 10:31:18.8   0.5                          T              320.4  .22        Md 2.3  4698748
ETSF  000.53 098.8 m E Pg      2011/05/22 10:31:23.1  -0.6                          T                                        4698745
ETSF  000.53 098.8 m E Sg      2011/05/22 10:31:30.8   0.1                          T               19.4  .24        Md 2.5  4698746
EPF   001.19 087.1 m E Pg      2011/05/22 10:31:35.1  -0.6                          T                                        4698743
EPF   001.19 087.1 m E Sg      2011/05/22 10:31:51.3   0.2                          T               10.6  .32 Ml 2.4         4698744
MTLF  002.58 080.8 m E Pn      2011/05/22 10:31:54.3  -0.1                          T                                        4698741
MTLF  002.58 080.8 m E Pg      2011/05/22 10:32:01.2  -0.2                          T                                        4698740
MTLF  002.58 080.8 m E Sg      2011/05/22 10:32:34.4  -0.1                          T                  1  .23 Ml 2.0         4698742
LFF   002.44 036.0 m E Pg      2011/05/22 10:31:58.5  -0.2                          T                                        4698735
LFF   002.44 036.0 m E Sg      2011/05/22 10:32:30.3   0.2                          T                4.2  .36 Ml 2.2         4698738
RJF   003.07 040.0 m E Pg      2011/05/22 10:32:10.5   0.2                          T                                        4698736
RJF   003.07 040.0 m E Sg      2011/05/22 10:32:49.9   0.1                          T                1.7  .28 Ml 1.9         4698737
CAF   003.10 050.0 m E Pg      2011/05/22 10:32:11.0   0.1                          T                                        4698734
CAF   003.10 050.0 m E Sg      2011/05/22 10:32:50.6  -0.1                          T                1.2  .25 Ml 2.1         4698739

.
