BEGIN GSE2.0
MSG_TYPE DATA
MSG_ID 26-JAN-1216:28:40  FRA_NDC
E-MAIL
DATA_TYPE BULLETIN
Reviewed Bulletin (REB) # P2012-003  from French NDC for regional phases     PERIOD 18 JAN 2012 TO 24 JAN 2012 J-P Santoire
EVENT     268731
    Date      Time       Latitude Longitude    Depth    Ndef Nsta Gap    Mag1  N    Mag2  N    Mag3  N   Author         ID
       rms   OT_Error      Smajor Sminor Az        Err   mdist  Mdist     Err        Err        Err      Quality

2012/01/18 04:36:26.7     49.6448    8.6285      7.0 f    18    6 054  Ml 2.4  6  Md 2.4  1              js067245    268751

      0.46   +-  0.08       1.4    1.3  169.99 +-  0.0    0.12   2.77   +-0.2      +-                    m i ke

GERMANY
Sta     Dist  EvAz     Phase      Date       Time     TRes  Azim  AzRes  Slow  SRes Def   SNR       Amp   Per   Mag1   Mag2       ID
LANF  000.86 219.3 m E Pg      2012/01/18 04:36:42.8   0.0                          T                                        4819752
LANF  000.86 219.3 m E Pn      2012/01/18 04:36:43.7   0.0                          T                                        4819761
LANF  000.86 219.3 m E Sg      2012/01/18 04:36:54.2   0.1                          T               13.1  .28 Ml 2.4 Md 2.4  4819762
HINF  002.17 213.4 m E Pg      2012/01/18 04:37:07.4   0.2                          T                                        4819755
HINF  002.17 213.4 m E Sg      2012/01/18 04:37:35.2   0.0                          T                5.2  .22 Ml 2.6         4819757
HAU   002.23 223.4 m E Pg      2012/01/18 04:37:07.6  -0.5                          T                                        4819756
HAU   002.23 223.4 m E Sg      2012/01/18 04:37:36.7  -0.2                          T                5.5  .24 Ml 2.4         4819758
THEF  002.24 231.8 m E Pg      2012/01/18 04:37:07.7  -0.7                          T                                        4819754
THEF  002.24 231.8 m E Sg      2012/01/18 04:37:36.6  -0.7                          T                4.5  .24 Ml 2.5         4819760
MEZF  002.62 245.4 m E Sg      2012/01/18 04:37:48.8  -0.1                          T                1.7  .26 Ml 2.2         4819753
SFTF  002.77 240.0 m E Sg      2012/01/18 04:37:54.3   0.6                          T                1.8  .22 Ml 2.3         4819759

.
EVENT     268812
    Date      Time       Latitude Longitude    Depth    Ndef Nsta Gap    Mag1  N    Mag2  N    Mag3  N   Author         ID
       rms   OT_Error      Smajor Sminor Az        Err   mdist  Mdist     Err        Err        Err      Quality

2012/01/18 16:55:11.8     49.7875     .2143     15.0      15    6 255  Ml 2.1  4                         js067245    268832

      0.80   +-  0.44       8.8    6.5  174.42 +-  0.0    1.12   3.50   +-0.1                            m i ke

FRANCE
Sta     Dist  EvAz     Phase      Date       Time     TRes  Azim  AzRes  Slow  SRes Def   SNR       Amp   Per   Mag1   Mag2       ID
FLN   001.12 204.2 m E Pn      2012/01/18 16:55:31.5   0.1                          T                                        4820193
FLN   001.12 204.2 m E P       2012/01/18 16:55:32.9  -0.2  20.0  -3.7              T                                        4820202
FLN   001.12 204.2 m E Sg      2012/01/18 16:55:47.4  -0.2  21.9  -1.8              T                5.6  .25 Ml 2.1         4820203
LDF   001.22 190.6 m E Pn      2012/01/18 16:55:32.9   0.2                          T                                        4820200
LDF   001.22 190.6 m E Pg      2012/01/18 16:55:33.9  -0.7                          T                                        4820189
LDF   001.22 190.6 m E Sg      2012/01/18 16:55:52.0   1.6                          T                4.8  .29 Ml 2.1         4820201
GRR   001.57 207.1 m E Pn      2012/01/18 16:55:37.5   0.0                          T                                        4820198
GRR   001.57 207.1 m E Pg      2012/01/18 16:55:39.6  -1.5                          T                                        4820190
GRR   001.57 207.1 m E Sg      2012/01/18 16:56:00.7  -0.7                          T                3.4  .17 Ml 2.2         4820199
ROSF  002.71 239.0 m E P       2012/01/18 16:55:54.6  -1.3                          T                                        4820194
ROSF  002.71 239.0 m E Sn      2012/01/18 16:56:24.5   0.8                          T                1.4  .23 Ml 2.1         4820192
QUIF  002.91 231.3 m E Pn      2012/01/18 16:55:55.1  -0.7                          T                                        4820191
LOR   003.50 134.8 m E Pn      2012/01/18 16:56:04.1   0.3                          T                                        4820195

.
EVENT     268813
    Date      Time       Latitude Longitude    Depth    Ndef Nsta Gap    Mag1  N    Mag2  N    Mag3  N   Author         ID
       rms   OT_Error      Smajor Sminor Az        Err   mdist  Mdist     Err        Err        Err      Quality

2012/01/18 18:26:13.2     46.3138    8.9597       .0 f    14    8 267  Ml 2.5  6                         js067245    268833

      0.31   +-  0.32       5.8    2.9   94.28 +-  0.0    1.74   4.24   +-0.1                            m i km

SWITZERLAND
Sta     Dist  EvAz     Phase      Date       Time     TRes  Azim  AzRes  Slow  SRes Def   SNR       Amp   Per   Mag1   Mag2       ID
LPL   001.75 243.6 m E Pg      2012/01/18 18:26:46.0  -0.2                          T                                        4820210
LPL   001.75 243.6 m E Sg      2012/01/18 18:27:09.3   0.3                          T               20.6 1.12 Ml 2.4         4820211
LPG   001.74 242.9 m E Pg      2012/01/18 18:26:46.0  -0.3                          T                                        4820212
LPG   001.74 242.9 m E Sg      2012/01/18 18:27:08.4  -0.6                          T               22.7  .98 Ml 2.5         4820213
CABF  002.01 279.6 m E Pg      2012/01/18 18:26:50.9   0.0                          T                                        4820235
CABF  002.01 279.6 m E Sg      2012/01/18 18:27:17.1   0.1                          T                6.9  .59 Ml 2.3         4820236
HINF  002.08 317.0 m E Pg      2012/01/18 18:26:52.2   0.0                          T                                        4820204
HINF  002.08 317.0 m E Sg      2012/01/18 18:27:19.5   0.3                          T               23.9 1.26 Ml 2.5         4820205
MBDF  002.21 224.9 m E Pg      2012/01/18 18:26:55.2   0.5                          T                                        4820206
MBDF  002.21 224.9 m E Sg      2012/01/18 18:27:23.6   0.3                          T               14.2  .88 Ml 2.5         4820207
ORIF  002.57 238.3 m E Pg      2012/01/18 18:27:01.0  -0.3                          T                                        4820208
ORIF  002.57 238.3 m E Sg      2012/01/18 18:27:35.1   0.5                          T               14.9  .86 Ml 2.6         4820209
VIVF  003.34 245.7 m E Pn      2012/01/18 18:27:05.4   0.3                          T                                        4820234
LASF  004.24 240.0 m E Pn      2012/01/18 18:27:17.0  -0.3                          T                                        4820233

.
