EVENT     292886
    Date      Time       Latitude Longitude    Depth    Ndef Nsta Gap    Mag1  N    Mag2  N    Mag3  N   Author         ID
       rms   OT_Error      Smajor Sminor Az        Err   mdist  Mdist     Err        Err        Err      Quality

2013/03/01 11:33:06.7     48.2096    7.4219     14.4      28   10 047  Ml 2.1  5  Md 2.1  1              bulletin    292986
                                                                                                         _ldg
      0.27   +-  0.04        .9     .7  170.50 +-  0.5    0.18   2.89   +-0.3      +-                    m i ke

FRANCE
Sta     Dist  EvAz     Phase      Date       Time     TRes  Azim  AzRes  Slow  SRes Def   SNR       Amp   Per   Mag1   Mag2       ID
CDF   000.22 334.4 m E Pg      2013/03/01 11:33:11.8  -0.1                          T                                        5213521
CDF   000.22 334.4 m E Sg      2013/03/01 11:33:15.0  -0.4                          T               15.2  .28        Md 2.1  5213518
HINF  000.55 224.4 m E Pg      2013/03/01 11:33:17.4   0.0                          T                                        5213520
HINF  000.55 224.4 m E Sg      2013/03/01 11:33:24.8  -0.1                          T                4.2  .14                5213517
HAU   000.75 254.6 m E Pg      2013/03/01 11:33:21.4   0.4                          T                                        5213519
HAU   000.75 254.6 m E Sg      2013/03/01 11:33:31.3   0.4                          T               11.7  .32                5213516
THEF  000.96 271.6 m E Pg      2013/03/01 11:33:25.2   0.4                          T                                        5213609
PAGF  001.18 287.6 m E Pn      2013/03/01 11:33:27.1  -0.1 107.3  0.9               T                                        5213528
PAGF  001.18 287.6 m E Sn      2013/03/01 11:33:42.3   0.1                          T                9.3  .24 Ml 2.5         5213524
SFTF  001.59 270.7 m E Pn      2013/03/01 11:33:32.8   0.0                          T                                        5213527
SFTF  001.59 270.7 m E Sn      2013/03/01 11:33:51.9   0.0                          T                3.7  .17 Ml 2.4         5213523
CABF  001.84 210.0 m E Pn      2013/03/01 11:33:36.1  -0.2                          T                                        5213526
CABF  001.84 210.0 m E Sn      2013/03/01 11:33:57.9   0.0                          T                 .8  .20 Ml 1.8         5213522
LOR   002.58 249.9 m E Pn      2013/03/01 11:33:46.3   0.0                          T                                        5213530
LOR   002.58 249.9 m E Sn      2013/03/01 11:34:15.7   0.1                          T                1.7  .31 Ml 2.1         5213525
BAIF  002.81 312.5 m E Pn      2013/03/01 11:33:49.1  -0.2                          T                                        5213529
SSF   002.89 248.0 m E Pn      2013/03/01 11:33:50.2  -0.2                          T                                        5213531

.
EVENT     292901
    Date      Time       Latitude Longitude    Depth    Ndef Nsta Gap    Mag1  N    Mag2  N    Mag3  N   Author         ID
       rms   OT_Error      Smajor Sminor Az        Err   mdist  Mdist     Err        Err        Err      Quality

2013/03/01 12:55:34.8     42.6533   -1.5799      2.0       6    3 315  Ml 2.0  1  Md 1.9  2              bulletin    293001
                                                                                                         _ldg
      0.26   +-  0.55       9.9    6.1   46.40 +-  0.0    0.53   1.46   +-         +-0.1                 m i ke

PYRENEES
Sta     Dist  EvAz     Phase      Date       Time     TRes  Azim  AzRes  Slow  SRes Def   SNR       Amp   Per   Mag1   Mag2       ID
SJPF  000.53 029.5 m E Pg      2013/03/01 12:55:45.0   0.1                          T                                        5213624
SJPF  000.53 029.5 m E Sg      2013/03/01 12:55:51.7  -0.2                          T                1.9  .20        Md 1.8  5213623
ETSF  000.79 071.6 m E Pg      2013/03/01 12:55:49.6  -0.2                          T                                        5213622
ETSF  000.79 071.6 m E Sg      2013/03/01 12:56:00.6   0.5                          T                1.4  .29        Md 1.9  5213621
EPF   001.46 074.4 m E Pg      2013/03/01 12:56:02.3   0.2                          T                                        5213620
EPF   001.46 074.4 m E Sg      2013/03/01 12:56:20.7  -0.3                          T                2.3  .23 Ml 2.0         5213619

.
EVENT     292906
    Date      Time       Latitude Longitude    Depth    Ndef Nsta Gap    Mag1  N    Mag2  N    Mag3  N   Author         ID
       rms   OT_Error      Smajor Sminor Az        Err   mdist  Mdist     Err        Err        Err      Quality

2013/03/01 15:42:53.4     47.6327    6.2215       .0 f    24   10 118  Ml 1.9  8  Md 2.0  2              bulletin    293006
                                                                                                         _ldg
      0.37   +-  0.06       1.2     .9  137.24 +-  0.0    0.38   2.77   +-0.2      +-0.1                 m i km

FRANCE
Sta     Dist  EvAz     Phase      Date       Time     TRes  Azim  AzRes  Slow  SRes Def   SNR       Amp   Per   Mag1   Mag2       ID
HAU   000.38 012.8 m E Pg      2013/03/01 15:43:01.3   0.2                          T                                        5213665
HAU   000.38 012.8 m E Sg      2013/03/01 15:43:06.6   0.3                          T                6.9  .28        Md 2.0  5213664
HINF  000.46 066.4 m E Pg      2013/03/01 15:43:02.4  -0.2                          T                                        5213662
HINF  000.46 066.4 m E Sg      2013/03/01 15:43:09.2   0.2                          T                3.5  .29        Md 1.9  5213682
SFTF  000.98 306.2 m E Pg      2013/03/01 15:43:11.9  -0.2 125.1  -0.2              T                                        5213679
SFTF  000.98 306.2 m E Sg      2013/03/01 15:43:25.4   0.4                          T                2.6  .25 Ml 1.8         5213678
PAGF  000.98 340.4 m E Pg      2013/03/01 15:43:12.3   0.2 161.7  1.7               T                                        5213675
PAGF  000.98 340.4 m E Sg      2013/03/01 15:43:25.1   0.1                          T                3.7  .28 Ml 1.9         5213674
CABF  001.03 185.2 m E Pg      2013/03/01 15:43:13.1   0.0                          T                                        5213681
CABF  001.03 185.2 m E Sg      2013/03/01 15:43:26.5   0.0                          T                1.5  .18 Ml 1.7         5213680
CDF   001.05 041.8 m E Pg      2013/03/01 15:43:13.6   0.1                          T                                        5213663
CDF   001.05 041.8 m E Sg      2013/03/01 15:43:27.3  -0.1                          T                3.7  .34 Ml 2.0         5213673
MEZF  001.17 318.4 m E Pg      2013/03/01 15:43:15.3  -0.2 139.5  1.9               T                                        5213677
MEZF  001.17 318.4 m E Sg      2013/03/01 15:43:30.9   0.0                          T                1.6  .19 Ml 1.8         5213676
LOR   001.64 258.1 m E Pn      2013/03/01 15:43:22.2   0.1  79.2  2.9               T                                        5213670
LOR   001.64 258.1 m E Sn      2013/03/01 15:43:43.0   0.2                          T                                        5213669
LOR   001.64 258.1 m E Sg      2013/03/01 15:43:46.1   0.4                          T                1.3  .22 Ml 1.9         5213668
SSF   001.93 253.8 m E Pn      2013/03/01 15:43:25.8  -0.2                          T                                        5213667
SSF   001.93 253.8 m E Sn      2013/03/01 15:43:49.8   0.2                          T                  1  .33 Ml 1.7         5213666
BAIF  002.77 332.0 m E Pn      2013/03/01 15:43:37.1  -0.2                          T                                        5213672
BAIF  002.77 332.0 m E Sn      2013/03/01 15:44:08.7  -0.9                          T                2.7  .39 Ml 2.2         5213671

.
EVENT     292907
    Date      Time       Latitude Longitude    Depth    Ndef Nsta Gap    Mag1  N    Mag2  N    Mag3  N   Author         ID
       rms   OT_Error      Smajor Sminor Az        Err   mdist  Mdist     Err        Err        Err      Quality

2013/03/01 17:02:16.7     43.1968    -.5917      2.0      13    5 128  Ml 1.5  3  Md 1.4  3              bulletin    293007
                                                                                                         _ldg
      0.92   +-  0.15       3.8    2.5  161.42 +-  0.0    0.30   2.06   +-0.3      +-0.2                 m i ke

PYRENEES
Sta     Dist  EvAz     Phase      Date       Time     TRes  Azim  AzRes  Slow  SRes Def   SNR       Amp   Per   Mag1   Mag2       ID
ETSF  000.30 175.4 m E Pg      2013/03/01 17:02:22.9   0.2                          T                                        5213689
ETSF  000.30 175.4 m E Sg      2013/03/01 17:02:25.9  -0.8                          T                3.1  .16        Md 1.4  5213688
SJPF  000.47 260.0 m E Pg      2013/03/01 17:02:25.9   0.2                          T                                        5213687
SJPF  000.47 260.0 m E Sg      2013/03/01 17:02:31.1  -0.9                          T                1.4  .18        Md 1.5  5213686
EPF   000.70 103.4 m E Pg      2013/03/01 17:02:29.8  -0.3                          T                                        5213691
EPF   000.70 103.4 m E Sg      2013/03/01 17:02:39.6   0.4                          T                 .7  .24        Md 1.2  5213690
LFF   001.99 028.4 m E Pn      2013/03/01 17:02:49.3  -0.2                          T                                        5213693
LFF   001.99 028.4 m E Sg      2013/03/01 17:03:19.4   0.1                          T                1.1  .21 Ml 1.8         5213692
MTLF  002.06 085.0 m E Pn      2013/03/01 17:02:50.8   0.3                          T                                        5213695
MTLF  002.06 085.0 m E Sg      2013/03/01 17:03:21.2  -0.2                          T                 .2  .17 Ml 1.4         5213694

.
EVENT     292910
    Date      Time       Latitude Longitude    Depth    Ndef Nsta Gap    Mag1  N    Mag2  N    Mag3  N   Author         ID
       rms   OT_Error      Smajor Sminor Az        Err   mdist  Mdist     Err        Err        Err      Quality

2013/03/01 18:28:28.6     43.9828    2.7948      7.0 f    28   11 130  Ml 1.5  9  Md 1.8  2              bulletin    293010
                                                                                                         _ldg
      0.83   +-  0.09       2.1    1.4  123.20 +-  0.0    0.77   3.34   +-0.3      +-0.1                 m i ke

FRANCE
Sta     Dist  EvAz     Phase      Date       Time     TRes  Azim  AzRes  Slow  SRes Def   SNR       Amp   Per   Mag1   Mag2       ID
LASF  000.77 082.7 m E Pg      2013/03/01 18:28:43.1  -0.1                          T                                        5213741
LASF  000.77 082.7 m E Sg      2013/03/01 18:28:52.9  -0.5                          T                4.2  .21        Md 1.8  5213742
MTLF  000.77 213.3 m E Pg      2013/03/01 18:28:43.3   0.1                          T                                        5213744
MTLF  000.77 213.3 m E Sg      2013/03/01 18:28:52.7  -0.5                          T                1.2  .18        Md 1.9  5213743
CAF   001.08 331.2 m E Pg      2013/03/01 18:28:49.1   0.2                          T                                        5213738
CAF   001.08 331.2 m E Sg      2013/03/01 18:29:03.2   0.3                          T                1.5  .17 Ml 1.8         5213737
RJF   001.61 325.8 m E Pg      2013/03/01 18:28:58.6   0.0                          T                                        5213746
RJF   001.61 325.8 m E Sg      2013/03/01 18:29:19.2  -0.2                          T                 .9  .21 Ml 1.4         5213745
VIVF  001.60 056.4 m E Pg      2013/03/01 18:28:59.2   0.6                          T                                        5213740
VIVF  001.60 056.4 m E Sg      2013/03/01 18:29:18.9  -0.4                          T                 .4  .20 Ml 1.4         5213739
TCF   002.34 350.0 m E Pn      2013/03/01 18:29:05.7  -0.1                          T                                        5213915
TCF   002.34 350.0 m E Sg      2013/03/01 18:29:42.1  -0.3                          T                 .1  .14 Ml 1.2         5213914
EPF   002.02 242.8 m E Pg      2013/03/01 18:29:06.6   0.3                          T                                        5213749
EPF   002.02 242.8 m E Sg      2013/03/01 18:29:31.2  -1.3                          T                 .4  .19 Ml 1.6         5213750
ETSF  002.67 247.2 m E Pn      2013/03/01 18:29:09.9  -0.5                          T                                        5213918
ETSF  002.67 247.2 m E Sn      2013/03/01 18:29:42.1   1.1                          T                                        5213917
ETSF  002.67 247.2 m E Sg      2013/03/01 18:29:52.6  -0.1                          T                 .1  .18 Ml 1.2         5213916
AVF   002.84 007.8 m E Pn      2013/03/01 18:29:12.3  -0.2                          T                                        5213909
AVF   002.84 007.8 m E Pg      2013/03/01 18:29:21.0  -0.2                          T                                        5213908
AVF   002.84 007.8 m E Sg      2013/03/01 18:29:57.6   0.0                          T                 .1  .19 Ml 1.3         5213910
SSF   003.12 009.0 m E Pn      2013/03/01 18:29:16.6   0.3                          T                                        5213913
SSF   003.12 009.0 m E Sn      2013/03/01 18:29:51.3  -0.4                          T                                        5213912
SSF   003.12 009.0 m E Sg      2013/03/01 18:30:06.3  -0.2                          T                 .3  .19 Ml 1.8         5213911
MFF   003.34 322.6 m E Pn      2013/03/01 18:29:19.5   0.1                          T                                        5213921
MFF   003.34 322.6 m E Pg      2013/03/01 18:29:30.5   0.0                          T                                        5213920
MFF   003.34 322.6 m E Sg      2013/03/01 18:30:13.3  -0.2                          T                 .7  .25 Ml 2.1         5213919

.
