BEGIN GSE2.0
MSG_TYPE DATA
MSG_ID 20-NOV-1213:05:35  FRA_NDC
E-MAIL
DATA_TYPE BULLETIN
Reviewed Bulletin (REB) # P2012-045  from French NDC for regional phases     PERIOD 07 NOV 2012 TO 13 NOV 2012 Cenalt JP S
EVENT     286395
    Date      Time       Latitude Longitude    Depth    Ndef Nsta Gap    Mag1  N    Mag2  N    Mag3  N   Author         ID
       rms   OT_Error      Smajor Sminor Az        Err   mdist  Mdist     Err        Err        Err      Quality

2012/11/07 00:49:55.7     46.1447    2.7781      2.0      17    9 100  Ml 1.6  6  Md 1.7  2              bulletin    286495
                                                                                                         _ldg
      0.23   +-  0.07       1.9    1.1  122.27 +-  0.0    0.03   1.87   +-0.3      +-0.2                 m i ke

FRANCE
Sta     Dist  EvAz     Phase      Date       Time     TRes  Azim  AzRes  Slow  SRes Def   SNR       Amp   Per   Mag1   Mag2       ID
TCF   000.42 290.2 m E Pg      2012/11/07 00:50:03.7  -0.2                          T                                        5120502
TCF   000.42 290.2 m E Sg      2012/11/07 00:50:09.3  -0.1                          T                1.2  .29        Md 1.6  5120503
SSF   001.05 028.4 m E Pg      2012/11/07 00:50:15.0  -0.4                          T                                        5120499
SSF   001.05 028.4 m E Pn      2012/11/07 00:50:16.1   0.3                          T                                        5120500
SSF   001.05 028.4 m E Sg      2012/11/07 00:50:28.7  -0.2                          T                 .6  .18 Ml 1.5         5120501
HYF   001.13 355.2 m E Pg      2012/11/07 00:50:16.0  -0.8                          T                                        5120817
HYF   001.13 355.2 m E Sg      2012/11/07 00:50:31.7   0.2                          T                                        5120816
RJF   001.22 226.9 m E Pn      2012/11/07 00:50:18.5   0.3                          T                                        5120508
RJF   001.22 226.9 m E Sg      2012/11/07 00:50:34.3   0.0                          T                1.9  .23 Ml 1.5         5120512
AVF   000.76 031.4 m E Sg      2012/11/07 00:50:19.6  -0.3                          T                                        5120513
CAF   001.32 202.6 m E Pg      2012/11/07 00:50:20.3  -0.1                          T                                        5120509
CAF   001.32 202.6 m E Sg      2012/11/07 00:50:37.4  -0.1                          T                3.2  .20 Ml 2.2         5120510
LOR   001.35 033.1 m E Pn      2012/11/07 00:50:20.6   0.7                          T                                        5120497
LOR   001.35 033.1 m E Pg      2012/11/07 00:50:21.2   0.3                          T                                        5120514
LOR   001.35 033.1 m E Sg      2012/11/07 00:50:38.3  -0.1                          T                 .3  .16 Ml 1.2         5120498
VIVF  001.85 133.4 m E Sg      2012/11/07 00:50:53.8  -0.3                          T                 .3  .19 Ml 1.4         5120507
LFF   001.87 230.6 m E Sg      2012/11/07 00:50:54.5  -0.1                          T                 .9  .21 Ml 1.6         5120511

.
EVENT     286461
    Date      Time       Latitude Longitude    Depth    Ndef Nsta Gap    Mag1  N    Mag2  N    Mag3  N   Author         ID
       rms   OT_Error      Smajor Sminor Az        Err   mdist  Mdist     Err        Err        Err      Quality

2012/11/07 04:59:04.0     40.5957    1.4623     21.0 f    48    4 088  Ml 2.0  4                         bulletin    286561
                                                                                                         _ldg
      0.53   +-  0.12       2.1    1.7  151.84 +-  0.0    0.14   3.43   +-0.2                            m i ke

BALEARIC ISLANDS, SPAIN
Sta     Dist  EvAz     Phase      Date       Time     TRes  Azim  AzRes  Slow  SRes Def   SNR       Amp   Per   Mag1   Mag2       ID
EPF   002.57 341.3 m E Pn      2012/11/07 04:59:43.1   0.4                          T                                        5111807
EPF   002.57 341.3 m E Pg      2012/11/07 04:59:52.3   0.4                          T                                        5111806
EPF   002.57 341.3 m E Sn      2012/11/07 05:00:11.5   0.0                          T                                        5111804
EPF   002.57 341.3 m E Sg      2012/11/07 05:00:24.5  -0.5                          T                1.3  .18 Ml 2.2         5111805
ETSF  002.75 327.3 m E Pn      2012/11/07 04:59:45.2   0.0                          T                                        5111803
ETSF  002.75 327.3 m E Pg      2012/11/07 04:59:55.5   0.3                          T                                        5111802
ETSF  002.75 327.3 m E Sn      2012/11/07 05:00:16.0   0.2                          T                                        5111800
ETSF  002.75 327.3 m E Sg      2012/11/07 05:00:31.4   0.6                          T                1.2  .22 Ml 2.1         5111801
MTLF  002.80 011.4 m E Pg      2012/11/07 04:59:54.7  -1.4                          T                                        5111815
MTLF  002.80 011.4 m E Sg      2012/11/07 05:00:31.9  -0.2                          T                 .5  .22 Ml 1.7         5111814
SJPF  003.22 322.3 m E Sg      2012/11/07 05:00:45.2   0.0                          T                 .7  .22 Ml 2.0         5120518

.
EVENT     286506
    Date      Time       Latitude Longitude    Depth    Ndef Nsta Gap    Mag1  N    Mag2  N    Mag3  N   Author         ID
       rms   OT_Error      Smajor Sminor Az        Err   mdist  Mdist     Err        Err        Err      Quality

2012/11/07 06:13:23.4     48.5957   -4.4597     12.0 f    13    7 317  Ml 2.4  6  Md 2.0  2              bulletin    286606
                                                                                                         _ldg
      0.76   +-  0.42       6.0    5.1  140.12 +-  0.0    0.83   3.54   +-0.1      +-0.1                 m i ke

FRANCE
Sta     Dist  EvAz     Phase      Date       Time     TRes  Azim  AzRes  Slow  SRes Def   SNR       Amp   Per   Mag1   Mag2       ID
ROSF  000.83 107.8 m E Pg      2012/11/07 06:13:39.2   0.0                          T                                        5120525
ROSF  000.83 107.8 m E Sg      2012/11/07 06:13:50.5   0.4                          T                8.5  .20        Md 2.0  5120526
QUIF  001.10 127.7 m E Pg      2012/11/07 06:13:43.8  -0.3                          T                                        5120521
QUIF  001.10 127.7 m E Sg      2012/11/07 06:13:57.5  -0.8                          T                9.5  .20 Ml 2.5 Md 2.1  5120522
SGMF  001.31 104.4 m E Pg      2012/11/07 06:13:48.1   0.1                          T                                        5120523
SGMF  001.31 104.4 m E Sg      2012/11/07 06:14:04.5  -0.5                          T                7.8  .30 Ml 2.4         5120524
GRR   002.40 093.6 m E Pg      2012/11/07 06:14:08.2   0.2                          T                                        5120531
GRR   002.40 093.6 m E Sg      2012/11/07 06:14:39.2   0.2                          T                3.4  .24 Ml 2.3         5120528
FLN   002.64 084.9 m E Sg      2012/11/07 06:14:46.4   0.0                          T                3.4  .34 Ml 2.2         5120527
LDF   002.88 088.4 m E Sg      2012/11/07 06:14:53.8   0.0                          T                1.5  .17 Ml 2.3         5120530
MFF   003.54 122.7 m E Sg      2012/11/07 06:15:14.4   0.1                          T                1.4  .20 Ml 2.6         5120529

.
EVENT     286408
    Date      Time       Latitude Longitude    Depth    Ndef Nsta Gap    Mag1  N    Mag2  N    Mag3  N   Author         ID
       rms   OT_Error      Smajor Sminor Az        Err   mdist  Mdist     Err        Err        Err      Quality

2012/11/07 10:26:39.8     47.3338    4.9606       .0 f    13    6 227  Ml 2.0  5  Md 1.9  2              bulletin    286508
                                                                                                         _ldg
      0.58   +-  0.19       4.3    1.6   11.87 +-  0.0    0.75   1.64   +-0.4      +-0.0                 m i km

FRANCE
Sta     Dist  EvAz     Phase      Date       Time     TRes  Azim  AzRes  Slow  SRes Def   SNR       Amp   Per   Mag1   Mag2       ID
LOR   000.75 265.4 m E Pg      2012/11/07 10:26:54.6   0.3  79.1  -5.5              T                                        5111715
LOR   000.75 265.4 m E Sg      2012/11/07 10:27:04.2  -0.1                          T                                        5120536
LOR   000.75 265.4 m E Sn      2012/11/07 10:27:07.9   0.0                          T                9.6  .24        Md 1.9  5111714
SMF   001.03 228.5 m E Pg      2012/11/07 10:26:59.3  -0.1                          T                                        5111719
SMF   001.03 228.5 m E Sg      2012/11/07 10:27:12.5  -0.5                          T                4.2  .19 Ml 2.2 Md 1.9  5111717
SSF   001.03 255.2 m E Pg      2012/11/07 10:26:59.4   0.1                          T                                        5111713
SSF   001.03 255.2 m E Sg      2012/11/07 10:27:12.9   0.0                          T                4.3  .21 Ml 2.2         5111712
CABF  001.06 132.7 m E Pg      2012/11/07 10:26:59.9  -0.1                          T                                        5120535
CABF  001.06 132.7 m E Sg      2012/11/07 10:27:14.0   0.0                          T                 .5  .17 Ml 1.3         5120534
AVF   001.23 244.3 m E Pg      2012/11/07 10:27:03.0   0.0                          T                                        5111718
AVF   001.23 244.3 m E Sg      2012/11/07 10:27:18.9  -0.1                          T                2.1  .18 Ml 2.0         5111716
BGF   001.64 242.6 m E Pg      2012/11/07 10:27:10.6   0.0                          T                                        5120533
BGF   001.64 242.6 m E Sg      2012/11/07 10:27:32.0  -0.1                          T                2.3  .23 Ml 2.1         5120532

.
EVENT     286874
    Date      Time       Latitude Longitude    Depth    Ndef Nsta Gap    Mag1  N    Mag2  N    Mag3  N   Author         ID
       rms   OT_Error      Smajor Sminor Az        Err   mdist  Mdist     Err        Err        Err      Quality

2012/11/07 16:21:37.6     42.9363     .7012       .0 f    10    1 144             Md 1.6  1              bulletin    286974
                                                                                                         _ldg
      0.26   +-  0.09       2.7    1.4   35.05 +-  0.0    0.24   0.61              +-                    m i km

PYRENEES
Sta     Dist  EvAz     Phase      Date       Time     TRes  Azim  AzRes  Slow  SRes Def   SNR       Amp   Per   Mag1   Mag2       ID
EPF   000.28 289.6 m E Pg      2012/11/07 16:21:43.2  -0.3                          T                                        5120537
EPF   000.28 289.6 m E Sg      2012/11/07 16:21:47.7   0.2                          T               15.6  .26        Md 1.6  5120538

.
EVENT     286573
    Date      Time       Latitude Longitude    Depth    Ndef Nsta Gap    Mag1  N    Mag2  N    Mag3  N   Author         ID
       rms   OT_Error      Smajor Sminor Az        Err   mdist  Mdist     Err        Err        Err      Quality

2012/11/08 09:10:41.9     49.1864   -3.5437      7.0 f    46   17 144  Ml 3.3 11  Md 2.8  6              bulletin    286673
                                                                                                         _ldg
      0.49   +-  0.09       1.6    1.5   96.32 +-  0.0    0.87   6.72   +-0.2      +-0.1                 m i ke

NORTH ATLANTIC OCEAN
Sta     Dist  EvAz     Phase      Date       Time     TRes  Azim  AzRes  Slow  SRes Def   SNR       Amp   Per   Mag1   Mag2       ID
ROSF  000.87 168.0 m E Pg      2012/11/08 09:10:58.5   0.2                          T                                        5112863
ROSF  000.87 168.0 m E Sg      2012/11/08 09:11:09.3  -0.3                          T               83.3  .20 Ml 3.4 Md 2.7  5112862
SGMF  001.14 144.6 m E Pn      2012/11/08 09:11:02.9   0.2                          T                                        5120561
SGMF  001.14 144.6 m E Pg      2012/11/08 09:11:03.4   0.2                          T                                        5112858
SGMF  001.14 144.6 m E Sg      2012/11/08 09:11:17.2  -0.8                          T               60.3  .20 Ml 3.4 Md 2.7  5112861
QUIF  001.30 168.7 m E Pn      2012/11/08 09:11:04.9   0.1                          T                                        5112859
QUIF  001.30 168.7 m E Pg      2012/11/08 09:11:06.4   0.3                          T                                        5120560
QUIF  001.30 168.7 m E Sg      2012/11/08 09:11:22.3  -0.5                          T              129.5  .30 Ml 3.6 Md 2.8  5112860
GRR   001.95 113.2 m E Pn      2012/11/08 09:11:13.8   0.2                          T                                        5112868
GRR   001.95 113.2 m E Pg      2012/11/08 09:11:17.5  -0.6                          T                                        5120557
GRR   001.95 113.2 m E Sn      2012/11/08 09:11:37.4   0.5                          T               27.6  .17 Ml 3.3         5120544
GRR   001.95 113.2 m E Sg      2012/11/08 09:11:43.5   0.3                          T               30.5  .24 Ml 3.2 Md 2.9  5112865
FLN   002.06 100.7 m E Pn      2012/11/08 09:11:15.3   0.1 280.2  -2.8              T                                        5112866
FLN   002.06 100.7 m E Pg      2012/11/08 09:11:19.8  -0.4 279.5  -3.6              T                                        5120559
FLN   002.06 100.7 m E Sn      2012/11/08 09:11:39.9   0.3 278.3  -4.7              T                                        5120547
FLN   002.06 100.7 m E Sg      2012/11/08 09:11:47.1   0.3 283.0  -0.1              T               30.4  .26 Ml 3.1 Md 3.0  5112864
LDF   002.33 103.4 m E Pn      2012/11/08 09:11:19.3   0.4                          T                                        5112867
LDF   002.33 103.4 m E Pg      2012/11/08 09:11:24.7  -0.6                          T                                        5120558
LDF   002.33 103.4 m E Sn      2012/11/08 09:11:46.2   0.0                          T                                        5120545
LDF   002.33 103.4 m E Sg      2012/11/08 09:11:55.0  -0.3                          T               20.8  .28 Ml 3.1         5120546
MFF   003.45 137.2 m E Pn      2012/11/08 09:11:34.5   0.4                          T                                        5112872
MFF   003.45 137.2 m E Pg      2012/11/08 09:11:45.6  -0.2                          T                                        5120556
MFF   003.45 137.2 m E Sg      2012/11/08 09:12:30.1   0.0                          T               10.7  .29 Ml 3.3         5120543
TCF   004.84 124.6 m E Pn      2012/11/08 09:11:53.3   0.2                          T                                        5112871
BGF   005.04 119.0 m E Pn      2012/11/08 09:11:56.0   0.2                          T                                        5120550
LFF   005.16 143.8 m E Pn      2012/11/08 09:11:57.3  -0.1                          T                                        5120554
LFF   005.16 143.8 m E Sg      2012/11/08 09:13:23.6   0.2                          T               14.2  .48 Ml 3.2         5120542
RJF   005.19 136.5 m E Pn      2012/11/08 09:11:57.6  -0.3                          T                                        5120555
RJF   005.19 136.5 m E Sg      2012/11/08 09:13:24.4  -0.1                          T                7.9  .36 Ml 2.9         5120541
AVF   005.21 114.8 m E Pn      2012/11/08 09:11:58.6   0.4                          T                                        5112870
LOR   005.31 108.4 m E Pn      2012/11/08 09:11:59.5   0.1 282.5  -11.5             T                                        5120548
SMF   005.58 114.3 m E Pn      2012/11/08 09:12:02.9  -0.2                          T                                        5120549
SJPF  006.28 164.3 m E Pn      2012/11/08 09:12:12.7  -0.1                          T                                        5120553
ETSF  006.62 160.6 m E Pn      2012/11/08 09:12:17.2  -0.2                          T                                        5112869
EPF   006.72 154.9 m E Pn      2012/11/08 09:12:18.6  -0.1                          T                                        5120552

.
EVENT     286560
    Date      Time       Latitude Longitude    Depth    Ndef Nsta Gap    Mag1  N    Mag2  N    Mag3  N   Author         ID
       rms   OT_Error      Smajor Sminor Az        Err   mdist  Mdist     Err        Err        Err      Quality

2012/11/08 09:57:52.7     44.3147    7.4157       .0 f    24    8 174  Ml 2.2  5  Md 1.7  2              bulletin    286660
                                                                                                         _ldg
      0.68   +-  0.20       4.7    2.3   81.02 +-  0.0    0.10   1.37   +-0.2      +-0.0                 m i km

NORTHERN ITALY
Sta     Dist  EvAz     Phase      Date       Time     TRes  Azim  AzRes  Slow  SRes Def   SNR       Amp   Per   Mag1   Mag2       ID
SBF   000.45 178.2 m E Pg      2012/11/08 09:58:01.4  -0.3                          T                                        5113136
SBF   000.45 178.2 m E Sg      2012/11/08 09:58:07.4  -0.5                          T               27.3  .37        Md 1.7  5113127
MBDF  000.62 312.0 m E Pg      2012/11/08 09:58:04.8  -0.1                          T                                        5113133
MBDF  000.62 312.0 m E Sg      2012/11/08 09:58:13.7   0.5                          T               10.3  .36        Md 1.6  5113132
FRF   000.94 216.7 m E Pg      2012/11/08 09:58:10.6   0.0                          T                                        5113135
FRF   000.94 216.7 m E Sg      2012/11/08 09:58:23.1   0.2                          T                7.3  .30 Ml 2.2         5113134
LMR   001.18 214.1 m E Pg      2012/11/08 09:58:14.2  -0.8                          T                                        5113138
LMR   001.18 214.1 m E Sg      2012/11/08 09:58:30.8   0.3                          T               11.6  .28 Ml 2.5         5113137
ORIF  001.25 299.4 m E Pn      2012/11/08 09:58:16.9   0.8                          T                                        5113130
ORIF  001.25 299.4 m E Sn      2012/11/08 09:58:33.3   0.5                          T                                        5113129
LPG   001.27 338.5 m E Pn      2012/11/08 09:58:17.0   0.3                          T                                        5113124
LPL   001.30 338.2 m E Pn      2012/11/08 09:58:17.1   0.3                          T                                        5113131
LPL   001.30 338.2 m E Sg      2012/11/08 09:58:35.0   0.6                          T                4.5  .22 Ml 2.3         5113123
SMRF  001.37 256.3 m E Pn      2012/11/08 09:58:17.9   0.3                          T                                        5113126
SMRF  001.37 256.3 m E Pg      2012/11/08 09:58:19.2   0.6                          T                                        5113128
SMRF  001.37 256.3 m E Sn      2012/11/08 09:58:36.0   0.4                          T                2.5  .24 Ml 2.0         5113125

.
