EVENT     295917
    Date      Time       Latitude Longitude    Depth    Ndef Nsta Gap    Mag1  N    Mag2  N    Mag3  N   Author         ID
       rms   OT_Error      Smajor Sminor Az        Err   mdist  Mdist     Err        Err        Err      Quality

2013/04/12 10:09:04.8     44.8999     .9678       .0 f    18    7 134  Ml 2.1  4                         bulletin    296017
                                                                                                         _ldg
      0.11   +-  0.03        .6     .5   27.95 +-  0.0    0.17   2.12   +-0.2                            m i km

FRANCE
Sta     Dist  EvAz     Phase      Date       Time     TRes  Azim  AzRes  Slow  SRes Def   SNR       Amp   Per   Mag1   Mag2       ID
LFF   000.17 283.8 m E Pg      2013/04/12 10:09:08.5   0.0                          T                                        5255163
LFF   000.17 283.8 m E Sg      2013/04/12 10:09:11.1   0.1                          T              101.2  .26                5255162
RJF   000.56 043.6 m E Pg      2013/04/12 10:09:15.8   0.0                          T                                        5255160
RJF   000.56 043.6 m E Sg      2013/04/12 10:09:23.4   0.0                          T                8.2  .26                5255161
RJF   000.56 043.6 m E Sn      2013/04/12 10:09:37.7   0.4                          T                                        5255146
CAF   000.78 087.7 m E Pg      2013/04/12 10:09:19.8  -0.1                          T                                        5255159
CAF   000.78 087.7 m E Sg      2013/04/12 10:09:30.3   0.1                          T                8.6  .22                5255158
CAF   000.78 087.7 m E Sn      2013/04/12 10:09:33.8   0.2                          T                                        5255157
TCF   001.64 031.7 m E Pn      2013/04/12 10:09:33.3  -0.1                          T                                        5255149
TCF   001.64 031.7 m E Sn      2013/04/12 10:09:54.0  -0.1                          T                                        5255151
TCF   001.64 031.7 m E Sg      2013/04/12 10:09:57.2   0.2                          T                1.8  .19 Ml 2.1         5255150
MFF   001.87 335.8 m E Pn      2013/04/12 10:09:36.5  -0.1                          T                                        5255148
MFF   001.87 335.8 m E Sn      2013/04/12 10:09:59.9   0.3                          T                 .6  .18 Ml 1.9         5255147
MTLF  001.80 149.6 m E Pg      2013/04/12 10:09:38.6   0.0                          T                                        5255152
MTLF  001.80 149.6 m E Sn      2013/04/12 10:09:58.1   0.2                          T                                        5255154
MTLF  001.80 149.6 m E Sg      2013/04/12 10:10:01.9  -0.1                          T                1.6  .30 Ml 1.9         5255153
BGF   002.12 037.8 m E Pn      2013/04/12 10:09:39.8  -0.1                          T                                        5255156
BGF   002.12 037.8 m E Sn      2013/04/12 10:10:05.5   0.0                          T                5.1  .40 Ml 2.3         5255155

.
EVENT     295932
    Date      Time       Latitude Longitude    Depth    Ndef Nsta Gap    Mag1  N    Mag2  N    Mag3  N   Author         ID
       rms   OT_Error      Smajor Sminor Az        Err   mdist  Mdist     Err        Err        Err      Quality

2013/04/12 11:26:24.0     46.2205    6.9854       .0 f    30   10 072  Ml 2.2  3                         bulletin    296032
                                                                                                         _ldg
      0.51   +-  0.08       2.1    1.9   33.29 +-  0.0    0.08   3.17   +-0.9                            m i km

SWITZERLAND
Sta     Dist  EvAz     Phase      Date       Time     TRes  Azim  AzRes  Slow  SRes Def   SNR       Amp   Per   Mag1   Mag2       ID
LPL   000.73 194.2 m E Pg      2013/04/12 11:26:38.0  -0.3                          T                                        5255354
LPL   000.73 194.2 m E Sg      2013/04/12 11:26:47.6  -0.4                          T                1.8  .25                5255351
CABF  000.73 302.5 m E Pg      2013/04/12 11:26:38.3   0.0                          T                                        5255272
CABF  000.73 302.5 m E Sg      2013/04/12 11:26:47.8  -0.3                          T                1.6  .24                5255266
MBDF  001.50 185.8 m E Pn      2013/04/12 11:26:50.3  -0.6                          T                                        5255355
ORIF  001.52 211.2 m E Pn      2013/04/12 11:26:51.3   0.3                          T                                        5255353
ORIF  001.52 211.2 m E Sn      2013/04/12 11:27:10.2  -0.3                          T                 .9  .22 Ml 1.7         5255352
HINF  001.60 356.8 m E P       2013/04/12 11:26:53.1  -0.7                          T                                        5255271
HINF  001.60 356.8 m E S       2013/04/12 11:27:15.2  -0.3                          T                3.5  .29                5255267
SMRF  002.46 204.5 m E Pn      2013/04/12 11:27:02.9  -0.8                          T                                        5255366
SSF   002.54 290.6 m E Pn      2013/04/12 11:27:05.5   0.6                          T                                        5255619
SSF   002.54 290.6 m E Sn      2013/04/12 11:27:35.0   0.2                          T                 .4  .24 Ml 1.7         5255618
MEZF  002.63 330.8 m E Pn      2013/04/12 11:27:06.1   0.0 153.9  4.5               T                                        5255350
MEZF  002.63 330.8 m E Sn      2013/04/12 11:27:37.0   0.0                          T               17.6  .24 Ml 3.2         5255349
AVF   002.57 284.1 m E P       2013/04/12 11:27:07.3  -0.3                          T                                        5255270
AVF   002.57 284.1 m E S       2013/04/12 11:27:40.7   0.5                          T                 .5  .25                5255617
HYF   003.17 290.9 m E P       2013/04/12 11:27:16.5   0.3                          T                                        5255356
HYF   003.17 290.9 m E S       2013/04/12 11:27:55.7   0.4                          T                                        5255367

.
EVENT     295956
    Date      Time       Latitude Longitude    Depth    Ndef Nsta Gap    Mag1  N    Mag2  N    Mag3  N   Author         ID
       rms   OT_Error      Smajor Sminor Az        Err   mdist  Mdist     Err        Err        Err      Quality

2013/04/12 14:32:46.8     47.5881    5.9713      2.0 f    22   10 106  Ml 2.1  8  Md 1.9  2              bulletin    296056
                                                                                                         _ldg
      0.27   +-  0.05       1.1     .9  131.65 +-  0.0    0.49   1.76   +-0.1      +-0.0                 m i ke

FRANCE
Sta     Dist  EvAz     Phase      Date       Time     TRes  Azim  AzRes  Slow  SRes Def   SNR       Amp   Per   Mag1   Mag2       ID
HAU   000.49 031.2 m E Pg      2013/04/12 14:32:56.1   0.0                          T                                        5255590
HAU   000.49 031.2 m E Sg      2013/04/12 14:33:02.8   0.2                          T                5.9  .20        Md 1.9  5255587
HINF  000.64 068.7 m E Pg      2013/04/12 14:32:59.0   0.1                          T                                        5255589
HINF  000.64 068.7 m E Sg      2013/04/12 14:33:06.9  -0.4                          T                2.7  .21        Md 1.9  5255586
SFTF  000.88 314.9 m E Pg      2013/04/12 14:33:02.9  -0.4 135.0  0.8               T                                        5255585
SFTF  000.88 314.9 m E Sg      2013/04/12 14:33:14.6  -0.2                          T                3.7  .22 Ml 2.0         5255597
PAGF  000.98 350.4 m E Pg      2013/04/12 14:33:04.8  -0.3                          T                                        5255584
PAGF  000.98 350.4 m E Sg      2013/04/12 14:33:17.8  -0.2                          T               16.7  .55 Ml 2.3         5255595
CABF  000.98 175.3 m E Pg      2013/04/12 14:33:05.0  -0.3                          T                                        5255588
CABF  000.98 175.3 m E Sg      2013/04/12 14:33:17.8  -0.2                          T                                        5255582
MEZF  001.10 326.3 m E Pg      2013/04/12 14:33:07.3  -0.1                          T                                        5255599
MEZF  001.10 326.3 m E Sg      2013/04/12 14:33:21.5  -0.2                          T                3.9  .29 Ml 2.0         5255598
CDF   001.20 046.3 m E Pn      2013/04/12 14:33:09.1   0.0                          T                                        5255583
CDF   001.20 046.3 m E Sn      2013/04/12 14:33:25.2   0.2                          T                1.9  .25 Ml 1.9         5255596
LOR   001.47 258.2 m E Pn      2013/04/12 14:33:12.6   0.0  78.7  2.0               T                                        5255592
LOR   001.47 258.2 m E Sn      2013/04/12 14:33:31.1  -0.2                          T                3.2  .21 Ml 2.2         5255591
SMF   001.73 237.8 m E Pn      2013/04/12 14:33:16.3   0.1                          T                                        5255603
SMF   001.73 237.8 m E Sn      2013/04/12 14:33:37.9   0.3                          T                2.1  .26 Ml 2.0         5255602
SSF   001.76 253.5 m E Pn      2013/04/12 14:33:16.6   0.1                          T                                        5255601
SSF   001.76 253.5 m E Sn      2013/04/12 14:33:37.9  -0.2                          T                1.6  .26 Ml 2.0         5255600

.
EVENT     296006
    Date      Time       Latitude Longitude    Depth    Ndef Nsta Gap    Mag1  N    Mag2  N    Mag3  N   Author         ID
       rms   OT_Error      Smajor Sminor Az        Err   mdist  Mdist     Err        Err        Err      Quality

2013/04/12 22:09:41.0     42.7301   -1.8890      2.0      29    3 205  Ml 1.8  2  Md 1.9  1              bulletin    296106
                                                                                                         _ldg
      0.59   +-  0.30       4.6    2.8  103.65 +-  0.0    0.23   2.59   +-0.2      +-                    m i ke

PYRENEES
Sta     Dist  EvAz     Phase      Date       Time     TRes  Azim  AzRes  Slow  SRes Def   SNR       Amp   Per   Mag1   Mag2       ID
SJPF  000.62 051.6 m E Pg      2013/04/12 22:09:52.6  -0.1                          T                                        5255651
SJPF  000.62 051.6 m E Sg      2013/04/12 22:10:00.5  -0.4                          T                2.3  .21        Md 1.9  5255650
ETSF  000.99 079.8 m E Pg      2013/04/12 22:09:59.7   0.0                          T                                        5255649
ETSF  000.99 079.8 m E Sg      2013/04/12 22:10:12.6   0.0                          T                1.8  .27 Ml 1.6         5255648
EPF   001.67 078.9 m E Pg      2013/04/12 22:10:12.0  -0.1                          T                                        5255647
EPF   001.67 078.9 m E Sg      2013/04/12 22:10:33.3  -0.2                          T                1.3  .21 Ml 1.9         5255646

.
EVENT     296007
    Date      Time       Latitude Longitude    Depth    Ndef Nsta Gap    Mag1  N    Mag2  N    Mag3  N   Author         ID
       rms   OT_Error      Smajor Sminor Az        Err   mdist  Mdist     Err        Err        Err      Quality

2013/04/12 23:52:23.2     47.9493    6.4977      2.0      37   12 082  Ml 1.7  9  Md 1.7  2              bulletin    296107
                                                                                                         _ldg
      0.78   +-  0.08       1.5    1.3  149.75 +-  0.0    0.12   2.59   +-0.1      +-0.1                 m i ke

FRANCE
Sta     Dist  EvAz     Phase      Date       Time     TRes  Azim  AzRes  Slow  SRes Def   SNR       Amp   Per   Mag1   Mag2       ID
HAU   000.12 299.3 m E Pg      2013/04/12 23:52:25.8   0.1                          T                                        5255659
HAU   000.12 299.3 m E Sg      2013/04/12 23:52:27.8   0.4                          T               29.3  .21        Md 1.7  5255658
HINF  000.27 118.9 m E Pg      2013/04/12 23:52:28.8   0.1                          T                                        5255657
HINF  000.27 118.9 m E Sg      2013/04/12 23:52:32.7   0.4                          T                3.0  .17        Md 1.6  5255656
CDF   000.70 048.1 m E Pg      2013/04/12 23:52:35.9  -0.6                          T                                        5255655
CDF   000.70 048.1 m E Sg      2013/04/12 23:52:45.4  -0.2                          T                3.8  .25                5255654
PAGF  000.80 319.9 m E Pg      2013/04/12 23:52:37.9  -0.3 139.6  0.3               T                                        5255653
PAGF  000.80 319.9 m E Sg      2013/04/12 23:52:48.2  -0.4 131.3  -8.0              T                 .8  .16                5255652
SFTF  001.01 285.2 m E Pg      2013/04/12 23:52:42.1  -0.1 109.1  5.0               T                                        5255672
SFTF  001.01 285.2 m E Sg      2013/04/12 23:52:55.0  -0.3                          T                2.2  .18 Ml 1.9         5255671
MEZF  001.11 300.3 m E Pg      2013/04/12 23:52:44.0   0.0                          T                                        5255674
MEZF  001.11 300.3 m E Sg      2013/04/12 23:52:58.3  -0.1 121.3  2.0               T                1.5  .20 Ml 1.7         5255673
CABF  001.37 191.9 m E Pn      2013/04/12 23:52:47.6  -0.1                          T                                        5255670
CABF  001.37 191.9 m E Sn      2013/04/12 23:53:06.5   1.1                          T                1.0  .25 Ml 1.6         5255669
LOR   001.91 250.1 m E Pn      2013/04/12 23:52:54.2  -0.8  70.9  2.8               T                                        5255683
LOR   001.91 250.1 m E Pg      2013/04/12 23:52:58.6  -0.1  73.6  5.5               T                                        5255661
LOR   001.91 250.1 m E Sn      2013/04/12 23:53:17.8  -0.5  68.8  0.7               T                                        5255682
LOR   001.91 250.1 m E Sg      2013/04/12 23:53:23.1  -0.3  72.3  4.1               T                 .6  .19 Ml 1.7         5255660
SSF   002.21 247.5 m E Pn      2013/04/12 23:52:59.3   0.2                          T                                        5255681
SSF   002.21 247.5 m E Pg      2013/04/12 23:53:04.3   0.0                          T                                        5255684
SSF   002.21 247.5 m E Sn      2013/04/12 23:53:25.5   0.0                          T                                        5255680
SSF   002.21 247.5 m E Sg      2013/04/12 23:53:32.8   0.1                          T                 .5  .26 Ml 1.6         5255679
SMF   002.23 235.2 m E Pn      2013/04/12 23:52:59.6   0.2                          T                                        5255664
SMF   002.23 235.2 m E Pg      2013/04/12 23:53:04.5  -0.1                          T                                        5255663
SMF   002.23 235.2 m E Sg      2013/04/12 23:53:33.2  -0.1                          T                1.0  .24 Ml 1.9         5255662
AVF   002.43 242.7 m E Pn      2013/04/12 23:53:02.4   0.3                          T                                        5255668
AVF   002.43 242.7 m E Pg      2013/04/12 23:53:08.3   0.0                          T                                        5255667
AVF   002.43 242.7 m E Sn      2013/04/12 23:53:30.9   0.3                          T                                        5255666
AVF   002.43 242.7 m E Sg      2013/04/12 23:53:39.4  -0.2                          T                 .4  .22 Ml 1.6         5255665
BAIF  002.59 325.3 m E Pn      2013/04/12 23:53:04.6   0.3                          T                                        5255678
BAIF  002.59 325.3 m E Pg      2013/04/12 23:53:11.7   0.4                          T                                        5255677
BAIF  002.59 325.3 m E Sn      2013/04/12 23:53:34.3  -0.3                          T                                        5255676
BAIF  002.59 325.3 m E Sg      2013/04/12 23:53:44.9   0.2                          T                 .4  .25 Ml 1.6         5255675

.
EVENT     296008
    Date      Time       Latitude Longitude    Depth    Ndef Nsta Gap    Mag1  N    Mag2  N    Mag3  N   Author         ID
       rms   OT_Error      Smajor Sminor Az        Err   mdist  Mdist     Err        Err        Err      Quality

2013/04/13 07:28:48.4     42.8770     .2356      2.0       6    4 200  Ml 1.1  2  Md 1.4  2              bulletin    296108
                                                                                                         _ldg
      0.07   +-  0.04       1.2     .3  159.70 +-  0.0    0.17   1.52   +-0.1      +-0.0                 m i ke

PYRENEES
Sta     Dist  EvAz     Phase      Date       Time     TRes  Azim  AzRes  Slow  SRes Def   SNR       Amp   Per   Mag1   Mag2       ID
EPF   000.17 026.5 m E Pg      2013/04/13 07:28:51.9   0.0                          T                                        5255692
EPF   000.17 026.5 m E Sg      2013/04/13 07:28:54.2  -0.2                          T                2.3  .20        Md 1.4  5255691
ETSF  000.58 272.4 m E Pg      2013/04/13 07:28:59.5   0.0                          T                                        5255689
ETSF  000.58 272.4 m E Sg      2013/04/13 07:29:07.2   0.0                          T                1.1  .21        Md 1.3  5255690
SJPF  001.10 282.9 m E Sg      2013/04/13 07:29:23.2   0.0                          T                 .4  .20 Ml 1.2         5259274
MTLF  001.52 071.6 m E Sg      2013/04/13 07:29:36.4   0.0                          T                 .2  .20 Ml 1.0         5259273

.
EVENT     296010
    Date      Time       Latitude Longitude    Depth    Ndef Nsta Gap    Mag1  N    Mag2  N    Mag3  N   Author         ID
       rms   OT_Error      Smajor Sminor Az        Err   mdist  Mdist     Err        Err        Err      Quality

2013/04/13 15:53:13.9     42.7335   -1.6938      2.0      26    5 103  Ml 2.3  3  Md 2.4  1              bulletin    296110
                                                                                                         _ldg
      0.41   +-  0.11       2.0    1.8  145.03 +-  0.0    0.09   3.49   +-0.2      +-                    m i ke

PYRENEES
Sta     Dist  EvAz     Phase      Date       Time     TRes  Azim  AzRes  Slow  SRes Def   SNR       Amp   Per   Mag1   Mag2       ID
SJPF  000.51 042.1 m E Pg      2013/04/13 15:53:23.4  -0.3                          T                                        5255731
SJPF  000.51 042.1 m E Sg      2013/04/13 15:53:30.3  -0.1                          T                8.0  .24        Md 2.4  5255728
ETSF  000.85 078.4 m E Pg      2013/04/13 15:53:30.1   0.1                          T                                        5255730
ETSF  000.85 078.4 m E Sg      2013/04/13 15:53:41.2   0.2                          T                5.2  .22                5255727
EPF   001.52 078.1 m E Pg      2013/04/13 15:53:42.4   0.1                          T                                        5255729
EPF   001.52 078.1 m E Sg      2013/04/13 15:54:02.0   0.0                          T                7.3  .34 Ml 2.4         5255726
RJF   003.46 040.9 m E Pn      2013/04/13 15:54:07.2   0.3                          T                                        5255725
RJF   003.46 040.9 m E Sn      2013/04/13 15:54:45.4  -0.5                          T                1.9  .24 Ml 2.1         5255724
CAF   003.49 049.9 m E Pn      2013/04/13 15:54:07.4   0.1                          T                                        5255722
CAF   003.49 049.9 m E Sn      2013/04/13 15:54:46.8   0.0                          T                1.6  .22 Ml 2.4         5255723

.
