EVENT     288844
    Date      Time       Latitude Longitude    Depth    Ndef Nsta Gap    Mag1  N    Mag2  N    Mag3  N   Author         ID
       rms   OT_Error      Smajor Sminor Az        Err   mdist  Mdist     Err        Err        Err      Quality

2012/12/20 17:40:16.9     44.5458    6.6641      2.0      18    8 117  Ml 1.5  6  Md 1.6  1              bulletin    288944
                                                                                                         _ldg
      0.31   +-  0.03        .8     .5   87.20 +-  0.0    0.20   1.22   +-0.4      +-                    m i ke

FRANCE
Sta     Dist  EvAz     Phase      Date       Time     TRes  Azim  AzRes  Slow  SRes Def   SNR       Amp   Per   Mag1   Mag2       ID
MBDF  000.20 022.9 m E Pg      2012/12/20 17:40:21.1   0.0                          T                                        5144498
MBDF  000.20 022.9 m E Sg      2012/12/20 17:40:24.2   0.4                          T                2.9  .16        Md 1.6  5144497
ORIF  000.67 304.0 m E Pg      2012/12/20 17:40:29.8   0.0                          T                                        5144496
ORIF  000.67 304.0 m E Sg      2012/12/20 17:40:38.5   0.0                          T                3.6  .26                5144495
SBF   000.88 140.6 m E Pg      2012/12/20 17:40:33.5   0.0                          T                                        5144486
SBF   000.88 140.6 m E Sg      2012/12/20 17:40:44.8  -0.1                          T                1.6  .21 Ml 1.6         5144491
LPG   000.95 003.7 m E Pg      2012/12/20 17:40:35.1  -0.1                          T                                        5144489
LPG   000.95 003.7 m E Sg      2012/12/20 17:40:47.5  -0.1                          T                 .5  .19 Ml 1.2         5161330
SMRF  000.97 234.3 m E Pg      2012/12/20 17:40:35.3   0.1                          T                                        5144488
SMRF  000.97 234.3 m E Sg      2012/12/20 17:40:47.7   0.0                          T                 .5  .19 Ml 1.2         5161329
FRF   000.98 180.7 m E Pg      2012/12/20 17:40:35.3  -0.1                          T                                        5144494
FRF   000.98 180.7 m E Sg      2012/12/20 17:40:48.4   0.2                          T                1.7  .17 Ml 1.8         5144493
LPL   000.97 002.8 m E Pg      2012/12/20 17:40:35.4  -0.1                          T                                        5144490
LPL   000.97 002.8 m E Sg      2012/12/20 17:40:48.1   0.0                          T                 .3  .16 Ml 1.1         5161331
LMR   001.22 185.3 m E Pg      2012/12/20 17:40:39.7   0.1                          T                                        5144492
LMR   001.22 185.3 m E Sg      2012/12/20 17:40:55.5   0.1                          T                3.4  .23 Ml 2.1         5144487

.
EVENT     288836
    Date      Time       Latitude Longitude    Depth    Ndef Nsta Gap    Mag1  N    Mag2  N    Mag3  N   Author         ID
       rms   OT_Error      Smajor Sminor Az        Err   mdist  Mdist     Err        Err        Err      Quality

2012/12/20 19:13:24.6     43.0816    -.2187     10.0 f   103   17 053  Ml 2.9 13  Md 2.8  5              bulletin    288936
                                                                                                         _ldg
      0.69   +-  0.05       1.1    1.0    4.29 +-  0.0    0.12   5.26   +-0.3      +-0.1                 m i ke

PYRENEES
Sta     Dist  EvAz     Phase      Date       Time     TRes  Azim  AzRes  Slow  SRes Def   SNR       Amp   Per   Mag1   Mag2       ID
ETSF  000.31 233.9 m E Pg      2012/12/20 19:13:30.5  -0.5                          T                                        5144191
ETSF  000.31 233.9 m E Sg      2012/12/20 19:13:35.2   0.0                          T              380.0  .20        Md 2.9  5144190
EPF   000.41 096.9 m E Pg      2012/12/20 19:13:32.6  -0.2                          T                                        5144189
EPF   000.41 096.9 m E Sg      2012/12/20 19:13:37.9  -0.4                          T               61.2  .20        Md 3.0  5144188
SJPF  000.74 272.8 m E Pg      2012/12/20 19:13:38.6  -0.1                          T                                        5144187
SJPF  000.74 272.8 m E Sg      2012/12/20 19:13:48.2  -0.2                          T               20.2  .22        Md 2.7  5144197
MTLF  001.80 080.9 m E Pn      2012/12/20 19:13:53.7  -0.4                          T                                        5144185
MTLF  001.80 080.9 m E Pg      2012/12/20 19:13:58.4   0.3                          T                                        5144305
MTLF  001.80 080.9 m E Sn      2012/12/20 19:14:16.6   1.1                          T                                        5144304
MTLF  001.80 080.9 m E Sg      2012/12/20 19:14:20.4  -1.0                          T                8.2  .22 Ml 2.7 Md 2.6  5144196
LFF   001.98 020.1 m E Pn      2012/12/20 19:13:55.9  -0.5                          T                                        5144186
LFF   001.98 020.1 m E Pg      2012/12/20 19:14:01.3  -0.1                          T                                        5144299
LFF   001.98 020.1 m E Sn      2012/12/20 19:14:19.5  -0.3                          T                                        5144298
LFF   001.98 020.1 m E Sg      2012/12/20 19:14:27.8   0.8                          T               45.0  .34 Ml 3.2 Md 2.8  5144199
CAF   002.47 041.0 m E Pn      2012/12/20 19:14:02.5  -0.7                          T                                        5144183
CAF   002.47 041.0 m E Pg      2012/12/20 19:14:10.5  -0.1                          T                                        5144301
CAF   002.47 041.0 m E Sn      2012/12/20 19:14:32.4   0.8                          T                                        5144300
CAF   002.47 041.0 m E Sg      2012/12/20 19:14:41.6  -0.8                          T               10.3  .18 Ml 3.1         5144198
RJF   002.55 028.7 m E Pn      2012/12/20 19:14:04.5   0.2                          T                                        5144184
RJF   002.55 028.7 m E Pg      2012/12/20 19:14:11.6  -0.3                          T                                        5144297
RJF   002.55 028.7 m E Sn      2012/12/20 19:14:34.2   0.8                          T                                        5144296
RJF   002.55 028.7 m E Sg      2012/12/20 19:14:43.8  -0.9                          T               10.7  .18 Ml 2.8         5144200
LASF  003.12 070.1 m E Pn      2012/12/20 19:14:12.0  -0.1                          T                                        5144208
LASF  003.12 070.1 m E Pg      2012/12/20 19:14:22.2  -0.4                          T                                        5144302
LASF  003.12 070.1 m E Sn      2012/12/20 19:14:48.5   1.3                          T                                        5144303
LASF  003.12 070.1 m E Sg      2012/12/20 19:15:02.4  -0.3                          T                                        5144195
MFF   003.52 000.8 m E Pn      2012/12/20 19:14:18.0   0.6                          T                                        5144206
MFF   003.52 000.8 m E Pg      2012/12/20 19:14:29.4  -0.4                          T                                        5144204
MFF   003.52 000.8 m E Sn      2012/12/20 19:14:57.3   0.6                          T                                        5144203
MFF   003.52 000.8 m E Sg      2012/12/20 19:15:14.2  -0.8                          T               11.3  .38 Ml 3.2         5144202
TCF   003.64 027.5 m E Pn      2012/12/20 19:14:19.7   0.5                          T                                        5144279
TCF   003.64 027.5 m E Pg      2012/12/20 19:14:31.8  -0.4                          T                                        5144280
TCF   003.64 027.5 m E Sn      2012/12/20 19:15:00.6   0.9                          T                                        5144278
TCF   003.64 027.5 m E Sg      2012/12/20 19:15:18.2  -0.7                          T                2.8  .20 Ml 2.8         5144281
VIVF  003.95 061.7 m E Pn      2012/12/20 19:14:24.2   0.8                          T                                        5144284
VIVF  003.95 061.7 m E Pg      2012/12/20 19:14:37.7  -0.1                          T                                        5144283
VIVF  003.95 061.7 m E Sg      2012/12/20 19:15:27.7  -0.8                          T                1.6  .25 Ml 2.4         5144282
BGF   004.10 031.0 m E Pn      2012/12/20 19:14:25.9   0.5                          T                                        5144207
BGF   004.10 031.0 m E Pg      2012/12/20 19:14:40.2  -0.3                          T                                        5144295
BGF   004.10 031.0 m E Sn      2012/12/20 19:15:11.1   0.5                          T                                        5144294
BGF   004.10 031.0 m E Sg      2012/12/20 19:15:33.9   0.7                          T               22.0  .36 Ml 3.5         5144201
AVF   004.49 033.1 m E Pn      2012/12/20 19:14:31.2   0.5                          T                                        5144290
AVF   004.49 033.1 m E Pg      2012/12/20 19:14:47.0  -0.7                          T                                        5144289
AVF   004.49 033.1 m E Sn      2012/12/20 19:15:21.0   1.2                          T                                        5144288
AVF   004.49 033.1 m E Sg      2012/12/20 19:15:44.6  -0.7                          T                3.7  .40 Ml 2.7         5144287
SMF   004.59 037.6 m E Pn      2012/12/20 19:14:32.8   0.8                          T                                        5144293
SMF   004.59 037.6 m E Pg      2012/12/20 19:14:49.4   0.0                          T                                        5144292
SMF   004.59 037.6 m E Sg      2012/12/20 19:15:47.5  -0.7                          T                2.7  .26 Ml 2.8         5144291
QUIF  005.26 337.8 m E Pn      2012/12/20 19:14:41.6   0.5                          T                                        5144205
QUIF  005.26 337.8 m E Pg      2012/12/20 19:15:01.5  -0.3                          T                                        5144286
QUIF  005.26 337.8 m E Sn      2012/12/20 19:15:38.9   0.7                          T                1.3  .22 Ml 2.7         5144285
SSF   004.77 032.3 m E Pg      2012/12/20 19:14:52.1  -0.8                          T                                        5144274
SSF   004.77 032.3 m E Sn      2012/12/20 19:15:27.1   0.5                          T                                        5144273
SSF   004.77 032.3 m E Sg      2012/12/20 19:15:53.4  -0.8                          T                2.2  .27 Ml 2.8         5144272
LOR   005.08 033.1 m E Pg      2012/12/20 19:14:58.1  -0.5                          T                                        5144275
LOR   005.08 033.1 m E Sn      2012/12/20 19:15:35.4   1.4                          T                                        5144276
LOR   005.08 033.1 m E Sg      2012/12/20 19:16:02.9  -0.9 208.1  -7.9              T                1.9  .28 Ml 2.7         5144277

.
EVENT     288839
    Date      Time       Latitude Longitude    Depth    Ndef Nsta Gap    Mag1  N    Mag2  N    Mag3  N   Author         ID
       rms   OT_Error      Smajor Sminor Az        Err   mdist  Mdist     Err        Err        Err      Quality

2012/12/20 21:30:03.0     43.1895   -1.6787      2.0      12    3 163  Ml 1.3  2  Md 1.4  2              bulletin    288939
                                                                                                         _ldg
      0.21   +-  0.08       2.8    1.1    7.32 +-  0.0    0.13   1.49   +-0.0      +-0.1                 m i ke

PYRENEES
Sta     Dist  EvAz     Phase      Date       Time     TRes  Azim  AzRes  Slow  SRes Def   SNR       Amp   Per   Mag1   Mag2       ID
SJPF  000.34 102.8 m E Pg      2012/12/20 21:30:09.5  -0.2                          T                                        5144214
SJPF  000.34 102.8 m E Sg      2012/12/20 21:30:14.1  -0.1                          T                9.1  .18        Md 1.4  5144213
ETSF  000.87 109.1 m E Pg      2012/12/20 21:30:19.5   0.1                          T                                        5144212
ETSF  000.87 109.1 m E Sg      2012/12/20 21:30:30.9   0.1                          T                 .7  .17 Ml 1.3 Md 1.3  5144211
EPF   001.49 095.5 m E Pn      2012/12/20 21:30:29.1   0.0                          T                                        5144210
EPF   001.49 095.5 m E Sn      2012/12/20 21:30:48.0   0.0                          T                 .5  .26 Ml 1.3         5144209

.
EVENT     288845
    Date      Time       Latitude Longitude    Depth    Ndef Nsta Gap    Mag1  N    Mag2  N    Mag3  N   Author         ID
       rms   OT_Error      Smajor Sminor Az        Err   mdist  Mdist     Err        Err        Err      Quality

2012/12/20 23:21:37.5     45.8998    7.5447     12.0 f    20    4 063  Ml 1.5  2  Md 1.5  2              bulletin    288945
                                                                                                         _ldg
      0.31   +-  0.06       1.4    1.0  129.12 +-  0.0    0.20   1.29   +-0.0      +-0.1                 m i ke

NORTHERN ITALY
Sta     Dist  EvAz     Phase      Date       Time     TRes  Azim  AzRes  Slow  SRes Def   SNR       Amp   Per   Mag1   Mag2       ID
LPL   000.69 236.3 m E Pg      2012/12/20 23:21:52.0   1.1                          T                                        5144502
LPL   000.69 236.3 m E Sg      2012/12/20 23:22:00.4   0.4                          T                 .9  .23        Md 1.4  5144501
LPG   000.69 234.4 m E Pg      2012/12/20 23:21:52.1   1.1                          T                                        5144504
LPG   000.69 234.4 m E Sg      2012/12/20 23:21:59.7  -0.3                          T                1.2  .20        Md 1.5  5144503
CABF  001.24 305.7 m E P       2012/12/20 23:22:01.0   0.0                          T                                        5162692
CABF  001.24 305.7 m E Sg      2012/12/20 23:22:17.3   0.4                          T                1.4  .36 Ml 1.5         5162693
MBDF  001.29 205.2 m E Pg      2012/12/20 23:22:02.4   0.4                          T                                        5144500
MBDF  001.29 205.2 m E Sg      2012/12/20 23:22:19.7   0.9                          T                 .7  .18 Ml 1.5         5144499

.
EVENT     288840
    Date      Time       Latitude Longitude    Depth    Ndef Nsta Gap    Mag1  N    Mag2  N    Mag3  N   Author         ID
       rms   OT_Error      Smajor Sminor Az        Err   mdist  Mdist     Err        Err        Err      Quality

2012/12/21 00:17:40.3     44.4774    6.6925      2.0      18    8 126  Ml 1.4  5  Md 1.5  1              bulletin    288940
                                                                                                         _ldg
      0.47   +-  0.06       1.6     .9   85.18 +-  0.0    0.26   1.15   +-0.3      +-                    m i ke

FRANCE
Sta     Dist  EvAz     Phase      Date       Time     TRes  Azim  AzRes  Slow  SRes Def   SNR       Amp   Per   Mag1   Mag2       ID
MBDF  000.26 012.7 m E Pg      2012/12/21 00:17:45.6   0.1                          T                                        5144370
MBDF  000.26 012.7 m E Sg      2012/12/21 00:17:49.1   0.1                          T                3.2  .24        Md 1.5  5144369
ORIF  000.73 307.6 m E Pg      2012/12/21 00:17:54.0  -0.2                          T                                        5144368
ORIF  000.73 307.6 m E Sg      2012/12/21 00:18:03.8   0.2                          T                1.2  .24                5144367
SBF   000.81 138.7 m E Pg      2012/12/21 00:17:55.6  -0.1                          T                                        5144363
SBF   000.81 138.7 m E Sg      2012/12/21 00:18:06.1  -0.2                          T                 .4  .17                5144362
FRF   000.92 182.1 m E Pg      2012/12/21 00:17:57.4  -0.1                          T                                        5144366
FRF   000.92 182.1 m E Sg      2012/12/21 00:18:09.5   0.1                          T                2.4  .24 Ml 1.8         5144361
SMRF  000.95 238.4 m E Pg      2012/12/21 00:17:58.3   0.2                          T                                        5144365
SMRF  000.95 238.4 m E Sg      2012/12/21 00:18:10.5   0.2                          T                 .5  .16 Ml 1.3         5144358
LPG   001.02 002.3 m E Pg      2012/12/21 00:17:59.4  -0.4                          T                                        5144359
LPG   001.02 002.3 m E Sg      2012/12/21 00:18:13.2   0.1                          T                 .7  .21 Ml 1.4         5144353
LPL   001.04 001.5 m E Pg      2012/12/21 00:18:00.5   0.4                          T                                        5144360
LPL   001.04 001.5 m E Sg      2012/12/21 00:18:13.6   0.1                          T                 .3  .19 Ml 1.1         5144354
LMR   001.15 186.7 m E Pg      2012/12/21 00:18:01.9   0.1                          T                                        5144364
LMR   001.15 186.7 m E Sg      2012/12/21 00:18:16.7   0.0                          T                 .6  .19 Ml 1.4         5144357

.
