EVENT     281669
    Date      Time       Latitude Longitude    Depth    Ndef Nsta Gap    Mag1  N    Mag2  N    Mag3  N   Author         ID
       rms   OT_Error      Smajor Sminor Az        Err   mdist  Mdist     Err        Err        Err      Quality

2012/08/22 15:27:50.2     42.3081   10.2060     25.0      27    7 104  Ml 2.7  8  Md 2.8  1              bulletin    281769
                                                                                                         _ldg
      1.32   +-  0.15       3.9    2.5  175.17 +-  0.0    0.44   5.31   +-0.4      +-                    m i ke

CENTRAL ITALY
Sta     Dist  EvAz     Phase      Date       Time     TRes  Azim  AzRes  Slow  SRes Def   SNR       Amp   Per   Mag1   Mag2       ID
PGF   000.93 285.4 m E Pn      2012/08/22 15:28:06.5   0.3                          T                                        5051470
PGF   000.93 285.4 m E Sn      2012/08/22 15:28:17.8   0.1                          T               56.3  .32 Ml 3.3 Md 2.8  5051469
SBF   002.56 308.4 m E Pn      2012/08/22 15:28:28.8   0.4                          T                                        5051467
SBF   002.56 308.4 m E Sn      2012/08/22 15:28:56.5  -0.2                          T                9.5  .23 Ml 2.9         5051468
FRF   002.90 296.8 m E Pn      2012/08/22 15:28:33.0   0.1                          T                                        5051464
FRF   002.90 296.8 m E Sn      2012/08/22 15:29:04.3  -0.4                          T                2.5  .17 Ml 2.6         5051463
LMR   002.91 291.9 m E Pn      2012/08/22 15:28:33.4   0.3                          T                                        5051466
LMR   002.91 291.9 m E Sn      2012/08/22 15:29:04.8  -0.1                          T                2.4  .17 Ml 2.6         5051465
MBDF  003.48 315.2 m E Pn      2012/08/22 15:28:40.7  -0.3                          T                                        5051508
MBDF  003.48 315.2 m E Sn      2012/08/22 15:29:18.9   0.2                          T                2.0  .40 Ml 2.2         5051507
VIVF  004.76 304.2 m E Pn      2012/08/22 15:28:58.0  -0.3                          T                                        5051512
VIVF  004.76 304.2 m E Sn      2012/08/22 15:29:49.1  -0.1                          T                1.2  .30 Ml 2.4         5051511
LASF  004.97 293.0 m E Pn      2012/08/22 15:29:01.4   0.2                          T                                        5051510
LASF  004.97 293.0 m E Sn      2012/08/22 15:29:54.0  -0.1                          T                 .6  .25 Ml 2.2         5051509

.
EVENT     281663
    Date      Time       Latitude Longitude    Depth    Ndef Nsta Gap    Mag1  N    Mag2  N    Mag3  N   Author         ID
       rms   OT_Error      Smajor Sminor Az        Err   mdist  Mdist     Err        Err        Err      Quality

2012/08/22 17:47:38.3     47.5263    7.5933     10.0      40    8 060  Ml 2.0  8  Md 2.0  3              bulletin    281763
                                                                                                         _ldg
      0.31   +-  0.04       1.0     .7  155.27 +-  0.0    0.02   2.55   +-0.2      +-0.2                 m i ke

SWITZERLAND
Sta     Dist  EvAz     Phase      Date       Time     TRes  Azim  AzRes  Slow  SRes Def   SNR       Amp   Per   Mag1   Mag2       ID
HINF  000.58 300.4 m E Pg      2012/08/22 17:47:49.5   0.0                          T                                Md 1.9  5051320
HINF  000.58 300.4 m E Sg      2012/08/22 17:47:57.0  -0.1                          T                6.3  .30                5051319
CDF   000.91 346.6 m E Pg      2012/08/22 17:47:55.6   0.0                          T                                Md 2.1  5051309
CDF   000.91 346.6 m E Sg      2012/08/22 17:48:07.5   0.0                          T                3.5  .28 Ml 2.0         5051308
HAU   000.97 300.2 m E Pg      2012/08/22 17:47:56.5  -0.1                          T                                        5051317
HAU   000.97 300.2 m E Sg      2012/08/22 17:48:09.3   0.1                          T                5.5  .24 Ml 1.9 Md 1.8  5051318
THEF  001.29 303.7 m E Pn      2012/08/22 17:48:00.8   0.0                          T                                        5051316
THEF  001.29 303.7 m E Sn      2012/08/22 17:48:17.0   0.0                          T                                        5051315
THEF  001.29 303.7 m E Sg      2012/08/22 17:48:19.1   0.0                          T                1.7  .21 Ml 1.9         5051314
CABF  001.38 228.9 m E Pn      2012/08/22 17:48:02.0  -0.1                          T                                        5051303
CABF  001.38 228.9 m E Pg      2012/08/22 17:48:04.1  -0.1                          T                                        5051302
CABF  001.38 228.9 m E Sn      2012/08/22 17:48:19.2  -0.1                          T                                        5051301
CABF  001.38 228.9 m E Sg      2012/08/22 17:48:22.1   0.1                          T                1.3  .21 Ml 1.8         5051300
SFTF  001.85 292.5 m E Pn      2012/08/22 17:48:08.6   0.2                          T                                        5051313
SFTF  001.85 292.5 m E Sn      2012/08/22 17:48:30.5   0.0                          T                1.9  .27 Ml 2.0         5051312
MEZF  001.97 300.7 m E Pn      2012/08/22 17:48:10.1   0.1                          T                                        5051311
MEZF  001.97 300.7 m E Sn      2012/08/22 17:48:33.3   0.1                          T                4.2  .30 Ml 2.3         5051310
LOR   002.55 265.6 m E Pn      2012/08/22 17:48:18.1   0.1                          T                                        5051307
LOR   002.55 265.6 m E Pg      2012/08/22 17:48:25.8   0.1  86.5  3.6               T                                        5051306
LOR   002.55 265.6 m E Sn      2012/08/22 17:48:47.4   0.2                          T                                        5051305
LOR   002.55 265.6 m E Sg      2012/08/22 17:48:58.5   0.0                          T                1.0  .22 Ml 2.0         5051304

.
EVENT     281662
    Date      Time       Latitude Longitude    Depth    Ndef Nsta Gap    Mag1  N    Mag2  N    Mag3  N   Author         ID
       rms   OT_Error      Smajor Sminor Az        Err   mdist  Mdist     Err        Err        Err      Quality

2012/08/22 20:09:12.1     44.5636    7.2665     10.0      41    9 107  Ml 2.1  8  Md 2.2  3              bulletin    281762
                                                                                                         _ldg
      0.49   +-  0.05       1.1     .7   56.88 +-  0.0    0.06   1.87   +-0.3      +-0.1                 m i ke

NORTHERN ITALY
Sta     Dist  EvAz     Phase      Date       Time     TRes  Azim  AzRes  Slow  SRes Def   SNR       Amp   Per   Mag1   Mag2       ID
MBDF  000.39 295.0 m E Pg      2012/08/22 20:09:20.0   0.0                          T                                        5051341
MBDF  000.39 295.0 m E Sg      2012/08/22 20:09:25.3   0.0                          T               59.2  .36        Md 2.1  5051340
SBF   000.71 170.1 m E Pg      2012/08/22 20:09:25.7   0.0                          T                                        5051327
SBF   000.71 170.1 m E Sn      2012/08/22 20:09:36.8  -0.3                          T                5.5  .23                5051326
LPL   001.03 338.5 m E Pg      2012/08/22 20:09:31.0  -0.6                          T                                        5051338
LPL   001.03 338.5 m E Sg      2012/08/22 20:09:44.6  -0.4                          T                3.4  .26 Ml 1.9 Md 2.2  5051333
LPG   001.00 338.8 m E Pg      2012/08/22 20:09:31.2  -0.1                          T                                        5051337
LPG   001.00 338.8 m E Sg      2012/08/22 20:09:44.0  -0.4                          T                2.5  .24 Ml 1.8 Md 2.2  5051330
ORIF  001.05 290.2 m E Pg      2012/08/22 20:09:32.1   0.2                          T                                        5051339
ORIF  001.05 290.2 m E Sg      2012/08/22 20:09:45.4  -0.2                          T                4.4  .22 Ml 2.1         5051334
FRF   001.10 204.2 m E Pg      2012/08/22 20:09:32.9   0.2                          T                                        5051335
FRF   001.10 204.2 m E Sn      2012/08/22 20:09:46.8   0.6                          T                6.9  .22 Ml 2.4         5051331
LMR   001.35 204.2 m E Pg      2012/08/22 20:09:37.4   0.2                          T                                        5051325
LMR   001.35 204.2 m E Sn      2012/08/22 20:09:52.1  -0.1                          T                                        5051324
LMR   001.35 204.2 m E Sg      2012/08/22 20:09:54.7   0.1                          T                3.8  .18 Ml 2.3         5051323
SMRF  001.35 244.8 m E Pg      2012/08/22 20:09:37.8   0.4                          T                                        5051336
SMRF  001.35 244.8 m E Sg      2012/08/22 20:09:54.8   0.0                          T                8.6  .35 Ml 2.4         5051332
VIVF  001.87 279.9 m E P       2012/08/22 20:09:44.5  -0.3                          T                                        5051329
VIVF  001.87 279.9 m E Sg      2012/08/22 20:10:11.3   0.2                          T                 .7  .24 Ml 1.6         5051328

.
EVENT     281666
    Date      Time       Latitude Longitude    Depth    Ndef Nsta Gap    Mag1  N    Mag2  N    Mag3  N   Author         ID
       rms   OT_Error      Smajor Sminor Az        Err   mdist  Mdist     Err        Err        Err      Quality

2012/08/23 05:39:20.9     44.5353    6.5901      2.0      11    6 143  Ml 1.6  4  Md 1.5  2              bulletin    281766
                                                                                                         _ldg
      0.52   +-  0.20       5.2    3.2   98.34 +-  0.0    0.23   1.20   +-0.3      +-0.3                 m i ke

FRANCE
Sta     Dist  EvAz     Phase      Date       Time     TRes  Azim  AzRes  Slow  SRes Def   SNR       Amp   Per   Mag1   Mag2       ID
MBDF  000.23 034.0 m E Pg      2012/08/23 05:39:25.6   0.0                          T                                        5051424
MBDF  000.23 034.0 m E Sg      2012/08/23 05:39:29.2   0.3                          T                3.7  .24        Md 1.7  5051423
ORIF  000.63 307.4 m E Pg      2012/08/23 05:39:32.5  -0.6                          T                                        5051422
ORIF  000.63 307.4 m E Sg      2012/08/23 05:39:42.2   0.8                          T                1.4  .20        Md 1.4  5051421
SMRF  000.92 232.9 m E Pg      2012/08/23 05:39:38.8   0.6                          T                                        5051450
SMRF  000.92 232.9 m E Sg      2012/08/23 05:39:49.6  -0.6                          T                 .9  .22 Ml 1.4         5051449
FRF   000.98 177.6 m E Pg      2012/08/23 05:39:39.8   0.6                          T                                        5051454
FRF   000.98 177.6 m E Sg      2012/08/23 05:39:51.4  -0.4                          T                1.6  .16 Ml 1.8         5051453
LMR   001.20 182.8 m E Pg      2012/08/23 05:39:42.9  -0.5                          T                                        5051452
LMR   001.20 182.8 m E Sg      2012/08/23 05:39:58.2  -0.7                          T                1.6  .20 Ml 1.8         5051451
LPL   000.99 005.8 m E Sn      2012/08/23 05:39:53.9  -0.2                          T                 .9  .31 Ml 1.3         5058505

.
EVENT     281702
    Date      Time       Latitude Longitude    Depth    Ndef Nsta Gap    Mag1  N    Mag2  N    Mag3  N   Author         ID
       rms   OT_Error      Smajor Sminor Az        Err   mdist  Mdist     Err        Err        Err      Quality

2012/08/23 07:28:10.6     45.1670    9.0485     13.0 f    26    8 211  Ml 2.1  7                         bulletin    281802
                                                                                                         _ldg
      0.63   +-  0.26       5.8    2.5   40.66 +-  0.0    0.49   2.75   +-0.2                            m i ke

NORTHERN ITALY
Sta     Dist  EvAz     Phase      Date       Time     TRes  Azim  AzRes  Slow  SRes Def   SNR       Amp   Per   Mag1   Mag2       ID
LPL   001.67 282.9 m E Pn      2012/08/23 07:28:38.1  -0.1                          T                                        5051820
LPL   001.67 282.9 m E Sn      2012/08/23 07:28:58.6   0.4                          T                2.5  .22 Ml 2.2         5051819
LPG   001.65 282.3 m E Pn      2012/08/23 07:28:38.2   0.2                          T                                        5051818
LPG   001.65 282.3 m E Sn      2012/08/23 07:28:58.5   0.6                          T                2.6  .28 Ml 2.1         5051817
MBDF  001.68 255.6 m E Pn      2012/08/23 07:28:38.8   0.6                          T                                        5051811
MBDF  001.68 255.6 m E Sn      2012/08/23 07:28:58.8   0.5                          T                2.0  .24 Ml 2.0         5051810
SBF   001.74 222.1 m E Pn      2012/08/23 07:28:39.5   0.6                          T                                        5051815
SBF   001.74 222.1 m E Sn      2012/08/23 07:28:59.8   0.1                          T                7.5  .37 Ml 2.5         5051814
ORIF  002.26 264.8 m E Pn      2012/08/23 07:28:46.0   0.0                          T                                        5051822
ORIF  002.26 264.8 m E Sn      2012/08/23 07:29:13.1   0.9                          T                1.0  .28 Ml 1.8         5051821
PGF   002.62 180.8 m E Pn      2012/08/23 07:28:52.0   1.0                          T                                        5051813
PGF   002.62 180.8 m E Sn      2012/08/23 07:29:21.7   1.0                          T                 .6  .20 Ml 2.1         5051812
SMRF  002.75 245.6 m E Pn      2012/08/23 07:28:53.3   0.5                          T                                        5051816
FRF   002.35 227.8 m E Sn      2012/08/23 07:29:14.5   0.2                          T                2.6  .33 Ml 2.2         5058512

.
EVENT     281721
    Date      Time       Latitude Longitude    Depth    Ndef Nsta Gap    Mag1  N    Mag2  N    Mag3  N   Author         ID
       rms   OT_Error      Smajor Sminor Az        Err   mdist  Mdist     Err        Err        Err      Quality

2012/08/23 09:04:22.7     47.9858    6.6275       .0 f    18    9 092  Ml 2.0  4  Md 2.0  3              bulletin    281821
                                                                                                         _ldg
      0.46   +-  0.06       1.5    1.1   17.31 +-  0.0    0.19   2.01   +-0.4      +-0.2                 m i km

FRANCE
Sta     Dist  EvAz     Phase      Date       Time     TRes  Azim  AzRes  Slow  SRes Def   SNR       Amp   Per   Mag1   Mag2       ID
HAU   000.19 276.1 m E Pg      2012/08/23 09:04:26.6  -0.2                          T                                        5051837
HAU   000.19 276.1 m E Sg      2012/08/23 09:04:29.9   0.3                          T              126.6  .43        Md 1.8  5051836
HINF  000.23 138.0 m E Pg      2012/08/23 09:04:27.4  -0.1                          T                                        5051835
HINF  000.23 138.0 m E Sg      2012/08/23 09:04:30.6  -0.3                          T               35.2  .54        Md 2.0  5051834
THEF  000.49 300.0 m E Pg      2012/08/23 09:04:32.0  -0.3                          T                                        5051845
THEF  000.49 300.0 m E Sg      2012/08/23 09:04:38.4  -0.6                          T                4.6  .17                5051841
CDF   000.61 045.2 m E Pg      2012/08/23 09:04:34.5  -0.1                          T                                        5058520
CDF   000.61 045.2 m E P       2012/08/23 09:04:35.8   0.1                          T                                        5051840
CDF   000.61 045.2 m E Sg      2012/08/23 09:04:43.1   0.3                          T                1.8  .14                5051847
PAGF  000.83 313.7 m E Pg      2012/08/23 09:04:38.7   0.2 136.2  3.2               T                                        5051844
PAGF  000.83 313.7 m E Sg      2012/08/23 09:04:49.7   0.1 137.9  4.9               T                1.3  .13        Md 2.2  5051843
SFTF  001.09 282.2 m E Pg      2012/08/23 09:04:43.5   0.2                          T                                        5051846
SFTF  001.09 282.2 m E Sg      2012/08/23 09:04:57.8   0.2                          T                2.3  .18 Ml 2.0         5051842
MEZF  001.17 296.7 m E Pg      2012/08/23 09:04:44.9   0.1                          T                                        5058517
MEZF  001.17 296.7 m E Sg      2012/08/23 09:05:00.3   0.0                          T               12.7  .32 Ml 2.5         5058518
CABF  001.42 195.2 m E Pn      2012/08/23 09:04:48.6   0.2                          T                                        5051839
CABF  001.42 195.2 m E Sn      2012/08/23 09:05:07.1   0.2                          T                 .6  .14 Ml 1.6         5051838
LOR   002.01 250.0 m E Sg      2012/08/23 09:05:26.4   0.1  69.0  1.0               T                1.1  .22 Ml 1.9         5058519

.
EVENT     281788
    Date      Time       Latitude Longitude    Depth    Ndef Nsta Gap    Mag1  N    Mag2  N    Mag3  N   Author         ID
       rms   OT_Error      Smajor Sminor Az        Err   mdist  Mdist     Err        Err        Err      Quality

2012/08/23 10:39:26.3     44.3199    7.4541       .0 f    20    6 120  Ml 1.7  4  Md 1.7  1              bulletin    281888
                                                                                                         _ldg
      0.25   +-  0.06       1.3    1.0   53.67 +-  0.0    0.10   1.40   +-0.3      +-                    m i km

NORTHERN ITALY
Sta     Dist  EvAz     Phase      Date       Time     TRes  Azim  AzRes  Slow  SRes Def   SNR       Amp   Per   Mag1   Mag2       ID
SBF   000.46 181.7 m E Pg      2012/08/23 10:39:35.5   0.2                          T                                        5052336
SBF   000.46 181.7 m E Sg      2012/08/23 10:39:41.5  -0.1                          T               10.6  .38        Md 1.7  5052335
MBDF  000.64 310.0 m E Pg      2012/08/23 10:39:38.9   0.2                          T                                        5052346
MBDF  000.64 310.0 m E Sg      2012/08/23 10:39:47.7   0.4                          T                2.7  .28                5052345
FRF   000.96 217.8 m E Pg      2012/08/23 10:39:45.2   0.7                          T                                        5052344
FRF   000.96 217.8 m E Sg      2012/08/23 10:39:57.1   0.0                          T                 .9  .20 Ml 1.5         5052343
LMR   001.20 215.1 m E Pg      2012/08/23 10:39:49.0   0.1                          T                                        5052342
LMR   001.20 215.1 m E Sg      2012/08/23 10:40:05.0   0.4                          T                3.6  .23 Ml 2.1         5052341
ORIF  001.27 298.6 m E Pn      2012/08/23 10:39:50.1   0.2                          T                                        5052340
ORIF  001.27 298.6 m E Sn      2012/08/23 10:40:06.8  -0.1                          T                1.2  .29 Ml 1.5         5052339
SMRF  001.40 256.4 m E Pn      2012/08/23 10:39:51.8   0.3                          T                                        5052338
SMRF  001.40 256.4 m E Sn      2012/08/23 10:40:09.6  -0.1                          T                1.0  .25 Ml 1.6         5052337

.
