EVENT     289168
    Date      Time       Latitude Longitude    Depth    Ndef Nsta Gap    Mag1  N    Mag2  N    Mag3  N   Author         ID
       rms   OT_Error      Smajor Sminor Az        Err   mdist  Mdist     Err        Err        Err      Quality

2012/12/30 19:53:15.4     43.0093    -.2120      2.0       7    4 160  Ml 1.0  1  Md 1.2  2              bulletin    289268
                                                                                                         _ldg
      0.22   +-  0.10       7.0    1.5  173.63 +-  0.0    0.28   1.81   +-         +-0.2                 m i ke

PYRENEES
Sta     Dist  EvAz     Phase      Date       Time     TRes  Azim  AzRes  Slow  SRes Def   SNR       Amp   Per   Mag1   Mag2       ID
ETSF  000.28 246.7 m E Pg      2012/12/30 19:53:20.9  -0.1                          T                                        5148622
ETSF  000.28 246.7 m E Sg      2012/12/30 19:53:25.0   0.2                          T                3.9  .22        Md 1.4  5148621
EPF   000.41 086.8 m E Pg      2012/12/30 19:53:23.1  -0.2                          T                                        5148620
EPF   000.41 086.8 m E Sg      2012/12/30 19:53:29.2   0.6                          T                  1  .20        Md 1.1  5148618
SJPF  000.75 278.3 m E Pg      2012/12/30 19:53:29.6   0.1                          T                                        5148619
SJPF  000.75 278.3 m E Sg      2012/12/30 19:53:39.3  -0.1                          T                 .6  .22                5148617
MTLF  001.81 078.6 m E Sg      2012/12/30 19:54:12.4   0.0                          T                 .1  .20 Ml 1           5172665

.
EVENT     289169
    Date      Time       Latitude Longitude    Depth    Ndef Nsta Gap    Mag1  N    Mag2  N    Mag3  N   Author         ID
       rms   OT_Error      Smajor Sminor Az        Err   mdist  Mdist     Err        Err        Err      Quality

2012/12/30 20:05:01.2     43.0301    -.2242      2.0      32    7 101  Ml 2.0  5  Md 2.0  2              bulletin    289269
                                                                                                         _ldg
      0.25   +-  0.05       1.2     .7  173.20 +-  0.0    0.13   2.60   +-0.2      +-0.0                 m i ke

PYRENEES
Sta     Dist  EvAz     Phase      Date       Time     TRes  Azim  AzRes  Slow  SRes Def   SNR       Amp   Per   Mag1   Mag2       ID
ETSF  000.28 242.0 m E Pg      2012/12/30 20:05:06.6  -0.2                          T                                        5148644
ETSF  000.28 242.0 m E Sg      2012/12/30 20:05:10.3  -0.3                          T               49.2  .22        Md 2.0  5148643
EPF   000.41 089.8 m E Pg      2012/12/30 20:05:09.2  -0.1                          T                                        5148642
EPF   000.41 089.8 m E Sg      2012/12/30 20:05:14.7  -0.1                          T               12.3  .24        Md 2.0  5148641
SJPF  000.74 276.8 m E Pg      2012/12/30 20:05:14.8  -0.3                          T                                        5148640
SJPF  000.74 276.8 m E Sg      2012/12/30 20:05:24.8   0.0                          T                4.4  .28                5148639
MTLF  001.81 079.3 m E Pn      2012/12/30 20:05:31.8   0.1                          T                                        5148626
MTLF  001.81 079.3 m E Pg      2012/12/30 20:05:34.9   0.0                          T                                        5148625
MTLF  001.81 079.3 m E Sn      2012/12/30 20:05:53.9   0.0                          T                                        5148624
MTLF  001.81 079.3 m E Sg      2012/12/30 20:05:58.4   0.1                          T                 .9  .20 Ml 1.8         5148623
LFF   002.03 019.7 m E Pn      2012/12/30 20:05:34.8   0.1                          T                                        5148636
LFF   002.03 019.7 m E Pg      2012/12/30 20:05:39.0   0.1                          T                                        5148637
LFF   002.03 019.7 m E Sn      2012/12/30 20:05:59.1   0.0                          T                                        5148635
LFF   002.03 019.7 m E Sg      2012/12/30 20:06:05.1  -0.1                          T                3.9  .33 Ml 2.1         5148638
CAF   002.51 040.3 m E Pn      2012/12/30 20:05:41.4   0.1                          T                                        5148633
CAF   002.51 040.3 m E Pg      2012/12/30 20:05:47.9   0.0                          T                                        5148631
CAF   002.51 040.3 m E Sn      2012/12/30 20:06:10.9   0.2                          T                                        5148632
CAF   002.51 040.3 m E Sg      2012/12/30 20:06:19.6  -0.6                          T                1.5  .19 Ml 2.2         5148634
RJF   002.60 028.2 m E Pn      2012/12/30 20:05:42.3  -0.1                          T                                        5148630
RJF   002.60 028.2 m E Pg      2012/12/30 20:05:49.2  -0.2                          T                                        5148629
RJF   002.60 028.2 m E Sn      2012/12/30 20:06:12.8   0.2                          T                                        5148628
RJF   002.60 028.2 m E Sg      2012/12/30 20:06:23.4   0.6                          T                 .9  .19 Ml 1.7         5148627

.
EVENT     289170
    Date      Time       Latitude Longitude    Depth    Ndef Nsta Gap    Mag1  N    Mag2  N    Mag3  N   Author         ID
       rms   OT_Error      Smajor Sminor Az        Err   mdist  Mdist     Err        Err        Err      Quality

2012/12/30 20:11:30.1     43.0319    -.2173      2.0      23    5 101  Ml 1.7  3  Md 1.9  2              bulletin    289270
                                                                                                         _ldg
      0.28   +-  0.06       1.4     .9    1.18 +-  0.0    0.13   2.03   +-0.2      +-0.0                 m i ke

PYRENEES
Sta     Dist  EvAz     Phase      Date       Time     TRes  Azim  AzRes  Slow  SRes Def   SNR       Amp   Per   Mag1   Mag2       ID
ETSF  000.28 242.2 m E Pg      2012/12/30 20:11:35.5  -0.3                          T                                        5148666
ETSF  000.28 242.2 m E Sg      2012/12/30 20:11:39.3  -0.4                          T               22.9  .20        Md 1.9  5148665
EPF   000.41 090.0 m E Pg      2012/12/30 20:11:37.8  -0.3                          T                                        5148664
EPF   000.41 090.0 m E Sg      2012/12/30 20:11:43.7   0.2                          T                6.5  .20        Md 1.9  5148663
SJPF  000.74 276.6 m E Pg      2012/12/30 20:11:43.9  -0.2                          T                                        5148662
SJPF  000.74 276.6 m E Sg      2012/12/30 20:11:54.0   0.2                          T                2.0  .22                5148661
MTLF  001.81 079.3 m E Pn      2012/12/30 20:12:00.4  -0.1                          T                                        5148655
MTLF  001.81 079.3 m E Pg      2012/12/30 20:12:03.4  -0.4                          T                                        5148656
MTLF  001.81 079.3 m E Sn      2012/12/30 20:12:22.4  -0.3                          T                                        5148654
MTLF  001.81 079.3 m E Sg      2012/12/30 20:12:27.0   0.0                          T                 .5  .19 Ml 1.6         5148653
LFF   002.03 019.6 m E Pn      2012/12/30 20:12:03.8   0.2                          T                                        5148658
LFF   002.03 019.6 m E Pg      2012/12/30 20:12:08.0   0.2                          T                                        5148657
LFF   002.03 019.6 m E Sn      2012/12/30 20:12:28.2   0.2                          T                                        5148660
LFF   002.03 019.6 m E Sg      2012/12/30 20:12:34.4   0.4                          T                1.8  .24 Ml 1.9         5148659

.
EVENT     289171
    Date      Time       Latitude Longitude    Depth    Ndef Nsta Gap    Mag1  N    Mag2  N    Mag3  N   Author         ID
       rms   OT_Error      Smajor Sminor Az        Err   mdist  Mdist     Err        Err        Err      Quality

2012/12/30 20:13:43.5     43.0397    -.2263      2.0      22    7 095  Ml 2.0  4  Md 2.0  2              bulletin    289271
                                                                                                         _ldg
      0.36   +-  0.07       1.5    1.1  178.49 +-  0.0    0.13   2.59   +-0.2      +-0.0                 m i ke

PYRENEES
Sta     Dist  EvAz     Phase      Date       Time     TRes  Azim  AzRes  Slow  SRes Def   SNR       Amp   Per   Mag1   Mag2       ID
ETSF  000.28 240.1 m E Pg      2012/12/30 20:13:49.0  -0.1                          T                                        5148743
ETSF  000.28 240.1 m E Sg      2012/12/30 20:13:53.1   0.1                          T               52.2  .22        Md 2.1  5148738
EPF   000.42 091.1 m E Pg      2012/12/30 20:13:51.2  -0.3                          T                                        5148742
EPF   000.42 091.1 m E Sg      2012/12/30 20:13:57.2   0.2                          T               10.6  .18        Md 2.0  5148737
SJPF  000.74 276.1 m E Pg      2012/12/30 20:13:57.3   0.0                          T                                        5148741
SJPF  000.74 276.1 m E Sg      2012/12/30 20:14:07.3   0.3                          T                5.1  .31                5148736
MTLF  001.81 079.6 m E Pg      2012/12/30 20:14:17.3   0.1                          T                                        5168335
MTLF  001.81 079.6 m E Sn      2012/12/30 20:14:36.4   0.2                          T                1.7  .35 Ml 1.8         5148731
MTLF  001.81 079.6 m E Sg      2012/12/30 20:14:41.0   0.4                          T                                        5148740
LFF   002.02 019.8 m E Pg      2012/12/30 20:14:21.3   0.3                          T                                        5168334
LFF   002.02 019.8 m E Sg      2012/12/30 20:14:47.6   0.4                          T                5.7  .35 Ml 2.2         5148729
CAF   002.51 040.5 m E Pg      2012/12/30 20:14:29.6  -0.4                          T                                        5168333
CAF   002.51 040.5 m E Sg      2012/12/30 20:15:01.8  -0.5                          T                 .9  .20 Ml 2.0         5148730
RJF   002.59 028.4 m E Pg      2012/12/30 20:14:31.6   0.1                          T                                        5148739
RJF   002.59 028.4 m E Sg      2012/12/30 20:15:05.8   1.0                          T                1.3  .19 Ml 1.8         5148728

.
EVENT     289178
    Date      Time       Latitude Longitude    Depth    Ndef Nsta Gap    Mag1  N    Mag2  N    Mag3  N   Author         ID
       rms   OT_Error      Smajor Sminor Az        Err   mdist  Mdist     Err        Err        Err      Quality

2012/12/30 21:05:49.7     43.0507    -.2121      2.0      23    6 099  Ml 1.9  2  Md 1.8  2              bulletin    289278
                                                                                                         _ldg
      0.54   +-  0.09       2.4    1.4    9.93 +-  0.0    0.13   2.57   +-0.1      +-0.0                 m i ke

PYRENEES
Sta     Dist  EvAz     Phase      Date       Time     TRes  Azim  AzRes  Slow  SRes Def   SNR       Amp   Per   Mag1   Mag2       ID
ETSF  000.30 239.3 m E Pg      2012/12/30 21:05:55.1  -0.4                          T                                        5148779
ETSF  000.30 239.3 m E Sg      2012/12/30 21:05:59.0  -0.6                          T               52.7  .22        Md 1.8  5148776
EPF   000.41 092.7 m E Pg      2012/12/30 21:05:57.2  -0.3                          T                                        5148778
EPF   000.41 092.7 m E Sg      2012/12/30 21:06:02.5  -0.4                          T               10.9  .28        Md 1.8  5148775
SJPF  000.74 275.2 m E Pg      2012/12/30 21:06:04.1   0.4                          T                                        5148774
SJPF  000.74 275.2 m E Sg      2012/12/30 21:06:13.6   0.2                          T                2.8  .17                5148773
MTLF  001.80 079.9 m E Pn      2012/12/30 21:06:20.1   0.2                          T                                        5148777
MTLF  001.80 079.9 m E Sn      2012/12/30 21:06:41.7  -0.4                          T                1.4  .30 Ml 1.8         5148772
LFF   002.01 019.7 m E Pn      2012/12/30 21:06:23.4   0.6                          T                                        5148770
LFF   002.01 019.7 m E Sn      2012/12/30 21:06:47.4   0.4                          T                2.2  .27 Ml 2.0         5148771
RJF   002.57 028.3 m E Pn      2012/12/30 21:06:31.0   0.5                          T                                        5148769

.
EVENT     289180
    Date      Time       Latitude Longitude    Depth    Ndef Nsta Gap    Mag1  N    Mag2  N    Mag3  N   Author         ID
       rms   OT_Error      Smajor Sminor Az        Err   mdist  Mdist     Err        Err        Err      Quality

2012/12/30 21:21:04.2     43.0239    -.2264      2.0       7    4 161  Ml 1.2  1  Md 1.6  2              bulletin    289280
                                                                                                         _ldg
      0.11   +-  0.05       2.9     .7  173.51 +-  0.0    0.27   1.82   +-         +-0.1                 m i ke

PYRENEES
Sta     Dist  EvAz     Phase      Date       Time     TRes  Azim  AzRes  Slow  SRes Def   SNR       Amp   Per   Mag1   Mag2       ID
ETSF  000.27 243.0 m E Pg      2012/12/30 21:21:09.7   0.0                          T                                        5148789
ETSF  000.27 243.0 m E Sg      2012/12/30 21:21:13.4   0.0                          T               18.8  .20        Md 1.6  5148787
EPF   000.42 088.9 m E Pg      2012/12/30 21:21:12.2   0.0                          T                                        5148788
EPF   000.42 088.9 m E Sg      2012/12/30 21:21:18.0   0.3                          T                5.4  .30        Md 1.5  5148786
SJPF  000.74 277.3 m E Pg      2012/12/30 21:21:18.1   0.0                          T                                        5148784
SJPF  000.74 277.3 m E Sg      2012/12/30 21:21:27.8   0.1                          T                2.5  .26                5148785
MTLF  001.82 079.1 m E Sg      2012/12/30 21:22:01.2  -0.2                          T                 .3  .21 Ml 1.2         5172677

.
EVENT     289186
    Date      Time       Latitude Longitude    Depth    Ndef Nsta Gap    Mag1  N    Mag2  N    Mag3  N   Author         ID
       rms   OT_Error      Smajor Sminor Az        Err   mdist  Mdist     Err        Err        Err      Quality

2012/12/30 21:25:34.3     44.4557    7.2513     10.0      28    7 115  Ml 1.8  6  Md 1.8  2              bulletin    289286
                                                                                                         _ldg
      0.34   +-  0.03        .8     .5   58.78 +-  0.0    0.05   1.30   +-0.3      +-0.1                 m i ke

NORTHERN ITALY
Sta     Dist  EvAz     Phase      Date       Time     TRes  Azim  AzRes  Slow  SRes Def   SNR       Amp   Per   Mag1   Mag2       ID
MBDF  000.44 308.5 m E Pg      2012/12/30 21:25:43.1   0.1                          T                                        5149801
MBDF  000.44 308.5 m E Sg      2012/12/30 21:25:49.2   0.3                          T                7.2  .20        Md 1.9  5149795
SBF   000.61 167.3 m E Pg      2012/12/30 21:25:46.8   0.8                          T                                        5149796
SBF   000.61 167.3 m E Sg      2012/12/30 21:25:54.3   0.3                          T               28.7  .66        Md 1.7  5149802
ORIF  001.08 295.8 m E Pg      2012/12/30 21:25:54.8   0.0                          T                                        5149800
ORIF  001.08 295.8 m E Sg      2012/12/30 21:26:08.7  -0.1                          T                4.1  .28 Ml 2.0         5149804
LPG   001.10 341.4 m E Pg      2012/12/30 21:25:55.0  -0.3                          T                                        5149798
LPG   001.10 341.4 m E Sg      2012/12/30 21:26:09.6  -0.1                          T                1.1  .28 Ml 1.4         5168339
LPL   001.12 341.0 m E Pg      2012/12/30 21:25:55.7   0.1                          T                                        5149799
LPL   001.12 341.0 m E Sg      2012/12/30 21:26:10.0  -0.2                          T                  1  .26 Ml 1.4         5149803
LMR   001.24 205.8 m E Pg      2012/12/30 21:25:57.6   0.1                          T                                        5149797
LMR   001.24 205.8 m E Sg      2012/12/30 21:26:14.1   0.4                          T                2.1  .16 Ml 2.1         5168338
SMRF  001.30 248.9 m E Sg      2012/12/30 21:26:15.4   0.0                          T                1.9  .26 Ml 1.8         5149805

.
EVENT     289181
    Date      Time       Latitude Longitude    Depth    Ndef Nsta Gap    Mag1  N    Mag2  N    Mag3  N   Author         ID
       rms   OT_Error      Smajor Sminor Az        Err   mdist  Mdist     Err        Err        Err      Quality

2012/12/30 21:28:54.6     43.0332    -.2254      2.0       7    4 162  Ml 1.3  1  Md 1.5  2              bulletin    289281
                                                                                                         _ldg
      0.10   +-  0.05       2.8     .7  173.57 +-  0.0    0.28   1.81   +-         +-0.1                 m i ke

PYRENEES
Sta     Dist  EvAz     Phase      Date       Time     TRes  Azim  AzRes  Slow  SRes Def   SNR       Amp   Per   Mag1   Mag2       ID
ETSF  000.28 241.3 m E Pg      2012/12/30 21:29:00.1  -0.1                          T                                        5148793
ETSF  000.28 241.3 m E Sg      2012/12/30 21:29:04.1   0.1                          T                7.9  .20        Md 1.5  5148791
EPF   000.41 090.2 m E Pg      2012/12/30 21:29:02.6   0.0                          T                                        5148792
EPF   000.41 090.2 m E Sg      2012/12/30 21:29:08.2   0.0                          T                1.6  .22        Md 1.4  5148790
SJPF  000.74 276.6 m E Pg      2012/12/30 21:29:08.4  -0.1                          T                                        5148795
SJPF  000.74 276.6 m E Sg      2012/12/30 21:29:18.3   0.2                          T                 .9  .21                5148794
MTLF  001.81 079.4 m E Sg      2012/12/30 21:29:51.6  -0.1                          T                 .3  .25 Ml 1.3         5172666

.
