BEGIN GSE2.0
MSG_TYPE DATA
MSG_ID 09-JUN-1114:25:25  FRA_NDC
E-MAIL
DATA_TYPE BULLETIN
Reviewed Bulletin (REB) # P2011-022  from French NDC for regional phases     PERIOD 01 JUN 2011 TO 07 JUN 2011 P R., J-P S
EVENT     260053
    Date      Time       Latitude Longitude    Depth    Ndef Nsta Gap    Mag1  N    Mag2  N    Mag3  N   Author         ID
       rms   OT_Error      Smajor Sminor Az        Err   mdist  Mdist     Err        Err        Err      Quality

2011/06/01 01:44:25.2     42.9746    -.4107      2.0       6    3 160             Md 1.1  3              js067245    260053

      0.36   +-  0.18       8.4    3.1  172.39 +-  0.0    0.13   0.61              +-0.2                 m i ke

PYRENEES
Sta     Dist  EvAz     Phase      Date       Time     TRes  Azim  AzRes  Slow  SRes Def   SNR       Amp   Per   Mag1   Mag2       ID
ETSF  000.13 235.2 m E Pg      2011/06/01 01:44:27.7  -0.4                          T                                        4703234
ETSF  000.13 235.2 m E Sg      2011/06/01 01:44:30.1   0.1                          T                1.4  .15        Md 1.4  4703235
EPF   000.55 084.0 m E Pg      2011/06/01 01:44:36.0   0.2                          T                                        4703232
EPF   000.55 084.0 m E Sg      2011/06/01 01:44:42.4  -0.7                          T                1.0  .18        Md 1.0  4703233
SJPF  000.61 283.3 m E Pg      2011/06/01 01:44:37.0   0.1                          T                                        4703230
SJPF  000.61 283.3 m E Sg      2011/06/01 01:44:44.4  -0.5                          T                 .6  .21        Md 1.0  4703231

.
EVENT     259918
    Date      Time       Latitude Longitude    Depth    Ndef Nsta Gap    Mag1  N    Mag2  N    Mag3  N   Author         ID
       rms   OT_Error      Smajor Sminor Az        Err   mdist  Mdist     Err        Err        Err      Quality

2011/06/01 08:27:55.1     43.7566   17.1461     10.0 f   176   14 038  Ml 3.8 11                         js067245    259918

      1.52   +-  0.10       3.1    2.6   24.65 +-  0.0    0.99  15.35   +-0.3                            m i ke

NORTHWESTERN BALKAN PEN.
Sta     Dist  EvAz     Phase      Date       Time     TRes  Azim  AzRes  Slow  SRes Def   SNR       Amp   Per   Mag1   Mag2       ID
PGF   006.08 261.3 m E Pn      2011/06/01 08:29:23.5   0.6                          T                                        4703236
SBF   007.03 274.2 m E Pn      2011/06/01 08:29:35.7  -0.1                          T                                        4703237
SBF   007.03 274.2 m E Sn      2011/06/01 08:30:50.9  -0.2                          T               17.0  .55 Ml 3.7         4703609
MBDF  007.51 281.0 m E Pn      2011/06/01 08:29:42.0  -0.6                          T                                        4703243
MBDF  007.51 281.0 m E Sn      2011/06/01 08:31:01.2  -1.6                          T               24.3  .62 Ml 3.9         4703604
LPG   007.62 286.8 m E Pn      2011/06/01 08:29:43.8  -0.3                          T                                        4703239
LPG   007.62 286.8 m E Sn      2011/06/01 08:31:05.3  -0.2                          T               29.8  .61 Ml 4.0         4703607
FRF   007.62 272.1 m E Pn      2011/06/01 08:29:44.2   0.5                          T                                        4703238
FRF   007.62 272.1 m E Sn      2011/06/01 08:31:05.4   0.3                          T                9.0  .44 Ml 3.7         4703608
LPL   007.63 286.9 m E Pn      2011/06/01 08:29:44.3   0.1                          T                                        4703240
LPL   007.63 286.9 m E Sn      2011/06/01 08:31:06.5   0.7                          T               56.1  .64 Ml 4.3         4703606
ORIF  008.16 282.1 m E Pn      2011/06/01 08:29:52.9   1.6                          T                                        4703241
ORIF  008.16 282.1 m E Sn      2011/06/01 08:31:17.9  -0.3                          T               30.0  .64 Ml 4.1         4703605
HINF  008.26 303.0 m E Pn      2011/06/01 08:29:53.0   0.4                          T                                        4703612
HINF  008.26 303.0 m E Sn      2011/06/01 08:31:20.7   0.3                          T               11.1  .54 Ml 3.8         4703602
CABF  008.32 293.9 m E Pn      2011/06/01 08:29:53.7   0.3                          T                                        4703611
CABF  008.32 293.9 m E Sn      2011/06/01 08:31:22.0   0.1                          T                8.9  .64 Ml 3.6         4703603
CDF   008.29 307.6 m E Pn      2011/06/01 08:29:54.5   1.5                          T                                        4703244
CDF   008.29 307.6 m E Sn      2011/06/01 08:31:21.1  -0.2                          T                2.0  .42 Ml 3.3         4703600
HAU   008.65 303.2 m E Pn      2011/06/01 08:29:58.8   1.0                          T                                        4703613
HAU   008.65 303.2 m E Sn      2011/06/01 08:31:29.0  -0.7                          T               12.2  .64 Ml 3.6         4703601
VIVF  009.01 281.3 m E Pn      2011/06/01 08:30:02.9   0.1                          T                                        4703242
SMF   009.83 291.7 m E Pn      2011/06/01 08:30:13.4  -0.5                          T                                        4703610
LOR   009.97 295.3 m E Pn      2011/06/01 08:30:17.0   1.3 128.4  22.6              T                                        4703614
LOR   009.97 295.3 m E Sn      2011/06/01 08:32:01.3   0.1                          T               11.9  .60 Ml 4.0         4703599

.
EVENT     259922
    Date      Time       Latitude Longitude    Depth    Ndef Nsta Gap    Mag1  N    Mag2  N    Mag3  N   Author         ID
       rms   OT_Error      Smajor Sminor Az        Err   mdist  Mdist     Err        Err        Err      Quality

2011/06/01 09:03:26.5     48.7697    5.9589       .0 f    12    7 225  Ml 2.1  3  Md 1.8  1              js067245    259922

      0.75   +-  0.26       4.2    1.7   21.23 +-  0.0    0.26   2.06   +-0.1      +-                    m i km

FRANCE
Sta     Dist  EvAz     Phase      Date       Time     TRes  Azim  AzRes  Slow  SRes Def   SNR       Amp   Per   Mag1   Mag2       ID
PAGF  000.26 215.9 m E Pg      2011/06/01 09:03:31.8  -0.2  37.5  1.8               T                                        4703618
PAGF  000.26 215.9 m E Sg      2011/06/01 09:03:36.4   0.6                          T                2.7  .53        Md 1.8  4703619
MEZF  000.66 246.3 m E Pg      2011/06/01 09:03:39.0  -0.2  64.8  -0.9              T                                        4703620
MEZF  000.66 246.3 m E Sg      2011/06/01 09:03:48.3   0.2  63.2  -2.4              T              135.2  .76                4703621
HAU   000.81 161.1 m E Pg      2011/06/01 09:03:42.4   0.4                          T                                        4703625
HAU   000.81 161.1 m E Sg      2011/06/01 09:03:52.7  -0.1                          T                                        4703616
HAU   000.81 161.1 m E Sn      2011/06/01 09:03:55.9  -0.1                          T               16.5  .38                4703626
SFTF  000.83 227.6 m E Pg      2011/06/01 09:03:42.5   0.0                          T                                        4703617
SFTF  000.83 227.6 m E Sg      2011/06/01 09:03:52.8  -0.7  54.6  7.7               T              237.0 1.47                4703622
CDF   000.94 111.8 m E Sg      2011/06/01 09:03:56.9  -0.2                          T                3.4  .31 Ml 1.9         4703623
HINF  001.13 147.6 m E Sg      2011/06/01 09:04:02.5  -0.2                          T                7.5  .44 Ml 2.1         4703624
LOR   002.06 224.0 m E Sn      2011/06/01 09:04:26.2   0.4  44.7  2.3               T                4.4  .44 Ml 2.2         4703615

.
EVENT     259926
    Date      Time       Latitude Longitude    Depth    Ndef Nsta Gap    Mag1  N    Mag2  N    Mag3  N   Author         ID
       rms   OT_Error      Smajor Sminor Az        Err   mdist  Mdist     Err        Err        Err      Quality

2011/06/01 10:05:02.3     49.6719    7.9611 f     .0 f    18    8 265  Ml 2.7  3  Md 2.8  1              js067245    259926

      0.33   +-  0.58    9999.9 9999.9   99.90 +-  0.0    0.59   3.95   +-0.2      +-                    m i km

GERMANY
Sta     Dist  EvAz     Phase      Date       Time     TRes  Azim  AzRes  Slow  SRes Def   SNR       Amp   Per   Mag1   Mag2       ID
RUP   000.59 273.3 m E P       2011/06/01 10:05:14.7  -0.1                          T                                        4703643
RUP   000.59 273.3 m E Sg      2011/06/01 10:05:22.2   0.7                          T                                Md 2.8  4703644
LANF  000.70 188.4 m E Pg      2011/06/01 10:05:15.5  -0.2                          T                                        4703627
LANF  000.70 188.4 m E Sg      2011/06/01 10:05:25.0   0.0                          T                                        4703641
LANF  000.70 188.4 m E Sn      2011/06/01 10:05:29.1   0.1                          T               69.0  .23                4703642
CDF   001.34 199.9 m E Pn      2011/06/01 10:05:26.8   0.0                          T                                        4703638
CDF   001.34 199.9 m E Pg      2011/06/01 10:05:27.7   0.1                          T                                        4703639
CDF   001.34 199.9 m E Sg      2011/06/01 10:05:45.1   0.0                          T                                        4703640
HAU   001.98 213.2 m E Pn      2011/06/01 10:05:35.3  -0.1                          T                                        4703634
HAU   001.98 213.2 m E Pg      2011/06/01 10:05:39.3  -0.1                          T                                        4703633
HAU   001.98 213.2 m E Sg      2011/06/01 10:06:05.4   0.4                          T               16.7  .30 Ml 2.7         4703635
GIVF  002.07 283.2 m E P       2011/06/01 10:05:38.5  -0.3                          T                                        4703629
GIVF  002.07 283.2 m E Pg      2011/06/01 10:05:41.0   0.0                          T                                        4703628
GIVF  002.07 283.2 m E Sg      2011/06/01 10:06:08.2   0.3                          T                6.3  .26 Ml 2.6         4703632
HINF  002.00 202.0 m E Pg      2011/06/01 10:05:40.1   0.5                          T                                        4703636
HINF  002.00 202.0 m E Sg      2011/06/01 10:06:05.7   0.1                          T               12.1  .24 Ml 2.9         4703637
LOR   003.64 230.2 m E Pn      2011/06/01 10:05:57.9  -0.2  50.0  2.9               T                                        4703631
SSF   003.95 230.4 m E Pn      2011/06/01 10:06:02.3   0.0                          T                                        4703630

.
EVENT     259938
    Date      Time       Latitude Longitude    Depth    Ndef Nsta Gap    Mag1  N    Mag2  N    Mag3  N   Author         ID
       rms   OT_Error      Smajor Sminor Az        Err   mdist  Mdist     Err        Err        Err      Quality

2011/06/01 12:55:42.7     45.2055    6.3804      2.0      73   21 042  Ml 2.9 17  Md 2.8  4              js067245    259938

      0.68   +-  0.06       1.2    1.0  106.96 +-  0.0    0.04   3.52   +-0.2      +-0.0                 m i ke

FRANCE
Sta     Dist  EvAz     Phase      Date       Time     TRes  Azim  AzRes  Slow  SRes Def   SNR       Amp   Per   Mag1   Mag2       ID
LPG   000.39 041.7 m E Pg      2011/06/01 12:55:50.2  -0.4                          T   001.0                                4701287
LPG   000.39 041.7 m E Sg      2011/06/01 12:55:55.9   0.1                          T              184.1  .26        Md 2.8  4703677
LPL   000.40 038.5 m E Pg      2011/06/01 12:55:50.4  -0.2                          T   001.0                                4701288
LPL   000.40 038.5 m E Sg      2011/06/01 12:55:55.9   0.0                          T   001.0      184.5  .32        Md 2.8  4701289
ORIF  000.46 231.2 m E Pg      2011/06/01 12:55:50.7  -0.8                          T   001.0                                4701301
ORIF  000.46 231.2 m E Sg      2011/06/01 12:55:56.3  -1.3                          T              324.0  .20        Md 2.7  4703678
MBDF  000.55 149.7 m E Pg      2011/06/01 12:55:53.3  -0.1                          T   001.0                                4701299
MBDF  000.55 149.7 m E Sg      2011/06/01 12:56:00.7   0.0                          T               62.2  .26        Md 2.7  4703679
VIVF  001.26 254.5 m E Pg      2011/06/01 12:56:06.3   0.1                          T   001.0                                4701303
VIVF  001.26 254.5 m E P       2011/06/01 12:56:07.3  -0.1                          T   001.0                                4701302
VIVF  001.26 254.5 m E Sn      2011/06/01 12:56:22.1  -0.1                          T   001.0       54.7  .32 Ml 3.2         4701304
SMRF  001.36 205.4 m E Pg      2011/06/01 12:56:08.1   0.1                          T                                        4703676
SMRF  001.36 205.4 m E P       2011/06/01 12:56:09.3   0.5                          T   001.0                                4701305
SMRF  001.36 205.4 m E Sg      2011/06/01 12:56:25.8   0.2                          T   001.0       30.7  .32 Ml 3.0         4701306
CABF  001.42 351.8 m E Pg      2011/06/01 12:56:09.3   0.0                          T   001.0                                4701295
CABF  001.42 351.8 m E Sg      2011/06/01 12:56:27.7   0.0                          T   001.0       34.3  .20 Ml 3.2         4701296
SBF   001.54 150.3 m E Pg      2011/06/01 12:56:11.4   0.0                          T   001.0                                4701290
SBF   001.54 150.3 m E Sg      2011/06/01 12:56:31.4   0.1                          T   001.0       35.1  .32 Ml 3.1         4701291
FRF   001.66 173.3 m E Pg      2011/06/01 12:56:13.1  -0.4                          T   001.0                                4701275
FRF   001.66 173.3 m E Sg      2011/06/01 12:56:35.5   0.6                          T   001.0         16  .16 Ml 3.1         4701276
LMR   001.87 177.1 m E Pn      2011/06/01 12:56:15.2   1.3                          T   001.0                                4701282
LMR   001.87 177.1 m E Pg      2011/06/01 12:56:17.7   0.2                          T                                        4703675
LMR   001.87 177.1 m E Sg      2011/06/01 12:56:42.1   0.5                          T   001.0       11.4  .24 Ml 2.9         4701283
LASF  002.13 238.8 m E Pn      2011/06/01 12:56:18.1   0.7                          T   001.0                                4701279
LASF  002.13 238.8 m E Pg      2011/06/01 12:56:22.5   0.3                          T                                        4703680
LASF  002.13 238.8 m E Sn      2011/06/01 12:56:42.9   0.0                          T   001.0                                4701280
LASF  002.13 238.8 m E Sg      2011/06/01 12:56:49.6   0.0                          T   001.0        8.1  .40 Ml 2.5         4701281
SMF   002.28 310.0 m E Pn      2011/06/01 12:56:19.6   0.0                          T   001.0                                4701292
SMF   002.28 310.0 m E Pg      2011/06/01 12:56:25.0  -0.1                          T                                        4703684
SMF   002.28 310.0 m E Sg      2011/06/01 12:56:54.5   0.0                          T   001.0       13.1  .24 Ml 3.0         4701293
HINF  002.63 007.0 m E Pn      2011/06/01 12:56:24.3  -0.1                          T                                        4703688
HINF  002.63 007.0 m E Pg      2011/06/01 12:56:31.5  -0.1                          T                                        4703687
HINF  002.63 007.0 m E Sn      2011/06/01 12:56:55.6   0.6                          T   001.0                                4701297
HINF  002.63 007.0 m E Sg      2011/06/01 12:57:03.6  -1.8                          T   001.0       12.8  .20 Ml 3.2         4701298
LOR   002.71 320.6 m E Pn      2011/06/01 12:56:25.6   0.3                          T   001.0                                4701284
LOR   002.71 320.6 m E Pg      2011/06/01 12:56:32.7  -0.2 138.5  -0.2              T   001.0                                4701285
LOR   002.71 320.6 m E Sg      2011/06/01 12:57:06.1  -1.6 151.9  13.2              T   001.0        5.9  .24 Ml 2.8         4701286
BGF   002.81 300.0 m E Pn      2011/06/01 12:56:26.4  -0.4                          T                                        4703683
BGF   002.81 300.0 m E Pg      2011/06/01 12:56:34.7  -0.1                          T                                        4703682
BGF   002.81 300.0 m E Sg      2011/06/01 12:57:10.2  -0.8                          T   001.0       13.3  .32 Ml 3.0         4701272
HAU   002.80 359.6 m E Pn      2011/06/01 12:56:26.6   0.0                          T   001.0                                4701277
HAU   002.80 359.6 m E Pg      2011/06/01 12:56:34.7   0.1                          T                                        4703689
HAU   002.80 359.6 m E Sg      2011/06/01 12:57:09.6  -1.1                          T   001.0       31.9  .28 Ml 3.2         4701278
AVF   002.64 308.0 m E P       2011/06/01 12:56:26.9  -0.2                          T                                        4703686
AVF   002.64 308.0 m E Pg      2011/06/01 12:56:31.6   0.0                          T                                        4703685
AVF   002.64 308.0 m E Sg      2011/06/01 12:57:04.6  -1.0                          T   001.0        8.6  .36 Ml 2.7         4701271
SFTF  003.14 343.4 m E Pn      2011/06/01 12:56:31.1  -0.1                          T                                        4703691
SFTF  003.14 343.4 m E Pg      2011/06/01 12:56:40.8  -0.1                          T                                        4703690
SFTF  003.14 343.4 m E Sg      2011/06/01 12:57:20.9  -0.2                          T                5.0  .18 Ml 2.9         4703692
CDF   003.27 010.5 m E Pn      2011/06/01 12:56:32.5  -0.5                          T                                        4703694
CDF   003.27 010.5 m E Pg      2011/06/01 12:56:43.1  -0.2                          T                                        4703693
CDF   003.27 010.5 m E Sg      2011/06/01 12:57:25.7   0.4                          T   001.0        6.4  .20 Ml 3.1         4701273
SSF   002.73 313.9 m E Pg      2011/06/01 12:56:32.6  -0.6                          T                                        4703695
SSF   002.73 313.9 m E Sg      2011/06/01 12:57:06.6  -1.7                          T   001.0        6.2  .36 Ml 2.7         4701294
MTLF  003.52 239.5 m E Sg      2011/06/01 12:57:33.2   0.0                          T   001.0        4.6  .44 Ml 2.6         4701300

.
