EVENT     289318
    Date      Time       Latitude Longitude    Depth    Ndef Nsta Gap    Mag1  N    Mag2  N    Mag3  N   Author         ID
       rms   OT_Error      Smajor Sminor Az        Err   mdist  Mdist     Err        Err        Err      Quality

2013/01/01 07:00:17.9     43.0356    -.2132      2.0      14    6 151  Ml 1.7  4  Md 1.5  2              bulletin    289418
                                                                                                         _ldg
      0.17   +-  0.05       1.6     .7  165.96 +-  0.0    0.29   2.50   +-0.2      +-0.1                 m i ke

PYRENEES
Sta     Dist  EvAz     Phase      Date       Time     TRes  Azim  AzRes  Slow  SRes Def   SNR       Amp   Per   Mag1   Mag2       ID
ETSF  000.29 241.8 m E Pg      2013/01/01 07:00:23.4  -0.2                          T                                        5152494
ETSF  000.29 241.8 m E Sg      2013/01/01 07:00:27.5   0.0                          T               12.2  .26        Md 1.5  5152493
EPF   000.41 090.6 m E Pg      2013/01/01 07:00:25.6  -0.1                          T                                        5152492
EPF   000.41 090.6 m E Sg      2013/01/01 07:00:31.7   0.6                          T                2.5  .23        Md 1.4  5152491
SJPF  000.75 276.3 m E Pg      2013/01/01 07:00:32.1   0.2                          T                                        5152489
SJPF  000.75 276.3 m E Sg      2013/01/01 07:00:41.9   0.2                          T                1.4  .21                5152490
MTLF  001.80 079.4 m E Pn      2013/01/01 07:00:48.3   0.0                          T                                        5152488
MTLF  001.80 079.4 m E Sn      2013/01/01 07:01:10.2  -0.1                          T                                        5152487
MTLF  001.80 079.4 m E Sg      2013/01/01 07:01:14.6   0.0                          T                 .5  .21 Ml 1.5         5152486
LFF   002.02 019.5 m E Pg      2013/01/01 07:00:55.4   0.0                          T                                        5152484
LFF   002.02 019.5 m E Sg      2013/01/01 07:01:21.4  -0.1                          T                1.1  .27 Ml 1.6         5152483
CAF   002.50 040.2 m E Sg      2013/01/01 07:01:36.4  -0.2                          T                 .4  .20 Ml 1.6         5169614

.
EVENT     289320
    Date      Time       Latitude Longitude    Depth    Ndef Nsta Gap    Mag1  N    Mag2  N    Mag3  N   Author         ID
       rms   OT_Error      Smajor Sminor Az        Err   mdist  Mdist     Err        Err        Err      Quality

2013/01/01 07:04:10.6     43.0484    -.2228      2.0 f    16    7 146  Ml 1.7  4  Md 1.6  2              bulletin    289420
                                                                                                         _ldg
      0.23   +-  0.05       1.3     .7  163.02 +-  0.0    0.29   2.58   +-0.2      +-0.2                 m i ke

PYRENEES
Sta     Dist  EvAz     Phase      Date       Time     TRes  Azim  AzRes  Slow  SRes Def   SNR       Amp   Per   Mag1   Mag2       ID
ETSF  000.29 238.9 m E Pg      2013/01/01 07:04:16.2  -0.2                          T                                        5152516
ETSF  000.29 238.9 m E Sg      2013/01/01 07:04:20.0  -0.2                          T               25.6  .24        Md 1.7  5152515
EPF   000.41 092.3 m E Pg      2013/01/01 07:04:18.8   0.2                          T                                        5152513
EPF   000.41 092.3 m E Sg      2013/01/01 07:04:24.2   0.2                          T                3.6  .20        Md 1.5  5152512
SJPF  000.74 275.4 m E Pg      2013/01/01 07:04:24.6   0.1                          T                                        5152511
SJPF  000.74 275.4 m E Sg      2013/01/01 07:04:34.4   0.3                          T                1.5  .17                5152514
MTLF  001.81 079.9 m E Pg      2013/01/01 07:04:44.3   0.0                          T                                        5152506
MTLF  001.81 079.9 m E Sn      2013/01/01 07:05:02.9  -0.3                          T                                        5152505
MTLF  001.81 079.9 m E Sg      2013/01/01 07:05:07.4  -0.2                          T                 .7  .23 Ml 1.6         5152504
LFF   002.01 019.9 m E Pg      2013/01/01 07:04:48.1   0.1                          T                                        5152510
LFF   002.01 019.9 m E Sn      2013/01/01 07:05:07.7  -0.3                          T                                        5152508
LFF   002.01 019.9 m E Sg      2013/01/01 07:05:13.9  -0.1                          T                3.9  .38 Ml 2.0         5152509
CAF   002.50 040.5 m E Sg      2013/01/01 07:05:29.1  -0.1                          T                 .9  .29 Ml 1.8         5174339
RJF   002.58 028.4 m E Sg      2013/01/01 07:05:31.3  -0.3                          T                 .7  .22 Ml 1.5         5174338

.
EVENT     289321
    Date      Time       Latitude Longitude    Depth    Ndef Nsta Gap    Mag1  N    Mag2  N    Mag3  N   Author         ID
       rms   OT_Error      Smajor Sminor Az        Err   mdist  Mdist     Err        Err        Err      Quality

2013/01/01 07:12:27.0     43.0395    -.2107      2.0      16    7 150  Ml 1.4  4  Md 1.6  2              bulletin    289421
                                                                                                         _ldg
      0.20   +-  0.06       1.6     .8  163.06 +-  0.0    0.29   2.58   +-0.3      +-0.1                 m i ke

PYRENEES
Sta     Dist  EvAz     Phase      Date       Time     TRes  Azim  AzRes  Slow  SRes Def   SNR       Amp   Per   Mag1   Mag2       ID
ETSF  000.29 241.3 m E Pg      2013/01/01 07:12:32.7  -0.1                          T                                        5152532
ETSF  000.29 241.3 m E Sg      2013/01/01 07:12:36.7   0.0                          T               19.4  .24        Md 1.7  5152531
EPF   000.40 091.1 m E Pg      2013/01/01 07:12:34.6  -0.2                          T                                        5152530
EPF   000.40 091.1 m E Sg      2013/01/01 07:12:40.4   0.2                          T                2.4  .21        Md 1.6  5152529
SJPF  000.75 276.0 m E Pg      2013/01/01 07:12:41.1   0.0                          T                                        5152527
SJPF  000.75 276.0 m E Sg      2013/01/01 07:12:51.1   0.2                          T                 .9  .20                5152528
MTLF  001.80 079.5 m E Pg      2013/01/01 07:13:00.7   0.2                          T                                        5152522
MTLF  001.80 079.5 m E Sn      2013/01/01 07:13:19.2  -0.2                          T                                        5152521
MTLF  001.80 079.5 m E Sg      2013/01/01 07:13:23.5  -0.2                          T                 .2  .17 Ml 1.2         5152520
LFF   002.02 019.5 m E Pg      2013/01/01 07:13:04.6   0.1                          T                                        5152524
LFF   002.02 019.5 m E Sg      2013/01/01 07:13:30.4  -0.1                          T                 .8  .25 Ml 1.6         5152526
CAF   002.50 040.3 m E Pg      2013/01/01 07:13:13.2  -0.2                          T                                        5174340
CAF   002.50 040.3 m E Sg      2013/01/01 07:13:45.8   0.2                          T                 .7  .24 Ml 1.8         5152517
RJF   002.58 028.2 m E Sg      2013/01/01 07:13:47.8  -0.3                          T                 .1  .14 Ml 1.0         5174341

.
EVENT     289322
    Date      Time       Latitude Longitude    Depth    Ndef Nsta Gap    Mag1  N    Mag2  N    Mag3  N   Author         ID
       rms   OT_Error      Smajor Sminor Az        Err   mdist  Mdist     Err        Err        Err      Quality

2013/01/01 07:30:12.7     43.0355    -.2168      2.0       9    5 151  Ml 1.3  2  Md 1.3  2              bulletin    289422
                                                                                                         _ldg
      0.14   +-  0.05       1.7     .8  163.37 +-  0.0    0.29   2.02   +-0.6      +-0.1                 m i ke

PYRENEES
Sta     Dist  EvAz     Phase      Date       Time     TRes  Azim  AzRes  Slow  SRes Def   SNR       Amp   Per   Mag1   Mag2       ID
ETSF  000.29 241.6 m E Pg      2013/01/01 07:30:18.2  -0.1                          T                                        5153538
ETSF  000.29 241.6 m E Sg      2013/01/01 07:30:22.4   0.1                          T                6.7  .25        Md 1.2  5153537
EPF   000.41 090.5 m E Pg      2013/01/01 07:30:20.6   0.0                          T                                        5153536
EPF   000.41 090.5 m E Sg      2013/01/01 07:30:26.4   0.3                          T                2.8  .29        Md 1.4  5153535
SJPF  000.74 276.4 m E Pg      2013/01/01 07:30:26.7   0.0                          T                                        5153533
SJPF  000.74 276.4 m E Sg      2013/01/01 07:30:36.6   0.2                          T                 .4  .16                5153534
LFF   002.02 019.6 m E Pg      2013/01/01 07:30:50.3   0.0                          T                                        5174343
LFF   002.02 019.6 m E Sg      2013/01/01 07:31:16.4   0.0                          T                1.6  .32 Ml 1.7         5153530
MTLF  001.81 079.4 m E Sg      2013/01/01 07:31:09.3  -0.3                          T                 .1  .20 Ml  .9         5174342

.
EVENT     289388
    Date      Time       Latitude Longitude    Depth    Ndef Nsta Gap    Mag1  N    Mag2  N    Mag3  N   Author         ID
       rms   OT_Error      Smajor Sminor Az        Err   mdist  Mdist     Err        Err        Err      Quality

2013/01/01 07:43:01.6     44.4929    7.4307     16.0 f    31    6 140  Ml 1.2  5  Md 1.7  2              bulletin    289488
                                                                                                         _ldg
      0.20   +-  0.05       1.2     .6   72.16 +-  0.0    0.13   1.34   +-0.2      +-0.1                 m i ke

NORTHERN ITALY
Sta     Dist  EvAz     Phase      Date       Time     TRes  Azim  AzRes  Slow  SRes Def   SNR       Amp   Per   Mag1   Mag2       ID
MBDF  000.53 296.6 m E Pg      2013/01/01 07:43:12.4   0.2                          T                                        5153692
MBDF  000.53 296.6 m E Sg      2013/01/01 07:43:19.3   0.0                          T                2.0  .19        Md 1.6  5153691
SBF   000.63 179.7 m E Pg      2013/01/01 07:43:14.0   0.1                          T                                        5153690
SBF   000.63 179.7 m E Sg      2013/01/01 07:43:22.4   0.0                          T                5.3  .22        Md 1.8  5153689
LPG   001.11 334.6 m E Pn      2013/01/01 07:43:21.3  -0.1                          T                                        5153684
LPG   001.11 334.6 m E Pg      2013/01/01 07:43:22.8  -0.2                          T                                        5153683
LPG   001.11 334.6 m E Sn      2013/01/01 07:43:35.6   0.2                          T                                        5153682
LPG   001.11 334.6 m E Sg      2013/01/01 07:43:37.0  -0.6                          T                 .3  .18 Ml 1.1         5153681
LPL   001.14 334.4 m E Pn      2013/01/01 07:43:21.6   0.0                          T                                        5153680
LPL   001.14 334.4 m E Sn      2013/01/01 07:43:36.0   0.1                          T                 .8  .22 Ml 1.4         5153679
ORIF  001.18 291.6 m E Pn      2013/01/01 07:43:22.3   0.2                          T                                        5153677
ORIF  001.18 291.6 m E Sn      2013/01/01 07:43:37.1   0.1                          T                 .4  .27 Ml 1.0         5153678
LMR   001.34 210.2 m E Pn      2013/01/01 07:43:24.1   0.0                          T                                        5153688
LMR   001.34 210.2 m E Pg      2013/01/01 07:43:26.6  -0.1                          T                                        5153687
LMR   001.34 210.2 m E Sn      2013/01/01 07:43:40.7   0.3                          T                                        5153686
LMR   001.34 210.2 m E Sg      2013/01/01 07:43:44.0  -0.1                          T                 .4  .16 Ml 1.4         5153685

.
EVENT     289325
    Date      Time       Latitude Longitude    Depth    Ndef Nsta Gap    Mag1  N    Mag2  N    Mag3  N   Author         ID
       rms   OT_Error      Smajor Sminor Az        Err   mdist  Mdist     Err        Err        Err      Quality

2013/01/01 08:18:46.3     43.0584    -.2247      2.0      18    7 143  Ml 1.7  5  Md 1.7  2              bulletin    289425
                                                                                                         _ldg
      0.25   +-  0.06       1.6     .9  159.79 +-  0.0    0.29   2.57   +-0.3      +-0.1                 m i ke

PYRENEES
Sta     Dist  EvAz     Phase      Date       Time     TRes  Azim  AzRes  Slow  SRes Def   SNR       Amp   Per   Mag1   Mag2       ID
ETSF  000.29 237.1 m E Pg      2013/01/01 08:18:51.8  -0.3                          T                                        5153569
ETSF  000.29 237.1 m E Sg      2013/01/01 08:18:55.9  -0.1                          T               25.5  .24        Md 1.8  5153566
EPF   000.41 093.7 m E Pg      2013/01/01 08:18:54.1  -0.2                          T                                        5153568
EPF   000.41 093.7 m E Sg      2013/01/01 08:18:59.8  -0.1                          T               11.0  .40        Md 1.6  5153567
SJPF  000.73 274.6 m E Pg      2013/01/01 08:19:00.3   0.1                          T                                        5153564
SJPF  000.73 274.6 m E Sg      2013/01/01 08:19:10.2   0.4                          T                2.4  .21                5153565
MTLF  001.81 080.2 m E Pn      2013/01/01 08:19:16.8   0.1                          T                                        5153557
MTLF  001.81 080.2 m E Pg      2013/01/01 08:19:20.0   0.1                          T                                        5153556
MTLF  001.81 080.2 m E Sg      2013/01/01 08:19:43.1  -0.1                          T                 .2  .16 Ml 1.3         5153558
LFF   002.01 020.0 m E Pg      2013/01/01 08:19:23.5  -0.1                          T                                        5153562
LFF   002.01 020.0 m E Sn      2013/01/01 08:19:43.7   0.2                          T                                        5153561
LFF   002.01 020.0 m E Sg      2013/01/01 08:19:49.9   0.5                          T                1.3  .26 Ml 1.7         5153560
CAF   002.49 040.7 m E Pg      2013/01/01 08:19:32.3  -0.3                          T                                        5174348
CAF   002.49 040.7 m E Sg      2013/01/01 08:20:04.7   0.0                          T                1.3  .26 Ml 2.0         5174349
RJF   002.57 028.6 m E Pg      2013/01/01 08:19:33.8  -0.2                          T                                        5153554
RJF   002.57 028.6 m E Sg      2013/01/01 08:20:06.3  -0.7                          T                  1  .21 Ml 1.7         5153553

.
EVENT     289328
    Date      Time       Latitude Longitude    Depth    Ndef Nsta Gap    Mag1  N    Mag2  N    Mag3  N   Author         ID
       rms   OT_Error      Smajor Sminor Az        Err   mdist  Mdist     Err        Err        Err      Quality

2013/01/01 08:43:06.9     43.0267    -.2064      2.0      12    6 154  Ml 1.6  3  Md 1.5  2              bulletin    289428
                                                                                                         _ldg
      0.22   +-  0.07       3.2    1.2  168.46 +-  0.0    0.29   2.51   +-0.1      +-0.1                 m i ke

PYRENEES
Sta     Dist  EvAz     Phase      Date       Time     TRes  Azim  AzRes  Slow  SRes Def   SNR       Amp   Per   Mag1   Mag2       ID
ETSF  000.29 243.8 m E Pg      2013/01/01 08:43:12.6  -0.1                          T                                        5153581
ETSF  000.29 243.8 m E Sg      2013/01/01 08:43:16.7   0.1                          T               10.2  .24        Md 1.6  5153580
EPF   000.40 089.3 m E Pg      2013/01/01 08:43:14.7   0.0                          T                                        5153578
EPF   000.40 089.3 m E Sg      2013/01/01 08:43:20.4   0.4                          T                4.3  .37        Md 1.5  5153579
SJPF  000.75 277.0 m E Pg      2013/01/01 08:43:21.1   0.0                          T                                        5153576
SJPF  000.75 277.0 m E Sg      2013/01/01 08:43:30.9   0.0                          T                1.0  .22                5153577
MTLF  001.80 079.1 m E Pn      2013/01/01 08:43:37.4   0.1                          T                                        5169815
MTLF  001.80 079.1 m E Sg      2013/01/01 08:44:03.7   0.1                          T                 .7  .28 Ml 1.5         5169814
CAF   002.51 040.0 m E Pn      2013/01/01 08:43:47.2   0.3                          T                                        5169813
LFF   002.03 019.3 m E Sg      2013/01/01 08:44:10.5  -0.3                          T                1.4  .32 Ml 1.7         5174350

.
EVENT     290215
    Date      Time       Latitude Longitude    Depth    Ndef Nsta Gap    Mag1  N    Mag2  N    Mag3  N   Author         ID
       rms   OT_Error      Smajor Sminor Az        Err   mdist  Mdist     Err        Err        Err      Quality

2013/01/01 08:43:39.6     42.6334     .8332      9.0 f    14    3 085  Ml 1.2  2  Md 1.4  1              bulletin    290315
                                                                                                         _ldg
      0.21   +-  0.05       1.1     .8   28.51 +-  0.0    0.08   1.24   +-0.3      +-                    m i ke

PYRENEES
Sta     Dist  EvAz     Phase      Date       Time     TRes  Azim  AzRes  Slow  SRes Def   SNR       Amp   Per   Mag1   Mag2       ID
EPF   000.54 317.7 m E Pg      2013/01/01 08:43:50.2   0.2                          T                                        5168563
EPF   000.54 317.7 m E Sg      2013/01/01 08:43:56.9  -0.2                          T                 .7  .14        Md 1.4  5168561
ETSF  001.06 285.0 m E Pg      2013/01/01 08:43:59.8   0.2                          T                                        5168564
ETSF  001.06 285.0 m E Sg      2013/01/01 08:44:13.4   0.0                          T                 .3  .20 Ml 1           5168562
MTLF  001.24 054.7 m E Pg      2013/01/01 08:44:02.8   0.0                          T                                        5174355
MTLF  001.24 054.7 m E Sg      2013/01/01 08:44:18.9   0.1                          T                 .7  .25 Ml 1.4         5168559

.
