EVENT     286819
    Date      Time       Latitude Longitude    Depth    Ndef Nsta Gap    Mag1  N    Mag2  N    Mag3  N   Author         ID
       rms   OT_Error      Smajor Sminor Az        Err   mdist  Mdist     Err        Err        Err      Quality

2012/11/12 23:18:45.1     42.4902   19.0439     15.0 f   165   26 038  Ml 4.6 22                         bulletin    286919
                                                                                                         _ldg
      2.43   +-  0.20       6.0    4.4   27.22 +-  0.0    0.17  17.05   +-0.3                            m i ke

NORTHWESTERN BALKAN PEN.
Sta     Dist  EvAz     Phase      Date       Time     TRes  Azim  AzRes  Slow  SRes Def   SNR       Amp   Per   Mag1   Mag2       ID
PGF   007.42 273.8 m E Pn      2012/11/12 23:20:31.6   1.0                          T   001.0                                5116039
SBF   008.60 283.1 m E Pn      2012/11/12 23:20:46.2  -0.3                          T   001.0                                5116040
SBF   008.60 283.1 m E Sn      2012/11/12 23:22:19.3   1.8                          T              102.4  .72 Ml 4.7         5116161
MBDF  009.18 288.3 m E Pn      2012/11/12 23:20:53.4  -1.2                          T   001.0                                5116048
MBDF  009.18 288.3 m E Sn      2012/11/12 23:22:32.6   0.9                          T   001.0       77.6  .66 Ml 4.7         5116049
FRF   009.15 280.9 m E Pn      2012/11/12 23:20:53.9   0.0                          T   001.0                                5116032
FRF   009.15 280.9 m E Sn      2012/11/12 23:22:31.6   0.9                          T   001.0       22.7  .58 Ml 4.2         5116033
LPG   009.36 292.9 m E Pn      2012/11/12 23:20:55.7  -1.5                          T   001.0                                5116037
LPG   009.36 292.9 m E Sn      2012/11/12 23:22:35.6  -0.4                          T              148.3  .74 Ml 4.9         5116165
LMR   009.24 279.5 m E Pn      2012/11/12 23:20:55.7   0.5                          T   001.0                                5116035
LMR   009.24 279.5 m E Sn      2012/11/12 23:22:34.3   1.4                          T                4.7  .32 Ml 3.8         5116162
LPL   009.37 293.0 m E Pn      2012/11/12 23:20:56.3  -1.1                          T   001.0                                5116038
LPL   009.37 293.0 m E Sn      2012/11/12 23:22:37.1   0.8                          T              168.2  .79 Ml 5.0         5116164
ORIF  009.84 288.7 m E Pn      2012/11/12 23:21:03.9   0.4                          T   001.0                                5116051
ORIF  009.84 288.7 m E Sn      2012/11/12 23:22:47.8   0.5                          T   001.0       77.8  .64 Ml 4.8         5116052
CABF  010.12 298.4 m E Pn      2012/11/12 23:21:06.3  -1.1                          T   001.0                                5116044
CABF  010.12 298.4 m E Sn      2012/11/12 23:22:54.3   0.2                          T   001.0       39.4  .64 Ml 4.5         5116045
HINF  010.12 305.9 m E Pn      2012/11/12 23:21:06.8  -0.5                          T   001.0                                5116046
HINF  010.12 305.9 m E Sn      2012/11/12 23:22:53.8  -0.2                          T   001.0       36.4  .44 Ml 4.7         5116047
CDF   010.16 309.6 m E Pn      2012/11/12 23:21:07.4  -0.5                          T   001.0                                5116031
VIVF  010.68 287.7 m E Pn      2012/11/12 23:21:14.5  -0.4                          T   001.0                                5116054
VIVF  010.68 287.7 m E Sn      2012/11/12 23:23:08.5   1.2                          T               26.2  .92 Ml 4.3         5116163
PAGF  011.13 307.6 m E Pn      2012/11/12 23:21:22.8   1.7 125.5  7.4               T                                        5116173
PAGF  011.13 307.6 m E Sn      2012/11/12 23:23:20.4   2.3                          T               35.9  .78 Ml 4.6         5116160
SFTF  011.39 304.9 m E Pn      2012/11/12 23:21:25.7   1.2 124.6  9.6               T                                        5116174
SFTF  011.39 304.9 m E Sn      2012/11/12 23:23:25.4   1.2                          T               31.3  .75 Ml 4.5         5116156
SMF   011.61 296.1 m E Pn      2012/11/12 23:21:26.1  -1.5                          T   001.0                                5116041
SMF   011.61 296.1 m E Sn      2012/11/12 23:23:30.6   1.0                          T              119.2  .80 Ml 5.1         5116169
MEZF  011.51 306.3 m E Pn      2012/11/12 23:21:27.9   1.8 125.7  9.4               T   001.0                                5116050
MEZF  011.51 306.3 m E Sn      2012/11/12 23:23:28.5   1.5                          T               10.2  .54 Ml 4.2         5116157
LOR   011.78 299.1 m E Pn      2012/11/12 23:21:29.8  -0.1 115.8  7.4               T   001.0                                5116036
LOR   011.78 299.1 m E Sn      2012/11/12 23:23:34.2   0.6                          T                                        5116172
SSF   011.95 297.8 m E Pn      2012/11/12 23:21:31.3  -0.8                          T   001.0                                5116042
SSF   011.95 297.8 m E Sn      2012/11/12 23:23:38.5   0.9                          T               26.7  .54 Ml 4.8         5116158
AVF   011.97 296.4 m E Pn      2012/11/12 23:21:32.1  -0.4                          T   001.0                                5116028
AVF   011.97 296.4 m E Sn      2012/11/12 23:23:38.2   0.0                          T               36.4  .82 Ml 4.6         5116175
BGF   012.25 294.9 m E Pn      2012/11/12 23:21:34.2  -2.1                          T   001.0                                5116029
BGF   012.25 294.9 m E Sn      2012/11/12 23:23:46.4   1.5                          T               57.4  .66 Ml 5.0         5116168
GIVF  012.42 312.7 m E Pn      2012/11/12 23:21:39.8   1.2                          T                                        5116171
GIVF  012.42 312.7 m E Sn      2012/11/12 23:23:49.7   0.8                          T                3.4  .22 Ml 4.2         5116159
CAF   012.53 287.0 m E Pn      2012/11/12 23:21:40.2   0.2                          T   001.0                                5116030
TCF   012.62 293.2 m E Pn      2012/11/12 23:21:40.6  -0.8                          T   001.0                                5116043
TCF   012.62 293.2 m E Sn      2012/11/12 23:23:54.3   0.5                          T               21.1  .70 Ml 4.6         5116167
HYF   012.57 297.9 m E Pn      2012/11/12 23:21:40.8   0.2                          T                                        5116155
HYF   012.57 297.9 m E Sn      2012/11/12 23:23:53.7   1.2                          T                                        5116154
BAIF  012.74 311.5 m E Pn      2012/11/12 23:21:43.4   0.5                          T                                        5116170
RJF   012.95 288.5 m E Pn      2012/11/12 23:21:44.1  -1.7                          T   001.0                                5116027
RJF   012.95 288.5 m E Sn      2012/11/12 23:24:02.6   1.0                          T               14.3  .85 Ml 3.9         5116166

.
EVENT     286817
    Date      Time       Latitude Longitude    Depth    Ndef Nsta Gap    Mag1  N    Mag2  N    Mag3  N   Author         ID
       rms   OT_Error      Smajor Sminor Az        Err   mdist  Mdist     Err        Err        Err      Quality

2012/11/13 02:04:01.1     43.7974    7.3900      2.0      11    4 069  Ml 1.1  1  Md 1.3  2              bulletin    286917
                                                                                                         _ldg
      0.37   +-  0.13       3.4    2.5  131.80 +-  0.0    0.06   1.03   +-         +-0.2                 m i ke

NEAR SOUTH COAST OF FRANCE
Sta     Dist  EvAz     Phase      Date       Time     TRes  Azim  AzRes  Slow  SRes Def   SNR       Amp   Per   Mag1   Mag2       ID
SBF   000.07 026.5 m E Pg      2012/11/13 02:04:02.4  -0.5                          T                                        5115812
SBF   000.07 026.5 m E Sg      2012/11/13 02:04:03.9  -0.3                          T              131.2  .28        Md 1.4  5115811
FRF   000.59 246.6 m E Pg      2012/11/13 02:04:12.2  -0.1                          T                                        5115808
FRF   000.59 246.6 m E Sg      2012/11/13 02:04:20.4   0.4                          T                2.1  .23        Md 1.2  5115807
LMR   000.79 234.4 m E Pg      2012/11/13 02:04:15.8  -0.2                          T                                        5115810
LMR   000.79 234.4 m E Sg      2012/11/13 02:04:29.1   2.8                          T                5.4  .19                5115809
MBDF  001.03 334.7 m E Sg      2012/11/13 02:04:34.0   0.0                          T                 .3  .20 Ml 1.1         5121244

.
EVENT     286818
    Date      Time       Latitude Longitude    Depth    Ndef Nsta Gap    Mag1  N    Mag2  N    Mag3  N   Author         ID
       rms   OT_Error      Smajor Sminor Az        Err   mdist  Mdist     Err        Err        Err      Quality

2012/11/13 05:52:01.6     43.8324    7.8122      4.0 f    54   12 098  Ml 2.1 13  Md 2.1  3              bulletin    286918
                                                                                                         _ldg
      1.02   +-  0.15       2.6    2.3  135.85 +-  0.0    0.08   4.09   +-0.4      +-0.0                 m i ke

NEAR SOUTH COAST OF FRANCE
Sta     Dist  EvAz     Phase      Date       Time     TRes  Azim  AzRes  Slow  SRes Def   SNR       Amp   Per   Mag1   Mag2       ID
SBF   000.27 276.5 m E Pg      2012/11/13 05:52:06.9  -0.2                          T                                        5115868
SBF   000.27 276.5 m E Sg      2012/11/13 05:52:10.9   0.0                          T              108.6  .20        Md 2.1  5115867
FRF   000.89 252.6 m E Pg      2012/11/13 05:52:18.3   0.0                          T                                        5115865
FRF   000.89 252.6 m E Sg      2012/11/13 05:52:29.8   0.0                          T               12.3  .20 Ml 2.6 Md 2.1  5115864
LMR   001.07 242.7 m E Pg      2012/11/13 05:52:21.0  -0.5                          T                                        5115866
LMR   001.07 242.7 m E Sg      2012/11/13 05:52:35.3  -0.2                          T                6.3  .22 Ml 2.3 Md 2.1  5115863
MBDF  001.17 320.5 m E Pg      2012/11/13 05:52:23.4  -0.1                          T                                        5115859
MBDF  001.17 320.5 m E Sg      2012/11/13 05:52:37.6  -1.1                          T                4.1  .25 Ml 2.1         5115858
PGF   001.55 145.5 m E Pn      2012/11/13 05:52:28.0  -0.4                          T                                        5115861
PGF   001.55 145.5 m E Sn      2012/11/13 05:52:46.8  -0.9                          T                1.3  .17 Ml 2.2         5115860
SMRF  001.62 275.8 m E Pn      2012/11/13 05:52:30.6   1.3                          T                                        5115862
SMRF  001.62 275.8 m E Sn      2012/11/13 05:52:50.1   0.6                          T                                        5115856
SMRF  001.62 275.8 m E Sg      2012/11/13 05:52:53.5   0.7                          T                9.9  .24 Ml 2.7         5115855
ORIF  001.76 308.8 m E Pn      2012/11/13 05:52:31.7   0.5                          T                                        5115857
ORIF  001.76 308.8 m E Pg      2012/11/13 05:52:34.5   0.0                          T                                        5116083
ORIF  001.76 308.8 m E Sn      2012/11/13 05:52:53.6   0.8                          T                                        5116082
ORIF  001.76 308.8 m E Sg      2012/11/13 05:52:57.4   0.3                          T                3.5  .29 Ml 2.2         5116081
LPG   001.83 335.9 m E Pn      2012/11/13 05:52:32.6   0.2                          T                                        5115854
LPG   001.83 335.9 m E Sn      2012/11/13 05:52:54.2  -0.5                          T                 .9  .20 Ml 1.8         5115853
LPL   001.85 335.8 m E Pn      2012/11/13 05:52:33.4   0.7                          T                                        5116074
LPL   001.85 335.8 m E Pg      2012/11/13 05:52:36.5   0.2                          T                                        5116073
LPL   001.85 335.8 m E Sn      2012/11/13 05:52:55.5   0.4                          T                                        5116072
LPL   001.85 335.8 m E Sg      2012/11/13 05:53:00.1   0.0                          T                1.1  .24 Ml 1.8         5116071
VIVF  002.47 295.5 m E Pn      2012/11/13 05:52:41.3   0.5                          T                                        5116080
VIVF  002.47 295.5 m E Pg      2012/11/13 05:52:47.7   0.2                          T                                        5116079
VIVF  002.47 295.5 m E Sn      2012/11/13 05:53:10.3   0.6                          T                                        5116078
VIVF  002.47 295.5 m E Sg      2012/11/13 05:53:19.9   0.6                          T                1.4  .33 Ml 2.0         5116077
LASF  002.87 276.2 m E Pn      2012/11/13 05:52:47.0   0.8                          T                                        5116076
LASF  002.87 276.2 m E Sn      2012/11/13 05:53:20.2   1.1                          T                 .5  .20 Ml 1.8         5116075
MTLF  004.09 265.0 m E Pn      2012/11/13 05:53:04.2   1.3                          T                                        5116066
MTLF  004.09 265.0 m E Sn      2012/11/13 05:53:48.0  -0.4                          T                 .2  .20 Ml 1.6         5116065

.
EVENT     286847
    Date      Time       Latitude Longitude    Depth    Ndef Nsta Gap    Mag1  N    Mag2  N    Mag3  N   Author         ID
       rms   OT_Error      Smajor Sminor Az        Err   mdist  Mdist     Err        Err        Err      Quality

2012/11/13 07:06:32.7     38.1928   15.8584     75.0 f    51   16 093  Ml 3.8  3                         bulletin    286947
                                                                                                         _ldg
      0.60   +-  0.13       3.2    2.8  121.72 +-  0.0    0.07  15.85   +-0.3                            m i ke

SICILY, ITALY
Sta     Dist  EvAz     Phase      Date       Time     TRes  Azim  AzRes  Slow  SRes Def   SNR       Amp   Per   Mag1   Mag2       ID
PGF   006.81 311.9 m E P       2012/11/13 07:08:12.7   0.6                          T                                        5121247
PGF   006.81 311.9 m E Sn      2012/11/13 07:09:21.5  -0.2                          T               25.0  .63 Ml 4.1         5116139
MBDF  009.44 316.6 m E P       2012/11/13 07:08:49.7   1.4                          T                                        5116146
LPL   009.99 320.0 m E P       2012/11/13 07:08:55.1  -0.7                          T                                        5116147
LPG   009.97 320.0 m E P       2012/11/13 07:08:55.6   0.0                          T                                        5116148
ORIF  010.05 315.1 m E P       2012/11/13 07:08:56.6   0.1                          T                                        5121248
VIVF  010.70 312.0 m E P       2012/11/13 07:09:05.5   0.3                          T                                        5116136
CABF  011.08 322.5 m E P       2012/11/13 07:09:10.3  -0.1                          T                                        5116145
HINF  011.65 328.5 m E P       2012/11/13 07:09:17.7  -0.3                          T                                        5116144
HINF  011.65 328.5 m E Sn      2012/11/13 07:11:16.4  -0.5                          T                3.1  .48 Ml 3.8         5121245
CDF   011.97 331.3 m E P       2012/11/13 07:09:22.2   0.0                          T                                        5121252
SMF   012.24 317.4 m E Pn      2012/11/13 07:09:22.9   0.0                          T                                        5121250
AVF   012.60 317.0 m E P       2012/11/13 07:09:30.4   0.0                          T                                        5121251
GIVF  014.28 330.0 m E P       2012/11/13 07:09:52.5   0.1                          T                                        5116142
MFF   014.49 310.5 m E P       2012/11/13 07:09:55.0  -0.1                          T                                        5121249
SBF   008.52 314.3 m E Sn      2012/11/13 07:10:01.8  -0.5                          T                3.5  .32 Ml 3.5         5121246
LDF   015.56 317.0 m E P       2012/11/13 07:10:08.8   0.0                          T                                        5116140
FLN   015.85 317.0 m E P       2012/11/13 07:10:12.7   0.2                          T                                        5116141

.
EVENT     286866
    Date      Time       Latitude Longitude    Depth    Ndef Nsta Gap    Mag1  N    Mag2  N    Mag3  N   Author         ID
       rms   OT_Error      Smajor Sminor Az        Err   mdist  Mdist     Err        Err        Err      Quality

2012/11/13 09:03:28.5     44.6263    7.2419     11.0 f    26    6 127  Ml 2.0  5  Md 1.8  3              bulletin    286966
                                                                                                         _ldg
      0.25   +-  0.05       1.2     .7   71.87 +-  0.0    0.12   1.40   +-0.2      +-0.1                 m i ke

NORTHERN ITALY
Sta     Dist  EvAz     Phase      Date       Time     TRes  Azim  AzRes  Slow  SRes Def   SNR       Amp   Per   Mag1   Mag2       ID
MBDF  000.35 286.9 m E Pg      2012/11/13 09:03:35.8   0.1                          T                                        5116266
MBDF  000.35 286.9 m E Sg      2012/11/13 09:03:40.3  -0.2                          T               37.9  .24        Md 1.8  5116265
LPG   000.94 338.4 m E Pg      2012/11/13 09:03:46.4  -0.1                          T                                        5116264
LPG   000.94 338.4 m E Sg      2012/11/13 09:03:58.7  -0.1                          T                1.6  .20 Ml 1.7 Md 1.7  5116263
LPL   000.96 338.1 m E Pg      2012/11/13 09:03:46.8  -0.1                          T                                        5116256
LPL   000.96 338.1 m E Sg      2012/11/13 09:03:59.4  -0.1                          T                2.9  .26 Ml 1.8         5116255
ORIF  001.01 287.2 m E Pg      2012/11/13 09:03:47.8   0.1                          T                                        5116260
ORIF  001.01 287.2 m E Sg      2012/11/13 09:04:00.2  -0.7                          T                3.2  .22 Ml 2.0 Md 1.7  5116259
FRF   001.15 202.1 m E Pg      2012/11/13 09:03:50.3   0.3                          T                                        5116262
FRF   001.15 202.1 m E Sg      2012/11/13 09:04:05.2   0.2                          T                3.1  .21 Ml 2.1         5116261
LMR   001.40 202.5 m E Pg      2012/11/13 09:03:54.7   0.1                          T                                        5116258
LMR   001.40 202.5 m E Sg      2012/11/13 09:04:12.8   0.1                          T                4.1  .24 Ml 2.2         5116257

.
