BEGIN GSE2.0
MSG_TYPE DATA
MSG_ID 31-MAY-1113:12:20  FRA_NDC
E-MAIL
DATA_TYPE BULLETIN
Reviewed Bulletin (REB) # P2011-020  from French NDC for regional phases     PERIOD 18 MAY 2011 TO 24 MAY 2011 C M., J-P S
EVENT     259394
    Date      Time       Latitude Longitude    Depth    Ndef Nsta Gap    Mag1  N    Mag2  N    Mag3  N   Author         ID
       rms   OT_Error      Smajor Sminor Az        Err   mdist  Mdist     Err        Err        Err      Quality

2011/05/18 04:48:50.1     44.5864    7.2025      2.0      20    9 186  Ml 1.6  8  Md 1.9  3              js067245    259394

      0.20   +-  0.09       1.9     .9   75.86 +-  0.0    0.34   1.82   +-0.2      +-0.0                 m i ke

NORTHERN ITALY
Sta     Dist  EvAz     Phase      Date       Time     TRes  Azim  AzRes  Slow  SRes Def   SNR       Amp   Per   Mag1   Mag2       ID
MBDF  000.34 294.7 m E Pg      2011/05/18 04:48:57.0   0.2                          T                                        4692858
MBDF  000.34 294.7 m E Sg      2011/05/18 04:49:01.7   0.3                          T                7.6  .18        Md 1.9  4692853
SBF   000.74 166.9 m E Pg      2011/05/18 04:49:04.2   0.0                          T                                        4692867
SBF   000.74 166.9 m E Sg      2011/05/18 04:49:13.9   0.1                          T                2.9  .35        Md 1.9  4692866
LPG   000.97 340.8 m E Pg      2011/05/18 04:49:08.5   0.0                          T                                        4692856
LPG   000.97 340.8 m E Sg      2011/05/18 04:49:21.1   0.0                          T                1.5  .30 Ml 1.5 Md 1.9  4692863
LPL   000.99 340.5 m E Pg      2011/05/18 04:49:08.8  -0.1                          T                                        4692869
LPL   000.99 340.5 m E Sg      2011/05/18 04:49:21.7   0.0                          T                1.6  .36 Ml 1.5         4692870
ORIF  001.00 289.9 m E Pg      2011/05/18 04:49:08.8  -0.1                          T                                        4692857
ORIF  001.00 289.9 m E Sg      2011/05/18 04:49:21.5  -0.4                          T                1.3  .26 Ml 1.5         4692852
FRF   001.10 201.5 m E Pg      2011/05/18 04:49:11.1   0.4                          T                                        4692855
FRF   001.10 201.5 m E Sg      2011/05/18 04:49:24.8  -0.2                          T                2.2  .24 Ml 1.9         4692865
SMRF  001.32 243.0 m E Pg      2011/05/18 04:49:14.6  -0.1                          T                                        4692868
SMRF  001.32 243.0 m E Sg      2011/05/18 04:49:31.9   0.1                          T                1.1  .30 Ml 1.5         4692864
LMR   001.35 202.0 m E Pg      2011/05/18 04:49:14.8  -0.4                          T                                        4692854
LMR   001.35 202.0 m E Sg      2011/05/18 04:49:32.8   0.1                          T                1.6  .23 Ml 1.8         4692851
VIVF  001.82 279.4 m E Pn      2011/05/18 04:49:20.8   0.0                          T                                        4692862
VIVF  001.82 279.4 m E Sn      2011/05/18 04:49:43.2   0.2                          T                1.3  .50 Ml 1.6         4692861

.
EVENT     259412
    Date      Time       Latitude Longitude    Depth    Ndef Nsta Gap    Mag1  N    Mag2  N    Mag3  N   Author         ID
       rms   OT_Error      Smajor Sminor Az        Err   mdist  Mdist     Err        Err        Err      Quality

2011/05/18 05:00:25.1     45.3274    6.5303      2.0      16    7 145  Ml 2.0  3  Md 1.9  3              js067245    259412

      0.09   +-  0.02        .6     .3  130.41 +-  0.0    0.23   1.60   +-0.3      +-0.1                 m i ke

FRANCE
Sta     Dist  EvAz     Phase      Date       Time     TRes  Azim  AzRes  Slow  SRes Def   SNR       Amp   Per   Mag1   Mag2       ID
LPG   000.23 042.4 m E Pg      2011/05/18 05:00:30.0  -0.1                          T                                        4692883
LPG   000.23 042.4 m E Sg      2011/05/18 05:00:33.2  -0.1                          T               12.4  .16        Md 1.9  4692879
LPL   000.24 036.9 m E Pg      2011/05/18 05:00:30.1   0.0                          T                                        4692884
LPL   000.24 036.9 m E Sg      2011/05/18 05:00:33.2  -0.1                          T               14.2  .16        Md 1.9  4692880
ORIF  000.62 228.6 m E Pg      2011/05/18 05:00:36.9   0.0                          T                                        4692882
ORIF  000.62 228.6 m E Sg      2011/05/18 05:00:44.9  -0.1                          T               11.3  .28        Md 1.8  4692878
MBDF  000.62 164.0 m E Pg      2011/05/18 05:00:37.1   0.0                          T                                        4692881
MBDF  000.62 164.0 m E Sg      2011/05/18 05:00:45.0  -0.3                          T                7.8  .30                4692877
VIVF  001.40 251.0 m E Pg      2011/05/18 05:00:51.2   0.0                          T                                        4692875
VIVF  001.40 251.0 m E Sg      2011/05/18 05:01:09.2  -0.1                          T                4.4  .38 Ml 2.1         4692876
SMRF  001.51 207.1 m E Pg      2011/05/18 05:00:53.4   0.1                          T                                        4692873
SMRF  001.51 207.1 m E Sg      2011/05/18 05:01:12.9   0.0                          T                2.5  .61 Ml 1.7         4692872
SBF   001.60 155.9 m E Pg      2011/05/18 05:00:55.0   0.0                          T                                        4692874
SBF   001.60 155.9 m E Sg      2011/05/18 05:01:15.4  -0.2                          T                8.7  .76 Ml 2.1         4692871

.
EVENT     259425
    Date      Time       Latitude Longitude    Depth    Ndef Nsta Gap    Mag1  N    Mag2  N    Mag3  N   Author         ID
       rms   OT_Error      Smajor Sminor Az        Err   mdist  Mdist     Err        Err        Err      Quality

2011/05/18 15:19:37.4     46.3235    7.8594      7.0 f    18    6 123  Ml 2.1  7  Md 2.1  3              js067245    259425

      0.30   +-  0.08       2.2    1.1  103.43 +-  0.0    0.11   2.68   +-0.1      +-0.0                 m i ke

SWITZERLAND
Sta     Dist  EvAz     Phase      Date       Time     TRes  Azim  AzRes  Slow  SRes Def   SNR       Amp   Per   Mag1   Mag2       ID
LPL   001.13 224.7 m E Pg      2011/05/18 15:19:58.5  -0.3                          T                                        4693058
LPL   001.13 224.7 m E Sg      2011/05/18 15:20:13.9   0.4                          T                5.1  .39 Ml 2.0 Md 2.1  4693055
LPG   001.13 223.5 m E Pg      2011/05/18 15:19:58.8  -0.2                          T                                        4693057
LPG   001.13 223.5 m E Sg      2011/05/18 15:20:14.0   0.4                          T                5.0  .32 Ml 2.1 Md 2.1  4693056
MBDF  001.77 206.0 m E Pg      2011/05/18 15:20:10.6   0.0                          T                                        4693051
MBDF  001.77 206.0 m E Sg      2011/05/18 15:20:33.8   0.4                          T                3.2  .42 Ml 2.0 Md 2.1  4693053
ORIF  001.98 225.4 m E Pg      2011/05/18 15:20:14.0  -0.3                          T                                        4693052
ORIF  001.98 225.4 m E Sg      2011/05/18 15:20:40.1   0.3                          T                1.4  .32 Ml 1.9         4693054
SBF   002.48 187.1 m E Pg      2011/05/18 15:20:23.4  -0.2                          T                                        4693048
SBF   002.48 187.1 m E Sg      2011/05/18 15:20:55.8   0.4                          T                2.7  .28 Ml 2.3         4693047
VIVF  002.68 237.9 m E Pg      2011/05/18 15:20:26.8  -0.3                          T                                        4693049
VIVF  002.68 237.9 m E Sg      2011/05/18 15:21:01.9   0.3                          T                2.5  .38 Ml 2.2         4693050

.
EVENT     259601
    Date      Time       Latitude Longitude    Depth    Ndef Nsta Gap    Mag1  N    Mag2  N    Mag3  N   Author         ID
       rms   OT_Error      Smajor Sminor Az        Err   mdist  Mdist     Err        Err        Err      Quality

2011/05/18 15:51:53.4     42.7736    1.7865       .0 f    17    4 104  Ml 2.0  3  Md 2.0  2              js067245    259601

      0.49   +-  0.09       2.0    1.7    5.05 +-  0.0    0.33   2.23   +-0.2      +-0.1                 m i km

PYRENEES
Sta     Dist  EvAz     Phase      Date       Time     TRes  Azim  AzRes  Slow  SRes Def   SNR       Amp   Per   Mag1   Mag2       ID
MTLF  000.65 029.0 m E Pg      2011/05/18 15:52:05.7  -0.2                          T                                        4697222
MTLF  000.65 029.0 m E P       2011/05/18 15:52:07.4   0.2                          T                                        4697225
MTLF  000.65 029.0 m E Sg      2011/05/18 15:52:13.9  -0.7                          T                4.5  .46        Md 2.1  4697226
EPF   001.09 284.1 m E Pg      2011/05/18 15:52:14.4   0.2                          T                                        4697223
EPF   001.09 284.1 m E Sg      2011/05/18 15:52:29.5   0.9                          T                6.3  .30 Ml 2.2 Md 2.0  4697224
ETSF  001.73 274.9 m E Pg      2011/05/18 15:52:25.8  -0.1                          T                                        4697220
ETSF  001.73 274.9 m E Sg      2011/05/18 15:52:48.5   0.0                          T                1.5  .30 Ml 1.8         4697221
LASF  001.99 048.5 m E Sg      2011/05/18 15:52:56.1  -0.5                          T                1.2  .21 Ml 2.0         4697219

.
EVENT     259432
    Date      Time       Latitude Longitude    Depth    Ndef Nsta Gap    Mag1  N    Mag2  N    Mag3  N   Author         ID
       rms   OT_Error      Smajor Sminor Az        Err   mdist  Mdist     Err        Err        Err      Quality

2011/05/18 20:15:37.4     43.1158    -.4303      2.0      82   13 079  Ml 2.5 13  Md 2.4  3              js067245    259432

      0.58   +-  0.05       1.2     .9  155.81 +-  0.0    0.05   4.65   +-0.2      +-0.0                 m i ke

PYRENEES
Sta     Dist  EvAz     Phase      Date       Time     TRes  Azim  AzRes  Slow  SRes Def   SNR       Amp   Per   Mag1   Mag2       ID
ETSF  000.24 203.6 m E Pg      2011/05/18 20:15:41.4  -0.8                          T                                        4693090
ETSF  000.24 203.6 m E Sg      2011/05/18 20:15:44.1  -1.3                          T               48.3  .16        Md 2.4  4693086
EPF   000.57 098.3 m E Pg      2011/05/18 20:15:47.2  -1.1                          T                                        4693088
EPF   000.57 098.3 m E Sg      2011/05/18 20:15:54.9  -0.9                          T               24.3  .22        Md 2.4  4693084
SJPF  000.58 270.0 m E Pg      2011/05/18 20:15:48.5   0.1                          T                                        4693089
SJPF  000.58 270.0 m E Sg      2011/05/18 20:15:56.3   0.2                          T                9.8  .20        Md 2.4  4693085
MTLF  001.95 082.5 m E Pn      2011/05/18 20:16:10.0   0.3                          T                                        4693079
MTLF  001.95 082.5 m E Sg      2011/05/18 20:16:37.5  -1.2                          T                3.3  .20 Ml 2.4         4693083
LFF   002.01 024.4 m E Pn      2011/05/18 20:16:10.4  -0.2                          T                                        4693080
LFF   002.01 024.4 m E Pg      2011/05/18 20:16:14.8   0.1                          T                                        4693087
LFF   002.01 024.4 m E Sg      2011/05/18 20:16:39.9  -0.7                          T               11.7  .34 Ml 2.6         4693082
CAF   002.55 044.0 m E Pn      2011/05/18 20:16:17.7  -0.2                          T                                        4693081
CAF   002.55 044.0 m E Pg      2011/05/18 20:16:24.3  -0.5                          T                                        4693068
CAF   002.55 044.0 m E Sg      2011/05/18 20:16:57.8   0.2                          T                3.8  .18 Ml 2.7         4693073
RJF   002.60 031.9 m E Pn      2011/05/18 20:16:18.5  -0.1                          T                                        4693078
RJF   002.60 031.9 m E Pg      2011/05/18 20:16:24.9  -0.7                          T                                        4693069
RJF   002.60 031.9 m E Sg      2011/05/18 20:16:58.8  -0.2                          T                5.4  .27 Ml 2.3         4693072
LASF  003.26 071.4 m E Pn      2011/05/18 20:16:28.0   0.4                          T                                        4693075
LASF  003.26 071.4 m E Sg      2011/05/18 20:17:19.3  -0.3                          T                2.4  .28 Ml 2.4         4693074
MFF   003.49 003.2 m E Pn      2011/05/18 20:16:30.7   0.0                          T                                        4693077
MFF   003.49 003.2 m E Pg      2011/05/18 20:16:42.2   0.2                          T                                        4693070
MFF   003.49 003.2 m E Sg      2011/05/18 20:17:27.0   0.2                          T                1.5  .23 Ml 2.5         4693071
VIVF  004.07 063.0 m E Pn      2011/05/18 20:16:39.0   0.3                          T                                        4693060
VIVF  004.07 063.0 m E Sg      2011/05/18 20:17:45.4   0.3                          T                1.4  .34 Ml 2.3         4693059
BGF   004.16 033.0 m E Pn      2011/05/18 20:16:40.1   0.3                          T                                        4693067
BGF   004.16 033.0 m E Sg      2011/05/18 20:17:47.8   0.2                          T               13.2  .52 Ml 3.1         4693062
AVF   004.55 034.8 m E Pn      2011/05/18 20:16:45.4   0.3                          T                                        4693066
AVF   004.55 034.8 m E Sg      2011/05/18 20:18:00.1   0.2                          T                1.3  .36 Ml 2.3         4693064
SMF   004.65 039.2 m E Pn      2011/05/18 20:16:46.8   0.2                          T                                        4693065
SMF   004.65 039.2 m E Sg      2011/05/18 20:18:03.4   0.2                          T                1.7  .36 Ml 2.5         4693063

.
EVENT     259426
    Date      Time       Latitude Longitude    Depth    Ndef Nsta Gap    Mag1  N    Mag2  N    Mag3  N   Author         ID
       rms   OT_Error      Smajor Sminor Az        Err   mdist  Mdist     Err        Err        Err      Quality

2011/05/19 02:12:17.0     45.2491    6.5417      2.0      20    9 132  Ml 1.8  5  Md 1.7  3              js067245    259426

      0.32   +-  0.08       1.9    1.2  114.57 +-  0.0    0.29   1.91   +-0.3      +-0.0                 m i ke

FRANCE
Sta     Dist  EvAz     Phase      Date       Time     TRes  Azim  AzRes  Slow  SRes Def   SNR       Amp   Per   Mag1   Mag2       ID
LPG   000.29 030.7 m E Pg      2011/05/19 02:12:22.9  -0.1                          T                                        4693112
LPG   000.29 030.7 m E Sg      2011/05/19 02:12:27.5   0.5                          T                7.1  .18        Md 1.7  4693106
LPL   000.30 026.6 m E Pg      2011/05/19 02:12:23.1  -0.1                          T                                        4693113
LPL   000.30 026.6 m E Sg      2011/05/19 02:12:27.4   0.2                          T                7.0  .20        Md 1.7  4693107
MBDF  000.55 162.6 m E Pg      2011/05/19 02:12:27.6  -0.1                          T                                        4693111
MBDF  000.55 162.6 m E Sg      2011/05/19 02:12:34.4  -0.4                          T                8.1  .29        Md 1.6  4693108
ORIF  000.57 235.0 m E Pg      2011/05/19 02:12:27.9  -0.2                          T                                        4693110
ORIF  000.57 235.0 m E Sg      2011/05/19 02:12:34.9  -0.7                          T                9.3  .20                4693109
VIVF  001.38 254.1 m E Pg      2011/05/19 02:12:43.7   0.9                          T                                        4693101
VIVF  001.38 254.1 m E Sg      2011/05/19 02:13:01.6   0.9                          T                5.1  .40 Ml 2.1         4693096
SMRF  001.45 208.8 m E Pg      2011/05/19 02:12:44.3   0.2                          T                                        4693105
SMRF  001.45 208.8 m E Sg      2011/05/19 02:13:03.3   0.5                          T                1.6  .56 Ml 1.5         4693097
SBF   001.53 154.9 m E Pg      2011/05/19 02:12:45.5  -0.1                          T                                        4693102
SBF   001.53 154.9 m E Sg      2011/05/19 02:13:05.1  -0.2                          T                2.4  .30 Ml 2.0         4693100
FRF   001.69 177.4 m E Pg      2011/05/19 02:12:48.6   0.1                          T                                        4693104
FRF   001.69 177.4 m E Sg      2011/05/19 02:13:10.4   0.1                          T                  1  .26 Ml 1.7         4693098
LMR   001.91 180.7 m E Pg      2011/05/19 02:12:52.8   0.2                          T                                        4693103
LMR   001.91 180.7 m E Sg      2011/05/19 02:13:17.4   0.1                          T                 .8  .30 Ml 1.6         4693099

.
