EVENT     253332
    Date      Time       Latitude Longitude    Depth    Ndef Nsta Gap    Mag1  N    Mag2  N    Mag3  N   Author         ID
       rms   OT_Error      Smajor Sminor Az        Err   mdist  Mdist     Err        Err        Err      Quality

2011/01/03 21:03:08.6     54.1277   -1.5327     10.0 f   100   37 083  Ml 3.7 37                         js067245    253352

      1.09   +-  0.14       4.0    2.7   61.14 +-  0.0    0.98  12.65   +-0.2                            m i ke

UNITED KINGDOM
Sta     Dist  EvAz     Phase      Date       Time     TRes  Azim  AzRes  Slow  SRes Def   SNR       Amp   Per   Mag1   Mag2       ID
FLN   005.41 172.6 m E Pn      2011/01/03 21:04:26.7  -0.4 353.5  0.1               T                                        4576923
FLN   005.41 172.6 m E Sn      2011/01/03 21:05:25.1  -0.8 355.7  2.3               T               19.7  .26 Ml 3.7         4576908
BAIF  005.40 136.7 m E Pn      2011/01/03 21:04:27.1   0.2                          T                                        4576875
BAIF  005.40 136.7 m E Sn      2011/01/03 21:05:25.4   0.0                          T                                        4578095
BAIF  005.40 136.7 m E Sg      2011/01/03 21:05:57.6   0.1                          T               63.5  .62 Ml 4.0         4576892
LDF   005.61 170.4 m E Pn      2011/01/03 21:04:29.7  -0.2                          T                                        4576922
LDF   005.61 170.4 m E Sn      2011/01/03 21:05:29.6  -1.0                          T                7.6  .24 Ml 3.5         4576909
GIVF  005.62 133.3 m E Pn      2011/01/03 21:04:30.4   0.4                          T                                        4576876
GIVF  005.62 133.3 m E Sn      2011/01/03 21:05:30.6  -0.2                          T                                        4578096
GIVF  005.62 133.3 m E Sg      2011/01/03 21:06:04.3  -0.2                          T               93.6  .84 Ml 4.1         4576891
GRR   005.76 175.5 m E Pn      2011/01/03 21:04:31.7  -0.3                          T                                        4576921
GRR   005.76 175.5 m E Sn      2011/01/03 21:05:33.3  -0.9                          T               13.3  .20 Ml 3.7         4576910
ROSF  005.90 191.4 m E Pn      2011/01/03 21:04:33.6  -0.2                          T                                        4576926
ROSF  005.90 191.4 m E Sn      2011/01/03 21:05:36.3  -1.2                          T               10.9  .30 Ml 3.6         4576905
SGMF  005.92 186.7 m E Pn      2011/01/03 21:04:33.9  -0.2                          T                                        4576925
SGMF  005.92 186.7 m E Sn      2011/01/03 21:05:36.5  -1.4                          T                7.0  .31 Ml 3.4         4576906
QUIF  006.30 190.1 m E Pn      2011/01/03 21:04:39.1  -0.2                          T                                        4576924
QUIF  006.30 190.1 m E Sn      2011/01/03 21:05:45.9  -1.2                          T                7.9  .22 Ml 3.7         4576907
RUP   006.92 126.4 m E Pn      2011/01/03 21:04:47.9   0.1                          T                                        4576936
RUP   006.92 126.4 m E Sn      2011/01/03 21:06:00.4  -1.5                          T                                        4578094
RUP   006.92 126.4 m E Sg      2011/01/03 21:06:45.0  -0.1                          T                                        4576893
MEZF  006.98 141.1 m E Pn      2011/01/03 21:04:49.6   1.1 323.2  -3.0              T                                        4576932
MEZF  006.98 141.1 m E Sn      2011/01/03 21:06:01.4  -1.9 318.0  -8.3              T               12.2  .30 Ml 3.9         4576896
PAGF  007.19 137.9 m E Pn      2011/01/03 21:04:52.7   1.2 312.7  -10.9             T                                        4576933
PAGF  007.19 137.9 m E Sn      2011/01/03 21:06:06.9  -1.5                          T                1.6  .30 Ml 3.0         4576895
SFTF  007.22 142.5 m E Pn      2011/01/03 21:04:53.0   1.1 325.6  -2.1              T                                        4576931
SFTF  007.22 142.5 m E Sn      2011/01/03 21:06:08.2  -1.0 327.2  -0.4              T                8.6  .17 Ml 4.0         4576897
HYF   007.36 157.2 m E Pn      2011/01/03 21:04:55.1   1.3                          T                                        4576877
HYF   007.36 157.2 m E Sn      2011/01/03 21:06:11.4  -1.0                          T                                        4576902
MFF   007.59 172.7 m E Pn      2011/01/03 21:04:56.4  -0.4                          T                                        4576920
MFF   007.59 172.7 m E Sn      2011/01/03 21:06:16.5  -1.3                          T                6.5  .36 Ml 3.8         4576953
THEF  007.56 138.3 m E Pn      2011/01/03 21:04:57.6   1.1                          T                                        4576930
THEF  007.56 138.3 m E Sn      2011/01/03 21:06:16.3  -1.0                          T                9.9  .24 Ml 4.0         4576898
LOR   007.67 151.4 m E Pn      2011/01/03 21:04:58.4   0.5 336.9  1.3               T                                        4576939
LOR   007.67 151.4 m E Sn      2011/01/03 21:06:18.0  -1.9                          T                6.5  .22 Ml 3.8         4576874
SSF   007.77 153.6 m E Pn      2011/01/03 21:04:59.4   0.2                          T                                        4576938
SSF   007.77 153.6 m E Sn      2011/01/03 21:06:20.8  -1.2                          T                9.3  .42 Ml 3.8         4576890
LANF  007.77 127.8 m E Pn      2011/01/03 21:05:01.0   1.7                          T                                        4576935
AVF   007.98 155.1 m E Pn      2011/01/03 21:05:01.7  -0.4                          T                                        4576878
AVF   007.98 155.1 m E Sn      2011/01/03 21:06:25.8  -1.3                          T                2.2  .28 Ml 3.3         4576873
HAU   007.88 137.8 m E Pn      2011/01/03 21:05:02.2   1.3                          T                                        4576929
HAU   007.88 137.8 m E Sn      2011/01/03 21:06:24.4  -0.6                          T                9.5  .30 Ml 3.7         4576899
BGF   008.08 158.0 m E Pn      2011/01/03 21:05:03.4  -0.1                          T                                        4576928
BGF   008.08 158.0 m E Sn      2011/01/03 21:06:27.0  -2.6                          T               25.5  .38 Ml 4.3         4576903
SMF   008.24 153.2 m E Pn      2011/01/03 21:05:05.1  -0.6                          T                                        4576880
SMF   008.24 153.2 m E Sn      2011/01/03 21:06:32.8  -0.6                          T                5.3  .20 Ml 3.9         4576901
TCF   008.21 161.5 m E Pn      2011/01/03 21:05:05.2  -0.1                          T                                        4576937
TCF   008.21 161.5 m E Sn      2011/01/03 21:06:31.7  -0.9                          T                8.4  .42 Ml 3.8         4576889
CDF   007.95 132.5 m E P       2011/01/03 21:05:06.5  -0.8                          T                                        4576934
CDF   007.95 132.5 m E Sn      2011/01/03 21:06:25.7  -0.9                          T                6.3  .48 Ml 3.6         4576894
RJF   009.05 166.2 m E Pn      2011/01/03 21:05:15.9  -0.8                          T                                        4576881
RJF   009.05 166.2 m E Sn      2011/01/03 21:06:51.5  -1.2                          T               11.6  .36 Ml 3.7         4576872
CABF  008.96 144.0 m E Pn      2011/01/03 21:05:16.0   0.4                          T                                        4576879
CABF  008.96 144.0 m E Sn      2011/01/03 21:06:49.0  -1.7                          T               10.7  .56 Ml 3.8         4576900
LFF   009.31 170.0 m E Pn      2011/01/03 21:05:19.8  -0.5                          T                                        4576882
LFF   009.31 170.0 m E Sn      2011/01/03 21:06:57.9  -1.2                          T                8.8  .38 Ml 3.8         4576911
CAF   009.50 164.3 m E Pn      2011/01/03 21:05:21.8  -1.2                          T                                        4576883
CAF   009.50 164.3 m E Sn      2011/01/03 21:07:02.0  -1.6                          T                6.6  .27 Ml 4.0         4576912
VIVF  010.12 154.0 m E Pn      2011/01/03 21:05:31.7   0.5                          T                                        4576886
VIVF  010.12 154.0 m E Sn      2011/01/03 21:07:17.9  -0.4                          T                1.1  .23 Ml 3.4         4578093
LPL   010.13 144.9 m E Pn      2011/01/03 21:05:32.6   0.8                          T                                        4576887
LPL   010.13 144.9 m E Sn      2011/01/03 21:07:16.7  -2.2                          T                2.7  .47 Ml 3.5         4576914
LPG   010.16 144.9 m E Pn      2011/01/03 21:05:32.9   0.7                          T                                        4576888
LPG   010.16 144.9 m E Sn      2011/01/03 21:07:17.1  -2.4                          T                5.9  .52 Ml 3.8         4576915
ORIF  010.39 149.5 m E Pn      2011/01/03 21:05:35.6   0.4                          T                                        4576885
ORIF  010.39 149.5 m E Sn      2011/01/03 21:07:22.5  -2.6                          T                3.0  .36 Ml 3.7         4576913
MBDF  010.84 146.8 m E Pn      2011/01/03 21:05:42.0   0.6                          T                                        4576916
SJPF  011.03 178.8 m E Pn      2011/01/03 21:05:43.1  -0.5                          T                                        4576919
SJPF  011.03 178.8 m E Sn      2011/01/03 21:07:37.9  -2.1                          T                1.3  .31 Ml 3.5         4576952
MTLF  011.07 165.6 m E Pn      2011/01/03 21:05:44.1  -0.1                          T                                        4576917
MTLF  011.07 165.6 m E Sn      2011/01/03 21:07:39.8  -1.3                          T                1.9  .44 Ml 3.5         4576951
EPF   011.17 172.9 m E Pn      2011/01/03 21:05:44.6  -1.1                          T                                        4576884
EPF   011.17 172.9 m E Sn      2011/01/03 21:07:42.8  -0.8                          T                2.5  .33 Ml 3.8         4576950
ETSF  011.26 176.3 m E Pn      2011/01/03 21:05:46.3  -0.5                          T                                        4576918

.
EVENT     253333
    Date      Time       Latitude Longitude    Depth    Ndef Nsta Gap    Mag1  N    Mag2  N    Mag3  N   Author         ID
       rms   OT_Error      Smajor Sminor Az        Err   mdist  Mdist     Err        Err        Err      Quality

2011/01/03 21:41:04.6     42.5879    1.2618     10.0 f    46    7 048  Ml 2.0  7  Md 2.1  3              js067245    253353

      0.57   +-  0.05       1.2    1.0   21.58 +-  0.0    0.01   3.35   +-0.2      +-0.0                 m i ke

PYRENEES
Sta     Dist  EvAz     Phase      Date       Time     TRes  Azim  AzRes  Slow  SRes Def   SNR       Amp   Per   Mag1   Mag2       ID
EPF   000.81 303.4 m E Pg      2011/01/03 21:41:19.7  -0.3                          T                                        4576996
EPF   000.81 303.4 m E Sg      2011/01/03 21:41:29.4  -1.2                          T                7.4  .24        Md 2.1  4576993
MTLF  001.03 042.7 m E Pg      2011/01/03 21:41:24.4   0.4                          T                                        4576995
MTLF  001.03 042.7 m E Sg      2011/01/03 21:41:37.2  -0.1                          T                2.6  .26 Ml 1.8 Md 2.1  4576992
ETSF  001.38 283.6 m E Pg      2011/01/03 21:41:30.7   0.2                          T                                        4576994
ETSF  001.38 283.6 m E Sg      2011/01/03 21:41:48.6   0.3                          T                6.6  .26 Ml 2.4 Md 2.0  4576990
SJPF  001.90 286.9 m E Pn      2011/01/03 21:41:35.6   0.1                          T                                        4576985
SJPF  001.90 286.9 m E Pg      2011/01/03 21:41:40.2   0.1                          T                                        4578099
SJPF  001.90 286.9 m E Sg      2011/01/03 21:42:04.9   0.3                          T                3.1  .36 Ml 2.1         4576991
CAF   002.41 013.7 m E Pn      2011/01/03 21:41:42.0  -0.4                          T                                        4576986
CAF   002.41 013.7 m E Sn      2011/01/03 21:42:10.1  -0.1                          T                                        4578098
CAF   002.41 013.7 m E Sg      2011/01/03 21:42:20.2  -0.3                          T                1.1  .22 Ml 2.0         4576989
LFF   002.38 351.0 m E Pn      2011/01/03 21:41:42.2   0.3                          T                                        4576987
LFF   002.38 351.0 m E Sg      2011/01/03 21:42:19.5   0.1                          T                1.0  .26 Ml 1.7         4576988
VIVF  003.35 046.3 m E Sg      2011/01/03 21:42:49.8  -0.1                          T                 .4  .28 Ml 1.7         4578097

.
EVENT     253334
    Date      Time       Latitude Longitude    Depth    Ndef Nsta Gap    Mag1  N    Mag2  N    Mag3  N   Author         ID
       rms   OT_Error      Smajor Sminor Az        Err   mdist  Mdist     Err        Err        Err      Quality

2011/01/04 00:54:50.7     42.6561   -9.2208     10.0      61   16 210  Ml 3.1 16                         js067245    253354

      1.07   +-  0.23       4.9    2.5   98.60 +-  0.0    0.34  10.35   +-0.3                            m i ke

SPAIN
Sta     Dist  EvAz     Phase      Date       Time     TRes  Azim  AzRes  Slow  SRes Def   SNR       Amp   Per   Mag1   Mag2       ID
EVOP  004.21 168.2 m E Pn      2011/01/04 00:55:52.8   0.0                          T                                        4577154
EVOP  004.21 168.2 m E Sn      2011/01/04 00:56:37.6  -1.5                          T                                        4577153
EVOP  004.21 168.2 m E Sg      2011/01/04 00:57:00.9  -1.6                          T               14.0  .52 Ml 3.1         4577152
SJPF  005.89 082.8 m E Pn      2011/01/04 00:56:16.7   0.8                          T                                        4577150
SJPF  005.89 082.8 m E Sn      2011/01/04 00:57:19.7   0.3                          T                1.3  .43 Ml 2.6         4577125
ETSF  006.38 084.9 m E Pn      2011/01/04 00:56:23.5   0.9                          T                                        4577149
QUIF  006.77 037.0 m E Pn      2011/01/04 00:56:28.2   0.4                          T                                        4577145
QUIF  006.77 037.0 m E Sn      2011/01/04 00:57:39.4  -1.1                          T                3.9  .28 Ml 3.4         4577133
ROSF  007.05 034.3 m E Pn      2011/01/04 00:56:31.7   0.1                          T                                        4577143
ROSF  007.05 034.3 m E Sn      2011/01/04 00:57:46.0  -1.1                          T                1.3  .29 Ml 2.9         4577135
EPF   007.04 083.7 m E Pn      2011/01/04 00:56:32.4   0.9                          T                                        4577148
SGMF  007.30 037.6 m E Pn      2011/01/04 00:56:35.3   0.4                          T                                        4577144
SGMF  007.30 037.6 m E Sn      2011/01/04 00:57:51.1  -1.9                          T                 .5  .18 Ml 2.7         4577134
MFF   007.58 055.5 m E Pn      2011/01/04 00:56:39.1   0.3                          T                                        4577151
MFF   007.58 055.5 m E Sn      2011/01/04 00:57:58.9  -0.8                          T                2.4  .32 Ml 3.4         4577132
GRR   008.20 042.8 m E Pn      2011/01/04 00:56:46.9  -0.4                          T                                        4577146
GRR   008.20 042.8 m E Sn      2011/01/04 00:58:12.7  -1.9                          T                2.5  .27 Ml 3.3         4577131
CAF   008.47 070.6 m E Pn      2011/01/04 00:56:51.6   0.6                          T                                        4577147
TCF   008.94 062.1 m E Pn      2011/01/04 00:56:56.8  -0.7                          T                                        4577139
TCF   008.94 062.1 m E Sn      2011/01/04 00:58:29.9  -2.5                          T                1.8  .23 Ml 3.5         4577137
BGF   009.45 061.5 m E Pn      2011/01/04 00:57:04.7   0.5                          T                                        4577141
BGF   009.45 061.5 m E Sn      2011/01/04 00:58:43.2  -1.2                          T                3.1  .32 Ml 3.6         4577127
AVF   009.86 060.9 m E Pn      2011/01/04 00:57:09.4  -0.4                          T                                        4577140
AVF   009.86 060.9 m E Sn      2011/01/04 00:58:52.5  -1.7                          T                 .5  .30 Ml 2.9         4577136
LOR   010.35 059.1 m E Pn      2011/01/04 00:57:17.1   0.5 241.6  -6.7              T                                        4577138
LOR   010.35 059.1 m E Sn      2011/01/04 00:59:02.5  -3.5                          T                 .6  .28 Ml 3.1         4577128
RJF   008.18 067.5 m E Sn      2011/01/04 00:58:13.0  -1.2                          T                                        4577129
LDF   008.71 043.9 m E Sn      2011/01/04 00:58:24.7  -2.0                          T                 .6  .28 Ml 2.8         4577130

.
EVENT     253338
    Date      Time       Latitude Longitude    Depth    Ndef Nsta Gap    Mag1  N    Mag2  N    Mag3  N   Author         ID
       rms   OT_Error      Smajor Sminor Az        Err   mdist  Mdist     Err        Err        Err      Quality

2011/01/04 05:42:15.5     45.2796    7.3353      2.0      10    4 276  Ml 1.5  2  Md 1.7  3              js067245    253358

      0.12   +-  0.16       2.7    1.2   81.64 +-  0.0    0.47   1.09   +-0.1      +-0.0                 m i ke

NORTHERN ITALY
Sta     Dist  EvAz     Phase      Date       Time     TRes  Azim  AzRes  Slow  SRes Def   SNR       Amp   Per   Mag1   Mag2       ID
LPG   000.47 298.1 m E Pg      2011/01/04 05:42:24.8   0.0                          T                                        4577180
LPG   000.47 298.1 m E Sg      2011/01/04 05:42:30.9   0.0                          T                2.7  .20        Md 1.8  4577176
LPL   000.49 299.3 m E Pg      2011/01/04 05:42:25.2   0.1                          T                                        4577181
LPL   000.49 299.3 m E Sg      2011/01/04 05:42:31.6   0.1                          T                3.8  .30        Md 1.8  4577177
MBDF  000.68 216.1 m E Pg      2011/01/04 05:42:28.7   0.0                          T                                        4577179
MBDF  000.68 216.1 m E Sg      2011/01/04 05:42:37.8   0.3                          T                7.0  .36        Md 1.7  4577178
ORIF  001.09 251.2 m E Pg      2011/01/04 05:42:36.0  -0.2                          T                                        4577175
ORIF  001.09 251.2 m E Sg      2011/01/04 05:42:50.3   0.0                          T                1.5  .40 Ml 1.4         4577174

.
