EVENT     290793
    Date      Time       Latitude Longitude    Depth    Ndef Nsta Gap    Mag1  N    Mag2  N    Mag3  N   Author         ID
       rms   OT_Error      Smajor Sminor Az        Err   mdist  Mdist     Err        Err        Err      Quality

2013/01/23 15:33:04.7     44.4201    7.2804     12.0 f    87   18 083  Ml 2.4 20  Md 2.5  2              bulletin    290893
                                                                                                         _ldg
      0.54   +-  0.06       1.5    1.0   54.16 +-  0.0    0.15   5.66   +-0.4      +-0.0                 m i ke

NORTHERN ITALY
Sta     Dist  EvAz     Phase      Date       Time     TRes  Azim  AzRes  Slow  SRes Def   SNR       Amp   Per   Mag1   Mag2       ID
MBDF  000.48 310.3 m E Pg      2013/01/23 15:33:13.8  -0.4                          T                                        5176149
MBDF  000.48 310.3 m E Sg      2013/01/23 15:33:20.5  -0.1                          T   001.0       74.3  .22        Md 2.5  5176070
SBF   000.57 168.6 m E Pg      2013/01/23 15:33:15.8   0.1                          T                                        5176152
SBF   000.57 168.6 m E Sg      2013/01/23 15:33:23.1  -0.3                          T   001.0       81.3  .18        Md 2.5  5176064
FRF   000.97 208.2 m E Pg      2013/01/23 15:33:22.7  -0.4                          T   001.0                                5176053
FRF   000.97 208.2 m E Sg      2013/01/23 15:33:34.8  -1.0                          T   001.0       71.5  .20 Ml 3.4         5176055
ORIF  001.12 297.0 m E Pn      2013/01/23 15:33:25.1   0.4                          T   001.0                                5176071
ORIF  001.12 297.0 m E Sn      2013/01/23 15:33:39.2   0.1                          T   001.0       21.8  .26 Ml 2.8         5176072
LPG   001.14 341.0 m E Pn      2013/01/23 15:33:25.4   0.1                          T   001.0                                5176059
LPG   001.14 341.0 m E Pg      2013/01/23 15:33:26.6   0.0                          T                                        5183158
LPG   001.14 341.0 m E Sn      2013/01/23 15:33:39.9   0.0                          T               11.1  .29 Ml 2.5         5176150
LPL   001.16 340.7 m E Pn      2013/01/23 15:33:25.6   0.0                          T   001.0                                5176061
LPL   001.16 340.7 m E Pg      2013/01/23 15:33:26.6  -0.2                          T                                        5183162
LPL   001.16 340.7 m E Sn      2013/01/23 15:33:40.5   0.1                          T                                        5183159
LPL   001.16 340.7 m E Sg      2013/01/23 15:33:42.1   0.1                          T   001.0        4.4  .18 Ml 2.3         5176062
LMR   001.22 207.5 m E Pn      2013/01/23 15:33:26.6   0.6                          T   001.0                                5176057
LMR   001.22 207.5 m E Pg      2013/01/23 15:33:27.8   0.2                          T                                        5183161
LMR   001.22 207.5 m E Sn      2013/01/23 15:33:41.7   0.3                          T   001.0       39.3  .21 Ml 3.2         5176058
SMRF  001.30 250.7 m E Pg      2013/01/23 15:33:29.3   0.0                          T   001.0                                5176075
SMRF  001.30 250.7 m E Sg      2013/01/23 15:33:46.8   0.7                          T   001.0       20.5  .22 Ml 2.9         5176076
VIVF  001.91 284.1 m E Pn      2013/01/23 15:33:36.1   0.6                          T   001.0                                5176073
VIVF  001.91 284.1 m E Sn      2013/01/23 15:33:58.2   0.1                          T   001.0        4.0  .26 Ml 2.4         5176074
VIVF  001.91 284.1 m E Sg      2013/01/23 15:34:05.3   0.3                          T                3.6  .28 Ml 2.3         5183160
PGF   002.25 145.6 m E Pn      2013/01/23 15:33:40.3   0.1                          T                                        5176151
PGF   002.25 145.6 m E Sn      2013/01/23 15:34:06.3   0.1                          T   001.0        2.2  .19 Ml 2.6         5176063
CABF  002.35 339.5 m E Pn      2013/01/23 15:33:43.1   1.6                          T   001.0                                5176067
CABF  002.35 339.5 m E Sg      2013/01/23 15:34:18.3  -0.4                          T   001.0        2.1  .39 Ml 2.0         5176068
LASF  002.48 263.2 m E Pn      2013/01/23 15:33:43.5   0.3                          T                                        5176148
LASF  002.48 263.2 m E Sn      2013/01/23 15:34:11.9   0.3                          T                 .9  .19 Ml 2.0         5176147
SMF   003.29 313.8 m E Pn      2013/01/23 15:33:55.6   1.4                          T   001.0                                5176065
SMF   003.29 313.8 m E Sn      2013/01/23 15:34:33.0   2.2                          T   001.0        1.2  .27 Ml 2.2         5176066
AVF   003.64 312.1 m E Pn      2013/01/23 15:33:59.7   0.8                          T   001.0                                5176077
AVF   003.64 312.1 m E Sn      2013/01/23 15:34:40.0   0.9                          T   001.0        2.5  .60 Ml 2.2         5176051
HAU   003.64 350.1 m E Pn      2013/01/23 15:34:00.5   1.4                          T                                        5176141
HAU   003.64 350.1 m E Pg      2013/01/23 15:34:11.8  -0.4                          T                                        5176140
HAU   003.64 350.1 m E Sn      2013/01/23 15:34:41.3   1.9                          T   001.0        2.6  .24 Ml 2.4         5176056
MTLF  003.82 255.3 m E Pn      2013/01/23 15:34:01.6   0.2                          T                                        5176139
MTLF  003.82 255.3 m E Sn      2013/01/23 15:34:43.6   0.1                          T                 .3  .16 Ml 1.9         5176138
TCF   004.03 299.4 m E Pn      2013/01/23 15:34:04.7   0.3                          T                                        5176146
TCF   004.03 299.4 m E Pg      2013/01/23 15:34:19.2  -0.2                          T                                        5176145
TCF   004.03 299.4 m E Sn      2013/01/23 15:34:50.2   1.5                          T                 .4  .17 Ml 2.1         5176144
MFF   005.66 295.3 m E Pn      2013/01/23 15:34:27.3   0.9                          T                                        5176143
MFF   005.66 295.3 m E Sn      2013/01/23 15:35:28.7   1.2                          T                 .3  .19 Ml 2.4         5176142

.
EVENT     290795
    Date      Time       Latitude Longitude    Depth    Ndef Nsta Gap    Mag1  N    Mag2  N    Mag3  N   Author         ID
       rms   OT_Error      Smajor Sminor Az        Err   mdist  Mdist     Err        Err        Err      Quality

2013/01/23 16:33:46.7     43.0869    -.2316      2.0      48   11 082  Ml 2.0  9  Md 2.0  2              bulletin    290895
                                                                                                         _ldg
      0.35   +-  0.05       1.0     .8  177.89 +-  0.0    0.23   4.10   +-0.3      +-0.1                 m i ke

PYRENEES
Sta     Dist  EvAz     Phase      Date       Time     TRes  Azim  AzRes  Slow  SRes Def   SNR       Amp   Per   Mag1   Mag2       ID
ETSF  000.31 232.1 m E Pg      2013/01/23 16:33:52.6  -0.2                          T                                        5176198
ETSF  000.31 232.1 m E Sg      2013/01/23 16:33:56.6  -0.3                          T               62.6  .25        Md 2.1  5176197
EPF   000.42 097.5 m E Pg      2013/01/23 16:33:54.6  -0.3                          T                                        5176196
EPF   000.42 097.5 m E Sg      2013/01/23 16:34:00.9   0.4                          T               10.3  .24        Md 1.9  5176195
SJPF  000.73 272.4 m E Pg      2013/01/23 16:34:00.6   0.1                          T                                        5176213
SJPF  000.73 272.4 m E Sg      2013/01/23 16:34:10.0   0.0                          T                3.0  .30                5176212
SJPF  000.73 272.4 m E Sn      2013/01/23 16:34:13.4  -0.1                          T                                        5183186
MTLF  001.81 081.1 m E Pn      2013/01/23 16:34:17.1   0.0                          T                                        5176208
MTLF  001.81 081.1 m E Pg      2013/01/23 16:34:20.4   0.0                          T                                        5176207
MTLF  001.81 081.1 m E Sg      2013/01/23 16:34:43.7   0.0                          T                 .7  .17 Ml 1.8         5176206
LFF   001.98 020.4 m E Pn      2013/01/23 16:34:19.5   0.0                          T                                        5176205
LFF   001.98 020.4 m E Pg      2013/01/23 16:34:23.6   0.0                          T                                        5176204
LFF   001.98 020.4 m E Sn      2013/01/23 16:34:43.6   0.2                          T                                        5176203
LFF   001.98 020.4 m E Sg      2013/01/23 16:34:49.2   0.2                          T                3.7  .19 Ml 2.3         5176202
CAF   002.47 041.2 m E Pn      2013/01/23 16:34:26.5   0.3                          T                                        5176211
CAF   002.47 041.2 m E Pg      2013/01/23 16:34:32.6  -0.1                          T                                        5176210
CAF   002.47 041.2 m E Sn      2013/01/23 16:34:55.4   0.1                          T                                        5183185
CAF   002.47 041.2 m E Sg      2013/01/23 16:35:04.5   0.0                          T                1.2  .18 Ml 2.1         5176209
LASF  003.13 070.2 m E Pn      2013/01/23 16:34:35.1  -0.1                          T                                        5176201
LASF  003.13 070.2 m E Pg      2013/01/23 16:34:44.7  -0.1                          T                                        5176200
LASF  003.13 070.2 m E Sn      2013/01/23 16:35:11.1   0.1                          T                                        5183187
LASF  003.13 070.2 m E Sg      2013/01/23 16:35:24.8  -0.1                          T                 .4  .17 Ml 1.9         5176199
MFF   003.52 001.0 m E Pn      2013/01/23 16:34:40.1  -0.3                          T                                        5176216
MFF   003.52 001.0 m E Pg      2013/01/23 16:34:52.1   0.3                          T                                        5176215
MFF   003.52 001.0 m E Sg      2013/01/23 16:35:36.8  -0.1                          T                1.3  .31 Ml 2.3         5176214
TCF   003.64 027.7 m E Pn      2013/01/23 16:34:42.1  -0.1                          T                                        5176219
TCF   003.64 027.7 m E Pg      2013/01/23 16:34:54.1  -0.1                          T                                        5176218
TCF   003.64 027.7 m E Sn      2013/01/23 16:35:23.1  -0.1                          T                                        5183184
TCF   003.64 027.7 m E Sg      2013/01/23 16:35:40.5  -0.5                          T                 .4  .20 Ml 1.9         5176217
VIVF  003.96 061.8 m E Pn      2013/01/23 16:34:46.4   0.0                          T                                        5176220
BGF   004.10 031.2 m E Pn      2013/01/23 16:34:48.5   0.1                          T                                        5176223
BGF   004.10 031.2 m E Pg      2013/01/23 16:35:02.6   0.0                          T                                        5176222
BGF   004.10 031.2 m E Sg      2013/01/23 16:35:54.5  -0.8                          T                 .5  .18 Ml 2.1         5176221

.
EVENT     290797
    Date      Time       Latitude Longitude    Depth    Ndef Nsta Gap    Mag1  N    Mag2  N    Mag3  N   Author         ID
       rms   OT_Error      Smajor Sminor Az        Err   mdist  Mdist     Err        Err        Err      Quality

2013/01/23 22:20:31.2     43.0681    -.2229      2.0       6    3 181             Md 1.2  2              bulletin    290897
                                                                                                         _ldg
      0.27   +-  0.16       8.4    2.4  175.99 +-  0.0    0.30   0.74              +-0.0                 m i ke

PYRENEES
Sta     Dist  EvAz     Phase      Date       Time     TRes  Azim  AzRes  Slow  SRes Def   SNR       Amp   Per   Mag1   Mag2       ID
ETSF  000.30 235.6 m E Pg      2013/01/23 22:20:37.1   0.0                          T                                        5176233
ETSF  000.30 235.6 m E Sg      2013/01/23 22:20:41.2  -0.1                          T                6.1  .36        Md 1.2  5176231
EPF   000.41 095.0 m E Pg      2013/01/23 22:20:39.0  -0.3                          T                                        5176232
EPF   000.41 095.0 m E Sg      2013/01/23 22:20:45.4   0.6                          T                2.2  .23        Md 1.2  5176230
SJPF  000.74 273.9 m E Pg      2013/01/23 22:20:45.2   0.1                          T                                        5183204
SJPF  000.74 273.9 m E Sg      2013/01/23 22:20:54.6  -0.1                          T                 .8  .17                5183203

.
EVENT     290798
    Date      Time       Latitude Longitude    Depth    Ndef Nsta Gap    Mag1  N    Mag2  N    Mag3  N   Author         ID
       rms   OT_Error      Smajor Sminor Az        Err   mdist  Mdist     Err        Err        Err      Quality

2013/01/23 23:13:33.7     44.4433    7.2295      5.0 f    22    7 149  Ml 1.6  5  Md 1.5  2              bulletin    290898
                                                                                                         _ldg
      0.62   +-  0.14       3.5    1.7   75.61 +-  0.0    0.11   1.28   +-0.2      +-0.1                 m i ke

NORTHERN ITALY
Sta     Dist  EvAz     Phase      Date       Time     TRes  Azim  AzRes  Slow  SRes Def   SNR       Amp   Per   Mag1   Mag2       ID
MBDF  000.43 311.1 m E Pg      2013/01/23 23:13:42.3   0.0                          T                                        5176274
MBDF  000.43 311.1 m E Sg      2013/01/23 23:13:47.9  -0.2                          T                2.8  .20        Md 1.5  5176271
SBF   000.60 165.6 m E Pg      2013/01/23 23:13:45.0  -0.2                          T                                        5183205
SBF   000.60 165.6 m E Sg      2013/01/23 23:13:53.0  -0.1                          T                1.2  .18        Md 1.5  5183206
ORIF  001.07 296.7 m E Pg      2013/01/23 23:13:53.8  -0.1                          T                                        5176268
ORIF  001.07 296.7 m E Sg      2013/01/23 23:14:07.6  -0.3                          T                 .6  .24 Ml 1.2         5176263
LPG   001.11 342.3 m E Pg      2013/01/23 23:13:54.8  -0.1                          T                                        5176272
LPG   001.11 342.3 m E Sg      2013/01/23 23:14:08.8  -0.4                          T                1.2  .25 Ml 1.5         5176269
LPL   001.13 342.0 m E Pg      2013/01/23 23:13:54.9  -0.2                          T                                        5176273
LPL   001.13 342.0 m E Sg      2013/01/23 23:14:09.6  -0.2                          T                1.4  .34 Ml 1.5         5176270
LMR   001.23 205.4 m E Pn      2013/01/23 23:13:56.2   0.4                          T                                        5176264
LMR   001.23 205.4 m E Sn      2013/01/23 23:14:12.3   0.5                          T                1.9  .22 Ml 1.9         5176265
SMRF  001.28 249.1 m E Pn      2013/01/23 23:13:57.4   0.7                          T                                        5176267
SMRF  001.28 249.1 m E Sn      2013/01/23 23:14:13.4   0.3                          T                2.4  .44 Ml 1.7         5176266

.
EVENT     290799
    Date      Time       Latitude Longitude    Depth    Ndef Nsta Gap    Mag1  N    Mag2  N    Mag3  N   Author         ID
       rms   OT_Error      Smajor Sminor Az        Err   mdist  Mdist     Err        Err        Err      Quality

2013/01/23 23:46:14.9     44.5386    7.2245     10.0      22    8 149  Ml 1.2  6  Md 1.4  1              bulletin    290899
                                                                                                         _ldg
      0.07   +-  0.02        .5     .3   76.63 +-  0.0    0.04   1.31   +-0.3      +-                    m i ke

NORTHERN ITALY
Sta     Dist  EvAz     Phase      Date       Time     TRes  Azim  AzRes  Slow  SRes Def   SNR       Amp   Per   Mag1   Mag2       ID
MBDF  000.37 300.4 m E Pg      2013/01/23 23:46:22.5   0.0                          T                                        5176306
MBDF  000.37 300.4 m E Sg      2013/01/23 23:46:27.6   0.0                          T                5.7  .20        Md 1.4  5176305
SBF   000.69 167.3 m E Pg      2013/01/23 23:46:28.1   0.0                          T                                        5176298
SBF   000.69 167.3 m E Sg      2013/01/23 23:46:37.3   0.0                          T                1.3  .24                5176297
FRF   001.06 203.3 m E Pn      2013/01/23 23:46:34.2   0.0                          T                                        5176294
FRF   001.06 203.3 m E Sn      2013/01/23 23:46:48.1  -0.1                          T                  1  .23 Ml 1.5         5176293
LPG   001.02 340.9 m E Pg      2013/01/23 23:46:34.3  -0.1                          T                                        5176303
LPG   001.02 340.9 m E Sg      2013/01/23 23:46:47.5  -0.1                          T                 .2  .19 Ml  .8         5176300
ORIF  001.03 292.1 m E Pg      2013/01/23 23:46:34.3   0.0                          T                                        5176304
ORIF  001.03 292.1 m E Sn      2013/01/23 23:46:47.4  -0.2                          T                 .1  .15 Ml  .8         5176302
LPL   001.04 340.5 m E Pg      2013/01/23 23:46:34.7   0.0                          T                                        5176299
LPL   001.04 340.5 m E Sg      2013/01/23 23:46:48.0  -0.2                          T                 .6  .26 Ml 1.2         5176301
LMR   001.31 203.5 m E Pn      2013/01/23 23:46:37.6   0.0                          T                                        5176295
LMR   001.31 203.5 m E Sn      2013/01/23 23:46:54.0  -0.1                          T                 .7  .20 Ml 1.5         5176296
SMRF  001.31 245.2 m E Pn      2013/01/23 23:46:37.7   0.0                          T                                        5176291
SMRF  001.31 245.2 m E Sn      2013/01/23 23:46:54.1  -0.1                          T                 .4  .24 Ml 1.2         5176292

.
