EVENT     278900
    Date      Time       Latitude Longitude    Depth    Ndef Nsta Gap    Mag1  N    Mag2  N    Mag3  N   Author         ID
       rms   OT_Error      Smajor Sminor Az        Err   mdist  Mdist     Err        Err        Err      Quality

2012/06/30 09:27:53.7     45.9229    2.7401      2.0      42   13 053  Ml 2.5 12  Md 2.2  4              bulletin    279000
                                                                                                         _ldg
      0.24   +-  0.03        .8     .6  105.32 +-  0.0    0.20   2.61   +-0.3      +-0.1                 m i ke

FRANCE
Sta     Dist  EvAz     Phase      Date       Time     TRes  Azim  AzRes  Slow  SRes Def   SNR       Amp   Per   Mag1   Mag2       ID
TCF   000.52 314.9 m E Pg      2012/06/30 09:28:03.6   0.0                          T                                        5015543
TCF   000.52 314.9 m E Sg      2012/06/30 09:28:09.9  -0.5                          T   001.0        4.5  .20        Md 2.4  5015681
BGF   000.64 006.6 m E Pg      2012/06/30 09:28:06.0   0.2                          T                                        5015540
BGF   000.64 006.6 m E Sg      2012/06/30 09:28:14.3   0.2                          T               31.4  .28        Md 2.3  5015531
AVF   000.97 025.8 m E Pg      2012/06/30 09:28:11.9   0.1                          T                                        5015542
AVF   000.97 025.8 m E Sg      2012/06/30 09:28:24.0  -0.3                          T               15.2  .24 Ml 2.6 Md 2.1  5015529
SMF   001.05 046.2 m E Pg      2012/06/30 09:28:13.6   0.2                          T                                        5015541
SMF   001.05 046.2 m E Sg      2012/06/30 09:28:27.1   0.1                          T                8.6  .22 Ml 2.4         5015530
RJF   001.06 234.7 m E Pn      2012/06/30 09:28:13.8  -0.1                          T                                        5015539
RJF   001.06 234.7 m E Pg      2012/06/30 09:28:14.4   0.9                          T                                        5025101
RJF   001.06 234.7 m E Sg      2012/06/30 09:28:27.3   0.1                          T                7.6  .25 Ml 2.0         5015532
CAF   001.10 205.8 m E Pn      2012/06/30 09:28:14.7   0.1                          T                                        5015538
CAF   001.10 205.8 m E Pg      2012/06/30 09:28:15.1   0.8                          T                                        5025100
CAF   001.10 205.8 m E Sg      2012/06/30 09:28:28.7   0.0                          T               13.6  .18 Ml 2.7         5015533
SSF   001.26 024.6 m E Pg      2012/06/30 09:28:16.8  -0.3                          T                                        5015544
SSF   001.26 024.6 m E Sg      2012/06/30 09:28:33.5   0.1                          T               20.3  .24 Ml 2.9         5015545
LOR   001.55 029.4 m E Pg      2012/06/30 09:28:22.6   0.0                          T                                        5015547
LOR   001.55 029.4 m E Sn      2012/06/30 09:28:40.0  -0.1                          T   001.0                                5015676
LOR   001.55 029.4 m E Sg      2012/06/30 09:28:42.2  -0.4                          T               14.0  .22 Ml 2.9         5015546
LFF   001.72 235.8 m E Pn      2012/06/30 09:28:23.0   0.2                          T                                        5015690
LFF   001.72 235.8 m E Pg      2012/06/30 09:28:25.7   0.1                          T   001.0                                5015674
LFF   001.72 235.8 m E Sn      2012/06/30 09:28:44.2   0.2                          T                                        5015689
LFF   001.72 235.8 m E Sg      2012/06/30 09:28:47.6  -0.2                          T   001.0        2.6  .23 Ml 2.0         5015675
VIVF  001.73 127.4 m E Pg      2012/06/30 09:28:26.0   0.1                          T                                        5015537
VIVF  001.73 127.4 m E Sn      2012/06/30 09:28:44.3  -0.1                          T   001.0                                5015683
VIVF  001.73 127.4 m E Sg      2012/06/30 09:28:47.6  -0.6                          T                3.5  .22 Ml 2.3         5015536
LASF  002.01 156.4 m E Pn      2012/06/30 09:28:26.9   0.1                          T   001.0                                5015687
LASF  002.01 156.4 m E Pg      2012/06/30 09:28:31.1   0.0                          T                                        5025105
LASF  002.01 156.4 m E Sn      2012/06/30 09:28:51.6   0.5                          T   001.0                                5015688
LASF  002.01 156.4 m E Sg      2012/06/30 09:28:56.2  -0.7                          T                3.1  .22 Ml 2.3         5015535
MFF   002.11 289.8 m E Pn      2012/06/30 09:28:28.5   0.2                          T   001.0                                5015677
MFF   002.11 289.8 m E Pg      2012/06/30 09:28:32.9  -0.1                          T                                        5025106
MFF   002.11 289.8 m E Sg      2012/06/30 09:28:59.7  -0.5                          T                3.8  .22 Ml 2.6         5015528
MTLF  002.61 188.4 m E Pn      2012/06/30 09:28:34.8  -0.2                          T   001.0                                5015682
MTLF  002.61 188.4 m E Pg      2012/06/30 09:28:41.7  -0.3                          T                                        5025104
MTLF  002.61 188.4 m E Sg      2012/06/30 09:29:15.5  -0.1                          T                1.1  .23 Ml 2.0         5015534

.
EVENT     278901
    Date      Time       Latitude Longitude    Depth    Ndef Nsta Gap    Mag1  N    Mag2  N    Mag3  N   Author         ID
       rms   OT_Error      Smajor Sminor Az        Err   mdist  Mdist     Err        Err        Err      Quality

2012/06/30 11:28:07.3     42.3396    1.1421      4.0 f    51    6 030  Ml 2.4  6  Md 2.3  3              bulletin    279001
                                                                                                         _ldg
      0.72   +-  0.09       1.9    1.5   21.68 +-  0.0    0.04   2.98   +-0.3      +-0.1                 m i ke

PYRENEES
Sta     Dist  EvAz     Phase      Date       Time     TRes  Azim  AzRes  Slow  SRes Def   SNR       Amp   Per   Mag1   Mag2       ID
EPF   000.91 319.7 m E Pg      2012/06/30 11:28:24.1  -0.4                          T                                        5015557
EPF   000.91 319.7 m E Sg      2012/06/30 11:28:35.7  -0.6                          T               28.3  .25 Ml 2.8 Md 2.3  5015548
MTLF  001.28 038.0 m E Pg      2012/06/30 11:28:31.5   0.3                          T                                        5015556
MTLF  001.28 038.0 m E Sg      2012/06/30 11:28:48.0   0.3                          T                7.5  .30 Ml 2.3 Md 2.2  5015552
ETSF  001.37 294.6 m E Pg      2012/06/30 11:28:33.3   0.2                          T                                        5015555
ETSF  001.37 294.6 m E Sg      2012/06/30 11:28:51.6   0.8                          T               10.3  .29 Ml 2.5 Md 2.3  5015551
SJPF  001.91 294.7 m E Pg      2012/06/30 11:28:43.2   0.4                          T                                        5015554
SJPF  001.91 294.7 m E Sg      2012/06/30 11:29:08.5   1.0                          T               11.2  .43 Ml 2.6         5015550
CAF   002.67 014.2 m E Pn      2012/06/30 11:28:49.8   0.5                          T                                        5015553
CAF   002.67 014.2 m E Sn      2012/06/30 11:29:20.3   0.1                          T                1.6  .33 Ml 2.0         5015549
RJF   002.98 005.1 m E Pn      2012/06/30 11:28:53.9   0.4                          T                                        5015590
RJF   002.98 005.1 m E Sn      2012/06/30 11:29:28.0   0.5                          T                2.1  .23 Ml 2.0         5015589

.
