EVENT     270684
    Date      Time       Latitude Longitude    Depth    Ndef Nsta Gap    Mag1  N    Mag2  N    Mag3  N   Author         ID
       rms   OT_Error      Smajor Sminor Az        Err   mdist  Mdist     Err        Err        Err      Quality

2012/02/25 05:48:19.9     45.3988   -1.5801      8.0 f   114   27 092  Ml 2.7 32  Md 3.1  2              js067245    270705

      0.64   +-  0.07       1.5    1.2   79.36 +-  0.0    1.56   6.08   +-0.2      +-0.1                 m i ke

FRANCE
Sta     Dist  EvAz     Phase      Date       Time     TRes  Azim  AzRes  Slow  SRes Def   SNR       Amp   Per   Mag1   Mag2       ID
MFF   001.56 039.2 m E Pn      2012/02/25 05:48:46.3  -0.1                          T   001.0                                4849092
MFF   001.56 039.2 m E Pg      2012/02/25 05:48:48.8  -0.3                          T   001.0                                4849093
MFF   001.56 039.2 m E Sn      2012/02/25 05:49:05.4  -0.2                          T   001.0       28.1  .28 Ml 3.2         4849094
MFF   001.56 039.2 m E Sg      2012/02/25 05:49:09.1  -0.2                          T               28.4  .28 Ml 3.2 Md 3.2  4855437
LFF   001.70 104.8 m E Pn      2012/02/25 05:48:48.0  -0.2                          T   001.0                                4849088
LFF   001.70 104.8 m E Pg      2012/02/25 05:48:51.0  -0.6                          T   001.0                                4849089
LFF   001.70 104.8 m E Sn      2012/02/25 05:49:08.7  -0.2                          T   001.0                                4849090
LFF   001.70 104.8 m E Sg      2012/02/25 05:49:13.6   0.0                          T   001.0       28.8  .40 Ml 2.8 Md 3.1  4849091
RJF   002.19 091.4 m E Pn      2012/02/25 05:48:54.9   0.0                          T   001.0                                4849070
RJF   002.19 091.4 m E P       2012/02/25 05:48:57.2   0.0                          T                                        4855382
RJF   002.19 091.4 m E Pg      2012/02/25 05:49:00.1  -0.4                          T                                        4855444
RJF   002.19 091.4 m E Sn      2012/02/25 05:49:19.4  -1.1                          T   001.0       10.4  .20 Ml 2.6         4849071
RJF   002.19 091.4 m E Sg      2012/02/25 05:49:28.5  -0.2                          T               12.0  .22 Ml 2.7         4855438
SJPF  002.30 173.5 m E Pn      2012/02/25 05:48:56.8   0.4                          T   001.0                                4849114
SJPF  002.30 173.5 m E Pg      2012/02/25 05:49:03.1   0.5                          T                                        4855380
SJPF  002.30 173.5 m E Sn      2012/02/25 05:49:22.8  -0.4                          T   001.0                                4849115
SJPF  002.30 173.5 m E Sg      2012/02/25 05:49:32.9   0.6                          T   001.0        6.1  .24 Ml 2.7         4849116
CAF   002.62 099.1 m E Pn      2012/02/25 05:49:01.0   0.2                          T   001.0                                4849075
CAF   002.62 099.1 m E Pg      2012/02/25 05:49:08.6   0.0                          T                                        4855381
CAF   002.62 099.1 m E Sn      2012/02/25 05:49:31.0   0.1                          T   001.0        6.6  .24 Ml 2.8         4849076
CAF   002.62 099.1 m E Sg      2012/02/25 05:49:42.2  -0.1                          T                6.3  .22 Ml 2.8         4855439
QUIF  002.75 337.1 m E Pn      2012/02/25 05:49:02.4   0.0                          T   001.0                                4849108
QUIF  002.75 337.1 m E Pg      2012/02/25 05:49:10.5  -0.3                          T                                        4855386
QUIF  002.75 337.1 m E Sg      2012/02/25 05:49:46.6   0.5                          T   001.0        4.5  .20 Ml 2.7         4849109
TCF   002.79 070.1 m E Pn      2012/02/25 05:49:02.6  -0.5                          T   001.0                                4849100
TCF   002.79 070.1 m E Pg      2012/02/25 05:49:11.7  -0.1                          T                                        4855454
TCF   002.79 070.1 m E Sg      2012/02/25 05:49:46.7  -1.0                          T   001.0        2.6  .20 Ml 2.5         4849101
EPF   002.74 149.1 m E Pn      2012/02/25 05:49:02.8   0.3                          T   001.0                                4849077
EPF   002.74 149.1 m E Pg      2012/02/25 05:49:11.3   0.5                          T                                        4855459
EPF   002.74 149.1 m E Sn      2012/02/25 05:49:34.0   0.2                          T   001.0                                4849078
EPF   002.74 149.1 m E Sg      2012/02/25 05:49:45.3  -0.8                          T   001.0        5.4  .20 Ml 2.8         4849079
SGMF  002.93 347.1 m E Pn      2012/02/25 05:49:05.0   0.0                          T                                        4855388
SGMF  002.93 347.1 m E Pg      2012/02/25 05:49:14.3   0.0                          T                                        4855387
SGMF  002.93 347.1 m E Sg      2012/02/25 05:49:51.6  -0.4                          T   001.0        5.3  .28 Ml 2.7         4849113
GRR   003.03 009.1 m E Pn      2012/02/25 05:49:07.6   1.3                          T   001.0                                4849083
GRR   003.03 009.1 m E Pg      2012/02/25 05:49:16.5   0.4                          T                                        4855385
GRR   003.03 009.1 m E Sn      2012/02/25 05:49:40.6  -0.1                          T   001.0                                4849084
GRR   003.03 009.1 m E Sg      2012/02/25 05:49:54.7  -0.3                          T   001.0        6.3  .32 Ml 2.6         4849085
ROSF  003.16 339.0 m E Pn      2012/02/25 05:49:08.6   0.5                          T   001.0                                4849110
ROSF  003.16 339.0 m E Pg      2012/02/25 05:49:18.7   0.3                          T                                        4855447
ROSF  003.16 339.0 m E Sn      2012/02/25 05:49:42.8  -0.9                          T   001.0                                4849111
ROSF  003.16 339.0 m E Sg      2012/02/25 05:49:58.9  -0.1                          T   001.0        5.9  .36 Ml 2.7         4849112
BGF   003.30 067.8 m E Pn      2012/02/25 05:49:09.7  -0.3                          T                                        4855390
BGF   003.30 067.8 m E P       2012/02/25 05:49:12.8  -0.2                          T                                        4855451
BGF   003.30 067.8 m E Pg      2012/02/25 05:49:21.1   0.1                          T                                        4855450
BGF   003.30 067.8 m E Sn      2012/02/25 05:49:47.0   0.0                          T   001.0       18.4  .40 Ml 3.2         4849074
BGF   003.30 067.8 m E Sg      2012/02/25 05:50:02.2  -1.1                          T               18.6  .40 Ml 3.2         4855432
LDF   003.35 016.8 m E Pn      2012/02/25 05:49:10.6   0.0                          T                                        4855384
LDF   003.35 016.8 m E P       2012/02/25 05:49:13.8   0.0                          T                                        4855383
LDF   003.35 016.8 m E Pg      2012/02/25 05:49:21.5  -0.4                          T                                        4855445
LDF   003.35 016.8 m E Sn      2012/02/25 05:49:47.7  -0.5                          T                                        4855436
LDF   003.35 016.8 m E Sg      2012/02/25 05:50:04.3  -0.7                          T                3.2  .25 Ml 2.6         4855435
FLN   003.45 012.2 m E Pn      2012/02/25 05:49:11.7  -0.2 196.4  3.4               T   001.0                                4849080
FLN   003.45 012.2 m E Pg      2012/02/25 05:49:23.9   0.1                          T                                        4855446
FLN   003.45 012.2 m E Sn      2012/02/25 05:49:49.7  -0.9                          T   001.0                                4849081
FLN   003.45 012.2 m E Sg      2012/02/25 05:50:07.5  -0.5                          T   001.0          5  .32 Ml 2.6         4849082
MTLF  003.41 125.7 m E Pn      2012/02/25 05:49:12.2   0.7                          T   001.0                                4849104
MTLF  003.41 125.7 m E Pg      2012/02/25 05:49:23.1   0.0                          T                                        4855443
MTLF  003.41 125.7 m E Sn      2012/02/25 05:49:50.1   0.3                          T   001.0                                4849105
MTLF  003.41 125.7 m E Sg      2012/02/25 05:50:07.6   0.6                          T   001.0        3.5  .32 Ml 2.6         4849106
HYF   003.47 055.9 m E Pn      2012/02/25 05:49:12.7   0.4                          T                                        4855389
HYF   003.47 055.9 m E Pg      2012/02/25 05:49:25.1   0.9                          T                                        4855452
HYF   003.47 055.9 m E Sg      2012/02/25 05:50:09.0   0.3                          T                                        4855431
AVF   003.70 066.2 m E Pn      2012/02/25 05:49:15.0  -0.5                          T   001.0                                4849072
AVF   003.70 066.2 m E Sn      2012/02/25 05:49:56.1  -0.6                          T   001.0        1.9  .32 Ml 2.4         4849073
AVF   003.70 066.2 m E Sg      2012/02/25 05:50:15.3  -0.8                          T                1.9  .34 Ml 2.3         4855430
SSF   003.90 063.0 m E Pn      2012/02/25 05:49:18.0  -0.2                          T   001.0                                4849098
SSF   003.90 063.0 m E P       2012/02/25 05:49:21.6  -0.1                          T                                        4855456
SSF   003.90 063.0 m E Pg      2012/02/25 05:49:32.3   0.1                          T                                        4855455
SSF   003.90 063.0 m E Sn      2012/02/25 05:50:01.1  -0.3                          T   001.0        1.9  .24 Ml 2.6         4849099
SSF   003.90 063.0 m E Sg      2012/02/25 05:50:22.2   0.0                          T                2.6  .32 Ml 2.6         4855428
SMF   003.98 069.8 m E Pn      2012/02/25 05:49:20.4   1.2                          T   001.0                                4849095
SMF   003.98 069.8 m E Pg      2012/02/25 05:49:33.9   0.3                          T                                        4855453
SMF   003.98 069.8 m E Sn      2012/02/25 05:50:02.5  -0.7                          T   001.0                                4849096
SMF   003.98 069.8 m E Sg      2012/02/25 05:50:23.7  -0.9                          T   001.0        4.9  .52 Ml 2.6         4849097
LASF  004.09 106.9 m E Pn      2012/02/25 05:49:22.0   1.2                          T   001.0                                4849086
LASF  004.09 106.9 m E Sg      2012/02/25 05:50:28.2   0.0                          T   001.0        1.8  .28 Ml 2.5         4849087
LOR   004.21 061.7 m E Pn      2012/02/25 05:49:22.7   0.4                          T                                        4855458
LOR   004.21 061.7 m E Pg      2012/02/25 05:49:37.7  -0.1                          T                                        4855457
LOR   004.21 061.7 m E Sg      2012/02/25 05:50:32.0   0.3                          T                2.6  .37 Ml 2.5         4855427
VIVF  004.46 094.8 m E Pn      2012/02/25 05:49:25.4  -0.4                          T   001.0                                4849117
VIVF  004.46 094.8 m E Pg      2012/02/25 05:49:42.4   0.0                          T                                        4855442
VIVF  004.46 094.8 m E Sn      2012/02/25 05:50:14.1  -0.7                          T                                        4855441
VIVF  004.46 094.8 m E Sg      2012/02/25 05:50:39.7   0.0                          T                1.4  .26 Ml 2.5         4855440
SMRF  005.30 103.0 m E Pn      2012/02/25 05:49:38.8   1.6                          T   001.0                                4849118
CABF  005.48 074.5 m E Pn      2012/02/25 05:49:39.8   0.0                          T   001.0                                4849103
BAIF  006.08 037.9 m E Pn      2012/02/25 05:49:47.8   0.0                          T   001.0                                4849102
SFTF  005.34 055.9 m E Pg      2012/02/25 05:49:58.7   0.0                          T                                        4855429
ORIF  005.30 092.6 m E Sg      2012/02/25 05:51:03.3  -2.6                          T   001.0        1.4  .44 Ml 2.4         4849107

.
EVENT     270688
    Date      Time       Latitude Longitude    Depth    Ndef Nsta Gap    Mag1  N    Mag2  N    Mag3  N   Author         ID
       rms   OT_Error      Smajor Sminor Az        Err   mdist  Mdist     Err        Err        Err      Quality

2012/02/25 12:10:02.4     49.9143    8.6702     10.0      60   13 067  Ml 2.4 12  Md 2.8  2              js067245    270709

      0.89   +-  0.07       1.3    1.1   28.12 +-  0.0    0.32   4.59   +-0.4      +-0.2                 m i ke

GERMANY
Sta     Dist  EvAz     Phase      Date       Time     TRes  Azim  AzRes  Slow  SRes Def   SNR       Amp   Per   Mag1   Mag2       ID
LANF  001.09 211.5 m E Pn      2012/02/25 12:10:22.0  -0.2                          T                                        4855531
LANF  001.09 211.5 m E Pg      2012/02/25 12:10:23.2   0.3                          T                                        4855532
LANF  001.09 211.5 m E Sg      2012/02/25 12:10:37.1   0.0                          T               19.1  .27 Ml 2.7 Md 3.0  4855507
CDF   001.76 211.9 m E Pn      2012/02/25 12:10:30.4  -1.0                          T                                        4855529
CDF   001.76 211.9 m E Pg      2012/02/25 12:10:34.7  -0.6                          T                                        4855530
CDF   001.76 211.9 m E Sn      2012/02/25 12:10:52.0  -0.5                          T                                        4855509
CDF   001.76 211.9 m E Sg      2012/02/25 12:10:57.9  -0.1                          T                6.3  .20 Ml 2.8 Md 2.7  4855508
HAU   002.45 219.6 m E Pn      2012/02/25 12:10:39.5  -1.2                          T                                        4855522
HAU   002.45 219.6 m E Pg      2012/02/25 12:10:47.7  -0.3                          T                                        4855523
HAU   002.45 219.6 m E Sg      2012/02/25 12:11:19.3  -0.2                          T                6.4  .27 Ml 2.5         4855513
PAGF  002.36 235.9 m E Pn      2012/02/25 12:10:39.6   0.1  64.2  10.5              T                                        4855527
PAGF  002.36 235.9 m E Pg      2012/02/25 12:10:46.8   0.5  43.3  -10.4             T                                        4855528
PAGF  002.36 235.9 m E Sg      2012/02/25 12:11:16.7   0.0                          T                 .2  .19 Ml 1.4         4855510
HINF  002.42 210.4 m E Pn      2012/02/25 12:10:40.3   0.0                          T                                        4855520
HINF  002.42 210.4 m E Pg      2012/02/25 12:10:47.3  -0.1                          T                                        4855521
HINF  002.42 210.4 m E Sn      2012/02/25 12:11:08.0  -0.2                          T                                        4855515
HINF  002.42 210.4 m E Sg      2012/02/25 12:11:18.3  -0.2                          T                7.1  .30 Ml 2.7         4855514
THEF  002.44 227.2 m E Pn      2012/02/25 12:10:40.6   0.1                          T                                        4855524
THEF  002.44 227.2 m E Pg      2012/02/25 12:10:47.5  -0.2                          T                                        4855525
THEF  002.44 227.2 m E Sg      2012/02/25 12:11:19.3   0.2                          T                5.3  .19 Ml 2.8         4855512
GIVF  002.49 275.8 m E P       2012/02/25 12:10:43.3  -0.6                          T                                        4855534
GIVF  002.49 275.8 m E Sn      2012/02/25 12:11:09.8   0.0                          T                                        4855504
GIVF  002.49 275.8 m E Sg      2012/02/25 12:11:20.5  -0.2                          T                5.5  .24 Ml 2.7         4855503
SFTF  002.94 235.8 m E Pn      2012/02/25 12:10:47.3  -0.1                          T                                        4855526
SFTF  002.94 235.8 m E Sg      2012/02/25 12:11:34.7   0.0  60.3  7.2               T                1.7  .20 Ml 2.3         4855511
BAIF  002.88 274.6 m E Pg      2012/02/25 12:10:55.7  -0.2                          T                                        4855533
BAIF  002.88 274.6 m E Sn      2012/02/25 12:11:18.8  -0.5                          T                                        4855506
BAIF  002.88 274.6 m E Sg      2012/02/25 12:11:32.7  -0.3                          T                1.7  .18 Ml 2.4         4855505
CABF  003.73 208.5 m E Pn      2012/02/25 12:10:58.3   0.1                          T                                        4855518
CABF  003.73 208.5 m E Pg      2012/02/25 12:11:11.3  -0.3                          T                                        4855519
CABF  003.73 208.5 m E Sg      2012/02/25 12:11:59.7   0.3                          T                 .6  .21 Ml 2.0         4855516
LOR   004.15 232.2 m E Pn      2012/02/25 12:11:02.9  -1.0  59.2  10.7              T                                        4855536
LOR   004.15 232.2 m E Sg      2012/02/25 12:12:12.7   0.2  36.1  -12.4             T                  1  .28 Ml 2.2         4855502
SSF   004.47 232.2 m E Pn      2012/02/25 12:11:07.8  -0.3                          T                                        4855535
SMF   004.59 226.4 m E Sg      2012/02/25 12:12:27.0   0.7                          T                1.8  .39 Ml 2.5         4855517

.
EVENT     270685
    Date      Time       Latitude Longitude    Depth    Ndef Nsta Gap    Mag1  N    Mag2  N    Mag3  N   Author         ID
       rms   OT_Error      Smajor Sminor Az        Err   mdist  Mdist     Err        Err        Err      Quality

2012/02/25 20:08:39.2     40.6497    -.5040      2.0      44    3 061  Ml 2.4  3                         js067245    270706

      0.70   +-  0.11       2.2    1.8  137.18 +-  0.0    0.29   4.87   +-0.2                            m i ke

SPAIN
Sta     Dist  EvAz     Phase      Date       Time     TRes  Azim  AzRes  Slow  SRes Def   SNR       Amp   Per   Mag1   Mag2       ID
EPF   002.46 014.6 m E Pn      2012/02/25 20:09:18.2  -0.4                          T                                        4855589
EPF   002.46 014.6 m E Pg      2012/02/25 20:09:24.1  -0.8                          T                                        4855588
EPF   002.46 014.6 m E Sg      2012/02/25 20:09:55.8  -0.7                          T                5.7  .28 Ml 2.6         4855585
SJPF  002.52 347.9 m E Pn      2012/02/25 20:09:19.4   0.1                          T                                        4855592
SJPF  002.52 347.9 m E P       2012/02/25 20:09:22.0   0.1                          T                                        4855591
SJPF  002.52 347.9 m E Pg      2012/02/25 20:09:26.3   0.3                          T                                        4855590
SJPF  002.52 347.9 m E Sg      2012/02/25 20:09:58.4   0.0                          T                2.1  .26 Ml 2.2         4855586
MTLF  003.37 036.1 m E Pg      2012/02/25 20:09:41.1  -0.5                          T                                        4855587
MTLF  003.37 036.1 m E Sg      2012/02/25 20:10:25.5   0.7                          T                2.8  .35 Ml 2.4         4855584

.
