EVENT     289424
    Date      Time       Latitude Longitude    Depth    Ndef Nsta Gap    Mag1  N    Mag2  N    Mag3  N   Author         ID
       rms   OT_Error      Smajor Sminor Az        Err   mdist  Mdist     Err        Err        Err      Quality

2013/01/03 00:26:11.4     44.7127    6.6320      2.0      10    5 145  Ml 1.3  1  Md 1.2  2              bulletin    289524
                                                                                                         _ldg
      0.27   +-  0.12       2.7    1.9   48.52 +-  0.0    0.10   1.03   +-         +-0.3                 m i ke

FRANCE
Sta     Dist  EvAz     Phase      Date       Time     TRes  Azim  AzRes  Slow  SRes Def   SNR       Amp   Per   Mag1   Mag2       ID
MBDF  000.10 081.8 m E Pg      2013/01/03 00:26:13.5  -0.3                          T                                        5154079
MBDF  000.10 081.8 m E Sg      2013/01/03 00:26:14.7  -0.6                          T                3.9  .23        Md 1.4  5154078
ORIF  000.57 291.3 m E Pg      2013/01/03 00:26:22.2  -0.2                          T                                        5154076
ORIF  000.57 291.3 m E Sg      2013/01/03 00:26:29.6  -0.4                          T                 .5  .27        Md 1.0  5154077
LPG   000.79 006.1 m E Pg      2013/01/03 00:26:26.9   0.3                          T                                        5154074
LPG   000.79 006.1 m E Sg      2013/01/03 00:26:36.8  -0.1                          T                 .3  .20                5154072
LPL   000.81 005.0 m E Pg      2013/01/03 00:26:27.1   0.3                          T                                        5154075
LPL   000.81 005.0 m E Sg      2013/01/03 00:26:37.3  -0.1                          T                 .1  .15                5154073
SBF   001.03 145.5 m E Pg      2013/01/03 00:26:30.9   0.1                          T                                        5154070
SBF   001.03 145.5 m E Sn      2013/01/03 00:26:45.7   0.3                          T                 .5  .17 Ml 1.3         5154071

.
EVENT     289425
    Date      Time       Latitude Longitude    Depth    Ndef Nsta Gap    Mag1  N    Mag2  N    Mag3  N   Author         ID
       rms   OT_Error      Smajor Sminor Az        Err   mdist  Mdist     Err        Err        Err      Quality

2013/01/03 01:58:05.3     44.7156    6.6272      2.0      10    5 145  Ml 1.5  1  Md 1.4  2              bulletin    289525
                                                                                                         _ldg
      0.19   +-  0.08       1.8    1.3   48.43 +-  0.0    0.10   1.03   +-         +-0.1                 m i ke

FRANCE
Sta     Dist  EvAz     Phase      Date       Time     TRes  Azim  AzRes  Slow  SRes Def   SNR       Amp   Per   Mag1   Mag2       ID
MBDF  000.10 083.7 m E Pg      2013/01/03 01:58:07.4  -0.4                          T                                Md 1.5  5154089
MBDF  000.10 083.7 m E Sg      2013/01/03 01:58:08.9  -0.4                          T               22.7  .23                5154088
ORIF  000.57 291.1 m E Pg      2013/01/03 01:58:16.2  -0.1                          T                                        5154087
ORIF  000.57 291.1 m E Sg      2013/01/03 01:58:23.6  -0.1                          T                3.5  .32        Md 1.3  5154082
LPG   000.79 006.4 m E Pg      2013/01/03 01:58:20.6   0.1                          T                                        5154085
LPG   000.79 006.4 m E Sg      2013/01/03 01:58:30.8   0.0                          T                 .6  .22                5154083
LPL   000.80 005.3 m E Pg      2013/01/03 01:58:20.7   0.0                          T                                        5154086
LPL   000.80 005.3 m E Sg      2013/01/03 01:58:31.2   0.0                          T                 .7  .20                5154084
SBF   001.03 145.5 m E Pg      2013/01/03 01:58:24.8   0.1                          T                                        5154081
SBF   001.03 145.5 m E Sn      2013/01/03 01:58:39.6   0.1                          T                 .8  .19 Ml 1.5         5154080

.
EVENT     289426
    Date      Time       Latitude Longitude    Depth    Ndef Nsta Gap    Mag1  N    Mag2  N    Mag3  N   Author         ID
       rms   OT_Error      Smajor Sminor Az        Err   mdist  Mdist     Err        Err        Err      Quality

2013/01/03 02:10:52.4     44.7104    6.6222      2.0       9    5 146  Ml 0.7  1  Md 1.1  2              bulletin    289526
                                                                                                         _ldg
      0.22   +-  0.12       2.5    1.8   18.95 +-  0.0    0.11   1.03   +-         +-0.3                 m i ke

FRANCE
Sta     Dist  EvAz     Phase      Date       Time     TRes  Azim  AzRes  Slow  SRes Def   SNR       Amp   Per   Mag1   Mag2       ID
MBDF  000.11 081.1 m E Pg      2013/01/03 02:10:54.6  -0.4                          T                                Md 1.3  5154097
MBDF  000.11 081.1 m E Sg      2013/01/03 02:10:56.4  -0.2                          T                2.6  .24                5154096
ORIF  000.57 291.7 m E Pg      2013/01/03 02:11:03.3   0.0                          T                                        5154095
ORIF  000.57 291.7 m E Sg      2013/01/03 02:11:10.6  -0.2                          T                 .6  .26        Md  .9  5154094
LPG   000.79 006.6 m E Pg      2013/01/03 02:11:07.9   0.2                          T                                        5154090
LPG   000.79 006.6 m E Sg      2013/01/03 02:11:17.9  -0.2                          T                 .2  .17                5154091
LPL   000.81 005.5 m E Pg      2013/01/03 02:11:08.1   0.1                          T                                        5154093
LPL   000.81 005.5 m E Sg      2013/01/03 02:11:18.2  -0.3                          T                 .4  .19                5154092
SBF   001.03 145.1 m E Sn      2013/01/03 02:11:26.7   0.2                          T                 .1  .15 Ml  .7         5176028

.
EVENT     289427
    Date      Time       Latitude Longitude    Depth    Ndef Nsta Gap    Mag1  N    Mag2  N    Mag3  N   Author         ID
       rms   OT_Error      Smajor Sminor Az        Err   mdist  Mdist     Err        Err        Err      Quality

2013/01/03 02:36:28.9     44.7074    6.6210      2.0       9    5 147  Ml 0.9  1  Md 1.2  2              bulletin    289527
                                                                                                         _ldg
      0.26   +-  0.14       2.9    2.1   17.95 +-  0.0    0.11   1.03   +-         +-0.2                 m i ke

FRANCE
Sta     Dist  EvAz     Phase      Date       Time     TRes  Azim  AzRes  Slow  SRes Def   SNR       Amp   Per   Mag1   Mag2       ID
MBDF  000.11 079.7 m E Pg      2013/01/03 02:36:31.1  -0.4                          T                                        5154105
MBDF  000.11 079.7 m E Sg      2013/01/03 02:36:32.8  -0.4                          T                3.9  .22        Md 1.3  5154104
ORIF  000.57 292.0 m E Pg      2013/01/03 02:36:39.8  -0.1                          T                                        5154103
ORIF  000.57 292.0 m E Sg      2013/01/03 02:36:47.1  -0.2                          T                 .6  .26        Md 1.1  5154102
LPG   000.80 006.6 m E Pg      2013/01/03 02:36:44.5   0.2                          T                                        5154099
LPG   000.80 006.6 m E Sg      2013/01/03 02:36:54.5  -0.2                          T                 .1  .16                5154098
LPL   000.81 005.5 m E Pg      2013/01/03 02:36:44.6   0.1                          T                                        5154101
LPL   000.81 005.5 m E Sg      2013/01/03 02:36:54.8  -0.3                          T                 .3  .23                5154100
SBF   001.03 145.0 m E Sn      2013/01/03 02:37:03.2   0.3                          T                 .2  .15 Ml  .9         5176029

.
EVENT     289429
    Date      Time       Latitude Longitude    Depth    Ndef Nsta Gap    Mag1  N    Mag2  N    Mag3  N   Author         ID
       rms   OT_Error      Smajor Sminor Az        Err   mdist  Mdist     Err        Err        Err      Quality

2013/01/03 05:31:28.1     43.0240    -.2092      2.0      13    5 155  Ml 1.6  3  Md 1.6  2              bulletin    289529
                                                                                                         _ldg
      0.28   +-  0.08       4.2    1.1  169.46 +-  0.0    0.29   2.51   +-0.3      +-0.1                 m i ke

PYRENEES
Sta     Dist  EvAz     Phase      Date       Time     TRes  Azim  AzRes  Slow  SRes Def   SNR       Amp   Per   Mag1   Mag2       ID
ETSF  000.29 244.1 m E Pg      2013/01/03 05:31:33.6  -0.3                          T                                        5154117
ETSF  000.29 244.1 m E Sg      2013/01/03 05:31:37.7   0.0                          T               15.1  .26        Md 1.6  5154116
EPF   000.40 088.9 m E Pg      2013/01/03 05:31:35.8  -0.1                          T                                        5154115
EPF   000.40 088.9 m E Sg      2013/01/03 05:31:41.5   0.2                          T                5.2  .26        Md 1.6  5154114
SJPF  000.75 277.2 m E Pg      2013/01/03 05:31:42.5   0.2                          T                                        5154113
SJPF  000.75 277.2 m E Sg      2013/01/03 05:31:52.2   0.1                          T                1.1  .22                5154112
MTLF  001.80 079.1 m E Pn      2013/01/03 05:31:58.4   0.0                          T                                        5154111
MTLF  001.80 079.1 m E Pg      2013/01/03 05:32:02.1   0.4                          T                                        5154110
MTLF  001.80 079.1 m E Sg      2013/01/03 05:32:24.3  -0.6                          T                 .2  .20 Ml 1.2         5154109
CAF   002.51 040.0 m E Sg      2013/01/03 05:32:46.5  -0.6                          T                 .5  .21 Ml 1.7         5176031

.
EVENT     289440
    Date      Time       Latitude Longitude    Depth    Ndef Nsta Gap    Mag1  N    Mag2  N    Mag3  N   Author         ID
       rms   OT_Error      Smajor Sminor Az        Err   mdist  Mdist     Err        Err        Err      Quality

2013/01/03 08:45:34.4     40.6139   -1.6288     12.0 f    44    3 061  Ml 2.2  6                         bulletin    289540
                                                                                                         _ldg
      1.37   +-  0.18       4.9    2.9  131.68 +-  0.0    0.92   3.88   +-0.2                            m i ke

SPAIN
Sta     Dist  EvAz     Phase      Date       Time     TRes  Azim  AzRes  Slow  SRes Def   SNR       Amp   Per   Mag1   Mag2       ID
ETSF  002.42 019.0 m E Pn      2013/01/03 08:46:12.7   0.6                          T                                        5154675
ETSF  002.42 019.0 m E Sn      2013/01/03 08:46:41.1   1.2                          T                 .8  .18 Ml 1.9         5154681
ETSF  002.42 019.0 m E Sg      2013/01/03 08:46:47.9  -2.7                          T                1.9  .26 Ml 2.2         5154680
SJPF  002.52 006.8 m E Pn      2013/01/03 08:46:14.2   0.8                          T                                        5154676
SJPF  002.52 006.8 m E Sn      2013/01/03 08:46:43.3   1.2                          T                 .8  .19 Ml 2.0         5154682
SJPF  002.52 006.8 m E Sg      2013/01/03 08:46:52.9  -0.7                          T                2.2  .21 Ml 2.3         5154679
EPF   002.83 030.7 m E Pn      2013/01/03 08:46:18.4   0.7                          T                                        5154674
EPF   002.83 030.7 m E Sn      2013/01/03 08:46:51.0   1.4                          T                1.1  .21 Ml 2.1         5154678
EPF   002.83 030.7 m E Sg      2013/01/03 08:47:02.7  -0.6                          T                2.7  .24 Ml 2.4         5154683

.
EVENT     289439
    Date      Time       Latitude Longitude    Depth    Ndef Nsta Gap    Mag1  N    Mag2  N    Mag3  N   Author         ID
       rms   OT_Error      Smajor Sminor Az        Err   mdist  Mdist     Err        Err        Err      Quality

2013/01/03 09:55:08.8     42.9540    -.6473      2.0      43    7 078  Ml 2.3  8  Md 2.5  2              bulletin    289539
                                                                                                         _ldg
      0.91   +-  0.09       2.2    1.4   13.09 +-  0.0    0.09   3.46   +-0.3      +-0.1                 m i ke

PYRENEES
Sta     Dist  EvAz     Phase      Date       Time     TRes  Azim  AzRes  Slow  SRes Def   SNR       Amp   Per   Mag1   Mag2       ID
ETSF  000.09 130.5 m E Pg      2013/01/03 09:55:10.3  -0.6                          T                                        5154688
ETSF  000.09 130.5 m E Sg      2013/01/03 09:55:11.6  -0.5                          T              285.9  .26        Md 2.5  5154685
SJPF  000.45 290.8 m E Pg      2013/01/03 09:55:17.3  -0.2                          T                                        5154687
SJPF  000.45 290.8 m E Sg      2013/01/03 09:55:23.1  -0.4                          T               56.2  .28        Md 2.4  5154686
MTLF  002.13 078.6 m E Pn      2013/01/03 09:55:43.1  -0.6                          T                                        5154714
MTLF  002.13 078.6 m E Pg      2013/01/03 09:55:47.6  -0.8                          T                                        5154716
MTLF  002.13 078.6 m E Sn      2013/01/03 09:56:06.9  -2.2                          T                 .8  .20 Ml 1.8         5154715
MTLF  002.13 078.6 m E Sg      2013/01/03 09:56:15.6  -0.3                          T                5.9  .27 Ml 2.6         5154684
LFF   002.22 026.3 m E Pg      2013/01/03 09:55:49.5  -0.6                          T                                        5154720
LFF   002.22 026.3 m E Sg      2013/01/03 09:56:18.4  -0.3                          T                2.5  .20 Ml 2.2         5154719
CAF   002.78 043.9 m E Pn      2013/01/03 09:55:52.1  -0.3                          T                                        5176037
CAF   002.78 043.9 m E P       2013/01/03 09:55:55.1  -0.2                          T                                        5154718
CAF   002.78 043.9 m E Pg      2013/01/03 09:56:00.2  -0.1                          T                                        5176036
CAF   002.78 043.9 m E Sn      2013/01/03 09:56:23.6  -1.1                          T                1.1  .25 Ml 2.0         5154717
CAF   002.78 043.9 m E Sg      2013/01/03 09:56:35.9  -0.2                          T                1.6  .18 Ml 2.3         5154721
RJF   002.82 032.8 m E Sg      2013/01/03 09:56:37.3   0.0                          T                3.5  .22 Ml 2.3         5176035
LASF  003.46 069.6 m E Sg      2013/01/03 09:56:57.4  -0.1                          T                1.7  .27 Ml 2.3         5176034

.
EVENT     289453
    Date      Time       Latitude Longitude    Depth    Ndef Nsta Gap    Mag1  N    Mag2  N    Mag3  N   Author         ID
       rms   OT_Error      Smajor Sminor Az        Err   mdist  Mdist     Err        Err        Err      Quality

2013/01/03 11:02:01.2     43.8510    3.7507       .0 f    16    6 212  Ml 1.9  6  Md 1.9  3              bulletin    289553
                                                                                                         _ldg
      0.70   +-  0.16       3.3    1.6  138.93 +-  0.0    0.24   2.42   +-0.2      +-0.1                 m i km

NEAR SOUTH COAST OF FRANCE
Sta     Dist  EvAz     Phase      Date       Time     TRes  Azim  AzRes  Slow  SRes Def   SNR       Amp   Per   Mag1   Mag2       ID
LASF  000.24 018.8 m E Pg      2013/01/03 11:02:06.1  -0.1                          T                                        5154853
LASF  000.24 018.8 m E Sg      2013/01/03 11:02:09.6  -0.1                          T               88.6  .82        Md 1.9  5154852
VIVF  001.20 033.0 m E Pg      2013/01/03 11:02:24.2   0.1                          T                                        5154851
VIVF  001.20 033.0 m E Sg      2013/01/03 11:02:39.9   0.1                          T                2.8  .19 Ml 2.1 Md 2.0  5154850
MTLF  001.22 245.9 m E Pg      2013/01/03 11:02:24.4   0.0                          T                                        5154849
MTLF  001.22 245.9 m E Sg      2013/01/03 11:02:40.6   0.2                          T                 .8  .18 Ml 1.6 Md 1.9  5154848
CAF   001.62 312.2 m E Pn      2013/01/03 11:02:29.2  -0.3                          T                                        5154859
CAF   001.62 312.2 m E Pg      2013/01/03 11:02:31.9   0.3                          T                                        5154861
CAF   001.62 312.2 m E Sn      2013/01/03 11:02:49.7  -0.3                          T                1.7  .19 Ml 2.1         5154860
LFF   002.42 297.8 m E Pn      2013/01/03 11:02:40.2  -0.2                          T                                        5154858
LFF   002.42 297.8 m E Sn      2013/01/03 11:03:08.6  -0.4                          T                                        5154857
LFF   002.42 297.8 m E Sg      2013/01/03 11:03:17.7   0.1                          T                1.9  .27 Ml 2.0         5154856
RJF   002.16 313.1 m E Pg      2013/01/03 11:02:41.8   0.2                          T                                        5154854
RJF   002.16 313.1 m E Sg      2013/01/03 11:03:09.4  -0.2                          T                1.1  .18 Ml 1.7         5154855

.
EVENT     289515
    Date      Time       Latitude Longitude    Depth    Ndef Nsta Gap    Mag1  N    Mag2  N    Mag3  N   Author         ID
       rms   OT_Error      Smajor Sminor Az        Err   mdist  Mdist     Err        Err        Err      Quality

2013/01/03 20:12:19.9     44.7106    6.6226      2.0       9    5 146  Ml 1.2  1  Md 1.2  2              bulletin    289615
                                                                                                         _ldg
      0.23   +-  0.13       2.7    1.9   19.05 +-  0.0    0.11   1.03   +-         +-0.1                 m i ke

FRANCE
Sta     Dist  EvAz     Phase      Date       Time     TRes  Azim  AzRes  Slow  SRes Def   SNR       Amp   Per   Mag1   Mag2       ID
MBDF  000.11 081.2 m E Pg      2013/01/03 20:12:22.0  -0.4                          T                                        5155020
MBDF  000.11 081.2 m E Sg      2013/01/03 20:12:23.9  -0.2                          T                1.4  .25        Md 1.2  5155018
ORIF  000.57 291.7 m E Pg      2013/01/03 20:12:30.8   0.0                          T                                        5155019
ORIF  000.57 291.7 m E Sg      2013/01/03 20:12:38.1  -0.2                          T                1.2  .28        Md 1.1  5155017
LPG   000.79 006.6 m E Pg      2013/01/03 20:12:35.3   0.1                          T                                        5155021
LPG   000.79 006.6 m E Sg      2013/01/03 20:12:45.4  -0.1                          T                 .4  .22                5176134
LPL   000.81 005.5 m E Pg      2013/01/03 20:12:35.6   0.2                          T                                        5155022
LPL   000.81 005.5 m E Sg      2013/01/03 20:12:45.6  -0.4                          T                 .5  .24                5176135
SBF   001.03 145.2 m E Sn      2013/01/03 20:12:54.1   0.2                          T                 .4  .18 Ml 1.2         5176133

.
