EVENT     293253
    Date      Time       Latitude Longitude    Depth    Ndef Nsta Gap    Mag1  N    Mag2  N    Mag3  N   Author         ID
       rms   OT_Error      Smajor Sminor Az        Err   mdist  Mdist     Err        Err        Err      Quality

2013/03/06 09:14:04.8     47.8245    4.7531       .0 f    19    9 147  Ml 2.3  6  Md 2.2  3              bulletin    293353
                                                                                                         _ldg
      0.39   +-  0.05       1.2     .8  136.42 +-  0.0    0.43   1.79   +-0.2      +-0.1                 m i km

FRANCE
Sta     Dist  EvAz     Phase      Date       Time     TRes  Azim  AzRes  Slow  SRes Def   SNR       Amp   Per   Mag1   Mag2       ID
SFTF  000.43 026.6 m E Pg      2013/03/06 09:14:13.5   0.2 205.1  -1.7              T                                        5217902
SFTF  000.43 026.6 m E Sg      2013/03/06 09:14:18.6  -0.5 209.7  2.9               T               69.0  .44        Md 2.4  5217901
MEZF  000.71 016.3 m E Pg      2013/03/06 09:14:18.6   0.2 199.1  2.6               T                                        5217911
MEZF  000.71 016.3 m E Sg      2013/03/06 09:14:27.9   0.1                          T               39.0  .62        Md 2.1  5217913
LOR   000.82 227.8 m E Pg      2013/03/06 09:14:20.6   0.0  46.1  -1.0              T                                        5217904
LOR   000.82 227.8 m E Sg      2013/03/06 09:14:31.1  -0.3                          T               38.2  .88        Md 2.2  5217903
PAGF  000.98 041.3 m E Pg      2013/03/06 09:14:23.2  -0.2 222.8  0.8               T                                        5217921
PAGF  000.98 041.3 m E Sg      2013/03/06 09:14:35.8  -0.5                          T               40.4  .62 Ml 2.6         5217920
HAU   001.09 079.8 m E Pg      2013/03/06 09:14:25.5   0.0                          T                                        5217908
HAU   001.09 079.8 m E Sg      2013/03/06 09:14:39.9   0.1                          T                8.9  .32 Ml 2.1         5217905
SSF   001.14 228.4 m E Pg      2013/03/06 09:14:26.5   0.2                          T                                        5217900
SSF   001.14 228.4 m E Sg      2013/03/06 09:14:41.0  -0.4                          T                7.4  .43 Ml 2.2         5217899
HINF  001.42 089.5 m E Pg      2013/03/06 09:14:31.3  -0.2                          T                                        5217912
HINF  001.42 089.5 m E Sn      2013/03/06 09:14:48.6  -0.1                          T                9.5  .46 Ml 2.3         5217906
CABF  001.52 142.7 m E Pn      2013/03/06 09:14:31.7  -0.1                          T                                        5217918
CABF  001.52 142.7 m E Sn      2013/03/06 09:14:51.4   0.2                          T                                        5217917
CABF  001.52 142.7 m E Sg      2013/03/06 09:14:53.3   0.1                          T                3.3  .35 Ml 2.0         5217916
CDF   001.79 069.9 m E Pg      2013/03/06 09:14:38.6   0.1                          T                                        5217919
CDF   001.79 069.9 m E Sg      2013/03/06 09:15:01.9   0.1                          T                5.4  .36 Ml 2.5         5217909

.
EVENT     293278
    Date      Time       Latitude Longitude    Depth    Ndef Nsta Gap    Mag1  N    Mag2  N    Mag3  N   Author         ID
       rms   OT_Error      Smajor Sminor Az        Err   mdist  Mdist     Err        Err        Err      Quality

2013/03/06 11:49:08.3     48.1046   -1.0465       .0 f    24    9 105  Ml 2.2  8  Md 2.2  3              bulletin    293378
                                                                                                         _ldg
      0.79   +-  0.05       1.2    1.0   14.53 +-  0.0    0.31   3.26   +-0.2      +-0.0                 m i km

FRANCE
Sta     Dist  EvAz     Phase      Date       Time     TRes  Azim  AzRes  Slow  SRes Def   SNR       Amp   Per   Mag1   Mag2       ID
GRR   000.31 023.8 m E Pg      2013/03/06 11:49:14.4  -0.2                          T   001.0                                5217968
GRR   000.31 023.8 m E Sg      2013/03/06 11:49:19.0   0.0                          T   001.0       20.5  .28        Md 2.2  5217969
FLN   000.76 029.5 m E Pg      2013/03/06 11:49:23.0   0.2 210.3  0.3               T   001.0                                5217966
FLN   000.76 029.5 m E Sg      2013/03/06 11:49:32.8  -0.1 216.6  6.6               T   001.0        9.2  .24        Md 2.2  5217967
LDF   000.79 051.2 m E Pg      2013/03/06 11:49:23.6   0.3                          T   001.0                                5217970
LDF   000.79 051.2 m E Sg      2013/03/06 11:49:34.0   0.1                          T   001.0        9.1  .24        Md 2.2  5217971
SGMF  001.02 279.0 m E Pg      2013/03/06 11:49:27.9   0.2                          T                                        5217986
SGMF  001.02 279.0 m E Sg      2013/03/06 11:49:41.3   0.2                          T   001.0        6.7  .20 Ml 2.3         5217979
QUIF  001.44 263.3 m E Pg      2013/03/06 11:49:35.4   0.1                          T   001.0                                5217974
QUIF  001.44 263.3 m E Sg      2013/03/06 11:49:54.0   0.0                          T   001.0          5  .20 Ml 2.4         5217975
ROSF  001.51 279.7 m E Pg      2013/03/06 11:49:36.5  -0.1                          T   001.0                                5217976
ROSF  001.51 279.7 m E Sg      2013/03/06 11:49:56.2  -0.1                          T   001.0        4.5  .24 Ml 2.3         5217977
MFF   001.62 157.5 m E Pn      2013/03/06 11:49:36.5   0.0                          T                                        5217985
MFF   001.62 157.5 m E Pg      2013/03/06 11:49:38.8   0.1                          T   001.0                                5217972
MFF   001.62 157.5 m E Sg      2013/03/06 11:50:00.0   0.1                          T   001.0        2.5  .20 Ml 2.4         5217973
TCF   002.87 128.1 m E Pn      2013/03/06 11:49:53.7   0.1                          T                                        5217984
TCF   002.87 128.1 m E Sn      2013/03/06 11:50:26.6  -0.4                          T                 .4  .20 Ml 1.7         5217983
AVF   003.26 112.1 m E Pn      2013/03/06 11:49:59.0   0.1                          T                                        5217982
AVF   003.26 112.1 m E Pg      2013/03/06 11:50:08.5  -0.5                          T                                        5217981
AVF   003.26 112.1 m E Sg      2013/03/06 11:50:50.9  -0.1                          T                1.8  .36 Ml 2.2         5217980

.
EVENT     293279
    Date      Time       Latitude Longitude    Depth    Ndef Nsta Gap    Mag1  N    Mag2  N    Mag3  N   Author         ID
       rms   OT_Error      Smajor Sminor Az        Err   mdist  Mdist     Err        Err        Err      Quality

2013/03/06 12:14:57.7     48.5064    5.5126       .0 f    19    8 161  Ml 2.1  4  Md 2.0  1              bulletin    293379
                                                                                                         _ldg
      1.05   +-  0.10       1.6    1.3  169.27 +-  0.0    0.15   1.98   +-0.0      +-                    m i km

FRANCE
Sta     Dist  EvAz     Phase      Date       Time     TRes  Azim  AzRes  Slow  SRes Def   SNR       Amp   Per   Mag1   Mag2       ID
PAGF  000.15 070.9 m E Pg      2013/03/06 12:15:01.2   0.2 255.6  4.5               T                                        5217992
PAGF  000.15 070.9 m E Sg      2013/03/06 12:15:04.9   1.5 245.1  -6.0              T             4080.1  .88        Md 2.0  5217991
MEZF  000.31 269.3 m E Pg      2013/03/06 12:15:04.1   0.2                          T                                        5218806
MEZF  000.31 269.3 m E Sg      2013/03/06 12:15:08.4   0.2  79.5  -9.5              T              137.8  .68                5218770
SFTF  000.44 226.5 m E Pg      2013/03/06 12:15:06.3   0.0  43.1  -3.1              T                                        5218767
SFTF  000.44 226.5 m E Sg      2013/03/06 12:15:12.8   0.5  51.2  5.0               T                                        5218768
SFTF  000.44 226.5 m E Sn      2013/03/06 12:15:25.4  -0.5  51.3  5.2               T              218.6 1.36                5218769
HAU   000.75 131.6 m E Pg      2013/03/06 12:15:11.6  -0.5                          T                                        5218764
HAU   000.75 131.6 m E P       2013/03/06 12:15:13.5  -0.1                          T                                        5218765
HAU   000.75 131.6 m E Sg      2013/03/06 12:15:21.8  -0.4                          T                5.9  .33                5218766
HAU   000.75 131.6 m E Sn      2013/03/06 12:15:25.7   0.0                          T               28.9  .96                5218803
HINF  001.13 127.1 m E Pg      2013/03/06 12:15:19.2   0.0                          T                                        5218805
HINF  001.13 127.1 m E Sn      2013/03/06 12:15:34.8  -0.1                          T                5.5  .30 Ml 2.1         5218804
CDF   001.18 093.9 m E Pg      2013/03/06 12:15:19.9  -0.2                          T                                        5218771
CDF   001.18 093.9 m E Sg      2013/03/06 12:15:35.4  -0.2                          T                4.5  .37 Ml 2.1         5218772
LOR   001.67 222.6 m E Pg      2013/03/06 12:15:29.0   0.0  40.9  -0.4              T                                        5218809
LOR   001.67 222.6 m E Sg      2013/03/06 12:15:50.8   0.1  34.7  -6.7              T                2.2  .26 Ml 2.0         5218810
SSF   001.98 223.9 m E Pg      2013/03/06 12:15:35.0   0.2                          T                                        5218807
SSF   001.98 223.9 m E Sg      2013/03/06 12:16:00.4  -0.1                          T                1.5  .27 Ml 2.0         5218808

.
EVENT     293337
    Date      Time       Latitude Longitude    Depth    Ndef Nsta Gap    Mag1  N    Mag2  N    Mag3  N   Author         ID
       rms   OT_Error      Smajor Sminor Az        Err   mdist  Mdist     Err        Err        Err      Quality

2013/03/06 12:59:16.4     46.1961    7.6849      7.0 f    60   15 052  Ml 2.1 17                         bulletin    293437
                                                                                                         _ldg
      0.33   +-  0.04        .8     .6  104.59 +-  0.0    0.10   2.98   +-0.2                            m i ke

SWITZERLAND
Sta     Dist  EvAz     Phase      Date       Time     TRes  Azim  AzRes  Slow  SRes Def   SNR       Amp   Per   Mag1   Mag2       ID
LPL   000.95 224.7 m E Pg      2013/03/06 12:59:34.7   0.1                          T                                        5218489
LPL   000.95 224.7 m E Sg      2013/03/06 12:59:46.8  -0.2                          T                2.4  .17 Ml 2.0         5218488
LPG   000.96 223.4 m E Pg      2013/03/06 12:59:34.7   0.0                          T                                        5218491
LPG   000.96 223.4 m E Sg      2013/03/06 12:59:47.1  -0.1                          T                3.8  .21 Ml 2.0         5218490
CABF  001.18 291.2 m E Pg      2013/03/06 12:59:38.6   0.0                          T                                        5218501
CABF  001.18 291.2 m E Sg      2013/03/06 12:59:53.9   0.0                          T                2.6  .20 Ml 2.0         5218500
MBDF  001.60 204.0 m E Pg      2013/03/06 12:59:46.4  -0.1                          T                                        5218476
MBDF  001.60 204.0 m E Sn      2013/03/06 13:00:03.2  -0.2                          T                                        5218486
MBDF  001.60 204.0 m E Sg      2013/03/06 13:00:06.9  -0.4                          T                1.5  .23 Ml 1.9         5218475
ORIF  001.80 225.4 m E P       2013/03/06 12:59:48.3  -0.1                          T                                        5218485
ORIF  001.80 225.4 m E Pg      2013/03/06 12:59:50.1   0.0                          T                                        5218474
ORIF  001.80 225.4 m E Sg      2013/03/06 13:00:13.3   0.1                          T                1.7  .28 Ml 1.9         5218473
HINF  001.72 341.0 m E Pg      2013/03/06 12:59:48.3  -0.2                          T                                        5218499
HINF  001.72 341.0 m E Sg      2013/03/06 13:00:10.1  -0.6                          T                2.6  .26 Ml 2.1         5218498
HAU   002.03 333.7 m E P       2013/03/06 12:59:51.8   0.2                          T                                        5218497
HAU   002.03 333.7 m E Sg      2013/03/06 13:00:20.1  -0.2                          T                7.3  .33 Ml 2.3         5218496
SBF   002.34 184.4 m E Pn      2013/03/06 12:59:53.7   0.1                          T                                        5218478
SBF   002.34 184.4 m E Sg      2013/03/06 13:00:30.0  -0.1                          T                1.7  .25 Ml 2.1         5218477
CDF   002.23 353.0 m E P       2013/03/06 12:59:54.3  -0.4                          T                                        5218511
CDF   002.23 353.0 m E Pg      2013/03/06 12:59:57.9  -0.2                          T                                        5218510
CDF   002.23 353.0 m E Sn      2013/03/06 13:00:18.3  -0.1                          T                1.2  .19 Ml 2.1         5218509
VIVF  002.51 238.7 m E Pn      2013/03/06 12:59:55.7  -0.1                          T                                        5218495
VIVF  002.51 238.7 m E Pg      2013/03/06 13:00:02.9  -0.1                          T                                        5218494
VIVF  002.51 238.7 m E Sn      2013/03/06 13:00:24.8   0.0                          T                                        5218493
VIVF  002.51 238.7 m E Sg      2013/03/06 13:00:35.5   0.3                          T                  1  .20 Ml 2.0         5218492
FRF   002.74 196.0 m E Pn      2013/03/06 12:59:58.9   0.0                          T                                        5218482
FRF   002.74 196.0 m E Sn      2013/03/06 13:00:30.5   0.3                          T                1.2  .19 Ml 2.2         5218481
SFTF  002.70 319.0 m E P       2013/03/06 13:00:00.4  -0.7 139.3  2.2               T                                        5218513
SFTF  002.70 319.0 m E Sn      2013/03/06 13:00:29.2  -0.2                          T                3.7  .24 Ml 2.5         5218512
LMR   002.98 196.7 m E Pn      2013/03/06 13:00:02.6   0.4                          T                                        5218480
LMR   002.98 196.7 m E Sg      2013/03/06 13:00:49.4  -0.6                          T                 .5  .16 Ml 2.0         5218479
SMRF  002.68 214.7 m E Pg      2013/03/06 13:00:05.6  -0.5                          T                                        5218811
SMRF  002.68 214.7 m E Sn      2013/03/06 13:00:29.5   0.6                          T                 .7  .18 Ml 2.0         5218483
LOR   002.84 293.6 m E Pg      2013/03/06 13:00:09.0  -0.1                          T                                        5218813
LOR   002.84 293.6 m E Sg      2013/03/06 13:00:45.3  -0.3                          T                1.3  .27 Ml 2.1         5218812

.
