EVENT     258972
    Date      Time       Latitude Longitude    Depth    Ndef Nsta Gap    Mag1  N    Mag2  N    Mag3  N   Author         ID
       rms   OT_Error      Smajor Sminor Az        Err   mdist  Mdist     Err        Err        Err      Quality

2011/05/06 00:04:32.8     44.6109    7.2613      2.0      14    9 192  Ml 1.3  7                         js067245    258972

      0.28   +-  0.12       2.5    1.2   72.19 +-  0.0    0.37   1.86   +-0.3                            m i ke

NORTHERN ITALY
Sta     Dist  EvAz     Phase      Date       Time     TRes  Azim  AzRes  Slow  SRes Def   SNR       Amp   Per   Mag1   Mag2       ID
MBDF  000.37 288.5 m E Pg      2011/05/06 00:04:40.4   0.2                          T                                        4685329
MBDF  000.37 288.5 m E Sg      2011/05/06 00:04:45.0  -0.1                          T                3.4  .20                4685330
SBF   000.76 170.4 m E Pg      2011/05/06 00:04:47.2   0.0                          T                                        4685325
SBF   000.76 170.4 m E Sg      2011/05/06 00:04:56.8  -0.3                          T                 .8  .20                4685324
LPG   000.96 338.0 m E Pg      2011/05/06 00:04:51.1   0.0                          T                                        4685327
LPG   000.96 338.0 m E Sg      2011/05/06 00:05:03.5  -0.1                          T                 .4  .21 Ml 1.1         4685320
ORIF  001.03 287.8 m E Pg      2011/05/06 00:04:52.3   0.0                          T                                        4685328
ORIF  001.03 287.8 m E Sg      2011/05/06 00:05:04.7  -0.9                          T                 .4  .25 Ml 1.0         4685318
FRF   001.14 203.1 m E Pg      2011/05/06 00:04:54.3   0.2                          T                                        4685326
FRF   001.14 203.1 m E Sg      2011/05/06 00:05:08.8  -0.1                          T                 .6  .23 Ml 1.3         4685322
LPL   000.98 337.7 m E Sg      2011/05/06 00:05:04.1  -0.1                          T                 .6  .25 Ml 1.2         4685319
LMR   001.39 203.3 m E Sg      2011/05/06 00:05:16.2  -0.5                          T                1.0  .19 Ml 1.7         4685323
SMRF  001.37 242.9 m E Sg      2011/05/06 00:05:16.5   0.4                          T                 .3  .22 Ml 1.0         4685321
VIVF  001.86 278.5 m E Sg      2011/05/06 00:05:31.7   0.2                          T                 .6  .27 Ml 1.5         4685317

.
EVENT     258973
    Date      Time       Latitude Longitude    Depth    Ndef Nsta Gap    Mag1  N    Mag2  N    Mag3  N   Author         ID
       rms   OT_Error      Smajor Sminor Az        Err   mdist  Mdist     Err        Err        Err      Quality

2011/05/06 00:26:22.4     44.6091    7.2709      2.0      18    9 193  Ml 1.2  8  Md 1.5  1              js067245    258973

      0.20   +-  0.09       1.9     .9   74.54 +-  0.0    0.38   1.87   +-0.2      +-                    m i ke

NORTHERN ITALY
Sta     Dist  EvAz     Phase      Date       Time     TRes  Azim  AzRes  Slow  SRes Def   SNR       Amp   Per   Mag1   Mag2       ID
MBDF  000.38 288.5 m E Pg      2011/05/06 00:26:30.1   0.2                          T                                        4685343
MBDF  000.38 288.5 m E Sg      2011/05/06 00:26:34.6  -0.3                          T                4.5  .24        Md 1.5  4685344
SBF   000.76 170.9 m E Pg      2011/05/06 00:26:36.9   0.2                          T                                        4685338
SBF   000.76 170.9 m E Sg      2011/05/06 00:26:46.6   0.0                          T                 .7  .20                4685337
LPG   000.96 337.7 m E Pg      2011/05/06 00:26:40.9   0.0                          T                                        4685341
LPG   000.96 337.7 m E Sg      2011/05/06 00:26:53.3  -0.1                          T                 .4  .26 Ml 1.0         4685333
LPL   000.98 337.4 m E Pg      2011/05/06 00:26:41.1  -0.1                          T                                        4687019
LPL   000.98 337.4 m E Sg      2011/05/06 00:26:53.9  -0.1                          T                 .5  .29 Ml 1.0         4685332
ORIF  001.04 287.8 m E Pg      2011/05/06 00:26:42.0   0.0                          T                                        4685342
ORIF  001.04 287.8 m E Sg      2011/05/06 00:26:55.5   0.0                          T                 .4  .27 Ml 1.0         4687020
FRF   001.14 203.4 m E Pg      2011/05/06 00:26:44.0   0.3                          T                                        4685340
FRF   001.14 203.4 m E Sg      2011/05/06 00:26:58.5   0.0                          T                 .5  .19 Ml 1.3         4685335
LMR   001.39 203.6 m E Pg      2011/05/06 00:26:47.9  -0.4                          T                                        4685339
LMR   001.39 203.6 m E Sg      2011/05/06 00:27:05.8  -0.4                          T                1.2  .24 Ml 1.7         4685336
SMRF  001.37 243.1 m E Sg      2011/05/06 00:27:06.2   0.4                          T                 .3  .23 Ml 1.0         4685334
VIVF  001.87 278.5 m E Sg      2011/05/06 00:27:21.4   0.1                          T                 .3  .20 Ml 1.4         4685331

.
EVENT     258974
    Date      Time       Latitude Longitude    Depth    Ndef Nsta Gap    Mag1  N    Mag2  N    Mag3  N   Author         ID
       rms   OT_Error      Smajor Sminor Az        Err   mdist  Mdist     Err        Err        Err      Quality

2011/05/06 01:31:58.2     44.4454    7.1398      2.0      24    9 161  Ml 1.6  8  Md 1.8  1              js067245    258974

      0.22   +-  0.07       1.4     .7   73.28 +-  0.0    0.24   1.81   +-0.2      +-                    m i ke

NORTHERN ITALY
Sta     Dist  EvAz     Phase      Date       Time     TRes  Azim  AzRes  Slow  SRes Def   SNR       Amp   Per   Mag1   Mag2       ID
MBDF  000.39 317.0 m E Pg      2011/05/06 01:32:05.8  -0.1                          T                                        4685350
MBDF  000.39 317.0 m E Sg      2011/05/06 01:32:11.0   0.0                          T                5.1  .34        Md 1.8  4685351
SBF   000.62 159.8 m E Pg      2011/05/06 01:32:10.4   0.3                          T                                        4685345
SBF   000.62 159.8 m E Sg      2011/05/06 01:32:18.0  -0.1                          T                2.9  .22                4685352
FRF   000.95 202.1 m E Pg      2011/05/06 01:32:16.3   0.2                          T                                        4685346
FRF   000.95 202.1 m E Sg      2011/05/06 01:32:28.6   0.1                          T                1.3  .20 Ml 1.7         4685354
ORIF  001.02 298.2 m E Pg      2011/05/06 01:32:17.4   0.0                          T                                        4685349
ORIF  001.02 298.2 m E Sg      2011/05/06 01:32:30.7   0.1                          T                 .9  .29 Ml 1.3         4685358
LPG   001.09 345.5 m E Pg      2011/05/06 01:32:18.9  -0.1                          T                                        4685347
LPG   001.09 345.5 m E Sg      2011/05/06 01:32:33.0   0.0                          T                1.5  .20 Ml 1.7         4685356
LPL   001.11 345.0 m E Pg      2011/05/06 01:32:19.4   0.1                          T                                        4685348
LPL   001.11 345.0 m E Sg      2011/05/06 01:32:33.8   0.1                          T                2.2  .28 Ml 1.7         4685357
LMR   001.20 202.5 m E Pg      2011/05/06 01:32:20.7   0.1                          T                                        4685362
LMR   001.20 202.5 m E Sg      2011/05/06 01:32:36.2   0.0                          T                  1  .19 Ml 1.6         4685353
SMRF  001.22 247.9 m E Pg      2011/05/06 01:32:20.9  -0.2                          T                                        4685360
SMRF  001.22 247.9 m E P       2011/05/06 01:32:22.3  -0.1                          T                                        4685361
SMRF  001.22 247.9 m E Sg      2011/05/06 01:32:37.0   0.2                          T                1.1  .25 Ml 1.5         4685355
VIVF  001.81 284.0 m E Sg      2011/05/06 01:32:55.3   0.1                          T                 .5  .24 Ml 1.4         4685359

.
EVENT     258975
    Date      Time       Latitude Longitude    Depth    Ndef Nsta Gap    Mag1  N    Mag2  N    Mag3  N   Author         ID
       rms   OT_Error      Smajor Sminor Az        Err   mdist  Mdist     Err        Err        Err      Quality

2011/05/06 01:53:44.3     43.8324   17.0760     10.0 f    47    8 117  Ml 3.2  5                         js067245    258975

      0.91   +-  0.13       5.3    2.6   30.09 +-  0.0    0.92   9.89   +-0.1                            m i ke

NORTHWESTERN BALKAN PEN.
Sta     Dist  EvAz     Phase      Date       Time     TRes  Azim  AzRes  Slow  SRes Def   SNR       Amp   Per   Mag1   Mag2       ID
SBF   006.97 273.6 m E P       2011/05/06 01:55:29.1  -0.2                          T                                        4685376
SBF   006.97 273.6 m E Sn      2011/05/06 01:56:39.1   0.2                          T                4.8  .54 Ml 3.2         4685371
FRF   007.56 271.5 m E Pn      2011/05/06 01:55:32.9   0.6                          T                                        4685370
LPL   007.56 286.4 m E P       2011/05/06 01:55:37.8   0.0                          T                                        4685377
LPL   007.56 286.4 m E Sn      2011/05/06 01:56:53.6   0.3                          T                4.1  .33 Ml 3.4         4685374
ORIF  008.10 281.6 m E P       2011/05/06 01:55:44.9  -0.2                          T                                        4685378
ORIF  008.10 281.6 m E Sn      2011/05/06 01:57:06.0   0.2                          T                2.7  .45 Ml 3.2         4685373
CDF   008.20 307.4 m E P       2011/05/06 01:55:46.6   0.0                          T                                        4685380
LOR   009.89 294.9 m E P       2011/05/06 01:56:09.0  -0.7                          T                                        4685379
MBDF  007.45 280.5 m E Sn      2011/05/06 01:56:50.8   0.3                          T                3.6  .53 Ml 3.2         4685372
LPG   007.55 286.3 m E Sn      2011/05/06 01:56:53.2   0.2                          T                3.3  .45 Ml 3.2         4685375

.
EVENT     258976
    Date      Time       Latitude Longitude    Depth    Ndef Nsta Gap    Mag1  N    Mag2  N    Mag3  N   Author         ID
       rms   OT_Error      Smajor Sminor Az        Err   mdist  Mdist     Err        Err        Err      Quality

2011/05/06 02:40:38.6     42.5947     .8997      4.0 f    94   17 025  Ml 2.6 18  Md 2.7  3              js067245    258976

      0.57   +-  0.04       1.0     .8    3.25 +-  0.0    0.26   6.45   +-0.3      +-0.2                 m i ke

PYRENEES
Sta     Dist  EvAz     Phase      Date       Time     TRes  Azim  AzRes  Slow  SRes Def   SNR       Amp   Per   Mag1   Mag2       ID
EPF   000.60 316.8 m E Pg      2011/05/06 02:40:49.3  -0.8                          T   001.0                                4684897
EPF   000.60 316.8 m E Sg      2011/05/06 02:40:57.1  -0.8                          T               43.9  .24        Md 2.9  4685407
ETSF  001.12 286.3 m E Pn      2011/05/06 02:40:58.7  -0.8                          T   001.0                                4684909
ETSF  001.12 286.3 m E Pg      2011/05/06 02:40:59.7   0.1                          T                                        4685417
ETSF  001.12 286.3 m E Sn      2011/05/06 02:41:14.8   0.4                          T   001.0         27  .20 Ml 3.0 Md 2.6  4684910
MTLF  001.22 051.9 m E Pn      2011/05/06 02:41:01.0   0.1                          T   001.0                                4684911
MTLF  001.22 051.9 m E Pg      2011/05/06 02:41:01.5   0.0                          T                                        4685416
MTLF  001.22 051.9 m E Sg      2011/05/06 02:41:17.0  -0.3                          T   001.0       11.3  .36 Ml 2.4 Md 2.6  4684913
SJPF  001.65 289.1 m E Pn      2011/05/06 02:41:07.0   0.4                          T   001.0                                4684918
SJPF  001.65 289.1 m E Pg      2011/05/06 02:41:09.5   0.1                          T   001.0                                4684919
SJPF  001.65 289.1 m E Sg      2011/05/06 02:41:30.8   0.2                          T   001.0       14.9  .32 Ml 2.8         4684920
CAF   002.48 019.5 m E Pn      2011/05/06 02:41:18.2   0.2                          T   001.0                                4684895
CAF   002.48 019.5 m E Pg      2011/05/06 02:41:24.5  -0.1                          T   001.0                                4684896
CAF   002.48 019.5 m E Sg      2011/05/06 02:41:56.0  -0.6                          T                5.6  .20 Ml 2.8         4685408
LFF   002.35 357.2 m E Pn      2011/05/06 02:41:18.4   2.2                          T   001.0                                4684901
LFF   002.35 357.2 m E Sg      2011/05/06 02:41:52.4   0.0                          T   001.0        7.5  .28 Ml 2.5         4684902
LASF  002.62 054.5 m E Pn      2011/05/06 02:41:20.1   0.2                          T   001.0                                4684899
LASF  002.62 054.5 m E Pg      2011/05/06 02:41:27.2   0.0                          T                                        4685415
LASF  002.62 054.5 m E Sg      2011/05/06 02:42:00.1  -0.8                          T   001.0          2  .24 Ml 2.3         4684900
RJF   002.75 009.1 m E Pg      2011/05/06 02:41:29.5  -0.1                          T   001.0                                4684890
RJF   002.75 009.1 m E Sn      2011/05/06 02:41:52.5  -0.8                          T   001.0                                4684891
RJF   002.75 009.1 m E Sg      2011/05/06 02:42:03.6  -1.3                          T   001.0        2.7  .16 Ml 2.3         4684892
TCF   003.81 013.8 m E Pn      2011/05/06 02:41:36.4   0.3                          T   001.0                                4684906
TCF   003.81 013.8 m E Sn      2011/05/06 02:42:18.5  -0.2                          T   001.0                                4684907
TCF   003.81 013.8 m E Sg      2011/05/06 02:42:37.9  -0.2                          T   001.0          2  .36 Ml 2.4         4684908
MFF   004.08 349.8 m E Pn      2011/05/06 02:41:40.5   0.8                          T   001.0                                4684904
MFF   004.08 349.8 m E Sg      2011/05/06 02:42:47.2   0.8                          T   001.0        3.6  .64 Ml 2.6         4684905
BGF   004.20 018.7 m E Pn      2011/05/06 02:41:41.3  -0.1                          T                                        4685413
BGF   004.20 018.7 m E Pg      2011/05/06 02:41:56.3   0.0                          T                                        4685412
BGF   004.20 018.7 m E Sg      2011/05/06 02:42:50.0  -0.2                          T   001.0          5  .40 Ml 2.8         4684894
VIVF  003.55 049.1 m E Pg      2011/05/06 02:41:44.4   0.1                          T                                        4685414
VIVF  003.55 049.1 m E Sg      2011/05/06 02:42:29.7  -0.3                          T   001.0        1.6  .36 Ml 2.2         4684921
AVF   004.55 021.8 m E Pg      2011/05/06 02:42:02.8   0.1                          T                                        4685411
AVF   004.55 021.8 m E Sg      2011/05/06 02:43:01.8   0.8                          T   001.0        1.1  .36 Ml 2.3         4684893
QUIF  006.05 333.1 m E Pn      2011/05/06 02:42:07.5   1.0                          T   001.0                                4684914
QUIF  006.05 333.1 m E Sn      2011/05/06 02:43:12.8   0.7                          T   001.0        6.2  .80 Ml 3.0         4684915
ROSF  006.45 334.4 m E Pn      2011/05/06 02:42:12.7   0.7                          T   001.0                                4684916
ROSF  006.45 334.4 m E Sn      2011/05/06 02:43:21.6  -0.1                          T   001.0        8.8  .88 Ml 3.2         4684917
GRR   005.92 348.6 m E Sn      2011/05/06 02:43:07.3  -1.9                          T   001.0        4.8  .92 Ml 2.7         4684898
LOR   005.12 023.2 m E Sg      2011/05/06 02:43:19.8   0.7                          T   001.0        2.3  .56 Ml 2.5         4684903

.
EVENT     258977
    Date      Time       Latitude Longitude    Depth    Ndef Nsta Gap    Mag1  N    Mag2  N    Mag3  N   Author         ID
       rms   OT_Error      Smajor Sminor Az        Err   mdist  Mdist     Err        Err        Err      Quality

2011/05/06 02:53:14.1     44.6108    7.2500      2.0      19    9 191  Ml 1.7  8  Md 1.7  1              js067245    258977

      0.30   +-  0.11       2.3    1.2   75.84 +-  0.0    0.36   1.85   +-0.3      +-                    m i ke

NORTHERN ITALY
Sta     Dist  EvAz     Phase      Date       Time     TRes  Azim  AzRes  Slow  SRes Def   SNR       Amp   Per   Mag1   Mag2       ID
MBDF  000.36 288.9 m E Pg      2011/05/06 02:53:21.5   0.3                          T                                        4685434
MBDF  000.36 288.9 m E Sg      2011/05/06 02:53:26.2   0.1                          T               14.2  .16        Md 1.7  4685435
SBF   000.76 169.8 m E Pg      2011/05/06 02:53:28.4  -0.1                          T                                        4685427
SBF   000.76 169.8 m E Sg      2011/05/06 02:53:38.2  -0.2                          T                2.7  .21                4685426
LPG   000.95 338.4 m E Pg      2011/05/06 02:53:32.4   0.0                          T                                        4685431
LPG   000.95 338.4 m E Sg      2011/05/06 02:53:44.7  -0.1                          T                3.1  .27 Ml 1.9         4685422
LPL   000.98 338.1 m E Pg      2011/05/06 02:53:32.8   0.1                          T                                        4685432
LPL   000.98 338.1 m E Sg      2011/05/06 02:53:45.4  -0.1                          T                1.6  .21 Ml 1.7         4685421
ORIF  001.02 288.0 m E Pg      2011/05/06 02:53:33.5   0.1                          T                                        4685433
ORIF  001.02 288.0 m E Sg      2011/05/06 02:53:45.8  -0.8                          T                1.1  .18 Ml 1.6         4685420
FRF   001.14 202.7 m E Pg      2011/05/06 02:53:35.5   0.2                          T                                        4685429
FRF   001.14 202.7 m E Sg      2011/05/06 02:53:50.0  -0.1                          T                2.9  .19 Ml 2.1         4685424
LMR   001.38 203.0 m E Pg      2011/05/06 02:53:39.3  -0.6                          T                                        4685428
LMR   001.38 203.0 m E Sg      2011/05/06 02:53:57.3  -0.5                          T                4.0  .22 Ml 2.3         4685425
SMRF  001.36 242.8 m E Pg      2011/05/06 02:53:39.6   0.0                          T                                        4685430
SMRF  001.36 242.8 m E Sg      2011/05/06 02:53:57.7   0.6                          T                 .9  .26 Ml 1.5         4685423
VIVF  001.85 278.5 m E Sg      2011/05/06 02:54:12.9   0.4                          T                 .2  .18 Ml 1.1         4685419

.
