EVENT     296257
    Date      Time       Latitude Longitude    Depth    Ndef Nsta Gap    Mag1  N    Mag2  N    Mag3  N   Author         ID
       rms   OT_Error      Smajor Sminor Az        Err   mdist  Mdist     Err        Err        Err      Quality

2013/04/17 10:08:36.5     48.3927    6.8770       .0 f    29    9 163  Ml 1.9  6  Md 1.8  1              bulletin    296357
                                                                                                         _ldg
      0.54   +-  0.07       1.9    1.1    4.47 +-  0.0    0.26   2.64   +-0.3      +-                    m i km

FRANCE
Sta     Dist  EvAz     Phase      Date       Time     TRes  Azim  AzRes  Slow  SRes Def   SNR       Amp   Per   Mag1   Mag2       ID
CDF   000.27 085.6 m E Pg      2013/04/17 10:08:42.1  -0.1                          T                                        5260320
CDF   000.27 085.6 m E Sg      2013/04/17 10:08:45.8  -0.1                          T               35.3  .84        Md 1.8  5260316
HAU   000.52 222.6 m E Pg      2013/04/17 10:08:47.2   0.4                          T                                        5262489
HAU   000.52 222.6 m E Pn      2013/04/17 10:08:49.8  -0.9                          T                                        5260318
HAU   000.52 222.6 m E Sg      2013/04/17 10:08:53.9   0.0                          T                4.5  .20                5260329
HINF  000.58 181.6 m E Pg      2013/04/17 10:08:48.2   0.4                          T                                        5262488
HINF  000.58 181.6 m E Pn      2013/04/17 10:08:50.5  -0.1                          T                                        5260317
HINF  000.58 181.6 m E Sg      2013/04/17 10:08:55.7   0.1                          T                3.4  .22                5260326
PAGF  000.78 282.4 m E Pg      2013/04/17 10:08:51.4  -0.2 104.3  2.8               T                                        5262487
PAGF  000.78 282.4 m E Pn      2013/04/17 10:08:53.3  -0.1 102.7  1.2               T                                        5260319
PAGF  000.78 282.4 m E Sg      2013/04/17 10:09:01.6  -0.3 102.6  1.1               T                5.0  .22                5260330
MEZF  001.22 275.8 m E Pn      2013/04/17 10:08:59.2  -0.1  93.3  -1.2              T                                        5260324
MEZF  001.22 275.8 m E Pg      2013/04/17 10:08:59.7   0.2                          T                                        5262491
MEZF  001.22 275.8 m E Sg      2013/04/17 10:09:15.6   0.0  88.0  -6.4              T                1.9  .19 Ml 1.9         5260328
SFTF  001.24 262.0 m E Pn      2013/04/17 10:08:59.6   0.0  80.7  0.1               T                                        5260325
SFTF  001.24 262.0 m E Pg      2013/04/17 10:09:00.1   0.1                          T                                        5262490
SFTF  001.24 262.0 m E Sg      2013/04/17 10:09:16.4   0.2                          T                3.4  .18 Ml 2.2         5260327
CABF  001.86 197.0 m E Pn      2013/04/17 10:09:08.3   0.1                          T                                        5260321
CABF  001.86 197.0 m E Sg      2013/04/17 10:09:35.9   0.2                          T                 .4  .26 Ml 1.4         5262492
LOR   002.32 242.2 m E Pn      2013/04/17 10:09:14.5   0.1  63.4  3.5               T                                        5260323
LOR   002.32 242.2 m E Pg      2013/04/17 10:09:19.9  -0.1  63.0  3.1               T                                        5261697
LOR   002.32 242.2 m E Sg      2013/04/17 10:09:50.5   0.4  58.5  -1.5              T                 .6  .19 Ml 1.8         5261696
SSF   002.64 240.9 m E Pn      2013/04/17 10:09:18.6   0.0                          T                                        5260322
SSF   002.64 240.9 m E Sg      2013/04/17 10:09:59.8   0.0                          T                1.1  .31 Ml 2.0         5262493

.
EVENT     296276
    Date      Time       Latitude Longitude    Depth    Ndef Nsta Gap    Mag1  N    Mag2  N    Mag3  N   Author         ID
       rms   OT_Error      Smajor Sminor Az        Err   mdist  Mdist     Err        Err        Err      Quality

2013/04/17 13:32:49.5     45.5597    6.6470      2.0      74   18 037  Ml 2.5 15  Md 2.3  5              bulletin    296376
                                                                                                         _ldg
      0.61   +-  0.04        .8     .7   70.44 +-  0.0    0.07   3.06   +-0.2      +-0.1                 m i ke

FRANCE
Sta     Dist  EvAz     Phase      Date       Time     TRes  Azim  AzRes  Slow  SRes Def   SNR       Amp   Per   Mag1   Mag2       ID
LPL   000.07 125.8 m E Pg      2013/04/17 13:32:51.7   0.2                          T                                        5260432
LPL   000.07 125.8 m E Sg      2013/04/17 13:32:53.3   0.6                          T              336.5  .19        Md 2.4  5260424
LPG   000.10 130.2 m E Pg      2013/04/17 13:32:52.1   0.2                          T                                        5260431
LPG   000.10 130.2 m E Sg      2013/04/17 13:32:53.7   0.3                          T              475.0  .24        Md 2.4  5260423
ORIF  000.84 220.5 m E Pg      2013/04/17 13:33:04.8  -0.6                          T                                        5260430
ORIF  000.84 220.5 m E Sg      2013/04/17 13:33:16.3   0.0                          T               24.4  .26        Md 2.2  5260427
MBDF  000.84 173.9 m E Pg      2013/04/17 13:33:05.5   0.1                          T                                        5260429
MBDF  000.84 173.9 m E Sg      2013/04/17 13:33:16.2  -0.1                          T               18.8  .30        Md 2.2  5260426
CABF  001.12 339.9 m E Pg      2013/04/17 13:33:10.9   0.3                          T                                        5260440
CABF  001.12 339.9 m E Sg      2013/04/17 13:33:25.4   0.3                          T               13.0  .23 Ml 2.6 Md 2.3  5260439
VIVF  001.56 243.9 m E Pg      2013/04/17 13:33:18.9   0.3                          T                                        5260428
VIVF  001.56 243.9 m E Sg      2013/04/17 13:33:38.9   0.1                          T               15.6  .38 Ml 2.7         5260425
SMRF  001.76 206.1 m E Pn      2013/04/17 13:33:19.5   0.3                          T                                        5261737
SMRF  001.76 206.1 m E Pg      2013/04/17 13:33:22.5   0.2                          T                                        5261736
SMRF  001.76 206.1 m E Sg      2013/04/17 13:33:45.1   0.2                          T                1.7  .18 Ml 2.1         5261735
FRF   002.00 180.0 m E Pn      2013/04/17 13:33:22.8   0.3                          T                                        5261734
FRF   002.00 180.0 m E Pg      2013/04/17 13:33:26.7   0.1                          T                                        5261733
FRF   002.00 180.0 m E Sn      2013/04/17 13:33:46.8   0.2                          T                                        5261732
FRF   002.00 180.0 m E Sg      2013/04/17 13:33:52.7   0.3                          T                4.3  .26 Ml 2.5         5261731
LMR   002.23 182.6 m E Pn      2013/04/17 13:33:25.1  -0.5                          T                                        5261730
LMR   002.23 182.6 m E Pg      2013/04/17 13:33:30.9   0.1                          T                                        5261729
LMR   002.23 182.6 m E Sg      2013/04/17 13:33:59.4  -0.1                          T                4.4  .29 Ml 2.4         5261728
HINF  002.26 003.5 m E Pn      2013/04/17 13:33:26.5   0.4                          T                                        5261715
HINF  002.26 003.5 m E Pg      2013/04/17 13:33:31.4  -0.2                          T                                        5261714
HINF  002.26 003.5 m E Sg      2013/04/17 13:34:00.2  -0.4                          T                3.3  .21 Ml 2.5         5261713
SMF   002.23 300.1 m E Pg      2013/04/17 13:33:31.6   0.6                          T                                        5260442
SMF   002.23 300.1 m E Sg      2013/04/17 13:33:59.2  -0.5                          T                6.2  .22 Ml 2.7         5260441
SFTF  002.87 337.9 m E Pn      2013/04/17 13:33:34.0  -0.3                          T                                        5261718
SFTF  002.87 337.9 m E Pg      2013/04/17 13:33:42.7   0.0                          T                                        5261717
SFTF  002.87 337.9 m E Sg      2013/04/17 13:34:19.7   0.3                          T                8.2  .27 Ml 2.9         5261716
BGF   002.83 292.0 m E Pn      2013/04/17 13:33:34.5   0.7                          T                                        5261727
BGF   002.83 292.0 m E Pg      2013/04/17 13:33:42.2   0.3                          T                                        5261726
BGF   002.83 292.0 m E Sn      2013/04/17 13:34:05.9  -0.6                          T                                        5261725
BGF   002.83 292.0 m E Sg      2013/04/17 13:34:18.4   0.1                          T               10.9  .32 Ml 2.9         5261724
CDF   002.89 008.4 m E Pn      2013/04/17 13:33:34.7   0.0                          T                                        5261723
CDF   002.89 008.4 m E Sg      2013/04/17 13:34:19.7  -0.5                          T                2.0  .27 Ml 2.4         5261722
PAGF  003.06 348.5 m E Pn      2013/04/17 13:33:36.9  -0.1                          T                                        5261721
PAGF  003.06 348.5 m E Pg      2013/04/17 13:33:46.5   0.3                          T                                        5261720
PAGF  003.06 348.5 m E Sg      2013/04/17 13:34:25.6   0.0                          T                3.0  .31 Ml 2.4         5261719
LOR   002.58 312.5 m E Pg      2013/04/17 13:33:37.6   0.3 132.6  2.1               T                                        5260436
LOR   002.58 312.5 m E Sg      2013/04/17 13:34:10.3  -0.1 142.5  12.0              T                4.7  .32 Ml 2.5         5260435
AVF   002.60 299.4 m E Pg      2013/04/17 13:33:37.9   0.2                          T                                        5260434
AVF   002.60 299.4 m E Sg      2013/04/17 13:34:10.2  -0.8                          T                3.0  .32 Ml 2.3         5260433
SSF   002.64 305.7 m E Pg      2013/04/17 13:33:37.9  -0.6                          T                                        5260438
SSF   002.64 305.7 m E Sg      2013/04/17 13:34:11.8  -0.7                          T                2.4  .25 Ml 2.4         5260437

.
EVENT     296277
    Date      Time       Latitude Longitude    Depth    Ndef Nsta Gap    Mag1  N    Mag2  N    Mag3  N   Author         ID
       rms   OT_Error      Smajor Sminor Az        Err   mdist  Mdist     Err        Err        Err      Quality

2013/04/17 13:37:40.2     44.5157    6.6987      2.0      84   19 040  Ml 2.5 17  Md 2.4  3              bulletin    296377
                                                                                                         _ldg
      0.62   +-  0.04       1.0     .7   61.34 +-  0.0    0.09   3.50   +-0.3      +-0.2                 m i ke

FRANCE
Sta     Dist  EvAz     Phase      Date       Time     TRes  Azim  AzRes  Slow  SRes Def   SNR       Amp   Per   Mag1   Mag2       ID
MBDF  000.22 013.8 m E Pg      2013/04/17 13:37:44.7   0.0                          T                                        5260460
MBDF  000.22 013.8 m E Sg      2013/04/17 13:37:47.8   0.1                          T               96.8  .19        Md 2.6  5260459
ORIF  000.71 304.9 m E Pg      2013/04/17 13:37:53.0  -0.7                          T                                        5260458
ORIF  000.71 304.9 m E Sg      2013/04/17 13:38:02.3  -0.6                          T               43.9  .27        Md 2.4  5260457
SBF   000.84 140.7 m E Pg      2013/04/17 13:37:55.9  -0.3                          T                                        5260452
SBF   000.84 140.7 m E Sg      2013/04/17 13:38:07.4   0.4                          T               47.2  .25                5260446
FRF   000.96 182.3 m E Pg      2013/04/17 13:37:58.3   0.2                          T                                        5260454
FRF   000.96 182.3 m E Sg      2013/04/17 13:38:10.5  -0.1                          T               37.4  .22 Ml 3.1         5260448
SMRF  000.97 236.6 m E Pg      2013/04/17 13:37:58.9   0.4                          T                                        5260455
SMRF  000.97 236.6 m E Sg      2013/04/17 13:38:10.6  -0.5                          T               23.0  .39 Ml 2.6         5260449
LPG   000.98 002.2 m E Pg      2013/04/17 13:37:58.9  -0.1                          T                                        5260444
LPG   000.98 002.2 m E Sg      2013/04/17 13:38:11.6  -0.2                          T               12.2  .23 Ml 2.5         5260443
LPL   001.00 001.4 m E Pg      2013/04/17 13:37:59.1  -0.2                          T                                        5260456
LPL   001.00 001.4 m E Sg      2013/04/17 13:38:12.5   0.2                          T                8.7  .23 Ml 2.4         5261763
LMR   001.19 186.7 m E Pg      2013/04/17 13:38:02.4   0.0                          T                                        5260453
LMR   001.19 186.7 m E Sg      2013/04/17 13:38:17.8   0.0                          T               19.9  .18 Ml 3.0         5260447
VIVF  001.48 284.0 m E Pn      2013/04/17 13:38:06.4   0.1                          T                                        5260451
VIVF  001.48 284.0 m E Sn      2013/04/17 13:38:25.4   0.3                          T                9.1  .28 Ml 2.5         5260445
LASF  002.09 258.8 m E Pn      2013/04/17 13:38:14.4  -0.1                          T                                        5260450
LASF  002.09 258.8 m E Pg      2013/04/17 13:38:19.0  -0.1                          T                                        5261762
LASF  002.09 258.8 m E Sn      2013/04/17 13:38:39.5   0.0                          T                1.8  .18 Ml 2.2         5261761
CABF  002.14 348.6 m E Pn      2013/04/17 13:38:15.3   0.0                          T                                        5261751
CABF  002.14 348.6 m E Pg      2013/04/17 13:38:20.4   0.3                          T                                        5261750
CABF  002.14 348.6 m E Sn      2013/04/17 13:38:40.5  -0.3                          T                                        5261749
CABF  002.14 348.6 m E Sg      2013/04/17 13:38:48.0   0.4                          T                1.4  .21 Ml 2.1         5261748
PGF   002.58 138.8 m E Pn      2013/04/17 13:38:21.5   0.2                          T                                        5260481
PGF   002.58 138.8 m E Sn      2013/04/17 13:38:51.7   0.3                          T                3.0  .19 Ml 2.8         5260480
SMF   002.93 317.7 m E Pn      2013/04/17 13:38:25.0   0.1                          T                                        5261757
SMF   002.93 317.7 m E Pg      2013/04/17 13:38:34.7   0.2                          T                                        5261756
SMF   002.93 317.7 m E Sg      2013/04/17 13:39:11.3  -0.7                          T                2.0  .21 Ml 2.4         5261755
AVF   003.27 315.3 m E Pn      2013/04/17 13:38:30.6   0.1                          T                                        5261754
AVF   003.27 315.3 m E Pg      2013/04/17 13:38:41.1   0.4                          T                                        5261753
AVF   003.27 315.3 m E Sg      2013/04/17 13:39:22.3  -0.4                          T                1.5  .27 Ml 2.2         5261752
HINF  003.30 001.8 m E Pn      2013/04/17 13:38:30.6  -0.4                          T                                        5261776
HINF  003.30 001.8 m E Pg      2013/04/17 13:38:41.4  -0.1                          T                                        5261775
HINF  003.30 001.8 m E Sn      2013/04/17 13:39:08.1  -0.5                          T                                        5261774
HINF  003.30 001.8 m E Sg      2013/04/17 13:39:24.1   0.3                          T                2.2  .21 Ml 2.5         5261773
LOR   003.39 325.2 m E Pn      2013/04/17 13:38:32.1  -0.1 146.6  3.4               T                                        5261767
LOR   003.39 325.2 m E Pg      2013/04/17 13:38:43.3   0.2 148.0  4.8               T                                        5261766
LOR   003.39 325.2 m E Sn      2013/04/17 13:39:10.3  -0.4 141.0  -2.2              T                                        5261765
LOR   003.39 325.2 m E Sg      2013/04/17 13:39:26.9   0.2 158.9  15.7              T                2.0  .28 Ml 2.4         5261764
SSF   003.39 319.9 m E Pn      2013/04/17 13:38:32.4   0.3                          T                                        5261770
SSF   003.39 319.9 m E Pg      2013/04/17 13:38:43.1   0.1                          T                                        5261769
SSF   003.39 319.9 m E Sg      2013/04/17 13:39:26.4   0.0                          T                1.6  .24 Ml 2.4         5261768
MTLF  003.44 251.6 m E Pn      2013/04/17 13:38:32.9   0.0                          T                                        5261760
MTLF  003.44 251.6 m E Pg      2013/04/17 13:38:44.1   0.1                          T                                        5261759
MTLF  003.44 251.6 m E Sn      2013/04/17 13:39:11.9   0.0                          T                1.0  .23 Ml 2.2         5261758
HAU   003.50 356.1 m E Pn      2013/04/17 13:38:33.7   0.0                          T                                        5261772
HAU   003.50 356.1 m E Sg      2013/04/17 13:39:30.3   0.3                          T                7.6  .17 Ml 3.0         5261771

.
