EVENT     288478
    Date      Time       Latitude Longitude    Depth    Ndef Nsta Gap    Mag1  N    Mag2  N    Mag3  N   Author         ID
       rms   OT_Error      Smajor Sminor Az        Err   mdist  Mdist     Err        Err        Err      Quality

2012/12/15 16:23:54.0     47.3252    6.4954      4.0 f    27   11 118  Ml 2.1  7  Md 2.1  4              bulletin    288578
                                                                                                         _ldg
      0.61   +-  0.08       1.8    1.3  123.29 +-  0.0    0.23   2.06   +-0.2      +-0.2                 m i ke

FRANCE
Sta     Dist  EvAz     Phase      Date       Time     TRes  Azim  AzRes  Slow  SRes Def   SNR       Amp   Per   Mag1   Mag2       ID
HINF  000.55 026.1 m E Pg      2012/12/15 16:24:04.3  -0.2                          T                                        5139102
HINF  000.55 026.1 m E P       2012/12/15 16:24:05.7   0.0                          T                                        5161542
HINF  000.55 026.1 m E Sg      2012/12/15 16:24:11.5  -0.2                          T                3.8  .28        Md 2.1  5139096
HAU   000.69 351.7 m E Pg      2012/12/15 16:24:06.9  -0.1                          T                                        5161539
HAU   000.69 351.7 m E P       2012/12/15 16:24:08.2  -0.3                          T                                        5161543
HAU   000.69 351.7 m E Pn      2012/12/15 16:24:09.1   0.2                          T                                        5139101
HAU   000.69 351.7 m E Sg      2012/12/15 16:24:16.0  -0.1                          T                6.5  .25        Md 1.9  5139098
CABF  000.77 201.5 m E Pg      2012/12/15 16:24:08.6   0.1                          T                                        5161538
CABF  000.77 201.5 m E Pn      2012/12/15 16:24:10.3   0.2                          T                                        5139103
CABF  000.77 201.5 m E Sg      2012/12/15 16:24:18.6   0.0                          T                                        5161548
CABF  000.77 201.5 m E Sn      2012/12/15 16:24:21.9   0.4                          T                5.4  .23        Md 1.9  5139099
THEF  000.96 339.7 m E Pg      2012/12/15 16:24:12.6   0.5                          T                                        5142923
THEF  000.96 339.7 m E Sn      2012/12/15 16:24:27.0   1.0                          T                                        5142924
CDF   001.21 025.5 m E Pn      2012/12/15 16:24:15.7  -0.4                          T                                        5139100
CDF   001.21 025.5 m E Pg      2012/12/15 16:24:16.2  -0.5                          T                                        5161545
CDF   001.21 025.5 m E Sg      2012/12/15 16:24:32.4   0.1                          T                3.4  .25 Ml 2.1 Md 2.4  5139097
SFTF  001.32 312.4 m E Pg      2012/12/15 16:24:18.6   0.0 133.3  2.0               T                                        5139093
SFTF  001.32 312.4 m E Sg      2012/12/15 16:24:35.8   0.0                          T                1.5  .18 Ml 1.9         5139092
PAGF  001.34 337.5 m E Pg      2012/12/15 16:24:19.3   0.4 163.6  6.8               T                                        5139095
PAGF  001.34 337.5 m E Sg      2012/12/15 16:24:36.5   0.3                          T                3.4  .21 Ml 2.2         5139094
MEZF  001.53 321.0 m E Pg      2012/12/15 16:24:22.3  -0.1 142.7  2.8               T                                        5161544
MEZF  001.53 321.0 m E Sg      2012/12/15 16:24:42.2   0.1                          T                5.5  .34 Ml 2.3         5161547
LOR   001.80 269.1 m E Pg      2012/12/15 16:24:27.4   0.0  89.5  2.3               T                                        5139091
LOR   001.80 269.1 m E Sg      2012/12/15 16:24:50.5  -0.1                          T                3.1  .22 Ml 2.3         5139090
SMF   001.94 250.4 m E Pg      2012/12/15 16:24:30.0  -0.1                          T                                        5161540
SMF   001.94 250.4 m E Sg      2012/12/15 16:24:55.2   0.1                          T                2.0  .27 Ml 2.1         5161541
SSF   002.06 263.7 m E Sg      2012/12/15 16:24:57.7  -1.0                          T                 .8  .20 Ml 1.9         5161546

.
EVENT     288479
    Date      Time       Latitude Longitude    Depth    Ndef Nsta Gap    Mag1  N    Mag2  N    Mag3  N   Author         ID
       rms   OT_Error      Smajor Sminor Az        Err   mdist  Mdist     Err        Err        Err      Quality

2012/12/15 18:59:55.8     38.0169   -3.3693      2.0      31    5 222  Ml 3.3  3                         bulletin    288579
                                                                                                         _ldg
      0.88   +-  0.32       7.8    3.6  154.71 +-  0.0    3.42   7.57   +-0.0                            m i ke

SPAIN
Sta     Dist  EvAz     Phase      Date       Time     TRes  Azim  AzRes  Slow  SRes Def   SNR       Amp   Per   Mag1   Mag2       ID
ETSF  005.33 022.8 m E Pn      2012/12/15 19:01:13.6  -0.7                          T                                        5139109
ETSF  005.33 022.8 m E Sn      2012/12/15 19:02:14.3   1.8                          T                5.9  .27 Ml 3.3         5139106
SJPF  005.35 017.1 m E Pn      2012/12/15 19:01:14.0  -0.4                          T                                        5139108
SJPF  005.35 017.1 m E Sn      2012/12/15 19:02:13.2   0.3                          T                9.2  .35 Ml 3.4         5139105
EPF   005.75 028.3 m E Pn      2012/12/15 19:01:19.0  -1.0                          T                                        5139107
EPF   005.75 028.3 m E Sn      2012/12/15 19:02:23.3   0.7                          T                4.2  .23 Ml 3.3         5139104
MTLF  006.80 036.8 m E Pn      2012/12/15 19:01:34.0  -0.2                          T                                        5139135
LFF   007.57 022.7 m E Pn      2012/12/15 19:01:45.6   0.9                          T                                        5139136

.
EVENT     288480
    Date      Time       Latitude Longitude    Depth    Ndef Nsta Gap    Mag1  N    Mag2  N    Mag3  N   Author         ID
       rms   OT_Error      Smajor Sminor Az        Err   mdist  Mdist     Err        Err        Err      Quality

2012/12/15 20:08:17.1     42.8228   -1.3489      2.0      35    7 058  Ml 2.2  7  Md 2.2  2              bulletin    288580
                                                                                                         _ldg
      0.55   +-  0.11       2.1    1.8    9.58 +-  0.0    0.02   3.24   +-0.2      +-0.1                 m i ke

PYRENEES
Sta     Dist  EvAz     Phase      Date       Time     TRes  Azim  AzRes  Slow  SRes Def   SNR       Amp   Per   Mag1   Mag2       ID
SJPF  000.30 017.3 m E Pg      2012/12/15 20:08:23.4   0.4                          T                                        5139142
SJPF  000.30 017.3 m E Sg      2012/12/15 20:08:27.4   0.3                          T               75.3  .23        Md 2.1  5139141
ETSF  000.59 082.3 m E Pg      2012/12/15 20:08:28.1  -0.2                          T                                        5139140
ETSF  000.59 082.3 m E Sg      2012/12/15 20:08:36.2   0.3                          T               14.7  .30        Md 2.2  5139139
EPF   001.26 079.9 m E Pg      2012/12/15 20:08:40.4  -0.2                          T                                        5139138
EPF   001.26 079.9 m E Sg      2012/12/15 20:08:56.8  -0.1                          T               10.5  .30 Ml 2.5         5139137
LFF   002.60 034.8 m E Sn      2012/12/15 20:09:28.2  -0.3                          T                                        5161553
LFF   002.60 034.8 m E Sg      2012/12/15 20:09:39.0   0.3                          T                3.1  .40 Ml 2.1         5161552
MTLF  002.66 077.6 m E Sg      2012/12/15 20:09:40.6  -0.1                          T                1.5  .39 Ml 1.9         5161549
RJF   003.23 038.8 m E Sn      2012/12/15 20:09:43.4  -0.1                          T                1.8  .17 Ml 2.2         5161551
RJF   003.23 038.8 m E Sg      2012/12/15 20:09:58.4   0.0                          T                1.9  .29 Ml 2.0         5161550
CAF   003.24 048.4 m E Sn      2012/12/15 20:09:43.6  -0.4                          T                1.8  .21 Ml 2.4         5161555
CAF   003.24 048.4 m E Sg      2012/12/15 20:09:58.9   0.1                          T                 .9  .18 Ml 2.2         5161554

.
EVENT     288481
    Date      Time       Latitude Longitude    Depth    Ndef Nsta Gap    Mag1  N    Mag2  N    Mag3  N   Author         ID
       rms   OT_Error      Smajor Sminor Az        Err   mdist  Mdist     Err        Err        Err      Quality

2012/12/15 21:34:55.5     51.4884   16.1733      1.0 f    45    7 065  Ml 4.1  6                         bulletin    288581
                                                                                                         _ldg
      0.88   +-  0.15       3.9    3.0   15.22 +-  0.0    0.65  11.37   +-0.2                            m i sr

POLAND
Sta     Dist  EvAz     Phase      Date       Time     TRes  Azim  AzRes  Slow  SRes Def   SNR       Amp   Per   Mag1   Mag2       ID
CDF   006.51 245.3 m E Pn      2012/12/15 21:36:33.0   2.8                          T                                        5139193
CDF   006.51 245.3 m E Sg      2012/12/15 21:38:20.5   1.0                          T              102.7  .94 Ml 4.3         5139190
HAU   007.26 245.1 m E Pn      2012/12/15 21:36:38.4  -1.9                          T                                        5139194
HAU   007.26 245.1 m E Sg      2012/12/15 21:38:43.0   0.4                          T               44.5  .80 Ml 3.8         5139198
GIVF  007.33 263.5 m E Pn      2012/12/15 21:36:44.5   3.3                          T                                        5139191
GIVF  007.33 263.5 m E Sg      2012/12/15 21:38:46.2   1.5                          T               55.3  .98 Ml 4.1         5139200
PAGF  007.34 250.5 m E Pn      2012/12/15 21:36:44.8   3.4  68.9  6.3               T                                        5139192
BAIF  007.72 264.0 m E Pn      2012/12/15 21:36:49.0   2.4                          T                                        5139195
BAIF  007.72 264.0 m E Sg      2012/12/15 21:39:03.2   6.3                          T              103.6 1.46 Ml 4.2         5139199
HINF  007.08 242.4 m E Sg      2012/12/15 21:38:37.2   0.2                          T               49.1  .74 Ml 4.1         5139197
CABF  008.23 237.5 m E Sg      2012/12/15 21:39:14.0   1.1                          T               82.3 1.00 Ml 4.4         5139196

.
EVENT     288482
    Date      Time       Latitude Longitude    Depth    Ndef Nsta Gap    Mag1  N    Mag2  N    Mag3  N   Author         ID
       rms   OT_Error      Smajor Sminor Az        Err   mdist  Mdist     Err        Err        Err      Quality

2012/12/15 22:00:25.6     44.4868    7.2863     10.0      57   11 046  Ml 2.8  9  Md 2.5  2              bulletin    288582
                                                                                                         _ldg
      0.73   +-  0.07       1.7    1.2   49.33 +-  0.0    0.03   2.50   +-0.4      +-0.2                 m i ke

NORTHERN ITALY
Sta     Dist  EvAz     Phase      Date       Time     TRes  Azim  AzRes  Slow  SRes Def   SNR       Amp   Per   Mag1   Mag2       ID
MBDF  000.44 303.3 m E Pg      2012/12/15 22:00:34.4   0.0                          T                                        5139245
MBDF  000.44 303.3 m E Sg      2012/12/15 22:00:40.3   0.0                          T               97.0  .18        Md 2.6  5139244
SBF   000.63 170.2 m E Pg      2012/12/15 22:00:37.6  -0.1                          T                                        5139236
SBF   000.63 170.2 m E Sg      2012/12/15 22:00:45.9  -0.2                          T               40.9  .22                5139230
FRF   001.03 206.7 m E Pn      2012/12/15 22:00:44.6   0.0                          T                                        5139238
FRF   001.03 206.7 m E Sg      2012/12/15 22:00:57.6  -0.9                          T               38.7  .22 Ml 3.1         5139232
LPG   001.08 339.6 m E Pn      2012/12/15 22:00:45.1  -0.5                          T                                        5139240
LPG   001.08 339.6 m E Sg      2012/12/15 22:00:59.5  -0.7                          T               24.5  .38 Ml 2.7         5139234
ORIF  001.09 293.8 m E Pn      2012/12/15 22:00:45.7   0.2                          T                                        5139242
ORIF  001.09 293.8 m E Sg      2012/12/15 22:00:59.4  -1.0                          T               31.1  .34 Ml 2.8 Md 2.3  5139243
LPL   001.10 339.3 m E Pn      2012/12/15 22:00:46.3   0.5                          T                                        5139241
LPL   001.10 339.3 m E Sn      2012/12/15 22:00:59.1  -1.0                          T                                        5139253
LPL   001.10 339.3 m E Sg      2012/12/15 22:01:00.6  -0.3                          T               13.7  .30 Ml 2.5         5139235
LMR   001.28 206.2 m E Pn      2012/12/15 22:00:48.5   0.6                          T                                        5139237
LMR   001.28 206.2 m E Sg      2012/12/15 22:01:05.9  -0.3                          T               55.0  .22 Ml 3.4         5139231
SMRF  001.33 248.0 m E Pn      2012/12/15 22:00:50.6   1.9                          T                                        5139239
SMRF  001.33 248.0 m E Sg      2012/12/15 22:01:08.8   1.1                          T               51.7  .40 Ml 3.1         5139233
VIVF  001.90 282.1 m E Pn      2012/12/15 22:00:56.3  -0.1                          T                                        5139251
VIVF  001.90 282.1 m E Pg      2012/12/15 22:01:01.0   0.0                          T                                        5161557
VIVF  001.90 282.1 m E Sn      2012/12/15 22:01:19.3   0.3                          T                2.8  .24 Ml 2.3         5139249
VIVF  001.90 282.1 m E Sg      2012/12/15 22:01:25.5   0.0                          T                5.5  .32 Ml 2.4         5139248
PGF   002.30 146.7 m E Pn      2012/12/15 22:01:01.9   0.0                          T                                        5139252
PGF   002.30 146.7 m E Sn      2012/12/15 22:01:28.7   0.0                          T                3.4  .25 Ml 2.6         5161556
LASF  002.50 261.7 m E Pn      2012/12/15 22:01:05.2   0.7                          T                                        5139250

.
EVENT     288483
    Date      Time       Latitude Longitude    Depth    Ndef Nsta Gap    Mag1  N    Mag2  N    Mag3  N   Author         ID
       rms   OT_Error      Smajor Sminor Az        Err   mdist  Mdist     Err        Err        Err      Quality

2012/12/15 23:02:30.6     51.4201   16.0672      1.0 f    59    9 059  Ml 4.4  9                         bulletin    288583
                                                                                                         _ldg
      0.43   +-  0.10       2.9    1.6    5.85 +-  0.0    0.60   9.30   +-0.2                            m i sr

POLAND
Sta     Dist  EvAz     Phase      Date       Time     TRes  Azim  AzRes  Slow  SRes Def   SNR       Amp   Per   Mag1   Mag2       ID
CDF   006.43 245.5 m E Pn      2012/12/15 23:04:04.9   0.8                          T                                        5139316
CDF   006.43 245.5 m E Sg      2012/12/15 23:05:52.3   0.5                          T              230.2 1.20 Ml 4.6         5139312
HINF  006.99 242.5 m E Pn      2012/12/15 23:04:10.9  -0.8                          T                                        5139323
HINF  006.99 242.5 m E Sg      2012/12/15 23:06:08.5  -0.8                          T               83.7 1.02 Ml 4.2         5139322
HAU   007.17 245.3 m E Pn      2012/12/15 23:04:16.6   2.5                          T                                        5139324
HAU   007.17 245.3 m E Sg      2012/12/15 23:06:15.6   0.7                          T               44.6  .64 Ml 3.9         5139321
GIVF  007.25 263.9 m E Pn      2012/12/15 23:04:18.1   2.8                          T                                        5139313
GIVF  007.25 263.9 m E Sg      2012/12/15 23:06:17.8   0.3                          T              118.1 1.16 Ml 4.3         5139326
BAIF  007.65 264.4 m E Pn      2012/12/15 23:04:23.6   3.0                          T                                        5139315
BAIF  007.65 264.4 m E Sg      2012/12/15 23:06:34.5   4.6                          T              123.1 1.46 Ml 4.3         5139311
LOR   008.99 247.2 m E Pn      2012/12/15 23:04:39.4   0.5                          T                                        5139314
LOR   008.99 247.2 m E Sg      2012/12/15 23:07:12.2   0.6                          T              267.7 2.02 Ml 4.7         5139319
SSF   009.30 246.9 m E Pn      2012/12/15 23:04:43.7   0.6                          T                                        5139325
SSF   009.30 246.9 m E Sg      2012/12/15 23:07:20.9  -0.5                          T               76.8 1.34 Ml 4.5         5139318
SFTF  007.83 250.0 m E Sg      2012/12/15 23:06:35.8   0.4                          T              233.4 1.59 Ml 4.6         5139320
CABF  008.13 237.6 m E Sg      2012/12/15 23:06:45.9   0.8                          T              168.9 1.20 Ml 4.6         5139317

.
EVENT     288723
    Date      Time       Latitude Longitude    Depth    Ndef Nsta Gap    Mag1  N    Mag2  N    Mag3  N   Author         ID
       rms   OT_Error      Smajor Sminor Az        Err   mdist  Mdist     Err        Err        Err      Quality

2012/12/15 23:09:39.2     43.0028     .0194      8.0 f    16    3 105  Ml 1.1  1  Md 1.1  2              bulletin    288823
                                                                                                         _ldg
      0.32   +-  0.07       2.0    1.0   21.42 +-  0.0    0.11   1.24   +-         +-0.1                 m i ke

FRANCE
Sta     Dist  EvAz     Phase      Date       Time     TRes  Azim  AzRes  Slow  SRes Def   SNR       Amp   Per   Mag1   Mag2       ID
EPF   000.24 083.2 m E Pg      2012/12/15 23:09:43.2  -0.9                          T                                        5148141
EPF   000.24 083.2 m E Sg      2012/12/15 23:09:46.4  -1.0                          T                3.6  .20        Md 1.1  5148139
ETSF  000.44 256.4 m E Pg      2012/12/15 23:09:47.6  -0.1                          T                                        5148140
ETSF  000.44 256.4 m E Sg      2012/12/15 23:09:53.9   0.3                          T                4.1  .27        Md 1.0  5148138
SJPF  000.92 277.3 m E Pg      2012/12/15 23:09:56.6   0.2                          T                                        5148136
SJPF  000.92 277.3 m E Sg      2012/12/15 23:10:08.3  -0.1                          T                 .5  .21 Ml 1.1         5148137

.
