EVENT     261165
    Date      Time       Latitude Longitude    Depth    Ndef Nsta Gap    Mag1  N    Mag2  N    Mag3  N   Author         ID
       rms   OT_Error      Smajor Sminor Az        Err   mdist  Mdist     Err        Err        Err      Quality

2011/07/07 19:37:54.5     42.0769    7.6604     25.0      15    9 225  Ml 3.2  5                         js067245    261165

      0.66   +-  0.24       6.7    2.9    6.68 +-  0.0    1.10   4.97   +-0.2                            m i ke

WESTERN MEDITERRANEAN SEA
Sta     Dist  EvAz     Phase      Date       Time     TRes  Azim  AzRes  Slow  SRes Def   SNR       Amp   Per   Mag1   Mag2       ID
PGF   001.10 064.2 m E Pn      2011/07/07 19:38:12.7  -0.1                          T                                        4717473
PGF   001.10 064.2 m E Sn      2011/07/07 19:38:26.6   0.4                          T               63.1  .22 Ml 3.6         4723142
LMR   001.52 326.4 m E Pn      2011/07/07 19:38:18.2  -0.2                          T                                        4717471
LMR   001.52 326.4 m E Sn      2011/07/07 19:38:35.6  -0.4                          T               21.8  .19 Ml 3.1         4717463
FRF   001.66 333.6 m E Pn      2011/07/07 19:38:20.4   0.1                          T                                        4717470
FRF   001.66 333.6 m E Sn      2011/07/07 19:38:38.9  -0.5                          T               14.6  .22 Ml 3.0         4723141
SBF   001.79 354.8 m E Pn      2011/07/07 19:38:21.9  -0.3                          T                                        4717472
SBF   001.79 354.8 m E Sn      2011/07/07 19:38:42.9   0.2                          T               18.0  .18 Ml 3.1         4717464
SMRF  002.44 321.9 m E Pn      2011/07/07 19:38:31.6   0.6                          T                                        4717469
ORIF  003.12 336.1 m E Pn      2011/07/07 19:38:42.0   1.6                          T                                        4717468
LASF  003.43 306.9 m E Pn      2011/07/07 19:38:44.6   0.1                          T                                        4717467
MTLF  004.21 289.3 m E Pn      2011/07/07 19:38:54.5  -0.5                          T                                        4717466
CAF   004.97 306.9 m E Pn      2011/07/07 19:39:05.9   0.4                          T                                        4717465

.
EVENT     261166
    Date      Time       Latitude Longitude    Depth    Ndef Nsta Gap    Mag1  N    Mag2  N    Mag3  N   Author         ID
       rms   OT_Error      Smajor Sminor Az        Err   mdist  Mdist     Err        Err        Err      Quality

2011/07/07 19:38:17.8     42.0177    7.6473     30.0      95   38 079                                    js067245    261166

                                               +-         1.13  10.98                                    m i ke

WESTERN MEDITERRANEAN SEA
Sta     Dist  EvAz     Phase      Date       Time     TRes  Azim  AzRes  Slow  SRes Def   SNR       Amp   Per   Mag1   Mag2       ID
PGF   001.13 061.7 m E Pn      2011/07/07 19:38:35.7  -1.1                          T                                        4717514
PGF   001.13 061.7 m E Sn      2011/07/07 19:38:49.6  -0.9                          T             1160.9  .19                4717480
LMR   001.56 327.8 m E Pn      2011/07/07 19:38:41.2  -1.2                          T                                        4717512
LMR   001.56 327.8 m E Sn      2011/07/07 19:38:58.7  -1.8                          T              797.0  .22                4717478
FRF   001.71 334.8 m E Pn      2011/07/07 19:38:43.4  -1.0                          T                                        4717511
FRF   001.71 334.8 m E Sn      2011/07/07 19:39:01.9  -2.1                          T              352.9  .24                4717477
SBF   001.85 355.2 m E Pn      2011/07/07 19:38:44.8  -1.7                          T                                        4717513
SBF   001.85 355.2 m E Pg      2011/07/07 19:38:48.5   2.1                          T                                        4717481
SBF   001.85 355.2 m E Sn      2011/07/07 19:39:05.6  -2.0                          T              305.9  .21                4717479
SMRF  002.48 322.9 m E Pn      2011/07/07 19:38:55.2   0.3                          T                                        4717510
SMRF  002.48 322.9 m E Sn      2011/07/07 19:39:25.1   2.7                          T               64.7  .19                4717476
MBDF  002.78 347.0 m E Pn      2011/07/07 19:39:00.6   1.4                          T                                        4717506
MBDF  002.78 347.0 m E Sn      2011/07/07 19:39:30.0   0.2                          T               58.6  .21                4717474
ORIF  003.17 336.7 m E Pn      2011/07/07 19:39:05.2   0.8                          T                                        4717507
ORIF  003.17 336.7 m E Sn      2011/07/07 19:39:39.7   0.7                          T               43.5  .38                4723176
LASF  003.46 307.8 m E Pn      2011/07/07 19:39:07.5  -0.7                          T                                        4717504
LASF  003.46 307.8 m E Sn      2011/07/07 19:39:44.3  -1.4                          T              117.9  .22                4723174
VIVF  003.57 323.6 m E Pn      2011/07/07 19:39:09.1  -0.6                          T                                        4717505
VIVF  003.57 323.6 m E Sn      2011/07/07 19:39:47.1  -1.3                          T               19.8  .21                4717475
LPL   003.56 349.6 m E Pn      2011/07/07 19:39:12.2   2.4                          T                                        4717508
LPL   003.56 349.6 m E Sn      2011/07/07 19:39:51.9   3.5                          T               26.7  .35                4723175
LPG   003.54 349.7 m E Pn      2011/07/07 19:39:13.0   3.4                          T                                        4717509
LPG   003.54 349.7 m E Sn      2011/07/07 19:39:52.4   4.4                          T               35.2  .38                4723177
MTLF  004.22 290.1 m E Pn      2011/07/07 19:39:17.1  -1.3                          T                                        4717503
MTLF  004.22 290.1 m E Sn      2011/07/07 19:40:02.6  -1.2                          T               46.5  .28                4723173
CABF  004.73 346.8 m E Pn      2011/07/07 19:39:26.0   0.5                          T                                        4717487
CABF  004.73 346.8 m E Sn      2011/07/07 19:40:10.9  -5.2                          T                5.6  .26                4723166
CAF   005.00 307.5 m E Pn      2011/07/07 19:39:29.0  -0.1                          T                                        4717500
CAF   005.00 307.5 m E Sn      2011/07/07 19:40:20.7  -1.8                          T               21.6  .24                4723169
SMF   005.37 330.8 m E Pn      2011/07/07 19:39:34.3   0.1                          T                                        4717489
SMF   005.37 330.8 m E Sn      2011/07/07 19:40:27.4  -4.0                          T                8.0  .16                4723167
EPF   005.49 283.1 m E Pn      2011/07/07 19:39:34.3  -1.6                          T                                        4717502
EPF   005.49 283.1 m E Sn      2011/07/07 19:40:34.1  -0.3                          T               21.6  .33                4723172
RJF   005.53 308.5 m E Pn      2011/07/07 19:39:36.4   0.1                          T                                        4717498
RJF   005.53 308.5 m E Sn      2011/07/07 19:40:33.8  -1.3                          T               13.3  .24                4723168
AVF   005.68 328.7 m E Pn      2011/07/07 19:39:38.9   0.6                          T                                        4717488
BGF   005.70 324.4 m E Pn      2011/07/07 19:39:39.4   0.8                          T                                        4717490
HINF  005.83 354.7 m E Pn      2011/07/07 19:39:40.0  -0.4                          T                                        4717486
HINF  005.83 354.7 m E Sn      2011/07/07 19:40:39.4  -2.9                          T                4.4  .26                4723165
TCF   005.79 319.3 m E Pn      2011/07/07 19:39:40.5   0.6                          T                                        4717484
LFF   005.81 302.5 m E Pn      2011/07/07 19:39:40.6   0.5                          T                                        4717499
SSF   005.85 331.0 m E Pn      2011/07/07 19:39:41.4   0.8                          T                                        4717483
LOR   005.90 334.1 m E Pn      2011/07/07 19:39:42.3   0.9 161.2  9.8               T                                        4717482
LOR   005.90 334.1 m E Sn      2011/07/07 19:40:43.4  -0.7                          T               12.4  .42                4723161
HAU   006.06 351.7 m E Pn      2011/07/07 19:39:43.5  -0.1                          T                                        4717485
HAU   006.06 351.7 m E Sn      2011/07/07 19:40:46.2  -1.5                          T               11.7  .32                4723164
ETSF  006.13 281.0 m E Pn      2011/07/07 19:39:44.9   0.3                          T                                        4717501
ETSF  006.13 281.0 m E Sn      2011/07/07 19:40:52.6   3.0                          T               19.8  .31                4723171
THEF  006.32 349.9 m E Pn      2011/07/07 19:39:47.0  -0.1                          T                                        4723178
CDF   006.40 357.8 m E Pn      2011/07/07 19:39:47.9  -0.4                          T                                        4723180
CDF   006.40 357.8 m E Sn      2011/07/07 19:40:52.9  -3.1                          T                2.2  .27                4723162
PAGF  006.68 348.9 m E Pn      2011/07/07 19:39:52.4   0.5                          T                                        4723179
MFF   007.23 312.0 m E Pn      2011/07/07 19:40:00.1   0.7                          T                                        4717497
BAIF  008.39 344.6 m E Pn      2011/07/07 19:40:16.0   0.7                          T                                        4723181
LDF   008.55 322.9 m E Pn      2011/07/07 19:40:18.4   1.0                          T                                        4717495
GRR   008.75 319.6 m E Pn      2011/07/07 19:40:21.8   1.7                          T                                        4717496
FLN   008.84 322.5 m E Pn      2011/07/07 19:40:22.5   1.2                          T                                        4717494
QUIF  009.67 311.3 m E Pn      2011/07/07 19:40:33.5   0.9                          T                                        4717493
ROSF  009.96 313.1 m E Pn      2011/07/07 19:40:36.9   0.3                          T                                        4717492
SFTF  006.46 344.3 m E Sn      2011/07/07 19:40:56.3  -1.0                          T                9.3  .28                4723163
SJPF  006.64 282.5 m E Sn      2011/07/07 19:41:02.2   0.5                          T                6.1  .31                4723170

.
EVENT     261167
    Date      Time       Latitude Longitude    Depth    Ndef Nsta Gap    Mag1  N    Mag2  N    Mag3  N   Author         ID
       rms   OT_Error      Smajor Sminor Az        Err   mdist  Mdist     Err        Err        Err      Quality

2011/07/07 19:44:09.6     41.9902    7.6114     25.0      16    8 229  Ml 2.5  9                         js067245    261167

      1.61   +-  0.35       9.1    3.7    8.05 +-  0.0    1.17   4.99   +-0.2                            m i ke

WESTERN MEDITERRANEAN SEA
Sta     Dist  EvAz     Phase      Date       Time     TRes  Azim  AzRes  Slow  SRes Def   SNR       Amp   Per   Mag1   Mag2       ID
PGF   001.17 061.1 m E Pn      2011/07/07 19:44:29.0   0.1                          T                                        4717188
PGF   001.17 061.1 m E Sn      2011/07/07 19:44:42.9  -0.1                          T               12.9  .19 Ml 3.0         4717185
LMR   001.57 329.2 m E Pn      2011/07/07 19:44:34.1  -0.1                          T                                        4717187
LMR   001.57 329.2 m E Sn      2011/07/07 19:44:51.8  -0.6                          T                6.3  .22 Ml 2.5         4717183
FRF   001.72 336.0 m E Pn      2011/07/07 19:44:36.4   0.1                          T                                        4717186
FRF   001.72 336.0 m E Sn      2011/07/07 19:44:55.6  -0.4                          T                4.2  .21 Ml 2.5         4717182
SBF   001.88 356.1 m E Sn      2011/07/07 19:44:59.0  -0.7                          T                2.4  .17 Ml 2.3         4717184
LASF  003.45 308.4 m E Pn      2011/07/07 19:44:59.5  -0.4                          T                                        4723402
LASF  003.45 308.4 m E Sn      2011/07/07 19:45:38.3   0.9                          T                2.2  .28 Ml 2.4         4717181
VIVF  003.58 324.2 m E Pn      2011/07/07 19:45:02.2   0.6                          T                                        4723403
VIVF  003.58 324.2 m E Sn      2011/07/07 19:45:40.3  -0.1                          T                1.2  .17 Ml 2.4         4723404
MTLF  004.20 290.6 m E Pn      2011/07/07 19:45:09.9  -0.2                          T                                        4723401
MTLF  004.20 290.6 m E Sn      2011/07/07 19:45:55.9   0.7                          T                1.2  .27 Ml 2.4         4723400
CAF   004.99 307.9 m E Sn      2011/07/07 19:46:13.4  -0.8                          T                 .8  .18 Ml 2.5         4717180

.
EVENT     261168
    Date      Time       Latitude Longitude    Depth    Ndef Nsta Gap    Mag1  N    Mag2  N    Mag3  N   Author         ID
       rms   OT_Error      Smajor Sminor Az        Err   mdist  Mdist     Err        Err        Err      Quality

2011/07/07 19:44:50.4     42.0235    7.6362     30.0      22   11 220                                    js067245    261168

                                               +-         1.14   5.48                                    m i ke

WESTERN MEDITERRANEAN SEA
Sta     Dist  EvAz     Phase      Date       Time     TRes  Azim  AzRes  Slow  SRes Def   SNR       Amp   Per   Mag1   Mag2       ID
PGF   001.14 062.1 m E Pn      2011/07/07 19:45:09.4   0.0                          T                                        4723407
PGF   001.14 062.1 m E Pg      2011/07/07 19:45:09.6   0.2                          T                                        4717202
PGF   001.14 062.1 m E Sn      2011/07/07 19:45:23.1  -0.1                          T               14.4  .21                4717198
LMR   001.55 328.0 m E Pn      2011/07/07 19:45:14.5  -0.3                          T                                        4717201
LMR   001.55 328.0 m E Sn      2011/07/07 19:45:32.1  -0.8                          T               17.8  .18                4717196
FRF   001.70 335.0 m E Pn      2011/07/07 19:45:16.8  -0.1                          T                                        4717200
FRF   001.70 335.0 m E Sn      2011/07/07 19:45:35.8  -0.6                          T                6.7  .16                4717195
MBDF  002.77 347.2 m E Pn      2011/07/07 19:45:33.8   2.2                          T                                        4723408
MBDF  002.77 347.2 m E Sn      2011/07/07 19:46:03.0   0.8                          T                2.8  .31                4717193
SBF   001.84 355.5 m E Sn      2011/07/07 19:45:39.3  -0.6                          T                9.1  .22                4717197
LASF  003.45 307.8 m E Pn      2011/07/07 19:45:39.9  -0.7                          T                                        4723410
LASF  003.45 307.8 m E Sn      2011/07/07 19:46:18.2   0.2                          T                3.9  .24                4717191
VIVF  003.56 323.7 m E Pn      2011/07/07 19:45:42.4   0.3                          T                                        4723409
VIVF  003.56 323.7 m E Sn      2011/07/07 19:46:21.9   1.1                          T                1.7  .33                4717192
MTLF  004.21 290.1 m E Pn      2011/07/07 19:45:50.5  -0.4                          T                                        4723411
MTLF  004.21 290.1 m E Sn      2011/07/07 19:46:37.3   1.2                          T                1.9  .22                4717190
SMRF  002.47 322.9 m E Sn      2011/07/07 19:45:54.6  -0.2                          T                1.7  .21                4717194
CAF   004.99 307.5 m E Pn      2011/07/07 19:46:02.4   0.9                          T                                        4717199
CAF   004.99 307.5 m E Sn      2011/07/07 19:46:54.9   0.2                          T                1.5  .20                4717189
EPF   005.48 283.0 m E Pn      2011/07/07 19:46:08.0  -0.3                          T                                        4723412

.
EVENT     261170
    Date      Time       Latitude Longitude    Depth    Ndef Nsta Gap    Mag1  N    Mag2  N    Mag3  N   Author         ID
       rms   OT_Error      Smajor Sminor Az        Err   mdist  Mdist     Err        Err        Err      Quality

2011/07/07 19:54:05.2     42.0038    7.6215     25.0      13    6 228  Ml 2.5  6  Md 2.4  4              js067245    261170

      1.36   +-  0.27       7.1    3.1    7.69 +-  0.0    1.16   4.20   +-0.2      +-0.0                 m i ke

WESTERN MEDITERRANEAN SEA
Sta     Dist  EvAz     Phase      Date       Time     TRes  Azim  AzRes  Slow  SRes Def   SNR       Amp   Per   Mag1   Mag2       ID
PGF   001.16 061.5 m E Pn      2011/07/07 19:54:24.4   0.1                          T                                        4717212
PGF   001.16 061.5 m E Sn      2011/07/07 19:54:38.4   0.2                          T               11.1  .20 Ml 2.9 Md 2.4  4717207
LMR   001.56 328.7 m E Pn      2011/07/07 19:54:29.5  -0.1                          T                                        4717210
LMR   001.56 328.7 m E Sn      2011/07/07 19:54:47.1  -0.6                          T                5.2  .20 Ml 2.5 Md 2.5  4717205
FRF   001.71 335.6 m E Pn      2011/07/07 19:54:31.8   0.1                          T                                        4717209
FRF   001.71 335.6 m E Sn      2011/07/07 19:54:51.0  -0.3                          T                3.5  .24 Ml 2.3 Md 2.4  4717204
SBF   001.86 355.9 m E Pn      2011/07/07 19:54:33.8  -0.1                          T                                        4717211
SBF   001.86 355.9 m E Sn      2011/07/07 19:54:54.9  -0.1                          T                4.9  .22 Ml 2.5 Md 2.5  4717206
LASF  003.45 308.2 m E Pn      2011/07/07 19:54:55.9   0.5                          T                                        4717208
LASF  003.45 308.2 m E Sn      2011/07/07 19:55:33.0   0.1                          T                 .7  .18 Ml 2.2         4717203
MTLF  004.20 290.4 m E Pn      2011/07/07 19:55:05.4  -0.2                          T                                        4723415

.
