EVENT     261205
    Date      Time       Latitude Longitude    Depth    Ndef Nsta Gap    Mag1  N    Mag2  N    Mag3  N   Author         ID
       rms   OT_Error      Smajor Sminor Az        Err   mdist  Mdist     Err        Err        Err      Quality

2011/07/08 03:56:57.3     46.8814    6.9743      2.0      34   16 068  Ml 2.6 12  Md 2.6  5              js067245    261205

      0.94   +-  0.08       1.8    1.3   94.14 +-  0.0    0.11   2.82   +-0.3      +-0.4                 m i ke

SWITZERLAND
Sta     Dist  EvAz     Phase      Date       Time     TRes  Azim  AzRes  Slow  SRes Def   SNR       Amp   Per   Mag1   Mag2       ID
CABF  000.67 246.4 m E Pg      2011/07/08 03:57:09.7  -0.3                          T                                        4717606
CABF  000.67 246.4 m E Sg      2011/07/08 03:57:18.6  -0.2                          T                8.2  .19        Md 2.8  4717595
HINF  000.94 355.0 m E Pg      2011/07/08 03:57:15.2   0.2                          T                                        4717612
HINF  000.94 355.0 m E Sg      2011/07/08 03:57:27.4   0.2                          T               57.2  .17 Ml 3.3 Md 2.0  4717602
HAU   001.20 339.5 m E Pg      2011/07/08 03:57:19.9   0.1                          T                                        4717614
HAU   001.20 339.5 m E Sg      2011/07/08 03:57:35.5   0.1                          T               39.0  .24 Ml 2.9 Md 2.2  4717604
LPL   001.38 187.1 m E Pg      2011/07/08 03:57:24.4   1.2                          T                                        4717610
LPL   001.38 187.1 m E Sg      2011/07/08 03:57:41.7   0.7                          T                8.9  .32 Ml 2.4         4717600
LPG   001.39 186.5 m E Pg      2011/07/08 03:57:24.4   0.8                          T                                        4717609
LPG   001.39 186.5 m E Sg      2011/07/08 03:57:42.2   0.6                          T               11.4  .29 Ml 2.6         4717599
THEF  001.50 334.1 m E Pg      2011/07/08 03:57:25.3   0.0                          T                                        4717613
THEF  001.50 334.1 m E Sg      2011/07/08 03:57:44.9   0.1                          T               27.6  .27 Ml 3.0 Md 3.1  4717603
CDF   001.55 007.5 m E Pg      2011/07/08 03:57:26.2   0.0                          T                                        4717594
CDF   001.55 007.5 m E Sg      2011/07/08 03:57:46.4   0.2                          T                8.1  .23 Ml 2.7 Md 2.6  4717590
SFTF  001.86 316.0 m E Pg      2011/07/08 03:57:31.8  -0.1                          T                                        4723504
SFTF  001.86 316.0 m E Sg      2011/07/08 03:57:56.2   0.2                          T                3.8  .20 Ml 2.5         4723505
ORIF  002.11 201.7 m E Pg      2011/07/08 03:57:36.4  -0.1                          T                                        4717608
ORIF  002.11 201.7 m E Sg      2011/07/08 03:58:03.3  -0.4                          T                5.0  .33 Ml 2.4         4717598
LOR   002.16 281.4 m E Pg      2011/07/08 03:57:37.5   0.0 110.6  11.5              T                                        4717593
LOR   002.16 281.4 m E Sg      2011/07/08 03:58:05.2  -0.1 114.4  15.3              T                                        4717592
MBDF  002.16 183.8 m E Pg      2011/07/08 03:57:37.5  -0.1                          T                                        4723506
MBDF  002.16 183.8 m E Sg      2011/07/08 03:58:05.1  -0.3                          T                2.8  .36 Ml 2.1         4723507
SMF   002.17 264.9 m E Pg      2011/07/08 03:57:37.6   0.1                          T                                        4717611
SMF   002.17 264.9 m E Sg      2011/07/08 03:58:05.2  -0.2                          T                8.4  .21 Ml 2.8         4717601
AVF   002.49 269.2 m E Pg      2011/07/08 03:57:43.7   0.2                          T                                        4717605
AVF   002.49 269.2 m E Sg      2011/07/08 03:58:14.4  -1.1                          T                2.8  .25 Ml 2.4         4717596
VIVF  002.59 219.3 m E Pg      2011/07/08 03:57:44.8  -0.5                          T                                        4717607
VIVF  002.59 219.3 m E Sg      2011/07/08 03:58:18.6   0.0                          T                5.9  .32 Ml 2.6         4717597
SSF   002.38 275.6 m E Sg      2011/07/08 03:58:11.6  -0.6                          T                                        4717591
RUP   002.82 001.1 m E Sg      2011/07/08 03:58:26.3   0.3                          T                                        4723503

.
EVENT     261206
    Date      Time       Latitude Longitude    Depth    Ndef Nsta Gap    Mag1  N    Mag2  N    Mag3  N   Author         ID
       rms   OT_Error      Smajor Sminor Az        Err   mdist  Mdist     Err        Err        Err      Quality

2011/07/08 04:40:35.6     42.1061    7.6985     10.0 f    11    5 255  Ml 2.3  6  Md 2.4  3              js067245    261206

      1.86   +-  0.82      22.5    7.4   18.40 +-  0.0    1.06   2.43   +-0.4      +-0.1                 m i ke

WESTERN MEDITERRANEAN SEA
Sta     Dist  EvAz     Phase      Date       Time     TRes  Azim  AzRes  Slow  SRes Def   SNR       Amp   Per   Mag1   Mag2       ID
PGF   001.06 065.0 m E Pn      2011/07/08 04:40:55.1   0.1                          T                                        4717621
PGF   001.06 065.0 m E Sn      2011/07/08 04:41:09.1   0.1                          T                7.7  .19 Ml 2.7 Md 2.5  4717618
LMR   001.51 324.9 m E Pn      2011/07/08 04:41:00.4  -0.6                          T                                        4717620
LMR   001.51 324.9 m E Sn      2011/07/08 04:41:17.9  -1.6                          T                4.8  .24 Ml 2.4 Md 2.3  4717616
FRF   001.65 332.3 m E Pn      2011/07/08 04:41:02.6  -0.2                          T                                        4717619
FRF   001.65 332.3 m E Sn      2011/07/08 04:41:21.5  -1.4                          T                2.0  .17 Ml 2.2 Md 2.3  4717615
SMRF  002.43 320.9 m E Pn      2011/07/08 04:41:14.4   0.8                          T                                        4723510
SMRF  002.43 320.9 m E Sn      2011/07/08 04:41:44.3   2.6                          T                 .4  .19 Ml 1.6         4723511
SBF   001.77 353.8 m E Sn      2011/07/08 04:41:25.1  -0.7                          T                3.2  .17 Ml 2.4         4717617

.
EVENT     261207
    Date      Time       Latitude Longitude    Depth    Ndef Nsta Gap    Mag1  N    Mag2  N    Mag3  N   Author         ID
       rms   OT_Error      Smajor Sminor Az        Err   mdist  Mdist     Err        Err        Err      Quality

2011/07/08 05:36:09.4     41.9562    7.6448     25.0      54   27 181  Ml 3.7 11  Md 3.3  4              js067245    261207

      1.25   +-  0.30       6.9    4.0  144.92 +-  0.0    1.17   9.70   +-0.4      +-0.0                 m i ke

WESTERN MEDITERRANEAN SEA
Sta     Dist  EvAz     Phase      Date       Time     TRes  Azim  AzRes  Slow  SRes Def   SNR       Amp   Per   Mag1   Mag2       ID
PGF   001.17 059.1 m E Pn      2011/07/08 05:36:28.3  -0.4                          T                                        4717631
PGF   001.17 059.1 m E Sn      2011/07/08 05:36:42.1  -0.6                          T              433.9  .25 Ml 4.4 Md 3.4  4717623
LMR   001.61 329.1 m E Pn      2011/07/08 05:36:33.4  -1.2                          T                                        4717633
LMR   001.61 329.1 m E Sn      2011/07/08 05:36:50.9  -2.2                          T              220.7  .18 Ml 4.2 Md 3.3  4717625
FRF   001.76 335.7 m E Pn      2011/07/08 05:36:35.7  -1.0                          T                                        4717634
FRF   001.76 335.7 m E Sn      2011/07/08 05:36:54.4  -2.4                          T              142.2  .21 Ml 4.0 Md 3.3  4717626
SBF   001.91 355.5 m E Pn      2011/07/08 05:36:37.4  -1.4                          T                                        4717632
SBF   001.91 355.5 m E Sn      2011/07/08 05:36:57.9  -2.5                          T              140.7  .18 Ml 4.1 Md 3.3  4717624
SMRF  002.53 323.7 m E Pn      2011/07/08 05:36:47.4   0.3                          T                                        4717636
SMRF  002.53 323.7 m E Sn      2011/07/08 05:37:17.5   2.4                          T               54.4  .40 Ml 3.5         4723516
MBDF  002.84 347.3 m E Pn      2011/07/08 05:36:52.5   0.9                          T                                        4717639
MBDF  002.84 347.3 m E Sn      2011/07/08 05:37:22.8   0.1                          T               30.5  .30 Ml 3.4         4717627
ORIF  003.23 337.1 m E Pn      2011/07/08 05:36:57.6   0.8                          T                                        4717638
LASF  003.49 308.6 m E Pn      2011/07/08 05:36:59.8  -0.5                          T                                        4717640
LASF  003.49 308.6 m E Sn      2011/07/08 05:37:36.6  -1.6                          T               33.2  .23 Ml 3.7         4717629
VIVF  003.62 324.2 m E Pn      2011/07/08 05:37:01.4  -0.6                          T                                        4717622
VIVF  003.62 324.2 m E Sn      2011/07/08 05:37:39.5  -1.7                          T                6.7  .22 Ml 3.0         4717628
LPG   003.60 349.9 m E Pn      2011/07/08 05:37:04.7   2.7                          T                                        4717635
LPL   003.62 349.8 m E Pn      2011/07/08 05:37:04.8   2.5                          T                                        4717637
LPL   003.62 349.8 m E Sn      2011/07/08 05:37:44.8   3.4                          T               13.3  .32 Ml 3.2         4723517
MTLF  004.24 290.9 m E Pn      2011/07/08 05:37:09.6  -0.7                          T                                        4717641
MTLF  004.24 290.9 m E Sn      2011/07/08 05:37:55.9   0.0                          T               14.3  .25 Ml 3.5         4717630
CAF   005.03 308.0 m E Pn      2011/07/08 05:37:21.3   0.1                          T                                        4717645
SMF   005.42 331.1 m E Pn      2011/07/08 05:37:26.6   0.1                          T                                        4717653
EPF   005.51 283.7 m E Pn      2011/07/08 05:37:26.8  -0.9                          T                                        4717642
RJF   005.57 309.0 m E Pn      2011/07/08 05:37:28.8   0.4                          T                                        4717647
AVF   005.73 329.0 m E Pn      2011/07/08 05:37:31.2   0.6                          T                                        4717654
BGF   005.75 324.8 m E Pn      2011/07/08 05:37:31.6   0.7                          T                                        4717652
TCF   005.83 319.8 m E Pn      2011/07/08 05:37:32.8   0.6                          T                                        4717655
LFF   005.84 303.0 m E Pn      2011/07/08 05:37:32.9   0.7                          T                                        4717646
LOR   005.96 334.3 m E Pn      2011/07/08 05:37:34.0   0.2                          T                                        4717656
HAU   006.12 351.8 m E Pn      2011/07/08 05:37:36.0   0.0                          T                                        4723518
ETSF  006.14 281.6 m E Pn      2011/07/08 05:37:37.5   1.1                          T                                        4717643
SJPF  006.65 283.0 m E Pn      2011/07/08 05:37:43.1  -0.2                          T                                        4717644
MFF   007.27 312.4 m E Pn      2011/07/08 05:37:52.4   0.8                          T                                        4717648
SGMF  009.57 314.6 m E Pn      2011/07/08 05:38:23.6   0.7                          T                                        4717650
QUIF  009.70 311.5 m E Pn      2011/07/08 05:38:25.9   1.2                          T                                        4717649

.
EVENT     261208
    Date      Time       Latitude Longitude    Depth    Ndef Nsta Gap    Mag1  N    Mag2  N    Mag3  N   Author         ID
       rms   OT_Error      Smajor Sminor Az        Err   mdist  Mdist     Err        Err        Err      Quality

2011/07/08 08:19:52.6     42.1450    7.6705     15.0      13    6 238  Ml 2.4  6  Md 2.6  2              js067245    261208

      0.78   +-  0.32       8.3    3.4   15.80 +-  0.0    1.06   3.39   +-0.2      +-0.0                 m i ke

WESTERN MEDITERRANEAN SEA
Sta     Dist  EvAz     Phase      Date       Time     TRes  Azim  AzRes  Slow  SRes Def   SNR       Amp   Per   Mag1   Mag2       ID
PGF   001.06 067.3 m E Pn      2011/07/08 08:20:11.5  -0.1                          T                                        4717666
PGF   001.06 067.3 m E Sn      2011/07/08 08:20:25.3   0.1                          T                6.4  .17 Ml 2.7 Md 2.6  4717662
LMR   001.46 324.6 m E Pn      2011/07/08 08:20:16.8  -0.1                          T                                        4717667
LMR   001.46 324.6 m E Sn      2011/07/08 08:20:34.4  -0.2                          T                4.8  .18 Ml 2.5 Md 2.6  4717661
FRF   001.60 332.3 m E Pn      2011/07/08 08:20:18.8   0.0                          T                                        4717668
FRF   001.60 332.3 m E Sn      2011/07/08 08:20:38.2   0.2                          T                2.2  .20 Ml 2.2         4717669
SBF   001.73 354.3 m E Pg      2011/07/08 08:20:24.4  -0.5                          T                                        4718338
SBF   001.73 354.3 m E Sn      2011/07/08 08:20:41.3   0.3                          T                3.6  .21 Ml 2.4         4717670
SMRF  002.39 320.7 m E Pn      2011/07/08 08:20:30.4   0.8                          T                                        4723832
LASF  003.39 305.9 m E Pn      2011/07/08 08:20:43.0  -0.2                          T                                        4723830
LASF  003.39 305.9 m E Sn      2011/07/08 08:21:20.1  -0.7                          T                1.6  .24 Ml 2.3         4723831

.
EVENT     261214
    Date      Time       Latitude Longitude    Depth    Ndef Nsta Gap    Mag1  N    Mag2  N    Mag3  N   Author         ID
       rms   OT_Error      Smajor Sminor Az        Err   mdist  Mdist     Err        Err        Err      Quality

2011/07/08 12:12:08.5     41.9931    7.6530     25.0      35   13 222  Ml 3.1 11  Md 2.6  4              js067245    261214

      1.01   +-  0.39       8.5    5.2  174.53 +-  0.0    1.14   5.50   +-0.4      +-0.0                 m i ke

WESTERN MEDITERRANEAN SEA
Sta     Dist  EvAz     Phase      Date       Time     TRes  Azim  AzRes  Slow  SRes Def   SNR       Amp   Per   Mag1   Mag2       ID
PGF   001.14 060.5 m E Pn      2011/07/08 12:12:27.2  -0.2                          T                                        4717691
PGF   001.14 060.5 m E Sn      2011/07/08 12:12:41.3   0.2                          T               99.1  .19 Ml 3.8 Md 2.6  4717678
LMR   001.58 328.2 m E Pn      2011/07/08 12:12:32.4  -0.8                          T                                        4717690
LMR   001.58 328.2 m E Sn      2011/07/08 12:12:50.0  -1.5                          T               40.7  .21 Ml 3.4 Md 2.7  4717676
FRF   001.73 335.0 m E Pn      2011/07/08 12:12:34.7  -0.6                          T                                        4717689
FRF   001.73 335.0 m E Sn      2011/07/08 12:12:53.7  -1.4                          T               29.9  .22 Ml 3.3 Md 2.6  4717675
SBF   001.88 355.2 m E Pn      2011/07/08 12:12:36.5  -0.8                          T                                        4717688
SBF   001.88 355.2 m E Sn      2011/07/08 12:12:57.3  -1.3                          T               46.1  .17 Ml 3.6 Md 2.5  4717677
SMRF  002.50 323.1 m E Pn      2011/07/08 12:12:46.3   0.5                          T                                        4717687
SMRF  002.50 323.1 m E Sn      2011/07/08 12:13:16.3   2.9                          T                7.3  .30 Ml 2.7         4723837
MBDF  002.81 347.1 m E Pn      2011/07/08 12:12:51.6   1.5                          T                                        4717684
MBDF  002.81 347.1 m E Sn      2011/07/08 12:13:21.6   0.6                          T               10.6  .25 Ml 3.0         4717674
ORIF  003.20 336.8 m E Pn      2011/07/08 12:12:56.3   1.0                          T                                        4717685
VIVF  003.59 323.8 m E Pn      2011/07/08 12:13:00.2  -0.5                          T                                        4717683
VIVF  003.59 323.8 m E Sn      2011/07/08 12:13:38.5  -1.0                          T                1.6  .19 Ml 2.5         4717673
LPL   003.58 349.6 m E Pn      2011/07/08 12:13:02.6   1.8                          T                                        4717686
LPL   003.58 349.6 m E Sn      2011/07/08 12:13:43.5   3.8                          T                5.7  .28 Ml 2.9         4723838
MTLF  004.23 290.4 m E Pn      2011/07/08 12:13:08.7  -0.6                          T                                        4717682
MTLF  004.23 290.4 m E Sn      2011/07/08 12:13:54.5  -0.2                          T                2.3  .20 Ml 2.8         4717671
CAF   005.01 307.7 m E Pn      2011/07/08 12:13:20.3   0.3                          T                                        4717680
EPF   005.50 283.3 m E Pn      2011/07/08 12:13:26.3  -0.4                          T                                        4717681
LASF  003.48 308.1 m E Sn      2011/07/08 12:13:35.8  -1.0                          T                6.2  .22 Ml 3.0         4717672

.
