EVENT     282777
    Date      Time       Latitude Longitude    Depth    Ndef Nsta Gap    Mag1  N    Mag2  N    Mag3  N   Author         ID
       rms   OT_Error      Smajor Sminor Az        Err   mdist  Mdist     Err        Err        Err      Quality

2012/09/07 02:47:05.5     46.3395    8.4286      8.0 f    75   16 056  Ml 2.3 20                         bulletin    282877
                                                                                                         _ldg
      0.37   +-  0.05       1.0     .8  142.64 +-  0.0    0.20   4.31   +-0.3                            m i ke

SWITZERLAND
Sta     Dist  EvAz     Phase      Date       Time     TRes  Azim  AzRes  Slow  SRes Def   SNR       Amp   Per   Mag1   Mag2       ID
LPG   001.44 234.9 m E Pg      2012/09/07 02:47:32.3  -0.4                          T                                        5064935
LPG   001.44 234.9 m E Sg      2012/09/07 02:47:51.4   0.0                          T                1.9  .17 Ml 2.1         5064964
LPL   001.44 235.8 m E Pg      2012/09/07 02:47:32.5  -0.2                          T                                        5064936
LPL   001.44 235.8 m E Sg      2012/09/07 02:47:51.4   0.0                          T                6.3  .25 Ml 2.4         5064963
CABF  001.64 280.4 m E Pg      2012/09/07 02:47:36.2   0.0                          T                                        5064925
CABF  001.64 280.4 m E Sg      2012/09/07 02:47:57.6   0.2                          T                8.2  .22 Ml 2.7         5064951
HINF  001.83 324.5 m E Pg      2012/09/07 02:47:40.0   0.4                          T                                        5064926
HINF  001.83 324.5 m E Sn      2012/09/07 02:47:58.2   0.7                          T                1.6  .15 Ml 2.2         5064950
HINF  001.83 324.5 m E Sg      2012/09/07 02:48:02.6  -0.6                          T                8.4  .25 Ml 2.7         5064949
HAU   002.19 320.3 m E Pn      2012/09/07 02:47:41.1   0.7                          T                                        5064948
HAU   002.19 320.3 m E Pg      2012/09/07 02:47:46.1  -0.1                          T                                        5064930
HAU   002.19 320.3 m E Sn      2012/09/07 02:48:07.2   1.0                          T                2.8  .21 Ml 2.2         5064947
HAU   002.19 320.3 m E Sg      2012/09/07 02:48:14.2  -0.2                          T                6.1  .30 Ml 2.3         5064946
MBDF  001.99 216.4 m E Pg      2012/09/07 02:47:42.8   0.1                          T                                        5064922
MBDF  001.99 216.4 m E Sg      2012/09/07 02:48:08.3  -0.1                          T                1.6  .26 Ml 2.0         5064960
CDF   002.22 339.7 m E Pg      2012/09/07 02:47:46.8   0.0                          T                                        5064927
CDF   002.22 339.7 m E Sg      2012/09/07 02:48:15.4   0.0                          T                7.2  .29 Ml 2.8         5064945
ORIF  002.28 232.4 m E Pg      2012/09/07 02:47:47.3  -0.8                          T                                        5064962
ORIF  002.28 232.4 m E Sg      2012/09/07 02:48:17.6   0.1                          T                4.0  .36 Ml 2.3         5064961
PAGF  002.88 321.4 m E Pn      2012/09/07 02:47:50.7   0.9                          T                                        5064942
PAGF  002.88 321.4 m E Pg      2012/09/07 02:47:58.7  -0.2                          T                                        5064941
PAGF  002.88 321.4 m E Sn      2012/09/07 02:48:23.7   1.1                          T                 .6  .15 Ml 2.0         5064940
PAGF  002.88 321.4 m E Sg      2012/09/07 02:48:36.0   0.1                          T                1.9  .21 Ml 2.4         5064939
VIVF  003.03 242.0 m E Pn      2012/09/07 02:47:52.7   0.8                          T                                        5064959
VIVF  003.03 242.0 m E Pg      2012/09/07 02:48:01.7   0.0                          T                                        5064958
VIVF  003.03 242.0 m E Sn      2012/09/07 02:48:27.3   1.2                          T                 .8  .26 Ml 1.9         5064957
VIVF  003.03 242.0 m E Sg      2012/09/07 02:48:40.3  -0.2                          T                1.2  .27 Ml 2.1         5064956
BGF   003.87 275.3 m E Pn      2012/09/07 02:48:04.0   0.7                          T                                        5064955
BGF   003.87 275.3 m E Sg      2012/09/07 02:49:07.3   0.6                          T                3.8  .37 Ml 2.6         5064954
SMF   003.18 277.2 m E Pg      2012/09/07 02:48:05.0   0.5                          T                                        5064923
SMF   003.18 277.2 m E Sg      2012/09/07 02:48:45.4   0.0                          T                3.8  .26 Ml 2.6         5064953
LOR   003.27 288.1 m E Pg      2012/09/07 02:48:06.2   0.1                          T                                        5064929
LOR   003.27 288.1 m E Sg      2012/09/07 02:48:47.5  -0.7                          T                1.6  .18 Ml 2.4         5064944
SSF   003.46 283.8 m E Pg      2012/09/07 02:48:09.7   0.1                          T                                        5064928
SSF   003.46 283.8 m E Sg      2012/09/07 02:48:54.1   0.0                          T                1.3  .23 Ml 2.4         5064943
TCF   004.31 271.6 m E Pn      2012/09/07 02:48:10.1   0.7                          T                                        5064938
TCF   004.31 271.6 m E Sn      2012/09/07 02:48:58.3   1.5                          T                 .5  .23 Ml 2.1         5064937
AVF   003.53 279.2 m E Pg      2012/09/07 02:48:11.0   0.1                          T                                        5064924
AVF   003.53 279.2 m E Sg      2012/09/07 02:48:56.2   0.0                          T                 .9  .23 Ml 2.2         5064952

.
EVENT     282800
    Date      Time       Latitude Longitude    Depth    Ndef Nsta Gap    Mag1  N    Mag2  N    Mag3  N   Author         ID
       rms   OT_Error      Smajor Sminor Az        Err   mdist  Mdist     Err        Err        Err      Quality

2012/09/07 08:32:03.3     46.5205    3.1150       .0 f    23    9 129  Ml 2.1  4  Md 2.2  8              bulletin    282900
                                                                                                         _ldg
      0.14   +-  0.03        .9     .4  133.14 +-  0.0    0.19   2.25   +-0.4      +-0.2                 m i km

FRANCE
Sta     Dist  EvAz     Phase      Date       Time     TRes  Azim  AzRes  Slow  SRes Def   SNR       Amp   Per   Mag1   Mag2       ID
BGF   000.19 281.5 m E Pg      2012/09/07 08:32:07.3  -0.1                          T                                        5064902
BGF   000.19 281.5 m E Sg      2012/09/07 08:32:10.5   0.3                          T               10.9  .14        Md 2.3  5064904
AVF   000.32 031.1 m E Pg      2012/09/07 08:32:09.7   0.0                          T                                        5064903
AVF   000.32 031.1 m E Sg      2012/09/07 08:32:14.1   0.0                          T                                Md 2.2  5064906
SMF   000.52 075.7 m E Pg      2012/09/07 08:32:13.5   0.1                          T                                        5064901
SMF   000.52 075.7 m E Sg      2012/09/07 08:32:20.4   0.0                          T                4.4  .18        Md 2.3  5064905
SSF   000.60 026.3 m E Pg      2012/09/07 08:32:15.0  -0.1                          T                                        5064899
SSF   000.60 026.3 m E Sg      2012/09/07 08:32:23.1  -0.1                          T                9.5  .20        Md 2.2  5064908
TCF   000.67 250.0 m E Pg      2012/09/07 08:32:16.2  -0.1                          T                                        5064900
TCF   000.67 250.0 m E Sg      2012/09/07 08:32:25.0  -0.1                          T               10.8  .14        Md 2.2  5064907
HYF   000.82 336.6 m E Pg      2012/09/07 08:32:18.7  -0.3                          T                                        5064911
HYF   000.82 336.6 m E Sg      2012/09/07 08:32:30.1   0.3                          T                                Md 2.2  5064910
LOR   000.91 034.0 m E Pg      2012/09/07 08:32:20.7   0.1 214.4  -0.1              T                                        5064898
LOR   000.91 034.0 m E Sg      2012/09/07 08:32:32.4  -0.1                          T                2.4  .16 Ml 1.9 Md 2.4  5064909
LOR   000.91 034.0 m E Sn      2012/09/07 08:32:35.2   0.2                          T               11.1  .22 Ml 2.5         5064921
RJF   001.65 223.1 m E Pg      2012/09/07 08:32:34.2  -0.1                          T                                        5064916
RJF   001.65 223.1 m E Sn      2012/09/07 08:32:52.7  -0.1                          T                1.4  .22 Ml 1.6         5064915
CAF   001.76 205.1 m E Pg      2012/09/07 08:32:36.3   0.0                          T                                        5064914
CAF   001.76 205.1 m E Sg      2012/09/07 08:32:59.1  -0.1                          T                3.1  .15 Ml 2.5         5064913

.
EVENT     282967
    Date      Time       Latitude Longitude    Depth    Ndef Nsta Gap    Mag1  N    Mag2  N    Mag3  N   Author         ID
       rms   OT_Error      Smajor Sminor Az        Err   mdist  Mdist     Err        Err        Err      Quality

2012/09/07 10:06:09.6     43.6425    7.0405       .0 f    23    8 124  Ml 2.0  5  Md 2.0  3              bulletin    283067
                                                                                                         _ldg
      0.39   +-  0.18       3.5    1.9  136.53 +-  0.0    0.02   2.09   +-0.1      +-0.1                 m i km

NEAR SOUTH COAST OF FRANCE
Sta     Dist  EvAz     Phase      Date       Time     TRes  Azim  AzRes  Slow  SRes Def   SNR       Amp   Per   Mag1   Mag2       ID
FRF   000.30 254.2 m E Pg      2012/09/07 10:06:15.0  -0.6                          T                                        5066790
FRF   000.30 254.2 m E Sg      2012/09/07 10:06:19.2  -0.6                          T               64.6  .68        Md 2.1  5066789
SBF   000.36 052.2 m E Pg      2012/09/07 10:06:17.0   0.1                          T                                        5066785
SBF   000.36 052.2 m E Sg      2012/09/07 10:06:21.9   0.0                          T                9.7  .19        Md 2.0  5066784
LMR   000.49 231.6 m E Pg      2012/09/07 10:06:19.2   0.0                          T                                        5066788
LMR   000.49 231.6 m E Sg      2012/09/07 10:06:26.3   0.4                          T                5.1  .20        Md 2.0  5066787
MBDF  001.10 350.0 m E Pg      2012/09/07 10:06:30.8   0.1                          T                                        5066886
MBDF  001.10 350.0 m E Sg      2012/09/07 10:06:44.6  -0.5                          T                5.9  .40 Ml 2.0         5066885
SMRF  001.11 288.0 m E Pg      2012/09/07 10:06:30.9   0.2                          T                                        5066786
SMRF  001.11 288.0 m E Sg      2012/09/07 10:06:45.6   0.3                          T                3.7  .27 Ml 2.0         5066888
ORIF  001.52 327.2 m E Pg      2012/09/07 10:06:38.5   0.1                          T                                        5066783
ORIF  001.52 327.2 m E Sg      2012/09/07 10:06:58.8   0.6                          T                4.3  .40 Ml 2.1         5066782
VIVF  002.09 306.3 m E Pn      2012/09/07 10:06:44.2  -0.1                          T                                        5066884
VIVF  002.09 306.3 m E Sn      2012/09/07 10:07:09.3  -0.3                          T                 .9  .19 Ml 1.9         5066883
LPG   001.87 353.7 m E Pg      2012/09/07 10:06:44.5  -0.4                          T                                        5066887

.
EVENT     282969
    Date      Time       Latitude Longitude    Depth    Ndef Nsta Gap    Mag1  N    Mag2  N    Mag3  N   Author         ID
       rms   OT_Error      Smajor Sminor Az        Err   mdist  Mdist     Err        Err        Err      Quality

2012/09/07 10:08:18.7     43.8352    8.0223     10.0      12    4 239  Ml 1.4  3  Md 1.6  1              bulletin    283069
                                                                                                         _ldg
      0.17   +-  0.13       2.6    1.4  130.27 +-  0.0    0.12   1.27   +-0.1      +-                    m i ke

CORSICA, FRANCE
Sta     Dist  EvAz     Phase      Date       Time     TRes  Azim  AzRes  Slow  SRes Def   SNR       Amp   Per   Mag1   Mag2       ID
SBF   000.43 274.0 m E Pg      2012/09/07 10:08:27.1   0.0                          T                                        5066907
SBF   000.43 274.0 m E Sg      2012/09/07 10:08:33.0   0.1                          T                3.6  .25        Md 1.6  5066906
FRF   001.03 255.1 m E Pn      2012/09/07 10:08:37.6  -0.1                          T                                        5066903
FRF   001.03 255.1 m E Sn      2012/09/07 10:08:51.3  -0.1                          T                1.1  .21 Ml 1.6         5066902
LMR   001.21 246.0 m E Pn      2012/09/07 10:08:40.1   0.0                          T                                        5066905
LMR   001.21 246.0 m E Sn      2012/09/07 10:08:55.3  -0.2                          T                 .7  .23 Ml 1.4         5066904
MBDF  001.27 315.2 m E Pn      2012/09/07 10:08:41.1   0.1                          T                                        5066901
MBDF  001.27 315.2 m E Sn      2012/09/07 10:08:57.2   0.1                          T                 .6  .25 Ml 1.3         5066900

.
EVENT     282809
    Date      Time       Latitude Longitude    Depth    Ndef Nsta Gap    Mag1  N    Mag2  N    Mag3  N   Author         ID
       rms   OT_Error      Smajor Sminor Az        Err   mdist  Mdist     Err        Err        Err      Quality

2012/09/07 14:26:03.8     44.6607    8.0795     10.0      26    7 157  Ml 1.9  8  Md 1.8  2              bulletin    282909
                                                                                                         _ldg
      0.19   +-  0.06       1.1     .8   65.02 +-  0.0    0.35   1.74   +-0.3      +-0.1                 m i ke

NORTHERN ITALY
Sta     Dist  EvAz     Phase      Date       Time     TRes  Azim  AzRes  Slow  SRes Def   SNR       Amp   Per   Mag1   Mag2       ID
SBF   000.92 210.4 m E Pg      2012/09/07 14:26:21.4   0.1                          T                                        5065322
SBF   000.92 210.4 m E Sg      2012/09/07 14:26:33.6   0.2                          T               11.6  .34 Ml 2.3 Md 1.8  5065320
MBDF  000.94 274.5 m E Pg      2012/09/07 14:26:21.6   0.0                          T                                        5065321
MBDF  000.94 274.5 m E Sg      2012/09/07 14:26:33.8   0.0                          T                 .9  .24 Ml 1.4 Md 1.7  5065305
LPG   001.26 312.1 m E Pn      2012/09/07 14:26:26.2   0.0                          T                                        5065313
LPG   001.26 312.1 m E Pg      2012/09/07 14:26:27.9   0.1                          T                                        5065312
LPG   001.26 312.1 m E Sg      2012/09/07 14:26:43.7  -0.4                          T                1.4  .22 Ml 1.7         5065311
LPL   001.28 312.4 m E Pn      2012/09/07 14:26:26.4   0.0                          T                                        5065310
LPL   001.28 312.4 m E Sn      2012/09/07 14:26:42.3  -0.4                          T                                        5065309
LPL   001.28 312.4 m E Sg      2012/09/07 14:26:44.7   0.0                          T                2.0  .26 Ml 1.8         5065308
FRF   001.51 223.7 m E Pn      2012/09/07 14:26:29.4   0.1                          T                                        5065317
FRF   001.51 223.7 m E Pg      2012/09/07 14:26:32.3   0.3                          T                                        5065316
FRF   001.51 223.7 m E Sn      2012/09/07 14:26:47.9   0.0                          T                                        5065315
FRF   001.51 223.7 m E Sg      2012/09/07 14:26:51.4  -0.1                          T                3.1  .26 Ml 2.2         5065314
ORIF  001.59 280.1 m E Pn      2012/09/07 14:26:30.4   0.0                          T                                        5065307
ORIF  001.59 280.1 m E Sn      2012/09/07 14:26:49.7  -0.1                          T                3.0  .40 Ml 2.0         5065306
LMR   001.74 221.1 m E Pn      2012/09/07 14:26:32.6   0.2                          T                                        5065319
LMR   001.74 221.1 m E Sn      2012/09/07 14:26:53.0  -0.4                          T                1.5  .21 Ml 2.0         5065318

.
EVENT     282838
    Date      Time       Latitude Longitude    Depth    Ndef Nsta Gap    Mag1  N    Mag2  N    Mag3  N   Author         ID
       rms   OT_Error      Smajor Sminor Az        Err   mdist  Mdist     Err        Err        Err      Quality

2012/09/07 16:15:48.0     46.6335     .1699      2.0      12    5 117  Ml 1.9  4  Md 1.8  1              bulletin    282938
                                                                                                         _ldg
      0.66   +-  0.07       1.4    1.1   23.97 +-  0.0    0.22   1.97   +-0.3      +-                    m i ke

FRANCE
Sta     Dist  EvAz     Phase      Date       Time     TRes  Azim  AzRes  Slow  SRes Def   SNR       Amp   Per   Mag1   Mag2       ID
MFF   000.22 261.9 m E Pg      2012/09/07 16:15:52.4   0.0                          T                                        5068679
MFF   000.22 261.9 m E Sg      2012/09/07 16:15:55.3  -0.1                          T               12.2  .24        Md 1.8  5068680
TCF   001.45 103.0 m E Pg      2012/09/07 16:16:15.0  -0.1                          T                                        5068681
TCF   001.45 103.0 m E Sg      2012/09/07 16:16:34.0   0.1                          T                1.5  .18 Ml 2.0         5068682
RJF   001.63 144.3 m E Pg      2012/09/07 16:16:18.1  -0.2                          T                                        5068677
RJF   001.63 144.3 m E Sg      2012/09/07 16:16:39.4   0.1                          T                2.5  .24 Ml 1.8         5068678
BGF   001.85 091.4 m E Pg      2012/09/07 16:16:22.3   0.0                          T                                        5068683
BGF   001.85 091.4 m E Sg      2012/09/07 16:16:46.2   0.1                          T                2.9  .24 Ml 2.3         5068684
LDF   001.97 354.4 m E Pg      2012/09/07 16:16:24.8   0.2                          T                                        5068685
LDF   001.97 354.4 m E Sn      2012/09/07 16:16:44.8   0.3                          T                 .6  .25 Ml 1.5         5068686

.
