EVENT     261425
    Date      Time       Latitude Longitude    Depth    Ndef Nsta Gap    Mag1  N    Mag2  N    Mag3  N   Author         ID
       rms   OT_Error      Smajor Sminor Az        Err   mdist  Mdist     Err        Err        Err      Quality

2011/07/14 04:17:55.6     49.8982   18.5271      1.0 f    40   16 123  Ml 3.9 11                         js067245    261425

      0.77   +-  0.18       5.8    2.4   10.61 +-  0.0    0.65  12.78   +-0.3                            m i sr

CZECH AND SLOVAK REPUBLICS
Sta     Dist  EvAz     Phase      Date       Time     TRes  Azim  AzRes  Slow  SRes Def   SNR       Amp   Per   Mag1   Mag2       ID
LANF  007.05 266.6 m E Pn      2011/07/14 04:19:37.6   0.1                          T                                        4724873
LANF  007.05 266.6 m E Sg      2011/07/14 04:21:35.5  -0.8                          T               79.0 1.04 Ml 4.1         4724879
CDF   007.53 262.9 m E Pn      2011/07/14 04:19:43.1  -1.0                          T                                        4724872
CDF   007.53 262.9 m E Sg      2011/07/14 04:21:52.0   0.8                          T               54.2  .94 Ml 4.2         4723742
HINF  007.98 259.3 m E Pn      2011/07/14 04:19:51.5   1.3                          T                                        4724874
HINF  007.98 259.3 m E Sg      2011/07/14 04:22:06.5   1.3                          T               19.2  .75 Ml 3.8         4723741
MEZF  008.94 266.2 m E Pn      2011/07/14 04:20:03.2   0.1                          T                                        4723733
ORIF  009.91 244.6 m E Pn      2011/07/14 04:20:17.5   0.9                          T                                        4723735
BGF   010.98 258.3 m E Pn      2011/07/14 04:20:29.5  -1.5                          T                                        4723736
BGF   010.98 258.3 m E Pg      2011/07/14 04:21:18.9   0.7                          T                                        4723737
GRR   012.78 270.6 m E Pn      2011/07/14 04:20:55.7   0.2                          T                                        4723734
BAIF  009.23 276.5 m E Sn      2011/07/14 04:21:46.2   0.5                          T                                        4723732
RUP   007.43 272.9 m E Sg      2011/07/14 04:21:50.2   2.3                          T                                        4723731
HAU   008.24 261.4 m E Sg      2011/07/14 04:22:11.1  -2.1                          T               50.2 1.00 Ml 3.9         4724876
THEF  008.40 263.3 m E Sg      2011/07/14 04:22:19.6   1.3                          T                 .8  .15 Ml 3.2         4723730
PAGF  008.49 265.8 m E Sg      2011/07/14 04:22:20.9  -0.1                          T               29.3 1.48 Ml 3.8         4724878
CABF  008.93 253.1 m E Sg      2011/07/14 04:22:35.8   1.0                          T               47.3  .94 Ml 4.3         4724875
SFTF  009.02 264.3 m E Sg      2011/07/14 04:22:37.5  -0.2                          T               92.1 1.39 Ml 4.4         4724877
SMF   010.32 257.2 m E Sg      2011/07/14 04:23:17.5  -0.6                          T                7.9  .72 Ml 3.8         4723740
SSF   010.37 259.9 m E Sg      2011/07/14 04:23:21.6   1.8                          T                3.9  .45 Ml 3.8         4723729

.
EVENT     261440
    Date      Time       Latitude Longitude    Depth    Ndef Nsta Gap    Mag1  N    Mag2  N    Mag3  N   Author         ID
       rms   OT_Error      Smajor Sminor Az        Err   mdist  Mdist     Err        Err        Err      Quality

2011/07/14 06:59:09.2     50.1749    -.7275     10.0 f   217   41 051  Ml 4.5 68  Md 4.4  5              js067245    261440

      1.20   +-  0.09       2.0    1.9   44.73 +-  0.0    0.97  10.74   +-0.3      +-0.1                 m i ke

UNITED KINGDOM
Sta     Dist  EvAz     Phase      Date       Time     TRes  Azim  AzRes  Slow  SRes Def   SNR       Amp   Per   Mag1   Mag2       ID
FLN   001.42 173.4 m E Pn      2011/07/14 06:59:34.2   0.8 348.0  -5.6              T   001.0                                4721062
FLN   001.42 173.4 m E Pg      2011/07/14 06:59:35.7  -0.1 349.8  -3.9              T                                        4723115
FLN   001.42 173.4 m E Sn      2011/07/14 06:59:51.2   0.1 351.8  -1.8              T                                        4723077
FLN   001.42 173.4 m E Sg      2011/07/14 06:59:54.4   0.3 342.9  -10.7             T             2380.3  .25 Ml 4.8 Md 4.4  4721464
LDF   001.63 165.7 m E Pn      2011/07/14 06:59:36.8   0.5                          T                                        4721453
LDF   001.63 165.7 m E P       2011/07/14 06:59:38.7   0.3                          T   001.0                                4721069
LDF   001.63 165.7 m E Sn      2011/07/14 06:59:56.5   0.4                          T                                        4723078
LDF   001.63 165.7 m E Sg      2011/07/14 07:00:00.9   0.2                          T   001.0     2014.9  .24 Ml 5.0 Md 4.3  4721070
GRR   001.79 182.8 m E Pn      2011/07/14 06:59:39.2   0.8                          T   001.0                                4721064
GRR   001.79 182.8 m E Pg      2011/07/14 06:59:42.5   0.0                          T                                        4723114
GRR   001.79 182.8 m E Sn      2011/07/14 06:59:59.7  -0.2                          T   001.0     1930.1  .24 Ml 4.9         4721065
GRR   001.79 182.8 m E Sg      2011/07/14 07:00:04.3  -1.4                          T             1869.0  .22 Ml 4.9 Md 4.2  4721456
SGMF  002.27 212.7 m E Pn      2011/07/14 06:59:46.4   1.5                          T   001.0                                4721106
SGMF  002.27 212.7 m E Sn      2011/07/14 07:00:11.1  -0.1                          T                                        4723075
SGMF  002.27 212.7 m E Sg      2011/07/14 07:00:20.6   0.1                          T   001.0      539.7  .46 Ml 4.3 Md 4.5  4721107
ROSF  002.48 223.2 m E Pn      2011/07/14 06:59:49.5   1.6                          T   001.0                                4721104
ROSF  002.48 223.2 m E Pg      2011/07/14 06:59:55.3   0.0                          T                                        4723117
ROSF  002.48 223.2 m E Sn      2011/07/14 07:00:15.7  -0.7                          T                                        4723074
ROSF  002.48 223.2 m E Sg      2011/07/14 07:00:27.2  -0.1                          T   001.0      272.8  .22 Ml 4.4         4721105
QUIF  002.77 216.3 m E Pn      2011/07/14 06:59:53.2   1.4                          T   001.0                                4721102
QUIF  002.77 216.3 m E Pg      2011/07/14 07:00:00.1  -0.4                          T                                        4723116
QUIF  002.77 216.3 m E Sn      2011/07/14 07:00:22.6  -0.7                          T                                        4723076
QUIF  002.77 216.3 m E Sg      2011/07/14 07:00:35.4  -0.8                          T   001.0      303.5  .29 Ml 4.4         4721103
BAIF  003.18 090.2 m E P       2011/07/14 06:59:59.2  -1.2                          T   001.0                                4721090
BAIF  003.18 090.2 m E Pg      2011/07/14 07:00:07.4  -0.7                          T                                        4721462
BAIF  003.18 090.2 m E Sn      2011/07/14 07:00:32.7  -0.4                          T              153.2  .24 Ml 4.3         4721461
BAIF  003.18 090.2 m E Sg      2011/07/14 07:00:47.0  -2.0                          T              317.3  .24 Ml 4.6 Md 4.3  4721460
MFF   003.60 173.6 m E Pn      2011/07/14 07:00:02.7  -0.4                          T   001.0                                4721079
MFF   003.60 173.6 m E Pg      2011/07/14 07:00:15.8   0.0                          T                                        4723113
MFF   003.60 173.6 m E Sn      2011/07/14 07:00:41.6  -1.5                          T   001.0                                4721080
MFF   003.60 173.6 m E Sg      2011/07/14 07:01:00.9  -1.1                          T   001.0      267.1  .24 Ml 4.8         4721081
GIVF  003.57 089.0 m E P       2011/07/14 07:00:04.8  -1.2                          T                                        4721470
GIVF  003.57 089.0 m E Pg      2011/07/14 07:00:15.3   0.0                          T                                        4723129
GIVF  003.57 089.0 m E Sn      2011/07/14 07:00:42.3  -0.1                          T              307.6  .22 Ml 4.7         4723086
GIVF  003.57 089.0 m E Sg      2011/07/14 07:01:00.5  -0.7                          T              561.5  .40 Ml 4.7         4723087
HYF   003.66 141.3 m E Pn      2011/07/14 07:00:05.7   1.7                          T                                        4721466
HYF   003.66 141.3 m E Pg      2011/07/14 07:00:17.0   0.0                          T                                        4723120
HYF   003.66 141.3 m E Sg      2011/07/14 07:01:04.5   0.4                          T                                        4723095
MEZF  004.13 111.7 m E Pn      2011/07/14 07:00:11.8   1.5 296.4  0.4               T   001.0                                4721098
MEZF  004.13 111.7 m E Pg      2011/07/14 07:00:24.9  -0.8 291.3  -4.7              T                                        4723126
MEZF  004.13 111.7 m E Sn      2011/07/14 07:00:54.6  -1.2 292.1  -3.9              T               53.8  .15 Ml 4.2         4723085
MEZF  004.13 111.7 m E Sg      2011/07/14 07:01:18.4  -0.4                          T              558.9  .34 Ml 4.9         4723089
LOR   004.20 132.0 m E Pn      2011/07/14 07:00:11.8   0.5 318.1  2.6               T   001.0                                4721075
LOR   004.20 132.0 m E Pg      2011/07/14 07:00:26.6  -0.4 316.3  0.8               T                                        4723131
LOR   004.20 132.0 m E Sn      2011/07/14 07:00:56.1  -1.5 313.7  -1.8              T   001.0      147.0  .22 Ml 4.5         4721076
LOR   004.20 132.0 m E Sg      2011/07/14 07:01:20.6  -0.4 307.9  -7.5              T              285.5  .25 Ml 4.8         4721118
SSF   004.19 136.4 m E Pn      2011/07/14 07:00:11.9   0.7                          T   001.0                                4721086
SSF   004.19 136.4 m E Pg      2011/07/14 07:00:26.9   0.1                          T                                        4724882
SSF   004.19 136.4 m E Sn      2011/07/14 07:00:56.2  -1.2                          T   001.0       75.2  .21 Ml 4.3         4721087
SSF   004.19 136.4 m E Sg      2011/07/14 07:01:19.8  -0.8                          T              501.3  .37 Ml 4.9         4721117
SFTF  004.26 115.3 m E Pn      2011/07/14 07:00:13.2   1.0 296.8  -2.9              T                                        4721468
SFTF  004.26 115.3 m E Pg      2011/07/14 07:00:27.9  -0.2 298.8  -0.9              T                                        4723125
SFTF  004.26 115.3 m E Sn      2011/07/14 07:00:58.7  -0.3                          T              102.2  .20 Ml 4.4         4723084
SFTF  004.26 115.3 m E Sg      2011/07/14 07:01:22.7  -0.2                          T              343.9  .25 Ml 4.8         4723090
TCF   004.36 152.1 m E Pn      2011/07/14 07:00:13.3  -0.2                          T   001.0                                4721088
TCF   004.36 152.1 m E Pg      2011/07/14 07:00:29.7  -0.2                          T                                        4724881
TCF   004.36 152.1 m E Sn      2011/07/14 07:01:00.8  -0.5                          T               92.4  .24 Ml 4.4         4723130
TCF   004.36 152.1 m E Sg      2011/07/14 07:01:23.6  -2.2                          T   001.0      359.2  .41 Ml 4.7         4721089
BGF   004.33 145.3 m E Pn      2011/07/14 07:00:13.7   0.6                          T                                        4721465
BGF   004.33 145.3 m E Pg      2011/07/14 07:00:29.1  -0.3                          T                                        4723119
BGF   004.33 145.3 m E Sn      2011/07/14 07:01:00.4  -0.3                          T   001.0     1037.9  .32 Ml 5.2         4721057
BGF   004.33 145.3 m E Sg      2011/07/14 07:01:24.3  -0.6                          T             1365.5  .36 Ml 5.3         4723096
AVF   004.34 139.7 m E Pn      2011/07/14 07:00:13.7   0.6                          T   001.0                                4721055
AVF   004.34 139.7 m E Sn      2011/07/14 07:00:59.6  -1.2                          T                                        4723122
AVF   004.34 139.7 m E Sg      2011/07/14 07:01:24.5  -0.6                          T              256.9  .43 Ml 4.5         4723093
PAGF  004.52 108.6 m E Pn      2011/07/14 07:00:16.6   1.0 290.9  -2.6              T                                        4721469
PAGF  004.52 108.6 m E Pg      2011/07/14 07:00:33.0   0.2 288.4  -5.0              T                                        4723127
PAGF  004.52 108.6 m E Sn      2011/07/14 07:01:04.6  -0.5 280.3  -13.2             T                                        4721463
PAGF  004.52 108.6 m E Sg      2011/07/14 07:01:30.2  -0.6                          T               67.3  .33 Ml 4.1         4723088
SMF   004.66 137.5 m E Pn      2011/07/14 07:00:17.9   0.3                          T                                        4721467
SMF   004.66 137.5 m E Pg      2011/07/14 07:00:34.8  -0.6                          T                                        4723121
SMF   004.66 137.5 m E Sn      2011/07/14 07:01:06.0  -2.6                          T   001.0       85.6  .24 Ml 4.3         4721085
SMF   004.66 137.5 m E Sg      2011/07/14 07:01:35.1  -0.1                          T              334.0  .32 Ml 4.8         4723094
RJF   005.10 161.9 m E Pn      2011/07/14 07:00:23.0  -0.6                          T   001.0                                4721054
RJF   005.10 161.9 m E Sn      2011/07/14 07:01:16.9  -2.2                          T              125.3  .26 Ml 4.2         4721455
RJF   005.10 161.9 m E Sg      2011/07/14 07:01:48.7  -0.4                          T              257.3  .37 Ml 4.4         4723098
HAU   005.13 112.3 m E Pn      2011/07/14 07:00:24.3   0.3                          T   001.0                                4721066
HAU   005.13 112.3 m E Pg      2011/07/14 07:00:44.2   0.1                          T                                        4721457
HAU   005.13 112.3 m E Sn      2011/07/14 07:01:18.9  -0.9                          T   001.0      176.9  .28 Ml 4.5         4721067
HAU   005.13 112.3 m E Sg      2011/07/14 07:01:49.3  -0.6                          T              402.8  .36 Ml 4.7         4723091
LFF   005.33 168.7 m E Pn      2011/07/14 07:00:26.9   0.2                          T   001.0                                4721071
LFF   005.33 168.7 m E Sn      2011/07/14 07:01:22.7  -1.8                          T   001.0      105.0  .30 Ml 4.3         4721072
LFF   005.33 168.7 m E Sg      2011/07/14 07:01:56.0  -0.1                          T   001.0      462.5  .55 Ml 4.7         4721073
HINF  005.52 112.4 m E Pn      2011/07/14 07:00:29.6   0.3                          T   001.0                                4721096
HINF  005.52 112.4 m E Pg      2011/07/14 07:00:51.4   0.1                          T                                        4723124
HINF  005.52 112.4 m E Sn      2011/07/14 07:01:27.5  -1.6                          T                                        4723083
HINF  005.52 112.4 m E Sg      2011/07/14 07:02:01.9  -0.2                          T   001.0      165.4  .27 Ml 4.8         4721097
CDF   005.53 105.6 m E Pn      2011/07/14 07:00:30.1   0.7                          T   001.0                                4721060
CDF   005.53 105.6 m E Pg      2011/07/14 07:00:50.8  -0.6                          T                                        4723128
CDF   005.53 105.6 m E Sn      2011/07/14 07:01:29.5   0.2                          T                                        4721459
CDF   005.53 105.6 m E Sg      2011/07/14 07:02:01.6  -0.7                          T              170.4  .36 Ml 4.8         4721458
CAF   005.58 159.2 m E Pn      2011/07/14 07:00:30.2   0.1                          T   001.0                                4721058
CAF   005.58 159.2 m E Sn      2011/07/14 07:01:29.3  -1.2                          T   001.0       92.7  .28 Ml 4.5         4721059
CAF   005.58 159.2 m E Sg      2011/07/14 07:02:04.1   0.2                          T              288.7  .54 Ml 4.7         4723099
CABF  005.77 125.6 m E Pn      2011/07/14 07:00:33.6   0.8                          T   001.0                                4721091
CABF  005.77 125.6 m E Pg      2011/07/14 07:00:55.9  -0.1                          T                                        4723123
CABF  005.77 125.6 m E Sn      2011/07/14 07:01:35.3   0.1                          T   001.0       65.1  .32 Ml 4.4         4721092
CABF  005.77 125.6 m E Sg      2011/07/14 07:02:09.8  -0.1                          T              498.1  .62 Ml 4.9         4723092
VIVF  006.46 143.5 m E Pn      2011/07/14 07:00:42.7   0.6                          T   001.0                                4721110
VIVF  006.46 143.5 m E Sn      2011/07/14 07:01:48.3  -3.1                          T   001.0       32.1  .28 Ml 4.2         4721111
VIVF  006.46 143.5 m E Sg      2011/07/14 07:02:31.6   0.3                          T              149.5  .52 Ml 4.6         4721454
LASF  006.85 151.1 m E Pn      2011/07/14 07:00:48.3   0.8                          T   001.0                                4721068
LASF  006.85 151.1 m E Sg      2011/07/14 07:02:43.5  -0.2                          T              137.3  .66 Ml 4.5         4723104
ORIF  006.90 137.1 m E Pn      2011/07/14 07:00:48.9   0.7                          T   001.0                                4721101
ORIF  006.90 137.1 m E Sn      2011/07/14 07:02:01.1  -1.0                          T               35.8  .29 Ml 4.3         4723080
ORIF  006.90 137.1 m E Sg      2011/07/14 07:02:45.0  -0.2                          T              143.0  .74 Ml 4.5         4723106
LPL   006.85 130.0 m E Pn      2011/07/14 07:00:49.0   1.4                          T   001.0                                4721077
LPL   006.85 130.0 m E Sn      2011/07/14 07:02:00.6  -0.4                          T   001.0       46.8  .34 Ml 4.4         4721078
LPL   006.85 130.0 m E Sg      2011/07/14 07:02:43.6  -0.1                          T               85.0  .48 Ml 4.5         4723107
SJPF  007.07 183.0 m E Pn      2011/07/14 07:00:49.3  -1.1                          T   001.0                                4721108
SJPF  007.07 183.0 m E Sn      2011/07/14 07:02:02.3  -3.9                          T   001.0       20.4  .29 Ml 4.1         4721109
SJPF  007.07 183.0 m E Sg      2011/07/14 07:02:50.6   0.2                          T              170.0  .88 Ml 4.6         4723100
LPG   006.87 130.1 m E Pn      2011/07/14 07:00:49.4   1.4                          T                                        4721113
LPG   006.87 130.1 m E Sn      2011/07/14 07:02:01.3  -0.4                          T               60.1  .38 Ml 4.4         4723079
LPG   006.87 130.1 m E Sg      2011/07/14 07:02:43.2  -1.4                          T              127.0  .72 Ml 4.5         4723108
MTLF  007.13 162.4 m E Pn      2011/07/14 07:00:50.8  -0.4                          T   001.0                                4721099
MTLF  007.13 162.4 m E Sn      2011/07/14 07:02:04.7  -2.8                          T   001.0       28.3  .38 Ml 4.1         4721100
MTLF  007.13 162.4 m E Sg      2011/07/14 07:02:52.6   0.4                          T              126.4  .72 Ml 4.5         4723103
EPF   007.18 173.7 m E Pn      2011/07/14 07:00:50.9  -1.1                          T                                        4721115
EPF   007.18 173.7 m E Sn      2011/07/14 07:02:05.2  -3.6                          T   001.0       30.3  .24 Ml 4.4         4721061
