EVENT     290112
    Date      Time       Latitude Longitude    Depth    Ndef Nsta Gap    Mag1  N    Mag2  N    Mag3  N   Author         ID
       rms   OT_Error      Smajor Sminor Az        Err   mdist  Mdist     Err        Err        Err      Quality

2013/01/11 19:51:05.7     45.2948    3.6511      2.0      83   24 045  Ml 1.9 25  Md 2.0  2              bulletin    290212
                                                                                                         _ldg
      0.29   +-  0.03        .6     .6  125.49 +-  0.0    0.23   4.13   +-0.3      +-0.1                 m i ke

FRANCE
Sta     Dist  EvAz     Phase      Date       Time     TRes  Azim  AzRes  Slow  SRes Def   SNR       Amp   Per   Mag1   Mag2       ID
VIVF  000.85 120.9 m E Pg      2013/01/11 19:51:21.3  -0.4                          T   001.0                                5164602
VIVF  000.85 120.9 m E Pn      2013/01/11 19:51:22.9  -0.2                          T                                        5164622
VIVF  000.85 120.9 m E Sg      2013/01/11 19:51:33.2   0.5                          T   001.0        9.1  .24        Md 2.1  5164603
CAF   001.18 252.4 m E Pg      2013/01/11 19:51:28.2   0.3                          T   001.0                                5164580
CAF   001.18 252.4 m E Sg      2013/01/11 19:51:42.9  -0.3                          T   001.0          4  .20 Ml 2.2         5164581
LASF  001.23 173.1 m E Pg      2013/01/11 19:51:28.4  -0.2                          T   001.0                                5164584
LASF  001.23 173.1 m E Sn      2013/01/11 19:51:44.3  -0.1                          T   001.0        4.5  .24 Ml 2.2         5164585
BGF   001.38 336.3 m E Pn      2013/01/11 19:51:30.5   0.2                          T                                        5164623
BGF   001.38 336.3 m E Pg      2013/01/11 19:51:31.7   0.2                          T                                        5164606
BGF   001.38 336.3 m E Sn      2013/01/11 19:51:47.9  -0.2                          T                                        5164608
BGF   001.38 336.3 m E Sg      2013/01/11 19:51:49.7   0.3                          T   001.0       11.1  .24 Ml 2.6         5164579
TCF   001.42 315.1 m E Pn      2013/01/11 19:51:30.6  -0.2                          T                                        5164604
TCF   001.42 315.1 m E Pg      2013/01/11 19:51:32.4   0.3                          T                                        5164605
TCF   001.42 315.1 m E Sn      2013/01/11 19:51:48.8  -0.1                          T                                        5164621
TCF   001.42 315.1 m E Sg      2013/01/11 19:51:50.4  -0.1                          T   001.0        4.1  .36 Ml 2.1         5164595
SMF   001.36 005.5 m E Pg      2013/01/11 19:51:31.0   0.0                          T   001.0                                5164590
SMF   001.36 005.5 m E Sg      2013/01/11 19:51:48.7   0.1                          T   001.0        4.5  .24 Ml 2.2         5164592
RJF   001.51 271.1 m E Pn      2013/01/11 19:51:31.5  -0.5                          T                                        5164610
RJF   001.51 271.1 m E Pg      2013/01/11 19:51:33.9   0.2                          T   001.0                                5164573
RJF   001.51 271.1 m E Sn      2013/01/11 19:51:50.7  -0.4                          T                                        5164609
RJF   001.51 271.1 m E Sg      2013/01/11 19:51:53.0  -0.3                          T   001.0          6  .28 Ml 2.0         5164574
AVF   001.51 352.2 m E Pn      2013/01/11 19:51:32.2   0.1                          T                                        5164634
AVF   001.51 352.2 m E Pg      2013/01/11 19:51:33.7  -0.1                          T   001.0                                5164575
AVF   001.51 352.2 m E Sn      2013/01/11 19:51:50.4  -0.7                          T   001.0        3.6  .36 Ml 2.0         5164576
AVF   001.51 352.2 m E Sg      2013/01/11 19:51:53.2  -0.1                          T                  1  .14 Ml 1.9         5164607
ORIF  001.62 102.6 m E Pn      2013/01/11 19:51:34.0   0.3                          T                                        5164620
ORIF  001.62 102.6 m E Pg      2013/01/11 19:51:36.1   0.1                          T                                        5164616
ORIF  001.62 102.6 m E Sn      2013/01/11 19:51:54.0   0.1                          T                                        5164619
ORIF  001.62 102.6 m E Sg      2013/01/11 19:51:56.4  -0.5                          T                 .3  .18 Ml 1.4         5164615
SSF   001.77 356.8 m E Pn      2013/01/11 19:51:35.3  -0.3                          T                                        5164637
SSF   001.77 356.8 m E Pg      2013/01/11 19:51:38.4  -0.2                          T   001.0                                5164593
SSF   001.77 356.8 m E Sn      2013/01/11 19:51:57.1  -0.2                          T                                        5164638
SSF   001.77 356.8 m E Sg      2013/01/11 19:52:01.0  -0.5                          T   001.0        2.4  .32 Ml 2.1         5164594
SMRF  001.90 133.1 m E Pn      2013/01/11 19:51:37.9   0.5                          T                                        5164625
SMRF  001.90 133.1 m E Sn      2013/01/11 19:52:00.1  -0.5                          T                                        5164624
LOR   001.98 004.1 m E Pn      2013/01/11 19:51:38.1  -0.4 181.6  -2.6              T                                        5164642
LOR   001.98 004.1 m E Pg      2013/01/11 19:51:42.7   0.2                          T                                        5164641
LOR   001.98 004.1 m E Sn      2013/01/11 19:52:03.2   0.8                          T                                        5164639
LOR   001.98 004.1 m E Sg      2013/01/11 19:52:08.6   0.6 185.8  1.5               T                1.2  .20 Ml 2.0         5164640
LFF   002.09 261.2 m E Pn      2013/01/11 19:51:39.9   0.0                          T                                        5164614
LFF   002.09 261.2 m E Pg      2013/01/11 19:51:44.6   0.1                          T                                        5164613
LFF   002.09 261.2 m E Sn      2013/01/11 19:52:05.2   0.2                          T                                        5164612
LFF   002.09 261.2 m E Sg      2013/01/11 19:52:11.3  -0.2                          T                1.9  .28 Ml 1.9         5164611
LPL   002.18 083.1 m E Pn      2013/01/11 19:51:41.3  -0.2                          T                                        5164631
LPL   002.18 083.1 m E Pg      2013/01/11 19:51:46.8   0.3                          T                                        5164630
LPL   002.18 083.1 m E Sn      2013/01/11 19:52:07.3  -0.2                          T                                        5164629
LPL   002.18 083.1 m E Sg      2013/01/11 19:52:14.6   0.0                          T   001.0         .9  .23 Ml 1.9         5164589
MTLF  002.21 208.3 m E Pn      2013/01/11 19:51:41.6   0.1                          T                                        5164618
MTLF  002.21 208.3 m E Pg      2013/01/11 19:51:46.8   0.1                          T   001.0                                5164599
MTLF  002.21 208.3 m E Sn      2013/01/11 19:52:07.4  -0.4                          T                                        5164617
MTLF  002.21 208.3 m E Sg      2013/01/11 19:52:14.7  -0.4                          T   001.0          3  .64 Ml 1.9         5164600
LPG   002.19 083.6 m E Pn      2013/01/11 19:51:41.8   0.0                          T                                        5164628
LPG   002.19 083.6 m E Pg      2013/01/11 19:51:46.7  -0.1                          T                                        5164627
LPG   002.19 083.6 m E Sn      2013/01/11 19:52:07.6  -0.2                          T                                        5164626
LPG   002.19 083.6 m E Sg      2013/01/11 19:52:15.1   0.1                          T   001.0        3.2  .56 Ml 2.0         5164588
MBDF  002.28 103.3 m E Pn      2013/01/11 19:51:43.1   0.4                          T                                        5164633
MBDF  002.28 103.3 m E Sn      2013/01/11 19:52:10.2   0.4                          T                 .2  .22 Ml 1.2         5164632










MFF   002.95 297.6 m E Pn      2013/01/11 19:51:51.2  -0.5                          T                                        5164636
MFF   002.95 297.6 m E Sn      2013/01/11 19:52:25.9   0.3                          T                 .2  .30 Ml 1.4         5164635
EPF   003.29 227.6 m E Pn      2013/01/11 19:51:56.1  -0.2                          T                                        5164655
EPF   003.29 227.6 m E Sg      2013/01/11 19:52:49.2   0.3                          T                 .4  .25 Ml 1.6         5164654
PAGF  003.56 022.8 m E Pn      2013/01/11 19:52:00.6   0.7                          T                                        5164662
PAGF  003.56 022.8 m E Pg      2013/01/11 19:52:11.4  -0.1                          T                                        5164661
PAGF  003.56 022.8 m E Sn      2013/01/11 19:52:40.0  -0.1                          T                                        5164660
PAGF  003.56 022.8 m E Sg      2013/01/11 19:52:57.0  -0.3                          T                 .2  .17 Ml 1.6         5164659
ETSF  003.86 233.2 m E Pn      2013/01/11 19:52:04.3   0.1                          T                                        5164653
CDF   003.99 037.3 m E Pn      2013/01/11 19:52:05.7  -0.2                          T                                        5164665
CDF   003.99 037.3 m E Pg      2013/01/11 19:52:19.3  -0.3                          T                                        5164664
CDF   003.99 037.3 m E Sn      2013/01/11 19:52:50.5   0.0                          T                 .3  .18 Ml 2.0         5164663
SJPF  004.13 239.8 m E Pn      2013/01/11 19:52:08.1   0.4                          T                                        5164658
SJPF  004.13 239.8 m E Pg      2013/01/11 19:52:21.8  -0.3                          T                                        5164657
SJPF  004.13 239.8 m E Sn      2013/01/11 19:52:53.7  -0.1                          T                 .2  .18 Ml 1.6         5164656
HYF   002.10 340.8 m E Sg      2013/01/11 19:52:11.8   0.2                          T                                        5183133

.
EVENT     290113
    Date      Time       Latitude Longitude    Depth    Ndef Nsta Gap    Mag1  N    Mag2  N    Mag3  N   Author         ID
       rms   OT_Error      Smajor Sminor Az        Err   mdist  Mdist     Err        Err        Err      Quality

2013/01/11 20:11:50.6     37.3079  -12.7904     20.0 f    65    7 292  Ml 3.3  3                         bulletin    290213
                                                                                                         _ldg
      0.85   +-  0.33       6.2    4.8   57.71 +-  0.0    3.17  15.12   +-0.2                            m i ke

NORTH ATLANTIC OCEAN
Sta     Dist  EvAz     Phase      Date       Time     TRes  Azim  AzRes  Slow  SRes Def   SNR       Amp   Per   Mag1   Mag2       ID
SJPF  010.57 053.2 m E Pn      2013/01/11 20:14:18.6   0.3                          T                                        5164739
SJPF  010.57 053.2 m E Sn      2013/01/11 20:16:09.0  -0.3                          T                1.7  .33 Ml 3.5         5164736
ETSF  010.90 055.4 m E Pn      2013/01/11 20:14:23.4   0.5                          T                                        5164738
ETSF  010.90 055.4 m E Sn      2013/01/11 20:16:17.3   0.0                          T                 .6  .33 Ml 3.1         5164735
EPF   011.55 056.3 m E Pn      2013/01/11 20:14:32.4   0.6                          T                                        5164737
EPF   011.55 056.3 m E Sn      2013/01/11 20:16:32.8   0.0                          T                 .6  .32 Ml 3.2         5164734
MTLF  012.93 057.6 m E Pn      2013/01/11 20:14:50.6   0.1                          T                                        5183140
MFF   013.21 041.4 m E Pn      2013/01/11 20:14:54.2   0.0                          T                                        5183141
LASF  014.31 056.6 m E Pn      2013/01/11 20:15:08.0  -1.3                          T                                        5164743
HYF   015.12 044.0 m E Pn      2013/01/11 20:15:20.5   0.2                          T                                        5183142

.
EVENT     290188
    Date      Time       Latitude Longitude    Depth    Ndef Nsta Gap    Mag1  N    Mag2  N    Mag3  N   Author         ID
       rms   OT_Error      Smajor Sminor Az        Err   mdist  Mdist     Err        Err        Err      Quality

2013/01/11 20:18:10.0     44.3421    7.2913     12.0 f    33    8 106  Ml 1.3  5  Md 1.5  2              bulletin    290288
                                                                                                         _ldg
      0.23   +-  0.04        .9     .6   58.00 +-  0.0    0.10   1.29   +-0.4      +-0.2                 m i ke

NORTHERN ITALY
Sta     Dist  EvAz     Phase      Date       Time     TRes  Azim  AzRes  Slow  SRes Def   SNR       Amp   Per   Mag1   Mag2       ID
SBF   000.49 167.7 m E Pg      2013/01/11 20:18:19.6  -0.1                          T                                        5183152
SBF   000.49 167.7 m E Sg      2013/01/11 20:18:26.4   0.1                          T                3.3  .20        Md 1.4  5183151
MBDF  000.54 316.2 m E Pg      2013/01/11 20:18:20.6   0.0                          T                                        5183157
MBDF  000.54 316.2 m E Sg      2013/01/11 20:18:27.8   0.0                          T                3.7  .29        Md 1.6  5183145
FRF   000.91 211.0 m E Pg      2013/01/11 20:18:27.2   0.0                          T                                        5183154
FRF   000.91 211.0 m E Sg      2013/01/11 20:18:39.3   0.1                          T                 .9  .13 Ml 1.6         5183149
LMR   001.16 209.6 m E Pg      2013/01/11 20:18:31.8   0.1                          T                                        5183153
LMR   001.16 209.6 m E Sg      2013/01/11 20:18:46.5  -0.3                          T                2.6  .29 Ml 1.9         5183150
ORIF  001.16 300.2 m E Pg      2013/01/11 20:18:31.9   0.0                          T                                        5183156
ORIF  001.16 300.2 m E Sg      2013/01/11 20:18:47.0   0.0                          T                 .3  .25 Ml 1.0         5183146
LPL   001.24 341.5 m E Pg      2013/01/11 20:18:33.5   0.0                          T                                        5183155
LPG   001.22 341.8 m E Sg      2013/01/11 20:18:49.0  -0.1                          T                 .3  .20 Ml 1.1         5183147
SMRF  001.29 254.1 m E Sg      2013/01/11 20:18:51.1   0.2                          T                 .3  .27 Ml 1           5183148

.
EVENT     290116
    Date      Time       Latitude Longitude    Depth    Ndef Nsta Gap    Mag1  N    Mag2  N    Mag3  N   Author         ID
       rms   OT_Error      Smajor Sminor Az        Err   mdist  Mdist     Err        Err        Err      Quality

2013/01/11 23:19:29.4     43.0728    -.2316      2.0       7    4 167  Ml 0.7  1  Md 1.3  2              bulletin    290216
                                                                                                         _ldg
      0.17   +-  0.07       3.4    1.0  173.87 +-  0.0    0.30   1.81   +-         +-0.2                 m i ke

PYRENEES
Sta     Dist  EvAz     Phase      Date       Time     TRes  Azim  AzRes  Slow  SRes Def   SNR       Amp   Per   Mag1   Mag2       ID
ETSF  000.30 234.2 m E Pg      2013/01/11 23:19:35.3   0.0                          T                                        5164824
ETSF  000.30 234.2 m E Sg      2013/01/11 23:19:39.0  -0.3                          T                3.2  .19        Md 1.4  5164823
EPF   000.42 095.6 m E Pg      2013/01/11 23:19:37.3  -0.2                          T                                        5164826
EPF   000.42 095.6 m E Sg      2013/01/11 23:19:43.1  -0.1                          T                  1  .21        Md 1.2  5164821
SJPF  000.73 273.5 m E Pg      2013/01/11 23:19:43.1   0.0                          T                                        5164825
SJPF  000.73 273.5 m E Sg      2013/01/11 23:19:52.4  -0.3                          T                 .4  .18                5164822
MTLF  001.81 080.6 m E Sg      2013/01/11 23:20:26.5   0.0                          T                 .1  .15 Ml  .7         5183163

.
EVENT     290117
    Date      Time       Latitude Longitude    Depth    Ndef Nsta Gap    Mag1  N    Mag2  N    Mag3  N   Author         ID
       rms   OT_Error      Smajor Sminor Az        Err   mdist  Mdist     Err        Err        Err      Quality

2013/01/11 23:58:03.2     42.6837     .5485      5.0 f    15    4 115  Ml 1.4  2  Md 1.5  2              bulletin    290217
                                                                                                         _ldg
      0.26   +-  0.05       1.3     .9   33.18 +-  0.0    0.38   1.39   +-0.3      +-0.3                 m i ke

PYRENEES
Sta     Dist  EvAz     Phase      Date       Time     TRes  Azim  AzRes  Slow  SRes Def   SNR       Amp   Per   Mag1   Mag2       ID
EPF   000.38 336.2 m E Pg      2013/01/11 23:58:10.6   0.0                          T                                        5164830
EPF   000.38 336.2 m E Sg      2013/01/11 23:58:15.7   0.1                          T                2.5  .20        Md 1.7  5164829
ETSF  000.84 285.1 m E Pg      2013/01/11 23:58:19.0  -0.1                          T                                        5164832
ETSF  000.84 285.1 m E Sg      2013/01/11 23:58:30.2   0.1                          T                 .7  .22        Md 1.3  5164831
SJPF  001.37 288.8 m E Pg      2013/01/11 23:58:28.8   0.1                          T                                        5183183
SJPF  001.37 288.8 m E Sg      2013/01/11 23:58:46.6   0.1                          T                 .3  .19 Ml 1.2         5164833
MTLF  001.39 061.2 m E Pg      2013/01/11 23:58:29.3   0.3                          T                                        5183182
MTLF  001.39 061.2 m E Sg      2013/01/11 23:58:47.3   0.2                          T                  1  .24 Ml 1.6         5164835

.
