EVENT     279101
    Date      Time       Latitude Longitude    Depth    Ndef Nsta Gap    Mag1  N    Mag2  N    Mag3  N   Author         ID
       rms   OT_Error      Smajor Sminor Az        Err   mdist  Mdist     Err        Err        Err      Quality

2012/07/04 16:25:46.0     40.9972    1.3345      5.0 f    58    5 081  Ml 2.5  5                         bulletin    279201
                                                                                                         _ldg
      0.72   +-  0.12       2.2    1.7  145.18 +-  0.0    0.28   3.96   +-0.2                            m i ke

BALEARIC ISLANDS, SPAIN
Sta     Dist  EvAz     Phase      Date       Time     TRes  Azim  AzRes  Slow  SRes Def   SNR       Amp   Per   Mag1   Mag2       ID
EPF   002.16 340.3 m E Pg      2012/07/04 16:26:26.6   0.4                          T                                        5019273
EPF   002.16 340.3 m E Sg      2012/07/04 16:26:53.4  -0.7                          T                6.1  .22 Ml 2.7         5019272
ETSF  002.37 324.0 m E Pg      2012/07/04 16:26:29.5  -0.5                          T                                        5019275
ETSF  002.37 324.0 m E Sg      2012/07/04 16:26:59.2  -1.3                          T                5.1  .31 Ml 2.5         5019274
MTLF  002.43 015.4 m E Pg      2012/07/04 16:26:31.0  -0.2                          T                                        5019271
MTLF  002.43 015.4 m E Sg      2012/07/04 16:27:02.6   0.1                          T                2.2  .35 Ml 2.1         5019270
SJPF  002.85 318.8 m E Pg      2012/07/04 16:26:39.4   0.5                          T                                        5019269
SJPF  002.85 318.8 m E Sg      2012/07/04 16:27:15.6   0.2                          T                4.4  .27 Ml 2.6         5019268
LFF   003.96 353.9 m E Pn      2012/07/04 16:26:45.3  -0.1                          T                                        5019277
LFF   003.96 353.9 m E Sn      2012/07/04 16:27:28.6  -1.0                          T                4.8  .32 Ml 2.7         5019276

.
EVENT     279102
    Date      Time       Latitude Longitude    Depth    Ndef Nsta Gap    Mag1  N    Mag2  N    Mag3  N   Author         ID
       rms   OT_Error      Smajor Sminor Az        Err   mdist  Mdist     Err        Err        Err      Quality

2012/07/04 16:29:09.0     40.9881    1.3377      5.0 f    32    5 196  Ml 1.8  6                         bulletin    279202
                                                                                                         _ldg
      0.46   +-  0.16       2.8    1.5  142.90 +-  0.0    0.41   3.97   +-0.5                            m i ke

BALEARIC ISLANDS, SPAIN
Sta     Dist  EvAz     Phase      Date       Time     TRes  Azim  AzRes  Slow  SRes Def   SNR       Amp   Per   Mag1   Mag2       ID
EPF   002.17 340.3 m E Pg      2012/07/04 16:29:49.4  -0.1                          T                                        5019289
EPF   002.17 340.3 m E Sg      2012/07/04 16:30:18.0   0.6                          T                 .8  .18 Ml 1.9         5019288
ETSF  002.38 324.1 m E Pg      2012/07/04 16:29:53.1  -0.2                          T                                        5019285
ETSF  002.38 324.1 m E Sg      2012/07/04 16:30:23.8   0.0                          T                 .4  .18 Ml 1.6         5019284
MTLF  002.44 015.3 m E Pg      2012/07/04 16:29:54.2  -0.1                          T                                        5019287
MTLF  002.44 015.3 m E Sg      2012/07/04 16:30:25.6  -0.1                          T                 .5  .26 Ml 1.6         5019286
SJPF  002.86 318.9 m E Pg      2012/07/04 16:30:01.4  -0.6                          T                                        5019281
SJPF  002.86 318.9 m E Sg      2012/07/04 16:30:38.2  -0.4                          T                 .5  .21 Ml 1.7         5019280
LFF   003.97 353.9 m E Pn      2012/07/04 16:30:08.5   0.0                          T                                        5019282
LFF   003.97 353.9 m E Sn      2012/07/04 16:30:53.9   1.1                          T                4.8  .27 Ml 2.7         5019283

.
EVENT     279092
    Date      Time       Latitude Longitude    Depth    Ndef Nsta Gap    Mag1  N    Mag2  N    Mag3  N   Author         ID
       rms   OT_Error      Smajor Sminor Az        Err   mdist  Mdist     Err        Err        Err      Quality

2012/07/04 16:57:50.9     44.4629    6.6673      2.0      13    5 070  Ml 1.5  3  Md 1.5  1              bulletin    279192
                                                                                                         _ldg
      0.31   +-  0.09       2.0    1.6   45.70 +-  0.0    0.07   1.70   +-0.1      +-                    m i ke

FRANCE
Sta     Dist  EvAz     Phase      Date       Time     TRes  Azim  AzRes  Slow  SRes Def   SNR       Amp   Per   Mag1   Mag2       ID
MBDF  000.27 015.7 m E Pg      2012/07/04 16:57:56.8   0.3                          T                                        5018957
MBDF  000.27 015.7 m E Sg      2012/07/04 16:57:59.6  -0.5                          T                3.1  .27        Md 1.5  5018955
ORIF  000.72 309.3 m E Pg      2012/07/04 16:58:04.4  -0.2                          T                                        5018956
ORIF  000.72 309.3 m E Sg      2012/07/04 16:58:14.9   0.9                          T                1.3  .24                5018954
FRF   000.90 180.9 m E Sn      2012/07/04 16:58:21.8   0.0                          T                1.4  .22 Ml 1.6         5027372
SMRF  000.92 238.6 m E Sn      2012/07/04 16:58:22.1  -0.2                          T                1.3  .32 Ml 1.4         5027371
LMR   001.13 185.8 m E Sn      2012/07/04 16:58:27.2  -0.1                          T                 .7  .17 Ml 1.5         5027370

.
EVENT     279103
    Date      Time       Latitude Longitude    Depth    Ndef Nsta Gap    Mag1  N    Mag2  N    Mag3  N   Author         ID
       rms   OT_Error      Smajor Sminor Az        Err   mdist  Mdist     Err        Err        Err      Quality

2012/07/04 19:32:29.2     40.9910    1.3068      5.0 f    28    5 194  Ml 1.7  5                         bulletin    279203
                                                                                                         _ldg
      0.52   +-  0.17       3.2    1.8  157.44 +-  0.0    0.40   3.97   +-0.3                            m i ke

BALEARIC ISLANDS, SPAIN
Sta     Dist  EvAz     Phase      Date       Time     TRes  Azim  AzRes  Slow  SRes Def   SNR       Amp   Per   Mag1   Mag2       ID
EPF   002.16 340.8 m E Pn      2012/07/04 19:33:04.5   0.3                          T                                        5019299
EPF   002.16 340.8 m E Sn      2012/07/04 19:33:29.8   0.1                          T                1.6  .34 Ml 1.9         5019298
ETSF  002.36 324.5 m E Pn      2012/07/04 19:33:07.3   0.4                          T                                        5019297
ETSF  002.36 324.5 m E Sn      2012/07/04 19:33:34.5  -0.1                          T                 .3  .25 Ml 1.3         5019296
MTLF  002.44 015.8 m E Pn      2012/07/04 19:33:07.9   0.0                          T                                        5019295
MTLF  002.44 015.8 m E Sn      2012/07/04 19:33:35.0  -1.4                          T                 .7  .42 Ml 1.5         5019294
SJPF  002.84 319.2 m E Pn      2012/07/04 19:33:13.3   0.0                          T                                        5019293
SJPF  002.84 319.2 m E Sn      2012/07/04 19:33:46.1   0.2                          T                 .3  .23 Ml 1.5         5019292
LFF   003.97 354.2 m E Pn      2012/07/04 19:33:28.5  -0.1                          T                                        5019291
LFF   003.97 354.2 m E Sn      2012/07/04 19:34:11.9  -0.9                          T                1.6  .31 Ml 2.2         5019290

.
EVENT     279417
    Date      Time       Latitude Longitude    Depth    Ndef Nsta Gap    Mag1  N    Mag2  N    Mag3  N   Author         ID
       rms   OT_Error      Smajor Sminor Az        Err   mdist  Mdist     Err        Err        Err      Quality

2012/07/04 19:42:12.7     42.7849    1.2460      8.0 f    16    4 084  Ml 1.5  3  Md 1.7  1              bulletin    279517
                                                                                                         _ldg
      0.24   +-  0.06       1.0     .9   36.68 +-  0.0    0.18   2.30   +-0.2      +-                    m i ke

PYRENEES
Sta     Dist  EvAz     Phase      Date       Time     TRes  Azim  AzRes  Slow  SRes Def   SNR       Amp   Per   Mag1   Mag2       ID
EPF   000.71 290.5 m E Pg      2012/07/04 19:42:25.9  -0.4                          T                                        5027465
EPF   000.71 290.5 m E Sg      2012/07/04 19:42:35.5  -0.1                          T                1.3  .31        Md 1.7  5027466
MTLF  000.90 051.7 m E Pg      2012/07/04 19:42:29.8   0.0                          T                                        5027463
MTLF  000.90 051.7 m E Sg      2012/07/04 19:42:41.8   0.2                          T                 .8  .31 Ml 1.2         5027464
ETSF  001.33 275.5 m E Sg      2012/07/04 19:42:54.9  -0.1                          T                 .8  .19 Ml 1.6         5027462
LASF  002.30 055.0 m E Sg      2012/07/04 19:43:25.0   0.0                          T                 .8  .30 Ml 1.7         5027461

.
EVENT     279093
    Date      Time       Latitude Longitude    Depth    Ndef Nsta Gap    Mag1  N    Mag2  N    Mag3  N   Author         ID
       rms   OT_Error      Smajor Sminor Az        Err   mdist  Mdist     Err        Err        Err      Quality

2012/07/04 21:11:17.4     44.7127    6.6859      2.0     102   22 040  Ml 2.5 20  Md 2.6  3              bulletin    279193
                                                                                                         _ldg
      0.63   +-  0.05       1.4    1.0   54.97 +-  0.0    0.06   3.72   +-0.4      +-0.1                 m i ke

FRANCE
Sta     Dist  EvAz     Phase      Date       Time     TRes  Azim  AzRes  Slow  SRes Def   SNR       Amp   Per   Mag1   Mag2       ID
MBDF  000.06 076.9 m E Pg      2012/07/04 21:11:18.8  -0.4                          T                                        5019062
MBDF  000.06 076.9 m E Sg      2012/07/04 21:11:20.2   0.0                          T              500.9  .18        Md 2.6  5019048
ORIF  000.61 290.0 m E Pg      2012/07/04 21:11:27.5  -1.6                          T                                        5019061
ORIF  000.61 290.0 m E Sg      2012/07/04 21:11:35.0  -2.1                          T                                Md 2.5  5019049
LPG   000.79 003.4 m E Pg      2012/07/04 21:11:31.9  -0.8                          T                                        5019058
LPG   000.79 003.4 m E Sg      2012/07/04 21:11:42.8  -0.1                          T               44.7  .44                5019051
LPL   000.80 002.3 m E Pg      2012/07/04 21:11:32.2  -0.6                          T                                        5019060
LPL   000.80 002.3 m E Sg      2012/07/04 21:11:43.8   0.4                          T               92.3  .52        Md 2.7  5019050
SBF   001.01 147.4 m E Pg      2012/07/04 21:11:36.5   0.2                          T                                        5019055
SBF   001.01 147.4 m E Sg      2012/07/04 21:11:49.6   0.2                          T               49.3  .32 Ml 3.0         5019047
SMRF  001.09 227.6 m E Pg      2012/07/04 21:11:37.9   0.1                          T                                        5019057
FRF   001.15 181.4 m E Pg      2012/07/04 21:11:38.9  -0.1                          T                                        5019056
FRF   001.15 181.4 m E Sg      2012/07/04 21:11:54.5   0.6                          T               26.9  .22 Ml 3.0         5019052
VIVF  001.44 276.4 m E Pn      2012/07/04 21:11:43.1   0.3                          T                                        5019043
VIVF  001.44 276.4 m E Pg      2012/07/04 21:11:44.8   0.5                          T                                        5019059
VIVF  001.44 276.4 m E Sg      2012/07/04 21:12:03.4   0.4                          T               22.7  .32 Ml 2.9         5019044
LMR   001.38 185.3 m E Pg      2012/07/04 21:11:43.2   0.0                          T                                        5019054
LMR   001.38 185.3 m E Sg      2012/07/04 21:12:01.8   0.6                          T               20.3  .22 Ml 3.0         5019053
CABF  001.94 347.7 m E Pn      2012/07/04 21:11:50.2   0.4                          T                                        5019017
CABF  001.94 347.7 m E Pg      2012/07/04 21:11:54.1   0.4                          T                                        5019016
CABF  001.94 347.7 m E Sn      2012/07/04 21:12:13.4   0.0                          T                                        5019015
CABF  001.94 347.7 m E Sg      2012/07/04 21:12:20.3   1.6                          T               24.4  .78 Ml 2.7         5019014
LASF  002.13 253.6 m E Pn      2012/07/04 21:11:52.2   0.0                          T                                        5019042
LASF  002.13 253.6 m E Sn      2012/07/04 21:12:17.8   0.2                          T                1.2  .19 Ml 2.0         5019041
PGF   002.74 141.4 m E Pn      2012/07/04 21:12:01.1   0.4                          T                                        5019046
PGF   002.74 141.4 m E Sn      2012/07/04 21:12:33.2   0.8                          T                3.8  .31 Ml 2.7         5019045
SMF   002.78 315.1 m E Pn      2012/07/04 21:12:01.5   0.4                          T                                        5019032
SMF   002.78 315.1 m E Pg      2012/07/04 21:12:07.6  -1.4                          T                                        5019031
SMF   002.78 315.1 m E Sg      2012/07/04 21:12:42.9  -1.7                          T                9.3  .38 Ml 2.8         5019030
AVF   003.12 312.9 m E Pn      2012/07/04 21:12:06.5   0.8                          T                                        5019027
AVF   003.12 312.9 m E Pg      2012/07/04 21:12:15.2  -0.1                          T                                        5019026
AVF   003.12 312.9 m E Sn      2012/07/04 21:12:41.3  -0.1                          T                                        5019028
AVF   003.12 312.9 m E Sg      2012/07/04 21:12:54.1  -1.4                          T                4.9  .38 Ml 2.6         5019029
SSF   003.23 317.7 m E Pn      2012/07/04 21:12:07.3   0.1                          T                                        5019021
SSF   003.23 317.7 m E Pg      2012/07/04 21:12:17.3   0.0                          T                                        5019020
SSF   003.23 317.7 m E Sn      2012/07/04 21:12:44.2   0.1                          T                                        5019019
SSF   003.23 317.7 m E Sg      2012/07/04 21:12:58.2  -0.6                          T                5.2  .36 Ml 2.7         5019018
LOR   003.23 323.4 m E Pn      2012/07/04 21:12:08.4   1.2                          T                                        5019011
LOR   003.23 323.4 m E Pg      2012/07/04 21:12:17.1  -0.2 143.5  2.2               T                                        5019010
LOR   003.23 323.4 m E Sn      2012/07/04 21:12:44.2   0.2                          T                                        5019009
LOR   003.23 323.4 m E Sg      2012/07/04 21:12:57.1  -1.6                          T                3.8  .38 Ml 2.5         5019008
HAU   003.30 356.1 m E Pn      2012/07/04 21:12:08.5   0.3                          T                                        5018998
HAU   003.30 356.1 m E Pg      2012/07/04 21:12:18.0  -0.6                          T                                        5018997
HAU   003.30 356.1 m E Sn      2012/07/04 21:12:46.4   0.6                          T                7.4  .50 Ml 2.4         5018996
BGF   003.26 305.8 m E Pn      2012/07/04 21:12:09.1   1.4                          T                                        5019036
BGF   003.26 305.8 m E Pg      2012/07/04 21:12:18.0   0.1                          T                                        5019035
BGF   003.26 305.8 m E Sn      2012/07/04 21:12:45.0   0.2                          T                                        5019033
BGF   003.26 305.8 m E Sg      2012/07/04 21:13:00.0   0.1                          T               18.8  .52 Ml 3.0         5019034
CAF   003.30 275.3 m E Pn      2012/07/04 21:12:09.3   1.2                          T                                        5019038
CAF   003.30 275.3 m E Sn      2012/07/04 21:12:47.1   1.5                          T                 .6  .20 Ml 2.0         5019037
TCF   003.52 298.2 m E Pn      2012/07/04 21:12:11.1  -0.1                          T                                        5019025
TCF   003.52 298.2 m E Pg      2012/07/04 21:12:23.2   0.5                          T                                        5019024
TCF   003.52 298.2 m E Sn      2012/07/04 21:12:51.6   0.7                          T                                        5019023
TCF   003.52 298.2 m E Sg      2012/07/04 21:13:08.0   0.2                          T                7.6  .84 Ml 2.5         5019022
MTLF  003.50 248.5 m E Pn      2012/07/04 21:12:11.7   0.8                          T                                        5019040
MTLF  003.50 248.5 m E Sn      2012/07/04 21:12:51.1   0.6                          T                 .3  .21 Ml 1.6         5019039
CDF   003.72 006.1 m E Pn      2012/07/04 21:12:14.9   0.8                          T                                        5019013
CDF   003.72 006.1 m E Sn      2012/07/04 21:12:55.7  -0.2                          T                1.4  .23 Ml 2.5         5019012

.
