EVENT     265127
    Date      Time       Latitude Longitude    Depth    Ndef Nsta Gap    Mag1  N    Mag2  N    Mag3  N   Author         ID
       rms   OT_Error      Smajor Sminor Az        Err   mdist  Mdist     Err        Err        Err      Quality

2011/10/14 20:06:45.3     42.5866    -.9010      2.0      26    3 170  Ml 1.5  1  Md 1.7  2              js067245    265147

      0.24   +-  0.08       1.5    1.0  163.35 +-  0.0    0.01   1.02   +-         +-0.0                 m i ke

PYRENEES
Sta     Dist  EvAz     Phase      Date       Time     TRes  Azim  AzRes  Slow  SRes Def   SNR       Amp   Per   Mag1   Mag2       ID
ETSF  000.40 038.8 m E Pg      2011/10/14 20:06:52.9  -0.3                          T                                        4771546
ETSF  000.40 038.8 m E Sg      2011/10/14 20:06:57.8  -0.7                          T                3.8  .32        Md 1.7  4771544
SJPF  000.58 335.8 m E Pg      2011/10/14 20:06:56.5   0.1                          T                                        4771545
SJPF  000.58 335.8 m E Sg      2011/10/14 20:07:03.8  -0.2                          T                1.9  .34        Md 1.7  4771543
EPF   001.02 063.7 m E Pg      2011/10/14 20:07:04.8   0.4                          T                                        4771978
EPF   001.02 063.7 m E Sg      2011/10/14 20:07:18.4   0.8                          T                1.1  .23 Ml 1.5         4771979

.
EVENT     265128
    Date      Time       Latitude Longitude    Depth    Ndef Nsta Gap    Mag1  N    Mag2  N    Mag3  N   Author         ID
       rms   OT_Error      Smajor Sminor Az        Err   mdist  Mdist     Err        Err        Err      Quality

2011/10/14 22:53:53.9     49.8202     .6678      4.0 f    93   30 093  Ml 2.8 34  Md 2.8  3              js067245    265148

      0.77   +-  0.07       1.5    1.0  172.34 +-  0.0    1.07   6.80   +-0.2      +-0.1                 m i ke

FRANCE
Sta     Dist  EvAz     Phase      Date       Time     TRes  Azim  AzRes  Slow  SRes Def   SNR       Amp   Per   Mag1   Mag2       ID
FLN   001.30 215.8 m E Pn      2011/10/14 22:54:17.4   0.3  33.4  -1.6              T   001.0                                4770740
FLN   001.30 215.8 m E Pg      2011/10/14 22:54:18.4   0.3                          T   001.0                                4770741
FLN   001.30 215.8 m E Sg      2011/10/14 22:54:35.0   0.1  28.6  -6.4              T               27.0  .20 Ml 2.9 Md 2.8  4771586
LDF   001.33 203.2 m E Pn      2011/10/14 22:54:18.0   0.4                          T   001.0                                4770750
LDF   001.33 203.2 m E Pg      2011/10/14 22:54:19.0   0.3                          T   001.0                                4770751
LDF   001.33 203.2 m E Sg      2011/10/14 22:54:36.2   0.2                          T   001.0       30.8  .22 Ml 3.1 Md 2.7  4770752
GRR   001.75 215.6 m E Pn      2011/10/14 22:54:23.7   0.4                          T   001.0                                4770743
GRR   001.75 215.6 m E Pg      2011/10/14 22:54:25.8  -0.6                          T   001.0                                4770744
GRR   001.75 215.6 m E Sn      2011/10/14 22:54:44.2  -0.5                          T   001.0                                4770745
GRR   001.75 215.6 m E Sg      2011/10/14 22:54:49.0   0.0                          T   001.0       19.7  .20 Ml 3.0 Md 2.9  4770746
BAIF  002.30 082.7 m E Pn      2011/10/14 22:54:30.4  -0.3                          T   001.0                                4770764
BAIF  002.30 082.7 m E Sn      2011/10/14 22:54:57.5  -0.3                          T   001.0        6.3  .24 Ml 2.7         4770765
BAIF  002.30 082.7 m E Sg      2011/10/14 22:55:06.6   0.5                          T                7.6  .28 Ml 2.7         4773910
SGMF  002.64 234.8 m E Pn      2011/10/14 22:54:35.5   0.1                          T   001.0                                4770775
SGMF  002.64 234.8 m E Sn      2011/10/14 22:55:05.5  -0.4                          T   001.0                                4770776
SGMF  002.64 234.8 m E Sg      2011/10/14 22:55:16.3  -0.5                          T   001.0       11.9  .41 Ml 2.8         4770777
GIVF  002.70 082.4 m E Pn      2011/10/14 22:54:36.0  -0.1                          T                                        4773929
GIVF  002.70 082.4 m E Pg      2011/10/14 22:54:44.1   0.2                          T                                        4773928
GIVF  002.70 082.4 m E Sn      2011/10/14 22:55:07.8   0.4                          T                6.6  .26 Ml 2.8         4773911
GIVF  002.70 082.4 m E Sg      2011/10/14 22:55:18.4  -0.2                          T                7.9  .28 Ml 2.8         4774011
ROSF  002.99 241.7 m E Pn      2011/10/14 22:54:40.2   0.1                          T   001.0                                4770773
ROSF  002.99 241.7 m E Sn      2011/10/14 22:55:14.8   0.6                          T                                        4771591
ROSF  002.99 241.7 m E Sg      2011/10/14 22:55:27.2  -0.4                          T   001.0        5.6  .29 Ml 2.7         4770774
MEZF  003.17 113.0 m E Pn      2011/10/14 22:54:42.6   0.1 296.4  0.1               T   001.0                                4770767
MEZF  003.17 113.0 m E Pg      2011/10/14 22:54:52.6   0.1                          T                                        4773923
MEZF  003.17 113.0 m E Sn      2011/10/14 22:55:18.0  -0.5                          T   001.0                                4770768
MEZF  003.17 113.0 m E Sg      2011/10/14 22:55:32.1  -1.1 315.4  19.1              T   001.0        7.6  .36 Ml 2.8         4770769
QUIF  003.17 234.5 m E Pn      2011/10/14 22:54:42.6   0.1                          T   001.0                                4770771
QUIF  003.17 234.5 m E Sn      2011/10/14 22:55:18.1  -0.5                          T                                        4773914
QUIF  003.17 234.5 m E Sg      2011/10/14 22:55:33.0  -0.2                          T   001.0        5.8  .28 Ml 2.8         4770772
MFF   003.27 189.9 m E Pn      2011/10/14 22:54:44.4   0.5                          T   001.0                                4770756
MFF   003.27 189.9 m E Sn      2011/10/14 22:55:20.1  -0.8                          T   001.0                                4770757
MFF   003.27 189.9 m E Sg      2011/10/14 22:55:35.1  -1.2                          T   001.0        4.3  .24 Ml 2.9         4770758
SFTF  003.30 117.7 m E Pn      2011/10/14 22:54:44.6   0.2                          T                                        4773922
SFTF  003.30 117.7 m E Pg      2011/10/14 22:54:55.1   0.1                          T                                        4773921
SFTF  003.30 117.7 m E Sn      2011/10/14 22:55:21.7  -0.1                          T                                        4774015
SFTF  003.30 117.7 m E Sg      2011/10/14 22:55:37.2  -0.2                          T                7.0  .25 Ml 2.9         4774014
LOR   003.32 139.1 m E Pn      2011/10/14 22:54:45.2   0.5                          T   001.0                                4770754
LOR   003.32 139.1 m E Sg      2011/10/14 22:55:37.6  -0.4 327.7  6.2               T   001.0        4.3  .20 Ml 2.8         4770755
SSF   003.35 144.5 m E Pn      2011/10/14 22:54:45.6   0.6                          T   001.0                                4770762
SSF   003.35 144.5 m E Sg      2011/10/14 22:55:38.1  -0.7                          T   001.0        6.7  .30 Ml 2.9         4770763
AVF   003.52 148.4 m E Pn      2011/10/14 22:54:47.6   0.2                          T   001.0                                4770731
AVF   003.52 148.4 m E P       2011/10/14 22:54:50.5  -0.1                          T                                        4773917
AVF   003.52 148.4 m E Sn      2011/10/14 22:55:26.3  -0.7                          T   001.0                                4770732
AVF   003.52 148.4 m E Sg      2011/10/14 22:55:43.8  -0.5                          T   001.0        4.4  .46 Ml 2.5         4770733
PAGF  003.55 109.0 m E Pn      2011/10/14 22:54:47.9   0.1                          T                                        4773925
PAGF  003.55 109.0 m E Pg      2011/10/14 22:54:59.7   0.1                          T                                        4773924
PAGF  003.55 109.0 m E Sg      2011/10/14 22:55:44.5  -0.8                          T                 .7  .26 Ml 2.0         4774013
BGF   003.58 155.1 m E Pn      2011/10/14 22:54:49.0   0.9                          T   001.0                                4770734
BGF   003.58 155.1 m E Sn      2011/10/14 22:55:27.8  -0.5                          T   001.0                                4770735
BGF   003.58 155.1 m E Sg      2011/10/14 22:55:46.0   0.0                          T   001.0       24.3  .40 Ml 3.3         4770736
SMF   003.82 145.1 m E Pn      2011/10/14 22:54:52.0   0.5                          T   001.0                                4770759
SMF   003.82 145.1 m E Sn      2011/10/14 22:55:33.1  -1.1                          T   001.0                                4770760
SMF   003.82 145.1 m E Sg      2011/10/14 22:55:53.3  -0.3                          T   001.0        5.1  .34 Ml 2.8         4770761
HAU   004.16 113.7 m E Pn      2011/10/14 22:54:55.9  -0.3                          T   001.0                                4770747
HAU   004.16 113.7 m E Sn      2011/10/14 22:55:40.6  -1.8                          T   001.0        3.6  .18 Ml 2.8         4770748
HAU   004.16 113.7 m E Sg      2011/10/14 22:56:03.7  -0.7                          T   001.0        3.1  .22 Ml 2.6         4770749
RUP   004.15 089.2 m E Pn      2011/10/14 22:54:56.0   0.0                          T                                        4773927
RUP   004.15 089.2 m E Sg      2011/10/14 22:56:03.7  -0.1                          T                                        4774012
RJF   004.55 172.4 m E Pn      2011/10/14 22:55:01.3  -0.2                          T                                        4773912
RJF   004.55 172.4 m E Sn      2011/10/14 22:55:51.1  -0.6                          T   001.0                                4770729
RJF   004.55 172.4 m E Sg      2011/10/14 22:56:16.2  -0.4                          T   001.0        3.5  .29 Ml 2.5         4770730
HINF  004.55 113.8 m E Pn      2011/10/14 22:55:01.4   0.0                          T                                        4773920
HINF  004.55 113.8 m E Sn      2011/10/14 22:55:49.9  -1.8                          T                                        4771588
HINF  004.55 113.8 m E Sg      2011/10/14 22:56:17.6   1.1                          T                3.3  .28 Ml 2.8         4771587
CDF   004.56 105.5 m E Pn      2011/10/14 22:55:01.7   0.0                          T                                        4773926
CDF   004.56 105.5 m E Sg      2011/10/14 22:56:17.5   0.6                          T   001.0        2.7  .39 Ml 2.7         4770738
TCF   003.68 163.1 m E Pg      2011/10/14 22:55:02.1   0.0                          T                                        4771981
TCF   003.68 163.1 m E Sg      2011/10/14 22:55:49.3  -0.1                          T                7.1  .34 Ml 2.9         4771980
LFF   004.88 179.4 m E Pn      2011/10/14 22:55:06.0   0.1                          T   001.0                                4770753
LFF   004.88 179.4 m E Sg      2011/10/14 22:56:27.0   0.2                          T                6.5  .42 Ml 2.9         4774009
CABF  004.84 129.5 m E Pn      2011/10/14 22:55:06.3   0.8                          T                                        4773919
CABF  004.84 129.5 m E Pg      2011/10/14 22:55:23.4  -0.1                          T                                        4773918
CABF  004.84 129.5 m E Sg      2011/10/14 22:56:26.3   0.7                          T   001.0        1.1  .23 Ml 2.5         4770766
CAF   004.99 168.5 m E Pn      2011/10/14 22:55:07.0  -0.4                          T   001.0                                4770737
CAF   004.99 168.5 m E Sn      2011/10/14 22:56:01.8  -0.4                          T                 .9  .21 Ml 2.5         4773913
CAF   004.99 168.5 m E Sg      2011/10/14 22:56:30.4   0.3                          T                4.6  .36 Ml 3.0         4774010
HYF   002.87 152.1 m E Sn      2011/10/14 22:55:11.1  -0.3                          T                                        4773915
HYF   002.87 152.1 m E Sg      2011/10/14 22:55:23.8  -0.2                          T                                        4773916
VIVF  005.66 149.8 m E Pn      2011/10/14 22:55:16.0   0.4                          T   001.0                                4770778
ORIF  006.05 142.2 m E Pn      2011/10/14 22:55:23.6   1.7                          T   001.0                                4770770
EPF   006.80 182.0 m E Sn      2011/10/14 22:56:44.3  -1.0                          T   001.0         .6  .24 Ml 2.6         4770739

.
EVENT     265129
    Date      Time       Latitude Longitude    Depth    Ndef Nsta Gap    Mag1  N    Mag2  N    Mag3  N   Author         ID
       rms   OT_Error      Smajor Sminor Az        Err   mdist  Mdist     Err        Err        Err      Quality

2011/10/14 22:56:28.7     45.6275    6.7339      3.0 f    11    5 291  Ml 1.7  4  Md 1.4  2              js067245    265149

      0.24   +-  0.30       4.8    2.5   23.84 +-  0.0    0.11   1.65   +-0.1      +-0.0                 m i ke

FRANCE
Sta     Dist  EvAz     Phase      Date       Time     TRes  Azim  AzRes  Slow  SRes Def   SNR       Amp   Per   Mag1   Mag2       ID
LPL   000.11 180.5 m E Pg      2011/10/14 22:56:31.6   0.1                          T                                        4771607
LPL   000.11 180.5 m E Sg      2011/10/14 22:56:32.9  -0.3                          T               48.6  .22        Md 1.4  4771605
LPG   000.13 174.6 m E Pg      2011/10/14 22:56:31.9   0.0                          T                                        4771606
LPG   000.13 174.6 m E Sg      2011/10/14 22:56:33.7  -0.1                          T               41.6  .20        Md 1.4  4771604
MBDF  000.90 178.3 m E Pg      2011/10/14 22:56:45.9   0.1                          T                                        4771601
MBDF  000.90 178.3 m E Sg      2011/10/14 22:56:57.1  -0.4                          T                2.1  .30 Ml 1.6         4771599
ORIF  000.93 220.7 m E Pg      2011/10/14 22:56:46.5   0.2                          T                                        4771602
ORIF  000.93 220.7 m E Sg      2011/10/14 22:56:58.4   0.0                          T                1.8  .20 Ml 1.7         4771603
VIVF  001.65 242.8 m E Pg      2011/10/14 22:56:59.1  -0.4                          T                                        4771598
VIVF  001.65 242.8 m E Sg      2011/10/14 22:57:21.3   0.6                          T                1.5  .27 Ml 1.8         4771600

.
EVENT     265175
    Date      Time       Latitude Longitude    Depth    Ndef Nsta Gap    Mag1  N    Mag2  N    Mag3  N   Author         ID
       rms   OT_Error      Smajor Sminor Az        Err   mdist  Mdist     Err        Err        Err      Quality

2011/10/15 05:30:18.5     50.5022    7.3570     10.0      12    4 130  Ml 2.0  3  Md 2.1  1              js067245    265195

      0.38   +-  0.08       1.5    1.2  166.09 +-  0.0    0.18   2.09   +-0.2      +-                    m i ke

GERMANY
Sta     Dist  EvAz     Phase      Date       Time     TRes  Azim  AzRes  Slow  SRes Def   SNR       Amp   Per   Mag1   Mag2       ID
RUP   000.82 193.5 m E Pg      2011/10/15 05:30:34.1   0.0                          T                                        4771611
RUP   000.82 193.5 m E Sg      2011/10/15 05:30:44.9  -0.1                          T                                Md 2.1  4771244
GIVF  001.67 257.1 m E Pn      2011/10/15 05:30:45.9  -0.3                          T                                        4773935
GIVF  001.67 257.1 m E Pg      2011/10/15 05:30:49.7   0.0                          T                                        4773934
GIVF  001.67 257.1 m E Sg      2011/10/15 05:31:11.3   0.1                          T                2.2  .18 Ml 2.2         4773931
BAIF  002.07 258.8 m E Pg      2011/10/15 05:30:56.8  -0.1                          T                                        4773930
BAIF  002.07 258.8 m E Sn      2011/10/15 05:31:16.1   0.3                          T                1.3  .26 Ml 1.9         4771982
CDF   002.09 181.5 m E Pg      2011/10/15 05:30:57.5  -0.1                          T                                        4773933
CDF   002.09 181.5 m E Sg      2011/10/15 05:31:24.6   0.2                          T                1.1  .30 Ml 1.9         4773932

.
EVENT     265133
    Date      Time       Latitude Longitude    Depth    Ndef Nsta Gap    Mag1  N    Mag2  N    Mag3  N   Author         ID
       rms   OT_Error      Smajor Sminor Az        Err   mdist  Mdist     Err        Err        Err      Quality

2011/10/15 05:49:46.9     44.8830    6.8224      2.0       8    3 198             Md 2.0  2              js067245    265153

      0.51   +-  0.31       6.7    4.3   94.12 +-  0.0    0.16   0.67              +-0.1                 m i ke

FRANCE
Sta     Dist  EvAz     Phase      Date       Time     TRes  Azim  AzRes  Slow  SRes Def   SNR       Amp   Per   Mag1   Mag2       ID
MBDF  000.16 193.1 m E Pg      2011/10/15 05:49:50.3  -0.1                          T                                        4771618
MBDF  000.16 193.1 m E Sg      2011/10/15 05:49:51.8  -0.8                          T                8.2  .20        Md 1.9  4771617
LPL   000.64 354.3 m E Pg      2011/10/15 05:49:59.0  -0.3                          T                                        4771985
LPL   000.64 354.3 m E Sg      2011/10/15 05:50:07.6   0.0                          T                 .6  .26                4773936
ORIF  000.67 273.3 m E Pg      2011/10/15 05:50:00.1   0.4                          T                                        4771615
ORIF  000.67 273.3 m E Sg      2011/10/15 05:50:07.7  -0.7                          T                3.8  .36        Md 2.0  4771616

.
EVENT     265131
    Date      Time       Latitude Longitude    Depth    Ndef Nsta Gap    Mag1  N    Mag2  N    Mag3  N   Author         ID
       rms   OT_Error      Smajor Sminor Az        Err   mdist  Mdist     Err        Err        Err      Quality

2011/10/15 13:23:03.2     43.1401    -.6187      2.0      37    4 166  Ml 1.8  1  Md 1.9  2              js067245    265151

      0.63   +-  0.16       3.3    1.6  178.12 +-  0.0    0.08   2.19   +-         +-0.1                 m i ke

PYRENEES
Sta     Dist  EvAz     Phase      Date       Time     TRes  Azim  AzRes  Slow  SRes Def   SNR       Amp   Per   Mag1   Mag2       ID
ETSF  000.25 169.7 m E Pg      2011/10/15 13:23:07.2  -1.0                          T                                        4771637
ETSF  000.25 169.7 m E Sg      2011/10/15 13:23:09.8  -1.7                          T               60.7  .24        Md 1.9  4771636
SJPF  000.44 266.8 m E Pg      2011/10/15 13:23:12.0   0.3                          T                                        4771635
SJPF  000.44 266.8 m E Sg      2011/10/15 13:23:17.1  -0.5                          T                 10  .34        Md 1.8  4771633
EPF   000.71 098.6 m E Pg      2011/10/15 13:23:17.8   1.1                          T                                        4771634
EPF   000.71 098.6 m E Sg      2011/10/15 13:23:26.6   0.6                          T                4.3  .22                4771632
MTLF  002.08 083.5 m E Pg      2011/10/15 13:23:41.8  -0.1                          T                                        4771630
MTLF  002.08 083.5 m E Sg      2011/10/15 13:24:09.9   1.2                          T                1.0  .26 Ml 1.8         4771631

.
