EVENT     258342
    Date      Time       Latitude Longitude    Depth    Ndef Nsta Gap    Mag1  N    Mag2  N    Mag3  N   Author         ID
       rms   OT_Error      Smajor Sminor Az        Err   mdist  Mdist     Err        Err        Err      Quality

2011/04/16 17:16:17.3     44.4174   17.8602     10.0 f   233   34 016  Ml 3.9 26                         js067245    258342

      0.89   +-  0.06       1.9    1.5   38.26 +-  0.0    0.36  12.75   +-0.3                            m i ke

NORTHWESTERN BALKAN PEN.
Sta     Dist  EvAz     Phase      Date       Time     TRes  Azim  AzRes  Slow  SRes Def   SNR       Amp   Per   Mag1   Mag2       ID
PGF   006.71 256.9 m E Pn      2011/04/16 17:17:54.6   0.8                          T                                        4674362
PGF   006.71 256.9 m E Sn      2011/04/16 17:19:06.8   1.1                          T               11.5  .54 Ml 3.8         4674327
SBF   007.52 269.4 m E Pn      2011/04/16 17:18:05.0   0.3                          T                                        4674361
SBF   007.52 269.4 m E Sn      2011/04/16 17:19:26.2   1.1                          T               46.5  .68 Ml 4.2         4674326
MBDF  007.93 276.1 m E Pn      2011/04/16 17:18:10.1  -0.3                          T                                        4674359
MBDF  007.93 276.1 m E Sn      2011/04/16 17:19:36.1   1.3                          T               31.8  .74 Ml 4.0         4674319
LPL   007.97 281.8 m E Pn      2011/04/16 17:18:12.2   1.2                          T                                        4674357
LPL   007.97 281.8 m E Sn      2011/04/16 17:19:37.0   1.1                          T               56.4  .90 Ml 4.2         4674321
LPG   007.95 281.7 m E Pn      2011/04/16 17:18:12.2   1.3                          T                                        4674356
LPG   007.95 281.7 m E Sn      2011/04/16 17:19:36.7   1.0                          T               34.6  .64 Ml 4.1         4674322
FRF   008.13 267.9 m E Pn      2011/04/16 17:18:13.5   0.5                          T                                        4674360
FRF   008.13 267.9 m E Sn      2011/04/16 17:19:40.7   1.2                          T               21.8  .72 Ml 4.0         4674324
LMR   008.27 266.4 m E Pn      2011/04/16 17:18:15.4   0.6                          T                                        4674354
LMR   008.27 266.4 m E Sn      2011/04/16 17:19:43.9   1.0                          T                7.2  .58 Ml 3.6         4674325
LANF  008.28 307.0 m E Pn      2011/04/16 17:18:15.9   0.9                          T                                        4674336
CDF   008.33 302.4 m E Pn      2011/04/16 17:18:16.6   0.8                          T                                        4674337
HINF  008.37 297.8 m E Pn      2011/04/16 17:18:17.2   1.0                          T                                        4674343
HINF  008.37 297.8 m E Sn      2011/04/16 17:19:46.9   1.7                          T               11.0  .52 Ml 3.8         4674312
CABF  008.55 289.0 m E Pn      2011/04/16 17:18:19.7   0.8                          T                                        4674344
CABF  008.55 289.0 m E Sn      2011/04/16 17:19:50.9   1.1                          T               26.0  .93 Ml 4.0         4674310
ORIF  008.56 277.5 m E Pn      2011/04/16 17:18:19.9   1.1                          T                                        4674358
ORIF  008.56 277.5 m E Sn      2011/04/16 17:19:50.8   1.0                          T               67.8  .94 Ml 4.4         4674320
HAU   008.75 298.3 m E Pn      2011/04/16 17:18:22.3   0.9                          T                                        4674342
HAU   008.75 298.3 m E Sn      2011/04/16 17:19:55.7   1.3                          T               13.2  .48 Ml 3.7         4674311
SMRF  008.84 271.4 m E Pn      2011/04/16 17:18:23.5   0.8                          T                                        4674353
SMRF  008.84 271.4 m E Sn      2011/04/16 17:19:57.6   1.1                          T               36.2 1.24 Ml 4.0         4674323
THEF  009.05 299.1 m E Pn      2011/04/16 17:18:26.3   0.8                          T                                        4674341
RUP   009.07 309.5 m E Pn      2011/04/16 17:18:26.7   1.0                          T                                        4674335
PAGF  009.34 300.6 m E Pn      2011/04/16 17:18:30.3   0.9                          T                                        4674338
VIVF  009.41 277.3 m E Pn      2011/04/16 17:18:30.8   0.3                          T                                        4674355
VIVF  009.41 277.3 m E Sn      2011/04/16 17:20:11.5   1.2                          T                7.6  .54 Ml 3.8         4674318
SFTF  009.65 297.6 m E Pn      2011/04/16 17:18:34.3   0.7                          T                                        4674340
MEZF  009.74 299.3 m E Pn      2011/04/16 17:18:35.4   0.6 117.2  7.2               T                                        4674339
LASF  010.06 272.9 m E Pn      2011/04/16 17:18:40.1   0.9                          T                                        4674352
LASF  010.06 272.9 m E Sn      2011/04/16 17:20:26.7   1.1                          T                8.5  .84 Ml 3.7         4674317
SMF   010.09 287.7 m E Pn      2011/04/16 17:18:40.5   0.9                          T                                        4674346
SMF   010.09 287.7 m E Sn      2011/04/16 17:20:27.5   1.2                          T               14.0  .66 Ml 4.1         4674313
LOR   010.18 291.2 m E Pn      2011/04/16 17:18:41.7   0.9 111.4  10.2              T                                        4674330
LOR   010.18 291.2 m E Sn      2011/04/16 17:20:29.6   1.1                          T                9.2  .58 Ml 4.0         4674309
SSF   010.38 289.8 m E Pn      2011/04/16 17:18:44.3   0.8                          T                                        4674331
SSF   010.38 289.8 m E Sn      2011/04/16 17:20:34.5   1.3                          T                6.1  .63 Ml 3.9         4674308
AVF   010.44 288.2 m E Pn      2011/04/16 17:18:45.2   0.8                          T                                        4674345
AVF   010.44 288.2 m E Sn      2011/04/16 17:20:36.1   1.4                          T                6.4  .76 Ml 3.7         4674306
GIVF  010.52 307.3 m E Pn      2011/04/16 17:18:46.4   0.9                          T                                        4674333
BGF   010.76 286.7 m E Pn      2011/04/16 17:18:49.5   0.7                          T                                        4674347
BGF   010.76 286.7 m E Sn      2011/04/16 17:20:43.7   1.3                          T                6.9  .42 Ml 4.1         4674314
BAIF  010.86 306.1 m E Pn      2011/04/16 17:18:50.8   0.8                          T                                        4674334
TCF   011.17 285.1 m E Pn      2011/04/16 17:18:55.3   0.9                          T                                        4674332
TCF   011.17 285.1 m E Sn      2011/04/16 17:20:53.4   1.1                          T                9.8  .84 Ml 4.0         4674307
CAF   011.26 278.1 m E Pn      2011/04/16 17:18:56.4   0.8                          T                                        4674350
MTLF  011.35 270.0 m E Pn      2011/04/16 17:18:57.5   0.8                          T                                        4674351
MTLF  011.35 270.0 m E Sn      2011/04/16 17:20:57.5   1.2                          T                 .6  .37 Ml 3.1         4674316
RJF   011.64 280.1 m E Pn      2011/04/16 17:19:01.4   0.7                          T                                        4674349
LFF   012.20 278.5 m E Pn      2011/04/16 17:19:09.2   0.8                          T                                        4674329
EPF   012.75 269.9 m E Pn      2011/04/16 17:19:16.7   0.8                          T                                        4674328
EPF   012.75 269.9 m E Sn      2011/04/16 17:21:31.2   1.1                          T                1.3  .49 Ml 3.5         4674315

.
EVENT     258385
    Date      Time       Latitude Longitude    Depth    Ndef Nsta Gap    Mag1  N    Mag2  N    Mag3  N   Author         ID
       rms   OT_Error      Smajor Sminor Az        Err   mdist  Mdist     Err        Err        Err      Quality

2011/04/16 21:17:11.0     50.8362    5.9775     15.2      24    4 120  Ml 1.8  3                         js067245    258385

      0.26   +-  0.07       1.5    1.1  169.07 +-  0.8    0.19   2.41   +-0.1                            m i ke

BELGIUM
Sta     Dist  EvAz     Phase      Date       Time     TRes  Azim  AzRes  Slow  SRes Def   SNR       Amp   Per   Mag1   Mag2       ID
GIVF  001.04 225.5 m E Pn      2011/04/16 21:17:29.7   0.2                          T                                        4675594
GIVF  001.04 225.5 m E Pg      2011/04/16 21:17:30.4  -0.2                          T                                        4675592
GIVF  001.04 225.5 m E Sn      2011/04/16 21:17:43.4   0.6                          T                1.0  .14 Ml 1.7         4675595
RUP   001.33 148.1 m E Pg      2011/04/16 21:17:35.6  -0.5                          T                                        4675590
RUP   001.33 148.1 m E Sg      2011/04/16 21:17:53.3   0.0                          T                                        4675591
BAIF  001.37 236.2 m E P       2011/04/16 21:17:35.7  -0.2                          T                                        4675596
BAIF  001.37 236.2 m E Pg      2011/04/16 21:17:36.8   0.1                          T                                        4675593
BAIF  001.37 236.2 m E Sg      2011/04/16 21:17:53.7  -0.9                          T                2.9  .37 Ml 1.9         4675597
MEZF  002.41 194.8 m E Sg      2011/04/16 21:18:26.8  -0.1                          T                 .7  .25 Ml 1.7         4675589

.
EVENT     258399
    Date      Time       Latitude Longitude    Depth    Ndef Nsta Gap    Mag1  N    Mag2  N    Mag3  N   Author         ID
       rms   OT_Error      Smajor Sminor Az        Err   mdist  Mdist     Err        Err        Err      Quality

2011/04/16 21:22:04.5     42.8620   -1.3554      2.0      20    3 079  Ml 1.2  1  Md 1.1  2              js067245    258399

      0.21   +-  0.06       1.3    1.0    6.23 +-  0.0    0.06   1.26   +-         +-0.2                 m i ke

PYRENEES
Sta     Dist  EvAz     Phase      Date       Time     TRes  Azim  AzRes  Slow  SRes Def   SNR       Amp   Per   Mag1   Mag2       ID
SJPF  000.27 020.8 m E Pg      2011/04/16 21:22:10.0   0.1                          T                                        4675611
SJPF  000.27 020.8 m E Sg      2011/04/16 21:22:13.8   0.3                          T                1.5  .34        Md 1.3  4675612
ETSF  000.59 086.2 m E Pg      2011/04/16 21:22:15.8   0.1                          T                                        4675609
ETSF  000.59 086.2 m E Sg      2011/04/16 21:22:23.4  -0.1                          T                 .4  .26        Md 1.0  4675610
EPF   001.26 081.7 m E Pg      2011/04/16 21:22:28.0   0.0                          T                                        4675607
EPF   001.26 081.7 m E Sg      2011/04/16 21:22:44.3  -0.1                          T                 .4  .26 Ml 1.2         4675608

.
EVENT     258343
    Date      Time       Latitude Longitude    Depth    Ndef Nsta Gap    Mag1  N    Mag2  N    Mag3  N   Author         ID
       rms   OT_Error      Smajor Sminor Az        Err   mdist  Mdist     Err        Err        Err      Quality

2011/04/16 21:48:06.9     44.3065   11.2129     30.0 f    55   16 088  Ml 2.4 19                         js067245    258343

      0.84   +-  0.13       3.2    2.5  163.57 +-  0.0    0.15   6.06   +-0.2                            m i ke

NORTHERN ITALY
Sta     Dist  EvAz     Phase      Date       Time     TRes  Azim  AzRes  Slow  SRes Def   SNR       Amp   Per   Mag1   Mag2       ID
PGF   002.39 223.3 m E Pn      2011/04/16 21:48:43.5   0.7                          T                                        4674391
PGF   002.39 223.3 m E Sn      2011/04/16 21:49:10.7   1.3                          T                3.7  .41 Ml 2.5         4674390
SBF   002.76 262.1 m E Pn      2011/04/16 21:48:47.8   0.0                          T                                        4674394
SBF   002.76 262.1 m E Sn      2011/04/16 21:49:18.2   0.0                          T                6.8  .38 Ml 2.6         4674376
MBDF  003.20 279.1 m E Pn      2011/04/16 21:48:53.9  -0.1                          T                                        4674383
MBDF  003.20 279.1 m E Sn      2011/04/16 21:49:28.8  -0.1                          T                1.9  .36 Ml 2.2         4674372
FRF   003.38 258.8 m E Pn      2011/04/16 21:48:56.2   0.1                          T                                        4674392
FRF   003.38 258.8 m E Sn      2011/04/16 21:49:33.1   0.1                          T                3.1  .16 Ml 2.8         4674389
LPG   003.39 292.1 m E Pn      2011/04/16 21:48:56.3  -0.3                          T                                        4674386
LPG   003.39 292.1 m E Sn      2011/04/16 21:49:33.4  -0.1                          T                3.0  .51 Ml 2.3         4674374
LPL   003.41 292.4 m E Pn      2011/04/16 21:48:56.5  -0.3                          T                                        4674385
LPL   003.41 292.4 m E Sn      2011/04/16 21:49:33.7  -0.1                          T                4.3  .56 Ml 2.4         4674373
LMR   003.54 255.7 m E Pn      2011/04/16 21:48:58.4   0.1                          T                                        4674393
LMR   003.54 255.7 m E Sn      2011/04/16 21:49:36.8   0.1                          T                3.1  .22 Ml 2.7         4674388
ORIF  003.86 281.0 m E Pn      2011/04/16 21:49:02.7  -0.1                          T                                        4674384
ORIF  003.86 281.0 m E Sn      2011/04/16 21:49:44.3  -0.1                          T                4.4  .56 Ml 2.5         4674371
SMRF  004.07 267.3 m E Pn      2011/04/16 21:49:05.3  -0.3                          T                                        4674387
SMRF  004.07 267.3 m E Sn      2011/04/16 21:49:49.4   0.0                          T                 .6  .26 Ml 2.0         4674375
CABF  004.28 304.4 m E Pn      2011/04/16 21:49:08.7   0.2                          T                                        4674381
CABF  004.28 304.4 m E Sn      2011/04/16 21:49:54.7   0.2                          T                 .7  .30 Ml 2.1         4674367
HINF  004.64 320.7 m E Pn      2011/04/16 21:49:14.1   0.7                          T                                        4674380
HINF  004.64 320.7 m E Sn      2011/04/16 21:50:03.6   0.6                          T                  1  .20 Ml 2.5         4674369
VIVF  004.70 279.0 m E Pn      2011/04/16 21:49:14.3   0.0                          T                                        4674382
VIVF  004.70 279.0 m E Sn      2011/04/16 21:50:04.4  -0.2                          T                 .5  .28 Ml 2.0         4674370
CDF   004.93 327.8 m E Pn      2011/04/16 21:49:17.0  -0.3                          T                                        4674378
CDF   004.93 327.8 m E Sn      2011/04/16 21:50:11.1   1.1                          T                1.6  .39 Ml 2.6         4674366
HAU   005.01 319.3 m E Pn      2011/04/16 21:49:18.6   0.2                          T                                        4674379
HAU   005.01 319.3 m E Sn      2011/04/16 21:50:12.5   0.7                          T                4.2  .37 Ml 2.7         4674368
LOR   005.93 302.5 m E Pn      2011/04/16 21:49:31.2   0.3 124.0  6.8               T                                        4674377
LOR   005.93 302.5 m E Sn      2011/04/16 21:50:34.2   0.3                          T                 .9  .29 Ml 2.6         4674365
SSF   006.06 299.7 m E Pn      2011/04/16 21:49:32.7   0.1                          T                                        4674363
SSF   006.06 299.7 m E Sn      2011/04/16 21:50:37.0   0.1                          T                 .3  .22 Ml 2.3         4674364

.
