BEGIN GSE2.0
MSG_TYPE DATA
MSG_ID 08-SEP-1113:20:31  FRA_NDC
E-MAIL
DATA_TYPE BULLETIN
Reviewed Bulletin (REB) # P2011-032  from French NDC for regional phases     PERIOD 10 AUG 2011 TO 16 AUG 2011 NP. JPS. PR.
EVENT     262420
    Date      Time       Latitude Longitude    Depth    Ndef Nsta Gap    Mag1  N    Mag2  N    Mag3  N   Author         ID
       rms   OT_Error      Smajor Sminor Az        Err   mdist  Mdist     Err        Err        Err      Quality

2011/08/10 07:05:50.1     42.8928     .2462      2.0       5    3 198  Ml 1.7  1  Md 1.4  2              js067245    262420

      0.14   +-  0.17       5.8    1.6  156.47 +-  0.0    0.15   1.51   +-         +-0.1                 m i ke

PYRENEES
Sta     Dist  EvAz     Phase      Date       Time     TRes  Azim  AzRes  Slow  SRes Def   SNR       Amp   Per   Mag1   Mag2       ID
EPF   000.15 026.6 m E Pg      2011/08/10 07:05:53.3   0.0                          T                                        4735868
EPF   000.15 026.6 m E Sg      2011/08/10 07:05:55.7   0.1                          T                5.4  .20        Md 1.5  4735866
ETSF  000.59 270.8 m E Pg      2011/08/10 07:06:01.5   0.1                          T                                        4735867
ETSF  000.59 270.8 m E Sg      2011/08/10 07:06:08.9  -0.3                          T                2.8  .22        Md 1.3  4735865
MTLF  001.51 072.1 m E Sg      2011/08/10 07:06:37.7  -0.1                          T                1.0  .20 Ml 1.7         4735864

.
EVENT     262421
    Date      Time       Latitude Longitude    Depth    Ndef Nsta Gap    Mag1  N    Mag2  N    Mag3  N   Author         ID
       rms   OT_Error      Smajor Sminor Az        Err   mdist  Mdist     Err        Err        Err      Quality

2011/08/10 07:21:26.3     41.2408   -6.4858      2.0      46    3 039  Ml 2.7  3                         js067245    262421

      0.47   +-  0.07       1.4    1.2   68.79 +-  0.0    0.42   5.38   +-0.3                            m i ke

PORTUGAL
Sta     Dist  EvAz     Phase      Date       Time     TRes  Azim  AzRes  Slow  SRes Def   SNR       Amp   Per   Mag1   Mag2       ID
SJPF  004.33 062.7 m E Pn      2011/08/10 07:22:31.7   0.5                          T                                        4735941
SJPF  004.33 062.7 m E Sn      2011/08/10 07:23:19.7   0.5                          T                1.1  .19 Ml 2.5         4735943
ETSF  004.71 067.5 m E Pn      2011/08/10 07:22:34.8  -1.6                          T                                        4735945
ETSF  004.71 067.5 m E Sn      2011/08/10 07:23:28.6   0.2                          T                1.7  .25 Ml 2.7         4735942
EPF   005.38 068.3 m E Pn      2011/08/10 07:22:46.2   0.8                          T                                        4735944
EPF   005.38 068.3 m E Sn      2011/08/10 07:23:44.2  -0.1                          T                2.0  .18 Ml 3.0         4745361

.
EVENT     262402
    Date      Time       Latitude Longitude    Depth    Ndef Nsta Gap    Mag1  N    Mag2  N    Mag3  N   Author         ID
       rms   OT_Error      Smajor Sminor Az        Err   mdist  Mdist     Err        Err        Err      Quality

2011/08/10 07:22:15.7     36.6686    3.4614     30.0      43   15 116                                    js067245    262402

                                               +-         0.08  12.67                                    m i ke

NORTHERN ALGERIA
Sta     Dist  EvAz     Phase      Date       Time     TRes  Azim  AzRes  Slow  SRes Def   SNR       Amp   Per   Mag1   Mag2       ID
MTLF  006.73 352.2 m E Pn      2011/08/10 07:23:51.1   0.5                          T                                        4735027
MTLF  006.73 352.2 m E Sn      2011/08/10 07:25:00.0  -1.8                          T                  1  .22                4735033
EPF   006.79 340.3 m E Pn      2011/08/10 07:23:52.2   0.7                          T                                        4735025
EPF   006.79 340.3 m E Sn      2011/08/10 07:25:02.8  -0.5                          T                                        4735034
ETSF  006.95 334.8 m E Pg      2011/08/10 07:23:53.5  -0.1                          T                                        4745362
ETSF  006.95 334.8 m E Pn      2011/08/10 07:23:54.4   0.8                          T                                        4735024
ETSF  006.95 334.8 m E Sn      2011/08/10 07:25:07.0  -0.1                          T                2.5  .22                4735035
LMR   007.06 018.4 m E Pn      2011/08/10 07:23:54.5  -0.5                          T                                        4735041
LMR   007.06 018.4 m E Sn      2011/08/10 07:25:08.6  -0.8                          T                3.3  .22                4735030
FRF   007.30 018.5 m E Pn      2011/08/10 07:23:58.0  -0.4                          T                                        4735022
FRF   007.30 018.5 m E Sn      2011/08/10 07:25:14.4  -1.0                          T                6.2  .28                4735031
PGF   007.26 034.3 m E Pn      2011/08/10 07:23:58.2   0.3                          T                                        4735042
PGF   007.26 034.3 m E Sn      2011/08/10 07:25:14.1  -0.5                          T                 .7  .18                4735029
LASF  007.41 002.2 m E Pn      2011/08/10 07:23:59.8   0.0                          T                                        4735038
LASF  007.41 002.2 m E Sn      2011/08/10 07:25:15.0  -2.9                          T                5.6  .25                4735032
SMRF  007.48 011.8 m E Pn      2011/08/10 07:24:01.6   0.8                          T                                        4735040
VIVF  008.23 006.0 m E Pn      2011/08/10 07:24:11.4   0.3                          T                                        4735039
VIVF  008.23 006.0 m E Sn      2011/08/10 07:25:37.1  -0.5                          T                3.4  .42                4735028
BGF   009.89 357.5 m E Pn      2011/08/10 07:24:34.4   0.8                          T                                        4735023
SMF   009.97 001.5 m E Pn      2011/08/10 07:24:34.9   0.2                          T                                        4735026
AVF   010.11 359.6 m E Pn      2011/08/10 07:24:37.1   0.5                          T                                        4735037
CABF  010.13 010.4 m E Pn      2011/08/10 07:24:38.1   1.2                          T                                        4735890
SFTF  011.59 005.3 m E Pn      2011/08/10 07:24:58.0   1.3                          T                                        4735889
ROSF  012.67 339.1 m E Pn      2011/08/10 07:25:11.1  -0.3                          T                                        4735888

.
EVENT     262406
    Date      Time       Latitude Longitude    Depth    Ndef Nsta Gap    Mag1  N    Mag2  N    Mag3  N   Author         ID
       rms   OT_Error      Smajor Sminor Az        Err   mdist  Mdist     Err        Err        Err      Quality

2011/08/10 08:05:55.1     44.1105    6.0303      2.0      24   10 092  Ml 2.2  3  Md 2.2  3              js067245    262406

      0.36   +-  0.08       1.8    1.5   54.48 +-  0.0    0.35   2.87   +-0.3      +-0.1                 m i ke

FRANCE
Sta     Dist  EvAz     Phase      Date       Time     TRes  Azim  AzRes  Slow  SRes Def   SNR       Amp   Per   Mag1   Mag2       ID
SMRF  000.35 247.9 m E Pg      2011/08/10 08:06:02.2   0.1                          T                                        4735108
SMRF  000.35 247.9 m E Sg      2011/08/10 08:06:08.0   1.2                          T               15.4  .19        Md 2.3  4735103
FRF   000.71 140.7 m E Pg      2011/08/10 08:06:08.1  -0.4                          T                                        4735106
FRF   000.71 140.7 m E Pn      2011/08/10 08:06:10.5  -0.1                          T                                        4735951
FRF   000.71 140.7 m E Sg      2011/08/10 08:06:17.4  -0.3                          T                7.3  .19        Md 2.2  4735098
ORIF  000.81 352.5 m E Pg      2011/08/10 08:06:10.3  -0.2                          T                                        4735097
ORIF  000.81 352.5 m E Pn      2011/08/10 08:06:12.6   0.4                          T                                        4735953
ORIF  000.81 352.5 m E Sg      2011/08/10 08:06:21.0  -0.2                          T                7.8  .25        Md 2.1  4735096
ORIF  000.81 352.5 m E Sn      2011/08/10 08:06:24.8   0.8                          T                                        4735950
LMR   000.85 155.7 m E Pg      2011/08/10 08:06:10.4  -0.7                          T                                        4735105
LMR   000.85 155.7 m E Sg      2011/08/10 08:06:22.6   0.4                          T               15.3  .27                4735102
MBDF  000.81 040.5 m E Pg      2011/08/10 08:06:10.7   0.1                          T                                        4735107
MBDF  000.81 040.5 m E Pn      2011/08/10 08:06:12.0  -0.2                          T                                        4735952
MBDF  000.81 040.5 m E Sg      2011/08/10 08:06:22.0   0.8                          T                5.5  .22                4735100
SBF   001.04 103.2 m E Pg      2011/08/10 08:06:14.8   0.0                          T                                        4735104
SBF   001.04 103.2 m E Sg      2011/08/10 08:06:28.9   0.6                          T                9.8  .24 Ml 2.5         4735101
VIVF  001.22 308.0 m E Pg      2011/08/10 08:06:17.3  -0.7                          T                                        4735095
VIVF  001.22 308.0 m E Sg      2011/08/10 08:06:33.5  -0.4                          T                2.5  .21 Ml 2.0         4735099
LASF  001.57 269.5 m E Pg      2011/08/10 08:06:24.5   0.1                          T                                        4735946
LASF  001.57 269.5 m E Sn      2011/08/10 08:06:41.5  -0.5                          T                2.1  .20 Ml 2.1         4735949
CABF  002.50 000.9 m E Pn      2011/08/10 08:06:34.7  -0.3                          T                                        4735947
MTLF  002.87 255.8 m E Sn      2011/08/10 08:07:13.8   0.7                          T                                        4735948

.
EVENT     262422
    Date      Time       Latitude Longitude    Depth    Ndef Nsta Gap    Mag1  N    Mag2  N    Mag3  N   Author         ID
       rms   OT_Error      Smajor Sminor Az        Err   mdist  Mdist     Err        Err        Err      Quality

2011/08/10 09:56:35.5     43.8438    3.7250 f     .0 f    15    6 162  Ml 2.0  6  Md 2.3  3              js067245    262422

      0.22   +-  0.18    9999.9 9999.9   99.90 +-  0.0    0.25   2.60   +-0.3      +-0.2                 m i km

NEAR SOUTH COAST OF FRANCE
Sta     Dist  EvAz     Phase      Date       Time     TRes  Azim  AzRes  Slow  SRes Def   SNR       Amp   Per   Mag1   Mag2       ID
LASF  000.25 022.3 m E Pg      2011/08/10 09:56:40.3  -0.4                          T                                        4735277
LASF  000.25 022.3 m E Sg      2011/08/10 09:56:44.2  -0.1                          T               16.0  .22        Md 2.1  4735272
VIVF  001.22 033.6 m E Pn      2011/08/10 09:56:58.0  -0.3                          T                                        4735275
VIVF  001.22 033.6 m E Pg      2011/08/10 09:56:58.6   0.1                          T                                        4746370
VIVF  001.22 033.6 m E Sg      2011/08/10 09:57:14.7   0.1                          T                3.3  .21 Ml 2.1 Md 2.3  4735273
MTLF  001.21 245.9 m E Pg      2011/08/10 09:56:58.4   0.2                          T                                        4735276
MTLF  001.21 245.9 m E Sg      2011/08/10 09:57:14.0   0.0                          T                2.3  .22 Ml 1.9 Md 2.4  4735274
SMRF  001.34 083.7 m E Pg      2011/08/10 09:57:00.9   0.1                          T                                        4746368
SMRF  001.34 083.7 m E Sg      2011/08/10 09:57:18.4   0.0                          T                 .8  .24 Ml 1.5         4746369
CAF   001.61 312.8 m E Pg      2011/08/10 09:57:05.9   0.1                          T                                        4735270
CAF   001.61 312.8 m E Sg      2011/08/10 09:57:27.3   0.6                          T                2.2  .19 Ml 2.2         4735271
EPF   002.60 252.9 m E Pg      2011/08/10 09:57:23.9  -0.1                          T                                        4746366
EPF   002.60 252.9 m E Sg      2011/08/10 09:57:57.5   0.0                          T                1.9  .27 Ml 2.2         4746367

.
EVENT     262426
    Date      Time       Latitude Longitude    Depth    Ndef Nsta Gap    Mag1  N    Mag2  N    Mag3  N   Author         ID
       rms   OT_Error      Smajor Sminor Az        Err   mdist  Mdist     Err        Err        Err      Quality

2011/08/10 21:10:47.8     47.8343   -2.0277      3.0 f    19    7 143  Ml 1.9  6  Md 1.7  2              js067245    262426

      0.40   +-  0.08       2.1    1.1    5.21 +-  0.0    0.55   1.78   +-0.2      +-0.0                 m i ke

FRANCE
Sta     Dist  EvAz     Phase      Date       Time     TRes  Azim  AzRes  Slow  SRes Def   SNR       Amp   Per   Mag1   Mag2       ID
SGMF  000.55 320.0 m E Pg      2011/08/10 21:10:58.2  -0.1                          T                                        4735470
SGMF  000.55 320.0 m E Pn      2011/08/10 21:11:00.8  -0.2                          T                                        4735954
SGMF  000.55 320.0 m E Sg      2011/08/10 21:11:04.6  -0.9                          T                1.9  .24        Md 1.7  4735471
QUIF  000.77 276.6 m E Pg      2011/08/10 21:11:02.5   0.2                          T                                        4735468
QUIF  000.77 276.6 m E Pn      2011/08/10 21:11:03.8  -0.2                          T                                        4735955
QUIF  000.77 276.6 m E Sg      2011/08/10 21:11:12.2  -0.2                          T                6.3  .24        Md 1.7  4735462
GRR   000.96 054.3 m E Pg      2011/08/10 21:11:06.1   0.2                          T                                        4735466
GRR   000.96 054.3 m E Pn      2011/08/10 21:11:06.9   0.3                          T                                        4735956
GRR   000.96 054.3 m E Sg      2011/08/10 21:11:17.8  -0.5                          T                4.9  .25 Ml 1.9         4735459
ROSF  000.97 301.5 m E Pg      2011/08/10 21:11:06.5   0.4                          T                                        4735467
ROSF  000.97 301.5 m E Sg      2011/08/10 21:11:18.5  -0.3                          T                1.4  .19 Ml 1.7         4735463
FLN   001.39 047.4 m E Pg      2011/08/10 21:11:13.8   0.0 228.2  -0.4              T                                        4735465
FLN   001.39 047.4 m E Sg      2011/08/10 21:11:31.3  -0.4                          T                3.0  .23 Ml 2.0         4735461
LDF   001.48 058.5 m E Pg      2011/08/10 21:11:15.5   0.0                          T                                        4735464
LDF   001.48 058.5 m E Sg      2011/08/10 21:11:34.4  -0.2                          T                3.1  .21 Ml 2.2         4735460
MFF   001.78 133.2 m E Pg      2011/08/10 21:11:20.9  -0.1                          T                                        4735469
MFF   001.78 133.2 m E Sg      2011/08/10 21:11:43.4  -0.4                          T                 .7  .18 Ml 1.9         4735458

.
