EVENT     289518
    Date      Time       Latitude Longitude    Depth    Ndef Nsta Gap    Mag1  N    Mag2  N    Mag3  N   Author         ID
       rms   OT_Error      Smajor Sminor Az        Err   mdist  Mdist     Err        Err        Err      Quality

2013/01/04 01:24:04.8     43.0578    -.2164      2.0      17    6 144  Ml 1.3  4  Md 1.4  2              bulletin    289618
                                                                                                         _ldg
      0.28   +-  0.08       2.6    1.3  164.75 +-  0.0    0.30   2.49   +-0.2      +-0.0                 m i ke

PYRENEES
Sta     Dist  EvAz     Phase      Date       Time     TRes  Azim  AzRes  Slow  SRes Def   SNR       Amp   Per   Mag1   Mag2       ID
ETSF  000.30 237.8 m E Pg      2013/01/04 01:24:10.4  -0.4                          T                                        5155052
ETSF  000.30 237.8 m E Sg      2013/01/04 01:24:14.5  -0.2                          T                3.4  .18        Md 1.4  5155051
EPF   000.41 093.7 m E Pg      2013/01/04 01:24:12.5  -0.2                          T                                        5155050
EPF   000.41 093.7 m E Sg      2013/01/04 01:24:18.5   0.3                          T                 .6  .13        Md 1.5  5155049
SJPF  000.74 274.6 m E Pg      2013/01/04 01:24:19.3   0.4                          T                                        5155053
SJPF  000.74 274.6 m E Sg      2013/01/04 01:24:28.8   0.3                          T                                        5155054
MTLF  001.80 080.1 m E Pn      2013/01/04 01:24:35.4   0.2                          T                                        5155062
MTLF  001.80 080.1 m E Pg      2013/01/04 01:24:38.3   0.0                          T                                        5155061
MTLF  001.80 080.1 m E Sg      2013/01/04 01:25:01.1  -0.5                          T                 .4  .23 Ml 1.4         5155059
LFF   002.00 019.8 m E Pg      2013/01/04 01:24:41.8  -0.2                          T                                        5176137
LFF   002.00 019.8 m E Sg      2013/01/04 01:25:07.8   0.0                          T                1.3  .34 Ml 1.6         5155055
CAF   002.49 040.6 m E Pg      2013/01/04 01:24:50.8  -0.3                          T                                        5176136
CAF   002.49 040.6 m E Sg      2013/01/04 01:25:23.3   0.2                          T                 .1  .15 Ml 1.2         5155057

.
EVENT     289521
    Date      Time       Latitude Longitude    Depth    Ndef Nsta Gap    Mag1  N    Mag2  N    Mag3  N   Author         ID
       rms   OT_Error      Smajor Sminor Az        Err   mdist  Mdist     Err        Err        Err      Quality

2013/01/04 04:06:35.6     43.0519    -.3725      2.0      46   10 080  Ml 2.0  8  Md 2.0  3              bulletin    289621
                                                                                                         _ldg
      0.37   +-  0.06       1.1    1.0  155.45 +-  0.0    0.21   4.19   +-0.3      +-0.1                 m i ke

PYRENEES
Sta     Dist  EvAz     Phase      Date       Time     TRes  Azim  AzRes  Slow  SRes Def   SNR       Amp   Per   Mag1   Mag2       ID
ETSF  000.21 221.9 m E Pg      2013/01/04 04:06:39.4  -0.4                          T                                        5155072
ETSF  000.21 221.9 m E Sg      2013/01/04 04:06:42.0  -0.6                          T                8.6  .15        Md 2.0  5155071
EPF   000.52 092.1 m E Pg      2013/01/04 04:06:45.2  -0.4                          T                                        5155070
EPF   000.52 092.1 m E Sg      2013/01/04 04:06:52.5   0.0                          T                5.2  .20        Md 2.0  5155069
SJPF  000.63 275.9 m E Pg      2013/01/04 04:06:47.6   0.1                          T                                        5155068
SJPF  000.63 275.9 m E Sg      2013/01/04 04:06:55.1  -0.6                          T                2.1  .20        Md 1.9  5155067
MTLF  001.92 080.4 m E Pn      2013/01/04 04:07:07.4   0.0                          T                                        5155097
MTLF  001.92 080.4 m E Pg      2013/01/04 04:07:10.8  -0.4                          T                                        5155096
MTLF  001.92 080.4 m E Sn      2013/01/04 04:07:30.7   0.0                          T                                        5155094
MTLF  001.92 080.4 m E Sg      2013/01/04 04:07:35.7  -0.2                          T                 .7  .23 Ml 1.7         5155095
LFF   002.05 022.7 m E Pn      2013/01/04 04:07:09.6   0.4                          T                                        5155090
LFF   002.05 022.7 m E Pg      2013/01/04 04:07:13.9   0.3                          T                                        5155089
LFF   002.05 022.7 m E Sn      2013/01/04 04:07:34.0   0.0                          T                                        5155088
LFF   002.05 022.7 m E Sg      2013/01/04 04:07:40.4   0.4                          T                3.1  .26 Ml 2.1         5155087
CAF   002.57 042.4 m E Pn      2013/01/04 04:07:16.6   0.2                          T                                        5155093
CAF   002.57 042.4 m E Pg      2013/01/04 04:07:23.2  -0.1                          T                                        5155092
CAF   002.57 042.4 m E Sg      2013/01/04 04:07:56.0  -0.3                          T                1.4  .18 Ml 2.2         5155091
RJF   002.63 030.5 m E Pn      2013/01/04 04:07:17.4   0.2                          T                                        5155086
RJF   002.63 030.5 m E Pg      2013/01/04 04:07:24.5   0.2                          T                                        5155085
RJF   002.63 030.5 m E Sn      2013/01/04 04:07:48.5   0.7                          T                                        5155084
RJF   002.63 030.5 m E Sg      2013/01/04 04:07:58.3   0.1                          T                1.2  .18 Ml 1.8         5155083
MFF   003.55 002.5 m E Pn      2013/01/04 04:07:29.2  -0.5                          T                                        5155076
MFF   003.55 002.5 m E Pg      2013/01/04 04:07:41.6   0.3                          T                                        5155075
MFF   003.55 002.5 m E Sn      2013/01/04 04:08:10.6   0.8                          T                                        5155074
MFF   003.55 002.5 m E Sg      2013/01/04 04:08:27.6   0.6                          T                 .4  .18 Ml 2.0         5155073
TCF   003.72 028.8 m E Pn      2013/01/04 04:07:31.9  -0.2                          T                                        5155079
TCF   003.72 028.8 m E Sn      2013/01/04 04:08:13.8  -0.1                          T                                        5155078
TCF   003.72 028.8 m E Sg      2013/01/04 04:08:32.1  -0.2                          T                 .4  .23 Ml 1.9         5155077
BGF   004.19 032.1 m E Pn      2013/01/04 04:07:38.6   0.2                          T                                        5155082
BGF   004.19 032.1 m E Pg      2013/01/04 04:07:52.9  -0.2                          T                                        5155081
BGF   004.19 032.1 m E Sg      2013/01/04 04:08:46.7  -0.1                          T                3.0  .42 Ml 2.5         5155080

.
EVENT     289519
    Date      Time       Latitude Longitude    Depth    Ndef Nsta Gap    Mag1  N    Mag2  N    Mag3  N   Author         ID
       rms   OT_Error      Smajor Sminor Az        Err   mdist  Mdist     Err        Err        Err      Quality

2013/01/04 04:19:09.5     43.7444    8.3525      7.0 f    47    7 148  Ml 1.8  7  Md 2.2  1              bulletin    289619
                                                                                                         _ldg
      0.58   +-  0.13       2.5    2.1   59.71 +-  0.0    0.37   2.13   +-0.4      +-                    m i ke

CORSICA, FRANCE
Sta     Dist  EvAz     Phase      Date       Time     TRes  Azim  AzRes  Slow  SRes Def   SNR       Amp   Per   Mag1   Mag2       ID
SBF   000.67 280.4 m E Pg      2013/01/04 04:19:22.8   0.4                          T                                        5155107
SBF   000.67 280.4 m E Sg      2013/01/04 04:19:31.4   0.1                          T               59.8  .27        Md 2.2  5155106
PGF   001.29 158.2 m E Pn      2013/01/04 04:19:32.3  -0.1                          T                                        5155102
PGF   001.29 158.2 m E Sn      2013/01/04 04:19:48.2  -0.6                          T                1.2  .21 Ml 2.0         5155103
MBDF  001.50 311.4 m E Pn      2013/01/04 04:19:36.1   0.6                          T                                        5155105
MBDF  001.50 311.4 m E Pg      2013/01/04 04:19:37.4  -0.4                          T                                        5155115
MBDF  001.50 311.4 m E Sn      2013/01/04 04:19:55.3   1.2                          T                2.7  .28 Ml 2.0         5155104
SMRF  002.02 277.5 m E Pn      2013/01/04 04:19:42.9   0.6                          T                                        5155114
SMRF  002.02 277.5 m E Pg      2013/01/04 04:19:47.2   0.0                          T                                        5155113
SMRF  002.02 277.5 m E Sn      2013/01/04 04:20:07.4   1.0                          T                                        5155109
SMRF  002.02 277.5 m E Sg      2013/01/04 04:20:14.3   1.1                          T                8.1  .34 Ml 2.6         5155112
LPL   002.12 327.4 m E Pn      2013/01/04 04:19:44.2   0.4                          T                                        5155120
LPL   002.12 327.4 m E Pg      2013/01/04 04:19:49.2   0.1                          T                                        5155119
LPL   002.12 327.4 m E Sn      2013/01/04 04:20:10.1   1.2                          T                                        5155108
LPL   002.12 327.4 m E Sg      2013/01/04 04:20:16.9   0.5                          T                 .2  .18 Ml 1.3         5155118
ORIF  002.13 304.3 m E Pn      2013/01/04 04:19:44.5   0.6                          T                                        5155116
ORIF  002.13 304.3 m E Pg      2013/01/04 04:19:48.7  -0.5                          T                                        5155117
ORIF  002.13 304.3 m E Sn      2013/01/04 04:20:10.1   1.1                          T                                        5155111
ORIF  002.13 304.3 m E Sg      2013/01/04 04:20:16.8   0.2                          T                 .3  .22 Ml 1.4         5155110
LPG   002.09 327.4 m E Pn      2013/01/04 04:19:44.6   0.9                          T                                        5155123
LPG   002.09 327.4 m E Pg      2013/01/04 04:19:48.7  -0.1                          T                                        5155124
LPG   002.09 327.4 m E Sn      2013/01/04 04:20:09.4   1.0                          T                                        5155122
LPG   002.09 327.4 m E Sg      2013/01/04 04:20:15.7  -0.1                          T                 .5  .26 Ml 1.5         5155121

.
EVENT     289520
    Date      Time       Latitude Longitude    Depth    Ndef Nsta Gap    Mag1  N    Mag2  N    Mag3  N   Author         ID
       rms   OT_Error      Smajor Sminor Az        Err   mdist  Mdist     Err        Err        Err      Quality

2013/01/04 04:25:47.5     47.3131   10.8810      2.0      29    7 164  Ml 2.5  7                         bulletin    289620
                                                                                                         _ldg
      0.53   +-  0.17       3.4    1.6  154.23 +-  0.0    0.52   4.10   +-0.3                            m i ke

AUSTRIA
Sta     Dist  EvAz     Phase      Date       Time     TRes  Azim  AzRes  Slow  SRes Def   SNR       Amp   Per   Mag1   Mag2       ID
CDF   002.66 295.7 m E Pn      2013/01/04 04:26:30.0   0.3                          T                                        5155137
CDF   002.66 295.7 m E Pg      2013/01/04 04:26:37.1   0.1                          T                                        5155135
CDF   002.66 295.7 m E Sg      2013/01/04 04:27:10.7  -0.6                          T                2.7  .21 Ml 2.6         5155134
HINF  002.77 281.9 m E Pn      2013/01/04 04:26:31.6   0.5                          T                                        5155150
HINF  002.77 281.9 m E Pg      2013/01/04 04:26:39.4   0.5                          T                                        5155132
HINF  002.77 281.9 m E Sg      2013/01/04 04:27:13.9  -0.8                          T                3.7  .25 Ml 2.5         5155133
HAU   003.14 284.4 m E Pn      2013/01/04 04:26:36.6   0.5                          T                                        5155149
HAU   003.14 284.4 m E Pg      2013/01/04 04:26:45.6  -0.2                          T                                        5155130
HAU   003.14 284.4 m E Sn      2013/01/04 04:27:12.1   0.2                          T                                        5155148
HAU   003.14 284.4 m E Sg      2013/01/04 04:27:25.8  -0.3                          T                6.5  .28 Ml 2.6         5155131
CABF  003.36 259.7 m E Pn      2013/01/04 04:26:39.5   0.4                          T                                        5155147
CABF  003.36 259.7 m E Pg      2013/01/04 04:26:49.8   0.0                          T                                        5155146
CABF  003.36 259.7 m E Sn      2013/01/04 04:27:17.2   0.0                          T                                        5155145
CABF  003.36 259.7 m E Sg      2013/01/04 04:27:31.8  -1.1                          T                 .4  .17 Ml 1.9         5155144
SFTF  004.04 284.9 m E Pn      2013/01/04 04:26:48.4   0.1                          T                                        5155143
SFTF  004.04 284.9 m E Pg      2013/01/04 04:27:01.4  -0.9                          T                                        5155142
SFTF  004.04 284.9 m E Sn      2013/01/04 04:27:33.7   0.3                          T                2.3  .20 Ml 2.7         5155141
MEZF  004.10 289.0 m E Pn      2013/01/04 04:26:48.4  -0.6                          T                                        5155140
MEZF  004.10 289.0 m E Pg      2013/01/04 04:27:03.2  -0.1                          T                                        5155139
MEZF  004.10 289.0 m E Sn      2013/01/04 04:27:35.0   0.3                          T                1.2  .29 Ml 2.3         5155138
PAGF  003.68 291.6 m E Sg      2013/01/04 04:27:42.5  -0.5                          T                2.5  .21 Ml 2.7         5155136

.
EVENT     289541
    Date      Time       Latitude Longitude    Depth    Ndef Nsta Gap    Mag1  N    Mag2  N    Mag3  N   Author         ID
       rms   OT_Error      Smajor Sminor Az        Err   mdist  Mdist     Err        Err        Err      Quality

2013/01/04 07:50:06.2     37.8154   14.8183      9.0 f   204   18 038  Ml 3.5  8                         bulletin    289641
                                                                                                         _ldg
      1.62   +-  0.17       4.5    3.8   19.35 +-  0.0    0.15  49.31   +-0.2                            m i ke

SICILY, ITALY
Sta     Dist  EvAz     Phase      Date       Time     TRes  Azim  AzRes  Slow  SRes Def   SNR       Amp   Per   Mag1   Mag2       ID
PGF   006.49 318.5 m E Pn      2013/01/04 07:51:41.0   1.2                          T                                        5156261
PGF   006.49 318.5 m E Sn      2013/01/04 07:52:50.2   0.5                          T               13.8  .55 Ml 3.8         5156243
SBF   008.23 319.5 m E Pn      2013/01/04 07:52:03.3  -0.2                          T                                        5156260
SBF   008.23 319.5 m E Sn      2013/01/04 07:53:31.5   0.3                          T                7.3  .55 Ml 3.6         5156242
LMR   008.39 313.7 m E Pn      2013/01/04 07:52:05.2  -0.2                          T                                        5156259
LMR   008.39 313.7 m E Sn      2013/01/04 07:53:35.0   0.3                          T                5.4  .61 Ml 3.4         5156241
MBDF  009.18 321.3 m E Pn      2013/01/04 07:52:18.1   1.6                          T                                        5156257
MBDF  009.18 321.3 m E Sn      2013/01/04 07:53:54.4   0.5                          T                7.7  .76 Ml 3.6         5156236
SMRF  009.32 314.2 m E Pn      2013/01/04 07:52:18.8   0.6                          T                                        5156258
SMRF  009.32 314.2 m E Sn      2013/01/04 07:53:57.2   0.2                          T                2.3  .25 Ml 3.6         5156240
LPG   009.76 324.4 m E Pn      2013/01/04 07:52:24.6   0.1                          T                                        5156253
LPG   009.76 324.4 m E Sn      2013/01/04 07:54:08.4   0.5                          T                3.0  .54 Ml 3.4         5156239
LPL   009.78 324.4 m E Pn      2013/01/04 07:52:25.3   0.6                          T                                        5156254
LPL   009.78 324.4 m E Sn      2013/01/04 07:54:09.6   1.2                          T                1.4  .36 Ml 3.3         5156238
ORIF  009.77 319.4 m E Pn      2013/01/04 07:52:26.4   2.1                          T                                        5156255
ORIF  009.77 319.4 m E Sn      2013/01/04 07:54:08.5   0.6                          T                2.1  .44 Ml 3.4         5156237
VIVF  010.37 315.9 m E Pn      2013/01/04 07:52:32.7   0.2                          T                                        5156252
LASF  010.38 310.5 m E Pn      2013/01/04 07:52:32.9   0.3                          T                                        5156256
CABF  010.91 326.4 m E Pn      2013/01/04 07:52:40.4   0.5                          T                                        5156248
HINF  011.57 332.3 m E Pn      2013/01/04 07:52:49.6   0.7                          T                                        5156247
CAF   011.92 310.6 m E Pn      2013/01/04 07:52:53.5  -0.1                          T                                        5156251
HAU   011.92 331.4 m E Pn      2013/01/04 07:52:54.0   0.4                          T                                        5156246
CDF   011.93 335.0 m E Pn      2013/01/04 07:52:55.6   1.8                          T                                        5156245
RJF   012.45 311.1 m E Pn      2013/01/04 07:53:01.1   0.3                          T                                        5156249
PAGF  012.61 331.2 m E Pn      2013/01/04 07:53:03.8   0.8                          T                                        5156244
LFF   012.74 308.4 m E Pn      2013/01/04 07:53:04.7   0.1                          T                                        5156250

.
