EVENT     290850
    Date      Time       Latitude Longitude    Depth    Ndef Nsta Gap    Mag1  N    Mag2  N    Mag3  N   Author         ID
       rms   OT_Error      Smajor Sminor Az        Err   mdist  Mdist     Err        Err        Err      Quality

2013/01/25 04:36:26.6     44.4119    7.2799     12.0 f    44    8 114  Ml 1.9  6  Md 2.0  3              bulletin    290950
                                                                                                         _ldg
      0.28   +-  0.04       1.1     .6   62.41 +-  0.0    0.10   1.30   +-0.4      +-0.0                 m i ke

NORTHERN ITALY
Sta     Dist  EvAz     Phase      Date       Time     TRes  Azim  AzRes  Slow  SRes Def   SNR       Amp   Per   Mag1   Mag2       ID
MBDF  000.48 311.1 m E Pg      2013/01/25 04:36:36.2   0.0                          T                                        5176677
MBDF  000.48 311.1 m E Sg      2013/01/25 04:36:42.8   0.1                          T               26.0  .22        Md 1.9  5176676
SBF   000.56 168.4 m E Pg      2013/01/25 04:36:37.6   0.1                          T                                        5176673
SBF   000.56 168.4 m E Sg      2013/01/25 04:36:45.0   0.0                          T                4.8  .16        Md 1.9  5176672
FRF   000.97 208.5 m E Pg      2013/01/25 04:36:45.0   0.1                          T                                        5176671
FRF   000.97 208.5 m E Sg      2013/01/25 04:36:56.9  -0.6                          T                5.2  .17 Ml 2.3 Md 2.0  5176670
ORIF  001.12 297.4 m E Pn      2013/01/25 04:36:46.8   0.2                          T                                        5176675
ORIF  001.12 297.4 m E P       2013/01/25 04:36:48.0  -0.4                          T                                        5184861
ORIF  001.12 297.4 m E Sn      2013/01/25 04:37:01.3   0.3                          T                3.2  .23 Ml 2.0         5176674
LPG   001.15 341.1 m E Pn      2013/01/25 04:36:47.2  -0.1                          T                                        5184860
LPG   001.15 341.1 m E Pg      2013/01/25 04:36:48.6   0.0                          T                                        5176751
LPG   001.15 341.1 m E Sg      2013/01/25 04:37:03.5   0.0                          T                 .9  .16 Ml 1.7         5176750
LPL   001.17 340.8 m E Pg      2013/01/25 04:36:48.6  -0.3                          T                                        5176753
LPL   001.17 340.8 m E Sg      2013/01/25 04:37:04.1   0.0                          T                 .5  .17 Ml 1.4         5176752
LMR   001.21 207.6 m E Pg      2013/01/25 04:36:49.4   0.1                          T                                        5176669
LMR   001.21 207.6 m E Sn      2013/01/25 04:37:04.1   0.9                          T                                        5184859
LMR   001.21 207.6 m E Sg      2013/01/25 04:37:05.5   0.4                          T                3.1  .21 Ml 2.1         5176668
SMRF  001.30 251.0 m E Pg      2013/01/25 04:36:51.6   0.5                          T                                        5176749
SMRF  001.30 251.0 m E Sg      2013/01/25 04:37:08.6   0.7                          T                5.3  .30 Ml 2.2         5176748

.
EVENT     290852
    Date      Time       Latitude Longitude    Depth    Ndef Nsta Gap    Mag1  N    Mag2  N    Mag3  N   Author         ID
       rms   OT_Error      Smajor Sminor Az        Err   mdist  Mdist     Err        Err        Err      Quality

2013/01/25 05:56:43.8     43.1378   -1.0716     15.0      15    3 170  Ml 1.2  1  Md 1.1  2              bulletin    290952
                                                                                                         _ldg
      0.23   +-  0.09       2.5    1.2     .17 +-  0.0    0.11   1.04   +-         +-0.0                 m i ke

PYRENEES
Sta     Dist  EvAz     Phase      Date       Time     TRes  Azim  AzRes  Slow  SRes Def   SNR       Amp   Per   Mag1   Mag2       ID
SJPF  000.11 257.7 m E Pg      2013/01/25 05:56:47.5   0.1                          T                                        5176771
SJPF  000.11 257.7 m E Sg      2013/01/25 05:56:50.1   0.2                          T                2.6  .15        Md 1.1  5176769
ETSF  000.45 122.3 m E Pg      2013/01/25 05:56:52.4  -0.3                          T                                        5176770
ETSF  000.45 122.3 m E Sg      2013/01/25 05:56:58.8  -0.1                          T                1.9  .22        Md 1.1  5176768
EPF   001.04 095.5 m E Pn      2013/01/25 05:57:02.4   0.0                          T                                        5184862
EPF   001.04 095.5 m E Pg      2013/01/25 05:57:04.0   0.5                          T                                        5176773
EPF   001.04 095.5 m E Sg      2013/01/25 05:57:17.1   0.0                          T                 .6  .23 Ml 1.2         5176772

.
EVENT     290860
    Date      Time       Latitude Longitude    Depth    Ndef Nsta Gap    Mag1  N    Mag2  N    Mag3  N   Author         ID
       rms   OT_Error      Smajor Sminor Az        Err   mdist  Mdist     Err        Err        Err      Quality

2013/01/25 07:14:30.2     47.7343   16.1480     10.0 f   153   30 027  Ml 3.7 11  Md 3.7  1              bulletin    290960
                                                                                                         _ldg
      1.24   +-  0.09       2.3    1.7  164.49 +-  0.0    0.27  11.15   +-0.3      +-                    m i ke

AUSTRIA
Sta     Dist  EvAz     Phase      Date       Time     TRes  Azim  AzRes  Slow  SRes Def   SNR       Amp   Per   Mag1   Mag2       ID
LANF  005.70 285.7 m E P       2013/01/25 07:15:55.7  -1.4                          T                                        5176959
LANF  005.70 285.7 m E S       2013/01/25 07:17:02.4  -1.3                          T                                        5176960
CDF   005.99 279.8 m E Pn      2013/01/25 07:15:56.3  -0.4                          T                                        5176881
CDF   005.99 279.8 m E Pg      2013/01/25 07:16:20.6  -0.3                          T                                        5176880
CDF   005.99 279.8 m E Sg      2013/01/25 07:17:39.6   1.9                          T               18.0  .37 Ml 3.9 Md 3.7  5177395
HINF  006.27 274.2 m E Pn      2013/01/25 07:16:00.7   0.2                          T                                        5176860
HINF  006.27 274.2 m E Pg      2013/01/25 07:16:25.9  -0.1                          T                                        5177284
HINF  006.27 274.2 m E Sn      2013/01/25 07:17:07.9   0.0                          T                                        5176864
HINF  006.27 274.2 m E Sg      2013/01/25 07:17:48.6   2.2                          T                9.5  .33 Ml 3.6         5177121
HAU   006.60 276.0 m E Pn      2013/01/25 07:16:04.9  -0.1                          T                                        5176885
HAU   006.60 276.0 m E Pg      2013/01/25 07:16:33.1   1.0                          T                                        5176884
HAU   006.60 276.0 m E Sg      2013/01/25 07:17:57.1   0.4                          T               14.9  .35 Ml 3.6         5177122
LPG   006.85 254.4 m E Pn      2013/01/25 07:16:08.4  -0.3                          T                                        5184877
LPL   006.85 254.6 m E Pn      2013/01/25 07:16:08.4  -0.3                          T                                        5184878
LPL   006.85 254.6 m E P       2013/01/25 07:16:13.1  -0.6                          T                                        5176869
LPG   006.85 254.4 m E P       2013/01/25 07:16:13.1  -0.5                          T                                        5176868
CABF  006.95 264.4 m E Pn      2013/01/25 07:16:09.7  -0.1                          T                                        5176875
CABF  006.95 264.4 m E Pg      2013/01/25 07:16:38.4  -0.2                          T                                        5177287
CABF  006.95 264.4 m E Sn      2013/01/25 07:17:24.2  -0.1                          T                                        5177286
CABF  006.95 264.4 m E Sg      2013/01/25 07:18:08.2   0.4                          T                                        5177285
PAGF  007.02 280.6 m E Pn      2013/01/25 07:16:10.3  -0.4 102.9  10.0              T                                        5176883
PAGF  007.02 280.6 m E Pg      2013/01/25 07:16:39.5  -0.4  97.4  4.5               T                                        5176882
PAGF  007.02 280.6 m E Sn      2013/01/25 07:17:25.7  -0.2 100.5  7.7               T                                        5177279
PAGF  007.02 280.6 m E Sg      2013/01/25 07:18:10.6   0.7 112.3  19.5              T              153.4  .85 Ml 4.5         5177278
THEF  006.84 277.9 m E Pn      2013/01/25 07:16:10.8   2.6                          T                                        5176965
SFTF  007.47 277.7 m E Pn      2013/01/25 07:16:17.0   0.2  99.0  9.5               T                                        5177283
SFTF  007.47 277.7 m E Pg      2013/01/25 07:16:48.3   0.1  98.6  9.1               T                                        5177282
SFTF  007.47 277.7 m E Sg      2013/01/25 07:18:24.5   0.5                          T               11.4  .50 Ml 3.7         5177280
SBF   007.21 240.7 m E P       2013/01/25 07:16:17.5  -1.1                          T                                        5176866
MBDF  007.16 248.6 m E P       2013/01/25 07:16:17.8  -0.1                          T                                        5176871
GIVF  007.83 291.8 m E Pn      2013/01/25 07:16:21.4  -0.2                          T                                        5176879
GIVF  007.83 291.8 m E Pg      2013/01/25 07:16:54.7  -0.1                          T                                        5177155
GIVF  007.83 291.8 m E Sn      2013/01/25 07:17:44.8  -0.3                          T                                        5177394
GIVF  007.83 291.8 m E Sg      2013/01/25 07:18:33.8  -1.2                          T                3.9  .27 Ml 3.6         5177426
ORIF  007.65 252.2 m E P       2013/01/25 07:16:23.5  -1.1                          T                                        5176870
BAIF  008.21 290.9 m E Pn      2013/01/25 07:16:26.6  -0.2                          T                                        5176878
BAIF  008.21 290.9 m E Pg      2013/01/25 07:17:01.4  -0.3                          T                                        5184870
BAIF  008.21 290.9 m E Sn      2013/01/25 07:17:53.3  -0.9                          T                                        5177393
BAIF  008.21 290.9 m E Sg      2013/01/25 07:18:46.7   0.0                          T               26.8  .95 Ml 3.9         5184869
LOR   008.34 271.3 m E Pn      2013/01/25 07:16:28.4  -0.2  92.2  9.9               T                                        5176877
LOR   008.34 271.3 m E Pg      2013/01/25 07:17:04.1   0.0  91.5  9.3               T                                        5177392
LOR   008.34 271.3 m E Sn      2013/01/25 07:17:56.4  -1.0                          T                                        5177391
LOR   008.34 271.3 m E Sg      2013/01/25 07:18:50.0  -0.9  95.5  13.2              T                                        5177390
SMF   008.46 267.1 m E Pn      2013/01/25 07:16:30.2   0.0                          T                                        5176853
SMF   008.46 267.1 m E Sn      2013/01/25 07:17:59.9  -0.3                          T                1.4  .25 Ml 3.2         5176888
VIVF  008.45 254.3 m E Pn      2013/01/25 07:16:31.8   1.6                          T                                        5176872
SMRF  008.28 246.9 m E P       2013/01/25 07:16:32.1  -1.3                          T                                        5176867
SSF   008.61 270.2 m E Pn      2013/01/25 07:16:32.2   0.0                          T                                        5176876
SSF   008.61 270.2 m E Pg      2013/01/25 07:17:08.1  -0.9                          T                                        5177389
SSF   008.61 270.2 m E Sn      2013/01/25 07:18:03.5  -0.2                          T                                        5177388
SSF   008.61 270.2 m E Sg      2013/01/25 07:18:59.3   0.0                          T                                        5177387
AVF   008.76 268.5 m E P       2013/01/25 07:16:37.8  -2.1                          T                                        5176863
AVF   008.76 268.5 m E Pg      2013/01/25 07:17:12.3   0.5                          T                                        5177288
AVF   008.76 268.5 m E Sn      2013/01/25 07:18:07.3   0.0                          T                                        5176889
AVF   008.76 268.5 m E Sg      2013/01/25 07:19:03.2  -0.8                          T                                        5184871
BGF   009.14 267.5 m E Pn      2013/01/25 07:16:39.4  -0.2                          T                                        5176854
BGF   009.14 267.5 m E Pg      2013/01/25 07:17:18.8  -0.2                          T                                        5184874
BGF   009.14 267.5 m E Sn      2013/01/25 07:18:16.3  -0.3                          T                                        5184879
BGF   009.14 267.5 m E Sg      2013/01/25 07:19:15.5  -0.6                          T                8.8  .55 Ml 3.8         5184868
HYF   009.16 272.1 m E Pn      2013/01/25 07:16:39.8  -0.1                          T                                        5176855
HYF   009.16 272.1 m E Pg      2013/01/25 07:17:18.8  -0.5                          T                                        5184872
HYF   009.16 272.1 m E Sn      2013/01/25 07:18:16.8  -0.2                          T                                        5184873
LASF  009.32 251.4 m E Pn      2013/01/25 07:16:41.9   0.0                          T                                        5176873
LASF  009.32 251.4 m E Pg      2013/01/25 07:17:22.1  -0.1                          T                                        5177290
LASF  009.32 251.4 m E Sn      2013/01/25 07:18:23.8   3.0                          T                                        5177289
TCF   009.63 266.5 m E Pn      2013/01/25 07:16:46.0  -0.3                          T                                        5176862
TCF   009.63 266.5 m E Sn      2013/01/25 07:18:28.0  -0.4                          T                 .9  .16 Ml 3.4         5176890
CAF   010.14 259.1 m E Pn      2013/01/25 07:16:52.1  -1.1                          T                                        5176874
CAF   010.14 259.1 m E Sn      2013/01/25 07:18:45.3   4.9                          T                1.3  .18 Ml 3.6         5176887
MTLF  010.71 250.9 m E Pn      2013/01/25 07:17:01.1   0.1                          T                                        5184867
LDF   010.91 280.5 m E Pn      2013/01/25 07:17:03.7   0.1                          T                                        5184875
LFF   011.01 261.0 m E Pn      2013/01/25 07:17:04.5  -0.5                          T                                        5184876
MFF   011.15 270.2 m E Pn      2013/01/25 07:17:09.6   2.7                          T                                        5176861

.
EVENT     290898
    Date      Time       Latitude Longitude    Depth    Ndef Nsta Gap    Mag1  N    Mag2  N    Mag3  N   Author         ID
       rms   OT_Error      Smajor Sminor Az        Err   mdist  Mdist     Err        Err        Err      Quality

2013/01/25 10:56:10.5     43.0897   -1.3912      3.0 f    22    7 163  Ml 2.0  5  Md 2.0  2              bulletin    290998
                                                                                                         _ldg
      0.28   +-  0.09       1.6    1.3   80.87 +-  0.0    0.12   3.10   +-0.4      +-0.1                 m i ke

PYRENEES
Sta     Dist  EvAz     Phase      Date       Time     TRes  Azim  AzRes  Slow  SRes Def   SNR       Amp   Per   Mag1   Mag2       ID
SJPF  000.12 079.0 m E Pg      2013/01/25 10:56:13.4   0.2                          T                                        5177219
SJPF  000.12 079.0 m E Sg      2013/01/25 10:56:15.3   0.2                          T               37.5  .20        Md 2.0  5177216
ETSF  000.64 107.1 m E Pg      2013/01/25 10:56:22.3  -0.4                          T                                        5177218
ETSF  000.64 107.1 m E Sg      2013/01/25 10:56:30.7  -0.4                          T                7.9  .21        Md 1.9  5177217
EPF   001.27 092.1 m E Pg      2013/01/25 10:56:34.4   0.1                          T                                        5177222
EPF   001.27 092.1 m E Sg      2013/01/25 10:56:50.9   0.2                          T                1.4  .17 Ml 1.9         5177223
CAF   003.10 052.5 m E Pn      2013/01/25 10:56:58.6   0.2                          T                                        5177232
CAF   003.10 052.5 m E Sn      2013/01/25 10:57:33.6  -0.1                          T                                        5184919
CAF   003.10 052.5 m E Sg      2013/01/25 10:57:48.0   0.3                          T                3.9  .23 Ml 2.7         5177224
LFF   002.40 039.0 m E Sg      2013/01/25 10:57:26.2   0.1                          T                3.2  .31 Ml 2.1         5191186
MTLF  002.65 083.3 m E Sg      2013/01/25 10:57:33.6  -0.1                          T                 .7  .24 Ml 1.8         5191184
RJF   003.05 042.4 m E Sg      2013/01/25 10:57:46.0  -0.1                          T                 .5  .11 Ml 1.7         5191185

.
EVENT     290901
    Date      Time       Latitude Longitude    Depth    Ndef Nsta Gap    Mag1  N    Mag2  N    Mag3  N   Author         ID
       rms   OT_Error      Smajor Sminor Az        Err   mdist  Mdist     Err        Err        Err      Quality

2013/01/25 11:14:20.1     43.0972    -.6071      2.0      16    4 161  Ml 1.3  1  Md 1.5  2              bulletin    291001
                                                                                                         _ldg
      0.34   +-  0.10       2.6    1.1    8.58 +-  0.0    0.07   2.08   +-         +-0.0                 m i ke

PYRENEES
Sta     Dist  EvAz     Phase      Date       Time     TRes  Azim  AzRes  Slow  SRes Def   SNR       Amp   Per   Mag1   Mag2       ID
ETSF  000.20 169.9 m E Pg      2013/01/25 11:14:24.4   0.2                          T                                        5177236
ETSF  000.20 169.9 m E Sg      2013/01/25 11:14:27.2   0.1                          T               12.1  .22        Md 1.5  5177233
SJPF  000.45 272.3 m E Pg      2013/01/25 11:14:28.8   0.0                          T                                        5177235
SJPF  000.45 272.3 m E Sg      2013/01/25 11:14:35.1   0.3                          T                6.9  .26        Md 1.4  5177234
EPF   000.70 095.2 m E Pg      2013/01/25 11:14:33.5   0.2                          T                                        5177252
EPF   000.70 095.2 m E Sg      2013/01/25 11:14:42.4   0.0                          T                2.4  .22                5177253
MTLF  002.08 082.3 m E Sg      2013/01/25 11:15:25.4  -0.1                          T                 .2  .17 Ml 1.3         5191187

.
