EVENT     262097
    Date      Time       Latitude Longitude    Depth    Ndef Nsta Gap    Mag1  N    Mag2  N    Mag3  N   Author         ID
       rms   OT_Error      Smajor Sminor Az        Err   mdist  Mdist     Err        Err        Err      Quality

2011/08/03 01:49:05.2     44.2776    4.3997      7.0 f    37   16 119  Ml 1.8 18  Md 2.0  3              js067245    262097

      0.74   +-  0.09       1.6    1.5  170.58 +-  0.0    0.44   3.95   +-0.2      +-0.1                 m i ke

FRANCE
Sta     Dist  EvAz     Phase      Date       Time     TRes  Azim  AzRes  Slow  SRes Def   SNR       Amp   Per   Mag1   Mag2       ID
LASF  000.44 242.9 m E Pg      2011/08/03 01:49:13.6  -0.1                          T                                        4731934
LASF  000.44 242.9 m E Sg      2011/08/03 01:49:20.3   0.7                          T                8.9  .23        Md 1.9  4731939
VIVF  000.61 018.6 m E Pg      2011/08/03 01:49:17.3   0.4                          T                                        4731933
VIVF  000.61 018.6 m E Pn      2011/08/03 01:49:19.1   0.3                          T                                        4733407
VIVF  000.61 018.6 m E Sg      2011/08/03 01:49:25.3   0.4                          T                6.4  .18        Md 2.1  4731938
VIVF  000.61 018.6 m E Sn      2011/08/03 01:49:28.0  -0.3                          T                9.6  .16        Md 2.0  4733406
ORIF  001.24 058.3 m E Pn      2011/08/03 01:49:27.5   0.1                          T                                        4733403
ORIF  001.24 058.3 m E Sn      2011/08/03 01:49:43.1  -0.2                          T                 .9  .32 Ml 1.4         4731937
FRF   001.77 113.0 m E P       2011/08/03 01:49:36.5  -0.2                          T                                        4733402
FRF   001.77 113.0 m E Sg      2011/08/03 01:50:00.7  -0.4                          T                 .9  .30 Ml 1.7         4731926
LMR   001.80 121.0 m E Pg      2011/08/03 01:49:38.3  -0.3                          T                                        4733401
LMR   001.80 121.0 m E Sg      2011/08/03 01:50:01.5  -0.3                          T                 .7  .19 Ml 1.8         4731925
CAF   001.79 292.0 m E Pg      2011/08/03 01:49:38.7   0.2                          T                                        4731935
CAF   001.79 292.0 m E Sg      2011/08/03 01:50:01.5  -0.1                          T                2.1  .23 Ml 2.1         4731941
MTLF  001.84 240.1 m E Pg      2011/08/03 01:49:39.1  -0.2                          T                                        4731927
MTLF  001.84 240.1 m E Sn      2011/08/03 01:49:58.2   0.6                          T                                        4731928
MTLF  001.84 240.1 m E Sg      2011/08/03 01:50:03.7   0.6                          T                1.5  .22 Ml 2.0         4731940
RJF   002.30 297.6 m E Pg      2011/08/03 01:49:48.1   0.2                          T                                        4733404
RJF   002.30 297.6 m E Sg      2011/08/03 01:50:16.6  -0.8                          T                1.5  .23 Ml 1.7         4731942
TCF   002.54 323.2 m E Pg      2011/08/03 01:49:51.9  -0.4                          T                                        4731932
TCF   002.54 323.2 m E Sg      2011/08/03 01:50:24.4  -0.5                          T                 .7  .24 Ml 1.8         4731948
BGF   002.53 334.9 m E Pg      2011/08/03 01:49:52.4   0.3                          T                                        4731936
BGF   002.53 334.9 m E Sg      2011/08/03 01:50:23.4  -1.2                          T                 .8  .21 Ml 1.9         4731944
AVF   002.62 344.0 m E Pg      2011/08/03 01:49:54.0   0.2                          T                                        4733405
AVF   002.62 344.0 m E Sg      2011/08/03 01:50:26.7  -0.7                          T                 .3  .20 Ml 1.6         4731946
SMF   002.40 350.8 m E Sg      2011/08/03 01:50:19.8  -0.9                          T                 .9  .22 Ml 1.9         4731945
LFF   002.70 285.5 m E Sg      2011/08/03 01:50:28.9  -1.0                          T                1.1  .24 Ml 1.8         4733400
LOR   003.02 353.0 m E Sg      2011/08/03 01:50:38.6  -1.3                          T                 .8  .23 Ml 2.0         4731947
EPF   003.20 248.5 m E Sg      2011/08/03 01:50:46.5   0.9                          T                 .8  .21 Ml 2.1         4731929
MFF   003.95 307.6 m E Sg      2011/08/03 01:51:07.9  -1.2                          T                 .2  .21 Ml 1.8         4731930

.
EVENT     262099
    Date      Time       Latitude Longitude    Depth    Ndef Nsta Gap    Mag1  N    Mag2  N    Mag3  N   Author         ID
       rms   OT_Error      Smajor Sminor Az        Err   mdist  Mdist     Err        Err        Err      Quality

2011/08/03 02:12:45.7     44.2851    4.3997      7.0 f    26   10 118  Ml 1.6  8                         js067245    262099

      0.29   +-  0.07       1.6    1.0  148.52 +-  0.0    0.44   3.20   +-0.3                            m i ke

FRANCE
Sta     Dist  EvAz     Phase      Date       Time     TRes  Azim  AzRes  Slow  SRes Def   SNR       Amp   Per   Mag1   Mag2       ID
LASF  000.44 242.0 m E Pg      2011/08/03 02:12:54.4   0.1                          T                                        4731953
LASF  000.44 242.0 m E Sg      2011/08/03 02:13:00.2  -0.1                          T                3.1  .20                4731954
VIVF  000.60 018.8 m E Pg      2011/08/03 02:12:57.2  -0.1                          T                                        4733028
VIVF  000.60 018.8 m E Pn      2011/08/03 02:12:58.9  -0.3                          T                                        4733419
VIVF  000.60 018.8 m E Sg      2011/08/03 02:13:05.0  -0.2                          T                3.3  .21                4731951
VIVF  000.60 018.8 m E Sn      2011/08/03 02:13:07.8  -0.8                          T                4.3  .14                4733418
ORIF  001.23 058.6 m E Pn      2011/08/03 02:13:08.2   0.4                          T                                        4733412
ORIF  001.23 058.6 m E Sn      2011/08/03 02:13:23.8   0.1                          T                 .6  .31 Ml 1.2         4733411
CAF   001.79 291.8 m E Pn      2011/08/03 02:13:15.5   0.2                          T                                        4733414
CAF   001.79 291.8 m E Pg      2011/08/03 02:13:19.2   0.2                          T                                        4733027
CAF   001.79 291.8 m E Sg      2011/08/03 02:13:41.6  -0.4                          T                1.3  .19 Ml 2.0         4731959
MTLF  001.84 239.9 m E Pn      2011/08/03 02:13:16.0  -0.1                          T                                        4733413
MTLF  001.84 239.9 m E Pg      2011/08/03 02:13:19.9   0.0                          T                                        4733026
MTLF  001.84 239.9 m E Sg      2011/08/03 02:13:43.3  -0.4                          T                 .6  .21 Ml 1.7         4731956
RJF   002.29 297.4 m E Pn      2011/08/03 02:13:22.3   0.1                          T                                        4733417
RJF   002.29 297.4 m E Pg      2011/08/03 02:13:28.8   0.5                          T                                        4733416
LFF   002.69 285.3 m E Pg      2011/08/03 02:13:35.7   0.0                          T                                        4733415
FRF   001.78 113.3 m E Sg      2011/08/03 02:13:41.5  -0.2                          T                 .4  .21 Ml 1.5         4733410
LMR   001.80 121.2 m E Sg      2011/08/03 02:13:42.4   0.0                          T                 .5  .23 Ml 1.5         4731984
EPF   003.20 248.3 m E Sg      2011/08/03 02:14:25.4  -0.9                          T                 .4  .21 Ml 1.8         4731985

.
EVENT     262165
    Date      Time       Latitude Longitude    Depth    Ndef Nsta Gap    Mag1  N    Mag2  N    Mag3  N   Author         ID
       rms   OT_Error      Smajor Sminor Az        Err   mdist  Mdist     Err        Err        Err      Quality

2011/08/03 02:12:48.3     44.2947    4.4015      6.0 f    19   11 118  Ml 1.5 11  Md 1.7  3              js067245    262165

      0.31   +-  0.09       1.9    1.2  146.98 +-  0.0    0.45   3.21   +-0.3      +-0.2                 m i ke

FRANCE
Sta     Dist  EvAz     Phase      Date       Time     TRes  Azim  AzRes  Slow  SRes Def   SNR       Amp   Per   Mag1   Mag2       ID
LASF  000.45 241.0 m E Pg      2011/08/03 02:12:57.0   0.0                          T                                        4733054
LASF  000.45 241.0 m E Sg      2011/08/03 02:13:02.9   0.0                          T                                Md 1.7  4733053
VIVF  000.59 019.0 m E Pg      2011/08/03 02:12:59.4  -0.2                          T                                        4733055
VIVF  000.59 019.0 m E Sg      2011/08/03 02:13:07.5   0.1                          T                                Md 1.5  4733052
VIVF  000.59 019.0 m E Sn      2011/08/03 02:13:10.3  -0.9                          T                3.3  .18        Md 1.8  4733427
ORIF  001.23 058.9 m E Pn      2011/08/03 02:13:10.9   0.4                          T                                        4733425
ORIF  001.23 058.9 m E Sn      2011/08/03 02:13:26.4   0.1                          T                 .3  .21 Ml 1.1         4733426
CAF   001.78 291.5 m E Pg      2011/08/03 02:13:21.9   0.3                          T                                        4733046
CAF   001.78 291.5 m E Sg      2011/08/03 02:13:44.5  -0.1                          T                1.0  .16 Ml 2.0         4733424
MTLF  001.85 239.7 m E Pg      2011/08/03 02:13:22.4  -0.3                          T                                        4733051
MTLF  001.85 239.7 m E Sg      2011/08/03 02:13:46.8   0.3                          T                 .6  .23 Ml 1.6         4733049
LMR   001.80 121.5 m E Sg      2011/08/03 02:13:44.9  -0.2                          T                 .4  .21 Ml 1.5         4733047
RJF   002.29 297.2 m E Sg      2011/08/03 02:14:00.6   0.3                          T                 .5  .18 Ml 1.4         4733045
SMF   002.38 350.7 m E Sg      2011/08/03 02:14:03.3   0.0                          T                 .7  .28 Ml 1.7         4733044
AVF   002.60 343.9 m E Sg      2011/08/03 02:14:10.0  -0.1                          T                 .3  .21 Ml 1.5         4733422
LFF   002.69 285.1 m E Sg      2011/08/03 02:14:12.7  -0.2                          T                 .6  .23 Ml 1.6         4733423
EPF   003.21 248.2 m E Sg      2011/08/03 02:14:28.5  -0.5                          T                 .2  .21 Ml 1.5         4733048

.
EVENT     262100
    Date      Time       Latitude Longitude    Depth    Ndef Nsta Gap    Mag1  N    Mag2  N    Mag3  N   Author         ID
       rms   OT_Error      Smajor Sminor Az        Err   mdist  Mdist     Err        Err        Err      Quality

2011/08/03 02:28:09.2     44.2825    4.4090      4.0 f    59   25 118  Ml 2.1 26  Md 2.5  3              js067245    262100

      0.57   +-  0.06       1.2    1.1  155.16 +-  0.0    0.45   4.37   +-0.3      +-0.1                 m i ke

FRANCE
Sta     Dist  EvAz     Phase      Date       Time     TRes  Azim  AzRes  Slow  SRes Def   SNR       Amp   Per   Mag1   Mag2       ID
LASF  000.45 242.7 m E Pg      2011/08/03 02:28:17.8   0.0                          T                                        4732036
LASF  000.45 242.7 m E Sg      2011/08/03 02:28:23.6  -0.1                          T               23.0  .18        Md 2.5  4732017
VIVF  000.60 018.1 m E Pg      2011/08/03 02:28:20.7   0.0                          T                                        4732035
VIVF  000.60 018.1 m E Pn      2011/08/03 02:28:22.3  -0.7                          T                                        4733440
VIVF  000.60 018.1 m E Sg      2011/08/03 02:28:28.5  -0.1                          T               34.0  .26        Md 2.6  4732016
VIVF  000.60 018.1 m E Sn      2011/08/03 02:28:31.3  -1.3                          T               22.9  .16        Md 2.5  4733439
ORIF  001.23 058.3 m E Pn      2011/08/03 02:28:31.9   0.4                          T                                        4732034
ORIF  001.23 058.3 m E Sn      2011/08/03 02:28:47.2  -0.4                          T                1.2  .23 Ml 1.7         4732013
FRF   001.77 113.3 m E Pn      2011/08/03 02:28:38.5  -0.3                          T                                        4732033
FRF   001.77 113.3 m E P       2011/08/03 02:28:40.8  -0.2                          T                                        4733428
FRF   001.77 113.3 m E Sn      2011/08/03 02:29:00.5   0.0                          T                                        4732012
FRF   001.77 113.3 m E Sg      2011/08/03 02:29:05.2   0.3                          T                3.2  .30 Ml 2.2         4732015
CAF   001.79 291.8 m E Pn      2011/08/03 02:28:38.9  -0.3                          T                                        4733437
CAF   001.79 291.8 m E Pg      2011/08/03 02:28:42.9   0.3                          T                                        4732038
CAF   001.79 291.8 m E Sg      2011/08/03 02:29:04.8  -0.9                          T                3.0  .22 Ml 2.3         4732020
MTLF  001.84 240.1 m E Pn      2011/08/03 02:28:39.6  -0.3                          T                                        4732048
MTLF  001.84 240.1 m E Pg      2011/08/03 02:28:43.4  -0.1                          T                                        4732037
MTLF  001.84 240.1 m E Sg      2011/08/03 02:29:06.9  -0.4                          T                3.3  .25 Ml 2.3         4732018
LMR   001.79 121.2 m E Pg      2011/08/03 02:28:42.6   0.2                          T                                        4732032
LMR   001.79 121.2 m E Sg      2011/08/03 02:29:06.7   1.1                          T                3.2  .23 Ml 2.3         4732014
SMF   002.40 350.6 m E Pn      2011/08/03 02:28:46.8  -0.6                          T                                        4733436
SMF   002.40 350.6 m E Pg      2011/08/03 02:28:53.9   0.3                          T                                        4732042
SMF   002.40 350.6 m E Sn      2011/08/03 02:29:14.5  -1.0                          T                                        4732031
SMF   002.40 350.6 m E Sg      2011/08/03 02:29:24.1  -0.4                          T                2.1  .22 Ml 2.3         4732025
CABF  002.61 026.3 m E Pn      2011/08/03 02:28:50.0  -0.4                          T                                        4732049
CABF  002.61 026.3 m E Pg      2011/08/03 02:28:57.8   0.1                          T                                        4732044
CABF  002.61 026.3 m E Sg      2011/08/03 02:29:30.4  -0.9                          T                2.6  .23 Ml 2.4         4732027
RJF   002.30 297.4 m E Pg      2011/08/03 02:28:52.1   0.3                          T                                        4732039
RJF   002.30 297.4 m E Sg      2011/08/03 02:29:21.2  -0.2                          T                2.6  .20 Ml 2.1         4732022
LOR   003.01 352.8 m E Pn      2011/08/03 02:28:56.0   0.3                          T                                        4732050
LOR   003.01 352.8 m E Pg      2011/08/03 02:29:05.3   0.3                          T                                        4732051
LOR   003.01 352.8 m E Sg      2011/08/03 02:29:42.8  -0.9                          T                2.1  .27 Ml 2.3         4732030
BGF   002.53 334.7 m E Pg      2011/08/03 02:28:56.6   0.5                          T                                        4732041
BGF   002.53 334.7 m E Sg      2011/08/03 02:29:28.2  -0.4                          T                4.1  .28 Ml 2.5         4732024
AVF   002.62 343.9 m E Pg      2011/08/03 02:28:58.0   0.3                          T                                        4732043
AVF   002.62 343.9 m E Sg      2011/08/03 02:29:30.6  -0.7                          T                1.0  .22 Ml 2.0         4732026
SSF   002.85 347.5 m E Pg      2011/08/03 02:29:02.1   0.1                          T                                        4732047
SSF   002.85 347.5 m E Sg      2011/08/03 02:29:37.9  -0.8                          T                1.1  .20 Ml 2.2         4732029
MBDF  001.75 074.5 m E Sg      2011/08/03 02:29:03.8  -0.6                          T                 .4  .24 Ml 1.4         4733432
EPF   003.21 248.4 m E Pg      2011/08/03 02:29:09.6   1.0                          T                                        4733438
EPF   003.21 248.4 m E Sg      2011/08/03 02:29:49.4  -0.5                          T                2.7  .30 Ml 2.4         4732019
LPL   002.06 052.4 m E Sg      2011/08/03 02:29:13.9  -0.4                          T                1.1  .28 Ml 1.8         4733431
LPG   002.06 053.1 m E Sg      2011/08/03 02:29:14.2  -0.2                          T                1.3  .28 Ml 1.9         4733430
SBF   002.22 099.8 m E Sg      2011/08/03 02:29:19.6   0.5                          T                2.4  .31 Ml 2.1         4733429
TCF   002.54 323.0 m E Sg      2011/08/03 02:29:28.2  -0.7                          T                1.3  .27 Ml 2.0         4732028
PAGF  004.37 011.6 m E Pg      2011/08/03 02:29:30.5   0.5                          T                                        4732045
LFF   002.70 285.4 m E Sg      2011/08/03 02:29:33.4  -0.6                          T                2.4  .29 Ml 2.1         4732021
ETSF  003.87 250.8 m E Sg      2011/08/03 02:30:10.7   0.3                          T                1.1  .32 Ml 2.2         4733433
HINF  003.92 024.8 m E Sg      2011/08/03 02:30:11.5  -0.7                          T                1.5  .27 Ml 2.4         4733435
HAU   003.96 019.2 m E Sg      2011/08/03 02:30:12.2  -1.1                          T                2.0  .28 Ml 2.3         4733434

.
EVENT     262102
    Date      Time       Latitude Longitude    Depth    Ndef Nsta Gap    Mag1  N    Mag2  N    Mag3  N   Author         ID
       rms   OT_Error      Smajor Sminor Az        Err   mdist  Mdist     Err        Err        Err      Quality

2011/08/03 03:01:42.5     43.1068   -1.4453      2.0       6    3 340  Ml 1.2  1  Md 1.2  2              js067245    262102

      0.13   +-  0.33       9.1    4.9  176.50 +-  0.0    0.16   1.31   +-         +-0.1                 m i ke

PYRENEES
Sta     Dist  EvAz     Phase      Date       Time     TRes  Azim  AzRes  Slow  SRes Def   SNR       Amp   Per   Mag1   Mag2       ID
SJPF  000.16 087.6 m E Pg      2011/08/03 03:01:45.2  -0.7                          T                                        4732055
SJPF  000.16 087.6 m E Sg      2011/08/03 03:01:47.9  -0.3                          T                9.2  .22        Md 1.3  4732054
ETSF  000.68 107.5 m E Pg      2011/08/03 03:01:55.4  -0.1                          T                                        4732052
ETSF  000.68 107.5 m E Sg      2011/08/03 03:02:04.6   0.2                          T                 .8  .21        Md 1.2  4732053
EPF   001.31 092.7 m E Pg      2011/08/03 03:02:07.1   0.1                          T                                        4733057
EPF   001.31 092.7 m E Sg      2011/08/03 03:02:24.0   0.0                          T                 .4  .24 Ml 1.2         4733058

.
