EVENT     286319
    Date      Time       Latitude Longitude    Depth    Ndef Nsta Gap    Mag1  N    Mag2  N    Mag3  N   Author         ID
       rms   OT_Error      Smajor Sminor Az        Err   mdist  Mdist     Err        Err        Err      Quality

2012/11/05 13:01:08.4     42.5697    1.1051      4.0 f    52    6 045  Ml 2.1  6  Md 2.1  2              bulletin    286419
                                                                                                         _ldg
      0.39   +-  0.04        .9     .7   17.17 +-  0.0    0.12   2.51   +-0.2      +-0.0                 m i ke

PYRENEES
Sta     Dist  EvAz     Phase      Date       Time     TRes  Azim  AzRes  Slow  SRes Def   SNR       Amp   Per   Mag1   Mag2       ID
EPF   000.73 309.5 m E Pg      2012/11/05 13:01:22.3   0.1                          T                                        5109856
EPF   000.73 309.5 m E Sg      2012/11/05 13:01:31.3  -0.4                          T               12.0  .21        Md 2.0  5109857
MTLF  001.12 046.3 m E Pg      2012/11/05 13:01:29.7   0.3                          T                                        5109860
MTLF  001.12 046.3 m E Sg      2012/11/05 13:01:43.9  -0.1                          T                2.4  .20 Ml 1.9 Md 2.1  5109871
ETSF  001.27 285.6 m E Pn      2012/11/05 13:01:31.8   0.5                          T                                        5109854
ETSF  001.27 285.6 m E Sg      2012/11/05 13:01:48.6   0.0                          T                2.8  .20 Ml 2.1         5109855
SJPF  001.80 288.4 m E Pn      2012/11/05 13:01:38.7   0.3                          T                                        5109863
SJPF  001.80 288.4 m E Pg      2012/11/05 13:01:41.9   0.1                          T                                        5109864
SJPF  001.80 288.4 m E Sn      2012/11/05 13:02:00.3  -0.1                          T                                        5109866
SJPF  001.80 288.4 m E Sg      2012/11/05 13:02:05.0   0.0                          T                2.9  .23 Ml 2.3         5109865
CAF   002.46 016.1 m E Pn      2012/11/05 13:01:47.4   0.0                          T                                        5109867
CAF   002.46 016.1 m E Pg      2012/11/05 13:01:53.1  -0.9                          T                                        5109868
CAF   002.46 016.1 m E Sn      2012/11/05 13:02:16.6   0.5                          T                 .6  .25 Ml 1.7         5109870
CAF   002.46 016.1 m E Sg      2012/11/05 13:02:25.5  -0.1                          T                1.5  .16 Ml 2.3         5109869
LASF  002.51 052.2 m E Pg      2012/11/05 13:01:54.7  -0.3                          T                                        5109859
LASF  002.51 052.2 m E Sg      2012/11/05 13:02:27.1  -0.2                          T                1.0  .18 Ml 2.1         5109858

.
EVENT     286331
    Date      Time       Latitude Longitude    Depth    Ndef Nsta Gap    Mag1  N    Mag2  N    Mag3  N   Author         ID
       rms   OT_Error      Smajor Sminor Az        Err   mdist  Mdist     Err        Err        Err      Quality

2012/11/05 22:00:07.0     36.5327  -11.7442     20.0 f   104   14 282  Ml 4.0 12                         bulletin    286431
                                                                                                         _ldg
      0.63   +-  0.22       4.2    3.1   42.08 +-  0.0    2.42  15.46   +-0.2                            m i ke

NORTH ATLANTIC OCEAN
Sta     Dist  EvAz     Phase      Date       Time     TRes  Azim  AzRes  Slow  SRes Def   SNR       Amp   Per   Mag1   Mag2       ID
SJPF  010.42 047.7 m E Pn      2012/11/05 22:02:33.4   0.7                          T                                        5109910
SJPF  010.42 047.7 m E Sn      2012/11/05 22:04:22.3   0.2                          T                5.4  .29 Ml 4.1         5109925
ETSF  010.70 050.1 m E Pn      2012/11/05 22:02:37.6   1.0                          T                                        5109909
ETSF  010.70 050.1 m E Sn      2012/11/05 22:04:30.0   1.0                          T                3.6  .38 Ml 3.8         5109924
EPF   011.33 051.4 m E Pn      2012/11/05 22:02:46.4   1.2                          T                9.6  .40 Ml 4.3         5109904
EPF   011.33 051.4 m E Sn      2012/11/05 22:04:42.8  -1.1                          T               13.4  .57 Ml 4.3         5109923
LFF   012.64 044.5 m E Pn      2012/11/05 22:03:02.5  -0.4                          T                6.9  .39 Ml 4.1         5109907
LFF   012.64 044.5 m E Sn      2012/11/05 22:05:14.8  -0.5                          T                2.9  .40 Ml 3.7         5120431
QUIF  013.02 026.4 m E Pn      2012/11/05 22:03:07.9  -0.2                          T                2.8  .25 Ml 4.1         5109903
QUIF  013.02 026.4 m E Sn      2012/11/05 22:05:23.1  -1.1                          T                5.3  .36 Ml 4.2         5109928
RJF   013.30 044.7 m E Pn      2012/11/05 22:03:10.9  -1.1                          T                                        5109906
MFF   013.27 037.1 m E Pn      2012/11/05 22:03:11.4  -0.1                          T                                        5109905
MFF   013.27 037.1 m E Sn      2012/11/05 22:05:27.4  -2.9                          T                                        5109927
CAF   013.40 047.0 m E Pn      2012/11/05 22:03:12.1  -1.2                          T                2.2  .31 Ml 3.9         5109908
CAF   013.40 047.0 m E Sn      2012/11/05 22:05:31.0  -2.4                          T                1.7  .40 Ml 3.7         5109926
ROSF  013.34 025.2 m E Pn      2012/11/05 22:03:12.4   0.0                          T                                        5109902
ROSF  013.34 025.2 m E Sn      2012/11/05 22:05:30.9  -1.0                          T                7.7  .35 Ml 4.4         5109930
SGMF  013.53 027.1 m E Pn      2012/11/05 22:03:14.1  -0.9                          T                                        5109901
SGMF  013.53 027.1 m E Sn      2012/11/05 22:05:36.0  -0.3                          T                2.3  .28 Ml 3.9         5109929
TCF   014.28 042.7 m E Pn      2012/11/05 22:03:24.6  -0.7                          T                                        5109912
GRR   014.30 030.7 m E Pn      2012/11/05 22:03:25.5   0.0                          T                                        5109913
LDF   014.76 031.7 m E Pn      2012/11/05 22:03:31.1  -0.8                          T                                        5109914
SSF   015.46 042.4 m E Pn      2012/11/05 22:03:40.6  -0.8                          T                                        5109911

.
EVENT     286362
    Date      Time       Latitude Longitude    Depth    Ndef Nsta Gap    Mag1  N    Mag2  N    Mag3  N   Author         ID
       rms   OT_Error      Smajor Sminor Az        Err   mdist  Mdist     Err        Err        Err      Quality

2012/11/06 07:43:36.4     44.3191    7.5187       .0 f    14    7 212  Ml 2.1  5                         bulletin    286462
                                                                                                         _ldg
      0.39   +-  0.22       4.9    2.1   80.07 +-  0.0    0.46   1.44   +-0.1                            m i km

NORTHERN ITALY
Sta     Dist  EvAz     Phase      Date       Time     TRes  Azim  AzRes  Slow  SRes Def   SNR       Amp   Per   Mag1   Mag2       ID
SBF   000.46 187.5 m E Pg      2012/11/06 07:43:45.8   0.3                          T                                        5110544
SBF   000.46 187.5 m E Sg      2012/11/06 07:43:51.3  -0.5                          T               36.1  .39                5110541
MBDF  000.67 307.6 m E Pg      2012/11/06 07:43:49.0  -0.5                          T                                        5110543
MBDF  000.67 307.6 m E Sg      2012/11/06 07:43:58.1  -0.4                          T               13.4  .36                5110542
FRF   000.99 220.0 m E Pg      2012/11/06 07:43:55.1   0.0                          T                                        5110551
FRF   000.99 220.0 m E Sg      2012/11/06 07:44:07.3  -0.8                          T               13.8  .56 Ml 2.2         5110550
LPG   001.30 335.4 m E Pn      2012/11/06 07:44:00.6  -0.1                          T                                        5110552
LPG   001.30 335.4 m E Sg      2012/11/06 07:44:18.6   0.3                          T                6.1  .68 Ml 1.9         5110549
ORIF  001.31 297.7 m E Pn      2012/11/06 07:44:00.6   0.0                          T                                        5110546
ORIF  001.31 297.7 m E Sg      2012/11/06 07:44:18.8   0.3                          T                5.6  .42 Ml 2.1         5110545
LPL   001.32 335.3 m E Sg      2012/11/06 07:44:19.2   0.4                          T                3.6  .32 Ml 2.0         5110547
SMRF  001.44 256.9 m E Sg      2012/11/06 07:44:23.3   1.0                          T                6.1  .37 Ml 2.2         5110548

.
EVENT     286385
    Date      Time       Latitude Longitude    Depth    Ndef Nsta Gap    Mag1  N    Mag2  N    Mag3  N   Author         ID
       rms   OT_Error      Smajor Sminor Az        Err   mdist  Mdist     Err        Err        Err      Quality

2012/11/06 10:35:26.8     48.7732    5.9777       .0 f    16    8 225  Ml 2.1  5  Md 2.1  2              bulletin    286485
                                                                                                         _ldg
      0.37   +-  0.07       1.4     .7   10.56 +-  0.0    0.28   2.39   +-0.1      +-0.4                 m i km

FRANCE
Sta     Dist  EvAz     Phase      Date       Time     TRes  Azim  AzRes  Slow  SRes Def   SNR       Amp   Per   Mag1   Mag2       ID
PAGF  000.28 217.6 m E Pg      2012/11/06 10:35:32.5   0.1  34.8  -2.5              T                                        5110639
PAGF  000.28 217.6 m E Sg      2012/11/06 10:35:36.4   0.0  34.6  -2.8              T               73.5  .71        Md 2.4  5110638
MEZF  000.67 246.5 m E Pg      2012/11/06 10:35:39.8   0.0  67.1  1.3               T                                        5120440
MEZF  000.67 246.5 m E Sn      2012/11/06 10:35:52.9   0.0                          T                9.0  .34                5120441
SFTF  000.84 228.1 m E Pg      2012/11/06 10:35:43.0   0.0                          T                                        5120439
SFTF  000.84 228.1 m E Pn      2012/11/06 10:35:44.6   0.1                          T                                        5110637
SFTF  000.84 228.1 m E Sn      2012/11/06 10:35:57.0   0.0                          T                6.6  .36        Md 1.9  5110636
CDF   000.93 112.3 m E Pg      2012/11/06 10:35:44.8   0.0                          T                                        5110644
CDF   000.93 112.3 m E Sg      2012/11/06 10:35:56.9  -0.1                          T                2.9  .28 Ml 1.9         5110642
HINF  001.12 148.3 m E Pg      2012/11/06 10:35:48.0  -0.1                          T                                        5110659
HINF  001.12 148.3 m E Sg      2012/11/06 10:36:02.6  -0.2                          T                8.8  .42 Ml 2.2         5110643
SSF   002.39 225.1 m E Pn      2012/11/06 10:36:05.6   0.1                          T                                        5110641
SSF   002.39 225.1 m E Sn      2012/11/06 10:36:33.8  -0.1                          T                2.2  .38 Ml 2.1         5110640
LOR   002.07 224.2 m E Pg      2012/11/06 10:36:05.6   0.0                          T                                        5120442
LOR   002.07 224.2 m E Sg      2012/11/06 10:36:32.5   0.0  40.0  -2.6              T                2.7  .37 Ml 2.1         5120437
CABF  002.16 178.0 m E Sg      2012/11/06 10:36:35.1  -0.3                          T                1.7  .34 Ml 1.9         5120438

.
