EVENT     279160
    Date      Time       Latitude Longitude    Depth    Ndef Nsta Gap    Mag1  N    Mag2  N    Mag3  N   Author         ID
       rms   OT_Error      Smajor Sminor Az        Err   mdist  Mdist     Err        Err        Err      Quality

2012/07/05 18:51:02.4     40.3250     .7009     19.1      42    5 081  Ml 1.9  5                         bulletin    279260
                                                                                                         _ldg
      0.87   +-  0.24       4.0    3.3  137.43 +-  1.6    0.50   4.42   +-0.3                            m i ke

SPAIN
Sta     Dist  EvAz     Phase      Date       Time     TRes  Azim  AzRes  Slow  SRes Def   SNR       Amp   Per   Mag1   Mag2       ID
EPF   002.72 354.4 m E Pn      2012/07/05 18:51:42.4  -0.9                          T                                        5027661
EPF   002.72 354.4 m E Pg      2012/07/05 18:51:52.8  -0.1                          T                                        5027662
EPF   002.72 354.4 m E Sn      2012/07/05 18:52:12.2  -1.5                          T                                        5027667
EPF   002.72 354.4 m E Sg      2012/07/05 18:52:27.9   0.0                          T                2.1  .25 Ml 2.3         5027669
ETSF  002.74 340.2 m E Pn      2012/07/05 18:51:42.7  -0.9                          T                                        5027663
ETSF  002.74 340.2 m E Pg      2012/07/05 18:51:53.4   0.1                          T                                        5020152
ETSF  002.74 340.2 m E Sn      2012/07/05 18:52:12.8  -1.4                          T                                        5027666
ETSF  002.74 340.2 m E Sg      2012/07/05 18:52:27.8  -0.8                          T                1.2  .27 Ml 2.0         5020151
SJPF  003.14 333.3 m E Pn      2012/07/05 18:51:48.1  -0.9                          T                                        5027664
SJPF  003.14 333.3 m E Pg      2012/07/05 18:52:00.5  -0.1                          T                                        5020154
SJPF  003.14 333.3 m E Sn      2012/07/05 18:52:22.2  -1.4                          T                                        5027665
SJPF  003.14 333.3 m E Sg      2012/07/05 18:52:40.0  -0.9                          T                 .5  .17 Ml 1.9         5020153
MTLF  003.22 020.1 m E Pn      2012/07/05 18:51:49.5  -0.6                          T                                        5027659
MTLF  003.22 020.1 m E P       2012/07/05 18:51:52.5  -0.8                          T                                        5027660
MTLF  003.22 020.1 m E Pg      2012/07/05 18:52:02.1   0.0                          T                                        5020148
MTLF  003.22 020.1 m E Sn      2012/07/05 18:52:24.4  -1.2                          T                 .3  .25 Ml 1.5         5020147
MTLF  003.22 020.1 m E Sg      2012/07/05 18:52:42.9  -0.6                          T                 .7  .19 Ml 2.0         5027668
LASF  004.42 031.0 m E P       2012/07/05 18:52:09.5  -0.9                          T                                        5027658
LASF  004.42 031.0 m E Pg      2012/07/05 18:52:24.1  -0.2                          T                                        5027657

.
EVENT     279164
    Date      Time       Latitude Longitude    Depth    Ndef Nsta Gap    Mag1  N    Mag2  N    Mag3  N   Author         ID
       rms   OT_Error      Smajor Sminor Az        Err   mdist  Mdist     Err        Err        Err      Quality

2012/07/05 20:40:46.7     43.1149   -1.1102      2.0       6    3 185  Ml 1.2  1  Md 1.2  2              bulletin    279264
                                                                                                         _ldg
      0.19   +-  0.10       7.5    1.4    7.67 +-  0.0    0.08   1.07   +-         +-0.0                 m i ke

PYRENEES
Sta     Dist  EvAz     Phase      Date       Time     TRes  Azim  AzRes  Slow  SRes Def   SNR       Amp   Per   Mag1   Mag2       ID
SJPF  000.08 268.9 m E Pg      2012/07/05 20:40:48.4  -0.2                          T                                        5027675
SJPF  000.08 268.9 m E Sg      2012/07/05 20:40:49.8  -0.2                          T               12.3  .20        Md 1.3  5027676
ETSF  000.46 118.0 m E Pg      2012/07/05 20:40:55.5   0.0                          T                                        5027673
ETSF  000.46 118.0 m E Sg      2012/07/05 20:41:01.4  -0.2                          T                3.4  .41        Md 1.2  5027674
EPF   001.07 094.1 m E Pg      2012/07/05 20:41:06.8   0.1                          T                                        5027671
EPF   001.07 094.1 m E Sg      2012/07/05 20:41:20.1  -0.4                          T                 .7  .29 Ml 1.2         5027672

.
EVENT     279165
    Date      Time       Latitude Longitude    Depth    Ndef Nsta Gap    Mag1  N    Mag2  N    Mag3  N   Author         ID
       rms   OT_Error      Smajor Sminor Az        Err   mdist  Mdist     Err        Err        Err      Quality

2012/07/05 20:41:19.5     43.1190   -1.1104      2.0       6    3 188  Ml 1.1  1  Md 1.0  2              bulletin    279265
                                                                                                         _ldg
      0.13   +-  0.09       5.8    1.1    6.46 +-  0.0    0.08   1.07   +-         +-0.1                 m i ke

PYRENEES
Sta     Dist  EvAz     Phase      Date       Time     TRes  Azim  AzRes  Slow  SRes Def   SNR       Amp   Per   Mag1   Mag2       ID
SJPF  000.08 266.1 m E Pg      2012/07/05 20:41:21.4   0.0                          T                                        5027681
SJPF  000.08 266.1 m E Sg      2012/07/05 20:41:22.7  -0.1                          T                6.1  .19        Md 1.1  5027682
ETSF  000.46 118.4 m E Pg      2012/07/05 20:41:28.5   0.1                          T                                        5027679
ETSF  000.46 118.4 m E Sg      2012/07/05 20:41:34.3  -0.2                          T                1.2  .23        Md 1.0  5027680
EPF   001.07 094.3 m E Pg      2012/07/05 20:41:39.6   0.1                          T                                        5027677
EPF   001.07 094.3 m E Sg      2012/07/05 20:41:53.1  -0.3                          T                 .4  .26 Ml 1.1         5027678

.
EVENT     279159
    Date      Time       Latitude Longitude    Depth    Ndef Nsta Gap    Mag1  N    Mag2  N    Mag3  N   Author         ID
       rms   OT_Error      Smajor Sminor Az        Err   mdist  Mdist     Err        Err        Err      Quality

2012/07/05 20:59:42.1     40.2454     .7421     10.0 f    35    4 118  Ml 1.9  4                         bulletin    279259
                                                                                                         _ldg
      1.28   +-  0.30       5.7    4.9   49.84 +-  0.0    0.58   3.28   +-0.2                            m i ke

SPAIN
Sta     Dist  EvAz     Phase      Date       Time     TRes  Azim  AzRes  Slow  SRes Def   SNR       Amp   Per   Mag1   Mag2       ID
EPF   002.80 354.0 m E Pg      2012/07/05 21:00:33.1  -0.9                          T                                        5020125
EPF   002.80 354.0 m E Sg      2012/07/05 21:01:08.6  -1.4                          T                 .9  .16 Ml 2.1         5020124
ETSF  002.82 340.2 m E Pg      2012/07/05 21:00:34.0  -0.6                          T                                        5020123
ETSF  002.82 340.2 m E Sg      2012/07/05 21:01:10.3  -0.6                          T                  1  .26 Ml 2.0         5020122
MTLF  003.28 019.1 m E Pg      2012/07/05 21:00:41.5  -1.4                          T                                        5020121
MTLF  003.28 019.1 m E Sg      2012/07/05 21:01:22.6  -2.5                          T                 .3  .23 Ml 1.6         5020120
SJPF  003.22 333.4 m E Pg      2012/07/05 21:00:41.6  -0.2                          T                                        5020119
SJPF  003.22 333.4 m E Sg      2012/07/05 21:01:21.8  -1.4                          T                 .3  .16 Ml 1.7         5020118

.
EVENT     279153
    Date      Time       Latitude Longitude    Depth    Ndef Nsta Gap    Mag1  N    Mag2  N    Mag3  N   Author         ID
       rms   OT_Error      Smajor Sminor Az        Err   mdist  Mdist     Err        Err        Err      Quality

2012/07/05 20:59:55.6     48.7021   -2.3153     10.0 f    20    7 205  Ml 2.5  5  Md 2.1  2              bulletin    279253
                                                                                                         _ldg
      1.22   +-  0.16       4.3    1.7  163.33 +-  0.0    0.48   2.56   +-0.2      +-0.1                 m i ke

FRANCE
Sta     Dist  EvAz     Phase      Date       Time     TRes  Azim  AzRes  Slow  SRes Def   SNR       Amp   Per   Mag1   Mag2       ID
SGMF  000.48 199.8 m E Pg      2012/07/05 21:00:04.9   0.0                          T                                        5019986
SGMF  000.48 199.8 m E Sg      2012/07/05 21:00:11.1  -0.2                          T               12.7  .19        Md 2.2  5019985
ROSF  000.73 240.5 m E Pg      2012/07/05 21:00:09.1  -0.5                          T                                        5027698
ROSF  000.73 240.5 m E Pn      2012/07/05 21:00:10.3  -0.2                          T                                        5019984
ROSF  000.73 240.5 m E Sg      2012/07/05 21:00:20.0   0.7                          T               21.0  .20        Md 2.0  5019978
QUIF  000.97 216.2 m E Pg      2012/07/05 21:00:14.0   0.1                          T                                        5019980
QUIF  000.97 216.2 m E Sg      2012/07/05 21:00:27.0   0.5                          T               11.8  .22 Ml 2.5         5019979
GRR   001.02 107.4 m E Pg      2012/07/05 21:00:14.8   0.0                          T                                        5019983
GRR   001.02 107.4 m E Sg      2012/07/05 21:00:27.4  -0.6                          T               18.5  .20 Ml 2.6         5019977
FLN   001.22 086.5 m E Pn      2012/07/05 21:00:17.6   0.6 269.7  1.8               T                                        5019981
FLN   001.22 086.5 m E Pg      2012/07/05 21:00:18.1  -0.3                          T                                        5027697
FLN   001.22 086.5 m E Sg      2012/07/05 21:00:33.8  -0.4 248.3  -19.5             T                5.1  .18 Ml 2.2         5019975
LDF   001.46 093.4 m E Pn      2012/07/05 21:00:21.0   0.6                          T                                        5019982
LDF   001.46 093.4 m E Pg      2012/07/05 21:00:22.6  -0.3                          T                                        5027696
LDF   001.46 093.4 m E Sg      2012/07/05 21:00:41.2  -0.5                          T                8.2  .20 Ml 2.6         5019976
MFF   002.56 144.3 m E Pn      2012/07/05 21:00:35.5   0.1                          T                                        5027694
MFF   002.56 144.3 m E Pg      2012/07/05 21:00:43.1  -0.1                          T                                        5027693
MFF   002.56 144.3 m E Sg      2012/07/05 21:01:16.5   0.3                          T                2.1  .25 Ml 2.4         5027695

.
EVENT     279157
    Date      Time       Latitude Longitude    Depth    Ndef Nsta Gap    Mag1  N    Mag2  N    Mag3  N   Author         ID
       rms   OT_Error      Smajor Sminor Az        Err   mdist  Mdist     Err        Err        Err      Quality

2012/07/06 01:57:05.3     42.8092   -7.2316     10.0      16    2 089  Ml 2.0  2                         bulletin    279257
                                                                                                         _ldg
      0.46   +-  0.11       2.9    2.1  160.76 +-  0.0    0.52   4.91   +-0.4                            m i ke

SPAIN
Sta     Dist  EvAz     Phase      Date       Time     TRes  Azim  AzRes  Slow  SRes Def   SNR       Amp   Per   Mag1   Mag2       ID
SJPF  004.42 084.0 m E Pn      2012/07/06 01:58:10.5   0.1                          T                                        5020079
SJPF  004.42 084.0 m E Sn      2012/07/06 01:58:59.8   0.9                          T                1.8  .49 Ml 2.3         5020078
ETSF  004.91 086.7 m E Pn      2012/07/06 01:58:16.8  -0.4                          T                                        5020080
ETSF  004.91 086.7 m E Sn      2012/07/06 01:59:11.5   0.9                          T                 .1  .22 Ml 1.7         5020081

.
EVENT     279154
    Date      Time       Latitude Longitude    Depth    Ndef Nsta Gap    Mag1  N    Mag2  N    Mag3  N   Author         ID
       rms   OT_Error      Smajor Sminor Az        Err   mdist  Mdist     Err        Err        Err      Quality

2012/07/06 02:44:45.7     44.8915   11.1283      2.0      36   11 188  Ml 2.5  8                         bulletin    279254
                                                                                                         _ldg
      0.90   +-  0.29       7.7    3.9  124.68 +-  0.0    1.10   4.54   +-0.1                            m i ke

NORTHERN ITALY
Sta     Dist  EvAz     Phase      Date       Time     TRes  Azim  AzRes  Slow  SRes Def   SNR       Amp   Per   Mag1   Mag2       ID
PGF   002.81 214.1 m E Pn      2012/07/06 02:45:28.6  -1.2                          T                                        5020203
PGF   002.81 214.1 m E Sn      2012/07/06 02:46:01.0  -1.2                          T                                        5020202
SBF   002.84 250.1 m E Pn      2012/07/06 02:45:30.5   0.3                          T                                        5020201
SBF   002.84 250.1 m E Sn      2012/07/06 02:46:04.4   1.5                          T                                        5020200
MBDF  003.11 268.5 m E Pn      2012/07/06 02:45:33.7  -0.2                          T                                        5020208
MBDF  003.11 268.5 m E Sn      2012/07/06 02:46:09.7   0.3                          T                4.3  .45 Ml 2.4         5020207
LPL   003.17 282.9 m E Pn      2012/07/06 02:45:34.7  -0.2                          T                                        5020212
LPL   003.17 282.9 m E Sn      2012/07/06 02:46:11.5   0.5                          T                6.0  .46 Ml 2.6         5020211
LPG   003.15 282.6 m E Pn      2012/07/06 02:45:35.3   0.5                          T                                        5020206
LPG   003.15 282.6 m E Sn      2012/07/06 02:46:11.0   0.3                          T                7.1  .48 Ml 2.6         5020210
FRF   003.49 249.1 m E Pn      2012/07/06 02:45:38.5  -0.4                          T                                        5020197
FRF   003.49 249.1 m E Sn      2012/07/06 02:46:18.2  -0.1                          T                1.8  .26 Ml 2.4         5020196
LMR   003.67 246.5 m E Pn      2012/07/06 02:45:41.1  -0.3                          T                                        5020199
LMR   003.67 246.5 m E Sn      2012/07/06 02:46:20.8  -2.0                          T                4.0  .39 Ml 2.6         5020198
HINF  004.16 316.2 m E Pn      2012/07/06 02:45:45.9  -2.3                          T                                        5020231
HINF  004.16 316.2 m E Sn      2012/07/06 02:46:31.0  -3.5                          T                                        5020230
CDF   004.41 324.4 m E Pn      2012/07/06 02:45:49.7  -1.9                          T                                        5020205
CDF   004.41 324.4 m E Sn      2012/07/06 02:46:40.7   0.2                          T                1.1  .28 Ml 2.4         5020204
HAU   004.54 315.0 m E Pn      2012/07/06 02:45:53.9   0.6                          T                                        5020214
HAU   004.54 315.0 m E Sn      2012/07/06 02:46:41.7  -1.9                          T                2.9  .26 Ml 2.6         5020213
ORIF  003.73 272.3 m E Sn      2012/07/06 02:46:23.4  -0.8                          T                2.2  .35 Ml 2.4         5020209

.
EVENT     279155
    Date      Time       Latitude Longitude    Depth    Ndef Nsta Gap    Mag1  N    Mag2  N    Mag3  N   Author         ID
       rms   OT_Error      Smajor Sminor Az        Err   mdist  Mdist     Err        Err        Err      Quality

2012/07/06 04:00:28.7     44.2301    9.9295      2.0      32   10 130  Ml 2.2 11                         bulletin    279255
                                                                                                         _ldg
      1.15   +-  0.24       6.6    3.8   19.13 +-  0.0    0.19   3.81   +-0.3                            m i ke

NORTHERN ITALY
Sta     Dist  EvAz     Phase      Date       Time     TRes  Azim  AzRes  Slow  SRes Def   SNR       Amp   Per   Mag1   Mag2       ID
PGF   001.81 202.3 m E Pn      2012/07/06 04:00:59.6   0.3                          T                                        5020033
PGF   001.81 202.3 m E Sn      2012/07/06 04:01:20.0  -1.6                          T                1.5  .26 Ml 2.2         5020032
SBF   001.84 259.3 m E Pn      2012/07/06 04:00:59.9   0.3                          T                                        5020041
SBF   001.84 259.3 m E Sn      2012/07/06 04:01:20.1  -2.0                          T                5.6  .22 Ml 2.6         5020040
MBDF  002.31 283.5 m E Pn      2012/07/06 04:01:07.4   1.1                          T                                        5020039
MBDF  002.31 283.5 m E Sn      2012/07/06 04:01:32.8  -0.8                          T                2.7  .36 Ml 2.2         5020038
FRF   002.47 255.4 m E Pn      2012/07/06 04:01:07.9  -0.1                          T                                        5020056
FRF   002.47 255.4 m E Sn      2012/07/06 04:01:35.0  -2.0                          T                4.8  .25 Ml 2.6         5020042
LMR   002.63 251.3 m E Pn      2012/07/06 04:01:09.5  -0.9                          T                                        5020045
LMR   002.63 251.3 m E Sn      2012/07/06 04:01:38.7  -2.3                          T                1.9  .21 Ml 2.3         5020044
LPG   002.59 300.4 m E Pn      2012/07/06 04:01:10.2   0.0                          T                                        5020063
LPG   002.59 300.4 m E Sn      2012/07/06 04:01:41.7   1.3                          T                1.4  .19 Ml 2.2         5020062
LPL   002.61 300.6 m E Pn      2012/07/06 04:01:11.8   1.4                          T                                        5020035
LPL   002.61 300.6 m E Sn      2012/07/06 04:01:42.1   1.3                          T                2.2  .30 Ml 2.2         5020034
ORIF  002.97 284.8 m E Pn      2012/07/06 04:01:16.4   1.3                          T                                        5020037
ORIF  002.97 284.8 m E Sn      2012/07/06 04:01:49.1  -0.1                          T                1.1  .27 Ml 2.0         5020036
SMRF  003.15 266.9 m E Pn      2012/07/06 04:01:17.5   0.1                          T                                        5020065
SMRF  003.15 266.9 m E Sn      2012/07/06 04:01:51.7  -1.6                          T                 .6  .23 Ml 1.9         5020064
VIVF  003.81 281.3 m E Pn      2012/07/06 04:01:27.3   0.8                          T                                        5020061

.
