EVENT     292431
    Date      Time       Latitude Longitude    Depth    Ndef Nsta Gap    Mag1  N    Mag2  N    Mag3  N   Author         ID
       rms   OT_Error      Smajor Sminor Az        Err   mdist  Mdist     Err        Err        Err      Quality

2013/02/20 21:39:41.6     44.1700   10.4986     13.0 f   123   33 054  Ml 3.2 25                         bulletin    292531
                                                                                                         _ldg
      0.92   +-  0.12       2.4    2.2   84.79 +-  0.0    0.07   8.14   +-0.3                            m i ke

NORTHERN ITALY
Sta     Dist  EvAz     Phase      Date       Time     TRes  Azim  AzRes  Slow  SRes Def   SNR       Amp   Per   Mag1   Mag2       ID
PGF   001.96 214.5 m E Pn      2013/02/20 21:40:12.7  -0.2                          T                                        5202896
PGF   001.96 214.5 m E Sn      2013/02/20 21:40:36.0   0.2                          T               34.8  .68 Ml 3.1         5202945
SBF   002.23 263.2 m E Pn      2013/02/20 21:40:17.2   0.6                          T                                        5202897
SBF   002.23 263.2 m E Sn      2013/02/20 21:40:42.3   0.0                          T               68.7  .38 Ml 3.5         5202887
MBDF  002.73 283.1 m E Pn      2013/02/20 21:40:23.3  -0.1                          T                                        5202902
MBDF  002.73 283.1 m E Sn      2013/02/20 21:40:54.2  -0.1                          T               33.7  .40 Ml 3.3         5202888
FRF   002.85 259.0 m E Pn      2013/02/20 21:40:25.7   0.8                          T                                        5202899
FRF   002.85 259.0 m E Sn      2013/02/20 21:40:57.0  -0.1                          T               26.7  .32 Ml 3.3         5202894
LMR   003.01 255.3 m E Pn      2013/02/20 21:40:27.7   0.6                          T                                        5202895
LMR   003.01 255.3 m E Sn      2013/02/20 21:41:00.5  -0.3                          T                6.4  .24 Ml 2.9         5202893
LPG   002.98 297.8 m E P       2013/02/20 21:40:29.6  -0.4                          T                                        5208142
LPG   002.98 297.8 m E Pg      2013/02/20 21:40:36.5  -0.6                          T                                        5202898
LPG   002.98 297.8 m E Sn      2013/02/20 21:41:00.5   0.1                          T                                        5204024
LPL   003.00 298.0 m E P       2013/02/20 21:40:29.9  -0.4                          T                                        5208143
LPL   003.00 298.0 m E Sn      2013/02/20 21:41:00.7  -0.2                          T               27.0  .53 Ml 3.1         5202889
ORIF  003.39 284.4 m E P       2013/02/20 21:40:35.8   0.2                          T                                        5208144
ORIF  003.39 284.4 m E Sn      2013/02/20 21:41:09.3  -0.7                          T               24.8  .50 Ml 3.2         5202891
SMRF  003.55 268.6 m E P       2013/02/20 21:40:36.9  -0.9                          T                                        5208141
SMRF  003.55 268.6 m E Sn      2013/02/20 21:41:13.9   0.0                          T               23.7  .61 Ml 3.1         5202890
CABF  003.95 309.7 m E P       2013/02/20 21:40:43.3  -0.3                          T                                        5208151
CABF  003.95 309.7 m E Sn      2013/02/20 21:41:22.7  -0.8                          T               14.3  .58 Ml 3.0         5202961
VIVF  004.22 281.4 m E Pn      2013/02/20 21:40:45.0   1.3                          T                                        5202904
VIVF  004.22 281.4 m E Sn      2013/02/20 21:41:30.0   0.1                          T                5.0  .40 Ml 2.8         5202903
HINF  004.44 326.4 m E P       2013/02/20 21:40:49.4  -1.1                          T                                        5208152
HINF  004.44 326.4 m E Pg      2013/02/20 21:41:03.6  -0.3                          T                                        5204004
HINF  004.44 326.4 m E Sn      2013/02/20 21:41:35.7   0.5                          T               20.6  .36 Ml 3.5         5202910
LASF  004.78 271.2 m E Pn      2013/02/20 21:40:53.0   1.7                          T                                        5202905
LASF  004.78 271.2 m E Sn      2013/02/20 21:41:43.2  -0.1                          T                5.5  .45 Ml 2.9         5202953
CDF   004.79 333.4 m E P       2013/02/20 21:40:54.1  -1.5                          T                                        5208157
CDF   004.79 333.4 m E Sn      2013/02/20 21:41:44.1   0.4                          T               14.6  .35 Ml 3.6         5202962
HAU   004.80 324.5 m E P       2013/02/20 21:40:54.5  -1.1                          T                                        5208153
HAU   004.80 324.5 m E Sn      2013/02/20 21:41:43.6  -0.1                          T               34.3  .37 Ml 3.6         5202909
SMF   005.30 300.2 m E Pn      2013/02/20 21:40:58.4   0.0                          T                                        5202956
SMF   005.30 300.2 m E P       2013/02/20 21:41:02.0  -0.6                          T                                        5208149
SMF   005.30 300.2 m E Sn      2013/02/20 21:41:55.4  -0.2                          T                8.4  .36 Ml 3.3         5202959
THEF  005.12 324.0 m E P       2013/02/20 21:40:59.3  -0.9                          T                                        5204308
LANF  005.16 339.9 m E P       2013/02/20 21:41:00.3  -0.3                          T                                        5204310
LOR   005.59 306.0 m E Pn      2013/02/20 21:41:02.0  -0.2                          T                                        5202914
LOR   005.59 306.0 m E P       2013/02/20 21:41:05.9  -0.8 131.3  10.1              T                                        5208162
LOR   005.59 306.0 m E Sn      2013/02/20 21:42:02.4  -0.1                          T                8.8  .33 Ml 3.4         5202963
AVF   005.67 300.0 m E Pn      2013/02/20 21:41:02.8  -0.4                          T                                        5202908
AVF   005.67 300.0 m E P       2013/02/20 21:41:07.5  -0.2                          T                                        5208150
AVF   005.67 300.0 m E Sn      2013/02/20 21:42:04.4   0.1                          T                1.0  .25 Ml 2.6         5202907
SSF   005.69 303.0 m E Pn      2013/02/20 21:41:03.5  -0.1                          T                                        5202913
SSF   005.69 303.0 m E P       2013/02/20 21:41:07.1  -1.0                          T                                        5208161
SSF   005.69 303.0 m E Sn      2013/02/20 21:42:04.9  -0.1                          T                4.1  .35 Ml 3.2         5202960
PAGF  005.49 324.7 m E P       2013/02/20 21:41:04.8  -0.4                          T                                        5208156
PAGF  005.49 324.7 m E Sn      2013/02/20 21:42:00.3   0.1 148.3  7.0               T                                        5204011
SFTF  005.54 318.7 m E P       2013/02/20 21:41:05.4  -0.5 142.1  7.3               T                                        5208154
SFTF  005.54 318.7 m E Sn      2013/02/20 21:42:01.2   0.0                          T                                        5204006
SFTF  005.54 318.7 m E Sg      2013/02/20 21:42:34.2  -0.7                          T                                        5204005
BGF   005.90 296.6 m E Pn      2013/02/20 21:41:06.5   0.1                          T                                        5202958
BGF   005.90 296.6 m E P       2013/02/20 21:41:09.9  -1.1                          T                                        5208148
BGF   005.90 296.6 m E Sn      2013/02/20 21:42:09.5  -0.3                          T               15.1  .58 Ml 3.5         5202957
MEZF  005.74 320.9 m E P       2013/02/20 21:41:08.3  -0.6                          T                                        5208155
MEZF  005.74 320.9 m E Pg      2013/02/20 21:41:26.9  -0.8                          T                                        5204009
MEZF  005.74 320.9 m E Sn      2013/02/20 21:42:05.9  -0.3                          T                                        5204008
MTLF  006.05 265.0 m E Pn      2013/02/20 21:41:10.5   1.9                          T                                        5202906
MTLF  006.05 265.0 m E Sn      2013/02/20 21:42:13.4  -0.2                          T                2.1  .41 Ml 2.8         5202944
CAF   006.08 280.1 m E P       2013/02/20 21:41:11.3  -2.2                          T                                        5208147
CAF   006.08 280.1 m E Sn      2013/02/20 21:42:13.9  -0.2                          T                1.3  .37 Ml 2.7         5202943
TCF   006.22 292.8 m E P       2013/02/20 21:41:15.1  -0.5                          T                                        5208160
TCF   006.22 292.8 m E Sn      2013/02/20 21:42:17.5  -0.2                          T                3.1  .45 Ml 3.0         5202942
LFF   007.01 279.7 m E Pn      2013/02/20 21:41:21.2  -0.4                          T                                        5202954
GIVF  007.08 328.9 m E P       2013/02/20 21:41:27.9   0.2                          T                                        5208159
GIVF  007.08 328.9 m E Pg      2013/02/20 21:41:55.4   3.0                          T                                        5204016
GIVF  007.08 328.9 m E Sn      2013/02/20 21:42:37.4  -0.8                          T                                        5204015
GIVF  007.08 328.9 m E Sg      2013/02/20 21:43:23.0  -0.2                          T                                        5204014
BAIF  007.29 326.2 m E P       2013/02/20 21:41:29.5  -1.1                          T                                        5208158
EPF   007.46 264.7 m E P       2013/02/20 21:41:32.8  -0.2                          T                                        5208145
ETSF  008.14 264.8 m E P       2013/02/20 21:41:42.3  -0.2                          T                                        5208146

.
EVENT     292432
    Date      Time       Latitude Longitude    Depth    Ndef Nsta Gap    Mag1  N    Mag2  N    Mag3  N   Author         ID
       rms   OT_Error      Smajor Sminor Az        Err   mdist  Mdist     Err        Err        Err      Quality

2013/02/20 23:52:42.4     44.3803    9.9611     10.0 f    72   17 048  Ml 2.4 14                         bulletin    292532
                                                                                                         _ldg
      1.05   +-  0.13       3.5    2.5   28.31 +-  0.0    0.08   5.46   +-0.3                            m i ke

NORTHERN ITALY
Sta     Dist  EvAz     Phase      Date       Time     TRes  Azim  AzRes  Slow  SRes Def   SNR       Amp   Per   Mag1   Mag2       ID
SBF   001.89 255.0 m E Pn      2013/02/20 23:53:12.8  -0.3                          T                                        5203062
SBF   001.89 255.0 m E P       2013/02/20 23:53:14.7  -0.7                          T                                        5208174
SBF   001.89 255.0 m E Sn      2013/02/20 23:53:35.4  -0.2                          T                4.7  .24 Ml 2.5         5203059
PGF   001.96 201.3 m E Pn      2013/02/20 23:53:14.7   0.5                          T                                        5203061
PGF   001.96 201.3 m E Sn      2013/02/20 23:53:35.5  -1.8                          T                4.1  .23 Ml 2.7         5203060
MBDF  002.31 279.8 m E Pn      2013/02/20 23:53:18.5  -0.4                          T                                        5203056
MBDF  002.31 279.8 m E P       2013/02/20 23:53:21.6   0.2                          T                                        5208181
MBDF  002.31 279.8 m E Sn      2013/02/20 23:53:44.9  -0.8                          T                1.3  .26 Ml 2.0         5204054
LPG   002.54 297.2 m E Pn      2013/02/20 23:53:21.7  -0.5                          T                                        5208178
LPG   002.54 297.2 m E P       2013/02/20 23:53:24.5  -0.4                          T                                        5208164
LPG   002.54 297.2 m E Sn      2013/02/20 23:53:50.9  -0.4                          T                2.7  .31 Ml 2.3         5204055
FRF   002.53 252.2 m E Pn      2013/02/20 23:53:21.8   0.1                          T                                        5208176
FRF   002.53 252.2 m E Sn      2013/02/20 23:53:50.4  -0.4                          T                2.8  .18 Ml 2.6         5203065
LMR   002.71 248.5 m E Pn      2013/02/20 23:53:23.9  -0.3                          T                                        5208175
LMR   002.71 248.5 m E Sn      2013/02/20 23:53:54.3  -0.6                          T                2.8  .21 Ml 2.5         5203063
LPL   002.56 297.5 m E P       2013/02/20 23:53:24.6  -0.5                          T                                        5208179
LPL   002.56 297.5 m E Sn      2013/02/20 23:53:51.4  -0.3                          T                3.3  .38 Ml 2.3         5203054
ORIF  002.96 281.9 m E P       2013/02/20 23:53:30.1  -0.6                          T                                        5208180
ORIF  002.96 281.9 m E Sn      2013/02/20 23:54:00.6  -0.6                          T                1.7  .30 Ml 2.2         5203092
SMRF  003.18 264.2 m E Pn      2013/02/20 23:53:31.0   0.3                          T                                        5208177
CABF  003.52 310.7 m E Pn      2013/02/20 23:53:35.0  -0.3                          T                                        5208182
CABF  003.52 310.7 m E P       2013/02/20 23:53:37.6  -1.0                          T                                        5208168
CABF  003.52 310.7 m E Sn      2013/02/20 23:54:14.9   0.4                          T                1.0  .27 Ml 2.1         5204052
HAU   004.41 326.6 m E Pn      2013/02/20 23:53:47.2  -0.1                          T                                        5208183
HAU   004.41 326.6 m E P       2013/02/20 23:53:51.5   0.3                          T                                        5208167
HAU   004.41 326.6 m E Sn      2013/02/20 23:54:35.4  -0.3                          T                 .6  .17 Ml 2.0         5204056
LASF  004.40 268.2 m E Pn      2013/02/20 23:53:47.4   0.2                          T                                        5208165
CDF   004.44 336.2 m E P       2013/02/20 23:53:51.7   0.0                          T                                        5208171
CDF   004.44 336.2 m E Sn      2013/02/20 23:54:36.9   0.3                          T                  1  .28 Ml 2.4         5208172
PAGF  005.10 326.5 m E P       2013/02/20 23:54:01.1   0.2                          T                                        5208170
AVF   005.23 299.8 m E P       2013/02/20 23:54:01.2  -1.5                          T                                        5208169
BGF   005.46 296.0 m E P       2013/02/20 23:54:04.6  -1.3                          T                                        5208166
HINF  004.06 328.9 m E Sn      2013/02/20 23:54:27.8   0.4                          T                2.4  .33 Ml 2.5         5208173

.
EVENT     292433
    Date      Time       Latitude Longitude    Depth    Ndef Nsta Gap    Mag1  N    Mag2  N    Mag3  N   Author         ID
       rms   OT_Error      Smajor Sminor Az        Err   mdist  Mdist     Err        Err        Err      Quality

2013/02/21 03:57:00.8     42.8410   -1.2988      2.0      22    3 101  Ml 2.1  1  Md 2.3  2              bulletin    292533
                                                                                                         _ldg
      0.69   +-  0.15       3.4    2.4   24.46 +-  0.0    0.05   2.44   +-         +-0.0                 m i ke

PYRENEES
Sta     Dist  EvAz     Phase      Date       Time     TRes  Azim  AzRes  Slow  SRes Def   SNR       Amp   Per   Mag1   Mag2       ID
SJPF  000.28 011.2 m E Pg      2013/02/21 03:57:06.3   0.0                          T                                        5203100
SJPF  000.28 011.2 m E Sg      2013/02/21 03:57:10.8   0.7                          T               43.7  .24        Md 2.3  5203099
ETSF  000.55 083.7 m E Pg      2013/02/21 03:57:10.5  -0.8                          T                                        5203098
ETSF  000.55 083.7 m E Sg      2013/02/21 03:57:18.9   0.4                          T                9.1  .24        Md 2.3  5203096
EPF   001.22 080.5 m E Pg      2013/02/21 03:57:22.8  -0.8                          T                                        5203097
EPF   001.22 080.5 m E Sg      2013/02/21 03:57:41.0   1.6                          T                4.8  .30 Ml 2.1         5203095

.
EVENT     292434
    Date      Time       Latitude Longitude    Depth    Ndef Nsta Gap    Mag1  N    Mag2  N    Mag3  N   Author         ID
       rms   OT_Error      Smajor Sminor Az        Err   mdist  Mdist     Err        Err        Err      Quality

2013/02/21 04:18:42.0     47.0592   10.6702     15.9      28    4 127  Ml 2.3  4                         bulletin    292534
                                                                                                         _ldg
      0.55   +-  0.15       4.0    2.5   26.15 +-  2.1    0.45   3.18   +-0.2                            m i ke

AUSTRIA
Sta     Dist  EvAz     Phase      Date       Time     TRes  Azim  AzRes  Slow  SRes Def   SNR       Amp   Per   Mag1   Mag2       ID
HINF  002.70 287.7 m E Pn      2013/02/21 04:19:23.2   0.1                          T                                        5203103
HINF  002.70 287.7 m E Pg      2013/02/21 04:19:31.4  -0.8                          T                                        5203616
HINF  002.70 287.7 m E Sn      2013/02/21 04:19:54.1   0.7                          T                                        5203104
HINF  002.70 287.7 m E Sg      2013/02/21 04:20:06.4  -0.5                          T                2.2  .31 Ml 2.2         5203615
HAU   003.08 289.5 m E Pn      2013/02/21 04:19:28.2   0.0                          T                                        5203102
HAU   003.08 289.5 m E Pg      2013/02/21 04:19:38.1  -1.0                          T                                        5203617
HAU   003.08 289.5 m E Sn      2013/02/21 04:20:02.7   0.3                          T                                        5203101
HAU   003.08 289.5 m E Sg      2013/02/21 04:20:18.1  -0.6                          T                4.1  .30 Ml 2.4         5203618
CABF  003.18 263.6 m E Pn      2013/02/21 04:19:29.4  -0.3                          T                                        5203614
CABF  003.18 263.6 m E Pg      2013/02/21 04:19:40.4  -0.6                          T                                        5203612
CABF  003.18 263.6 m E Sg      2013/02/21 04:20:22.8   0.9                          T                1.2  .25 Ml 2.1         5203613
CDF   002.66 301.8 m E Pg      2013/02/21 04:19:30.9  -0.6                          T                                        5203106
CDF   002.66 301.8 m E Sn      2013/02/21 04:19:52.6   0.0                          T                                        5203105
CDF   002.66 301.8 m E Sg      2013/02/21 04:20:05.1  -0.7                          T                4.9  .40 Ml 2.5         5203619

.
