EVENT     264606
    Date      Time       Latitude Longitude    Depth    Ndef Nsta Gap    Mag1  N    Mag2  N    Mag3  N   Author         ID
       rms   OT_Error      Smajor Sminor Az        Err   mdist  Mdist     Err        Err        Err      Quality

2011/10/01 22:04:54.6     51.4648   16.0780      1.0 f    68   19 098  Ml 3.9 13                         js067245    264626

      0.89   +-  0.21       5.9    2.5    8.51 +-  0.0    1.13  10.40   +-0.2                            m i sr

POLAND
Sta     Dist  EvAz     Phase      Date       Time     TRes  Azim  AzRes  Slow  SRes Def   SNR       Amp   Per   Mag1   Mag2       ID
CDF   006.45 245.2 m E Pn      2011/10/01 22:06:30.2   1.8                          T                                        4764000
CDF   006.45 245.2 m E P       2011/10/01 22:06:32.1  -1.1                          T                                        4763996
CDF   006.45 245.2 m E Sg      2011/10/01 22:08:16.8   0.2                          T               63.5  .90 Ml 4.1         4770084
HINF  007.01 242.2 m E P       2011/10/01 22:06:38.9  -2.2                          T                                        4764001
HINF  007.01 242.2 m E Sg      2011/10/01 22:08:35.4   1.3                          T               33.9  .80 Ml 3.9         4770079
PAGF  007.28 250.5 m E P       2011/10/01 22:06:42.2  -2.5  60.8  -1.7              T                                        4763999
PAGF  007.28 250.5 m E Sg      2011/10/01 22:08:43.5   1.2                          T               20.8 1.14 Ml 3.6         4770083
SFTF  007.85 249.7 m E P       2011/10/01 22:06:50.3  -2.4  72.0  10.7              T                                        4763998
SFTF  007.85 249.7 m E Sg      2011/10/01 22:09:00.3   0.2                          T               44.3 1.21 Ml 4.0         4770081
LPG   008.60 229.7 m E P       2011/10/01 22:07:02.0  -1.6                          T                                        4764003
LPG   008.60 229.7 m E Sg      2011/10/01 22:09:24.1   0.2                          T               24.9 1.20 Ml 3.8         4770077
LPL   008.60 229.8 m E P       2011/10/01 22:07:02.1  -1.3                          T                                        4763995
LOR   009.01 247.0 m E P       2011/10/01 22:07:05.6  -3.3  65.0  7.2               T                                        4763997
LOR   009.01 247.0 m E Sg      2011/10/01 22:09:35.5  -0.9                          T               13.2  .88 Ml 3.7         4770089
MBDF  009.17 226.3 m E P       2011/10/01 22:07:08.9  -2.4                          T                                        4764004
SBF   009.58 220.8 m E P       2011/10/01 22:07:15.2  -1.6                          T                                        4764007
FRF   010.15 222.5 m E P       2011/10/01 22:07:22.7  -1.9                          T                                        4764006
LMR   010.40 222.2 m E P       2011/10/01 22:07:25.4  -2.6                          T                                        4764005
SMRF  010.30 227.4 m E P       2011/10/01 22:07:27.3   0.7                          T                                        4764002
LANF  005.86 248.1 m E Sg      2011/10/01 22:07:59.3   1.2                          T              130.1 1.13 Ml 4.1         4770085
HAU   007.19 245.0 m E Sg      2011/10/01 22:08:39.4  -0.3                          T               69.4 1.10 Ml 3.9         4770080
GIVF  007.27 263.6 m E Sg      2011/10/01 22:08:42.2   0.3                          T               52.9 1.00 Ml 4.0         4770087
BAIF  007.66 264.1 m E Sg      2011/10/01 22:08:52.8  -1.4                          T               37.0 1.10 Ml 3.9         4770086
MEZF  007.70 251.7 m E Sg      2011/10/01 22:08:55.1  -0.4                          T               23.2  .93 Ml 3.8         4770082
CABF  008.16 237.4 m E Sg      2011/10/01 22:09:10.7   0.7                          T               47.0  .92 Ml 4.2         4770078
SSF   009.32 246.7 m E Sg      2011/10/01 22:09:46.3   0.2                          T                6.4  .58 Ml 3.7         4770088

.
EVENT     264611
    Date      Time       Latitude Longitude    Depth    Ndef Nsta Gap    Mag1  N    Mag2  N    Mag3  N   Author         ID
       rms   OT_Error      Smajor Sminor Az        Err   mdist  Mdist     Err        Err        Err      Quality

2011/10/02 03:26:09.5     45.6131    6.8341      2.0      14    7 210  Ml 1.5  4  Md 1.5  2              js067245    264631

      0.32   +-  0.16       3.9    1.7   85.74 +-  0.0    0.12   2.32   +-0.2      +-0.0                 m i ke

FRANCE
Sta     Dist  EvAz     Phase      Date       Time     TRes  Azim  AzRes  Slow  SRes Def   SNR       Amp   Per   Mag1   Mag2       ID
LPL   000.12 216.5 m E Pg      2011/10/02 03:26:12.4   0.0                          T                                        4764017
LPL   000.12 216.5 m E Sg      2011/10/02 03:26:13.6  -0.5                          T               10.4  .30        Md 1.5  4764014
LPG   000.13 206.7 m E Pg      2011/10/02 03:26:12.7   0.1                          T                                        4764019
LPG   000.13 206.7 m E Sg      2011/10/02 03:26:13.9  -0.5                          T               11.8  .20        Md 1.4  4764018
MBDF  000.89 182.9 m E Pg      2011/10/02 03:26:26.3   0.0                          T                                        4764012
MBDF  000.89 182.9 m E P       2011/10/02 03:26:28.0  -0.3                          T                                        4764020
MBDF  000.89 182.9 m E Sg      2011/10/02 03:26:38.4   0.5                          T                 .7  .27 Ml 1.2         4764013
ORIF  000.97 224.5 m E Pg      2011/10/02 03:26:27.8   0.1                          T                                        4764015
ORIF  000.97 224.5 m E Sg      2011/10/02 03:26:40.4   0.1                          T                  1  .20 Ml 1.5         4764016
CABF  001.13 332.8 m E Pg      2011/10/02 03:26:30.9   0.2                          T                                        4764011
CABF  001.13 332.8 m E P       2011/10/02 03:26:32.1  -0.3                          T                                        4764009
CABF  001.13 332.8 m E Sg      2011/10/02 03:26:45.6   0.4                          T                1.8  .34 Ml 1.6         4764010
VIVF  001.70 244.4 m E Pg      2011/10/02 03:26:41.5   0.2                          T                                        4764119
SMF   002.32 297.5 m E Sg      2011/10/02 03:27:21.6  -0.9                          T                 .4  .15 Ml 1.7         4764008

.
EVENT     264612
    Date      Time       Latitude Longitude    Depth    Ndef Nsta Gap    Mag1  N    Mag2  N    Mag3  N   Author         ID
       rms   OT_Error      Smajor Sminor Az        Err   mdist  Mdist     Err        Err        Err      Quality

2011/10/02 04:44:56.8     44.9655    6.7128      2.0      16    6 167  Ml 1.2  2  Md 1.6  1              js067245    264632

      0.21   +-  0.07       2.0    1.0   99.04 +-  0.0    0.24   1.41   +-0.2      +-                    m i ke

FRANCE
Sta     Dist  EvAz     Phase      Date       Time     TRes  Azim  AzRes  Slow  SRes Def   SNR       Amp   Per   Mag1   Mag2       ID
MBDF  000.24 170.1 m E Pg      2011/10/02 04:45:02.0   0.2                          T                                        4764036
MBDF  000.24 170.1 m E Sg      2011/10/02 04:45:05.5   0.4                          T                4.5  .22        Md 1.6  4764035
LPG   000.53 002.9 m E Pg      2011/10/02 04:45:07.2  -0.2                          T                                        4764030
LPG   000.53 002.9 m E Sg      2011/10/02 04:45:14.7   0.4                          T                1.2  .22                4764029
LPL   000.55 001.4 m E Pg      2011/10/02 04:45:07.5  -0.1                          T                                        4764032
LPL   000.55 001.4 m E P       2011/10/02 04:45:08.7  -0.1                          T                                        4764022
LPL   000.55 001.4 m E Pn      2011/10/02 04:45:10.5   0.1                          T                                        4764021
LPL   000.55 001.4 m E Sg      2011/10/02 04:45:15.1   0.2                          T                1.4  .26                4764033
ORIF  000.59 265.7 m E Pg      2011/10/02 04:45:08.4   0.2                          T                                        4764031
ORIF  000.59 265.7 m E P       2011/10/02 04:45:09.5  -0.1                          T                                        4764023
ORIF  000.59 265.7 m E Pn      2011/10/02 04:45:10.7  -0.1                          T                                        4764024
ORIF  000.59 265.7 m E Sg      2011/10/02 04:45:15.8  -0.2                          T                1.9  .20                4764034
SMRF  001.28 219.9 m E Pg      2011/10/02 04:45:20.7  -0.1                          T                                        4764027
SMRF  001.28 219.9 m E Sg      2011/10/02 04:45:37.6   0.2                          T                 .3  .22 Ml 1.1         4764028
FRF   001.41 182.0 m E Pg      2011/10/02 04:45:22.6  -0.5                          T                                        4764025
FRF   001.41 182.0 m E Sg      2011/10/02 04:45:41.3   0.1                          T                 .5  .24 Ml 1.4         4764026

.
EVENT     264651
    Date      Time       Latitude Longitude    Depth    Ndef Nsta Gap    Mag1  N    Mag2  N    Mag3  N   Author         ID
       rms   OT_Error      Smajor Sminor Az        Err   mdist  Mdist     Err        Err        Err      Quality

2011/10/02 05:21:32.4     43.1652    -.3824      2.0       6    3 198             Md 1.2  2              js067245    264671

      0.36   +-  0.23       7.1    3.1  178.03 +-  0.0    0.30   0.62              +-0.2                 m i ke

PYRENEES
Sta     Dist  EvAz     Phase      Date       Time     TRes  Azim  AzRes  Slow  SRes Def   SNR       Amp   Per   Mag1   Mag2       ID
ETSF  000.30 206.0 m E Pg      2011/10/02 05:21:38.4   0.1                          T                                        4764047
ETSF  000.30 206.0 m E Sg      2011/10/02 05:21:41.4  -0.9                          T                2.9  .24        Md 1.3  4764046
EPF   000.55 104.1 m E Pg      2011/10/02 05:21:42.6  -0.3                          T                                        4764044
EPF   000.55 104.1 m E Sg      2011/10/02 05:21:50.2   0.2                          T                 .6  .18        Md 1.1  4764045
SJPF  000.62 265.5 m E Pg      2011/10/02 05:21:44.1  -0.1                          T                                        4770093
SJPF  000.62 265.5 m E Sg      2011/10/02 05:21:52.0  -0.3                          T                 .2  .18                4764043

.
