EVENT     266001
    Date      Time       Latitude Longitude    Depth    Ndef Nsta Gap    Mag1  N    Mag2  N    Mag3  N   Author         ID
       rms   OT_Error      Smajor Sminor Az        Err   mdist  Mdist     Err        Err        Err      Quality

2011/11/06 01:33:58.5     44.2221   10.6564     10.0      31    9 088  Ml 2.6  5                         js067245    266021

      0.96   +-  0.15       3.4    2.7   79.73 +-  0.0    0.17   5.78   +-0.2                            m i ke

NORTHERN ITALY
Sta     Dist  EvAz     Phase      Date       Time     TRes  Azim  AzRes  Slow  SRes Def   SNR       Amp   Per   Mag1   Mag2       ID
PGF   002.06 216.4 m E Pn      2011/11/06 01:34:31.8   0.1                          T                                        4782333
PGF   002.06 216.4 m E Pg      2011/11/06 01:34:37.3   0.3                          T                                        4782332
PGF   002.06 216.4 m E Sn      2011/11/06 01:34:55.2  -0.7                          T                5.9  .25 Ml 2.8         4782331
SBF   002.35 262.3 m E Pn      2011/11/06 01:34:34.9  -0.6                          T                                        4782319
SBF   002.35 262.3 m E P       2011/11/06 01:34:37.8  -0.3                          T                                        4782318
SBF   002.35 262.3 m E Pg      2011/11/06 01:34:42.1  -0.2                          T                                        4782320
LMR   003.13 255.0 m E Pn      2011/11/06 01:34:46.4   0.4                          T                                        4782330
LMR   003.13 255.0 m E P       2011/11/06 01:34:51.2   2.1                          T                                        4782329
CABF  004.01 308.2 m E P       2011/11/06 01:35:02.5   0.9                          T                                        4782328
HINF  004.47 325.0 m E P       2011/11/06 01:35:07.8  -0.3                          T                                        4782334
HINF  004.47 325.0 m E Sn      2011/11/06 01:35:53.1  -0.1                          T                1.1  .25 Ml 2.4         4782324
HAU   004.83 323.2 m E P       2011/11/06 01:35:12.3  -0.9                          T                                        4782335
HAU   004.83 323.2 m E Sn      2011/11/06 01:36:01.5  -0.2                          T                2.5  .28 Ml 2.6         4782322
CDF   004.80 332.0 m E P       2011/11/06 01:35:12.3  -0.6                          T                                        4782336
CDF   004.80 332.0 m E Sn      2011/11/06 01:36:01.4   0.1                          T                2.1  .31 Ml 2.8         4782327
MEZF  005.78 319.8 m E P       2011/11/06 01:35:26.3  -0.2 130.5  -5.3              T                                        4782326
MEZF  005.78 319.8 m E Pg      2011/11/06 01:35:45.5   0.3 142.1  6.4               T                                        4782325
SMF   005.37 299.2 m E Sn      2011/11/06 01:36:15.0   0.1                          T                1.8  .36 Ml 2.6         4782321

.
EVENT     266002
    Date      Time       Latitude Longitude    Depth    Ndef Nsta Gap    Mag1  N    Mag2  N    Mag3  N   Author         ID
       rms   OT_Error      Smajor Sminor Az        Err   mdist  Mdist     Err        Err        Err      Quality

2011/11/06 02:01:57.3     46.6846    1.3384      2.0      27   11 097  Ml 1.9  9  Md 1.9  5              js067245    266022

      0.27   +-  0.06       1.3    1.0  178.60 +-  0.0    0.72   2.15   +-0.3      +-0.2                 m i ke

FRANCE
Sta     Dist  EvAz     Phase      Date       Time     TRes  Azim  AzRes  Slow  SRes Def   SNR       Amp   Per   Mag1   Mag2       ID
TCF   000.72 123.1 m E Pg      2011/11/06 02:02:11.2   0.2                          T                                        4782366
TCF   000.72 123.1 m E Pn      2011/11/06 02:02:13.1   0.1                          T                                        4782358
TCF   000.72 123.1 m E Sg      2011/11/06 02:02:20.4   0.0                          T                2.4  .16        Md 2.0  4782357
TCF   000.72 123.1 m E Sn      2011/11/06 02:02:23.6  -0.4                          T                                        4782343
BGF   001.05 096.4 m E Pg      2011/11/06 02:02:17.1   0.1                          T                                        4782363
BGF   001.05 096.4 m E Pn      2011/11/06 02:02:17.8   0.4                          T                                        4782355
BGF   001.05 096.4 m E Sn      2011/11/06 02:02:31.7   0.0                          T               16.2  .38 Ml 2.5 Md 2.0  4782362
MFF   001.03 265.9 m E Pn      2011/11/06 02:02:17.4   0.3                          T                                        4782342
MFF   001.03 265.9 m E Sg      2011/11/06 02:02:30.1   0.2                          T                1.3  .25 Ml 1.7         4782353
MFF   001.03 265.9 m E Sn      2011/11/06 02:02:31.3   0.1                          T                                Md 1.7  4782341
RJF   001.39 174.8 m E Pg      2011/11/06 02:02:23.2   0.0                          T                                        4782351
RJF   001.39 174.8 m E Sn      2011/11/06 02:02:39.9   0.0                          T                                        4782359
RJF   001.39 174.8 m E Sg      2011/11/06 02:02:41.5   0.4                          T                3.2  .18 Ml 1.9 Md 1.8  4782344
AVF   001.39 084.9 m E Pg      2011/11/06 02:02:23.3   0.1                          T                                        4782364
AVF   001.39 084.9 m E Sg      2011/11/06 02:02:41.1  -0.1                          T                 .8  .20 Ml 1.6         4782365
SMF   001.72 090.4 m E Pn      2011/11/06 02:02:26.8   0.2                          T                                        4782356
SMF   001.72 090.4 m E Sg      2011/11/06 02:02:51.7   0.0                          T                 .9  .21 Ml 1.7         4782350
CAF   001.83 163.6 m E Pn      2011/11/06 02:02:28.0  -0.1                          T                                        4782345
CAF   001.83 163.6 m E Pg      2011/11/06 02:02:31.2  -0.2                          T                                        4782339
CAF   001.83 163.6 m E Sg      2011/11/06 02:02:54.2  -0.9                          T                1.0  .23 Ml 1.8         4782352
LDF   002.15 333.2 m E Pn      2011/11/06 02:02:32.1  -0.3                          T                                        4782337
LDF   002.15 333.2 m E Sg      2011/11/06 02:03:04.7  -0.3                          T                                        4782338
SSF   001.53 075.0 m E Sg      2011/11/06 02:02:45.6  -0.2                          T                 .6  .21 Ml 1.6         4782347
LFF   001.79 193.7 m E Sg      2011/11/06 02:02:53.9   0.1                          T                                        4782340
LOR   001.82 070.4 m E Sg      2011/11/06 02:02:54.2  -0.6                          T                 .8  .26 Ml 1.7         4782346

.
EVENT     266034
    Date      Time       Latitude Longitude    Depth    Ndef Nsta Gap    Mag1  N    Mag2  N    Mag3  N   Author         ID
       rms   OT_Error      Smajor Sminor Az        Err   mdist  Mdist     Err        Err        Err      Quality

2011/11/06 05:13:01.8     47.9446    7.8155     10.0      16    5 036  Ml 1.8  3  Md 1.8  3              js067245    266054

      0.26   +-  0.04        .9     .7  168.31 +-  0.0    0.06   1.78   +-0.3      +-0.1                 m i ke

SWITZERLAND
Sta     Dist  EvAz     Phase      Date       Time     TRes  Azim  AzRes  Slow  SRes Def   SNR       Amp   Per   Mag1   Mag2       ID
CDF   000.59 322.5 m E Pg      2011/11/06 05:13:13.2   0.0                          T                                        4782376
CDF   000.59 322.5 m E Sg      2011/11/06 05:13:20.9  -0.1                          T                1.1  .14        Md 1.8  4782375
HINF  000.66 259.2 m E Pg      2011/11/06 05:13:14.4  -0.1                          T                                        4782374
HINF  000.66 259.2 m E Pn      2011/11/06 05:13:15.4  -0.4                          T                                        4782370
HINF  000.66 259.2 m E Sg      2011/11/06 05:13:23.2   0.0                          T                1.8  .17        Md 1.7  4782373
HAU   000.99 274.1 m E Pg      2011/11/06 05:13:20.5   0.0                          T                                        4782371
HAU   000.99 274.1 m E Sg      2011/11/06 05:13:33.4   0.1                          T                2.7  .30 Ml 1.6 Md 1.9  4782372
THEF  001.25 283.8 m E Pn      2011/11/06 05:13:24.1   0.3                          T                                        4782369
THEF  001.25 283.8 m E Sn      2011/11/06 05:13:40.0   0.2                          T                4.2  .25 Ml 2.2         4782368
CABF  001.78 222.0 m E Sg      2011/11/06 05:13:57.9  -0.1                          T                 .7  .27 Ml 1.6         4782367

.
EVENT     266035
    Date      Time       Latitude Longitude    Depth    Ndef Nsta Gap    Mag1  N    Mag2  N    Mag3  N   Author         ID
       rms   OT_Error      Smajor Sminor Az        Err   mdist  Mdist     Err        Err        Err      Quality

2011/11/06 05:45:12.0     35.7088   -5.3945     25.0      98    9 197  Ml 3.6  6                         js067245    266055

      0.67   +-  0.19       3.8    2.1    4.31 +-  0.0    0.19  13.45   +-0.1                            m i ke

STRAIT OF GIBRALTAR
Sta     Dist  EvAz     Phase      Date       Time     TRes  Azim  AzRes  Slow  SRes Def   SNR       Amp   Per   Mag1   Mag2       ID
SJPF  008.07 022.3 m E Pn      2011/11/06 05:47:05.0  -0.1                          T                                        4782392
SJPF  008.07 022.3 m E P       2011/11/06 05:47:09.5  -1.0                          T                                        4782391
SJPF  008.07 022.3 m E Sn      2011/11/06 05:48:30.5   0.5                          T                4.0  .29 Ml 3.6         4782390
EPF   008.55 029.5 m E Pn      2011/11/06 05:47:12.4   0.7                          T                                        4782387
EPF   008.55 029.5 m E P       2011/11/06 05:47:17.4   0.1                          T                                        4782386
EPF   008.55 029.5 m E Sn      2011/11/06 05:48:42.0   0.4                          T                3.1  .35 Ml 3.5         4782388
RJF   010.93 026.6 m E Pn      2011/11/06 05:47:43.7  -0.3                          T                                        4784102
QUIF  012.31 007.0 m E Pn      2011/11/06 05:48:02.6  -0.2                          T                                        4782385
QUIF  012.31 007.0 m E Sn      2011/11/06 05:50:11.0  -0.3                          T                 .8  .24 Ml 3.6         4782379
SGMF  012.71 008.6 m E Pn      2011/11/06 05:48:07.9  -0.4                          T                                        4782384
SGMF  012.71 008.6 m E Sn      2011/11/06 05:50:20.1  -0.8                          T                                        4782380
ROSF  012.72 006.4 m E Pn      2011/11/06 05:48:08.4   0.1                          T                                        4782383
ROSF  012.72 006.4 m E Sn      2011/11/06 05:50:20.2  -0.8                          T                1.6  .31 Ml 3.8         4782381
LDF   013.45 015.2 m E Pn      2011/11/06 05:48:17.7  -0.6                          T                                        4784103
ETSF  008.10 026.1 m E Sn      2011/11/06 05:48:31.2   0.4                          T                3.1  .21 Ml 3.6         4784101
CAF   010.82 029.4 m E Sn      2011/11/06 05:49:35.7   0.0                          T                1.6  .34 Ml 3.5         4782389

.
EVENT     266003
    Date      Time       Latitude Longitude    Depth    Ndef Nsta Gap    Mag1  N    Mag2  N    Mag3  N   Author         ID
       rms   OT_Error      Smajor Sminor Az        Err   mdist  Mdist     Err        Err        Err      Quality

2011/11/06 06:57:35.7     44.6903    6.7184      2.0      35   15 101  Ml 2.3  8  Md 2.1  1              js067245    266023

      0.56   +-  0.07       1.6    1.1   83.65 +-  0.0    0.05   3.32   +-0.3      +-                    m i ke

FRANCE
Sta     Dist  EvAz     Phase      Date       Time     TRes  Azim  AzRes  Slow  SRes Def   SNR       Amp   Per   Mag1   Mag2       ID
MBDF  000.05 045.9 m E Pg      2011/11/06 06:57:37.6   0.3                          T                                        4782406
MBDF  000.05 045.9 m E Sg      2011/11/06 06:57:38.6   0.3                          T             1301.4  .20        Md 2.1  4782405
ORIF  000.64 291.2 m E Pg      2011/11/06 06:57:48.3   0.4                          T                                        4782404
ORIF  000.64 291.2 m E Sg      2011/11/06 06:57:56.3   0.0                          T               20.6  .20                4782401
LPG   000.81 001.6 m E Pg      2011/11/06 06:57:51.4   0.2                          T                                        4782402
LPG   000.81 001.6 m E Pn      2011/11/06 06:57:52.9   0.1                          T                                        4782393
LPG   000.81 001.6 m E Sg      2011/11/06 06:58:01.6  -0.2                          T               11.4  .28                4782400
LPL   000.83 000.7 m E Pg      2011/11/06 06:57:51.8   0.3                          T                                        4782403
LPL   000.83 000.7 m E Sg      2011/11/06 06:58:02.4   0.1                          T               10.8  .31                4782399
FRF   001.13 182.6 m E Pn      2011/11/06 06:57:56.8  -0.1                          T                                        4782394
FRF   001.13 182.6 m E P       2011/11/06 06:57:58.4  -0.1                          T                                        4782425
FRF   001.13 182.6 m E Sn      2011/11/06 06:58:12.3   0.2                          T               13.9  .28 Ml 2.6         4782396
SMRF  001.09 229.4 m E P       2011/11/06 06:57:58.1   0.1                          T                                        4782435
SMRF  001.09 229.4 m E Sg      2011/11/06 06:58:10.2   0.0                          T                6.7  .23 Ml 2.3         4784113
LMR   001.36 186.4 m E Pg      2011/11/06 06:58:01.6   0.4                          T                                        4782398
LMR   001.36 186.4 m E Sn      2011/11/06 06:58:17.0  -0.6                          T                                        4782424
LMR   001.36 186.4 m E Sg      2011/11/06 06:58:18.7  -0.1                          T                8.2  .22 Ml 2.6         4782397
SBF   000.97 147.8 m E Sg      2011/11/06 06:58:06.8   0.1                          T               42.2  .50 Ml 2.7         4782395
CABF  001.97 347.3 m E P       2011/11/06 06:58:10.8   0.1                          T                                        4782421
SMF   002.81 315.1 m E Pn      2011/11/06 06:58:19.7  -0.1                          T                                        4782415
SMF   002.81 315.1 m E P       2011/11/06 06:58:22.6   0.0                          T                                        4782414
SMF   002.81 315.1 m E Pg      2011/11/06 06:58:27.9   0.1                          T                                        4782413
SMF   002.81 315.1 m E Sg      2011/11/06 06:59:03.9   0.0                          T                 .9  .19 Ml 2.1         4782412
VIVF  001.47 277.2 m E Sg      2011/11/06 06:58:21.9  -0.1                          T                2.4  .26 Ml 2.0         4784112
AVF   003.16 312.9 m E P       2011/11/06 06:58:27.3  -0.2                          T                                        4782422
SSF   003.26 317.7 m E P       2011/11/06 06:58:28.7  -0.3                          T                                        4782420
BGF   003.30 305.9 m E P       2011/11/06 06:58:29.4  -0.1                          T                                        4782419
CAF   003.32 275.7 m E P       2011/11/06 06:58:29.4  -0.4                          T                                        4782417
CAF   003.32 275.7 m E Sn      2011/11/06 06:59:04.6   0.1                          T                 .6  .16 Ml 2.1         4782409

.
EVENT     266004
    Date      Time       Latitude Longitude    Depth    Ndef Nsta Gap    Mag1  N    Mag2  N    Mag3  N   Author         ID
       rms   OT_Error      Smajor Sminor Az        Err   mdist  Mdist     Err        Err        Err      Quality

2011/11/06 06:58:12.5     44.6900    6.7175      2.0      23   10 101  Ml 2.3  5  Md 2.1  3              js067245    266024

      0.25   +-  0.06       1.4    1.1   96.30 +-  0.0    0.05   3.32   +-0.3      +-0.1                 m i ke

FRANCE
Sta     Dist  EvAz     Phase      Date       Time     TRes  Azim  AzRes  Slow  SRes Def   SNR       Amp   Per   Mag1   Mag2       ID
MBDF  000.05 046.2 m E Pg      2011/11/06 06:58:14.3   0.2                          T                                        4782434
MBDF  000.05 046.2 m E Sg      2011/11/06 06:58:15.3   0.2                          T              889.5  .18        Md 2.1  4782433
ORIF  000.64 291.2 m E Pg      2011/11/06 06:58:24.9   0.2                          T                                        4782432
ORIF  000.64 291.2 m E Sg      2011/11/06 06:58:32.9  -0.1                          T               15.3  .20        Md 2.1  4782431
LPG   000.81 001.7 m E Pg      2011/11/06 06:58:28.0  -0.1                          T                                        4782427
LPG   000.81 001.7 m E Pn      2011/11/06 06:58:29.6  -0.1                          T                                        4782426
LPG   000.81 001.7 m E Sg      2011/11/06 06:58:38.2  -0.4                          T               11.6  .40                4782428
LPL   000.83 000.7 m E Pg      2011/11/06 06:58:28.4   0.1                          T                                        4782429
LPL   000.83 000.7 m E Sg      2011/11/06 06:58:39.3   0.2                          T                5.3  .22        Md 2.0  4782430
SMRF  001.09 229.3 m E P       2011/11/06 06:58:35.0   0.3                          T                                        4782438
SMRF  001.09 229.3 m E Sg      2011/11/06 06:58:46.9  -0.1                          T               10.7  .42 Ml 2.3         4784118
FRF   001.13 182.6 m E P       2011/11/06 06:58:35.2  -0.1                          T                                        4782436
FRF   001.13 182.6 m E Sn      2011/11/06 06:58:49.1   0.2                          T                9.2  .30 Ml 2.4         4782440
SBF   000.97 147.8 m E Sg      2011/11/06 06:58:43.6   0.1                          T                7.8  .21 Ml 2.4         4784120
LMR   001.36 186.4 m E Sg      2011/11/06 06:58:55.4  -0.2                          T                6.8  .23 Ml 2.5         4784119
VIVF  001.47 277.2 m E Sg      2011/11/06 06:58:58.6  -0.2                          T                1.7  .25 Ml 1.8         4784117
CAF   003.32 275.7 m E P       2011/11/06 06:59:06.0  -0.6                          T                                        4782437

.
