BEGIN GSE2.0
MSG_TYPE DATA
MSG_ID 18-JAN-1215:27:37  FRA_NDC
E-MAIL
DATA_TYPE BULLETIN
Reviewed Bulletin (REB) # P2012-002  from French NDC for regional phases     PERIOD 11 JAN 2012 TO 17 JAN 2012 S M.,J-P S
EVENT     268439
    Date      Time       Latitude Longitude    Depth    Ndef Nsta Gap    Mag1  N    Mag2  N    Mag3  N   Author         ID
       rms   OT_Error      Smajor Sminor Az        Err   mdist  Mdist     Err        Err        Err      Quality

2012/01/11 01:21:00.5     43.1765   -1.4743      2.0      11    3 174  Ml 0.8  1  Md 1.2  2              js067245    268459

      0.26   +-  0.12       2.6    1.8   43.26 +-  0.0    0.05   1.34   +-         +-0.1                 m i ke

PYRENEES
Sta     Dist  EvAz     Phase      Date       Time     TRes  Azim  AzRes  Slow  SRes Def   SNR       Amp   Per   Mag1   Mag2       ID
SJPF  000.19 109.0 m E Pg      2012/01/11 01:21:04.1  -0.3                          T                                        4813692
SJPF  000.19 109.0 m E Sg      2012/01/11 01:21:07.3   0.2                          T                3.7  .24        Md 1.1  4813691
ETSF  000.73 112.2 m E Pg      2012/01/11 01:21:14.4   0.1                          T                                        4814616
ETSF  000.73 112.2 m E Sg      2012/01/11 01:21:24.4   0.6                          T                 .6  .28        Md 1.2  4814617
EPF   001.34 095.7 m E Sg      2012/01/11 01:21:42.5  -0.3                          T                 .1  .19 Ml  .8         4814615

.
EVENT     268435
    Date      Time       Latitude Longitude    Depth    Ndef Nsta Gap    Mag1  N    Mag2  N    Mag3  N   Author         ID
       rms   OT_Error      Smajor Sminor Az        Err   mdist  Mdist     Err        Err        Err      Quality

2012/01/11 02:57:03.1     42.7619     .9939      4.0 f    18    4 079  Ml 1.4  3  Md 1.5  2              js067245    268455

      0.47   +-  0.08       1.5    1.4    7.16 +-  0.0    0.14   2.30   +-0.3      +-0.1                 m i ke

PYRENEES
Sta     Dist  EvAz     Phase      Date       Time     TRes  Azim  AzRes  Slow  SRes Def   SNR       Amp   Per   Mag1   Mag2       ID
EPF   000.55 299.4 m E Pg      2012/01/11 02:57:13.2  -0.5                          T                                        4813709
EPF   000.55 299.4 m E Sg      2012/01/11 02:57:20.0  -0.9                          T                2.4  .16        Md 1.6  4813708
MTLF  001.07 056.7 m E Pg      2012/01/11 02:57:22.9  -0.2                          T                                        4813707
MTLF  001.07 056.7 m E Sg      2012/01/11 02:57:37.4   0.4                          T                 .8  .24 Ml 1.4 Md 1.4  4813706
ETSF  001.15 277.3 m E Sg      2012/01/11 02:57:38.9  -0.7                          T                 .4  .21 Ml 1.1         4813710
CAF   002.30 019.3 m E Sg      2012/01/11 02:58:14.4  -1.0                          T                 .6  .22 Ml 1.7         4813713

.
EVENT     268437
    Date      Time       Latitude Longitude    Depth    Ndef Nsta Gap    Mag1  N    Mag2  N    Mag3  N   Author         ID
       rms   OT_Error      Smajor Sminor Az        Err   mdist  Mdist     Err        Err        Err      Quality

2012/01/11 07:25:54.1     45.7669    7.0608      5.0 f    24    7 065  Ml 1.8  5  Md 1.8  2              js067245    268457

      0.22   +-  0.04       1.0     .7   98.15 +-  0.0    0.02   2.06   +-0.1      +-0.0                 m i ke

NORTHERN ITALY
Sta     Dist  EvAz     Phase      Date       Time     TRes  Azim  AzRes  Slow  SRes Def   SNR       Amp   Per   Mag1   Mag2       ID
LPL   000.34 222.7 m E Pg      2012/01/11 07:26:00.8  -0.2                          T                                        4814620
LPL   000.34 222.7 m E Sg      2012/01/11 07:26:05.5  -0.1                          T                5.1  .24        Md 1.8  4814621
LPG   000.35 219.0 m E Pg      2012/01/11 07:26:01.0  -0.2                          T                                        4814618
LPG   000.35 219.0 m E Sg      2012/01/11 07:26:05.9   0.0                          T                5.2  .18        Md 1.8  4814619
MBDF  001.06 191.2 m E Pg      2012/01/11 07:26:14.1   0.0                          T                                        4814623
MBDF  001.06 191.2 m E Sn      2012/01/11 07:26:28.5   0.0                          T                1.3  .20 Ml 1.7         4814625
CABF  001.08 321.7 m E Pg      2012/01/11 07:26:14.5   0.1                          T                                        4814628
CABF  001.08 321.7 m E Sg      2012/01/11 07:26:28.5   0.0                          T                2.8  .23 Ml 1.9         4814630
CABF  001.08 321.7 m E S       2012/01/11 07:26:31.9   0.3                          T                                        4814629
ORIF  001.19 224.9 m E Pg      2012/01/11 07:26:16.4   0.0                          T                                        4814622
ORIF  001.19 224.9 m E Sg      2012/01/11 07:26:32.2   0.3                          T                2.0  .32 Ml 1.7         4814624
VIVF  001.92 242.5 m E Sg      2012/01/11 07:26:54.5   0.0                          T                1.3  .28 Ml 1.8         4814626
HINF  002.06 356.1 m E Sg      2012/01/11 07:26:58.7  -0.1                          T                1.1  .20 Ml 1.9         4814627

.
EVENT     268471
    Date      Time       Latitude Longitude    Depth    Ndef Nsta Gap    Mag1  N    Mag2  N    Mag3  N   Author         ID
       rms   OT_Error      Smajor Sminor Az        Err   mdist  Mdist     Err        Err        Err      Quality

2012/01/11 09:04:20.7     44.1262    8.1952       .0 f    14    4 194  Ml 1.7  3  Md 1.8  1              js067245    268491

      0.25   +-  0.11       2.4    1.2  132.85 +-  0.0    0.09   1.46   +-0.3      +-                    m i km

NORTHERN ITALY
Sta     Dist  EvAz     Phase      Date       Time     TRes  Azim  AzRes  Slow  SRes Def   SNR       Amp   Per   Mag1   Mag2       ID
SBF   000.61 244.6 m E Pg      2012/01/11 09:04:32.9   0.4                          T                                        4814637
SBF   000.61 244.6 m E Sg      2012/01/11 09:04:40.3  -0.4                          T                6.9  .32        Md 1.8  4814638
MBDF  001.18 301.0 m E Pg      2012/01/11 09:04:43.3   0.0                          T                                        4814631
MBDF  001.18 301.0 m E Sg      2012/01/11 09:04:58.4  -0.4                          T                 .7  .31 Ml 1.3         4814632
FRF   001.25 243.8 m E Pg      2012/01/11 09:04:44.2  -0.1                          T                                        4814635
FRF   001.25 243.8 m E Sg      2012/01/11 09:05:00.9   0.1                          T                1.6  .20 Ml 1.9         4814636
LMR   001.46 237.6 m E Pg      2012/01/11 09:04:47.4  -0.7                          T                                        4814633
LMR   001.46 237.6 m E Sn      2012/01/11 09:05:04.8  -0.7                          T                1.7  .29 Ml 1.8         4814634

.
EVENT     268473
    Date      Time       Latitude Longitude    Depth    Ndef Nsta Gap    Mag1  N    Mag2  N    Mag3  N   Author         ID
       rms   OT_Error      Smajor Sminor Az        Err   mdist  Mdist     Err        Err        Err      Quality

2012/01/11 09:41:02.4     47.5627    7.6165     10.0      15    3 070  Ml 1.3  2  Md 1.6  1              js067245    268493

      0.33   +-  0.05       1.2     .9  156.37 +-  0.0    0.02   1.41   +-0.0      +-                    m i ke

SWITZERLAND
Sta     Dist  EvAz     Phase      Date       Time     TRes  Azim  AzRes  Slow  SRes Def   SNR       Amp   Per   Mag1   Mag2       ID
HINF  000.57 296.5 m E Pg      2012/01/11 09:41:13.5   0.0                          T                                        4814643
HINF  000.57 296.5 m E Sg      2012/01/11 09:41:20.7  -0.3                          T                6.6  .24                4814645
HINF  000.57 296.5 m E Sn      2012/01/11 09:41:24.0  -0.1                          T                2.5  .21        Md 1.6  4814644
HAU   000.96 297.9 m E Pg      2012/01/11 09:41:20.5   0.0                          T                                        4814641
HAU   000.96 297.9 m E Sg      2012/01/11 09:41:33.0  -0.1                          T                 .8  .16 Ml 1.3         4814642
CABF  001.41 228.2 m E Pg      2012/01/11 09:41:28.8  -0.1                          T                                        4814639
CABF  001.41 228.2 m E Sg      2012/01/11 09:41:47.2   0.0                          T                 .6  .28 Ml 1.3         4814640

.
EVENT     268474
    Date      Time       Latitude Longitude    Depth    Ndef Nsta Gap    Mag1  N    Mag2  N    Mag3  N   Author         ID
       rms   OT_Error      Smajor Sminor Az        Err   mdist  Mdist     Err        Err        Err      Quality

2012/01/11 10:51:14.8     47.6601    7.7081     21.0       9    3 066  Ml 1.7  2  Md 1.4  1              js067245    268494

      0.22   +-  0.07       1.1     .9    7.20 +-  0.8    0.06   1.29   +-0.3      +-                    m i ke

SWITZERLAND
Sta     Dist  EvAz     Phase      Date       Time     TRes  Azim  AzRes  Slow  SRes Def   SNR       Amp   Per   Mag1   Mag2       ID
HINF  000.60 285.5 m E Pg      2012/01/11 10:51:26.6   0.0                          T                                        4814650
HINF  000.60 285.5 m E Sg      2012/01/11 10:51:34.6  -0.3                          T                2.9  .24        Md 1.4  4814651
HAU   000.98 291.2 m E Pg      2012/01/11 10:51:33.6   0.1                          T                                        4814648
HAU   000.98 291.2 m E Sg      2012/01/11 10:51:46.3  -0.1                          T                1.4  .19 Ml 1.5         4814649
THEF  001.29 296.9 m E Pg      2012/01/11 10:51:39.1   0.1                          T                                        4814646
THEF  001.29 296.9 m E Sg      2012/01/11 10:51:55.6  -0.2                          T                2.5  .28 Ml 1.9         4814647

.
EVENT     268484
    Date      Time       Latitude Longitude    Depth    Ndef Nsta Gap    Mag1  N    Mag2  N    Mag3  N   Author         ID
       rms   OT_Error      Smajor Sminor Az        Err   mdist  Mdist     Err        Err        Err      Quality

2012/01/11 14:45:19.2     37.0714   -4.5624     10.0 f    55    3 101  Ml 3.1  3                         js067245    268504

      1.11   +-  0.18       4.3    2.8  173.03 +-  0.0    0.53   7.04   +-0.2                            m i ke

SPAIN
Sta     Dist  EvAz     Phase      Date       Time     TRes  Azim  AzRes  Slow  SRes Def   SNR       Amp   Per   Mag1   Mag2       ID
SJPF  006.55 021.9 m E Pn      2012/01/11 14:46:52.5  -0.9                          T                                        4814657
SJPF  006.55 021.9 m E Sn      2012/01/11 14:48:04.2   0.4                          T                3.0  .28 Ml 3.2         4814652
ETSF  006.58 026.6 m E Pn      2012/01/11 14:46:53.6  -0.2                          T                                        4814656
ETSF  006.58 026.6 m E Sn      2012/01/11 14:48:04.3  -0.2                          T                1.9  .37 Ml 2.9         4814653
EPF   007.04 030.8 m E Pn      2012/01/11 14:46:59.4  -0.6                          T                                        4814655
EPF   007.04 030.8 m E Sn      2012/01/11 14:48:15.5   0.1                          T                1.7  .28 Ml 3.1         4814654

.
EVENT     268485
    Date      Time       Latitude Longitude    Depth    Ndef Nsta Gap    Mag1  N    Mag2  N    Mag3  N   Author         ID
       rms   OT_Error      Smajor Sminor Az        Err   mdist  Mdist     Err        Err        Err      Quality

2012/01/11 15:52:06.8     46.3719    4.5966       .0 f    18    8 105  Ml 2.0  8  Md 2.2  1              js067245    268505

      0.46   +-  0.08       2.0    1.2   37.63 +-  0.0    0.59   1.71   +-0.3      +-                    m i km

FRANCE
Sta     Dist  EvAz     Phase      Date       Time     TRes  Azim  AzRes  Slow  SRes Def   SNR       Amp   Per   Mag1   Mag2       ID
SMF   000.59 297.9 m E Pg      2012/01/11 15:52:17.9  -0.4                          T                                        4814666
SMF   000.59 297.9 m E P       2012/01/11 15:52:19.2  -0.2                          T                                        4814667
SMF   000.59 297.9 m E Sg      2012/01/11 15:52:26.0  -0.2                          T                6.8  .24        Md 2.2  4814660
AVF   000.95 296.5 m E Pg      2012/01/11 15:52:25.4   0.5                          T                                        4814664
AVF   000.95 296.5 m E Sg      2012/01/11 15:52:38.0   0.4                          T               11.8  .48 Ml 2.2         4814659
LOR   001.03 330.8 m E Pg      2012/01/11 15:52:26.2  -0.2 153.3  3.0               T                                        4814669
LOR   001.03 330.8 m E Sg      2012/01/11 15:52:40.0   0.1 155.5  5.3               T                3.3  .20 Ml 2.1         4814703
SSF   001.02 313.0 m E Pg      2012/01/11 15:52:26.3   0.1                          T                                        4814668
SSF   001.02 313.0 m E Sg      2012/01/11 15:52:39.3  -0.3                          T                3.4  .28 Ml 2.0         4814702
CABF  001.06 076.4 m E Pg      2012/01/11 15:52:27.3   0.3                          T                                        4814665
CABF  001.06 076.4 m E Sg      2012/01/11 15:52:40.5  -0.4                          T                1.4  .23 Ml 1.6         4814701
BGF   001.22 279.4 m E Pg      2012/01/11 15:52:29.7  -0.3                          T                                        4814663
BGF   001.22 279.4 m E Sg      2012/01/11 15:52:46.4   0.4                          T                8.3  .26 Ml 2.4         4814700
VIVF  001.52 178.0 m E Pg      2012/01/11 15:52:35.4   0.0                          T                                        4814695
VIVF  001.52 178.0 m E Sg      2012/01/11 15:52:55.4   0.2                          T                2.5  .17 Ml 2.2         4814699
ORIF  001.71 147.8 m E Pn      2012/01/11 15:52:36.4   0.0                          T                                        4814697
ORIF  001.71 147.8 m E Pg      2012/01/11 15:52:38.9  -0.1                          T                                        4814696
ORIF  001.71 147.8 m E Sg      2012/01/11 15:53:01.2   0.0                          T                1.3  .21 Ml 1.9         4814698

.
EVENT     268486
    Date      Time       Latitude Longitude    Depth    Ndef Nsta Gap    Mag1  N    Mag2  N    Mag3  N   Author         ID
       rms   OT_Error      Smajor Sminor Az        Err   mdist  Mdist     Err        Err        Err      Quality

2012/01/11 21:35:09.6     44.5960    6.6744      2.0      24    8 067  Ml 1.2  5  Md 1.4  1              js067245    268506

      0.14   +-  0.03        .6     .4   66.57 +-  0.0    0.15   1.27   +-0.1      +-                    m i ke

FRANCE
Sta     Dist  EvAz     Phase      Date       Time     TRes  Azim  AzRes  Slow  SRes Def   SNR       Amp   Per   Mag1   Mag2       ID
MBDF  000.15 027.8 m E Pg      2012/01/11 21:35:12.8  -0.1                          T                                        4814710
MBDF  000.15 027.8 m E Sg      2012/01/11 21:35:14.9  -0.1                          T                6.5  .24        Md 1.4  4814711
ORIF  000.65 299.9 m E Pg      2012/01/11 21:35:22.3   0.2                          T                                        4814708
ORIF  000.65 299.9 m E Sg      2012/01/11 21:35:30.2  -0.4                          T                2.3  .31                4814709
SBF   000.91 143.0 m E Pg      2012/01/11 21:35:26.9   0.0                          T                                        4814719
LPL   000.92 002.5 m E Pg      2012/01/11 21:35:27.2   0.0                          T                                        4814717
LPL   000.92 002.5 m E Sg      2012/01/11 21:35:39.2   0.0                          T                 .7  .26 Ml 1.2         4814716
SMRF  001.00 232.2 m E Pg      2012/01/11 21:35:28.5   0.0                          T                                        4814718
SMRF  001.00 232.2 m E Sg      2012/01/11 21:35:41.4  -0.1                          T                 .9  .29 Ml 1.3         4814714
LPG   000.90 003.4 m E Sg      2012/01/11 21:35:38.7   0.0                          T                 .5  .23 Ml 1.1         4814715
FRF   001.04 181.1 m E Sg      2012/01/11 21:35:42.4   0.0                          T                 .4  .21 Ml 1.2         4814713
LMR   001.27 185.5 m E Sg      2012/01/11 21:35:49.7   0.0                          T                 .4  .21 Ml 1.3         4814712

.
EVENT     268487
    Date      Time       Latitude Longitude    Depth    Ndef Nsta Gap    Mag1  N    Mag2  N    Mag3  N   Author         ID
       rms   OT_Error      Smajor Sminor Az        Err   mdist  Mdist     Err        Err        Err      Quality

2012/01/11 22:37:45.5     42.2009     .9908      2.0      30    3 050  Ml 1.6  3                         js067245    268507

      0.56   +-  0.09       1.7    1.5  175.02 +-  0.0    0.20   1.77   +-0.1                            m i ke

PYRENEES
Sta     Dist  EvAz     Phase      Date       Time     TRes  Azim  AzRes  Slow  SRes Def   SNR       Amp   Per   Mag1   Mag2       ID
EPF   000.96 330.1 m E Pg      2012/01/11 22:38:03.8   0.2                          T                                        4814722
EPF   000.96 330.1 m E Sg      2012/01/11 22:38:16.5   0.5                          T                  1  .23 Ml 1.4         4814723
ETSF  001.34 301.9 m E Pg      2012/01/11 22:38:11.1   0.4                          T                                        4814724
ETSF  001.34 301.9 m E Sg      2012/01/11 22:38:28.6   0.7                          T                1.1  .23 Ml 1.6         4814725
MTLF  001.45 038.0 m E Pg      2012/01/11 22:38:12.6   0.0                          T                                        4814720
MTLF  001.45 038.0 m E Sg      2012/01/11 22:38:31.3  -0.1                          T                 .8  .20 Ml 1.6         4814721

.
