BEGIN GSE2.0
MSG_TYPE DATA
MSG_ID 03-AUG-1115:16:34  FRA_NDC
E-MAIL
DATA_TYPE BULLETIN
Reviewed Bulletin (REB) # P2011-030  from French NDC for regional phases     PERIOD 27 JUL 2011 TO 02 AUG 2011 N P., J-P S.
EVENT     261855
    Date      Time       Latitude Longitude    Depth    Ndef Nsta Gap    Mag1  N    Mag2  N    Mag3  N   Author         ID
       rms   OT_Error      Smajor Sminor Az        Err   mdist  Mdist     Err        Err        Err      Quality

2011/07/27 01:13:14.0     44.9704   11.3167      2.0      74   21 081  Ml 2.9 15  Md 2.9  3              js067245    261855

      0.92   +-  0.16       3.5    2.8   96.44 +-  0.0    0.26   6.52   +-0.3      +-0.1                 m i ke

NORTHERN ITALY
Sta     Dist  EvAz     Phase      Date       Time     TRes  Azim  AzRes  Slow  SRes Def   SNR       Amp   Per   Mag1   Mag2       ID
PGF   002.95 215.5 m E Pn      2011/07/27 01:14:00.3   0.2                          T   001.0                                4727833
PGF   002.95 215.5 m E Sn      2011/07/27 01:14:32.7  -1.2                          T   001.0        9.7  .29 Ml 3.2 Md 2.8  4727834
SBF   002.99 249.7 m E Pn      2011/07/27 01:14:01.3   0.6                          T   001.0                                4727835
MBDF  003.24 267.3 m E Pn      2011/07/27 01:14:04.5   0.3                          T   001.0                                4727840
MBDF  003.24 267.3 m E Sg      2011/07/27 01:14:55.2  -0.7                          T   001.0       10.8  .35 Ml 3.0 Md 3.0  4727841
LPG   003.27 280.9 m E Pn      2011/07/27 01:14:05.8   1.1                          T   001.0                                4727828
LPG   003.27 280.9 m E Sn      2011/07/27 01:14:39.6  -2.2                          T   001.0                                4727829
LPG   003.27 280.9 m E Sg      2011/07/27 01:14:55.5  -1.4                          T   001.0       14.0  .47 Ml 3.0 Md 3.0  4727830
LPL   003.28 281.2 m E Pn      2011/07/27 01:14:06.2   1.4                          T   001.0                                4727831
LPL   003.28 281.2 m E Sn      2011/07/27 01:14:42.1   0.0                          T                                        4728078
LPL   003.28 281.2 m E Sg      2011/07/27 01:14:55.3  -2.0                          T   001.0       13.8  .45 Ml 3.0         4727832
FRF   003.64 248.9 m E Pn      2011/07/27 01:14:10.4   1.0                          T   001.0                                4727823
FRF   003.64 248.9 m E Sn      2011/07/27 01:14:50.8   0.5                          T                9.6  .27 Ml 3.2         4728079
LMR   003.83 246.4 m E Pn      2011/07/27 01:14:11.5  -0.4                          T                                        4728082
LMR   003.83 246.4 m E Sn      2011/07/27 01:14:55.7   0.9                          T   001.0       17.2  .36 Ml 3.3         4727826
ORIF  003.86 271.1 m E Pn      2011/07/27 01:14:13.2   0.7                          T   001.0                                4727842
ORIF  003.86 271.1 m E Sn      2011/07/27 01:14:55.2  -0.6                          T               10.1  .59 Ml 2.8         4728069
CABF  004.01 296.0 m E Pn      2011/07/27 01:14:13.5  -1.0                          T   001.0                                4727837
CABF  004.01 296.0 m E Sn      2011/07/27 01:14:58.5  -0.8                          T   001.0        1.5  .26 Ml 2.4         4727838
HINF  004.20 314.3 m E Pn      2011/07/27 01:14:17.4   0.3                          T   001.0                                4727839
HINF  004.20 314.3 m E Sn      2011/07/27 01:15:04.0   0.2                          T                1.9  .21 Ml 2.6         4728073
CDF   004.42 322.5 m E Pn      2011/07/27 01:14:19.8  -0.4                          T   001.0                                4727822
HAU   004.58 313.3 m E Pn      2011/07/27 01:14:21.9  -0.3                          T                                        4728081
VIVF  004.72 271.0 m E Pn      2011/07/27 01:14:23.9  -0.2                          T   001.0                                4727843
VIVF  004.72 271.0 m E Sn      2011/07/27 01:15:15.9  -0.3                          T                1.8  .28 Ml 2.6         4728070
LASF  005.41 263.1 m E Pn      2011/07/27 01:14:32.5  -1.0                          T   001.0                                4727824
SMF   005.49 290.4 m E Pn      2011/07/27 01:14:34.0  -0.5                          T   001.0                                4727836
SMF   005.49 290.4 m E Sn      2011/07/27 01:15:35.3   0.8                          T                7.0  .44 Ml 3.2         4728077
LOR   005.67 296.5 m E Pn      2011/07/27 01:14:36.9  -0.1                          T   001.0                                4727827
LOR   005.67 296.5 m E Sn      2011/07/27 01:15:40.7   1.7                          T                5.6  .43 Ml 3.1         4728076
AVF   005.85 290.9 m E Pn      2011/07/27 01:14:39.0  -0.4                          T   001.0                                4727844
BGF   006.13 288.0 m E Pn      2011/07/27 01:14:43.1  -0.3                          T   001.0                                4727821
BGF   006.13 288.0 m E Sn      2011/07/27 01:15:51.1   1.1                          T                8.9  .50 Ml 3.4         4728071
SSF   005.83 293.8 m E Sn      2011/07/27 01:15:40.6  -2.1                          T                1.3  .28 Ml 2.8         4728074
HYF   006.45 293.9 m E Sn      2011/07/27 01:15:56.1  -1.5                          T                                        4728072
TCF   006.52 284.9 m E Sn      2011/07/27 01:15:59.2   0.0                          T                 .5  .23 Ml 2.6         4728075

.
EVENT     261858
    Date      Time       Latitude Longitude    Depth    Ndef Nsta Gap    Mag1  N    Mag2  N    Mag3  N   Author         ID
       rms   OT_Error      Smajor Sminor Az        Err   mdist  Mdist     Err        Err        Err      Quality

2011/07/27 04:16:05.2     44.5591    7.2008      2.0      16    7 182  Ml 1.5  5  Md 1.6  2              js067245    261858

      0.34   +-  0.13       3.6    1.3   75.57 +-  0.0    0.33   1.32   +-0.3      +-0.1                 m i ke

NORTHERN ITALY
Sta     Dist  EvAz     Phase      Date       Time     TRes  Azim  AzRes  Slow  SRes Def   SNR       Amp   Per   Mag1   Mag2       ID
MBDF  000.35 298.8 m E Pg      2011/07/27 04:16:12.1  -0.1                          T                                        4728108
MBDF  000.35 298.8 m E Sg      2011/07/27 04:16:16.6  -0.2                          T                6.5  .23        Md 1.7  4728104
SBF   000.72 166.3 m E Pg      2011/07/27 04:16:18.9   0.1                          T                                        4728095
SBF   000.72 166.3 m E Sg      2011/07/27 04:16:28.9   0.7                          T                2.6  .21        Md 1.5  4728098
ORIF  001.01 291.3 m E Pg      2011/07/27 04:16:24.0  -0.2                          T                                        4728097
ORIF  001.01 291.3 m E Sg      2011/07/27 04:16:37.8   0.5                          T                 .4  .16 Ml 1.2         4728099
LPL   001.01 341.0 m E Pg      2011/07/27 04:16:24.2  -0.2                          T                                        4728096
LPL   001.01 341.0 m E Sg      2011/07/27 04:16:38.2   0.5                          T                 .8  .23 Ml 1.3         4728100
LPG   000.99 341.4 m E Pg      2011/07/27 04:16:24.3   0.2                          T                                        4728105
LPG   000.99 341.4 m E Sg      2011/07/27 04:16:37.3   0.2                          T                 .9  .21 Ml 1.4         4728101
FRF   001.08 202.0 m E Pg      2011/07/27 04:16:25.6   0.3                          T                                        4728107
FRF   001.08 202.0 m E Sg      2011/07/27 04:16:40.0   0.7                          T                1.4  .17 Ml 1.8         4728103
LMR   001.32 202.4 m E Pg      2011/07/27 04:16:29.7  -0.2                          T                                        4728106
LMR   001.32 202.4 m E Sg      2011/07/27 04:16:47.0   0.0                          T                1.0  .16 Ml 1.8         4728102

.
EVENT     261856
    Date      Time       Latitude Longitude    Depth    Ndef Nsta Gap    Mag1  N    Mag2  N    Mag3  N   Author         ID
       rms   OT_Error      Smajor Sminor Az        Err   mdist  Mdist     Err        Err        Err      Quality

2011/07/27 04:48:56.5     35.8463   -7.4196     25.0     110   11 221  Ml 3.8 10  Md 3.6  2              js067245    261856

      0.50   +-  0.14       2.9    1.6   26.36 +-  0.0    1.45  13.66   +-0.2      +-0.0                 m i ke

STRAIT OF GIBRALTAR
Sta     Dist  EvAz     Phase      Date       Time     TRes  Azim  AzRes  Slow  SRes Def   SNR       Amp   Per   Mag1   Mag2       ID
SJPF  008.69 031.5 m E Pn      2011/07/27 04:50:58.8   0.6                          T                                        4728137
SJPF  008.69 031.5 m E Sn      2011/07/27 04:52:29.6   0.1                          T                7.4  .26 Ml 4.0 Md 3.6  4728130
ETSF  008.82 034.9 m E Pn      2011/07/27 04:51:00.7   0.8                          T                                        4728136
ETSF  008.82 034.9 m E Sn      2011/07/27 04:52:32.7   0.2                          T                6.8  .24 Ml 4.0 Md 3.6  4728131
EPF   009.35 037.5 m E Pn      2011/07/27 04:51:08.0   0.8                          T                                        4728135
EPF   009.35 037.5 m E Sn      2011/07/27 04:52:44.7  -0.5                          T                9.9  .24 Ml 4.2         4728132
MTLF  010.54 041.9 m E Pn      2011/07/27 04:51:23.6   0.3                          T                                        4728128
MTLF  010.54 041.9 m E Sn      2011/07/27 04:53:13.0  -0.7                          T                                        4728121
LFF   011.00 031.9 m E Pn      2011/07/27 04:51:29.3  -0.2                          T                                        4728129
LFF   011.00 031.9 m E Sn      2011/07/27 04:53:23.7  -1.0                          T                2.8  .31 Ml 3.7         4728124
CAF   011.59 035.6 m E Pn      2011/07/27 04:51:37.8   0.2                          T                                        4728134
CAF   011.59 035.6 m E Sn      2011/07/27 04:53:39.3   0.6                          T                 .8  .19 Ml 3.6         4728126
RJF   011.63 032.9 m E Pn      2011/07/27 04:51:38.2   0.1                          T                                        4728133
RJF   011.63 032.9 m E Sn      2011/07/27 04:53:38.4  -1.3                          T                1.6  .21 Ml 3.5         4728125
MFF   012.05 024.7 m E Pn      2011/07/27 04:51:43.8  -0.1                          T                                        4728127
MFF   012.05 024.7 m E Sn      2011/07/27 04:53:49.8   0.1                          T                 .5  .15 Ml 3.7         4728122
QUIF  012.47 013.4 m E Sn      2011/07/27 04:53:59.6  -0.1                          T                1.7  .24 Ml 3.9         4728123
ROSF  012.85 012.5 m E Sn      2011/07/27 04:54:07.9  -0.9                          T                 .8  .19 Ml 3.6         4728118
HYF   013.66 030.2 m E Sn      2011/07/27 04:54:28.3   0.2                          T                                        4728119

.
EVENT     261859
    Date      Time       Latitude Longitude    Depth    Ndef Nsta Gap    Mag1  N    Mag2  N    Mag3  N   Author         ID
       rms   OT_Error      Smajor Sminor Az        Err   mdist  Mdist     Err        Err        Err      Quality

2011/07/27 05:54:05.6     47.0033    6.8303     10.0      41   18 098  Ml 2.3 19  Md 2.2  3              js067245    261859

      0.26   +-  0.04        .8     .6   99.04 +-  0.0    0.25   3.26   +-0.2      +-0.0                 m i ke

FRANCE
Sta     Dist  EvAz     Phase      Date       Time     TRes  Azim  AzRes  Slow  SRes Def   SNR       Amp   Per   Mag1   Mag2       ID
CABF  000.64 232.7 m E Pg      2011/07/27 05:54:18.1   0.1                          T                                        4728167
CABF  000.64 232.7 m E Sg      2011/07/27 05:54:26.9   0.4                          T                                Md 2.1  4728155
CABF  000.64 232.7 m E Sn      2011/07/27 05:54:29.5   0.5                          T                8.8  .21                4728154
HINF  000.81 001.1 m E Pg      2011/07/27 05:54:20.8  -0.2                          T                                        4728166
HINF  000.81 001.1 m E Sg      2011/07/27 05:54:32.0   0.3                          T               15.7  .21        Md 2.2  4728163
HAU   001.05 342.1 m E Pg      2011/07/27 05:54:25.5   0.1                          T                                        4728165
HAU   001.05 342.1 m E Sg      2011/07/27 05:54:39.2   0.0                          T                8.4  .22 Ml 2.2 Md 2.2  4728162
THEF  001.35 335.5 m E Pg      2011/07/27 05:54:30.8   0.0                          T                                        4728164
THEF  001.35 335.5 m E Sg      2011/07/27 05:54:48.4   0.1                          T                2.6  .19 Ml 2.1         4728160
CDF   001.44 011.9 m E P       2011/07/27 05:54:31.9  -0.2                          T                                        4729151
CDF   001.44 011.9 m E Sg      2011/07/27 05:54:51.2  -0.1                          T                6.1  .18 Ml 2.6         4728157
LPL   001.49 182.6 m E Pg      2011/07/27 05:54:33.6   0.0                          T                                        4729142
LPL   001.49 182.6 m E Sg      2011/07/27 05:54:52.9   0.0                          T                2.5  .24 Ml 2.0         4729145
LPG   001.51 182.1 m E Pg      2011/07/27 05:54:34.0  -0.1                          T                                        4729143
LPG   001.51 182.1 m E Sg      2011/07/27 05:54:53.5  -0.1                          T                3.0  .27 Ml 2.1         4729144
SFTF  001.71 315.4 m E Pg      2011/07/27 05:54:37.5   0.1                          T                                        4729150
SFTF  001.71 315.4 m E Sg      2011/07/27 05:54:59.5   0.0                          T                3.9  .27 Ml 2.3         4728156
PAGF  001.72 334.8 m E Pg      2011/07/27 05:54:37.6   0.0                          T                                        4728146
PAGF  001.72 334.8 m E Sg      2011/07/27 05:54:59.9   0.0                          T                1.8  .39 Ml 1.8         4728145
LOR   002.05 278.5 m E Pg      2011/07/27 05:54:43.5  -0.2                          T                                        4729154
LOR   002.05 278.5 m E Sg      2011/07/27 05:55:09.6  -0.4                          T                3.3  .18 Ml 2.5         4728159
SSF   002.27 272.7 m E P       2011/07/27 05:54:43.9   0.0                          T                                        4729153
SSF   002.27 272.7 m E Sg      2011/07/27 05:55:16.9  -0.3                          T                2.8  .26 Ml 2.4         4728158
SMF   002.08 261.2 m E Pg      2011/07/27 05:54:44.7   0.3                          T                                        4728150
SMF   002.08 261.2 m E Sg      2011/07/27 05:55:10.2  -1.0                          T                4.7  .22 Ml 2.6         4728161
ORIF  002.19 198.0 m E Pg      2011/07/27 05:54:46.4   0.0                          T                                        4729141
ORIF  002.19 198.0 m E Sg      2011/07/27 05:55:14.5   0.0                          T                3.1  .31 Ml 2.3         4729146
MBDF  002.28 181.1 m E Pg      2011/07/27 05:54:48.0   0.0                          T                                        4729140
MBDF  002.28 181.1 m E Sg      2011/07/27 05:55:17.6   0.2                          T                1.1  .29 Ml 1.8         4729147
AVF   002.39 266.2 m E Pg      2011/07/27 05:54:50.1   0.0                          T                                        4728151
AVF   002.39 266.2 m E Sg      2011/07/27 05:55:20.4  -0.5                          T                1.0  .19 Ml 2.0         4728153
BGF   002.77 262.2 m E Pg      2011/07/27 05:54:57.0  -0.1                          T                                        4728148
BGF   002.77 262.2 m E Sg      2011/07/27 05:55:32.3  -0.4                          T                4.2  .30 Ml 2.5         4728152
VIVF  002.62 215.8 m E Sg      2011/07/27 05:55:27.5  -0.6                          T                3.1  .24 Ml 2.5         4729148
TCF   003.26 259.0 m E Sg      2011/07/27 05:55:48.2   0.2                          T                1.5  .33 Ml 2.2         4729152

.
EVENT     261873
    Date      Time       Latitude Longitude    Depth    Ndef Nsta Gap    Mag1  N    Mag2  N    Mag3  N   Author         ID
       rms   OT_Error      Smajor Sminor Az        Err   mdist  Mdist     Err        Err        Err      Quality

2011/07/27 08:33:48.9     42.3768    1.0357      4.0 f    37    7 058  Ml 1.9  6  Md 2.0  1              js067245    261873

      0.57   +-  0.10       2.0    1.7  164.72 +-  0.0    0.07   2.95   +-0.1      +-                    m i ke

PYRENEES
Sta     Dist  EvAz     Phase      Date       Time     TRes  Azim  AzRes  Slow  SRes Def   SNR       Amp   Per   Mag1   Mag2       ID
EPF   000.83 322.1 m E Pg      2011/07/27 08:34:04.1  -0.5                          T                                        4728618
EPF   000.83 322.1 m E Sg      2011/07/27 08:34:14.3  -1.1                          T                3.4  .20        Md 2.0  4728621
MTLF  001.30 041.6 m E Pn      2011/07/27 08:34:12.6   0.5                          T                                        4728616
MTLF  001.30 041.6 m E Pg      2011/07/27 08:34:13.4   0.2                          T                                        4728617
MTLF  001.30 041.6 m E Sg      2011/07/27 08:34:30.0   0.1                          T                1.9  .23 Ml 1.9         4728619
ETSF  001.29 294.4 m E Pg      2011/07/27 08:34:13.2   0.2                          T                                        4728609
ETSF  001.29 294.4 m E Sg      2011/07/27 08:34:30.0   0.3                          T                3.6  .35 Ml 2.0         4728620
SJPF  001.82 294.6 m E Pn      2011/07/27 08:34:18.8  -0.5                          T                                        4728615
SJPF  001.82 294.6 m E Sg      2011/07/27 08:34:47.6   1.3                          T                 .8  .23 Ml 1.7         4728607
LASF  002.67 049.6 m E Pn      2011/07/27 08:34:31.3   0.4                          T                                        4728610
LASF  002.67 049.6 m E Sn      2011/07/27 08:35:02.7   1.0                          T                 .6  .22 Ml 1.8         4728608
CAF   002.66 016.0 m E Pg      2011/07/27 08:34:37.5  -0.7                          T                                        4728606
CAF   002.66 016.0 m E Sn      2011/07/27 08:35:02.1   0.7                          T                                        4728611
CAF   002.66 016.0 m E Sg      2011/07/27 08:35:12.7   0.4                          T                1.6  .28 Ml 2.1         4728612
RJF   002.95 006.6 m E Sn      2011/07/27 08:35:10.1   1.7                          T                                        4728614
RJF   002.95 006.6 m E Sg      2011/07/27 08:35:21.5   0.1                          T                1.5  .23 Ml 1.9         4728613

.
