EVENT     272305
    Date      Time       Latitude Longitude    Depth    Ndef Nsta Gap    Mag1  N    Mag2  N    Mag3  N   Author         ID
       rms   OT_Error      Smajor Sminor Az        Err   mdist  Mdist     Err        Err        Err      Quality

2012/03/22 17:57:25.4     44.5091    6.6784      2.0      78   21 038  Ml 2.6 12  Md 2.6  2              js067245    272325

      0.40   +-  0.04        .9     .7   50.36 +-  0.0    0.10   4.25   +-0.3      +-0.2                 m i ke

FRANCE
Sta     Dist  EvAz     Phase      Date       Time     TRes  Azim  AzRes  Slow  SRes Def   SNR       Amp   Per   Mag1   Mag2       ID
MBDF  000.23 016.9 m E Pg      2012/03/22 17:57:30.2   0.1                          T   001.0                                4882070
MBDF  000.23 016.9 m E Sg      2012/03/22 17:57:33.2   0.0                          T               90.2  .28        Md 2.8  4895114
ORIF  000.70 306.0 m E Pg      2012/03/22 17:57:38.6  -0.2                          T   001.0                                4882071
ORIF  000.70 306.0 m E Sg      2012/03/22 17:57:47.8  -0.1                          T   001.0       81.6  .32        Md 2.5  4882072
SBF   000.84 139.6 m E Pg      2012/03/22 17:57:41.3   0.0                          T                                        4895116
SBF   000.84 139.6 m E P       2012/03/22 17:57:43.2   0.0                          T   001.0                                4882064
SBF   000.84 139.6 m E Sg      2012/03/22 17:57:52.3   0.0                          T   001.0       29.7  .28                4882065
FRF   000.95 181.4 m E Pg      2012/03/22 17:57:43.4   0.3                          T   001.0                                4882083
FRF   000.95 181.4 m E P       2012/03/22 17:57:45.1  -0.1                          T   001.0                                4882084
FRF   000.95 181.4 m E Sg      2012/03/22 17:57:55.4  -0.1                          T   001.0       55.5  .20 Ml 3.3         4882085
SMRF  000.96 236.5 m E Pg      2012/03/22 17:57:43.5   0.1                          T   001.0                                4882076
SMRF  000.96 236.5 m E P       2012/03/22 17:57:45.4   0.0                          T   001.0                                4882077
SMRF  000.96 236.5 m E Sn      2012/03/22 17:57:57.9   0.3                          T   001.0       13.8  .28 Ml 2.5         4882078
LPG   000.99 003.0 m E Pg      2012/03/22 17:57:44.0  -0.3                          T   001.0                                4882091
LPG   000.99 003.0 m E P       2012/03/22 17:57:44.9  -1.6                          T   001.0                                4882092
LPG   000.99 003.0 m E Sg      2012/03/22 17:57:56.9  -0.2                          T   001.0       16.3  .27 Ml 2.6         4882093
LPL   001.01 002.2 m E Pg      2012/03/22 17:57:44.2  -0.3                          T   001.0                                4882058
LPL   001.01 002.2 m E Sg      2012/03/22 17:57:57.5  -0.1                          T   001.0       14.2  .29 Ml 2.5         4882060
LMR   001.18 186.0 m E Pg      2012/03/22 17:57:47.4   0.0                          T   001.0                                4882087
LMR   001.18 186.0 m E P       2012/03/22 17:57:48.6  -0.3                          T   001.0                                4882088
LMR   001.18 186.0 m E Sn      2012/03/22 17:58:02.7  -0.2                          T   001.0       42.2  .20 Ml 3.2         4882089
VIVF  001.47 284.3 m E Pn      2012/03/22 17:57:50.9  -0.3                          T   001.0                                4882073
VIVF  001.47 284.3 m E Pg      2012/03/22 17:57:52.5  -0.4                          T                                        4895117
VIVF  001.47 284.3 m E Sn      2012/03/22 17:58:10.0   0.0                          T   001.0                                4882074
VIVF  001.47 284.3 m E Sg      2012/03/22 17:58:12.0   0.1                          T   001.0       13.2  .30 Ml 2.7         4882075
LASF  002.07 258.9 m E Pn      2012/03/22 17:57:59.2  -0.2                          T   001.0                                4882086
LASF  002.07 258.9 m E Pg      2012/03/22 17:58:03.9   0.0                          T                                        4895121
LASF  002.07 258.9 m E Sn      2012/03/22 17:58:24.5   0.2                          T                3.1  .23 Ml 2.3         4895115
CABF  002.14 349.0 m E Pg      2012/03/22 17:58:05.0  -0.3                          T   001.0                                4882068
CABF  002.14 349.0 m E Sg      2012/03/22 17:58:35.6   2.7                          T   001.0        4.7  .40 Ml 2.3         4882069
PGF   002.59 138.5 m E Pn      2012/03/22 17:58:06.9   0.4                          T   001.0                                4882061
PGF   002.59 138.5 m E Sn      2012/03/22 17:58:37.1   0.4                          T   001.0        3.8  .28 Ml 2.7         4882062
CAF   003.32 278.8 m E P       2012/03/22 17:58:19.0  -0.4                          T   001.0                                4882082
SSF   003.38 320.1 m E P       2012/03/22 17:58:19.0  -0.3                          T   001.0                                4882067
BGF   003.38 308.6 m E P       2012/03/22 17:58:20.2  -0.1                          T   001.0                                4882081
MTLF  003.43 251.6 m E P       2012/03/22 17:58:20.7  -0.3                          T                                        4895118
RJF   003.75 284.0 m E Pn      2012/03/22 17:58:22.1  -0.2                          T   001.0                                4882079
LFF   004.25 277.9 m E Pn      2012/03/22 17:58:29.1   0.1                          T                                        4895119
SMF   002.92 318.0 m E Sg      2012/03/22 17:58:57.2   0.1                          T   001.0        3.1  .28 Ml 2.5         4882066
AVF   003.26 315.5 m E Sg      2012/03/22 17:59:07.2  -0.5                          T   001.0        3.9  .52 Ml 2.4         4882080
LOR   003.39 325.5 m E Sg      2012/03/22 17:59:12.8   1.1                          T   001.0        2.7  .28 Ml 2.5         4882090

.
EVENT     272306
    Date      Time       Latitude Longitude    Depth    Ndef Nsta Gap    Mag1  N    Mag2  N    Mag3  N   Author         ID
       rms   OT_Error      Smajor Sminor Az        Err   mdist  Mdist     Err        Err        Err      Quality

2012/03/22 18:20:27.4     44.4849    6.6800      2.0      46    9 047  Ml 1.9  6  Md 2.1  1              js067245    272326

      0.51   +-  0.04        .8     .7   60.45 +-  0.0    0.10   1.48   +-0.1      +-                    m i ke

FRANCE
Sta     Dist  EvAz     Phase      Date       Time     TRes  Azim  AzRes  Slow  SRes Def   SNR       Amp   Per   Mag1   Mag2       ID
MBDF  000.25 015.1 m E Pg      2012/03/22 18:20:32.5  -0.1                          T                                        4895134
MBDF  000.25 015.1 m E Sg      2012/03/22 18:20:35.8  -0.2                          T               15.7  .30        Md 2.1  4895135
ORIF  000.72 307.5 m E Pg      2012/03/22 18:20:41.1   0.0                          T                                        4895133
ORIF  000.72 307.5 m E Sg      2012/03/22 18:20:50.8   0.3                          T                4.0  .26                4895143
SBF   000.83 138.6 m E Pn      2012/03/22 18:20:44.5   0.0                          T                                        4895153
SBF   000.83 138.6 m E Sg      2012/03/22 18:20:53.9   0.1                          T                3.5  .23                4895137
FRF   000.92 181.5 m E Pn      2012/03/22 18:20:45.6  -0.2                          T                                        4895151
FRF   000.92 181.5 m E P       2012/03/22 18:20:46.8  -0.1                          T                                        4895150
FRF   000.92 181.5 m E Sg      2012/03/22 18:20:57.0   0.2                          T                2.5  .20 Ml 1.9         4895139
SMRF  000.94 237.7 m E Pn      2012/03/22 18:20:46.1  -0.1                          T                                        4895148
SMRF  000.94 237.7 m E P       2012/03/22 18:20:47.0  -0.3                          T                                        4895149
SMRF  000.94 237.7 m E Sn      2012/03/22 18:20:59.6   0.2                          T                3.9  .25 Ml 2.0         4895140
LPG   001.01 002.8 m E Pg      2012/03/22 18:20:46.7  -0.1                          T                                        4895147
LPG   001.01 002.8 m E Sg      2012/03/22 18:21:00.1   0.1                          T                2.5  .28 Ml 1.8         4895141
LPL   001.03 002.0 m E Pg      2012/03/22 18:20:47.2   0.1                          T                                        4895146
LPL   001.03 002.0 m E Sg      2012/03/22 18:21:00.2  -0.2                          T                2.1  .28 Ml 1.7         4895142
LMR   001.16 186.2 m E Pg      2012/03/22 18:20:49.2   0.2                          T                                        4895152
LMR   001.16 186.2 m E Sg      2012/03/22 18:21:04.4   0.4                          T                3.2  .25 Ml 2.0         4895138
VIVF  001.48 285.2 m E Pg      2012/03/22 18:20:54.9  -0.2                          T                                        4895145
VIVF  001.48 285.2 m E Sg      2012/03/22 18:21:14.2   0.0                          T                1.1  .23 Ml 1.7         4895144

.
EVENT     272307
    Date      Time       Latitude Longitude    Depth    Ndef Nsta Gap    Mag1  N    Mag2  N    Mag3  N   Author         ID
       rms   OT_Error      Smajor Sminor Az        Err   mdist  Mdist     Err        Err        Err      Quality

2012/03/22 20:26:55.4     44.5106    6.6800      2.0      53   10 038  Ml 2.0  7  Md 2.0  1              js067245    272327

      0.52   +-  0.05       1.1     .9   65.98 +-  0.0    0.10   2.07   +-0.1      +-                    m i ke

FRANCE
Sta     Dist  EvAz     Phase      Date       Time     TRes  Azim  AzRes  Slow  SRes Def   SNR       Amp   Per   Mag1   Mag2       ID
MBDF  000.23 016.8 m E Pg      2012/03/22 20:27:00.1   0.0                          T   001.0                                4882052
MBDF  000.23 016.8 m E Sg      2012/03/22 20:27:03.0  -0.2                          T               40.2  .46        Md 2.0  4895157
ORIF  000.70 305.8 m E Pg      2012/03/22 20:27:08.5  -0.3                          T   001.0                                4882053
ORIF  000.70 305.8 m E Sg      2012/03/22 20:27:17.6  -0.3                          T               12.3  .24                4895164
SBF   000.85 139.7 m E Pg      2012/03/22 20:27:11.4   0.0                          T                                        4895158
SBF   000.85 139.7 m E Sg      2012/03/22 20:27:22.4   0.1                          T   001.0        9.0  .30                4882050
FRF   000.95 181.5 m E Pg      2012/03/22 20:27:13.5   0.3                          T   001.0                                4882039
FRF   000.95 181.5 m E P       2012/03/22 20:27:15.3   0.0                          T   001.0                                4882040
FRF   000.95 181.5 m E Sg      2012/03/22 20:27:25.3  -0.2                          T   001.0        7.0  .28 Ml 2.2         4882041
LPL   001.01 002.1 m E Pg      2012/03/22 20:27:14.1  -0.4                          T                                        4895160
LPL   001.01 002.1 m E Sg      2012/03/22 20:27:27.9   0.3                          T                4.0  .33 Ml 1.9         4895163
LPG   000.99 002.9 m E Pg      2012/03/22 20:27:14.2  -0.1                          T                                        4895159
LPG   000.99 002.9 m E Sg      2012/03/22 20:27:26.7  -0.4                          T   001.0        3.6  .30 Ml 1.9         4882047
SMRF  000.96 236.4 m E P       2012/03/22 20:27:15.1  -0.4                          T   001.0                                4882056
SMRF  000.96 236.4 m E Sn      2012/03/22 20:27:28.0   0.3                          T   001.0        3.9  .36 Ml 1.8         4882057
LMR   001.18 186.0 m E P       2012/03/22 20:27:18.4  -0.5                          T   001.0                                4882044
LMR   001.18 186.0 m E Sn      2012/03/22 20:27:32.6  -0.4                          T   001.0        4.4  .26 Ml 2.1         4882045
VIVF  001.47 284.3 m E Pg      2012/03/22 20:27:22.3  -0.5                          T                                        4895161
VIVF  001.47 284.3 m E Sg      2012/03/22 20:27:42.0   0.1                          T   001.0        2.3  .24 Ml 2.0         4882055
LASF  002.07 258.9 m E Sn      2012/03/22 20:27:55.6   1.3                          T   001.0        6.7 1.00 Ml 2.0         4882043

.
EVENT     272308
    Date      Time       Latitude Longitude    Depth    Ndef Nsta Gap    Mag1  N    Mag2  N    Mag3  N   Author         ID
       rms   OT_Error      Smajor Sminor Az        Err   mdist  Mdist     Err        Err        Err      Quality

2012/03/22 21:03:25.6     44.5034    6.6761      2.0      35    9 047  Ml 1.1  6  Md 1.6  1              js067245    272328

      0.33   +-  0.06       1.3     .9   49.97 +-  0.0    0.10   1.47   +-0.3      +-                    m i ke

FRANCE
Sta     Dist  EvAz     Phase      Date       Time     TRes  Azim  AzRes  Slow  SRes Def   SNR       Amp   Per   Mag1   Mag2       ID
MBDF  000.23 016.9 m E Pg      2012/03/22 21:03:30.5   0.1                          T                                        4895191
MBDF  000.23 016.9 m E Sg      2012/03/22 21:03:33.4  -0.2                          T                2.6  .19        Md 1.6  4895192
ORIF  000.70 306.4 m E Pg      2012/03/22 21:03:38.9  -0.1                          T                                        4895193
ORIF  000.70 306.4 m E Sg      2012/03/22 21:03:48.0  -0.2                          T                1.1  .19                4895179
LPG   001.00 003.0 m E Pg      2012/03/22 21:03:44.2  -0.4                          T                                        4895188
LPG   001.00 003.0 m E Sg      2012/03/22 21:03:57.2  -0.3                          T                 .2  .19 Ml  .8         4895181
LPL   001.01 002.2 m E Pg      2012/03/22 21:03:44.4  -0.4                          T                                        4895189
LPL   001.01 002.2 m E Sg      2012/03/22 21:03:57.7  -0.3                          T                 .5  .23 Ml 1.2         4895180
FRF   000.94 181.3 m E P       2012/03/22 21:03:45.4   0.1                          T                                        4895186
FRF   000.94 181.3 m E Sg      2012/03/22 21:03:55.6   0.1                          T                1.3  .23 Ml 1.6         4895183
SMRF  000.95 236.7 m E P       2012/03/22 21:03:45.6   0.1                          T                                        4895187
SMRF  000.95 236.7 m E Sn      2012/03/22 21:03:58.2   0.5                          T                 .5  .22 Ml 1.2         4895182
SBF   000.84 139.3 m E Sg      2012/03/22 21:03:52.6   0.2                          T                1.2  .22                4895185
VIVF  001.47 284.6 m E Pg      2012/03/22 21:03:52.6  -0.4                          T                                        4895190
VIVF  001.47 284.6 m E Sg      2012/03/22 21:04:12.3   0.2                          T                 .3  .25 Ml 1.2         4895178
LMR   001.18 185.9 m E Sn      2012/03/22 21:04:02.7  -0.2                          T                 .2  .20 Ml  .9         4895184

.
EVENT     272309
    Date      Time       Latitude Longitude    Depth    Ndef Nsta Gap    Mag1  N    Mag2  N    Mag3  N   Author         ID
       rms   OT_Error      Smajor Sminor Az        Err   mdist  Mdist     Err        Err        Err      Quality

2012/03/22 23:29:32.1     44.8688    7.2181     10.0      29    6 130  Ml 1.3  4  Md 1.5  1              js067245    272329

      0.98   +-  0.10       2.1    1.3   82.12 +-  0.0    0.05   1.81   +-0.3      +-                    m i ke

NORTHERN ITALY
Sta     Dist  EvAz     Phase      Date       Time     TRes  Azim  AzRes  Slow  SRes Def   SNR       Amp   Per   Mag1   Mag2       ID
MBDF  000.35 246.1 m E Pg      2012/03/22 23:29:39.6   0.3                          T                                        4895197
MBDF  000.35 246.1 m E Sg      2012/03/22 23:29:43.7  -0.4                          T                5.9  .24        Md 1.5  4895198
LPG   000.71 332.5 m E Pg      2012/03/22 23:29:45.8  -0.2                          T                                        4895194
LPG   000.71 332.5 m E Sg      2012/03/22 23:29:54.8  -0.5                          T                1.1  .22                4895214
LPL   000.73 332.2 m E Pg      2012/03/22 23:29:46.5   0.2                          T                                        4895195
LPL   000.73 332.2 m E Sg      2012/03/22 23:29:55.6  -0.4                          T                2.0  .30                4895215
ORIF  000.95 273.5 m E Pg      2012/03/22 23:29:50.5   0.3                          T                                        4895196
ORIF  000.95 273.5 m E Sg      2012/03/22 23:30:02.3  -0.3                          T                1.4  .24 Ml 1.6         4895216
VIVF  001.81 270.5 m E Pn      2012/03/22 23:30:01.6  -0.1                          T                                        4895218
VIVF  001.81 270.5 m E Sg      2012/03/22 23:30:29.0  -0.3                          T                 .1  .12 Ml  .9         4895217
FRF   001.37 197.6 m E Sg      2012/03/22 23:30:15.5   0.0                          T                 .4  .20 Ml 1.3         4895213

.
