EVENT     258262
    Date      Time       Latitude Longitude    Depth    Ndef Nsta Gap    Mag1  N    Mag2  N    Mag3  N   Author         ID
       rms   OT_Error      Smajor Sminor Az        Err   mdist  Mdist     Err        Err        Err      Quality

2011/04/14 00:03:44.9     43.1130    -.3792      2.0      56   14 078  Ml 2.3 15  Md 2.3  3              js067245    258262

      0.36   +-  0.04        .9     .8  153.13 +-  0.0    0.04   5.12   +-0.2      +-0.1                 m i ke

PYRENEES
Sta     Dist  EvAz     Phase      Date       Time     TRes  Azim  AzRes  Slow  SRes Def   SNR       Amp   Per   Mag1   Mag2       ID
ETSF  000.25 211.7 m E Pg      2011/04/14 00:03:49.4  -0.6                          T                                        4673534
ETSF  000.25 211.7 m E Sg      2011/04/14 00:03:52.7  -0.7                          T               49.3  .22        Md 2.4  4673531
EPF   000.53 098.7 m E Pg      2011/04/14 00:03:54.7  -0.5                          T                                        4673532
EPF   000.53 098.7 m E Sg      2011/04/14 00:04:02.2   0.0                          T                8.4  .16        Md 2.4  4673529
SJPF  000.62 270.3 m E Pg      2011/04/14 00:03:56.5  -0.2                          T                                        4673533
SJPF  000.62 270.3 m E Sg      2011/04/14 00:04:04.9   0.1                          T                8.0  .26        Md 2.3  4673530
MTLF  001.91 082.3 m E Pn      2011/04/14 00:04:16.9   0.1                          T                                        4673514
MTLF  001.91 082.3 m E Pg      2011/04/14 00:04:20.5   0.0                          T                                        4673515
MTLF  001.91 082.3 m E Sg      2011/04/14 00:04:44.4  -0.7                          T                2.2  .28 Ml 2.1         4673528
LFF   002.00 023.5 m E Pn      2011/04/14 00:04:18.1   0.2                          T                                        4673518
LFF   002.00 023.5 m E Pg      2011/04/14 00:04:22.0   0.0                          T                                        4673519
LFF   002.00 023.5 m E Sg      2011/04/14 00:04:47.8   0.0                          T                6.1  .26 Ml 2.4         4673526
CAF   002.53 043.4 m E Pn      2011/04/14 00:04:25.1   0.0                          T                                        4673517
CAF   002.53 043.4 m E Pg      2011/04/14 00:04:31.4  -0.5                          T                                        4673516
CAF   002.53 043.4 m E Sg      2011/04/14 00:05:04.6   0.2                          T                2.4  .22 Ml 2.4         4673527
RJF   002.58 031.2 m E Pn      2011/04/14 00:04:25.9   0.0                          T                                        4673520
RJF   002.58 031.2 m E Pg      2011/04/14 00:04:32.8   0.0                          T                                        4673521
RJF   002.58 031.2 m E Sg      2011/04/14 00:05:06.1   0.1                          T                3.0  .22 Ml 2.1         4673525
LASF  003.22 071.2 m E Pn      2011/04/14 00:04:34.5  -0.1                          T                                        4673513
LASF  003.22 071.2 m E Sg      2011/04/14 00:05:26.2   0.1                          T                  1  .26 Ml 2.0         4673512
MFF   003.49 002.6 m E Pn      2011/04/14 00:04:38.3   0.0                          T                                        4673523
MFF   003.49 002.6 m E Pg      2011/04/14 00:04:49.7   0.1                          T                                        4673522
MFF   003.49 002.6 m E Sg      2011/04/14 00:05:34.4   0.0                          T                1.6  .32 Ml 2.4         4673524
TCF   003.67 029.3 m E Pn      2011/04/14 00:04:41.0   0.3                          T                                        4673638
TCF   003.67 029.3 m E Sg      2011/04/14 00:05:38.9  -1.2                          T                 .9  .29 Ml 2.1         4673633
BGF   004.14 032.6 m E Pn      2011/04/14 00:04:47.2   0.1                          T                                        4673641
BGF   004.14 032.6 m E Sg      2011/04/14 00:05:54.7   0.1                          T                4.0  .39 Ml 2.7         4673636
AVF   004.53 034.5 m E Pn      2011/04/14 00:04:52.6   0.2                          T                                        4673639
AVF   004.53 034.5 m E Sg      2011/04/14 00:06:06.8   0.0                          T                1.3  .49 Ml 2.2         4673634
SMF   004.63 038.9 m E Pn      2011/04/14 00:04:53.8   0.0                          T                                        4673640
SMF   004.63 038.9 m E Sg      2011/04/14 00:06:10.0   0.0                          T                 .7  .27 Ml 2.2         4673635
LOR   005.12 034.3 m E Pn      2011/04/14 00:05:00.5   0.0                          T                                        4673632
LOR   005.12 034.3 m E Sg      2011/04/14 00:06:25.5   0.2                          T                 .7  .27 Ml 2.3         4673631

.
EVENT     258265
    Date      Time       Latitude Longitude    Depth    Ndef Nsta Gap    Mag1  N    Mag2  N    Mag3  N   Author         ID
       rms   OT_Error      Smajor Sminor Az        Err   mdist  Mdist     Err        Err        Err      Quality

2011/04/14 01:25:57.1     42.9801     .1804     15.0       8    4 186  Ml 0.9  2  Md 1.0  3              js067245    258265

      0.30   +-  0.14       9.8    1.7  172.81 +-  0.0    0.10   1.53   +-0.1      +-0.0                 m i ke

PYRENEES
Sta     Dist  EvAz     Phase      Date       Time     TRes  Azim  AzRes  Slow  SRes Def   SNR       Amp   Per   Mag1   Mag2       ID
EPF   000.13 066.7 m E Pg      2011/04/14 01:26:01.0   0.1                          T                                        4673652
EPF   000.13 066.7 m E Sg      2011/04/14 01:26:03.4   0.0                          T                3.6  .18        Md 1.0  4673649
ETSF  000.55 261.7 m E Pg      2011/04/14 01:26:07.8  -0.1                          T                                        4673651
ETSF  000.55 261.7 m E Sg      2011/04/14 01:26:15.0  -0.3                          T                2.8  .20        Md 1.0  4673650
SJPF  001.04 277.8 m E Pg      2011/04/14 01:26:16.8   0.1                          T                                        4673648
SJPF  001.04 277.8 m E Sg      2011/04/14 01:26:31.0   0.7                          T                 .3  .32 Ml  .8 Md 1.0  4673645
MTLF  001.53 075.7 m E Pg      2011/04/14 01:26:25.6  -0.1                          T                                        4673647
MTLF  001.53 075.7 m E Sg      2011/04/14 01:26:45.7   0.1                          T                 .2  .21 Ml 1           4673646

.
EVENT     258274
    Date      Time       Latitude Longitude    Depth    Ndef Nsta Gap    Mag1  N    Mag2  N    Mag3  N   Author         ID
       rms   OT_Error      Smajor Sminor Az        Err   mdist  Mdist     Err        Err        Err      Quality

2011/04/14 10:05:03.7     47.0656     .1032      3.0 f    50   16 091  Ml 2.5 18  Md 2.3  3              js067245    258274

      0.55   +-  0.03        .8     .6   41.55 +-  0.0    0.49   2.61   +-0.2      +-0.3                 m i ke

FRANCE
Sta     Dist  EvAz     Phase      Date       Time     TRes  Azim  AzRes  Slow  SRes Def   SNR       Amp   Per   Mag1   Mag2       ID
MFF   000.49 200.3 m E Pg      2011/04/14 10:05:13.3   0.2                          T                                        4673666
MFF   000.49 200.3 m E Sg      2011/04/14 10:05:19.0  -0.6                          T               16.0  .22        Md 2.6  4673663
GRR   001.47 334.2 m E Pn      2011/04/14 10:05:29.5   0.1                          T                                        4673686
GRR   001.47 334.2 m E Pg      2011/04/14 10:05:31.0  -0.1                          T                                        4673665
GRR   001.47 334.2 m E Sg      2011/04/14 10:05:49.8  -0.3                          T                7.2  .20 Ml 2.4 Md 2.1  4673662
LDF   001.54 354.4 m E Pn      2011/04/14 10:05:30.3   0.1                          T                                        4673685
LDF   001.54 354.4 m E Pg      2011/04/14 10:05:32.4   0.1                          T                                        4673712
LDF   001.54 354.4 m E Sg      2011/04/14 10:05:51.7  -0.4                          T               10.6  .26 Ml 2.6 Md 2.0  4673661
FLN   001.74 347.2 m E Pn      2011/04/14 10:05:33.1   0.0                          T                                        4673684
FLN   001.74 347.2 m E Pg      2011/04/14 10:05:36.1   0.0                          T                                        4673711
FLN   001.74 347.2 m E Sg      2011/04/14 10:05:58.3  -0.2 154.3  -12.5             T               14.4  .29 Ml 2.7         4673710
TCF   001.65 117.4 m E Pg      2011/04/14 10:05:34.3   0.0                          T                                        4673683
TCF   001.65 117.4 m E Sg      2011/04/14 10:05:55.5  -0.1                          T                4.4  .18 Ml 2.5         4673680
BGF   001.95 104.1 m E Pn      2011/04/14 10:05:36.2   0.2                          T                                        4673701
BGF   001.95 104.1 m E Pg      2011/04/14 10:05:39.8  -0.2                          T                                        4673691
BGF   001.95 104.1 m E Sg      2011/04/14 10:06:04.9  -0.1                          T               18.3  .34 Ml 2.9         4673677
RJF   002.02 150.4 m E Pn      2011/04/14 10:05:37.2   0.4                          T                                        4673687
RJF   002.02 150.4 m E Pg      2011/04/14 10:05:41.2   0.1                          T                                        4673664
RJF   002.02 150.4 m E Sg      2011/04/14 10:06:07.0  -0.2                          T                8.0  .24 Ml 2.4         4673660
SGMF  002.16 304.5 m E Pn      2011/04/14 10:05:38.6  -0.1                          T                                        4673704
SGMF  002.16 304.5 m E Sn      2011/04/14 10:06:04.6   0.2                          T                4.0  .39 Ml 2.2         4673705
LFF   002.17 168.0 m E Pn      2011/04/14 10:05:39.0   0.1                          T                                        4673688
LFF   002.17 168.0 m E Pg      2011/04/14 10:05:43.9  -0.1                          T                                        4673708
LFF   002.17 168.0 m E Sg      2011/04/14 10:06:11.8  -0.1                          T                5.9  .27 Ml 2.4         4673709
AVF   002.24 095.9 m E Pn      2011/04/14 10:05:40.0   0.1                          T                                        4673699
AVF   002.24 095.9 m E Pg      2011/04/14 10:05:45.4   0.1                          T                                        4673693
AVF   002.24 095.9 m E Sg      2011/04/14 10:06:14.1  -0.1                          T                2.3  .20 Ml 2.3         4673679
SSF   002.33 088.9 m E Pn      2011/04/14 10:05:41.1   0.1                          T                                        4673697
SSF   002.33 088.9 m E Pg      2011/04/14 10:05:46.9   0.0                          T                                        4673694
SSF   002.33 088.9 m E Sg      2011/04/14 10:06:16.7  -0.1                          T                5.5  .34 Ml 2.6         4673681
QUIF  002.37 292.2 m E Pn      2011/04/14 10:05:41.5  -0.1                          T                                        4673703
QUIF  002.37 292.2 m E Sn      2011/04/14 10:06:09.6   0.0                          T                2.3  .22 Ml 2.3         4673675
CAF   002.54 146.7 m E Pn      2011/04/14 10:05:44.1   0.2                          T                                        4673689
CAF   002.54 146.7 m E Pg      2011/04/14 10:05:50.8   0.0                          T                                        4673707
CAF   002.54 146.7 m E Sg      2011/04/14 10:06:23.5   0.0                          T                5.1  .26 Ml 2.6         4673706
LOR   002.57 084.1 m E Pn      2011/04/14 10:05:44.3  -0.1                          T                                        4673696
LOR   002.57 084.1 m E Pg      2011/04/14 10:05:51.7   0.3 261.4  -5.4              T                                        4673695
LOR   002.57 084.1 m E Sg      2011/04/14 10:06:24.4  -0.1                          T                2.7  .24 Ml 2.4         4673682
SMF   002.60 097.9 m E Pn      2011/04/14 10:05:44.5  -0.3                          T                                        4673698
SMF   002.60 097.9 m E Pg      2011/04/14 10:05:51.7  -0.1                          T                                        4673692
SMF   002.60 097.9 m E Sg      2011/04/14 10:06:25.3   0.0                          T                2.3  .18 Ml 2.5         4673678
ROSF  002.61 300.4 m E Pn      2011/04/14 10:05:44.9   0.0                          T                                        4673702
ROSF  002.61 300.4 m E Sn      2011/04/14 10:06:15.3   0.1                          T                1.8  .28 Ml 2.1         4673674

.
EVENT     258275
    Date      Time       Latitude Longitude    Depth    Ndef Nsta Gap    Mag1  N    Mag2  N    Mag3  N   Author         ID
       rms   OT_Error      Smajor Sminor Az        Err   mdist  Mdist     Err        Err        Err      Quality

2011/04/14 10:43:53.6     48.1363   -1.0509       .0 f    18    7 108  Ml 2.0  6  Md 2.1  3              js067245    258275

      0.87   +-  0.10       2.2    1.7  162.59 +-  0.0    0.28   1.65   +-0.2      +-0.0                 m i km

FRANCE
Sta     Dist  EvAz     Phase      Date       Time     TRes  Azim  AzRes  Slow  SRes Def   SNR       Amp   Per   Mag1   Mag2       ID
GRR   000.28 027.0 m E Pg      2011/04/14 10:43:59.3   0.0                          T                                        4673730
GRR   000.28 027.0 m E Sg      2011/04/14 10:44:03.2  -0.2                          T               15.3  .38        Md 2.1  4673727
FLN   000.73 030.9 m E Pg      2011/04/14 10:44:07.7   0.1 220.7  9.3               T                                        4673728
FLN   000.73 030.9 m E Sg      2011/04/14 10:44:17.3  -0.1                          T                2.7  .34        Md 2.1  4673720
LDF   000.77 053.2 m E Pg      2011/04/14 10:44:08.4   0.1                          T                                        4673729
LDF   000.77 053.2 m E Sg      2011/04/14 10:44:18.5   0.0                          T                3.8  .26        Md 2.1  4673719
SGMF  001.01 277.2 m E Pg      2011/04/14 10:44:12.2  -0.7                          T                                        4673726
SGMF  001.01 277.2 m E Sg      2011/04/14 10:44:26.1   0.0                          T                8.7  .32 Ml 2.3         4673722
QUIF  001.44 262.0 m E Pg      2011/04/14 10:44:20.7   0.2                          T                                        4673724
QUIF  001.44 262.0 m E Sg      2011/04/14 10:44:39.4   0.1                          T                3.9  .32 Ml 2.1         4673721
ROSF  001.50 278.5 m E Pg      2011/04/14 10:44:22.0   0.3                          T                                        4673725
ROSF  001.50 278.5 m E Sg      2011/04/14 10:44:41.5   0.2                          T                1.6  .36 Ml 1.7         4673723
MFF   001.65 157.8 m E Pn      2011/04/14 10:44:22.3   0.0                          T                                        4673717
MFF   001.65 157.8 m E Sg      2011/04/14 10:44:45.9  -0.3                          T                2.7  .29 Ml 2.2         4673718

.
EVENT     258293
    Date      Time       Latitude Longitude    Depth    Ndef Nsta Gap    Mag1  N    Mag2  N    Mag3  N   Author         ID
       rms   OT_Error      Smajor Sminor Az        Err   mdist  Mdist     Err        Err        Err      Quality

2011/04/14 13:33:45.3     47.7779    8.8768       .0 f    27   10 096  Ml 2.2 11  Md 2.4  3              js067245    258293

      0.19   +-  0.06       1.2     .8   36.30 +-  0.0    0.11   3.72   +-0.2      +-0.3                 m i km

SWITZERLAND
Sta     Dist  EvAz     Phase      Date       Time     TRes  Azim  AzRes  Slow  SRes Def   SNR       Amp   Per   Mag1   Mag2       ID
CDF   001.25 301.2 m E Pg      2011/04/14 13:34:09.2   0.2                          T                                        4673861
CDF   001.25 301.2 m E Sg      2011/04/14 13:34:25.3  -0.1                          T                9.8  .31 Ml 2.5 Md 2.3  4673860
LANF  001.40 329.7 m E Pg      2011/04/14 13:34:10.9  -0.9                          T                                        4673856
LANF  001.40 329.7 m E Sg      2011/04/14 13:34:30.0   0.0                          T                5.4  .21 Ml 2.4 Md 2.8  4673850
HINF  001.36 272.4 m E Pg      2011/04/14 13:34:11.1   0.0                          T                                        4673858
HINF  001.36 272.4 m E Sg      2011/04/14 13:34:28.9   0.0                          T                3.7  .32 Ml 2.0 Md 2.2  4673859
HAU   001.72 278.6 m E Pg      2011/04/14 13:34:17.6   0.0                          T                                        4673857
HAU   001.72 278.6 m E Sg      2011/04/14 13:34:39.8  -0.1                          T                3.4  .28 Ml 2.0         4673852
THEF  001.99 284.2 m E Pg      2011/04/14 13:34:22.6   0.0                          T                                        4673855
THEF  001.99 284.2 m E Sg      2011/04/14 13:34:48.4   0.0                          T                4.8  .30 Ml 2.4         4673851
CABF  002.23 239.5 m E Pg      2011/04/14 13:34:27.2   0.0                          T                                        4673854
CABF  002.23 239.5 m E Sg      2011/04/14 13:34:56.1   0.0                          T                1.1  .30 Ml 1.8         4673853
LPL   002.70 213.9 m E Pn      2011/04/14 13:34:28.5  -0.1                          T                                        4673845
LPL   002.70 213.9 m E Sn      2011/04/14 13:34:59.9  -0.3                          T                2.5  .40 Ml 2.2         4673843
LPG   002.71 213.5 m E Pn      2011/04/14 13:34:28.8   0.0                          T                                        4673844
LPG   002.71 213.5 m E Sn      2011/04/14 13:35:00.1  -0.4                          T                1.2  .25 Ml 2.0         4673842
LOR   003.44 263.3 m E Pn      2011/04/14 13:34:38.3  -0.1                          T                                        4673847
LOR   003.44 263.3 m E Sn      2011/04/14 13:35:17.3  -0.3                          T                1.9  .45 Ml 2.2         4673849
SSF   003.72 260.9 m E Pn      2011/04/14 13:34:42.1  -0.1                          T                                        4673846
SSF   003.72 260.9 m E Sn      2011/04/14 13:35:23.9  -0.3                          T                 .9  .34 Ml 2.1         4673848

.
