EVENT     259211
    Date      Time       Latitude Longitude    Depth    Ndef Nsta Gap    Mag1  N    Mag2  N    Mag3  N   Author         ID
       rms   OT_Error      Smajor Sminor Az        Err   mdist  Mdist     Err        Err        Err      Quality

2011/05/11 16:47:24.9     37.6154   -1.5968     10.0 f   274   42 029  Ml 5.5 48  Md 5.3  3  ms 4.8 6    bulletin    259211
                                                                                                         _ldg
      2.06   +-  0.11       4.0    2.6  138.63 +-  0.0    0.36  88.37   +-0.4      +-0.2      +-         m i ke

SPAIN
Sta     Dist  EvAz     Phase      Date       Time     TRes  Azim  AzRes  Slow  SRes Def   SNR       Amp   Per   Mag1   Mag2       ID
ETSF  005.34 008.2 m E Pn      2011/05/11 16:48:45.2   2.6                          T                                        4688532
ETSF  005.34 008.2 m E Pg      2011/05/11 16:49:07.8   4.1                          T                                        4689517
ETSF  005.34 008.2 m E Sg      2011/05/11 16:50:12.0  -0.1                          T            14130.1 1.70 Ml 5.9         4689086
SJPF  005.50 002.8 m E Pn      2011/05/11 16:48:47.4   2.7                          T                                        4688530
SJPF  005.50 002.8 m E Pg      2011/05/11 16:49:09.7   3.1                          T                                        4689518
SJPF  005.50 002.8 m E Sg      2011/05/11 16:50:18.1   1.0                          T             5566.7 1.13 Ml 5.7 Md 5.4  4689105
EPF   005.61 014.7 m E Pn      2011/05/11 16:48:48.9   2.7                          T                                Md 5.1  4688531
EPF   005.61 014.7 m E Pg      2011/05/11 16:49:15.8   7.1                          T                                        4701058
EPF   005.61 014.7 m E Sg      2011/05/11 16:50:20.9   0.4                          T             4276.7 1.12 Ml 5.6         4689085
MTLF  006.42 025.7 m E Pn      2011/05/11 16:48:59.8   2.6                          T                                        4688529
MTLF  006.42 025.7 m E Sg      2011/05/11 16:50:45.1  -0.6                          T             3809.4 1.65 Ml 5.5         4689549
LFF   007.53 012.8 m E Pn      2011/05/11 16:49:15.0   2.7                          T                                        4688524
LFF   007.53 012.8 m E Sg      2011/05/11 16:51:15.0  -5.3                          T             2291.2 1.21 Ml 5.4         4689551
LASF  007.66 030.9 m E Pn      2011/05/11 16:49:16.9   2.7                          T                                        4688528
LASF  007.66 030.9 m E Sg      2011/05/11 16:51:15.4  -9.2                          T              704.2 1.13 Ml 5.2         4689548
CAF   007.81 019.5 m E Pn      2011/05/11 16:49:18.8   2.7                          T                                        4688525
CAF   007.81 019.5 m E Sg      2011/05/11 16:51:24.9  -4.2                          T             1623.7 1.37 Ml 5.5         4689550
RJF   008.03 015.9 m E Pn      2011/05/11 16:49:21.6   2.5                          T                                        4688515
RJF   008.03 015.9 m E Sg      2011/05/11 16:51:36.7   0.6                          T             2128.4 1.45 Ml 5.3         4689552
LMR   008.41 044.7 m E P       2011/05/11 16:49:28.1  -1.8                          T                                        4701061
LMR   008.41 044.7 m E Sn      2011/05/11 16:50:56.7   2.9                          T               54.7  .51 Ml 4.5         4688540
SMRF  008.36 038.3 m E P       2011/05/11 16:49:29.8   0.6                          T                                        4701063
SMRF  008.36 038.3 m E Sg      2011/05/11 16:51:47.1   0.6                          T             1574.7 1.78 Ml 5.4         4689542
VIVF  008.64 031.1 m E Pn      2011/05/11 16:49:30.4   2.9                          T                                        4688527
VIVF  008.64 031.1 m E Sg      2011/05/11 16:51:51.1  -3.9                          T             1726.0 1.66 Ml 5.5         4689547
FRF   008.63 044.0 m E P       2011/05/11 16:49:32.3  -0.7                          T                                        4701062
FRF   008.63 044.0 m E Sn      2011/05/11 16:51:01.6   2.4                          T               29.1  .37 Ml 4.5         4689540
FRF   008.63 044.0 m E Sg      2011/05/11 16:52:00.8   5.9                          T              329.1 1.36 Ml 4.9         4689541
TCF   009.12 016.9 m E Pn      2011/05/11 16:49:34.9   1.0                          T                                        4688494
TCF   009.12 016.9 m E Sn      2011/05/11 16:51:10.1  -0.6                          T                                        4689092
TCF   009.12 016.9 m E Sg      2011/05/11 16:52:08.9  -1.1                          T             3176.5 1.84 Ml 5.9 Md 5.5  4689095
MFF   009.04 006.4 m E Pn      2011/05/11 16:49:35.3   2.3                          T                                        4688514
MFF   009.04 006.4 m E Sg      2011/05/11 16:52:08.6   0.9                          T             2013.0 1.74 Ml 5.8         4689553
BGF   009.52 018.8 m E Pn      2011/05/11 16:49:40.4   0.9                          T                                        4688506
BGF   009.52 018.8 m E Sg      2011/05/11 16:52:20.7  -2.0                          T             1001.5 1.13 Ml 5.6         4689557
SBF   009.27 044.8 m E P       2011/05/11 16:49:40.4  -1.4                          T                                        4701060
SBF   009.27 044.8 m E Sn      2011/05/11 16:51:16.9   2.5                          T               86.6  .64 Ml 4.7         4689539
ORIF  009.21 035.3 m E P       2011/05/11 16:49:42.0   0.9                          T                                        4701067
ORIF  009.21 035.3 m E Sg      2011/05/11 16:52:11.8  -1.3                          T             1255.6 1.86 Ml 5.4         4689545
MBDF  009.50 039.0 m E P       2011/05/11 16:49:42.4  -2.7                          T                                        4701066
MBDF  009.50 039.0 m E Sg      2011/05/11 16:52:16.9  -5.1                          T              651.9 1.68 Ml 5.2         4689546
PGF   009.50 055.5 m E P       2011/05/11 16:49:43.8  -1.2                          T                                        4701059
PGF   009.50 055.5 m E Sn      2011/05/11 16:51:23.1   3.3                          T               40.0  .47 Ml 4.8         4689538
AVF   000.00 000.0 m E Sg                                                                         2405.7 1.77 Ml 5.8         4701036
AVF   009.87 020.2 m E Pn      2011/05/11 16:49:45.3   1.1                          T                                        4688503
AVF   009.87 020.2 m E Sn      2011/05/11 16:51:28.0  -0.8                          T             2430.0 1.78 Ml 5.8         4688490
SMF   009.88 022.4 m E Pn      2011/05/11 16:49:46.3   1.9                          T                                        4688504
SMF   009.88 022.4 m E Sg      2011/05/11 16:52:33.2  -0.7                          T             2298.3 1.76 Ml 5.8         4689089
SSF   010.16 020.2 m E Pn      2011/05/11 16:49:48.6   0.4                          T                                        4688493
SSF   010.16 020.2 m E Sg      2011/05/11 16:52:41.8  -0.9                          T             1073.0 1.65 Ml 5.7         4689094
HYF   010.14 016.6 m E Pn      2011/05/11 16:49:49.2   1.3                          T                                        4688505
HYF   010.14 016.6 m E Sn      2011/05/11 16:51:33.9  -1.2                          T                                        4701037
HYF   010.14 016.6 m E Sg      2011/05/11 16:52:40.8  -1.1                          T                                        4689558
LPL   010.06 035.7 m E P       2011/05/11 16:49:51.9  -1.0                          T                                        4701065
LPL   010.06 035.7 m E Sg      2011/05/11 16:52:37.7  -1.9                          T              897.4 1.94 Ml 5.4         4689544
QUIF  010.36 354.1 m E Pn      2011/05/11 16:49:51.9   1.1                          T                                        4688510
QUIF  010.36 354.1 m E Sn      2011/05/11 16:51:38.4  -1.9                          T              141.0  .38 Ml 5.4         4688489
LPG   010.05 035.8 m E P       2011/05/11 16:49:52.5  -0.5                          T                                        4701064
LPG   010.05 035.8 m E Sg      2011/05/11 16:52:35.3  -4.3                          T              455.0 1.62 Ml 5.2         4689543
LOR   010.45 020.9 m E Pn      2011/05/11 16:49:53.6   1.4 215.0  10.4              T                                        4688492
LOR   010.45 020.9 m E Sn      2011/05/11 16:51:43.8   1.2                          T                                        4689090
LOR   010.45 020.9 m E Sg      2011/05/11 16:52:51.9   0.3                          T             1514.4 1.65 Ml 5.8         4689093
SGMF  010.66 356.5 m E Pn      2011/05/11 16:49:56.3   1.4                          T                                        4688509
SGMF  010.66 356.5 m E Sn      2011/05/11 16:51:45.9  -1.5                          T               68.3  .56 Ml 4.9         4689104
CABF  010.64 029.9 m E Pn      2011/05/11 16:49:56.6   1.8                          T                                        4688502
CABF  010.64 029.9 m E Sg      2011/05/11 16:53:03.4   5.7                          T             1971.7 1.66 Ml 5.9         4689103
ROSF  010.79 354.0 m E Pn      2011/05/11 16:49:58.2   1.5                          T                                        4688508
ROSF  010.79 354.0 m E Sn      2011/05/11 16:51:48.6  -1.9                          T              128.3  .56 Ml 5.2         4688488
GRR   010.78 002.6 m E Pn      2011/05/11 16:49:58.4   1.8                          T                                        4688513
GRR   010.78 002.6 m E Sn      2011/05/11 16:51:50.8   0.3                          T                                        4701057
GRR   010.78 002.6 m E Sg      2011/05/11 16:53:06.6   4.7                          T              952.4 1.45 Ml 5.5         4689554
LDF   011.03 005.1 m E Pn      2011/05/11 16:50:02.4   2.4                          T                                        4688512
LDF   011.03 005.1 m E Sn      2011/05/11 16:51:58.4   2.1                          T                                        4701056
LDF   011.03 005.1 m E Sg      2011/05/11 16:53:14.5   5.0                          T              929.4 1.61 Ml 5.6         4689555
FLN   011.17 003.8 m E Pn      2011/05/11 16:50:02.6   0.7 188.0  3.4               T                                        4688511
FLN   011.17 003.8 m E Sn      2011/05/11 16:51:59.4  -0.4                          T                                        4701055
FLN   011.17 003.8 m E Sg      2011/05/11 16:53:18.5   4.4                          T             1054.0 1.61 Ml 5.6         4689556
SFTF  011.64 022.5 m E Pn      2011/05/11 16:50:08.5   0.2                          T                                        4688496
SFTF  011.64 022.5 m E P       2011/05/11 16:50:15.1   0.8                          T                                        4701040
SFTF  011.64 022.5 m E Sg      2011/05/11 16:53:34.3   5.5                          T              996.8 1.40 Ml 5.8         4689559
MEZF  011.91 021.9 m E Pn      2011/05/11 16:50:11.8  -0.1                          T                                        4688497
MEZF  011.91 021.9 m E P       2011/05/11 16:50:18.1   0.2 197.0  -9.5              T                                        4701041
MEZF  011.91 021.9 m E Sg      2011/05/11 16:53:43.9   6.7                          T             4207.0 1.94 Ml 6.3         4689100
HAU   011.90 026.7 m E Pn      2011/05/11 16:50:12.4   0.4                          T                                        4688495
HAU   011.90 026.7 m E P       2011/05/11 16:50:17.9   0.0                          T                                        4701039
HAU   011.90 026.7 m E Sg      2011/05/11 16:53:42.3   5.3                          T              427.1 1.45 Ml 5.2         4689101
HINF  011.93 028.6 m E Pn      2011/05/11 16:50:12.8   0.5                          T                                        4688491
HINF  011.93 028.6 m E P       2011/05/11 16:50:18.2   0.0                          T                                        4701038
HINF  011.93 028.6 m E Sg      2011/05/11 16:53:44.1   6.2                          T             2555.9 2.06 Ml 6.1         4689102
PAGF  012.17 023.7 m E Pn      2011/05/11 16:50:15.9   0.5                          T                                        4688498
PAGF  012.17 023.7 m E P       2011/05/11 16:50:22.4   1.1 212.0  3.3               T                                        4701042
PAGF  012.17 023.7 m E Sg      2011/05/11 16:53:51.7   6.6                          T             1243.6 2.19 Ml 5.8         4689099
CDF   012.58 028.1 m E Pn      2011/05/11 16:50:22.0   0.7                          T                                        4688499
CDF   012.58 028.1 m E Sg      2011/05/11 16:54:03.9   5.6                          T             1113.3 1.92 Ml 5.9         4689098
BAIF  013.12 016.7 m E Pn      2011/05/11 16:50:29.5   1.0                          T                                        4688501
BAIF  013.12 016.7 m E Sg      2011/05/11 16:54:21.3   6.4                          T             1292.0 1.80 Ml 5.9         4689097
GIVF  013.31 018.2 m E Pn      2011/05/11 16:50:32.7   1.8                          T                                        4688500
GIVF  013.31 018.2 m E Sn      2011/05/11 16:52:49.7  -1.1                          T                                        4689091
GIVF  013.31 018.2 m E Sg      2011/05/11 16:54:25.3   4.5                          T             1055.2 1.70 Ml 5.8         4689096
LIC   000.00 000.0 m E R                                                                          3573.620.75                4689073
LIC   031.40 186.6 m E P       2011/05/11 16:53:48.4   0.1  14.3  9.0               T               25.2  .92                4689074

.
EVENT     259198
    Date      Time       Latitude Longitude    Depth    Ndef Nsta Gap    Mag1  N    Mag2  N    Mag3  N   Author         ID
       rms   OT_Error      Smajor Sminor Az        Err   mdist  Mdist     Err        Err        Err      Quality

2011/05/11 17:12:34.7     42.9376    -.8184      1.7       6    3 199  Ml 1.6  1  Md 1.7  3              js067245    259198

      0.04   +-  0.11       4.1     .5   15.83 +-  2.6    0.19   0.86   +-         +-0.1                 m i ke

PYRENEES
Sta     Dist  EvAz     Phase      Date       Time     TRes  Azim  AzRes  Slow  SRes Def   SNR       Amp   Per   Mag1   Mag2       ID
ETSF  000.19 101.5 m E Pg      2011/05/11 17:12:38.7   0.0                          T                                        4689660
ETSF  000.19 101.5 m E Sg      2011/05/11 17:12:41.3  -0.1                          T               11.4  .24        Md 1.7  4689657
SJPF  000.35 300.6 m E Pg      2011/05/11 17:12:41.3   0.0                          T                                        4689659
SJPF  000.35 300.6 m E Sg      2011/05/11 17:12:46.1   0.1                          T                3.0  .20        Md 1.7  4689658
EPF   000.86 083.4 m E Pg      2011/05/11 17:12:50.8   0.0                          T                                        4689655
EPF   000.86 083.4 m E Sg      2011/05/11 17:13:01.9   0.0                          T                2.0  .31 Ml 1.6 Md 1.6  4689656

.
EVENT     259199
    Date      Time       Latitude Longitude    Depth    Ndef Nsta Gap    Mag1  N    Mag2  N    Mag3  N   Author         ID
       rms   OT_Error      Smajor Sminor Az        Err   mdist  Mdist     Err        Err        Err      Quality

2011/05/11 19:28:19.3     37.6953   -1.6586      2.0      56    4 080  Ml 2.9  3                         js067245    259199

      0.88   +-  0.14       3.3    1.9  149.17 +-  0.0    0.36   7.75   +-0.2                            m i ke

SPAIN
Sta     Dist  EvAz     Phase      Date       Time     TRes  Azim  AzRes  Slow  SRes Def   SNR       Amp   Per   Mag1   Mag2       ID
ETSF  005.26 008.8 m E Pn      2011/05/11 19:29:37.6   0.8                          T                                        4689666
ETSF  005.26 008.8 m E Sg      2011/05/11 19:31:04.4   0.2                          T                2.2  .44 Ml 2.6         4689661
SJPF  005.42 003.4 m E Pn      2011/05/11 19:29:39.9   1.0                          T                                        4689667
SJPF  005.42 003.4 m E Sg      2011/05/11 19:31:09.6   0.6                          T               10.7  .77 Ml 3.1         4689663
EPF   005.54 015.4 m E Pn      2011/05/11 19:29:41.3   0.7                          T                                        4689665
EPF   005.54 015.4 m E Sg      2011/05/11 19:31:12.5  -0.4                          T                2.8  .33 Ml 2.9         4689662
CAF   007.75 020.0 m E Pn      2011/05/11 19:30:11.4   0.8                          T                                        4689664

.
