EVENT     278577
    Date      Time       Latitude Longitude    Depth    Ndef Nsta Gap    Mag1  N    Mag2  N    Mag3  N   Author         ID
       rms   OT_Error      Smajor Sminor Az        Err   mdist  Mdist     Err        Err        Err      Quality

2012/06/22 22:51:46.6     44.9815    6.7318      2.0      30   10 066  Ml 1.7  6  Md 1.9  4              bulletin    278677
                                                                                                         _ldg
      0.29   +-  0.05       1.2     .9   81.94 +-  0.0    0.07   2.94   +-0.3      +-0.0                 m i ke

FRANCE
Sta     Dist  EvAz     Phase      Date       Time     TRes  Azim  AzRes  Slow  SRes Def   SNR       Amp   Per   Mag1   Mag2       ID
MBDF  000.26 173.7 m E Pg      2012/06/22 22:51:51.8  -0.1                          T                                        5009373
MBDF  000.26 173.7 m E Sg      2012/06/22 22:51:55.4   0.1                          T               12.9  .20        Md 1.9  5009372
LPG   000.52 001.5 m E Pg      2012/06/22 22:51:56.9   0.1                          T                                        5009368
LPG   000.52 001.5 m E Sg      2012/06/22 22:52:03.1  -0.5                          T                4.3  .18        Md 2.0  5009367
LPL   000.53 000.0 m E Pg      2012/06/22 22:51:57.2   0.2                          T                                        5009369
LPL   000.53 000.0 m E Sg      2012/06/22 22:52:04.3   0.2                          T                2.5  .25        Md 1.9  5009386
ORIF  000.61 264.3 m E Pg      2012/06/22 22:51:58.1  -0.1                          T                                        5009371
ORIF  000.61 264.3 m E Sg      2012/06/22 22:52:05.5  -0.7                          T                9.1  .30        Md 1.9  5009370
SBF   001.23 155.5 m E Pg      2012/06/22 22:52:10.0   0.4                          T                                        5009377
SBF   001.23 155.5 m E Sg      2012/06/22 22:52:25.7   0.3                          T                3.3  .35 Ml 1.9         5009376
SMRF  001.30 219.9 m E Pn      2012/06/22 22:52:10.1   0.0                          T                                        5009383
SMRF  001.30 219.9 m E Sn      2012/06/22 22:52:27.2   0.1                          T                 .5  .23 Ml 1.3         5009382
FRF   001.42 182.5 m E Pn      2012/06/22 22:52:11.7   0.0                          T                                        5009381
FRF   001.42 182.5 m E Sn      2012/06/22 22:52:29.9   0.0                          T                1.0  .18 Ml 1.8         5009380
VIVF  001.47 265.8 m E Pn      2012/06/22 22:52:12.4   0.0                          T                                        5009385
VIVF  001.47 265.8 m E Sn      2012/06/22 22:52:30.9  -0.2                          T                1.2  .31 Ml 1.6         5009384
LMR   001.66 185.6 m E Pg      2012/06/22 22:52:17.3  -0.1                          T                                        5009379
LMR   001.66 185.6 m E Sg      2012/06/22 22:52:38.7  -0.1                          T                 .7  .20 Ml 1.7         5009378
PGF   002.94 145.2 m E Pn      2012/06/22 22:52:32.5   0.1                          T                                        5009375
PGF   002.94 145.2 m E Sn      2012/06/22 22:53:06.8   0.6                          T                 .8  .24 Ml 2.2         5009374

.
EVENT     278578
    Date      Time       Latitude Longitude    Depth    Ndef Nsta Gap    Mag1  N    Mag2  N    Mag3  N   Author         ID
       rms   OT_Error      Smajor Sminor Az        Err   mdist  Mdist     Err        Err        Err      Quality

2012/06/22 22:57:54.9     44.9854    6.7489      2.0      44   11 057  Ml 2.0  7  Md 2.0  4              bulletin    278678
                                                                                                         _ldg
      0.39   +-  0.06       1.4    1.1   81.57 +-  0.0    0.07   2.93   +-0.2      +-0.2                 m i ke

FRANCE
Sta     Dist  EvAz     Phase      Date       Time     TRes  Azim  AzRes  Slow  SRes Def   SNR       Amp   Per   Mag1   Mag2       ID
MBDF  000.26 176.4 m E Pg      2012/06/22 22:58:00.0  -0.2                          T                                        5009409
MBDF  000.26 176.4 m E Sg      2012/06/22 22:58:03.9   0.2                          T               40.4  .21        Md 1.8  5009408
LPG   000.51 000.2 m E Pg      2012/06/22 22:58:04.9  -0.1                          T                                        5009401
LPG   000.51 000.2 m E Sg      2012/06/22 22:58:11.7   0.0                          T                9.7  .22        Md 2.2  5009400
LPL   000.53 358.8 m E Pg      2012/06/22 22:58:05.4   0.2                          T                                        5009403
LPL   000.53 358.8 m E Sg      2012/06/22 22:58:12.9   0.6                          T                6.1  .23        Md 2.0  5009402
ORIF  000.62 264.1 m E Pg      2012/06/22 22:58:06.2  -0.5                          T                                        5009405
ORIF  000.62 264.1 m E Sg      2012/06/22 22:58:13.7  -1.2                          T               18.1  .25        Md 2.0  5009404
SBF   001.23 156.1 m E Pg      2012/06/22 22:58:18.1   0.3                          T                                        5009415
SBF   001.23 156.1 m E Sg      2012/06/22 22:58:34.2   0.5                          T                1.5  .17 Ml 1.9         5009414
SMRF  001.31 220.2 m E Pg      2012/06/22 22:58:19.8   0.4                          T                                        5009399
SMRF  001.31 220.2 m E Sg      2012/06/22 22:58:36.9   0.4                          T                1.7  .24 Ml 1.8         5009420
VIVF  001.48 265.7 m E Pn      2012/06/22 22:58:21.1   0.2                          T                                        5009407
VIVF  001.48 265.7 m E Sn      2012/06/22 22:58:39.7   0.0                          T                4.1  .37 Ml 2.1         5009406
FRF   001.43 183.0 m E Pg      2012/06/22 22:58:21.7   0.2                          T                                        5009419
FRF   001.43 183.0 m E Sg      2012/06/22 22:58:40.4   0.5                          T                2.8  .22 Ml 2.2         5009418
LMR   001.66 186.0 m E Pg      2012/06/22 22:58:25.6  -0.2                          T                                        5009417
LMR   001.66 186.0 m E Sg      2012/06/22 22:58:47.4   0.2                          T                2.3  .22 Ml 2.1         5009416
LASF  002.26 247.3 m E Pn      2012/06/22 22:58:31.9   0.5                          T                                        5009411
LASF  002.26 247.3 m E Sn      2012/06/22 22:58:58.8   0.6                          T                 .5  .18 Ml 1.7         5009410
PGF   002.93 145.4 m E Pn      2012/06/22 22:58:41.5   0.8                          T                                        5009413
PGF   002.93 145.4 m E Sn      2012/06/22 22:59:14.9   0.5                          T                 .8  .29 Ml 2.1         5009412

.
EVENT     278579
    Date      Time       Latitude Longitude    Depth    Ndef Nsta Gap    Mag1  N    Mag2  N    Mag3  N   Author         ID
       rms   OT_Error      Smajor Sminor Az        Err   mdist  Mdist     Err        Err        Err      Quality

2012/06/22 22:58:47.6     44.9779    6.7109      2.0      26    9 076  Ml 1.5  5  Md 1.5  4              bulletin    278679
                                                                                                         _ldg
      0.18   +-  0.03        .7     .5   81.96 +-  0.0    0.08   1.65   +-0.3      +-0.1                 m i ke

FRANCE
Sta     Dist  EvAz     Phase      Date       Time     TRes  Azim  AzRes  Slow  SRes Def   SNR       Amp   Per   Mag1   Mag2       ID
MBDF  000.25 170.3 m E Pg      2012/06/22 22:58:52.8   0.0                          T                                        5009435
MBDF  000.25 170.3 m E Sg      2012/06/22 22:58:56.2   0.0                          T                2.7  .18        Md 1.5  5009434
LPG   000.52 003.1 m E Pg      2012/06/22 22:58:57.9   0.1                          T                                        5009429
LPG   000.52 003.1 m E Sg      2012/06/22 22:59:04.6  -0.1                          T                1.1  .20        Md 1.4  5009428
LPL   000.54 001.6 m E Pg      2012/06/22 22:58:58.0  -0.1                          T                                        5009431
LPL   000.54 001.6 m E Sg      2012/06/22 22:59:05.0  -0.2                          T                 .9  .23        Md 1.5  5009430
ORIF  000.59 264.5 m E Pg      2012/06/22 22:58:58.9   0.0                          T                                        5009433
ORIF  000.59 264.5 m E Sg      2012/06/22 22:59:06.6  -0.1                          T                 .5  .19        Md 1.6  5009432
SBF   001.23 154.8 m E Pg      2012/06/22 22:59:10.8   0.2                          T                                        5009439
SBF   001.23 154.8 m E Sg      2012/06/22 22:59:26.8   0.2                          T                 .4  .16 Ml 1.3         5009438
SMRF  001.29 219.5 m E Pg      2012/06/22 22:59:11.7   0.0                          T                                        5009445
SMRF  001.29 219.5 m E Sg      2012/06/22 22:59:28.3  -0.1                          T                2.7  .63 Ml 1.6         5009444
VIVF  001.45 265.9 m E Pn      2012/06/22 22:59:13.0  -0.2                          T                                        5009437
VIVF  001.45 265.9 m E Sn      2012/06/22 22:59:31.7   0.0                          T                 .5  .25 Ml 1.3         5009436
FRF   001.42 181.9 m E Pg      2012/06/22 22:59:14.0   0.0                          T                                        5009443
FRF   001.42 181.9 m E Sg      2012/06/22 22:59:32.5   0.2                          T                 .3  .20 Ml 1.2         5009442
LMR   001.65 185.1 m E Pg      2012/06/22 22:59:18.3   0.0                          T                                        5009441
LMR   001.65 185.1 m E Sg      2012/06/22 22:59:39.7   0.1                          T                4.7  .74 Ml 1.9         5009440

.
EVENT     278660
    Date      Time       Latitude Longitude    Depth    Ndef Nsta Gap    Mag1  N    Mag2  N    Mag3  N   Author         ID
       rms   OT_Error      Smajor Sminor Az        Err   mdist  Mdist     Err        Err        Err      Quality

2012/06/22 22:59:04.6     44.9771    6.7161      2.0      13    4 075  Ml 1.2  1  Md 1.2  2              bulletin    278760
                                                                                                         _ldg
      0.17   +-  0.04        .8     .8   63.62 +-  0.0    0.07   1.29   +-         +-0.1                 m i ke

FRANCE
Sta     Dist  EvAz     Phase      Date       Time     TRes  Azim  AzRes  Slow  SRes Def   SNR       Amp   Per   Mag1   Mag2       ID
MBDF  000.25 171.0 m E Pg      2012/06/22 22:59:09.8   0.0                          T                                        5023369
MBDF  000.25 171.0 m E Sg      2012/06/22 22:59:13.1  -0.1                          T                2.7  .22        Md 1.3  5023370
LPG   000.52 002.7 m E Pg      2012/06/22 22:59:14.9   0.0                          T                                        5023365
LPG   000.52 002.7 m E Sg      2012/06/22 22:59:21.6  -0.1                          T                1.9  .27                5023366
ORIF  000.60 264.6 m E Pg      2012/06/22 22:59:16.1   0.0                          T                                        5023367
ORIF  000.60 264.6 m E Sg      2012/06/22 22:59:23.4  -0.5                          T                2.3  .33        Md 1.2  5023368
SMRF  001.29 219.6 m E Sg      2012/06/22 22:59:45.7   0.2                          T                 .7  .38 Ml 1.2         5023364

.
EVENT     278580
    Date      Time       Latitude Longitude    Depth    Ndef Nsta Gap    Mag1  N    Mag2  N    Mag3  N   Author         ID
       rms   OT_Error      Smajor Sminor Az        Err   mdist  Mdist     Err        Err        Err      Quality

2012/06/22 22:59:47.9     44.9774    6.7170      2.0      20    6 075  Ml 1.6  2  Md 1.5  1              bulletin    278680
                                                                                                         _ldg
      0.14   +-  0.03        .8     .5   80.00 +-  0.0    0.07   1.42   +-0.2      +-                    m i ke

FRANCE
Sta     Dist  EvAz     Phase      Date       Time     TRes  Azim  AzRes  Slow  SRes Def   SNR       Amp   Per   Mag1   Mag2       ID
MBDF  000.25 171.2 m E Pg      2012/06/22 22:59:53.0  -0.1                          T                                        5009457
MBDF  000.25 171.2 m E Sg      2012/06/22 22:59:56.7   0.1                          T                2.8  .17        Md 1.5  5009456
LPG   000.52 002.7 m E Pg      2012/06/22 22:59:58.1  -0.1                          T                                        5009452
LPG   000.52 002.7 m E Sg      2012/06/22 23:00:05.4   0.3                          T                1.2  .20                5009451
LPL   000.54 001.1 m E Pg      2012/06/22 22:59:58.6   0.1                          T                                        5009453
LPL   000.54 001.1 m E Sg      2012/06/22 23:00:05.5  -0.1                          T                 .8  .22                5009450
ORIF  000.60 264.6 m E Pg      2012/06/22 22:59:59.3  -0.1                          T                                        5009455
ORIF  000.60 264.6 m E Sg      2012/06/22 23:00:06.0  -1.3                          T                1.6  .19                5009454
SMRF  001.29 219.6 m E Pn      2012/06/22 23:00:11.4   0.0                          T                                        5009449
SMRF  001.29 219.6 m E Sn      2012/06/22 23:00:28.1  -0.2                          T                4.3  .75 Ml 1.7         5009448
FRF   001.42 182.1 m E Pn      2012/06/22 23:00:13.2   0.2                          T                                        5009447
FRF   001.42 182.1 m E Sn      2012/06/22 23:00:31.3   0.1                          T                1.1  .42 Ml 1.4         5009446

.
EVENT     278581
    Date      Time       Latitude Longitude    Depth    Ndef Nsta Gap    Mag1  N    Mag2  N    Mag3  N   Author         ID
       rms   OT_Error      Smajor Sminor Az        Err   mdist  Mdist     Err        Err        Err      Quality

2012/06/22 23:01:20.1     44.9769    6.7262      2.0      24    8 071  Ml 1.4  4  Md 1.5  2              bulletin    278681
                                                                                                         _ldg
      0.21   +-  0.04       1.0     .7   78.68 +-  0.0    0.07   1.65   +-0.2      +-0.0                 m i ke

FRANCE
Sta     Dist  EvAz     Phase      Date       Time     TRes  Azim  AzRes  Slow  SRes Def   SNR       Amp   Per   Mag1   Mag2       ID
MBDF  000.25 172.7 m E Pg      2012/06/22 23:01:25.2  -0.1                          T                                        5009464
MBDF  000.25 172.7 m E Sg      2012/06/22 23:01:28.6  -0.1                          T                1.6  .17        Md 1.5  5009463
LPG   000.52 001.9 m E Pg      2012/06/22 23:01:30.3  -0.1                          T                                        5009459
LPG   000.52 001.9 m E Sg      2012/06/22 23:01:37.2  -0.1                          T                 .8  .18        Md 1.6  5009458
LPL   000.54 000.5 m E Pg      2012/06/22 23:01:30.9   0.2                          T                                        5009460
LPL   000.54 000.5 m E Sg      2012/06/22 23:01:38.0   0.2                          T                 .4  .17                5009473
ORIF  000.60 264.7 m E Pg      2012/06/22 23:01:31.7   0.0                          T                                        5009462
ORIF  000.60 264.7 m E Sg      2012/06/22 23:01:39.0  -0.7                          T                1.1  .21                5009461
SBF   001.22 155.2 m E Pg      2012/06/22 23:01:43.0  -0.1                          T                                        5009466
SBF   001.22 155.2 m E Sg      2012/06/22 23:01:59.1   0.1                          T                 .3  .16 Ml 1.2         5009465
SMRF  001.30 219.9 m E Pn      2012/06/22 23:01:43.5  -0.1                          T                                        5009472
SMRF  001.30 219.9 m E Sn      2012/06/22 23:02:00.5   0.0                          T                1.1  .36 Ml 1.4         5009471
FRF   001.42 182.3 m E Pn      2012/06/22 23:01:45.4   0.2                          T                                        5009470
FRF   001.42 182.3 m E Sn      2012/06/22 23:02:03.3  -0.1                          T                 .5  .22 Ml 1.4         5009469
LMR   001.65 185.5 m E Pn      2012/06/22 23:01:48.3  -0.1                          T                                        5009468
LMR   001.65 185.5 m E Sn      2012/06/22 23:02:09.0   0.1                          T                2.3  .58 Ml 1.7         5009467

.
EVENT     278582
    Date      Time       Latitude Longitude    Depth    Ndef Nsta Gap    Mag1  N    Mag2  N    Mag3  N   Author         ID
       rms   OT_Error      Smajor Sminor Az        Err   mdist  Mdist     Err        Err        Err      Quality

2012/06/22 23:01:44.0     44.9805    6.7332      2.0      26    8 067  Ml 1.3  4  Md 1.6  2              bulletin    278682
                                                                                                         _ldg
      0.29   +-  0.06       1.4     .9   87.32 +-  0.0    0.07   1.65   +-0.2      +-0.2                 m i ke

FRANCE
Sta     Dist  EvAz     Phase      Date       Time     TRes  Azim  AzRes  Slow  SRes Def   SNR       Amp   Per   Mag1   Mag2       ID
MBDF  000.26 173.9 m E Pg      2012/06/22 23:01:49.3   0.0                          T                                        5009489
MBDF  000.26 173.9 m E Sg      2012/06/22 23:01:52.6  -0.1                          T                7.1  .19        Md 1.5  5009488
LPG   000.52 001.4 m E Pg      2012/06/22 23:01:54.4   0.1                          T                                        5009483
LPG   000.52 001.4 m E Sg      2012/06/22 23:02:00.5  -0.6                          T                2.2  .21        Md 1.7  5009482
LPL   000.54 359.9 m E Pg      2012/06/22 23:01:54.8   0.3                          T                                        5009485
LPL   000.54 359.9 m E Sg      2012/06/22 23:02:02.2   0.7                          T                2.3  .27                5009484
ORIF  000.61 264.4 m E Pg      2012/06/22 23:01:55.5  -0.2                          T                                        5009487
ORIF  000.61 264.4 m E Sg      2012/06/22 23:02:02.4  -1.3                          T                2.6  .18                5009486
SBF   001.23 155.5 m E Pg      2012/06/22 23:02:07.2   0.2                          T                                        5009475
SBF   001.23 155.5 m E Sg      2012/06/22 23:02:23.2   0.3                          T                1.5  .35 Ml 1.5         5009474
SMRF  001.30 219.9 m E Pn      2012/06/22 23:02:07.4  -0.2                          T                                        5009481
SMRF  001.30 219.9 m E Sn      2012/06/22 23:02:24.4  -0.2                          T                 .4  .31 Ml 1.1         5009480
FRF   001.42 182.5 m E Pn      2012/06/22 23:02:09.3   0.2                          T                                        5009479
FRF   001.42 182.5 m E Sn      2012/06/22 23:02:27.4   0.0                          T                 .2  .16 Ml 1.2         5009478
LMR   001.65 185.7 m E Pn      2012/06/22 23:02:12.3   0.0                          T                                        5009477
LMR   001.65 185.7 m E Sn      2012/06/22 23:02:33.0   0.1                          T                 .3  .19 Ml 1.4         5009476

.
