EVENT     271531
    Date      Time       Latitude Longitude    Depth    Ndef Nsta Gap    Mag1  N    Mag2  N    Mag3  N   Author         ID
       rms   OT_Error      Smajor Sminor Az        Err   mdist  Mdist     Err        Err        Err      Quality

2012/03/09 10:42:15.5     44.5209    6.6805      2.0      14    8 122  Ml 1.5  3  Md 1.4  1              js067245    271551

      0.21   +-  0.06       1.6    1.0   77.68 +-  0.0    0.22   1.47   +-0.1      +-                    m i ke

FRANCE
Sta     Dist  EvAz     Phase      Date       Time     TRes  Azim  AzRes  Slow  SRes Def   SNR       Amp   Per   Mag1   Mag2       ID
MBDF  000.22 017.5 m E Pg      2012/03/09 10:42:20.2   0.1                          T                                        4876453
MBDF  000.22 017.5 m E Sg      2012/03/09 10:42:23.0   0.0                          T                5.9  .30        Md 1.4  4876452
ORIF  000.70 305.1 m E Pg      2012/03/09 10:42:28.6  -0.2                          T                                        4876451
ORIF  000.70 305.1 m E Sg      2012/03/09 10:42:37.8  -0.1                          T                1.3  .23                4876450
SBF   000.85 140.2 m E Pg      2012/03/09 10:42:31.4  -0.2                          T                                        4877120
SBF   000.85 140.2 m E Sg      2012/03/09 10:42:42.3  -0.5                          T                1.4  .17                4877111
FRF   000.96 181.5 m E Pg      2012/03/09 10:42:33.5   0.0                          T                                        4877118
FRF   000.96 181.5 m E Sg      2012/03/09 10:42:46.4   0.4                          T                1.3  .22 Ml 1.6         4877113
SMRF  000.96 235.9 m E Pn      2012/03/09 10:42:34.3  -0.2                          T                                        4877117
SMRF  000.96 235.9 m E Sn      2012/03/09 10:42:48.1   0.1                          T                1.2  .28 Ml 1.4         4877114
LMR   001.19 186.0 m E Pg      2012/03/09 10:42:38.0   0.2                          T                                        4877119
LMR   001.19 186.0 m E Sg      2012/03/09 10:42:53.7   0.4                          T                1.0  .29 Ml 1.5         4877112
LPG   000.98 002.9 m E Sg      2012/03/09 10:42:47.1   0.1                          T                                        4877115
VIVF  001.47 283.9 m E Sg      2012/03/09 10:43:02.2   0.2                          T                                        4877116

.
EVENT     271587
    Date      Time       Latitude Longitude    Depth    Ndef Nsta Gap    Mag1  N    Mag2  N    Mag3  N   Author         ID
       rms   OT_Error      Smajor Sminor Az        Err   mdist  Mdist     Err        Err        Err      Quality

2012/03/09 14:25:27.8     44.4434   10.4173      2.0      45   13 087  Ml 2.9 10                         js067245    271607

      0.65   +-  0.12       2.7    2.0   67.66 +-  0.0    0.26   4.88   +-0.2                            m i ke

NORTHERN ITALY
Sta     Dist  EvAz     Phase      Date       Time     TRes  Azim  AzRes  Slow  SRes Def   SNR       Amp   Per   Mag1   Mag2       ID
PGF   002.16 209.1 m E Pn      2012/03/09 14:26:02.3  -0.8                          T                                        4876468
PGF   002.16 209.1 m E Sn      2012/03/09 14:26:27.8  -1.1                          T                8.1  .37 Ml 2.8         4876497
SBF   002.22 255.9 m E Pn      2012/03/09 14:26:04.7   0.7                          T                                        4876465
SBF   002.22 255.9 m E Sn      2012/03/09 14:26:30.9   0.5                          T               19.2  .38 Ml 3.0         4876498
MBDF  002.62 277.5 m E P       2012/03/09 14:26:11.7  -0.4                          T                                        4876466
FRF   002.86 253.3 m E Pn      2012/03/09 14:26:13.1   0.6                          T                                        4876501
FRF   002.86 253.3 m E P       2012/03/09 14:26:15.1  -0.3                          T                                        4876502
FRF   002.86 253.3 m E Sn      2012/03/09 14:26:46.1   0.5                          T                8.2  .29 Ml 2.9         4876496
LMR   003.04 249.9 m E Pn      2012/03/09 14:26:14.5  -0.4                          T                                        4876499
LMR   003.04 249.9 m E P       2012/03/09 14:26:16.3  -1.5                          T                                        4876500
LMR   003.04 249.9 m E Sn      2012/03/09 14:26:51.1   1.4                          T               11.9  .41 Ml 2.9         4876495
ORIF  003.27 279.9 m E P       2012/03/09 14:26:20.8  -0.5                          T                                        4876504
ORIF  003.27 279.9 m E Sn      2012/03/09 14:26:57.4   1.9                          T                8.5  .48 Ml 2.7         4876494
SMRF  003.51 264.0 m E Pn      2012/03/09 14:26:21.7   0.2                          T                                        4876467
SMRF  003.51 264.0 m E P       2012/03/09 14:26:24.2  -0.5                          T                                        4876503
CABF  003.74 307.0 m E Pn      2012/03/09 14:26:24.6   0.0                          T                                        4876505
HINF  004.19 325.0 m E Pn      2012/03/09 14:26:28.7  -1.9                          T                                        4876463
HINF  004.19 325.0 m E Sn      2012/03/09 14:27:16.8  -0.4                          T                7.9  .32 Ml 3.1         4876508
VIVF  004.12 277.8 m E Pn      2012/03/09 14:26:30.9   1.2                          T                                        4876464
CDF   004.52 332.4 m E Pn      2012/03/09 14:26:33.9  -1.4                          T                                        4876506
CDF   004.52 332.4 m E Sn      2012/03/09 14:27:25.2  -0.2                          T                2.3  .28 Ml 2.8         4876493
HAU   004.55 323.0 m E Pn      2012/03/09 14:26:35.5   0.0                          T                                        4876462
HAU   004.55 323.0 m E Sn      2012/03/09 14:27:25.7  -0.1                          T               10.4  .31 Ml 3.1         4876507
LANF  004.88 339.3 m E Sn      2012/03/09 14:27:34.8   0.9                          T                5.9  .29 Ml 3.2         4876492

.
EVENT     271589
    Date      Time       Latitude Longitude    Depth    Ndef Nsta Gap    Mag1  N    Mag2  N    Mag3  N   Author         ID
       rms   OT_Error      Smajor Sminor Az        Err   mdist  Mdist     Err        Err        Err      Quality

2012/03/09 20:40:45.6     44.5215    6.6957      3.0 f    35    9 047  Ml 1.7  5  Md 1.8  1              js067245    271609

      0.54   +-  0.07       1.5    1.1   62.11 +-  0.0    0.09   1.48   +-0.2      +-                    m i ke

FRANCE
Sta     Dist  EvAz     Phase      Date       Time     TRes  Azim  AzRes  Slow  SRes Def   SNR       Amp   Per   Mag1   Mag2       ID
MBDF  000.21 014.7 m E Pg      2012/03/09 20:40:50.4   0.4                          T                                        4876546
MBDF  000.21 014.7 m E Sg      2012/03/09 20:40:53.1   0.2                          T                6.3  .20        Md 1.8  4876545
ORIF  000.70 304.6 m E Pg      2012/03/09 20:40:58.9   0.0                          T                                        4876544
ORIF  000.70 304.6 m E Sg      2012/03/09 20:41:08.2   0.0                          T                5.8  .28                4876538
SBF   000.85 140.8 m E P       2012/03/09 20:41:03.7   0.3                          T                                        4876534
SBF   000.85 140.8 m E Sg      2012/03/09 20:41:12.5  -0.1                          T                2.9  .23                4876533
FRF   000.96 182.1 m E Pg      2012/03/09 20:41:03.8   0.2                          T                                        4876542
FRF   000.96 182.1 m E Sg      2012/03/09 20:41:16.8   0.8                          T                4.1  .30 Ml 2.0         4876537
LPG   000.98 002.3 m E Pg      2012/03/09 20:41:04.4   0.1                          T                                        4876543
LPG   000.98 002.3 m E Sg      2012/03/09 20:41:17.1   0.2                          T                1.1  .24 Ml 1.5         4876532
LPL   001.00 001.5 m E Pg      2012/03/09 20:41:04.6   0.1                          T                                        4876539
SMRF  000.97 236.3 m E Pn      2012/03/09 20:41:04.7   0.1                          T                                        4876541
SMRF  000.97 236.3 m E Sn      2012/03/09 20:41:18.2   0.2                          T                1.8  .26 Ml 1.6         4876536
LMR   001.19 186.5 m E Pg      2012/03/09 20:41:08.2   0.3                          T                                        4876540
LMR   001.19 186.5 m E Sg      2012/03/09 20:41:24.2   0.8                          T                2.0  .22 Ml 1.9         4876535
VIVF  001.48 283.8 m E Pg      2012/03/09 20:41:12.7  -0.5                          T                                        4877165
VIVF  001.48 283.8 m E Sg      2012/03/09 20:41:32.4   0.1                          T                1.1  .33 Ml 1.6         4876530

.
EVENT     271590
    Date      Time       Latitude Longitude    Depth    Ndef Nsta Gap    Mag1  N    Mag2  N    Mag3  N   Author         ID
       rms   OT_Error      Smajor Sminor Az        Err   mdist  Mdist     Err        Err        Err      Quality

2012/03/09 21:42:29.5     42.9928     .1783      2.0      49   11 050  Ml 2.3 12  Md 2.3  2              js067245    271610

      0.70   +-  0.06       1.2    1.0   29.10 +-  0.0    0.09   4.42   +-0.2      +-0.0                 m i ke

PYRENEES
Sta     Dist  EvAz     Phase      Date       Time     TRes  Azim  AzRes  Slow  SRes Def   SNR       Amp   Per   Mag1   Mag2       ID
EPF   000.12 072.4 m E Pg      2012/03/09 21:42:32.3   0.1                          T                                        4876560
EPF   000.12 072.4 m E Sg      2012/03/09 21:42:34.0  -0.1                          T              247.2  .20        Md 2.3  4876559
SJPF  001.04 277.2 m E Pg      2012/03/09 21:42:50.4   1.4                          T                                        4876557
SJPF  001.04 277.2 m E Sg      2012/03/09 21:43:03.0   0.6                          T                5.2  .32 Ml 2.0         4876595
MTLF  001.53 076.2 m E Pg      2012/03/09 21:42:58.3   0.2                          T                                        4876558
MTLF  001.53 076.2 m E Sg      2012/03/09 21:43:18.0   0.1                          T                8.1  .30 Ml 2.5 Md 2.3  4876554
LFF   001.99 011.6 m E Pg      2012/03/09 21:43:06.7   0.3                          T                                        4876556
LFF   001.99 011.6 m E Sg      2012/03/09 21:43:32.1   0.0                          T                2.9  .22 Ml 2.2         4876553
CAF   002.36 034.5 m E Pg      2012/03/09 21:43:13.3  -0.1                          T                                        4876555
CAF   002.36 034.5 m E Sg      2012/03/09 21:43:45.1   1.2                          T                1.7  .18 Ml 2.3         4876596
RJF   002.50 022.2 m E Pg      2012/03/09 21:43:15.9  -0.1                          T                                        4876598
RJF   002.50 022.2 m E Sg      2012/03/09 21:43:47.4  -0.9                          T                2.5  .29 Ml 1.9         4876597
LASF  002.89 066.7 m E Pg      2012/03/09 21:43:23.0  -0.1                          T                                        4876593
LASF  002.89 066.7 m E Sg      2012/03/09 21:44:01.1   1.0                          T                1.7  .21 Ml 2.3         4876594
MFF   003.62 356.5 m E Pg      2012/03/09 21:43:36.3  -0.2                          T                                        4876729
MFF   003.62 356.5 m E Sg      2012/03/09 21:44:22.1  -0.8                          T                 .8  .24 Ml 2.3         4876730
BGF   004.04 027.1 m E Pg      2012/03/09 21:43:44.8   0.5                          T                                        4876725
BGF   004.04 027.1 m E Sg      2012/03/09 21:44:35.3  -0.8                          T                3.9  .40 Ml 2.6         4876728
VIVF  003.74 058.6 m E Sg      2012/03/09 21:44:27.2   0.3                          T                1.7  .32 Ml 2.3         4876727
AVF   004.42 029.6 m E Sg      2012/03/09 21:44:46.3  -1.6                          T                1.6  .40 Ml 2.3         4876724

.
EVENT     271591
    Date      Time       Latitude Longitude    Depth    Ndef Nsta Gap    Mag1  N    Mag2  N    Mag3  N   Author         ID
       rms   OT_Error      Smajor Sminor Az        Err   mdist  Mdist     Err        Err        Err      Quality

2012/03/09 22:12:44.5     44.5168    6.6963      2.0      23    8 047  Ml 1.5  5  Md 1.4  2              js067245    271611

      0.64   +-  0.08       2.0    1.4   67.46 +-  0.0    0.09   1.48   +-0.3      +-0.1                 m i ke

FRANCE
Sta     Dist  EvAz     Phase      Date       Time     TRes  Azim  AzRes  Slow  SRes Def   SNR       Amp   Per   Mag1   Mag2       ID
MBDF  000.22 014.3 m E Pg      2012/03/09 22:12:49.3   0.2                          T                                        4876751
MBDF  000.22 014.3 m E Sg      2012/03/09 22:12:52.4   0.4                          T                4.9  .31        Md 1.4  4876748
ORIF  000.71 304.9 m E Pg      2012/03/09 22:12:57.8  -0.1                          T                                        4876750
ORIF  000.71 304.9 m E Sg      2012/03/09 22:13:07.1  -0.1                          T                1.7  .26        Md 1.5  4876749
FRF   000.96 182.2 m E Pg      2012/03/09 22:13:02.6   0.2                          T                                        4876747
FRF   000.96 182.2 m E Sg      2012/03/09 22:13:15.5   0.7                          T                2.9  .23 Ml 1.9         4877167
LPG   000.98 002.3 m E Pg      2012/03/09 22:13:03.1  -0.1                          T                                        4876739
LPG   000.98 002.3 m E Sg      2012/03/09 22:13:16.2   0.2                          T                 .5  .23 Ml 1.1         4876744
SMRF  000.97 236.5 m E Pn      2012/03/09 22:13:03.6   0.0                          T                                        4876746
SMRF  000.97 236.5 m E Sn      2012/03/09 22:13:17.2   0.1                          T                2.0  .29 Ml 1.6         4876745
LMR   001.19 186.6 m E Pg      2012/03/09 22:13:07.1   0.4                          T                                        4876743
LMR   001.19 186.6 m E Sg      2012/03/09 22:13:22.8   0.7                          T                 .9  .21 Ml 1.6         4876742
SBF   000.84 140.6 m E Sg      2012/03/09 22:13:11.3  -0.1                          T                1.2  .22                4876740
VIVF  001.48 283.9 m E Sg      2012/03/09 22:13:31.5   0.2                          T                 .9  .30 Ml 1.5         4877166

.
EVENT     271592
    Date      Time       Latitude Longitude    Depth    Ndef Nsta Gap    Mag1  N    Mag2  N    Mag3  N   Author         ID
       rms   OT_Error      Smajor Sminor Az        Err   mdist  Mdist     Err        Err        Err      Quality

2012/03/09 22:24:07.9     44.5342    6.6969      5.0 f    14    6 125  Ml 1.2  3  Md 1.4  1              js067245    271612

      0.79   +-  0.11       2.7    1.7   73.49 +-  0.0    0.20   1.21   +-0.3      +-                    m i ke

FRANCE
Sta     Dist  EvAz     Phase      Date       Time     TRes  Azim  AzRes  Slow  SRes Def   SNR       Amp   Per   Mag1   Mag2       ID
MBDF  000.20 015.4 m E Pg      2012/03/09 22:24:12.5   0.2                          T                                        4876755
MBDF  000.20 015.4 m E Sg      2012/03/09 22:24:15.3   0.2                          T                4.3  .42        Md 1.4  4876752
ORIF  000.70 303.7 m E Pg      2012/03/09 22:24:21.2  -0.1                          T                                        4876754
ORIF  000.70 303.7 m E Sg      2012/03/09 22:24:30.2  -0.2                          T                2.2  .30                4876765
SBF   000.86 141.4 m E P       2012/03/09 22:24:25.8   0.0                          T                                        4876762
SBF   000.86 141.4 m E Sg      2012/03/09 22:24:34.6  -0.7                          T                                        4876758
FRF   000.97 182.1 m E Pg      2012/03/09 22:24:25.9  -0.4                          T                                        4876753
FRF   000.97 182.1 m E Sg      2012/03/09 22:24:38.7  -0.2                          T                 .6  .24 Ml 1.3         4876761
SMRF  000.98 235.7 m E Pg      2012/03/09 22:24:26.9   0.5                          T                                        4876763
SMRF  000.98 235.7 m E Sn      2012/03/09 22:24:40.4   0.2                          T                 .3  .24 Ml  .9         4876760
LMR   001.21 186.5 m E Pg      2012/03/09 22:24:30.8   0.3                          T                                        4876764
LMR   001.21 186.5 m E Sg      2012/03/09 22:24:46.2   0.0                          T                 .6  .18 Ml 1.4         4876759

.
EVENT     271593
    Date      Time       Latitude Longitude    Depth    Ndef Nsta Gap    Mag1  N    Mag2  N    Mag3  N   Author         ID
       rms   OT_Error      Smajor Sminor Az        Err   mdist  Mdist     Err        Err        Err      Quality

2012/03/09 22:29:14.9     44.5102    6.6916      2.0      19    5 068  Ml 1.2  3  Md 1.3  1              js067245    271613

      1.33   +-  0.15       3.7    2.9   74.88 +-  0.0    0.09   1.18   +-0.2      +-                    m i ke

FRANCE
Sta     Dist  EvAz     Phase      Date       Time     TRes  Azim  AzRes  Slow  SRes Def   SNR       Amp   Per   Mag1   Mag2       ID
MBDF  000.22 014.7 m E Pg      2012/03/09 22:29:19.9   0.3                          T                                        4876772
MBDF  000.22 014.7 m E Sg      2012/03/09 22:29:22.8   0.1                          T                4.3  .37        Md 1.3  4876771
ORIF  000.71 305.5 m E Pg      2012/03/09 22:29:28.3  -0.2                          T                                        4876770
ORIF  000.71 305.5 m E Sg      2012/03/09 22:29:37.1  -0.6                          T                 .6  .23                4876816
FRF   000.95 182.0 m E Pg      2012/03/09 22:29:33.1   0.4                          T                                        4876767
FRF   000.95 182.0 m E Sg      2012/03/09 22:29:46.0   0.9                          T                 .6  .24 Ml 1.2         4876766
SMRF  000.96 236.7 m E Pn      2012/03/09 22:29:34.1   0.1                          T                                        4876769
SMRF  000.96 236.7 m E Sn      2012/03/09 22:29:47.7   0.3                          T                1.1  .32 Ml 1.3         4876813
LMR   001.18 186.5 m E Pg      2012/03/09 22:29:37.6   0.6                          T                                        4876768
LMR   001.18 186.5 m E Sg      2012/03/09 22:29:53.4   1.0                          T                 .3  .22 Ml 1           4876812

.
