EVENT     264857
    Date      Time       Latitude Longitude    Depth    Ndef Nsta Gap    Mag1  N    Mag2  N    Mag3  N   Author         ID
       rms   OT_Error      Smajor Sminor Az        Err   mdist  Mdist     Err        Err        Err      Quality

2011/10/09 19:03:43.7     43.3814    7.5719      4.0 f    17    8 139  Ml 1.9  3  Md 1.9  1              js067245    264877

      1.04   +-  0.18       4.4    3.0   39.30 +-  0.0    0.49   2.22   +-0.2      +-                    m i ke

NEAR SOUTH COAST OF FRANCE
Sta     Dist  EvAz     Phase      Date       Time     TRes  Azim  AzRes  Slow  SRes Def   SNR       Amp   Per   Mag1   Mag2       ID
SBF   000.49 348.4 m E Pg      2011/10/09 19:03:53.6   0.4                          T                                        4768797
SBF   000.49 348.4 m E Sg      2011/10/09 19:04:00.4   0.7                          T               18.9  .22        Md 1.9  4769027
FRF   000.70 285.2 m E Pg      2011/10/09 19:03:56.8  -0.1                          T                                        4768794
FRF   000.70 285.2 m E Sg      2011/10/09 19:04:05.7  -0.3                          T               15.1  .26                4768793
LMR   000.78 266.9 m E Pg      2011/10/09 19:03:58.4   0.1                          T                                        4768796
LMR   000.78 266.9 m E Pn      2011/10/09 19:04:00.7   0.9                          T                                        4769018
LMR   000.78 266.9 m E Sg      2011/10/09 19:04:08.1  -0.4                          T                4.6  .17                4768795
PGF   001.34 128.0 m E Pn      2011/10/09 19:04:07.5  -0.2                          T                                        4772232
PGF   001.34 128.0 m E Sn      2011/10/09 19:04:25.1   0.3                          T                                        4772233
MBDF  001.46 337.1 m E Pg      2011/10/09 19:04:10.8  -0.5                          T                                        4769026
MBDF  001.46 337.1 m E Sn      2011/10/09 19:04:28.8   0.9                          T                1.4  .17 Ml 1.9         4768789
SMRF  001.57 293.0 m E Pg      2011/10/09 19:04:12.7  -0.2                          T                                        4769023
SMRF  001.57 293.0 m E Sg      2011/10/09 19:04:32.2  -1.0                          T                2.2  .24 Ml 2.0         4768791
ORIF  001.96 322.2 m E Pg      2011/10/09 19:04:20.3   0.0                          T                                        4769025
ORIF  001.96 322.2 m E Sg      2011/10/09 19:04:44.9  -0.7                          T                1.1  .35 Ml 1.7         4769022
LPL   002.22 344.6 m E Pg      2011/10/09 19:04:25.3   0.1                          T                                        4769024

.
EVENT     264858
    Date      Time       Latitude Longitude    Depth    Ndef Nsta Gap    Mag1  N    Mag2  N    Mag3  N   Author         ID
       rms   OT_Error      Smajor Sminor Az        Err   mdist  Mdist     Err        Err        Err      Quality

2011/10/09 19:25:34.6     43.3701    7.5422      4.0 f    52   15 140  Ml 3.0  6  Md 2.9  3              js067245    264878

      0.86   +-  0.11       2.0    1.9  145.96 +-  0.0    0.39   4.47   +-0.2      +-0.1                 m i ke

NEAR SOUTH COAST OF FRANCE
Sta     Dist  EvAz     Phase      Date       Time     TRes  Azim  AzRes  Slow  SRes Def   SNR       Amp   Per   Mag1   Mag2       ID
SBF   000.50 351.1 m E Pg      2011/10/09 19:25:44.4   0.1                          T   001.0                                4767323
SBF   000.50 351.1 m E Sg      2011/10/09 19:25:51.3   0.4                          T   001.0      391.4  .24        Md 3.0  4767324
FRF   000.68 286.6 m E Pg      2011/10/09 19:25:47.7   0.2                          T   001.0                                4767310
FRF   000.68 286.6 m E Sg      2011/10/09 19:25:56.5   0.1                          T   001.0      160.1  .19        Md 2.9  4767311
LMR   000.75 267.6 m E Pg      2011/10/09 19:25:49.3   0.5                          T   001.0                                4767314
LMR   000.75 267.6 m E Sg      2011/10/09 19:25:58.6  -0.1                          T   001.0      104.1  .25        Md 2.9  4767315
PGF   001.35 127.0 m E Pn      2011/10/09 19:25:58.3  -0.4                          T   001.0                                4767321
PGF   001.35 127.0 m E Sn      2011/10/09 19:26:16.0  -0.1                          T   001.0       12.4  .20 Ml 3.0         4767322
MBDF  001.47 338.0 m E Pn      2011/10/09 19:26:00.6   0.3                          T                                        4769029
MBDF  001.47 338.0 m E Pg      2011/10/09 19:26:01.6  -0.6                          T   001.0                                4767327
MBDF  001.47 338.0 m E Sn      2011/10/09 19:26:19.5   0.6                          T   001.0       25.5  .23 Ml 3.1         4767328
SMRF  001.55 293.7 m E Pn      2011/10/09 19:26:02.5   1.1                          T                                        4769030
SMRF  001.55 293.7 m E Pg      2011/10/09 19:26:03.5  -0.1                          T   001.0                                4767336
SMRF  001.55 293.7 m E Sg      2011/10/09 19:26:23.0  -0.6                          T   001.0       49.2  .28 Ml 3.3         4767338
ORIF  001.96 322.9 m E Pn      2011/10/09 19:26:07.3   0.4                          T                                        4768813
ORIF  001.96 322.9 m E Pg      2011/10/09 19:26:10.9  -0.2                          T   001.0                                4767331
ORIF  001.96 322.9 m E Sg      2011/10/09 19:26:36.0  -0.4                          T   001.0       14.8  .28 Ml 2.9         4767332
LPG   002.20 345.4 m E Pn      2011/10/09 19:26:10.5   0.0                          T                                        4769028
LPG   002.20 345.4 m E Pg      2011/10/09 19:26:15.3  -0.6                          T   001.0                                4767317
LPG   002.20 345.4 m E Sn      2011/10/09 19:26:37.5   0.9                          T   001.0                                4767318
LPL   002.22 345.2 m E Pn      2011/10/09 19:26:11.5   0.7                          T   001.0                                4767319
LPL   002.22 345.2 m E Pg      2011/10/09 19:26:15.8  -0.4                          T   001.0                                4767320
VIVF  002.55 306.7 m E Pn      2011/10/09 19:26:14.6  -0.3                          T   001.0                                4767333
VIVF  002.55 306.7 m E Pg      2011/10/09 19:26:21.4  -0.5                          T                                        4768812
LASF  002.76 286.1 m E Pn      2011/10/09 19:26:17.9   0.0                          T   001.0                                4767312
LASF  002.76 286.1 m E Sn      2011/10/09 19:26:49.5  -0.2                          T   001.0                                4767313
MTLF  003.88 271.4 m E Pn      2011/10/09 19:26:33.0  -0.1                          T   001.0                                4767329
CABF  003.40 342.8 m E Pg      2011/10/09 19:26:37.4  -0.3                          T                                        4768811
CAF   004.24 293.4 m E Pn      2011/10/09 19:26:37.6  -0.4                          T   001.0                                4767308
HINF  004.47 354.0 m E Pn      2011/10/09 19:26:41.1  -0.1                          T                                        4768810

.
EVENT     264859
    Date      Time       Latitude Longitude    Depth    Ndef Nsta Gap    Mag1  N    Mag2  N    Mag3  N   Author         ID
       rms   OT_Error      Smajor Sminor Az        Err   mdist  Mdist     Err        Err        Err      Quality

2011/10/09 19:38:30.0     43.3620    7.5514      4.0 f    16    8 141  Ml 1.8  3  Md 1.8  1              js067245    264879

      0.36   +-  0.12       2.9    2.0   35.83 +-  0.0    0.51   2.23   +-0.3      +-                    m i ke

NEAR SOUTH COAST OF FRANCE
Sta     Dist  EvAz     Phase      Date       Time     TRes  Azim  AzRes  Slow  SRes Def   SNR       Amp   Per   Mag1   Mag2       ID
SBF   000.51 350.5 m E Pg      2011/10/09 19:38:39.9   0.1                          T                                        4768830
SBF   000.51 350.5 m E Sg      2011/10/09 19:38:46.8   0.3                          T               21.9  .23        Md 1.8  4768829
FRF   000.69 287.1 m E Pg      2011/10/09 19:38:43.1   0.1                          T                                        4768826
FRF   000.69 287.1 m E Sg      2011/10/09 19:38:51.8  -0.2                          T               10.2  .22                4768825
LMR   000.76 268.2 m E Pg      2011/10/09 19:38:44.8   0.5                          T                                        4768827
LMR   000.76 268.2 m E Sg      2011/10/09 19:38:54.0  -0.2                          T                5.8  .24                4768828
PGF   001.34 126.9 m E Pn      2011/10/09 19:38:53.8  -0.1                          T                                        4772235
MBDF  001.48 337.9 m E Pg      2011/10/09 19:38:57.1  -0.6                          T                                        4768822
MBDF  001.48 337.9 m E Sn      2011/10/09 19:39:14.9   0.5                          T                2.1  .27 Ml 1.9         4768821
SMRF  001.56 293.9 m E Pg      2011/10/09 19:38:58.9  -0.2                          T                                        4768823
SMRF  001.56 293.9 m E Sg      2011/10/09 19:39:18.4  -0.8                          T                1.8  .22 Ml 2.0         4768824
ORIF  001.97 322.9 m E Pn      2011/10/09 19:39:02.9   0.4                          T                                        4769031
ORIF  001.97 322.9 m E Pg      2011/10/09 19:39:06.5  -0.2                          T                                        4768820
ORIF  001.97 322.9 m E Sg      2011/10/09 19:39:31.4  -0.6                          T                 .5  .23 Ml 1.5         4772236
LPL   002.23 345.0 m E Pg      2011/10/09 19:39:11.5  -0.2                          T                                        4769778

.
EVENT     264889
    Date      Time       Latitude Longitude    Depth    Ndef Nsta Gap    Mag1  N    Mag2  N    Mag3  N   Author         ID
       rms   OT_Error      Smajor Sminor Az        Err   mdist  Mdist     Err        Err        Err      Quality

2011/10/09 19:59:47.2     42.9664     .2812      2.0      52   11 057  Ml 2.7  9  Md 2.7  3              js067245    264909

      0.58   +-  0.05       1.1     .9   21.06 +-  0.0    0.08   4.40   +-0.2      +-0.1                 m i ke

PYRENEES
Sta     Dist  EvAz     Phase      Date       Time     TRes  Azim  AzRes  Slow  SRes Def   SNR       Amp   Per   Mag1   Mag2       ID
EPF   000.08 034.0 m E Pg      2011/10/09 19:59:49.5   0.4                          T   001.0                                4767472
EPF   000.08 034.0 m E Sg      2011/10/09 19:59:50.9   0.6                          T              354.5  .18        Md 2.8  4768940
ETSF  000.62 264.0 m E Pg      2011/10/09 19:59:58.6  -0.4                          T   001.0                                4767479
ETSF  000.62 264.0 m E Sg      2011/10/09 20:00:06.7  -0.5                          T   001.0       66.7  .23        Md 2.6  4767480
SJPF  001.11 278.1 m E Pn      2011/10/09 20:00:07.7  -0.5                          T   001.0                                4767486
SJPF  001.11 278.1 m E Pg      2011/10/09 20:00:08.2   0.1                          T                                        4769050
SJPF  001.11 278.1 m E Sg      2011/10/09 20:00:22.3  -0.2                          T   001.0        6.3  .18 Ml 2.4 Md 2.6  4767487
MTLF  001.47 074.5 m E Pg      2011/10/09 20:00:14.5   0.0                          T   001.0                                4767482
MTLF  001.47 074.5 m E Sg      2011/10/09 20:00:33.5   0.1                          T   001.0        7.3  .20 Ml 2.6         4767483
LFF   002.00 009.4 m E Pg      2011/10/09 20:00:24.7   0.3                          T   001.0                                4767474
LFF   002.00 009.4 m E Sg      2011/10/09 20:00:50.3   0.2                          T   001.0       23.7  .37 Ml 2.8         4767476
RJF   002.50 020.4 m E Pn      2011/10/09 20:00:28.6   1.6                          T                                        4769051
RJF   002.50 020.4 m E Pg      2011/10/09 20:00:33.4  -0.2                          T   001.0                                4767467
RJF   002.50 020.4 m E Sg      2011/10/09 20:01:05.8   0.1                          T                5.8  .22 Ml 2.4         4769049
CAF   002.34 032.7 m E Pg      2011/10/09 20:00:30.1  -0.7                          T   001.0                                4767470
CAF   002.34 032.7 m E Sg      2011/10/09 20:01:01.1   0.1                          T   001.0        3.7  .18 Ml 2.6         4767471
MFF   003.65 355.4 m E Pn      2011/10/09 20:00:43.0   0.3                          T   001.0                                4767477
MFF   003.65 355.4 m E Pg      2011/10/09 20:00:54.9   0.2                          T                                        4768939
MFF   003.65 355.4 m E Sg      2011/10/09 20:01:40.8  -0.8                          T   001.0        4.1  .30 Ml 2.9         4767478
TCF   003.60 021.9 m E Sg      2011/10/09 20:01:40.3   0.3                          T                                        4768938
BGF   004.03 026.1 m E Sg      2011/10/09 20:01:53.9   0.4                          T   001.0       11.1  .44 Ml 3.1         4767469
AVF   004.40 028.7 m E Sg      2011/10/09 20:02:05.3   0.2                          T   001.0        1.8  .40 Ml 2.4         4767468

.
EVENT     264890
    Date      Time       Latitude Longitude    Depth    Ndef Nsta Gap    Mag1  N    Mag2  N    Mag3  N   Author         ID
       rms   OT_Error      Smajor Sminor Az        Err   mdist  Mdist     Err        Err        Err      Quality

2011/10/09 20:52:01.8     40.1827    3.3650     20.0 f    55   14 166  Ml 2.5  8  Md 2.9  3              js067245    264910

      0.72   +-  0.15       3.4    2.2  147.36 +-  0.0    0.59   5.95   +-0.4      +-0.1                 m i ke

BALEARIC ISLANDS, SPAIN
Sta     Dist  EvAz     Phase      Date       Time     TRes  Azim  AzRes  Slow  SRes Def   SNR       Amp   Per   Mag1   Mag2       ID
MTLF  003.27 345.2 m E Pn      2011/10/09 20:52:50.0  -0.1                          T                                        4769044
MTLF  003.27 345.2 m E Sn      2011/10/09 20:53:25.6  -0.5                          T                1.9  .27 Ml 2.3 Md 2.8  4769076
EPF   003.64 322.4 m E Pn      2011/10/09 20:52:55.6   0.4                          T                                        4769043
EPF   003.64 322.4 m E Sn      2011/10/09 20:53:35.4   0.4                          T                2.8  .27 Ml 2.6         4772259
LASF  003.91 005.2 m E Pn      2011/10/09 20:52:58.2  -0.7                          T                                        4769073
LASF  003.91 005.2 m E Sn      2011/10/09 20:53:41.7   0.3                          T                1.6  .22 Ml 2.5         4769075
LMR   003.93 035.7 m E Pn      2011/10/09 20:52:59.1   0.0                          T                                        4769041
LMR   003.93 035.7 m E Sn      2011/10/09 20:53:40.7  -1.1                          T                3.4  .24 Ml 2.8 Md 2.9  4769040
ETSF  004.00 313.9 m E Pn      2011/10/09 20:53:00.0  -0.3                          T                                        4769033
FRF   004.17 034.9 m E Pn      2011/10/09 20:53:03.0   0.6                          T                                        4769038
FRF   004.17 034.9 m E Sn      2011/10/09 20:53:47.8   0.2                          T                5.3  .35 Ml 2.9 Md 2.9  4769039
SMRF  004.13 022.7 m E Pn      2011/10/09 20:53:03.7   1.8                          T                                        4769037
SJPF  004.52 311.9 m E Pn      2011/10/09 20:53:07.0  -0.2                          T                                        4769032
SJPF  004.52 311.9 m E Sn      2011/10/09 20:53:56.1   0.2                          T                1.6  .34 Ml 2.4         4772258
SBF   004.77 038.2 m E Pn      2011/10/09 20:53:10.0  -0.6                          T                                        4772261
SBF   004.77 038.2 m E Sn      2011/10/09 20:53:59.6  -2.3                          T                2.7  .29 Ml 2.8         4772260
VIVF  004.77 011.3 m E Pn      2011/10/09 20:53:10.8   0.2                          T                                        4769042
VIVF  004.77 011.3 m E Sn      2011/10/09 20:54:02.6   0.7                          T                                        4769074
CAF   004.84 349.0 m E Pn      2011/10/09 20:53:11.5   0.0                          T                                        4769036
PGF   004.85 059.0 m E Pn      2011/10/09 20:53:12.1   0.3                          T                                        4769034
PGF   004.85 059.0 m E Sn      2011/10/09 20:54:03.6  -0.5                          T                                        4772256
ORIF  005.08 020.6 m E Pn      2011/10/09 20:53:16.8   1.8                          T                                        4772263
RJF   005.30 345.7 m E Pn      2011/10/09 20:53:17.8   0.1                          T                                        4769072
RJF   005.30 345.7 m E Sn      2011/10/09 20:54:13.9  -0.6                          T                 .4  .25 Ml 1.8         4772257

.
EVENT     264860
    Date      Time       Latitude Longitude    Depth    Ndef Nsta Gap    Mag1  N    Mag2  N    Mag3  N   Author         ID
       rms   OT_Error      Smajor Sminor Az        Err   mdist  Mdist     Err        Err        Err      Quality

2011/10/09 22:25:10.2     45.3596    6.7135      2.0      15    6 165  Ml 1.9  2  Md 1.8  2              js067245    264880

      0.76   +-  0.17       4.6    2.0  109.57 +-  0.0    0.14   1.53   +-0.3      +-0.2                 m i ke

FRANCE
Sta     Dist  EvAz     Phase      Date       Time     TRes  Azim  AzRes  Slow  SRes Def   SNR       Amp   Per   Mag1   Mag2       ID
LPG   000.14 010.9 m E Pg      2011/10/09 22:25:13.2  -0.3                          T                                        4769795
LPG   000.14 010.9 m E Sg      2011/10/09 22:25:15.5   0.0                          T               18.4  .22                4769790
LPL   000.16 004.8 m E Pg      2011/10/09 22:25:13.5  -0.2                          T                                        4769796
LPL   000.16 004.8 m E Sg      2011/10/09 22:25:15.2  -0.8                          T               29.6  .33        Md 1.7  4769791
MBDF  000.63 176.3 m E Pg      2011/10/09 22:25:22.1  -0.3                          T                                        4769798
MBDF  000.63 176.3 m E Sg      2011/10/09 22:25:31.1   0.4                          T                2.4  .27        Md 1.9  4769793
ORIF  000.74 233.5 m E Pg      2011/10/09 22:25:24.4   0.3                          T                                        4769799
ORIF  000.74 233.5 m E Pn      2011/10/09 22:25:26.1   0.0                          T                                        4769785
ORIF  000.74 233.5 m E Sg      2011/10/09 22:25:33.9   0.1                          T                7.8  .56                4769792
CABF  001.33 341.0 m E Pg      2011/10/09 22:25:35.7   0.7                          T                                        4769789
CABF  001.33 341.0 m E Sg      2011/10/09 22:25:50.8  -1.4                          T                1.3  .24 Ml 1.7         4769788
VIVF  001.53 251.5 m E Pg      2011/10/09 22:25:38.7   0.0                          T                                        4769797
VIVF  001.53 251.5 m E Sg      2011/10/09 22:25:58.3  -0.2                          T                4.3  .38 Ml 2.1         4769794

.
