EVENT     280454
    Date      Time       Latitude Longitude    Depth    Ndef Nsta Gap    Mag1  N    Mag2  N    Mag3  N   Author         ID
       rms   OT_Error      Smajor Sminor Az        Err   mdist  Mdist     Err        Err        Err      Quality

2012/08/02 15:08:02.0     47.6642   -2.7482      2.0      27    7 192  Ml 2.3  5  Md 2.1  3              bulletin    280554
                                                                                                         _ldg
      1.03   +-  0.13       2.7    1.4   37.82 +-  0.0    0.38   2.07   +-0.1      +-0.1                 m i ke

FRANCE
Sta     Dist  EvAz     Phase      Date       Time     TRes  Azim  AzRes  Slow  SRes Def   SNR       Amp   Per   Mag1   Mag2       ID
QUIF  000.38 312.1 m E Pg      2012/08/02 15:08:09.0  -0.2                          T                                        5037916
QUIF  000.38 312.1 m E Sg      2012/08/02 15:08:13.9  -0.4                          T               21.4  .38        Md 2.0  5037915
SGMF  000.60 012.2 m E Pg      2012/08/02 15:08:13.7   0.3                          T                                        5037914
SGMF  000.60 012.2 m E Pn      2012/08/02 15:08:15.6  -0.3                          T                                        5037909
SGMF  000.60 012.2 m E Sg      2012/08/02 15:08:21.3  -0.1                          T               14.4  .44        Md 2.2  5037913
SGMF  000.60 012.2 m E Sn      2012/08/02 15:08:25.2  -0.5                          T                                        5037910
ROSF  000.76 332.5 m E Pg      2012/08/02 15:08:16.2  -0.1                          T                                        5037912
ROSF  000.76 332.5 m E Sg      2012/08/02 15:08:25.9  -0.3                          T                4.9  .20        Md 2.1  5037911
GRR   001.46 059.6 m E Pn      2012/08/02 15:08:27.5  -0.1                          T                                        5037900
GRR   001.46 059.6 m E Pg      2012/08/02 15:08:29.2   0.0                          T                                        5037901
GRR   001.46 059.6 m E Sg      2012/08/02 15:08:48.1   0.0                          T                3.9  .16 Ml 2.3         5037902
FLN   001.87 053.2 m E Pn      2012/08/02 15:08:33.5   0.2 233.3  -1.6              T                                        5037899
FLN   001.87 053.2 m E Pg      2012/08/02 15:08:36.1  -0.7 235.8  0.9               T                                        5037917
FLN   001.87 053.2 m E Sn      2012/08/02 15:08:56.2   0.1                          T                                        5037903
FLN   001.87 053.2 m E Sg      2012/08/02 15:09:00.2  -0.7                          T                2.3  .18 Ml 2.1         5037898
LDF   001.99 061.2 m E Pn      2012/08/02 15:08:34.8  -0.1                          T                                        5037906
LDF   001.99 061.2 m E Pg      2012/08/02 15:08:39.1   0.1                          T                                        5037905
LDF   001.99 061.2 m E Sg      2012/08/02 15:09:04.2  -0.4                          T                3.2  .21 Ml 2.4         5037904
MFF   002.07 119.9 m E Pg      2012/08/02 15:08:40.6   0.2                          T                                        5037908
MFF   002.07 119.9 m E Sg      2012/08/02 15:09:06.3  -0.8                          T                1.7  .18 Ml 2.4         5037907

.
EVENT     280452
    Date      Time       Latitude Longitude    Depth    Ndef Nsta Gap    Mag1  N    Mag2  N    Mag3  N   Author         ID
       rms   OT_Error      Smajor Sminor Az        Err   mdist  Mdist     Err        Err        Err      Quality

2012/08/02 15:59:29.6     44.9292    6.6066      2.0      20    9 139  Ml 1.5  4  Md 1.5  1              bulletin    280552
                                                                                                         _ldg
      0.20   +-  0.05       1.2     .9   81.02 +-  0.0    0.23   1.60   +-0.2      +-                    m i ke

FRANCE
Sta     Dist  EvAz     Phase      Date       Time     TRes  Azim  AzRes  Slow  SRes Def   SNR       Amp   Per   Mag1   Mag2       ID
MBDF  000.23 149.8 m E Pg      2012/08/02 15:59:34.3  -0.2                          T                                        5037890
MBDF  000.23 149.8 m E Sg      2012/08/02 15:59:37.9   0.2                          T               10.3  .20        Md 1.5  5037889
ORIF  000.52 269.0 m E Pg      2012/08/02 15:59:39.6   0.0                          T                                        5037888
ORIF  000.52 269.0 m E Sg      2012/08/02 15:59:46.4   0.0                          T                5.0  .32                5037885
LPG   000.58 010.2 m E Pg      2012/08/02 15:59:41.0   0.1                          T                                        5037887
LPG   000.58 010.2 m E Sg      2012/08/02 15:59:48.1  -0.4                          T                2.7  .30                5037886
LPL   000.59 008.6 m E Pg      2012/08/02 15:59:41.3   0.1                          T                                        5037874
LPL   000.59 008.6 m E Sg      2012/08/02 15:59:48.7  -0.2                          T                1.1  .22                5037873
SMRF  001.21 218.1 m E Pg      2012/08/02 15:59:52.3   0.1                          T                                        5037882
SMRF  001.21 218.1 m E Sg      2012/08/02 16:00:07.5  -0.3                          T                 .9  .21 Ml 1.5         5037881
SBF   001.22 150.6 m E Pg      2012/08/02 15:59:52.3  -0.2                          T                                        5037876
SBF   001.22 150.6 m E Sg      2012/08/02 16:00:08.0  -0.3                          T                1.3  .21 Ml 1.7         5037875
FRF   001.37 178.8 m E Pn      2012/08/02 15:59:54.5   0.4                          T                                        5037880
FRF   001.37 178.8 m E Sn      2012/08/02 16:00:11.6  -0.1                          T                 .8  .23 Ml 1.5         5037879
VIVF  001.38 267.6 m E Pn      2012/08/02 15:59:55.1   0.9                          T                                        5037884
VIVF  001.38 267.6 m E Sn      2012/08/02 16:00:11.9   0.0                          T                 .7  .29 Ml 1.3         5037883
LMR   001.60 182.6 m E Pg      2012/08/02 15:59:59.3   0.0                          T                                        5037878
LMR   001.60 182.6 m E Sg      2012/08/02 16:00:20.0   0.1                          T                                        5037877

.
EVENT     280456
    Date      Time       Latitude Longitude    Depth    Ndef Nsta Gap    Mag1  N    Mag2  N    Mag3  N   Author         ID
       rms   OT_Error      Smajor Sminor Az        Err   mdist  Mdist     Err        Err        Err      Quality

2012/08/02 18:14:46.0     42.5043    1.7441      5.0 f    26    5 067  Ml 1.9  6  Md 2.0  2              bulletin    280556
                                                                                                         _ldg
      0.36   +-  0.06       1.3    1.0  145.19 +-  0.0    0.17   2.43   +-0.1      +-0.1                 m i ke

PYRENEES
Sta     Dist  EvAz     Phase      Date       Time     TRes  Azim  AzRes  Slow  SRes Def   SNR       Amp   Per   Mag1   Mag2       ID
MTLF  000.91 022.4 m E Pg      2012/08/02 18:15:03.1   0.0                          T                                        5037975
MTLF  000.91 022.4 m E Pn      2012/08/02 18:15:03.8   0.0                          T                                        5037963
MTLF  000.91 022.4 m E Sg      2012/08/02 18:15:14.6  -0.2                          T                2.0  .20 Ml 1.8 Md 2.0  5037972
EPF   001.16 297.4 m E Pg      2012/08/02 18:15:07.7  -0.1                          T                                        5037974
EPF   001.16 297.4 m E Sg      2012/08/02 18:15:22.3  -0.5                          T                2.1  .31 Ml 1.7 Md 2.1  5037971
ETSF  001.74 283.8 m E Pg      2012/08/02 18:15:18.2  -0.3                          T                                        5037973
ETSF  001.74 283.8 m E Sg      2012/08/02 18:15:41.2   0.1                          T                2.1  .23 Ml 2.1         5037962
LASF  002.20 043.8 m E Pn      2012/08/02 18:15:21.9   0.4                          T                                        5037970
LASF  002.20 043.8 m E Pg      2012/08/02 18:15:27.4   0.5                          T                                        5037969
LASF  002.20 043.8 m E Sg      2012/08/02 18:15:55.0  -0.3                          T                 .8  .19 Ml 1.9         5037968
CAF   002.43 005.4 m E Pn      2012/08/02 18:15:24.8   0.2                          T                                        5037966
CAF   002.43 005.4 m E Pg      2012/08/02 18:15:31.0  -0.2                          T                                        5037967
CAF   002.43 005.4 m E Sn      2012/08/02 18:15:53.3   0.3                          T                                        5037965
CAF   002.43 005.4 m E Sg      2012/08/02 18:16:02.3  -0.2                          T                 .9  .18 Ml 2.0         5037964

.
EVENT     280498
    Date      Time       Latitude Longitude    Depth    Ndef Nsta Gap    Mag1  N    Mag2  N    Mag3  N   Author         ID
       rms   OT_Error      Smajor Sminor Az        Err   mdist  Mdist     Err        Err        Err      Quality

2012/08/02 18:23:26.9     42.7489    -.7096     15.0       6    3 244             Md 1.4  3              bulletin    280598
                                                                                                         _ldg
      0.09   +-  0.18       4.9    1.2    8.94 +-  0.0    0.19   0.82              +-0.0                 m i ke

PYRENEES
Sta     Dist  EvAz     Phase      Date       Time     TRes  Azim  AzRes  Slow  SRes Def   SNR       Amp   Per   Mag1   Mag2       ID
ETSF  000.19 036.4 m E Pg      2012/08/02 18:23:31.4  -0.1                          T                                        5038560
ETSF  000.19 036.4 m E Sg      2012/08/02 18:23:34.8   0.2                          T                3.3  .22        Md 1.4  5038559
SJPF  000.53 314.1 m E Pg      2012/08/02 18:23:37.3   0.0                          T                                        5038556
SJPF  000.53 314.1 m E Sg      2012/08/02 18:23:44.4   0.0                          T                 .6  .21        Md 1.4  5038555
EPF   000.82 069.6 m E Pg      2012/08/02 18:23:42.7   0.1                          T                                        5038558
EPF   000.82 069.6 m E Sg      2012/08/02 18:23:53.4   0.0                          T                 .6  .23        Md 1.5  5038557

.
EVENT     280572
    Date      Time       Latitude Longitude    Depth    Ndef Nsta Gap    Mag1  N    Mag2  N    Mag3  N   Author         ID
       rms   OT_Error      Smajor Sminor Az        Err   mdist  Mdist     Err        Err        Err      Quality

2012/08/02 19:08:29.1     42.4900    1.7592      5.0 f    17    4 067  Ml 1.4  4  Md 1.8  2              bulletin    280672
                                                                                                         _ldg
      0.36   +-  0.07       1.6    1.1  178.76 +-  0.0    0.16   2.20   +-0.2      +-0.1                 m i ke

PYRENEES
Sta     Dist  EvAz     Phase      Date       Time     TRes  Azim  AzRes  Slow  SRes Def   SNR       Amp   Per   Mag1   Mag2       ID
MTLF  000.91 021.4 m E Pg      2012/08/02 19:08:46.3  -0.1                          T                                        5041152
MTLF  000.91 021.4 m E Sg      2012/08/02 19:08:58.2   0.0                          T                 .4  .15 Ml 1.2 Md 1.8  5041151
EPF   001.18 297.8 m E Pg      2012/08/02 19:08:51.0  -0.2                          T                                        5041150
EPF   001.18 297.8 m E Sg      2012/08/02 19:09:06.3  -0.2                          T                 .5  .22 Ml 1.3 Md 1.9  5041149
ETSF  001.76 284.2 m E Pn      2012/08/02 19:08:59.1   0.5                          T                                        5041148
ETSF  001.76 284.2 m E Sn      2012/08/02 19:09:20.7   0.7                          T                 .3  .17 Ml 1.5         5041147
LASF  002.20 043.3 m E Pn      2012/08/02 19:09:04.9   0.3                          T                                        5041146
LASF  002.20 043.3 m E Sn      2012/08/02 19:09:31.2   0.5                          T                 .4  .20 Ml 1.6         5041145

.
EVENT     280499
    Date      Time       Latitude Longitude    Depth    Ndef Nsta Gap    Mag1  N    Mag2  N    Mag3  N   Author         ID
       rms   OT_Error      Smajor Sminor Az        Err   mdist  Mdist     Err        Err        Err      Quality

2012/08/02 19:31:03.2     44.7501    6.6380      2.0       6    4 107             Md 1.8  2              bulletin    280599
                                                                                                         _ldg
      0.64   +-  0.38      11.6    8.2   30.67 +-  0.0    0.10   1.19              +-0.1                 m i ke

FRANCE
Sta     Dist  EvAz     Phase      Date       Time     TRes  Azim  AzRes  Slow  SRes Def   SNR       Amp   Per   Mag1   Mag2       ID
MBDF  000.10 103.7 m E Pg      2012/08/02 19:31:04.9  -0.7                          T                                        5038314
MBDF  000.10 103.7 m E Sg      2012/08/02 19:31:06.8  -0.3                          T                5.7  .20        Md 1.7  5038313
ORIF  000.56 287.6 m E Pg      2012/08/02 19:31:13.6  -0.5                          T                                        5038310
ORIF  000.56 287.6 m E Sg      2012/08/02 19:31:20.8  -0.7                          T                                Md 1.8  5038312
LPL   000.77 005.0 m E Pg      2012/08/02 19:31:18.8   0.7                          T                                        5038311
FRF   001.19 179.7 m E Pg      2012/08/02 19:31:26.2   0.7                          T                                        5038309

.
EVENT     280458
    Date      Time       Latitude Longitude    Depth    Ndef Nsta Gap    Mag1  N    Mag2  N    Mag3  N   Author         ID
       rms   OT_Error      Smajor Sminor Az        Err   mdist  Mdist     Err        Err        Err      Quality

2012/08/02 19:32:24.8     44.5598    7.0226      2.0      48   11 071  Ml 2.1 10  Md 2.2  2              bulletin    280558
                                                                                                         _ldg
      0.31   +-  0.04       1.1     .7   56.90 +-  0.0    0.17   2.47   +-0.2      +-0.1                 m i ke

NORTHERN ITALY
Sta     Dist  EvAz     Phase      Date       Time     TRes  Azim  AzRes  Slow  SRes Def   SNR       Amp   Per   Mag1   Mag2       ID
MBDF  000.25 313.1 m E Pg      2012/08/02 19:32:29.8   0.0                          T                                        5038131
MBDF  000.25 313.1 m E Sg      2012/08/02 19:32:33.1  -0.2                          T               73.0  .19        Md 2.1  5038123
SBF   000.76 156.8 m E Pg      2012/08/02 19:32:39.4   0.2                          T                                        5038124
SBF   000.76 156.8 m E Sg      2012/08/02 19:32:48.9  -0.2                          T                9.1  .20        Md 2.2  5038116
ORIF  000.89 294.2 m E Pg      2012/08/02 19:32:41.6  -0.1                          T                                        5038130
ORIF  000.89 294.2 m E Sg      2012/08/02 19:32:53.0  -0.2                          T                5.4  .22 Ml 2.2         5038122
LPG   000.96 348.5 m E Pg      2012/08/02 19:32:43.1   0.0                          T                                        5038128
LPG   000.96 348.5 m E Sg      2012/08/02 19:32:55.4  -0.1                          T                2.3  .20 Ml 1.9         5038120
LPL   000.98 348.0 m E Pg      2012/08/02 19:32:43.5   0.1                          T                                        5038129
LPL   000.98 348.0 m E Sg      2012/08/02 19:32:55.8  -0.4                          T                3.8  .26 Ml 2.0         5038121
FRF   001.03 195.3 m E Pg      2012/08/02 19:32:44.1  -0.1                          T                                        5038126
FRF   001.03 195.3 m E Sg      2012/08/02 19:32:57.5  -0.1                          T                7.1  .20 Ml 2.4         5038118
SMRF  001.19 241.2 m E Pg      2012/08/02 19:32:48.2   1.1                          T                                        5038127
SMRF  001.19 241.2 m E Sg      2012/08/02 19:33:02.7   0.1                          T                4.0  .26 Ml 2.1         5038119
LMR   001.28 197.0 m E Pn      2012/08/02 19:32:49.2   1.2                          T                                        5038125
LMR   001.28 197.0 m E Sn      2012/08/02 19:33:04.9   0.1                          T                7.4  .20 Ml 2.5         5038117
VIVF  001.70 280.8 m E Pn      2012/08/02 19:32:53.8  -0.1                          T                                        5038137
VIVF  001.70 280.8 m E Sn      2012/08/02 19:33:14.7  -0.1                          T                1.1  .29 Ml 1.7         5038135
LASF  002.32 259.1 m E Pn      2012/08/02 19:33:02.3   0.0                          T                                        5038136
LASF  002.32 259.1 m E Sn      2012/08/02 19:33:29.6  -0.1                          T                1.7  .29 Ml 2.1         5038134
PGF   002.47 143.8 m E Pn      2012/08/02 19:33:05.0   0.6                          T                                        5038139
PGF   002.47 143.8 m E Sn      2012/08/02 19:33:34.4   1.0                          T                 .9  .23 Ml 2.1         5038138

.
EVENT     280459
    Date      Time       Latitude Longitude    Depth    Ndef Nsta Gap    Mag1  N    Mag2  N    Mag3  N   Author         ID
       rms   OT_Error      Smajor Sminor Az        Err   mdist  Mdist     Err        Err        Err      Quality

2012/08/02 20:07:19.7     43.1169    -.3053      2.0      20    4 165  Ml 1.7  2  Md 1.6  3              bulletin    280559
                                                                                                         _ldg
      0.73   +-  0.17       4.7    2.0    1.89 +-  0.0    0.29   2.04   +-0.1      +-0.1                 m i ke

PYRENEES
Sta     Dist  EvAz     Phase      Date       Time     TRes  Azim  AzRes  Slow  SRes Def   SNR       Amp   Per   Mag1   Mag2       ID
ETSF  000.29 220.6 m E Pg      2012/08/02 20:07:24.9  -0.5                          T                                        5038160
ETSF  000.29 220.6 m E Sg      2012/08/02 20:07:29.0  -0.3                          T                4.1  .18        Md 1.5  5038157
EPF   000.48 100.2 m E Pg      2012/08/02 20:07:29.4   0.5                          T                                        5038159
EPF   000.48 100.2 m E Sg      2012/08/02 20:07:35.6   0.3                          T                2.4  .18        Md 1.7  5038156
SJPF  000.67 270.0 m E Pg      2012/08/02 20:07:32.3  -0.2                          T                                        5038163
SJPF  000.67 270.0 m E Sg      2012/08/02 20:07:41.3   0.0                          T                1.6  .26        Md 1.7  5038164
MTLF  001.86 082.2 m E Pn      2012/08/02 20:07:49.0  -0.8                          T                                        5038162
MTLF  001.86 082.2 m E Sg      2012/08/02 20:08:17.4  -0.7                          T                 .7  .24 Ml 1.6         5038485

.
