EVENT     285527
    Date      Time       Latitude Longitude    Depth    Ndef Nsta Gap    Mag1  N    Mag2  N    Mag3  N   Author         ID
       rms   OT_Error      Smajor Sminor Az        Err   mdist  Mdist     Err        Err        Err      Quality

2012/10/19 21:25:58.3     47.8620    7.5728     10.0       9    4 093  Ml 1.6  1  Md 1.6  2              bulletin    285627
                                                                                                         _ldg
      0.17   +-  0.04        .9     .6   17.38 +-  0.0    0.18   1.80   +-         +-0.0                 m i ke

SWITZERLAND
Sta     Dist  EvAz     Phase      Date       Time     TRes  Azim  AzRes  Slow  SRes Def   SNR       Amp   Per   Mag1   Mag2       ID
HINF  000.49 264.9 m E Pg      2012/10/19 21:26:07.9   0.1                          T                                        5102211
HINF  000.49 264.9 m E Sg      2012/10/19 21:26:14.1  -0.2                          T                1.1  .25        Md 1.5  5102210
CDF   000.59 340.3 m E Pg      2012/10/19 21:26:09.7   0.1                          T                                        5102212
CDF   000.59 340.3 m E Sg      2012/10/19 21:26:17.3  -0.1                          T                 .4  .17        Md 1.6  5102213
SFTF  001.74 282.3 m E Pn      2012/10/19 21:26:26.9   0.1                          T                                        5102209
SFTF  001.74 282.3 m E Sg      2012/10/19 21:26:52.7  -0.3                          T                 .6  .23 Ml 1.6         5115675
MEZF  001.80 291.7 m E Pn      2012/10/19 21:26:27.6  -0.1                          T                                        5102208

.
EVENT     285468
    Date      Time       Latitude Longitude    Depth    Ndef Nsta Gap    Mag1  N    Mag2  N    Mag3  N   Author         ID
       rms   OT_Error      Smajor Sminor Az        Err   mdist  Mdist     Err        Err        Err      Quality

2012/10/20 02:01:57.1     44.5350    6.6760      2.0      24    8 069  Ml 1.4  5  Md 1.8  2              bulletin    285568
                                                                                                         _ldg
      0.68   +-  0.09       2.1    1.6   72.79 +-  0.0    0.11   1.21   +-0.3      +-0.0                 m i ke

FRANCE
Sta     Dist  EvAz     Phase      Date       Time     TRes  Azim  AzRes  Slow  SRes Def   SNR       Amp   Per   Mag1   Mag2       ID
MBDF  000.20 019.5 m E Pg      2012/10/20 02:02:01.4   0.0                          T                                        5101550
MBDF  000.20 019.5 m E Sg      2012/10/20 02:02:04.1  -0.1                          T                2.7  .26        Md 1.8  5101547
ORIF  000.68 304.3 m E Pg      2012/10/20 02:02:09.7  -0.4                          T                                        5101549
ORIF  000.68 304.3 m E Sg      2012/10/20 02:02:19.1  -0.1                          T                 .7  .19                5101548
SBF   000.87 140.6 m E Pg      2012/10/20 02:02:13.7   0.3                          T                                        5101537
SBF   000.87 140.6 m E Sg      2012/10/20 02:02:24.5  -0.3                          T                1.2  .22 Ml 1.5 Md 1.8  5101536
LPL   000.98 002.3 m E Pg      2012/10/20 02:02:15.6  -0.2                          T                                        5101546
LPL   000.98 002.3 m E Sg      2012/10/20 02:02:28.2  -0.3                          T                 .4  .20 Ml 1.1         5101543
SMRF  000.97 235.1 m E Pg      2012/10/20 02:02:15.7   0.4                          T                                        5101545
SMRF  000.97 235.1 m E Sg      2012/10/20 02:02:28.3   0.4                          T                1.2  .38 Ml 1.3         5101541
LPG   000.96 003.2 m E Pg      2012/10/20 02:02:15.8   0.3                          T                                        5101542
LPG   000.96 003.2 m E Sg      2012/10/20 02:02:27.9  -0.2                          T                                        5101533
FRF   000.97 181.2 m E Pg      2012/10/20 02:02:16.6   1.2                          T                                        5101544
FRF   000.97 181.2 m E Sg      2012/10/20 02:02:28.5   0.5                          T                2.0  .25 Ml 1.7         5101540
LMR   001.21 185.8 m E Pn      2012/10/20 02:02:19.5   0.2                          T                                        5101539
LMR   001.21 185.8 m E Sg      2012/10/20 02:02:35.6   0.4                          T                 .7  .26 Ml 1.4         5101538

.
EVENT     285467
    Date      Time       Latitude Longitude    Depth    Ndef Nsta Gap    Mag1  N    Mag2  N    Mag3  N   Author         ID
       rms   OT_Error      Smajor Sminor Az        Err   mdist  Mdist     Err        Err        Err      Quality

2012/10/20 03:33:55.1     45.9872    7.4986      2.0      30    6 064  Ml 1.6  5  Md 1.9  2              bulletin    285567
                                                                                                         _ldg
      0.22   +-  0.04        .9     .7  123.35 +-  0.0    0.11   2.43   +-0.2      +-0.2                 m i ke

NORTHERN ITALY
Sta     Dist  EvAz     Phase      Date       Time     TRes  Azim  AzRes  Slow  SRes Def   SNR       Amp   Per   Mag1   Mag2       ID
LPL   000.71 229.0 m E Pg      2012/10/20 03:34:08.9   0.0                          T                                        5101563
LPL   000.71 229.0 m E Sg      2012/10/20 03:34:17.5  -0.7                          T                1.7  .26        Md 2.1  5101556
CABF  001.16 303.0 m E Pg      2012/10/20 03:34:16.7  -0.3                          T                                        5115679
CABF  001.16 303.0 m E P       2012/10/20 03:34:18.3  -0.2                          T                                        5101561
CABF  001.16 303.0 m E Sg      2012/10/20 03:34:32.2   0.2                          T                 .7  .23 Ml 1.4         5101560
MBDF  001.36 202.4 m E Pg      2012/10/20 03:34:21.0   0.3                          T                                        5115677
MBDF  001.36 202.4 m E Sg      2012/10/20 03:34:38.5   0.1                          T                1.6  .31 Ml 1.7 Md 1.8  5101555
ORIF  001.56 227.4 m E Pg      2012/10/20 03:34:24.1  -0.2                          T                                        5115676
ORIF  001.56 227.4 m E Sg      2012/10/20 03:34:44.9   0.4                          T                 .5  .23 Ml 1.4         5101553
HINF  001.88 346.6 m E Pn      2012/10/20 03:34:26.5  -0.2                          T                                        5101559
HINF  001.88 346.6 m E Pg      2012/10/20 03:34:30.2   0.0                          T                                        5115678
HINF  001.88 346.6 m E Sg      2012/10/20 03:34:54.6   0.1                          T                1.1  .27 Ml 1.8         5101558
CDF   002.43 356.5 m E Pn      2012/10/20 03:34:33.3  -0.9                          T                                        5101552
CDF   002.43 356.5 m E Sn      2012/10/20 03:35:01.6  -1.1                          T                 .6  .29 Ml 1.7         5101551

.
EVENT     285469
    Date      Time       Latitude Longitude    Depth    Ndef Nsta Gap    Mag1  N    Mag2  N    Mag3  N   Author         ID
       rms   OT_Error      Smajor Sminor Az        Err   mdist  Mdist     Err        Err        Err      Quality

2012/10/20 06:40:49.6     44.6698    7.2472     10.0 f    17    7 193  Ml 1.4  6  Md 1.5  2              bulletin    285569
                                                                                                         _ldg
      0.37   +-  0.16       3.6    1.8   73.75 +-  0.0    0.34   1.44   +-0.3      +-0.0                 m i ke

NORTHERN ITALY
Sta     Dist  EvAz     Phase      Date       Time     TRes  Azim  AzRes  Slow  SRes Def   SNR       Amp   Per   Mag1   Mag2       ID
MBDF  000.34 279.7 m E Pg      2012/10/20 06:40:56.5  -0.1                          T                                        5101656
MBDF  000.34 279.7 m E Sg      2012/10/20 06:41:01.5   0.1                          T                5.3  .30        Md 1.5  5101655
SBF   000.82 170.4 m E Pg      2012/10/20 06:41:04.7  -0.4                          T                                        5101644
SBF   000.82 170.4 m E Pn      2012/10/20 06:41:06.2   0.5                          T                                        5101640
SBF   000.82 170.4 m E Sg      2012/10/20 06:41:15.1  -0.8                          T                 .7  .14        Md 1.6  5101643
LPG   000.90 337.2 m E Pg      2012/10/20 06:41:06.9   0.0                          T                                        5101652
LPG   000.90 337.2 m E Sg      2012/10/20 06:41:18.7   0.1                          T                1.3  .24 Ml 1.5         5101651
LPL   000.92 336.9 m E Pg      2012/10/20 06:41:07.0  -0.2                          T                                        5101654
LPL   000.92 336.9 m E Sg      2012/10/20 06:41:19.4   0.2                          T                  1  .20 Ml 1.5         5101653
ORIF  001.00 284.8 m E Pg      2012/10/20 06:41:08.7   0.1                          T                                        5101647
ORIF  001.00 284.8 m E Sg      2012/10/20 06:41:21.9   0.2                          T                 .5  .26 Ml 1.1         5101646
FRF   001.19 201.5 m E Pg      2012/10/20 06:41:11.5  -0.4                          T                                        5101650
FRF   001.19 201.5 m E Sg      2012/10/20 06:41:27.1  -0.3                          T                1.4  .21 Ml 1.8         5101649
LMR   001.44 202.0 m E Pn      2012/10/20 06:41:14.7   0.7                          T                                        5101645
LMR   001.44 202.0 m E Sn      2012/10/20 06:41:33.0   1.1                          T                1.8  .34 Ml 1.8         5101648

.
EVENT     285470
    Date      Time       Latitude Longitude    Depth    Ndef Nsta Gap    Mag1  N    Mag2  N    Mag3  N   Author         ID
       rms   OT_Error      Smajor Sminor Az        Err   mdist  Mdist     Err        Err        Err      Quality

2012/10/20 07:37:46.4     44.6260    7.2325     13.0 f    34    8 125  Ml 1.8  7  Md 2.0  3              bulletin    285570
                                                                                                         _ldg
      0.62   +-  0.09       2.2    1.2   73.34 +-  0.0    0.12   1.39   +-0.2      +-0.3                 m i ke

NORTHERN ITALY
Sta     Dist  EvAz     Phase      Date       Time     TRes  Azim  AzRes  Slow  SRes Def   SNR       Amp   Per   Mag1   Mag2       ID
MBDF  000.34 287.2 m E Pg      2012/10/20 07:37:53.7   0.1                          T                                        5101673
MBDF  000.34 287.2 m E Sg      2012/10/20 07:37:58.1  -0.3                          T               11.8  .20        Md 1.7  5101672
SBF   000.78 169.1 m E Pg      2012/10/20 07:38:02.2   0.9                          T                                        5101660
SBF   000.78 169.1 m E Sg      2012/10/20 07:38:12.5   1.0                          T                3.0  .21        Md 1.9  5101659
LPG   000.94 338.8 m E Pg      2012/10/20 07:38:05.1   0.6                          T                                        5101670
LPG   000.94 338.8 m E Sg      2012/10/20 07:38:17.2   0.5                          T                3.8  .44 Ml 1.7         5101665
ORIF  001.01 287.4 m E Pg      2012/10/20 07:38:05.5   0.0                          T                                        5101668
ORIF  001.01 287.4 m E Sg      2012/10/20 07:38:17.8  -0.8                          T                1.4  .27 Ml 1.5         5101667
LPL   000.96 338.5 m E Pg      2012/10/20 07:38:05.5   0.7                          T                                        5101669
LPL   000.96 338.5 m E Sg      2012/10/20 07:38:17.9   0.6                          T                2.5  .24 Ml 1.8         5101666
FRF   001.15 201.8 m E Pg      2012/10/20 07:38:08.1   0.2                          T                                        5101671
FRF   001.15 201.8 m E Sg      2012/10/20 07:38:23.0   0.1                          T                2.4  .20 Ml 2.0 Md 2.2  5101664
LMR   001.39 202.3 m E Pg      2012/10/20 07:38:12.3  -0.2                          T                                        5115682
LMR   001.39 202.3 m E Sg      2012/10/20 07:38:30.8   0.2                          T                2.8  .26 Ml 2.0         5101661
SMRF  001.36 241.9 m E Sg      2012/10/20 07:38:29.6   0.1                          T                1.5  .25 Ml 1.8         5115681

.
EVENT     285471
    Date      Time       Latitude Longitude    Depth    Ndef Nsta Gap    Mag1  N    Mag2  N    Mag3  N   Author         ID
       rms   OT_Error      Smajor Sminor Az        Err   mdist  Mdist     Err        Err        Err      Quality

2012/10/20 19:20:43.7     44.8779    6.6338      2.0      12    5 139  Ml 1.3  1  Md 1.4  2              bulletin    285571
                                                                                                         _ldg
      0.45   +-  0.04        .9     .7   64.24 +-  0.0    0.18   1.17   +-         +-0.1                 m i ke

FRANCE
Sta     Dist  EvAz     Phase      Date       Time     TRes  Azim  AzRes  Slow  SRes Def   SNR       Amp   Per   Mag1   Mag2       ID
MBDF  000.18 147.0 m E Pg      2012/10/20 19:20:47.5   0.0                          T                                        5101686
MBDF  000.18 147.0 m E Sg      2012/10/20 19:20:50.1   0.0                          T                5.2  .17        Md 1.4  5101685
ORIF  000.54 274.6 m E Pg      2012/10/20 19:20:54.1   0.1                          T                                        5101679
ORIF  000.54 274.6 m E Sg      2012/10/20 19:21:01.0  -0.1                          T                1.3  .21        Md 1.5  5101684
LPG   000.63 007.6 m E Pg      2012/10/20 19:20:55.8  -0.1                          T                                        5101681
LPG   000.63 007.6 m E Sg      2012/10/20 19:21:04.1   0.0                          T                1.1  .23                5101682
LPL   000.64 006.2 m E Pg      2012/10/20 19:20:56.0  -0.1                          T                                        5101680
LPL   000.64 006.2 m E Sg      2012/10/20 19:21:04.6   0.1                          T                 .5  .18                5101683
SBF   001.17 150.2 m E Pg      2012/10/20 19:21:05.6   0.1                          T                                        5109354
SBF   001.17 150.2 m E Sg      2012/10/20 19:21:20.6  -0.1                          T                 .4  .17 Ml 1.3         5109355

.
EVENT     285476
    Date      Time       Latitude Longitude    Depth    Ndef Nsta Gap    Mag1  N    Mag2  N    Mag3  N   Author         ID
       rms   OT_Error      Smajor Sminor Az        Err   mdist  Mdist     Err        Err        Err      Quality

2012/10/20 19:59:31.5     44.6473    7.2233     16.0 f    33    7 123  Ml 1.4  6  Md 1.5  2              bulletin    285576
                                                                                                         _ldg
      0.34   +-  0.06       1.5     .9   68.76 +-  0.0    0.14   1.41   +-0.2      +-0.1                 m i ke

NORTHERN ITALY
Sta     Dist  EvAz     Phase      Date       Time     TRes  Azim  AzRes  Slow  SRes Def   SNR       Amp   Per   Mag1   Mag2       ID
MBDF  000.33 284.0 m E Pg      2012/10/20 19:59:38.8   0.2                          T                                        5101791
MBDF  000.33 284.0 m E Sg      2012/10/20 19:59:42.8  -0.6                          T                7.6  .22        Md 1.4  5101790
SBF   000.80 168.9 m E Pg      2012/10/20 19:59:47.2   0.3                          T                                        5101781
SBF   000.80 168.9 m E Sg      2012/10/20 19:59:58.4   1.0                          T                 .7  .17        Md 1.6  5101780
LPL   000.94 338.4 m E Pg      2012/10/20 19:59:49.7   0.2                          T                                        5101789
LPL   000.94 338.4 m E Sg      2012/10/20 20:00:02.0   0.1                          T                1.3  .29 Ml 1.4         5101788
ORIF  000.99 286.3 m E Pg      2012/10/20 19:59:50.6   0.2                          T                                        5101787
ORIF  000.99 286.3 m E Sg      2012/10/20 20:00:03.0  -0.4                          T                1.2  .34 Ml 1.3         5101786
FRF   001.16 201.1 m E Pn      2012/10/20 19:59:53.4   1.8                          T                                        5101785
FRF   001.16 201.1 m E Sg      2012/10/20 20:00:08.9   0.3                          T                 .8  .21 Ml 1.5         5101784
SMRF  001.36 241.0 m E Pn      2012/10/20 19:59:55.8   1.4                          T                                        5101779
SMRF  001.36 241.0 m E Sg      2012/10/20 20:00:15.0   0.2                          T                 .5  .25 Ml 1.3         5115692
LMR   001.41 201.7 m E Pn      2012/10/20 19:59:56.7   1.8                          T                                        5101783
LMR   001.41 201.7 m E Sg      2012/10/20 20:00:16.5   0.3                          T                 .9  .20 Ml 1.7         5101782

.
