EVENT     294881
    Date      Time       Latitude Longitude    Depth    Ndef Nsta Gap    Mag1  N    Mag2  N    Mag3  N   Author         ID
       rms   OT_Error      Smajor Sminor Az        Err   mdist  Mdist     Err        Err        Err      Quality

2013/03/28 02:32:29.9     44.7623    7.6603     26.0      33    7 135                                    bulletin    294981
                                                                                                         _ldg
                                               +-         0.29   2.30                                    m i ke

NORTHERN ITALY
Sta     Dist  EvAz     Phase      Date       Time     TRes  Azim  AzRes  Slow  SRes Def   SNR       Amp   Per   Mag1   Mag2       ID
MBDF  000.63 267.1 m E Pn      2013/03/28 02:32:42.2   0.3                          T                                        5238185
MBDF  000.63 267.1 m E Sn      2013/03/28 02:32:50.8   0.5                          T                2.1  .17                5238184
SBF   000.91 190.3 m E Pg      2013/03/28 02:32:45.9   0.2                          T                                        5238189
SBF   000.91 190.3 m E Sn      2013/03/28 02:32:57.4   0.6                          T                3.3  .27                5238188
LPG   000.98 319.1 m E Pn      2013/03/28 02:32:46.9   0.2                          T                                        5238191
LPG   000.98 319.1 m E Sn      2013/03/28 02:32:58.9   0.2                          T                 .6  .23                5238190
LPL   001.00 319.3 m E P       2013/03/28 02:32:48.2  -0.5                          T                                        5238187
LPL   001.00 319.3 m E Sn      2013/03/28 02:32:59.5   0.4                          T                  1  .27                5238186
ORIF  001.28 277.6 m E Pn      2013/03/28 02:32:50.6   0.1                          T                                        5238196
ORIF  001.28 277.6 m E Sn      2013/03/28 02:33:05.9   0.4                          T                1.2  .34                5238197
FRF   001.41 211.6 m E Pn      2013/03/28 02:32:52.3   0.2                          T                                        5238195
FRF   001.41 211.6 m E Sn      2013/03/28 02:33:09.0   0.4                          T                1.3  .20                5238194
LMR   001.65 210.6 m E P       2013/03/28 02:32:57.2  -0.5                          T                                        5238193
LMR   001.65 210.6 m E Sn      2013/03/28 02:33:14.8   0.4                          T                 .5  .16                5238192

.
EVENT     294896
    Date      Time       Latitude Longitude    Depth    Ndef Nsta Gap    Mag1  N    Mag2  N    Mag3  N   Author         ID
       rms   OT_Error      Smajor Sminor Az        Err   mdist  Mdist     Err        Err        Err      Quality

2013/03/28 05:34:20.3     42.7321   -1.7467      2.0      19    3 105  Ml 1.8  2  Md 2.0  1              bulletin    294996
                                                                                                         _ldg
      0.60   +-  0.17       2.8    2.8  130.96 +-  0.0    0.13   2.55   +-0.0      +-                    m i ke

PYRENEES
Sta     Dist  EvAz     Phase      Date       Time     TRes  Azim  AzRes  Slow  SRes Def   SNR       Amp   Per   Mag1   Mag2       ID
SJPF  000.54 045.0 m E Pg      2013/03/28 05:34:30.9   0.3                          T                                        5238250
SJPF  000.54 045.0 m E Sg      2013/03/28 05:34:38.3   0.6                          T                2.9  .16        Md 2.0  5238249
ETSF  000.89 078.8 m E Pg      2013/03/28 05:34:37.5   0.4                          T                                        5238248
ETSF  000.89 078.8 m E Sg      2013/03/28 05:34:49.2   0.5                          T                2.3  .22 Ml 1.8         5238247
EPF   001.56 078.3 m E Pg      2013/03/28 05:34:49.5   0.1                          T                                        5238246
EPF   001.56 078.3 m E Sg      2013/03/28 05:35:09.7   0.1                          T                1.6  .28 Ml 1.8         5238245

.
EVENT     294909
    Date      Time       Latitude Longitude    Depth    Ndef Nsta Gap    Mag1  N    Mag2  N    Mag3  N   Author         ID
       rms   OT_Error      Smajor Sminor Az        Err   mdist  Mdist     Err        Err        Err      Quality

2013/03/28 06:53:11.2     42.7464   -1.7224      2.0       6    3 325  Ml 1.4  2  Md 1.6  1              bulletin    295009
                                                                                                         _ldg
      0.34   +-  0.71      12.4    9.9   51.06 +-  0.0    0.52   1.54   +-0.1      +-                    m i ke

PYRENEES
Sta     Dist  EvAz     Phase      Date       Time     TRes  Azim  AzRes  Slow  SRes Def   SNR       Amp   Per   Mag1   Mag2       ID
SJPF  000.52 044.7 m E Pg      2013/03/28 06:53:20.9  -0.2                          T                                        5238276
SJPF  000.52 044.7 m E Sg      2013/03/28 06:53:28.4   0.4                          T                1.4  .18        Md 1.6  5238275
ETSF  000.87 079.5 m E Pg      2013/03/28 06:53:27.6  -0.1                          T                                        5238274
ETSF  000.87 079.5 m E Sg      2013/03/28 06:53:39.3   0.3                          T                 .9  .23 Ml 1.3         5238273
EPF   001.54 078.7 m E Pg      2013/03/28 06:53:40.3   0.3                          T                                        5238272
EPF   001.54 078.7 m E Sg      2013/03/28 06:53:59.2  -0.7                          T                 .8  .31 Ml 1.5         5238271

.
EVENT     294911
    Date      Time       Latitude Longitude    Depth    Ndef Nsta Gap    Mag1  N    Mag2  N    Mag3  N   Author         ID
       rms   OT_Error      Smajor Sminor Az        Err   mdist  Mdist     Err        Err        Err      Quality

2013/03/28 08:41:23.3     47.7278    6.0603       .0 f     9    7 126  Ml 1.9  4  Md 1.7  2              bulletin    295011
                                                                                                         _ldg
      0.81   +-  0.27       4.6    3.4   26.16 +-  0.0    0.34   1.12   +-0.5      +-0.1                 m i km

FRANCE
Sta     Dist  EvAz     Phase      Date       Time     TRes  Azim  AzRes  Slow  SRes Def   SNR       Amp   Per   Mag1   Mag2       ID
HAU   000.34 034.8 m E Pg      2013/03/28 08:41:30.0  -0.2                          T                                        5238280
HAU   000.34 034.8 m E Sg      2013/03/28 08:41:34.7  -0.2                          T               15.9  .36        Md 1.7  5238281
HINF  000.54 080.3 m E Pg      2013/03/28 08:41:34.1   0.1                          T                                        5238477
HINF  000.54 080.3 m E Sg      2013/03/28 08:41:41.5   0.3                          T                7.8  .32        Md 1.8  5238278
PAGF  000.86 345.0 m E Sg      2013/03/28 08:41:50.0  -1.0 161.3  -3.5              T               13.6  .48 Ml 2.2         5243272
SFTF  000.84 305.2 m E Sg      2013/03/28 08:41:51.6   1.1                          T                5.7  .30                5243270
MEZF  001.03 319.3 m E Sg      2013/03/28 08:41:56.2  -0.2 144.1  5.6               T                9.1  .29 Ml 2.3         5243273
CDF   001.06 049.5 m E Sg      2013/03/28 08:41:58.2   0.5                          T                 .9  .23 Ml 1.5         5243271
CABF  001.12 179.0 m E Sn      2013/03/28 08:41:59.7  -0.5                          T                 .9  .27 Ml 1.4         5243269

.
EVENT     294914
    Date      Time       Latitude Longitude    Depth    Ndef Nsta Gap    Mag1  N    Mag2  N    Mag3  N   Author         ID
       rms   OT_Error      Smajor Sminor Az        Err   mdist  Mdist     Err        Err        Err      Quality

2013/03/28 10:50:49.4     42.6420   -2.0542      2.0      12    6 323  Ml 2.2  4  Md 2.3  1              bulletin    295014
                                                                                                         _ldg
      0.33   +-  0.39       7.8    5.2   14.20 +-  0.0    0.77   3.76   +-0.2      +-                    m i ke

SPAIN
Sta     Dist  EvAz     Phase      Date       Time     TRes  Azim  AzRes  Slow  SRes Def   SNR       Amp   Per   Mag1   Mag2       ID
SJPF  000.77 052.0 m E Pg      2013/03/28 10:51:03.8  -0.2                          T                                        5238485
SJPF  000.77 052.0 m E Sg      2013/03/28 10:51:14.3   0.3                          T                9.3  .25        Md 2.3  5238484
ETSF  001.13 076.4 m E Pg      2013/03/28 10:51:10.6  -0.1                          T                                        5238483
ETSF  001.13 076.4 m E Sg      2013/03/28 10:51:25.8   0.5                          T                4.8  .20 Ml 2.3         5238482
EPF   001.80 076.8 m E Pg      2013/03/28 10:51:23.3   0.3                          T                                        5238481
EPF   001.80 076.8 m E Sg      2013/03/28 10:51:45.4  -0.9                          T                3.9  .19 Ml 2.5         5238480
LFF   003.06 040.4 m E Pn      2013/03/28 10:51:36.7  -0.2                          T                                        5249198
LFF   003.06 040.4 m E Pg      2013/03/28 10:51:46.5   0.4                          T                                        5249197
RJF   003.70 042.9 m E Pn      2013/03/28 10:51:45.5  -0.1                          T                                        5249199
RJF   003.70 042.9 m E Sn      2013/03/28 10:52:27.3   0.0                          T                 .9  .20 Ml 1.9         5249195
CAF   003.76 051.2 m E Pn      2013/03/28 10:51:46.4   0.0                          T                                        5249196
CAF   003.76 051.2 m E Sn      2013/03/28 10:52:27.9  -0.6                          T                1.5  .27 Ml 2.3         5249194

.
EVENT     294916
    Date      Time       Latitude Longitude    Depth    Ndef Nsta Gap    Mag1  N    Mag2  N    Mag3  N   Author         ID
       rms   OT_Error      Smajor Sminor Az        Err   mdist  Mdist     Err        Err        Err      Quality

2013/03/28 12:35:21.6     44.4145    6.5103      2.0      39    9 051  Ml 2.0  5  Md 2.1  4              bulletin    295016
                                                                                                         _ldg
      0.66   +-  0.07       1.3    1.2   89.52 +-  0.0    0.10   2.60   +-0.3      +-0.1                 m i ke

FRANCE
Sta     Dist  EvAz     Phase      Date       Time     TRes  Azim  AzRes  Slow  SRes Def   SNR       Amp   Per   Mag1   Mag2       ID
MBDF  000.36 030.8 m E Pg      2013/03/28 12:35:28.9   0.0                          T                                        5238502
MBDF  000.36 030.8 m E Sg      2013/03/28 12:35:34.0   0.3                          T                4.8  .26        Md 2.1  5238501
ORIF  000.68 318.5 m E Pg      2013/03/28 12:35:34.2  -0.4                          T                                        5238500
ORIF  000.68 318.5 m E Sg      2013/03/28 12:35:42.7  -0.7                          T                3.9  .23        Md 2.1  5238499
SMRF  000.80 237.2 m E Pg      2013/03/28 12:35:37.1   0.2                          T                                        5238498
SMRF  000.80 237.2 m E Sg      2013/03/28 12:35:47.5   0.2                          T                2.8  .21        Md 2.1  5238497
SBF   000.86 129.3 m E Pg      2013/03/28 12:35:38.0   0.0                          T                                        5244391
SBF   000.86 129.3 m E Sg      2013/03/28 12:35:49.4   0.2                          T                5.9  .26 Ml 2.1         5244390
FRF   000.86 173.4 m E Pg      2013/03/28 12:35:38.2   0.4                          T                                        5238520
FRF   000.86 173.4 m E Sg      2013/03/28 12:35:49.3   0.3                          T                5.1  .21 Ml 2.2         5238519
LMR   001.08 180.0 m E Pg      2013/03/28 12:35:41.7  -0.1                          T                                        5238522
LMR   001.08 180.0 m E Sg      2013/03/28 12:35:56.2   0.3                          T                5.6  .23 Ml 2.3         5238521
LPL   001.11 008.1 m E Pg      2013/03/28 12:35:42.8   0.0                          T                                        5238496
VIVF  001.38 289.2 m E Pg      2013/03/28 12:35:46.1  -1.4                          T                                        5238495
VIVF  001.38 289.2 m E Sg      2013/03/28 12:36:05.0  -0.4                          T                3.5  .30 Ml 2.0         5238494
PGF   002.60 135.0 m E Pn      2013/03/28 12:36:02.7  -0.3                          T                                        5244389
PGF   002.60 135.0 m E Sn      2013/03/28 12:36:32.3  -1.0                          T                 .1  .14 Ml 1.4         5244388

.
EVENT     294924
    Date      Time       Latitude Longitude    Depth    Ndef Nsta Gap    Mag1  N    Mag2  N    Mag3  N   Author         ID
       rms   OT_Error      Smajor Sminor Az        Err   mdist  Mdist     Err        Err        Err      Quality

2013/03/28 15:22:09.3     47.6896    5.3060       .0 f    28   13 082  Ml 2.4 10  Md 2.4  2              bulletin    295024
                                                                                                         _ldg
      0.89   +-  0.07       1.8    1.1  146.36 +-  0.0    0.55   2.03   +-0.2      +-0.3                 m i km

FRANCE
Sta     Dist  EvAz     Phase      Date       Time     TRes  Azim  AzRes  Slow  SRes Def   SNR       Amp   Per   Mag1   Mag2       ID
SFTF  000.55 340.9 m E Pg      2013/03/28 15:22:19.8  -0.1 162.0  1.3               T                                        5238739
SFTF  000.55 340.9 m E Sg      2013/03/28 15:22:27.1  -0.2 153.4  -7.2              T               64.2  .88        Md 2.6  5238738
HAU   000.77 065.4 m E Pg      2013/03/28 15:22:23.9  -0.2                          T                                        5238733
HAU   000.77 065.4 m E Sg      2013/03/28 15:22:34.5   0.2                          T               24.0  .42        Md 2.2  5238726
MEZF  000.83 348.3 m E Pg      2013/03/28 15:22:25.2   0.0 172.3  4.2               T                                        5238742
MEZF  000.83 348.3 m E Sg      2013/03/28 15:22:36.4   0.3 167.6  -0.5              T               17.7  .46                5238751
PAGF  000.91 017.8 m E Pg      2013/03/28 15:22:26.5  -0.1 195.7  -2.4              T                                        5238743
PAGF  000.91 017.8 m E Sg      2013/03/28 15:22:38.7   0.0 186.8  -11.3             T               22.0  .56 Ml 2.4         5238752
LOR   001.07 247.3 m E Pg      2013/03/28 15:22:29.2  -0.4  68.1  1.9               T                                        5238734
LOR   001.07 247.3 m E Sg      2013/03/28 15:22:43.3  -0.3  73.0  6.8               T               10.7  .30 Ml 2.4         5238741
HINF  001.05 082.5 m E Pg      2013/03/28 15:22:29.2  -0.1                          T                                        5238732
HINF  001.05 082.5 m E Sg      2013/03/28 15:22:43.3   0.2                          T                7.3  .32 Ml 2.2         5238731
CABF  001.20 153.4 m E Pn      2013/03/28 15:22:31.7  -0.3                          T                                        5238737
CABF  001.20 153.4 m E Sg      2013/03/28 15:22:48.1   0.2                          T                7.8  .27 Ml 2.4         5238744
SSF   001.38 243.5 m E Pn      2013/03/28 15:22:34.3   0.1                          T                                        5238729
SSF   001.38 243.5 m E Sg      2013/03/28 15:22:53.2   0.0                          T                5.6  .33 Ml 2.3         5238730
SMF   001.45 224.3 m E Pn      2013/03/28 15:22:34.9  -0.3                          T                                        5238736
SMF   001.45 224.3 m E Sg      2013/03/28 15:22:55.7   0.3                          T                8.2  .27 Ml 2.5         5238735
CDF   001.51 060.6 m E Pn      2013/03/28 15:22:36.7   0.6                          T                                        5238728
CDF   001.51 060.6 m E Sn      2013/03/28 15:22:55.2  -0.3                          T                                        5238740
CDF   001.51 060.6 m E Sg      2013/03/28 15:22:57.2  -0.2                          T                3.4  .28 Ml 2.2         5238727
AVF   001.61 236.7 m E Pn      2013/03/28 15:22:38.0   0.7                          T                                        5238746
AVF   001.61 236.7 m E Sg      2013/03/28 15:23:00.6   0.2                          T                2.5  .32 Ml 2.0         5238745
HYF   001.86 257.9 m E Pn      2013/03/28 15:22:40.2  -0.5                          T                                        5238747
HYF   001.86 257.9 m E Sg      2013/03/28 15:23:08.4   0.2                          T                                        5238749
BGF   002.03 236.9 m E Sg      2013/03/28 15:23:13.6   0.1                          T               15.2  .44 Ml 2.7         5238750

.
