EVENT     276731
    Date      Time       Latitude Longitude    Depth    Ndef Nsta Gap    Mag1  N    Mag2  N    Mag3  N   Author         ID
       rms   OT_Error      Smajor Sminor Az        Err   mdist  Mdist     Err        Err        Err      Quality

2012/05/23 23:27:16.2     44.9233   11.1823      2.0      60   12 077  Ml 3.1  5                         bulletin    276831
                                                                                                         _ldg
      0.88   +-  0.13       3.9    2.9   72.80 +-  0.0    0.17   5.61   +-0.2                            m i ke

NORTHERN ITALY
Sta     Dist  EvAz     Phase      Date       Time     TRes  Azim  AzRes  Slow  SRes Def   SNR       Amp   Per   Mag1   Mag2       ID
PGF   002.85 214.4 m E Pn      2012/05/23 23:28:01.0   0.0                          T                                        4961783
PGF   002.85 214.4 m E Sn      2012/05/23 23:28:34.1   0.2                          T               38.7  .78 Ml 3.3         4961772
SBF   002.89 249.8 m E Pn      2012/05/23 23:28:03.2   1.7                          T                                        4961782
SBF   002.89 249.8 m E Sn      2012/05/23 23:28:34.7   0.0                          T               53.3  .62 Ml 3.3         4961771
LPL   003.20 282.2 m E Pn      2012/05/23 23:28:09.0   3.1                          T                                        4961777
LPG   003.18 282.0 m E Pn      2012/05/23 23:28:09.1   3.4                          T                                        4961778
LPG   003.18 282.0 m E Sn      2012/05/23 23:28:41.9  -0.1                          T                                        4961767
FRF   003.53 248.9 m E Pn      2012/05/23 23:28:10.2   0.1                          T                                        4961780
FRF   003.53 248.9 m E Sn      2012/05/23 23:28:49.9  -0.1                          T                                        4961769
LMR   003.72 246.4 m E Pn      2012/05/23 23:28:12.1  -0.6                          T                                        4961781
LMR   003.72 246.4 m E Sn      2012/05/23 23:28:53.4  -1.1                          T               13.3  .56 Ml 3.0         4961770
ORIF  003.77 271.8 m E Pn      2012/05/23 23:28:14.6   1.2                          T                                        4961776
HINF  004.17 315.5 m E Pn      2012/05/23 23:28:19.4   0.6                          T                                        4961775
HINF  004.17 315.5 m E Sn      2012/05/23 23:29:05.1  -0.1                          T                                        4961766
SMRF  004.13 258.7 m E Pn      2012/05/23 23:28:21.3   3.1                          T                                        4961779
SMRF  004.13 258.7 m E Sn      2012/05/23 23:29:04.2  -0.1                          T                                        4961768
CDF   004.41 323.8 m E Pn      2012/05/23 23:28:22.5   0.4                          T                                        4961773
CDF   004.41 323.8 m E Sn      2012/05/23 23:29:10.8  -0.2                          T                4.2  .40 Ml 2.9         4961764
HAU   004.55 314.4 m E Pn      2012/05/23 23:28:24.1   0.1                          T                                        4961774
HAU   004.55 314.4 m E Sn      2012/05/23 23:29:13.6  -0.6                          T                                        4961765
LOR   005.61 297.3 m E Pn      2012/05/23 23:28:38.6   0.2 117.3  5.2               T                                        4961762
LOR   005.61 297.3 m E Sn      2012/05/23 23:29:39.5  -0.1                          T                2.1  .28 Ml 2.9         4961763

.
EVENT     276765
    Date      Time       Latitude Longitude    Depth    Ndef Nsta Gap    Mag1  N    Mag2  N    Mag3  N   Author         ID
       rms   OT_Error      Smajor Sminor Az        Err   mdist  Mdist     Err        Err        Err      Quality

2012/05/23 23:36:51.5     44.6659   11.7161      2.0      22    8 250  Ml 2.9  7                         bulletin    276865
                                                                                                         _ldg
      0.93   +-  0.67      15.3    7.8  104.22 +-  0.0    1.16   4.62   +-0.4                            m i ke

NORTHERN ITALY
Sta     Dist  EvAz     Phase      Date       Time     TRes  Azim  AzRes  Slow  SRes Def   SNR       Amp   Per   Mag1   Mag2       ID
PGF   002.89 223.9 m E Pn      2012/05/23 23:37:36.6  -0.2                          T                                        4963190
PGF   002.89 223.9 m E Sn      2012/05/23 23:38:10.5   0.4                          T                7.1  .29 Ml 3.0         4963189
SBF   003.18 256.9 m E Pn      2012/05/23 23:37:40.4  -0.2                          T                                        4963187
SBF   003.18 256.9 m E Sn      2012/05/23 23:38:17.6   0.8                          T                5.4  .25 Ml 2.8         4963188
LPG   003.61 285.0 m E Pn      2012/05/23 23:37:47.5   0.7                          T                                        4963179
LPG   003.61 285.0 m E Sn      2012/05/23 23:38:29.6   2.0                          T                3.2  .38 Ml 2.5         4963180
FRF   003.81 254.9 m E Pn      2012/05/23 23:37:48.6  -0.5                          T                                        4963183
FRF   003.81 254.9 m E Sn      2012/05/23 23:38:30.8  -1.2                          T                5.3  .30 Ml 2.9         4963184
LMR   003.99 252.3 m E Pn      2012/05/23 23:37:51.0  -0.5                          T                                        4963186
LMR   003.99 252.3 m E Sn      2012/05/23 23:38:34.1  -2.0                          T                5.1  .28 Ml 2.9         4963185
SMRF  004.46 263.3 m E Pn      2012/05/23 23:37:58.6   0.6                          T                                        4963182
SMRF  004.46 263.3 m E Sn      2012/05/23 23:38:49.0   1.6                          T              116.5 1.26 Ml 3.7         4963181
HINF  004.62 314.8 m E Pn      2012/05/23 23:38:00.9   0.7                          T                                        4963192
ORIF  004.16 275.5 m E Sn      2012/05/23 23:38:40.6   0.2                          T                3.5  .45 Ml 2.6         4963191

.
EVENT     276734
    Date      Time       Latitude Longitude    Depth    Ndef Nsta Gap    Mag1  N    Mag2  N    Mag3  N   Author         ID
       rms   OT_Error      Smajor Sminor Az        Err   mdist  Mdist     Err        Err        Err      Quality

2012/05/23 23:41:47.5     43.1193    -.6030      2.0      20    4 163  Ml 1.9  1  Md 1.7  2              bulletin    276834
                                                                                                         _ldg
      0.27   +-  0.08       1.9     .9    3.49 +-  0.0    0.08   2.07   +-         +-0.0                 m i ke

PYRENEES
Sta     Dist  EvAz     Phase      Date       Time     TRes  Azim  AzRes  Slow  SRes Def   SNR       Amp   Per   Mag1   Mag2       ID
ETSF  000.22 171.7 m E Pg      2012/05/23 23:41:52.2   0.2                          T                                        4961870
ETSF  000.22 171.7 m E Sg      2012/05/23 23:41:55.2   0.1                          T                6.7  .20        Md 1.7  4961869
SJPF  000.46 269.5 m E Pg      2012/05/23 23:41:56.4   0.1                          T                                        4961867
SJPF  000.46 269.5 m E Sg      2012/05/23 23:42:02.3   0.0                          T                1.8  .21        Md 1.6  4961868
EPF   000.70 097.0 m E Pg      2012/05/23 23:42:00.7  -0.1                          T                                        4961866
EPF   000.70 097.0 m E Sg      2012/05/23 23:42:09.9   0.0                          T                 .9  .22                4961865
MTLF  002.07 082.9 m E Pn      2012/05/23 23:42:21.5  -0.1                          T                                        4961864
MTLF  002.07 082.9 m E Sn      2012/05/23 23:42:46.4  -0.1                          T                                        4961863
MTLF  002.07 082.9 m E Sg      2012/05/23 23:42:52.8   0.0                          T                 .8  .17 Ml 1.9         4989888

.
EVENT     276732
    Date      Time       Latitude Longitude    Depth    Ndef Nsta Gap    Mag1  N    Mag2  N    Mag3  N   Author         ID
       rms   OT_Error      Smajor Sminor Az        Err   mdist  Mdist     Err        Err        Err      Quality

2012/05/24 00:14:21.9     44.9066   11.2411      2.0      55   19 126  Ml 3.2  8                         bulletin    276832
                                                                                                         _ldg
      1.08   +-  0.23       6.1    4.0   71.73 +-  0.0    0.27   6.49   +-0.2                            m i ke

NORTHERN ITALY
Sta     Dist  EvAz     Phase      Date       Time     TRes  Azim  AzRes  Slow  SRes Def   SNR       Amp   Per   Mag1   Mag2       ID
PGF   002.86 215.4 m E Pn      2012/05/24 00:15:06.8   0.0                          T                                        4961842
PGF   002.86 215.4 m E Sn      2012/05/24 00:15:40.1   0.3                          T                                        4961825
SBF   002.92 250.4 m E Pn      2012/05/24 00:15:07.4  -0.1                          T                                        4961841
SBF   002.92 250.4 m E Sn      2012/05/24 00:15:41.5   0.4                          T                                        4961824
MBDF  003.19 268.3 m E Pn      2012/05/24 00:15:10.8  -0.5                          T                                        4961834
MBDF  003.19 268.3 m E Sn      2012/05/24 00:15:47.3  -0.3                          T               20.1  .52 Ml 3.1         4961818
LPL   003.24 282.4 m E Pn      2012/05/24 00:15:15.0   2.9                          T                                        4961836
LPL   003.24 282.4 m E Sn      2012/05/24 00:15:49.4   0.3                          T               11.3  .40 Ml 2.9         4961819
LPG   003.23 282.1 m E Pn      2012/05/24 00:15:15.4   3.3                          T                                        4961837
LPG   003.23 282.1 m E Sn      2012/05/24 00:15:49.0   0.2                          T               15.1  .48 Ml 3.0         4961820
FRF   003.57 249.4 m E Pn      2012/05/24 00:15:16.3   0.1                          T                                        4961839
FRF   003.57 249.4 m E Sn      2012/05/24 00:15:56.2  -0.2                          T                                        4961822
LMR   003.75 246.9 m E Pn      2012/05/24 00:15:18.8   0.1                          T                                        4961840
LMR   003.75 246.9 m E Sn      2012/05/24 00:16:00.8  -0.1                          T                                        4961823
VIVF  004.67 271.7 m E Pn      2012/05/24 00:15:20.5 -10.8                          T                                        4961833
ORIF  003.81 272.1 m E Pn      2012/05/24 00:15:20.8   1.1                          T                                        4961835
HINF  004.21 315.3 m E Pn      2012/05/24 00:15:25.5   0.5                          T                                        4961826
HINF  004.21 315.3 m E Sn      2012/05/24 00:16:11.5  -0.3                          T                                        4961812
SMRF  004.16 259.1 m E Pn      2012/05/24 00:15:25.8   1.3                          T                                        4961838
SMRF  004.16 259.1 m E Sn      2012/05/24 00:16:10.8  -0.1                          T                                        4961821
CDF   004.44 323.5 m E Pn      2012/05/24 00:15:29.2   0.8                          T                                        4961829
CDF   004.44 323.5 m E Sn      2012/05/24 00:16:17.7   0.1                          T                9.0  .38 Ml 3.2         4961810
HAU   004.59 314.3 m E Pn      2012/05/24 00:15:30.9   0.7                          T                                        4961827
HAU   004.59 314.3 m E Sn      2012/05/24 00:16:20.8  -0.2                          T               18.9  .26 Ml 3.4         4961811
SMF   005.46 291.2 m E Pn      2012/05/24 00:15:42.8   0.7                          T                                        4961831
SMF   005.46 291.2 m E Sn      2012/05/24 00:16:41.8   0.0                          T                                        4961817
LOR   005.65 297.3 m E Pn      2012/05/24 00:15:45.5   0.8 117.3  5.3               T                                        4961828
LOR   005.65 297.3 m E Sn      2012/05/24 00:16:46.4   0.0                          T                5.6  .26 Ml 3.4         4961808
SSF   005.81 294.5 m E Pn      2012/05/24 00:15:46.8   0.1                          T                                        4961813
SSF   005.81 294.5 m E Sn      2012/05/24 00:16:50.2   0.2                          T                                        4961814
AVF   005.82 291.7 m E Pn      2012/05/24 00:15:47.9   0.9                          T                                        4961830
AVF   005.82 291.7 m E Sn      2012/05/24 00:16:50.6   0.1                          T                                        4961816
BGF   006.10 288.7 m E Pn      2012/05/24 00:15:53.1   2.3                          T                                        4961832
BGF   006.10 288.7 m E Sn      2012/05/24 00:16:57.2   0.1                          T               12.3  .56 Ml 3.5         4961809
TCF   006.49 285.5 m E Sn      2012/05/24 00:17:06.5   0.2                          T                2.8  .32 Ml 3.2         4961815

.
EVENT     276733
    Date      Time       Latitude Longitude    Depth    Ndef Nsta Gap    Mag1  N    Mag2  N    Mag3  N   Author         ID
       rms   OT_Error      Smajor Sminor Az        Err   mdist  Mdist     Err        Err        Err      Quality

2012/05/24 00:34:30.2     44.4841    6.6881      2.0      48    9 054  Ml 2.3  6  Md 2.5  2              bulletin    276833
                                                                                                         _ldg
      0.26   +-  0.04        .9     .7   65.48 +-  0.0    0.10   2.56   +-0.3      +-0.1                 m i ke

FRANCE
Sta     Dist  EvAz     Phase      Date       Time     TRes  Azim  AzRes  Slow  SRes Def   SNR       Amp   Per   Mag1   Mag2       ID
MBDF  000.25 013.7 m E Pg      2012/05/24 00:34:35.3   0.0                          T                                        4961862
MBDF  000.25 013.7 m E Sg      2012/05/24 00:34:38.7  -0.1                          T               56.0  .30        Md 2.4  4961856
ORIF  000.72 307.3 m E Pg      2012/05/24 00:34:43.6  -0.4                          T                                        4961861
ORIF  000.72 307.3 m E Sg      2012/05/24 00:34:53.3  -0.1                          T               14.4  .24        Md 2.5  4961855
SBF   000.82 138.9 m E Pg      2012/05/24 00:34:45.7  -0.1                          T                                        4961849
SBF   000.82 138.9 m E Sg      2012/05/24 00:34:56.9   0.5                          T                                        4961847
FRF   000.92 181.9 m E Pg      2012/05/24 00:34:47.7   0.2                          T                                        4961857
FRF   000.92 181.9 m E Sg      2012/05/24 00:35:00.0   0.4                          T               15.8  .22 Ml 2.7         4961852
SMRF  000.95 238.0 m E Pg      2012/05/24 00:34:48.2   0.1                          T                                        4961858
SMRF  000.95 238.0 m E Sg      2012/05/24 00:35:00.5   0.2                          T               12.5  .30 Ml 2.4         4961854
LPG   001.01 002.5 m E Pg      2012/05/24 00:34:49.6   0.0                          T                                        4961859
LPG   001.01 002.5 m E Sg      2012/05/24 00:35:02.8   0.0                          T                6.9  .30 Ml 2.2         4961853
LPL   001.03 001.7 m E Pg      2012/05/24 00:34:49.7  -0.1                          T                                        4961860
LPL   001.03 001.7 m E Sg      2012/05/24 00:35:03.2  -0.1                          T                4.0  .26 Ml 2.0         4961848
LMR   001.16 186.5 m E Pg      2012/05/24 00:34:51.7  -0.1                          T                                        4961850
LMR   001.16 186.5 m E Sg      2012/05/24 00:35:06.5  -0.4                          T                9.4  .20 Ml 2.6         4961851
VIVF  001.49 285.2 m E Pn      2012/05/24 00:34:56.5   0.2                          T                                        4961846
VIVF  001.49 285.2 m E Sn      2012/05/24 00:35:15.3   0.2                          T                3.8  .32 Ml 2.1         4961845

.
