EVENT     277627
    Date      Time       Latitude Longitude    Depth    Ndef Nsta Gap    Mag1  N    Mag2  N    Mag3  N   Author         ID
       rms   OT_Error      Smajor Sminor Az        Err   mdist  Mdist     Err        Err        Err      Quality

2012/06/06 07:58:17.0     54.1675  -10.6511      5.0 f    69   24 226  Ml 4.1 20                         bulletin    277736
                                                                                                         _ldg
      0.93   +-  0.33       7.5    3.2   89.91 +-  0.0    1.07  13.84   +-0.2                            m i ke

EIRE
Sta     Dist  EvAz     Phase      Date       Time     TRes  Azim  AzRes  Slow  SRes Def   SNR       Amp   Per   Mag1   Mag2       ID
ROSF  007.45 138.6 m E Pn      2012/06/06 08:00:04.4   0.5                          T                                        4988830
ROSF  007.45 138.6 m E Sn      2012/06/06 08:01:25.4   1.6                          T               26.9  .38 Ml 4.2         4988817
SGMF  007.80 136.1 m E Pn      2012/06/06 08:00:08.9   0.2                          T                                        4988829
SGMF  007.80 136.1 m E Sn      2012/06/06 08:01:33.3   1.1                          T               12.4  .32 Ml 4.0         4988816
QUIF  007.83 140.0 m E Pn      2012/06/06 08:00:09.7   0.6                          T                                        4988828
QUIF  007.83 140.0 m E Sn      2012/06/06 08:01:32.9  -0.1                          T               24.2  .40 Ml 4.2         4988815
FLN   008.34 126.3 m E Pn      2012/06/06 08:00:16.2   0.2 317.0  2.7               T                                        4988819
FLN   008.34 126.3 m E Sn      2012/06/06 08:01:44.7  -0.4 321.2  6.9               T               14.4  .34 Ml 4.0         4988805
GRR   008.43 129.4 m E Pn      2012/06/06 08:00:18.0   0.7                          T                                        4988818
GRR   008.43 129.4 m E Sn      2012/06/06 08:01:46.4  -0.9                          T               15.0  .32 Ml 4.0         4988807
LDF   008.63 126.0 m E Pn      2012/06/06 08:00:19.0  -0.9                          T                                        4988966
LDF   008.63 126.0 m E Sn      2012/06/06 08:01:51.0  -1.0                          T               15.4  .48 Ml 4.0         4988960
BAIF  010.02 108.2 m E Pn      2012/06/06 08:00:39.2   0.3                          T                                        4988968
BAIF  010.02 108.2 m E Sn      2012/06/06 08:02:25.9   0.6                          T                5.0  .44 Ml 3.8         4988971
MFF   010.11 134.3 m E Pn      2012/06/06 08:00:39.8  -0.4                          T                                        4988808
MFF   010.11 134.3 m E Sn      2012/06/06 08:02:27.2  -0.2                          T                4.9  .26 Ml 4.2         4988806
GIVF  010.34 106.9 m E Pn      2012/06/06 08:00:43.6   0.3                          T                                        4988967
TCF   011.39 128.6 m E Pn      2012/06/06 08:00:57.7   0.1                          T                                        4988812
TCF   011.39 128.6 m E Sn      2012/06/06 08:02:56.3  -1.7                          T                5.9  .30 Ml 4.3         4988810
LOR   011.49 121.0 m E Pn      2012/06/06 08:00:58.2  -0.7 302.8  -9.4              T                                        4988804
LOR   011.49 121.0 m E Sn      2012/06/06 08:02:59.8  -0.6                          T                3.8  .35 Ml 4.0         4988803
SSF   011.45 122.6 m E Pn      2012/06/06 08:00:58.2  -0.2                          T                                        4988809
SSF   011.45 122.6 m E Sn      2012/06/06 08:02:59.9   0.3                          T                3.4  .36 Ml 4.0         4988972
BGF   011.49 126.0 m E Pn      2012/06/06 08:00:59.2   0.3                          T                                        4988825
BGF   011.49 126.0 m E Sn      2012/06/06 08:03:02.2   1.8                          T               10.4  .34 Ml 4.4         4988814
AVF   011.57 124.0 m E Pn      2012/06/06 08:00:59.5  -0.4                          T                                        4988827
AVF   011.57 124.0 m E Sn      2012/06/06 08:03:00.7  -1.6                          T                2.8  .36 Ml 3.8         4988959
LFF   011.82 136.8 m E Pn      2012/06/06 08:01:03.4   0.0                          T                                        4988823
RJF   011.84 133.6 m E Pn      2012/06/06 08:01:04.2   0.4                          T                                        4988824
RJF   011.84 133.6 m E Sn      2012/06/06 08:03:07.6  -1.3                          T                7.2  .32 Ml 4.0         4988813
SMF   011.91 123.3 m E Pn      2012/06/06 08:01:04.6  -0.1                          T                                        4988826
CAF   012.38 133.2 m E Pn      2012/06/06 08:01:11.0  -0.1                          T                                        4988822
CAF   012.38 133.2 m E Sn      2012/06/06 08:03:20.5  -1.2                          T                4.9  .33 Ml 4.2         4988811
SJPF  012.68 146.9 m E Pn      2012/06/06 08:01:15.7   0.5                          T                                        4988821
SJPF  012.68 146.9 m E Sn      2012/06/06 08:03:28.2  -0.7                          T                5.6  .49 Ml 4.1         4988970
ETSF  013.09 145.4 m E Pn      2012/06/06 08:01:20.4  -0.4                          T                                        4988820
ETSF  013.09 145.4 m E Sn      2012/06/06 08:03:36.6  -2.2                          T                3.5  .38 Ml 4.0         4988969
EPF   013.29 142.5 m E Pn      2012/06/06 08:01:23.5   0.1                          T                                        4988965
EPF   013.29 142.5 m E Sn      2012/06/06 08:03:41.6  -1.8                          T                5.5  .42 Ml 4.2         4988961
VIVF  013.61 127.0 m E Pn      2012/06/06 08:01:28.4   0.6                          T                                        4988962
MTLF  013.74 136.8 m E Pn      2012/06/06 08:01:30.1   0.5                          T                                        4988964
LASF  013.84 131.0 m E Pn      2012/06/06 08:01:31.1   0.2                          T                                        4988963

.
EVENT     277628
    Date      Time       Latitude Longitude    Depth    Ndef Nsta Gap    Mag1  N    Mag2  N    Mag3  N   Author         ID
       rms   OT_Error      Smajor Sminor Az        Err   mdist  Mdist     Err        Err        Err      Quality

2012/06/06 08:31:15.9     47.6304    6.2460       .0 f    15    8 120  Ml 2.2  5  Md 2.2  6              bulletin    277737
                                                                                                         _ldg
      1.27   +-  0.20       4.3    3.2  128.47 +-  0.0    0.38   1.66   +-0.1      +-0.2                 m i km

FRANCE
Sta     Dist  EvAz     Phase      Date       Time     TRes  Azim  AzRes  Slow  SRes Def   SNR       Amp   Per   Mag1   Mag2       ID
HAU   000.38 010.3 m E Pg      2012/06/06 08:31:22.5  -1.1                          T                                        4988838
HAU   000.38 010.3 m E Sg      2012/06/06 08:31:28.1  -0.7                          T              105.8  .84        Md 2.0  4988832
HINF  000.45 065.3 m E Pg      2012/06/06 08:31:24.8  -0.1                          T                                        4988840
HINF  000.45 065.3 m E Sg      2012/06/06 08:31:32.6   1.6                          T               35.6  .98        Md 2.0  4988839
THEF  000.62 344.3 m E Pg      2012/06/06 08:31:29.1   1.1                          T                                        4988837
THEF  000.62 344.3 m E Sg      2012/06/06 08:31:36.8   0.5                          T              110.0 1.11        Md 2.4  4988833
SFTF  001.00 305.7 m E Pg      2012/06/06 08:31:34.8   0.0 124.0  -0.8              T                                        5016999
SFTF  001.00 305.7 m E Sn      2012/06/06 08:31:49.9   0.2 134.5  9.6               T                5.4  .28 Ml 2.1         5017000
CDF   001.04 041.1 m E Pg      2012/06/06 08:31:35.4  -0.4                          T                                        4988835
CDF   001.04 041.1 m E Sg      2012/06/06 08:31:49.9   0.4                          T               10.1  .72 Ml 2.1 Md 2.5  4988834
CABF  001.03 186.1 m E Pg      2012/06/06 08:31:35.4  -0.1                          T                                        4988836
CABF  001.03 186.1 m E Sg      2012/06/06 08:31:49.9   0.9                          T               25.3  .82 Ml 2.3 Md 2.0  4988831
LOR   001.66 258.3 m E Pg      2012/06/06 08:31:46.9  -0.2  83.4  6.9               T                                        4988842
LOR   001.66 258.3 m E Sg      2012/06/06 08:32:08.5  -0.2  81.1  4.6               T                1.7  .17 Ml 2.1 Md 2.3  4988841
PAGF  000.99 339.5 m E Sn      2012/06/06 08:31:49.8   0.2 166.7  7.6               T               21.0  .53 Ml 2.4         5017001

.
EVENT     277631
    Date      Time       Latitude Longitude    Depth    Ndef Nsta Gap    Mag1  N    Mag2  N    Mag3  N   Author         ID
       rms   OT_Error      Smajor Sminor Az        Err   mdist  Mdist     Err        Err        Err      Quality

2012/06/06 09:12:56.1     43.9365    7.1949       .0 f    23    5 090  Ml 2.1  1  Md 2.0  2              bulletin    277740
                                                                                                         _ldg
      0.21   +-  0.05        .9     .8    2.43 +-  0.0    0.17   1.17   +-         +-0.0                 m i km

NEAR SOUTH COAST OF FRANCE
Sta     Dist  EvAz     Phase      Date       Time     TRes  Azim  AzRes  Slow  SRes Def   SNR       Amp   Per   Mag1   Mag2       ID
SBF   000.19 112.8 m E Pg      2012/06/06 09:13:00.0  -0.2                          T                                        5017002
SBF   000.19 112.8 m E Sg      2012/06/06 09:13:03.1   0.1                          T               36.3  .51        Md 2.0  5017003
FRF   000.55 226.8 m E Pg      2012/06/06 09:13:07.2   0.5                          T                                        4989282
FRF   000.55 226.8 m E Sg      2012/06/06 09:13:14.0  -0.1                          T                2.7  .27        Md 2.0  4989281
LMR   000.78 219.8 m E Pg      2012/06/06 09:13:10.9  -0.1                          T                                        4989285
LMR   000.78 219.8 m E Sg      2012/06/06 09:13:21.6   0.2                          T                3.0  .31                4989280
SMRF  001.17 272.5 m E Pg      2012/06/06 09:13:18.1  -0.1                          T                                        4989284
SMRF  001.17 272.5 m E Sg      2012/06/06 09:13:33.7   0.1                          T                5.2  .32 Ml 2.1         4989283
MBDF  000.85 339.1 m E Sg      2012/06/06 09:13:23.8   0.1                          T                4.4  .46                5017004

.
EVENT     277632
    Date      Time       Latitude Longitude    Depth    Ndef Nsta Gap    Mag1  N    Mag2  N    Mag3  N   Author         ID
       rms   OT_Error      Smajor Sminor Az        Err   mdist  Mdist     Err        Err        Err      Quality

2012/06/06 09:13:27.7     43.8235    7.5720       .0 f    14    4 162  Ml 1.8  2  Md 2.0  3              bulletin    277741
                                                                                                         _ldg
      0.21   +-  0.06       1.5     .8  165.06 +-  0.0    0.10   1.45   +-0.1      +-0.1                 m i km

NEAR SOUTH COAST OF FRANCE
Sta     Dist  EvAz     Phase      Date       Time     TRes  Azim  AzRes  Slow  SRes Def   SNR       Amp   Per   Mag1   Mag2       ID
SBF   000.11 291.8 m E Pg      2012/06/06 09:13:30.1  -0.2                          T                                        4989320
SBF   000.11 291.8 m E Sg      2012/06/06 09:13:31.2  -0.9                          T               92.5  .38        Md 2.0  4989319
FRF   000.72 248.9 m E Pg      2012/06/06 09:13:42.2   0.7                          T                                        4989316
FRF   000.72 248.9 m E Sg      2012/06/06 09:13:51.0  -0.1                          T                2.1  .23        Md 1.9  4989315
LMR   000.91 238.0 m E Pg      2012/06/06 09:13:45.2   0.1                          T                                        4989318
LMR   000.91 238.0 m E Sg      2012/06/06 09:13:57.1   0.0                          T                3.1  .26 Ml 1.9 Md 2.1  4989317
SMRF  001.45 276.7 m E Pg      2012/06/06 09:13:55.1   0.1                          T                                        5017013
SMRF  001.45 276.7 m E Sg      2012/06/06 09:14:14.1   0.1                          T                1.6  .32 Ml 1.7         5017014

.
EVENT     277635
    Date      Time       Latitude Longitude    Depth    Ndef Nsta Gap    Mag1  N    Mag2  N    Mag3  N   Author         ID
       rms   OT_Error      Smajor Sminor Az        Err   mdist  Mdist     Err        Err        Err      Quality

2012/06/06 14:50:18.8     47.2913    5.9628       .0 f     8    4 188  Ml 2.1  1  Md 1.8  2              bulletin    277744
                                                                                                         _ldg
      0.19   +-  0.15       5.8    1.5  103.49 +-  0.0    0.69   0.94   +-         +-0.1                 m i km

FRANCE
Sta     Dist  EvAz     Phase      Date       Time     TRes  Azim  AzRes  Slow  SRes Def   SNR       Amp   Per   Mag1   Mag2       ID
CABF  000.69 172.8 m E Pg      2012/06/06 14:50:32.2   0.1                          T                                        5017015
CABF  000.69 172.8 m E Pn      2012/06/06 14:50:34.5   0.0                          T                                        5017016
CABF  000.69 172.8 m E Sg      2012/06/06 14:50:41.3   0.0                          T                1.6  .27        Md 1.7  5017017
HINF  000.80 048.6 m E Pg      2012/06/06 14:50:33.9  -0.2                          T                                        4989028
HINF  000.80 048.6 m E Sg      2012/06/06 14:50:45.3   0.5                          T                3.1  .24                4989027
HAU   000.76 019.9 m E Pg      2012/06/06 14:50:34.4   1.0                          T                                        4989029
HAU   000.76 019.9 m E Sg      2012/06/06 14:50:43.7   0.2                          T                2.6  .19        Md 1.8  4989026
THEF  000.94 001.3 m E Sg      2012/06/06 14:50:49.1   0.1                          T                5.6  .25 Ml 2.1         4989025

.
EVENT     277637
    Date      Time       Latitude Longitude    Depth    Ndef Nsta Gap    Mag1  N    Mag2  N    Mag3  N   Author         ID
       rms   OT_Error      Smajor Sminor Az        Err   mdist  Mdist     Err        Err        Err      Quality

2012/06/06 16:46:46.4     44.4910    6.7111      2.0      38   10 054  Ml 2.1  7  Md 2.1  3              bulletin    277746
                                                                                                         _ldg
      0.31   +-  0.05       1.1     .8   63.92 +-  0.0    0.07   2.09   +-0.3      +-0.1                 m i ke

FRANCE
Sta     Dist  EvAz     Phase      Date       Time     TRes  Azim  AzRes  Slow  SRes Def   SNR       Amp   Per   Mag1   Mag2       ID
MBDF  000.24 010.3 m E Pg      2012/06/06 16:46:51.2  -0.1                          T                                        4989063
MBDF  000.24 010.3 m E Sg      2012/06/06 16:46:54.5  -0.1                          T               33.1  .33        Md 2.1  4989052
ORIF  000.73 306.1 m E Pg      2012/06/06 16:46:59.8  -0.5                          T                                        4989062
ORIF  000.73 306.1 m E Sg      2012/06/06 16:47:09.5  -0.3                          T               11.9  .24        Md 2.2  4989056
SBF   000.82 140.1 m E Pg      2012/06/06 16:47:02.3   0.4                          T                                        4989057
SBF   000.82 140.1 m E Sg      2012/06/06 16:47:12.3  -0.2                          T                4.6  .19        Md 2.0  4992826
FRF   000.93 182.9 m E Pg      2012/06/06 16:47:03.7  -0.1                          T                                        4989059
FRF   000.93 182.9 m E Sg      2012/06/06 16:47:16.1   0.2                          T               11.3  .20 Ml 2.6         4989054
SMRF  000.97 238.2 m E Pg      2012/06/06 16:47:05.3   0.7                          T                                        4989060
SMRF  000.97 238.2 m E Sg      2012/06/06 16:47:17.2   0.1                          T                5.3  .27 Ml 2.1         4989055
LPG   001.01 001.6 m E Pg      2012/06/06 16:47:05.3  -0.3                          T                                        4989061
LPG   001.01 001.6 m E Sg      2012/06/06 16:47:18.2  -0.5                          T                2.0  .20 Ml 1.8         4992825
LPL   001.03 000.8 m E Pg      2012/06/06 16:47:06.3   0.4                          T                                        4992824
LPL   001.03 000.8 m E Sg      2012/06/06 16:47:19.0  -0.2                          T                3.2  .28 Ml 1.9         4992823
LMR   001.17 187.3 m E Pg      2012/06/06 16:47:08.3   0.1                          T                                        4989058
LMR   001.17 187.3 m E Sg      2012/06/06 16:47:23.5   0.2                          T                6.5  .24 Ml 2.3         4989053
VIVF  001.50 284.8 m E Pn      2012/06/06 16:47:12.7   0.0                          T                                        4992822
VIVF  001.50 284.8 m E Sn      2012/06/06 16:47:32.1   0.4                          T                2.0  .26 Ml 1.9         4989051
LASF  002.09 259.6 m E Pn      2012/06/06 16:47:21.1   0.4                          T                                        4992821
LASF  002.09 259.6 m E Sn      2012/06/06 16:47:45.9   0.2                          T                1.1  .28 Ml 1.8         4992820

.
