EVENT     282684
    Date      Time       Latitude Longitude    Depth    Ndef Nsta Gap    Mag1  N    Mag2  N    Mag3  N   Author         ID
       rms   OT_Error      Smajor Sminor Az        Err   mdist  Mdist     Err        Err        Err      Quality

2012/09/06 07:25:27.7     43.0810    -.6043      2.0      17    4 143  Ml 1.8  1  Md 1.8  2              bulletin    282784
                                                                                                         _ldg
      0.41   +-  0.09       2.6    1.1    7.87 +-  0.0    0.07   2.08   +-         +-0.1                 m i ke

PYRENEES
Sta     Dist  EvAz     Phase      Date       Time     TRes  Azim  AzRes  Slow  SRes Def   SNR       Amp   Per   Mag1   Mag2       ID
ETSF  000.19 169.7 m E Pg      2012/09/06 07:25:31.3  -0.3                          T                                        5063257
ETSF  000.19 169.7 m E Sg      2012/09/06 07:25:34.2   0.1                          T               20.7  .18        Md 1.7  5063256
SJPF  000.46 274.3 m E Pg      2012/09/06 07:25:36.3  -0.1                          T                                        5063254
SJPF  000.46 274.3 m E Sg      2012/09/06 07:25:42.4  -0.1                          T                6.4  .25        Md 1.8  5063255
EPF   000.69 093.9 m E Pg      2012/09/06 07:25:41.3   0.4                          T                                        5063253
EPF   000.69 093.9 m E Sg      2012/09/06 07:25:49.0  -0.9                          T                3.4  .24                5063252
MTLF  002.08 081.9 m E Sg      2012/09/06 07:26:33.1   0.0                          T                1.0  .30 Ml 1.8         5067819

.
EVENT     282725
    Date      Time       Latitude Longitude    Depth    Ndef Nsta Gap    Mag1  N    Mag2  N    Mag3  N   Author         ID
       rms   OT_Error      Smajor Sminor Az        Err   mdist  Mdist     Err        Err        Err      Quality

2012/09/06 09:13:26.5     43.9902    7.5343      2.0      44   10 062  Ml 2.5 10  Md 2.3  3              bulletin    282825
                                                                                                         _ldg
      0.70   +-  0.08       1.6    1.3   56.35 +-  0.0    0.02   2.23   +-0.4      +-0.1                 m i ke

NEAR SOUTH COAST OF FRANCE
Sta     Dist  EvAz     Phase      Date       Time     TRes  Azim  AzRes  Slow  SRes Def   SNR       Amp   Per   Mag1   Mag2       ID
SBF   000.15 209.4 m E Pg      2012/09/06 09:13:29.1  -0.6                          T                                        5063539
SBF   000.15 209.4 m E Sg      2012/09/06 09:13:31.7  -0.1                          T              334.7  .18        Md 2.4  5063538
FRF   000.77 236.6 m E Pg      2012/09/06 09:13:40.8  -0.3                          T                                        5063535
FRF   000.77 236.6 m E Sg      2012/09/06 09:13:50.8  -0.4                          T               82.2  .22        Md 2.4  5063530
MBDF  000.92 323.7 m E Pg      2012/09/06 09:13:43.3  -0.7                          T                                        5063533
MBDF  000.92 323.7 m E Sg      2012/09/06 09:13:55.1  -0.8                          T               22.6  .44 Ml 2.5 Md 2.2  5063526
LMR   000.99 228.9 m E Pg      2012/09/06 09:13:44.9  -0.2                          T                                        5063536
LMR   000.99 228.9 m E Sg      2012/09/06 09:13:58.4   0.4                          T               84.1  .28 Ml 3.3         5063537
SMRF  001.41 270.1 m E Pg      2012/09/06 09:13:53.5   0.5                          T                                        5063534
SMRF  001.41 270.1 m E Sg      2012/09/06 09:14:11.7   0.4                          T               14.3  .25 Ml 2.8         5063529
ORIF  001.50 308.6 m E Pg      2012/09/06 09:13:54.5  -0.2                          T                                        5063532
ORIF  001.50 308.6 m E Sg      2012/09/06 09:14:14.8   0.7                          T                5.4  .27 Ml 2.3         5063527
LPG   001.61 340.0 m E Pg      2012/09/06 09:13:57.0   0.1                          T                                        5063528
LPG   001.61 340.0 m E Sg      2012/09/06 09:14:17.7   0.1                          T               11.4  .54 Ml 2.4         5067826
PGF   001.80 142.9 m E Pn      2012/09/06 09:13:57.0   0.1                          T                                        5067824
PGF   001.80 142.9 m E Sn      2012/09/06 09:14:18.0  -0.9                          T                3.8  .29 Ml 2.5         5067825
LPL   001.63 339.8 m E Pg      2012/09/06 09:13:57.3   0.2                          T                                        5063531
LPL   001.63 339.8 m E Sg      2012/09/06 09:14:18.0  -0.2                          T                3.1  .29 Ml 2.1         5067827
VIVF  002.23 293.9 m E Pn      2012/09/06 09:14:03.5   0.8                          T                                        5067828
VIVF  002.23 293.9 m E Sn      2012/09/06 09:14:29.2   0.0                          T                                        5067829
VIVF  002.23 293.9 m E Sg      2012/09/06 09:14:36.8   0.2                          T                2.0  .27 Ml 2.1         5067830

.
EVENT     282741
    Date      Time       Latitude Longitude    Depth    Ndef Nsta Gap    Mag1  N    Mag2  N    Mag3  N   Author         ID
       rms   OT_Error      Smajor Sminor Az        Err   mdist  Mdist     Err        Err        Err      Quality

2012/09/06 10:34:29.0     43.1801    5.9630       .0 f    22    8 188  Ml 2.2  4  Md 2.2  2              bulletin    282841
                                                                                                         _ldg
      0.26   +-  0.13       2.6    1.4   18.34 +-  0.0    0.42   2.68   +-0.5      +-0.0                 m i km

NEAR SOUTH COAST OF FRANCE
Sta     Dist  EvAz     Phase      Date       Time     TRes  Azim  AzRes  Slow  SRes Def   SNR       Amp   Per   Mag1   Mag2       ID
LMR   000.43 068.7 m E Pg      2012/09/06 10:34:37.4   0.0                          T                                        5064333
LMR   000.43 068.7 m E Sg      2012/09/06 10:34:43.4   0.2                          T                                Md 2.2  5064332
FRF   000.63 052.4 m E Pg      2012/09/06 10:34:41.0  -0.1                          T                                        5064334
FRF   000.63 052.4 m E Sg      2012/09/06 10:34:49.3  -0.2                          T                5.0  .18        Md 2.2  5064335
SMRF  000.84 340.6 m E Pg      2012/09/06 10:34:45.4   0.2                          T                                        5064337
SMRF  000.84 340.6 m E Sn      2012/09/06 10:34:58.9  -0.4                          T               14.5  .31                5064336
SBF   001.27 057.0 m E Pg      2012/09/06 10:34:52.9  -0.1                          T                                        5064330
SBF   001.27 057.0 m E Sg      2012/09/06 10:35:09.4  -0.3                          T               21.3  .24 Ml 2.9         5064331
LASF  001.77 301.1 m E Pn      2012/09/06 10:34:59.6   0.2                          T                                        5064829
LASF  001.77 301.1 m E Sn      2012/09/06 10:35:21.3  -0.1                          T                1.3  .22 Ml 1.9         5064827
ORIF  001.74 358.1 m E Pg      2012/09/06 10:35:01.6  -0.1                          T                                        5064848
ORIF  001.74 358.1 m E Sg      2012/09/06 10:35:23.9  -0.5                          T                2.0  .35 Ml 1.9         5064847
PGF   002.32 104.8 m E Pn      2012/09/06 10:35:06.7  -0.2                          T                                        5064833
PGF   002.32 104.8 m E Sn      2012/09/06 10:35:35.1   0.5                          T                                        5064832
MBDF  001.65 020.4 m E Sg      2012/09/06 10:35:21.8   0.1                          T                3.6  .41 Ml 2.0         5067831

.
EVENT     282755
    Date      Time       Latitude Longitude    Depth    Ndef Nsta Gap    Mag1  N    Mag2  N    Mag3  N   Author         ID
       rms   OT_Error      Smajor Sminor Az        Err   mdist  Mdist     Err        Err        Err      Quality

2012/09/06 11:28:15.1     44.4020   10.8516      2.0      45   11 088  Ml 3.0 11                         bulletin    282855
                                                                                                         _ldg
      0.85   +-  0.15       3.8    3.3   66.30 +-  0.0    0.10   5.66   +-0.2                            m i ke

NORTHERN ITALY
Sta     Dist  EvAz     Phase      Date       Time     TRes  Azim  AzRes  Slow  SRes Def   SNR       Amp   Per   Mag1   Mag2       ID
PGF   002.29 216.7 m E Pn      2012/09/06 11:28:52.6   0.4                          T                                        5064094
PGF   002.29 216.7 m E Sn      2012/09/06 11:29:20.0   0.7                          T               23.2  .62 Ml 3.1         5064084
SBF   002.52 258.8 m E Pn      2012/09/06 11:28:55.1  -0.1                          T                                        5064093
SBF   002.52 258.8 m E Sn      2012/09/06 11:29:28.1   3.4                          T               29.2  .40 Ml 3.2         5064085
MBDF  002.93 277.8 m E Pn      2012/09/06 11:29:00.9  -0.1                          T                                        5064128
MBDF  002.93 277.8 m E Sn      2012/09/06 11:29:35.9   1.1                          T               13.1  .46 Ml 2.9         5064127
FRF   003.15 256.0 m E Pn      2012/09/06 11:29:03.8   0.1                          T                                        5064091
FRF   003.15 256.0 m E Sn      2012/09/06 11:29:41.1   1.4                          T               11.1  .36 Ml 3.0         5064088
LMR   003.32 252.7 m E Pn      2012/09/06 11:29:05.8  -0.2                          T                                        5064092
LMR   003.32 252.7 m E Sn      2012/09/06 11:29:44.3   0.6                          T               10.6  .38 Ml 3.0         5064089
ORIF  003.58 280.0 m E Pn      2012/09/06 11:29:12.0   2.2                          T                                        5064087
ORIF  003.58 280.0 m E Sn      2012/09/06 11:29:56.2   5.9                          T               12.6  .54 Ml 2.9         5064086
SMRF  003.82 265.4 m E Pn      2012/09/06 11:29:15.5   2.6                          T                                        5064090
SMRF  003.82 265.4 m E Sn      2012/09/06 11:29:55.1  -0.6                          T                4.4  .42 Ml 2.6         5064126
HINF  004.40 322.3 m E Pn      2012/09/06 11:29:20.3  -0.6                          T                                        5064136
HINF  004.40 322.3 m E Sn      2012/09/06 11:30:09.4  -0.3                          T               15.0  .54 Ml 3.2         5064135
CDF   004.71 329.6 m E Pn      2012/09/06 11:29:24.6  -0.6                          T                                        5064132
CDF   004.71 329.6 m E Sn      2012/09/06 11:30:15.5  -1.7                          T                2.3  .24 Ml 2.9         5064131
HAU   004.77 320.7 m E Pn      2012/09/06 11:29:25.5  -0.4                          T                                        5064134
HAU   004.77 320.7 m E Sn      2012/09/06 11:30:18.3  -0.2                          T                6.8  .26 Ml 3.0         5064133
LOR   005.66 302.9 m E Pn      2012/09/06 11:29:38.2   0.2                          T                                        5064130
LOR   005.66 302.9 m E Sn      2012/09/06 11:30:39.3  -0.6                          T               17.5  .90 Ml 3.3         5064129

.
EVENT     282758
    Date      Time       Latitude Longitude    Depth    Ndef Nsta Gap    Mag1  N    Mag2  N    Mag3  N   Author         ID
       rms   OT_Error      Smajor Sminor Az        Err   mdist  Mdist     Err        Err        Err      Quality

2012/09/06 15:47:22.2     44.5338    7.4241       .0 f    20    6 155  Ml 1.8  4  Md 1.7  1              bulletin    282858
                                                                                                         _ldg
      0.17   +-  0.06       1.1     .6   55.04 +-  0.0    0.13   1.44   +-0.3      +-                    m i km

NORTHERN ITALY
Sta     Dist  EvAz     Phase      Date       Time     TRes  Azim  AzRes  Slow  SRes Def   SNR       Amp   Per   Mag1   Mag2       ID
MBDF  000.50 292.7 m E Pg      2012/09/06 15:47:32.4   0.2                          T                                        5064194
MBDF  000.50 292.7 m E Sg      2012/09/06 15:47:39.0  -0.1                          T                6.8  .42        Md 1.7  5064193
SBF   000.67 179.3 m E Pg      2012/09/06 15:47:35.1  -0.1                          T                                        5067834
SBF   000.67 179.3 m E Sg      2012/09/06 15:47:44.0  -0.2                          T               13.2  .39                5067835
FRF   001.12 210.2 m E Pg      2012/09/06 15:47:43.7   0.2                          T                                        5064192
FRF   001.12 210.2 m E Sg      2012/09/06 15:47:58.3   0.1                          T                2.2  .24 Ml 1.9         5064191
ORIF  001.17 289.8 m E Pg      2012/09/06 15:47:44.3   0.0                          T                                        5067832
ORIF  001.17 289.8 m E Sg      2012/09/06 15:47:59.7   0.0                          T                2.0  .39 Ml 1.6         5067837
LMR   001.37 209.2 m E Pg      2012/09/06 15:47:48.6   0.6                          T                                        5064190
LMR   001.37 209.2 m E Sg      2012/09/06 15:48:06.0   0.1                          T                7.3  .50 Ml 2.2         5064189
SMRF  001.44 247.9 m E Pg      2012/09/06 15:47:49.6   0.2                          T                                        5067833
SMRF  001.44 247.9 m E Sg      2012/09/06 15:48:08.4   0.3                          T                1.4  .36 Ml 1.6         5067836

.
EVENT     282759
    Date      Time       Latitude Longitude    Depth    Ndef Nsta Gap    Mag1  N    Mag2  N    Mag3  N   Author         ID
       rms   OT_Error      Smajor Sminor Az        Err   mdist  Mdist     Err        Err        Err      Quality

2012/09/06 17:32:29.5     48.3492   -2.8831      2.0      17    6 167  Ml 2.0  3  Md 1.6  3              bulletin    282859
                                                                                                         _ldg
      0.32   +-  0.06       1.6    1.0  168.23 +-  0.0    0.24   1.85   +-0.1      +-0.1                 m i ke

FRANCE
Sta     Dist  EvAz     Phase      Date       Time     TRes  Azim  AzRes  Slow  SRes Def   SNR       Amp   Per   Mag1   Mag2       ID
SGMF  000.24 113.5 m E Pg      2012/09/06 17:32:34.0  -0.2                          T                                        5064206
SGMF  000.24 113.5 m E Sg      2012/09/06 17:32:37.4   0.0                          T                7.5  .23        Md 1.6  5064205
ROSF  000.26 267.3 m E Pg      2012/09/06 17:32:34.4  -0.2                          T                                        5064208
ROSF  000.26 267.3 m E Sg      2012/09/06 17:32:38.4   0.2                          T                7.2  .22        Md 1.6  5064207
QUIF  000.47 203.7 m E Pg      2012/09/06 17:32:38.8   0.3                          T                                        5064204
QUIF  000.47 203.7 m E Sg      2012/09/06 17:32:44.3  -0.4                          T                3.0  .24        Md 1.7  5064203
GRR   001.35 087.6 m E Pn      2012/09/06 17:32:53.8   0.2                          T                                        5064200
GRR   001.35 087.6 m E Sn      2012/09/06 17:33:10.8  -0.3                          T                3.2  .22 Ml 2.0         5064199
FLN   001.65 074.6 m E Pn      2012/09/06 17:32:57.8   0.1                          T                                        5064195
FLN   001.65 074.6 m E P       2012/09/06 17:32:59.6  -0.1                          T                                        5067838
FLN   001.65 074.6 m E Sn      2012/09/06 17:33:18.6   0.4                          T                2.1  .21 Ml 2.0         5064196
LDF   001.85 081.4 m E Pn      2012/09/06 17:33:00.7   0.2                          T                                        5064198
LDF   001.85 081.4 m E Pg      2012/09/06 17:33:03.6  -0.3                          T                                        5067839
LDF   001.85 081.4 m E Sn      2012/09/06 17:33:22.8  -0.3                          T                                        5067840
LDF   001.85 081.4 m E Sg      2012/09/06 17:33:28.0   0.2                          T                2.7  .30 Ml 2.1         5064197

.
