EVENT     264386
    Date      Time       Latitude Longitude    Depth    Ndef Nsta Gap    Mag1  N    Mag2  N    Mag3  N   Author         ID
       rms   OT_Error      Smajor Sminor Az        Err   mdist  Mdist     Err        Err        Err      Quality

2011/09/25 01:43:42.4     40.7054    4.6330     25.0      43   13 177  Ml 2.5 15                         js067245    264406

      1.28   +-  0.32       7.4    4.2  161.47 +-  0.0    1.68   5.22   +-0.4                            m i ke

BALEARIC ISLANDS, SPAIN
Sta     Dist  EvAz     Phase      Date       Time     TRes  Azim  AzRes  Slow  SRes Def   SNR       Amp   Per   Mag1   Mag2       ID
LMR   002.98 027.4 m E Pn      2011/09/25 01:44:25.9  -0.2                          T                                        4761706
LMR   002.98 027.4 m E Sn      2011/09/25 01:44:56.5  -2.2                          T                4.4  .24 Ml 2.7         4761699
MTLF  003.19 326.5 m E Pn      2011/09/25 01:44:28.4  -0.6                          T                                        4761693
MTLF  003.19 326.5 m E Sn      2011/09/25 01:45:01.7  -2.2                          T                2.6  .22 Ml 2.5         4761698
FRF   003.22 027.0 m E Pn      2011/09/25 01:44:30.3   0.8                          T                                        4761684
FRF   003.22 027.0 m E Sn      2011/09/25 01:45:03.6  -1.0                          T                6.1  .28 Ml 2.9         4761700
SMRF  003.34 011.8 m E Pn      2011/09/25 01:44:32.1   1.0                          T                                        4761704
SMRF  003.34 011.8 m E Sn      2011/09/25 01:45:08.8   1.3                          T                 .6  .34 Ml 1.8         4761678
LASF  003.42 350.6 m E Pn      2011/09/25 01:44:32.5   0.4                          T                                        4761687
LASF  003.42 350.6 m E Sn      2011/09/25 01:45:06.5  -2.8                          T                1.6  .24 Ml 2.4         4761696
PGF   003.76 059.2 m E Pn      2011/09/25 01:44:38.2   1.3                          T                                        4761686
PGF   003.76 059.2 m E Sn      2011/09/25 01:45:14.5  -3.0                          T                4.5  .22 Ml 3.1         4761694
SBF   003.78 032.5 m E Pn      2011/09/25 01:44:38.5   1.3                          T                                        4761685
SBF   003.78 032.5 m E Sn      2011/09/25 01:45:15.8  -2.2                          T                3.6  .20 Ml 2.9         4761695
EPF   003.96 307.3 m E Pn      2011/09/25 01:44:40.6   1.1                          T                                        4761692
EPF   003.96 307.3 m E Sn      2011/09/25 01:45:23.1   0.8                          T                 .9  .18 Ml 2.3         4761677
VIVF  004.15 000.4 m E Pn      2011/09/25 01:44:42.2   0.0                          T                                        4761703
VIVF  004.15 000.4 m E Sn      2011/09/25 01:45:25.9  -0.9                          T                 .9  .24 Ml 2.3         4761697
ETSF  004.46 301.2 m E Pn      2011/09/25 01:44:46.8   0.4                          T                                        4761691
ETSF  004.46 301.2 m E Sn      2011/09/25 01:45:34.9   0.7                          T                 .7  .23 Ml 2.2         4761690
CAF   004.62 336.7 m E Pn      2011/09/25 01:44:48.5  -0.1                          T                                        4761679
CAF   004.62 336.7 m E Sn      2011/09/25 01:45:37.0  -1.0                          T                 .9  .24 Ml 2.4         4761680
SJPF  004.99 300.8 m E Pn      2011/09/25 01:44:53.7   0.1                          T                                        4761688
SJPF  004.99 300.8 m E Sn      2011/09/25 01:45:46.4  -0.4                          T                 .6  .24 Ml 2.3         4761689
RJF   005.13 334.6 m E Pn      2011/09/25 01:44:57.4   1.8                          T                                        4761681
RJF   005.13 334.6 m E Sn      2011/09/25 01:45:49.1  -1.2                          T                  1  .20 Ml 2.3         4761683

.
EVENT     264389
    Date      Time       Latitude Longitude    Depth    Ndef Nsta Gap    Mag1  N    Mag2  N    Mag3  N   Author         ID
       rms   OT_Error      Smajor Sminor Az        Err   mdist  Mdist     Err        Err        Err      Quality

2011/09/25 02:38:23.1     43.0927    -.6778     10.0      14    3 172             Md 1.6  2              js067245    264409

      0.33   +-  0.12       3.7    1.5   10.02 +-  0.0    0.02   0.77              +-0.1                 m i ke

PYRENEES
Sta     Dist  EvAz     Phase      Date       Time     TRes  Azim  AzRes  Slow  SRes Def   SNR       Amp   Per   Mag1   Mag2       ID
ETSF  000.21 155.8 m E Pg      2011/09/25 02:38:27.7   0.0                          T                                        4765296
ETSF  000.21 155.8 m E Sg      2011/09/25 02:38:30.6  -0.3                          T                5.1  .20        Md 1.7  4765295
SJPF  000.40 273.1 m E Pg      2011/09/25 02:38:30.6  -0.3                          T                                        4765293
SJPF  000.40 273.1 m E Sg      2011/09/25 02:38:36.7   0.3                          T                2.5  .18        Md 1.5  4765294
EPF   000.75 094.4 m E Pg      2011/09/25 02:38:37.7   0.4                          T                                        4765292
EPF   000.75 094.4 m E Sg      2011/09/25 02:38:47.6   0.5                          T                  1  .17                4765291

.
EVENT     264388
    Date      Time       Latitude Longitude    Depth    Ndef Nsta Gap    Mag1  N    Mag2  N    Mag3  N   Author         ID
       rms   OT_Error      Smajor Sminor Az        Err   mdist  Mdist     Err        Err        Err      Quality

2011/09/25 02:40:22.8     37.6367   -1.4243      5.0 f    76    7 084  Ml 2.9  5                         js067245    264408

      0.78   +-  0.14       3.1    2.0  145.72 +-  0.0    0.25   9.37   +-0.2                            m i ke

SPAIN
Sta     Dist  EvAz     Phase      Date       Time     TRes  Azim  AzRes  Slow  SRes Def   SNR       Amp   Per   Mag1   Mag2       ID
ETSF  005.30 006.9 m E Pn      2011/09/25 02:41:41.4   0.9                          T                                        4761715
ETSF  005.30 006.9 m E Sn      2011/09/25 02:42:38.0  -0.3                          T                                        4768456
ETSF  005.30 006.9 m E Sg      2011/09/25 02:43:09.2   0.4                          T                4.4  .52 Ml 2.9         4768453
SJPF  005.47 001.5 m E Pn      2011/09/25 02:41:44.0   1.1                          T                                        4761716
SJPF  005.47 001.5 m E Sn      2011/09/25 02:42:41.4  -1.0                          T                                        4768455
SJPF  005.47 001.5 m E Sg      2011/09/25 02:43:13.1  -1.1                          T                3.8  .49 Ml 2.9         4768454
EPF   005.55 013.5 m E Pn      2011/09/25 02:41:45.2   1.3                          T                                        4761714
EPF   005.55 013.5 m E Sn      2011/09/25 02:42:44.8   0.4                          T                6.5  .46 Ml 3.1         4768457
EPF   005.55 013.5 m E Sg      2011/09/25 02:43:16.5  -0.3                          T                6.1  .44 Ml 3.1         4768452
CAF   007.74 018.7 m E Pn      2011/09/25 02:42:14.3   0.6                          T                                        4761713
RJF   007.97 015.1 m E Pn      2011/09/25 02:42:17.2   0.4                          T                                        4761710
RJF   007.97 015.1 m E Sn      2011/09/25 02:43:41.9  -0.3                          T                1.7  .50 Ml 2.6         4768451
MFF   009.01 005.6 m E Pn      2011/09/25 02:42:30.8  -0.2                          T                                        4761711
PGF   009.37 055.2 m E Pn      2011/09/25 02:42:37.5   1.4                          T                                        4761712

.
EVENT     264391
    Date      Time       Latitude Longitude    Depth    Ndef Nsta Gap    Mag1  N    Mag2  N    Mag3  N   Author         ID
       rms   OT_Error      Smajor Sminor Az        Err   mdist  Mdist     Err        Err        Err      Quality

2011/09/25 03:36:19.8     44.4917    7.0966      4.0 f    20    7 172  Ml 1.7  5  Md 2.0  3              js067245    264411

      0.22   +-  0.08       2.4     .9   74.52 +-  0.0    0.33   1.23   +-0.1      +-0.0                 m i ke

NORTHERN ITALY
Sta     Dist  EvAz     Phase      Date       Time     TRes  Azim  AzRes  Slow  SRes Def   SNR       Amp   Per   Mag1   Mag2       ID
MBDF  000.33 315.5 m E Pg      2011/09/25 03:36:26.3  -0.1                          T                                        4761752
MBDF  000.33 315.5 m E Sg      2011/09/25 03:36:30.9   0.0                          T                8.5  .20        Md 2.0  4761751
SBF   000.67 158.7 m E Pg      2011/09/25 03:36:32.9   0.3                          T                                        4761746
SBF   000.67 158.7 m E Sg      2011/09/25 03:36:41.0  -0.5                          T                6.6  .50        Md 1.9  4761740
ORIF  000.97 296.6 m E Pg      2011/09/25 03:36:38.0   0.0                          T                                        4761750
ORIF  000.97 296.6 m E Pn      2011/09/25 03:36:38.7   0.1                          T                                        4761732
ORIF  000.97 296.6 m E Sg      2011/09/25 03:36:50.6   0.0                          T                1.2  .22 Ml 1.5         4761742
FRF   000.99 199.4 m E Pg      2011/09/25 03:36:38.5   0.3                          T                                        4761748
FRF   000.99 199.4 m E P       2011/09/25 03:36:40.0  -0.3                          T                                        4761731
FRF   000.99 199.4 m E Sg      2011/09/25 03:36:51.2   0.2                          T                1.8  .20 Ml 1.8         4761744
LPG   001.04 346.4 m E Pg      2011/09/25 03:36:39.7   0.1                          T                                        4761738
LPG   001.04 346.4 m E Sg      2011/09/25 03:36:52.8  -0.2                          T                2.2  .32 Ml 1.7 Md 1.9  4761741
LPL   001.06 346.0 m E Pg      2011/09/25 03:36:39.7  -0.2                          T                                        4761749
LPL   001.06 346.0 m E Sg      2011/09/25 03:36:53.2  -0.4                          T                1.6  .26 Ml 1.6         4761743
LMR   001.23 200.3 m E Pg      2011/09/25 03:36:42.4  -0.4                          T                                        4761747
LMR   001.23 200.3 m E P       2011/09/25 03:36:43.8   0.0                          T                                        4761739
LMR   001.23 200.3 m E Sg      2011/09/25 03:36:58.8   0.1                          T                1.9  .26 Ml 1.8         4761745

.
EVENT     264401
    Date      Time       Latitude Longitude    Depth    Ndef Nsta Gap    Mag1  N    Mag2  N    Mag3  N   Author         ID
       rms   OT_Error      Smajor Sminor Az        Err   mdist  Mdist     Err        Err        Err      Quality

2011/09/25 04:22:48.2     43.1260   -1.1902     25.0      15    3 162  Ml 0.7  1  Md 0.9  2              js067245    264421

      0.23   +-  0.07       1.7    1.4     .55 +-  0.0    0.03   1.13   +-         +-0.1                 m i ke

PYRENEES
Sta     Dist  EvAz     Phase      Date       Time     TRes  Azim  AzRes  Slow  SRes Def   SNR       Amp   Per   Mag1   Mag2       ID
SJPF  000.03 243.5 m E Pg      2011/09/25 04:22:52.7   0.0                          T                                        4761767
SJPF  000.03 243.5 m E Sg      2011/09/25 04:22:55.2  -0.6                          T                 .9  .16        Md 1.0  4761766
ETSF  000.52 115.9 m E Pg      2011/09/25 04:22:58.8  -0.2                          T                                        4761764
ETSF  000.52 115.9 m E Sg      2011/09/25 04:23:06.3   0.0                          T                 .4  .22        Md  .8  4761765
EPF   001.13 094.4 m E Sg      2011/09/25 04:23:24.7   0.1                          T                 .1  .19 Ml  .7         4768458

.
EVENT     264392
    Date      Time       Latitude Longitude    Depth    Ndef Nsta Gap    Mag1  N    Mag2  N    Mag3  N   Author         ID
       rms   OT_Error      Smajor Sminor Az        Err   mdist  Mdist     Err        Err        Err      Quality

2011/09/25 06:45:58.5     48.3349    6.6737     10.0      37   17 044  Ml 2.2 11  Md 2.4  3              js067245    264412

      0.30   +-  0.06       1.2     .8  178.59 +-  0.0    0.35   3.74   +-0.2      +-0.0                 m i ke

FRANCE
Sta     Dist  EvAz     Phase      Date       Time     TRes  Azim  AzRes  Slow  SRes Def   SNR       Amp   Per   Mag1   Mag2       ID
HAU   000.40 213.6 m E Pg      2011/09/25 06:46:06.2  -0.1                          T                                        4761799
HAU   000.40 213.6 m E Sg      2011/09/25 06:46:11.1  -0.5                          T               11.8  .18                4761798
CDF   000.41 078.9 m E Pg      2011/09/25 06:46:06.7   0.1                          T                                        4761805
CDF   000.41 078.9 m E Sg      2011/09/25 06:46:12.2   0.0                          T                8.0  .24        Md 2.4  4761804
THEF  000.47 257.0 m E Pg      2011/09/25 06:46:07.2  -0.3                          T                                        4768535
THEF  000.47 257.0 m E Sg      2011/09/25 06:46:13.6  -0.2                          T               20.3  .20        Md 2.4  4768534
HINF  000.53 166.9 m E Pg      2011/09/25 06:46:08.8   0.0                          T                                        4761796
HINF  000.53 166.9 m E Sg      2011/09/25 06:46:15.6  -0.3                          T               11.5  .18                4761795
HINF  000.53 166.9 m E Sn      2011/09/25 06:46:18.7  -0.6                          T                7.4  .18        Md 2.4  4761794
PAGF  000.67 289.6 m E Pg      2011/09/25 06:46:11.4   0.2                          T                                        4761802
PAGF  000.67 289.6 m E Sg      2011/09/25 06:46:20.3   0.2                          T                1.0  .21                4761803
PAGF  000.67 289.6 m E Sn      2011/09/25 06:46:23.6   1.2                          T                1.4  .16                4761800
LANF  000.99 048.8 m E Pg      2011/09/25 06:46:17.0  -0.2                          T                                        4768533
LANF  000.99 048.8 m E Sg      2011/09/25 06:46:30.2   0.1                          T                1.8  .16 Ml 1.9         4768532
SFTF  001.10 263.8 m E Pn      2011/09/25 06:46:18.5   0.1                          T                                        4761787
SFTF  001.10 263.8 m E Pg      2011/09/25 06:46:19.2   0.1                          T                                        4768528
SFTF  001.10 263.8 m E Sg      2011/09/25 06:46:33.6   0.1                          T                                        4761786
SFTF  001.10 263.8 m E Sn      2011/09/25 06:46:33.6   0.9                          T                5.4  .19 Ml 2.3         4761785
MEZF  001.09 279.4 m E Pg      2011/09/25 06:46:18.8  -0.2                          T                                        4761783
MEZF  001.09 279.4 m E Sg      2011/09/25 06:46:33.7   0.5                          T                6.5  .30 Ml 2.2         4768523
CABF  001.77 193.2 m E Pn      2011/09/25 06:46:27.9   0.2                          T                                        4761793
CABF  001.77 193.2 m E Pg      2011/09/25 06:46:31.7   0.1                          T                                        4761792
CABF  001.77 193.2 m E Sg      2011/09/25 06:46:54.4  -0.1                          T                1.2  .23 Ml 1.9         4761791
LOR   002.18 241.7 m E Pn      2011/09/25 06:46:32.8  -0.3                          T                                        4761780
LOR   002.18 241.7 m E P       2011/09/25 06:46:35.6   0.1                          T                                        4761779
LOR   002.18 241.7 m E Pg      2011/09/25 06:46:39.0   0.0                          T                                        4761778
LOR   002.18 241.7 m E Sg      2011/09/25 06:47:07.2   0.2                          T                3.3  .20 Ml 2.5         4761781
AVF   002.73 236.7 m E Pn      2011/09/25 06:46:40.1  -0.4                          T                                        4768527
AVF   002.73 236.7 m E Pg      2011/09/25 06:46:48.4  -0.7                          T                                        4768526
AVF   002.73 236.7 m E Sg      2011/09/25 06:47:24.0  -0.2                          T                1.4  .26 Ml 2.1         4768524
RUP   001.39 010.4 m E Sg      2011/09/25 06:46:42.8   0.2                          T                                        4768531
SMF   002.56 229.7 m E Pg      2011/09/25 06:46:46.0   0.0                          T                                        4761789
SMF   002.56 229.7 m E Sg      2011/09/25 06:47:18.9  -0.1                          T                4.1  .24 Ml 2.6         4761788
GIVF  002.14 326.3 m E Sg      2011/09/25 06:47:04.6  -1.4                          T                3.2  .29 Ml 2.3         4768530
BAIF  002.37 317.8 m E Sg      2011/09/25 06:47:11.3  -1.6                          T                1.3  .33 Ml 1.9         4768529
SSF   002.49 240.4 m E Sg      2011/09/25 06:47:17.8   1.0                          T                2.5  .33 Ml 2.3         4761777
VIVF  003.74 202.4 m E Sg      2011/09/25 06:47:55.6  -0.4                          T                 .5  .20 Ml 2.0         4768525

.
