BEGIN GSE2.0
MSG_TYPE DATA
MSG_ID 18-OCT-1114:40:23  FRA_NDC
E-MAIL
DATA_TYPE BULLETIN
Reviewed Bulletin (REB) # P2011-040  from French NDC for regional phases     PERIOD 05 OCT 2011 TO 11 OCT 2011 S M., J-P S.
EVENT     264758
    Date      Time       Latitude Longitude    Depth    Ndef Nsta Gap    Mag1  N    Mag2  N    Mag3  N   Author         ID
       rms   OT_Error      Smajor Sminor Az        Err   mdist  Mdist     Err        Err        Err      Quality

2011/10/05 09:05:41.0     41.8499     .2971       .0 f    14    4 275  Ml 2.7  4  Md 2.7  2              js067245    264778

      0.33   +-  0.30       6.1    2.5    7.04 +-  0.0    1.18   2.06   +-0.2      +-0.1                 m i km

SPAIN
Sta     Dist  EvAz     Phase      Date       Time     TRes  Azim  AzRes  Slow  SRes Def   SNR       Amp   Per   Mag1   Mag2       ID
EPF   001.18 001.5 m E Pg      2011/10/05 09:06:02.5  -0.9                          T                                        4766154
EPF   001.18 001.5 m E P       2011/10/05 09:06:04.4  -0.3                          T                                        4766214
EPF   001.18 001.5 m E Sg      2011/10/05 09:06:19.4   0.6                          T               24.3  .36 Ml 2.7 Md 2.8  4766155
ETSF  001.23 329.1 m E Pn      2011/10/05 09:06:03.9   0.0                          T                                        4766216
ETSF  001.23 329.1 m E Pg      2011/10/05 09:06:04.6   0.4                          T                                        4766158
ETSF  001.23 329.1 m E P       2011/10/05 09:06:05.7   0.3                          T                                        4766215
ETSF  001.23 329.1 m E Sg      2011/10/05 09:06:19.9  -0.4                          T               36.2  .36 Ml 2.9 Md 2.7  4766156
ETSF  001.23 329.1 m E S       2011/10/05 09:06:22.6  -0.4                          T                                        4766213
SJPF  001.69 318.8 m E Pg      2011/10/05 09:06:12.7  -0.1                          T                                        4766153
SJPF  001.69 318.8 m E Sg      2011/10/05 09:06:34.3  -0.4                          T               14.7  .26 Ml 2.9         4766157
MTLF  002.06 042.9 m E Pn      2011/10/05 09:06:14.8  -0.4                          T                                        4766151
MTLF  002.06 042.9 m E Pg      2011/10/05 09:06:19.6   0.2                          T                                        4766150
MTLF  002.06 042.9 m E Sg      2011/10/05 09:06:45.6  -0.5                          T                6.1  .34 Ml 2.5         4766152

.
EVENT     264767
    Date      Time       Latitude Longitude    Depth    Ndef Nsta Gap    Mag1  N    Mag2  N    Mag3  N   Author         ID
       rms   OT_Error      Smajor Sminor Az        Err   mdist  Mdist     Err        Err        Err      Quality

2011/10/05 11:14:49.1     46.6467    4.4997       .0 f    42   15 059  Ml 2.3 11                         js067245    264787

      0.54   +-  0.05       1.1    1.0   29.96 +-  0.0    0.45   2.61   +-0.1                            m i km

FRANCE
Sta     Dist  EvAz     Phase      Date       Time     TRes  Azim  AzRes  Slow  SRes Def   SNR       Amp   Per   Mag1   Mag2       ID
SMF   000.45 270.1 m E Pg      2011/10/05 11:14:57.8  -0.2                          T   001.0                                4765976
SMF   000.45 270.1 m E Sg      2011/10/05 11:15:03.7  -0.5                          T   001.0       17.4  .18                4765977
LOR   000.76 325.0 m E Pg      2011/10/05 11:15:03.5  -0.2 147.7  3.2               T   001.0                                4765974
LOR   000.76 325.0 m E Pn      2011/10/05 11:15:05.4  -0.3 145.3  0.8               T                                        4769561
LOR   000.76 325.0 m E Sg      2011/10/05 11:15:13.9   0.1 151.1  6.6               T   001.0                                4765975
LOR   000.76 325.0 m E Sn      2011/10/05 11:15:16.9  -0.4 150.4  5.9               T                                        4766180
SSF   000.80 301.7 m E Pg      2011/10/05 11:15:04.4   0.0                          T   001.0                                4765978
SSF   000.80 301.7 m E Pn      2011/10/05 11:15:05.9  -0.3                          T                                        4769554
SSF   000.80 301.7 m E Sg      2011/10/05 11:15:16.7   1.7                          T   001.0       36.2  .30                4765979
SSF   000.80 301.7 m E Sn      2011/10/05 11:15:18.5   0.2                          T                                        4769560
AVF   000.80 280.8 m E Pg      2011/10/05 11:15:04.4   0.0                          T   001.0                                4765964
AVF   000.80 280.8 m E Pn      2011/10/05 11:15:06.1  -0.1                          T                                        4769558
AVF   000.80 280.8 m E Sg      2011/10/05 11:15:15.0  -0.1                          T   001.0        6.9  .22                4765965
AVF   000.80 280.8 m E Sn      2011/10/05 11:15:18.0  -0.3                          T                                        4769559
CABF  001.09 091.3 m E Pg      2011/10/05 11:15:09.4  -0.5                          T   001.0                                4765982
CABF  001.09 091.3 m E Pn      2011/10/05 11:15:10.9   0.6                          T   001.0                                4765983
CABF  001.09 091.3 m E Sg      2011/10/05 11:15:24.2  -0.1                          T   001.0        5.5  .29 Ml 2.1         4765984
BGF   001.14 266.1 m E Pg      2011/10/05 11:15:10.8   0.0                          T   001.0                                4765966
BGF   001.14 266.1 m E Sg      2011/10/05 11:15:25.6  -0.1                          T   001.0        5.5  .16 Ml 2.4         4765967
HYF   001.42 296.7 m E Pg      2011/10/05 11:15:16.0   0.3                          T                                        4769564
TCF   001.62 258.1 m E Pn      2011/10/05 11:15:17.4   0.0                          T   001.0                                4765980
TCF   001.62 258.1 m E Pg      2011/10/05 11:15:19.7   0.2                          T                                        4769563
TCF   001.62 258.1 m E Sn      2011/10/05 11:15:38.7   0.7                          T   001.0        2.5  .20 Ml 2.2         4765981
TCF   001.62 258.1 m E Sg      2011/10/05 11:15:40.7   0.0                          T                2.3  .18 Ml 2.2         4769562
SFTF  001.60 013.0 m E Pg      2011/10/05 11:15:19.2   0.0 178.6  -14.8             T                                        4769548
SFTF  001.60 013.0 m E Sn      2011/10/05 11:15:37.2  -0.2 197.0  3.6               T                                        4769547
SFTF  001.60 013.0 m E Sg      2011/10/05 11:15:40.6   0.6                          T                9.7  .36 Ml 2.5         4769546
VIVF  001.79 176.1 m E Pn      2011/10/05 11:15:19.0   0.2                          T   001.0                                4765988
VIVF  001.79 176.1 m E Pg      2011/10/05 11:15:22.7  -0.1                          T                                        4769555
VIVF  001.79 176.1 m E Sn      2011/10/05 11:15:42.0  -0.1                          T   001.0                                4765989
VIVF  001.79 176.1 m E Sg      2011/10/05 11:15:45.6  -0.5                          T                3.0  .26 Ml 2.2         4769556
LASF  002.61 190.2 m E Pn      2011/10/05 11:15:31.0   0.2                          T   001.0                                4765972
HAU   001.85 042.1 m E Sn      2011/10/05 11:15:44.1   0.7                          T   001.0                                4765970
HAU   001.85 042.1 m E Sg      2011/10/05 11:15:48.0   0.1                          T   001.0        3.9  .24 Ml 2.2         4765971
HINF  001.99 053.0 m E Sg      2011/10/05 11:15:51.9  -0.2                          T   001.0        2.9  .22 Ml 2.3         4765985
ORIF  001.98 150.3 m E Sg      2011/10/05 11:15:52.1   0.1                          T   001.0        4.2  .45 Ml 2.2         4765987
CAF   002.42 225.6 m E Sg      2011/10/05 11:16:06.1   0.4                          T   001.0        3.3  .34 Ml 2.3         4765968

.
EVENT     264772
    Date      Time       Latitude Longitude    Depth    Ndef Nsta Gap    Mag1  N    Mag2  N    Mag3  N   Author         ID
       rms   OT_Error      Smajor Sminor Az        Err   mdist  Mdist     Err        Err        Err      Quality

2011/10/05 18:22:27.9     51.3421   16.0830      1.0 f    71   21 094  Ml 4.0 12                         js067245    264792

      0.74   +-  0.25       6.4    2.6   11.28 +-  0.0    0.52  11.42   +-0.2                            m i sr

POLAND
Sta     Dist  EvAz     Phase      Date       Time     TRes  Azim  AzRes  Slow  SRes Def   SNR       Amp   Per   Mag1   Mag2       ID
RUP   005.98 257.6 m E Pn      2011/10/05 18:23:52.3  -3.1                          T                                        4768224
RUP   005.98 257.6 m E P       2011/10/05 18:23:58.6  -1.4                          T                                        4768199
RUP   005.98 257.6 m E Pg      2011/10/05 18:24:18.3  -0.3                          T                                        4768207
RUP   005.98 257.6 m E Sg      2011/10/05 18:25:34.4  -1.0                          T                                        4768211
LANF  005.82 249.3 m E Pn      2011/10/05 18:23:53.4   0.2                          T                                        4768213
LANF  005.82 249.3 m E Pg      2011/10/05 18:24:13.5  -2.1                          T                                        4768208
LANF  005.82 249.3 m E Sg      2011/10/05 18:25:31.1   1.0                          T              178.0  .93 Ml 4.3         4768212
CDF   006.40 246.2 m E Pn      2011/10/05 18:24:03.3   2.1                          T                                        4768223
CDF   006.40 246.2 m E Pg      2011/10/05 18:24:29.6   3.2                          T                                        4768222
CDF   006.40 246.2 m E Sg      2011/10/05 18:25:49.1   0.7                          T              117.9 1.08 Ml 4.3         4768210
HAU   007.14 245.9 m E Pn      2011/10/05 18:24:11.7   0.5                          T                                        4768214
HAU   007.14 245.9 m E Sg      2011/10/05 18:26:10.5  -1.0                          T               47.5  .82 Ml 3.8         4768204
PAGF  007.24 251.4 m E Pn      2011/10/05 18:24:13.3   0.8                          T                                        4768221
PAGF  007.24 251.4 m E Pg      2011/10/05 18:24:41.1  -0.6  66.3  2.8               T                                        4768206
PAGF  007.24 251.4 m E Sg      2011/10/05 18:26:15.3   0.8                          T               20.1 1.07 Ml 3.6         4771482
THEF  007.24 248.4 m E Pn      2011/10/05 18:24:14.1   1.6                          T                                        4768215
THEF  007.24 248.4 m E Sg      2011/10/05 18:26:13.0  -1.3                          T                                        4768201
LOR   008.97 247.7 m E Pn      2011/10/05 18:24:36.2   0.2                          T                                        4771485
LOR   008.97 247.7 m E Sg      2011/10/05 18:27:08.8   0.5                          T               12.9  .64 Ml 3.9         4768209
MBDF  009.09 226.9 m E P       2011/10/05 18:24:43.9   0.3                          T                                        4768220
SBF   009.49 221.3 m E P       2011/10/05 18:24:46.9  -2.0                          T                                        4768217
BGF   009.93 246.3 m E Pn      2011/10/05 18:24:48.8  -0.4                          T                                        4768196
FRF   010.06 223.0 m E P       2011/10/05 18:24:54.5  -2.3                          T                                        4768219
LMR   010.31 222.7 m E P       2011/10/05 18:24:57.8  -2.3                          T                                        4768218
RJF   011.42 243.7 m E P       2011/10/05 18:25:15.6   0.3                          T                                        4768216
HINF  006.96 243.1 m E Sg      2011/10/05 18:26:06.3   0.6                          T               35.7  .62 Ml 4.0         4768205
GIVF  007.26 264.5 m E Sg      2011/10/05 18:26:13.5  -1.4                          T               37.1  .82 Ml 4.0         4768202
BAIF  007.65 265.0 m E Sg      2011/10/05 18:26:27.6   0.4                          T               57.7 1.14 Ml 4.1         4768203
SFTF  007.81 250.6 m E Sg      2011/10/05 18:26:32.1  -0.1                          T               43.9  .90 Ml 4.1         4768198
CABF  008.10 238.1 m E Sg      2011/10/05 18:26:42.1   0.7                          T              123.0 1.16 Ml 4.5         4768200
LPG   008.52 230.3 m E Sg      2011/10/05 18:26:56.1   1.2                          T               47.7 1.20 Ml 4.1         4771484
SMF   009.32 244.5 m E Sg      2011/10/05 18:27:20.3   1.1                          T               14.4  .72 Ml 3.9         4771483
AVF   009.51 246.4 m E Sg      2011/10/05 18:27:26.4   1.0                          T                                        4768197

.
EVENT     264773
    Date      Time       Latitude Longitude    Depth    Ndef Nsta Gap    Mag1  N    Mag2  N    Mag3  N   Author         ID
       rms   OT_Error      Smajor Sminor Az        Err   mdist  Mdist     Err        Err        Err      Quality

2011/10/05 19:23:44.9     42.9551     .2778     15.0      24    7 103  Ml 1.7  5  Md 1.9  2              js067245    264793

      0.25   +-  0.05        .9     .8   30.66 +-  0.0    0.09   2.51   +-0.2      +-0.1                 m i ke

PYRENEES
Sta     Dist  EvAz     Phase      Date       Time     TRes  Azim  AzRes  Slow  SRes Def   SNR       Amp   Per   Mag1   Mag2       ID
EPF   000.09 031.3 m E Pg      2011/10/05 19:23:48.1  -0.1                          T                                        4768237
EPF   000.09 031.3 m E Sg      2011/10/05 19:23:50.7   0.2                          T               13.5  .16        Md 2.0  4768236
ETSF  000.62 265.0 m E Pg      2011/10/05 19:23:57.0   0.0                          T                                        4768234
ETSF  000.62 265.0 m E Sg      2011/10/05 19:24:04.3  -0.9                          T                2.8  .16        Md 1.8  4768235
SJPF  001.11 278.7 m E Pg      2011/10/05 19:24:06.1   0.1                          T                                        4768231
SJPF  001.11 278.7 m E Sg      2011/10/05 19:24:20.8   0.4                          T                1.9  .28 Ml 1.7         4768232
MTLF  001.47 074.1 m E Pg      2011/10/05 19:24:12.7   0.3                          T                                        4768230
MTLF  001.47 074.1 m E Sg      2011/10/05 19:24:31.7   0.2                          T                 .9  .23 Ml 1.6         4768233
CAF   002.36 032.6 m E Pn      2011/10/05 19:24:21.3  -0.1                          T                                        4771492
CAF   002.36 032.6 m E Pg      2011/10/05 19:24:28.8   0.0                          T                                        4771491
CAF   002.36 032.6 m E Sg      2011/10/05 19:24:59.4   0.3                          T                 .9  .24 Ml 1.9         4771493
LFF   002.01 009.4 m E Pg      2011/10/05 19:24:22.4   0.0                          T                                        4771489
LFF   002.01 009.4 m E Sg      2011/10/05 19:24:48.5   0.2                          T                1.6  .21 Ml 1.9         4771490
RJF   002.51 020.4 m E Pn      2011/10/05 19:24:23.4  -0.1                          T                                        4771487
RJF   002.51 020.4 m E Pg      2011/10/05 19:24:31.1  -0.5                          T                                        4771486
RJF   002.51 020.4 m E Sg      2011/10/05 19:25:03.9   0.0                          T                 .6  .27 Ml 1.3         4771488

.
EVENT     264775
    Date      Time       Latitude Longitude    Depth    Ndef Nsta Gap    Mag1  N    Mag2  N    Mag3  N   Author         ID
       rms   OT_Error      Smajor Sminor Az        Err   mdist  Mdist     Err        Err        Err      Quality

2011/10/06 03:51:06.7     42.8180   -1.0246      2.0      17    3 103  Ml 1.1  1  Md 1.1  2              js067245    264795

      0.16   +-  0.05        .9     .8   21.34 +-  0.0    0.14   1.02   +-         +-0.1                 m i ke

PYRENEES
Sta     Dist  EvAz     Phase      Date       Time     TRes  Azim  AzRes  Slow  SRes Def   SNR       Amp   Per   Mag1   Mag2       ID
SJPF  000.33 333.6 m E Pg      2011/10/06 03:51:13.0  -0.2                          T                                        4766833
SJPF  000.33 333.6 m E Sg      2011/10/06 03:51:17.3  -0.2                          T                1.4  .22        Md 1.2  4766832
ETSF  000.35 076.6 m E Pg      2011/10/06 03:51:13.6   0.0                          T                                        4766830
ETSF  000.35 076.6 m E Sg      2011/10/06 03:51:18.5   0.2                          T                 .8  .27        Md 1.0  4766831
EPF   001.02 077.6 m E Sg      2011/10/06 03:51:39.5   0.2                          T                 .4  .26 Ml 1.1         4771494

.
EVENT     264776
    Date      Time       Latitude Longitude    Depth    Ndef Nsta Gap    Mag1  N    Mag2  N    Mag3  N   Author         ID
       rms   OT_Error      Smajor Sminor Az        Err   mdist  Mdist     Err        Err        Err      Quality

2011/10/06 03:58:26.5     42.8686     .0734      2.0       6    3 201  Ml 1.0  1  Md 1.3  2              js067245    264796

      0.08   +-  0.03       1.6     .3  168.02 +-  0.0    0.25   1.64   +-         +-0.2                 m i ke

PYRENEES
Sta     Dist  EvAz     Phase      Date       Time     TRes  Azim  AzRes  Slow  SRes Def   SNR       Amp   Per   Mag1   Mag2       ID
EPF   000.25 050.4 m E Pg      2011/10/06 03:58:31.5   0.0                          T                                        4766853
EPF   000.25 050.4 m E Sg      2011/10/06 03:58:34.8  -0.2                          T                4.3  .22        Md 1.4  4766852
ETSF  000.47 273.9 m E Pg      2011/10/06 03:58:35.4  -0.1                          T                                        4766850
ETSF  000.47 273.9 m E Sg      2011/10/06 03:58:41.5  -0.1                          T                2.8  .22        Md 1.2  4766851
MTLF  001.64 072.5 m E Pg      2011/10/06 03:58:57.0   0.0                          T                                        4771495
MTLF  001.64 072.5 m E Sg      2011/10/06 03:59:18.1  -0.1                          T                 .2  .24 Ml 1.0         4771496

.
