EVENT     266396
    Date      Time       Latitude Longitude    Depth    Ndef Nsta Gap    Mag1  N    Mag2  N    Mag3  N   Author         ID
       rms   OT_Error      Smajor Sminor Az        Err   mdist  Mdist     Err        Err        Err      Quality

2011/11/17 00:00:40.0     41.9362   20.1717      2.0      40   14 104  Ml 3.4  3                         js067245    266416

      0.90   +-  0.17       5.0    3.2   22.04 +-  0.0    0.67  13.57   +-0.2                            m i ke

ALBANIA
Sta     Dist  EvAz     Phase      Date       Time     TRes  Azim  AzRes  Slow  SRes Def   SNR       Amp   Per   Mag1   Mag2       ID
PGF   008.31 278.0 m E P       2011/11/17 00:02:44.1  -0.5                          T                                        4788139
SBF   009.55 285.9 m E P       2011/11/17 00:03:00.1  -1.5                          T                                        4788138
FRF   010.08 283.8 m E P       2011/11/17 00:03:08.3  -0.7                          T                                        4788145
LMR   010.17 282.5 m E P       2011/11/17 00:03:09.7  -0.4                          T                                        4788134
MBDF  010.15 290.4 m E P       2011/11/17 00:03:10.1  -0.1                          T                                        4788141
LPG   010.35 294.6 m E P       2011/11/17 00:03:12.6  -0.4                          T                                        4788144
LPL   010.36 294.7 m E P       2011/11/17 00:03:12.7  -0.4                          T                                        4788143
LPL   010.36 294.7 m E Sn      2011/11/17 00:04:57.2  -0.1                          T                3.5  .53 Ml 3.6         4788363
ORIF  010.81 290.8 m E P       2011/11/17 00:03:18.6  -0.5                          T                                        4788142
HINF  011.12 306.4 m E P       2011/11/17 00:03:22.2  -1.1                          T                                        4788137
HINF  011.12 306.4 m E Sn      2011/11/17 00:05:14.9  -0.3                          T                  1  .26 Ml 3.5         4788364
CABF  011.12 299.6 m E P       2011/11/17 00:03:23.4   0.0                          T                                        4788148
HAU   011.51 306.5 m E P       2011/11/17 00:03:26.0  -2.6                          T                                        4788140
HAU   011.51 306.5 m E Sn      2011/11/17 00:05:24.6   0.1                          T                1.2  .37 Ml 3.2         4788365
VIVF  011.65 289.7 m E P       2011/11/17 00:03:29.3  -1.1                          T                                        4788149
SMF   012.61 297.4 m E P       2011/11/17 00:03:43.3   0.0                          T                                        4788147
HYF   013.57 299.1 m E P       2011/11/17 00:03:56.0  -0.2                          T                                        4788146

.
EVENT     266397
    Date      Time       Latitude Longitude    Depth    Ndef Nsta Gap    Mag1  N    Mag2  N    Mag3  N   Author         ID
       rms   OT_Error      Smajor Sminor Az        Err   mdist  Mdist     Err        Err        Err      Quality

2011/11/17 00:16:25.4     44.6878    6.8202      2.0      11    6 118  Ml 0.9  1  Md 1.6  1              js067245    266417

      0.29   +-  0.09       2.8    1.6   83.74 +-  0.0    0.05   1.13   +-         +-                    m i ke

FRANCE
Sta     Dist  EvAz     Phase      Date       Time     TRes  Azim  AzRes  Slow  SRes Def   SNR       Amp   Per   Mag1   Mag2       ID
MBDF  000.05 318.3 m E Pg      2011/11/17 00:16:26.5  -0.4                          T                                        4788390
MBDF  000.05 318.3 m E Sg      2011/11/17 00:16:27.1  -0.9                          T               64.1  .30        Md 1.6  4788391
ORIF  000.71 289.3 m E Pg      2011/11/17 00:16:39.1   0.2                          T                                        4788389
ORIF  000.71 289.3 m E Sg      2011/11/17 00:16:48.6   0.5                          T                 .6  .24                4788381
LPG   000.81 356.6 m E Pg      2011/11/17 00:16:41.0   0.0                          T                                        4788387
LPG   000.81 356.6 m E Sg      2011/11/17 00:16:51.6   0.0                          T                1.0  .25                4788383
LPL   000.83 355.7 m E Pg      2011/11/17 00:16:41.3   0.0                          T                                        4788388
LPL   000.83 355.7 m E Sg      2011/11/17 00:16:52.2   0.0                          T                 .6  .21                4788382
SBF   000.94 151.6 m E Pg      2011/11/17 00:16:43.0   0.0                          T                                        4788386
FRF   001.13 186.4 m E Pg      2011/11/17 00:16:46.6   0.0                          T                                        4788385
FRF   001.13 186.4 m E Sg      2011/11/17 00:17:01.3   0.0                          T                 .2  .20 Ml  .9         4788384

.
EVENT     266412
    Date      Time       Latitude Longitude    Depth    Ndef Nsta Gap    Mag1  N    Mag2  N    Mag3  N   Author         ID
       rms   OT_Error      Smajor Sminor Az        Err   mdist  Mdist     Err        Err        Err      Quality

2011/11/17 11:00:11.8     43.4549    2.1201       .0 f    11    5 104  Ml 2.0  2  Md 2.0  3              js067245    266432

      0.34   +-  0.10       1.9    1.3  144.96 +-  0.0    0.13   1.79   +-0.2      +-0.1                 m i km

FRANCE
Sta     Dist  EvAz     Phase      Date       Time     TRes  Azim  AzRes  Slow  SRes Def   SNR       Amp   Per   Mag1   Mag2       ID
MTLF  000.13 148.0 m E Pg      2011/11/17 11:00:14.8   0.0                          T                                        4788226
MTLF  000.13 148.0 m E Sg      2011/11/17 11:00:17.0   0.0                          T               89.5  .42        Md 1.9  4788225
EPF   001.37 252.5 m E Pg      2011/11/17 11:00:37.7   0.0                          T                                        4788220
EPF   001.37 252.5 m E Sg      2011/11/17 11:00:56.9   1.4                          T                2.8  .20 Ml 2.1 Md 2.0  4788224
LASF  001.40 063.1 m E Pg      2011/11/17 11:00:37.9  -0.3                          T                                        4788216
LASF  001.40 063.1 m E Sg      2011/11/17 11:00:56.9   0.3                          T                1.6  .22 Ml 1.9 Md 2.1  4788221
CAF   001.47 358.5 m E Pg      2011/11/17 11:00:39.9   0.4                          T                                        4788219
LFF   001.79 326.7 m E Pg      2011/11/17 11:00:44.4  -0.9                          T                                        4788218
LFF   001.79 326.7 m E Sn      2011/11/17 11:01:03.9  -0.7                          T                                        4788217

.
EVENT     266413
    Date      Time       Latitude Longitude    Depth    Ndef Nsta Gap    Mag1  N    Mag2  N    Mag3  N   Author         ID
       rms   OT_Error      Smajor Sminor Az        Err   mdist  Mdist     Err        Err        Err      Quality

2011/11/17 11:04:11.1     43.2274   10.8887     14.7      29    5 080  Ml 2.6  6  Md 2.6  1              js067245    266433

      0.45   +-  0.09       2.2    1.9  104.61 +-  1.2    0.38   3.99   +-0.3      +-                    m i ke

CENTRAL ITALY
Sta     Dist  EvAz     Phase      Date       Time     TRes  Azim  AzRes  Slow  SRes Def   SNR       Amp   Per   Mag1   Mag2       ID
PGF   001.55 244.6 m E Pn      2011/11/17 11:04:37.2   0.6                          T                                        4788237
PGF   001.55 244.6 m E Sn      2011/11/17 11:04:55.6   0.3                          T               22.4  .36 Ml 3.1 Md 2.6  4788231
SBF   002.59 285.4 m E Pn      2011/11/17 11:04:51.4   0.6                          T                                        4788236
SBF   002.59 285.4 m E Sn      2011/11/17 11:05:20.5   0.4                          T                7.0  .32 Ml 2.7         4788230
FRF   003.11 277.6 m E Pn      2011/11/17 11:04:57.4  -0.4                          T                                        4788234
FRF   003.11 277.6 m E Sn      2011/11/17 11:05:32.6   0.2                          T                3.0  .26 Ml 2.6         4788233
LMR   003.20 273.4 m E Pn      2011/11/17 11:04:58.7  -0.3                          T                                        4788235
LMR   003.20 273.4 m E Sn      2011/11/17 11:05:34.6   0.0                          T                2.3  .26 Ml 2.5         4788232
MBDF  003.33 298.2 m E Pn      2011/11/17 11:05:01.1   0.1                          T                                        4788229
MBDF  003.33 298.2 m E P       2011/11/17 11:05:03.7  -0.5                          T                                        4788228
MBDF  003.33 298.2 m E Pg      2011/11/17 11:05:12.3  -0.7                          T                                        4788227
MBDF  003.33 298.2 m E Sn      2011/11/17 11:05:37.7  -0.2                          T                3.0  .51 Ml 2.3         4788422

.
EVENT     266414
    Date      Time       Latitude Longitude    Depth    Ndef Nsta Gap    Mag1  N    Mag2  N    Mag3  N   Author         ID
       rms   OT_Error      Smajor Sminor Az        Err   mdist  Mdist     Err        Err        Err      Quality

2011/11/17 11:12:03.3     42.9895    -.2124      2.0       8    4 166  Ml 1.6  1  Md 1.6  3              js067245    266434

      0.38   +-  0.15      12.4    2.3  173.01 +-  0.0    0.27   1.81   +-         +-0.2                 m i ke

PYRENEES
Sta     Dist  EvAz     Phase      Date       Time     TRes  Azim  AzRes  Slow  SRes Def   SNR       Amp   Per   Mag1   Mag2       ID
ETSF  000.27 250.5 m E Pg      2011/11/17 11:12:08.4  -0.3                          T                                        4788246
ETSF  000.27 250.5 m E Sg      2011/11/17 11:12:13.0   0.7                          T               11.6  .34        Md 1.8  4788245
EPF   000.41 084.1 m E Pg      2011/11/17 11:12:11.0  -0.2                          T                                        4788241
EPF   000.41 084.1 m E Sg      2011/11/17 11:12:17.1   0.5                          T                7.2  .36        Md 1.6  4788244
SJPF  000.75 279.8 m E Pg      2011/11/17 11:12:17.7   0.2                          T                                        4788242
SJPF  000.75 279.8 m E Sg      2011/11/17 11:12:26.9  -0.4                          T                4.0  .34        Md 1.3  4788243
MTLF  001.81 078.0 m E Pg      2011/11/17 11:12:37.3   0.3                          T                                        4788247
MTLF  001.81 078.0 m E Sg      2011/11/17 11:12:59.7  -0.6                          T                 .9  .35 Ml 1.6         4788248

.
EVENT     266418
    Date      Time       Latitude Longitude    Depth    Ndef Nsta Gap    Mag1  N    Mag2  N    Mag3  N   Author         ID
       rms   OT_Error      Smajor Sminor Az        Err   mdist  Mdist     Err        Err        Err      Quality

2011/11/17 16:18:12.4     42.3929    9.7885     25.0       9    4 333  Ml 2.0  3  Md 2.0  1              js067245    266438

      0.43   +-  0.43       8.5    6.4   87.26 +-  0.0    0.60   2.59   +-0.3      +-                    m i ke

CORSICA, FRANCE
Sta     Dist  EvAz     Phase      Date       Time     TRes  Azim  AzRes  Slow  SRes Def   SNR       Amp   Per   Mag1   Mag2       ID
PGF   000.60 285.2 m E Pn      2011/11/17 16:18:23.9  -0.1                          T                                        4788259
PGF   000.60 285.2 m E Sn      2011/11/17 16:18:32.4   0.2                          T               26.6  .22        Md 2.0  4788258
FRF   002.58 297.9 m E Pn      2011/11/17 16:18:50.5  -0.3                          T                                        4788425
FRF   002.58 297.9 m E Sn      2011/11/17 16:19:19.0  -0.4                          T                 .6  .24 Ml 1.8         4788423
LMR   002.59 292.4 m E Pn      2011/11/17 16:18:51.3   0.4                          T                                        4788426
LMR   002.59 292.4 m E Sn      2011/11/17 16:19:19.8   0.3                          T                 .9  .24 Ml 1.9         4788424
SBF   002.26 311.3 m E Sn      2011/11/17 16:19:11.3  -0.5                          T                3.1  .22 Ml 2.4         4788260

.
EVENT     266417
    Date      Time       Latitude Longitude    Depth    Ndef Nsta Gap    Mag1  N    Mag2  N    Mag3  N   Author         ID
       rms   OT_Error      Smajor Sminor Az        Err   mdist  Mdist     Err        Err        Err      Quality

2011/11/17 21:51:11.6     42.7370     .2763      2.0      17    4 072  Ml 1.3  1  Md 1.3  2              js067245    266437

      0.50   +-  0.10       2.2    1.6    3.57 +-  0.0    0.10   1.55   +-         +-0.2                 m i ke

PYRENEES
Sta     Dist  EvAz     Phase      Date       Time     TRes  Azim  AzRes  Slow  SRes Def   SNR       Amp   Per   Mag1   Mag2       ID
EPF   000.30 009.0 m E Pg      2011/11/17 21:51:17.5   0.0                          T                                        4788278
EPF   000.30 009.0 m E Sg      2011/11/17 21:51:21.4   0.0                          T                3.0  .18        Md 1.5  4788277
ETSF  000.64 285.0 m E Pn      2011/11/17 21:51:26.0  -0.2                          T                                        4788281
ETSF  000.64 285.0 m E Sg      2011/11/17 21:51:32.2   0.2                          T                  1  .24        Md 1.2  4788276
SJPF  001.17 289.3 m E Pg      2011/11/17 21:51:32.9  -0.5                          T                                        4788280
SJPF  001.17 289.3 m E Sg      2011/11/17 21:51:50.0   1.5                          T                 .6  .23 Ml 1.3         4788275
MTLF  001.55 066.4 m E Pg      2011/11/17 21:51:40.0  -0.4                          T                                        4788279

.
EVENT     266419
    Date      Time       Latitude Longitude    Depth    Ndef Nsta Gap    Mag1  N    Mag2  N    Mag3  N   Author         ID
       rms   OT_Error      Smajor Sminor Az        Err   mdist  Mdist     Err        Err        Err      Quality

2011/11/17 23:18:33.9     51.6008   16.1090      1.0 f    76   15 043  Ml 4.1  8                         js067245    266439

      0.97   +-  0.17       5.0    2.6    2.66 +-  0.0    0.77  48.32   +-0.2                            m i sr

POLAND
Sta     Dist  EvAz     Phase      Date       Time     TRes  Azim  AzRes  Slow  SRes Def   SNR       Amp   Per   Mag1   Mag2       ID
LANF  005.93 247.0 m E P       2011/11/17 23:20:04.3  -0.9                          T                                        4788292
LANF  005.93 247.0 m E Sg      2011/11/17 23:21:42.7   3.1                          T              174.6 1.02 Ml 4.3         4788301
RUP   006.06 255.3 m E Pn      2011/11/17 23:20:05.7   3.2                          T                                        4788303
RUP   006.06 255.3 m E Sg      2011/11/17 23:21:44.1   0.4                          T                                        4788286
CDF   006.53 244.2 m E P       2011/11/17 23:20:12.1  -1.5                          T                                        4788302
CDF   006.53 244.2 m E Sg      2011/11/17 23:21:58.3   0.0                          T              158.3 1.28 Ml 4.4         4788300
HINF  007.10 241.4 m E Pn      2011/11/17 23:20:16.8   0.3                          T                                        4788289
HINF  007.10 241.4 m E Sg      2011/11/17 23:22:16.9   0.9                          T               55.7  .90 Ml 4.1         4788287
HAU   007.27 244.1 m E P       2011/11/17 23:20:21.9  -2.0                          T                                        4788296
HAU   007.27 244.1 m E Sg      2011/11/17 23:22:20.9  -0.5                          T               77.0  .96 Ml 4.0         4788283
THEF  007.35 246.6 m E P       2011/11/17 23:20:23.4  -1.7                          T                                        4788290
THEF  007.35 246.6 m E Sg      2011/11/17 23:22:24.4   0.5                          T               38.7  .80 Ml 4.0         4788284
PAGF  007.34 249.5 m E P       2011/11/17 23:20:23.5  -1.5  69.7  8.1               T                                        4788297
PAGF  007.34 249.5 m E Sg      2011/11/17 23:22:25.4   1.8                          T               42.7 1.31 Ml 3.8         4788285
SFTF  007.91 248.9 m E P       2011/11/17 23:20:32.4  -0.6                          T                                        4788291
LOR   009.08 246.3 m E Pn      2011/11/17 23:20:45.4   1.9  67.1  10.2              T                                        4788299
SSF   009.40 246.0 m E Pn      2011/11/17 23:20:48.1   0.3                          T                                        4788298
MBDF  009.28 225.8 m E P       2011/11/17 23:20:51.9  -0.3                          T                                        4788293
SBF   009.69 220.4 m E P       2011/11/17 23:20:55.1  -2.7                          T                                        4788295
FRF   010.27 222.1 m E P       2011/11/17 23:21:04.4  -1.1                          T                                        4788294
LPG   008.70 229.1 m E Sg      2011/11/17 23:23:07.7   1.3                          T               58.1 1.24 Ml 4.2         4788288
AVF   009.64 245.0 m E Sg      2011/11/17 23:23:35.6   0.4                          T               44.0 1.22 Ml 4.2         4788282

.
EVENT     266437
    Date      Time       Latitude Longitude    Depth    Ndef Nsta Gap    Mag1  N    Mag2  N    Mag3  N   Author         ID
       rms   OT_Error      Smajor Sminor Az        Err   mdist  Mdist     Err        Err        Err      Quality

2011/11/18 09:43:32.5     48.3812    8.9954     10.0      24    5 051  Ml 2.1  4  Md 2.0  2              js067245    266457

      0.35   +-  0.05        .9     .9  167.33 +-  0.0    0.15   1.84   +-0.3      +-0.2                 m i ke

GERMANY
Sta     Dist  EvAz     Phase      Date       Time     TRes  Azim  AzRes  Slow  SRes Def   SNR       Amp   Per   Mag1   Mag2       ID
LANF  000.99 307.7 m E Pg      2011/11/18 09:43:51.1   0.0                          T                                        4788355
LANF  000.99 307.7 m E Sg      2011/11/18 09:44:04.3   0.3                          T                6.5  .17 Ml 2.4 Md 2.1  4788360
LANF  000.99 307.7 m E S       2011/11/18 09:44:06.2  -0.6                          T                                        4788359
CDF   001.15 272.2 m E Pg      2011/11/18 09:43:53.9  -0.2                          T                                        4788362
CDF   001.15 272.2 m E Sn      2011/11/18 09:44:07.1  -0.8                          T                                        4788352
CDF   001.15 272.2 m E Sg      2011/11/18 09:44:09.0   0.1                          T                2.1  .16 Ml 2.1 Md 1.8  4788361
HAU   001.81 259.0 m E Pg      2011/11/18 09:44:06.5   0.3                          T                                        4788358
HAU   001.81 259.0 m E Sg      2011/11/18 09:44:29.6   0.0                          T                1.7  .24 Ml 1.8         4788356
RUP   001.84 316.8 m E Pg      2011/11/18 09:44:06.7   0.0                          T                                        4788354
RUP   001.84 316.8 m E Sg      2011/11/18 09:44:30.5   0.1                          T                                        4788353
HINF  001.54 249.3 m E Sg      2011/11/18 09:44:21.3   0.1                          T                2.1  .28 Ml 1.9         4788357

.
