EVENT     262505
    Date      Time       Latitude Longitude    Depth    Ndef Nsta Gap    Mag1  N    Mag2  N    Mag3  N   Author         ID
       rms   OT_Error      Smajor Sminor Az        Err   mdist  Mdist     Err        Err        Err      Quality

2011/08/13 06:41:30.1     42.8085   -1.3129      2.0      32    3 088  Ml 1.2  1  Md 1.5  2              js067245    262505

      0.24   +-  0.05       1.1     .7   34.71 +-  0.0    0.03   1.23   +-         +-0.2                 m i ke

PYRENEES
Sta     Dist  EvAz     Phase      Date       Time     TRes  Azim  AzRes  Slow  SRes Def   SNR       Amp   Per   Mag1   Mag2       ID
SJPF  000.31 011.9 m E Pg      2011/08/13 06:41:36.3   0.1                          T                                        4738211
SJPF  000.31 011.9 m E Sg      2011/08/13 06:41:40.7   0.3                          T                3.1  .21        Md 1.6  4738209
ETSF  000.56 080.5 m E Pg      2011/08/13 06:41:41.8   0.9                          T                                        4738210
ETSF  000.56 080.5 m E Sg      2011/08/13 06:41:48.5   0.2                          T                 .7  .26        Md 1.4  4738208
EPF   001.23 079.1 m E Sg      2011/08/13 06:42:09.2   0.0                          T                 .5  .26 Ml 1.2         4745745

.
EVENT     263615
    Date      Time       Latitude Longitude    Depth    Ndef Nsta Gap    Mag1  N    Mag2  N    Mag3  N   Author         ID
       rms   OT_Error      Smajor Sminor Az        Err   mdist  Mdist     Err        Err        Err      Quality

2011/08/13 08:52:40.4     42.8026   -1.3290      2.0      27    3 103  Ml 1.1  1  Md 1.3  2              js067245    263615

      0.21   +-  0.04       1.0     .7   33.77 +-  0.0    0.02   1.25   +-         +-0.2                 m i ke

PYRENEES
Sta     Dist  EvAz     Phase      Date       Time     TRes  Azim  AzRes  Slow  SRes Def   SNR       Amp   Per   Mag1   Mag2       ID
SJPF  000.32 013.8 m E Pg      2011/08/13 08:52:46.9   0.3                          T                                        4745754
SJPF  000.32 013.8 m E Sg      2011/08/13 08:52:51.4   0.5                          T                1.9  .23        Md 1.4  4745755
ETSF  000.57 080.1 m E Pg      2011/08/13 08:52:51.3  -0.1                          T                                        4745752
ETSF  000.57 080.1 m E Sg      2011/08/13 08:52:58.9   0.0                          T                 .6  .29        Md 1.1  4745753
EPF   001.25 078.9 m E Sg      2011/08/13 08:53:19.8  -0.1                          T                 .4  .23 Ml 1.1         4745751

.
EVENT     263616
    Date      Time       Latitude Longitude    Depth    Ndef Nsta Gap    Mag1  N    Mag2  N    Mag3  N   Author         ID
       rms   OT_Error      Smajor Sminor Az        Err   mdist  Mdist     Err        Err        Err      Quality

2011/08/13 08:53:12.8     42.8311   -1.3289      2.0      19    3 085  Ml 1.3  1  Md 1.1  2              js067245    263616

      0.23   +-  0.06       1.4    1.1  177.80 +-  0.0    0.03   1.24   +-         +-0.1                 m i ke

PYRENEES
Sta     Dist  EvAz     Phase      Date       Time     TRes  Azim  AzRes  Slow  SRes Def   SNR       Amp   Per   Mag1   Mag2       ID
SJPF  000.29 015.1 m E Pg      2011/08/13 08:53:18.5   0.0                          T                                        4745749
SJPF  000.29 015.1 m E Sg      2011/08/13 08:53:22.4  -0.1                          T                 .5  .26        Md 1.0  4745750
ETSF  000.57 082.9 m E Pg      2011/08/13 08:53:23.7   0.0                          T                                        4745747
ETSF  000.57 082.9 m E Sg      2011/08/13 08:53:31.2   0.0                          T                 .3  .24        Md 1.2  4745748
EPF   001.24 080.2 m E Sg      2011/08/13 08:53:52.2   0.0                          T                 .5  .21 Ml 1.3         4745746

.
EVENT     262506
    Date      Time       Latitude Longitude    Depth    Ndef Nsta Gap    Mag1  N    Mag2  N    Mag3  N   Author         ID
       rms   OT_Error      Smajor Sminor Az        Err   mdist  Mdist     Err        Err        Err      Quality

2011/08/13 13:01:39.0     44.5361    7.0851      2.0      17    8 173  Ml 2.1  6  Md 2.3  2              js067245    262506

      0.26   +-  0.10       2.1    1.2   74.75 +-  0.0    0.29   1.75   +-0.2      +-0.2                 m i ke

NORTHERN ITALY
Sta     Dist  EvAz     Phase      Date       Time     TRes  Azim  AzRes  Slow  SRes Def   SNR       Amp   Per   Mag1   Mag2       ID
MBDF  000.29 310.5 m E Pg      2011/08/13 13:01:44.8  -0.1                          T                                        4738228
MBDF  000.29 310.5 m E Sg      2011/08/13 13:01:49.2   0.3                          T               40.8  .26        Md 2.1  4738221
SBF   000.72 159.4 m E Pg      2011/08/13 13:01:52.9   0.3                          T                                        4738223
SBF   000.72 159.4 m E Sg      2011/08/13 13:02:01.6  -0.4                          T                8.4  .18        Md 2.4  4738217
ORIF  000.94 294.4 m E Pg      2011/08/13 13:01:56.9   0.2                          T                                        4738227
ORIF  000.94 294.4 m E Sg      2011/08/13 13:02:08.7  -0.3                          T                3.0  .28 Ml 1.8         4738220
LPG   000.99 346.3 m E Pg      2011/08/13 13:01:57.8  -0.1                          T                                        4738225
LPG   000.99 346.3 m E Sg      2011/08/13 13:02:11.0   0.3                          T                6.1  .26 Ml 2.2         4738219
LPL   001.01 345.8 m E Pg      2011/08/13 13:01:58.2  -0.1                          T                                        4738226
LPL   001.01 345.8 m E Sg      2011/08/13 13:02:11.4   0.0                          T                9.8  .26 Ml 2.4         4738216
SMRF  001.22 243.2 m E Pg      2011/08/13 13:02:02.2   0.3                          T                                        4738222
SMRF  001.22 243.2 m E Sg      2011/08/13 13:02:18.0   0.3                          T                5.3  .34 Ml 2.1         4738215
LMR   001.27 199.3 m E Pg      2011/08/13 13:02:02.7  -0.1                          T                                        4738224
LMR   001.27 199.3 m E Sg      2011/08/13 13:02:18.4  -0.8                          T                4.0  .19 Ml 2.3         4738218
VIVF  001.75 281.4 m E Pg      2011/08/13 13:02:11.4  -0.2                          T                                        4738212

.
EVENT     262509
    Date      Time       Latitude Longitude    Depth    Ndef Nsta Gap    Mag1  N    Mag2  N    Mag3  N   Author         ID
       rms   OT_Error      Smajor Sminor Az        Err   mdist  Mdist     Err        Err        Err      Quality

2011/08/14 01:27:23.8     45.1748    5.8142      2.0      10    4 172  Ml 1.4  2  Md 1.6  3              js067245    262509

      1.93   +-  0.37       7.0    4.8  155.42 +-  0.0    0.26   1.72   +-0.1      +-0.2                 m i ke

FRANCE
Sta     Dist  EvAz     Phase      Date       Time     TRes  Azim  AzRes  Slow  SRes Def   SNR       Amp   Per   Mag1   Mag2       ID
ORIF  000.26 169.7 m E Pg      2011/08/14 01:27:28.8  -0.3                          T                                        4738244
ORIF  000.26 169.7 m E Sg      2011/08/14 01:27:33.1   0.4                          T                4.2  .25        Md 1.8  4738243
LPL   000.73 061.9 m E Pg      2011/08/14 01:27:38.4   0.5                          T                                        4738240
LPL   000.73 061.9 m E Sg      2011/08/14 01:27:47.9   0.4                          T                1.0  .38        Md 1.4  4738239
VIVF  000.87 248.9 m E Pg      2011/08/14 01:27:39.6  -0.6                          T                                        4738241
VIVF  000.87 248.9 m E Sg      2011/08/14 01:27:50.5  -1.1                          T                2.1  .41 Ml 1.5 Md 1.6  4738242
FRF   001.72 159.4 m E Pg      2011/08/14 01:27:56.1   0.2                          T                                        4738236
FRF   001.72 159.4 m E Sg      2011/08/14 01:28:18.3   0.2                          T                 .3  .22 Ml 1.3         4738235

.
EVENT     262510
    Date      Time       Latitude Longitude    Depth    Ndef Nsta Gap    Mag1  N    Mag2  N    Mag3  N   Author         ID
       rms   OT_Error      Smajor Sminor Az        Err   mdist  Mdist     Err        Err        Err      Quality

2011/08/14 03:22:33.5     44.2994    7.3301      2.0      56   27 145  Ml 2.3 22  Md 2.7  3              js067245    262510

      0.49   +-  0.09       2.5    1.5   64.99 +-  0.0    0.44   7.00   +-0.4      +-0.3                 m i ke

NORTHERN ITALY
Sta     Dist  EvAz     Phase      Date       Time     TRes  Azim  AzRes  Slow  SRes Def   SNR       Amp   Per   Mag1   Mag2       ID
SBF   000.44 170.1 m E Pg      2011/08/14 03:22:42.7   0.6                          T   001.0                                4736426
SBF   000.44 170.1 m E Sg      2011/08/14 03:22:49.4   1.5                          T               55.0  .20        Md 2.7  4738257
MBDF  000.59 317.1 m E Pg      2011/08/14 03:22:44.0  -0.8                          T   001.0                                4736433
MBDF  000.59 317.1 m E Sg      2011/08/14 03:22:51.6  -0.9                          T               35.5  .32        Md 2.4  4738258
FRF   000.89 214.0 m E Pg      2011/08/14 03:22:50.0  -0.2                          T   001.0                                4736443
FRF   000.89 214.0 m E Sg      2011/08/14 03:23:01.6  -0.2                          T   001.0       41.1  .21 Ml 3.1 Md 3.0  4736444
LMR   001.13 211.9 m E Pn      2011/08/14 03:22:54.3  -0.4                          T   001.0                                4736415
LMR   001.13 211.9 m E Sg      2011/08/14 03:23:09.0  -0.4                          T   001.0       48.7  .22 Ml 3.2         4736416
ORIF  001.21 301.4 m E Pn      2011/08/14 03:22:55.2  -0.6                          T   001.0                                4736438
ORIF  001.21 301.4 m E Sg      2011/08/14 03:23:11.4  -0.4                          T   001.0        7.8  .21 Ml 2.5         4736448
LPL   001.29 341.0 m E Pn      2011/08/14 03:22:56.4  -0.7                          T   001.0                                4736422
LPL   001.29 341.0 m E Sn      2011/08/14 03:23:13.7  -0.2                          T   001.0        9.2  .42 Ml 2.3         4736423
LPG   001.27 341.3 m E Pn      2011/08/14 03:22:56.8  -0.1                          T   001.0                                4736420
LPG   001.27 341.3 m E Sn      2011/08/14 03:23:12.6  -0.9                          T   001.0        7.9  .27 Ml 2.4         4736421
SMRF  001.30 256.3 m E Pg      2011/08/14 03:22:57.7  -0.2                          T   001.0                                4736452
SMRF  001.30 256.3 m E Sg      2011/08/14 03:23:15.2   0.5                          T   001.0       34.5  .23 Ml 3.1         4736454
VIVF  001.98 287.3 m E Pn      2011/08/14 03:23:06.1  -0.1                          T   001.0                                4736449
VIVF  001.98 287.3 m E Sn      2011/08/14 03:23:29.7  -0.5                          T   001.0        3.4  .17 Ml 2.5         4736450
PGF   002.13 144.6 m E Pn      2011/08/14 03:23:07.0  -0.4                          T   001.0                                4736424
PGF   002.13 144.6 m E Sn      2011/08/14 03:23:33.7  -0.3                          T   001.0        1.1  .20 Ml 2.2         4736425
LASF  002.51 266.1 m E Pn      2011/08/14 03:23:13.0  -0.5                          T   001.0                                4736446
LASF  002.51 266.1 m E Sn      2011/08/14 03:23:42.5  -0.3                          T   001.0        2.5  .36 Ml 2.2         4736447
CABF  002.47 339.7 m E Pn      2011/08/14 03:23:14.1   1.0                          T   001.0                                4736429
CABF  002.47 339.7 m E Sn      2011/08/14 03:23:42.6   0.5                          T   001.0        1.4  .37 Ml 1.9         4736430
SMF   003.40 314.9 m E Pn      2011/08/14 03:23:26.3   0.8                          T   001.0                                4736427
HINF  003.53 354.8 m E Pn      2011/08/14 03:23:26.5  -1.0                          T   001.0                                4736431
HINF  003.53 354.8 m E Sn      2011/08/14 03:24:08.1   0.8                          T   001.0         .8  .22 Ml 2.1         4736432
HAU   003.77 349.9 m E Pn      2011/08/14 03:23:30.2  -0.4                          T   001.0                                4736445
AVF   003.74 313.1 m E Pn      2011/08/14 03:23:31.0   0.8                          T   001.0                                4736411
AVF   003.74 313.1 m E Sn      2011/08/14 03:24:11.2  -1.1                          T   001.0         .6  .28 Ml 1.9         4736412
MTLF  003.82 257.3 m E Pn      2011/08/14 03:23:31.5   0.2                          T   001.0                                4736436
MTLF  003.82 257.3 m E Sn      2011/08/14 03:24:14.4   0.2                          T   001.0         .6  .22 Ml 2.0         4736437
CAF   003.81 281.3 m E Pn      2011/08/14 03:23:31.7   0.4                          T   001.0                                4736414
CAF   003.81 281.3 m E Sn      2011/08/14 03:24:14.1   0.1                          T   001.0         .4  .22 Ml 1.9         4736439
LOR   003.84 321.9 m E Pn      2011/08/14 03:23:31.7   0.1                          T   001.0                                4736417
LOR   003.84 321.9 m E Sn      2011/08/14 03:24:14.7   0.1                          T   001.0          1  .21 Ml 2.3         4736418
BGF   003.88 307.2 m E Pn      2011/08/14 03:23:32.9   0.7                          T   001.0                                4736413
CDF   004.11 359.5 m E Pn      2011/08/14 03:23:34.4  -1.1                          T   001.0                                4736440
CDF   004.11 359.5 m E Sn      2011/08/14 03:24:21.7   0.4                          T   001.0         .4  .22 Ml 2.0         4736441
TCF   004.12 300.6 m E Pn      2011/08/14 03:23:36.4   0.9                          T   001.0                                4736428
TCF   004.12 300.6 m E Sn      2011/08/14 03:24:21.5   0.0                          T                 .5  .23 Ml 2.1         4738256
MEZF  004.49 340.3 m E Pn      2011/08/14 03:23:40.4   0.0                          T   001.0                                4736434
LFF   004.75 280.0 m E Pn      2011/08/14 03:23:43.8  -0.2                          T   001.0                                4736410
LDF   006.70 312.5 m E Pn      2011/08/14 03:24:11.7   1.1                          T   001.0                                4736409
FLN   007.00 312.4 m E Pn      2011/08/14 03:24:15.6   1.0                          T   001.0                                4736442
PAGF  004.40 346.0 m E Sn      2011/08/14 03:24:27.9  -0.1                          T                 .2  .26 Ml 1.7         4738255

.
EVENT     262511
    Date      Time       Latitude Longitude    Depth    Ndef Nsta Gap    Mag1  N    Mag2  N    Mag3  N   Author         ID
       rms   OT_Error      Smajor Sminor Az        Err   mdist  Mdist     Err        Err        Err      Quality

2011/08/14 04:54:04.4     43.1000    -.3729      2.0      27    8 083  Ml 2.0  6  Md 2.2  3              js067245    262511

      0.52   +-  0.08       1.9    1.3  161.02 +-  0.0    0.24   3.77   +-0.2      +-0.1                 m i ke

PYRENEES
Sta     Dist  EvAz     Phase      Date       Time     TRes  Azim  AzRes  Slow  SRes Def   SNR       Amp   Per   Mag1   Mag2       ID
ETSF  000.24 214.2 m E Pg      2011/08/14 04:54:08.9  -0.4                          T                                        4738277
ETSF  000.24 214.2 m E Sg      2011/08/14 04:54:11.5  -1.1                          T               14.9  .21        Md 2.2  4738271
EPF   000.53 097.3 m E Pg      2011/08/14 04:54:14.0  -0.5                          T                                        4738276
EPF   000.53 097.3 m E Sg      2011/08/14 04:54:21.3  -0.1                          T                5.5  .18        Md 2.3  4738270
SJPF  000.62 271.5 m E Pg      2011/08/14 04:54:17.2   0.9                          T                                        4738274
SJPF  000.62 271.5 m E Sg      2011/08/14 04:54:24.5   0.1                          T                2.8  .22        Md 2.1  4738266
MTLF  001.91 081.9 m E Pg      2011/08/14 04:54:40.2   0.3                          T                                        4738275
MTLF  001.91 081.9 m E Sg      2011/08/14 04:55:03.5  -1.0                          T                 .7  .20 Ml 1.7         4738269
LFF   002.01 023.2 m E Pg      2011/08/14 04:54:41.8   0.1                          T                                        4738273
LFF   002.01 023.2 m E Sg      2011/08/14 04:55:08.2   0.7                          T                3.2  .24 Ml 2.2         4738268
CAF   002.53 043.1 m E Pg      2011/08/14 04:54:51.0  -0.4                          T                                        4738272
CAF   002.53 043.1 m E Sn      2011/08/14 04:55:14.5   0.2                          T                                        4738264
CAF   002.53 043.1 m E Sg      2011/08/14 04:55:24.2   0.2                          T                1.8  .26 Ml 2.2         4738265
RJF   002.59 031.0 m E Sg      2011/08/14 04:55:26.1   0.4                          T                1.2  .16 Ml 1.9         4738267
MFF   003.51 002.6 m E Sg      2011/08/14 04:55:53.9  -0.4                          T                 .3  .18 Ml 1.9         4738262

.
EVENT     262512
    Date      Time       Latitude Longitude    Depth    Ndef Nsta Gap    Mag1  N    Mag2  N    Mag3  N   Author         ID
       rms   OT_Error      Smajor Sminor Az        Err   mdist  Mdist     Err        Err        Err      Quality

2011/08/14 06:18:33.8     40.3035   19.5321     25.0     167    7 081  Ml 3.8  4                         js067245    262512

      1.04   +-  0.10       3.1    2.2    2.81 +-  0.0    0.85 103.13   +-0.1                            m i ke

ALBANIA
Sta     Dist  EvAz     Phase      Date       Time     TRes  Azim  AzRes  Slow  SRes Def   SNR       Amp   Per   Mag1   Mag2       ID
LMR   010.18 291.5 m E Pn      2011/08/14 06:20:55.8   0.2                          T                                        4738278
CABF  011.62 307.3 m E Pn      2011/08/14 06:21:16.3   1.0                          T                                        4738279
SMF   013.03 304.3 m E Pn      2011/08/14 06:21:34.2  -0.2                          T                                        4738280
LPL   010.73 303.2 m E Sn      2011/08/14 06:22:54.8  -0.9                          T                3.6  .40 Ml 3.8         4738282
LPG   010.71 303.2 m E Sn      2011/08/14 06:22:55.6   0.2                          T                1.9  .27 Ml 3.7         4738281
HINF  011.80 313.7 m E Sn      2011/08/14 06:23:20.6  -0.5                          T                1.4  .28 Ml 3.7         4738283
LOR   013.28 306.8 m E Sn      2011/08/14 06:23:58.3   1.9                          T                2.8  .35 Ml 4.0         4738284

.
