EVENT     266683
    Date      Time       Latitude Longitude    Depth    Ndef Nsta Gap    Mag1  N    Mag2  N    Mag3  N   Author         ID
       rms   OT_Error      Smajor Sminor Az        Err   mdist  Mdist     Err        Err        Err      Quality

2011/11/24 00:55:09.6     46.2440    5.5363      2.0      75   29 084  Ml 2.4 26  Md 2.2  7              js067245    266703

      0.42   +-  0.04        .8     .7   71.65 +-  0.0    0.53   4.50   +-0.3      +-0.1                 m i ke

FRANCE
Sta     Dist  EvAz     Phase      Date       Time     TRes  Azim  AzRes  Slow  SRes Def   SNR       Amp   Per   Mag1   Mag2       ID
CABF  000.53 045.9 m E Pg      2011/11/24 00:55:19.8   0.0                          T   001.0                                4790646
CABF  000.53 045.9 m E Sg      2011/11/24 00:55:27.0   0.3                          T   001.0        8.4  .24        Md 2.3  4790647
LPL   001.11 130.6 m E Pg      2011/11/24 00:55:30.9   0.3                          T   001.0                                4790636
LPL   001.11 130.6 m E P       2011/11/24 00:55:32.3  -0.1                          T                                        4790751
LPL   001.11 130.6 m E Sg      2011/11/24 00:55:45.2   0.2                          T   001.0        3.5  .24 Ml 2.0 Md 2.2  4790637
LPG   001.13 130.9 m E Pg      2011/11/24 00:55:31.5   0.3                          T   001.0                                4790634
LPG   001.13 130.9 m E P       2011/11/24 00:55:32.4  -0.3                          T                                        4790908
LPG   001.13 130.9 m E Sg      2011/11/24 00:55:45.6  -0.2                          T                4.1  .26 Ml 2.1 Md 2.3  4790735
SMF   001.24 289.5 m E Pn      2011/11/24 00:55:32.3   0.1                          T                                        4790912
SMF   001.24 289.5 m E Pg      2011/11/24 00:55:32.9   0.2                          T   001.0                                4790639
SMF   001.24 289.5 m E Sg      2011/11/24 00:55:49.3   0.5                          T   001.0       24.0  .16 Ml 3.1 Md 2.3  4790640
ORIF  001.35 169.6 m E Pg      2011/11/24 00:55:34.8  -0.1                          T   001.0                                4790655
ORIF  001.35 169.6 m E Sn      2011/11/24 00:55:50.4  -0.9                          T                                        4790906
ORIF  001.35 169.6 m E Sg      2011/11/24 00:55:52.4   0.1                          T   001.0        7.6  .24 Ml 2.5 Md 2.1  4790657
VIVF  001.51 203.9 m E Pn      2011/11/24 00:55:36.1   0.0                          T   001.0                                4790658
VIVF  001.51 203.9 m E Sg      2011/11/24 00:55:57.5   0.1                          T   001.0        6.5  .18 Ml 2.6 Md 2.3  4790659
LOR   001.54 312.2 m E Pn      2011/11/24 00:55:37.0   0.6 135.4  4.4               T   001.0                                4790632
LOR   001.54 312.2 m E Pg      2011/11/24 00:55:38.4   0.1 133.9  2.9               T                                        4790765
LOR   001.54 312.2 m E Sn      2011/11/24 00:55:55.7  -0.2                          T   001.0        8.7  .24 Ml 2.6         4790633
LOR   001.54 312.2 m E Sg      2011/11/24 00:55:58.1  -0.2                          T                9.9  .26 Ml 2.6 Md 2.2  4790764
AVF   001.60 290.7 m E Pn      2011/11/24 00:55:37.1  -0.1                          T   001.0                                4790620
AVF   001.60 290.7 m E Pg      2011/11/24 00:55:39.2  -0.2                          T                                        4790770
AVF   001.60 290.7 m E Sg      2011/11/24 00:55:59.6  -0.6                          T   001.0       12.8  .30 Ml 2.7         4790621
SSF   001.62 301.0 m E Pn      2011/11/24 00:55:38.3   0.8                          T   001.0                                4790641
SSF   001.62 301.0 m E Sn      2011/11/24 00:55:57.3  -0.3                          T   001.0          7  .24 Ml 2.6         4790642
SSF   001.62 301.0 m E Sg      2011/11/24 00:56:00.5  -0.2                          T                7.2  .24 Ml 2.7         4790763
MBDF  001.75 149.8 m E Pn      2011/11/24 00:55:39.5   0.1                          T                                        4790771
MBDF  001.75 149.8 m E Pg      2011/11/24 00:55:42.0  -0.3                          T   001.0                                4790651
MBDF  001.75 149.8 m E Sg      2011/11/24 00:56:04.3  -0.6                          T   001.0         .8  .20 Ml 1.8         4790652
HINF  001.81 029.3 m E Pn      2011/11/24 00:55:39.9  -0.3                          T   001.0                                4790648
HINF  001.81 029.3 m E Pg      2011/11/24 00:55:43.7   0.3                          T                                        4790769
HINF  001.81 029.3 m E Sg      2011/11/24 00:56:05.9  -0.8                          T   001.0        8.1  .28 Ml 2.6         4790650
BGF   001.89 280.5 m E Pn      2011/11/24 00:55:41.5   0.4                          T   001.0                                4790622
BGF   001.89 280.5 m E Sn      2011/11/24 00:56:04.4   0.3                          T   001.0        5.6  .32 Ml 2.4         4790623
BGF   001.89 280.5 m E Sg      2011/11/24 00:56:09.0   0.0                          T                5.4  .30 Ml 2.4         4790757
HAU   001.85 017.2 m E Pg      2011/11/24 00:55:43.7  -0.3                          T                                        4790768
HAU   001.85 017.2 m E Sg      2011/11/24 00:56:07.8   0.0                          T   001.0       10.1  .28 Ml 2.5         4790627
SFTF  001.99 350.4 m E Pg      2011/11/24 00:55:46.5  -0.1                          T                                        4790737
SFTF  001.99 350.4 m E Sn      2011/11/24 00:56:06.5  -0.1                          T                                        4790744
SFTF  001.99 350.4 m E Sg      2011/11/24 00:56:12.2  -0.1                          T                1.9  .24 Ml 2.1         4790760
TCF   002.31 272.3 m E Pn      2011/11/24 00:55:46.6  -0.2                          T   001.0                                4790643
TCF   002.31 272.3 m E Pg      2011/11/24 00:55:52.6   0.1                          T                                        4790738
TCF   002.31 272.3 m E Sn      2011/11/24 00:56:14.1   0.0                          T   001.0                                4790644
TCF   002.31 272.3 m E Sg      2011/11/24 00:56:20.9  -1.3                          T   001.0        2.3  .24 Ml 2.3         4790645
THEF  002.01 008.8 m E Pg      2011/11/24 00:55:46.9  -0.1                          T                                        4790767
THEF  002.01 008.8 m E Sg      2011/11/24 00:56:12.1  -0.8                          T                5.3  .20 Ml 2.6         4790759
LASF  002.47 209.3 m E Pn      2011/11/24 00:55:49.0  -0.1                          T   001.0                                4790628
LASF  002.47 209.3 m E Pg      2011/11/24 00:55:55.8   0.3                          T   001.0                                4790629
LASF  002.47 209.3 m E Sg      2011/11/24 00:56:26.3  -1.0                          T   001.0        2.5  .22 Ml 2.4         4790630
MEZF  002.28 351.9 m E Pg      2011/11/24 00:55:51.9  -0.1 175.7  4.2               T   001.0                                4790653
MEZF  002.28 351.9 m E Sg      2011/11/24 00:56:21.4   0.0                          T                3.7  .31 Ml 2.3         4790761
CAF   002.77 242.8 m E Pn      2011/11/24 00:55:52.9  -0.3                          T   001.0                                4790624
CAF   002.77 242.8 m E Pg      2011/11/24 00:56:01.3   0.2                          T                                        4790754
CAF   002.77 242.8 m E Sg      2011/11/24 00:56:36.6  -0.1                          T   001.0         .8  .22 Ml 2.0         4790625
CDF   002.47 028.0 m E Pg      2011/11/24 00:55:56.0   0.5                          T                                        4790766
CDF   002.47 028.0 m E Sg      2011/11/24 00:56:27.1  -0.2                          T   001.0        1.2  .22 Ml 2.2         4790626
FRF   002.80 163.2 m E Pg      2011/11/24 00:56:00.7  -0.7                          T                                        4790907
FRF   002.80 163.2 m E Sn      2011/11/24 00:56:26.1   0.3                          T                                        4790749
FRF   002.80 163.2 m E Sg      2011/11/24 00:56:37.8   0.4                          T                                        4790750
PAGF  002.32 003.1 m E Sn      2011/11/24 00:56:14.0  -0.3                          T                                        4790745
PAGF  002.32 003.1 m E Sg      2011/11/24 00:56:22.3  -0.1                          T                 .5  .18 Ml 1.7         4790762
MTLF  003.74 220.3 m E Pg      2011/11/24 00:56:18.8  -0.1                          T                                        4790909
MTLF  003.74 220.3 m E Sg      2011/11/24 00:57:06.8  -0.1                          T   001.0        3.1  .76 Ml 2.2         4790654
HYF   002.24 298.3 m E Sg      2011/11/24 00:56:20.3   0.2                          T                                        4790758
SMRF  002.27 179.3 m E Sg      2011/11/24 00:56:21.6   0.6                          T                                        4790746
LMR   002.99 166.3 m E Sn      2011/11/24 00:56:30.8   0.3                          T                                        4790748
LMR   002.99 166.3 m E Sg      2011/11/24 00:56:43.0  -0.4                          T                                        4790747
RJF   002.97 253.0 m E Sg      2011/11/24 00:56:42.4  -0.2                          T                                        4790753
MFF   003.95 277.3 m E Sg      2011/11/24 00:57:13.2  -0.1                          T                                        4790752
LDF   004.50 303.5 m E Sg      2011/11/24 00:57:29.4  -1.2                          T   001.0          6  .88 Ml 2.6         4790631

.
EVENT     266684
    Date      Time       Latitude Longitude    Depth    Ndef Nsta Gap    Mag1  N    Mag2  N    Mag3  N   Author         ID
       rms   OT_Error      Smajor Sminor Az        Err   mdist  Mdist     Err        Err        Err      Quality

2011/11/24 05:20:39.0     47.5392    7.7842     17.9      56   14 035  Ml 2.3 10  Md 2.2  4              js067245    266704

      0.35   +-  0.04        .9     .6  177.94 +-  0.4    0.04   3.11   +-0.3      +-0.3                 m i ke

SWITZERLAND
Sta     Dist  EvAz     Phase      Date       Time     TRes  Azim  AzRes  Slow  SRes Def   SNR       Amp   Per   Mag1   Mag2       ID
HINF  000.69 294.2 m E Pg      2011/11/24 05:20:52.4   0.0                          T   001.0                                4790679
HINF  000.69 294.2 m E Sg      2011/11/24 05:21:01.7   0.1                          T   001.0       17.1  .20        Md 2.0  4790680
CDF   000.94 338.8 m E Pn      2011/11/24 05:20:55.8  -0.1                          T                                        4790998
CDF   000.94 338.8 m E Pg      2011/11/24 05:20:57.0   0.0                          T   001.0                                4790665
CDF   000.94 338.8 m E Sg      2011/11/24 05:21:09.6   0.2                          T   001.0        8.8  .22 Ml 2.5 Md 2.0  4790666
HAU   001.08 296.3 m E Pn      2011/11/24 05:20:58.2   0.5                          T                                        4791000
HAU   001.08 296.3 m E Pg      2011/11/24 05:20:59.3  -0.1                          T   001.0                                4790668
HAU   001.08 296.3 m E Sg      2011/11/24 05:21:13.6   0.1                          T   001.0       36.4  .32 Ml 2.7 Md 2.2  4790669
CABF  001.49 231.9 m E Pn      2011/11/24 05:21:03.9   0.5                          T                                        4790776
CABF  001.49 231.9 m E Pg      2011/11/24 05:21:07.1   0.1                          T                                        4790999
CABF  001.49 231.9 m E Sn      2011/11/24 05:21:21.0  -0.1                          T                                        4790990
CABF  001.49 231.9 m E Sg      2011/11/24 05:21:26.1  -0.1                          T   001.0        3.6  .26 Ml 2.2         4790678
THEF  001.39 300.4 m E Pg      2011/11/24 05:21:05.0  -0.1                          T                                        4790773
THEF  001.39 300.4 m E Sg      2011/11/24 05:21:23.3   0.2                          T                8.1  .19 Ml 2.6 Md 2.7  4790775
LANF  001.44 000.6 m E Pg      2011/11/24 05:21:05.7  -0.4                          T                                        4790997
RUP   002.22 347.8 m E Pn      2011/11/24 05:21:12.7  -0.6                          T                                        4790996
MEZF  002.07 298.7 m E Pg      2011/11/24 05:21:17.7   0.1                          T                                        4790994
MEZF  002.07 298.7 m E S       2011/11/24 05:21:39.6   0.2                          T                                        4790987
MEZF  002.07 298.7 m E Sg      2011/11/24 05:21:44.3  -0.1                          T                5.7  .30 Ml 2.5         4790986
LOR   002.68 265.6 m E Pn      2011/11/24 05:21:19.0  -0.5                          T                                        4790995
LOR   002.68 265.6 m E Pg      2011/11/24 05:21:28.9   0.1  90.5  7.8               T   001.0                                4790670
LOR   002.68 265.6 m E Sg      2011/11/24 05:22:03.1  -0.3                          T   001.0        2.0  .26 Ml 2.2         4790671
SMF   002.84 253.1 m E Pg      2011/11/24 05:21:31.5  -0.3                          T                                        4790993
SMF   002.84 253.1 m E Sg      2011/11/24 05:22:08.8   0.5                          T   001.0        1.8  .25 Ml 2.2         4790676
PAGF  001.72 307.1 m E Sg      2011/11/24 05:21:33.5   0.2                          T                 .6  .20 Ml 1.6         4790772
SFTF  001.96 290.8 m E Sg      2011/11/24 05:21:41.5   0.5                          T                3.5  .23 Ml 2.4         4790774
SSF   002.95 262.3 m E Sg      2011/11/24 05:22:12.0   0.2                          T                                        4790988
AVF   003.11 257.7 m E Sg      2011/11/24 05:22:17.1   0.3                          T                 .5  .21 Ml 1.9         4790989

.
