EVENT     273923
    Date      Time       Latitude Longitude    Depth    Ndef Nsta Gap    Mag1  N    Mag2  N    Mag3  N   Author         ID
       rms   OT_Error      Smajor Sminor Az        Err   mdist  Mdist     Err        Err        Err      Quality

2012/04/18 13:05:19.9     44.9485    8.1009     70.0 f   102   25 077                                    bulletin    273943
                                                                                                         _ldg
                                               +-         0.18   5.92                                    m i ke

NORTHERN ITALY
Sta     Dist  EvAz     Phase      Date       Time     TRes  Azim  AzRes  Slow  SRes Def   SNR       Amp   Per   Mag1   Mag2       ID
MBDF  000.97 257.3 m E Pg      2012/04/18 13:05:39.6   0.0                          T                                        4916339
MBDF  000.97 257.3 m E Sn      2012/04/18 13:05:52.2  -1.8                          T               75.1  .29                4915744
LPG   001.10 300.4 m E Pg      2012/04/18 13:05:41.6   0.2                          T                                        4915758
LPG   001.10 300.4 m E Sn      2012/04/18 13:05:55.3  -1.6                          T               40.4  .26                4915747
LPL   001.12 300.9 m E Pg      2012/04/18 13:05:42.0   0.5                          T                                        4916337
LPL   001.12 300.9 m E Sn      2012/04/18 13:05:55.7  -1.5                          T               83.1  .36                4915746
SBF   001.19 204.0 m E Pg      2012/04/18 13:05:42.9   0.9                          T                                        4916333
SBF   001.19 204.0 m E Sn      2012/04/18 13:05:58.2  -0.2                          T               81.5  .28                4915751
ORIF  001.58 269.7 m E Pg      2012/04/18 13:05:49.6   2.6                          T                                        4916338
ORIF  001.58 269.7 m E Sn      2012/04/18 13:06:08.0   1.1                          T               46.3  .26                4915745
FRF   001.74 217.5 m E P       2012/04/18 13:05:50.1   1.2                          T                                        4916335
FRF   001.74 217.5 m E Sn      2012/04/18 13:06:10.8   0.5                          T               48.2  .24                4915749
LMR   001.98 215.9 m E Pg      2012/04/18 13:05:53.3   1.3                          T                                        4916334
LMR   001.98 215.9 m E Sn      2012/04/18 13:06:15.9   0.2                          T               25.0  .24                4915750
SMRF  002.05 242.6 m E Pg      2012/04/18 13:05:55.3   2.4                          T                                        4916336
SMRF  002.05 242.6 m E Sn      2012/04/18 13:06:20.6   3.2                          T               30.9  .26                4915748
CABF  002.18 320.4 m E P       2012/04/18 13:05:56.6   1.5                          T                                        4916348
CABF  002.18 320.4 m E Sn      2012/04/18 13:06:19.8  -0.5                          T               15.0  .24                4919482
PGF   002.49 164.5 m E Pn      2012/04/18 13:05:59.0   0.4                          T                                        4915753
PGF   002.49 164.5 m E Sn      2012/04/18 13:06:25.5  -1.8                          T                7.5  .21                4915752
VIVF  002.44 269.0 m E Pg      2012/04/18 13:05:59.9   2.0                          T                                        4916340
VIVF  002.44 269.0 m E Sn      2012/04/18 13:06:27.0   0.8                          T               18.1  .20                4915743
HINF  003.00 343.7 m E P       2012/04/18 13:06:06.4  -0.1                          T                                        4916349
HINF  003.00 343.7 m E Sn      2012/04/18 13:06:38.3  -0.7                          T                7.0  .20                4915770
LASF  003.16 255.5 m E P       2012/04/18 13:06:09.4   0.7                          T                                        4916341
LASF  003.16 255.5 m E Sn      2012/04/18 13:06:43.7   1.0                          T                6.0  .27                4915742
HAU   003.29 339.0 m E P       2012/04/18 13:06:10.7   0.1                          T                                        4916350
HAU   003.29 339.0 m E Sn      2012/04/18 13:06:45.7   0.0                          T               35.1  .26                4915773
CDF   003.51 351.0 m E P       2012/04/18 13:06:13.3  -0.4                          T                                        4916351
CDF   003.51 351.0 m E Sn      2012/04/18 13:06:51.6   0.6                          T                4.3  .31                4916365
SMF   003.43 301.2 m E P       2012/04/18 13:06:13.4   0.9                          T                                        4916346
SMF   003.43 301.2 m E Sn      2012/04/18 13:06:49.4   0.3                          T                6.9  .22                4915765
LOR   003.75 309.7 m E P       2012/04/18 13:06:17.6   0.7 125.8  -0.8              T                                        4916355
LOR   003.75 309.7 m E Sn      2012/04/18 13:06:57.3   0.7                          T               41.0  .42                4915778
AVF   003.79 300.7 m E P       2012/04/18 13:06:18.4   0.9                          T                                        4916347
AVF   003.79 300.7 m E Sn      2012/04/18 13:06:59.8   2.3                          T                                        4915766
SSF   003.84 305.1 m E P       2012/04/18 13:06:18.9   0.8                          T                                        4916354
SSF   003.84 305.1 m E Sn      2012/04/18 13:06:59.2   0.7                          T                4.9  .23                4915777
BGF   004.01 295.5 m E P       2012/04/18 13:06:21.5   0.9                          T                                        4916345
BGF   004.01 295.5 m E Sn      2012/04/18 13:07:01.9  -0.8                          T               17.7  .26                4916366
TCF   004.34 290.0 m E P       2012/04/18 13:06:25.3   0.1                          T                                        4916353
TCF   004.34 290.0 m E Sn      2012/04/18 13:07:11.3   0.8                          T                5.3  .22                4915774
CAF   004.29 271.8 m E P       2012/04/18 13:06:25.5   1.1                          T                                        4916344
MTLF  004.53 251.3 m E P       2012/04/18 13:06:26.1  -1.7                          T                                        4916342
MTLF  004.53 251.3 m E Sn      2012/04/18 13:07:15.1   0.3                          T                4.1  .46                4916367
BAIF  005.75 334.1 m E P       2012/04/18 13:06:43.4  -1.2                          T                                        4916352
EPF   005.92 253.8 m E P       2012/04/18 13:06:44.9  -2.1                          T                                        4916343
EPF   005.92 253.8 m E Sn      2012/04/18 13:07:50.4   2.8                          T                                        4919481

.
EVENT     273925
    Date      Time       Latitude Longitude    Depth    Ndef Nsta Gap    Mag1  N    Mag2  N    Mag3  N   Author         ID
       rms   OT_Error      Smajor Sminor Az        Err   mdist  Mdist     Err        Err        Err      Quality

2012/04/18 13:58:55.4     49.0900    5.3941       .0 f    19   10 137  Ml 2.3  7  Md 2.4  1              bulletin    273945
                                                                                                         _ldg
      0.98   +-  0.11       2.6    1.7   66.92 +-  0.0    0.58   2.09   +-0.2      +-                    m i km

FRANCE
Sta     Dist  EvAz     Phase      Date       Time     TRes  Azim  AzRes  Slow  SRes Def   SNR       Amp   Per   Mag1   Mag2       ID
PAGF  000.58 157.7 m E Pg      2012/04/18 13:59:06.9   0.2 346.9  9.0               T                                        4921239
PAGF  000.58 157.7 m E Sg      2012/04/18 13:59:14.5   0.0 340.4  2.5               T               25.9  .93        Md 2.4  4921240
MEZF  000.63 201.2 m E Pg      2012/04/18 13:59:07.3  -0.3                          T                                        4921358
MEZF  000.63 201.2 m E Sg      2012/04/18 13:59:16.1   0.0  14.0  -6.9              T               40.0  .64                4921359
SFTF  000.92 195.0 m E Pg      2012/04/18 13:59:12.9   0.0                          T                                        4921356
SFTF  000.92 195.0 m E Sg      2012/04/18 13:59:24.8  -0.2                          T               16.7  .45 Ml 2.3         4921357
THEF  000.95 155.0 m E Pg      2012/04/18 13:59:13.4  -0.1                          T                                        4921237
THEF  000.95 155.0 m E Sg      2012/04/18 13:59:26.0   0.0                          T               37.0  .69 Ml 2.5         4921238
GIVF  001.08 340.1 m E Pg      2012/04/18 13:59:16.2   0.3                          T                                        4921361
GIVF  001.08 340.1 m E Sg      2012/04/18 13:59:30.5   0.4                          T                5.5  .32 Ml 2.1         4921362
BAIF  001.24 321.9 m E Pg      2012/04/18 13:59:18.4  -0.4                          T                                        4921360
HAU   001.26 149.4 m E Pg      2012/04/18 13:59:18.6  -0.6                          T                                        4921235
HAU   001.26 149.4 m E Sn      2012/04/18 13:59:35.7   0.1                          T                9.1  .26 Ml 2.3         4921236
CDF   001.42 117.9 m E Pg      2012/04/18 13:59:22.5   0.3                          T                                        4921233
CDF   001.42 117.9 m E Sn      2012/04/18 13:59:39.7   0.2                          T                7.4  .40 Ml 2.4         4921234
HINF  001.60 142.1 m E Pg      2012/04/18 13:59:25.8   0.2                          T                                        4921354
HINF  001.60 142.1 m E Sn      2012/04/18 13:59:44.2   0.4                          T                3.6  .29 Ml 2.2         4921355
LOR   002.09 210.0 m E Pg      2012/04/18 13:59:34.6   0.1  30.6  1.7               T                                        4921363
LOR   002.09 210.0 m E Sg      2012/04/18 14:00:01.9   0.2  35.6  6.8               T                6.1  .36 Ml 2.5         4921232

.
EVENT     273926
    Date      Time       Latitude Longitude    Depth    Ndef Nsta Gap    Mag1  N    Mag2  N    Mag3  N   Author         ID
       rms   OT_Error      Smajor Sminor Az        Err   mdist  Mdist     Err        Err        Err      Quality

2012/04/18 14:09:44.9     47.2106    7.1256      2.0      26   10 129  Ml 2.4  8  Md 2.4  2              bulletin    273946
                                                                                                         _ldg
      1.48   +-  0.18       3.6    2.3  117.81 +-  0.0    0.10   2.62   +-0.2      +-0.1                 m i ke

SWITZERLAND
Sta     Dist  EvAz     Phase      Date       Time     TRes  Azim  AzRes  Slow  SRes Def   SNR       Amp   Per   Mag1   Mag2       ID
HINF  000.63 343.2 m E Pg      2012/04/18 14:09:57.3   0.3                          T                                        4915807
HINF  000.63 343.2 m E P       2012/04/18 14:09:58.4   0.1                          T                                        4919497
HINF  000.63 343.2 m E Sg      2012/04/18 14:10:05.3   0.0                          T               12.8  .18        Md 2.3  4915806
CABF  000.93 230.3 m E Pg      2012/04/18 14:10:02.8   0.3                          T                                        4915802
CABF  000.93 230.3 m E P       2012/04/18 14:10:04.1  -0.4                          T                                        4919496
CABF  000.93 230.3 m E Sg      2012/04/18 14:10:16.7   2.1                          T                7.8  .20 Ml 2.4         4915804
HAU   000.95 326.8 m E Pg      2012/04/18 14:10:02.9   0.1                          T                                        4915801
HAU   000.95 326.8 m E Sg      2012/04/18 14:10:15.7   0.5                          T               13.2  .26 Ml 2.3         4915805
CDF   001.21 004.8 m E Pg      2012/04/18 14:10:06.7  -0.8                          T                                        4919494
CDF   001.21 004.8 m E Sg      2012/04/18 14:10:23.6   0.4                          T                7.3  .22 Ml 2.5 Md 2.5  4919495
THEF  001.27 323.5 m E Pg      2012/04/18 14:10:09.0   0.3                          T                                        4915800
THEF  001.27 323.5 m E Sg      2012/04/18 14:10:25.7   0.6                          T                9.1  .20 Ml 2.6         4915803
SMF   002.32 257.1 m E Pg      2012/04/18 14:10:28.2   0.2                          T                                        4919493
SMF   002.32 257.1 m E Sg      2012/04/18 14:10:57.2  -0.7                          T                3.8  .23 Ml 2.5         4919492
AVF   002.62 262.1 m E Pg      2012/04/18 14:10:32.0  -1.4                          T                                        4919489
AVF   002.62 262.1 m E Sg      2012/04/18 14:11:07.3   0.3                          T                                        4919490
PAGF  001.64 325.5 m E Sg      2012/04/18 14:10:37.4   0.8                          T                                        4919487
SFTF  001.73 306.0 m E Sg      2012/04/18 14:10:39.0  -0.2                          T                                        4919488
LOR   002.23 272.7 m E Sg      2012/04/18 14:10:54.1  -0.8 110.1  19.8              T                3.0  .23 Ml 2.4         4919491

.
EVENT     273927
    Date      Time       Latitude Longitude    Depth    Ndef Nsta Gap    Mag1  N    Mag2  N    Mag3  N   Author         ID
       rms   OT_Error      Smajor Sminor Az        Err   mdist  Mdist     Err        Err        Err      Quality

2012/04/18 14:25:13.9     46.7988    6.8844       .0 f     7    4 328  Ml 2.3  4  Md 2.3  1              bulletin    273947
                                                                                                         _ldg
      0.63   +-  1.06      18.5   16.3   59.54 +-  0.0    1.02   1.64   +-0.3      +-                    m i km

SWITZERLAND
Sta     Dist  EvAz     Phase      Date       Time     TRes  Azim  AzRes  Slow  SRes Def   SNR       Amp   Per   Mag1   Mag2       ID
HINF  001.02 358.8 m E Pg      2012/04/18 14:25:33.5   0.2                          T                                        4915809
HINF  001.02 358.8 m E Sg      2012/04/18 14:25:46.3  -0.5                          T               30.9  .88 Ml 2.4 Md 2.3  4915810
THEF  001.55 337.4 m E Pg      2012/04/18 14:25:43.3   0.2                          T                                        4919502
THEF  001.55 337.4 m E Sg      2012/04/18 14:26:02.0  -1.3                          T                8.0  .21 Ml 2.6         4919500
CDF   001.64 009.2 m E Pg      2012/04/18 14:25:44.4  -0.4                          T                                        4919503
CDF   001.64 009.2 m E Sg      2012/04/18 14:26:06.8   0.7                          T                5.1  .36 Ml 2.4         4915812
HAU   001.26 343.4 m E Sg      2012/04/18 14:25:55.3   1.0                          T                5.9  .39 Ml 1.9         4919501

.
EVENT     273928
    Date      Time       Latitude Longitude    Depth    Ndef Nsta Gap    Mag1  N    Mag2  N    Mag3  N   Author         ID
       rms   OT_Error      Smajor Sminor Az        Err   mdist  Mdist     Err        Err        Err      Quality

2012/04/18 14:38:01.8     47.4943    4.8314       .0 f    15    7 154  Ml 1.9  5  Md 1.9  1              bulletin    273948
                                                                                                         _ldg
      1.11   +-  0.14       4.4    2.1  156.67 +-  0.0    0.70   1.23   +-0.2      +-                    m i km

FRANCE
Sta     Dist  EvAz     Phase      Date       Time     TRes  Azim  AzRes  Slow  SRes Def   SNR       Amp   Per   Mag1   Mag2       ID
LOR   000.70 251.5 m E Pg      2012/04/18 14:38:15.5   0.1  72.1  1.3               T                                        4919505
LOR   000.70 251.5 m E Sg      2012/04/18 14:38:25.7   1.1  55.5  -15.2             T               56.4 1.22        Md 1.9  4919504
SSF   001.00 244.9 m E Pg      2012/04/18 14:38:20.9   0.0                          T                                        4919507
SSF   001.00 244.9 m E Sg      2012/04/18 14:38:34.3   0.3                          T                4.9  .37 Ml 2.0         4919506
THEF  001.07 046.4 m E Pg      2012/04/18 14:38:22.3   0.1                          T                                        4915813
SMF   001.09 218.9 m E Pg      2012/04/18 14:38:22.6   0.1                          T                                        4915821
SMF   001.09 218.9 m E Sg      2012/04/18 14:38:35.9  -0.9                          T                1.6  .17 Ml 1.8         4915820
HAU   001.14 062.9 m E Pg      2012/04/18 14:38:23.0  -0.6                          T                                        4915814
HAU   001.14 062.9 m E Sg      2012/04/18 14:38:39.8   1.2                          T                4.3  .22 Ml 1.9         4915815
AVF   001.23 235.7 m E Pg      2012/04/18 14:38:24.8  -0.3                          T                                        4915818
AVF   001.23 235.7 m E Sg      2012/04/18 14:38:40.8  -0.4                          T                1.2  .25 Ml 1.6         4915819
CABF  001.23 135.4 m E Pg      2012/04/18 14:38:25.2  -0.1                          T                                        4915817
CABF  001.23 135.4 m E Sg      2012/04/18 14:38:42.1   0.7                          T                2.4  .23 Ml 1.9         4915816

.
