EVENT     282387
    Date      Time       Latitude Longitude    Depth    Ndef Nsta Gap    Mag1  N    Mag2  N    Mag3  N   Author         ID
       rms   OT_Error      Smajor Sminor Az        Err   mdist  Mdist     Err        Err        Err      Quality

2012/09/01 21:47:57.2     42.8224    2.1849      2.0     175   39 045  Ml 3.1 41  Md 3.1  1              bulletin    282487
                                                                                                         _ldg
      0.83   +-  0.05       1.1     .8  117.21 +-  0.0    0.10   6.94   +-0.3      +-                    m i ke

PYRENEES
Sta     Dist  EvAz     Phase      Date       Time     TRes  Azim  AzRes  Slow  SRes Def   SNR       Amp   Per   Mag1   Mag2       ID
MTLF  000.52 002.6 m E Pg      2012/09/01 21:48:06.3  -0.8                          T                                        5059260
MTLF  000.52 002.6 m E Sg      2012/09/01 21:48:12.9  -1.0                          T               51.9  .20                5059259
MTLF  000.52 002.6 m E Sn      2012/09/01 21:48:17.8   0.1                          T              148.0  .22        Md 3.1  5063351
EPF   001.37 279.3 m E Pn      2012/09/01 21:48:21.0  -0.7                          T                                        5059256
EPF   001.37 279.3 m E Pg      2012/09/01 21:48:22.6  -0.2                          T                                        5063334
EPF   001.37 279.3 m E Sn      2012/09/01 21:48:39.2  -0.2                          T                                        5059255
EPF   001.37 279.3 m E Sg      2012/09/01 21:48:41.0   0.4                          T               62.5  .24 Ml 3.4         5063307
LASF  001.75 043.6 m E Pn      2012/09/01 21:48:26.2  -0.6                          T                                        5059258
LASF  001.75 043.6 m E Pg      2012/09/01 21:48:30.0   0.3                          T                                        5063333
LASF  001.75 043.6 m E Sn      2012/09/01 21:48:48.4   0.1                          T                                        5059257
LASF  001.75 043.6 m E Sg      2012/09/01 21:48:52.4   0.2                          T               49.6  .20 Ml 3.5         5063306
CAF   002.10 357.7 m E Pn      2012/09/01 21:48:31.5  -0.2                          T                                        5059252
CAF   002.10 357.7 m E Sg      2012/09/01 21:49:02.9  -0.5                          T               55.5  .20 Ml 3.7         5059251
ETSF  002.02 273.1 m E P       2012/09/01 21:48:33.0   0.2                          T                                        5059254
ETSF  002.02 273.1 m E Pg      2012/09/01 21:48:34.7  -0.1                          T                                        5063335
ETSF  002.02 273.1 m E Sg      2012/09/01 21:49:01.0   0.2                          T               29.2  .36 Ml 3.1         5063308
LFF   002.36 334.2 m E Pn      2012/09/01 21:48:34.9  -0.2                          T                                        5059250
LFF   002.36 334.2 m E Pg      2012/09/01 21:48:41.2   0.2                          T                                        5063337
LFF   002.36 334.2 m E Sg      2012/09/01 21:49:11.8   0.5                          T               61.4  .34 Ml 3.4         5059246
RJF   002.53 349.2 m E Pn      2012/09/01 21:48:36.4  -1.0                          T                                        5059249
RJF   002.53 349.2 m E Pg      2012/09/01 21:48:43.7  -0.4                          T                                        5063338
RJF   002.53 349.2 m E Sg      2012/09/01 21:49:17.1   0.5                          T               28.3  .20 Ml 3.1         5059245
SJPF  002.52 277.8 m E Pn      2012/09/01 21:48:38.0   0.7                          T                                        5059228
SJPF  002.52 277.8 m E Pg      2012/09/01 21:48:44.0   0.1                          T                                        5063336
SJPF  002.52 277.8 m E Sg      2012/09/01 21:49:16.6   0.3                          T                7.0  .24 Ml 2.8         5063309
VIVF  002.72 040.7 m E Pn      2012/09/01 21:48:39.2  -0.8                          T                                        5063332
VIVF  002.72 040.7 m E Pg      2012/09/01 21:48:47.6   0.0                          T                                        5059230
VIVF  002.72 040.7 m E Sn      2012/09/01 21:49:11.8   0.4                          T                                        5059229
VIVF  002.72 040.7 m E Sg      2012/09/01 21:49:23.0   0.5                          T               20.2  .24 Ml 3.3         5063305
SMRF  002.73 063.8 m E Pn      2012/09/01 21:48:40.6   0.4                          T                                        5059237
SMRF  002.73 063.8 m E Pg      2012/09/01 21:48:48.2   0.4                          T                                        5063330
SMRF  002.73 063.8 m E Sg      2012/09/01 21:49:23.9   1.0                          T               13.8  .51 Ml 2.8         5063303
LMR   003.21 079.4 m E Pn      2012/09/01 21:48:46.8   0.2                          T                                        5059241
LMR   003.21 079.4 m E Sn      2012/09/01 21:49:23.1  -0.1                          T                                        5059239
LMR   003.21 079.4 m E Sg      2012/09/01 21:49:38.4   0.6                          T                5.7  .29 Ml 2.8         5063302
FRF   003.35 075.7 m E Pn      2012/09/01 21:48:48.3  -0.2                          T                                        5059242
FRF   003.35 075.7 m E Sn      2012/09/01 21:49:26.6   0.2                          T                                        5059238
FRF   003.35 075.7 m E Sg      2012/09/01 21:49:42.7   0.7                          T               13.4  .54 Ml 2.9         5063301
TCF   003.47 000.3 m E Pn      2012/09/01 21:48:49.8  -0.4                          T                                        5059244
TCF   003.47 000.3 m E Pg      2012/09/01 21:49:01.1  -0.2                          T                                        5063348
TCF   003.47 000.3 m E Sn      2012/09/01 21:49:28.8  -0.6                          T                                        5059243
TCF   003.47 000.3 m E Sg      2012/09/01 21:49:45.7  -0.2                          T               12.6  .24 Ml 3.3         5063326
ORIF  003.40 050.6 m E Pn      2012/09/01 21:48:49.8   0.5                          T                                        5059232
ORIF  003.40 050.6 m E Pg      2012/09/01 21:49:00.5   0.4                          T                                        5063331
ORIF  003.40 050.6 m E Sg      2012/09/01 21:49:44.3   0.5                          T                1.4  .17 Ml 2.4         5063304
BGF   003.76 007.0 m E Pn      2012/09/01 21:48:54.4   0.2                          T                                        5059248
BGF   003.76 007.0 m E Pg      2012/09/01 21:49:06.9   0.0                          T                                        5063343
BGF   003.76 007.0 m E Sn      2012/09/01 21:49:37.0   0.5                          T               30.9  .34 Ml 3.6         5059247
BGF   003.76 007.0 m E Sg      2012/09/01 21:49:55.1  -0.1                          T               33.0  .32 Ml 3.6         5063315
MBDF  003.83 058.6 m E Pn      2012/09/01 21:48:56.3   1.0                          T                                        5059231
SBF   003.97 073.0 m E Pn      2012/09/01 21:48:57.3   0.2                          T                                        5063329
SMF   004.00 016.6 m E Pn      2012/09/01 21:48:57.5   0.0                          T                                        5059291
SMF   004.00 016.6 m E Pg      2012/09/01 21:49:11.0  -0.2                          T                                        5063345
SMF   004.00 016.6 m E Sn      2012/09/01 21:49:43.4   1.3                          T                8.5  .34 Ml 3.0         5059290
SMF   004.00 016.6 m E Sg      2012/09/01 21:50:03.1   0.5                          T                                        5063317
AVF   004.05 011.4 m E Pn      2012/09/01 21:48:58.5   0.3                          T                                        5059226
AVF   004.05 011.4 m E Pg      2012/09/01 21:49:12.1  -0.1                          T                                        5063346
AVF   004.05 011.4 m E Sn      2012/09/01 21:49:43.1  -0.3                          T               15.2 1.02 Ml 2.8         5059289
AVF   004.05 011.4 m E Sg      2012/09/01 21:50:04.4   0.2                          T                5.4  .24 Ml 3.0         5063318
MFF   004.13 337.1 m E Pn      2012/09/01 21:48:59.8   0.6                          T                                        5059225
MFF   004.13 337.1 m E Pg      2012/09/01 21:49:13.3  -0.2                          T                                        5063339
MFF   004.13 337.1 m E Sn      2012/09/01 21:49:45.4   0.2                          T                                        5063311
MFF   004.13 337.1 m E Sg      2012/09/01 21:50:06.6   0.1                          T                7.8  .26 Ml 3.3         5063310
SSF   004.34 012.0 m E Pn      2012/09/01 21:49:01.8  -0.3                          T                                        5059204
SSF   004.34 012.0 m E Pg      2012/09/01 21:49:17.8   0.3                          T                                        5063349
SSF   004.34 012.0 m E Sn      2012/09/01 21:49:50.4   0.1                          T                                        5059203
SSF   004.34 012.0 m E Sg      2012/09/01 21:50:12.9  -0.3                          T                8.3  .32 Ml 3.2         5063327
LPG   004.24 049.3 m E Pn      2012/09/01 21:49:02.0   1.0                          T                                        5059234
LPL   004.24 049.0 m E Pn      2012/09/01 21:49:02.7   1.7                          T                                        5059233
LOR   004.60 014.4 m E Pn      2012/09/01 21:49:05.6  -0.1 187.2  -8.3              T                                        5059214
LOR   004.60 014.4 m E Pg      2012/09/01 21:49:22.4   0.1 200.6  5.0               T                                        5063350
LOR   004.60 014.4 m E Sn      2012/09/01 21:49:56.5   0.0 202.1  6.5               T                                        5059213
LOR   004.60 014.4 m E Sg      2012/09/01 21:50:21.8   0.5 192.3  -3.2              T                9.0  .38 Ml 3.2         5063328
CABF  004.70 034.9 m E Pn      2012/09/01 21:49:07.0  -0.1                          T                                        5059212
CABF  004.70 034.9 m E Pg      2012/09/01 21:49:25.0   0.8                          T                                        5063347
CABF  004.70 034.9 m E Sn      2012/09/01 21:49:59.6   0.7                          T                                        5059211
CABF  004.70 034.9 m E Sg      2012/09/01 21:50:25.1   0.6                          T                8.5  .42 Ml 3.1         5063319
PGF   005.03 090.8 m E Pn      2012/09/01 21:49:10.3  -1.3                          T                                        5059240
PGF   005.03 090.8 m E Sn      2012/09/01 21:50:05.6  -1.3                          T                1.1  .17 Ml 2.9         5059235
HYF   004.46 004.0 m E Pg      2012/09/01 21:49:19.2  -0.4                          T                                        5063344
HYF   004.46 004.0 m E Sg      2012/09/01 21:50:17.2   0.4                          T                                        5063316
GRR   005.96 340.1 m E Pn      2012/09/01 21:49:23.6  -0.5                          T                                        5063340
GRR   005.96 340.1 m E Pg      2012/09/01 21:49:47.2  -0.1                          T                                        5063300
GRR   005.96 340.1 m E Sn      2012/09/01 21:50:28.8  -0.2                          T                                        5063297
GRR   005.96 340.1 m E Sg      2012/09/01 21:51:04.3   0.6                          T                3.0  .32 Ml 2.9         5063312
LDF   005.99 345.2 m E Pn      2012/09/01 21:49:23.8  -0.7                          T                                        5059218
LDF   005.99 345.2 m E Pg      2012/09/01 21:49:47.8  -0.1                          T                                        5063299
LDF   005.99 345.2 m E Sn      2012/09/01 21:50:27.5  -2.2                          T                  1  .30 Ml 2.6         5059216
LDF   005.99 345.2 m E Sg      2012/09/01 21:51:05.3   0.5                          T                2.9  .41 Ml 2.9         5063313
FLN   006.23 343.5 m E Pn      2012/09/01 21:49:27.7   0.0 164.2  2.6               T                                        5059217
FLN   006.23 343.5 m E Pg      2012/09/01 21:49:51.8  -0.4 164.3  2.7               T                                        5063298
FLN   006.23 343.5 m E Sn      2012/09/01 21:50:35.2  -0.1 156.8  -4.8              T                3.2  .31 Ml 3.0         5059215
FLN   006.23 343.5 m E Sg      2012/09/01 21:51:12.4   0.4 164.1  2.5               T                1.8  .30 Ml 2.8         5063295
QUIF  006.34 325.4 m E Pn      2012/09/01 21:49:29.0  -0.2                          T                                        5059224
QUIF  006.34 325.4 m E Sn      2012/09/01 21:50:37.4  -0.5                          T                1.5  .24 Ml 3.0         5059221
QUIF  006.34 325.4 m E Sg      2012/09/01 21:51:15.8   0.4                          T                1.3  .24 Ml 2.9         5063296
SGMF  006.37 330.1 m E Pn      2012/09/01 21:49:29.4  -0.3                          T                                        5059223
SGMF  006.37 330.1 m E Sn      2012/09/01 21:50:38.4  -0.4                          T                 .4  .16 Ml 2.5         5059222
ROSF  006.71 327.1 m E Pn      2012/09/01 21:49:34.2  -0.2                          T                                        5059220
ROSF  006.71 327.1 m E Sn      2012/09/01 21:50:46.8  -0.1                          T                1.2  .20 Ml 3.0         5059219
SFTF  005.74 019.4 m E Sg      2012/09/01 21:50:57.4   0.5                          T                5.8  .46 Ml 3.1         5063322
HINF  005.98 031.8 m E Sg      2012/09/01 21:51:04.1  -0.3                          T                3.2  .43 Ml 3.0         5063320
HAU   005.95 028.0 m E Sg      2012/09/01 21:51:04.2   0.7                          T                4.3  .37 Ml 2.9         5063321
MEZF  006.02 018.5 m E Sg      2012/09/01 21:51:06.6   0.9 197.1  -3.4              T               10.9  .51 Ml 3.4         5063323
PAGF  006.25 022.2 m E Sg      2012/09/01 21:51:13.3   0.7 196.1  -8.6              T                1.2  .24 Ml 2.8         5063324
CDF   006.63 030.8 m E Sg      2012/09/01 21:51:25.0   0.2                          T                5.3  .61 Ml 3.2         5063325

.
EVENT     282421
    Date      Time       Latitude Longitude    Depth    Ndef Nsta Gap    Mag1  N    Mag2  N    Mag3  N   Author         ID
       rms   OT_Error      Smajor Sminor Az        Err   mdist  Mdist     Err        Err        Err      Quality

2012/09/01 22:09:31.0     42.9394   -1.2826      2.0       5    3 279  Ml 1.0  1  Md 1.2  2              bulletin    282521
                                                                                                         _ldg
      0.36   +-  0.26       5.7    1.9   48.89 +-  0.0    0.18   1.19   +-         +-0.2                 m i ke

PYRENEES
Sta     Dist  EvAz     Phase      Date       Time     TRes  Azim  AzRes  Slow  SRes Def   SNR       Amp   Per   Mag1   Mag2       ID
SJPF  000.18 013.6 m E Pg      2012/09/01 22:09:34.3  -0.4                          T                                        5063358
SJPF  000.18 013.6 m E Sg      2012/09/01 22:09:36.4  -0.8                          T               10.5  .24        Md 1.3  5063359
ETSF  000.53 094.1 m E Pg      2012/09/01 22:09:41.2  -0.1                          T                                        5063356
ETSF  000.53 094.1 m E Sg      2012/09/01 22:09:48.1  -0.2                          T                 .8  .23        Md 1.0  5063357
EPF   001.19 085.1 m E Sg      2012/09/01 22:10:09.0   0.1                          T                 .3  .26 Ml 1           5063360

.
EVENT     282389
    Date      Time       Latitude Longitude    Depth    Ndef Nsta Gap    Mag1  N    Mag2  N    Mag3  N   Author         ID
       rms   OT_Error      Smajor Sminor Az        Err   mdist  Mdist     Err        Err        Err      Quality

2012/09/02 05:45:09.2     44.5010    6.6834      2.0      36   10 053  Ml 1.9  7  Md 1.8  3              bulletin    282489
                                                                                                         _ldg
      0.30   +-  0.05        .9     .8   61.87 +-  0.0    0.23   2.58   +-0.3      +-0.1                 m i ke

FRANCE
Sta     Dist  EvAz     Phase      Date       Time     TRes  Azim  AzRes  Slow  SRes Def   SNR       Amp   Per   Mag1   Mag2       ID
MBDF  000.23 015.5 m E Pg      2012/09/02 05:45:14.2   0.1                          T                                        5059385
MBDF  000.23 015.5 m E Sg      2012/09/02 05:45:17.4   0.1                          T               15.6  .34        Md 1.8  5059384
ORIF  000.71 306.4 m E Pg      2012/09/02 05:45:22.5  -0.2                          T                                        5059383
ORIF  000.71 306.4 m E Sg      2012/09/02 05:45:31.8  -0.2                          T                4.3  .26        Md 1.8  5059382
SBF   000.84 139.4 m E Pg      2012/09/02 05:45:25.2   0.2                          T                                        5059378
SBF   000.84 139.4 m E Sg      2012/09/02 05:45:36.4   0.5                          T                2.4  .19                5059369
FRF   000.94 181.6 m E Pg      2012/09/02 05:45:27.0   0.2                          T                                        5059380
FRF   000.94 181.6 m E Sg      2012/09/02 05:45:39.3   0.2                          T                5.4  .22 Ml 2.2 Md 1.9  5059371
SMRF  000.95 237.0 m E Pg      2012/09/02 05:45:27.3   0.1                          T                                        5059381
SMRF  000.95 237.0 m E Sg      2012/09/02 05:45:39.5  -0.1                          T                3.2  .33 Ml 1.8         5059372
LPG   001.00 002.7 m E Pg      2012/09/02 05:45:28.3   0.0                          T                                        5059373
LPG   001.00 002.7 m E Sg      2012/09/02 05:45:41.2   0.0                          T                2.4  .27 Ml 1.8         5059374
LPL   001.02 001.9 m E Pg      2012/09/02 05:45:28.9   0.4                          T                                        5059376
LPL   001.02 001.9 m E Sg      2012/09/02 05:45:41.5  -0.2                          T                  1  .25 Ml 1.4         5059375
LMR   001.17 186.2 m E Pg      2012/09/02 05:45:31.4   0.2                          T                                        5059379
LMR   001.17 186.2 m E Sg      2012/09/02 05:45:46.5   0.2                          T                5.0  .23 Ml 2.2         5059370
VIVF  001.48 284.6 m E Pg      2012/09/02 05:45:36.4  -0.4                          T                                        5059377
VIVF  001.48 284.6 m E Sn      2012/09/02 05:45:53.8  -0.2                          T                1.1  .23 Ml 1.7         5059364
PGF   002.58 138.4 m E Pn      2012/09/02 05:45:50.5   0.2                          T                                        5059368
PGF   002.58 138.4 m E Sn      2012/09/02 05:46:20.8   0.5                          T                1.2  .23 Ml 2.3         5059367

.
