EVENT     292517
    Date      Time       Latitude Longitude    Depth    Ndef Nsta Gap    Mag1  N    Mag2  N    Mag3  N   Author         ID
       rms   OT_Error      Smajor Sminor Az        Err   mdist  Mdist     Err        Err        Err      Quality

2013/02/22 06:44:00.1     42.7424   -1.7816      2.0      20    3 156  Ml 2.0  2  Md 2.0  2              bulletin    292617
                                                                                                         _ldg
      0.39   +-  0.14       2.7    1.8   12.72 +-  0.0    0.15   2.18   +-0.3      +-0.1                 m i ke

PYRENEES
Sta     Dist  EvAz     Phase      Date       Time     TRes  Azim  AzRes  Slow  SRes Def   SNR       Amp   Per   Mag1   Mag2       ID
SJPF  000.55 047.6 m E Pg      2013/02/22 06:44:10.2  -0.3                          T                                        5204447
SJPF  000.55 047.6 m E Sg      2013/02/22 06:44:17.7  -0.1                          T                8.6  .31        Md 2.0  5204444
ETSF  000.91 079.7 m E Pg      2013/02/22 06:44:17.2  -0.1                          T                                        5204446
ETSF  000.91 079.7 m E Sg      2013/02/22 06:44:29.4   0.2                          T                2.1  .21 Ml 1.8 Md 1.9  5204443
EPF   001.59 078.8 m E Pg      2013/02/22 06:44:29.7   0.0                          T                                        5204445
EPF   001.59 078.8 m E Sg      2013/02/22 06:44:50.3   0.2                          T                3.2  .23 Ml 2.2         5204442

.
EVENT     292523
    Date      Time       Latitude Longitude    Depth    Ndef Nsta Gap    Mag1  N    Mag2  N    Mag3  N   Author         ID
       rms   OT_Error      Smajor Sminor Az        Err   mdist  Mdist     Err        Err        Err      Quality

2013/02/22 07:35:40.4     42.7411   -1.7466      2.0      26    3 105  Ml 2.3  2  Md 2.3  2              bulletin    292623
                                                                                                         _ldg
      0.49   +-  0.15       2.3    2.2   43.47 +-  0.0    0.13   2.52   +-0.3      +-0.1                 m i ke

PYRENEES
Sta     Dist  EvAz     Phase      Date       Time     TRes  Azim  AzRes  Slow  SRes Def   SNR       Amp   Per   Mag1   Mag2       ID
SJPF  000.53 045.7 m E Pg      2013/02/22 07:35:50.1  -0.5                          T                                        5204489
SJPF  000.53 045.7 m E Sg      2013/02/22 07:35:57.6   0.0                          T               23.5  .36        Md 2.3  5204486
ETSF  000.89 079.4 m E Pg      2013/02/22 07:35:57.2   0.1                          T                                        5204488
ETSF  000.89 079.4 m E Sg      2013/02/22 07:36:08.7   0.0                          T                4.7  .23 Ml 2.1 Md 2.3  5204485
EPF   001.56 078.6 m E Pg      2013/02/22 07:36:09.7   0.2                          T                                        5204487
EPF   001.56 078.6 m E Sg      2013/02/22 07:36:29.9   0.2                          T                5.5  .20 Ml 2.5         5204484

.
EVENT     292552
    Date      Time       Latitude Longitude    Depth    Ndef Nsta Gap    Mag1  N    Mag2  N    Mag3  N   Author         ID
       rms   OT_Error      Smajor Sminor Az        Err   mdist  Mdist     Err        Err        Err      Quality

2013/02/22 10:38:47.8     42.7222   -1.7397      2.0      18    3 156  Ml 2.1  2  Md 1.8  2              bulletin    292652
                                                                                                         _ldg
      0.64   +-  0.22       4.1    2.9   15.24 +-  0.0    0.13   2.15   +-0.2      +-0.2                 m i ke

PYRENEES
Sta     Dist  EvAz     Phase      Date       Time     TRes  Azim  AzRes  Slow  SRes Def   SNR       Amp   Per   Mag1   Mag2       ID
SJPF  000.54 043.9 m E Pg      2013/02/22 10:38:57.5  -0.6                          T                                        5208293
SJPF  000.54 043.9 m E Sg      2013/02/22 10:39:05.7   0.4                          T                7.3  .22        Md 2.0  5208294
ETSF  000.89 078.1 m E Pg      2013/02/22 10:39:04.1  -0.4                          T                                        5208291
ETSF  000.89 078.1 m E Sg      2013/02/22 10:39:16.6   0.5                          T                3.1  .21 Ml 1.9 Md 1.7  5208292
EPF   001.56 077.9 m E Pg      2013/02/22 10:39:17.0   0.1                          T                                        5208289
EPF   001.56 077.9 m E Sg      2013/02/22 10:39:37.3   0.2                          T                4.1  .26 Ml 2.3         5208290

.
EVENT     292555
    Date      Time       Latitude Longitude    Depth    Ndef Nsta Gap    Mag1  N    Mag2  N    Mag3  N   Author         ID
       rms   OT_Error      Smajor Sminor Az        Err   mdist  Mdist     Err        Err        Err      Quality

2013/02/22 11:51:30.4     36.7746    5.0095     10.0 f    38   14 254  Ml 3.2 10                         bulletin    292655
                                                                                                         _ldg
      0.88   +-  0.46       9.6    5.1  152.08 +-  0.0    3.45  10.45   +-0.3                            m i ke

NORTHERN ALGERIA
Sta     Dist  EvAz     Phase      Date       Time     TRes  Azim  AzRes  Slow  SRes Def   SNR       Amp   Per   Mag1   Mag2       ID
PGF   006.54 026.9 m E Pn      2013/02/22 11:53:05.0   0.5                          T                                        5204808
PGF   006.54 026.9 m E Sn      2013/02/22 11:54:14.1  -0.6                          T                6.6  .37 Ml 3.7         5204804
LMR   006.65 009.5 m E Pn      2013/02/22 11:53:05.7  -0.1                          T                                        5204807
LMR   006.65 009.5 m E Sn      2013/02/22 11:54:17.5   0.3                          T                1.1  .20 Ml 3.0         5204802
MTLF  006.90 342.8 m E Pn      2013/02/22 11:53:08.5  -0.7                          T                                        5204882
FRF   006.89 010.0 m E Pn      2013/02/22 11:53:08.8  -0.4                          T                                        5204806
FRF   006.89 010.0 m E Sn      2013/02/22 11:54:22.7  -0.3                          T                2.2  .31 Ml 3.1         5204801
SMRF  007.21 003.3 m E Pn      2013/02/22 11:53:12.4  -1.1                          T                                        5204805
SMRF  007.21 003.3 m E Sn      2013/02/22 11:54:29.5  -1.0                          T                1.1  .29 Ml 2.9         5204885
EPF   007.20 331.6 m E Pn      2013/02/22 11:53:13.2  -0.3                          T                                        5204881
EPF   007.20 331.6 m E Sn      2013/02/22 11:54:30.3  -0.3                          T                1.9  .37 Ml 3.0         5209884
LASF  007.35 353.5 m E Pn      2013/02/22 11:53:15.1  -0.2                          T                                        5204874
LASF  007.35 353.5 m E Sn      2013/02/22 11:54:31.6  -2.3                          T                5.2  .47 Ml 3.4         5204875
SBF   007.32 013.9 m E Pn      2013/02/22 11:53:15.1   0.1                          T                                        5204884
SBF   007.32 013.9 m E Sn      2013/02/22 11:54:33.8   0.5                          T                3.6  .33 Ml 3.3         5204803
ETSF  007.47 326.7 m E Pn      2013/02/22 11:53:17.2   0.2                          T                                        5204878
ETSF  007.47 326.7 m E Sn      2013/02/22 11:54:35.9  -0.9                          T                1.7  .30 Ml 3.1         5204873
SJPF  007.94 324.8 m E Pn      2013/02/22 11:53:22.5  -0.9                          T                                        5204880
VIVF  008.08 358.3 m E Pn      2013/02/22 11:53:23.2  -2.1                          T                                        5204883
VIVF  008.08 358.3 m E Sn      2013/02/22 11:54:49.6  -1.8                          T                4.6  .39 Ml 3.5         5204876
MBDF  008.06 009.0 m E Pn      2013/02/22 11:53:24.9  -0.3                          T                                        5204877
CAF   008.44 345.6 m E Pn      2013/02/22 11:53:29.8  -0.5                          T                                        5209885
LFF   008.77 339.7 m E Pn      2013/02/22 11:53:35.3   0.5                          T                                        5204879

.
EVENT     292559
    Date      Time       Latitude Longitude    Depth    Ndef Nsta Gap    Mag1  N    Mag2  N    Mag3  N   Author         ID
       rms   OT_Error      Smajor Sminor Az        Err   mdist  Mdist     Err        Err        Err      Quality

2013/02/22 12:04:35.9     51.5215   16.1647      1.0 f    62    8 053  Ml 3.5  2                         bulletin    292659
                                                                                                         _ldg
      0.76   +-  0.14       3.7    2.7   23.85 +-  0.0    0.68  18.61   +-0.1                            m i sr

POLAND
Sta     Dist  EvAz     Phase      Date       Time     TRes  Azim  AzRes  Slow  SRes Def   SNR       Amp   Per   Mag1   Mag2       ID
CDF   006.52 245.0 m E Pn      2013/02/22 12:06:11.0   0.2                          T                                        5205074
HINF  007.09 242.1 m E Pn      2013/02/22 12:06:18.7   0.3                          T                                        5205072
HINF  007.09 242.1 m E Sn      2013/02/22 12:07:34.2  -0.7                          T                7.1  .37 Ml 3.6         5205066
HAU   007.27 244.9 m E Pn      2013/02/22 12:06:20.9   0.2                          T                                        5205073
HAU   007.27 244.9 m E Sn      2013/02/22 12:07:34.6  -4.5                          T                6.1  .29 Ml 3.4         5205075
MEZF  007.77 251.5 m E Pn      2013/02/22 12:06:27.6   0.0                          T                                        5205071
BAIF  007.72 263.7 m E Pn      2013/02/22 12:06:28.1   1.1                          T                                        5205070
MBDF  009.25 226.4 m E Pn      2013/02/22 12:06:50.6   2.6                          T                                        5205069
SBF   009.66 220.9 m E Pn      2013/02/22 12:06:54.9   1.5                          T                                        5205068
SMRF  010.38 227.4 m E Pn      2013/02/22 12:07:04.4   1.3                          T                                        5205067

.
EVENT     292557
    Date      Time       Latitude Longitude    Depth    Ndef Nsta Gap    Mag1  N    Mag2  N    Mag3  N   Author         ID
       rms   OT_Error      Smajor Sminor Az        Err   mdist  Mdist     Err        Err        Err      Quality

2013/02/22 12:17:29.4     43.9036    7.4372      2.0 f    55   10 042  Ml 2.3  9  Md 2.3  2              bulletin    292657
                                                                                                         _ldg
      0.38   +-  0.05       1.0     .9  143.83 +-  0.0    0.04   2.59   +-0.3      +-0.2                 m i ke

NEAR SOUTH COAST OF FRANCE
Sta     Dist  EvAz     Phase      Date       Time     TRes  Azim  AzRes  Slow  SRes Def   SNR       Amp   Per   Mag1   Mag2       ID
SBF   000.04 182.0 m E Pg      2013/02/22 12:17:30.3  -0.4                          T                                        5204989
SBF   000.04 182.0 m E Sg      2013/02/22 12:17:31.3  -0.2                          T              981.5  .20        Md 2.4  5204981
FRF   000.67 239.4 m E Pg      2013/02/22 12:17:42.0  -0.1                          T                                        5204987
FRF   000.67 239.4 m E Sg      2013/02/22 12:17:51.0   0.2                          T               34.7  .30                5204980
FRF   000.67 239.4 m E Sn      2013/02/22 12:17:54.8   0.0                          T               15.6  .18        Md 2.1  5209893
LMR   000.88 230.1 m E Pg      2013/02/22 12:17:45.8  -0.1                          T                                        5204988
LMR   000.88 230.1 m E Sg      2013/02/22 12:17:57.3  -0.1                          T                                        5209894
LMR   000.88 230.1 m E Sn      2013/02/22 12:17:59.8   0.0                          T               26.9  .28 Ml 2.8         5204979
MBDF  000.95 330.1 m E Pg      2013/02/22 12:17:47.5   0.1                          T                                        5204985
MBDF  000.95 330.1 m E Sg      2013/02/22 12:18:00.1   0.3                          T                6.5  .24 Ml 2.2         5204978
SMRF  001.35 273.7 m E Pn      2013/02/22 12:17:53.7   0.1                          T                                        5204983
SMRF  001.35 273.7 m E Pg      2013/02/22 12:17:55.0   0.4                          T                                        5209895
SMRF  001.35 273.7 m E Sg      2013/02/22 12:18:12.5   0.5                          T               16.1  .24 Ml 2.8         5204976
ORIF  001.51 312.8 m E Pn      2013/02/22 12:17:56.0   0.1                          T                                        5204984
ORIF  001.51 312.8 m E Pg      2013/02/22 12:17:57.9   0.3                          T                                        5209897
ORIF  001.51 312.8 m E Sg      2013/02/22 12:18:17.7   0.6                          T               13.5  .42 Ml 2.5         5204977
PGF   001.77 139.3 m E Pn      2013/02/22 12:17:58.3  -1.2                          T                                        5204986
PGF   001.77 139.3 m E Sn      2013/02/22 12:18:20.6  -0.7                          T                1.2  .15 Ml 2.3         5204975
LPL   001.69 342.9 m E Pn      2013/02/22 12:17:58.5   0.0                          T                                        5204982
LPL   001.69 342.9 m E Pg      2013/02/22 12:18:01.4   0.2                          T                                        5209896
LPL   001.69 342.9 m E Sg      2013/02/22 12:18:23.4   0.5                          T                3.2  .26 Ml 2.2         5209892
VIVF  002.20 296.6 m E Pn      2013/02/22 12:18:06.3   1.1                          T                                        5204971
VIVF  002.20 296.6 m E Sn      2013/02/22 12:18:31.7   0.3                          T                 .6  .15 Ml 1.8         5204974
LASF  002.59 275.1 m E Pn      2013/02/22 12:18:10.8   0.3                          T                                        5204972
LASF  002.59 275.1 m E Sn      2013/02/22 12:18:41.3   0.6                          T                1.1  .19 Ml 2.1         5204973

.
