EVENT     266708
    Date      Time       Latitude Longitude    Depth    Ndef Nsta Gap    Mag1  N    Mag2  N    Mag3  N   Author         ID
       rms   OT_Error      Smajor Sminor Az        Err   mdist  Mdist     Err        Err        Err      Quality

2011/11/25 00:06:04.2     42.9460   -1.5481      2.0      17    3 178  Ml 1.4  1  Md 1.5  2              js067245    266728

      0.30   +-  0.13       2.2    1.6   98.51 +-  0.0    0.17   1.39   +-         +-0.2                 m i ke

PYRENEES
Sta     Dist  EvAz     Phase      Date       Time     TRes  Azim  AzRes  Slow  SRes Def   SNR       Amp   Per   Mag1   Mag2       ID
SJPF  000.29 054.7 m E Pg      2011/11/25 00:06:09.8  -0.1                          T                                        4791327
SJPF  000.29 054.7 m E Sg      2011/11/25 00:06:13.8   0.0                          T                                Md 1.7  4791326
SJPF  000.29 054.7 m E S       2011/11/25 00:06:22.1  -0.1                          T                                        4791324
ETSF  000.73 093.4 m E Pg      2011/11/25 00:06:17.8  -0.2                          T                                        4791322
ETSF  000.73 093.4 m E Sg      2011/11/25 00:06:28.1   0.6                          T                1.1  .24        Md 1.4  4791323
EPF   001.39 085.9 m E Pg      2011/11/25 00:06:30.1  -0.1                          T                                        4791325
EPF   001.39 085.9 m E Sg      2011/11/25 00:06:48.0  -0.1                          T                 .5  .18 Ml 1.4         4791321

.
EVENT     266709
    Date      Time       Latitude Longitude    Depth    Ndef Nsta Gap    Mag1  N    Mag2  N    Mag3  N   Author         ID
       rms   OT_Error      Smajor Sminor Az        Err   mdist  Mdist     Err        Err        Err      Quality

2011/11/25 05:59:59.2     51.6044   16.1920      1.0 f    51   11 149  Ml 4.0  3                         js067245    266729

      0.78   +-  0.23       6.0    2.9   15.24 +-  0.0    0.77   9.73   +-0.2                            m i sr

POLAND
Sta     Dist  EvAz     Phase      Date       Time     TRes  Azim  AzRes  Slow  SRes Def   SNR       Amp   Per   Mag1   Mag2       ID
RUP   006.11 255.4 m E Pn      2011/11/25 06:01:28.2  -0.2                          T                                        4792269
RUP   006.11 255.4 m E P       2011/11/25 06:01:32.5  -0.5                          T                                        4791506
RUP   006.11 255.4 m E Pg      2011/11/25 06:01:52.5   0.3                          T                                        4791504
RUP   006.11 255.4 m E Sg      2011/11/25 06:03:11.8   1.2                          T                                        4791503
LANF  005.98 247.2 m E P       2011/11/25 06:01:29.1  -2.0                          T                                        4792258
LANF  005.98 247.2 m E Sg      2011/11/25 06:03:06.8   0.3                          T                                        4792259
CDF   006.57 244.4 m E P       2011/11/25 06:01:37.2  -2.4                          T                                        4791507
HINF  007.14 241.6 m E Pn      2011/11/25 06:01:42.0  -0.5                          T                                        4792263
HINF  007.14 241.6 m E Pg      2011/11/25 06:02:12.0   0.7                          T                                        4792262
HINF  007.14 241.6 m E Sg      2011/11/25 06:03:44.4   1.7                          T               33.3  .69 Ml 4.0         4791501
PAGF  007.39 249.7 m E Pn      2011/11/25 06:01:45.2  -0.7  70.4  8.7               T                                        4792266
HAU   007.32 244.4 m E Pn      2011/11/25 06:01:45.4   0.7                          T                                        4792265
HAU   007.32 244.4 m E Sg      2011/11/25 06:03:49.2   1.0                          T               38.6  .68 Ml 3.8         4791502
THEF  007.40 246.8 m E Pn      2011/11/25 06:01:46.2   0.3                          T                                        4792264
LOR   009.13 246.5 m E Pn      2011/11/25 06:02:10.1   0.6  61.4  4.4               T                                        4792268
SSF   009.45 246.2 m E Pn      2011/11/25 06:02:14.5   0.7                          T                                        4792267
SBF   009.73 220.7 m E P       2011/11/25 06:02:21.2  -2.3                          T                                        4792260
CABF  008.30 236.9 m E Sg      2011/11/25 06:04:20.5   1.6                          T               53.6 1.09 Ml 4.2         4792261

.
EVENT     266710
    Date      Time       Latitude Longitude    Depth    Ndef Nsta Gap    Mag1  N    Mag2  N    Mag3  N   Author         ID
       rms   OT_Error      Smajor Sminor Az        Err   mdist  Mdist     Err        Err        Err      Quality

2011/11/25 07:59:24.2     46.3124    7.7661       .0 f    21    6 070  Ml 2.1  6  Md 2.1  1              js067245    266730

      0.20   +-  0.04        .9     .8  123.14 +-  0.0    0.10   1.95   +-0.1      +-                    m i km

SWITZERLAND
Sta     Dist  EvAz     Phase      Date       Time     TRes  Azim  AzRes  Slow  SRes Def   SNR       Amp   Per   Mag1   Mag2       ID
LPL   001.07 222.6 m E Pg      2011/11/25 07:59:44.5  -0.4                          T                                        4791840
LPL   001.07 222.6 m E Sg      2011/11/25 07:59:59.1   0.1                          T                8.4  .42 Ml 2.1 Md 2.1  4791839
LPG   001.08 221.4 m E Pg      2011/11/25 07:59:45.5   0.4                          T                                        4791841
LPG   001.08 221.4 m E Sg      2011/11/25 07:59:59.6   0.4                          T                9.8  .40 Ml 2.2         4791838
CABF  001.20 285.0 m E Pg      2011/11/25 07:59:46.9  -0.1                          T                                        4792270
CABF  001.20 285.0 m E P       2011/11/25 07:59:48.5   0.1                          T                                        4792274
CABF  001.20 285.0 m E Sg      2011/11/25 08:00:02.5  -0.2                          T                6.2  .33 Ml 2.2         4791834
HINF  001.63 337.8 m E P       2011/11/25 07:59:54.3  -0.1                          T                                        4792273
HINF  001.63 337.8 m E Sg      2011/11/25 08:00:16.1   0.0                          T                1.6  .22 Ml 1.9         4792275
HAU   001.95 330.8 m E Pg      2011/11/25 08:00:00.7  -0.1                          T                                        4792271
HAU   001.95 330.8 m E Sg      2011/11/25 08:00:25.9  -0.3                          T                3.7  .29 Ml 2.1         4792272
MBDF  001.73 204.2 m E Sg      2011/11/25 08:00:19.5   0.0                          T                3.9  .41 Ml 2.1         4792276

.
EVENT     266809
    Date      Time       Latitude Longitude    Depth    Ndef Nsta Gap    Mag1  N    Mag2  N    Mag3  N   Author         ID
       rms   OT_Error      Smajor Sminor Az        Err   mdist  Mdist     Err        Err        Err      Quality

2011/11/25 13:59:17.1     46.2334    6.9750       .0 f    19    7 071  Ml 2.0  4  Md 1.7  2              js067245    266829

      0.14   +-  0.03        .7     .6  105.37 +-  0.0    0.06   2.12   +-0.1      +-0.0                 m i km

SWITZERLAND
Sta     Dist  EvAz     Phase      Date       Time     TRes  Azim  AzRes  Slow  SRes Def   SNR       Amp   Per   Mag1   Mag2       ID
CABF  000.72 301.9 m E Pg      2011/11/25 13:59:31.0   0.0                          T                                        4792278
CABF  000.72 301.9 m E Sg      2011/11/25 13:59:40.5  -0.1                          T                2.6  .42                4792279
LPG   000.75 192.1 m E Pg      2011/11/25 13:59:31.7  -0.2                          T                                        4792286
LPG   000.75 192.1 m E Sg      2011/11/25 13:59:41.5  -0.4                          T                2.9  .27        Md 1.6  4792287
LPL   000.74 193.4 m E Pg      2011/11/25 13:59:31.7   0.2                          T                                        4792288
LPL   000.74 193.4 m E Sg      2011/11/25 13:59:41.0  -0.3                          T                2.2  .30        Md 1.7  4792289
MBDF  001.51 185.5 m E Pg      2011/11/25 13:59:45.7   0.0                          T                                        4792283
MBDF  001.51 185.5 m E Sg      2011/11/25 14:00:05.6   0.2                          T                6.2  .64 Ml 2.0         4792284
ORIF  001.52 210.7 m E Pg      2011/11/25 13:59:45.8   0.0                          T                                        4792280
ORIF  001.52 210.7 m E Sg      2011/11/25 14:00:05.7   0.0                          T                5.4  .42 Ml 2.2         4792285
VIVF  002.12 230.4 m E Pg      2011/11/25 13:59:56.8  -0.1                          T                                        4792281
VIVF  002.12 230.4 m E Sg      2011/11/25 14:00:24.6   0.2                          T                1.9  .26 Ml 2.1         4792282
HAU   001.82 346.7 m E Sg      2011/11/25 14:00:14.9  -0.1                          T                1.9  .26 Ml 1.8         4792277

.
EVENT     266746
    Date      Time       Latitude Longitude    Depth    Ndef Nsta Gap    Mag1  N    Mag2  N    Mag3  N   Author         ID
       rms   OT_Error      Smajor Sminor Az        Err   mdist  Mdist     Err        Err        Err      Quality

2011/11/25 16:54:28.1     46.1493    7.5149      5.0 f    36   12 068  Ml 2.2  7  Md 2.2  4              js067245    266766

      0.33   +-  0.04        .8     .6  123.43 +-  0.0    0.08   2.75   +-0.2      +-0.1                 m i ke

SWITZERLAND
Sta     Dist  EvAz     Phase      Date       Time     TRes  Azim  AzRes  Slow  SRes Def   SNR       Amp   Per   Mag1   Mag2       ID
LPL   000.84 221.1 m E Pg      2011/11/25 16:54:44.0  -0.1                          T                                        4792067
LPL   000.84 221.1 m E Sg      2011/11/25 16:54:54.8  -0.3                          T                5.1  .28        Md 2.2  4792062
LPG   000.84 219.6 m E Pg      2011/11/25 16:54:44.3  -0.1                          T                                        4792068
LPG   000.84 219.6 m E Sg      2011/11/25 16:54:55.1  -0.2                          T                6.9  .24        Md 2.2  4792061
CABF  001.09 295.6 m E Pg      2011/11/25 16:54:48.7   0.0                          T                                        4792064
CABF  001.09 295.6 m E P       2011/11/25 16:54:50.2   0.1                          T                                        4792047
CABF  001.09 295.6 m E Sg      2011/11/25 16:55:03.1   0.2                          T                3.1  .20 Ml 2.0 Md 2.0  4792063
MBDF  001.52 200.5 m E Pg      2011/11/25 16:54:56.7   0.1                          T                                        4792066
HINF  001.73 345.0 m E Pn      2011/11/25 16:54:57.0  -0.1                          T                                        4792048
HINF  001.73 345.0 m E Pg      2011/11/25 16:55:00.3   0.0                          T                                        4792290
HINF  001.73 345.0 m E Sn      2011/11/25 16:55:18.8   0.5                          T                                        4792052
HINF  001.73 345.0 m E Sg      2011/11/25 16:55:22.5  -0.1                          T                7.8  .28 Ml 2.6         4792059
ORIF  001.68 223.6 m E Pg      2011/11/25 16:55:00.0   0.4                          T                                        4792065
ORIF  001.68 223.6 m E Sg      2011/11/25 16:55:21.5   0.1                          T                1.7  .25 Ml 1.9 Md 2.2  4792060
FRF   002.66 193.7 m E Pg      2011/11/25 16:55:16.6  -0.8                          T                                        4792054
LOR   002.75 295.3 m E Pg      2011/11/25 16:55:19.2   0.0 117.2  4.5               T                                        4792057
LOR   002.75 295.3 m E Sg      2011/11/25 16:55:54.4  -0.2                          T                1.9  .25 Ml 2.3         4792058
HAU   002.02 337.2 m E Sg      2011/11/25 16:55:32.0   0.3                          T                4.7  .31 Ml 2.2         4792049
CDF   002.27 356.0 m E Sg      2011/11/25 16:55:39.9   0.2                          T                1.6  .23 Ml 2.2         4792051
THEF  002.32 334.0 m E Sg      2011/11/25 16:55:41.5   0.3                          T                                        4792050
VIVF  002.38 238.1 m E Sg      2011/11/25 16:55:43.2   0.2                          T                                        4792053

.
EVENT     266747
    Date      Time       Latitude Longitude    Depth    Ndef Nsta Gap    Mag1  N    Mag2  N    Mag3  N   Author         ID
       rms   OT_Error      Smajor Sminor Az        Err   mdist  Mdist     Err        Err        Err      Quality

2011/11/25 20:24:17.1     42.9583   -1.5479      2.0      60    7 088  Ml 2.1  5  Md 2.2  3              js067245    266767

      0.36   +-  0.07       1.2    1.0   80.94 +-  0.0    0.01   3.27   +-0.2      +-0.1                 m i ke

PYRENEES
Sta     Dist  EvAz     Phase      Date       Time     TRes  Azim  AzRes  Slow  SRes Def   SNR       Amp   Per   Mag1   Mag2       ID
SJPF  000.28 056.7 m E Pg      2011/11/25 20:24:22.6   0.0                          T                                        4792081
SJPF  000.28 056.7 m E Sg      2011/11/25 20:24:26.7   0.2                          T               55.6  .26        Md 2.3  4792076
ETSF  000.73 094.4 m E Pg      2011/11/25 20:24:30.4  -0.6                          T                                        4792080
ETSF  000.73 094.4 m E Sg      2011/11/25 20:24:40.4  -0.1                          T               12.5  .28        Md 2.0  4792075
EPF   001.39 086.4 m E Pg      2011/11/25 20:24:42.7  -0.3                          T                                        4792079
EPF   001.39 086.4 m E Sg      2011/11/25 20:25:00.7  -0.2                          T                5.2  .18 Ml 2.4 Md 2.1  4792074
LFF   002.58 039.1 m E P       2011/11/25 20:25:00.6   0.0                          T                                        4792077
LFF   002.58 039.1 m E Sn      2011/11/25 20:25:27.6  -0.5                          T                1.4  .26 Ml 1.9         4792070
MTLF  002.78 080.8 m E Pn      2011/11/25 20:25:00.6  -0.2                          T                                        4792293
MTLF  002.78 080.8 m E Pg      2011/11/25 20:25:08.4  -0.3                          T                                        4792291
MTLF  002.78 080.8 m E Sn      2011/11/25 20:25:33.1   0.1                          T                1.1  .37 Ml 1.9         4792292
RJF   003.22 042.2 m E Pn      2011/11/25 20:25:06.9   0.2                          T                                        4792078
RJF   003.22 042.2 m E P       2011/11/25 20:25:08.9  -0.9                          T                                        4792069
RJF   003.22 042.2 m E Sn      2011/11/25 20:25:43.3  -0.1                          T                2.1  .29 Ml 2.0         4792071
CAF   003.27 051.8 m E P       2011/11/25 20:25:10.5   0.0                          T                                        4792072
CAF   003.27 051.8 m E Sn      2011/11/25 20:25:44.6   0.0                          T                 .7  .16 Ml 2.1         4792073

.
EVENT     266748
    Date      Time       Latitude Longitude    Depth    Ndef Nsta Gap    Mag1  N    Mag2  N    Mag3  N   Author         ID
       rms   OT_Error      Smajor Sminor Az        Err   mdist  Mdist     Err        Err        Err      Quality

2011/11/25 20:38:15.4     42.9606   -1.5772      2.0      38    3 181  Ml 1.9  1  Md 1.9  2              js067245    266768

      0.48   +-  0.16       2.7    1.7   94.20 +-  0.0    0.03   2.17   +-         +-0.2                 m i ke

PYRENEES
Sta     Dist  EvAz     Phase      Date       Time     TRes  Azim  AzRes  Slow  SRes Def   SNR       Amp   Per   Mag1   Mag2       ID
SJPF  000.30 059.3 m E Pg      2011/11/25 20:38:21.1  -0.2                          T                                        4792087
SJPF  000.30 059.3 m E Sg      2011/11/25 20:38:25.3   0.0                          T                6.3  .24        Md 2.0  4792086
ETSF  000.75 094.4 m E Pg      2011/11/25 20:38:28.0  -0.6                          T                                        4792083
ETSF  000.75 094.4 m E Sg      2011/11/25 20:38:39.6   0.2                          T                2.8  .33        Md 1.7  4792085
EPF   001.41 086.5 m E Pg      2011/11/25 20:38:42.8   1.0                          T                                        4792082
EPF   001.41 086.5 m E Sg      2011/11/25 20:39:01.2   1.2                          T                1.9  .26 Ml 1.9         4792084

.
EVENT     266749
    Date      Time       Latitude Longitude    Depth    Ndef Nsta Gap    Mag1  N    Mag2  N    Mag3  N   Author         ID
       rms   OT_Error      Smajor Sminor Az        Err   mdist  Mdist     Err        Err        Err      Quality

2011/11/25 20:40:44.5     42.9497   -1.5658      2.0      33    3 185  Ml 1.5  1  Md 1.6  2              js067245    266769

      0.31   +-  0.10       1.8    1.2   91.08 +-  0.0    0.01   1.40   +-         +-0.1                 m i ke

PYRENEES
Sta     Dist  EvAz     Phase      Date       Time     TRes  Azim  AzRes  Slow  SRes Def   SNR       Amp   Per   Mag1   Mag2       ID
SJPF  000.30 056.7 m E Pg      2011/11/25 20:40:50.2  -0.1                          T                                        4792095
SJPF  000.30 056.7 m E Sg      2011/11/25 20:40:54.5   0.1                          T                3.1  .25        Md 1.6  4792093
ETSF  000.74 093.6 m E Pg      2011/11/25 20:40:58.5   0.0                          T                                        4792094
ETSF  000.74 093.6 m E Sg      2011/11/25 20:41:08.8   0.6                          T                                Md 1.5  4792092
EPF   001.40 086.1 m E Pn      2011/11/25 20:41:09.4   0.0                          T                                        4792088
EPF   001.40 086.1 m E Sg      2011/11/25 20:41:29.1   0.3                          T                 .8  .22 Ml 1.5         4792089

.
EVENT     266750
    Date      Time       Latitude Longitude    Depth    Ndef Nsta Gap    Mag1  N    Mag2  N    Mag3  N   Author         ID
       rms   OT_Error      Smajor Sminor Az        Err   mdist  Mdist     Err        Err        Err      Quality

2011/11/25 21:04:55.7     42.9538   -1.5636      2.0      34    3 184  Ml 1.4  1  Md 1.5  2              js067245    266770

      0.35   +-  0.12       2.0    1.3   90.76 +-  0.0    0.01   1.40   +-         +-0.1                 m i ke

PYRENEES
Sta     Dist  EvAz     Phase      Date       Time     TRes  Azim  AzRes  Slow  SRes Def   SNR       Amp   Per   Mag1   Mag2       ID
SJPF  000.30 057.2 m E Pg      2011/11/25 21:05:01.2  -0.2                          T                                        4792100
SJPF  000.30 057.2 m E Sg      2011/11/25 21:05:05.6   0.1                          T                3.8  .25        Md 1.6  4792098
ETSF  000.74 093.9 m E Pg      2011/11/25 21:05:10.0   0.3                          T                                        4792099
ETSF  000.74 093.9 m E Sg      2011/11/25 21:05:19.6   0.3                          T                 .6  .18        Md 1.5  4792097
EPF   001.40 086.2 m E Sn      2011/11/25 21:05:38.6   0.1                          T                 .5  .16 Ml 1.4         4792096

.
