EVENT     282388
    Date      Time       Latitude Longitude    Depth    Ndef Nsta Gap    Mag1  N    Mag2  N    Mag3  N   Author         ID
       rms   OT_Error      Smajor Sminor Az        Err   mdist  Mdist     Err        Err        Err      Quality

2012/09/02 06:15:41.8     44.8647   11.3966      2.0      37   12 141  Ml 2.4 10                         bulletin    282488
                                                                                                         _ldg
      0.44   +-  0.18       3.7    2.6   97.98 +-  0.0    0.23   5.77   +-0.2                            m i ke

NORTHERN ITALY
Sta     Dist  EvAz     Phase      Date       Time     TRes  Azim  AzRes  Slow  SRes Def   SNR       Amp   Per   Mag1   Mag2       ID
SBF   003.01 252.0 m E Pn      2012/09/02 06:16:28.6  -0.1                          T                                        5059388
SBF   003.01 252.0 m E Sn      2012/09/02 06:17:02.8  -0.5                          T                3.3  .33 Ml 2.4         5059387
MBDF  003.30 269.2 m E Pn      2012/09/02 06:16:33.0   0.4                          T                                        5059399
MBDF  003.30 269.2 m E Sn      2012/09/02 06:17:10.1   0.0                          T                1.3  .30 Ml 2.1         5059398
LPG   003.35 282.5 m E Pn      2012/09/02 06:16:33.4  -0.2                          T                                        5059395
LPG   003.35 282.5 m E Sn      2012/09/02 06:17:11.3  -0.2                          T                 .6  .18 Ml 2.1         5059394
FRF   003.66 250.8 m E Pn      2012/09/02 06:16:37.8   0.4                          T                                        5059392
FRF   003.66 250.8 m E Sn      2012/09/02 06:17:18.3  -0.2                          T                1.6  .29 Ml 2.4         5059391
LMR   003.84 248.2 m E Pn      2012/09/02 06:16:39.6  -0.2                          T                                        5059389
LMR   003.84 248.2 m E Sn      2012/09/02 06:17:22.7  -0.2                          T                1.1  .24 Ml 2.3         5059390
ORIF  003.92 272.7 m E Pn      2012/09/02 06:16:41.2   0.1                          T                                        5059397
ORIF  003.92 272.7 m E Sn      2012/09/02 06:17:25.0   0.0                          T                2.3  .43 Ml 2.4         5059396
SMRF  004.26 260.0 m E Pn      2012/09/02 06:16:45.8   0.1                          T                                        5059393
HINF  004.31 314.8 m E Pn      2012/09/02 06:16:47.1   0.7                          T                                        5059404
HINF  004.31 314.8 m E Sn      2012/09/02 06:17:34.1  -0.3                          T                4.4  .56 Ml 2.6         5059403
CDF   004.54 322.8 m E Pn      2012/09/02 06:16:50.3   0.7                          T                                        5059408
CDF   004.54 322.8 m E Sn      2012/09/02 06:17:40.3   0.5                          T                1.3  .29 Ml 2.5         5059407
HAU   004.70 313.8 m E Pn      2012/09/02 06:16:51.8   0.2                          T                                        5059406
HAU   004.70 313.8 m E Sn      2012/09/02 06:17:43.7   0.3                          T                3.9  .40 Ml 2.6         5059405
SMF   005.58 291.3 m E Pn      2012/09/02 06:17:03.2  -0.4                          T                                        5059401
SMF   005.58 291.3 m E Sn      2012/09/02 06:18:04.6   0.1                          T                1.6  .27 Ml 2.8         5059400
LOR   005.77 297.3 m E Pn      2012/09/02 06:17:06.1  -0.1                          T                                        5059402

.
EVENT     282399
    Date      Time       Latitude Longitude    Depth    Ndef Nsta Gap    Mag1  N    Mag2  N    Mag3  N   Author         ID
       rms   OT_Error      Smajor Sminor Az        Err   mdist  Mdist     Err        Err        Err      Quality

2012/09/02 07:39:58.9     46.3231    7.3566      5.0 f    43    9 072  Ml 1.7 10  Md 1.8  3              bulletin    282499
                                                                                                         _ldg
      0.24   +-  0.04        .8     .7  108.96 +-  0.0    0.06   2.39   +-0.3      +-0.2                 m i ke

SWITZERLAND
Sta     Dist  EvAz     Phase      Date       Time     TRes  Azim  AzRes  Slow  SRes Def   SNR       Amp   Per   Mag1   Mag2       ID
LPL   000.92 208.6 m E Pg      2012/09/02 07:40:16.4   0.0                          T                                        5059672
LPL   000.92 208.6 m E Sg      2012/09/02 07:40:28.0  -0.4                          T                9.8  .24 Ml 2.4         5059671
LPG   000.93 207.3 m E Pg      2012/09/02 07:40:16.7  -0.1                          T                                        5059674
LPG   000.93 207.3 m E Sg      2012/09/02 07:40:28.7  -0.1                          T                1.3  .27 Ml 1.5 Md 1.7  5059673
CABF  000.92 288.6 m E Pn      2012/09/02 07:40:17.2   0.1                          T                                        5059683
CABF  000.92 288.6 m E Sn      2012/09/02 07:40:30.2   0.3                          T                2.6  .25 Ml 1.8 Md 1.7  5059682
HINF  001.53 347.2 m E Pn      2012/09/02 07:40:25.5   0.1                          T                                        5059679
HINF  001.53 347.2 m E Pg      2012/09/02 07:40:27.6   0.0                          T                                        5063375
HINF  001.53 347.2 m E Sn      2012/09/02 07:40:44.3  -0.2                          T                                        5059681
HINF  001.53 347.2 m E Sg      2012/09/02 07:40:47.5   0.0                          T                1.1  .22 Ml 1.7 Md 2.0  5059680
MBDF  001.65 194.7 m E Pn      2012/09/02 07:40:26.8  -0.2                          T                                        5059670
MBDF  001.65 194.7 m E Sg      2012/09/02 07:40:50.9  -0.2                          T                 .5  .27 Ml 1.4         5059669
ORIF  001.75 216.9 m E Pn      2012/09/02 07:40:28.8   0.5                          T                                        5059667
ORIF  001.75 216.9 m E Sn      2012/09/02 07:40:49.6   0.0                          T                1.2  .37 Ml 1.7         5059668
HAU   001.82 338.1 m E Pn      2012/09/02 07:40:29.2   0.0                          T                                        5059678
HAU   001.82 338.1 m E Pg      2012/09/02 07:40:32.6  -0.2                          T                                        5063374
HAU   001.82 338.1 m E Sg      2012/09/02 07:40:56.4   0.1                          T                1.4  .27 Ml 1.7         5059677
CDF   002.09 358.5 m E Pn      2012/09/02 07:40:33.2   0.2                          T                                        5059676
CDF   002.09 358.5 m E Sg      2012/09/02 07:41:04.9   0.0                          T                 .9  .29 Ml 1.8         5059675
VIVF  002.39 233.1 m E Sg      2012/09/02 07:41:14.2   0.1                          T                1.1  .35 Ml 1.8         5063373

.
EVENT     282392
    Date      Time       Latitude Longitude    Depth    Ndef Nsta Gap    Mag1  N    Mag2  N    Mag3  N   Author         ID
       rms   OT_Error      Smajor Sminor Az        Err   mdist  Mdist     Err        Err        Err      Quality

2012/09/02 11:18:57.8     44.8385   11.5785      2.0      32   14 221  Ml 2.5  9                         bulletin    282492
                                                                                                         _ldg
      0.27   +-  0.16       3.3    1.7   89.54 +-  0.0    0.21   6.05   +-0.2                            m i ke

NORTHERN ITALY
Sta     Dist  EvAz     Phase      Date       Time     TRes  Azim  AzRes  Slow  SRes Def   SNR       Amp   Per   Mag1   Mag2       ID
PGF   002.96 220.1 m E Pn      2012/09/02 11:19:44.1   0.2                          T                                        5059446
PGF   002.96 220.1 m E Sn      2012/09/02 11:20:17.8  -0.1                          T                2.2  .28 Ml 2.6         5059445
SBF   003.13 253.3 m E Pn      2012/09/02 11:19:46.5   0.3                          T                                        5059448
SBF   003.13 253.3 m E Sn      2012/09/02 11:20:21.9  -0.1                          T                3.3  .24 Ml 2.6         5059447
MBDF  003.42 269.8 m E Pn      2012/09/02 11:19:50.7   0.3                          T                                        5059455
MBDF  003.42 269.8 m E Sn      2012/09/02 11:20:29.1   0.0                          T                 .9  .20 Ml 2.2         5059454
FRF   003.77 251.9 m E Pn      2012/09/02 11:19:54.9   0.0                          T                                        5059452
FRF   003.77 251.9 m E Sn      2012/09/02 11:20:37.4   0.1                          T                3.2  .34 Ml 2.6         5059451
LMR   003.95 249.4 m E Pn      2012/09/02 11:19:57.3  -0.1                          T                                        5059450
LMR   003.95 249.4 m E Sn      2012/09/02 11:20:41.2  -0.3                          T                2.1  .24 Ml 2.6         5059449
ORIF  004.05 273.1 m E Pn      2012/09/02 11:19:59.8   1.0                          T                                        5059444
ORIF  004.05 273.1 m E Sn      2012/09/02 11:20:43.4  -0.7                          T                 .6  .24 Ml 2.0         5059443
CABF  004.23 296.7 m E Pn      2012/09/02 11:20:01.3   0.0                          T                                        5059439
CABF  004.23 296.7 m E Sn      2012/09/02 11:20:48.1  -0.3                          T                1.1  .27 Ml 2.3         5059436
HINF  004.43 314.0 m E Pn      2012/09/02 11:20:03.6  -0.3                          T                                        5059440
HINF  004.43 314.0 m E Sn      2012/09/02 11:20:52.6  -0.3                          T                2.4  .30 Ml 2.7         5059437
CDF   004.64 321.9 m E Pn      2012/09/02 11:20:07.0   0.1                          T                                        5059456
HAU   004.81 313.1 m E Pn      2012/09/02 11:20:09.5   0.4                          T                                        5059441
HAU   004.81 313.1 m E Sn      2012/09/02 11:21:01.7  -0.3                          T                3.7  .35 Ml 2.6         5059435
VIVF  004.91 272.6 m E Pn      2012/09/02 11:20:10.4   0.0                          T                                        5059453
PAGF  005.48 314.8 m E Pn      2012/09/02 11:20:18.2   0.0                          T                                        5059438
SMF   005.71 291.2 m E Pn      2012/09/02 11:20:21.2  -0.1                          T                                        5059442
SSF   006.05 294.4 m E Pn      2012/09/02 11:20:26.2   0.2                          T                                        5059434

.
EVENT     282393
    Date      Time       Latitude Longitude    Depth    Ndef Nsta Gap    Mag1  N    Mag2  N    Mag3  N   Author         ID
       rms   OT_Error      Smajor Sminor Az        Err   mdist  Mdist     Err        Err        Err      Quality

2012/09/02 12:08:22.2     44.9364   11.0398      2.0      51   19 183  Ml 3.1 16                         bulletin    282493
                                                                                                         _ldg
      0.68   +-  0.23       4.8    3.1  120.68 +-  0.0    1.09   6.55   +-0.4                            m i ke

NORTHERN ITALY
Sta     Dist  EvAz     Phase      Date       Time     TRes  Azim  AzRes  Slow  SRes Def   SNR       Amp   Per   Mag1   Mag2       ID
PGF   002.81 212.5 m E Pn      2012/09/02 12:09:05.4  -1.0                          T   001.0                                5059489
PGF   002.81 212.5 m E Sn      2012/09/02 12:09:39.0   0.2                          T   001.0      175.1 1.60 Ml 3.7         5059490
SBF   002.80 248.7 m E Pn      2012/09/02 12:09:07.1   0.9                          T                                        5059457
SBF   002.80 248.7 m E Sn      2012/09/02 12:09:39.6   1.0                          T   001.0       76.8  .78 Ml 3.4         5059493
LPG   003.08 282.0 m E Pn      2012/09/02 12:09:07.9  -2.5                          T   001.0                                5059501
LPG   003.08 282.0 m E Sn      2012/09/02 12:09:44.9  -0.7                          T               13.3  .48 Ml 2.9         5059506
MBDF  003.04 267.6 m E Pn      2012/09/02 12:09:08.0  -1.7                          T                                        5059462
MBDF  003.04 267.6 m E Sn      2012/09/02 12:09:43.6  -0.9                          T   001.0       17.0  .54 Ml 2.9         5059503
LPL   003.10 282.3 m E Pn      2012/09/02 12:09:10.1  -0.4                          T                                        5059460
LPL   003.10 282.3 m E Sn      2012/09/02 12:09:45.7  -0.2                          T               11.5  .46 Ml 2.8         5059507
LPL   003.10 282.3 m E Sg      2012/09/02 12:09:58.1  -1.6                          T   001.0       10.1  .44 Ml 2.8         5059487
FRF   003.44 248.0 m E Pn      2012/09/02 12:09:14.9   0.0                          T                                        5059459
FRF   003.44 248.0 m E Sn      2012/09/02 12:09:53.6  -0.3                          T   001.0       63.1 1.18 Ml 3.3         5059491
LMR   003.63 245.4 m E Pn      2012/09/02 12:09:17.2  -0.3                          T                                        5059458
LMR   003.63 245.4 m E Sn      2012/09/02 12:09:57.6  -0.8                          T   001.0      638.5 2.62 Ml 4.0         5059495
ORIF  003.66 271.5 m E Pn      2012/09/02 12:09:18.6   0.5                          T                                        5059461
ORIF  003.66 271.5 m E Sn      2012/09/02 12:09:59.6   0.3                          T               23.5  .74 Ml 3.1         5059508
CABF  003.85 297.5 m E Pn      2012/09/02 12:09:21.3   0.7                          T                                        5059465
CABF  003.85 297.5 m E Sn      2012/09/02 12:10:04.1   0.4                          T   001.0        9.2  .68 Ml 2.7         5059500
HINF  004.09 316.3 m E Pn      2012/09/02 12:09:23.3  -0.4                          T                                        5059466
HINF  004.09 316.3 m E Sn      2012/09/02 12:10:09.6   0.3                          T   001.0        6.1  .36 Ml 2.9         5059502
CDF   004.34 324.7 m E Pn      2012/09/02 12:09:27.1  -0.1                          T                                        5059468
CDF   004.34 324.7 m E Sn      2012/09/02 12:10:14.1  -1.2                          T   001.0        2.4  .24 Ml 2.8         5059488
HAU   004.46 315.1 m E Pn      2012/09/02 12:09:28.8  -0.1                          T                                        5059467
HAU   004.46 315.1 m E Sn      2012/09/02 12:10:18.1  -0.2                          T   001.0                                5059492
HAU   004.46 315.1 m E Sg      2012/09/02 12:10:39.7  -2.4                          T   001.0        8.3  .44 Ml 2.8         5059494
VIVF  004.53 271.2 m E Pn      2012/09/02 12:09:30.0   0.3                          T   001.0                                5059505
VIVF  004.53 271.2 m E Sn      2012/09/02 12:10:19.8   0.1                          T                                        5059509
SMF   005.32 291.3 m E Pn      2012/09/02 12:09:40.6   0.1                          T                                        5059463
SMF   005.32 291.3 m E Sn      2012/09/02 12:10:39.2   0.5                          T   001.0       33.7 1.26 Ml 3.4         5059496
LOR   005.51 297.6 m E Pn      2012/09/02 12:09:42.5  -0.6 117.0  4.6               T   001.0                                5059497
LOR   005.51 297.6 m E Sn      2012/09/02 12:10:42.7  -0.6                          T   001.0        4.7  .32 Ml 3.2         5059498
AVF   005.68 291.8 m E Pn      2012/09/02 12:09:45.4   0.0                          T                                        5059464
SSF   005.66 294.7 m E Pn      2012/09/02 12:09:46.0   0.9                          T   001.0                                5059499
BGF   005.96 288.7 m E Pn      2012/09/02 12:09:49.1   0.0                          T                                        5059511
BGF   005.96 288.7 m E Sn      2012/09/02 12:10:54.0   0.0                          T                9.5  .52 Ml 3.3         5059510
MTLF  006.55 259.0 m E Pn      2012/09/02 12:09:57.1  -0.1                          T   001.0                                5059504

.
EVENT     282394
    Date      Time       Latitude Longitude    Depth    Ndef Nsta Gap    Mag1  N    Mag2  N    Mag3  N   Author         ID
       rms   OT_Error      Smajor Sminor Az        Err   mdist  Mdist     Err        Err        Err      Quality

2012/09/02 14:19:00.3     42.9484    -.9244      2.0      14    3 136  Ml 1.9  1  Md 1.8  2              bulletin    282494
                                                                                                         _ldg
      0.41   +-  0.10       3.3    1.5    3.11 +-  0.0    0.21   0.93   +-         +-0.0                 m i ke

PYRENEES
Sta     Dist  EvAz     Phase      Date       Time     TRes  Azim  AzRes  Slow  SRes Def   SNR       Amp   Per   Mag1   Mag2       ID
ETSF  000.27 100.4 m E Pg      2012/09/02 14:19:05.4  -0.4                          T                                        5059518
ETSF  000.27 100.4 m E Sg      2012/09/02 14:19:09.1  -0.4                          T               31.9  .52        Md 1.8  5059517
SJPF  000.28 306.9 m E Pg      2012/09/02 14:19:05.4  -0.4                          T                                        5059519
SJPF  000.28 306.9 m E Sg      2012/09/02 14:19:09.8   0.3                          T               18.4  .26        Md 1.8  5059516
EPF   000.93 084.5 m E Pg      2012/09/02 14:19:18.0   0.1                          T                                        5059524
EPF   000.93 084.5 m E Sg      2012/09/02 14:19:30.3   0.3                          T                3.2  .24 Ml 1.9         5059523

.
