EVENT     255646
    Date      Time       Latitude Longitude    Depth    Ndef Nsta Gap    Mag1  N    Mag2  N    Mag3  N   Author         ID
       rms   OT_Error      Smajor Sminor Az        Err   mdist  Mdist     Err        Err        Err      Quality

2011/02/05 09:27:40.6     43.9536   17.1795      2.0 f    66   22 073  Ml 3.6 13                         js067245    255666

      1.37   +-  0.15       5.8    3.1   15.11 +-  0.0    0.80  11.25   +-0.3                            m i ke

NORTHWESTERN BALKAN PEN.
Sta     Dist  EvAz     Phase      Date       Time     TRes  Azim  AzRes  Slow  SRes Def   SNR       Amp   Per   Mag1   Mag2       ID
PGF   006.14 259.6 m E Pn      2011/02/05 09:29:09.9  -0.2                          T                                        4643476
PGF   006.14 259.6 m E Sn      2011/02/05 09:30:16.9   0.1                          T               16.0  .95 Ml 3.6         4643444
SBF   007.04 272.6 m E Pn      2011/02/05 09:29:22.2  -0.2                          T                                        4643475
SBF   007.04 272.6 m E Sn      2011/02/05 09:30:38.4   0.1                          T               19.6  .66 Ml 3.7         4643453
MBDF  007.50 279.5 m E Pn      2011/02/05 09:29:28.2  -0.6                          T                                        4643468
MBDF  007.50 279.5 m E Sn      2011/02/05 09:30:49.7   0.3                          T               15.7  .66 Ml 3.7         4643449
LPG   007.59 285.4 m E Pn      2011/02/05 09:29:30.1   0.0                          T                                        4643471
LPG   007.59 285.4 m E Sn      2011/02/05 09:30:51.8   0.1                          T               18.8  .65 Ml 3.8         4643452
FRF   007.64 270.7 m E Pn      2011/02/05 09:29:30.7   0.3                          T                                        4643473
LPL   007.60 285.5 m E Pn      2011/02/05 09:29:30.8   0.5                          T                                        4643470
LPL   007.60 285.5 m E Sn      2011/02/05 09:30:52.1   0.1                          T               11.1  .52 Ml 3.7         4643451
LMR   007.77 269.1 m E Pn      2011/02/05 09:29:32.1  -0.1                          T                                        4643474
ORIF  008.15 280.7 m E Pn      2011/02/05 09:29:37.6   0.1                          T                                        4643469
ORIF  008.15 280.7 m E Sn      2011/02/05 09:31:05.0   0.2                          T               15.8  .74 Ml 3.8         4643450
HINF  008.17 301.8 m E Pn      2011/02/05 09:29:37.8   0.0                          T                                        4643460
HINF  008.17 301.8 m E Sn      2011/02/05 09:31:05.5   0.1                          T               13.7  .88 Ml 3.6         4643448
LANF  008.19 311.1 m E Pn      2011/02/05 09:29:38.0   0.0                          T                                        4643457
CDF   008.19 306.4 m E Pn      2011/02/05 09:29:38.1   0.1                          T                                        4643456
CABF  008.26 292.6 m E Pn      2011/02/05 09:29:39.0   0.0                          T                                        4643461
SMRF  008.37 274.2 m E Pn      2011/02/05 09:29:40.5   0.1                          T                                        4643472
HAU   008.56 302.0 m E Pn      2011/02/05 09:29:43.1   0.1                          T                                        4643459
HAU   008.56 302.0 m E Sn      2011/02/05 09:31:14.8   0.2                          T                9.6  .65 Ml 3.5         4643447
THEF  008.87 302.7 m E Pn      2011/02/05 09:29:47.1  -0.1                          T                                        4643458
VIVF  009.00 280.1 m E Pn      2011/02/05 09:29:48.8  -0.2                          T                                        4643467
LASF  009.60 275.3 m E Pn      2011/02/05 09:29:57.3   0.0                          T                                        4643466
LOR   009.91 294.2 m E Pn      2011/02/05 09:30:01.1  -0.2 113.6  8.9               T                                        4643455
LOR   009.91 294.2 m E Sn      2011/02/05 09:31:46.7   0.0                          T                5.3  .60 Ml 3.7         4643446
SSF   010.09 292.7 m E Pn      2011/02/05 09:30:03.6  -0.3                          T                                        4643454
SSF   010.09 292.7 m E Sn      2011/02/05 09:31:51.3   0.2                          T                4.6  .67 Ml 3.7         4643445
BGF   010.44 289.4 m E Pn      2011/02/05 09:30:08.6   0.0                          T                                        4643462
CAF   010.86 280.4 m E Pn      2011/02/05 09:30:14.1  -0.2                          T                                        4643465
RJF   011.25 282.3 m E Pn      2011/02/05 09:30:19.7   0.1                          T                                        4643464

.
EVENT     255645
    Date      Time       Latitude Longitude    Depth    Ndef Nsta Gap    Mag1  N    Mag2  N    Mag3  N   Author         ID
       rms   OT_Error      Smajor Sminor Az        Err   mdist  Mdist     Err        Err        Err      Quality

2011/02/05 09:28:15.9     44.3415    7.4236       .0 f     8    4 229  Ml 2.0  2  Md 1.9  3              js067245    255665

      0.28   +-  0.32       7.9    3.2   76.62 +-  0.0    0.48   1.21   +-0.1      +-0.1                 m i km

NORTHERN ITALY
Sta     Dist  EvAz     Phase      Date       Time     TRes  Azim  AzRes  Slow  SRes Def   SNR       Amp   Per   Mag1   Mag2       ID
SBF   000.48 179.0 m E Pg      2011/02/05 09:28:25.5   0.2                          T                                        4643401
SBF   000.48 179.0 m E Sg      2011/02/05 09:28:31.3  -0.6                          T               13.9  .42        Md 2.0  4643397
MBDF  000.61 309.8 m E Pg      2011/02/05 09:28:27.7  -0.1                          T                                        4643404
MBDF  000.61 309.8 m E Sg      2011/02/05 09:28:37.6   1.7                          T                6.7  .48        Md 1.9  4643400
FRF   000.96 216.0 m E Pg      2011/02/05 09:28:34.5   0.3                          T                                        4643403
FRF   000.96 216.0 m E Sg      2011/02/05 09:28:46.8   0.0                          T                4.3  .34 Ml 1.9 Md 2.0  4643399
LMR   001.21 213.6 m E Pg      2011/02/05 09:28:38.3  -0.3                          T                                        4643402
LMR   001.21 213.6 m E Sg      2011/02/05 09:28:54.6   0.2                          T                4.5  .28 Ml 2.1         4643398

.
EVENT     255647
    Date      Time       Latitude Longitude    Depth    Ndef Nsta Gap    Mag1  N    Mag2  N    Mag3  N   Author         ID
       rms   OT_Error      Smajor Sminor Az        Err   mdist  Mdist     Err        Err        Err      Quality

2011/02/05 14:00:52.2     44.0811    6.6795      2.0      24   10 105  Ml 2.1  7  Md 2.0  3              js067245    255667

      0.52   +-  0.05       1.3     .9   67.20 +-  0.0    0.52   2.28   +-0.1      +-0.1                 m i ke

FRANCE
Sta     Dist  EvAz     Phase      Date       Time     TRes  Azim  AzRes  Slow  SRes Def   SNR       Amp   Per   Mag1   Mag2       ID
FRF   000.52 182.6 m E Pg      2011/02/05 14:01:01.8  -0.3                          T                                        4643495
FRF   000.52 182.6 m E Sg      2011/02/05 14:01:09.3   0.3                          T               10.2  .20        Md 2.0  4643489
SBF   000.59 111.5 m E Pg      2011/02/05 14:01:03.7   0.3                          T                                        4643493
SBF   000.59 111.5 m E Sg      2011/02/05 14:01:11.2   0.1                          T               11.9  .32        Md 2.0  4643479
MBDF  000.65 005.8 m E Pg      2011/02/05 14:01:04.5  -0.2                          T                                        4643496
MBDF  000.65 005.8 m E Sg      2011/02/05 14:01:12.9  -0.2                          T               18.1  .44        Md 1.9  4643490
LMR   000.76 189.4 m E Pg      2011/02/05 14:01:06.2  -0.2                          T                                        4643494
LMR   000.76 189.4 m E Sg      2011/02/05 14:01:16.3   0.0                          T               24.3  .18                4643488
SMRF  000.80 262.9 m E Pg      2011/02/05 14:01:07.6   0.2                          T                                        4643492
SMRF  000.80 262.9 m E Sg      2011/02/05 14:01:17.9   0.1                          T               11.2  .22                4643487
ORIF  001.01 325.9 m E Pg      2011/02/05 14:01:11.7   0.4                          T                                        4643491
ORIF  001.01 325.9 m E Sg      2011/02/05 14:01:24.7   0.2                          T                7.9  .49 Ml 2.0         4643486
LPG   001.42 002.0 m E Pg      2011/02/05 14:01:18.8  -0.2                          T                                        4643485
LPG   001.42 002.0 m E Sg      2011/02/05 14:01:37.3   0.0                          T                4.2  .24 Ml 2.2         4643480
LPL   001.44 001.5 m E Pg      2011/02/05 14:01:19.1  -0.1                          T                                        4643484
LPL   001.44 001.5 m E Sg      2011/02/05 14:01:37.8   0.0                          T                2.4  .31 Ml 1.9         4643481
VIVF  001.63 299.0 m E Pg      2011/02/05 14:01:22.5  -0.1                          T                                        4643483
VIVF  001.63 299.0 m E Sg      2011/02/05 14:01:43.6  -0.1                          T                3.0  .39 Ml 2.0         4643482
PGF   002.28 131.3 m E Pn      2011/02/05 14:01:29.2   0.0                          T                                        4643478
PGF   002.28 131.3 m E Sn      2011/02/05 14:01:56.3   0.1                          T                 .8  .18 Ml 2.1         4643477

.
EVENT     255648
    Date      Time       Latitude Longitude    Depth    Ndef Nsta Gap    Mag1  N    Mag2  N    Mag3  N   Author         ID
       rms   OT_Error      Smajor Sminor Az        Err   mdist  Mdist     Err        Err        Err      Quality

2011/02/05 23:28:13.6     43.0342    -.8507      2.0       6    3 149  Ml 1.3  1  Md 1.3  2              js067245    255668

      0.24   +-  0.08       2.5    1.2   12.75 +-  0.0    0.10   0.87   +-         +-0.0                 m i ke

PYRENEES
Sta     Dist  EvAz     Phase      Date       Time     TRes  Azim  AzRes  Slow  SRes Def   SNR       Amp   Per   Mag1   Mag2       ID
ETSF  000.25 122.2 m E Pg      2011/02/05 23:28:18.6  -0.2                          T                                        4643506
ETSF  000.25 122.2 m E Sg      2011/02/05 23:28:22.1  -0.1                          T                8.8  .12        Md 1.4  4643503
SJPF  000.29 286.2 m E Pg      2011/02/05 23:28:19.0  -0.2                          T                                        4643505
SJPF  000.29 286.2 m E Sg      2011/02/05 23:28:23.2   0.0                          T                4.9  .26        Md 1.3  4643504
EPF   000.87 089.8 m E Pg      2011/02/05 23:28:30.2   0.1                          T                                        4643501
EPF   000.87 089.8 m E Sg      2011/02/05 23:28:41.5   0.0                          T                 .8  .22 Ml 1.3         4643502

.
EVENT     255649
    Date      Time       Latitude Longitude    Depth    Ndef Nsta Gap    Mag1  N    Mag2  N    Mag3  N   Author         ID
       rms   OT_Error      Smajor Sminor Az        Err   mdist  Mdist     Err        Err        Err      Quality

2011/02/06 00:15:58.8     53.5273    2.0992     10.0 f    63   31 283  Ml 3.1 29                         js067245    255669

      1.06   +-  0.27       5.1    3.6     .68 +-  0.0    3.71  10.57   +-0.3                            m i ke

NORTH SEA
Sta     Dist  EvAz     Phase      Date       Time     TRes  Azim  AzRes  Slow  SRes Def   SNR       Amp   Per   Mag1   Mag2       ID
BAIF  003.71 158.5 m E Pn      2011/02/06 00:16:55.1   0.8                          T                                        4643567
BAIF  003.71 158.5 m E Sn      2011/02/06 00:17:35.8   0.4                          T                2.0  .25 Ml 2.5         4643554
GIVF  003.82 152.7 m E Pn      2011/02/06 00:16:56.0   0.2                          T                                        4643553
GIVF  003.82 152.7 m E Sn      2011/02/06 00:17:38.3   0.2                          T                5.1  .35 Ml 2.8         4643516
FLN   005.04 199.8 m E Pn      2011/02/06 00:17:10.6  -1.8                          T                                        4643556
FLN   005.04 199.8 m E Sn      2011/02/06 00:18:07.1  -0.1  27.0  9.2               T                4.9  .26 Ml 3.0         4643527
RUP   004.92 139.1 m E Pn      2011/02/06 00:17:11.0   0.2                          T                                        4643551
RUP   004.92 139.1 m E Sn      2011/02/06 00:18:04.9   0.4                          T                                        4643514
LDF   005.13 196.7 m E Pn      2011/02/06 00:17:13.7   0.0                          T                                        4643543
LDF   005.13 196.7 m E Sn      2011/02/06 00:18:09.6   0.1                          T                6.1  .49 Ml 3.0         4643528
MEZF  005.37 158.5 m E Pn      2011/02/06 00:17:17.0   0.2                          T                                        4643548
MEZF  005.37 158.5 m E Sn      2011/02/06 00:18:15.2   0.2 338.1  -2.7              T                1.8  .30 Ml 2.7         4643518
PAGF  005.48 153.9 m E Pn      2011/02/06 00:17:17.7  -0.6                          T                                        4643563
PAGF  005.48 153.9 m E Sn      2011/02/06 00:18:18.1   0.4 342.9  6.2               T                 .6  .49 Ml 2.1         4643513
GRR   005.47 201.1 m E Pn      2011/02/06 00:17:18.0  -0.3                          T                                        4643542
GRR   005.47 201.1 m E Sn      2011/02/06 00:18:17.3  -0.3                          T                8.5  .29 Ml 3.3         4643529
SFTF  005.64 159.6 m E Pn      2011/02/06 00:17:20.1  -0.5 328.3  -13.6             T                                        4643564
SFTF  005.64 159.6 m E Sn      2011/02/06 00:18:22.0   0.3                          T                4.0  .24 Ml 3.2         4643520
LANF  005.79 139.5 m E Pn      2011/02/06 00:17:22.9   0.2                          T                                        4643550
THEF  005.85 153.5 m E Pn      2011/02/06 00:17:23.5   0.1                          T                                        4643562
THEF  005.85 153.5 m E Sn      2011/02/06 00:18:26.9   0.3                          T                3.5  .27 Ml 3.2         4643519
CDF   006.08 145.4 m E Pn      2011/02/06 00:17:26.5  -0.1                          T                                        4643549
SGMF  006.04 211.0 m E Pn      2011/02/06 00:17:27.0   0.9                          T                                        4643557
SGMF  006.04 211.0 m E Sn      2011/02/06 00:18:31.4   0.2                          T                2.1  .33 Ml 2.9         4643526
ROSF  006.21 215.3 m E Pn      2011/02/06 00:17:28.1  -0.2                          T                                        4643545
ROSF  006.21 215.3 m E Sn      2011/02/06 00:18:35.0  -0.1                          T                4.8  .33 Ml 3.3         4643525
HAU   006.15 152.3 m E Pn      2011/02/06 00:17:29.7   2.2                          T                                        4643949
LOR   006.37 169.1 m E Pn      2011/02/06 00:17:31.0   0.5 347.2  -3.3              T                                        4643565
LOR   006.37 169.1 m E Sn      2011/02/06 00:18:38.8  -0.2 357.4  6.9               T                7.4  .35 Ml 3.5         4643555
HINF  006.47 150.3 m E Pn      2011/02/06 00:17:31.7  -0.1                          T                                        4643547
SSF   006.54 171.5 m E Pn      2011/02/06 00:17:33.0   0.3                          T                                        4643566
SSF   006.54 171.5 m E Sn      2011/02/06 00:18:43.0   0.0                          T                1.9  .35 Ml 3.0         4643517
QUIF  006.54 212.8 m E Pn      2011/02/06 00:17:33.8   1.1                          T                                        4643544
QUIF  006.54 212.8 m E Sn      2011/02/06 00:18:44.1   1.2                          T                4.2  .38 Ml 3.2         4643948
SMF   006.98 170.1 m E Pn      2011/02/06 00:17:38.8   0.0                          T                                        4643560
SMF   006.98 170.1 m E Sn      2011/02/06 00:18:53.7   0.1                          T                3.1  .22 Ml 3.4         4643521
BGF   006.99 175.8 m E Pn      2011/02/06 00:17:38.9   0.0                          T                                        4643546
BGF   006.99 175.8 m E Sn      2011/02/06 00:18:54.1   0.2                          T               11.4  .32 Ml 3.8         4643523
MFF   007.08 192.7 m E Pn      2011/02/06 00:17:40.2   0.0                          T                                        4643541
MFF   007.08 192.7 m E Sn      2011/02/06 00:18:55.9  -0.1                          T                3.4  .34 Ml 3.4         4643530
TCF   007.25 179.4 m E Pn      2011/02/06 00:17:42.3  -0.2                          T                                        4643552
TCF   007.25 179.4 m E Sn      2011/02/06 00:19:00.0   0.0                          T                1.4  .31 Ml 3.0         4643515
CABF  007.38 158.1 m E Pn      2011/02/06 00:17:44.0  -0.4                          T                                        4643561
CABF  007.38 158.1 m E Sn      2011/02/06 00:19:01.8  -1.5                          T                1.2  .32 Ml 2.9         4643950
RJF   008.24 182.9 m E Pn      2011/02/06 00:17:55.7  -0.3                          T                                        4643540
RJF   008.24 182.9 m E Sn      2011/02/06 00:19:24.0   0.3                          T                1.2  .23 Ml 2.8         4643531
LPL   008.56 157.6 m E P       2011/02/06 00:18:02.6  -3.6                          T                                        4643538
LPL   008.56 157.6 m E Sn      2011/02/06 00:19:31.9   0.2                          T                  1  .41 Ml 2.9         4643535
LPG   008.59 157.5 m E P       2011/02/06 00:18:02.8  -3.9                          T                                        4643537
LPG   008.59 157.5 m E Sn      2011/02/06 00:19:32.7   0.4                          T                1.1  .41 Ml 2.9         4643534
VIVF  008.84 168.0 m E Pn      2011/02/06 00:18:04.4   0.2                          T                                        4643539
VIVF  008.84 168.0 m E Sn      2011/02/06 00:19:38.1   0.0                          T                2.4  .52 Ml 3.2         4643536
ORIF  008.96 162.5 m E P       2011/02/06 00:18:07.9  -3.8                          T                                        4643946
ORIF  008.96 162.5 m E Sn      2011/02/06 00:19:41.0  -0.1                          T                 .9  .33 Ml 3.0         4643947
EPF   010.57 187.0 m E Pn      2011/02/06 00:18:28.0   0.3                          T                                        4643532
EPF   010.57 187.0 m E Sn      2011/02/06 00:20:19.4   0.0                          T                1.0  .29 Ml 3.4         4643533
HYF   006.28 176.6 m E Sn      2011/02/06 00:18:36.9   0.1                          T                                        4643522

.
