EVENT     295876
    Date      Time       Latitude Longitude    Depth    Ndef Nsta Gap    Mag1  N    Mag2  N    Mag3  N   Author         ID
       rms   OT_Error      Smajor Sminor Az        Err   mdist  Mdist     Err        Err        Err      Quality

2013/04/12 00:36:26.4     45.4437    6.3712      2.0      16    7 189  Ml 1.3  3  Md 1.6  2              bulletin    295976
                                                                                                         _ldg
      0.62   +-  0.11       2.8    1.3  152.01 +-  0.0    0.26   1.75   +-0.4      +-0.0                 m i ke

FRANCE
Sta     Dist  EvAz     Phase      Date       Time     TRes  Azim  AzRes  Slow  SRes Def   SNR       Amp   Per   Mag1   Mag2       ID
LPL   000.26 073.9 m E Pg      2013/04/12 00:36:31.5  -0.4                          T                                        5254229
LPL   000.26 073.9 m E Sg      2013/04/12 00:36:34.9  -0.6                          T                 .6  .16                5254228
LPG   000.27 078.5 m E Pg      2013/04/12 00:36:32.2   0.1                          T                                        5254227
LPG   000.27 078.5 m E Sg      2013/04/12 00:36:35.6  -0.2                          T                 .8  .17        Md 1.6  5254226
ORIF  000.63 213.6 m E Pg      2013/04/12 00:36:38.4   0.0                          T                                        5254240
ORIF  000.63 213.6 m E Sg      2013/04/12 00:36:46.6  -0.1                          T                 .3  .22                5254225
MBDF  000.77 158.3 m E Pg      2013/04/12 00:36:41.0  -0.1                          T                                        5254239
MBDF  000.77 158.3 m E Sg      2013/04/12 00:36:50.6  -0.6                          T                 .2  .19                5254238
VIVF  001.34 244.5 m E Pg      2013/04/12 00:36:51.3  -0.1                          T                                        5254237
VIVF  001.34 244.5 m E Sg      2013/04/12 00:37:08.1  -0.6                          T                 .2  .19 Ml 1           5254236
SMRF  001.57 201.4 m E Pn      2013/04/12 00:36:53.9   0.2                          T                                        5254235
SMRF  001.57 201.4 m E Sn      2013/04/12 00:37:13.2  -0.2                          T                 .6  .31 Ml 1.3         5254234
SBF   001.75 154.0 m E Pn      2013/04/12 00:36:56.4   0.3                          T                                        5254233
SBF   001.75 154.0 m E Sn      2013/04/12 00:37:17.5  -0.2                          T                 .7  .19 Ml 1.7         5254232

.
EVENT     295873
    Date      Time       Latitude Longitude    Depth    Ndef Nsta Gap    Mag1  N    Mag2  N    Mag3  N   Author         ID
       rms   OT_Error      Smajor Sminor Az        Err   mdist  Mdist     Err        Err        Err      Quality

2013/04/12 00:44:40.2     42.7606   -1.7484      2.0      39    9 104  Ml 2.0 10  Md 2.2  1              bulletin    295973
                                                                                                         _ldg
      0.63   +-  0.12       2.2    1.8   79.20 +-  0.0    0.12   5.02   +-0.4      +-                    m i ke

PYRENEES
Sta     Dist  EvAz     Phase      Date       Time     TRes  Azim  AzRes  Slow  SRes Def   SNR       Amp   Per   Mag1   Mag2       ID
SJPF  000.52 047.3 m E Pg      2013/04/12 00:44:50.3   0.1                          T                                        5254163
SJPF  000.52 047.3 m E Sg      2013/04/12 00:44:57.1   0.1                          T               14.4  .21        Md 2.2  5254162
ETSF  000.89 080.6 m E Pg      2013/04/12 00:44:57.2   0.3                          T                                        5254161
ETSF  000.89 080.6 m E Sg      2013/04/12 00:45:08.3  -0.2                          T                8.9  .35 Ml 2.2         5254160
EPF   001.56 079.3 m E Pg      2013/04/12 00:45:09.5   0.2                          T                                        5254159
EPF   001.56 079.3 m E Sg      2013/04/12 00:45:29.5   0.1                          T                8.3  .20 Ml 2.7         5254158
LFF   002.83 038.7 m E Pn      2013/04/12 00:45:23.9  -0.6                          T                                        5254220
LFF   002.83 038.7 m E Sn      2013/04/12 00:45:57.9   0.8                          T                 .4  .18 Ml 1.5         5254219
MTLF  002.96 077.4 m E Pn      2013/04/12 00:45:26.2  -0.2                          T                                        5254224
MTLF  002.96 077.4 m E Sn      2013/04/12 00:45:59.8  -0.6                          T                 .4  .20 Ml 1.7         5254223
RJF   003.47 041.7 m E Pn      2013/04/12 00:45:33.9   0.7                          T                                        5254218
RJF   003.47 041.7 m E Sn      2013/04/12 00:46:13.0   0.6                          T                 .7  .15 Ml 1.9         5254217
CAF   003.51 050.6 m E Pn      2013/04/12 00:45:34.4   0.6                          T                                        5254222
CAF   003.51 050.6 m E Sn      2013/04/12 00:46:13.6   0.2                          T                 .6  .13 Ml 2.2         5254221
MFF   004.01 016.0 m E Pn      2013/04/12 00:45:40.3  -0.2                          T                                        5254214
MFF   004.01 016.0 m E Sn      2013/04/12 00:46:24.8  -0.6                          T                 .3  .18 Ml 2.0         5254213
BGF   005.02 039.2 m E Pn      2013/04/12 00:45:54.2  -0.1                          T                                        5254216
BGF   005.02 039.2 m E Sn      2013/04/12 00:46:49.9   0.5                          T                 .7  .23 Ml 2.4         5254215

.
EVENT     295881
    Date      Time       Latitude Longitude    Depth    Ndef Nsta Gap    Mag1  N    Mag2  N    Mag3  N   Author         ID
       rms   OT_Error      Smajor Sminor Az        Err   mdist  Mdist     Err        Err        Err      Quality

2013/04/12 01:06:31.4     41.5718   -6.2385     10.0 f    78    4 046  Ml 2.5  6                         bulletin    295981
                                                                                                         _ldg
      0.68   +-  0.08       1.8    1.5  153.40 +-  0.0    0.52   6.67   +-0.2                            m i ke

PORTUGAL
Sta     Dist  EvAz     Phase      Date       Time     TRes  Azim  AzRes  Slow  SRes Def   SNR       Amp   Per   Mag1   Mag2       ID
SJPF  004.02 065.8 m E Pn      2013/04/12 01:07:31.1   0.1                          T                                        5254583
SJPF  004.02 065.8 m E Pg      2013/04/12 01:07:44.4  -1.4                          T                                        5254581
SJPF  004.02 065.8 m E Sn      2013/04/12 01:08:15.8   0.4                          T                2.1  .26 Ml 2.6         5254582
ETSF  004.42 070.7 m E Pn      2013/04/12 01:07:36.5  -0.1                          T                                        5254580
ETSF  004.42 070.7 m E Sn      2013/04/12 01:08:26.1   1.1                          T                1.5  .21 Ml 2.6         5254579
EPF   005.09 071.2 m E Pn      2013/04/12 01:07:46.5   0.9                          T                                        5254578
EPF   005.09 071.2 m E Sn      2013/04/12 01:08:41.2   0.1                          T                 .8  .22 Ml 2.4         5254577
MTLF  006.50 071.4 m E Pn      2013/04/12 01:08:04.5  -0.3                          T                                        5254576
MTLF  006.50 071.4 m E Sn      2013/04/12 01:09:14.6  -0.1                          T                 .2  .17 Ml 2.3         5254575

.
EVENT     295878
    Date      Time       Latitude Longitude    Depth    Ndef Nsta Gap    Mag1  N    Mag2  N    Mag3  N   Author         ID
       rms   OT_Error      Smajor Sminor Az        Err   mdist  Mdist     Err        Err        Err      Quality

2013/04/12 01:26:55.2     40.2305   20.6735      2.0      81    9 047  Ml 3.5  5                         bulletin    295978
                                                                                                         _ldg
      0.82   +-  0.10       3.1    2.2   30.40 +-  0.0    0.51  14.03   +-0.4                            m i ke

GREECE-ALBANIA BORDER REGION
Sta     Dist  EvAz     Phase      Date       Time     TRes  Azim  AzRes  Slow  SRes Def   SNR       Amp   Per   Mag1   Mag2       ID
PGF   009.08 288.6 m E Pn      2013/04/12 01:29:04.6  -0.1                          T                                        5254270
SBF   010.49 294.6 m E Pn      2013/04/12 01:29:23.2  -0.8                          T                                        5254274
FRF   010.97 292.2 m E Pn      2013/04/12 01:29:30.2  -0.3                          T                                        5254263
MBDF  011.20 298.2 m E Pn      2013/04/12 01:29:33.3  -0.4                          T                                        5254264
LPL   011.51 301.9 m E Pn      2013/04/12 01:29:38.0   0.0                          T                                        5254267
LPL   011.51 301.9 m E Sn      2013/04/12 01:31:38.9  -1.0                          T                4.1  .39 Ml 4.0         5254266
LPG   011.49 301.8 m E Pn      2013/04/12 01:29:38.1   0.3                          T                                        5254269
LPG   011.49 301.8 m E Sn      2013/04/12 01:31:38.7  -0.8                          T                2.3  .41 Ml 3.7         5254268
SMRF  011.82 293.4 m E Pn      2013/04/12 01:29:41.6  -0.4                          T                                        5254265
HAU   012.88 311.8 m E Pn      2013/04/12 01:29:56.3  -0.2                          T                                        5254260
HAU   012.88 311.8 m E Sn      2013/04/12 01:32:11.9  -0.5                          T                 .9  .22 Ml 3.4         5254259
LOR   014.03 305.6 m E Pn      2013/04/12 01:30:12.6   0.5                          T                                        5254262
LOR   014.03 305.6 m E Sn      2013/04/12 01:32:38.9  -1.0                          T                 .7  .26 Ml 3.5         5254261

.
EVENT     295882
    Date      Time       Latitude Longitude    Depth    Ndef Nsta Gap    Mag1  N    Mag2  N    Mag3  N   Author         ID
       rms   OT_Error      Smajor Sminor Az        Err   mdist  Mdist     Err        Err        Err      Quality

2013/04/12 01:38:40.3     42.7394   -1.8346      2.0      41    7 156  Ml 1.7  7  Md 1.8  1              bulletin    295982
                                                                                                         _ldg
      0.60   +-  0.17       3.0    2.3   38.52 +-  0.0    0.19   4.36   +-0.3      +-                    m i ke

PYRENEES
Sta     Dist  EvAz     Phase      Date       Time     TRes  Azim  AzRes  Slow  SRes Def   SNR       Amp   Per   Mag1   Mag2       ID
SJPF  000.58 050.0 m E Pg      2013/04/12 01:38:51.2  -0.2                          T                                        5254589
SJPF  000.58 050.0 m E Sg      2013/04/12 01:38:58.4  -0.7                          T               10.7  .26        Md 1.8  5254588
ETSF  000.95 079.9 m E Pg      2013/04/12 01:38:58.4   0.1                          T                                        5254587
ETSF  000.95 079.9 m E Sg      2013/04/12 01:39:11.0   0.3                          T                2.2  .20 Ml 1.8         5254586
EPF   001.62 079.0 m E Pg      2013/04/12 01:39:10.9   0.2                          T                                        5254585
EPF   001.62 079.0 m E Sg      2013/04/12 01:39:31.8   0.1                          T                3.1  .22 Ml 2.2         5254584
LFF   002.88 039.4 m E Pn      2013/04/12 01:39:25.7   0.4                          T                                        5254593
LFF   002.88 039.4 m E Sn      2013/04/12 01:39:58.7   0.1                          T                 .5  .23 Ml 1.6         5254592
MTLF  003.03 077.2 m E Pn      2013/04/12 01:39:28.0   0.6                          T                                        5254597
MTLF  003.03 077.2 m E Sn      2013/04/12 01:40:01.4  -0.7                          T                 .5  .28 Ml 1.7         5254596
CAF   003.57 050.9 m E Pn      2013/04/12 01:39:34.7   0.0                          T                                        5254595
CAF   003.57 050.9 m E Sn      2013/04/12 01:40:14.6  -0.4                          T                 .4  .16 Ml 1.9         5254594
LASF  004.36 070.2 m E Pn      2013/04/12 01:39:45.0  -0.5                          T                                        5254591
LASF  004.36 070.2 m E Sn      2013/04/12 01:40:33.3  -0.5                          T                 .2  .22 Ml 1.6         5254590

.
EVENT     295883
    Date      Time       Latitude Longitude    Depth    Ndef Nsta Gap    Mag1  N    Mag2  N    Mag3  N   Author         ID
       rms   OT_Error      Smajor Sminor Az        Err   mdist  Mdist     Err        Err        Err      Quality

2013/04/12 01:44:44.4     42.7405   -1.8391      2.0      27    3 158  Ml 1.9  2  Md 1.8  1              bulletin    295983
                                                                                                         _ldg
      0.52   +-  0.26       4.2    2.7   43.04 +-  0.0    0.19   1.63   +-0.3      +-                    m i ke

PYRENEES
Sta     Dist  EvAz     Phase      Date       Time     TRes  Azim  AzRes  Slow  SRes Def   SNR       Amp   Per   Mag1   Mag2       ID
SJPF  000.59 050.2 m E Pg      2013/04/12 01:44:55.3  -0.3                          T                                        5254633
SJPF  000.59 050.2 m E Sg      2013/04/12 01:45:02.6  -0.6                          T                4.9  .26        Md 1.8  5254632
ETSF  000.95 080.0 m E Pg      2013/04/12 01:45:02.2  -0.2                          T                                        5254631
ETSF  000.95 080.0 m E Sg      2013/04/12 01:45:14.8   0.0                          T                1.2  .18 Ml 1.6         5254630
EPF   001.63 079.0 m E Pg      2013/04/12 01:45:15.3   0.5                          T                                        5254629
EPF   001.63 079.0 m E Sg      2013/04/12 01:45:36.0   0.2                          T                1.9  .20 Ml 2.1         5254628

.
EVENT     295885
    Date      Time       Latitude Longitude    Depth    Ndef Nsta Gap    Mag1  N    Mag2  N    Mag3  N   Author         ID
       rms   OT_Error      Smajor Sminor Az        Err   mdist  Mdist     Err        Err        Err      Quality

2013/04/12 04:34:41.3     43.0905    -.0431      2.0      45    7 099  Ml 1.9  6  Md 1.8  2              bulletin    295985
                                                                                                         _ldg
      0.55   +-  0.06       1.5     .9  157.80 +-  0.0    0.29   2.48   +-0.3      +-0.0                 m i ke

PYRENEES
Sta     Dist  EvAz     Phase      Date       Time     TRes  Azim  AzRes  Slow  SRes Def   SNR       Amp   Per   Mag1   Mag2       ID
EPF   000.29 102.0 m E Pg      2013/04/12 04:34:46.5  -0.5                          T                                        5254706
EPF   000.29 102.0 m E Sg      2013/04/12 04:34:50.8   0.0                          T                8.8  .18        Md 1.8  5254703
ETSF  000.42 243.3 m E Pg      2013/04/12 04:34:48.4  -1.1                          T                                        5254705
ETSF  000.42 243.3 m E Sg      2013/04/12 04:34:54.0  -1.1                          T               34.2  .42        Md 1.8  5254704
SJPF  000.87 271.9 m E Pg      2013/04/12 04:34:57.6   0.1                          T                                        5254701
SJPF  000.87 271.9 m E Sg      2013/04/12 04:35:08.9   0.0                          T                1.4  .25 Ml 1.5         5254702
MTLF  001.67 080.6 m E Pg      2013/04/12 04:35:12.4   0.0                          T                                        5254687
MTLF  001.67 080.6 m E Sg      2013/04/12 04:35:34.1   0.1                          T                 .6  .19 Ml 1.6         5254688
LFF   001.93 016.7 m E Pn      2013/04/12 04:35:13.4   0.1                          T                                        5254691
LFF   001.93 016.7 m E Pg      2013/04/12 04:35:17.2   0.1                          T                                        5254698
LFF   001.93 016.7 m E Sn      2013/04/12 04:35:36.7  -0.1                          T                                        5254692
LFF   001.93 016.7 m E Sg      2013/04/12 04:35:42.1   0.0                          T                2.7  .24 Ml 2.1         5254697
CAF   002.38 038.9 m E Pn      2013/04/12 04:35:19.6   0.0                          T                                        5254689
CAF   002.38 038.9 m E Pg      2013/04/12 04:35:25.5   0.0                          T                                        5254699
CAF   002.38 038.9 m E Sn      2013/04/12 04:35:47.8   0.1                          T                                        5254690
CAF   002.38 038.9 m E Sg      2013/04/12 04:35:56.4   0.2                          T                2.4  .29 Ml 2.2         5254700
RJF   002.48 026.3 m E Pn      2013/04/12 04:35:20.7  -0.1                          T                                        5254693
RJF   002.48 026.3 m E Pg      2013/04/12 04:35:27.3   0.0                          T                                        5254694
RJF   002.48 026.3 m E Sn      2013/04/12 04:35:50.0   0.1                          T                                        5254695
RJF   002.48 026.3 m E Sg      2013/04/12 04:35:59.0  -0.2                          T                2.5  .27 Ml 1.9         5254696

.
