EVENT     264506
    Date      Time       Latitude Longitude    Depth    Ndef Nsta Gap    Mag1  N    Mag2  N    Mag3  N   Author         ID
       rms   OT_Error      Smajor Sminor Az        Err   mdist  Mdist     Err        Err        Err      Quality

2011/09/28 18:40:38.4     43.1251    -.6365      5.0 f    91   27 050  Ml 3.0 24  Md 3.0  2              js067245    264526

      1.00   +-  0.09       1.9    1.5  169.09 +-  0.0    0.06   5.81   +-0.3      +-0.2                 m i ke

PYRENEES
Sta     Dist  EvAz     Phase      Date       Time     TRes  Azim  AzRes  Slow  SRes Def   SNR       Amp   Per   Mag1   Mag2       ID
ETSF  000.23 165.9 m E Pg      2011/09/28 18:40:42.6  -0.6                          T                                        4762271
ETSF  000.23 165.9 m E Sg      2011/09/28 18:40:45.5  -1.0                          T             1382.9  .23        Md 3.2  4762267
SJPF  000.43 268.6 m E Pg      2011/09/28 18:40:46.6  -0.2                          T                                        4762269
SJPF  000.43 268.6 m E Sg      2011/09/28 18:40:51.9  -0.6                          T              518.3  .22        Md 2.9  4762268
EPF   000.72 097.2 m E Pg      2011/09/28 18:40:51.7  -0.4                          T                                        4762270
EPF   000.72 097.2 m E Sg      2011/09/28 18:41:01.7   0.2                          T              130.4  .24                4762266
LFF   002.07 028.2 m E Pn      2011/09/28 18:41:12.1   0.1                          T                                        4769401
LFF   002.07 028.2 m E Pg      2011/09/28 18:41:17.4   0.6                          T                                        4769400
LFF   002.07 028.2 m E Sg      2011/09/28 18:41:44.6   1.1                          T               53.4  .34 Ml 3.2         4762262
MTLF  002.10 083.1 m E Pn      2011/09/28 18:41:12.7   0.2                          T                                        4762264
MTLF  002.10 083.1 m E Pg      2011/09/28 18:41:16.0  -1.3                          T                                        4769397
MTLF  002.10 083.1 m E Sg      2011/09/28 18:41:44.3  -0.1                          T               39.1  .38 Ml 3.2         4762265
CAF   002.65 046.3 m E Pn      2011/09/28 18:41:18.6  -1.4                          T                                        4769399
CAF   002.65 046.3 m E P       2011/09/28 18:41:23.0   0.3                          T                                        4769398
CAF   002.65 046.3 m E Sn      2011/09/28 18:41:48.9  -1.8                          T                                        4769382
CAF   002.65 046.3 m E Sg      2011/09/28 18:42:02.5   0.7                          T               14.4  .20 Ml 3.2         4769381
RJF   002.67 034.7 m E Pn      2011/09/28 18:41:19.4  -0.9                          T                                        4769405
RJF   002.67 034.7 m E P       2011/09/28 18:41:23.7   0.7                          T                                        4769404
RJF   002.67 034.7 m E Pg      2011/09/28 18:41:28.7   0.7                          T                                        4769403
RJF   002.67 034.7 m E Sn      2011/09/28 18:41:50.5  -0.6                          T                                        4769380
RJF   002.67 034.7 m E Sg      2011/09/28 18:42:02.5   0.2                          T               33.5  .34 Ml 3.0         4769379
LASF  003.40 072.2 m E Pn      2011/09/28 18:41:30.1  -0.1                          T                                        4769396
LASF  003.40 072.2 m E P       2011/09/28 18:41:33.3  -0.1                          T                                        4769395
LASF  003.40 072.2 m E Sg      2011/09/28 18:42:25.2   0.1                          T                6.6  .23 Ml 3.0         4762263
MFF   003.49 005.6 m E Pn      2011/09/28 18:41:30.2  -1.2                          T                                        4769402
MFF   003.49 005.6 m E Sg      2011/09/28 18:42:28.7   0.8                          T               15.9  .48 Ml 3.2         4769378
VIVF  004.20 063.9 m E P       2011/09/28 18:41:44.5  -0.3                          T                                        4769394
VIVF  004.20 063.9 m E Sg      2011/09/28 18:42:50.3   0.1                          T                6.9  .40 Ml 2.9         4769383
ORIF  005.03 066.9 m E Pn      2011/09/28 18:41:53.3   0.8                          T                                        4769392
ORIF  005.03 066.9 m E P       2011/09/28 18:41:57.5   0.9                          T                                        4769391
ORIF  005.03 066.9 m E Sg      2011/09/28 18:43:16.8   0.7                          T                1.3  .38 Ml 2.4         4769385
SGMF  005.30 346.0 m E Pn      2011/09/28 18:41:55.4  -0.6                          T                                        4769406
SGMF  005.30 346.0 m E Sg      2011/09/28 18:43:25.9   1.4                          T                2.6  .29 Ml 2.9         4769371
MBDF  005.58 070.8 m E P       2011/09/28 18:42:04.3  -0.2                          T                                        4769393
MBDF  005.58 070.8 m E Sg      2011/09/28 18:43:33.6   0.1                          T                1.1  .41 Ml 2.4         4769384
LPL   005.80 063.1 m E P       2011/09/28 18:42:08.2   0.6                          T                                        4769390
LPG   005.81 063.4 m E P       2011/09/28 18:42:08.6   0.8                          T                                        4769389
LPG   005.81 063.4 m E Sg      2011/09/28 18:43:41.5   1.0                          T                 .8  .27 Ml 2.5         4769386
TCF   003.76 031.7 m E Sn      2011/09/28 18:42:15.3  -1.8                          T                                        4769365
TCF   003.76 031.7 m E Sg      2011/09/28 18:42:37.4   1.1                          T                8.4  .25 Ml 3.2         4769364
QUIF  005.11 340.5 m E Sn      2011/09/28 18:42:48.9  -0.5                          T                                        4769373
QUIF  005.11 340.5 m E Sg      2011/09/28 18:43:19.6   1.2                          T                3.3  .32 Ml 2.9         4769372
BGF   004.23 034.6 m E Sg      2011/09/28 18:42:50.2  -0.8                          T               43.8  .42 Ml 3.7         4769369
GRR   005.27 358.4 m E Sn      2011/09/28 18:42:53.0   0.0                          T                                        4769377
GRR   005.27 358.4 m E Sg      2011/09/28 18:43:25.1   1.8                          T                2.1  .20 Ml 2.8         4769376
LDF   005.48 003.6 m E Sn      2011/09/28 18:42:56.4  -1.8                          T                                        4769375
LDF   005.48 003.6 m E Sg      2011/09/28 18:43:31.3   1.3                          T                5.2  .43 Ml 3.0         4769374
SMRF  004.59 077.2 m E Sg      2011/09/28 18:43:03.2   0.8                          T                2.9  .40 Ml 2.6         4769387
AVF   004.63 036.3 m E Sg      2011/09/28 18:43:05.0   1.5                          T               10.1  .46 Ml 3.1         4769366
SMF   004.74 040.6 m E Sg      2011/09/28 18:43:07.6   0.6                          T                4.7  .34 Ml 3.0         4769367
HYF   004.75 028.1 m E Sg      2011/09/28 18:43:08.7   1.6                          T                                        4769368
SSF   004.91 035.3 m E Sg      2011/09/28 18:43:12.1   0.0                          T                5.9  .28 Ml 3.3         4769363
LOR   005.22 035.9 m E Sg      2011/09/28 18:43:21.3  -0.6                          T                4.3  .33 Ml 3.1         4769362
LMR   005.23 085.3 m E Sg      2011/09/28 18:43:22.0   0.0                          T                2.2  .36 Ml 2.7         4769388

.
EVENT     264507
    Date      Time       Latitude Longitude    Depth    Ndef Nsta Gap    Mag1  N    Mag2  N    Mag3  N   Author         ID
       rms   OT_Error      Smajor Sminor Az        Err   mdist  Mdist     Err        Err        Err      Quality

2011/09/28 19:58:44.5     43.1331    -.7771     21.7       8    4 092  Ml 1.8  1  Md 1.9  2              js067245    264527

      0.19   +-  0.10       2.2    1.1   15.88 +-  1.0    0.07   2.11   +-         +-0.2                 m i ke

PYRENEES
Sta     Dist  EvAz     Phase      Date       Time     TRes  Azim  AzRes  Slow  SRes Def   SNR       Amp   Per   Mag1   Mag2       ID
ETSF  000.28 145.6 m E Pg      2011/09/28 19:58:51.2   0.0                          T                                        4762354
ETSF  000.28 145.6 m E Sg      2011/09/28 19:58:55.5  -0.3                          T               14.3  .26        Md 2.0  4762353
SJPF  000.33 266.7 m E Pg      2011/09/28 19:58:51.8   0.0                          T                                        4762351
SJPF  000.33 266.7 m E Sg      2011/09/28 19:58:56.6  -0.3                          T                4.4  .20        Md 1.8  4762352
EPF   000.82 096.8 m E Pg      2011/09/28 19:59:00.4   0.0                          T                                        4769538
EPF   000.82 096.8 m E Sg      2011/09/28 19:59:11.4   0.0                          T                 .7  .27                4769539
LFF   002.11 030.7 m E Sn      2011/09/28 19:59:40.5  -0.2                          T                                        4769537
LFF   002.11 030.7 m E Sg      2011/09/28 19:59:51.1   0.0                          T                1.3  .26 Ml 1.8         4769536

.
EVENT     264508
    Date      Time       Latitude Longitude    Depth    Ndef Nsta Gap    Mag1  N    Mag2  N    Mag3  N   Author         ID
       rms   OT_Error      Smajor Sminor Az        Err   mdist  Mdist     Err        Err        Err      Quality

2011/09/28 19:59:19.0     43.0543    -.6846     10.0       7    4 116  Ml 1.3  1  Md 1.8  2              js067245    264528

      0.23   +-  0.08       3.2    1.4   16.94 +-  0.0    0.03   2.14   +-         +-0.0                 m i ke

PYRENEES
Sta     Dist  EvAz     Phase      Date       Time     TRes  Azim  AzRes  Slow  SRes Def   SNR       Amp   Per   Mag1   Mag2       ID
ETSF  000.18 149.4 m E Pg      2011/09/28 19:59:22.9  -0.2                          T                                        4762381
ETSF  000.18 149.4 m E Sg      2011/09/28 19:59:25.9   0.1                          T               16.8  .23        Md 1.8  4762380
SJPF  000.40 278.7 m E Pg      2011/09/28 19:59:26.9   0.1                          T                                        4762379
SJPF  000.40 278.7 m E Sg      2011/09/28 19:59:32.1  -0.1                          T                5.4  .24        Md 1.8  4762378
EPF   000.75 091.5 m E Pg      2011/09/28 19:59:33.7   0.4                          T                                        4769582
EPF   000.75 091.5 m E Sg      2011/09/28 19:59:42.7  -0.4                          T                1.9  .24                4762376
MTLF  002.14 081.3 m E Sg      2011/09/28 20:00:26.4   0.0                          T                 .2  .22 Ml 1.3         4769581

.
EVENT     264509
    Date      Time       Latitude Longitude    Depth    Ndef Nsta Gap    Mag1  N    Mag2  N    Mag3  N   Author         ID
       rms   OT_Error      Smajor Sminor Az        Err   mdist  Mdist     Err        Err        Err      Quality

2011/09/29 02:57:23.8     43.0865    -.6543     10.0      15    4 159  Ml 1.4  1  Md 1.7  2              js067245    264529

      0.32   +-  0.10       3.3    1.3    7.74 +-  0.0    0.03   2.11   +-         +-0.0                 m i ke

PYRENEES
Sta     Dist  EvAz     Phase      Date       Time     TRes  Azim  AzRes  Slow  SRes Def   SNR       Amp   Per   Mag1   Mag2       ID
ETSF  000.20 159.6 m E Pg      2011/09/29 02:57:28.0  -0.2                          T                                        4762466
ETSF  000.20 159.6 m E Sg      2011/09/29 02:57:31.0  -0.3                          T               15.9  .24        Md 1.8  4762465
SJPF  000.42 273.9 m E Pg      2011/09/29 02:57:32.1   0.1                          T                                        4762463
SJPF  000.42 273.9 m E Sg      2011/09/29 02:57:37.4  -0.3                          T                5.9  .26        Md 1.7  4762464
EPF   000.73 094.1 m E Pg      2011/09/29 02:57:38.1   0.4                          T                                        4769587
EPF   000.73 094.1 m E Sg      2011/09/29 02:57:47.5   0.1                          T                1.3  .18                4762462
MTLF  002.11 082.1 m E Sg      2011/09/29 02:58:30.4   0.0                          T                 .4  .26 Ml 1.4         4769586

.
EVENT     264524
    Date      Time       Latitude Longitude    Depth    Ndef Nsta Gap    Mag1  N    Mag2  N    Mag3  N   Author         ID
       rms   OT_Error      Smajor Sminor Az        Err   mdist  Mdist     Err        Err        Err      Quality

2011/09/29 10:09:21.2     44.2695    6.0145      2.0      12    5 124  Ml 1.9  1  Md 1.6  2              js067245    264544

      2.09   +-  0.23       6.0    3.7   88.21 +-  0.0    0.43   1.00   +-         +-0.5                 m i ke

FRANCE
Sta     Dist  EvAz     Phase      Date       Time     TRes  Azim  AzRes  Slow  SRes Def   SNR       Amp   Per   Mag1   Mag2       ID
SMRF  000.43 227.3 m E Pg      2011/09/29 10:09:29.0  -0.5                          T                                        4762758
SMRF  000.43 227.3 m E Sg      2011/09/29 10:09:34.1  -1.1                          T               44.3  .29        Md 2.0  4762757
ORIF  000.66 351.6 m E Pg      2011/09/29 10:09:33.8   0.1                          T                                        4769659
ORIF  000.66 351.6 m E Sg      2011/09/29 10:09:42.6   0.4                          T                1.6  .24        Md 1.2  4769660
MBDF  000.71 049.6 m E Pg      2011/09/29 10:09:34.8   0.1                          T                                        4769661
MBDF  000.71 049.6 m E Sg      2011/09/29 10:09:43.7  -0.3                          T                1.4  .26                4769662
FRF   000.84 147.0 m E Pg      2011/09/29 10:09:37.2   0.2                          T                                        4762756
FRF   000.84 147.0 m E Sg      2011/09/29 10:09:48.4   0.4                          T                4.0  .33                4762753
LMR   001.00 158.9 m E Pg      2011/09/29 10:09:40.3   0.4                          T                                        4762755
LMR   001.00 158.9 m E Sg      2011/09/29 10:09:53.0   0.1                          T                3.2  .25 Ml 1.9         4769656

.
EVENT     264704
    Date      Time       Latitude Longitude    Depth    Ndef Nsta Gap    Mag1  N    Mag2  N    Mag3  N   Author         ID
       rms   OT_Error      Smajor Sminor Az        Err   mdist  Mdist     Err        Err        Err      Quality

2011/09/29 17:47:01.8     49.1967    8.0909      5.0 f    14    5 065  Ml 1.7  3  Md 1.7  1              js067245    264724

      0.38   +-  0.10       1.7    1.5  113.98 +-  0.0    0.03   1.66   +-0.0      +-                    m i ke

GERMANY
Sta     Dist  EvAz     Phase      Date       Time     TRes  Azim  AzRes  Slow  SRes Def   SNR       Amp   Per   Mag1   Mag2       ID
LANF  000.29 221.1 m E Pg      2011/09/29 17:47:07.4  -0.2                          T                                        4769750
LANF  000.29 221.1 m E Sg      2011/09/29 17:47:11.1  -0.4                          T                5.8  .21        Md 1.7  4769751
RUP   000.84 307.3 m E Pg      2011/09/29 17:47:17.9   0.1                          T                                        4769748
RUP   000.84 307.3 m E Sg      2011/09/29 17:47:29.1   0.4                          T                                        4769749
CDF   000.95 214.8 m E Pg      2011/09/29 17:47:19.9   0.0                          T                                        4769746
CDF   000.95 214.8 m E Sg      2011/09/29 17:47:32.0  -0.2                          T                2.1  .35 Ml 1.7         4769747
HINF  001.61 211.3 m E Sg      2011/09/29 17:47:52.8   0.2                          T                1.1  .22 Ml 1.8         4769744
HAU   001.66 224.8 m E Sg      2011/09/29 17:47:54.2   0.0                          T                1.5  .22 Ml 1.7         4769745

.
EVENT     264586
    Date      Time       Latitude Longitude    Depth    Ndef Nsta Gap    Mag1  N    Mag2  N    Mag3  N   Author         ID
       rms   OT_Error      Smajor Sminor Az        Err   mdist  Mdist     Err        Err        Err      Quality

2011/09/29 17:55:21.6     49.1925    8.0998      5.0 f    20    6 052  Ml 2.1  5  Md 2.1  3              js067245    264606

      0.40   +-  0.06       1.3    1.0  112.29 +-  0.0    0.02   1.70   +-0.3      +-0.4                 m i ke

GERMANY
Sta     Dist  EvAz     Phase      Date       Time     TRes  Azim  AzRes  Slow  SRes Def   SNR       Amp   Per   Mag1   Mag2       ID
LANF  000.29 222.5 m E Pg      2011/09/29 17:55:27.0  -0.3                          T                                        4762940
LANF  000.29 222.5 m E Sg      2011/09/29 17:55:30.8  -0.4                          T               13.9  .19        Md 1.7  4762939
CDF   000.95 215.2 m E Pg      2011/09/29 17:55:39.6   0.0                          T                                        4762937
CDF   000.95 215.2 m E P       2011/09/29 17:55:41.0  -0.4                          T                                        4762927
CDF   000.95 215.2 m E Sg      2011/09/29 17:55:52.0   0.1                          T                3.3  .24 Ml 2.0 Md 2.2  4762938
HINF  001.61 211.5 m E Pg      2011/09/29 17:55:51.7   0.1                          T                                        4762931
HINF  001.61 211.5 m E Sg      2011/09/29 17:56:12.6   0.3                          T                2.8  .20 Ml 2.2 Md 2.4  4762933
HAU   001.66 225.0 m E Pg      2011/09/29 17:55:52.5  -0.1                          T                                        4762932
HAU   001.66 225.0 m E Sg      2011/09/29 17:56:14.2   0.1                          T                4.5  .22 Ml 2.2         4762934
PAGF  001.69 248.8 m E Pg      2011/09/29 17:55:53.0  -0.1                          T                                        4762928
PAGF  001.69 248.8 m E Sn      2011/09/29 17:56:10.4  -0.5                          T                                        4762926
PAGF  001.69 248.8 m E Sg      2011/09/29 17:56:15.0   0.0                          T                  1  .29 Ml 1.7         4762929
THEF  001.70 236.1 m E Pg      2011/09/29 17:55:53.2   0.0                          T                                        4762936
THEF  001.70 236.1 m E Sn      2011/09/29 17:56:10.0  -0.9                          T                                        4762930
THEF  001.70 236.1 m E Sg      2011/09/29 17:56:15.4   0.3                          T                4.2  .24 Ml 2.4         4762935

.
