EVENT     281297
    Date      Time       Latitude Longitude    Depth    Ndef Nsta Gap    Mag1  N    Mag2  N    Mag3  N   Author         ID
       rms   OT_Error      Smajor Sminor Az        Err   mdist  Mdist     Err        Err        Err      Quality

2012/08/17 20:29:05.3     45.7014    5.1791     15.0      46   20 064  Ml 1.8 20  Md 2.3  3              bulletin    281397
                                                                                                         _ldg
      0.84   +-  0.06       1.4    1.1   39.15 +-  0.0    0.92   2.80   +-0.3      +-0.0                 m i ke

FRANCE
Sta     Dist  EvAz     Phase      Date       Time     TRes  Azim  AzRes  Slow  SRes Def   SNR       Amp   Per   Mag1   Mag2       ID
ORIF  000.93 147.5 m E Pn      2012/08/17 20:29:22.4   0.0                          T                                        5047761
ORIF  000.93 147.5 m E Sg      2012/08/17 20:29:35.2   0.1                          T                3.3  .18 Ml 2.0 Md 2.3  5047762
VIVF  000.92 203.1 m E Pg      2012/08/17 20:29:22.7  -0.1                          T                                        5055382
VIVF  000.92 203.1 m E Sg      2012/08/17 20:29:34.6  -0.2                          T                2.7  .24 Ml 1.8 Md 2.3  5047763
CABF  001.11 034.4 m E Pn      2012/08/17 20:29:25.0   0.1                          T                                        5055374
CABF  001.11 034.4 m E Pg      2012/08/17 20:29:26.5   0.2                          T                                        5047772
CABF  001.11 034.4 m E Sg      2012/08/17 20:29:42.3   1.5                          T                2.4  .25 Ml 1.9         5047771
LPL   001.11 099.1 m E Pn      2012/08/17 20:29:25.2   0.1                          T                                        5047757
LPL   001.11 099.1 m E Pg      2012/08/17 20:29:26.3  -0.1                          T                                        5055405
LPL   001.11 099.1 m E Sg      2012/08/17 20:29:41.1   0.2                          T                2.6  .27 Ml 1.9 Md 2.3  5047766
LPG   001.12 099.9 m E Pg      2012/08/17 20:29:27.0   0.2                          T                                        5047758
LPG   001.12 099.9 m E Sg      2012/08/17 20:29:41.7   0.2                          T                4.7  .28 Ml 2.1         5047767
MBDF  001.49 130.3 m E Pn      2012/08/17 20:29:29.6  -0.5                          T                                        5055407
MBDF  001.49 130.3 m E Pg      2012/08/17 20:29:33.3   0.0                          T                                        5055406
MBDF  001.49 130.3 m E Sg      2012/08/17 20:29:52.9   0.2                          T                 .4  .20 Ml 1.4         5055372
SMF   001.33 315.9 m E Pg      2012/08/17 20:29:30.3   0.1                          T                                        5047755
SMF   001.33 315.9 m E Sg      2012/08/17 20:29:47.5   0.1                          T                4.8  .19 Ml 2.4         5047753
LOR   001.81 330.3 m E Pn      2012/08/17 20:29:34.3  -0.1 154.4  5.1               T                                        5047773
LOR   001.81 330.3 m E Sg      2012/08/17 20:30:02.7   0.1 163.8  14.5              T                2.0  .23 Ml 2.1         5047774
SSF   001.79 320.2 m E P       2012/08/17 20:29:36.1  -0.1                          T                                        5047769
SSF   001.79 320.2 m E Sg      2012/08/17 20:30:01.5  -0.2                          T                1.3  .25 Ml 2.0         5047768
BGF   001.83 298.7 m E P       2012/08/17 20:29:36.5  -0.4                          T                                        5047759
BGF   001.83 298.7 m E Pg      2012/08/17 20:29:40.5   0.9                          T                                        5055411
BGF   001.83 298.7 m E Sg      2012/08/17 20:30:03.4   0.1                          T                1.6  .25 Ml 2.0         5047760
AVF   001.67 311.3 m E Pg      2012/08/17 20:29:36.6   0.0                          T                                        5047754
AVF   001.67 311.3 m E Sg      2012/08/17 20:29:58.1   0.0                          T                1.7  .24 Ml 2.0         5047752
LASF  001.88 210.5 m E Pg      2012/08/17 20:29:40.9   0.6                          T                                        5055408
LASF  001.88 210.5 m E Sg      2012/08/17 20:30:04.4  -0.2                          T                1.3  .22 Ml 1.9         5055383
CAF   002.33 251.7 m E Pn      2012/08/17 20:29:41.1  -0.4                          T                                        5047765
CAF   002.33 251.7 m E Pg      2012/08/17 20:29:48.4  -0.3                          T                                        5055409
CAF   002.33 251.7 m E Sg      2012/08/17 20:30:18.5  -0.3                          T                 .5  .17 Ml 1.8         5047764
HINF  002.41 027.9 m E Pn      2012/08/17 20:29:42.7   0.2                          T                                        5055378
HINF  002.41 027.9 m E Pg      2012/08/17 20:29:50.0  -0.1                          T                                        5055412
HINF  002.41 027.9 m E Sg      2012/08/17 20:30:20.2  -1.0                          T                 .7  .18 Ml 1.9         5055375
TCF   002.15 286.9 m E Pg      2012/08/17 20:29:45.6   0.2                          T                                        5055415
TCF   002.15 286.9 m E Sg      2012/08/17 20:30:14.2   1.0                          T                 .5  .22 Ml 1.6         5055376
MEZF  002.80 358.3 m E P       2012/08/17 20:29:50.3  -0.4                          T                                        5055414
SFTF  002.51 357.8 m E Pg      2012/08/17 20:29:51.5  -0.4                          T                                        5055413
SMRF  001.75 170.6 m E Sg      2012/08/17 20:30:00.6   0.0                          T                 .4  .25 Ml 1.4         5055371
FRF   002.38 153.4 m E Sg      2012/08/17 20:30:20.8   0.5                          T                 .4  .22 Ml 1.6         5055381
RJF   002.61 262.5 m E Sg      2012/08/17 20:30:27.0  -0.3                          T                 .8  .23 Ml 1.5         5055410

.
EVENT     281298
    Date      Time       Latitude Longitude    Depth    Ndef Nsta Gap    Mag1  N    Mag2  N    Mag3  N   Author         ID
       rms   OT_Error      Smajor Sminor Az        Err   mdist  Mdist     Err        Err        Err      Quality

2012/08/17 20:47:32.7     44.4682    6.5917      2.0      11    5 151  Ml 0.9  3  Md 1.4  1              bulletin    281398
                                                                                                         _ldg
      0.29   +-  0.10       2.9    1.7   90.72 +-  0.0    0.29   1.14   +-0.3      +-                    m i ke

FRANCE
Sta     Dist  EvAz     Phase      Date       Time     TRes  Azim  AzRes  Slow  SRes Def   SNR       Amp   Per   Mag1   Mag2       ID
MBDF  000.29 026.3 m E Pg      2012/08/17 20:47:38.4  -0.1                          T                                        5047783
MBDF  000.29 026.3 m E Sg      2012/08/17 20:47:42.7   0.3                          T                2.3  .32        Md 1.4  5047782
ORIF  000.68 311.8 m E Pg      2012/08/17 20:47:45.7   0.1                          T                                        5055420
ORIF  000.68 311.8 m E Sg      2012/08/17 20:47:54.2  -0.3                          T                 .6  .24                5047780
FRF   000.91 177.5 m E Pg      2012/08/17 20:47:49.9   0.2                          T                                        5055417
FRF   000.91 177.5 m E Pn      2012/08/17 20:47:50.9   0.1                          T                                        5055419
FRF   000.91 177.5 m E Sn      2012/08/17 20:48:03.0  -0.7                          T                 .6  .19 Ml 1.3         5047784
SMRF  000.88 236.4 m E Pn      2012/08/17 20:47:50.2  -0.3                          T                                        5047789
SMRF  000.88 236.4 m E Sg      2012/08/17 20:48:01.4   0.6                          T                 .3  .24 Ml  .8         5047788
LMR   001.14 183.0 m E Pg      2012/08/17 20:47:54.0   0.1                          T                                        5055418
LMR   001.14 183.0 m E Sg      2012/08/17 20:48:08.4  -0.2                          T                 .1  .21 Ml  .7         5047791

.
EVENT     281302
    Date      Time       Latitude Longitude    Depth    Ndef Nsta Gap    Mag1  N    Mag2  N    Mag3  N   Author         ID
       rms   OT_Error      Smajor Sminor Az        Err   mdist  Mdist     Err        Err        Err      Quality

2012/08/17 22:52:04.6     42.9515    2.1982      5.0 f    51    9 059  Ml 1.9  8  Md 1.9  1              bulletin    281402
                                                                                                         _ldg
      0.52   +-  0.05       1.1     .9  104.80 +-  0.0    0.08   3.64   +-0.3      +-                    m i ke

PYRENEES
Sta     Dist  EvAz     Phase      Date       Time     TRes  Azim  AzRes  Slow  SRes Def   SNR       Amp   Per   Mag1   Mag2       ID
MTLF  000.39 002.1 m E Pg      2012/08/17 22:52:12.1  -0.1                          T                                        5047799
MTLF  000.39 002.1 m E Sg      2012/08/17 22:52:17.1  -0.2                          T                1.2  .20        Md 1.9  5047800
EPF   001.37 273.9 m E Pg      2012/08/17 22:52:29.9  -0.2                          T                                        5047798
EPF   001.37 273.9 m E Sn      2012/08/17 22:52:47.0   0.8                          T                2.2  .19 Ml 2.0         5047797
LASF  001.65 046.5 m E Pn      2012/08/17 22:52:32.8   0.3                          T                                        5047795
LASF  001.65 046.5 m E Sn      2012/08/17 22:52:53.3   0.5                          T                                        5047796
LASF  001.65 046.5 m E Sg      2012/08/17 22:52:56.7   0.1                          T                1.9  .22 Ml 2.0         5050208
CAF   001.98 357.2 m E Pg      2012/08/17 22:52:41.1  -0.3                          T                                        5047793
CAF   001.98 357.2 m E Sg      2012/08/17 22:53:06.6  -0.2                          T                 .8  .19 Ml 1.8         5047801
LFF   002.25 332.6 m E Pn      2012/08/17 22:52:41.2   0.5                          T                                        5050214
LFF   002.25 332.6 m E Sn      2012/08/17 22:53:07.7   0.5                          T                 .6  .23 Ml 1.5         5050213
ETSF  002.03 269.4 m E Pg      2012/08/17 22:52:42.7   0.3                          T                                        5047794
ETSF  002.03 269.4 m E Sg      2012/08/17 22:53:08.9   0.5                          T                1.3  .22 Ml 2.0         5047802
RJF   002.40 348.4 m E Pn      2012/08/17 22:52:43.2   0.4                          T                                        5047803
RJF   002.40 348.4 m E Sn      2012/08/17 22:53:10.7  -0.1                          T                                        5047805
RJF   002.40 348.4 m E Sg      2012/08/17 22:53:19.8  -0.3                          T                 .5  .19 Ml 1.4         5047804
VIVF  002.61 042.4 m E Pn      2012/08/17 22:52:45.7   0.0                          T                                        5050254
VIVF  002.61 042.4 m E Sn      2012/08/17 22:53:16.4   0.5                          T                                        5050253
VIVF  002.61 042.4 m E Sg      2012/08/17 22:53:26.6  -0.1                          T                 .9  .33 Ml 1.7         5050252
BGF   003.64 007.1 m E Pn      2012/08/17 22:52:59.8   0.2                          T                                        5050210
BGF   003.64 007.1 m E Pg      2012/08/17 22:53:11.7  -0.2                          T                                        5050211
BGF   003.64 007.1 m E Sn      2012/08/17 22:53:40.4   0.1                          T                                        5050212
BGF   003.64 007.1 m E Sg      2012/08/17 22:53:58.5  -0.1                          T                2.4  .39 Ml 2.4         5050209

.
EVENT     281314
    Date      Time       Latitude Longitude    Depth    Ndef Nsta Gap    Mag1  N    Mag2  N    Mag3  N   Author         ID
       rms   OT_Error      Smajor Sminor Az        Err   mdist  Mdist     Err        Err        Err      Quality

2012/08/17 23:12:04.3     42.9059    -.3867      2.0       7    5 190  Ml 1.4  2  Md 1.5  2              bulletin    281414
                                                                                                         _ldg
      0.35   +-  0.20       8.5    2.8  166.98 +-  0.0    0.13   2.69   +-0.1      +-0.1                 m i ke

PYRENEES
Sta     Dist  EvAz     Phase      Date       Time     TRes  Azim  AzRes  Slow  SRes Def   SNR       Amp   Per   Mag1   Mag2       ID
ETSF  000.13 266.8 m E Pg      2012/08/17 23:12:06.7  -0.3                          T                                        5047811
ETSF  000.13 266.8 m E Sg      2012/08/17 23:12:09.5   0.5                          T                5.3  .22        Md 1.5  5047810
EPF   000.55 076.6 m E Pg      2012/08/17 23:12:15.0   0.2                          T                                        5047806
EPF   000.55 076.6 m E Sg      2012/08/17 23:12:21.2  -0.7                          T                 .9  .16        Md 1.4  5047812
CAF   002.69 040.4 m E Pn      2012/08/17 23:12:46.8   0.1                          T                                        5047809
MTLF  001.96 076.3 m E Sg      2012/08/17 23:13:05.7  -0.2                          T                 .5  .32 Ml 1.3         5055425
LFF   002.19 021.4 m E Sg      2012/08/17 23:13:13.0  -0.1                          T                 .6  .20 Ml 1.5         5055426

.
