EVENT     268353
    Date      Time       Latitude Longitude    Depth    Ndef Nsta Gap    Mag1  N    Mag2  N    Mag3  N   Author         ID
       rms   OT_Error      Smajor Sminor Az        Err   mdist  Mdist     Err        Err        Err      Quality

2012/01/09 18:50:28.2     44.7169   12.5409    100.0 f    79   22 103  Ml 3.1 19                         js067245    268373

      1.10   +-  0.14       4.0    2.7  155.60 +-  0.0    0.80   7.78   +-0.3                            m i ke

NORTHERN ITALY
Sta     Dist  EvAz     Phase      Date       Time     TRes  Azim  AzRes  Slow  SRes Def   SNR       Amp   Per   Mag1   Mag2       ID
PGF   003.36 231.1 m E Pn      2012/01/09 18:51:20.5   1.1                          T                                        4813223
PGF   003.36 231.1 m E Sn      2012/01/09 18:51:59.0   1.7                          T                                        4813260
SBF   003.76 258.7 m E Pn      2012/01/09 18:51:24.6   0.1                          T                                        4813224
MBDF  004.11 272.2 m E Pn      2012/01/09 18:51:28.4  -0.8                          T                                        4813232
LPL   004.19 283.0 m E Pn      2012/01/09 18:51:29.4  -0.9                          T                                        4813231
LPL   004.19 283.0 m E P       2012/01/09 18:51:32.6   1.0                          T                                        4813230
LPL   004.19 283.0 m E Sn      2012/01/09 18:52:17.4   0.8                          T                9.8  .38 Ml 3.1         4813219
LPG   004.17 282.8 m E Pn      2012/01/09 18:51:29.4  -0.8                          T                                        4813228
LPG   004.17 282.8 m E P       2012/01/09 18:51:33.2   1.7                          T                                        4813229
LPG   004.17 282.8 m E Sn      2012/01/09 18:52:16.6   0.3                          T                5.3  .29 Ml 2.9         4813220
FRF   004.40 256.8 m E Pn      2012/01/09 18:51:33.1   0.3                          T                                        4813226
FRF   004.40 256.8 m E Sn      2012/01/09 18:52:22.7   1.6                          T                3.3  .27 Ml 2.9         4813221
LMR   004.56 254.5 m E Pn      2012/01/09 18:51:35.2   0.2                          T                                        4813225
LMR   004.56 254.5 m E Sn      2012/01/09 18:52:24.7  -0.3                          T                5.0  .24 Ml 3.1         4813222
ORIF  004.74 274.8 m E Pn      2012/01/09 18:51:38.2   0.7                          T                                        4813227
ORIF  004.74 274.8 m E Sn      2012/01/09 18:52:29.6   0.3                          T                7.5  .36 Ml 3.1         4813218
CABF  004.90 295.0 m E Pn      2012/01/09 18:51:39.8   0.1                          T                                        4813254
CABF  004.90 295.0 m E Sn      2012/01/09 18:52:33.2   0.1                          T                2.1  .25 Ml 2.8         4813247
HINF  005.02 310.2 m E Pn      2012/01/09 18:51:40.8  -0.3                          T                                        4813216
HINF  005.02 310.2 m E Sn      2012/01/09 18:52:34.6  -1.0                          T                6.4  .32 Ml 3.2         4813214
SMRF  005.05 264.0 m E Pn      2012/01/09 18:51:43.3   1.7                          T                                        4813259
HAU   005.40 309.7 m E Pn      2012/01/09 18:51:46.1  -0.1                          T                                        4813212
HAU   005.40 309.7 m E Sn      2012/01/09 18:52:43.3  -1.4                          T               15.5  .42 Ml 3.3         4813213
VIVF  005.60 274.2 m E Pn      2012/01/09 18:51:49.9   0.9                          T                                        4813217
VIVF  005.60 274.2 m E Sn      2012/01/09 18:52:50.3   0.9                          T                2.8  .24 Ml 3.1         4813258
THEF  005.72 310.2 m E Pn      2012/01/09 18:51:50.3  -0.3                          T                                        4813253
THEF  005.72 310.2 m E Sn      2012/01/09 18:52:51.4  -0.8                          T                5.8  .39 Ml 3.2         4813248
LASF  006.26 267.2 m E Pn      2012/01/09 18:51:57.8   0.1                          T                                        4813246
LASF  006.26 267.2 m E Sn      2012/01/09 18:53:05.0   0.3                          T                 .8  .24 Ml 2.7         4813245
SMF   006.39 290.6 m E Pn      2012/01/09 18:51:59.8   0.3                          T                                        4813215
SMF   006.39 290.6 m E Sn      2012/01/09 18:53:07.7  -0.3                          T               10.5  .44 Ml 3.5         4813210
LOR   006.56 295.9 m E Pn      2012/01/09 18:52:01.6  -0.2 116.1  6.4               T                                        4813209
LOR   006.56 295.9 m E Sn      2012/01/09 18:53:11.8  -0.3 118.7  9.0               T                7.5  .30 Ml 3.6         4813208
AVF   006.75 291.1 m E Pn      2012/01/09 18:52:04.6   0.2                          T                                        4813211
BGF   007.04 288.6 m E Pn      2012/01/09 18:52:09.2   0.9                          T                                        4813257
BGF   007.04 288.6 m E Sn      2012/01/09 18:53:24.3   1.0                          T                3.9  .27 Ml 3.4         4813255
TCF   007.43 285.8 m E Pn      2012/01/09 18:52:14.2   0.7                          T                                        4813252
TCF   007.43 285.8 m E Sn      2012/01/09 18:53:33.4   0.9                          T                1.2  .27 Ml 3.0         4813250
BAIF  007.78 316.4 m E Pn      2012/01/09 18:52:18.3   0.2                          T                                        4813249
SSF   006.73 293.6 m E Sn      2012/01/09 18:53:16.6   0.8                          T                1.1  .24 Ml 2.9         4813251

.
EVENT     268355
    Date      Time       Latitude Longitude    Depth    Ndef Nsta Gap    Mag1  N    Mag2  N    Mag3  N   Author         ID
       rms   OT_Error      Smajor Sminor Az        Err   mdist  Mdist     Err        Err        Err      Quality

2012/01/10 01:22:26.2     43.2224   -1.0325     10.0      10    2 190  Ml 1.0  1  Md 1.1  2              js067245    268375

      0.26   +-  0.13       2.9    1.6     .35 +-  0.0    0.28   1.02   +-         +-0.1                 m i ke

PYRENEES
Sta     Dist  EvAz     Phase      Date       Time     TRes  Azim  AzRes  Slow  SRes Def   SNR       Amp   Per   Mag1   Mag2       ID
ETSF  000.47 132.9 m E Pg      2012/01/10 01:22:35.0  -0.5                          T                                        4813746
ETSF  000.47 132.9 m E Sg      2012/01/10 01:22:41.3  -0.6                          T                1.3  .28        Md 1.2  4813267
EPF   001.02 100.3 m E P       2012/01/10 01:22:46.7  -0.1                          T                                        4813745
EPF   001.02 100.3 m E Sg      2012/01/10 01:22:59.4   0.6                          T                 .4  .22 Ml 1.0 Md 1.1  4813268

.
EVENT     268356
    Date      Time       Latitude Longitude    Depth    Ndef Nsta Gap    Mag1  N    Mag2  N    Mag3  N   Author         ID
       rms   OT_Error      Smajor Sminor Az        Err   mdist  Mdist     Err        Err        Err      Quality

2012/01/10 03:39:28.9     44.7462    6.6287      2.0      26    7 063  Ml 1.6  3  Md 1.4  3              js067245    268376

      0.35   +-  0.07       1.4    1.2   65.86 +-  0.0    0.08   1.41   +-0.1      +-0.2                 m i ke

FRANCE
Sta     Dist  EvAz     Phase      Date       Time     TRes  Azim  AzRes  Slow  SRes Def   SNR       Amp   Per   Mag1   Mag2       ID
MBDF  000.10 100.7 m E Pg      2012/01/10 03:39:31.1  -0.2                          T                                        4813294
MBDF  000.10 100.7 m E Sg      2012/01/10 03:39:32.8  -0.2                          T               33.8  .26        Md 1.7  4813293
ORIF  000.56 288.2 m E Pg      2012/01/10 03:39:39.6  -0.1                          T                                        4813292
ORIF  000.56 288.2 m E Sg      2012/01/10 03:39:46.4  -0.7                          T                3.0  .26        Md 1.3  4813287
LPG   000.76 006.5 m E Pg      2012/01/10 03:39:43.5   0.0                          T                                        4813291
LPG   000.76 006.5 m E Sg      2012/01/10 03:39:53.5   0.1                          T                1.1  .23        Md 1.2  4813284
LPL   000.77 005.4 m E Pg      2012/01/10 03:39:43.8   0.0                          T                                        4813290
LPL   000.77 005.4 m E Sg      2012/01/10 03:39:54.6   0.7                          T                1.7  .33                4813285
SMRF  001.08 224.8 m E Pg      2012/01/10 03:39:49.1   0.0                          T                                        4813279
SMRF  001.08 224.8 m E Sg      2012/01/10 03:40:03.1   0.0                          T                1.5  .30 Ml 1.6         4813282
FRF   001.19 179.4 m E Pg      2012/01/10 03:39:52.0   1.0                          T                                        4813289
FRF   001.19 179.4 m E Sg      2012/01/10 03:40:06.1  -0.3                          T                1.5  .27 Ml 1.7         4813283
LMR   001.41 183.5 m E Pg      2012/01/10 03:39:55.4   0.1                          T                                        4813288
LMR   001.41 183.5 m E Sg      2012/01/10 03:40:13.9   0.4                          T                1.1  .22 Ml 1.7         4813286

.
EVENT     268428
    Date      Time       Latitude Longitude    Depth    Ndef Nsta Gap    Mag1  N    Mag2  N    Mag3  N   Author         ID
       rms   OT_Error      Smajor Sminor Az        Err   mdist  Mdist     Err        Err        Err      Quality

2012/01/10 12:49:01.5     44.1217    7.1517      2.0      21    6 069  Ml 1.5  3  Md 1.6  2              js067245    268448

      0.26   +-  0.05       1.0     .9   51.19 +-  0.0    0.10   1.21   +-0.3      +-0.1                 m i ke

NORTHERN ITALY
Sta     Dist  EvAz     Phase      Date       Time     TRes  Azim  AzRes  Slow  SRes Def   SNR       Amp   Per   Mag1   Mag2       ID
SBF   000.33 141.5 m E Pg      2012/01/10 12:49:08.0   0.0                          T                                        4813397
SBF   000.33 141.5 m E Sg      2012/01/10 12:49:12.3  -0.1                          T                6.4  .31        Md 1.7  4813398
MBDF  000.66 335.9 m E Pg      2012/01/10 12:49:14.3   0.0                          T                                        4813526
MBDF  000.66 335.9 m E Sg      2012/01/10 12:49:22.3  -0.6                          T                  1  .27        Md 1.5  4813525
FRF   000.67 213.3 m E Pg      2012/01/10 12:49:14.4   0.2                          T                                        4813523
FRF   000.67 213.3 m E Sg      2012/01/10 12:49:22.6  -0.3                          T                4.3  .22                4813524
LMR   000.91 210.8 m E Pg      2012/01/10 12:49:18.5  -0.2                          T                                        4813399
LMR   000.91 210.8 m E Sg      2012/01/10 12:49:30.0  -0.5                          T                2.3  .22 Ml 1.8         4813400
SMRF  001.15 263.2 m E Pg      2012/01/10 12:49:23.6   0.6                          T                                        4813402
SMRF  001.15 263.2 m E Sg      2012/01/10 12:49:39.8   1.9                          T                 .5  .18 Ml 1.3         4813401
ORIF  001.21 311.6 m E Sg      2012/01/10 12:49:39.3  -0.5                          T                1.1  .25 Ml 1.5         4813747

.
EVENT     268429
    Date      Time       Latitude Longitude    Depth    Ndef Nsta Gap    Mag1  N    Mag2  N    Mag3  N   Author         ID
       rms   OT_Error      Smajor Sminor Az        Err   mdist  Mdist     Err        Err        Err      Quality

2012/01/10 19:15:22.0     44.6982    6.7400      3.0 f    31    7 060  Ml 1.2  3  Md 1.2  3              js067245    268449

      0.27   +-  0.05       1.1     .8   66.58 +-  0.0    0.04   1.37   +-0.0      +-0.0                 m i ke

FRANCE
Sta     Dist  EvAz     Phase      Date       Time     TRes  Azim  AzRes  Slow  SRes Def   SNR       Amp   Per   Mag1   Mag2       ID
MBDF  000.04 037.9 m E Pg      2012/01/10 19:15:23.5   0.0                          T                                        4813549
MBDF  000.04 037.9 m E Sg      2012/01/10 19:15:24.4   0.1                          T               96.4  .18        Md 1.2  4813548
ORIF  000.65 290.1 m E Pg      2012/01/10 19:15:34.3  -0.1                          T                                        4813546
ORIF  000.65 290.1 m E Sg      2012/01/10 19:15:42.2  -0.7                          T                1.4  .18        Md 1.2  4813547
LPG   000.80 000.6 m E Pg      2012/01/10 19:15:37.8   0.4                          T                                        4813537
LPG   000.80 000.6 m E Sg      2012/01/10 19:15:47.9   0.1                          T                 .4  .23        Md 1.2  4813539
SMRF  001.10 229.6 m E Pg      2012/01/10 19:15:42.6  -0.1                          T                                        4813541
SMRF  001.10 229.6 m E Sg      2012/01/10 19:15:57.6   0.5                          T                 .6  .26 Ml 1.2         4813540
FRF   001.14 183.4 m E Pg      2012/01/10 19:15:43.5   0.2                          T                                        4813545
FRF   001.14 183.4 m E Sg      2012/01/10 19:15:58.5   0.4                          T                 .5  .26 Ml 1.2         4813544
LPL   000.82 359.6 m E Sg      2012/01/10 19:15:47.6  -0.8                          T                 .6  .24                4813538
LMR   001.37 187.0 m E Pg      2012/01/10 19:15:47.9   0.3                          T                                        4813542
LMR   001.37 187.0 m E Sg      2012/01/10 19:16:05.9   0.5                          T                 .3  .19 Ml 1.2         4813543

.
