EVENT     265636
    Date      Time       Latitude Longitude    Depth    Ndef Nsta Gap    Mag1  N    Mag2  N    Mag3  N   Author         ID
       rms   OT_Error      Smajor Sminor Az        Err   mdist  Mdist     Err        Err        Err      Quality

2011/10/27 06:16:13.0     45.9733    7.0974      2.0      19    5 111  Ml 1.6  3  Md 1.5  2              js067245    265656

      0.20   +-  0.05       1.5     .8   97.39 +-  0.0    0.19   1.36   +-0.2      +-0.1                 m i ke

NORTHERN ITALY
Sta     Dist  EvAz     Phase      Date       Time     TRes  Azim  AzRes  Slow  SRes Def   SNR       Amp   Per   Mag1   Mag2       ID
LPL   000.52 209.4 m E Pg      2011/10/27 06:16:23.3   0.0                          T                                        4779065
LPL   000.52 209.4 m E Pn      2011/10/27 06:16:25.2  -0.5                          T                                        4779060
LPL   000.52 209.4 m E Sg      2011/10/27 06:16:30.2   0.1                          T                2.6  .29        Md 1.6  4779061
LPL   000.52 209.4 m E Sn      2011/10/27 06:16:33.9  -0.4                          T                                        4779062
LPG   000.53 207.1 m E Pg      2011/10/27 06:16:23.5   0.0                          T                                        4779064
LPG   000.53 207.1 m E P       2011/10/27 06:16:24.6  -0.1                          T                                        4779059
LPG   000.53 207.1 m E Sg      2011/10/27 06:16:30.5   0.0                          T                3.7  .19        Md 1.5  4779063
CABF  000.95 312.7 m E Pg      2011/10/27 06:16:30.8   0.0                          T                                        4780364
CABF  000.95 312.7 m E Sg      2011/10/27 06:16:43.2   0.0                          T                2.6  .24 Ml 1.8         4780365
MBDF  001.27 190.6 m E Sg      2011/10/27 06:16:53.1  -0.1                          T                 .6  .21 Ml 1.4         4780363
ORIF  001.36 219.5 m E Sg      2011/10/27 06:16:56.1   0.1                          T                 .9  .22 Ml 1.6         4780362

.
EVENT     265883
    Date      Time       Latitude Longitude    Depth    Ndef Nsta Gap    Mag1  N    Mag2  N    Mag3  N   Author         ID
       rms   OT_Error      Smajor Sminor Az        Err   mdist  Mdist     Err        Err        Err      Quality

2011/10/27 09:26:13.3     47.9878    6.6140       .0 f    15    7 113  Ml 2.1  2  Md 1.9  2              js067245    265903

      0.51   +-  0.06       1.5    1.0    1.54 +-  0.0    0.18   2.00   +-0.2      +-0.1                 m i km

FRANCE
Sta     Dist  EvAz     Phase      Date       Time     TRes  Azim  AzRes  Slow  SRes Def   SNR       Amp   Per   Mag1   Mag2       ID
HAU   000.18 275.8 m E Pg      2011/10/27 09:26:17.3   0.1                          T                                        4779177
HAU   000.18 275.8 m E Sg      2011/10/27 09:26:19.9   0.0                          T              284.2  .58        Md 2.0  4779175
HINF  000.23 136.7 m E Pg      2011/10/27 09:26:18.2  -0.1                          T                                        4779176
HINF  000.23 136.7 m E Sg      2011/10/27 09:26:21.7   0.1                          T               78.8  .92        Md 1.8  4779174
THEF  000.48 300.3 m E Pg      2011/10/27 09:26:22.5  -0.2                          T                                        4779173
THEF  000.48 300.3 m E Sg      2011/10/27 09:26:29.1  -0.1                          T                5.7  .20                4779172
CDF   000.61 046.0 m E Pg      2011/10/27 09:26:25.3   0.0                          T                                        4780399
CDF   000.61 046.0 m E P       2011/10/27 09:26:26.6   0.2                          T                                        4780400
CDF   000.61 046.0 m E Sg      2011/10/27 09:26:33.3  -0.2                          T                5.7  .24                4779171
SFTF  001.08 282.2 m E Pn      2011/10/27 09:26:34.1  -0.1                          T                                        4780397
SFTF  001.08 282.2 m E Sg      2011/10/27 09:26:47.9  -0.1                          T                5.0  .21 Ml 2.2         4780398
PAGF  000.82 314.0 m E Sg      2011/10/27 09:26:40.2   0.3 135.9  2.5               T                 .5  .18                4780393
LOR   002.00 249.9 m E Pn      2011/10/27 09:26:46.8   0.1  72.8  4.9               T                                        4780395
LOR   002.00 249.9 m E Pg      2011/10/27 09:26:50.8   0.0  67.1  -0.8              T                                        4780394
LOR   002.00 249.9 m E Sg      2011/10/27 09:27:16.7   0.1  67.0  -0.9              T                1.2  .22 Ml 2.0         4780396

.
EVENT     265663
    Date      Time       Latitude Longitude    Depth    Ndef Nsta Gap    Mag1  N    Mag2  N    Mag3  N   Author         ID
       rms   OT_Error      Smajor Sminor Az        Err   mdist  Mdist     Err        Err        Err      Quality

2011/10/27 12:24:26.1     44.4191    9.4308      5.0 f    71   21 054  Ml 3.4 18  Md 3.1  4              js067245    265683

      0.82   +-  0.11       2.8    2.4   37.76 +-  0.0    0.12   5.42   +-0.2      +-0.0                 m i ke

NORTHERN ITALY
Sta     Dist  EvAz     Phase      Date       Time     TRes  Azim  AzRes  Slow  SRes Def   SNR       Amp   Per   Mag1   Mag2       ID
SBF   001.54 249.5 m E Pn      2011/10/27 12:24:51.6  -1.1                          T   001.0                                4777373
SBF   001.54 249.5 m E Sn      2011/10/27 12:25:11.9   0.1                          T   001.0      103.0  .26 Ml 3.7 Md 3.2  4777374
PGF   001.90 189.7 m E Pn      2011/10/27 12:24:56.9  -0.6                          T   001.0                                4777370
PGF   001.90 189.7 m E Pg      2011/10/27 12:25:01.9   0.4                          T   001.0                                4777371
PGF   001.90 189.7 m E Sn      2011/10/27 12:25:20.4   0.0                          T   001.0       20.6  .30 Ml 3.3 Md 3.2  4777372
MBDF  001.93 280.1 m E Pn      2011/10/27 12:24:57.4  -0.6                          T   001.0                                4777383
MBDF  001.93 280.1 m E P       2011/10/27 12:24:59.9  -0.3                          T                                        4779222
MBDF  001.93 280.1 m E Sn      2011/10/27 12:25:21.4   0.2                          T                                Md 3.2  4779220
MBDF  001.93 280.1 m E Sg      2011/10/27 12:25:26.5  -0.4                          T   001.0      104.1  .50 Ml 3.5         4777384
FRF   002.18 247.8 m E Pn      2011/10/27 12:25:00.9  -0.4                          T   001.0                                4777358
FRF   002.18 247.8 m E Pg      2011/10/27 12:25:07.1   0.4                          T   001.0                                4777359
FRF   002.18 247.8 m E Sn      2011/10/27 12:25:27.6   0.5                          T   001.0       39.9  .36 Ml 3.3 Md 3.1  4777360
FRF   002.18 247.8 m E Sg      2011/10/27 12:25:34.7  -0.2                          T                                        4779224
LPG   002.19 300.5 m E Pn      2011/10/27 12:25:01.9   0.2                          T   001.0                                4777368
LPG   002.19 300.5 m E Sg      2011/10/27 12:25:34.9  -0.4                          T               47.3  .39 Ml 3.3         4779226
LPL   002.21 300.7 m E Pn      2011/10/27 12:25:02.5   0.6                          T   001.0                                4777369
LPL   002.21 300.7 m E Pg      2011/10/27 12:25:05.9  -1.5                          T                                        4779217
LPL   002.21 300.7 m E Sn      2011/10/27 12:25:28.6   0.6                          T               51.4  .56 Ml 3.2         4779219
LMR   002.37 243.8 m E Pn      2011/10/27 12:25:03.2  -0.7                          T   001.0                                4777364
LMR   002.37 243.8 m E Sn      2011/10/27 12:25:31.5  -0.2                          T   001.0       28.8  .31 Ml 3.3         4777365
ORIF  002.58 282.4 m E Pn      2011/10/27 12:25:08.6   1.7                          T   001.0                                4777385
ORIF  002.58 282.4 m E Sg      2011/10/27 12:25:46.1  -1.2                          T               61.2  .58 Ml 3.4         4779225
SMRF  002.81 262.3 m E Pn      2011/10/27 12:25:10.4   0.5                          T   001.0                                4777388
SMRF  002.81 262.3 m E Pg      2011/10/27 12:25:18.0  -0.3                          T                                        4779223
SMRF  002.81 262.3 m E Sn      2011/10/27 12:25:43.3   1.2                          T   001.0       38.5  .54 Ml 3.2         4777389
CABF  003.21 314.2 m E Pn      2011/10/27 12:25:16.0   0.6                          T   001.0                                4777380
VIVF  003.42 279.0 m E P       2011/10/27 12:25:20.1  -1.3                          T   001.0                                4777386
VIVF  003.42 279.0 m E Sn      2011/10/27 12:25:57.6   0.8                          T   001.0        9.0  .38 Ml 2.9         4777387
HINF  003.84 333.1 m E Pn      2011/10/27 12:25:22.0  -0.9                          T   001.0                                4777381
HINF  003.84 333.1 m E Sn      2011/10/27 12:26:06.6  -0.2                          T   001.0       14.3  .48 Ml 3.1         4777382
LASF  004.02 267.0 m E Pn      2011/10/27 12:25:28.4   2.1                          T   001.0                                4777363
HAU   004.18 330.3 m E Pn      2011/10/27 12:25:28.5   0.1                          T   001.0                                4777361
HAU   004.18 330.3 m E Sn      2011/10/27 12:26:16.7   1.9                          T   001.0       60.1  .46 Ml 3.6         4777362
CDF   004.26 340.3 m E Pn      2011/10/27 12:25:28.0  -0.7                          T   001.0                                4777357
CDF   004.26 340.3 m E Sn      2011/10/27 12:26:16.5  -0.5                          T                9.9  .22 Ml 3.5         4779221
SMF   004.51 301.5 m E Pn      2011/10/27 12:25:33.6   0.6                          T   001.0                                4777375
SMF   004.51 301.5 m E Sn      2011/10/27 12:26:22.7  -0.1                          T   001.0       26.1  .38 Ml 3.6         4777376
LOR   004.82 308.2 m E Pn      2011/10/27 12:25:37.9   0.6                          T   001.0                                4777366
LOR   004.82 308.2 m E Sn      2011/10/27 12:26:32.9   2.6                          T   001.0       30.3  .43 Ml 3.7         4777367
AVF   004.88 301.2 m E Pn      2011/10/27 12:25:38.5   0.5                          T   001.0                                4777354
SSF   004.92 304.6 m E Pn      2011/10/27 12:25:39.1   0.6                          T   001.0                                4777377
SSF   004.92 304.6 m E Sn      2011/10/27 12:26:32.5   0.0                          T   001.0        8.1  .36 Ml 3.3         4777378
BGF   005.10 297.1 m E Pn      2011/10/27 12:25:42.0   1.0                          T   001.0                                4777355
BGF   005.10 297.1 m E Sn      2011/10/27 12:26:37.6   0.8                          T               31.0  .42 Ml 3.8         4779218
TCF   005.42 292.7 m E Sn      2011/10/27 12:26:45.8   1.3                          T   001.0        5.5  .43 Ml 3.1         4777379

.
EVENT     265671
    Date      Time       Latitude Longitude    Depth    Ndef Nsta Gap    Mag1  N    Mag2  N    Mag3  N   Author         ID
       rms   OT_Error      Smajor Sminor Az        Err   mdist  Mdist     Err        Err        Err      Quality

2011/10/27 19:22:03.7     45.3672    6.8388      2.0      10    4 209             Md 1.5  2              js067245    265691

      0.38   +-  0.11       2.5    1.0   90.45 +-  0.0    0.14   0.81              +-0.0                 m i ke

FRANCE
Sta     Dist  EvAz     Phase      Date       Time     TRes  Azim  AzRes  Slow  SRes Def   SNR       Amp   Per   Mag1   Mag2       ID
LPG   000.14 334.8 m E Pg      2011/10/27 19:22:07.0  -0.1                          T                                        4779254
LPG   000.14 334.8 m E Sg      2011/10/27 19:22:09.1  -0.1                          T                5.9  .22        Md 1.5  4779253
LPL   000.17 333.4 m E Pg      2011/10/27 19:22:07.4   0.0                          T                                        4779255
LPL   000.17 333.4 m E Sg      2011/10/27 19:22:09.7   0.0                          T                4.8  .20        Md 1.5  4779252
MBDF  000.64 184.3 m E Pg      2011/10/27 19:22:15.6  -0.5                          T                                        4779260
MBDF  000.64 184.3 m E Sg      2011/10/27 19:22:24.4   0.0                          T                 .4  .18                4779259
ORIF  000.81 236.9 m E Pg      2011/10/27 19:22:18.9  -0.2                          T                                        4779258
ORIF  000.81 236.9 m E Sg      2011/10/27 19:22:28.9  -0.9                          T                 .9  .23                4779251

.
EVENT     265672
    Date      Time       Latitude Longitude    Depth    Ndef Nsta Gap    Mag1  N    Mag2  N    Mag3  N   Author         ID
       rms   OT_Error      Smajor Sminor Az        Err   mdist  Mdist     Err        Err        Err      Quality

2011/10/27 23:38:06.9     42.8216   -1.4285      2.0      17    3 105  Ml 1.3  1  Md 1.3  2              js067245    265692

      0.53   +-  0.16       3.2    2.4  170.66 +-  0.0    0.06   1.94   +-         +-0.4                 m i ke

PYRENEES
Sta     Dist  EvAz     Phase      Date       Time     TRes  Azim  AzRes  Slow  SRes Def   SNR       Amp   Per   Mag1   Mag2       ID
SJPF  000.33 027.1 m E Pg      2011/10/27 23:38:13.1  -0.2                          T                                        4779265
SJPF  000.33 027.1 m E Sg      2011/10/27 23:38:17.2  -0.5                          T                4.8  .23        Md 1.6  4779263
ETSF  000.64 082.8 m E Pg      2011/10/27 23:38:19.4   0.2                          T                                        4779264
ETSF  000.64 082.8 m E Sg      2011/10/27 23:38:27.4  -0.2                          T                2.7  .27        Md 1.0  4779262
EPF   001.32 080.3 m E Pg      2011/10/27 23:38:31.3  -0.2                          T                                        4779261
EPF   001.32 080.3 m E Sg      2011/10/27 23:38:48.6   0.1                          T                 .5  .19 Ml 1.3         4780436

.
EVENT     265673
    Date      Time       Latitude Longitude    Depth    Ndef Nsta Gap    Mag1  N    Mag2  N    Mag3  N   Author         ID
       rms   OT_Error      Smajor Sminor Az        Err   mdist  Mdist     Err        Err        Err      Quality

2011/10/28 00:03:04.4     43.7288    8.5184     15.0      13    6 214  Ml 2.2  3  Md 2.4  3              js067245    265693

      0.23   +-  0.19       4.0    2.8   37.13 +-  0.0    0.80   2.14   +-0.2      +-0.1                 m i ke

CORSICA, FRANCE
Sta     Dist  EvAz     Phase      Date       Time     TRes  Azim  AzRes  Slow  SRes Def   SNR       Amp   Per   Mag1   Mag2       ID
SBF   000.80 280.1 m E Pg      2011/10/28 00:03:18.9  -0.8                          T                                        4779282
SBF   000.80 280.1 m E Sg      2011/10/28 00:03:30.0  -0.2                          T               34.2  .24        Md 2.3  4779281
FRF   001.37 263.6 m E Pn      2011/10/28 00:03:27.6   0.2                          T                                        4779280
FRF   001.37 263.6 m E Pg      2011/10/28 00:03:30.0  -0.1                          T                                        4779288
FRF   001.37 263.6 m E Sn      2011/10/28 00:03:44.2   0.0                          T                                Md 2.4  4779287
FRF   001.37 263.6 m E Sg      2011/10/28 00:03:48.0   0.2                          T                2.3  .16 Ml 2.2         4779279
LMR   001.51 255.6 m E Pn      2011/10/28 00:03:28.9  -0.5                          T                                        4779275
LMR   001.51 255.6 m E Sn      2011/10/28 00:03:47.8   0.2                          T                                Md 2.5  4779274
MBDF  001.60 309.1 m E Pn      2011/10/28 00:03:30.8   0.0                          T                                        4779276
MBDF  001.60 309.1 m E Sn      2011/10/28 00:03:50.3   0.3                          T                2.5  .25 Ml 2.1         4779271
PGF   001.23 163.2 m E Sn      2011/10/28 00:03:41.4   0.3                          T                                        4779272
SMRF  002.14 277.6 m E Pg      2011/10/28 00:03:44.5   0.1                          T                                        4779278
SMRF  002.14 277.6 m E Sg      2011/10/28 00:04:12.2   0.2                          T                6.6  .41 Ml 2.4         4779277

.
