BEGIN GSE2.0
MSG_TYPE DATA
MSG_ID 27-JUN-1211:54:10  FRA_NDC
E-MAIL
DATA_TYPE BULLETIN
Reviewed Bulletin (REB) # P2012-022  from French NDC for regional phases     PERIOD 30 MAY 2012 TO 05 JUN 2012 S M., J-P S
EVENT     277144
    Date      Time       Latitude Longitude    Depth    Ndef Nsta Gap    Mag1  N    Mag2  N    Mag3  N   Author         ID
       rms   OT_Error      Smajor Sminor Az        Err   mdist  Mdist     Err        Err        Err      Quality

2012/05/30 00:10:42.0     44.8166   10.7004      2.0      21    9 198  Ml 2.4  9                         bulletin    277244
                                                                                                         _ldg
      0.42   +-  0.20       4.7    2.5   99.16 +-  0.0    0.91   4.39   +-0.2                            m i ke

NORTHERN ITALY
Sta     Dist  EvAz     Phase      Date       Time     TRes  Azim  AzRes  Slow  SRes Def   SNR       Amp   Per   Mag1   Mag2       ID
PGF   002.58 209.1 m E Pn      2012/05/30 00:11:22.3  -0.8                          T                                        4975681
PGF   002.58 209.1 m E Sn      2012/05/30 00:11:51.9  -1.3                          T                4.8  .37 Ml 2.7         4975680
SBF   002.53 249.0 m E Pn      2012/05/30 00:11:22.8   0.4                          T                9.3  .43 Ml 2.7         4975679
SBF   002.53 249.0 m E Sn      2012/05/30 00:11:51.5  -0.4                          T                                        4975678
FRF   003.17 248.1 m E Pn      2012/05/30 00:11:31.2   0.2                          T                                        4975675
FRF   003.17 248.1 m E Sn      2012/05/30 00:12:07.0  -0.2                          T                1.4  .16 Ml 2.5         4975674
LMR   003.36 245.3 m E Pn      2012/05/30 00:11:33.7   0.1                          T                                        4975677
LMR   003.36 245.3 m E Sn      2012/05/30 00:12:12.0   0.3                          T                4.0  .33 Ml 2.6         4975676
ORIF  003.43 273.4 m E Pn      2012/05/30 00:11:34.8   0.2                          T                                        4975669
ORIF  003.43 273.4 m E Sn      2012/05/30 00:12:12.8  -0.7                          T                2.7  .35 Ml 2.4         4975668
SMRF  003.77 258.9 m E Pn      2012/05/30 00:11:38.8  -0.4                          T                                        4975673
SMRF  003.77 258.9 m E Sn      2012/05/30 00:12:21.7   0.2                          T                1.3  .45 Ml 2.1         4975672
LPL   002.89 285.4 m E Sn      2012/05/30 00:12:00.9   0.1                          T                2.1  .30 Ml 2.2         4975670
LPG   002.88 285.1 m E Sn      2012/05/30 00:12:01.0   0.6                          T                2.4  .38 Ml 2.2         4975671
HAU   004.39 318.2 m E Sn      2012/05/30 00:12:35.8  -0.5                          T                3.6  .39 Ml 2.5         4975667

.
EVENT     277177
    Date      Time       Latitude Longitude    Depth    Ndef Nsta Gap    Mag1  N    Mag2  N    Mag3  N   Author         ID
       rms   OT_Error      Smajor Sminor Az        Err   mdist  Mdist     Err        Err        Err      Quality

2012/05/30 01:15:43.3     41.5917    2.6116      5.0 f    40    6 203  Ml 1.9  6                         bulletin    277277
                                                                                                         _ldg
      0.35   +-  0.12       1.9    1.1  145.98 +-  0.0    0.22   3.80   +-0.1                            m i ke

SPAIN
Sta     Dist  EvAz     Phase      Date       Time     TRes  Azim  AzRes  Slow  SRes Def   SNR       Amp   Per   Mag1   Mag2       ID
MTLF  001.77 350.7 m E Pn      2012/05/30 01:16:12.7  -0.1                          T                                        4989004
MTLF  001.77 350.7 m E Pg      2012/05/30 01:16:16.5   0.2                          T                                        4989003
MTLF  001.77 350.7 m E Sg      2012/05/30 01:16:38.9  -0.2                          T                1.7  .29 Ml 1.9         4989010
EPF   002.21 311.2 m E Pg      2012/05/30 01:16:24.4   0.0                          T                                        4989002
EPF   002.21 311.2 m E Sg      2012/05/30 01:16:52.7  -0.3                          T                1.0  .21 Ml 1.9         4989009
LASF  002.65 019.8 m E Pg      2012/05/30 01:16:32.1  -0.3                          T                                        4989001
LASF  002.65 019.8 m E Sg      2012/05/30 01:17:06.3  -0.1                          T                 .8  .31 Ml 1.8         4989005
ETSF  002.69 300.1 m E Pg      2012/05/30 01:16:33.0  -0.3                          T                                        4989000
ETSF  002.69 300.1 m E Sg      2012/05/30 01:17:07.9   0.0                          T                1.3  .29 Ml 2.0         4989008
CAF   003.36 353.3 m E Sg      2012/05/30 01:17:28.7   0.2                          T                 .4  .20 Ml 1.8         4989007
RJF   003.80 348.2 m E Sg      2012/05/30 01:17:42.3   0.0                          T                 .6  .24 Ml 1.7         4989006

.
EVENT     277145
    Date      Time       Latitude Longitude    Depth    Ndef Nsta Gap    Mag1  N    Mag2  N    Mag3  N   Author         ID
       rms   OT_Error      Smajor Sminor Az        Err   mdist  Mdist     Err        Err        Err      Quality

2012/05/30 01:20:36.0     44.9284   11.0885      2.0      63   22 080  Ml 2.9 17                         bulletin    277245
                                                                                                         _ldg
      0.62   +-  0.11       3.1    2.3   57.85 +-  0.0    0.17   6.41   +-0.3                            m i ke

NORTHERN ITALY
Sta     Dist  EvAz     Phase      Date       Time     TRes  Azim  AzRes  Slow  SRes Def   SNR       Amp   Per   Mag1   Mag2       ID
SBF   002.83 249.1 m E Pn      2012/05/30 01:21:21.4   1.0                          T   001.0                                4975727
SBF   002.83 249.1 m E Sn      2012/05/30 01:21:54.0   1.0                          T   001.0       34.7  .36 Ml 3.4         4975728
PGF   002.82 213.2 m E Pn      2012/05/30 01:21:21.4   1.1                          T   001.0                                4975726
PGF   002.82 213.2 m E Sn      2012/05/30 01:21:53.4   0.5                          T                4.9  .32 Ml 2.8         4975750
MBDF  003.08 267.8 m E Pn      2012/05/30 01:21:24.4   0.5                          T   001.0                                4975737
MBDF  003.08 267.8 m E Sn      2012/05/30 01:21:59.0  -0.2                          T   001.0        9.5  .44 Ml 2.8         4975738
LPL   003.13 282.3 m E Pn      2012/05/30 01:21:24.8   0.1                          T   001.0                                4975725
LPG   003.12 282.0 m E Pn      2012/05/30 01:21:24.9   0.3                          T   001.0                                4975724
LPG   003.12 282.0 m E Sn      2012/05/30 01:22:00.1  -0.2                          T               10.9  .44 Ml 2.8         4975747
FRF   003.47 248.4 m E Pn      2012/05/30 01:21:29.8   0.7                          T                                        4975749
FRF   003.47 248.4 m E Sn      2012/05/30 01:22:09.3   0.9                          T   001.0        8.4  .60 Ml 2.7         4975717
LMR   003.66 245.8 m E Pn      2012/05/30 01:21:32.2   0.5                          T   001.0                                4975720
LMR   003.66 245.8 m E Sn      2012/05/30 01:22:13.0   0.1                          T   001.0       14.6  .48 Ml 3.1         4975721
ORIF  003.70 271.7 m E Pn      2012/05/30 01:21:32.5   0.2                          T   001.0                                4975739
ORIF  003.70 271.7 m E Sn      2012/05/30 01:22:14.3   0.4                          T   001.0          5  .32 Ml 2.8         4975740
CABF  003.88 297.4 m E Pn      2012/05/30 01:21:34.9   0.1                          T   001.0                                4975734
CABF  003.88 297.4 m E Sn      2012/05/30 01:22:17.1  -1.2                          T   001.0        5.3  .56 Ml 2.6         4975735
SMRF  004.06 258.4 m E Pn      2012/05/30 01:21:37.1  -0.1                          T   001.0                                4975743
SMRF  004.06 258.4 m E Sn      2012/05/30 01:22:22.6   0.1                          T                3.0  .41 Ml 2.5         4975748
HINF  004.12 316.1 m E Pn      2012/05/30 01:21:37.4  -0.5                          T                                        4975745
HINF  004.12 316.1 m E Sn      2012/05/30 01:22:23.3  -0.5                          T   001.0                                4975736
CDF   004.36 324.4 m E Pn      2012/05/30 01:21:41.3  -0.1                          T   001.0                                4975715
CDF   004.36 324.4 m E Sn      2012/05/30 01:22:29.7  -0.1                          T   001.0        2.7  .28 Ml 2.8         4975716
HAU   004.49 314.9 m E Pn      2012/05/30 01:21:43.0   0.0                          T   001.0                                4975718
HAU   004.49 314.9 m E Sn      2012/05/30 01:22:32.7  -0.1                          T   001.0       10.4  .32 Ml 3.1         4975719
VIVF  004.56 271.4 m E Pn      2012/05/30 01:21:44.2   0.2                          T   001.0                                4975741
VIVF  004.56 271.4 m E Sn      2012/05/30 01:22:34.6   0.2                          T   001.0        1.2  .24 Ml 2.5         4975742
SMF   005.35 291.3 m E Pn      2012/05/30 01:21:54.5  -0.2                          T   001.0                                4975729
SMF   005.35 291.3 m E Sn      2012/05/30 01:22:53.7   0.4                          T   001.0          6  .48 Ml 3.0         4975730
MEZF  005.48 312.9 m E Pn      2012/05/30 01:21:56.3  -0.1                          T                                        4975744
LOR   005.55 297.5 m E Pn      2012/05/30 01:21:57.6   0.2                          T   001.0                                4975722
LOR   005.55 297.5 m E Sn      2012/05/30 01:22:57.9   0.0                          T   001.0        3.5  .36 Ml 3.0         4975723
AVF   005.72 291.8 m E Pn      2012/05/30 01:21:59.4  -0.2                          T   001.0                                4975711
SSF   005.70 294.7 m E Pn      2012/05/30 01:21:59.6   0.2                          T   001.0                                4975731
SSF   005.70 294.7 m E Sn      2012/05/30 01:23:02.0   0.5                          T                1.5  .31 Ml 2.8         4975746
BGF   005.99 288.7 m E Pn      2012/05/30 01:22:03.7   0.3                          T   001.0                                4975712
BGF   005.99 288.7 m E Sn      2012/05/30 01:23:09.0   0.4                          T   001.0         10  .52 Ml 3.4         4975713
TCF   006.38 285.4 m E Pn      2012/05/30 01:22:08.5  -0.2                          T   001.0                                4975732
TCF   006.38 285.4 m E Sn      2012/05/30 01:23:18.1   0.4                          T   001.0        1.6  .36 Ml 2.9         4975733
CAF   006.41 273.2 m E Pn      2012/05/30 01:22:09.5   0.4                          T   001.0                                4975714

.
EVENT     277146
    Date      Time       Latitude Longitude    Depth    Ndef Nsta Gap    Mag1  N    Mag2  N    Mag3  N   Author         ID
       rms   OT_Error      Smajor Sminor Az        Err   mdist  Mdist     Err        Err        Err      Quality

2012/05/30 02:04:01.0     44.4939    6.7265      2.0      48   11 054  Ml 2.6  8  Md 2.4  4              bulletin    277246
                                                                                                         _ldg
      0.54   +-  0.07       1.6    1.2   62.85 +-  0.0    0.06   2.77   +-0.3      +-0.2                 m i ke

FRANCE
Sta     Dist  EvAz     Phase      Date       Time     TRes  Azim  AzRes  Slow  SRes Def   SNR       Amp   Per   Mag1   Mag2       ID
MBDF  000.24 007.8 m E Pg      2012/05/30 02:04:05.7  -0.1                          T   001.0                                4975800
MBDF  000.24 007.8 m E Sg      2012/05/30 02:04:08.8  -0.3                          T               90.0  .30        Md 2.4  4975807
ORIF  000.74 305.4 m E Pg      2012/05/30 02:04:14.2  -0.8                          T   001.0                                4975801
ORIF  000.74 305.4 m E Sg      2012/05/30 02:04:24.8   0.1                          T   001.0       23.3  .22        Md 2.7  4975802
SBF   000.81 140.8 m E Pg      2012/05/30 02:04:15.8  -0.5                          T   001.0                                4975791
SBF   000.81 140.8 m E Sg      2012/05/30 02:04:26.7  -0.2                          T   001.0       43.2  .46        Md 2.3  4975792
FRF   000.93 183.6 m E Pg      2012/05/30 02:04:18.0  -0.5                          T   001.0                                4975776
FRF   000.93 183.6 m E Sg      2012/05/30 02:04:30.2  -0.4                          T   001.0       26.2  .20 Ml 2.9         4975777
SMRF  000.98 238.4 m E Pg      2012/05/30 02:04:19.8   0.5                          T                                        4975808
SMRF  000.98 238.4 m E Sg      2012/05/30 02:04:32.3   0.3                          T   001.0       26.5  .32 Ml 2.7         4975806
LPG   001.00 001.0 m E Pg      2012/05/30 02:04:19.8  -0.3                          T   001.0                                4975785
LPG   001.00 001.0 m E Sg      2012/05/30 02:04:33.0  -0.2                          T   001.0       23.1  .42 Ml 2.6         4975786
LPL   001.02 000.2 m E Pg      2012/05/30 02:04:20.2  -0.2                          T   001.0                                4975788
LPL   001.02 000.2 m E Sg      2012/05/30 02:04:34.3   0.7                          T                7.1  .23 Ml 2.3 Md 2.3  5001091
LMR   001.17 187.8 m E Pg      2012/05/30 02:04:23.1   0.2                          T   001.0                                4975780
LMR   001.17 187.8 m E Sg      2012/05/30 02:04:37.6  -0.4                          T   001.0       19.9  .22 Ml 2.9         4975782
VIVF  001.51 284.6 m E Pn      2012/05/30 02:04:27.5   0.1                          T   001.0                                4975803
VIVF  001.51 284.6 m E Sn      2012/05/30 02:04:46.6   0.1                          T   001.0        9.1  .32 Ml 2.5         4975805
LASF  002.10 259.5 m E Pn      2012/05/30 02:04:36.0   0.6                          T   001.0                                4975778
LASF  002.10 259.5 m E Sn      2012/05/30 02:05:00.1  -0.5                          T   001.0        2.3  .32 Ml 2.1         4975779
PGF   002.55 138.8 m E Pn      2012/05/30 02:04:41.2  -0.4                          T   001.0                                4975789
PGF   002.55 138.8 m E Sn      2012/05/30 02:05:10.4  -1.1                          T   001.0        2.4  .24 Ml 2.6         4975790

.
EVENT     277147
    Date      Time       Latitude Longitude    Depth    Ndef Nsta Gap    Mag1  N    Mag2  N    Mag3  N   Author         ID
       rms   OT_Error      Smajor Sminor Az        Err   mdist  Mdist     Err        Err        Err      Quality

2012/05/30 02:07:46.8     44.7507   11.3701      2.0      28   11 239  Ml 2.7  9                         bulletin    277247
                                                                                                         _ldg
      1.01   +-  0.51      11.9    5.8  100.87 +-  0.0    1.05   5.81   +-0.2                            m i ke

NORTHERN ITALY
Sta     Dist  EvAz     Phase      Date       Time     TRes  Azim  AzRes  Slow  SRes Def   SNR       Amp   Per   Mag1   Mag2       ID
PGF   002.79 218.8 m E Pn      2012/05/30 02:08:30.4  -0.4                          T                                        4975832
PGF   002.79 218.8 m E Sn      2012/05/30 02:09:02.9  -0.2                          T                5.7  .25 Ml 3.0         4975831
SBF   002.96 253.9 m E Pn      2012/05/30 02:08:32.5  -0.5                          T                                        4975830
SBF   002.96 253.9 m E Sn      2012/05/30 02:09:08.1   1.0                          T                6.8  .25 Ml 2.9         4975829
LPL   003.37 284.8 m E Pn      2012/05/30 02:08:38.8   0.0                          T                                        4975836
LPL   003.37 284.8 m E Sn      2012/05/30 02:09:18.8   1.8                          T                1.6  .22 Ml 2.4         4975835
LPG   003.35 284.5 m E Pn      2012/05/30 02:08:38.9   0.3                          T                                        4975838
LPG   003.35 284.5 m E Sn      2012/05/30 02:09:18.7   2.0                          T                3.1  .32 Ml 2.5         4975837
FRF   003.60 252.4 m E Pn      2012/05/30 02:08:41.4  -0.2                          T                                        4975826
FRF   003.60 252.4 m E Sn      2012/05/30 02:09:22.2   0.0                          T                                        4975825
LMR   003.78 249.7 m E Pn      2012/05/30 02:08:43.7  -0.3                          T                                        4975828
LMR   003.78 249.7 m E Sn      2012/05/30 02:09:25.6  -0.9                          T                6.0  .36 Ml 2.8         4975827
ORIF  003.91 274.4 m E Pn      2012/05/30 02:08:46.3   0.4                          T                                        4975834
ORIF  003.91 274.4 m E Sn      2012/05/30 02:09:30.9   1.2                          T                2.3  .27 Ml 2.6         4975833
SMRF  004.23 261.5 m E Pn      2012/05/30 02:08:50.6   0.4                          T                                        4975839
CDF   004.62 323.8 m E Pn      2012/05/30 02:08:53.0  -2.7                          T                                        4975843
CDF   004.62 323.8 m E Sn      2012/05/30 02:09:42.9  -3.9                          T                2.7  .36 Ml 2.8         4975842
HAU   004.76 314.9 m E Pn      2012/05/30 02:08:57.5   0.0                          T                                        4975841
HAU   004.76 314.9 m E Sn      2012/05/30 02:09:45.8  -4.2                          T                7.7  .37 Ml 2.9         4975840
LOR   005.81 298.4 m E Sn      2012/05/30 02:10:12.0  -2.9                          T                1.8  .29 Ml 2.9         4975844

.
