EVENT     297100
    Date      Time       Latitude Longitude    Depth    Ndef Nsta Gap    Mag1  N    Mag2  N    Mag3  N   Author         ID
       rms   OT_Error      Smajor Sminor Az        Err   mdist  Mdist     Err        Err        Err      Quality

2013/04/27 16:15:50.7     42.4675    1.4408      2.0      20    3 060  Ml 1.4  5                         bulletin    297200
                                                                                                         _ldg
      0.53   +-  0.09       1.8    1.5  177.85 +-  0.0    0.19   1.54   +-0.2                            m i ke

PYRENEES
Sta     Dist  EvAz     Phase      Date       Time     TRes  Azim  AzRes  Slow  SRes Def   SNR       Amp   Per   Mag1   Mag2       ID
EPF   000.99 305.1 m E Pg      2013/04/27 16:16:08.5  -0.8                          T                                        5270655
EPF   000.99 305.1 m E Sg      2013/04/27 16:16:21.0  -1.1                          T                 .4  .17 Ml 1.2         5270654
MTLF  001.04 032.9 m E Pg      2013/04/27 16:16:10.2  -0.1                          T                                        5270657
MTLF  001.04 032.9 m E Sg      2013/04/27 16:16:23.4  -0.4                          T                 .4  .16 Ml 1.3         5270656
ETSF  001.54 287.0 m E Pn      2013/04/27 16:16:17.1  -0.4                          T                                        5270653
ETSF  001.54 287.0 m E Sn      2013/04/27 16:16:36.0  -0.9                          T                 .7  .19 Ml 1.6         5270652
ETSF  001.54 287.0 m E Sg      2013/04/27 16:16:38.4  -0.9                          T                 .6  .22 Ml 1.5         5270658

.
EVENT     297101
    Date      Time       Latitude Longitude    Depth    Ndef Nsta Gap    Mag1  N    Mag2  N    Mag3  N   Author         ID
       rms   OT_Error      Smajor Sminor Az        Err   mdist  Mdist     Err        Err        Err      Quality

2013/04/27 20:19:20.2     42.7331   -1.8250      2.0      22    3 137  Ml 2.1  2  Md 1.7  2              bulletin    297201
                                                                                                         _ldg
      0.71   +-  0.23       4.1    3.0   26.58 +-  0.0    0.18   2.58   +-0.3      +-0.2                 m i ke

PYRENEES
Sta     Dist  EvAz     Phase      Date       Time     TRes  Azim  AzRes  Slow  SRes Def   SNR       Amp   Per   Mag1   Mag2       ID
SJPF  000.58 049.0 m E Pg      2013/04/27 20:19:30.8  -0.4                          T                                        5282012
SJPF  000.58 049.0 m E Sg      2013/04/27 20:19:38.3  -0.6                          T                9.4  .31        Md 1.9  5270375
ETSF  000.95 079.5 m E Pg      2013/04/27 20:19:38.8   0.8                          T                                        5270374
ETSF  000.95 079.5 m E Sg      2013/04/27 20:19:50.0  -0.3                          T                2.9  .24 Ml 1.9 Md 1.5  5270373
EPF   001.62 078.7 m E Pg      2013/04/27 20:19:50.7   0.3                          T                                        5270371
EPF   001.62 078.7 m E Sg      2013/04/27 20:20:11.3   0.0                          T                3.4  .24 Ml 2.2         5270372

.
EVENT     297120
    Date      Time       Latitude Longitude    Depth    Ndef Nsta Gap    Mag1  N    Mag2  N    Mag3  N   Author         ID
       rms   OT_Error      Smajor Sminor Az        Err   mdist  Mdist     Err        Err        Err      Quality

2013/04/28 05:11:20.4     42.6949   -1.7215      2.0      15    3 105  Ml 1.5  2  Md 1.4  2              bulletin    297220
                                                                                                         _ldg
      0.44   +-  0.16       3.4    2.4  162.22 +-  0.0    0.13   1.89   +-0.2      +-0.1                 m i ke

PYRENEES
Sta     Dist  EvAz     Phase      Date       Time     TRes  Azim  AzRes  Slow  SRes Def   SNR       Amp   Per   Mag1   Mag2       ID
SJPF  000.55 040.9 m E Pg      2013/04/28 05:11:31.2   0.2                          T                                        5270679
SJPF  000.55 040.9 m E Sg      2013/04/28 05:11:38.3   0.1                          T                5.3  .40        Md 1.5  5270678
ETSF  000.88 076.2 m E Pg      2013/04/28 05:11:36.9  -0.1                          T                                        5270685
ETSF  000.88 076.2 m E Sg      2013/04/28 05:11:47.9  -0.6                          T                 .9  .20 Ml 1.4 Md 1.4  5270684
EPF   001.55 076.8 m E Pg      2013/04/28 05:11:49.3   0.0                          T                                        5270680
EPF   001.55 076.8 m E Sg      2013/04/28 05:12:09.8   0.3                          T                  1  .23 Ml 1.7         5270681

.
EVENT     297173
    Date      Time       Latitude Longitude    Depth    Ndef Nsta Gap    Mag1  N    Mag2  N    Mag3  N   Author         ID
       rms   OT_Error      Smajor Sminor Az        Err   mdist  Mdist     Err        Err        Err      Quality

2013/04/28 06:06:20.9     48.2039    7.4354     10.0      26    7 053  Ml 1.4  4  Md 1.5  2              bulletin    297273
                                                                                                         _ldg
      0.28   +-  0.04       1.0     .7    2.04 +-  0.0    0.19   1.84   +-0.2      +-0.1                 m i ke

FRANCE
Sta     Dist  EvAz     Phase      Date       Time     TRes  Azim  AzRes  Slow  SRes Def   SNR       Amp   Per   Mag1   Mag2       ID
CDF   000.23 333.0 m E Pg      2013/04/28 06:06:25.8  -0.1                          T                                        5271516
CDF   000.23 333.0 m E Sg      2013/04/28 06:06:29.2  -0.1                          T                1.7  .26        Md 1.6  5271513
HINF  000.55 225.5 m E Pg      2013/04/28 06:06:31.5   0.0                          T                                        5271514
HINF  000.55 225.5 m E Pn      2013/04/28 06:06:33.3  -0.1                          T                                        5271510
HINF  000.55 225.5 m E Sg      2013/04/28 06:06:38.8  -0.1                          T                 .8  .21                5271511
HINF  000.55 225.5 m E Sn      2013/04/28 06:06:41.9  -0.1                          T                                Md 1.4  5271519
HAU   000.76 255.2 m E Pg      2013/04/28 06:06:35.4   0.1                          T                                        5271515
HAU   000.76 255.2 m E Sg      2013/04/28 06:06:45.2   0.1                          T                1.0  .25                5271512
PAGF  001.19 287.8 m E Pg      2013/04/28 06:06:43.3   0.1                          T                                        5271502
PAGF  001.19 287.8 m E Sg      2013/04/28 06:06:58.7  -0.1                          T                 .3  .19 Ml 1.2         5271503
MEZF  001.62 281.5 m E Pn      2013/04/28 06:06:47.8   0.0                          T                                        5271520
MEZF  001.62 281.5 m E Pg      2013/04/28 06:06:51.1   0.0                          T                                        5271509
MEZF  001.62 281.5 m E Sg      2013/04/28 06:07:12.0   0.1                          T                1.1  .31 Ml 1.6         5271508
SFTF  001.60 270.9 m E Pg      2013/04/28 06:06:50.9   0.1                          T                                        5271507
SFTF  001.60 270.9 m E Sg      2013/04/28 06:07:11.6   0.1                          T                 .7  .23 Ml 1.6         5271506
CABF  001.84 210.4 m E Pn      2013/04/28 06:06:51.1   0.1                          T                                        5271518
CABF  001.84 210.4 m E Pg      2013/04/28 06:06:55.2  -0.1                          T                                        5271504
CABF  001.84 210.4 m E Sn      2013/04/28 06:07:12.9   0.1                          T                                        5271517
CABF  001.84 210.4 m E Sg      2013/04/28 06:07:19.0   0.0                          T                 .2  .15 Ml 1.2         5271505

.
EVENT     297116
    Date      Time       Latitude Longitude    Depth    Ndef Nsta Gap    Mag1  N    Mag2  N    Mag3  N   Author         ID
       rms   OT_Error      Smajor Sminor Az        Err   mdist  Mdist     Err        Err        Err      Quality

2013/04/28 06:31:49.6     43.1342   -1.2785     10.0 f   179   38 048  Ml 3.4 31  Md 3.4  3              bulletin    297216
                                                                                                         _ldg
      0.92   +-  0.06       1.6    1.2  136.53 +-  0.0    0.04   8.18   +-0.2      +-0.0                 m i ke

PYRENEES
Sta     Dist  EvAz     Phase      Date       Time     TRes  Azim  AzRes  Slow  SRes Def   SNR       Amp   Per   Mag1   Mag2       ID
SJPF  000.04 118.0 m E Pg      2013/04/28 06:31:52.1   0.3                          T   001.0                                5270551
SJPF  000.04 118.0 m E Sg      2013/04/28 06:31:54.1   0.7                          T             2261.3  .18        Md 3.4  5270562
ETSF  000.58 113.8 m E Pg      2013/04/28 06:31:59.6  -1.1                          T   001.0                                5270516
ETSF  000.58 113.8 m E Sg      2013/04/28 06:32:07.4  -1.0                          T             1007.6  .28        Md 3.3  5270574
EPF   001.19 094.5 m E Pn      2013/04/28 06:32:11.0   0.2                          T   001.0                                5270527
EPF   001.19 094.5 m E Pg      2013/04/28 06:32:11.6  -0.4                          T   001.0                                5270528
EPF   001.19 094.5 m E Sn      2013/04/28 06:32:26.0   0.0                          T   001.0      218.4  .30 Ml 3.8         5270529
EPF   001.19 094.5 m E Sg      2013/04/28 06:32:26.9  -0.5                          T   001.0        255  .24 Ml 3.9 Md 3.4  5270530
LFF   002.32 038.2 m E Pn      2013/04/28 06:32:26.5   0.5                          T   001.0                                5270541
LFF   002.32 038.2 m E Sn      2013/04/28 06:32:53.4   0.5                          T   001.0       40.5  .28 Ml 3.3         5270542
MTLF  002.56 084.2 m E Pn      2013/04/28 06:32:29.3  -0.1                          T   001.0                                5270519
MTLF  002.56 084.2 m E Sn      2013/04/28 06:32:58.3  -0.5                          T               21.6  .20 Ml 3.4         5270561
RJF   002.96 041.8 m E Pn      2013/04/28 06:32:33.9  -0.9                          T   001.0                                5270520
RJF   002.96 041.8 m E Sn      2013/04/28 06:33:08.1  -0.1                          T               21.7  .24 Ml 3.0         5270564
RJF   002.96 041.8 m E Sg      2013/04/28 06:33:21.1  -1.3                          T   001.0       32.9  .20 Ml 3.3         5270521
CAF   003.00 052.2 m E Pn      2013/04/28 06:32:34.7  -0.7                          T   001.0                                5270525
CAF   003.00 052.2 m E Sn      2013/04/28 06:33:08.9  -0.4                          T               16.0  .18 Ml 3.4         5270563
CAF   003.00 052.2 m E Sg      2013/04/28 06:33:23.1  -0.8                          T   001.0       71.5  .32 Ml 3.8         5270526
MFF   003.56 012.7 m E Pn      2013/04/28 06:32:42.6  -0.4                          T   001.0                                5270506
MFF   003.56 012.7 m E Sn      2013/04/28 06:33:23.3   0.8                          T               17.7  .32 Ml 3.5         5270568
MFF   003.56 012.7 m E Sg      2013/04/28 06:33:39.7  -1.5                          T   001.0       11.5  .20 Ml 3.5         5270507
LASF  003.85 074.1 m E Pn      2013/04/28 06:32:47.0   0.1                          T   001.0                                5270538
LASF  003.85 074.1 m E Sn      2013/04/28 06:33:29.9   0.4                          T               16.3  .18 Ml 3.6         5270560
TCF   004.02 037.1 m E Pn      2013/04/28 06:32:48.2  -1.0                          T   001.0                                5270513
BGF   004.51 039.2 m E Pn      2013/04/28 06:32:54.6  -1.2                          T   001.0                                5270524
BGF   004.51 039.2 m E Sn      2013/04/28 06:33:47.0   1.8                          T               36.4  .30 Ml 3.8         5270565
VIVF  004.63 066.1 m E Pn      2013/04/28 06:32:57.3  -0.2                          T   001.0                                5270552
VIVF  004.63 066.1 m E Sn      2013/04/28 06:33:49.2   1.1                          T               15.0  .30 Ml 3.5         5270559
AVF   004.92 040.4 m E Pn      2013/04/28 06:33:00.8  -0.6                          T   001.0                                5270522
AVF   004.92 040.4 m E Sn      2013/04/28 06:33:55.5   0.6                          T   001.0        6.3  .36 Ml 3.1         5270523
QUIF  004.96 345.2 m E Pn      2013/04/28 06:33:02.2   0.2                          T   001.0                                5270546
QUIF  004.96 345.2 m E Sn      2013/04/28 06:33:55.0  -1.1                          T   001.0        8.6  .18 Ml 3.5         5270547
SMF   005.05 044.2 m E Pn      2013/04/28 06:33:02.9  -0.4                          T   001.0                                5270511
SMF   005.05 044.2 m E Sn      2013/04/28 06:34:00.4   2.1                          T                                        5270567
SMRF  005.05 078.1 m E Pn      2013/04/28 06:33:03.8   0.4                          T   001.0                                5270553
SMRF  005.05 078.1 m E Sn      2013/04/28 06:33:58.6   0.3                          T               14.6  .58 Ml 3.3         5270557
SSF   005.19 039.1 m E Pn      2013/04/28 06:33:04.4  -0.7                          T   001.0                                5270512
SSF   005.19 039.1 m E Sn      2013/04/28 06:34:01.3  -0.1                          T                                        5270572
SGMF  005.20 350.5 m E Pn      2013/04/28 06:33:05.0  -0.2                          T   001.0                                5270549
SGMF  005.20 350.5 m E Sn      2013/04/28 06:34:01.7   0.0                          T                6.9  .31 Ml 3.3         5270569
SGMF  005.20 350.5 m E Sg      2013/04/28 06:34:31.8  -0.5                          T   001.0       11.2  .44 Ml 3.3         5270550
GRR   005.26 003.1 m E Pn      2013/04/28 06:33:05.9  -0.2                          T   001.0                                5270535
GRR   005.26 003.1 m E Sn      2013/04/28 06:34:03.5   0.3                          T   001.0        8.6  .33 Ml 3.2         5270536
GRR   005.26 003.1 m E Sg      2013/04/28 06:34:35.9   1.5                          T   001.0        6.2  .24 Ml 3.2         5270537
ROSF  005.39 345.7 m E Pn      2013/04/28 06:33:07.9   0.0                          T   001.0                                5270548
ROSF  005.39 345.7 m E Sn      2013/04/28 06:34:06.0  -0.2                          T               12.0  .26 Ml 3.6         5270570
LDF   005.52 008.0 m E Pn      2013/04/28 06:33:08.7  -0.9                          T   001.0                                5270539
LDF   005.52 008.0 m E Sn      2013/04/28 06:34:09.0  -0.4                          T   001.0        4.3  .24 Ml 3.2         5270540
LOR   005.50 039.5 m E Pn      2013/04/28 06:33:08.8  -0.6 229.2  6.1               T   001.0                                5270504
LOR   005.50 039.5 m E Sn      2013/04/28 06:34:05.8  -3.2                          T                                        5270573
LOR   005.50 039.5 m E Sg      2013/04/28 06:34:41.4  -0.4                          T   001.0        9.5  .32 Ml 3.5         5270505
ORIF  005.46 068.5 m E Pn      2013/04/28 06:33:09.7   0.7                          T   001.0                                5270544
ORIF  005.46 068.5 m E Sn      2013/04/28 06:34:06.8  -1.3                          T   001.0       21.3  .54 Ml 3.6         5270545
FLN   005.66 005.4 m E Pn      2013/04/28 06:33:10.5  -1.0 183.6  -2.3              T   001.0                                5270531
FLN   005.66 005.4 m E Sn      2013/04/28 06:34:13.0   0.3                          T   001.0          4  .20 Ml 3.2         5270532
LMR   005.69 085.3 m E Pn      2013/04/28 06:33:13.0   1.0                          T                                        5270555
LMR   005.69 085.3 m E Sn      2013/04/28 06:34:13.4  -0.1                          T   001.0        3.5  .38 Ml 3.0         5270543
FRF   005.80 083.1 m E Pn      2013/04/28 06:33:14.1   0.7                          T   001.0                                5270533
FRF   005.80 083.1 m E Sn      2013/04/28 06:34:16.0   0.0                          T   001.0        4.0  .27 Ml 3.3         5270534
LPL   006.22 064.7 m E Pn      2013/04/28 06:33:21.0   1.5                          T                                        5270577
CABF  006.28 053.9 m E Pn      2013/04/28 06:33:21.0   0.9                          T   001.0                                5270515
LPG   006.23 064.9 m E Pn      2013/04/28 06:33:21.5   1.9                          T                                        5270556
LPG   006.23 064.9 m E Sn      2013/04/28 06:34:28.1   1.4                          T                8.3  .54 Ml 3.3         5270558
SBF   006.38 080.5 m E Pn      2013/04/28 06:33:22.1   0.6                          T                                        5270554
SBF   006.38 080.5 m E Sn      2013/04/28 06:34:31.6   1.5                          T   001.0        6.5  .40 Ml 3.4         5270510
SFTF  006.73 038.9 m E Pn      2013/04/28 06:33:26.0  -0.1                          T                                        5270582
SFTF  006.73 038.9 m E Sn      2013/04/28 06:34:37.4  -0.9                          T                                        5270571
MEZF  006.95 037.3 m E Pn      2013/04/28 06:33:29.2   0.0 214.5  -7.3              T                                        5270581
MEZF  006.95 037.3 m E Sn      2013/04/28 06:34:45.1   1.4                          T   001.0        4.5  .36 Ml 3.3         5270518
HAU   007.23 045.0 m E Pn      2013/04/28 06:33:32.1  -1.0                          T                                        5270578
PAGF  007.30 039.6 m E Pn      2013/04/28 06:33:34.3   0.4 226.1  1.5               T                                        5270580
HINF  007.39 047.9 m E Pn      2013/04/28 06:33:35.2   0.0                          T                                        5270579
PGF   007.58 090.9 m E Pn      2013/04/28 06:33:38.2   0.4                          T   001.0                                5270508
PGF   007.58 090.9 m E Sn      2013/04/28 06:35:00.9   2.2                          T   001.0       13.8  .70 Ml 3.9         5270509
BAIF  007.89 026.7 m E Pn      2013/04/28 06:33:42.5   0.6                          T   001.0                                5270514
HYF   004.98 032.5 m E Sn      2013/04/28 06:33:58.1   1.7                          T                                        5270566

.
