EVENT     268958
    Date      Time       Latitude Longitude    Depth    Ndef Nsta Gap    Mag1  N    Mag2  N    Mag3  N   Author         ID
       rms   OT_Error      Smajor Sminor Az        Err   mdist  Mdist     Err        Err        Err      Quality

2012/01/22 10:07:56.4     43.0595    -.2601     10.0     110   22 052  Ml 3.4 21  Md 3.1  3              js067245    268978

      0.60   +-  0.05       1.0     .9  179.64 +-  0.0    0.16   5.89   +-0.2      +-0.0                 m i ke

PYRENEES
Sta     Dist  EvAz     Phase      Date       Time     TRes  Azim  AzRes  Slow  SRes Def   SNR       Amp   Per   Mag1   Mag2       ID
ETSF  000.27 233.9 m E Pg      2012/01/22 10:08:02.0  -0.1                          T                                        4821383
ETSF  000.27 233.9 m E Sg      2012/01/22 10:08:05.0  -0.9                          T   001.0      435.5  .25        Md 3.2  4818851
EPF   000.44 093.6 m E Pg      2012/01/22 10:08:04.3  -0.7                          T   001.0                                4818835
EPF   000.44 093.6 m E Sg      2012/01/22 10:08:11.2   0.2                          T              125.8  .18        Md 3.2  4821377
SJPF  000.71 274.7 m E Pg      2012/01/22 10:08:10.0   0.2                          T   001.0                                4818859
SJPF  000.71 274.7 m E Sg      2012/01/22 10:08:19.8   0.6                          T               80.2  .24        Md 3.1  4821378
MTLF  001.83 080.3 m E Pn      2012/01/22 10:08:27.1   0.8                          T   001.0                                4818852
MTLF  001.83 080.3 m E Pg      2012/01/22 10:08:30.9   0.3                          T   001.0                                4818853
MTLF  001.83 080.3 m E Sg      2012/01/22 10:08:54.3   0.1                          T   001.0       32.2  .28 Ml 3.2         4818854
LFF   002.01 020.7 m E Pn      2012/01/22 10:08:28.9   0.2                          T   001.0                                4818844
LFF   002.01 020.7 m E Pg      2012/01/22 10:08:34.1   0.3                          T                                        4821380
LFF   002.01 020.7 m E Sn      2012/01/22 10:08:52.6   0.2                          T   001.0      127.7  .28 Ml 3.7         4818845
LFF   002.01 020.7 m E Sg      2012/01/22 10:08:59.8   0.1                          T              141.7  .30 Ml 3.7         4821386
RJF   002.58 029.0 m E Pn      2012/01/22 10:08:34.6  -1.8                          T   001.0                                4818826
RJF   002.58 029.0 m E Pg      2012/01/22 10:08:44.0  -0.4                          T                                        4821379
RJF   002.58 029.0 m E Sn      2012/01/22 10:09:05.9  -0.1                          T   001.0                                4818827
RJF   002.58 029.0 m E Sg      2012/01/22 10:09:17.6   0.1                          T   001.0       46.9  .24 Ml 3.3         4818828
CAF   002.51 041.2 m E Pn      2012/01/22 10:08:34.9  -0.6                          T                                        4821382
CAF   002.51 041.2 m E Pg      2012/01/22 10:08:43.1   0.1                          T                                        4821381
CAF   002.51 041.2 m E Sn      2012/01/22 10:09:03.9  -0.4                          T   001.0                                4818833
CAF   002.51 041.2 m E Sg      2012/01/22 10:09:15.7   0.4                          T   001.0       28.2  .16 Ml 3.6         4818834
LASF  003.16 069.8 m E Pn      2012/01/22 10:08:45.7   1.4                          T   001.0                                4818840
LASF  003.16 069.8 m E Pg      2012/01/22 10:08:55.3   0.3                          T                                        4821403
LASF  003.16 069.8 m E Sn      2012/01/22 10:09:20.1   0.3                          T   001.0                                4818841
LASF  003.16 069.8 m E Sg      2012/01/22 10:09:34.9  -0.7                          T   001.0          9  .20 Ml 3.1         4818842
VIVF  003.99 061.6 m E Pn      2012/01/22 10:08:56.2   0.6                          T   001.0                                4818860
VIVF  003.99 061.6 m E Pg      2012/01/22 10:09:09.8  -0.4                          T                                        4821404
VIVF  003.99 061.6 m E Sn      2012/01/22 10:09:39.8   0.2                          T   001.0                                4818861
VIVF  003.99 061.6 m E Sg      2012/01/22 10:10:00.7  -0.8                          T   001.0       11.4  .28 Ml 3.3         4818862
BGF   004.14 031.2 m E Pn      2012/01/22 10:08:57.5  -0.1                          T                                        4821395
BGF   004.14 031.2 m E Pg      2012/01/22 10:09:12.8  -0.1                          T                                        4821394
BGF   004.14 031.2 m E Sg      2012/01/22 10:10:05.7  -0.4                          T   001.0       62.7  .36 Ml 3.9         4818832
AVF   004.53 033.3 m E Pn      2012/01/22 10:09:02.5  -0.4                          T   001.0                                4818829
AVF   004.53 033.3 m E Sn      2012/01/22 10:09:52.7   0.2                          T   001.0                                4818830
AVF   004.53 033.3 m E Sg      2012/01/22 10:10:18.0  -0.2                          T   001.0       11.6  .32 Ml 3.3         4818831
SMF   004.62 037.7 m E Pn      2012/01/22 10:09:04.0  -0.2                          T   001.0                                4818847
SMF   004.62 037.7 m E Sg      2012/01/22 10:10:21.8   0.6                          T   001.0       11.9  .32 Ml 3.4         4818848
TCF   003.68 027.8 m E Pg      2012/01/22 10:09:04.1  -0.4                          T                                        4821392
TCF   003.68 027.8 m E Sg      2012/01/22 10:09:51.5  -0.3                          T               27.0  .26 Ml 3.6         4821389
SSF   004.81 032.4 m E Pn      2012/01/22 10:09:07.0   0.2                          T   001.0                                4818849
SSF   004.81 032.4 m E Pg      2012/01/22 10:09:25.3   0.0                          T                                        4821391
SSF   004.81 032.4 m E Sn      2012/01/22 10:09:59.2   0.0                          T   001.0        3.5  .32 Ml 3.0         4818850
SSF   004.81 032.4 m E Sg      2012/01/22 10:10:27.0   0.0                          T                9.4  .28 Ml 3.4         4821390
QUIF  005.27 338.2 m E Pn      2012/01/22 10:09:13.8   0.8                          T   001.0                                4818855
QUIF  005.27 338.2 m E Sn      2012/01/22 10:10:11.3   1.1                          T   001.0                                4818856
QUIF  005.27 338.2 m E Sg      2012/01/22 10:10:40.9  -0.4                          T   001.0        4.8  .28 Ml 3.2         4818857
GRR   005.35 355.7 m E Pn      2012/01/22 10:09:13.9  -0.1                          T                                        4821402
GRR   005.35 355.7 m E Pg      2012/01/22 10:09:35.2   0.0                          T                                        4821401
GRR   005.35 355.7 m E Sg      2012/01/22 10:10:43.9   0.2                          T   001.0        7.1  .28 Ml 3.2         4818839
SGMF  005.44 343.6 m E Pn      2012/01/22 10:09:15.7   0.4                          T                                        4821399
SGMF  005.44 343.6 m E Sn      2012/01/22 10:10:15.3   1.1                          T   001.0         11  .76 Ml 3.1         4818858
LDF   005.54 000.9 m E Pn      2012/01/22 10:09:16.4  -0.3                          T                                        4821400
LDF   005.54 000.9 m E Sg      2012/01/22 10:10:49.7   0.0                          T   001.0        6.9  .32 Ml 3.3         4818843
ROSF  005.68 339.3 m E Pn      2012/01/22 10:09:18.8   0.1                          T                                        4821398
HYF   004.68 025.0 m E Pg      2012/01/22 10:09:22.7  -0.3                          T                                        4821393
HYF   004.68 025.0 m E Sg      2012/01/22 10:10:23.3   0.3                          T                                        4821388
FLN   005.71 358.5 m E Sn      2012/01/22 10:10:21.3   0.7                          T   001.0                                4818836
FLN   005.71 358.5 m E Sg      2012/01/22 10:10:55.5   0.5                          T   001.0        9.4  .56 Ml 3.1         4818837
LOR   005.12 033.3 m E Sg      2012/01/22 10:10:36.2  -0.5                          T   001.0        8.3  .32 Ml 3.3         4818846

.
EVENT     268959
    Date      Time       Latitude Longitude    Depth    Ndef Nsta Gap    Mag1  N    Mag2  N    Mag3  N   Author         ID
       rms   OT_Error      Smajor Sminor Az        Err   mdist  Mdist     Err        Err        Err      Quality

2012/01/22 10:39:13.0     44.3453   10.9836     10.0      37    9 120  Ml 2.7  8                         js067245    268979

      0.70   +-  0.13       2.8    2.2   75.00 +-  0.0    0.01   5.13   +-0.3                            m i ke

NORTHERN ITALY
Sta     Dist  EvAz     Phase      Date       Time     TRes  Azim  AzRes  Slow  SRes Def   SNR       Amp   Per   Mag1   Mag2       ID
PGF   002.31 219.5 m E Pn      2012/01/22 10:39:49.7   0.3                          T                                        4821427
PGF   002.31 219.5 m E Sn      2012/01/22 10:40:17.9   1.7                          T               11.6  .37 Ml 3.0         4821421
SBF   002.60 260.6 m E Pn      2012/01/22 10:39:53.5   0.1                          T                                        4821426
SBF   002.60 260.6 m E Sn      2012/01/22 10:40:23.0  -0.2                          T                9.5  .26 Ml 2.9         4821428
FRF   003.23 257.4 m E Pn      2012/01/22 10:40:02.2   0.3                          T                                        4821424
FRF   003.23 257.4 m E Sn      2012/01/22 10:40:38.3   0.2                          T                6.4  .21 Ml 3.0         4821423
MBDF  003.04 278.7 m E P       2012/01/22 10:40:02.3  -0.1                          T                                        4821429
LMR   003.39 254.2 m E Pn      2012/01/22 10:40:04.0  -0.1                          T                                        4821425
LMR   003.39 254.2 m E Sn      2012/01/22 10:40:43.5   1.6                          T                8.5  .29 Ml 3.0         4821422
HINF  004.51 321.8 m E Pn      2012/01/22 10:40:19.6   0.2                          T                                        4821431
HINF  004.51 321.8 m E Sn      2012/01/22 10:41:08.5  -0.2                          T                1.8  .27 Ml 2.6         4821432
HAU   004.87 320.3 m E Pn      2012/01/22 10:40:23.5  -0.8                          T                                        4821430
HAU   004.87 320.3 m E Sn      2012/01/22 10:41:17.5   0.0                          T                1.7  .30 Ml 2.4         4821433
LPG   003.22 292.4 m E Sn      2012/01/22 10:40:38.3   0.0                          T                  1  .21 Ml 2.1         4821435
LASF  005.13 269.5 m E Sn      2012/01/22 10:41:23.3  -0.3                          T                2.0  .24 Ml 2.8         4821434

.
EVENT     268978
    Date      Time       Latitude Longitude    Depth    Ndef Nsta Gap    Mag1  N    Mag2  N    Mag3  N   Author         ID
       rms   OT_Error      Smajor Sminor Az        Err   mdist  Mdist     Err        Err        Err      Quality

2012/01/22 10:40:46.8     44.1975    6.7904      2.0      44   10 062  Ml 2.5  9  Md 2.5  3              js067245    268998

      0.74   +-  0.07       1.4    1.0   67.39 +-  0.0    0.19   2.30   +-0.2      +-0.0                 m i ke

FRANCE
Sta     Dist  EvAz     Phase      Date       Time     TRes  Azim  AzRes  Slow  SRes Def   SNR       Amp   Per   Mag1   Mag2       ID
MBDF  000.53 358.5 m E Pg      2012/01/22 10:40:57.0  -0.2                          T                                        4821438
MBDF  000.53 358.5 m E Sg      2012/01/22 10:41:03.9  -0.2                          T               12.8  .24        Md 2.5  4821460
SBF   000.57 125.5 m E Pg      2012/01/22 10:40:57.8   0.0                          T                                        4821445
SBF   000.57 125.5 m E Sg      2012/01/22 10:41:05.4   0.0                          T               59.9  .23                4821451
SBF   000.57 125.5 m E Sn      2012/01/22 10:41:10.1   0.2                          T               57.2  .29        Md 2.5  4821452
FRF   000.65 189.3 m E Pg      2012/01/22 10:40:58.7  -0.4                          T                                        4821443
FRF   000.65 189.3 m E Sg      2012/01/22 10:41:07.6   0.1                          T               29.3  .22        Md 2.4  4821455
LMR   000.89 193.4 m E Pg      2012/01/22 10:41:02.9  -0.6                          T                                        4821444
LMR   000.89 193.4 m E Sg      2012/01/22 10:41:15.4   0.4                          T                                        4821453
LMR   000.89 193.4 m E Sn      2012/01/22 10:41:17.7   0.4                          T               23.6  .26 Ml 2.7         4821454
SMRF  000.90 256.2 m E Pg      2012/01/22 10:41:05.1   1.2                          T                                        4821442
SMRF  000.90 256.2 m E Sn      2012/01/22 10:41:18.5   0.6                          T               16.4  .20 Ml 2.7         4821456
ORIF  000.97 318.2 m E Pg      2012/01/22 10:41:05.4   0.2                          T                                        4821439
ORIF  000.97 318.2 m E Sn      2012/01/22 10:41:19.7   0.2                          T               11.4  .22 Ml 2.5         4821459
LPG   001.30 358.8 m E Pg      2012/01/22 10:41:11.4  -0.1                          T                                        4821441
LPG   001.30 358.8 m E Sg      2012/01/22 10:41:28.1  -0.2                          T                4.1  .24 Ml 2.2         4821457
LPL   001.32 358.2 m E Pg      2012/01/22 10:41:11.5  -0.3                          T                                        4821440
LPL   001.32 358.2 m E Sg      2012/01/22 10:41:28.7  -0.1                          T                5.8  .29 Ml 2.3         4821458
VIVF  001.65 294.2 m E Pn      2012/01/22 10:41:16.0   0.9                          T                                        4821437
VIVF  001.65 294.2 m E Sn      2012/01/22 10:41:36.1   0.4                          T                5.0  .25 Ml 2.4         4821461
PGF   002.30 134.9 m E Pn      2012/01/22 10:41:24.3   0.1                          T                                        4821436
PGF   002.30 134.9 m E Sn      2012/01/22 10:41:51.5   0.1                          T                7.5  .28 Ml 2.9         4821450

.
EVENT     268961
    Date      Time       Latitude Longitude    Depth    Ndef Nsta Gap    Mag1  N    Mag2  N    Mag3  N   Author         ID
       rms   OT_Error      Smajor Sminor Az        Err   mdist  Mdist     Err        Err        Err      Quality

2012/01/22 15:34:37.8     43.1093    -.2353      2.0      12    4 164  Ml 1.6  1  Md 1.5  3              js067245    268981

      0.35   +-  0.14       4.0    1.5    3.68 +-  0.0    0.32   1.81   +-         +-0.1                 m i ke

PYRENEES
Sta     Dist  EvAz     Phase      Date       Time     TRes  Azim  AzRes  Slow  SRes Def   SNR       Amp   Per   Mag1   Mag2       ID
ETSF  000.32 228.6 m E Pg      2012/01/22 15:34:43.7  -0.4                          T                                        4821466
ETSF  000.32 228.6 m E Sg      2012/01/22 15:34:47.8  -0.6                          T               11.6  .18        Md 1.5  4821467
EPF   000.43 100.4 m E Pg      2012/01/22 15:34:45.7  -0.4                          T                                        4821463
EPF   000.43 100.4 m E Sg      2012/01/22 15:34:51.9   0.1                          T                6.4  .27        Md 1.4  4821464
SJPF  000.72 270.6 m E Pg      2012/01/22 15:34:51.6   0.1                          T                                        4821462
SJPF  000.72 270.6 m E Sg      2012/01/22 15:35:00.7  -0.3                          T                4.2  .34        Md 1.4  4821465
MTLF  001.81 081.8 m E Sg      2012/01/22 15:35:34.7   0.0                          T                 .6  .24 Ml 1.6         4821468

.
EVENT     268962
    Date      Time       Latitude Longitude    Depth    Ndef Nsta Gap    Mag1  N    Mag2  N    Mag3  N   Author         ID
       rms   OT_Error      Smajor Sminor Az        Err   mdist  Mdist     Err        Err        Err      Quality

2012/01/22 20:04:46.9     41.7300    9.0509      2.0      10    4 313  Ml 1.5  3  Md 2.0  1              js067245    268982

      0.89   +-  0.33       6.8    4.4  165.39 +-  0.0    0.82   2.55   +-0.2      +-                    m i ke

CORSICA, FRANCE
Sta     Dist  EvAz     Phase      Date       Time     TRes  Azim  AzRes  Slow  SRes Def   SNR       Amp   Per   Mag1   Mag2       ID
PGF   000.82 357.3 m E Pn      2012/01/22 20:05:04.0   0.0                          T                                        4821509
PGF   000.82 357.3 m E Sn      2012/01/22 20:05:16.1   0.1                          T               55.7  .42        Md 2.0  4821510
SBF   002.44 331.4 m E Pn      2012/01/22 20:05:26.2   0.2                          T                                        4821508
SBF   002.44 331.4 m E Sn      2012/01/22 20:05:54.6  -0.1                          T                 .4  .19 Ml 1.6         4821513
LMR   002.47 311.3 m E Pn      2012/01/22 20:05:26.3   0.0                          T                                        4821507
LMR   002.47 311.3 m E Sn      2012/01/22 20:05:55.0  -0.3                          T                 .1  .14 Ml 1.3         4821506
FRF   002.55 316.7 m E Pn      2012/01/22 20:05:27.4  -0.1                          T                                        4821512
FRF   002.55 316.7 m E Sn      2012/01/22 20:05:57.2   0.0                          T                 .4  .20 Ml 1.6         4821511

.
