EVENT     298761
    Date      Time       Latitude Longitude    Depth    Ndef Nsta Gap    Mag1  N    Mag2  N    Mag3  N   Author         ID
       rms   OT_Error      Smajor Sminor Az        Err   mdist  Mdist     Err        Err        Err      Quality

2013/05/18 22:48:00.2     42.9945    -.0909      2.0     185   41 102  Ml 3.8 46  Md 3.8  3              bulletin    298861
                                                                                                         _ldg
      0.61   +-  0.06       1.2     .9   44.61 +-  0.0    0.11   7.87   +-0.3      +-0.0                 m i ke

PYRENEES
Sta     Dist  EvAz     Phase      Date       Time     TRes  Azim  AzRes  Slow  SRes Def   SNR       Amp   Per   Mag1   Mag2       ID
EPF   000.32 083.4 m E Pg      2013/05/18 22:48:06.0  -0.4                          T   001.0                                5285359
EPF   000.32 083.4 m E Sg      2013/05/18 22:48:10.2  -0.6                          T             3363.1  .24        Md 3.8  5285441
ETSF  000.36 254.6 m E Pg      2013/05/18 22:48:07.8   0.6                          T   001.0                                5285347
ETSF  000.36 254.6 m E Sg      2013/05/18 22:48:12.9   1.0                          T   001.0     1979.6  .22        Md 3.7  5285348
SJPF  000.84 278.5 m E Pg      2013/05/18 22:48:16.4   0.5                          T   001.0                                5285392
SJPF  000.84 278.5 m E Sg      2013/05/18 22:48:27.3   0.3                          T              177.6  .32        Md 3.8  5285398
MTLF  001.72 077.6 m E Pn      2013/05/18 22:48:29.8   0.3                          T   001.0                                5285349
MTLF  001.72 077.6 m E Pg      2013/05/18 22:48:32.3   0.1                          T   001.0                                5285382
MTLF  001.72 077.6 m E Sg      2013/05/18 22:48:54.4  -0.1                          T              459.6  .26 Ml 4.4         5285440
LFF   002.03 016.9 m E Pn      2013/05/18 22:48:33.9   0.2                          T   001.0                                5285367
LFF   002.03 016.9 m E Pg      2013/05/18 22:48:38.0   0.1                          T   001.0                                5285368
LFF   002.03 016.9 m E Sn      2013/05/18 22:48:57.8  -0.3                          T   001.0                                5285369
LFF   002.03 016.9 m E Sg      2013/05/18 22:49:04.0  -0.2                          T   001.0      552.2  .38 Ml 4.2         5285370
CAF   002.48 038.1 m E Pn      2013/05/18 22:48:39.4  -0.4                          T   001.0                                5285356
CAF   002.48 038.1 m E Pg      2013/05/18 22:48:46.4   0.1                          T                                        5285435
CAF   002.48 038.1 m E Sg      2013/05/18 22:49:17.6  -0.6                          T   001.0       88.9  .15 Ml 4.1         5285358
RJF   002.58 026.1 m E Pn      2013/05/18 22:48:41.5   0.3                          T   001.0                                5285350
RJF   002.58 026.1 m E Pg      2013/05/18 22:48:47.9  -0.2                          T                                        5285434
RJF   002.58 026.1 m E Sg      2013/05/18 22:49:21.0  -0.4                          T              166.1  .18 Ml 4.0         5285433
LASF  003.07 068.0 m E Pn      2013/05/18 22:48:47.7   0.0                          T   001.0                                5285363
LASF  003.07 068.0 m E Pg      2013/05/18 22:48:57.5   0.5                          T                                        5285438
LASF  003.07 068.0 m E Sn      2013/05/18 22:49:23.8   0.9                          T                                        5285462
LASF  003.07 068.0 m E Sg      2013/05/18 22:49:36.2  -0.2                          T              157.4  .38 Ml 4.1         5285439
MFF   003.61 359.4 m E Pn      2013/05/18 22:48:55.2   0.1                          T   001.0                                5285374
MFF   003.61 359.4 m E Pg      2013/05/18 22:49:06.8  -0.2                          T                                        5285422
MFF   003.61 359.4 m E Sn      2013/05/18 22:49:35.4  -0.4                          T                                        5285423
MFF   003.61 359.4 m E Sg      2013/05/18 22:49:52.3  -1.0                          T   001.0       79.1  .34 Ml 4.1         5285375
TCF   003.68 025.7 m E Pn      2013/05/18 22:48:55.4  -0.7                          T   001.0                                5285381
TCF   003.68 025.7 m E Pg      2013/05/18 22:49:08.2  -0.1                          T                                        5285424
TCF   003.68 025.7 m E Sn      2013/05/18 22:49:37.6   0.1                          T   001.0                                5285343
TCF   003.68 025.7 m E Sg      2013/05/18 22:49:55.3  -0.3                          T   001.0       69.2  .24 Ml 4.1         5285344
VIVF  003.91 060.0 m E Pn      2013/05/18 22:49:00.4   1.1                          T   001.0                                5285393
VIVF  003.91 060.0 m E Pg      2013/05/18 22:49:12.2  -0.4                          T                                        5285437
VIVF  003.91 060.0 m E Sn      2013/05/18 22:49:43.1   0.1                          T                                        5285461
VIVF  003.91 060.0 m E Sg      2013/05/18 22:50:03.0   0.2                          T               38.3  .28 Ml 3.8         5285436
BGF   004.13 029.4 m E Pn      2013/05/18 22:49:02.4   0.2                          T   001.0                                5285354
BGF   004.13 029.4 m E Pg      2013/05/18 22:49:16.7   0.1                          T                                        5285432
BGF   004.13 029.4 m E Sg      2013/05/18 22:50:08.8  -0.9                          T   001.0      404.3  .38 Ml 4.7         5285355
SMRF  004.24 074.7 m E Pn      2013/05/18 22:49:04.5   0.7                          T   001.0                                5285394
SMRF  004.24 074.7 m E Pg      2013/05/18 22:49:19.2   0.5                          T                                        5285452
SMRF  004.24 074.7 m E Sn      2013/05/18 22:49:51.6   0.7                          T                                        5285451
SMRF  004.24 074.7 m E Sg      2013/05/18 22:50:14.8   1.7                          T   001.0       98.9  .81 Ml 3.8         5285395
AVF   004.52 031.6 m E Pn      2013/05/18 22:49:07.7   0.3                          T   001.0                                5285351
AVF   004.52 031.6 m E Pg      2013/05/18 22:49:23.6  -0.1                          T                                        5285425
AVF   004.52 031.6 m E Sn      2013/05/18 22:49:57.2  -0.2                          T   001.0                                5285352
AVF   004.52 031.6 m E Sg      2013/05/18 22:50:21.5  -0.1                          T   001.0       45.6  .30 Ml 3.9         5285353
SMF   004.60 036.1 m E Pn      2013/05/18 22:49:09.1   0.4                          T   001.0                                5285378
SMF   004.60 036.1 m E Pg      2013/05/18 22:49:25.5   0.2                          T                                        5285427
SMF   004.60 036.1 m E Sn      2013/05/18 22:49:59.8   0.4                          T                                        5285426
SMF   004.60 036.1 m E Sg      2013/05/18 22:50:24.0  -0.2                          T   001.0       27.6  .32 Ml 3.7         5285379
HYF   004.69 023.4 m E Pn      2013/05/18 22:49:10.1   0.2                          T                                        5285429
HYF   004.69 023.4 m E P       2013/05/18 22:49:14.0   0.2                          T                                        5285428
HYF   004.69 023.4 m E Pg      2013/05/18 22:49:26.8  -0.1                          T                                        5285430
HYF   004.69 023.4 m E Sg      2013/05/18 22:50:26.8  -0.3                          T                                        5285431
ORIF  004.72 063.9 m E Pn      2013/05/18 22:49:10.0   0.6                          T   001.0                                5285384
ORIF  004.72 063.9 m E Pg      2013/05/18 22:49:28.0   0.4                          T                                        5285401
ORIF  004.72 063.9 m E Sn      2013/05/18 22:50:01.9  -0.6                          T                                        5285459
ORIF  004.72 063.9 m E Sg      2013/05/18 22:50:28.6   0.5                          T   001.0       11.6  .36 Ml 3.3         5285385
SSF   004.80 030.8 m E Pn      2013/05/18 22:49:11.9   0.5                          T   001.0                                5285380
SSF   004.80 030.8 m E Pg      2013/05/18 22:49:29.0   0.1                          T                                        5285407
SSF   004.80 030.8 m E Sn      2013/05/18 22:50:04.2  -0.1                          T                                        5285491
SSF   004.80 030.8 m E Sg      2013/05/18 22:50:30.5   0.0                          T               69.7  .42 Ml 4.1         5285408
LMR   004.84 083.7 m E Pn      2013/05/18 22:49:12.4   0.6                          T                                        5285447
LMR   004.84 083.7 m E Pg      2013/05/18 22:49:29.9   0.2                          T                                        5285448
LMR   004.84 083.7 m E Sn      2013/05/18 22:50:05.2   0.0                          T                                        5285449
LMR   004.84 083.7 m E Sg      2013/05/18 22:50:32.5   0.8                          T               11.0  .21 Ml 3.6         5285402
FRF   004.95 081.1 m E Pn      2013/05/18 22:49:14.3   0.9                          T                                        5285403
FRF   004.95 081.1 m E Pg      2013/05/18 22:49:32.1   0.3                          T                                        5285404
FRF   004.95 081.1 m E Sn      2013/05/18 22:50:08.0   0.2                          T                                        5285450
FRF   004.95 081.1 m E Sg      2013/05/18 22:50:34.4  -0.8                          T               28.3  .42 Ml 3.7         5285405
LOR   005.11 031.8 m E Pn      2013/05/18 22:49:15.6   0.1                          T   001.0                                5285371
LOR   005.11 031.8 m E Pg      2013/05/18 22:49:34.4  -0.2                          T                                        5285406
LOR   005.11 031.8 m E Sg      2013/05/18 22:50:39.7  -0.3                          T   001.0       49.7  .41 Ml 4.0         5285372
GRR   005.42 354.6 m E Pn      2013/05/18 22:49:19.5  -0.3                          T                                        5285419
GRR   005.42 354.6 m E Pg      2013/05/18 22:49:40.2  -0.2                          T                                        5285465
GRR   005.42 354.6 m E Sn      2013/05/18 22:50:18.7  -0.4                          T   001.0        8.3  .24 Ml 3.4         5285362
GRR   005.42 354.6 m E Sg      2013/05/18 22:50:48.3  -1.5                          T               11.8  .24 Ml 3.5         5285417
QUIF  005.38 337.3 m E Pn      2013/05/18 22:49:19.6   0.5                          T   001.0                                5285386
QUIF  005.38 337.3 m E Pg      2013/05/18 22:49:39.3  -0.2                          T                                        5285421
QUIF  005.38 337.3 m E Sn      2013/05/18 22:50:16.8  -1.2                          T                                        5285493
QUIF  005.38 337.3 m E Sg      2013/05/18 22:50:47.8  -0.7                          T               15.6  .33 Ml 3.6         5285492
SGMF  005.54 342.7 m E Pn      2013/05/18 22:49:21.3  -0.1                          T   001.0                                5285390
SGMF  005.54 342.7 m E Pg      2013/05/18 22:49:42.0  -0.5                          T                                        5285463
SGMF  005.54 342.7 m E Sn      2013/05/18 22:50:21.5  -0.3                          T   001.0        6.3  .28 Ml 3.3         5285391
SGMF  005.54 342.7 m E Sg      2013/05/18 22:50:52.4  -1.1                          T                9.0  .33 Ml 3.4         5285418
LDF   005.60 359.8 m E Pn      2013/05/18 22:49:21.4  -0.8                          T   001.0                                5285364
LDF   005.60 359.8 m E Pg      2013/05/18 22:49:43.5  -0.2                          T                                        5285416
LDF   005.60 359.8 m E Sn      2013/05/18 22:50:22.8  -0.6                          T   001.0                                5285365
LDF   005.60 359.8 m E Sg      2013/05/18 22:50:55.4   0.0                          T   001.0       21.4  .37 Ml 3.7         5285366
LPL   005.51 060.4 m E Pn      2013/05/18 22:49:21.6   0.3                          T                                        5285458
LPL   005.51 060.4 m E Pg      2013/05/18 22:49:42.6   0.2                          T                                        5285457
LPL   005.51 060.4 m E Sn      2013/05/18 22:50:22.0   0.5                          T                                        5285456
LPL   005.51 060.4 m E Sg      2013/05/18 22:50:53.3   0.3                          T   001.0       14.7  .45 Ml 3.5         5285373
LPG   005.52 060.7 m E Pn      2013/05/18 22:49:22.0   0.6                          T                                        5285454
LPG   005.52 060.7 m E Pg      2013/05/18 22:49:43.0   0.5                          T                                        5285453
LPG   005.52 060.7 m E Sn      2013/05/18 22:50:22.2   0.5                          T                                        5285455
LPG   005.52 060.7 m E Sg      2013/05/18 22:50:53.6   0.4                          T               19.8  .59 Ml 3.5         5285400
SBF   005.55 078.4 m E Pn      2013/05/18 22:49:22.3   0.7                          T                                        5285446
SBF   005.55 078.4 m E Pg      2013/05/18 22:49:42.6  -0.3                          T                                        5285445
SBF   005.55 078.4 m E Sn      2013/05/18 22:50:22.5   0.2                          T                                        5285444
SBF   005.55 078.4 m E Sg      2013/05/18 22:50:53.3  -0.7                          T               13.0  .24 Ml 3.7         5285443
FLN   005.78 357.4 m E Pn      2013/05/18 22:49:24.0  -0.6 178.3  1.2               T   001.0                                5285360
FLN   005.78 357.4 m E Pg      2013/05/18 22:49:46.9   0.0 177.2  0.0               T                                        5285466
FLN   005.78 357.4 m E Sn      2013/05/18 22:50:27.3  -0.2                          T                                        5285494
FLN   005.78 357.4 m E Sg      2013/05/18 22:51:00.3  -0.6 176.8  -0.4              T               18.1  .30 Ml 3.7         5285415
ROSF  005.79 338.5 m E Pn      2013/05/18 22:49:24.6  -0.1                          T   001.0                                5285388
ROSF  005.79 338.5 m E Pg      2013/05/18 22:49:47.0  -0.2                          T                                        5285464
ROSF  005.79 338.5 m E Sn      2013/05/18 22:50:27.0  -0.9                          T   001.0        9.4  .36 Ml 3.5         5285389
ROSF  005.79 338.5 m E Sg      2013/05/18 22:51:00.6  -0.7                          T               25.0  .48 Ml 3.8         5285420
CABF  005.69 048.4 m E Pn      2013/05/18 22:49:24.7   1.1                          T                                        5285413
CABF  005.69 048.4 m E Pg      2013/05/18 22:49:46.4   0.9                          T                                        5285414
CABF  005.69 048.4 m E Sn      2013/05/18 22:50:24.2  -1.5                          T                                        5285467
CABF  005.69 048.4 m E Sg      2013/05/18 22:50:58.6   0.1                          T   001.0       40.6  .59 Ml 3.9         5285346
SFTF  006.33 032.8 m E Pn      2013/05/18 22:49:32.6   0.4                          T                                        5285476
SFTF  006.33 032.8 m E Pg      2013/05/18 22:49:56.9  -0.3                          T                                        5285475
SFTF  006.33 032.8 m E Sn      2013/05/18 22:50:41.3   0.4                          T                                        5285474
SFTF  006.33 032.8 m E Sg      2013/05/18 22:51:18.8   0.5                          T               63.7  .80 Ml 4.1         5285410
MEZF  006.58 031.4 m E Pn      2013/05/18 22:49:35.7   0.2 211.4  -3.6              T                                        5285480
MEZF  006.58 031.4 m E Pg      2013/05/18 22:50:02.0   0.3 211.8  -3.3              T                                        5285479
MEZF  006.58 031.4 m E Sn      2013/05/18 22:50:46.7   0.0                          T                                        5285477
MEZF  006.58 031.4 m E Sg      2013/05/18 22:51:29.4   3.4                          T               35.9  .47 Ml 4.1         5285409
MBDF  005.26 068.4 m E Pg      2013/05/18 22:49:37.8   0.3                          T                                        5285399
MBDF  005.26 068.4 m E Sn      2013/05/18 22:50:15.5   0.2                          T                                        5285442
MBDF  005.26 068.4 m E Sg      2013/05/18 22:50:45.0   0.1                          T               12.2  .69 Ml 3.2         5285460
PGF   006.71 090.7 m E Pn      2013/05/18 22:49:38.3   0.9                          T   001.0                                5285376
PGF   006.71 090.7 m E Sn      2013/05/18 22:50:50.9   1.0                          T   001.0        4.5  .28 Ml 3.7         5285377
HAU   006.75 039.8 m E Pn      2013/05/18 22:49:38.5   0.6                          T                                        5285472
HAU   006.75 039.8 m E Pg      2013/05/18 22:50:06.3   1.4                          T                                        5285473
HAU   006.75 039.8 m E Sn      2013/05/18 22:50:49.8  -1.1                          T                                        5285471
HAU   006.75 039.8 m E Sg      2013/05/18 22:51:30.6  -0.8                          T               18.2  .46 Ml 3.6         5285411
HINF  006.86 043.0 m E Pn      2013/05/18 22:49:39.0  -0.5                          T                                        5285470
HINF  006.86 043.0 m E Pg      2013/05/18 22:50:07.8   0.8                          T                                        5285469
HINF  006.86 043.0 m E Sn      2013/05/18 22:50:54.3   0.7                          T                                        5285468
HINF  006.86 043.0 m E Sg      2013/05/18 22:51:36.7   1.7                          T                8.6  .34 Ml 3.6         5285412
PAGF  006.89 034.2 m E Pn      2013/05/18 22:49:39.8   0.0                          T                                        5285481
PAGF  006.89 034.2 m E Pg      2013/05/18 22:50:07.4   0.0                          T                                        5285482
PAGF  006.89 034.2 m E Sn      2013/05/18 22:50:54.3   0.2                          T                                        5285478
PAGF  006.89 034.2 m E Sg      2013/05/18 22:51:35.8   0.1                          T              111.9 1.09 Ml 4.2         5285483
BAIF  007.66 021.2 m E Pn      2013/05/18 22:49:50.5   0.2                          T   001.0                                5285345
BAIF  007.66 021.2 m E Sn      2013/05/18 22:51:12.0  -0.6                          T                                        5285490
BAIF  007.66 021.2 m E Sg      2013/05/18 22:51:59.8   0.0                          T               17.3  .68 Ml 3.8         5285489
GIVF  007.87 023.7 m E Pn      2013/05/18 22:49:53.5   0.4                          T                                        5285486
GIVF  007.87 023.7 m E Pg      2013/05/18 22:50:25.6   0.1                          T                                        5285485
GIVF  007.87 023.7 m E Sn      2013/05/18 22:51:17.6  -0.1                          T                                        5285487
