EVENT     300450
    Date      Time       Latitude Longitude    Depth    Ndef Nsta Gap    Mag1  N    Mag2  N    Mag3  N   Author         ID
       rms   OT_Error      Smajor Sminor Az        Err   mdist  Mdist     Err        Err        Err      Quality

2013/06/07 10:14:09.3     43.0089    -.7088      2.0       6    3 162             Md 1.4  3              bulletin    300550
                                                                                                         _ldg
      0.42   +-  0.22      10.7    3.8   17.81 +-  0.0    0.16   0.77              +-0.0                 m i ke

PYRENEES
Sta     Dist  EvAz     Phase      Date       Time     TRes  Azim  AzRes  Slow  SRes Def   SNR       Amp   Per   Mag1   Mag2       ID
ETSF  000.16 135.0 m E Pg      2013/06/07 10:14:12.3  -0.3                          T                                        5305880
ETSF  000.16 135.0 m E Sg      2013/06/07 10:14:15.2   0.4                          T                3.8  .18        Md 1.5  5305879
SJPF  000.39 285.6 m E Pg      2013/06/07 10:14:16.7  -0.2                          T                                        5305877
SJPF  000.39 285.6 m E Sg      2013/06/07 10:14:22.2   0.1                          T                1.5  .20        Md 1.4  5305878
EPF   000.77 088.0 m E Pg      2013/06/07 10:14:24.2   0.3                          T                                        5305886
EPF   000.77 088.0 m E Sg      2013/06/07 10:14:32.9  -1.0                          T                1.0  .23        Md 1.4  5305885

.
EVENT     300451
    Date      Time       Latitude Longitude    Depth    Ndef Nsta Gap    Mag1  N    Mag2  N    Mag3  N   Author         ID
       rms   OT_Error      Smajor Sminor Az        Err   mdist  Mdist     Err        Err        Err      Quality

2013/06/07 10:14:42.2     43.0886    -.6194      2.0      12    5 158  Ml 1.5  3  Md 2.0  3              bulletin    300551
                                                                                                         _ldg
      0.23   +-  0.07       2.0    1.1  173.95 +-  0.0    0.20   3.40   +-0.2      +-0.0                 m i ke

PYRENEES
Sta     Dist  EvAz     Phase      Date       Time     TRes  Azim  AzRes  Slow  SRes Def   SNR       Amp   Per   Mag1   Mag2       ID
ETSF  000.20 166.9 m E Pg      2013/06/07 10:14:46.1  -0.1                          T                                        5305891
ETSF  000.20 166.9 m E Sg      2013/06/07 10:14:48.8  -0.1                          T                8.9  .19        Md 2.0  5305890
SJPF  000.44 273.4 m E Pg      2013/06/07 10:14:50.4  -0.3                          T                                        5305889
SJPF  000.44 273.4 m E Sg      2013/06/07 10:14:56.3  -0.3                          T                2.9  .23        Md 1.9  5305888
EPF   000.71 094.4 m E Pg      2013/06/07 10:14:55.5  -0.1                          T                                        5305893
EPF   000.71 094.4 m E Sg      2013/06/07 10:15:04.3  -0.4                          T                1.9  .22        Md 2.0  5305892
MTLF  002.09 082.1 m E Pn      2013/06/07 10:15:16.4   0.0                          T                                        5305897
MTLF  002.09 082.1 m E Sn      2013/06/07 10:15:41.1  -0.3                          T                 .3  .24 Ml 1.3         5305896
LASF  003.40 071.6 m E Pn      2013/06/07 10:15:34.3   0.1                          T                                        5305895
LASF  003.40 071.6 m E Sn      2013/06/07 10:16:12.8   0.0                          T                 .2  .18 Ml 1.6         5305894

.
EVENT     300452
    Date      Time       Latitude Longitude    Depth    Ndef Nsta Gap    Mag1  N    Mag2  N    Mag3  N   Author         ID
       rms   OT_Error      Smajor Sminor Az        Err   mdist  Mdist     Err        Err        Err      Quality

2013/06/07 11:12:50.2     43.0853    -.6334      2.0      13    4 168  Ml 1.9  2  Md 2.0  3              bulletin    300552
                                                                                                         _ldg
      0.65   +-  0.07       2.0    1.1  174.03 +-  0.0    0.19   2.10   +-0.2      +-0.2                 m i ke

PYRENEES
Sta     Dist  EvAz     Phase      Date       Time     TRes  Azim  AzRes  Slow  SRes Def   SNR       Amp   Per   Mag1   Mag2       ID
ETSF  000.19 163.7 m E Pg      2013/06/07 11:12:54.3   0.1                          T                                        5305914
ETSF  000.19 163.7 m E Sg      2013/06/07 11:12:56.7  -0.1                          T               39.7  .25        Md 2.1  5305913
SJPF  000.43 273.9 m E Pg      2013/06/07 11:12:58.4  -0.1                          T                                        5305912
SJPF  000.43 273.9 m E Sg      2013/06/07 11:13:04.4   0.2                          T                5.8  .19        Md 2.1  5305911
EPF   000.72 094.1 m E Pg      2013/06/07 11:13:03.7  -0.1                          T                                        5305918
EPF   000.72 094.1 m E Sg      2013/06/07 11:13:13.1   0.0                          T                2.8  .21        Md 1.8  5305910
MTLF  002.10 082.0 m E Pn      2013/06/07 11:13:24.5   0.0                          T                                        5305917
MTLF  002.10 082.0 m E Pg      2013/06/07 11:13:29.3   0.1                          T                                        5305916
MTLF  002.10 082.0 m E Sg      2013/06/07 11:13:56.1  -0.2                          T                 .7  .21 Ml 1.8         5305915

.
EVENT     300453
    Date      Time       Latitude Longitude    Depth    Ndef Nsta Gap    Mag1  N    Mag2  N    Mag3  N   Author         ID
       rms   OT_Error      Smajor Sminor Az        Err   mdist  Mdist     Err        Err        Err      Quality

2013/06/07 11:28:25.2     43.1130    -.5956      2.0       9    4 172  Ml 1.5  1  Md 2.0  3              bulletin    300553
                                                                                                         _ldg
      0.19   +-  0.09       2.8    1.6  175.64 +-  0.0    0.22   2.07   +-         +-0.1                 m i ke

PYRENEES
Sta     Dist  EvAz     Phase      Date       Time     TRes  Azim  AzRes  Slow  SRes Def   SNR       Amp   Per   Mag1   Mag2       ID
ETSF  000.22 172.9 m E Pg      2013/06/07 11:28:29.6   0.0                          T                                        5305928
ETSF  000.22 172.9 m E Sg      2013/06/07 11:28:32.4  -0.1                          T               42.1  .22        Md 2.1  5305927
SJPF  000.46 270.3 m E Pg      2013/06/07 11:28:34.1   0.1                          T                                        5305926
SJPF  000.46 270.3 m E Sg      2013/06/07 11:28:39.9  -0.2                          T               10.7  .25        Md 2.1  5305925
EPF   000.69 096.6 m E Pg      2013/06/07 11:28:38.3   0.0                          T                                        5305941
EPF   000.69 096.6 m E Sg      2013/06/07 11:28:47.7   0.3                          T                1.8  .18        Md 2.0  5305940
MTLF  002.07 082.7 m E Pn      2013/06/07 11:28:59.3   0.2                          T                                        5305939
MTLF  002.07 082.7 m E Pg      2013/06/07 11:29:03.3  -0.3                          T                                        5305938
MTLF  002.07 082.7 m E Sn      2013/06/07 11:29:25.5   1.5                          T                 .5  .27 Ml 1.5         5305937

.
EVENT     300454
    Date      Time       Latitude Longitude    Depth    Ndef Nsta Gap    Mag1  N    Mag2  N    Mag3  N   Author         ID
       rms   OT_Error      Smajor Sminor Az        Err   mdist  Mdist     Err        Err        Err      Quality

2013/06/07 12:03:23.5     43.3091    -.4499      2.0       6    3 224             Md 1.6  3              bulletin    300554
                                                                                                         _ldg
      0.26   +-  0.26       6.7    2.8     .96 +-  0.0    0.42   0.64              +-0.0                 m i ke

PYRENEES
Sta     Dist  EvAz     Phase      Date       Time     TRes  Azim  AzRes  Slow  SRes Def   SNR       Amp   Per   Mag1   Mag2       ID
ETSF  000.42 191.1 m E Pg      2013/06/07 12:03:31.6   0.0                          T                                        5305995
ETSF  000.42 191.1 m E Sg      2013/06/07 12:03:36.9  -0.2                          T                                Md 1.6  5305994
SJPF  000.60 251.2 m E Pg      2013/06/07 12:03:34.6  -0.2                          T                                        5305991
SJPF  000.60 251.2 m E Sg      2013/06/07 12:03:43.4   0.7                          T                                Md 1.6  5305990
EPF   000.64 115.5 m E Pg      2013/06/07 12:03:35.8   0.1                          T                                        5305993
EPF   000.64 115.5 m E Sg      2013/06/07 12:03:44.0  -0.1                          T                                Md 1.5  5305992

.
EVENT     300459
    Date      Time       Latitude Longitude    Depth    Ndef Nsta Gap    Mag1  N    Mag2  N    Mag3  N   Author         ID
       rms   OT_Error      Smajor Sminor Az        Err   mdist  Mdist     Err        Err        Err      Quality

2013/06/07 13:16:30.4     42.8442    -.7688      2.0      10    4 232  Ml 1.8  2  Md 1.6  3              bulletin    300559
                                                                                                         _ldg
      0.32   +-  0.26       8.8    1.6   11.80 +-  0.0    0.16   2.24   +-0.1      +-0.0                 m i ke

PYRENEES
Sta     Dist  EvAz     Phase      Date       Time     TRes  Azim  AzRes  Slow  SRes Def   SNR       Amp   Per   Mag1   Mag2       ID
ETSF  000.16 070.5 m E Pg      2013/06/07 13:16:33.7  -0.2                          T                                        5306118
ETSF  000.16 070.5 m E Sg      2013/06/07 13:16:36.2   0.0                          T                5.6  .22        Md 1.6  5306117
SJPF  000.43 308.9 m E Pg      2013/06/07 13:16:38.7   0.0                          T                                        5306115
SJPF  000.43 308.9 m E Sg      2013/06/07 13:16:44.3  -0.1                          T                1.2  .18        Md 1.6  5306116
EPF   000.84 076.8 m E Pg      2013/06/07 13:16:46.4   0.2                          T                                        5306120
EPF   000.84 076.8 m E Sg      2013/06/07 13:16:57.5   0.4                          T                 .5  .15        Md 1.5  5306119
MTLF  002.24 076.2 m E Pn      2013/06/07 13:17:06.7  -0.1                          T                                        5306124
MTLF  002.24 076.2 m E Sn      2013/06/07 13:17:33.0  -0.4                          T                 .9  .29 Ml 1.8         5306123

.
EVENT     300460
    Date      Time       Latitude Longitude    Depth    Ndef Nsta Gap    Mag1  N    Mag2  N    Mag3  N   Author         ID
       rms   OT_Error      Smajor Sminor Az        Err   mdist  Mdist     Err        Err        Err      Quality

2013/06/07 13:22:38.5     42.9148     .0951     15.0      11    4 194  Ml 1.6  3  Md 1.5  2              bulletin    300560
                                                                                                         _ldg
      0.47   +-  0.16       9.9    1.6  171.09 +-  0.0    0.21   1.61   +-0.0      +-0.0                 m i ke

PYRENEES
Sta     Dist  EvAz     Phase      Date       Time     TRes  Azim  AzRes  Slow  SRes Def   SNR       Amp   Per   Mag1   Mag2       ID
EPF   000.21 057.2 m E Pg      2013/06/07 13:22:43.3  -0.3                          T                                        5306076
EPF   000.21 057.2 m E Sg      2013/06/07 13:22:47.3   0.3                          T               10.4  .20        Md 1.5  5306075
ETSF  000.48 268.3 m E Pg      2013/06/07 13:22:48.3   0.2                          T                                        5306073
ETSF  000.48 268.3 m E Sg      2013/06/07 13:22:53.7  -1.0                          T                6.3  .18        Md 1.5  5306074
SJPF  000.99 282.0 m E Pn      2013/06/07 13:22:56.5   0.1                          T                                        5306084
SJPF  000.99 282.0 m E Sn      2013/06/07 13:23:09.3   0.1                          T                1.1  .21 Ml 1.5         5306083
MTLF  001.61 073.9 m E Pn      2013/06/07 13:23:04.8   0.0                          T                                        5306082
MTLF  001.61 073.9 m E Sg      2013/06/07 13:23:29.7   0.2                          T                 .7  .24 Ml 1.6         5306081

.
EVENT     300457
    Date      Time       Latitude Longitude    Depth    Ndef Nsta Gap    Mag1  N    Mag2  N    Mag3  N   Author         ID
       rms   OT_Error      Smajor Sminor Az        Err   mdist  Mdist     Err        Err        Err      Quality

2013/06/07 13:37:30.4     48.7386    5.9662       .0 f    14    8 221  Ml 2.0  4  Md 2.2  1              bulletin    300557
                                                                                                         _ldg
      0.49   +-  0.14       2.3    1.0   22.33 +-  0.0    0.24   2.13   +-0.1      +-                    m i km

FRANCE
Sta     Dist  EvAz     Phase      Date       Time     TRes  Azim  AzRes  Slow  SRes Def   SNR       Amp   Per   Mag1   Mag2       ID
PAGF  000.24 221.1 m E Pg      2013/06/07 13:37:36.4   0.9  40.9  0.0               T                                        5306038
PAGF  000.24 221.1 m E Sg      2013/06/07 13:37:39.3   0.4  45.5  4.6               T              396.0  .72        Md 2.2  5306037
MEZF  000.65 249.0 m E Pg      2013/06/07 13:37:42.9   0.0  68.1  -0.2              T                                        5306044
MEZF  000.65 249.0 m E Sg      2013/06/07 13:37:51.9   0.2  72.3  3.9               T               12.6  .34                5306043
HAU   000.78 160.7 m E Pg      2013/06/07 13:37:45.3   0.0                          T                                        5306042
HAU   000.78 160.7 m E Sg      2013/06/07 13:37:55.8   0.2                          T                5.4  .30                5306041
SFTF  000.82 229.5 m E Pg      2013/06/07 13:37:46.0   0.0                          T                                        5308631
SFTF  000.82 229.5 m E Sn      2013/06/07 13:38:00.4   0.5  48.9  0.1               T               31.4  .92                5307910
HINF  001.10 147.0 m E Pg      2013/06/07 13:37:51.2  -0.1                          T                                        5306036
HINF  001.10 147.0 m E Sg      2013/06/07 13:38:05.8   0.1                          T                7.3  .41 Ml 2.1         5306035
CDF   000.93 110.1 m E Sg      2013/06/07 13:38:00.8   0.3                          T                3.9  .40 Ml 1.9         5307911
LOR   002.04 224.7 m E Pg      2013/06/07 13:38:08.3  -0.3                          T                                        5308632
LOR   002.04 224.7 m E Sg      2013/06/07 13:38:35.0  -0.1                          T                3.0  .35 Ml 2.2         5307912
CABF  002.13 177.8 m E Sn      2013/06/07 13:38:31.7   0.2                          T                1.4  .32 Ml 1.9         5308630

.
EVENT     300462
    Date      Time       Latitude Longitude    Depth    Ndef Nsta Gap    Mag1  N    Mag2  N    Mag3  N   Author         ID
       rms   OT_Error      Smajor Sminor Az        Err   mdist  Mdist     Err        Err        Err      Quality

2013/06/07 14:28:10.2     42.8335    -.7869      5.0 f     5    3 234             Md 1.6  2              bulletin    300562
                                                                                                         _ldg
      0.08   +-  0.22       7.6    1.0    9.70 +-  0.0    0.18   0.85              +-0.1                 m i ke

PYRENEES
Sta     Dist  EvAz     Phase      Date       Time     TRes  Azim  AzRes  Slow  SRes Def   SNR       Amp   Per   Mag1   Mag2       ID
ETSF  000.18 068.7 m E Pg      2013/06/07 14:28:14.1   0.0                          T                                        5306186
ETSF  000.18 068.7 m E Sg      2013/06/07 14:28:16.5  -0.1                          T               12.6  .25        Md 1.5  5306185
SJPF  000.43 311.2 m E Pg      2013/06/07 14:28:18.3  -0.1                          T                                        5306184
SJPF  000.43 311.2 m E Sg      2013/06/07 14:28:24.2   0.1                          T                2.6  .19        Md 1.6  5306183
EPF   000.85 076.3 m E Sg      2013/06/07 14:28:37.3   0.0                          T                1.6  .25                5308653

.
EVENT     300464
    Date      Time       Latitude Longitude    Depth    Ndef Nsta Gap    Mag1  N    Mag2  N    Mag3  N   Author         ID
       rms   OT_Error      Smajor Sminor Az        Err   mdist  Mdist     Err        Err        Err      Quality

2013/06/07 16:00:32.5     43.9843    7.5398      3.0 f    33    8 073  Ml 1.5  7  Md 1.6  2              bulletin    300564
                                                                                                         _ldg
      0.42   +-  0.06       1.1    1.0   10.13 +-  0.0    0.01   1.64   +-0.2      +-0.1                 m i ke

NEAR SOUTH COAST OF FRANCE
Sta     Dist  EvAz     Phase      Date       Time     TRes  Azim  AzRes  Slow  SRes Def   SNR       Amp   Per   Mag1   Mag2       ID
SBF   000.14 212.0 m E Pg      2013/06/07 16:00:35.4  -0.2                          T                                        5306192
SBF   000.14 212.0 m E Sg      2013/06/07 16:00:37.3  -0.4                          T               67.8  .25        Md 1.7  5306191
FRF   000.77 237.1 m E Pg      2013/06/07 16:00:46.9  -0.2                          T                                        5306190
FRF   000.77 237.1 m E Sg      2013/06/07 16:00:57.0  -0.1                          T                                        5308667
FRF   000.77 237.1 m E Sn      2013/06/07 16:01:00.2   0.0                          T                 .8  .22        Md 1.5  5306189
MBDF  000.92 323.7 m E Pg      2013/06/07 16:00:50.6   0.6                          T                                        5306194
MBDF  000.92 323.7 m E Sg      2013/06/07 16:01:02.5   0.5                          T                 .7  .21 Ml 1.3         5306193
LMR   000.99 229.4 m E Pg      2013/06/07 16:00:50.9  -0.2                          T                                        5306188
LMR   000.99 229.4 m E Sg      2013/06/07 16:01:03.9   0.0                          T                  1  .19 Ml 1.6         5306187
SMRF  001.42 270.3 m E Pg      2013/06/07 16:00:59.5   0.6                          T                                        5308671
SMRF  001.42 270.3 m E Sg      2013/06/07 16:01:17.7   0.4                          T                1.3  .27 Ml 1.7         5306199
ORIF  001.51 308.7 m E Pg      2013/06/07 16:01:01.1   0.3                          T                                        5308668
ORIF  001.51 308.7 m E Sg      2013/06/07 16:01:20.5   0.2                          T                1.4  .32 Ml 1.7         5306195
LPG   001.61 339.9 m E Pg      2013/06/07 16:01:03.7   0.8                          T                                        5308670
LPG   001.61 339.9 m E Sg      2013/06/07 16:01:23.8   0.1                          T                 .5  .31 Ml 1.3         5306197
LPL   001.64 339.7 m E Pg      2013/06/07 16:01:04.2   1.0                          T                                        5308669
LPL   001.64 339.7 m E Sg      2013/06/07 16:01:24.6   0.2                          T                 .6  .22 Ml 1.5         5306196

.
