EVENT     257337
    Date      Time       Latitude Longitude    Depth    Ndef Nsta Gap    Mag1  N    Mag2  N    Mag3  N   Author         ID
       rms   OT_Error      Smajor Sminor Az        Err   mdist  Mdist     Err        Err        Err      Quality

2011/03/20 15:11:43.9     45.2248    7.3662      2.0      10    4 277  Ml 1.4  2  Md 1.5  3              js067245    257337

      0.30   +-  0.24       4.1    1.8   86.19 +-  0.0    0.51   1.10   +-0.1      +-0.1                 m i ke

NORTHERN ITALY
Sta     Dist  EvAz     Phase      Date       Time     TRes  Azim  AzRes  Slow  SRes Def   SNR       Amp   Per   Mag1   Mag2       ID
LPG   000.51 302.4 m E Pg      2011/03/20 15:11:53.6  -0.4                          T                                        4662103
LPG   000.51 302.4 m E Sg      2011/03/20 15:12:00.2  -0.6                          T                2.8  .17        Md 1.6  4662104
LPL   000.53 303.4 m E Pg      2011/03/20 15:11:54.2  -0.1                          T                                        4662107
LPL   000.53 303.4 m E Sg      2011/03/20 15:12:01.1  -0.3                          T                3.8  .23        Md 1.5  4662106
MBDF  000.65 220.5 m E Pg      2011/03/20 15:11:56.3  -0.2                          T                                        4662108
MBDF  000.65 220.5 m E Sg      2011/03/20 15:12:04.9  -0.1                          T                1.5  .23        Md 1.5  4662105
ORIF  001.10 254.3 m E Pg      2011/03/20 15:12:04.7   0.1                          T                                        4662102
ORIF  001.10 254.3 m E Sg      2011/03/20 15:12:18.5  -0.4                          T                  1  .24 Ml 1.5         4662101

.
EVENT     257338
    Date      Time       Latitude Longitude    Depth    Ndef Nsta Gap    Mag1  N    Mag2  N    Mag3  N   Author         ID
       rms   OT_Error      Smajor Sminor Az        Err   mdist  Mdist     Err        Err        Err      Quality

2011/03/20 15:25:21.2     42.4901     .7424      2.0      78   15 048  Ml 2.8 18  Md 2.9  3              js067245    257338

      0.51   +-  0.05       1.2     .8  174.81 +-  0.0    0.31   5.27   +-0.3      +-0.0                 m i ke

PYRENEES
Sta     Dist  EvAz     Phase      Date       Time     TRes  Azim  AzRes  Slow  SRes Def   SNR       Amp   Per   Mag1   Mag2       ID
EPF   000.62 331.4 m E Pg      2011/03/20 15:25:32.7  -0.2                          T                                        4662116
EPF   000.62 331.4 m E Sg      2011/03/20 15:25:40.8  -0.2                          T               65.7  .20        Md 2.9  4662109
MTLF  001.38 051.4 m E Pg      2011/03/20 15:25:46.6  -0.3                          T                                        4662115
MTLF  001.38 051.4 m E Sg      2011/03/20 15:26:04.6  -0.2                          T               48.4  .28 Ml 3.2 Md 2.9  4662137
SJPF  001.58 293.9 m E Pg      2011/03/20 15:25:50.7   0.1                          T                                        4662114
SJPF  001.58 293.9 m E Sg      2011/03/20 15:26:11.2   0.2                          T               27.5  .40 Ml 2.9 Md 2.9  4662151
LFF   002.45 360.0 m E Pn      2011/03/20 15:26:02.1   1.7                          T                                        4662149
LFF   002.45 360.0 m E Sg      2011/03/20 15:26:37.0  -0.1                          T               18.7  .37 Ml 2.8         4662135
CAF   002.62 021.0 m E Pn      2011/03/20 15:26:04.2   1.5                          T                                        4662150
CAF   002.62 021.0 m E Sg      2011/03/20 15:26:43.4  -0.1                          T               11.0  .22 Ml 3.0         4662136
LASF  002.77 054.1 m E Pn      2011/03/20 15:26:04.7  -0.1                          T                                        4662142
LASF  002.77 054.1 m E Pg      2011/03/20 15:26:12.2  -0.5                          T                                        4662110
LASF  002.77 054.1 m E Sg      2011/03/20 15:26:48.2  -0.1                          T                4.9  .20 Ml 2.8         4662138
RJF   002.87 011.0 m E Pn      2011/03/20 15:26:07.2   1.1                          T                                        4662148
RJF   002.87 011.0 m E Sg      2011/03/20 15:26:51.1  -0.2                          T                8.3  .22 Ml 2.6         4662134
VIVF  003.70 049.0 m E Pn      2011/03/20 15:26:17.2  -0.3                          T                                        4662141
VIVF  003.70 049.0 m E Pg      2011/03/20 15:26:29.7  -0.2                          T                                        4662140
VIVF  003.70 049.0 m E Sg      2011/03/20 15:27:17.3  -0.1                          T                2.6  .27 Ml 2.6         4662139
TCF   003.94 015.0 m E Pn      2011/03/20 15:26:20.7   0.0                          T                                        4662123
TCF   003.94 015.0 m E Sg      2011/03/20 15:27:24.5  -0.2                          T                4.5  .37 Ml 2.8         4662128
MFF   004.16 351.5 m E Pn      2011/03/20 15:26:24.3   0.6                          T                                        4662147
MFF   004.16 351.5 m E Sg      2011/03/20 15:27:31.5  -0.1                          T                2.6  .34 Ml 2.7         4662133
BGF   004.34 019.6 m E Pn      2011/03/20 15:26:26.2   0.1                          T                                        4662145
BGF   004.34 019.6 m E Sg      2011/03/20 15:27:36.8  -0.3                          T               15.7  .36 Ml 3.4         4662131
AVF   004.69 022.5 m E Pn      2011/03/20 15:26:30.9   0.1                          T                                        4662143
AVF   004.69 022.5 m E Sg      2011/03/20 15:27:47.8  -0.2                          T                2.7  .42 Ml 2.6         4662129
SMF   004.71 027.0 m E Pn      2011/03/20 15:26:31.2   0.1                          T                                        4662144
SMF   004.71 027.0 m E Sg      2011/03/20 15:27:48.5  -0.2                          T                1.8  .32 Ml 2.5         4662130
SSF   004.98 022.3 m E Pn      2011/03/20 15:26:34.9   0.1                          T                                        4662124
SSF   004.98 022.3 m E Sg      2011/03/20 15:27:56.9  -0.2                          T                1.9  .39 Ml 2.6         4662127
LOR   005.27 023.8 m E Pn      2011/03/20 15:26:38.9   0.1                          T                                        4662125
LOR   005.27 023.8 m E Sg      2011/03/20 15:28:05.9  -0.2                          T                1.4  .26 Ml 2.7         4662126

.
EVENT     257339
    Date      Time       Latitude Longitude    Depth    Ndef Nsta Gap    Mag1  N    Mag2  N    Mag3  N   Author         ID
       rms   OT_Error      Smajor Sminor Az        Err   mdist  Mdist     Err        Err        Err      Quality

2011/03/21 00:04:12.5     44.8923   17.2071      2.0     103   25 032  Ml 3.4 16                         js067245    257339

      0.41   +-  0.05       1.7    1.0   31.43 +-  0.0    0.14  10.75   +-0.3                            m i ke

NORTHWESTERN BALKAN PEN.
Sta     Dist  EvAz     Phase      Date       Time     TRes  Azim  AzRes  Slow  SRes Def   SNR       Amp   Per   Mag1   Mag2       ID
PGF   006.39 251.4 m E Pn      2011/03/21 00:05:45.5   0.1                          T                                        4662377
PGF   006.39 251.4 m E Sn      2011/03/21 00:06:54.7   0.0                          T                5.7  .62 Ml 3.4         4662355
SBF   007.08 265.1 m E Pn      2011/03/21 00:05:55.0   0.3                          T                                        4662376
SBF   007.08 265.1 m E Sn      2011/03/21 00:07:11.1   0.0                          T                5.3  .49 Ml 3.3         4662356
MBDF  007.43 272.4 m E Pn      2011/03/21 00:05:59.1  -0.5                          T                                        4662382
MBDF  007.43 272.4 m E Sn      2011/03/21 00:07:19.6   0.1                          T                9.4  .50 Ml 3.6         4662354
LPG   007.41 278.4 m E Pn      2011/03/21 00:05:59.8   0.2                          T                                        4662378
LPG   007.41 278.4 m E Sn      2011/03/21 00:07:19.4   0.1                          T               19.9  .93 Ml 3.7         4662357
LPL   007.43 278.5 m E Pn      2011/03/21 00:05:59.9   0.2                          T                                        4662379
LPL   007.43 278.5 m E Sn      2011/03/21 00:07:19.8   0.2                          T                3.7  .59 Ml 3.1         4662358
LANF  007.62 305.8 m E Pn      2011/03/21 00:06:01.9  -0.2                          T                                        4662344
FRF   007.70 263.8 m E Pn      2011/03/21 00:06:03.3   0.2                          T                                        4662374
CDF   007.69 300.8 m E Pn      2011/03/21 00:06:03.6   0.5                          T                                        4662363
HINF  007.74 295.9 m E Pn      2011/03/21 00:06:04.0   0.3                          T                                        4662365
HINF  007.74 295.9 m E Sn      2011/03/21 00:07:26.6  -0.2                          T                3.6  .51 Ml 3.2         4662351
LMR   007.86 262.3 m E Pn      2011/03/21 00:06:05.2   0.0                          T                                        4662375
CABF  007.97 286.4 m E Pn      2011/03/21 00:06:06.7  -0.2                          T                                        4662366
ORIF  008.04 274.2 m E Pn      2011/03/21 00:06:08.3   0.4                          T                                        4662381
ORIF  008.04 274.2 m E Sn      2011/03/21 00:07:34.5   0.3                          T               14.9  .60 Ml 3.8         4662359
HAU   008.12 296.4 m E Pn      2011/03/21 00:06:08.9   0.0                          T                                        4662364
HAU   008.12 296.4 m E Sn      2011/03/21 00:07:36.0   0.1                          T               12.5  .86 Ml 3.4         4662350
SMRF  008.38 267.8 m E Pn      2011/03/21 00:06:12.7   0.3                          T                                        4662373
RUP   008.41 308.5 m E Pn      2011/03/21 00:06:12.9   0.1                          T                                        4662362
RUP   008.41 308.5 m E Sn      2011/03/21 00:07:42.9   0.1                          T                                        4662349
THEF  008.42 297.3 m E Pn      2011/03/21 00:06:13.0   0.1                          T                                        4662343
VIVF  008.90 274.2 m E Pn      2011/03/21 00:06:19.7   0.2                          T                                        4662380
VIVF  008.90 274.2 m E Sn      2011/03/21 00:07:54.6   0.0                          T                4.1  .52 Ml 3.4         4662353
SMF   009.51 285.4 m E Pn      2011/03/21 00:06:27.7   0.0                          T                                        4662368
SMF   009.51 285.4 m E Sn      2011/03/21 00:08:09.1   0.1                          T                4.2  .59 Ml 3.5         4662352
LASF  009.58 269.8 m E Pn      2011/03/21 00:06:28.6  -0.2                          T                                        4662372
LOR   009.58 289.1 m E Pn      2011/03/21 00:06:29.1   0.3                          T                                        4662361
LOR   009.58 289.1 m E Sn      2011/03/21 00:08:10.7  -0.1                          T                1.6  .38 Ml 3.3         4662348
SSF   009.78 287.7 m E Pn      2011/03/21 00:06:31.1  -0.4                          T                                        4662360
SSF   009.78 287.7 m E Sn      2011/03/21 00:08:15.7   0.0                          T                 .6  .38 Ml 3.0         4662347
AVF   009.86 286.0 m E Pn      2011/03/21 00:06:32.4   0.0                          T                                        4662367
BGF   010.18 284.5 m E Pn      2011/03/21 00:06:37.2   0.3                          T                                        4662369
TCF   010.61 282.9 m E Pn      2011/03/21 00:06:42.7  -0.1                          T                                        4662345
TCF   010.61 282.9 m E Sn      2011/03/21 00:08:35.3  -0.1                          T                3.2  .63 Ml 3.6         4662346
CAF   010.75 275.5 m E Pn      2011/03/21 00:06:44.6   0.0                          T                                        4662371

.
EVENT     257349
    Date      Time       Latitude Longitude    Depth    Ndef Nsta Gap    Mag1  N    Mag2  N    Mag3  N   Author         ID
       rms   OT_Error      Smajor Sminor Az        Err   mdist  Mdist     Err        Err        Err      Quality

2011/03/21 01:27:57.6     43.1224   -1.1457      2.0      24    3 068  Ml 1.5  2  Md 1.4  3              js067245    257349

      0.20   +-  0.03        .7     .6   12.79 +-  0.0    0.06   2.38   +-0.1      +-0.1                 m i ke

PYRENEES
Sta     Dist  EvAz     Phase      Date       Time     TRes  Azim  AzRes  Slow  SRes Def   SNR       Amp   Per   Mag1   Mag2       ID
SJPF  000.06 261.1 m E Pg      2011/03/21 01:27:59.1   0.0                          T                                        4662386
SJPF  000.06 261.1 m E Sg      2011/03/21 01:28:00.0  -0.1                          T               88.5  .23        Md 1.4  4662385
EPF   001.09 094.3 m E Pg      2011/03/21 01:28:18.2   0.1                          T                                        4662383
EPF   001.09 094.3 m E Sg      2011/03/21 01:28:32.4   0.2                          T                 .9  .23 Ml 1.5 Md 1.3  4662384
LFF   002.27 036.2 m E Pg      2011/03/21 01:28:39.6   0.0                          T                                        4662388
LFF   002.27 036.2 m E Sg      2011/03/21 01:29:08.9   0.0                          T                 .7  .22 Ml 1.6 Md 1.5  4662387

.
EVENT     257340
    Date      Time       Latitude Longitude    Depth    Ndef Nsta Gap    Mag1  N    Mag2  N    Mag3  N   Author         ID
       rms   OT_Error      Smajor Sminor Az        Err   mdist  Mdist     Err        Err        Err      Quality

2011/03/21 04:16:49.0     43.3610    4.4172      2.0      24   10 174  Ml 1.9 12  Md 2.0  3              js067245    257340

      0.08   +-  0.02        .6     .3  175.52 +-  0.0    0.82   3.00   +-0.3      +-0.0                 m i ke

NEAR SOUTH COAST OF FRANCE
Sta     Dist  EvAz     Phase      Date       Time     TRes  Azim  AzRes  Slow  SRes Def   SNR       Amp   Per   Mag1   Mag2       ID
LASF  000.82 330.6 m E Pg      2011/03/21 04:17:04.0  -0.6                          T                                        4662242
LASF  000.82 330.6 m E Sg      2011/03/21 04:17:15.2  -0.1                          T                4.5  .20        Md 2.0  4662241
SMRF  001.04 053.4 m E Pg      2011/03/21 04:17:09.3   0.7                          T                                        4662239
SMRF  001.04 053.4 m E Sg      2011/03/21 04:17:22.0  -0.1                          T                7.5  .26 Ml 2.3 Md 2.0  4662240
VIVF  001.51 006.9 m E Pg      2011/03/21 04:17:17.1   0.0                          T                                        4662238
VIVF  001.51 006.9 m E Sg      2011/03/21 04:17:36.5  -0.1                          T                1.6  .26 Ml 1.8 Md 1.9  4662237
LMR   001.53 090.3 m E Pg      2011/03/21 04:17:17.6   0.1                          T                                        4662234
LMR   001.53 090.3 m E Sg      2011/03/21 04:17:37.0  -0.1                          T                2.4  .29 Ml 2.0         4662235
MTLF  001.60 270.0 m E Pg      2011/03/21 04:17:18.9   0.0                          T                                        4662401
MTLF  001.60 270.0 m E Sg      2011/03/21 04:17:39.6  -0.1                          T                1.2  .25 Ml 1.8         4662400
FRF   001.64 082.2 m E Pg      2011/03/21 04:17:19.4  -0.1                          T                                        4662233
FRF   001.64 082.2 m E Sg      2011/03/21 04:17:40.6   0.0                          T                2.4  .26 Ml 2.1         4662236
ORIF  001.88 033.6 m E Pn      2011/03/21 04:17:20.6   0.0                          T                                        4662394
ORIF  001.88 033.6 m E Sn      2011/03/21 04:17:43.3  -0.1                          T                1.4  .40 Ml 1.7         4662393
CAF   002.31 313.5 m E Pn      2011/03/21 04:17:26.4   0.2                          T                                        4662396
CAF   002.31 313.5 m E Sg      2011/03/21 04:18:01.8   0.2                          T                1.3  .29 Ml 1.9         4662232
RJF   002.85 314.0 m E Pn      2011/03/21 04:17:33.7   0.0                          T                                        4662397
RJF   002.85 314.0 m E Sg      2011/03/21 04:18:18.3  -0.1                          T                1.2  .33 Ml 1.6         4662231
EPF   003.00 265.1 m E Pn      2011/03/21 04:17:35.8   0.0                          T                                        4662395
EPF   003.00 265.1 m E Sg      2011/03/21 04:18:23.2   0.0                          T                 .7  .23 Ml 1.9         4662230

.
EVENT     257350
    Date      Time       Latitude Longitude    Depth    Ndef Nsta Gap    Mag1  N    Mag2  N    Mag3  N   Author         ID
       rms   OT_Error      Smajor Sminor Az        Err   mdist  Mdist     Err        Err        Err      Quality

2011/03/21 05:49:16.7     43.0858    -.0457      2.0      31    5 099  Ml 1.7  5  Md 1.9  3              js067245    257350

      0.48   +-  0.09       2.0    1.2  177.25 +-  0.0    0.29   2.39   +-0.2      +-0.0                 m i ke

PYRENEES
Sta     Dist  EvAz     Phase      Date       Time     TRes  Azim  AzRes  Slow  SRes Def   SNR       Amp   Per   Mag1   Mag2       ID
EPF   000.29 101.0 m E Pg      2011/03/21 05:49:23.3   0.9                          T                                        4662405
EPF   000.29 101.0 m E Sg      2011/03/21 05:49:27.5   1.2                          T                5.7  .18        Md 1.9  4662403
SJPF  000.86 272.2 m E Pg      2011/03/21 05:49:33.2   0.2                          T                                        4662404
SJPF  000.86 272.2 m E Sg      2011/03/21 05:49:44.1  -0.1                          T                1.2  .26 Ml 1.4 Md 2.0  4662413
MTLF  001.67 080.5 m E Pg      2011/03/21 05:49:45.6  -2.2                          T                                        4662408
MTLF  001.67 080.5 m E Sg      2011/03/21 05:50:08.4  -1.1                          T                 .9  .30 Ml 1.6 Md 2.0  4662402
LFF   001.94 016.7 m E Pn      2011/03/21 05:49:48.9   0.1                          T                                        4662410
LFF   001.94 016.7 m E Sg      2011/03/21 05:50:17.7   0.0                          T                1.6  .32 Ml 1.7         4662411
CAF   002.39 038.9 m E Pn      2011/03/21 05:49:55.1   0.1                          T                                        4662409
CAF   002.39 038.9 m E Sg      2011/03/21 05:50:32.3   0.5                          T                 .6  .20 Ml 1.8         4662412

.
