EVENT     268816
    Date      Time       Latitude Longitude    Depth    Ndef Nsta Gap    Mag1  N    Mag2  N    Mag3  N   Author         ID
       rms   OT_Error      Smajor Sminor Az        Err   mdist  Mdist     Err        Err        Err      Quality

2012/01/19 05:10:27.0     46.6190    -.1871      2.0      67   19 129  Ml 2.5 22  Md 2.6  1              js067245    268836

      1.23   +-  0.06       1.1     .5  118.35 +-  0.0    0.03   3.70   +-0.2      +-                    m i ke

FRANCE
Sta     Dist  EvAz     Phase      Date       Time     TRes  Azim  AzRes  Slow  SRes Def   SNR       Amp   Per   Mag1   Mag2       ID
MFF   000.03 120.6 m E Pg      2012/01/19 05:10:28.4   0.4                          T                                        4820243
MFF   000.03 120.6 m E Sg      2012/01/19 05:10:29.1   0.3                          T   001.0      165.9  .17        Md 2.6  4817196
TCF   001.69 100.4 m E Pn      2012/01/19 05:10:55.9   0.1                          T   001.0                                4817198
TCF   001.69 100.4 m E Pg      2012/01/19 05:10:58.4  -0.1                          T                                        4820276
TCF   001.69 100.4 m E Sn      2012/01/19 05:11:16.0   0.2                          T   001.0                                4817199
TCF   001.69 100.4 m E Sg      2012/01/19 05:11:20.3   0.1                          T   001.0        9.2  .24 Ml 2.7         4817200
RJF   001.77 137.3 m E Pn      2012/01/19 05:10:57.0   0.1                          T   001.0                                4817174
RJF   001.77 137.3 m E Pg      2012/01/19 05:11:00.2   0.3                          T                                        4820264
RJF   001.77 137.3 m E Sn      2012/01/19 05:11:19.0   0.3                          T   001.0        7.4  .20 Ml 2.4         4817175
RJF   001.77 137.3 m E Sg      2012/01/19 05:11:23.3   0.5                          T                8.7  .22 Ml 2.4         4820240
GRR   001.83 345.8 m E Pn      2012/01/19 05:10:57.5  -0.1                          T   001.0                                4817187
GRR   001.83 345.8 m E Pg      2012/01/19 05:11:00.7  -0.3                          T                                        4820265
GRR   001.83 345.8 m E Sn      2012/01/19 05:11:19.5  -0.5                          T   001.0        5.5  .16 Ml 2.6         4817188
GRR   001.83 345.8 m E Sg      2012/01/19 05:11:24.6   0.1                          T                8.8  .24 Ml 2.6         4820242
LDF   001.98 001.2 m E Pn      2012/01/19 05:10:59.6   0.0                          T   001.0                                4817189
LDF   001.98 001.2 m E Pg      2012/01/19 05:11:03.5  -0.2                          T                                        4820266
LDF   001.98 001.2 m E Sn      2012/01/19 05:11:23.4  -0.2                          T                                        4820262
LDF   001.98 001.2 m E Sg      2012/01/19 05:11:29.1  -0.1                          T   001.0       10.3  .28 Ml 2.7         4817190
HYF   002.04 070.4 m E Pn      2012/01/19 05:11:00.5   0.0                          T                                        4820273
HYF   002.04 070.4 m E Pg      2012/01/19 05:11:04.8  -0.1                          T                                        4820272
HYF   002.04 070.4 m E Sn      2012/01/19 05:11:31.2   6.0                          T                                        4820258
LFF   001.80 158.5 m E Pg      2012/01/19 05:11:00.6   0.2                          T   001.0                                4817191
LFF   001.80 158.5 m E Sn      2012/01/19 05:11:19.5   0.2                          T   001.0       12.2  .40 Ml 2.5         4817192
LFF   001.80 158.5 m E Sg      2012/01/19 05:11:24.1   0.5                          T               12.3  .38 Ml 2.5         4820241
BGF   002.09 090.6 m E Pn      2012/01/19 05:11:01.4   0.1                          T                                        4820271
BGF   002.09 090.6 m E Pg      2012/01/19 05:11:05.9   0.1                          T                                        4820270
BGF   002.09 090.6 m E Sg      2012/01/19 05:11:31.5  -1.3                          T   001.0         13  .32 Ml 2.8         4817180
AVF   002.44 084.7 m E Pn      2012/01/19 05:11:06.4   0.4                          T   001.0                                4817176
AVF   002.44 084.7 m E Pg      2012/01/19 05:11:12.6   0.4                          T   001.0                                4817177
AVF   002.44 084.7 m E Sn      2012/01/19 05:11:34.3  -0.4                          T   001.0                                4817178
AVF   002.44 084.7 m E Sg      2012/01/19 05:11:43.3  -0.3                          T   001.0        1.8  .28 Ml 2.1         4817179
FLN   002.15 354.8 m E Pg      2012/01/19 05:11:06.8  -0.2 159.1  -15.4             T   001.0                                4817185
FLN   002.15 354.8 m E Sn      2012/01/19 05:11:27.6  -0.2 168.6  -6.0              T                                        4820261
FLN   002.15 354.8 m E Sg      2012/01/19 05:11:34.6  -0.1 167.7  -6.9              T   001.0        5.9  .24 Ml 2.5         4817186
SSF   002.57 078.8 m E Pn      2012/01/19 05:11:07.7   0.0                          T                                        4820278
SSF   002.57 078.8 m E Pg      2012/01/19 05:11:14.5  -0.2                          T                                        4820277
SSF   002.57 078.8 m E Sg      2012/01/19 05:11:47.6  -0.2                          T                1.5  .25 Ml 2.2         4820256
SGMF  002.29 316.3 m E Pg      2012/01/19 05:11:09.2  -0.4                          T                                        4820267
SGMF  002.29 316.3 m E Sn      2012/01/19 05:11:30.5  -0.6                          T   001.0                                4817209
SGMF  002.29 316.3 m E Sg      2012/01/19 05:11:39.1   0.0                          T   001.0       10.1  .68 Ml 2.4         4817173
CAF   002.31 136.3 m E Pg      2012/01/19 05:11:09.6  -0.4                          T   001.0                                4817181
CAF   002.31 136.3 m E Sn      2012/01/19 05:11:30.5  -1.1                          T   001.0                                4817182
CAF   002.31 136.3 m E Sg      2012/01/19 05:11:40.1   0.4                          T   001.0        3.8  .28 Ml 2.4         4817183
ROSF  002.71 310.5 m E Pn      2012/01/19 05:11:10.4   0.8                          T   001.0                                4817205
ROSF  002.71 310.5 m E Pg      2012/01/19 05:11:17.5   0.3                          T   001.0                                4817206
ROSF  002.71 310.5 m E Sn      2012/01/19 05:11:40.6  -0.4                          T   001.0                                4817207
ROSF  002.71 310.5 m E Sg      2012/01/19 05:11:51.0  -1.0                          T   001.0       11.7  .76 Ml 2.5         4817208
SMF   002.78 088.0 m E Pn      2012/01/19 05:11:10.6   0.0                          T                                        4820275
SMF   002.78 088.0 m E Pg      2012/01/19 05:11:18.1  -0.3                          T                                        4820274
SMF   002.78 088.0 m E Sn      2012/01/19 05:11:42.7   0.0                          T                                        4820257
SMF   002.78 088.0 m E Sg      2012/01/19 05:11:52.7  -1.4                          T   001.0        1.3  .20 Ml 2.2         4817197
LOR   002.85 075.3 m E Pn      2012/01/19 05:11:11.5   0.0 250.9  -7.4              T   001.0                                4817193
LOR   002.85 075.3 m E Pg      2012/01/19 05:11:19.7  -0.1 263.2  5.0               T                                        4820279
LOR   002.85 075.3 m E Sn      2012/01/19 05:11:44.1  -0.3 248.2  -10.0             T   001.0                                4817194
LOR   002.85 075.3 m E Sg      2012/01/19 05:11:55.8  -0.6 239.1  -19.1             T   001.0        2.3  .28 Ml 2.3         4817195
QUIF  002.41 303.7 m E Pg      2012/01/19 05:11:12.0   0.4                          T   001.0                                4817202
QUIF  002.41 303.7 m E Sn      2012/01/19 05:11:34.0   0.2                          T   001.0                                4817203
QUIF  002.41 303.7 m E Sg      2012/01/19 05:11:42.2  -0.4                          T   001.0        3.9  .24 Ml 2.5         4817204
EPF   003.61 173.8 m E Sn      2012/01/19 05:12:02.5  -0.2                          T                                        4820239
EPF   003.61 173.8 m E Sg      2012/01/19 05:12:20.7   0.6                          T   001.0        2.6  .36 Ml 2.4         4817184
MTLF  003.70 151.6 m E Sn      2012/01/19 05:12:04.4  -0.2                          T                                        4820263
MTLF  003.70 151.6 m E Sg      2012/01/19 05:12:23.1   0.3                          T   001.0          1  .28 Ml 2.1         4817201

.
EVENT     268817
    Date      Time       Latitude Longitude    Depth    Ndef Nsta Gap    Mag1  N    Mag2  N    Mag3  N   Author         ID
       rms   OT_Error      Smajor Sminor Az        Err   mdist  Mdist     Err        Err        Err      Quality

2012/01/19 05:35:42.4     43.1955   -1.5399      2.0       5    3 344  Ml 1.3  1  Md 1.6  2              js067245    268837

      0.28   +-  0.89      38.3   13.5    8.14 +-  0.0    0.24   1.39   +-         +-0.2                 m i ke

PYRENEES
Sta     Dist  EvAz     Phase      Date       Time     TRes  Azim  AzRes  Slow  SRes Def   SNR       Amp   Per   Mag1   Mag2       ID
SJPF  000.24 109.5 m E Pg      2012/01/19 05:35:46.9  -0.4                          T                                        4820302
SJPF  000.24 109.5 m E Sg      2012/01/19 05:35:50.5  -0.1                          T                9.8  .26        Md 1.7  4820303
ETSF  000.78 112.1 m E Pg      2012/01/19 05:35:57.4   0.2                          T                                        4820300
ETSF  000.78 112.1 m E Sg      2012/01/19 05:36:07.0  -0.3                          T                1.4  .39        Md 1.4  4820301
EPF   001.39 096.2 m E Sg      2012/01/19 05:36:26.3   0.0                          T                 .4  .23 Ml 1.3         4820299

.
EVENT     268822
    Date      Time       Latitude Longitude    Depth    Ndef Nsta Gap    Mag1  N    Mag2  N    Mag3  N   Author         ID
       rms   OT_Error      Smajor Sminor Az        Err   mdist  Mdist     Err        Err        Err      Quality

2012/01/19 05:47:35.6     46.3339    7.6583      2.0      21    6 066  Ml 1.5  5  Md 1.7  1              js067245    268842

      0.20   +-  0.05        .9     .9   20.08 +-  0.0    0.11   1.89   +-0.2      +-                    m i ke

SWITZERLAND
Sta     Dist  EvAz     Phase      Date       Time     TRes  Azim  AzRes  Slow  SRes Def   SNR       Amp   Per   Mag1   Mag2       ID
LPL   001.04 218.7 m E Pg      2012/01/19 05:47:55.3  -0.2                          T                                        4820324
LPL   001.04 218.7 m E Sg      2012/01/19 05:48:10.2   1.3                          T                  1  .30 Ml 1.3 Md 1.7  4820317
LPG   001.05 217.5 m E Pg      2012/01/19 05:47:55.6  -0.1                          T                                        4820325
LPG   001.05 217.5 m E Sg      2012/01/19 05:48:09.2  -0.1                          T                1.2  .30 Ml 1.4         4820326
CABF  001.12 284.9 m E Pg      2012/01/19 05:47:56.7   0.0                          T                                        4820321
CABF  001.12 284.9 m E Sg      2012/01/19 05:48:11.4   0.2                          T                 .9  .26 Ml 1.4         4820319
MBDF  001.72 201.5 m E Pg      2012/01/19 05:48:07.8  -0.1                          T                                        4820322
ORIF  001.89 222.0 m E Pg      2012/01/19 05:48:10.4  -0.4                          T                                        4820323
ORIF  001.89 222.0 m E Sg      2012/01/19 05:48:35.2   0.0                          T                1.1  .36 Ml 1.7         4820318
HINF  001.58 339.9 m E Sg      2012/01/19 05:48:25.8   0.2                          T                1.5  .29 Ml 1.8         4820320

.
EVENT     268858
    Date      Time       Latitude Longitude    Depth    Ndef Nsta Gap    Mag1  N    Mag2  N    Mag3  N   Author         ID
       rms   OT_Error      Smajor Sminor Az        Err   mdist  Mdist     Err        Err        Err      Quality

2012/01/19 09:04:16.9     44.1937    7.5862      2.0      16    4 122  Ml 1.2  2  Md 1.0  1              js067245    268878

      0.12   +-  0.04        .7     .6   37.08 +-  0.0    0.12   1.16   +-0.1      +-                    m i ke

NORTHERN ITALY
Sta     Dist  EvAz     Phase      Date       Time     TRes  Azim  AzRes  Slow  SRes Def   SNR       Amp   Per   Mag1   Mag2       ID
SBF   000.35 198.3 m E Pg      2012/01/19 09:04:23.7   0.0                          T                                        4820343
SBF   000.35 198.3 m E Sg      2012/01/19 09:04:28.1  -0.3                          T                2.6  .26        Md 1.0  4820344
MBDF  000.79 312.7 m E Pg      2012/01/19 09:04:31.9  -0.1                          T                                        4820341
MBDF  000.79 312.7 m E Sg      2012/01/19 09:04:42.2  -0.1                          T                 .6  .25                4820342
FRF   000.93 227.4 m E Pg      2012/01/19 09:04:34.3   0.0                          T                                        4820337
FRF   000.93 227.4 m E Sg      2012/01/19 09:04:46.4   0.1                          T                 .6  .24 Ml 1.2         4820340
LMR   001.16 222.6 m E Pg      2012/01/19 09:04:38.5   0.0                          T                                        4820338
LMR   001.16 222.6 m E Sg      2012/01/19 09:04:53.6   0.0                          T                 .3  .17 Ml 1.1         4820339

.
EVENT     268859
    Date      Time       Latitude Longitude    Depth    Ndef Nsta Gap    Mag1  N    Mag2  N    Mag3  N   Author         ID
       rms   OT_Error      Smajor Sminor Az        Err   mdist  Mdist     Err        Err        Err      Quality

2012/01/19 15:28:10.2     43.8079    7.8508      2.0       9    3 229  Ml 1.5  2  Md 1.5  1              js067245    268879

      0.23   +-  0.24       4.1    1.8  144.13 +-  0.0    0.11   1.20   +-0.1      +-                    m i ke

NEAR SOUTH COAST OF FRANCE
Sta     Dist  EvAz     Phase      Date       Time     TRes  Azim  AzRes  Slow  SRes Def   SNR       Amp   Per   Mag1   Mag2       ID
SBF   000.31 280.5 m E Pg      2012/01/19 15:28:16.2  -0.1                          T                                        4820349
SBF   000.31 280.5 m E Sg      2012/01/19 15:28:20.7   0.3                          T              112.1  .52        Md 1.5  4820350
MBDF  001.20 320.2 m E Pg      2012/01/19 15:28:32.9   0.0                          T                                        4820347
MBDF  001.20 320.2 m E Sg      2012/01/19 15:28:48.2  -0.3                          T                1.9  .40 Ml 1.6         4820348
LMR   001.08 244.5 m E Sg      2012/01/19 15:28:44.3  -0.2                          T                1.3  .35 Ml 1.4         4820346

.
EVENT     268860
    Date      Time       Latitude Longitude    Depth    Ndef Nsta Gap    Mag1  N    Mag2  N    Mag3  N   Author         ID
       rms   OT_Error      Smajor Sminor Az        Err   mdist  Mdist     Err        Err        Err      Quality

2012/01/19 19:08:32.9     43.3682    -.6456      2.0      33    9 091  Ml 2.0  4  Md 2.2  3              js067245    268880

      0.55   +-  0.10       2.3    1.6  141.80 +-  0.0    0.29   5.02   +-0.2      +-0.0                 m i ke

PYRENEES
Sta     Dist  EvAz     Phase      Date       Time     TRes  Azim  AzRes  Slow  SRes Def   SNR       Amp   Per   Mag1   Mag2       ID
ETSF  000.47 172.3 m E Pg      2012/01/19 19:08:41.3  -0.8                          T                                        4820372
ETSF  000.47 172.3 m E Pn      2012/01/19 19:08:43.2   0.2                          T                                        4820373
ETSF  000.47 172.3 m E Sg      2012/01/19 19:08:48.5   0.2                          T                6.9  .23        Md 2.2  4820358
SJPF  000.49 239.2 m E Pg      2012/01/19 19:08:41.7  -0.7                          T                                        4820371
SJPF  000.49 239.2 m E Sg      2012/01/19 19:08:49.5   0.6                          T                5.9  .31        Md 2.2  4820359
EPF   000.80 114.8 m E Pg      2012/01/19 19:08:47.1  -0.9                          T                                        4820374
EPF   000.80 114.8 m E Pn      2012/01/19 19:08:50.0   0.3                          T                                        4820375
EPF   000.80 114.8 m E Sg      2012/01/19 19:08:58.3  -0.1                          T               12.8  .42        Md 2.1  4820357
MTLF  002.09 089.8 m E Pn      2012/01/19 19:09:06.4  -0.8                          T                                        4820376
MTLF  002.09 089.8 m E Pg      2012/01/19 19:09:11.7   0.0                          T                                        4820364
MTLF  002.09 089.8 m E Sg      2012/01/19 19:09:38.4  -0.3                          T                1.6  .27 Ml 2.0         4820363
LFF   001.86 031.9 m E Pg      2012/01/19 19:09:07.2  -0.4                          T                                        4820370
LFF   001.86 031.9 m E Sg      2012/01/19 19:09:32.1   0.6                          T                6.0  .33 Ml 2.3         4820361
RJF   002.48 038.0 m E Pn      2012/01/19 19:09:12.6   0.0                          T                                        4820369
RJF   002.48 038.0 m E Pg      2012/01/19 19:09:18.9  -0.1                          T                                        4820367
RJF   002.48 038.0 m E Sg      2012/01/19 19:09:51.1   0.2                          T                1.9  .24 Ml 1.9         4820360
CAF   002.50 050.5 m E Pn      2012/01/19 19:09:12.9   0.1                          T                                        4820366
CAF   002.50 050.5 m E Pg      2012/01/19 19:09:19.7   0.4                          T                                        4820365
CAF   002.50 050.5 m E Sg      2012/01/19 19:09:51.4   0.0                          T                 .8  .15 Ml 2.1         4820362
LASF  003.34 076.2 m E Pn      2012/01/19 19:09:24.7   0.5                          T                                        4820377
GRR   005.02 358.4 m E Pn      2012/01/19 19:09:47.5   0.4                          T                                        4820368

.
