EVENT     294474
    Date      Time       Latitude Longitude    Depth    Ndef Nsta Gap    Mag1  N    Mag2  N    Mag3  N   Author         ID
       rms   OT_Error      Smajor Sminor Az        Err   mdist  Mdist     Err        Err        Err      Quality

2013/03/21 17:02:11.9     42.8318   -1.7896      2.0      44    7 099  Ml 3.0  6  Md 2.7  2              bulletin    294574
                                                                                                         _ldg
      0.66   +-  0.11       2.1    1.7  164.04 +-  0.0    0.16   4.30   +-0.3      +-0.0                 m i ke

PYRENEES
Sta     Dist  EvAz     Phase      Date       Time     TRes  Azim  AzRes  Slow  SRes Def   SNR       Amp   Per   Mag1   Mag2       ID
SJPF  000.50 055.6 m E Pg      2013/03/21 17:02:21.2  -0.3                          T                                        5232315
SJPF  000.50 055.6 m E Sg      2013/03/21 17:02:28.0  -0.1                          T               99.9  .31        Md 2.7  5232307
ETSF  000.91 085.4 m E Pg      2013/03/21 17:02:29.0   0.0                          T                                        5232314
ETSF  000.91 085.4 m E Sg      2013/03/21 17:02:40.5  -0.4                          T               40.3  .29 Ml 2.9 Md 2.7  5232308
EPF   001.58 082.0 m E Pg      2013/03/21 17:02:41.2  -0.1                          T                                        5232313
EPF   001.58 082.0 m E Sg      2013/03/21 17:03:01.6  -0.1                          T              145.1  .58 Ml 3.5         5232309
MTLF  002.98 078.8 m E Pn      2013/03/21 17:02:58.5   0.2                          T                                        5232312
MTLF  002.98 078.8 m E Sn      2013/03/21 17:03:32.4  -0.1                          T               12.8  .50 Ml 2.8         5232306
RJF   003.43 042.8 m E Pn      2013/03/21 17:03:04.6   0.1                          T                                        5232370
RJF   003.43 042.8 m E Sn      2013/03/21 17:03:43.0  -0.4                          T                6.0  .23 Ml 2.6         5232369
CAF   003.48 051.8 m E Pn      2013/03/21 17:03:05.2   0.0                          T                                        5232311
CAF   003.48 051.8 m E Sn      2013/03/21 17:03:44.7   0.1                          T                9.9  .31 Ml 3.0         5232304
LASF  004.30 071.2 m E Pn      2013/03/21 17:03:16.2   0.0                          T                                        5232310
LASF  004.30 071.2 m E Sn      2013/03/21 17:04:04.0   0.1                          T               17.0  .45 Ml 3.3         5232305

.
EVENT     294475
    Date      Time       Latitude Longitude    Depth    Ndef Nsta Gap    Mag1  N    Mag2  N    Mag3  N   Author         ID
       rms   OT_Error      Smajor Sminor Az        Err   mdist  Mdist     Err        Err        Err      Quality

2013/03/21 17:40:05.7     42.8418   -1.8346      2.0      18    3 151  Ml 2.0  2  Md 2.0  1              bulletin    294575
                                                                                                         _ldg
      0.62   +-  0.21       4.4    2.9   11.14 +-  0.0    0.20   1.61   +-0.2      +-                    m i ke

PYRENEES
Sta     Dist  EvAz     Phase      Date       Time     TRes  Azim  AzRes  Slow  SRes Def   SNR       Amp   Per   Mag1   Mag2       ID
SJPF  000.52 058.6 m E Pg      2013/03/21 17:40:15.3  -0.4                          T                                        5232376
SJPF  000.52 058.6 m E Sg      2013/03/21 17:40:21.6  -1.0                          T                6.7  .32        Md 2.0  5232375
ETSF  000.94 086.1 m E Pg      2013/03/21 17:40:23.8   0.3                          T                                        5232374
ETSF  000.94 086.1 m E Sg      2013/03/21 17:40:36.3   0.7                          T                3.2  .27 Ml 1.9         5232373
EPF   001.61 082.5 m E Pg      2013/03/21 17:40:35.9   0.1                          T                                        5232372
EPF   001.61 082.5 m E Sg      2013/03/21 17:40:56.0  -0.5                          T                2.8  .29 Ml 2.1         5232371

.
EVENT     294476
    Date      Time       Latitude Longitude    Depth    Ndef Nsta Gap    Mag1  N    Mag2  N    Mag3  N   Author         ID
       rms   OT_Error      Smajor Sminor Az        Err   mdist  Mdist     Err        Err        Err      Quality

2013/03/21 19:08:05.7     42.8268   -1.8609      2.0      21    3 105  Ml 2.1  2  Md 2.2  1              bulletin    294576
                                                                                                         _ldg
      0.69   +-  0.25       4.1    3.6   17.47 +-  0.0    0.21   2.67   +-0.4      +-                    m i ke

PYRENEES
Sta     Dist  EvAz     Phase      Date       Time     TRes  Azim  AzRes  Slow  SRes Def   SNR       Amp   Per   Mag1   Mag2       ID
SJPF  000.55 058.3 m E Pg      2013/03/21 19:08:16.0  -0.1                          T                                        5232382
SJPF  000.55 058.3 m E Sg      2013/03/21 19:08:22.3  -1.0                          T                8.1  .24        Md 2.2  5232381
ETSF  000.96 085.3 m E Pg      2013/03/21 19:08:24.4   0.6                          T                                        5232380
ETSF  000.96 085.3 m E Sg      2013/03/21 19:08:36.9   0.7                          T                3.0  .27 Ml 1.8         5232379
EPF   001.63 082.1 m E Pg      2013/03/21 19:08:36.6   0.5                          T                                        5232378
EPF   001.63 082.1 m E Sg      2013/03/21 19:08:57.2   0.1                          T                6.3  .29 Ml 2.4         5232377

.
EVENT     294477
    Date      Time       Latitude Longitude    Depth    Ndef Nsta Gap    Mag1  N    Mag2  N    Mag3  N   Author         ID
       rms   OT_Error      Smajor Sminor Az        Err   mdist  Mdist     Err        Err        Err      Quality

2013/03/21 19:47:21.5     42.9935   -1.8345     25.0       6    3 339  Ml 1.5  2  Md 1.8  1              bulletin    294577
                                                                                                         _ldg
      0.14   +-  0.34       9.9    5.8    4.58 +-  0.0    0.46   1.60   +-0.1      +-                    m i ke

PYRENEES
Sta     Dist  EvAz     Phase      Date       Time     TRes  Azim  AzRes  Slow  SRes Def   SNR       Amp   Per   Mag1   Mag2       ID
SJPF  000.46 074.8 m E Pg      2013/03/21 19:47:31.4   0.1                          T                                        5232388
SJPF  000.46 074.8 m E Sg      2013/03/21 19:47:37.8  -0.2                          T                3.5  .31        Md 1.8  5232387
ETSF  000.94 095.3 m E Pg      2013/03/21 19:47:39.7   0.1                          T                                        5232386
ETSF  000.94 095.3 m E Sg      2013/03/21 19:47:52.3   0.1                          T                1.4  .24 Ml 1.6         5232385
EPF   001.60 087.9 m E Pg      2013/03/21 19:47:51.3  -0.2                          T                                        5232384
EPF   001.60 087.9 m E Sg      2013/03/21 19:48:12.5   0.1                          T                 .4  .19 Ml 1.4         5232383

.
EVENT     294479
    Date      Time       Latitude Longitude    Depth    Ndef Nsta Gap    Mag1  N    Mag2  N    Mag3  N   Author         ID
       rms   OT_Error      Smajor Sminor Az        Err   mdist  Mdist     Err        Err        Err      Quality

2013/03/21 19:48:36.8     44.5091    6.6670      2.0      24    6 120  Ml 1.4  4  Md 1.4  2              bulletin    294579
                                                                                                         _ldg
      0.29   +-  0.06       1.3     .8   65.78 +-  0.0    0.11   1.18   +-0.3      +-0.0                 m i ke

FRANCE
Sta     Dist  EvAz     Phase      Date       Time     TRes  Azim  AzRes  Slow  SRes Def   SNR       Amp   Per   Mag1   Mag2       ID
MBDF  000.23 018.9 m E Pg      2013/03/21 19:48:41.7   0.1                          T                                        5232515
MBDF  000.23 018.9 m E Sg      2013/03/21 19:48:44.9   0.2                          T                1.7  .23        Md 1.4  5232514
ORIF  000.69 306.4 m E Pg      2013/03/21 19:48:49.8  -0.3                          T                                        5232513
ORIF  000.69 306.4 m E Sg      2013/03/21 19:48:58.8  -0.4                          T                1.3  .28        Md 1.3  5232511
FRF   000.95 180.9 m E Pg      2013/03/21 19:48:54.8   0.2                          T                                        5232512
FRF   000.95 180.9 m E Sg      2013/03/21 19:49:07.6   0.7                          T                1.6  .23 Ml 1.7         5232510
LPG   000.99 003.4 m E Pg      2013/03/21 19:48:55.7   0.0                          T                                        5232509
LPG   000.99 003.4 m E Sg      2013/03/21 19:49:08.6   0.0                          T                 .3  .18 Ml 1.1         5232508
LPL   001.01 002.6 m E Pg      2013/03/21 19:48:56.0   0.0                          T                                        5232507
LPL   001.01 002.6 m E Sg      2013/03/21 19:49:09.8   0.8                          T                 .7  .25 Ml 1.3         5232506
LMR   001.18 185.6 m E Pg      2013/03/21 19:48:58.9   0.0                          T                                        5232504
LMR   001.18 185.6 m E Sg      2013/03/21 19:49:14.7   0.6                          T                1.3  .31 Ml 1.5         5232505

.
EVENT     294478
    Date      Time       Latitude Longitude    Depth    Ndef Nsta Gap    Mag1  N    Mag2  N    Mag3  N   Author         ID
       rms   OT_Error      Smajor Sminor Az        Err   mdist  Mdist     Err        Err        Err      Quality

2013/03/21 20:25:41.4     42.8254   -1.7898      2.0      76   14 087  Ml 3.1 16  Md 3.0  2              bulletin    294578
                                                                                                         _ldg
      0.79   +-  0.10       2.1    1.5  145.40 +-  0.0    0.16   5.98   +-0.3      +-0.1                 m i ke

PYRENEES
Sta     Dist  EvAz     Phase      Date       Time     TRes  Azim  AzRes  Slow  SRes Def   SNR       Amp   Per   Mag1   Mag2       ID
SJPF  000.50 055.0 m E Pg      2013/03/21 20:25:50.5  -0.6                          T                                        5232408
SJPF  000.50 055.0 m E Sg      2013/03/21 20:25:59.1   1.4                          T              347.1  .62        Md 3.0  5232407
ETSF  000.91 085.0 m E Pg      2013/03/21 20:25:58.0  -0.5                          T                                        5232406
ETSF  000.91 085.0 m E Sg      2013/03/21 20:26:09.8  -0.5                          T                                        5238582
ETSF  000.91 085.0 m E Sn      2013/03/21 20:26:12.4  -0.1                          T              120.5  .48 Ml 3.2 Md 2.9  5232405
EPF   001.58 081.8 m E Pg      2013/03/21 20:26:10.3  -0.5                          T                                        5232404
EPF   001.58 081.8 m E Sg      2013/03/21 20:26:31.2   0.0                          T              172.3  .46 Ml 3.6         5232403
LFF   002.80 040.0 m E Pn      2013/03/21 20:26:25.6   0.4                          T                                        5232398
LFF   002.80 040.0 m E Sn      2013/03/21 20:26:57.9   0.3                          T                7.9  .36 Ml 2.6         5232397
LFF   002.80 040.0 m E Sg      2013/03/21 20:27:09.2   0.1                          T               23.7  .52 Ml 2.9         5238591
MTLF  002.98 078.7 m E Pn      2013/03/21 20:26:29.5   1.7                          T                                        5232394
MTLF  002.98 078.7 m E Sn      2013/03/21 20:27:01.9  -0.1                          T               24.5  .50 Ml 3.1         5232393
MTLF  002.98 078.7 m E Sg      2013/03/21 20:27:15.1   0.2                          T               19.8  .47 Ml 3.0         5238589
RJF   003.44 042.7 m E Pn      2013/03/21 20:26:34.2   0.2                          T                                        5232400
RJF   003.44 042.7 m E Sn      2013/03/21 20:27:12.2  -0.7                          T                9.6  .32 Ml 2.7         5232399
RJF   003.44 042.7 m E Sg      2013/03/21 20:27:29.2   0.0                          T                9.6  .38 Ml 2.6         5238590
CAF   003.49 051.7 m E Pn      2013/03/21 20:26:35.8   1.1                          T                                        5232402
CAF   003.49 051.7 m E Sn      2013/03/21 20:27:14.0  -0.2                          T               12.3  .28 Ml 3.2         5232401
LASF  004.30 071.2 m E Pn      2013/03/21 20:26:46.6   0.9                          T                                        5232396
LASF  004.30 071.2 m E Sn      2013/03/21 20:27:34.3   0.9                          T               48.1  .60 Ml 3.6         5232395
TCF   004.49 038.2 m E Pn      2013/03/21 20:26:47.9  -0.4                          T                                        5238583
TCF   004.49 038.2 m E Sn      2013/03/21 20:27:38.1   0.0                          T               10.1  .62 Ml 3.0         5238584
BGF   004.98 039.9 m E Pn      2013/03/21 20:26:54.8  -0.2                          T                                        5232392
BGF   004.98 039.9 m E Sn      2013/03/21 20:27:49.9   0.0                          T               14.5  .42 Ml 3.4         5232391
SSF   005.66 039.8 m E Pn      2013/03/21 20:27:04.2  -0.1                          T                                        5232390
SSF   005.66 039.8 m E Sn      2013/03/21 20:28:06.2   0.1                          T                6.6  .58 Ml 3.2         5232389
ORIF  005.93 066.7 m E P       2013/03/21 20:27:12.1  -0.4                          T                                        5238587
ORIF  005.93 066.7 m E Sn      2013/03/21 20:28:12.9   0.4                          T               16.7  .70 Ml 3.5         5238588
MFF   003.95 016.7 m E Sg      2013/03/21 20:27:45.6   0.3                          T                3.1  .31 Ml 2.8         5238585
VIVF  005.10 064.3 m E Sn      2013/03/21 20:27:52.7   0.2                          T                6.5  .42 Ml 3.1         5238586

.
EVENT     294496
    Date      Time       Latitude Longitude    Depth    Ndef Nsta Gap    Mag1  N    Mag2  N    Mag3  N   Author         ID
       rms   OT_Error      Smajor Sminor Az        Err   mdist  Mdist     Err        Err        Err      Quality

2013/03/21 21:10:04.0     42.7713   -1.7459      2.0      10    6 317  Ml 1.9  5  Md 2.1  2              bulletin    294596
                                                                                                         _ldg
      0.51   +-  0.67      10.1    9.8   22.27 +-  0.0    0.51   3.50   +-0.3      +-0.1                 m i ke

PYRENEES
Sta     Dist  EvAz     Phase      Date       Time     TRes  Azim  AzRes  Slow  SRes Def   SNR       Amp   Per   Mag1   Mag2       ID
SJPF  000.51 048.0 m E Pg      2013/03/21 21:10:12.8  -1.0                          T                                        5232522
SJPF  000.51 048.0 m E Sg      2013/03/21 21:10:21.1   0.6                          T               10.1  .43        Md 2.1  5232521
ETSF  000.88 081.3 m E Pg      2013/03/21 21:10:20.2  -0.4                          T                                        5232520
ETSF  000.88 081.3 m E Sg      2013/03/21 21:10:32.1   0.0                          T                1.7  .32 Ml 1.5 Md 2.2  5232519
EPF   001.55 079.7 m E Pg      2013/03/21 21:10:32.7  -0.2                          T                                        5232518
EPF   001.55 079.7 m E Sg      2013/03/21 21:10:53.8   0.7                          T                2.0  .26 Ml 2.0         5232517
CAF   003.50 050.7 m E Pn      2013/03/21 21:10:58.0   0.5                          T                                        5232516
CAF   003.50 050.7 m E Sn      2013/03/21 21:11:36.5  -0.5                          T                1.4  .27 Ml 2.2         5232523
LFF   002.82 038.8 m E Sg      2013/03/21 21:11:31.4  -0.9                          T                1.2  .25 Ml 1.9         5238594
MTLF  002.96 077.6 m E Sg      2013/03/21 21:11:37.4   0.5                          T                 .6  .28 Ml 1.8         5238593

.
EVENT     294498
    Date      Time       Latitude Longitude    Depth    Ndef Nsta Gap    Mag1  N    Mag2  N    Mag3  N   Author         ID
       rms   OT_Error      Smajor Sminor Az        Err   mdist  Mdist     Err        Err        Err      Quality

2013/03/21 21:10:41.0     42.7634   -1.8112      2.0       8    4 329  Ml 1.9  3  Md 1.7  1              bulletin    294598
                                                                                                         _ldg
      0.36   +-  0.87      14.8   11.3  121.73 +-  0.0    0.55   3.54   +-0.2      +-                    m i ke

PYRENEES
Sta     Dist  EvAz     Phase      Date       Time     TRes  Azim  AzRes  Slow  SRes Def   SNR       Amp   Per   Mag1   Mag2       ID
SJPF  000.55 050.7 m E Pg      2013/03/21 21:10:51.0  -0.6                          T                                        5232534
SJPF  000.55 050.7 m E Sg      2013/03/21 21:10:59.4   0.5                          T                4.1  .24        Md 1.7  5232533
ETSF  000.93 081.2 m E Pg      2013/03/21 21:10:58.9   0.3                          T                                        5232527
ETSF  000.93 081.2 m E Sg      2013/03/21 21:11:10.3  -0.4                          T                2.1  .28 Ml 1.7         5232532
EPF   001.60 079.7 m E Pg      2013/03/21 21:11:10.7  -0.2                          T                                        5232528
EPF   001.60 079.7 m E Sg      2013/03/21 21:11:31.9   0.2                          T                2.2  .20 Ml 2.1         5232531
CAF   003.54 051.0 m E Pn      2013/03/21 21:11:36.4   1.3                          T                                        5232535
CAF   003.54 051.0 m E Sn      2013/03/21 21:12:14.5  -0.6                          T                 .5  .26 Ml 1.8         5238595

.
EVENT     294497
    Date      Time       Latitude Longitude    Depth    Ndef Nsta Gap    Mag1  N    Mag2  N    Mag3  N   Author         ID
       rms   OT_Error      Smajor Sminor Az        Err   mdist  Mdist     Err        Err        Err      Quality

2013/03/21 21:17:47.4     42.7753   -1.8430      2.0       6    3 330  Ml 1.9  2  Md 2.0  1              bulletin    294597
                                                                                                         _ldg
      0.36   +-  0.76      13.5   12.4   22.08 +-  0.0    0.57   1.62   +-0.3      +-                    m i ke

PYRENEES
Sta     Dist  EvAz     Phase      Date       Time     TRes  Azim  AzRes  Slow  SRes Def   SNR       Amp   Per   Mag1   Mag2       ID
SJPF  000.57 053.1 m E Pg      2013/03/21 21:17:57.9  -0.3                          T                                        5232542
SJPF  000.57 053.1 m E Sg      2013/03/21 21:18:06.3   0.7                          T                2.7  .20        Md 2.0  5232541
ETSF  000.95 082.1 m E Pg      2013/03/21 21:18:05.6   0.3                          T                                        5232539
ETSF  000.95 082.1 m E Sg      2013/03/21 21:18:17.2  -0.6                          T                2.3  .28 Ml 1.7         5232540
EPF   001.62 080.2 m E Pg      2013/03/21 21:18:17.7   0.0                          T                                        5232537
EPF   001.62 080.2 m E Sg      2013/03/21 21:18:38.5  -0.1                          T                2.3  .22 Ml 2.1         5232538

.
