BEGIN GSE2.0
MSG_TYPE DATA
MSG_ID 24-NOV-1109:38:25  FRA_NDC
E-MAIL
DATA_TYPE BULLETIN
Reviewed Bulletin (REB) # P2011-046  from French NDC for regional phases     PERIOD 16 NOV 2011 TO 22 NOV 2011 S M., J-P S.
EVENT     266369
    Date      Time       Latitude Longitude    Depth    Ndef Nsta Gap    Mag1  N    Mag2  N    Mag3  N   Author         ID
       rms   OT_Error      Smajor Sminor Az        Err   mdist  Mdist     Err        Err        Err      Quality

2011/11/16 04:29:57.4     43.3453    2.3399      2.0       9    4 202  Ml 1.7  3  Md 1.3  1              js067245    266389

      0.39   +-  0.10       1.5     .8   94.53 +-  0.0    0.09   1.59   +-0.2      +-                    m i ke

FRANCE
Sta     Dist  EvAz     Phase      Date       Time     TRes  Azim  AzRes  Slow  SRes Def   SNR       Amp   Per   Mag1   Mag2       ID
MTLF  000.09 267.3 m E Pg      2011/11/16 04:29:59.3  -0.2                          T                                        4787746
MTLF  000.09 267.3 m E Sg      2011/11/16 04:30:00.6  -0.3                          T               16.3  .52        Md 1.3  4787745
LASF  001.32 055.9 m E Pg      2011/11/16 04:30:22.1   0.0                          T                                        4788211
LASF  001.32 055.9 m E Sg      2011/11/16 04:30:39.1   0.0                          T                1.7  .27 Ml 1.8         4788212
EPF   001.50 258.5 m E Pg      2011/11/16 04:30:25.7   0.3                          T                                        4788214
EPF   001.50 258.5 m E Sg      2011/11/16 04:30:45.2   0.5                          T                 .6  .22 Ml 1.4         4788215
CAF   001.59 352.9 m E Sg      2011/11/16 04:30:47.8   0.1                          T                1.7  .30 Ml 1.8         4788213

.
EVENT     266368
    Date      Time       Latitude Longitude    Depth    Ndef Nsta Gap    Mag1  N    Mag2  N    Mag3  N   Author         ID
       rms   OT_Error      Smajor Sminor Az        Err   mdist  Mdist     Err        Err        Err      Quality

2011/11/16 05:49:43.6     46.7181   -1.0191      2.0      22   12 181  Ml 2.1  8  Md 2.3  3              js067245    266388

      0.75   +-  0.17       3.7    1.4   43.39 +-  0.0    0.61   3.01   +-0.2      +-0.1                 m i ke

FRANCE
Sta     Dist  EvAz     Phase      Date       Time     TRes  Azim  AzRes  Slow  SRes Def   SNR       Amp   Per   Mag1   Mag2       ID
MFF   000.61 100.6 m E Pg      2011/11/16 05:49:55.4   0.2                          T                                        4787775
MFF   000.61 100.6 m E Sg      2011/11/16 05:50:02.9  -0.3                          T                4.8  .20        Md 2.2  4787774
GRR   001.67 003.7 m E Pg      2011/11/16 05:50:15.1   0.3                          T                                        4787772
GRR   001.67 003.7 m E Sg      2011/11/16 05:50:35.8  -0.6                          T                2.1  .18 Ml 2.1 Md 2.4  4787773
SGMF  001.86 326.4 m E Pg      2011/11/16 05:50:18.2   0.1                          T                                        4787789
SGMF  001.86 326.4 m E Sg      2011/11/16 05:50:41.6  -0.5                          T                1.2  .25 Ml 1.9         4787767
LDF   001.97 017.6 m E Pg      2011/11/16 05:50:19.8  -0.4                          T                                        4787783
LDF   001.97 017.6 m E Sg      2011/11/16 05:50:45.1  -0.6                          T                1.7  .24 Ml 2.0         4787770
RJF   002.26 127.8 m E Pg      2011/11/16 05:50:25.7   0.1                          T                                        4787769
RJF   002.26 127.8 m E Sg      2011/11/16 05:50:54.1  -0.7                          T                3.0  .31 Ml 1.9 Md 2.4  4787771
TCF   002.27 099.7 m E Pg      2011/11/16 05:50:26.2   0.3                          T                                        4787785
TCF   002.27 099.7 m E Sn      2011/11/16 05:50:46.5  -0.8                          T                                        4787784
TCF   002.27 099.7 m E Sg      2011/11/16 05:50:54.8  -0.2                          T                                        4787786
QUIF  001.89 310.2 m E Sg      2011/11/16 05:50:42.4  -0.6                          T                2.3  .23 Ml 2.2         4787768
FLN   002.08 009.9 m E Sg      2011/11/16 05:50:49.3   0.4                          T                2.3  .27 Ml 2.0         4787776
ROSF  002.23 317.5 m E Sg      2011/11/16 05:50:53.5  -0.1                          T                                        4787788
BGF   002.67 092.0 m E Sg      2011/11/16 05:51:07.9   0.5                          T                4.3  .32 Ml 2.5         4787778
CAF   002.80 128.6 m E Sg      2011/11/16 05:51:11.5  -0.2                          T                                        4787782
AVF   003.01 087.0 m E Sg      2011/11/16 05:51:16.6  -1.3                          T                                        4787787

.
EVENT     266389
    Date      Time       Latitude Longitude    Depth    Ndef Nsta Gap    Mag1  N    Mag2  N    Mag3  N   Author         ID
       rms   OT_Error      Smajor Sminor Az        Err   mdist  Mdist     Err        Err        Err      Quality

2011/11/16 14:03:58.8     47.4076    5.9010       .0 f    12    7 113  Ml 2.2  4  Md 2.0  2              js067245    266409

      2.12   +-  0.24       5.6    3.8  127.01 +-  0.0    0.67   1.60   +-0.4      +-0.1                 m i km

FRANCE
Sta     Dist  EvAz     Phase      Date       Time     TRes  Azim  AzRes  Slow  SRes Def   SNR       Amp   Per   Mag1   Mag2       ID
HAU   000.67 026.6 m E Pg      2011/11/16 14:04:10.9  -0.9                          T                                        4787947
HAU   000.67 026.6 m E Sg      2011/11/16 14:04:21.7   1.0                          T               26.5  .44        Md 2.0  4787946
HINF  000.76 057.2 m E Pg      2011/11/16 14:04:13.7   0.2                          T                                        4787943
HINF  000.76 057.2 m E Sg      2011/11/16 14:04:24.1   0.5                          T               10.5  .32        Md 1.9  4787941
CABF  000.81 170.8 m E Pg      2011/11/16 14:04:14.5   0.1                          T                                        4787944
CABF  000.81 170.8 m E Sg      2011/11/16 14:04:25.1   0.0                          T               25.3  .41                4787945
PAGF  001.15 354.2 m E Pg      2011/11/16 14:04:20.5  -0.1 182.5  8.5               T                                        4787935
PAGF  001.15 354.2 m E Sg      2011/11/16 14:04:36.9   1.1 188.9  14.9              T                2.1  .37 Ml 1.6         4787936
LOR   001.40 265.0 m E Pg      2011/11/16 14:04:25.7   0.6  89.5  6.0               T                                        4787939
LOR   001.40 265.0 m E Sg      2011/11/16 14:04:43.1  -0.3 100.5  17.0              T               13.0  .34 Ml 2.6         4787940
CDF   001.37 042.1 m E Sg      2011/11/16 14:04:41.5  -1.0                          T                3.8  .25 Ml 2.3         4787937
SMF   001.60 242.3 m E Sg      2011/11/16 14:04:48.9  -0.9                          T                6.5  .30 Ml 2.4         4787942

.
EVENT     266390
    Date      Time       Latitude Longitude    Depth    Ndef Nsta Gap    Mag1  N    Mag2  N    Mag3  N   Author         ID
       rms   OT_Error      Smajor Sminor Az        Err   mdist  Mdist     Err        Err        Err      Quality

2011/11/16 14:23:56.8     42.9635     .1516      2.0      31    5 068  Ml 2.1  3  Md 2.0  2              js067245    266410

      0.76   +-  0.13       2.8    1.8   15.44 +-  0.0    0.10   2.40   +-0.2      +-0.1                 m i ke

PYRENEES
Sta     Dist  EvAz     Phase      Date       Time     TRes  Azim  AzRes  Slow  SRes Def   SNR       Amp   Per   Mag1   Mag2       ID
EPF   000.15 064.1 m E Pg      2011/11/16 14:23:59.6  -0.5                          T                                        4787963
EPF   000.15 064.1 m E Sg      2011/11/16 14:24:02.0  -0.3                          T               54.2  .22        Md 2.1  4787962
ETSF  000.53 263.2 m E Pg      2011/11/16 14:24:06.2  -0.8                          T                                        4787961
ETSF  000.53 263.2 m E Sg      2011/11/16 14:24:13.3  -0.6                          T                6.1  .22        Md 2.0  4787960
SJPF  001.02 278.9 m E Pg      2011/11/16 14:24:17.0   1.0                          T                                        4787959
SJPF  001.02 278.9 m E Sg      2011/11/16 14:24:28.2  -1.0                          T                2.5  .26 Ml 1.8         4787958
MTLF  001.56 075.3 m E Pg      2011/11/16 14:24:27.2   1.3                          T                                        4787956
MTLF  001.56 075.3 m E Sg      2011/11/16 14:24:44.3  -1.7                          T                2.3  .22 Ml 2.1         4787957
CAF   002.40 034.5 m E Sg      2011/11/16 14:25:10.6  -1.7                          T                2.1  .20 Ml 2.3         4787955

.
EVENT     266405
    Date      Time       Latitude Longitude    Depth    Ndef Nsta Gap    Mag1  N    Mag2  N    Mag3  N   Author         ID
       rms   OT_Error      Smajor Sminor Az        Err   mdist  Mdist     Err        Err        Err      Quality

2011/11/16 15:54:07.3     43.3454    2.3376      2.0       8    4 202  Ml 1.7  3  Md 1.9  1              js067245    266425

      0.40   +-  0.08       1.3     .6   93.22 +-  0.0    0.09   1.59   +-0.2      +-                    m i ke

FRANCE
Sta     Dist  EvAz     Phase      Date       Time     TRes  Azim  AzRes  Slow  SRes Def   SNR       Amp   Per   Mag1   Mag2       ID
MTLF  000.09 267.3 m E Pg      2011/11/16 15:54:09.2  -0.1                          T                                        4787914
MTLF  000.09 267.3 m E Sg      2011/11/16 15:54:10.5  -0.2                          T               23.2  .48        Md 1.9  4787913
LASF  001.32 055.9 m E Pg      2011/11/16 15:54:32.0   0.0                          T                                        4787910
LASF  001.32 055.9 m E Sg      2011/11/16 15:54:49.1   0.0                          T                 .7  .20 Ml 1.5         4787912
EPF   001.49 258.5 m E Sg      2011/11/16 15:54:55.1   0.6                          T                 .7  .18 Ml 1.7         4788304
CAF   001.59 353.0 m E Sg      2011/11/16 15:54:57.8   0.2                          T                2.2  .31 Ml 1.9         4787911

.
EVENT     266392
    Date      Time       Latitude Longitude    Depth    Ndef Nsta Gap    Mag1  N    Mag2  N    Mag3  N   Author         ID
       rms   OT_Error      Smajor Sminor Az        Err   mdist  Mdist     Err        Err        Err      Quality

2011/11/16 18:29:55.3     48.3783    9.0012     10.0      16    3 090  Ml 1.8  3  Md 2.1  1              js067245    266412

      0.42   +-  0.07       1.5    1.3  142.52 +-  0.0    0.15   1.55   +-0.3      +-                    m i ke

GERMANY
Sta     Dist  EvAz     Phase      Date       Time     TRes  Azim  AzRes  Slow  SRes Def   SNR       Amp   Per   Mag1   Mag2       ID
HINF  001.55 249.5 m E Pn      2011/11/16 18:30:20.9  -0.5                          T                                        4788031
HINF  001.55 249.5 m E Sn      2011/11/16 18:30:39.8  -0.5                          T                 .6  .21 Ml 1.5 Md 2.1  4788030
LANF  001.00 307.7 m E Sg      2011/11/16 18:30:27.3   0.3                          T                3.1  .18 Ml 2.1         4788029
CDF   001.15 272.3 m E Sg      2011/11/16 18:30:31.8  -0.2                          T                  1  .20 Ml 1.7         4788032

.
EVENT     266391
    Date      Time       Latitude Longitude    Depth    Ndef Nsta Gap    Mag1  N    Mag2  N    Mag3  N   Author         ID
       rms   OT_Error      Smajor Sminor Az        Err   mdist  Mdist     Err        Err        Err      Quality

2011/11/16 18:54:30.4     44.7288    6.8259      2.0      11    7 156  Ml 1.5  2  Md 1.4  1              js067245    266411

      0.48   +-  0.17       4.4    2.7   87.26 +-  0.0    0.04   1.17   +-0.0      +-                    m i ke

FRANCE
Sta     Dist  EvAz     Phase      Date       Time     TRes  Azim  AzRes  Slow  SRes Def   SNR       Amp   Per   Mag1   Mag2       ID
MBDF  000.04 267.2 m E Pg      2011/11/16 18:54:31.4  -0.3                          T                                        4788049
MBDF  000.04 267.2 m E Sg      2011/11/16 18:54:33.0   0.5                          T                9.1  .15        Md 1.4  4788048
ORIF  000.70 286.1 m E Pg      2011/11/16 18:54:43.7   0.0                          T                                        4788046
ORIF  000.70 286.1 m E Sg      2011/11/16 18:54:52.4  -0.5                          T                1.8  .22                4788047
LPG   000.77 356.1 m E Pg      2011/11/16 18:54:45.3   0.0                          T                                        4788054
LPG   000.77 356.1 m E Sg      2011/11/16 18:54:55.9   0.6                          T                 .8  .20                4788045
LPL   000.79 355.2 m E Pg      2011/11/16 18:54:45.3  -0.2                          T                                        4788043
LPL   000.79 355.2 m E Sg      2011/11/16 18:54:56.8   1.0                          T                 .4  .20                4788044
SBF   000.97 153.0 m E Pg      2011/11/16 18:54:48.5  -0.2                          T                                        4788055
SMRF  001.17 230.4 m E Sg      2011/11/16 18:55:07.8   0.4                          T                 .8  .21 Ml 1.5         4788053
FRF   001.17 186.4 m E Sg      2011/11/16 18:55:08.7   1.2                          T                 .7  .20 Ml 1.5         4788052

.
EVENT     266394
    Date      Time       Latitude Longitude    Depth    Ndef Nsta Gap    Mag1  N    Mag2  N    Mag3  N   Author         ID
       rms   OT_Error      Smajor Sminor Az        Err   mdist  Mdist     Err        Err        Err      Quality

2011/11/16 19:33:38.5     43.0206    -.5637      2.0      22    5 089  Ml 1.4  2  Md 1.5  2              js067245    266414

      0.42   +-  0.10       2.2    1.6  154.41 +-  0.0    0.12   2.14   +-0.3      +-0.1                 m i ke

PYRENEES
Sta     Dist  EvAz     Phase      Date       Time     TRes  Azim  AzRes  Slow  SRes Def   SNR       Amp   Per   Mag1   Mag2       ID
ETSF  000.12 178.4 m E Pg      2011/11/16 19:33:40.3  -0.9                          T                                        4788076
ETSF  000.12 178.4 m E Sg      2011/11/16 19:33:41.9  -1.1                          T               16.1  .24        Md 1.6  4788075
SJPF  000.49 281.0 m E Pg      2011/11/16 19:33:47.6  -0.4                          T                                        4788073
SJPF  000.49 281.0 m E Sg      2011/11/16 19:33:54.5   0.0                          T                2.6  .23        Md 1.4  4788074
EPF   000.66 088.9 m E Pg      2011/11/16 19:33:51.1  -0.1                          T                                        4788071
EPF   000.66 088.9 m E Sg      2011/11/16 19:33:59.5  -0.3                          T                 .9  .22                4788072
LFF   002.14 025.7 m E Pg      2011/11/16 19:34:18.2   0.0                          T                                        4788070
LFF   002.14 025.7 m E Sg      2011/11/16 19:34:45.9   0.1                          T                 .6  .18 Ml 1.6         4788069
MTLF  002.06 080.1 m E Sg      2011/11/16 19:34:43.5   0.1                          T                 .2  .22 Ml 1.1         4788351

.
EVENT     266395
    Date      Time       Latitude Longitude    Depth    Ndef Nsta Gap    Mag1  N    Mag2  N    Mag3  N   Author         ID
       rms   OT_Error      Smajor Sminor Az        Err   mdist  Mdist     Err        Err        Err      Quality

2011/11/16 19:48:41.3     43.0133    -.6227      2.0      16    4 118  Ml 1.7  1  Md 1.8  3              js067245    266415

      0.63   +-  0.13       3.7    2.0   11.32 +-  0.0    0.09   2.10   +-         +-0.1                 m i ke

PYRENEES
Sta     Dist  EvAz     Phase      Date       Time     TRes  Azim  AzRes  Slow  SRes Def   SNR       Amp   Per   Mag1   Mag2       ID
ETSF  000.12 157.9 m E Pg      2011/11/16 19:48:42.5  -1.6                          T                                        4788082
ETSF  000.12 157.9 m E Sg      2011/11/16 19:48:43.9  -2.0                          T               56.0  .26        Md 1.9  4788081
SJPF  000.45 283.0 m E Pg      2011/11/16 19:48:49.7  -0.3                          T                                        4788080
SJPF  000.45 283.0 m E Sg      2011/11/16 19:48:56.7   0.7                          T                6.9  .20        Md 1.8  4788079
EPF   000.71 088.3 m E Pg      2011/11/16 19:48:53.9  -0.9                          T                                        4788078
EPF   000.71 088.3 m E Sg      2011/11/16 19:49:03.9   0.0                          T                2.9  .20        Md 1.7  4788077
MTLF  002.10 080.1 m E Pg      2011/11/16 19:49:20.8   0.4                          T                                        4788092
MTLF  002.10 080.1 m E Sg      2011/11/16 19:49:47.2  -0.3                          T                 .8  .27 Ml 1.7         4788093

.
