EVENT     275881
    Date      Time       Latitude Longitude    Depth    Ndef Nsta Gap    Mag1  N    Mag2  N    Mag3  N   Author         ID
       rms   OT_Error      Smajor Sminor Az        Err   mdist  Mdist     Err        Err        Err      Quality

2012/05/11 12:27:54.4     47.8680    6.5571       .0 f    13    8 153  Ml 1.8  5  Md 1.8  3              bulletin    275981
                                                                                                         _ldg
      0.95   +-  0.10       1.9    1.8  131.81 +-  0.0    0.20   1.92   +-0.4      +-0.2                 m i km

FRANCE
Sta     Dist  EvAz     Phase      Date       Time     TRes  Azim  AzRes  Slow  SRes Def   SNR       Amp   Per   Mag1   Mag2       ID
HAU   000.20 314.5 m E Pg      2012/05/11 12:27:58.6  -0.1                          T                                        4944020
HAU   000.20 314.5 m E Sg      2012/05/11 12:28:00.8  -0.7                          T               21.2  .32        Md 2.0  4944019
THEF  000.52 313.9 m E Pg      2012/05/11 12:28:04.6   0.0                          T                                        4944022
THEF  000.52 313.9 m E Sg      2012/05/11 12:28:11.9   0.3                          T                8.8  .40        Md 1.6  4944021
CDF   000.73 041.2 m E Pg      2012/05/11 12:28:08.4  -0.1                          T                                        4946153
CDF   000.73 041.2 m E P       2012/05/11 12:28:10.0   0.1                          T                                        4944017
CDF   000.73 041.2 m E Sg      2012/05/11 12:28:18.2   0.0                          T                6.3  .20        Md 1.9  4944018
CABF  001.30 194.4 m E Pg      2012/05/11 12:28:18.9  -0.1                          T                                        4946154
CABF  001.30 194.4 m E Sg      2012/05/11 12:28:36.1   0.1                          T                2.2  .37 Ml 1.7         4946152
PAGF  000.88 321.3 m E Sn      2012/05/11 12:28:25.6   0.0 152.9  12.2              T                1.2  .34 Ml 1.3         4946157
SFTF  001.07 288.9 m E Sg      2012/05/11 12:28:29.2   0.3                          T                4.6  .32 Ml 2.0         4946155
MEZF  001.19 302.8 m E Sg      2012/05/11 12:28:32.6   0.1 124.1  2.5               T                8.4  .32 Ml 2.3         4946156
LOR   001.92 252.8 m E Sg      2012/05/11 12:28:55.7   0.3                          T                 .6  .18 Ml 1.8         4946158

.
EVENT     275901
    Date      Time       Latitude Longitude    Depth    Ndef Nsta Gap    Mag1  N    Mag2  N    Mag3  N   Author         ID
       rms   OT_Error      Smajor Sminor Az        Err   mdist  Mdist     Err        Err        Err      Quality

2012/05/11 15:09:33.1     44.4717    6.6894      2.0      35    8 053  Ml 1.8  6  Md 1.8  4              bulletin    276001
                                                                                                         _ldg
      0.25   +-  0.05        .9     .7   65.78 +-  0.0    0.09   1.49   +-0.2      +-0.1                 m i ke

FRANCE
Sta     Dist  EvAz     Phase      Date       Time     TRes  Azim  AzRes  Slow  SRes Def   SNR       Amp   Per   Mag1   Mag2       ID
MBDF  000.26 012.9 m E Pg      2012/05/11 15:09:38.4  -0.1                          T                                        4944051
MBDF  000.26 012.9 m E Sg      2012/05/11 15:09:42.0   0.0                          T                6.7  .18        Md 1.8  4944050
SBF   000.81 138.3 m E Pg      2012/05/11 15:09:48.2  -0.2                          T                                        4945750
SBF   000.81 138.3 m E Sg      2012/05/11 15:09:59.0   0.0                          T                2.3  .20        Md 1.7  4945749
FRF   000.91 181.9 m E Pg      2012/05/11 15:09:50.5   0.3                          T                                        4944047
FRF   000.91 181.9 m E Sg      2012/05/11 15:10:02.0   0.0                          T                4.3  .24 Ml 2.1 Md 1.8  4944046
SMRF  000.94 238.6 m E Pg      2012/05/11 15:09:51.3   0.5                          T                                        4944048
SMRF  000.94 238.6 m E Sg      2012/05/11 15:10:02.8  -0.3                          T                2.5  .30 Ml 1.7 Md 1.8  4944049
LPG   001.03 002.4 m E Pg      2012/05/11 15:09:52.6  -0.1                          T                                        4944043
LPG   001.03 002.4 m E Sg      2012/05/11 15:10:05.9  -0.2                          T                1.5  .24 Ml 1.6         4944042
LPL   001.05 001.7 m E Pg      2012/05/11 15:09:53.2   0.3                          T                                        4945752
LPL   001.05 001.7 m E Sg      2012/05/11 15:10:06.3  -0.2                          T                1.6  .26 Ml 1.6         4945751
LMR   001.14 186.6 m E Pg      2012/05/11 15:09:55.3   0.8                          T                                        4944044
LMR   001.14 186.6 m E Sg      2012/05/11 15:10:09.1  -0.2                          T                1.7  .16 Ml 1.9         4944045
VIVF  001.49 285.7 m E Pn      2012/05/11 15:09:59.0  -0.2                          T                                        4945754
VIVF  001.49 285.7 m E Sn      2012/05/11 15:10:18.0  -0.1                          T                 .9  .25 Ml 1.6         4945753

.
EVENT     275904
    Date      Time       Latitude Longitude    Depth    Ndef Nsta Gap    Mag1  N    Mag2  N    Mag3  N   Author         ID
       rms   OT_Error      Smajor Sminor Az        Err   mdist  Mdist     Err        Err        Err      Quality

2012/05/11 15:14:02.8     47.3359    5.8560       .0 f     7    4 160  Ml 2.0  1  Md 2.0  3              bulletin    276004
                                                                                                         _ldg
      0.08   +-  0.05       1.6     .7   98.91 +-  0.0    0.74   1.03   +-         +-0.1                 m i km

FRANCE
Sta     Dist  EvAz     Phase      Date       Time     TRes  Azim  AzRes  Slow  SRes Def   SNR       Amp   Per   Mag1   Mag2       ID
CABF  000.74 167.6 m E Pg      2012/05/11 15:14:17.1   0.0                          T                                        4944053
CABF  000.74 167.6 m E Sg      2012/05/11 15:14:27.2   0.1                          T                 .5  .14        Md 2.1  4944052
HAU   000.75 026.2 m E Pg      2012/05/11 15:14:17.2   0.0                          T                                        4944057
HAU   000.75 026.2 m E Sg      2012/05/11 15:14:27.3   0.1                          T                5.8  .26        Md 1.9  4944056
HINF  000.83 054.2 m E Pg      2012/05/11 15:14:18.8   0.0                          T                                        4944054
HINF  000.83 054.2 m E Sg      2012/05/11 15:14:29.6  -0.1                          T                5.3  .28        Md 2.0  4944055
SFTF  001.03 327.9 m E Sn      2012/05/11 15:14:37.5   0.0                          T                6.4  .39 Ml 2.0         4946160

.
EVENT     275902
    Date      Time       Latitude Longitude    Depth    Ndef Nsta Gap    Mag1  N    Mag2  N    Mag3  N   Author         ID
       rms   OT_Error      Smajor Sminor Az        Err   mdist  Mdist     Err        Err        Err      Quality

2012/05/11 15:46:38.6     47.1313    5.5415       .0 f    19   10 103  Ml 2.0  9  Md 1.9  1              bulletin    276002
                                                                                                         _ldg
      1.06   +-  0.10       2.2    1.5  149.21 +-  0.0    0.64   1.74   +-0.4      +-                    m i km

FRANCE
Sta     Dist  EvAz     Phase      Date       Time     TRes  Azim  AzRes  Slow  SRes Def   SNR       Amp   Per   Mag1   Mag2       ID
CABF  000.64 144.1 m E Pg      2012/05/11 15:46:51.2   0.1                          T                                        4946184
CABF  000.64 144.1 m E Sn      2012/05/11 15:47:04.1   0.0                          T                1.2  .26        Md 1.9  4946185
HAU   001.03 031.7 m E Pg      2012/05/11 15:46:58.4   0.1                          T                                        4944064
HAU   001.03 031.7 m E Sg      2012/05/11 15:47:10.5  -1.4                          T                2.5  .22 Ml 1.7         4944063
SFTF  001.13 342.6 m E Pg      2012/05/11 15:46:59.9  -0.1 167.2  5.0               T                                        4946190
SFTF  001.13 342.6 m E Sg      2012/05/11 15:47:15.0   0.2                          T                4.0  .22 Ml 2.1         4946191
HINF  001.12 051.9 m E Pg      2012/05/11 15:46:59.9   0.0                          T                                        4944061
HINF  001.12 051.9 m E Sg      2012/05/11 15:47:14.4  -0.3                          T                1.1  .17 Ml 1.7         4944062
LOR   001.16 277.4 m E Pg      2012/05/11 15:47:00.5   0.0  98.1  1.9               T                                        4946162
LOR   001.16 277.4 m E Sg      2012/05/11 15:47:15.8   0.1 111.1  14.9              T                3.4  .20 Ml 2.1         4946163
THEF  001.14 015.4 m E Pg      2012/05/11 15:47:00.6   0.4                          T                                        4946186
THEF  001.14 015.4 m E Sn      2012/05/11 15:47:15.8  -0.1                          T               23.9  .21 Ml 2.9         4946187
SMF   001.26 248.0 m E Pg      2012/05/11 15:47:02.5   0.0                          T                                        4946182
SMF   001.26 248.0 m E Sg      2012/05/11 15:47:19.0   0.0                          T                1.4  .20 Ml 1.8         4946183
SSF   001.39 267.9 m E Pg      2012/05/11 15:47:04.7  -0.2                          T                                        4946192
SSF   001.39 267.9 m E Sg      2012/05/11 15:47:23.3   0.3                          T                 .8  .18 Ml 1.7         4946161
CDF   001.74 041.8 m E Pg      2012/05/11 15:47:11.4   0.1                          T                                        4946188
CDF   001.74 041.8 m E Sn      2012/05/11 15:47:30.3   0.0                          T                1.4  .24 Ml 2.0         4946189
MEZF  001.41 346.7 m E Sn      2012/05/11 15:47:22.3  -0.1 162.0  -4.3              T                5.1  .33 Ml 2.2         4946193

.
EVENT     275903
    Date      Time       Latitude Longitude    Depth    Ndef Nsta Gap    Mag1  N    Mag2  N    Mag3  N   Author         ID
       rms   OT_Error      Smajor Sminor Az        Err   mdist  Mdist     Err        Err        Err      Quality

2012/05/11 15:55:59.2     47.5309    6.1312       .0 f    13    8 131  Ml 2.0  5  Md 2.1  2              bulletin    276003
                                                                                                         _ldg
      0.74   +-  0.08       1.7    1.2   97.62 +-  0.0    0.50   1.83   +-0.3      +-0.1                 m i km

FRANCE
Sta     Dist  EvAz     Phase      Date       Time     TRes  Azim  AzRes  Slow  SRes Def   SNR       Amp   Per   Mag1   Mag2       ID
HAU   000.50 017.0 m E Pg      2012/05/11 15:56:08.9  -0.1                          T                                        4944071
HAU   000.50 017.0 m E Sg      2012/05/11 15:56:15.7   0.0                          T                5.7  .16        Md 2.2  4944070
HINF  000.57 059.4 m E Pg      2012/05/11 15:56:10.2   0.0                          T                                        4944067
HINF  000.57 059.4 m E Sg      2012/05/11 15:56:18.0   0.2                          T                2.6  .20        Md 2.0  4944066
THEF  000.70 352.5 m E Pg      2012/05/11 15:56:12.7   0.0                          T                                        4946203
THEF  000.70 352.5 m E Sg      2012/05/11 15:56:22.0  -0.1                          T               56.1  .79                4946204
CABF  000.92 181.9 m E Pg      2012/05/11 15:56:16.9   0.1                          T                                        4946197
CABF  000.92 181.9 m E Sg      2012/05/11 15:56:28.8  -0.2                          T                1.7  .23 Ml 1.7         4946198
CDF   001.17 040.7 m E Pg      2012/05/11 15:56:21.5   0.1                          T                                        4946196
CDF   001.17 040.7 m E Sg      2012/05/11 15:56:36.8   0.0                          T               14.1  .56 Ml 2.4         4944069
SFTF  001.00 312.9 m E Sg      2012/05/11 15:56:31.6   0.2                          T                6.3  .50 Ml 1.9         4946202
MEZF  001.21 323.7 m E Sg      2012/05/11 15:56:38.0   0.0 152.7  9.8               T                4.1  .32 Ml 2.0         4946201
LANF  001.83 037.0 m E Sg      2012/05/11 15:56:57.4   0.0                          T                3.4  .32 Ml 2.2         4946200

.
EVENT     275905
    Date      Time       Latitude Longitude    Depth    Ndef Nsta Gap    Mag1  N    Mag2  N    Mag3  N   Author         ID
       rms   OT_Error      Smajor Sminor Az        Err   mdist  Mdist     Err        Err        Err      Quality

2012/05/11 16:38:16.9     40.5146    1.7687     20.0 f    73   10 082  Ml 2.6 12                         bulletin    276005
                                                                                                         _ldg
      1.07   +-  0.15       3.0    2.5  137.07 +-  0.0    0.37   4.79   +-0.3                            m i ke

BALEARIC ISLANDS, SPAIN
Sta     Dist  EvAz     Phase      Date       Time     TRes  Azim  AzRes  Slow  SRes Def   SNR       Amp   Per   Mag1   Mag2       ID
MTLF  002.84 006.6 m E Pn      2012/05/11 16:38:59.2  -0.2                          T                                        4946303
MTLF  002.84 006.6 m E Pg      2012/05/11 16:39:09.6  -0.2                          T                                        4944136
MTLF  002.84 006.6 m E Sg      2012/05/11 16:39:45.0  -1.4                          T                7.9  .36 Ml 2.7         4944135
EPF   002.73 337.4 m E P       2012/05/11 16:39:00.6  -0.2                          T                                        4944133
EPF   002.73 337.4 m E Pg      2012/05/11 16:39:07.3  -0.4                          T                                        4946207
EPF   002.73 337.4 m E Sg      2012/05/11 16:39:41.9  -1.0                          T               14.5  .24 Ml 3.1         4944134
ETSF  002.95 324.6 m E Pn      2012/05/11 16:39:00.7  -0.3                          T                                        4946304
ETSF  002.95 324.6 m E Pg      2012/05/11 16:39:11.2  -0.6                          T                                        4944132
ETSF  002.95 324.6 m E Sn      2012/05/11 16:39:33.3  -0.4                          T                                        4946308
ETSF  002.95 324.6 m E Sg      2012/05/11 16:39:48.8  -1.0                          T               12.2  .34 Ml 3.0         4944131
SJPF  003.43 320.2 m E Pn      2012/05/11 16:39:07.3  -0.1                          T                                        4946305
SJPF  003.43 320.2 m E Pg      2012/05/11 16:39:20.2  -0.3                          T                                        4944130
SJPF  003.43 320.2 m E Sg      2012/05/11 16:40:04.2  -0.4                          T                6.1  .26 Ml 2.9         4944129
LASF  003.88 022.8 m E Pn      2012/05/11 16:39:13.3  -0.3                          T                                        4945761
LASF  003.88 022.8 m E Pg      2012/05/11 16:39:28.5  -0.3                          T                                        4945759
LASF  003.88 022.8 m E Sn      2012/05/11 16:39:56.0   0.2                          T                 .5  .26 Ml 1.9         4945760
LASF  003.88 022.8 m E Sg      2012/05/11 16:40:19.0   0.3                          T                1.4  .28 Ml 2.3         4946310
CAF   004.41 002.7 m E Pn      2012/05/11 16:39:20.6  -0.2                          T                                        4946306
CAF   004.41 002.7 m E Pg      2012/05/11 16:39:37.6  -1.1                          T                                        4944127
CAF   004.41 002.7 m E Sg      2012/05/11 16:40:34.8  -0.5                          T                1.8  .19 Ml 2.7         4944128
LMR   004.52 049.9 m E Pn      2012/05/11 16:39:22.4   0.2                          T                                        4946205
LMR   004.52 049.9 m E Sn      2012/05/11 16:40:11.9   0.9                          T                1.4  .34 Ml 2.4         4946206
FRF   004.74 048.4 m E Sn      2012/05/11 16:40:16.3   0.0                          T                  1  .28 Ml 2.4         4946309
LFF   004.49 350.6 m E Sg      2012/05/11 16:40:36.6  -1.0                          T                2.5  .24 Ml 2.6         4946307
RJF   004.79 357.9 m E Sg      2012/05/11 16:40:47.2   0.1                          T                1.5  .27 Ml 2.2         4946311

.
