EVENT     257972
    Date      Time       Latitude Longitude    Depth    Ndef Nsta Gap    Mag1  N    Mag2  N    Mag3  N   Author         ID
       rms   OT_Error      Smajor Sminor Az        Err   mdist  Mdist     Err        Err        Err      Quality

2011/04/06 07:29:51.7     43.0447     .0180      6.0 f   139   26 052  Ml 3.3 21  Md 3.0  3              js067245    257972

      0.67   +-  0.05       1.1     .8  163.58 +-  0.0    0.04   7.39   +-0.3      +-0.1                 m i ke

FRANCE
Sta     Dist  EvAz     Phase      Date       Time     TRes  Azim  AzRes  Slow  SRes Def   SNR       Amp   Per   Mag1   Mag2       ID
EPF   000.24 093.4 m E Pg      2011/04/06 07:29:56.6   0.1                          T   001.0                                4668711
EPF   000.24 093.4 m E Sg      2011/04/06 07:30:00.2   0.3                          T              508.0  .20        Md 3.1  4670494
ETSF  000.45 251.2 m E Pg      2011/04/06 07:29:59.7  -0.7                          T   001.0                                4668724
ETSF  000.45 251.2 m E Sg      2011/04/06 07:30:05.5  -0.9                          T              806.5  .20        Md 3.0  4670493
SJPF  000.91 274.7 m E Pg      2011/04/06 07:30:08.1  -0.8                          T   001.0                                4668730
SJPF  000.91 274.7 m E Sg      2011/04/06 07:30:21.1   0.4                          T               64.1  .22 Ml 3.2 Md 3.0  4670492
MTLF  001.64 078.8 m E Pn      2011/04/06 07:30:18.9  -0.4                          T   001.0                                4668725
MTLF  001.64 078.8 m E Pg      2011/04/06 07:30:22.3   0.1                          T   001.0                                4668726
MTLF  001.64 078.8 m E Sg      2011/04/06 07:30:43.1  -0.2                          T   001.0       40.7  .24 Ml 3.3         4668727
LFF   001.96 015.1 m E Pn      2011/04/06 07:30:23.4  -0.3                          T   001.0                                4668715
LFF   001.96 015.1 m E Pg      2011/04/06 07:30:28.2   0.1                          T                                        4670502
LFF   001.96 015.1 m E Sn      2011/04/06 07:30:46.5  -0.7                          T   001.0                                4668716
LFF   001.96 015.1 m E Sg      2011/04/06 07:30:54.3   0.8                          T              129.0  .28 Ml 3.7         4670491
CAF   002.39 037.4 m E Pn      2011/04/06 07:30:29.4  -0.2                          T   001.0                                4668708
CAF   002.39 037.4 m E Pg      2011/04/06 07:30:36.1   0.0                          T                                        4670501
CAF   002.39 037.4 m E Sn      2011/04/06 07:30:57.0  -0.5                          T   001.0                                4668709
CAF   002.39 037.4 m E Sg      2011/04/06 07:31:07.3   0.4                          T   001.0       80.6  .28 Ml 3.8         4668710
RJF   002.50 025.0 m E Pn      2011/04/06 07:30:30.4  -0.7                          T   001.0                                4668700
RJF   002.50 025.0 m E Pg      2011/04/06 07:30:38.0  -0.1                          T   001.0                                4668701
RJF   002.50 025.0 m E Sn      2011/04/06 07:30:59.7  -0.4                          T   001.0                                4668702
RJF   002.50 025.0 m E Sg      2011/04/06 07:31:10.6   0.3                          T               46.6  .20 Ml 3.4         4670490
LASF  002.97 068.4 m E Pn      2011/04/06 07:30:37.0  -0.6                          T   001.0                                4668712
LASF  002.97 068.4 m E P       2011/04/06 07:30:40.1  -0.3                          T                                        4670500
LASF  002.97 068.4 m E Pg      2011/04/06 07:30:47.1   0.3                          T                                        4670499
LASF  002.97 068.4 m E Sg      2011/04/06 07:31:25.5   0.4                          T   001.0       19.9  .28 Ml 3.3         4668713
TCF   003.60 025.0 m E Pn      2011/04/06 07:30:45.7  -0.4                          T                                        4670519
TCF   003.60 025.0 m E Pg      2011/04/06 07:30:58.6   0.2                          T                                        4670518
TCF   003.60 025.0 m E Sn      2011/04/06 07:31:24.1  -2.3                          T   001.0                                4668721
TCF   003.60 025.0 m E Sg      2011/04/06 07:31:44.7   0.1                          T   001.0       20.1  .28 Ml 3.5         4668722
MFF   003.56 358.2 m E P       2011/04/06 07:30:48.4  -0.4                          T                                        4670504
MFF   003.56 358.2 m E Pg      2011/04/06 07:30:57.7   0.1                          T                                        4670503
MFF   003.56 358.2 m E Sg      2011/04/06 07:31:42.8  -0.5                          T   001.0       14.7  .24 Ml 3.5         4668717
VIVF  003.82 060.1 m E Pn      2011/04/06 07:30:48.7  -0.3                          T   001.0                                4668731
VIVF  003.82 060.1 m E P       2011/04/06 07:30:52.2  -0.3                          T                                        4670498
VIVF  003.82 060.1 m E Pg      2011/04/06 07:31:02.6   0.2                          T                                        4670497
VIVF  003.82 060.1 m E Sg      2011/04/06 07:31:51.0  -0.3                          T   001.0       11.4  .28 Ml 3.2         4668732
BGF   004.05 028.8 m E Pn      2011/04/06 07:30:52.0  -0.1                          T   001.0                                4668705
BGF   004.05 028.8 m E Pg      2011/04/06 07:31:06.9   0.3                          T                                        4670509
BGF   004.05 028.8 m E Sn      2011/04/06 07:31:35.6  -1.5                          T   001.0                                4668706
BGF   004.05 028.8 m E Sg      2011/04/06 07:31:59.7   1.2                          T   001.0       91.9  .40 Ml 4.0         4668707
SMRF  004.15 075.1 m E Pn      2011/04/06 07:30:54.0   0.5                          T   001.0                                4668733
SMRF  004.15 075.1 m E Pg      2011/04/06 07:31:08.6   0.1                          T                                        4670496
SMRF  004.15 075.1 m E Sg      2011/04/06 07:32:02.6   0.9                          T                2.1  .21 Ml 2.7         4670495
SMF   004.51 035.7 m E Pn      2011/04/06 07:30:58.3  -0.2                          T   001.0                                4668718
SMF   004.51 035.7 m E Pg      2011/04/06 07:31:15.4   0.2                          T                                        4670510
SMF   004.51 035.7 m E Sg      2011/04/06 07:32:13.6   0.6                          T   001.0         15  .44 Ml 3.3         4668719
SSF   004.72 030.4 m E Pn      2011/04/06 07:30:59.6  -1.7                          T                                        4670515
SSF   004.72 030.4 m E Pg      2011/04/06 07:31:18.8  -0.1                          T                                        4670514
SSF   004.72 030.4 m E Sg      2011/04/06 07:32:19.8   0.4                          T   001.0        8.3  .28 Ml 3.4         4668720
LOR   005.02 031.4 m E Pn      2011/04/06 07:31:05.1  -0.3                          T                                        4670517
LOR   005.02 031.4 m E Pg      2011/04/06 07:31:24.9   0.4                          T                                        4670516
LOR   005.02 031.4 m E Sg      2011/04/06 07:32:29.4   0.4                          T               10.4  .36 Ml 3.3         4670485
QUIF  005.36 336.4 m E Pn      2011/04/06 07:31:09.1  -0.9                          T   001.0                                4668728
QUIF  005.36 336.4 m E Sg      2011/04/06 07:32:39.8   0.3                          T                4.2  .32 Ml 3.1         4670488
GRR   005.38 353.8 m E Pn      2011/04/06 07:31:10.1  -0.2                          T                                        4670505
GRR   005.38 353.8 m E Sg      2011/04/06 07:32:40.7   0.7                          T                3.4  .30 Ml 2.9         4670489
AVF   004.43 031.2 m E Pg      2011/04/06 07:31:13.3  -0.3                          T                                        4670511
AVF   004.43 031.2 m E Sn      2011/04/06 07:31:46.2   0.0                          T   001.0                                4668703
AVF   004.43 031.2 m E Sg      2011/04/06 07:32:11.3   0.8                          T   001.0       16.3  .40 Ml 3.4         4668704
SGMF  005.51 341.8 m E P       2011/04/06 07:31:16.0  -0.4                          T                                        4670506
ROSF  005.77 337.6 m E Pn      2011/04/06 07:31:16.1   0.5                          T   001.0                                4668729
SFTF  006.25 032.6 m E P       2011/04/06 07:31:26.5  -0.3                          T                                        4670512
CDF   007.39 040.9 m E Pn      2011/04/06 07:31:37.4  -0.3                          T                                        4670513
HYF   004.61 022.8 m E Sg      2011/04/06 07:32:17.0   0.9                          T                                        4670486
LDF   005.55 359.0 m E Sg      2011/04/06 07:32:45.8   0.4                          T   001.0        4.8  .32 Ml 3.1         4668714
CABF  005.60 048.4 m E Sg      2011/04/06 07:32:46.8  -0.2                          T   001.0        5.1  .40 Ml 3.1         4668723

.
EVENT     257975
    Date      Time       Latitude Longitude    Depth    Ndef Nsta Gap    Mag1  N    Mag2  N    Mag3  N   Author         ID
       rms   OT_Error      Smajor Sminor Az        Err   mdist  Mdist     Err        Err        Err      Quality

2011/04/06 08:23:40.8     48.7501    5.9915       .0 f    18   10 101  Ml 2.4  4  Md 2.1  1              js067245    257975

      0.41   +-  0.07       1.2    1.0  107.04 +-  0.0    0.26   2.14   +-0.2      +-                    m i km

FRANCE
Sta     Dist  EvAz     Phase      Date       Time     TRes  Azim  AzRes  Slow  SRes Def   SNR       Amp   Per   Mag1   Mag2       ID
PAGF  000.26 222.2 m E Pg      2011/04/06 08:23:45.9  -0.3  45.4  3.4               T                                        4670534
PAGF  000.26 222.2 m E Sg      2011/04/06 08:23:50.6   0.5  39.4  -2.6              T               11.8  .34        Md 2.1  4670535
THEF  000.52 179.8 m E Pg      2011/04/06 08:23:51.1   0.1                          T                                        4670523
THEF  000.52 179.8 m E Sg      2011/04/06 08:23:58.1   0.0                          T               21.9  .52                4670524
HAU   000.78 162.2 m E Pg      2011/04/06 08:23:55.9   0.0                          T                                        4670531
HAU   000.78 162.2 m E Sg      2011/04/06 08:24:06.2   0.0                          T                                        4670532
HAU   000.78 162.2 m E Sn      2011/04/06 08:24:09.1  -0.5                          T               41.0  .40                4670533
CDF   000.92 111.1 m E Pg      2011/04/06 08:23:58.4   0.0                          T                                        4670536
CDF   000.92 111.1 m E Sg      2011/04/06 08:24:10.9   0.4                          T               24.1  .40 Ml 2.7         4670537
HINF  001.10 148.0 m E Pg      2011/04/06 08:24:01.9   0.2                          T                                        4670522
HINF  001.10 148.0 m E Sg      2011/04/06 08:24:16.1   0.0                          T                9.6  .34 Ml 2.3         4670530
RUP   001.18 035.9 m E Pg      2011/04/06 08:24:03.2  -0.1                          T                                        4670526
RUP   001.18 035.9 m E Sg      2011/04/06 08:24:18.8   0.0                          T                                        4670527
SFTF  000.84 229.7 m E Sg      2011/04/06 08:24:07.9   0.0                          T                5.4  .34                4670525
CABF  002.14 178.2 m E Pg      2011/04/06 08:24:20.9  -0.1                          T                                        4670520
CABF  002.14 178.2 m E Sg      2011/04/06 08:24:48.9   0.1                          T                6.5  .47 Ml 2.4         4670521
GIVF  001.55 331.0 m E Sn      2011/04/06 08:24:27.9  -0.1                          T                                        4670528
LOR   002.06 224.8 m E Sg      2011/04/06 08:24:46.2   0.1  41.5  -1.7              T                5.6  .51 Ml 2.3         4670529

.
EVENT     257973
    Date      Time       Latitude Longitude    Depth    Ndef Nsta Gap    Mag1  N    Mag2  N    Mag3  N   Author         ID
       rms   OT_Error      Smajor Sminor Az        Err   mdist  Mdist     Err        Err        Err      Quality

2011/04/06 09:27:55.0     43.1469   -1.0424     10.0 f    51    8 090  Ml 2.3  5  Md 2.6  2              js067245    257973

      0.30   +-  0.04       1.0     .7  160.06 +-  0.0    0.10   4.38   +-0.2      +-0.0                 m i ke

PYRENEES
Sta     Dist  EvAz     Phase      Date       Time     TRes  Azim  AzRes  Slow  SRes Def   SNR       Amp   Per   Mag1   Mag2       ID
SJPF  000.14 255.9 m E Pg      2011/04/06 09:27:58.5   0.1                          T                                        4670542
SJPF  000.14 255.9 m E Sg      2011/04/06 09:28:00.8   0.2                          T               99.1  .20        Md 2.6  4670543
ETSF  000.43 124.8 m E Pg      2011/04/06 09:28:03.1  -0.4                          T                                        4670540
ETSF  000.43 124.8 m E Sg      2011/04/06 09:28:09.1  -0.3                          T               29.2  .18        Md 2.6  4670541
EPF   001.02 096.1 m E Pg      2011/04/06 09:28:14.7   0.5                          T                                        4670538
EPF   001.02 096.1 m E Sg      2011/04/06 09:28:28.0   0.4                          T               10.3  .22 Ml 2.5         4670539
LFF   002.21 035.0 m E Pn      2011/04/06 09:28:29.9   0.0                          T                                        4670552
LFF   002.21 035.0 m E Sg      2011/04/06 09:29:04.5   0.1                          T                5.2  .25 Ml 2.4         4670546
MTLF  002.39 084.2 m E Pn      2011/04/06 09:28:32.8   0.3                          T                                        4670551
MTLF  002.39 084.2 m E Pg      2011/04/06 09:28:39.3  -0.1                          T                                        4670550
MTLF  002.39 084.2 m E Sg      2011/04/06 09:29:10.4   0.2                          T                2.0  .37 Ml 2.0         4670544
CAF   002.86 050.5 m E Pn      2011/04/06 09:28:38.7  -0.2                          T                                        4670553
CAF   002.86 050.5 m E Sg      2011/04/06 09:29:24.7  -0.2                          T                2.0  .27 Ml 2.3         4670547
LASF  003.68 073.7 m E Pn      2011/04/06 09:28:50.1   0.1                          T                                        4670549
LASF  003.68 073.7 m E Pg      2011/04/06 09:29:02.9  -0.2                          T                                        4670548
RJF   002.83 039.6 m E Sg      2011/04/06 09:29:23.8  -0.3                          T                1.8  .18 Ml 2.1         4670545

.
EVENT     258007
    Date      Time       Latitude Longitude    Depth    Ndef Nsta Gap    Mag1  N    Mag2  N    Mag3  N   Author         ID
       rms   OT_Error      Smajor Sminor Az        Err   mdist  Mdist     Err        Err        Err      Quality

2011/04/06 14:14:24.0     43.1288   -1.0593     10.0       6    3 112  Ml 1.4  1  Md 1.0  2              js067245    258007

      0.32   +-  0.09       3.0    1.7   21.12 +-  0.0    0.10   1.03   +-         +-0.4                 m i ke

PYRENEES
Sta     Dist  EvAz     Phase      Date       Time     TRes  Azim  AzRes  Slow  SRes Def   SNR       Amp   Per   Mag1   Mag2       ID
SJPF  000.12 262.8 m E Pg      2011/04/06 14:14:27.1   0.0                          T                                        4670555
SJPF  000.12 262.8 m E Sg      2011/04/06 14:14:29.4   0.2                          T                3.8  .24        Md 1.3  4670556
ETSF  000.43 121.9 m E Pg      2011/04/06 14:14:32.2  -0.3                          T                                        4670559
ETSF  000.43 121.9 m E Sg      2011/04/06 14:14:37.8  -0.6                          T                1.3  .23        Md  .7  4670554
EPF   001.03 095.0 m E Pg      2011/04/06 14:14:43.5   0.1                          T                                        4670557
EPF   001.03 095.0 m E Sg      2011/04/06 14:14:56.7  -0.1                          T                1.2  .30 Ml 1.4         4670558

.
EVENT     257987
    Date      Time       Latitude Longitude    Depth    Ndef Nsta Gap    Mag1  N    Mag2  N    Mag3  N   Author         ID
       rms   OT_Error      Smajor Sminor Az        Err   mdist  Mdist     Err        Err        Err      Quality

2011/04/06 15:41:56.6     43.0163   -1.1262     15.0       6    3 217  Ml 1.5  1  Md 1.2  2              js067245    257987

      0.29   +-  0.34      17.0    3.2   25.07 +-  0.0    0.12   1.08   +-         +-0.2                 m i ke

PYRENEES
Sta     Dist  EvAz     Phase      Date       Time     TRes  Azim  AzRes  Slow  SRes Def   SNR       Amp   Per   Mag1   Mag2       ID
SJPF  000.12 323.3 m E Pg      2011/04/06 15:42:00.2  -0.1                          T                                        4670564
SJPF  000.12 323.3 m E Sg      2011/04/06 15:42:02.4  -0.3                          T               14.5  .22        Md 1.4  4670565
ETSF  000.43 105.6 m E Pg      2011/04/06 15:42:05.3   0.0                          T                                        4670562
ETSF  000.43 105.6 m E Sg      2011/04/06 15:42:10.7  -0.6                          T                8.2  .28        Md 1.1  4670563
EPF   001.08 088.8 m E Pg      2011/04/06 15:42:17.2   0.3                          T                                        4670560
EPF   001.08 088.8 m E Sg      2011/04/06 15:42:30.7  -0.3                          T                 .9  .22 Ml 1.5         4670561

.
EVENT     257995
    Date      Time       Latitude Longitude    Depth    Ndef Nsta Gap    Mag1  N    Mag2  N    Mag3  N   Author         ID
       rms   OT_Error      Smajor Sminor Az        Err   mdist  Mdist     Err        Err        Err      Quality

2011/04/06 19:28:15.7     43.0030   -1.0890      2.0       6    3 213  Ml 1.0  1  Md 1.3  2              js067245    257995

      0.11   +-  0.18       6.7    1.5   29.83 +-  0.0    0.15   1.05   +-         +-0.3                 m i ke

PYRENEES
Sta     Dist  EvAz     Phase      Date       Time     TRes  Azim  AzRes  Slow  SRes Def   SNR       Amp   Per   Mag1   Mag2       ID
SJPF  000.15 317.9 m E Pg      2011/04/06 19:28:18.4  -0.4                          T                                        4670570
SJPF  000.15 317.9 m E Sg      2011/04/06 19:28:20.7  -0.2                          T                3.8  .20        Md 1.5  4670571
ETSF  000.40 104.8 m E Pg      2011/04/06 19:28:23.5   0.0                          T                                        4670568
ETSF  000.40 104.8 m E Sg      2011/04/06 19:28:28.7  -0.2                          T                 .9  .14        Md 1.0  4670569
EPF   001.05 088.0 m E Pg      2011/04/06 19:28:35.5   0.1                          T                                        4670566
EPF   001.05 088.0 m E Sg      2011/04/06 19:28:48.9  -0.1                          T                 .3  .22 Ml 1           4670567

.
