EVENT     270968
    Date      Time       Latitude Longitude    Depth    Ndef Nsta Gap    Mag1  N    Mag2  N    Mag3  N   Author         ID
       rms   OT_Error      Smajor Sminor Az        Err   mdist  Mdist     Err        Err        Err      Quality

2012/02/29 05:44:10.5     44.9510    7.1753     10.0 f   168   40 026  Ml 3.3 28  Md 3.1  7              js067245    270989

      1.51   +-  0.11       2.8    2.1   85.40 +-  0.0    0.13   7.95   +-0.3      +-0.1                 m i ke

NORTHERN ITALY
Sta     Dist  EvAz     Phase      Date       Time     TRes  Azim  AzRes  Slow  SRes Def   SNR       Amp   Per   Mag1   Mag2       ID
MBDF  000.36 232.2 m E Pg      2012/02/29 05:44:17.5  -0.4                          T   001.0                                4854194
MBDF  000.36 232.2 m E Sg      2012/02/29 05:44:22.4  -0.5                          T              787.6  .28        Md 3.1  4854230
LPG   000.62 331.4 m E Pg      2012/02/29 05:44:21.9  -0.8                          T   001.0                                4854172
LPG   000.62 331.4 m E Sg      2012/02/29 05:44:29.1  -1.9                          T   001.0      764.3  .28        Md 3.0  4854173
LPL   000.65 331.2 m E Pg      2012/02/29 05:44:22.2  -0.9                          T   001.0                                4854185
LPL   000.65 331.2 m E Sg      2012/02/29 05:44:29.8  -1.8                          T              798.9  .34        Md 3.0  4854231
ORIF  000.92 268.4 m E Pg      2012/02/29 05:44:27.5  -0.4                          T   001.0                                4854135
ORIF  000.92 268.4 m E Sg      2012/02/29 05:44:39.7  -0.3                          T   001.0      430.6  .30 Ml 3.9 Md 3.1  4854136
SBF   001.10 170.2 m E Pg      2012/02/29 05:44:30.2  -1.1                          T                                        4863399
SBF   001.10 170.2 m E P       2012/02/29 05:44:32.2   0.0                          T                                        4863395
SBF   001.10 170.2 m E Sn      2012/02/29 05:44:44.9   0.1                          T              153.6  .34 Ml 3.5 Md 3.1  4863330
FRF   001.44 195.5 m E Pg      2012/02/29 05:44:37.3  -0.1                          T   001.0                                4854155
FRF   001.44 195.5 m E Sg      2012/02/29 05:44:55.7  -0.3                          T   001.0       95.5  .25 Ml 3.6         4854156
SMRF  001.50 230.2 m E Pg      2012/02/29 05:44:38.9   0.3                          T                                        4854234
SMRF  001.50 230.2 m E Sg      2012/02/29 05:44:58.0   0.0                          T   001.0       47.2  .38 Ml 3.1 Md 3.2  4854143
LMR   001.69 196.8 m E Pg      2012/02/29 05:44:41.1  -0.8                          T                                        4854233
LMR   001.69 196.8 m E Sg      2012/02/29 05:45:03.3  -0.3                          T   001.0       87.3  .24 Ml 3.7 Md 3.0  4854168
VIVF  001.78 267.8 m E P       2012/02/29 05:44:41.7  -0.1                          T   001.0                                4854140
VIVF  001.78 267.8 m E Sn      2012/02/29 05:45:01.0   0.0                          T   001.0       68.4  .32 Ml 3.5         4854141
VIVF  001.78 267.8 m E S       2012/02/29 05:45:04.3  -0.6                          T                                        4863372
VIVF  001.78 267.8 m E Sg      2012/02/29 05:45:06.6  -0.1                          T               74.6  .34 Ml 3.5         4863371
CABF  001.83 335.8 m E P       2012/02/29 05:44:42.7   0.2                          T   001.0                                4854187
CABF  001.83 335.8 m E Pg      2012/02/29 05:44:45.2   0.6                          T                                        4863377
CABF  001.83 335.8 m E S       2012/02/29 05:45:06.5   0.4                          T   001.0                                4854189
CABF  001.83 335.8 m E Sg      2012/02/29 05:45:08.4   0.2                          T   001.0       35.5  .33 Ml 3.2         4854190
LASF  002.53 250.9 m E P       2012/02/29 05:44:51.8  -0.7                          T   001.0                                4854160
LASF  002.53 250.9 m E Pg      2012/02/29 05:44:55.9  -1.6                          T   001.0                                4854161
LASF  002.53 250.9 m E Sn      2012/02/29 05:45:20.4   1.6                          T   001.0       11.7  .22 Ml 3.0         4854162
PGF   002.74 150.5 m E P       2012/02/29 05:44:53.1  -2.6                          T   001.0                                4854175
PGF   002.74 150.5 m E Pg      2012/02/29 05:45:00.2  -1.3                          T                                        4863398
PGF   002.74 150.5 m E Sn      2012/02/29 05:45:25.1   1.0                          T   001.0        8.0  .22 Ml 3.2         4854176
PGF   002.74 150.5 m E S       2012/02/29 05:45:30.7   1.4                          T                                        4863397
HINF  002.88 355.7 m E P       2012/02/29 05:44:56.5  -1.0                          T   001.0                                4854191
HINF  002.88 355.7 m E Sn      2012/02/29 05:45:29.6   2.4                          T   001.0                                4854192
HINF  002.88 355.7 m E Sg      2012/02/29 05:45:40.4  -0.5                          T   001.0       12.8  .24 Ml 3.1         4854193
SMF   002.88 307.2 m E P       2012/02/29 05:44:56.9  -0.6                          T                                        4863333
SMF   002.88 307.2 m E Pg      2012/02/29 05:45:04.0   0.1                          T   001.0                                4854177
SMF   002.88 307.2 m E Sn      2012/02/29 05:45:28.8   1.5                          T   001.0                                4854178
SMF   002.88 307.2 m E S       2012/02/29 05:45:32.6  -0.3                          T                                        4863703
SMF   002.88 307.2 m E Sg      2012/02/29 05:45:41.7   0.7                          T   001.0       67.3  .38 Ml 3.6         4854179
HAU   003.11 349.7 m E P       2012/02/29 05:44:59.9  -0.8                          T   001.0                                4854158
HAU   003.11 349.7 m E Sg      2012/02/29 05:45:48.2   0.1                          T   001.0       16.0  .36 Ml 2.9         4854159
AVF   003.24 305.9 m E P       2012/02/29 05:45:01.4  -1.2                          T                                        4863334
AVF   003.24 305.9 m E Sn      2012/02/29 05:45:37.6   1.7                          T   001.0       12.2  .32 Ml 3.1         4854147
AVF   003.24 305.9 m E Sg      2012/02/29 05:45:52.0  -0.2                          T               13.8  .36 Ml 3.1         4863326
LOR   003.27 316.3 m E P       2012/02/29 05:45:02.5  -0.6 136.5  2.6               T   001.0                                4854169
LOR   003.27 316.3 m E Pg      2012/02/29 05:45:11.2   0.1                          T                                        4863322
LOR   003.27 316.3 m E Sn      2012/02/29 05:45:37.1   0.5 150.0  16.1              T   001.0                                4854170
LOR   003.27 316.3 m E Sg      2012/02/29 05:45:52.9  -0.2 157.4  23.5              T   001.0       18.9  .48 Ml 3.1         4854171
SSF   003.32 310.8 m E P       2012/02/29 05:45:03.1  -0.5                          T   001.0                                4854180
SSF   003.32 310.8 m E Pg      2012/02/29 05:45:12.3   0.4                          T                                        4863323
SSF   003.32 310.8 m E Sg      2012/02/29 05:45:54.7   0.2                          T   001.0       16.8  .42 Ml 3.2         4854181
THEF  003.38 346.5 m E P       2012/02/29 05:45:03.6  -1.0                          T                                        4854228
THEF  003.38 346.5 m E Sg      2012/02/29 05:45:56.5   0.0                          T               11.6  .34 Ml 3.0         4863325
CDF   003.46 001.1 m E P       2012/02/29 05:45:04.3  -1.5                          T   001.0                                4854153
CDF   003.46 001.1 m E Sn      2012/02/29 05:45:41.7   0.4                          T   001.0        9.1  .40 Ml 3.0         4854154
BGF   003.43 299.5 m E P       2012/02/29 05:45:04.5  -0.8                          T   001.0                                4854148
BGF   003.43 299.5 m E Sg      2012/02/29 05:45:58.9   0.8                          T   001.0       38.1  .38 Ml 3.5         4854149
SFTF  003.57 336.4 m E P       2012/02/29 05:45:06.9  -0.5 143.4  -11.4             T                                        4854227
SFTF  003.57 336.4 m E Sg      2012/02/29 05:46:03.8   1.3                          T               19.4  .41 Ml 3.2         4863324
CAF   003.63 271.4 m E P       2012/02/29 05:45:08.1  -0.1                          T   001.0                                4854150
CAF   003.63 271.4 m E S       2012/02/29 05:45:51.1  -0.7                          T   001.0                                4854151
CAF   003.63 271.4 m E Sg      2012/02/29 05:46:05.2   0.9                          T   001.0        4.6  .22 Ml 2.9         4854152
TCF   003.73 292.8 m E P       2012/02/29 05:45:09.2  -0.4                          T   001.0                                4854182
TCF   003.73 292.8 m E Sn      2012/02/29 05:45:49.7   2.1                          T   001.0                                4854183
TCF   003.73 292.8 m E Sg      2012/02/29 05:46:08.5   1.0                          T   001.0       16.8  .46 Ml 3.2         4854184
PAGF  003.74 345.1 m E P       2012/02/29 05:45:09.3  -0.4 169.6  5.6               T                                        4854226
HYF   003.91 307.9 m E Pn      2012/02/29 05:45:09.3   0.6                          T                                        4863327
HYF   003.91 307.9 m E P       2012/02/29 05:45:12.0  -0.2                          T                                        4863328
HYF   003.91 307.9 m E Pg      2012/02/29 05:45:22.9   0.0                          T                                        4863329
HYF   003.91 307.9 m E Sg      2012/02/29 05:46:15.2   2.0                          T                                        4863396
MEZF  003.84 338.4 m E P       2012/02/29 05:45:10.1  -1.0 162.1  5.3               T   001.0                                4854195
MEZF  003.84 338.4 m E Pg      2012/02/29 05:45:22.3   0.8                          T                                        4863400
MEZF  003.84 338.4 m E Sg      2012/02/29 05:46:12.8   2.0                          T               17.8  .40 Ml 3.3         4863401
MTLF  003.91 247.5 m E P       2012/02/29 05:45:11.6  -0.6                          T   001.0                                4854197
MTLF  003.91 247.5 m E S       2012/02/29 05:45:56.7  -2.3                          T   001.0        3.1  .28                4854134
RJF   004.02 277.0 m E P       2012/02/29 05:45:13.7   0.0                          T   001.0                                4854144
RJF   004.02 277.0 m E S       2012/02/29 05:46:00.2  -1.5                          T   001.0         15  .40                4854145
RJF   004.02 277.0 m E Sg      2012/02/29 05:46:18.3   1.8                          T               17.3  .44 Ml 2.9         4863402
LANF  004.05 005.9 m E P       2012/02/29 05:45:14.2   0.0                          T                                        4863376
MFF   005.38 290.5 m E P       2012/02/29 05:45:32.1  -0.8                          T                                        4863331
BAIF  005.49 339.6 m E P       2012/02/29 05:45:34.1  -0.4                          T   001.0                                4854186
ETSF  005.95 252.5 m E P       2012/02/29 05:45:42.3   1.2                          T                                        4863704
LDF   006.20 308.6 m E P       2012/02/29 05:45:42.9  -1.5                          T   001.0                                4854163
SJPF  006.33 256.1 m E P       2012/02/29 05:45:46.2  -0.1                          T   001.0                                4854139
GRR   006.51 304.7 m E P       2012/02/29 05:45:46.8  -2.0                          T   001.0                                4854157
SGMF  007.47 299.7 m E P       2012/02/29 05:45:59.7  -2.6                          T                                        4863374
QUIF  007.74 296.2 m E P       2012/02/29 05:46:03.2  -2.8                          T   001.0                                4854137
ROSF  007.95 298.9 m E P       2012/02/29 05:46:06.0  -3.0                          T                                        4863373
LFF   004.57 272.1 m E Sn      2012/02/29 05:46:10.2   2.7                          T                                        4863403
LFF   004.57 272.1 m E Sg      2012/02/29 05:46:34.9   1.3                          T   001.0         10  .38 Ml 3.0         4854165

.
EVENT     270991
    Date      Time       Latitude Longitude    Depth    Ndef Nsta Gap    Mag1  N    Mag2  N    Mag3  N   Author         ID
       rms   OT_Error      Smajor Sminor Az        Err   mdist  Mdist     Err        Err        Err      Quality

2012/02/29 08:45:19.4     44.4917    6.7212      2.0      67   11 038  Ml 2.4  7  Md 2.3  5              js067245    271012

      1.26   +-  0.12       2.9    2.4   57.67 +-  0.0    0.07   4.76   +-0.3      +-0.2                 m i ke

FRANCE
Sta     Dist  EvAz     Phase      Date       Time     TRes  Azim  AzRes  Slow  SRes Def   SNR       Amp   Per   Mag1   Mag2       ID
MBDF  000.24 008.7 m E Pg      2012/02/29 08:45:24.1  -0.2                          T                                        4863417
MBDF  000.24 008.7 m E Sg      2012/02/29 08:45:27.9   0.3                          T               93.8  .34        Md 2.4  4863416
ORIF  000.74 305.7 m E Pg      2012/02/29 08:45:32.6  -0.8                          T                                        4863423
ORIF  000.74 305.7 m E Sg      2012/02/29 08:45:42.1  -0.9                          T               17.4  .22        Md 2.6  4863412
SBF   000.81 140.5 m E Pg      2012/02/29 08:45:34.8   0.1                          T                                        4863418
SBF   000.81 140.5 m E Sg      2012/02/29 08:45:45.8   0.5                          T               16.4  .24                4863409
FRF   000.93 183.3 m E Pg      2012/02/29 08:45:37.1   0.2                          T                                        4863420
FRF   000.93 183.3 m E P       2012/02/29 08:45:38.7  -0.2                          T                                        4863706
FRF   000.93 183.3 m E Sg      2012/02/29 08:45:49.2   0.2                          T               17.9  .24 Ml 2.7         4863439
SMRF  000.97 238.4 m E Pn      2012/02/29 08:45:38.3  -0.2                          T                                        4863431
SMRF  000.97 238.4 m E Sg      2012/02/29 08:45:50.8   0.5                          T               13.2  .30 Ml 2.4 Md 2.4  4863414
LPG   001.01 001.2 m E Pg      2012/02/29 08:45:38.3  -0.3                          T                                        4863442
LPG   001.01 001.2 m E P       2012/02/29 08:45:40.4  -0.4                          T                                        4863432
LPG   001.01 001.2 m E Sg      2012/02/29 08:45:51.3  -0.4                          T                6.0  .22 Ml 2.3 Md 2.2  4863441
LPG   001.01 001.2 m E Sn      2012/02/29 08:45:52.3  -0.9                          T                                        4863433
LPL   001.02 000.4 m E Pg      2012/02/29 08:45:38.9   0.0                          T                                        4863422
LPL   001.02 000.4 m E P       2012/02/29 08:45:40.5  -0.5                          T                                        4863707
LPL   001.02 000.4 m E Sg      2012/02/29 08:45:52.6   0.4                          T               10.5  .44 Ml 2.2 Md 2.1  4863413
LMR   001.17 187.6 m E P       2012/02/29 08:45:42.1  -0.6                          T                                        4863440
LMR   001.17 187.6 m E Sg      2012/02/29 08:45:56.9   0.5                          T               12.3  .22 Ml 2.7         4863410
VIVF  001.51 284.7 m E Pn      2012/02/29 08:45:45.8   0.0                          T                                        4863415
VIVF  001.51 284.7 m E Pg      2012/02/29 08:45:46.8  -0.7                          T                                        4863434
VIVF  001.51 284.7 m E Sg      2012/02/29 08:46:05.7  -1.2                          T                6.9  .32 Ml 2.4         4863411
LASF  002.10 259.6 m E Pn      2012/02/29 08:45:53.7   0.0                          T                                        4863436
LASF  002.10 259.6 m E P       2012/02/29 08:45:55.3  -0.8                          T                                        4863435
LASF  002.10 259.6 m E Pg      2012/02/29 08:45:58.3  -0.1                          T                                        4863437
LASF  002.10 259.6 m E Sn      2012/02/29 08:46:18.9  -0.1                          T                1.2  .22 Ml 2.0         4863438
PGF   002.55 138.7 m E Pn      2012/02/29 08:45:59.9  -0.1                          T                                        4863705
PGF   002.55 138.7 m E P       2012/02/29 08:46:02.5  -0.1                          T                                        4863429
PGF   002.55 138.7 m E Sn      2012/02/29 08:46:30.2   0.3                          T                                        4863430

.
