BEGIN GSE2.0
MSG_TYPE DATA
MSG_ID 16-MAI-1307:36:21  FRA_NDC
E-MAIL
DATA_TYPE BULLETIN
Reviewed Bulletin (REB) # P2013-017  from French NDC for regional phases     PERIOD 24 AVR 2013 TO 30 AVR 2013 Cenalt JP S
EVENT     296786
    Date      Time       Latitude Longitude    Depth    Ndef Nsta Gap    Mag1  N    Mag2  N    Mag3  N   Author         ID
       rms   OT_Error      Smajor Sminor Az        Err   mdist  Mdist     Err        Err        Err      Quality

2013/04/24 00:28:51.3     46.0364    6.8676      2.0      34   11 068  Ml 1.9  8  Md 1.9  3              bulletin    296886
                                                                                                         _ldg
      0.81   +-  0.16       4.2    2.6   89.68 +-  0.0    0.31   2.76   +-0.4      +-0.0                 m i ke

SWITZERLAND
Sta     Dist  EvAz     Phase      Date       Time     TRes  Azim  AzRes  Slow  SRes Def   SNR       Amp   Per   Mag1   Mag2       ID
LPL   000.53 190.4 m E Pg      2013/04/24 00:29:01.2  -0.5                          T                                        5267854
LPL   000.53 190.4 m E Sg      2013/04/24 00:29:08.4  -0.2                          T                2.7  .26        Md 1.9  5267853
LPG   000.54 188.6 m E Pg      2013/04/24 00:29:01.5  -0.5                          T                                        5267856
LPG   000.54 188.6 m E Sg      2013/04/24 00:29:09.0  -0.2                          T                5.4  .28        Md 1.9  5267855
CABF  000.79 317.0 m E Pg      2013/04/24 00:29:06.6   0.2                          T                                        5267846
CABF  000.79 317.0 m E Sg      2013/04/24 00:29:17.3   0.7                          T                 .8  .23        Md 1.9  5267834
MBDF  001.31 183.0 m E Pg      2013/04/24 00:29:15.6  -0.4                          T                                        5267847
MBDF  001.31 183.0 m E Sg      2013/04/24 00:29:32.7  -0.3                          T                 .8  .30 Ml 1.4         5267848
ORIF  001.32 212.2 m E Pg      2013/04/24 00:29:15.9  -0.1                          T                                        5267852
ORIF  001.32 212.2 m E Sg      2013/04/24 00:29:33.8   0.8                          T                1.3  .27 Ml 1.6         5267851
HINF  001.78 359.7 m E Pg      2013/04/24 00:29:23.6  -1.0                          T                                        5267843
HINF  001.78 359.7 m E Sn      2013/04/24 00:29:42.4  -1.0                          T                                        5267845
HINF  001.78 359.7 m E Sg      2013/04/24 00:29:46.7  -0.8                          T                2.0  .28 Ml 2.0         5267844
HAU   002.00 350.0 m E Pg      2013/04/24 00:29:27.6  -1.0                          T                                        5267842
HAU   002.00 350.0 m E Sg      2013/04/24 00:29:53.7  -0.7                          T                1.9  .30 Ml 1.8         5267833
VIVF  001.94 233.4 m E Pg      2013/04/24 00:29:28.0   0.4                          T                                        5267849
VIVF  001.94 233.4 m E Sn      2013/04/24 00:29:47.8   0.5                          T                2.1  .30 Ml 2.0         5267850
LOR   002.41 301.8 m E Pg      2013/04/24 00:29:36.3   0.2                          T                                        5267835
LOR   002.41 301.8 m E Sn      2013/04/24 00:29:59.0   0.6                          T                                        5267836
LOR   002.41 301.8 m E Sg      2013/04/24 00:30:08.1   1.0                          T                 .4  .21 Ml 1.6         5267837
SFTF  002.50 330.7 m E Pg      2013/04/24 00:29:37.5  -0.3                          T                                        5267840
SFTF  002.50 330.7 m E Sg      2013/04/24 00:30:10.5   0.5                          T                3.7  .23 Ml 2.5         5267841
MEZF  002.76 334.0 m E Pg      2013/04/24 00:29:42.2  -0.3                          T                                        5267838
MEZF  002.76 334.0 m E Sg      2013/04/24 00:30:17.8  -0.1                          T                1.9  .34 Ml 2.1         5267839

.
EVENT     296788
    Date      Time       Latitude Longitude    Depth    Ndef Nsta Gap    Mag1  N    Mag2  N    Mag3  N   Author         ID
       rms   OT_Error      Smajor Sminor Az        Err   mdist  Mdist     Err        Err        Err      Quality

2013/04/24 02:31:57.0     43.1313    -.5963      2.0      36    8 099  Ml 2.0  6  Md 2.1  2              bulletin    296888
                                                                                                         _ldg
      0.65   +-  0.08       1.7    1.3  168.31 +-  0.0    0.09   3.37   +-0.2      +-0.1                 m i ke

PYRENEES
Sta     Dist  EvAz     Phase      Date       Time     TRes  Azim  AzRes  Slow  SRes Def   SNR       Amp   Per   Mag1   Mag2       ID
ETSF  000.23 173.3 m E Pg      2013/04/24 02:32:01.0  -0.8                          T                                        5267904
ETSF  000.23 173.3 m E Sg      2013/04/24 02:32:04.1  -0.9                          T               44.6  .22        Md 2.1  5267901
SJPF  000.46 268.0 m E Pg      2013/04/24 02:32:05.4  -0.5                          T                                        5267903
SJPF  000.46 268.0 m E Sg      2013/04/24 02:32:12.0   0.0                          T               11.5  .32        Md 2.0  5267899
EPF   000.69 098.1 m E Pg      2013/04/24 02:32:10.0  -0.2                          T                                        5267902
EPF   000.69 098.1 m E Sg      2013/04/24 02:32:19.7   0.4                          T                8.7  .26                5267900
LFF   002.05 027.6 m E Pn      2013/04/24 02:32:30.8   0.0                          T                                        5267888
LFF   002.05 027.6 m E Pg      2013/04/24 02:32:35.0   0.0                          T                                        5267897
LFF   002.05 027.6 m E Sn      2013/04/24 02:32:55.4   0.0                          T                                        5267889
LFF   002.05 027.6 m E Sg      2013/04/24 02:33:02.8   1.3                          T                5.2  .26 Ml 2.3         5267898
MTLF  002.07 083.2 m E Pg      2013/04/24 02:32:35.5   0.0                          T                                        5267894
MTLF  002.07 083.2 m E Sg      2013/04/24 02:33:02.1   0.0                          T                1.6  .26 Ml 2.0         5267893
CAF   002.63 046.0 m E Pn      2013/04/24 02:32:38.7   0.0                          T                                        5267883
CAF   002.63 046.0 m E Pg      2013/04/24 02:32:45.7  -0.1                          T                                        5267891
CAF   002.63 046.0 m E Sg      2013/04/24 02:33:19.6   0.0                          T                1.3  .21 Ml 2.2         5267892
RJF   002.65 034.2 m E Pg      2013/04/24 02:32:46.5   0.3                          T                                        5267895
RJF   002.65 034.2 m E Sn      2013/04/24 02:33:10.0   0.2                          T                                        5267890
RJF   002.65 034.2 m E Sg      2013/04/24 02:33:20.4   0.0                          T                2.5  .30 Ml 1.9         5267896
LASF  003.37 072.2 m E Pg      2013/04/24 02:32:59.4  -0.1                          T                                        5267886
LASF  003.37 072.2 m E Sg      2013/04/24 02:33:42.8   0.0                          T                 .5  .23 Ml 1.8         5267887

.
EVENT     296798
    Date      Time       Latitude Longitude    Depth    Ndef Nsta Gap    Mag1  N    Mag2  N    Mag3  N   Author         ID
       rms   OT_Error      Smajor Sminor Az        Err   mdist  Mdist     Err        Err        Err      Quality

2013/04/24 06:28:32.0     43.9218    7.4364      2.0      33    9 055  Ml 1.5  9  Md 2.0  2              bulletin    296898
                                                                                                         _ldg
      0.30   +-  0.05        .9     .9   36.10 +-  0.0    0.06   1.79   +-0.2      +-0.2                 m i ke

NEAR SOUTH COAST OF FRANCE
Sta     Dist  EvAz     Phase      Date       Time     TRes  Azim  AzRes  Slow  SRes Def   SNR       Amp   Per   Mag1   Mag2       ID
SBF   000.06 180.8 m E Pg      2013/04/24 06:28:32.6  -1.0                          T                                        5267935
SBF   000.06 180.8 m E Sg      2013/04/24 06:28:34.0  -0.6                          T                                Md 2.1  5267934
FRF   000.68 238.0 m E Pg      2013/04/24 06:28:44.7  -0.1                          T                                        5267940
FRF   000.68 238.0 m E Sg      2013/04/24 06:28:54.4   0.8                          T                2.6  .29        Md 1.8  5267939
LMR   000.89 229.2 m E Pg      2013/04/24 06:28:48.6  -0.2                          T                                        5267941
LMR   000.89 229.2 m E Sg      2013/04/24 06:29:00.6   0.3                          T                1.3  .25 Ml 1.5         5267933
MBDF  000.94 329.6 m E Pg      2013/04/24 06:28:49.9   0.2                          T                                        5267937
MBDF  000.94 329.6 m E Sg      2013/04/24 06:29:02.9   1.0                          T                 .8  .26 Ml 1.3         5267936
SMRF  001.35 273.0 m E Pn      2013/04/24 06:28:56.2   0.0                          T                                        5268081
SMRF  001.35 273.0 m E Pg      2013/04/24 06:28:57.9   0.8                          T                                        5267938
SMRF  001.35 273.0 m E Sg      2013/04/24 06:29:14.8   0.3                          T                1.3  .36 Ml 1.5         5267930
ORIF  001.50 312.3 m E Pn      2013/04/24 06:28:58.1  -0.1                          T                                        5268087
ORIF  001.50 312.3 m E Sn      2013/04/24 06:29:17.4   0.2                          T                 .4  .19 Ml 1.4         5268086
LPL   001.67 342.8 m E Pn      2013/04/24 06:29:00.7  -0.1                          T                                        5268085
LPL   001.67 342.8 m E Sn      2013/04/24 06:29:21.7   0.1                          T                 .6  .20 Ml 1.6         5268084
LPG   001.65 343.0 m E Pn      2013/04/24 06:29:00.9   0.3                          T                                        5268083
LPG   001.65 343.0 m E Sn      2013/04/24 06:29:21.3   0.2                          T                 .3  .20 Ml 1.3         5268082
PGF   001.79 139.7 m E Pn      2013/04/24 06:29:02.0  -0.3                          T                                        5267932
PGF   001.79 139.7 m E Sn      2013/04/24 06:29:23.9  -0.3                          T                 .5  .19 Ml 1.8         5268080

.
EVENT     296801
    Date      Time       Latitude Longitude    Depth    Ndef Nsta Gap    Mag1  N    Mag2  N    Mag3  N   Author         ID
       rms   OT_Error      Smajor Sminor Az        Err   mdist  Mdist     Err        Err        Err      Quality

2013/04/24 07:08:57.5     44.0602    1.6821       .0 f    20    7 087  Ml 2.1  6  Md 2.2  2              bulletin    296901
                                                                                                         _ldg
      0.65   +-  0.07       1.6    1.3   86.90 +-  0.0    0.82   2.00   +-0.2      +-0.2                 m i km

FRANCE
Sta     Dist  EvAz     Phase      Date       Time     TRes  Azim  AzRes  Slow  SRes Def   SNR       Amp   Per   Mag1   Mag2       ID
MTLF  000.82 151.4 m E Pg      2013/04/24 07:09:13.1   0.0                          T                                Md 2.3  5267948
MTLF  000.82 151.4 m E Pn      2013/04/24 07:09:14.5  -0.3                          T                                        5267959
MTLF  000.82 151.4 m E Sg      2013/04/24 07:09:23.8  -0.2                          T                4.5  .29        Md 2.0  5267947
CAF   000.91 017.4 m E Pg      2013/04/24 07:09:14.7  -0.2                          T                                        5267946
CAF   000.91 017.4 m E Sg      2013/04/24 07:09:26.9   0.1                          T                7.8  .22 Ml 2.3         5267945
LFF   001.11 322.9 m E Pg      2013/04/24 07:09:18.7   0.2                          T                                        5267952
LFF   001.11 322.9 m E Sn      2013/04/24 07:09:33.4  -0.6                          T                8.6  .29 Ml 2.2         5267951
RJF   001.25 354.6 m E Pg      2013/04/24 07:09:20.9  -0.2                          T                                        5267950
RJF   001.25 354.6 m E Sn      2013/04/24 07:09:37.8   0.4                          T                3.0  .20 Ml 1.8         5267949
EPF   001.42 223.9 m E Pn      2013/04/24 07:09:23.0  -0.1                          T                                        5267955
EPF   001.42 223.9 m E Pg      2013/04/24 07:09:24.4   0.2                          T                                        5267956
EPF   001.42 223.9 m E Sg      2013/04/24 07:09:42.8   0.0                          T                3.1  .21 Ml 2.2         5267942
LASF  001.57 088.7 m E Pn      2013/04/24 07:09:25.3   0.2                          T                                        5267958
LASF  001.57 088.7 m E Pg      2013/04/24 07:09:27.1   0.1                          T                                        5267944
LASF  001.57 088.7 m E Sn      2013/04/24 07:09:45.3   0.2                          T                                        5267957
LASF  001.57 088.7 m E Sg      2013/04/24 07:09:47.7   0.3                          T                2.4  .26 Ml 2.0         5267943
ETSF  002.00 235.3 m E Pn      2013/04/24 07:09:31.3   0.2                          T                                        5267954
ETSF  002.00 235.3 m E Sn      2013/04/24 07:09:54.8  -0.7                          T                2.9  .31 Ml 2.2         5267953

.
EVENT     296830
    Date      Time       Latitude Longitude    Depth    Ndef Nsta Gap    Mag1  N    Mag2  N    Mag3  N   Author         ID
       rms   OT_Error      Smajor Sminor Az        Err   mdist  Mdist     Err        Err        Err      Quality

2013/04/24 07:32:38.7     44.1866    7.3389       .0 f    15    7 185  Ml 1.6  4  Md 1.8  3              bulletin    296930
                                                                                                         _ldg
      0.25   +-  0.13       3.2    1.3   80.52 +-  0.0    0.33   1.38   +-0.1      +-0.0                 m i km

NORTHERN ITALY
Sta     Dist  EvAz     Phase      Date       Time     TRes  Azim  AzRes  Slow  SRes Def   SNR       Amp   Per   Mag1   Mag2       ID
SBF   000.33 167.8 m E Pg      2013/04/24 07:32:45.1  -0.4                          T                                        5268057
SBF   000.33 167.8 m E Sg      2013/04/24 07:32:50.3   0.2                          T                4.0  .20        Md 1.8  5268056
MBDF  000.68 323.2 m E Pg      2013/04/24 07:32:52.4   0.4                          T                                        5268054
MBDF  000.68 323.2 m E Sg      2013/04/24 07:33:01.0   0.0                          T                1.2  .20        Md 1.8  5268055
FRF   000.80 218.9 m E Pg      2013/04/24 07:32:54.3   0.3                          T                                        5268062
FRF   000.80 218.9 m E Pn      2013/04/24 07:32:55.8   0.0                          T                                        5268077
FRF   000.80 218.9 m E Sg      2013/04/24 07:33:04.6  -0.1                          T                2.8  .21        Md 1.8  5268053
LMR   001.04 215.5 m E Pg      2013/04/24 07:32:58.7   0.2                          T                                        5268051
LMR   001.04 215.5 m E Sg      2013/04/24 07:33:12.1  -0.2                          T                1.4  .18 Ml 1.7         5268052
SMRF  001.29 261.2 m E Pn      2013/04/24 07:33:02.4  -0.1                          T                                        5268058
SMRF  001.29 261.2 m E Sn      2013/04/24 07:33:19.5  -0.2                          T                 .7  .19 Ml 1.5         5268059
ORIF  001.27 305.6 m E Pg      2013/04/24 07:33:02.7  -0.2                          T                                        5268061
ORIF  001.27 305.6 m E Sg      2013/04/24 07:33:18.9  -0.7                          T                1.4  .27 Ml 1.6         5268060
LPG   001.38 342.5 m E Pg      2013/04/24 07:33:05.0  -0.1                          T                                        5268079
LPG   001.38 342.5 m E Sg      2013/04/24 07:33:23.1   0.1                          T                 .7  .14 Ml 1.7         5268078

.
EVENT     296952
    Date      Time       Latitude Longitude    Depth    Ndef Nsta Gap    Mag1  N    Mag2  N    Mag3  N   Author         ID
       rms   OT_Error      Smajor Sminor Az        Err   mdist  Mdist     Err        Err        Err      Quality

2013/04/24 09:55:53.0     49.9881    7.9306     10.0 f    17    6 080  Ml 2.0  5                         bulletin    297052
                                                                                                         _ldg
      0.70   +-  0.13       3.3    2.1  134.08 +-  0.0    0.27   2.40   +-0.3                            m i ke

GERMANY
Sta     Dist  EvAz     Phase      Date       Time     TRes  Azim  AzRes  Slow  SRes Def   SNR       Amp   Per   Mag1   Mag2       ID
RUP   000.63 243.4 m E Pg      2013/04/24 09:56:04.7  -0.5                          T                                        5269106
RUP   000.63 243.4 m E Sg      2013/04/24 09:56:13.1  -0.5                          T                                        5269107
CDF   001.63 195.5 m E Pn      2013/04/24 09:56:20.6   0.3                          T                                        5269121
CDF   001.63 195.5 m E Sn      2013/04/24 09:56:40.7   0.6                          T                                        5269120
CDF   001.63 195.5 m E Sg      2013/04/24 09:56:44.3  -0.5                          T                 .8  .20 Ml 1.8         5269119
GIVF  002.01 274.5 m E Pn      2013/04/24 09:56:26.0   0.8                          T                                        5269118
GIVF  002.01 274.5 m E Sn      2013/04/24 09:56:50.5   1.6                          T                3.2  .23 Ml 2.4         5269117
PAGF  002.04 226.0 m E Pn      2013/04/24 09:56:26.4   0.7                          T                                        5269116
PAGF  002.04 226.0 m E Sg      2013/04/24 09:56:56.5  -0.7                          T                 .6  .18 Ml 1.8         5269115
HINF  002.29 198.5 m E Pn      2013/04/24 09:56:29.8   0.7                          T                                        5269124
HINF  002.29 198.5 m E Sn      2013/04/24 09:56:56.8   1.1                          T                                        5269123
HINF  002.29 198.5 m E Sg      2013/04/24 09:57:04.6  -0.5                          T                 .6  .13 Ml 1.9         5269122
BAIF  002.40 273.1 m E Pn      2013/04/24 09:56:31.7   1.1                          T                                        5269114
BAIF  002.40 273.1 m E Sg      2013/04/24 09:57:08.3  -0.3                          T                1.3  .15 Ml 2.3         5269113

.
