EVENT     267022
    Date      Time       Latitude Longitude    Depth    Ndef Nsta Gap    Mag1  N    Mag2  N    Mag3  N   Author         ID
       rms   OT_Error      Smajor Sminor Az        Err   mdist  Mdist     Err        Err        Err      Quality

2011/12/02 15:57:59.7     48.9278    5.6171       .0 f    23   12 099  Ml 2.1  7  Md 2.5  2              js067245    267042

      1.84   +-  0.14       2.4    2.2  111.09 +-  0.0    0.38   2.04   +-0.2      +-0.1                 m i km

FRANCE
Sta     Dist  EvAz     Phase      Date       Time     TRes  Azim  AzRes  Slow  SRes Def   SNR       Amp   Per   Mag1   Mag2       ID
PAGF  000.38 169.1 m E Pg      2011/12/02 15:58:07.4   0.1 352.0  2.8               T                                        4794693
PAGF  000.38 169.1 m E Sg      2011/12/02 15:58:13.0   0.5 342.7  -6.5              T               52.1  .93        Md 2.5  4794694
MEZF  000.57 221.5 m E Pg      2011/12/02 15:58:10.5  -0.3  50.9  9.8               T                                        4795008
MEZF  000.57 221.5 m E Sg      2011/12/02 15:58:18.6   0.2  16.1  -24.9             T               26.4  .43                4794686
THEF  000.74 160.2 m E Pg      2011/12/02 15:58:14.1   0.1                          T                                        4795010
THEF  000.74 160.2 m E Sg      2011/12/02 15:58:23.9   0.0                          T                                        4795013
THEF  000.74 160.2 m E Sn      2011/12/02 15:58:27.7   0.2                          T                6.0  .30        Md 2.4  4795014
SFTF  000.82 208.2 m E Pg      2011/12/02 15:58:15.3  -0.1  34.9  7.1               T                                        4795009
SFTF  000.82 208.2 m E Sg      2011/12/02 15:58:26.5   0.2  17.0  -10.8             T                8.9  .38                4795015
HAU   001.04 151.9 m E Pg      2011/12/02 15:58:19.7   0.1                          T                                        4795011
HAU   001.04 151.9 m E Sg      2011/12/02 15:58:33.6   0.4                          T               29.2  .32 Ml 2.6         4794688
CDF   001.21 114.5 m E Pg      2011/12/02 15:58:22.0  -0.7                          T                                        4794691
CDF   001.21 114.5 m E Sg      2011/12/02 15:58:39.0   0.3                          T                4.1  .30 Ml 2.2         4794692
RUP   001.22 050.1 m E Pg      2011/12/02 15:58:23.1   0.3                          T                                        4794689
RUP   001.22 050.1 m E Sg      2011/12/02 15:58:39.0   0.2                          T                                        4794690
GIVF  001.28 336.5 m E Pn      2011/12/02 15:58:23.4   0.0                          T                                        4795006
GIVF  001.28 336.5 m E Sg      2011/12/02 15:58:40.6  -0.1                          T                2.7  .23 Ml 2.0         4795018
HINF  001.38 143.0 m E Pg      2011/12/02 15:58:26.0   0.1                          T                                        4795012
HINF  001.38 143.0 m E Sg      2011/12/02 15:58:43.8  -0.2                          T                5.5  .40 Ml 2.1         4794687
LANF  001.44 087.1 m E Pg      2011/12/02 15:58:27.1   0.2                          T                                        4795007
LANF  001.44 087.1 m E Sg      2011/12/02 15:58:45.7   0.0                          T                3.3  .25 Ml 2.1         4795016
BAIF  001.46 321.5 m E Sg      2011/12/02 15:58:46.0  -0.2                          T                1.9  .30 Ml 1.8         4795017
LOR   002.04 216.0 m E Sg      2011/12/02 15:59:04.0  -0.3  29.2  -5.5              T                2.9  .36 Ml 2.1         4795019

.
EVENT     267023
    Date      Time       Latitude Longitude    Depth    Ndef Nsta Gap    Mag1  N    Mag2  N    Mag3  N   Author         ID
       rms   OT_Error      Smajor Sminor Az        Err   mdist  Mdist     Err        Err        Err      Quality

2011/12/02 17:13:47.4     39.4457    1.0623     20.0 f    40    4 076  Ml 2.3  4  Md 2.7  1              js067245    267043

      1.08   +-  0.23       4.9    3.8   55.98 +-  0.0    0.47   4.05   +-0.3      +-                    m i ke

BALEARIC ISLANDS, SPAIN
Sta     Dist  EvAz     Phase      Date       Time     TRes  Azim  AzRes  Slow  SRes Def   SNR       Amp   Per   Mag1   Mag2       ID
ETSF  003.66 341.0 m E Pn      2011/12/02 17:14:41.2   0.1                          T                                        4794370
ETSF  003.66 341.0 m E P       2011/12/02 17:14:44.5  -0.1                          T                                        4795138
ETSF  003.66 341.0 m E Pg      2011/12/02 17:14:55.6   0.3                          T                                        4795137
ETSF  003.66 341.0 m E Sg      2011/12/02 17:15:42.2  -0.1                          T                3.7  .37 Ml 2.6 Md 2.7  4794368
EPF   003.62 351.6 m E P       2011/12/02 17:14:44.0   0.0                          T                                        4794371
EPF   003.62 351.6 m E Pg      2011/12/02 17:14:54.4  -0.2                          T                                        4795136
EPF   003.62 351.6 m E Sg      2011/12/02 17:15:40.8  -0.4                          T                2.4  .24 Ml 2.6         4794369
SJPF  004.05 335.5 m E Pn      2011/12/02 17:14:46.2  -0.2                          T                                        4794372
SJPF  004.05 335.5 m E P       2011/12/02 17:14:49.7  -0.3                          T                                        4795139
SJPF  004.05 335.5 m E Sg      2011/12/02 17:15:54.4   0.0                          T                  1  .30 Ml 2.2         4795135
MTLF  003.99 012.2 m E Sg      2011/12/02 17:15:52.4   0.0                          T                 .6  .28 Ml 1.9         4795134

.
EVENT     267024
    Date      Time       Latitude Longitude    Depth    Ndef Nsta Gap    Mag1  N    Mag2  N    Mag3  N   Author         ID
       rms   OT_Error      Smajor Sminor Az        Err   mdist  Mdist     Err        Err        Err      Quality

2011/12/02 20:15:44.2     42.9694     .1628      2.0      12    7 187  Ml 1.6  4  Md 1.7  2              js067245    267044

      0.26   +-  0.10       2.9    1.2  162.65 +-  0.0    0.14   2.53   +-0.3      +-0.4                 m i ke

PYRENEES
Sta     Dist  EvAz     Phase      Date       Time     TRes  Azim  AzRes  Slow  SRes Def   SNR       Amp   Per   Mag1   Mag2       ID
EPF   000.14 064.9 m E Pg      2011/12/02 20:15:47.0  -0.3                          T                                        4794394
EPF   000.14 064.9 m E Sg      2011/12/02 20:15:49.1  -0.2                          T               17.1  .22        Md 1.9  4794391
ETSF  000.53 262.6 m E Pg      2011/12/02 20:15:54.4   0.0                          T                                        4794393
ETSF  000.53 262.6 m E Sg      2011/12/02 20:16:01.2  -0.3                          T                1.2  .22        Md 1.4  4794392
MTLF  001.55 075.4 m E Pg      2011/12/02 20:16:13.1   0.1                          T                                        4794389
MTLF  001.55 075.4 m E Sn      2011/12/02 20:16:30.7   0.2                          T                                        4794383
MTLF  001.55 075.4 m E Sg      2011/12/02 20:16:32.9  -0.1                          T                  1  .24 Ml 1.7         4794390
SJPF  001.03 278.5 m E Sg      2011/12/02 20:16:16.3  -0.5                          T                 .4  .23 Ml 1.1         4794387
CAF   002.39 034.4 m E Pg      2011/12/02 20:16:28.7   0.2                          T                                        4794385
CAF   002.39 034.4 m E Sg      2011/12/02 20:16:58.8  -0.5                          T                 .6  .20 Ml 1.8         4794386
LFF   002.01 011.8 m E Sg      2011/12/02 20:16:47.9   0.4                          T                                        4794384
RJF   002.53 022.2 m E Sg      2011/12/02 20:17:03.6   0.0                          T                1.1  .22 Ml 1.7         4794388

.
EVENT     267025
    Date      Time       Latitude Longitude    Depth    Ndef Nsta Gap    Mag1  N    Mag2  N    Mag3  N   Author         ID
       rms   OT_Error      Smajor Sminor Az        Err   mdist  Mdist     Err        Err        Err      Quality

2011/12/02 22:44:09.4     42.8751     .1815      2.0       6    4 200  Ml 1.3  1  Md 1.2  2              js067245    267045

      0.26   +-  0.18       6.5    1.2  160.80 +-  0.0    0.19   1.56   +-         +-0.2                 m i ke

PYRENEES
Sta     Dist  EvAz     Phase      Date       Time     TRes  Azim  AzRes  Slow  SRes Def   SNR       Amp   Per   Mag1   Mag2       ID
EPF   000.19 036.8 m E Pg      2011/12/02 22:44:13.0  -0.3                          T                                        4794400
EPF   000.19 036.8 m E Sg      2011/12/02 22:44:15.5  -0.6                          T               11.6  .24        Md 1.3  4794399
ETSF  000.54 272.7 m E Pg      2011/12/02 22:44:19.6  -0.2                          T                                        4794397
ETSF  000.54 272.7 m E Sg      2011/12/02 22:44:27.0   0.0                          T                  1  .23        Md 1.1  4794398
SJPF  001.06 283.5 m E Pg      2011/12/02 22:44:29.2   0.0                          T                                        4794396
MTLF  001.56 072.0 m E Sg      2011/12/02 22:44:58.7   0.0                          T                 .5  .28 Ml 1.3         4794395

.
EVENT     267026
    Date      Time       Latitude Longitude    Depth    Ndef Nsta Gap    Mag1  N    Mag2  N    Mag3  N   Author         ID
       rms   OT_Error      Smajor Sminor Az        Err   mdist  Mdist     Err        Err        Err      Quality

2011/12/03 07:32:47.9     46.1430   -1.0976      5.0 f    38   12 140  Ml 2.1 11  Md 2.4  3              js067245    267046

      1.29   +-  0.15       3.5    2.4   58.23 +-  0.0    0.80   3.28   +-0.2      +-0.0                 m i ke

FRANCE
Sta     Dist  EvAz     Phase      Date       Time     TRes  Azim  AzRes  Slow  SRes Def   SNR       Amp   Per   Mag1   Mag2       ID
MFF   000.80 054.8 m E Pg      2011/12/03 07:33:02.1  -1.0                          T                                        4795182
MFF   000.80 054.8 m E Pn      2011/12/03 07:33:02.9  -1.4                          T                                        4795183
MFF   000.80 054.8 m E Sg      2011/12/03 07:33:14.3   0.7                          T                                        4793977
MFF   000.80 054.8 m E Sn      2011/12/03 07:33:17.0   1.1                          T                6.3  .22        Md 2.3  4793972
LFF   001.77 132.3 m E Pn      2011/12/03 07:33:17.7   0.3                          T                                        4795184
LFF   001.77 132.3 m E Pg      2011/12/03 07:33:21.3   0.5                          T                                        4795177
LFF   001.77 132.3 m E Sn      2011/12/03 07:33:37.0  -1.9                          T                7.2  .32 Ml 2.3 Md 2.4  4793969
LFF   001.77 132.3 m E Sg      2011/12/03 07:33:43.9   0.4                          T                6.4  .36 Ml 2.2         4795165
RJF   002.01 113.7 m E Pn      2011/12/03 07:33:19.6  -1.2                          T                                        4793976
RJF   002.01 113.7 m E Pg      2011/12/03 07:33:25.4   0.0                          T                                        4795176
RJF   002.01 113.7 m E Sn      2011/12/03 07:33:44.7  -0.1                          T                3.1  .25 Ml 2.0         4793968
RJF   002.01 113.7 m E Sg      2011/12/03 07:33:52.4   1.1                          T                3.7  .28 Ml 2.0         4795166
GRR   002.25 004.1 m E Pn      2011/12/03 07:33:24.1   0.1                          T                                        4795175
GRR   002.25 004.1 m E P       2011/12/03 07:33:26.7   0.3                          T                                        4795174
GRR   002.25 004.1 m E Pg      2011/12/03 07:33:29.5  -0.3                          T                                        4795173
GRR   002.25 004.1 m E Sn      2011/12/03 07:33:51.3   0.7                          T                                        4793966
GRR   002.25 004.1 m E Sg      2011/12/03 07:33:59.3   0.6                          T                1.2  .22 Ml 1.9         4795167
QUIF  002.27 322.2 m E Pn      2011/12/03 07:33:24.3   0.1                          T                                        4795185
QUIF  002.27 322.2 m E Pg      2011/12/03 07:33:30.0   0.0                          T                                        4795172
QUIF  002.27 322.2 m E Sn      2011/12/03 07:33:50.7  -0.3                          T                1.9  .20 Ml 2.2         4793967
TCF   002.30 085.2 m E Pn      2011/12/03 07:33:25.0   0.3                          T                                        4794523
TCF   002.30 085.2 m E Pg      2011/12/03 07:33:31.4   0.7                          T                                        4795168
TCF   002.30 085.2 m E Sg      2011/12/03 07:34:01.1   0.8                          T                2.9  .33 Ml 2.3         4793978
SGMF  002.33 335.3 m E Pn      2011/12/03 07:33:25.3   0.1                          T                                        4793974
SGMF  002.33 335.3 m E Pg      2011/12/03 07:33:31.5   0.3                          T                                        4795171
CAF   002.53 117.6 m E Pn      2011/12/03 07:33:28.6   0.6                          T                                        4794524
CAF   002.53 117.6 m E Sn      2011/12/03 07:33:58.1   0.8                          T                1.6  .20 Ml 2.2         4793980
ROSF  002.65 326.7 m E Pn      2011/12/03 07:33:29.4   0.0                          T                                        4795170
BGF   002.76 079.9 m E Pn      2011/12/03 07:33:31.0   0.0                          T                                        4795169
SJPF  003.03 181.8 m E Pn      2011/12/03 07:33:34.8   0.1                          T                                        4795179
SJPF  003.03 181.8 m E Pg      2011/12/03 07:33:44.2   0.1                          T                                        4795178
SJPF  003.03 181.8 m E Sn      2011/12/03 07:34:09.1  -0.1                          T                1.3  .30 Ml 2.1         4795164
EPF   003.28 161.2 m E Pn      2011/12/03 07:33:38.0  -0.1                          T                                        4794522
EPF   003.28 161.2 m E Sn      2011/12/03 07:34:15.1  -0.1                          T                1.5  .25 Ml 2.3         4794521

.
