EVENT     254064
    Date      Time       Latitude Longitude    Depth    Ndef Nsta Gap    Mag1  N    Mag2  N    Mag3  N   Author         ID
       rms   OT_Error      Smajor Sminor Az        Err   mdist  Mdist     Err        Err        Err      Quality

2011/01/22 06:10:25.7     36.2407    2.7771      2.0     104   32 129  Ml 3.8  7                         js067245    254084

      0.58   +-  0.17       4.0    2.0  152.49 +-  0.0    0.15  12.88   +-0.2                            m i ke

NORTHERN ALGERIA
Sta     Dist  EvAz     Phase      Date       Time     TRes  Azim  AzRes  Slow  SRes Def   SNR       Amp   Per   Mag1   Mag2       ID
EPF   007.04 345.3 m E Pn      2011/01/22 06:12:07.6   0.2                          T                                        4585609
EPF   007.04 345.3 m E P       2011/01/22 06:12:12.5   0.1                          T                                        4585589
EPF   007.04 345.3 m E Sn      2011/01/22 06:13:23.6   0.3                          T               10.2  .28 Ml 3.8         4585582
MTLF  007.10 356.7 m E Pn      2011/01/22 06:12:08.3   0.0                          T                                        4585608
MTLF  007.10 356.7 m E Sn      2011/01/22 06:13:25.2   0.4                          T               11.5  .45 Ml 3.7         4585583
ETSF  007.13 339.8 m E Pn      2011/01/22 06:12:08.8   0.1                          T                                        4585610
ETSF  007.13 339.8 m E P       2011/01/22 06:12:13.9   0.2                          T                                        4585588
ETSF  007.13 339.8 m E Sn      2011/01/22 06:13:26.0   0.5                          T                4.1  .28 Ml 3.4         4585581
SJPF  007.52 337.0 m E Pn      2011/01/22 06:12:13.9  -0.1                          T                                        4585611
SJPF  007.52 337.0 m E P       2011/01/22 06:12:19.0  -0.2                          T                                        4585587
SJPF  007.52 337.0 m E Sn      2011/01/22 06:13:35.1   0.2                          T               12.0  .72 Ml 3.6         4585580
LMR   007.64 020.9 m E Pn      2011/01/22 06:12:15.3  -0.3                          T                                        4585599
FRF   007.89 020.9 m E Pn      2011/01/22 06:12:18.5  -0.5                          T                                        4585600
LASF  007.87 005.7 m E Pn      2011/01/22 06:12:18.5  -0.2                          T                                        4585607
FRF   007.89 020.9 m E P       2011/01/22 06:12:24.0  -0.3                          T                                        4585595
FRF   007.89 020.9 m E Sn      2011/01/22 06:13:43.8   0.1                          T               34.0  .69 Ml 4.1         4585585
PGF   007.93 035.5 m E Pn      2011/01/22 06:12:19.5   0.0                          T                                        4585597
PGF   007.93 035.5 m E P       2011/01/22 06:12:24.7  -0.3                          T                                        4585596
SMRF  008.02 014.6 m E Pn      2011/01/22 06:12:20.5  -0.2                          T                                        4585601
SBF   008.41 023.7 m E Pn      2011/01/22 06:12:25.6  -0.5                          T                                        4585598
CAF   008.69 356.6 m E Pn      2011/01/22 06:12:29.8  -0.1                          T                                        4585613
CAF   008.69 356.6 m E P       2011/01/22 06:12:35.2  -0.3                          T                                        4585586
VIVF  008.73 008.9 m E Pn      2011/01/22 06:12:30.3  -0.1                          T                                        4585606
VIVF  008.73 008.9 m E P       2011/01/22 06:12:35.8  -0.2                          T                                        4585590
VIVF  008.73 008.9 m E Sn      2011/01/22 06:14:04.1   0.5                          T               11.2  .70 Ml 3.7         4585584
LFF   008.83 350.5 m E Pn      2011/01/22 06:12:31.5  -0.2                          T                                        4585614
ORIF  008.98 014.3 m E Pn      2011/01/22 06:12:34.0   0.0                          T                                        4585604
ORIF  008.98 014.3 m E P       2011/01/22 06:12:39.7   0.0                          T                                        4585592
MBDF  009.00 018.5 m E Pn      2011/01/22 06:12:34.2  -0.2                          T                                        4585605
MBDF  009.00 018.5 m E P       2011/01/22 06:12:39.8  -0.2                          T                                        4585591
RJF   009.10 354.4 m E Pn      2011/01/22 06:12:35.2  -0.3                          T                                        4585615
LPG   009.72 016.8 m E Pn      2011/01/22 06:12:43.9  -0.3                          T                                        4585602
LPG   009.72 016.8 m E P       2011/01/22 06:12:50.0  -0.2                          T                                        4585594
LPL   009.74 016.7 m E Pn      2011/01/22 06:12:44.4   0.1                          T                                        4585603
LPL   009.74 016.7 m E P       2011/01/22 06:12:50.3   0.0                          T                                        4585593
BGF   010.31 000.3 m E Pn      2011/01/22 06:12:51.9   0.0                          T                                        4585620
SMF   010.43 004.1 m E Pn      2011/01/22 06:12:53.6   0.1                          T                                        4585621
TCF   010.05 357.7 m E P       2011/01/22 06:12:54.3   0.0                          T                                        4585629
AVF   010.55 002.2 m E Pn      2011/01/22 06:12:55.5   0.4                          T                                        4585622
MFF   010.58 349.0 m E Pn      2011/01/22 06:12:55.7   0.1                          T                                        4585612
CABF  010.65 012.4 m E Pn      2011/01/22 06:12:56.8   0.1                          T                                        4585623
LOR   011.05 003.8 m E Pn      2011/01/22 06:13:01.7  -0.3                          T                                        4585628
HINF  011.96 013.4 m E Pn      2011/01/22 06:13:14.7   0.3                          T                                        4585625
HAU   012.05 011.6 m E Pn      2011/01/22 06:13:15.5  -0.1                          T                                        4585626
SFTF  012.07 007.3 m E Pn      2011/01/22 06:13:16.0   0.1                          T                                        4585624
QUIF  012.47 341.2 m E Pn      2011/01/22 06:13:21.3   0.0                          T                                        4585618
SGMF  012.63 343.5 m E Pn      2011/01/22 06:13:23.6   0.1                          T                                        4585617
CDF   012.61 013.9 m E Pn      2011/01/22 06:13:23.6   0.3                          T                                        4585627
ROSF  012.88 341.6 m E Pn      2011/01/22 06:13:26.8  -0.2                          T                                        4585616

.
EVENT     254065
    Date      Time       Latitude Longitude    Depth    Ndef Nsta Gap    Mag1  N    Mag2  N    Mag3  N   Author         ID
       rms   OT_Error      Smajor Sminor Az        Err   mdist  Mdist     Err        Err        Err      Quality

2011/01/22 06:19:03.3  f  47.6160    7.6460 f   18.0 f    13    6 067  Ml 1.4  4  Md 1.6  2              js067245    254085

      3.76   +-  0.44    9999.9 9999.9   99.90 +-  0.0    0.18   2.19   +-0.2      +-0.0                 m i ke

SWITZERLAND
Sta     Dist  EvAz     Phase      Date       Time     TRes  Azim  AzRes  Slow  SRes Def   SNR       Amp   Per   Mag1   Mag2       ID
HINF  000.57 290.9 m E Pg      2011/01/22 06:19:08.5  -6.1                          T                                        4585639
HINF  000.57 290.9 m E Sg      2011/01/22 06:19:21.2  -1.1                          T                4.6  .20        Md 1.6  4585638
CDF   000.83 342.8 m E Pg      2011/01/22 06:19:18.7  -0.7                          T                                        4585635
CDF   000.83 342.8 m E Sn      2011/01/22 06:19:29.4  -0.5                          T                2.6  .24        Md 1.6  4585636
CABF  001.46 227.2 m E Pg      2011/01/22 06:19:19.6 -11.2                          T                                        4585633
CABF  001.46 227.2 m E Sg      2011/01/22 06:19:40.3  -9.6                          T                 .4  .32 Ml 1.1         4585632
HAU   000.96 294.5 m E Pg      2011/01/22 06:19:21.5   0.0                          T                                        4585634
HAU   000.96 294.5 m E Sg      2011/01/22 06:19:33.4  -0.7                          T                1.9  .22 Ml 1.5         4585637
THEF  001.27 299.5 m E Pg      2011/01/22 06:19:27.3   0.1                          T                                        4585630
THEF  001.27 299.5 m E Sg      2011/01/22 06:19:43.6  -0.2                          T                 .8  .17 Ml 1.6         4585631
LPL   002.19 197.0 m E Sg      2011/01/22 06:19:55.8 -16.9                          T                 .4  .24 Ml 1.4         4587077

.
EVENT     254066
    Date      Time       Latitude Longitude    Depth    Ndef Nsta Gap    Mag1  N    Mag2  N    Mag3  N   Author         ID
       rms   OT_Error      Smajor Sminor Az        Err   mdist  Mdist     Err        Err        Err      Quality

2011/01/22 10:57:10.0     42.9174     .1375      3.0 f     9    4 194  Ml 1.4  2  Md 1.3  2              js067245    254086

      0.09   +-  0.06       3.3     .6  170.90 +-  0.0    0.19   1.58   +-0.0      +-0.1                 m i ke

PYRENEES
Sta     Dist  EvAz     Phase      Date       Time     TRes  Azim  AzRes  Slow  SRes Def   SNR       Amp   Per   Mag1   Mag2       ID
EPF   000.19 052.7 m E Pg      2011/01/22 10:57:14.0   0.1                          T                                        4585649
EPF   000.19 052.7 m E Sg      2011/01/22 10:57:16.3  -0.2                          T               10.6  .16        Md 1.4  4585646
ETSF  000.51 268.1 m E Pg      2011/01/22 10:57:19.9   0.0                          T                                        4585648
ETSF  000.51 268.1 m E Sg      2011/01/22 10:57:26.5  -0.2                          T                5.0  .24        Md 1.3  4585647
SJPF  001.02 281.5 m E Pg      2011/01/22 10:57:29.1   0.0                          T                                        4585643
SJPF  001.02 281.5 m E Sg      2011/01/22 10:57:42.4   0.1                          T                 .9  .22 Ml 1.4         4585644
MTLF  001.58 073.8 m E Pg      2011/01/22 10:57:39.4  -0.1                          T                                        4585642
MTLF  001.58 073.8 m E Sg      2011/01/22 10:57:59.7  -0.1                          T                 .4  .17 Ml 1.5         4585645

.
EVENT     254067
    Date      Time       Latitude Longitude    Depth    Ndef Nsta Gap    Mag1  N    Mag2  N    Mag3  N   Author         ID
       rms   OT_Error      Smajor Sminor Az        Err   mdist  Mdist     Err        Err        Err      Quality

2011/01/22 16:29:57.0     43.0557    -.5442      2.0       6    3 175             Md 1.0  3              js067245    254087

      0.06   +-  0.03       1.0     .6    4.57 +-  0.0    0.16   0.65              +-0.2                 m i ke

PYRENEES
Sta     Dist  EvAz     Phase      Date       Time     TRes  Azim  AzRes  Slow  SRes Def   SNR       Amp   Per   Mag1   Mag2       ID
ETSF  000.16 184.0 m E Pg      2011/01/22 16:30:00.3   0.0                          T                                        4585657
ETSF  000.16 184.0 m E Sg      2011/01/22 16:30:02.5   0.0                          T                5.7  .21        Md 1.1  4585652
SJPF  000.50 276.8 m E Pg      2011/01/22 16:30:06.6   0.0                          T                                        4585656
SJPF  000.50 276.8 m E Sg      2011/01/22 16:30:13.1  -0.1                          T                 .9  .20        Md  .8  4585653
EPF   000.65 091.9 m E Pg      2011/01/22 16:30:09.2  -0.1                          T                                        4585655
EPF   000.65 091.9 m E Sg      2011/01/22 16:30:17.9   0.1                          T                1.2  .27        Md 1.0  4585654

.
EVENT     254068
    Date      Time       Latitude Longitude    Depth    Ndef Nsta Gap    Mag1  N    Mag2  N    Mag3  N   Author         ID
       rms   OT_Error      Smajor Sminor Az        Err   mdist  Mdist     Err        Err        Err      Quality

2011/01/22 17:17:45.2     42.9719   -1.3828      2.0      14    3 114  Ml 1.6  1  Md 1.5  3              js067245    254088

      0.29   +-  0.08       1.5    1.3   79.65 +-  0.0    0.17   1.27   +-         +-0.0                 m i ke

PYRENEES
Sta     Dist  EvAz     Phase      Date       Time     TRes  Azim  AzRes  Slow  SRes Def   SNR       Amp   Per   Mag1   Mag2       ID
SJPF  000.18 039.2 m E Pg      2011/01/22 17:17:49.1   0.2                          T                                        4585713
SJPF  000.18 039.2 m E Sg      2011/01/22 17:17:51.6   0.2                          T               26.6  .31        Md 1.5  4585711
ETSF  000.61 096.6 m E Pg      2011/01/22 17:17:56.1  -0.7                          T                                        4585712
ETSF  000.61 096.6 m E Sg      2011/01/22 17:18:04.3  -0.5                          T                1.7  .20        Md 1.5  4585710
EPF   001.27 086.8 m E Pg      2011/01/22 17:18:08.9   0.0                          T                                        4585708
EPF   001.27 086.8 m E Sg      2011/01/22 17:18:25.3   0.0                          T                 .8  .16 Ml 1.6 Md 1.5  4585709

.
EVENT     254069
    Date      Time       Latitude Longitude    Depth    Ndef Nsta Gap    Mag1  N    Mag2  N    Mag3  N   Author         ID
       rms   OT_Error      Smajor Sminor Az        Err   mdist  Mdist     Err        Err        Err      Quality

2011/01/22 18:21:08.0     47.1631    1.3521      5.0 f    22    9 200  Ml 2.0 11  Md 1.7  3              js067245    254089

      0.60   +-  0.10       2.2    1.0  164.85 +-  0.0    0.88   1.86   +-0.2      +-0.1                 m i ke

FRANCE
Sta     Dist  EvAz     Phase      Date       Time     TRes  Azim  AzRes  Slow  SRes Def   SNR       Amp   Per   Mag1   Mag2       ID
HYF   000.88 082.7 m E Pg      2011/01/22 18:21:24.7   0.0                          T                                        4585762
HYF   000.88 082.7 m E Sg      2011/01/22 18:21:36.1  -0.1                          T                                        4585761
TCF   001.06 145.7 m E Pg      2011/01/22 18:21:28.2   0.3                          T                                        4585760
TCF   001.06 145.7 m E Sg      2011/01/22 18:21:41.1  -0.5                          T                2.1  .18 Ml 2.0 Md 1.8  4585755
MFF   001.17 241.9 m E Pg      2011/01/22 18:21:29.6  -0.3                          T                                        4585771
MFF   001.17 241.9 m E Sg      2011/01/22 18:21:45.6   0.4                          T                2.0  .23 Ml 2.0 Md 1.7  4585765
BGF   001.19 120.0 m E Pg      2011/01/22 18:21:30.4   0.1                          T                                        4585774
BGF   001.19 120.0 m E Sg      2011/01/22 18:21:46.0   0.2                          T                9.3  .29 Ml 2.4 Md 1.6  4585767
AVF   001.42 104.5 m E Pg      2011/01/22 18:21:34.3  -0.2                          T                                        4585770
AVF   001.42 104.5 m E Sg      2011/01/22 18:21:53.4   0.6                          T                1.7  .26 Ml 1.8         4585769
SSF   001.47 093.2 m E Pg      2011/01/22 18:21:35.8   0.3                          T                                        4585759
SSF   001.47 093.2 m E Sg      2011/01/22 18:21:54.5  -0.1                          T                2.1  .30 Ml 2.0         4585756
LOR   001.71 085.6 m E Pg      2011/01/22 18:21:39.7  -0.2 267.1  -0.3              T                                        4585758
LOR   001.71 085.6 m E Sg      2011/01/22 18:22:01.9  -0.1 263.4  -4.0              T                1.8  .30 Ml 1.9         4585757
SMF   001.78 106.0 m E Pg      2011/01/22 18:21:41.2   0.0                          T                                        4585772
SMF   001.78 106.0 m E Sg      2011/01/22 18:22:04.3   0.0                          T                1.7  .20 Ml 2.1         4585768
RJF   001.86 176.4 m E Pg      2011/01/22 18:21:42.7   0.0                          T                                        4585763
RJF   001.86 176.4 m E Sg      2011/01/22 18:22:06.8   0.1                          T                1.7  .23 Ml 1.7         4585764

.
EVENT     254070
    Date      Time       Latitude Longitude    Depth    Ndef Nsta Gap    Mag1  N    Mag2  N    Mag3  N   Author         ID
       rms   OT_Error      Smajor Sminor Az        Err   mdist  Mdist     Err        Err        Err      Quality

2011/01/22 18:37:33.9     41.5980   -1.7738      2.0      16    4 123  Ml 2.0  4                         js067245    254090

      0.30   +-  0.06       1.7    1.1  114.98 +-  0.0    0.81   5.76   +-0.2                            m i ke

SPAIN
Sta     Dist  EvAz     Phase      Date       Time     TRes  Azim  AzRes  Slow  SRes Def   SNR       Amp   Per   Mag1   Mag2       ID
SJPF  001.57 014.9 m E Pn      2011/01/22 18:38:01.2   0.1                          T                                        4585858
SJPF  001.57 014.9 m E Sn      2011/01/22 18:38:21.3   0.5                          T                1.6  .27 Ml 1.8         4585853
ETSF  001.58 034.3 m E Pn      2011/01/22 18:38:01.6   0.2                          T                                        4585857
ETSF  001.58 034.3 m E Sn      2011/01/22 18:38:21.3   0.1                          T                1.5  .27 Ml 1.8         4585854
EPF   002.12 046.9 m E Pn      2011/01/22 18:38:09.0   0.3                          T                                        4585856
EPF   002.12 046.9 m E Sn      2011/01/22 18:38:34.3   0.3                          T                1.2  .21 Ml 2.0         4585855
EVOP  005.76 239.9 m E Pn      2011/01/22 18:38:58.2   0.2                          T                                        4585951
EVOP  005.76 239.9 m E Sn      2011/01/22 18:40:00.7  -0.1                          T                 .4  .22 Ml 2.3         4585952

.
