EVENT     262103
    Date      Time       Latitude Longitude    Depth    Ndef Nsta Gap    Mag1  N    Mag2  N    Mag3  N   Author         ID
       rms   OT_Error      Smajor Sminor Az        Err   mdist  Mdist     Err        Err        Err      Quality

2011/08/03 03:45:05.6     42.8956     .6433      2.0       6    3 202  Ml 0.9  2  Md 1.1  1              js067245    262103

      0.26   +-  0.21       9.1    2.2  175.99 +-  0.0    0.26   1.24   +-0.0      +-                    m i ke

PYRENEES
Sta     Dist  EvAz     Phase      Date       Time     TRes  Azim  AzRes  Slow  SRes Def   SNR       Amp   Per   Mag1   Mag2       ID
EPF   000.26 301.3 m E Pg      2011/08/03 03:45:10.8  -0.1                          T                                        4732185
EPF   000.26 301.3 m E Sg      2011/08/03 03:45:14.3   0.0                          T                8.3  .21        Md 1.1  4732184
ETSF  000.88 270.6 m E Pg      2011/08/03 03:45:22.2  -0.1                          T                                        4732182
ETSF  000.88 270.6 m E Sg      2011/08/03 03:45:34.4   0.5                          T                 .3  .25 Ml  .9         4732181
MTLF  001.24 068.3 m E Pg      2011/08/03 03:45:28.6  -0.1                          T                                        4732180
MTLF  001.24 068.3 m E Sg      2011/08/03 03:45:45.2   0.5                          T                 .2  .22 Ml  .9         4732183

.
EVENT     262104
    Date      Time       Latitude Longitude    Depth    Ndef Nsta Gap    Mag1  N    Mag2  N    Mag3  N   Author         ID
       rms   OT_Error      Smajor Sminor Az        Err   mdist  Mdist     Err        Err        Err      Quality

2011/08/03 03:46:48.6     44.2952    4.3971      6.0 f    35   16 118  Ml 1.9 17  Md 2.0  3              js067245    262104

      0.49   +-  0.07       1.2    1.0  155.91 +-  0.0    0.45   3.86   +-0.3      +-0.1                 m i ke

FRANCE
Sta     Dist  EvAz     Phase      Date       Time     TRes  Azim  AzRes  Slow  SRes Def   SNR       Amp   Per   Mag1   Mag2       ID
LASF  000.45 240.8 m E Pg      2011/08/03 03:46:57.3   0.1                          T                                        4732195
LASF  000.45 240.8 m E Sg      2011/08/03 03:47:02.7  -0.5                          T               11.4  .18        Md 1.9  4732202
VIVF  000.59 019.3 m E Pg      2011/08/03 03:47:00.1   0.2                          T                                        4732194
VIVF  000.59 019.3 m E Pn      2011/08/03 03:47:01.9  -0.2                          T                                        4733481
VIVF  000.59 019.3 m E Sg      2011/08/03 03:47:07.9   0.1                          T                6.7  .19        Md 2.1  4732201
VIVF  000.59 019.3 m E Sn      2011/08/03 03:47:10.8  -0.7                          T                9.7  .16        Md 2.0  4733480
ORIF  001.23 059.0 m E Pn      2011/08/03 03:47:11.3   0.5                          T                                        4733478
ORIF  001.23 059.0 m E Sn      2011/08/03 03:47:27.0   0.2                          T                 .8  .27 Ml 1.4         4733476
FRF   001.78 113.5 m E P       2011/08/03 03:47:20.2  -0.2                          T                                        4733477
FRF   001.78 113.5 m E Sn      2011/08/03 03:47:40.0   0.2                          T                                        4732189
FRF   001.78 113.5 m E Sg      2011/08/03 03:47:44.4  -0.3                          T                 .7  .17 Ml 1.8         4732200
CAF   001.78 291.5 m E Pg      2011/08/03 03:47:22.2   0.5                          T                                        4732197
CAF   001.78 291.5 m E Sg      2011/08/03 03:47:44.3  -0.5                          T                2.0  .23 Ml 2.1         4732206
MTLF  001.84 239.6 m E Pg      2011/08/03 03:47:22.8  -0.1                          T                                        4732196
MTLF  001.84 239.6 m E Sn      2011/08/03 03:47:41.3   0.0                          T                                        4732190
MTLF  001.84 239.6 m E Sg      2011/08/03 03:47:46.7   0.0                          T                2.7  .30 Ml 2.1         4732203
BGF   002.51 334.8 m E Pg      2011/08/03 03:47:36.0   0.8                          T                                        4733479
BGF   002.51 334.8 m E Sg      2011/08/03 03:48:06.4  -1.1                          T                1.2  .30 Ml 1.9         4732198
LMR   001.81 121.4 m E Sn      2011/08/03 03:47:39.9  -0.5                          T                                        4732188
LMR   001.81 121.4 m E Sg      2011/08/03 03:47:45.0  -0.5                          T                2.3  .29 Ml 2.1         4732199
LPL   002.06 052.8 m E Sg      2011/08/03 03:47:53.1  -0.6                          T                 .4  .23 Ml 1.5         4733475
RJF   002.29 297.2 m E Sg      2011/08/03 03:48:00.6   0.1                          T                1.2  .20 Ml 1.7         4732207
SMF   002.38 350.7 m E Sg      2011/08/03 03:48:03.0  -0.5                          T                1.4  .30 Ml 2.0         4732209
TCF   002.52 323.0 m E Sg      2011/08/03 03:48:07.8  -0.1                          T                 .9  .33 Ml 1.8         4733474
AVF   002.60 344.0 m E Sg      2011/08/03 03:48:10.1  -0.2                          T                 .7  .25 Ml 1.8         4732210
LFF   002.69 285.1 m E Sg      2011/08/03 03:48:12.5  -0.6                          T                2.2  .32 Ml 2.0         4732192
EPF   003.20 248.2 m E Sg      2011/08/03 03:48:28.5  -0.7                          T                1.5  .27 Ml 2.2         4732204
ETSF  003.86 250.5 m E Sn      2011/08/03 03:48:30.4   0.8                          T                                        4732191
ETSF  003.86 250.5 m E Sg      2011/08/03 03:48:50.4   0.7                          T                 .7  .31 Ml 1.9         4732205

.
EVENT     262113
    Date      Time       Latitude Longitude    Depth    Ndef Nsta Gap    Mag1  N    Mag2  N    Mag3  N   Author         ID
       rms   OT_Error      Smajor Sminor Az        Err   mdist  Mdist     Err        Err        Err      Quality

2011/08/03 03:57:37.5     44.6043   10.5774     10.0 f    30   13 104  Ml 2.6 10  Md 2.6  2              js067245    262113

      0.69   +-  0.19       4.6    3.3   83.32 +-  0.0    0.22   5.77   +-0.2      +-0.1                 m i ke

NORTHERN ITALY
Sta     Dist  EvAz     Phase      Date       Time     TRes  Azim  AzRes  Slow  SRes Def   SNR       Amp   Per   Mag1   Mag2       ID
PGF   002.35 209.7 m E Pn      2011/08/03 03:58:13.9  -0.7                          T                                        4732235
PGF   002.35 209.7 m E Sn      2011/08/03 03:58:41.4  -0.4                          T                3.1  .31 Ml 2.5 Md 2.6  4732233
SBF   002.38 252.9 m E Pn      2011/08/03 03:58:15.3   0.4                          T                                        4732227
SBF   002.38 252.9 m E Sn      2011/08/03 03:58:43.4   1.0                          T               16.7  .35 Ml 3.0 Md 2.7  4732219
FRF   003.02 251.1 m E Pn      2011/08/03 03:58:23.8   0.3                          T                                        4732229
FRF   003.02 251.1 m E Sn      2011/08/03 03:58:58.3   0.7                          T                3.5  .21 Ml 2.7         4732231
LMR   003.20 248.0 m E Pn      2011/08/03 03:58:25.8  -0.2                          T                                        4732234
LMR   003.20 248.0 m E Sn      2011/08/03 03:59:02.9   1.0                          T                3.3  .25 Ml 2.6         4732232
ORIF  003.36 277.0 m E Pn      2011/08/03 03:58:29.1   0.8                          T                                        4732230
CABF  003.74 304.1 m E Pn      2011/08/03 03:58:33.3  -0.1                          T                                        4732223
HINF  004.12 322.5 m E Pn      2011/08/03 03:58:38.2  -0.4                          T                                        4732222
HINF  004.12 322.5 m E Sn      2011/08/03 03:59:22.8  -1.3                          T                3.9  .36 Ml 2.7         4732216
VIVF  004.22 275.5 m E Pn      2011/08/03 03:58:40.2   0.4                          T                                        4732228
VIVF  004.22 275.5 m E Sn      2011/08/03 03:59:27.8   1.6                          T                 .6  .21 Ml 2.2         4732218
CDF   004.44 330.3 m E Pn      2011/08/03 03:58:42.6  -0.4                          T                                        4732220
CDF   004.44 330.3 m E Sn      2011/08/03 03:59:30.4  -1.2                          T                1.0  .22 Ml 2.5         4732214
HAU   004.49 320.8 m E Pn      2011/08/03 03:58:43.2  -0.4                          T                                        4732221
HAU   004.49 320.8 m E Sn      2011/08/03 03:59:32.8   0.0                          T                4.1  .22 Ml 2.8         4732215
SMF   005.15 295.7 m E Pn      2011/08/03 03:58:52.3  -0.2                          T                                        4732226
SMF   005.15 295.7 m E Sn      2011/08/03 03:59:49.1   0.7                          T                 .7  .22 Ml 2.4         4732217
AVF   005.51 295.9 m E Pn      2011/08/03 03:58:57.4  -0.1                          T                                        4732224
BGF   005.77 292.5 m E Pn      2011/08/03 03:59:00.8  -0.2                          T                                        4732225

.
EVENT     262114
    Date      Time       Latitude Longitude    Depth    Ndef Nsta Gap    Mag1  N    Mag2  N    Mag3  N   Author         ID
       rms   OT_Error      Smajor Sminor Az        Err   mdist  Mdist     Err        Err        Err      Quality

2011/08/03 04:40:06.9     47.9753    7.2404      3.0 f    18    8 207  Ml 1.8  6  Md 1.8  3              js067245    262114

      0.70   +-  0.16       2.7    1.8  105.76 +-  0.0    0.31   2.39   +-0.4      +-0.0                 m i ke

SWITZERLAND
Sta     Dist  EvAz     Phase      Date       Time     TRes  Azim  AzRes  Slow  SRes Def   SNR       Amp   Per   Mag1   Mag2       ID
HINF  000.31 238.8 m E Pg      2011/08/03 04:40:13.2   0.3                          T                                        4732247
HINF  000.31 238.8 m E Sg      2011/08/03 04:40:16.0  -0.1                          T                5.2  .19        Md 1.8  4732246
CDF   000.44 003.1 m E Pg      2011/08/03 04:40:15.3  -0.2                          T                                        4732250
CDF   000.44 003.1 m E Sg      2011/08/03 04:40:20.6  -0.7                          T                5.8  .25        Md 1.8  4732236
HAU   000.60 273.2 m E Pg      2011/08/03 04:40:18.1  -0.2                          T                                        4732248
HAU   000.60 273.2 m E Sg      2011/08/03 04:40:25.8  -0.4                          T                2.4  .25        Md 1.8  4732237
THEF  000.87 287.3 m E Pg      2011/08/03 04:40:23.6   0.3                          T                                        4732249
THEF  000.87 287.3 m E Sg      2011/08/03 04:40:34.4  -0.3                          T                2.7  .22 Ml 1.8         4732245
PAGF  001.17 300.4 m E Pg      2011/08/03 04:40:29.1   0.4 124.1  4.9               T                                        4732243
PAGF  001.17 300.4 m E Sg      2011/08/03 04:40:44.2   0.4 116.2  -3.1              T                 .4  .22 Ml 1.1         4732244
CABF  001.57 210.3 m E Pn      2011/08/03 04:40:34.1   0.0                          T                                        4732242
CABF  001.57 210.3 m E Pg      2011/08/03 04:40:36.2  -0.1                          T                                        4733059
CABF  001.57 210.3 m E Sg      2011/08/03 04:40:57.1   0.4                          T                 .7  .23 Ml 1.5         4732241
SFTF  001.49 279.7 m E Pg      2011/08/03 04:40:34.8   0.0                          T                                        4733060
SFTF  001.49 279.7 m E Sg      2011/08/03 04:40:53.9  -0.1                          T                1.4  .22 Ml 1.8         4733061
LOR   002.39 254.1 m E Pg      2011/08/03 04:40:51.1  -0.3                          T                                        4732239
LOR   002.39 254.1 m E Sg      2011/08/03 04:41:21.8  -0.4  79.0  7.4               T                1.3  .21 Ml 2.1         4732240

.
EVENT     262107
    Date      Time       Latitude Longitude    Depth    Ndef Nsta Gap    Mag1  N    Mag2  N    Mag3  N   Author         ID
       rms   OT_Error      Smajor Sminor Az        Err   mdist  Mdist     Err        Err        Err      Quality

2011/08/03 05:19:54.1     44.2903    4.4028      7.0 f    43   18 118  Ml 2.2 20  Md 2.3  3              js067245    262107

      0.50   +-  0.06       1.0     .9  149.64 +-  0.0    0.45   3.21   +-0.2      +-0.1                 m i ke

FRANCE
Sta     Dist  EvAz     Phase      Date       Time     TRes  Azim  AzRes  Slow  SRes Def   SNR       Amp   Per   Mag1   Mag2       ID
LASF  000.45 241.6 m E Pg      2011/08/03 05:20:02.7   0.0                          T                                        4732256
LASF  000.45 241.6 m E Sg      2011/08/03 05:20:08.3  -0.4                          T               10.4  .18        Md 2.4  4732257
VIVF  000.60 018.7 m E Pg      2011/08/03 05:20:05.5   0.0                          T                                        4732254
VIVF  000.60 018.7 m E Sg      2011/08/03 05:20:13.5   0.1                          T               11.8  .20        Md 2.4  4732255
VIVF  000.60 018.7 m E Sn      2011/08/03 05:20:16.2  -0.7                          T               23.1  .18        Md 2.2  4733523
ORIF  001.23 058.7 m E Pn      2011/08/03 05:20:16.4   0.3                          T                                        4733511
ORIF  001.23 058.7 m E Sn      2011/08/03 05:20:31.9  -0.1                          T                1.5  .30 Ml 1.6         4733512
CAF   001.79 291.6 m E Pn      2011/08/03 05:20:23.9   0.2                          T                                        4733522
CAF   001.79 291.6 m E Pg      2011/08/03 05:20:27.8   0.4                          T                                        4732262
CAF   001.79 291.6 m E Sg      2011/08/03 05:20:49.7  -0.8                          T                6.7  .22 Ml 2.6         4732263
MTLF  001.84 239.8 m E Pn      2011/08/03 05:20:24.3  -0.2                          T                                        4733521
MTLF  001.84 239.8 m E Pg      2011/08/03 05:20:28.2  -0.2                          T                                        4732258
MTLF  001.84 239.8 m E Sn      2011/08/03 05:20:46.4  -0.2                          T                                        4732259
MTLF  001.84 239.8 m E Sg      2011/08/03 05:20:52.4   0.2                          T                3.4  .22 Ml 2.4         4732260
LMR   001.80 121.4 m E Pg      2011/08/03 05:20:27.5  -0.1                          T                                        4732251
LMR   001.80 121.4 m E Sn      2011/08/03 05:20:45.1  -0.4                          T                                        4732252
LMR   001.80 121.4 m E Sg      2011/08/03 05:20:50.5  -0.2                          T                2.3  .22 Ml 2.2         4732253
RJF   002.29 297.3 m E Pn      2011/08/03 05:20:30.9   0.4                          T                                        4733520
RJF   002.29 297.3 m E Pg      2011/08/03 05:20:37.1   0.5                          T                                        4732265
RJF   002.29 297.3 m E Sg      2011/08/03 05:21:05.9  -0.2                          T                3.0  .19 Ml 2.1         4732266
SMF   002.39 350.7 m E Pg      2011/08/03 05:20:38.7   0.3                          T                                        4732271
SMF   002.39 350.7 m E Sg      2011/08/03 05:21:09.1   0.0                          T                1.8  .25 Ml 2.1         4732272
TCF   002.53 323.0 m E Pg      2011/08/03 05:20:41.0   0.0                          T                                        4732273
TCF   002.53 323.0 m E Sg      2011/08/03 05:21:13.4  -0.1                          T                2.0  .25 Ml 2.3         4733515
BGF   002.52 334.8 m E Pg      2011/08/03 05:20:41.2   0.4                          T                                        4732269
BGF   002.52 334.8 m E Sg      2011/08/03 05:21:12.4  -0.9                          T                2.8  .28 Ml 2.3         4732270
CABF  002.61 026.5 m E Pg      2011/08/03 05:20:42.5   0.0                          T                                        4733518
CABF  002.61 026.5 m E Sg      2011/08/03 05:21:15.5  -0.5                          T                1.2  .25 Ml 2.0         4733514
LFF   002.69 285.2 m E Pg      2011/08/03 05:20:44.0   0.0                          T                                        4733519
LFF   002.69 285.2 m E Sg      2011/08/03 05:21:18.3  -0.4                          T                2.4  .22 Ml 2.2         4732264
FRF   001.78 113.4 m E Sg      2011/08/03 05:20:49.8  -0.3                          T                2.9  .28 Ml 2.2         4733510
SBF   002.23 100.0 m E Sg      2011/08/03 05:21:04.3   0.1                          T                2.1  .25 Ml 2.2         4733509
AVF   002.61 343.9 m E Sg      2011/08/03 05:21:15.5  -0.4                          T                 .8  .19 Ml 2.0         4733513
SSF   002.84 347.5 m E Sg      2011/08/03 05:21:22.9  -0.4                          T                1.5  .29 Ml 2.2         4733516
LOR   003.00 352.9 m E Sg      2011/08/03 05:21:27.8  -0.5                          T                1.5  .27 Ml 2.2         4733517
EPF   003.21 248.3 m E Sg      2011/08/03 05:21:34.4  -0.3                          T                2.0  .19 Ml 2.5         4732261

.
