BEGIN GSE2.0
MSG_TYPE DATA
MSG_ID 19-SEP-1213:03:21  FRA_NDC
E-MAIL
DATA_TYPE BULLETIN
Reviewed Bulletin (REB) # P2012-037  from French NDC for regional phases     PERIOD 12 SEP 2012 TO 18 SEP 2012 Cenalt JP S
EVENT     283127
    Date      Time       Latitude Longitude    Depth    Ndef Nsta Gap    Mag1  N    Mag2  N    Mag3  N   Author         ID
       rms   OT_Error      Smajor Sminor Az        Err   mdist  Mdist     Err        Err        Err      Quality

2012/09/12 00:32:55.6     47.9876    6.3833      6.0 f    40   15 088  Ml 2.2  9  Md 2.6  2              bulletin    283227
                                                                                                         _ldg
      0.77   +-  0.07       1.5    1.2  178.62 +-  0.0    0.03   2.80   +-0.2      +-0.1                 m i ke

FRANCE
Sta     Dist  EvAz     Phase      Date       Time     TRes  Azim  AzRes  Slow  SRes Def   SNR       Amp   Per   Mag1   Mag2       ID
HAU   000.03 307.2 m E Pg      2012/09/12 00:32:57.1  -0.2                          T                                        5067947
HAU   000.03 307.2 m E Sg      2012/09/12 00:32:58.2  -0.1                          T              164.9  .20        Md 2.7  5067953
HINF  000.36 118.2 m E Pg      2012/09/12 00:33:02.5  -0.2                          T                                        5067946
HINF  000.36 118.2 m E Sg      2012/09/12 00:33:07.2  -0.3                          T               30.7  .18        Md 2.6  5067954
THEF  000.36 312.8 m E Pg      2012/09/12 00:33:02.7   0.1                          T                                        5069981
THEF  000.36 312.8 m E Sg      2012/09/12 00:33:07.1  -0.3                          T                                        5069980
CDF   000.73 054.2 m E Pg      2012/09/12 00:33:09.3  -0.3                          T                                        5070136
CDF   000.73 054.2 m E P       2012/09/12 00:33:10.6  -0.5                          T                                        5067958
CDF   000.73 054.2 m E Sg      2012/09/12 00:33:18.8  -0.4                          T               12.9  .27                5067949
PAGF  000.72 322.5 m E Pg      2012/09/12 00:33:09.5   0.3 144.1  2.1               T                                        5070135
PAGF  000.72 322.5 m E P       2012/09/12 00:33:10.6  -0.1                          T                                        5067959
PAGF  000.72 322.5 m E Sg      2012/09/12 00:33:19.1   0.5 149.7  7.7               T                6.0  .19                5067950
SFTF  000.93 284.1 m E Pg      2012/09/12 00:33:13.3   0.3 103.6  0.5               T                                        5070133
SFTF  000.93 284.1 m E Pn      2012/09/12 00:33:13.9   0.3                          T                                        5067961
SFTF  000.93 284.1 m E Sg      2012/09/12 00:33:25.8   0.6                          T                6.3  .21 Ml 2.3         5067952
MEZF  001.03 300.5 m E Pg      2012/09/12 00:33:15.0   0.1 120.5  0.9               T                                        5070134
MEZF  001.03 300.5 m E P       2012/09/12 00:33:16.7   0.2                          T                                        5067960
MEZF  001.03 300.5 m E Sg      2012/09/12 00:33:28.6   0.4 129.0  9.5               T                3.7  .17 Ml 2.2         5067951
CABF  001.39 188.4 m E Pn      2012/09/12 00:33:20.5   0.4                          T                                        5067956
CABF  001.39 188.4 m E Pg      2012/09/12 00:33:21.8   0.1                          T                                        5070132
CABF  001.39 188.4 m E Sg      2012/09/12 00:33:39.1  -0.6                          T                1.4  .19 Ml 1.9         5067955
LOR   001.85 248.1 m E Pn      2012/09/12 00:33:26.2   0.0                          T                                        5067957
LOR   001.85 248.1 m E Pg      2012/09/12 00:33:30.2   0.0  71.1  4.8               T                                        5070137
LOR   001.85 248.1 m E Sg      2012/09/12 00:33:53.6  -0.4  76.5  10.2              T                4.1  .22 Ml 2.5         5067948
SMF   002.19 233.1 m E Pn      2012/09/12 00:33:30.5  -0.3                          T                                        5070129
SMF   002.19 233.1 m E Pg      2012/09/12 00:33:36.7   0.4                          T                                        5070128
SMF   002.19 233.1 m E Sn      2012/09/12 00:33:56.2  -0.4                          T                                        5070123
SMF   002.19 233.1 m E Sg      2012/09/12 00:34:03.8  -0.7                          T                2.4  .18 Ml 2.4         5070122
AVF   002.38 240.9 m E Pn      2012/09/12 00:33:32.8  -0.6                          T                                        5070131
AVF   002.38 240.9 m E Pg      2012/09/12 00:33:39.9   0.1                          T                                        5070130
AVF   002.38 240.9 m E Sg      2012/09/12 00:34:09.7  -0.8                          T                 .9  .22 Ml 1.9         5070121
SSF   002.16 245.6 m E Pg      2012/09/12 00:33:35.7   0.0                          T                                        5070138
SSF   002.16 245.6 m E Sg      2012/09/12 00:34:03.1  -0.4                          T                1.9  .25 Ml 2.2         5070141
BGF   002.80 240.6 m E Pn      2012/09/12 00:33:39.9   0.8                          T                                        5070127
BGF   002.80 240.6 m E Pg      2012/09/12 00:33:47.5   0.0                          T                                        5070126
BGF   002.80 240.6 m E Sg      2012/09/12 00:34:22.6  -1.0                          T                3.0  .34 Ml 2.3         5070125
BAIF  002.52 326.2 m E Pg      2012/09/12 00:33:41.7  -0.6                          T                                        5070139
BAIF  002.52 326.2 m E Sn      2012/09/12 00:34:03.7  -0.8                          T                                        5070140
BAIF  002.52 326.2 m E Sg      2012/09/12 00:34:14.6  -0.2                          T                1.6  .27 Ml 2.1         5070120
HYF   002.63 255.5 m E Sg      2012/09/12 00:34:18.2  -0.1                          T                                        5070124

.
EVENT     283128
    Date      Time       Latitude Longitude    Depth    Ndef Nsta Gap    Mag1  N    Mag2  N    Mag3  N   Author         ID
       rms   OT_Error      Smajor Sminor Az        Err   mdist  Mdist     Err        Err        Err      Quality

2012/09/12 00:36:32.6     47.9772    6.4052      2.0       8    6 095  Ml 1.2  2  Md 1.1  2              bulletin    283228
                                                                                                         _ldg
      0.19   +-  0.07       2.1    1.3   31.19 +-  0.0    0.05   1.38   +-0.0      +-0.3                 m i ke

FRANCE
Sta     Dist  EvAz     Phase      Date       Time     TRes  Azim  AzRes  Slow  SRes Def   SNR       Amp   Per   Mag1   Mag2       ID
HAU   000.05 306.5 m E Pg      2012/09/12 00:36:34.0   0.0                          T                                        5067965
HAU   000.05 306.5 m E Sg      2012/09/12 00:36:35.1   0.3                          T                3.8  .28        Md 1.3  5067962
HINF  000.34 117.9 m E Pg      2012/09/12 00:36:39.3   0.0                          T                                        5067964
HINF  000.34 117.9 m E Sg      2012/09/12 00:36:44.2   0.3                          T                 .4  .15        Md  .9  5067963
CDF   000.73 052.9 m E Sg      2012/09/12 00:36:55.6  -0.3                          T                 .6  .27                5070145
PAGF  000.74 322.1 m E Sg      2012/09/12 00:36:56.1   0.0                          T                 .9  .26                5070144
SFTF  000.94 284.5 m E Sg      2012/09/12 00:37:02.7   0.1                          T                 .5  .22 Ml 1.2         5070143
CABF  001.38 189.1 m E Sg      2012/09/12 00:37:16.1  -0.3                          T                 .3  .19 Ml 1.2         5070142

.
EVENT     283129
    Date      Time       Latitude Longitude    Depth    Ndef Nsta Gap    Mag1  N    Mag2  N    Mag3  N   Author         ID
       rms   OT_Error      Smajor Sminor Az        Err   mdist  Mdist     Err        Err        Err      Quality

2012/09/12 00:37:16.0     47.9843    6.4088      4.8      14    7 094  Ml 1.6  3  Md 1.4  2              bulletin    283229
                                                                                                         _ldg
      0.16   +-  0.05       1.3     .9   36.42 +-  0.6    0.05   1.39   +-0.1      +-0.3                 m i ke

FRANCE
Sta     Dist  EvAz     Phase      Date       Time     TRes  Azim  AzRes  Slow  SRes Def   SNR       Amp   Per   Mag1   Mag2       ID
HAU   000.05 297.6 m E Pg      2012/09/12 00:37:17.5  -0.1                          T                                        5067969
HAU   000.05 297.6 m E Sg      2012/09/12 00:37:18.6  -0.1                          T               17.3  .23        Md 1.6  5067966
HINF  000.34 119.1 m E Pg      2012/09/12 00:37:22.8   0.1                          T                                        5067968
HINF  000.34 119.1 m E Sg      2012/09/12 00:37:27.6   0.3                          T                3.8  .18        Md 1.2  5067967
PAGF  000.73 321.6 m E Pg      2012/09/12 00:37:29.9   0.1                          T                                        5070147
PAGF  000.73 321.6 m E Sg      2012/09/12 00:37:39.6   0.2                          T                1.4  .23                5070154
CDF   000.72 053.3 m E P       2012/09/12 00:37:31.1  -0.1                          T                                        5070146
CDF   000.72 053.3 m E Sg      2012/09/12 00:37:39.2   0.1                          T                1.1  .26                5070155
SFTF  000.94 284.0 m E Pn      2012/09/12 00:37:34.3  -0.1                          T                                        5070149
SFTF  000.94 284.0 m E Sg      2012/09/12 00:37:46.3   0.2                          T                1.9  .31 Ml 1.6         5070152
MEZF  001.04 300.2 m E P       2012/09/12 00:37:37.2   0.0                          T                                        5070148
MEZF  001.04 300.2 m E Sg      2012/09/12 00:37:49.1   0.0                          T                1.9  .32 Ml 1.6         5070153
CABF  001.39 189.2 m E Pg      2012/09/12 00:37:42.2   0.2                          T                                        5070150
CABF  001.39 189.2 m E Sg      2012/09/12 00:37:59.7  -0.4                          T                 .6  .20 Ml 1.5         5070151

.
EVENT     283130
    Date      Time       Latitude Longitude    Depth    Ndef Nsta Gap    Mag1  N    Mag2  N    Mag3  N   Author         ID
       rms   OT_Error      Smajor Sminor Az        Err   mdist  Mdist     Err        Err        Err      Quality

2012/09/12 03:03:09.9     44.9130   11.0158      2.0     108   24 051  Ml 2.9 25                         bulletin    283230
                                                                                                         _ldg
      0.73   +-  0.09       2.6    2.0   54.21 +-  0.0    0.15   6.36   +-0.3                            m i ke

NORTHERN ITALY
Sta     Dist  EvAz     Phase      Date       Time     TRes  Azim  AzRes  Slow  SRes Def   SNR       Amp   Per   Mag1   Mag2       ID
PGF   002.78 212.4 m E Pn      2012/09/12 03:03:53.5  -0.1                          T   001.0                                5068032
PGF   002.78 212.4 m E Sn      2012/09/12 03:04:26.1   0.3                          T   001.0       11.8  .28 Ml 3.2         5067993
SBF   002.77 249.0 m E Pn      2012/09/12 03:03:53.7   0.2                          T   001.0                                5067994
SBF   002.77 249.0 m E Sn      2012/09/12 03:04:25.6   0.0                          T   001.0       30.5  .28 Ml 3.4         5067996
MBDF  003.03 268.0 m E Pn      2012/09/12 03:03:55.9  -1.2                          T   001.0                                5068026
MBDF  003.03 268.0 m E Sn      2012/09/12 03:04:32.1   0.4                          T   001.0       15.7  .48 Ml 2.9         5068027
LPL   003.09 282.8 m E Pn      2012/09/12 03:03:57.4  -0.6                          T   001.0                                5068021
LPL   003.09 282.8 m E Sg      2012/09/12 03:04:47.3   0.3                          T   001.0         10  .36 Ml 2.9         5068023
LPG   003.07 282.5 m E Pn      2012/09/12 03:03:58.4   0.6                          T   001.0                                5068020
LPG   003.07 282.5 m E Sn      2012/09/12 03:04:33.7   0.8                          T                3.4  .22 Ml 2.6         5068045
FRF   003.42 248.2 m E Pn      2012/09/12 03:04:02.2   0.0                          T   001.0                                5068005
FRF   003.42 248.2 m E Sn      2012/09/12 03:04:40.9   0.0                          T   001.0        8.4  .16 Ml 3.3         5068007
LMR   003.61 245.6 m E Pn      2012/09/12 03:04:04.7  -0.1                          T   001.0                                5068013
LMR   003.61 245.6 m E Sn      2012/09/12 03:04:45.6   0.2                          T   001.0       12.6  .28 Ml 3.2         5068015
ORIF  003.65 271.9 m E Pn      2012/09/12 03:04:06.9   1.4                          T   001.0                                5068029
ORIF  003.65 271.9 m E Sn      2012/09/12 03:04:46.0   0.5                          T   001.0        7.7  .36 Ml 2.9         5068030
CABF  003.84 298.0 m E Pn      2012/09/12 03:04:08.4   0.3                          T   001.0                                5068017
CABF  003.84 298.0 m E Sn      2012/09/12 03:04:52.1   0.9                          T   001.0                                5068019
CABF  003.84 298.0 m E Sg      2012/09/12 03:05:12.1   1.6                          T   001.0       10.2  .68 Ml 2.8         5068022
SMRF  004.01 258.4 m E Pn      2012/09/12 03:04:10.5   0.3                          T                                        5068040
SMRF  004.01 258.4 m E Sn      2012/09/12 03:04:54.9  -0.1                          T                 .7  .22 Ml 2.1         5068043
HINF  004.09 316.7 m E Pn      2012/09/12 03:04:11.7   0.3                          T   001.0                                5068024
HINF  004.09 316.7 m E Sn      2012/09/12 03:04:57.2   0.2                          T   001.0        5.3  .32 Ml 2.9         5068025
CDF   004.34 325.0 m E Pn      2012/09/12 03:04:15.4   0.5                          T   001.0                                5068001
CDF   004.34 325.0 m E Sn      2012/09/12 03:05:03.6   0.4                          T   001.0        1.7  .25 Ml 2.7         5068003
HAU   004.47 315.5 m E Pn      2012/09/12 03:04:16.9   0.3                          T   001.0                                5068009
HAU   004.47 315.5 m E Sn      2012/09/12 03:05:06.6   0.5                          T   001.0       11.0  .27 Ml 3.2         5068010
VIVF  004.51 271.5 m E Pn      2012/09/12 03:04:17.0  -0.1                          T   001.0                                5068031
VIVF  004.51 271.5 m E Sn      2012/09/12 03:05:07.5   0.5                          T   001.0        1.1  .23 Ml 2.4         5068033
LASF  005.19 263.2 m E Pn      2012/09/12 03:04:26.6   0.2                          T   001.0                                5068011
LASF  005.19 263.2 m E Sn      2012/09/12 03:05:23.6   0.3                          T   001.0        1.0  .23 Ml 2.6         5068012
SMF   005.31 291.6 m E Pn      2012/09/12 03:04:28.6   0.6                          T   001.0                                5067999
SMF   005.31 291.6 m E Sn      2012/09/12 03:05:26.7   0.6                          T   001.0        4.4  .25 Ml 3.2         5068002
LOR   005.51 297.9 m E Pn      2012/09/12 03:04:31.0   0.3                          T   001.0                                5068016
LOR   005.51 297.9 m E Sn      2012/09/12 03:05:30.7  -0.2                          T   001.0        3.3  .25 Ml 3.1         5068018
SSF   005.66 295.0 m E Pn      2012/09/12 03:04:33.3   0.6                          T   001.0                                5068004
SSF   005.66 295.0 m E Sn      2012/09/12 03:05:36.2   1.8                          T   001.0        1.7  .28 Ml 2.9         5068006
AVF   005.67 292.0 m E Pn      2012/09/12 03:04:33.8   1.0                          T   001.0                                5067995
BGF   005.95 288.9 m E Pn      2012/09/12 03:04:37.2   0.5                          T   001.0                                5067997
BGF   005.95 288.9 m E Sn      2012/09/12 03:05:41.9   0.5                          T   001.0       12.8  .46 Ml 3.5         5067998
TCF   006.33 285.7 m E Pn      2012/09/12 03:04:42.5   0.6                          T   001.0                                5068008
TCF   006.33 285.7 m E Sn      2012/09/12 03:05:51.3   0.8                          T   001.0        2.3  .44 Ml 2.9         5068014
CAF   006.36 273.3 m E Pn      2012/09/12 03:04:43.0   0.7                          T   001.0                                5068000
PAGF  005.15 316.9 m E Sn      2012/09/12 03:05:23.0   0.8                          T                1.6  .24 Ml 2.7         5068047
MEZF  005.45 313.3 m E Sn      2012/09/12 03:05:30.1   0.7                          T   001.0        1.7  .25 Ml 2.8         5068028

.
