EVENT     259782
    Date      Time       Latitude Longitude    Depth    Ndef Nsta Gap    Mag1  N    Mag2  N    Mag3  N   Author         ID
       rms   OT_Error      Smajor Sminor Az        Err   mdist  Mdist     Err        Err        Err      Quality

2011/05/28 04:21:43.9     42.9441     .7723      2.0      29    6 064  Ml 1.8  6  Md 2.2  1              js067245    259782

      0.59   +-  0.06       1.2    1.0   40.63 +-  0.0    0.24   2.42   +-0.3      +-                    m i ke

PYRENEES
Sta     Dist  EvAz     Phase      Date       Time     TRes  Azim  AzRes  Slow  SRes Def   SNR       Amp   Per   Mag1   Mag2       ID
EPF   000.33 285.3 m E Pg      2011/05/28 04:21:50.0  -0.3                          T                                        4702591
EPF   000.33 285.3 m E Sg      2011/05/28 04:21:54.2  -0.5                          T               23.1  .30        Md 2.2  4702592
ETSF  000.98 267.8 m E Pg      2011/05/28 04:22:01.8  -0.6                          T                                        4702586
ETSF  000.98 267.8 m E Sg      2011/05/28 04:22:14.6  -0.5                          T                1.2  .28 Ml 1.4         4702587
MTLF  001.13 068.9 m E Pn      2011/05/28 04:22:04.0  -1.1                          T                                        4702589
MTLF  001.13 068.9 m E Pg      2011/05/28 04:22:05.2   0.2                          T                                        4702588
MTLF  001.13 068.9 m E Sn      2011/05/28 04:22:20.4   0.1                          T                2.3  .20 Ml 1.9         4702590
LFF   002.00 359.3 m E Pg      2011/05/28 04:22:20.9   0.0                          T                                        4702653
LFF   002.00 359.3 m E Sg      2011/05/28 04:22:46.6  -0.1                          T                 .8  .23 Ml 1.6         4702656
CAF   002.19 024.8 m E Pg      2011/05/28 04:22:24.6   0.0                          T                                        4702654
CAF   002.19 024.8 m E Sg      2011/05/28 04:22:52.6  -0.2                          T                1.2  .17 Ml 2.1         4702585
RJF   002.42 012.5 m E Pg      2011/05/28 04:22:28.8   0.0                          T                                        4702655
RJF   002.42 012.5 m E Sg      2011/05/28 04:23:00.0   0.0                          T                1.4  .20 Ml 1.8         4702657

.
EVENT     259783
    Date      Time       Latitude Longitude    Depth    Ndef Nsta Gap    Mag1  N    Mag2  N    Mag3  N   Author         ID
       rms   OT_Error      Smajor Sminor Az        Err   mdist  Mdist     Err        Err        Err      Quality

2011/05/28 04:31:37.8     42.9418     .7839      2.0      31    6 064  Ml 1.7  6  Md 1.9  1              js067245    259783

      1.08   +-  0.08       1.6    1.4   34.37 +-  0.0    0.23   2.42   +-0.3      +-                    m i ke

PYRENEES
Sta     Dist  EvAz     Phase      Date       Time     TRes  Azim  AzRes  Slow  SRes Def   SNR       Amp   Per   Mag1   Mag2       ID
EPF   000.34 285.3 m E Pg      2011/05/28 04:31:44.0  -0.4                          T                                        4702667
EPF   000.34 285.3 m E Sg      2011/05/28 04:31:48.1  -0.8                          T                7.7  .24        Md 1.9  4702664
ETSF  000.99 268.0 m E Pg      2011/05/28 04:31:55.6  -0.8                          T                                        4702668
ETSF  000.99 268.0 m E Sg      2011/05/28 04:32:08.4  -0.8                          T                 .7  .20 Ml 1.3         4702663
MTLF  001.12 068.7 m E Pg      2011/05/28 04:31:59.1   0.3                          T                                        4702666
MTLF  001.12 068.7 m E Sn      2011/05/28 04:32:14.3   0.3                          T                1.6  .18 Ml 1.8         4702665
LFF   002.00 359.1 m E Pg      2011/05/28 04:32:14.8  -0.1                          T                                        4702670
LFF   002.00 359.1 m E Sg      2011/05/28 04:32:40.5  -0.2                          T                1.3  .30 Ml 1.7         4702661
CAF   002.19 024.6 m E Pg      2011/05/28 04:32:18.4  -0.1                          T                                        4702669
CAF   002.19 024.6 m E Sg      2011/05/28 04:32:46.5  -0.2                          T                1.4  .23 Ml 2.0         4702662
RJF   002.42 012.3 m E Pg      2011/05/28 04:32:22.6  -0.1                          T                                        4702671
RJF   002.42 012.3 m E Sg      2011/05/28 04:32:53.9   0.0                          T                 .6  .19 Ml 1.5         4702660

.
EVENT     259784
    Date      Time       Latitude Longitude    Depth    Ndef Nsta Gap    Mag1  N    Mag2  N    Mag3  N   Author         ID
       rms   OT_Error      Smajor Sminor Az        Err   mdist  Mdist     Err        Err        Err      Quality

2011/05/28 06:05:51.4     45.4759    6.4131      2.0      15    6 195  Ml 1.9  2  Md 1.6  2              js067245    259784

      0.42   +-  0.10       2.6    1.1  157.35 +-  0.0    0.23   2.30   +-0.1      +-0.1                 m i ke

FRANCE
Sta     Dist  EvAz     Phase      Date       Time     TRes  Azim  AzRes  Slow  SRes Def   SNR       Amp   Per   Mag1   Mag2       ID
LPL   000.23 079.7 m E Pg      2011/05/28 06:05:56.1  -0.1                          T                                        4702674
LPL   000.23 079.7 m E Sg      2011/05/28 06:05:59.5   0.1                          T                3.4  .23        Md 1.7  4702675
LPG   000.24 084.6 m E Pg      2011/05/28 06:05:56.4  -0.1                          T                                        4702672
LPG   000.24 084.6 m E Sg      2011/05/28 06:05:59.7  -0.1                          T                4.5  .21        Md 1.6  4702673
ORIF  000.67 214.2 m E Pg      2011/05/28 06:06:04.4   0.2                          T                                        4702679
ORIF  000.67 214.2 m E Sg      2011/05/28 06:06:12.8  -0.2                          T                2.3  .21                4702680
MBDF  000.79 161.2 m E Pg      2011/05/28 06:06:06.4  -0.1                          T                                        4702685
MBDF  000.79 161.2 m E Sg      2011/05/28 06:06:16.7  -0.2                          T                                        4702686
MBDF  000.79 161.2 m E Sn      2011/05/28 06:06:19.7  -0.2                          T                 .8  .18                4702676
VIVF  001.38 243.9 m E Pg      2011/05/28 06:06:17.3   0.1                          T                                        4702677
VIVF  001.38 243.9 m E Sg      2011/05/28 06:06:35.1   0.1                          T                2.1  .22 Ml 2.0         4702678
LASF  002.30 233.3 m E Pg      2011/05/28 06:06:34.0  -0.1                          T                                        4702683
LASF  002.30 233.3 m E Sn      2011/05/28 06:06:55.6  -0.1                          T                 .7  .23 Ml 1.8         4702684

.
EVENT     259785
    Date      Time       Latitude Longitude    Depth    Ndef Nsta Gap    Mag1  N    Mag2  N    Mag3  N   Author         ID
       rms   OT_Error      Smajor Sminor Az        Err   mdist  Mdist     Err        Err        Err      Quality

2011/05/28 07:03:21.4     44.6167    7.1924      2.0      16    9 186  Ml 1.6  7  Md 1.6  1              js067245    259785

      0.15   +-  0.07       1.5     .7   76.34 +-  0.0    0.32   1.81   +-0.3      +-                    m i ke

NORTHERN ITALY
Sta     Dist  EvAz     Phase      Date       Time     TRes  Azim  AzRes  Slow  SRes Def   SNR       Amp   Per   Mag1   Mag2       ID
MBDF  000.32 290.3 m E Pg      2011/05/28 07:03:28.2   0.4                          T                                        4702720
MBDF  000.32 290.3 m E Sg      2011/05/28 07:03:32.1   0.0                          T               14.9  .24        Md 1.6  4702721
SBF   000.77 166.9 m E Pg      2011/05/28 07:03:36.1   0.0                          T                                        4702715
SBF   000.77 166.9 m E Sg      2011/05/28 07:03:46.4   0.2                          T                 .9  .15                4702706
LPG   000.93 340.6 m E Pg      2011/05/28 07:03:39.2  -0.1                          T                                        4702717
LPG   000.93 340.6 m E Sg      2011/05/28 07:03:51.5   0.1                          T                1.2  .20 Ml 1.6         4702710
LPL   000.96 340.2 m E Pg      2011/05/28 07:03:39.5  -0.1                          T                                        4702718
LPL   000.96 340.2 m E Sg      2011/05/28 07:03:52.0   0.0                          T                1.7  .23 Ml 1.7         4702711
ORIF  000.98 288.3 m E Pg      2011/05/28 07:03:39.9   0.0                          T                                        4702719
ORIF  000.98 288.3 m E Sg      2011/05/28 07:03:52.5  -0.2                          T                1.4  .24 Ml 1.6         4702712
FRF   001.13 200.6 m E Pg      2011/05/28 07:03:42.4  -0.1                          T                                        4702716
FRF   001.13 200.6 m E Sg      2011/05/28 07:03:57.1   0.0                          T                2.0  .18 Ml 2.0         4702708
LMR   001.37 201.3 m E Pg      2011/05/28 07:03:46.9  -0.1                          T                                        4702714
LMR   001.37 201.3 m E Sg      2011/05/28 07:04:04.7   0.0                          T                2.2  .20 Ml 2.0         4702707
SMRF  001.33 241.7 m E Sg      2011/05/28 07:04:03.2  -0.1                          T                 .2  .15 Ml 1.1         4702709
VIVF  001.81 278.5 m E Sg      2011/05/28 07:04:18.3  -0.2                          T                 .7  .26 Ml 1.6         4702713

.
EVENT     259786
    Date      Time       Latitude Longitude    Depth    Ndef Nsta Gap    Mag1  N    Mag2  N    Mag3  N   Author         ID
       rms   OT_Error      Smajor Sminor Az        Err   mdist  Mdist     Err        Err        Err      Quality

2011/05/28 11:39:57.6     43.0846     .1224      2.0       7    4 167  Ml 0.9  2  Md 1.3  2              js067245    259786

      0.02   +-  0.01        .8     .2    1.15 +-  0.0    0.17   1.55   +-0.1      +-0.2                 m i ke

FRANCE
Sta     Dist  EvAz     Phase      Date       Time     TRes  Azim  AzRes  Slow  SRes Def   SNR       Amp   Per   Mag1   Mag2       ID
EPF   000.17 108.7 m E Pg      2011/05/28 11:40:01.1   0.0                          T                                        4702727
EPF   000.17 108.7 m E Sg      2011/05/28 11:40:03.4   0.0                          T                3.0  .18        Md 1.4  4702728
ETSF  000.53 249.8 m E Pg      2011/05/28 11:40:07.8   0.0                          T                                        4702725
ETSF  000.53 249.8 m E Sg      2011/05/28 11:40:14.8   0.0                          T                4.0  .28        Md 1.2  4702726
SJPF  000.99 272.1 m E Pg      2011/05/28 11:40:16.1   0.0                          T                                        4702723
SJPF  000.99 272.1 m E Sg      2011/05/28 11:40:28.9   0.0                          T                 .3  .22 Ml 1           4702724
MTLF  001.55 079.8 m E Sg      2011/05/28 11:40:46.5   0.0                          T                 .1  .16 Ml  .8         4702722

.
EVENT     259787
    Date      Time       Latitude Longitude    Depth    Ndef Nsta Gap    Mag1  N    Mag2  N    Mag3  N   Author         ID
       rms   OT_Error      Smajor Sminor Az        Err   mdist  Mdist     Err        Err        Err      Quality

2011/05/28 16:22:37.2     42.9618     .1952      2.0      26    7 088  Ml 1.9  5  Md 2.2  2              js067245    259787

      0.40   +-  0.06       1.4     .9    2.54 +-  0.0    0.13   2.53   +-0.1      +-0.0                 m i ke

PYRENEES
Sta     Dist  EvAz     Phase      Date       Time     TRes  Azim  AzRes  Slow  SRes Def   SNR       Amp   Per   Mag1   Mag2       ID
EPF   000.13 057.1 m E Pg      2011/05/28 16:22:40.1   0.2                          T                                        4702731
EPF   000.13 057.1 m E Sg      2011/05/28 16:22:42.8   1.0                          T               42.6  .22        Md 2.1  4702732
ETSF  000.56 263.8 m E Pg      2011/05/28 16:22:47.5  -0.4                          T                                        4702729
ETSF  000.56 263.8 m E Sg      2011/05/28 16:22:55.0  -0.2                          T               16.2  .28        Md 2.2  4702730
SJPF  001.05 278.8 m E Pg      2011/05/28 16:22:56.8  -0.1                          T                                        4702738
SJPF  001.05 278.8 m E Sg      2011/05/28 16:23:10.6   0.0                          T                1.9  .26 Ml 1.7         4702739
MTLF  001.53 074.9 m E Pg      2011/05/28 16:23:05.6   0.0                          T                                        4702736
MTLF  001.53 074.9 m E Sg      2011/05/28 16:23:25.5   0.2                          T                1.4  .20 Ml 1.9         4702737
LFF   002.02 011.1 m E Sg      2011/05/28 16:23:40.3  -0.3                          T                2.4  .25 Ml 2.0         4702734
CAF   002.38 033.9 m E Sg      2011/05/28 16:23:52.2   0.1                          T                 .9  .19 Ml 1.9         4702735
RJF   002.53 021.7 m E Sg      2011/05/28 16:23:56.6   0.0                          T                1.4  .22 Ml 1.8         4702733

.
EVENT     259792
    Date      Time       Latitude Longitude    Depth    Ndef Nsta Gap    Mag1  N    Mag2  N    Mag3  N   Author         ID
       rms   OT_Error      Smajor Sminor Az        Err   mdist  Mdist     Err        Err        Err      Quality

2011/05/28 17:16:07.1     43.8532    8.3939     15.0      19    8 213  Ml 2.1  6  Md 2.2  1              js067245    259792

      1.08   +-  0.21       5.2    2.6   37.39 +-  0.0    0.69   2.85   +-0.2      +-                    m i ke

CORSICA, FRANCE
Sta     Dist  EvAz     Phase      Date       Time     TRes  Azim  AzRes  Slow  SRes Def   SNR       Amp   Per   Mag1   Mag2       ID
SBF   000.69 271.1 m E Pg      2011/05/28 17:16:20.2  -0.3                          T                                        4702747
SBF   000.69 271.1 m E Sn      2011/05/28 17:16:30.7  -0.1                          T               35.3  .28        Md 2.2  4702748
FRF   001.30 257.6 m E Pn      2011/05/28 17:16:28.8  -0.4                          T                                        4702742
FRF   001.30 257.6 m E Sn      2011/05/28 17:16:45.2   0.0                          T                                        4702752
FRF   001.30 257.6 m E Sg      2011/05/28 17:16:48.7   0.3                          T                1.9  .20 Ml 2.0         4702751
PGF   001.38 161.0 m E Pn      2011/05/28 17:16:30.1  -0.3                          T                                        4702745
PGF   001.38 161.0 m E Sn      2011/05/28 17:16:47.2   0.0                          T                 .6  .18 Ml 1.7         4702746
LMR   001.46 249.9 m E Pn      2011/05/28 17:16:31.2  -0.2                          T                                        4702755
LMR   001.46 249.9 m E Sn      2011/05/28 17:16:49.1  -0.1                          T                                        4702754
LMR   001.46 249.9 m E Sg      2011/05/28 17:16:53.6   0.1                          T                1.8  .22 Ml 2.0         4702753
MBDF  001.46 307.4 m E Pn      2011/05/28 17:16:31.4  -0.1                          T                                        4702758
MBDF  001.46 307.4 m E Sn      2011/05/28 17:16:49.2   0.0                          T                6.6  .33 Ml 2.3         4702749
ORIF  002.09 301.4 m E Pn      2011/05/28 17:16:40.2   0.1                          T                                        4702757
ORIF  002.09 301.4 m E Sg      2011/05/28 17:17:13.1  -0.1                          T                2.0  .30 Ml 2.0         4702750
SMRF  002.04 274.4 m E Pg      2011/05/28 17:16:45.7   0.5                          T                                        4702743
SMRF  002.04 274.4 m E Sg      2011/05/28 17:17:12.5   1.0                          T                3.2  .25 Ml 2.3         4702744
VIVF  002.85 291.9 m E Pn      2011/05/28 17:16:50.3   0.0                          T                                        4702756

.
EVENT     259789
    Date      Time       Latitude Longitude    Depth    Ndef Nsta Gap    Mag1  N    Mag2  N    Mag3  N   Author         ID
       rms   OT_Error      Smajor Sminor Az        Err   mdist  Mdist     Err        Err        Err      Quality

2011/05/28 17:24:18.4     41.7397    3.0337      2.0      14    2 246  Ml 1.5  2                         js067245    259789

      0.31   +-  0.22       3.4    1.8  132.96 +-  0.0    0.17   2.38   +-0.0                            m i ke

SPAIN
Sta     Dist  EvAz     Phase      Date       Time     TRes  Azim  AzRes  Slow  SRes Def   SNR       Amp   Per   Mag1   Mag2       ID
MTLF  001.71 339.6 m E Pg      2011/05/28 17:24:50.3   0.0                          T                                        4702759
MTLF  001.71 339.6 m E Sg      2011/05/28 17:25:12.2  -0.1                          T                 .5  .27 Ml 1.4         4702760
EPF   002.38 303.8 m E Pg      2011/05/28 17:25:02.4  -0.2                          T                                        4702761
EPF   002.38 303.8 m E Sg      2011/05/28 17:25:33.1   0.0                          T                 .3  .20 Ml 1.5         4702762

.
EVENT     259788
    Date      Time       Latitude Longitude    Depth    Ndef Nsta Gap    Mag1  N    Mag2  N    Mag3  N   Author         ID
       rms   OT_Error      Smajor Sminor Az        Err   mdist  Mdist     Err        Err        Err      Quality

2011/05/28 17:24:50.7     42.8480   -1.4857      4.0 f    33    3 134  Ml 1.7  1  Md 1.3  2              js067245    259788

      0.17   +-  0.05        .8     .6   76.96 +-  0.0    0.03   1.35   +-         +-0.4                 m i ke

PYRENEES
Sta     Dist  EvAz     Phase      Date       Time     TRes  Azim  AzRes  Slow  SRes Def   SNR       Amp   Per   Mag1   Mag2       ID
SJPF  000.33 035.7 m E Pg      2011/05/28 17:24:57.1   0.0                          T                                        4702763
SJPF  000.33 035.7 m E Sg      2011/05/28 17:25:01.4  -0.1                          T                4.5  .25        Md 1.6  4702764
ETSF  000.68 085.4 m E Pg      2011/05/28 17:25:03.7   0.0                          T                                        4702766
ETSF  000.68 085.4 m E Sg      2011/05/28 17:25:12.8   0.1                          T                 .4  .21        Md 1.0  4702767
EPF   001.35 081.6 m E Sg      2011/05/28 17:25:33.4  -0.1                          T                1.2  .22 Ml 1.7         4702765

.
