EVENT     294000
    Date      Time       Latitude Longitude    Depth    Ndef Nsta Gap    Mag1  N    Mag2  N    Mag3  N   Author         ID
       rms   OT_Error      Smajor Sminor Az        Err   mdist  Mdist     Err        Err        Err      Quality

2013/03/16 01:41:55.7     42.8589   -1.4386      2.0      15    3 121  Ml 1.9  1  Md 1.8  2              bulletin    294100
                                                                                                         _ldg
      0.49   +-  0.17       3.8    2.6  159.55 +-  0.0    0.10   1.34   +-         +-0.0                 m i ke

PYRENEES
Sta     Dist  EvAz     Phase      Date       Time     TRes  Azim  AzRes  Slow  SRes Def   SNR       Amp   Per   Mag1   Mag2       ID
SJPF  000.30 031.6 m E Pg      2013/03/16 01:42:01.3  -0.2                          T                                        5225689
SJPF  000.30 031.6 m E Sg      2013/03/16 01:42:05.5  -0.1                          T                5.5  .24        Md 1.8  5225686
ETSF  000.65 086.2 m E Pg      2013/03/16 01:42:07.8  -0.3                          T                                        5225688
ETSF  000.65 086.2 m E Sg      2013/03/16 01:42:17.1   0.6                          T                2.6  .39        Md 1.7  5225685
EPF   001.32 081.9 m E Pg      2013/03/16 01:42:20.8   0.4                          T                                        5225687
EPF   001.32 081.9 m E Sg      2013/03/16 01:42:37.9   0.6                          T                2.9  .35 Ml 1.9         5225684

.
EVENT     294016
    Date      Time       Latitude Longitude    Depth    Ndef Nsta Gap    Mag1  N    Mag2  N    Mag3  N   Author         ID
       rms   OT_Error      Smajor Sminor Az        Err   mdist  Mdist     Err        Err        Err      Quality

2013/03/16 05:15:09.2     42.7384   -1.7324      2.0      23    3 104  Ml 1.6  2  Md 1.8  2              bulletin    294116
                                                                                                         _ldg
      0.58   +-  0.15       2.6    2.2  123.89 +-  0.0    0.12   2.55   +-0.2      +-0.1                 m i ke

PYRENEES
Sta     Dist  EvAz     Phase      Date       Time     TRes  Azim  AzRes  Slow  SRes Def   SNR       Amp   Per   Mag1   Mag2       ID
SJPF  000.53 044.7 m E Pg      2013/03/16 05:15:19.2  -0.1                          T                                        5225706
SJPF  000.53 044.7 m E Sg      2013/03/16 05:15:25.9  -0.4                          T                1.6  .19        Md 1.8  5225705
ETSF  000.88 079.1 m E Pg      2013/03/16 05:15:25.6  -0.2                          T                                        5225704
ETSF  000.88 079.1 m E Sg      2013/03/16 05:15:36.7  -0.5                          T                1.0  .19 Ml 1.5 Md 1.7  5225703
EPF   001.55 078.5 m E Pg      2013/03/16 05:15:37.8  -0.4                          T                                        5225702
EPF   001.55 078.5 m E Sg      2013/03/16 05:15:58.0  -0.2                          T                1.5  .27 Ml 1.8         5225701

.
EVENT     294059
    Date      Time       Latitude Longitude    Depth    Ndef Nsta Gap    Mag1  N    Mag2  N    Mag3  N   Author         ID
       rms   OT_Error      Smajor Sminor Az        Err   mdist  Mdist     Err        Err        Err      Quality

2013/03/16 05:47:26.1     42.7326   -1.7222      2.0      22    3 104  Ml 1.4  3  Md 1.5  1              bulletin    294159
                                                                                                         _ldg
      0.49   +-  0.16       2.6    2.2    9.85 +-  0.0    0.11   2.55   +-0.2      +-                    m i ke

PYRENEES
Sta     Dist  EvAz     Phase      Date       Time     TRes  Azim  AzRes  Slow  SRes Def   SNR       Amp   Per   Mag1   Mag2       ID
SJPF  000.53 043.7 m E Pg      2013/03/16 05:47:36.8   0.6                          T                                        5227073
SJPF  000.53 043.7 m E Sg      2013/03/16 05:47:43.8   0.7                          T                                Md 1.5  5227074
ETSF  000.87 078.6 m E Pg      2013/03/16 05:47:42.7   0.2                          T                                        5227080
ETSF  000.87 078.6 m E Sg      2013/03/16 05:47:53.9   0.0                          T                 .7  .19 Ml 1.3         5227079
EPF   001.54 078.2 m E Pn      2013/03/16 05:47:53.3   0.3                          T                                        5227078
EPF   001.54 078.2 m E Pg      2013/03/16 05:47:55.0   0.1                          T                                        5227077
EPF   001.54 078.2 m E Sn      2013/03/16 05:48:12.2  -0.2                          T                 .4  .23 Ml 1.3         5227076
EPF   001.54 078.2 m E Sg      2013/03/16 05:48:15.0   0.1                          T                 .6  .15 Ml 1.6         5227075

.
EVENT     294060
    Date      Time       Latitude Longitude    Depth    Ndef Nsta Gap    Mag1  N    Mag2  N    Mag3  N   Author         ID
       rms   OT_Error      Smajor Sminor Az        Err   mdist  Mdist     Err        Err        Err      Quality

2013/03/16 09:31:09.2     39.3322    -.3798     11.0 f    63    5 102  Ml 2.5  8                         bulletin    294160
                                                                                                         _ldg
      0.81   +-  0.14       3.0    1.8  135.08 +-  0.0    0.52   5.66   +-0.3                            m i ke

SPAIN
Sta     Dist  EvAz     Phase      Date       Time     TRes  Azim  AzRes  Slow  SRes Def   SNR       Amp   Per   Mag1   Mag2       ID
ETSF  003.57 357.9 m E Pn      2013/03/16 09:32:03.5   0.9                          T                                        5227096
ETSF  003.57 357.9 m E Pg      2013/03/16 09:32:14.8  -0.6                          T                                        5227095
ETSF  003.57 357.9 m E Sn      2013/03/16 09:32:43.4   1.2                          T                2.0  .29 Ml 2.4         5227090
ETSF  003.57 357.9 m E Sg      2013/03/16 09:33:00.9  -0.2                          T                2.5  .26 Ml 2.5         5227089
EPF   003.73 008.1 m E Pn      2013/03/16 09:32:05.6   0.6                          T                                        5227094
EPF   003.73 008.1 m E Pg      2013/03/16 09:32:18.0  -0.4                          T                                        5227093
EPF   003.73 008.1 m E Sn      2013/03/16 09:32:47.5   1.3                          T                2.2  .24 Ml 2.6         5227092
EPF   003.73 008.1 m E Sg      2013/03/16 09:33:06.1  -0.3                          T                5.2  .23 Ml 3.0         5227091
SJPF  003.83 350.7 m E Pn      2013/03/16 09:32:07.7   1.5                          T                                        5227088
SJPF  003.83 350.7 m E Pg      2013/03/16 09:32:19.3  -0.8                          T                                        5227087
SJPF  003.83 350.7 m E Sn      2013/03/16 09:32:49.2   0.6                          T                1.1  .23 Ml 2.3         5227086
SJPF  003.83 350.7 m E Sg      2013/03/16 09:33:09.2  -0.2                          T                2.2  .19 Ml 2.7         5227085
MTLF  004.46 025.2 m E Pn      2013/03/16 09:32:15.3   0.6                          T                                        5227084
MTLF  004.46 025.2 m E Pg      2013/03/16 09:32:31.1  -0.6                          T                                        5227083
MTLF  004.46 025.2 m E Sn      2013/03/16 09:33:04.4   1.0                          T                 .3  .18 Ml 2.0         5227082
MTLF  004.46 025.2 m E Sg      2013/03/16 09:33:28.3  -0.5                          T                1.9  .26 Ml 2.6         5227081
LFF   005.66 008.1 m E Pn      2013/03/16 09:32:30.6  -0.5                          T                                        5227152
LFF   005.66 008.1 m E Pg      2013/03/16 09:32:52.4  -1.5                          T                                        5227151
LFF   005.66 008.1 m E Sn      2013/03/16 09:33:32.9   0.6                          T                                        5227150
LFF   005.66 008.1 m E Sg      2013/03/16 09:34:05.5  -1.1                          T                                        5227149

.
EVENT     294018
    Date      Time       Latitude Longitude    Depth    Ndef Nsta Gap    Mag1  N    Mag2  N    Mag3  N   Author         ID
       rms   OT_Error      Smajor Sminor Az        Err   mdist  Mdist     Err        Err        Err      Quality

2013/03/16 09:49:26.9     35.7087    5.5099     20.0 f   102   23 150  Ml 3.9 16                         bulletin    294118
                                                                                                         _ldg
      0.84   +-  0.26       6.0    3.4  145.53 +-  0.0    0.89  22.72   +-0.2                            m i ke

NORTHERN ALGERIA
Sta     Dist  EvAz     Phase      Date       Time     TRes  Azim  AzRes  Slow  SRes Def   SNR       Amp   Per   Mag1   Mag2       ID
PGF   007.35 020.6 m E Pn      2013/03/16 09:51:10.9   0.1                          T                                        5225839
PGF   007.35 020.6 m E P       2013/03/16 09:51:16.5   0.4                          T                                        5227401
PGF   007.35 020.6 m E Sn      2013/03/16 09:52:27.3  -1.4                          T               30.7  .65 Ml 4.2         5225838
LMR   007.65 005.5 m E Pn      2013/03/16 09:51:14.3  -0.5                          T                                        5225736
LMR   007.65 005.5 m E P       2013/03/16 09:51:19.9  -0.4                          T                                        5227403
LMR   007.65 005.5 m E Sn      2013/03/16 09:52:34.4  -1.4                          T                7.9  .47 Ml 3.6         5225836
MTLF  008.03 342.6 m E Pn      2013/03/16 09:51:21.9   1.8                          T                                        5225738
MTLF  008.03 342.6 m E P       2013/03/16 09:51:27.2   1.6                          T                                        5227411
MTLF  008.03 342.6 m E Sn      2013/03/16 09:52:44.5  -0.5                          T               14.1  .59 Ml 3.8         5225826
FRF   007.89 006.0 m E P       2013/03/16 09:51:22.8  -0.8                          T                                        5227404
FRF   007.89 006.0 m E Sn      2013/03/16 09:52:40.5  -1.1                          T               14.6  .50 Ml 3.9         5225835
SBF   008.28 009.7 m E Pn      2013/03/16 09:51:23.1  -0.4                          T                                        5225741
SBF   008.28 009.7 m E P       2013/03/16 09:51:28.7  -0.3                          T                                        5227402
SBF   008.28 009.7 m E Sn      2013/03/16 09:52:49.5  -1.4                          T               16.2  .40 Ml 4.1         5225837
SMRF  008.26 000.3 m E Pn      2013/03/16 09:51:24.3   1.1                          T                                        5225740
SMRF  008.26 000.3 m E Sn      2013/03/16 09:52:49.7  -0.7                          T                6.3  .44 Ml 3.6         5225834
LASF  008.45 351.9 m E Pn      2013/03/16 09:51:27.0   1.2                          T                                        5225732
LASF  008.45 351.9 m E P       2013/03/16 09:51:31.9   0.5                          T                                        5227410
LASF  008.45 351.9 m E Sn      2013/03/16 09:52:53.7  -1.3                          T               15.4  .47 Ml 4.0         5225827
EPF   008.33 332.9 m E P       2013/03/16 09:51:29.7  -0.1                          T                                        5227412
EPF   008.33 332.9 m E Sn      2013/03/16 09:52:52.4   0.2                          T               21.5  .48 Ml 4.1         5225825
ETSF  008.58 328.6 m E P       2013/03/16 09:51:33.7   0.5                          T                                        5227413
ETSF  008.58 328.6 m E Sn      2013/03/16 09:52:58.5   0.4                          T               30.2  .66 Ml 4.2         5225824
SJPF  009.04 326.9 m E Pn      2013/03/16 09:51:34.9   1.1                          T                                        5225730
SJPF  009.04 326.9 m E P       2013/03/16 09:51:40.0   0.4                          T                                        5227414
SJPF  009.04 326.9 m E Sn      2013/03/16 09:53:10.1   1.0                          T               22.8  .65 Ml 4.1         5225823
MBDF  009.06 005.7 m E Pn      2013/03/16 09:51:35.0   0.8                          T                                        5225733
MBDF  009.06 005.7 m E P       2013/03/16 09:51:40.8   0.9                          T                                        5227408
MBDF  009.06 005.7 m E Sn      2013/03/16 09:53:08.5  -1.2                          T                9.6  .58 Ml 3.8         5225829
VIVF  009.16 356.3 m E Pn      2013/03/16 09:51:36.7   1.3                          T                                        5225747
VIVF  009.16 356.3 m E P       2013/03/16 09:51:41.9   0.7                          T                                        5227409
VIVF  009.16 356.3 m E Sn      2013/03/16 09:53:11.1  -0.8                          T                4.9  .41 Ml 3.7         5225828
CAF   009.57 345.1 m E Pn      2013/03/16 09:51:41.3   0.2                          T                                        5225729
CAF   009.57 345.1 m E P       2013/03/16 09:51:47.5   0.6                          T                                        5227415
CAF   009.57 345.1 m E Sn      2013/03/16 09:53:21.6  -0.2                          T                6.4  .50 Ml 3.8         5225822
ORIF  009.20 001.6 m E P       2013/03/16 09:51:41.9   0.0                          T                                        5227407
ORIF  009.20 001.6 m E Sn      2013/03/16 09:53:11.9  -1.1                          T                3.7  .49 Ml 3.5         5225830
LFF   009.91 339.9 m E Pn      2013/03/16 09:51:45.8   0.2                          T                                        5225746
LFF   009.91 339.9 m E P       2013/03/16 09:51:52.6   1.1                          T                                        5227416
LPG   009.82 005.1 m E P       2013/03/16 09:51:50.5  -0.2                          T                                        5227405
LPG   009.82 005.1 m E Sn      2013/03/16 09:53:27.3  -0.8                          T                4.1  .38 Ml 3.7         5225833
LPL   009.84 005.0 m E P       2013/03/16 09:51:51.4   0.5                          T                                        5227406
LPL   009.84 005.0 m E Sn      2013/03/16 09:53:27.1  -1.4                          T                6.3  .24 Ml 4.1         5227400
TCF   010.86 347.8 m E P       2013/03/16 09:52:04.9   0.4                          T                                        5227421
SMF   011.00 354.0 m E P       2013/03/16 09:52:06.4  -0.1                          T                                        5227419
LOR   011.62 354.4 m E P       2013/03/16 09:52:14.9   0.1                          T                                        5227422
MFF   011.68 340.4 m E P       2013/03/16 09:52:15.9   0.2                          T                                        5227417
PAGF  012.84 000.6 m E P       2013/03/16 09:52:31.1  -0.1                          T                                        5227420
GRR   013.52 341.6 m E Pn      2013/03/16 09:52:35.0   0.3                          T                                        5227418

.
EVENT     294063
    Date      Time       Latitude Longitude    Depth    Ndef Nsta Gap    Mag1  N    Mag2  N    Mag3  N   Author         ID
       rms   OT_Error      Smajor Sminor Az        Err   mdist  Mdist     Err        Err        Err      Quality

2013/03/16 14:02:53.0     47.2445    6.8423      4.0 f    24    8 168  Ml 1.8  5  Md 1.8  2              bulletin    294163
                                                                                                         _ldg
      0.72   +-  0.09       2.4    1.3  104.41 +-  0.0    0.57   2.43   +-0.3      +-0.3                 m i ke

FRANCE
Sta     Dist  EvAz     Phase      Date       Time     TRes  Azim  AzRes  Slow  SRes Def   SNR       Amp   Per   Mag1   Mag2       ID
HINF  000.57 000.7 m E Pg      2013/03/16 14:03:04.0   0.1                          T                                        5227158
HINF  000.57 000.7 m E Pn      2013/03/16 14:03:06.2  -0.3                          T                                        5227591
HINF  000.57 000.7 m E Sg      2013/03/16 14:03:12.5   1.0                          T                3.3  .31        Md 2.0  5227154
HINF  000.57 000.7 m E Sn      2013/03/16 14:03:15.5  -0.3                          T                3.9  .20                5227592
CABF  000.82 219.5 m E Pg      2013/03/16 14:03:08.3  -0.2                          T                                        5227157
CABF  000.82 219.5 m E Pn      2013/03/16 14:03:10.0   0.1                          T                                        5227183
CABF  000.82 219.5 m E Sg      2013/03/16 14:03:19.5   0.3                          T                1.6  .21                5227153
HAU   000.83 336.5 m E Pg      2013/03/16 14:03:09.0   0.3                          T                                        5227593
HAU   000.83 336.5 m E Pn      2013/03/16 14:03:09.6  -0.3                          T                                        5227594
HAU   000.83 336.5 m E Sg      2013/03/16 14:03:19.2  -0.3                          T                                        5227156
HAU   000.83 336.5 m E Sn      2013/03/16 14:03:22.0   0.0                          T                3.6  .22        Md 1.6  5227155
CDF   001.20 013.9 m E Pn      2013/03/16 14:03:15.0  -0.1                          T                                        5227160
CDF   001.20 013.9 m E Pg      2013/03/16 14:03:15.6   0.0                          T                                        5227595
CDF   001.20 013.9 m E Sg      2013/03/16 14:03:31.2  -0.1                          T                2.4  .20 Ml 2.1         5227159
LPL   001.73 182.6 m E Pn      2013/03/16 14:03:22.3  -0.1                          T                                        5227237
LPL   001.73 182.6 m E Pg      2013/03/16 14:03:25.7   0.2                          T                                        5227236
LPL   001.73 182.6 m E Sn      2013/03/16 14:03:44.0   0.3                          T                                        5227235
LPL   001.73 182.6 m E Sg      2013/03/16 14:03:47.3  -0.5                          T                                        5227261
LOR   002.03 271.8 m E Pn      2013/03/16 14:03:26.6   0.3                          T                                        5227181
LOR   002.03 271.8 m E Pg      2013/03/16 14:03:30.4  -0.4  92.5  2.9               T                                        5227234
LOR   002.03 271.8 m E Sn      2013/03/16 14:03:50.6   0.0                          T                 .3  .20 Ml 1.4         5227233
LOR   002.03 271.8 m E Sg      2013/03/16 14:03:56.5  -0.5 101.2  11.6              T                1.4  .19 Ml 2.1         5227182
SMF   002.14 254.8 m E Sg      2013/03/16 14:04:01.1   0.7                          T                1.4  .29 Ml 1.9         5227590
AVF   002.43 260.5 m E Sg      2013/03/16 14:04:09.4   0.1                          T                 .2  .19 Ml 1.4         5227589

.
