EVENT     289182
    Date      Time       Latitude Longitude    Depth    Ndef Nsta Gap    Mag1  N    Mag2  N    Mag3  N   Author         ID
       rms   OT_Error      Smajor Sminor Az        Err   mdist  Mdist     Err        Err        Err      Quality

2012/12/30 22:04:57.3     43.0100    -.2154      2.0       7    4 160  Ml 1.2  1  Md 1.3  3              bulletin    289282
                                                                                                         _ldg
      0.08   +-  0.04       2.6     .6  173.60 +-  0.0    0.28   1.81   +-         +-0.2                 m i ke

PYRENEES
Sta     Dist  EvAz     Phase      Date       Time     TRes  Azim  AzRes  Slow  SRes Def   SNR       Amp   Per   Mag1   Mag2       ID
ETSF  000.28 246.3 m E Pg      2012/12/30 22:05:02.8  -0.1                          T                                        5148799
ETSF  000.28 246.3 m E Sg      2012/12/30 22:05:06.8   0.2                          T                8.7  .24        Md 1.5  5148797
EPF   000.41 087.0 m E Pg      2012/12/30 22:05:05.2   0.0                          T                                        5148798
EPF   000.41 087.0 m E Sg      2012/12/30 22:05:10.8   0.1                          T                2.9  .26        Md 1.3  5148796
SJPF  000.75 278.3 m E Pg      2012/12/30 22:05:11.5   0.0                          T                                        5148800
SJPF  000.75 278.3 m E Sg      2012/12/30 22:05:21.2   0.0                          T                  1  .18        Md 1.1  5148801
MTLF  001.81 078.6 m E Sg      2012/12/30 22:05:54.3  -0.1                          T                 .3  .23 Ml 1.2         5172667

.
EVENT     289183
    Date      Time       Latitude Longitude    Depth    Ndef Nsta Gap    Mag1  N    Mag2  N    Mag3  N   Author         ID
       rms   OT_Error      Smajor Sminor Az        Err   mdist  Mdist     Err        Err        Err      Quality

2012/12/30 22:12:23.5     43.0583    -.2180      2.0      28    7 099  Ml 1.7  4  Md 1.6  2              bulletin    289283
                                                                                                         _ldg
      0.49   +-  0.09       2.1    1.3     .07 +-  0.0    0.30   2.57   +-0.4      +-0.2                 m i ke

PYRENEES
Sta     Dist  EvAz     Phase      Date       Time     TRes  Azim  AzRes  Slow  SRes Def   SNR       Amp   Per   Mag1   Mag2       ID
ETSF  000.30 237.6 m E Pg      2012/12/30 22:12:28.5  -0.9                          T                                        5148817
ETSF  000.30 237.6 m E Sg      2012/12/30 22:12:32.3  -1.2                          T               17.8  .20        Md 1.7  5150878
EPF   000.41 093.7 m E Pg      2012/12/30 22:12:31.0  -0.5                          T                                        5148816
EPF   000.41 093.7 m E Sg      2012/12/30 22:12:36.8  -0.1                          T                4.0  .18        Md 1.5  5150879
SJPF  000.74 274.6 m E Pg      2012/12/30 22:12:36.9  -0.6                          T                                        5150881
SJPF  000.74 274.6 m E Sg      2012/12/30 22:12:46.7  -0.5                          T                3.4  .27                5150880
MTLF  001.80 080.2 m E Pn      2012/12/30 22:12:53.8  -0.1                          T                                        5155773
MTLF  001.80 080.2 m E Pg      2012/12/30 22:12:56.9  -0.2                          T                                        5155772
MTLF  001.80 080.2 m E Sn      2012/12/30 22:13:15.8  -0.2                          T                                        5155771
MTLF  001.80 080.2 m E Sg      2012/12/30 22:13:20.4   0.0                          T                 .3  .22 Ml 1.3         5155770
LFF   002.00 019.9 m E Sg      2012/12/30 22:13:26.9   0.4                          T                2.9  .32 Ml 2.0         5168341
CAF   002.49 040.6 m E Sg      2012/12/30 22:13:41.6  -0.2                          T                1.2  .21 Ml 2.1         5168342
RJF   002.57 028.5 m E Sg      2012/12/30 22:13:45.3   1.1                          T                 .5  .22 Ml 1.4         5168340

.
EVENT     289184
    Date      Time       Latitude Longitude    Depth    Ndef Nsta Gap    Mag1  N    Mag2  N    Mag3  N   Author         ID
       rms   OT_Error      Smajor Sminor Az        Err   mdist  Mdist     Err        Err        Err      Quality

2012/12/30 22:13:15.8     43.0663    -.2074      2.0      41    8 100  Ml 2.2  5  Md 2.1  3              bulletin    289284
                                                                                                         _ldg
      0.44   +-  0.06       1.3     .9     .85 +-  0.0    0.14   3.12   +-0.3      +-0.2                 m i ke

PYRENEES
Sta     Dist  EvAz     Phase      Date       Time     TRes  Azim  AzRes  Slow  SRes Def   SNR       Amp   Per   Mag1   Mag2       ID
ETSF  000.31 237.1 m E Pg      2012/12/30 22:13:21.3  -0.6                          T                                        5150914
ETSF  000.31 237.1 m E Sg      2012/12/30 22:13:25.4  -0.7                          T              108.7  .20        Md 2.3  5150916
EPF   000.40 094.9 m E Pg      2012/12/30 22:13:23.7   0.0                          T                                        5150913
EPF   000.40 094.9 m E Sg      2012/12/30 22:13:29.9   0.9                          T               27.2  .17        Md 2.1  5150915
SJPF  000.75 274.0 m E Pg      2012/12/30 22:13:30.2   0.2                          T                                        5150918
SJPF  000.75 274.0 m E Sg      2012/12/30 22:13:39.6  -0.1                          T                7.0  .23        Md 2.0  5150917
MTLF  001.79 080.4 m E Pn      2012/12/30 22:13:46.3   0.2                          T                                        5150927
MTLF  001.79 080.4 m E Pg      2012/12/30 22:13:49.1  -0.2                          T                                        5150926
MTLF  001.79 080.4 m E Sn      2012/12/30 22:14:08.4   0.3                          T                                        5150928
MTLF  001.79 080.4 m E Sg      2012/12/30 22:14:13.0   0.6                          T                2.7  .27 Ml 2.2         5150925
LFF   001.99 019.7 m E Pg      2012/12/30 22:13:53.0   0.1                          T                                        5150922
LFF   001.99 019.7 m E Sg      2012/12/30 22:14:19.0   0.4                          T                4.7  .24 Ml 2.3         5150921
CAF   002.48 040.6 m E Pg      2012/12/30 22:14:01.7  -0.2                          T                                        5150924
CAF   002.48 040.6 m E Sg      2012/12/30 22:14:33.7  -0.1                          T                3.4  .20 Ml 2.5         5150923
RJF   002.56 028.4 m E Pg      2012/12/30 22:14:03.5   0.2                          T                                        5150920
RJF   002.56 028.4 m E Sg      2012/12/30 22:14:35.5  -0.7                          T                1.3  .18 Ml 1.9         5150919
LASF  003.12 069.7 m E Pn      2012/12/30 22:14:04.3   0.2                          T                                        5150932
LASF  003.12 069.7 m E Pg      2012/12/30 22:14:13.5  -0.2                          T                                        5150931
LASF  003.12 069.7 m E Sn      2012/12/30 22:14:40.2   0.4                          T                                        5150930
LASF  003.12 069.7 m E Sg      2012/12/30 22:14:53.5  -0.3                          T                 .8  .21 Ml 2.0         5150929

.
EVENT     289185
    Date      Time       Latitude Longitude    Depth    Ndef Nsta Gap    Mag1  N    Mag2  N    Mag3  N   Author         ID
       rms   OT_Error      Smajor Sminor Az        Err   mdist  Mdist     Err        Err        Err      Quality

2012/12/30 22:27:32.3     43.0560    -.2302      2.0      26    7 099  Ml 1.8  4  Md 2.0  3              bulletin    289285
                                                                                                         _ldg
      0.55   +-  0.10       2.2    1.5    5.24 +-  0.0    0.12   2.70   +-0.2      +-0.0                 m i ke

PYRENEES
Sta     Dist  EvAz     Phase      Date       Time     TRes  Azim  AzRes  Slow  SRes Def   SNR       Amp   Per   Mag1   Mag2       ID
ETSF  000.29 237.0 m E Pg      2012/12/30 22:27:37.7  -0.4                          T                                        5148825
ETSF  000.29 237.0 m E Sg      2012/12/30 22:27:41.2  -0.7                          T               20.4  .20        Md 2.0  5148823
EPF   000.42 093.3 m E Pg      2012/12/30 22:27:39.8  -0.6                          T                                        5148824
EPF   000.42 093.3 m E Sg      2012/12/30 22:27:46.6   0.7                          T                5.6  .18        Md 2.0  5148822
SJPF  000.73 274.8 m E Pg      2012/12/30 22:27:44.4  -1.7                          T                                        5148820
SJPF  000.73 274.8 m E Sg      2012/12/30 22:27:53.5  -2.1                          T                3.0  .26        Md 2.0  5148821
MTLF  001.81 080.1 m E Pn      2012/12/30 22:28:03.0   0.2                          T                                        5148819
MTLF  001.81 080.1 m E Pg      2012/12/30 22:28:05.9  -0.1                          T                                        5168343
MTLF  001.81 080.1 m E Sn      2012/12/30 22:28:24.9   0.0                          T                                        5148818
MTLF  001.81 080.1 m E Sg      2012/12/30 22:28:29.5   0.1                          T                 .6  .22 Ml 1.6         5168344
LFF   002.01 020.1 m E Sg      2012/12/30 22:28:36.2   0.7                          T                2.3  .27 Ml 2.0         5168347
CAF   002.50 040.8 m E Sg      2012/12/30 22:28:50.8   0.0                          T                 .7  .18 Ml 1.9         5168345
RJF   002.58 028.6 m E Sg      2012/12/30 22:28:54.6   1.4                          T                 .8  .22 Ml 1.6         5168346

.
EVENT     289187
    Date      Time       Latitude Longitude    Depth    Ndef Nsta Gap    Mag1  N    Mag2  N    Mag3  N   Author         ID
       rms   OT_Error      Smajor Sminor Az        Err   mdist  Mdist     Err        Err        Err      Quality

2012/12/30 23:05:38.9     43.0600    -.2439      2.0      27    7 100  Ml 1.6  4  Md 1.8  3              bulletin    289287
                                                                                                         _ldg
      0.74   +-  0.12    9999.9 9999.9   99.90 +-  0.0    0.11   2.58   +-0.3      +-0.2                 m i ke

PYRENEES
Sta     Dist  EvAz     Phase      Date       Time     TRes  Azim  AzRes  Slow  SRes Def   SNR       Amp   Per   Mag1   Mag2       ID
ETSF  000.28 235.2 m E Pg      2012/12/30 23:05:43.6  -0.9                          T                                        5148835
ETSF  000.28 235.2 m E Sg      2012/12/30 23:05:47.7  -0.6                          T               18.6  .24        Md 1.9  5148833
EPF   000.43 093.8 m E Pg      2012/12/30 23:05:46.0  -1.2                          T                                        5148834
EPF   000.43 093.8 m E Sg      2012/12/30 23:05:51.8  -1.1                          T                8.1  .20        Md 1.9  5148832
SJPF  000.72 274.6 m E Pg      2012/12/30 23:05:53.1   0.6                          T                                        5148830
SJPF  000.72 274.6 m E Sg      2012/12/30 23:06:02.8   0.8                          T                1.0  .17        Md 1.5  5148831
MTLF  001.82 080.3 m E Pn      2012/12/30 23:06:10.0   0.5                          T                                        5155784
MTLF  001.82 080.3 m E Pg      2012/12/30 23:06:13.1   0.3                          T                                        5155783
MTLF  001.82 080.3 m E Sn      2012/12/30 23:06:32.0   0.2                          T                                        5155782
MTLF  001.82 080.3 m E Sg      2012/12/30 23:06:36.6   0.3                          T                 .3  .22 Ml 1.4         5155781
LFF   002.01 020.4 m E Pn      2012/12/30 23:06:13.0   1.0                          T                                        5148829
LFF   002.01 020.4 m E Sg      2012/12/30 23:06:43.1   1.0                          T                2.9  .34 Ml 2.0         5168358
RJF   002.58 028.8 m E Pn      2012/12/30 23:06:20.4   0.7                          T                                        5148828
RJF   002.58 028.8 m E Pg      2012/12/30 23:06:27.2   0.5                          T                                        5168356
RJF   002.58 028.8 m E Sg      2012/12/30 23:07:01.5   1.7                          T                 .8  .23 Ml 1.5         5168359
CAF   002.50 041.0 m E Sg      2012/12/30 23:06:57.8   0.3                          T                 .3  .10 Ml 1.7         5168357

.
