BEGIN GSE2.0
MSG_TYPE DATA
MSG_ID 28-FEV-1309:48:07  FRA_NDC
E-MAIL
DATA_TYPE BULLETIN
Reviewed Bulletin (REB) # P2013-008  from French NDC for regional phases     PERIOD 20 FEV 2013 TO 26 FEV 2013 Cenalt JP S
EVENT     292376
    Date      Time       Latitude Longitude    Depth    Ndef Nsta Gap    Mag1  N    Mag2  N    Mag3  N   Author         ID
       rms   OT_Error      Smajor Sminor Az        Err   mdist  Mdist     Err        Err        Err      Quality

2013/02/20 00:24:54.1     44.4375    6.7796      2.0      43   10 052  Ml 1.8  6  Md 1.8  2              bulletin    292476
                                                                                                         _ldg
      0.35   +-  0.06       1.3    1.1   47.13 +-  0.0    0.05   2.13   +-0.3      +-0.2                 m i ke

FRANCE
Sta     Dist  EvAz     Phase      Date       Time     TRes  Azim  AzRes  Slow  SRes Def   SNR       Amp   Per   Mag1   Mag2       ID
MBDF  000.29 358.8 m E Pg      2013/02/20 00:24:59.7  -0.2                          T                                        5201831
MBDF  000.29 358.8 m E Sg      2013/02/20 00:25:03.5  -0.4                          T                3.4  .20        Md 2.0  5201830
SBF   000.74 140.4 m E Pg      2013/02/20 00:25:08.2   0.0                          T                                        5201819
SBF   000.74 140.4 m E Sg      2013/02/20 00:25:18.0   0.1                          T               11.8  .35        Md 1.7  5201818
ORIF  000.80 307.1 m E Pg      2013/02/20 00:25:08.7  -0.6                          T                                        5201829
ORIF  000.80 307.1 m E Sg      2013/02/20 00:25:19.5  -0.3                          T                1.8  .20                5201828
FRF   000.88 186.3 m E Pg      2013/02/20 00:25:10.3  -0.3                          T                                        5201823
FRF   000.88 186.3 m E Sg      2013/02/20 00:25:22.0  -0.1                          T                4.2  .22 Ml 2.1         5201822
SMRF  000.98 242.4 m E Pg      2013/02/20 00:25:12.6   0.1                          T                                        5201825
SMRF  000.98 242.4 m E Sg      2013/02/20 00:25:25.1  -0.2                          T                5.5  .29 Ml 2.1         5201824
LPG   001.06 358.9 m E Pg      2013/02/20 00:25:14.7   0.3                          T                                        5201817
LPG   001.06 358.9 m E Sg      2013/02/20 00:25:28.2   0.1                          T                1.2  .30 Ml 1.4         5201816
LPL   001.08 358.2 m E Pg      2013/02/20 00:25:14.9   0.3                          T                                        5201827
LPL   001.08 358.2 m E Sg      2013/02/20 00:25:28.7   0.1                          T                1.8  .44 Ml 1.5         5201826
LMR   001.12 190.1 m E Pg      2013/02/20 00:25:15.3   0.3                          T                                        5201821
LMR   001.12 190.1 m E Sg      2013/02/20 00:25:29.6   0.0                          T                2.4  .22 Ml 1.9         5201820
VIVF  001.56 286.3 m E Pn      2013/02/20 00:25:21.2   0.0                          T                                        5201815
VIVF  001.56 286.3 m E Sn      2013/02/20 00:25:40.5  -0.3                          T                1.1  .25 Ml 1.7         5201814
LASF  002.13 261.3 m E Pn      2013/02/20 00:25:29.0   0.1                          T                                        5202715
LASF  002.13 261.3 m E Pg      2013/02/20 00:25:34.2   0.5                          T                                        5202714
LASF  002.13 261.3 m E Sn      2013/02/20 00:25:54.3  -0.1                          T                                        5202713

.
EVENT     292378
    Date      Time       Latitude Longitude    Depth    Ndef Nsta Gap    Mag1  N    Mag2  N    Mag3  N   Author         ID
       rms   OT_Error      Smajor Sminor Az        Err   mdist  Mdist     Err        Err        Err      Quality

2013/02/20 01:39:42.8     42.7289   -1.7047      2.0      34    6 084  Ml 2.0  5  Md 2.2  2              bulletin    292478
                                                                                                         _ldg
      0.56   +-  0.12       2.4    1.6  126.92 +-  0.0    0.10   3.50   +-0.2      +-0.0                 m i ke

PYRENEES
Sta     Dist  EvAz     Phase      Date       Time     TRes  Azim  AzRes  Slow  SRes Def   SNR       Amp   Per   Mag1   Mag2       ID
SJPF  000.52 042.4 m E Pg      2013/02/20 01:39:52.8   0.1                          T                                        5201854
SJPF  000.52 042.4 m E Sg      2013/02/20 01:39:59.8   0.3                          T               10.1  .21        Md 2.2  5201853
ETSF  000.86 078.2 m E Pg      2013/02/20 01:39:59.0   0.0                          T                                        5201852
ETSF  000.86 078.2 m E Sg      2013/02/20 01:40:10.5   0.3                          T                4.4  .26 Ml 2.0 Md 2.2  5201851
EPF   001.53 078.0 m E Pg      2013/02/20 01:40:11.6   0.2                          T                                        5201850
EPF   001.53 078.0 m E Sg      2013/02/20 01:40:31.5   0.3                          T                5.0  .35 Ml 2.2         5201849
CAF   003.50 049.9 m E Pn      2013/02/20 01:40:36.5   0.2                          T                                        5201890
CAF   003.50 049.9 m E Sn      2013/02/20 01:41:15.9   0.0                          T                1.2  .30 Ml 2.1         5201889
MTLF  002.94 076.7 m E Sn      2013/02/20 01:41:02.6   0.3                          T                                        5207343
MTLF  002.94 076.7 m E Sg      2013/02/20 01:41:15.0   0.0                          T                 .4  .20 Ml 1.7         5207344
RJF   003.47 041.0 m E Sn      2013/02/20 01:41:14.9  -0.1                          T                1.8  .33 Ml 1.9         5207345

.
EVENT     292380
    Date      Time       Latitude Longitude    Depth    Ndef Nsta Gap    Mag1  N    Mag2  N    Mag3  N   Author         ID
       rms   OT_Error      Smajor Sminor Az        Err   mdist  Mdist     Err        Err        Err      Quality

2013/02/20 03:31:58.9     37.1128    4.9173     10.0 f    23    9 249  Ml 2.8  6                         bulletin    292480
                                                                                                         _ldg
      0.72   +-  0.45       8.9    5.7  145.04 +-  0.0    3.12   8.51   +-0.3                            m i ke

WESTERN MEDITERRANEAN SEA
Sta     Dist  EvAz     Phase      Date       Time     TRes  Azim  AzRes  Slow  SRes Def   SNR       Amp   Per   Mag1   Mag2       ID
PGF   006.27 028.8 m E Pn      2013/02/20 03:33:29.7   0.4                          T                                        5202282
PGF   006.27 028.8 m E Sn      2013/02/20 03:34:36.9   0.1                          T                2.6  .27 Ml 3.4         5202283
MTLF  006.55 342.5 m E P       2013/02/20 03:33:37.8  -0.1                          T                                        5202293
MTLF  006.55 342.5 m E Sn      2013/02/20 03:34:43.9   0.5                          T                 .3  .22 Ml 2.4         5202287
EPF   006.87 330.7 m E P       2013/02/20 03:33:42.6   0.1                          T                                        5202294
EPF   006.87 330.7 m E Sn      2013/02/20 03:34:51.0  -0.1                          T                 .7  .29 Ml 2.6         5202288
LASF  007.00 353.7 m E P       2013/02/20 03:33:44.3   0.1                          T                                        5202291
LASF  007.00 353.7 m E Sn      2013/02/20 03:34:54.2   0.0                          T                1.0  .37 Ml 2.7         5202286
ETSF  007.14 325.7 m E P       2013/02/20 03:33:46.2   0.0                          T                                        5202292
CAF   008.10 345.5 m E P       2013/02/20 03:33:59.8   0.3                          T                                        5202290
LPL   008.51 008.7 m E P       2013/02/20 03:34:04.3  -1.1                          T                                        5202289
LMR   006.33 010.6 m E Sn      2013/02/20 03:34:38.5   0.4                          T                  1  .17 Ml 2.9         5202285
FRF   006.57 011.0 m E Sn      2013/02/20 03:34:43.8  -0.1                          T                1.2  .28 Ml 2.9         5202284

.
EVENT     292379
    Date      Time       Latitude Longitude    Depth    Ndef Nsta Gap    Mag1  N    Mag2  N    Mag3  N   Author         ID
       rms   OT_Error      Smajor Sminor Az        Err   mdist  Mdist     Err        Err        Err      Quality

2013/02/20 05:51:01.5     39.3208    -.3771     10.0 f    75    6 103  Ml 2.6  6  Md 2.6  2              bulletin    292479
                                                                                                         _ldg
      0.75   +-  0.11       2.9    1.3  129.13 +-  0.0    0.53   5.89   +-0.2      +-0.0                 m i ke

SPAIN
Sta     Dist  EvAz     Phase      Date       Time     TRes  Azim  AzRes  Slow  SRes Def   SNR       Amp   Per   Mag1   Mag2       ID
ETSF  003.58 357.9 m E Pn      2013/02/20 05:51:55.4   0.2                          T                                        5202031
ETSF  003.58 357.9 m E Pg      2013/02/20 05:52:07.1  -0.7                          T                                        5202030
ETSF  003.58 357.9 m E Sn      2013/02/20 05:52:35.2   0.2                          T                                        5202029
ETSF  003.58 357.9 m E Sg      2013/02/20 05:52:53.5  -0.3                          T                2.4  .29 Ml 2.5 Md 2.6  5202028
EPF   003.75 008.1 m E Pn      2013/02/20 05:51:58.3   0.8                          T                                        5202035
EPF   003.75 008.1 m E Pg      2013/02/20 05:52:11.2   0.3                          T                                        5202034
EPF   003.75 008.1 m E Sn      2013/02/20 05:52:39.1   0.1                          T                                        5202033
EPF   003.75 008.1 m E Sg      2013/02/20 05:52:58.8  -0.2                          T                4.8  .36 Ml 2.7 Md 2.6  5202032
SJPF  003.84 350.7 m E Pn      2013/02/20 05:51:59.1   0.4                          T                                        5202027
SJPF  003.84 350.7 m E Pg      2013/02/20 05:52:12.3  -0.3                          T                                        5202026
SJPF  003.84 350.7 m E Sn      2013/02/20 05:52:41.2  -0.1                          T                                        5202025
SJPF  003.84 350.7 m E Sg      2013/02/20 05:53:02.2   0.2                          T                2.0  .28 Ml 2.5         5202024
MTLF  004.47 025.1 m E Pn      2013/02/20 05:52:06.8  -0.4                          T                                        5202023
MTLF  004.47 025.1 m E Pg      2013/02/20 05:52:24.2   0.1                          T                                        5202022
MTLF  004.47 025.1 m E Sn      2013/02/20 05:52:56.5   0.3                          T                                        5202021
MTLF  004.47 025.1 m E Sg      2013/02/20 05:53:20.9  -0.5                          T                1.1  .29 Ml 2.3         5202020
LFF   005.68 008.0 m E Pn      2013/02/20 05:52:23.7   0.1                          T                                        5202017
LFF   005.68 008.0 m E Sn      2013/02/20 05:53:24.4  -0.6                          T                3.2  .32 Ml 2.9         5202018
CAF   005.89 017.2 m E Pn      2013/02/20 05:52:26.6   0.0                          T                                        5202019

.
EVENT     292381
    Date      Time       Latitude Longitude    Depth    Ndef Nsta Gap    Mag1  N    Mag2  N    Mag3  N   Author         ID
       rms   OT_Error      Smajor Sminor Az        Err   mdist  Mdist     Err        Err        Err      Quality

2013/02/20 07:23:53.5     42.7158   -1.7385      2.0      38    6 085  Ml 2.3  5  Md 2.2  2              bulletin    292481
                                                                                                         _ldg
      0.62   +-  0.13       2.3    1.9  111.72 +-  0.0    0.13   3.53   +-0.3      +-0.1                 m i ke

PYRENEES
Sta     Dist  EvAz     Phase      Date       Time     TRes  Azim  AzRes  Slow  SRes Def   SNR       Amp   Per   Mag1   Mag2       ID
SJPF  000.55 043.3 m E Pg      2013/02/20 07:24:03.1  -0.8                          T                                        5202281
SJPF  000.55 043.3 m E Sg      2013/02/20 07:24:11.1   0.0                          T               20.2  .30        Md 2.3  5202280
ETSF  000.89 077.7 m E Pg      2013/02/20 07:24:10.1  -0.2                          T                                        5202279
ETSF  000.89 077.7 m E Sg      2013/02/20 07:24:21.5  -0.3                          T                7.3  .26 Ml 2.2 Md 2.2  5202278
EPF   001.56 077.7 m E Pg      2013/02/20 07:24:23.5   0.9                          T                                        5202277
EPF   001.56 077.7 m E Sg      2013/02/20 07:24:43.6   0.9                          T                9.5  .23 Ml 2.7         5202276
MTLF  002.97 076.5 m E Pn      2013/02/20 07:24:39.6  -0.1                          T                                        5202272
MTLF  002.97 076.5 m E Pg      2013/02/20 07:24:48.6   0.1                          T                                        5202273
MTLF  002.97 076.5 m E Sn      2013/02/20 07:25:13.8   0.0                          T                                        5202275
MTLF  002.97 076.5 m E Sg      2013/02/20 07:25:26.2  -0.5                          T                 .9  .24 Ml 2.0         5202274
RJF   003.49 041.1 m E Pn      2013/02/20 07:24:47.4   0.5                          T                                        5202269
CAF   003.53 049.9 m E Pn      2013/02/20 07:24:48.0   0.5                          T                                        5202270
CAF   003.53 049.9 m E Sn      2013/02/20 07:25:26.9  -0.3                          T                1.3  .21 Ml 2.3         5202271

.
EVENT     292406
    Date      Time       Latitude Longitude    Depth    Ndef Nsta Gap    Mag1  N    Mag2  N    Mag3  N   Author         ID
       rms   OT_Error      Smajor Sminor Az        Err   mdist  Mdist     Err        Err        Err      Quality

2013/02/20 07:51:16.6     43.0460    -.0483      2.0      36    7 096  Ml 2.0  6  Md 2.0  2              bulletin    292506
                                                                                                         _ldg
      0.41   +-  0.06       1.2    1.1  167.65 +-  0.0    0.09   2.52   +-0.3      +-0.0                 m i ke

PYRENEES
Sta     Dist  EvAz     Phase      Date       Time     TRes  Azim  AzRes  Slow  SRes Def   SNR       Amp   Per   Mag1   Mag2       ID
EPF   000.29 093.0 m E Pg      2013/02/20 07:51:21.8  -0.5                          T                                        5202357
EPF   000.29 093.0 m E Sg      2013/02/20 07:51:26.0  -0.2                          T               25.6  .20        Md 2.0  5202354
ETSF  000.40 248.7 m E Pg      2013/02/20 07:51:23.9  -0.6                          T                                        5202356
ETSF  000.40 248.7 m E Sg      2013/02/20 07:51:29.6  -0.2                          T               14.9  .18        Md 2.0  5202355
SJPF  000.86 274.9 m E Pg      2013/02/20 07:51:33.1   0.1                          T                                        5202353
SJPF  000.86 274.9 m E Sg      2013/02/20 07:51:44.6   0.4                          T                1.8  .26 Ml 1.6         5202352
MTLF  001.68 079.1 m E Pn      2013/02/20 07:51:45.3   0.0                          T                                        5202336
MTLF  001.68 079.1 m E Pg      2013/02/20 07:51:47.9  -0.1                          T                                        5202337
MTLF  001.68 079.1 m E Sn      2013/02/20 07:52:06.0  -0.2                          T                                        5202339
MTLF  001.68 079.1 m E Sg      2013/02/20 07:52:09.7   0.0                          T                 .8  .22 Ml 1.7         5202338
LFF   001.98 016.5 m E Pn      2013/02/20 07:51:49.8   0.5                          T                                        5202348
LFF   001.98 016.5 m E Pg      2013/02/20 07:51:53.5   0.1                          T                                        5202350
LFF   001.98 016.5 m E Sn      2013/02/20 07:52:13.2  -0.1                          T                                        5202349
LFF   001.98 016.5 m E Sg      2013/02/20 07:52:19.6   0.8                          T               14.3  .44 Ml 2.5         5202351
CAF   002.42 038.3 m E Pn      2013/02/20 07:51:55.3  -0.1                          T                                        5202343
CAF   002.42 038.3 m E Pg      2013/02/20 07:52:01.4  -0.2                          T                                        5202342
CAF   002.42 038.3 m E Sn      2013/02/20 07:52:23.9   0.0                          T                                        5202341
CAF   002.42 038.3 m E Sg      2013/02/20 07:52:32.5  -0.3                          T                1.8  .24 Ml 2.2         5202340
RJF   002.52 026.0 m E Pn      2013/02/20 07:51:56.8   0.0                          T                                        5202344
RJF   002.52 026.0 m E Pg      2013/02/20 07:52:03.4  -0.1                          T                                        5202345
RJF   002.52 026.0 m E Sn      2013/02/20 07:52:26.1  -0.3                          T                                        5202346
RJF   002.52 026.0 m E Sg      2013/02/20 07:52:35.8  -0.1                          T                5.3  .42 Ml 2.1         5202347

.
EVENT     292412
    Date      Time       Latitude Longitude    Depth    Ndef Nsta Gap    Mag1  N    Mag2  N    Mag3  N   Author         ID
       rms   OT_Error      Smajor Sminor Az        Err   mdist  Mdist     Err        Err        Err      Quality

2013/02/20 07:59:31.1     43.0325    -.5201      4.0 f    23    4 076  Ml 1.8  2  Md 1.7  3              bulletin    292512
                                                                                                         _ldg
      0.64   +-  0.12       3.7    1.8    2.35 +-  0.0    0.14   3.58   +-0.0      +-0.0                 m i ke

PYRENEES
Sta     Dist  EvAz     Phase      Date       Time     TRes  Azim  AzRes  Slow  SRes Def   SNR       Amp   Per   Mag1   Mag2       ID
ETSF  000.14 192.1 m E Pg      2013/02/20 07:59:33.5  -0.7                          T                                        5204322
ETSF  000.14 192.1 m E Sg      2013/02/20 07:59:35.3  -0.9                          T               25.9  .28        Md 1.7  5204321
SJPF  000.52 279.1 m E Pg      2013/02/20 07:59:40.6  -0.6                          T                                        5204320
SJPF  000.52 279.1 m E Sg      2013/02/20 07:59:46.7  -1.3                          T                7.5  .30        Md 1.8  5204319
EPF   000.63 089.9 m E Pg      2013/02/20 07:59:43.7   0.5                          T                                        5204318
EPF   000.63 089.9 m E Sg      2013/02/20 07:59:52.2   0.8                          T                7.0  .34        Md 1.7  5204317
MTLF  002.03 080.3 m E Pn      2013/02/20 08:00:04.4   0.1                          T                                        5204316
MTLF  002.03 080.3 m E Pg      2013/02/20 08:00:08.8   0.0                          T                                        5204315
MTLF  002.03 080.3 m E Sn      2013/02/20 08:00:28.8   0.2                          T                                        5204314
MTLF  002.03 080.3 m E Sg      2013/02/20 08:00:34.7  -0.2                          T                1.1  .26 Ml 1.8         5204313

.
