EVENT     265084
    Date      Time       Latitude Longitude    Depth    Ndef Nsta Gap    Mag1  N    Mag2  N    Mag3  N   Author         ID
       rms   OT_Error      Smajor Sminor Az        Err   mdist  Mdist     Err        Err        Err      Quality

2011/10/14 07:50:50.9     45.1950    1.6490 f     .0 f    25   13 081  Ml 2.4 13  Md 2.4  4              js067245    265104

      0.44   +-  0.09    9999.9 9999.9   99.90 +-  0.0    0.14   2.58   +-0.3      +-0.1                 m i km

FRANCE
Sta     Dist  EvAz     Phase      Date       Time     TRes  Azim  AzRes  Slow  SRes Def   SNR       Amp   Per   Mag1   Mag2       ID
RJF   000.14 319.5 m E Pg      2011/10/14 07:50:54.8   0.6                          T                                        4771428
RJF   000.14 319.5 m E Sg      2011/10/14 07:50:57.1   0.7                          T              102.5  .50        Md 2.4  4771427
CAF   000.40 132.3 m E Pg      2011/10/14 07:50:58.5  -0.4                          T                                        4771425
CAF   000.40 132.3 m E Sg      2011/10/14 07:51:03.4  -0.9                          T               12.9  .24        Md 2.4  4771426
TCF   001.16 019.6 m E Pg      2011/10/14 07:51:12.9   0.0                          T                                        4773843
TCF   001.16 019.6 m E P       2011/10/14 07:51:14.5   0.0                          T                                        4771417
TCF   001.16 019.6 m E Sg      2011/10/14 07:51:28.1   0.0                          T               15.0  .34 Ml 2.6 Md 2.2  4771418
LFF   000.69 248.7 m E Sg      2011/10/14 07:51:13.2  -0.3                          T                                        4773838
LFF   000.69 248.7 m E Sn      2011/10/14 07:51:17.6   0.1                          T                8.9  .26                4771423
BGF   001.60 031.1 m E Pg      2011/10/14 07:51:21.0   0.0                          T                                        4773839
BGF   001.60 031.1 m E Sg      2011/10/14 07:51:41.9   0.1                          T               48.3  .30 Ml 3.3         4771420
SSF   002.27 034.0 m E Pn      2011/10/14 07:51:28.0   0.0                          T                                        4773845
SSF   002.27 034.0 m E Pg      2011/10/14 07:51:33.5   0.1                          T                                        4773844
SSF   002.27 034.0 m E Sg      2011/10/14 07:52:02.4  -0.4                          T                3.2  .28 Ml 2.4         4771416
AVF   001.99 036.0 m E Pg      2011/10/14 07:51:28.3   0.1                          T                                        4773841
AVF   001.99 036.0 m E Sg      2011/10/14 07:51:53.5  -0.5                          T                4.0  .38 Ml 2.2         4773842
SMF   002.11 045.8 m E Pg      2011/10/14 07:51:30.2  -0.2                          T                                        4773840
SMF   002.11 045.8 m E Sg      2011/10/14 07:51:58.2   0.5                          T                4.4  .40 Ml 2.3         4771419
MTLF  001.90 167.4 m E Sg      2011/10/14 07:51:49.6  -1.5                          T                3.3  .34 Ml 2.2         4771412
LASF  001.93 124.6 m E Sg      2011/10/14 07:51:50.6  -1.6                          T                2.8  .27 Ml 2.2         4771968
MFF   001.88 319.0 m E Sg      2011/10/14 07:51:51.2   0.5                          T                3.5  .33 Ml 2.4         4771969
VIVF  002.17 097.9 m E Sg      2011/10/14 07:51:59.8   0.1                          T                3.3  .27 Ml 2.3         4773837
LOR   002.58 035.7 m E Sg      2011/10/14 07:52:11.7  -0.7                          T                6.1  .42 Ml 2.5         4771413

.
EVENT     265122
    Date      Time       Latitude Longitude    Depth    Ndef Nsta Gap    Mag1  N    Mag2  N    Mag3  N   Author         ID
       rms   OT_Error      Smajor Sminor Az        Err   mdist  Mdist     Err        Err        Err      Quality

2011/10/14 15:00:20.7     46.6238    1.3483      2.0      49   17 079  Ml 2.7 18  Md 2.7  5              js067245    265142

      0.90   +-  0.05       1.1    1.0    4.22 +-  0.0    0.68   3.66   +-0.3      +-0.2                 m i ke

FRANCE
Sta     Dist  EvAz     Phase      Date       Time     TRes  Azim  AzRes  Slow  SRes Def   SNR       Amp   Per   Mag1   Mag2       ID
TCF   000.68 119.1 m E Pg      2011/10/14 15:00:33.8   0.1                          T   001.0                                4770726
TCF   000.68 119.1 m E Sg      2011/10/14 15:00:42.7   0.1                          T               27.6  .20        Md 2.8  4771447
MFF   001.03 269.3 m E Pg      2011/10/14 15:00:40.1   0.1                          T                                        4771443
MFF   001.03 269.3 m E Pn      2011/10/14 15:00:40.6   0.0                          T                                        4771468
MFF   001.03 269.3 m E Sg      2011/10/14 15:00:53.3  -0.1                          T   001.0       30.1  .20 Ml 3.2 Md 2.6  4770720
BGF   001.04 093.1 m E Pg      2011/10/14 15:00:40.1   0.0                          T                                        4771470
BGF   001.04 093.1 m E Sg      2011/10/14 15:00:53.8   0.2                          T   001.0      151.6  .37 Ml 3.4 Md 2.6  4770707
HYF   001.09 053.4 m E Pg      2011/10/14 15:00:41.3   0.1                          T                                        4771463
HYF   001.09 053.4 m E Sg      2011/10/14 15:00:55.5   0.0                          T                                        4771450
AVF   001.39 082.4 m E Pn      2011/10/14 15:00:45.4  -0.1                          T   001.0                                4770704
AVF   001.39 082.4 m E Pg      2011/10/14 15:00:46.9   0.2                          T                                        4773851
AVF   001.39 082.4 m E Sn      2011/10/14 15:01:03.3   0.0                          T                7.8  .22 Ml 2.5         4771465
RJF   001.32 174.9 m E Pg      2011/10/14 15:00:45.6   0.1                          T                                        4771467
RJF   001.32 174.9 m E Sn      2011/10/14 15:01:02.0   0.2                          T   001.0       29.7  .26 Ml 2.7         4770703
SSF   001.54 072.7 m E Pn      2011/10/14 15:00:47.5  -0.1                          T   001.0                                4770725
SSF   001.54 072.7 m E Pg      2011/10/14 15:00:49.5   0.0                          T                                        4773852
SSF   001.54 072.7 m E Sn      2011/10/14 15:01:07.0   0.0                          T               10.6  .22 Ml 2.8         4771446
SMF   001.72 088.4 m E Pn      2011/10/14 15:00:50.0   0.0                          T   001.0                                4770723
SMF   001.72 088.4 m E P       2011/10/14 15:00:52.2   0.2                          T                                        4771442
SMF   001.72 088.4 m E Sg      2011/10/14 15:01:14.1  -0.8                          T                7.4  .20 Ml 2.7         4771464
CAF   001.77 163.3 m E Pn      2011/10/14 15:00:50.6  -0.1                          T   001.0                                4770708
CAF   001.77 163.3 m E Pg      2011/10/14 15:00:53.5  -0.2                          T                                        4773848
CAF   001.77 163.3 m E Sn      2011/10/14 15:01:12.4  -0.1                          T                                        4771466
CAF   001.77 163.3 m E Sg      2011/10/14 15:01:16.3  -0.3                          T                9.0  .18 Ml 2.9         4771455
LOR   001.84 068.5 m E Pn      2011/10/14 15:00:51.6   0.0                          T                                        4773854
LOR   001.84 068.5 m E P       2011/10/14 15:00:53.8   0.1 246.2  -4.2              T   001.0                                4770717
LOR   001.84 068.5 m E Pg      2011/10/14 15:00:55.0   0.1                          T                                        4773853
LOR   001.84 068.5 m E Sg      2011/10/14 15:01:18.1  -0.5 231.3  -19.0             T                7.6  .20 Ml 2.8 Md 2.9  4771444
LFF   001.74 194.4 m E Pg      2011/10/14 15:00:53.3   0.2                          T   001.0                                4770716
LFF   001.74 194.4 m E Sn      2011/10/14 15:01:11.1  -0.6                          T                                        4771456
LFF   001.74 194.4 m E Sg      2011/10/14 15:01:15.7   0.2                          T               10.7  .24 Ml 2.6         4771457
GRR   002.31 320.5 m E Pn      2011/10/14 15:00:58.0   0.0                          T                                        4773849
GRR   002.31 320.5 m E Sn      2011/10/14 15:01:25.5   0.1                          T                                        4771454
GRR   002.31 320.5 m E Sg      2011/10/14 15:01:32.4  -1.0                          T                4.0  .20 Ml 2.4         4771462
FLN   002.47 330.7 m E Pg      2011/10/14 15:01:06.6   0.0 155.3  6.0               T                                        4771451
FLN   002.47 330.7 m E Sg      2011/10/14 15:01:38.0  -0.4 152.4  3.1               T                4.4  .28 Ml 2.4         4771453
LDF   002.21 333.8 m E Sn      2011/10/14 15:01:22.6  -0.2                          T   001.0                                4770713
LDF   002.21 333.8 m E Sg      2011/10/14 15:01:29.2  -0.9                          T   001.0        3.1  .20 Ml 2.4         4770714
VIVF  002.92 126.0 m E Sg      2011/10/14 15:01:52.2  -0.4                          T                2.0  .26 Ml 2.3         4773846
MTLF  003.34 169.0 m E Sg      2011/10/14 15:02:04.7  -0.8                          T                3.7  .39 Ml 2.5         4771458
EPF   003.66 191.6 m E Sg      2011/10/14 15:02:16.1   0.4                          T                3.3  .33 Ml 2.6         4773847

.
EVENT     265123
    Date      Time       Latitude Longitude    Depth    Ndef Nsta Gap    Mag1  N    Mag2  N    Mag3  N   Author         ID
       rms   OT_Error      Smajor Sminor Az        Err   mdist  Mdist     Err        Err        Err      Quality

2011/10/14 15:43:10.8     44.6888    7.6634      3.0 f    17    9 229  Ml 1.9  8  Md 1.9  1              js067245    265143

      0.26   +-  0.17       3.1    1.2   75.82 +-  0.0    0.64   2.14   +-0.2      +-                    m i ke

NORTHERN ITALY
Sta     Dist  EvAz     Phase      Date       Time     TRes  Azim  AzRes  Slow  SRes Def   SNR       Amp   Per   Mag1   Mag2       ID
MBDF  000.64 273.7 m E Pg      2011/10/14 15:43:23.9   0.8                          T                                        4771481
MBDF  000.64 273.7 m E Sg      2011/10/14 15:43:31.8   0.4                          T                5.4  .20        Md 1.9  4771480
SBF   000.84 191.3 m E Pg      2011/10/14 15:43:26.6  -0.1                          T                                        4773860
SBF   000.84 191.3 m E Sg      2011/10/14 15:43:38.0   0.3                          T                3.6  .23                4771970
LPL   001.06 321.8 m E Pg      2011/10/14 15:43:30.7  -0.2                          T                                        4771972
LPL   001.06 321.8 m E Sg      2011/10/14 15:43:44.8   0.2                          T                1.7  .26 Ml 1.7         4773862
ORIF  001.29 280.9 m E Pg      2011/10/14 15:43:35.0   0.0                          T                                        4771479
ORIF  001.29 280.9 m E Sn      2011/10/14 15:43:51.2   0.3                          T                3.3  .30 Ml 2.0         4771478
FRF   001.34 213.3 m E Pg      2011/10/14 15:43:36.1   0.2                          T                                        4771477
FRF   001.34 213.3 m E Sg      2011/10/14 15:43:53.3   0.0                          T                2.3  .21 Ml 2.0         4771476
LMR   001.59 212.0 m E Pg      2011/10/14 15:43:40.4   0.0                          T                                        4771971
LMR   001.59 212.0 m E Sg      2011/10/14 15:44:00.9   0.0                          T                3.0  .30 Ml 2.1         4771475
LPG   001.04 321.7 m E Sg      2011/10/14 15:43:44.3   0.3                          T                1.3  .21 Ml 1.6         4773861
SMRF  001.66 245.3 m E Sg      2011/10/14 15:44:02.5  -0.7                          T                1.3  .25 Ml 1.8         4771474
VIVF  002.14 275.5 m E Sn      2011/10/14 15:44:10.6  -0.5                          T                1.0  .23 Ml 1.9         4771473

.
EVENT     265124
    Date      Time       Latitude Longitude    Depth    Ndef Nsta Gap    Mag1  N    Mag2  N    Mag3  N   Author         ID
       rms   OT_Error      Smajor Sminor Az        Err   mdist  Mdist     Err        Err        Err      Quality

2011/10/14 18:18:14.0     40.0234    -.2903      2.0      27    4 178  Ml 2.2  4                         js067245    265144

      0.39   +-  0.14       3.2    1.8  123.52 +-  0.0    0.37   3.81   +-0.1                            m i ke

SPAIN
Sta     Dist  EvAz     Phase      Date       Time     TRes  Azim  AzRes  Slow  SRes Def   SNR       Amp   Per   Mag1   Mag2       ID
EPF   003.04 008.7 m E Pn      2011/10/14 18:19:01.2  -0.1                          T                                        4771498
EPF   003.04 008.7 m E Sg      2011/10/14 18:19:48.7  -0.9                          T                2.3  .33 Ml 2.3         4771503
ETSF  002.88 356.1 m E P       2011/10/14 18:19:01.7  -0.2                          T                                        4771505
ETSF  002.88 356.1 m E Pg      2011/10/14 18:19:07.6   0.1                          T                                        4771504
ETSF  002.88 356.1 m E Sg      2011/10/14 18:19:44.1  -0.4                          T                2.2  .37 Ml 2.2         4771501
SJPF  003.17 347.5 m E Pn      2011/10/14 18:19:03.3   0.3                          T                                        4771502
MTLF  003.81 028.7 m E Sg      2011/10/14 18:20:14.1   0.7                          T                1.1  .31 Ml 2.2         4771500

.
EVENT     265125
    Date      Time       Latitude Longitude    Depth    Ndef Nsta Gap    Mag1  N    Mag2  N    Mag3  N   Author         ID
       rms   OT_Error      Smajor Sminor Az        Err   mdist  Mdist     Err        Err        Err      Quality

2011/10/14 19:21:44.8     43.0287    -.0064      5.0 f    30    7 057  Ml 1.8  6  Md 2.2  2              js067245    265145

      0.51   +-  0.07       1.6    1.2  179.05 +-  0.0    0.08   2.53   +-0.3      +-0.1                 m i ke

PYRENEES
Sta     Dist  EvAz     Phase      Date       Time     TRes  Azim  AzRes  Slow  SRes Def   SNR       Amp   Per   Mag1   Mag2       ID
EPF   000.25 089.5 m E Pg      2011/10/14 19:21:49.2  -0.8                          T                                        4771975
EPF   000.25 089.5 m E Sg      2011/10/14 19:21:53.1  -0.4                          T                5.3  .18        Md 2.1  4771974
ETSF  000.43 252.4 m E Pg      2011/10/14 19:21:52.6  -0.6                          T                                        4771530
ETSF  000.43 252.4 m E Sg      2011/10/14 19:21:58.3  -0.5                          T                5.5  .23        Md 2.2  4771529
SJPF  000.90 275.8 m E Pg      2011/10/14 19:22:01.6  -0.1                          T                                        4771973
SJPF  000.90 275.8 m E Sg      2011/10/14 19:22:13.6   0.2                          T                1.3  .30 Ml 1.4         4771528
MTLF  001.66 078.4 m E Pg      2011/10/14 19:22:15.7   0.0                          T                                        4771526
MTLF  001.66 078.4 m E Sg      2011/10/14 19:22:37.0  -0.1                          T                2.4  .27 Ml 2.1         4771527
LFF   001.98 015.5 m E Pg      2011/10/14 19:22:21.9   0.2                          T                                        4773876
LFF   001.98 015.5 m E Sg      2011/10/14 19:22:47.9   0.6                          T                2.9  .37 Ml 1.9         4773877
RJF   002.53 025.2 m E Pn      2011/10/14 19:22:25.0   0.3                          T                                        4773879
RJF   002.53 025.2 m E Pg      2011/10/14 19:22:31.8   0.1                          T                                        4773878
RJF   002.53 025.2 m E Sg      2011/10/14 19:23:04.4   0.2                          T                 .8  .22 Ml 1.5         4773880
CAF   002.41 037.5 m E Pg      2011/10/14 19:22:29.5  -0.2                          T                                        4773881
CAF   002.41 037.5 m E Sg      2011/10/14 19:23:00.9   0.1                          T                 .4  .18 Ml 1.6         4773882

.
EVENT     265126
    Date      Time       Latitude Longitude    Depth    Ndef Nsta Gap    Mag1  N    Mag2  N    Mag3  N   Author         ID
       rms   OT_Error      Smajor Sminor Az        Err   mdist  Mdist     Err        Err        Err      Quality

2011/10/14 19:53:19.3     46.0284    6.8632      3.0 f    18    5 084  Ml 1.9  3  Md 1.8  2              js067245    265146

      0.62   +-  0.05       1.6     .9  115.99 +-  0.0    0.04   1.94   +-0.2      +-0.1                 m i ke

SWITZERLAND
Sta     Dist  EvAz     Phase      Date       Time     TRes  Azim  AzRes  Slow  SRes Def   SNR       Amp   Per   Mag1   Mag2       ID
LPL   000.52 190.2 m E Pg      2011/10/14 19:53:29.4  -0.1                          T                                        4771541
LPL   000.52 190.2 m E Sg      2011/10/14 19:53:36.4   0.0                          T                2.2  .26        Md 1.9  4771538
LPG   000.54 188.4 m E Pg      2011/10/14 19:53:29.8  -0.1                          T                                        4771540
LPG   000.54 188.4 m E Sg      2011/10/14 19:53:36.7  -0.3                          T                5.6  .24        Md 1.8  4771539
CABF  000.79 317.6 m E Pg      2011/10/14 19:53:34.7   0.3                          T                                        4771531
CABF  000.79 317.6 m E Sn      2011/10/14 19:53:47.3  -0.3                          T                3.0  .26                4771532
ORIF  001.31 212.3 m E Pg      2011/10/14 19:53:43.7  -0.2                          T                                        4771534
ORIF  001.31 212.3 m E Sg      2011/10/14 19:54:00.6  -0.2                          T                1.7  .30 Ml 1.7         4771533
VIVF  001.94 233.5 m E Pg      2011/10/14 19:53:55.4   0.0                          T                                        4771537
VIVF  001.94 233.5 m E Sn      2011/10/14 19:54:14.8  -0.1                          T                                        4771535
VIVF  001.94 233.5 m E Sg      2011/10/14 19:54:20.0  -0.4                          T                1.6  .18 Ml 2.1         4771536

.
