EVENT     280991
    Date      Time       Latitude Longitude    Depth    Ndef Nsta Gap    Mag1  N    Mag2  N    Mag3  N   Author         ID
       rms   OT_Error      Smajor Sminor Az        Err   mdist  Mdist     Err        Err        Err      Quality

2012/08/09 13:03:37.4     47.9019    5.7754       .0 f    16    8 112  Ml 2.0  4  Md 2.0  2              bulletin    281091
                                                                                                         _ldg
      0.50   +-  0.07       1.3    1.0  120.49 +-  0.0    0.36   1.82   +-0.1      +-0.0                 m i km

FRANCE
Sta     Dist  EvAz     Phase      Date       Time     TRes  Azim  AzRes  Slow  SRes Def   SNR       Amp   Per   Mag1   Mag2       ID
THEF  000.36 024.1 m E Pg      2012/08/09 13:03:44.8   0.2                          T                                        5042699
THEF  000.36 024.1 m E Sg      2012/08/09 13:03:49.7   0.1                          T               83.2  .96        Md 2.0  5042698
HAU   000.40 074.7 m E Pg      2012/08/09 13:03:45.3  -0.1                          T                                        5042701
HAU   000.40 074.7 m E Sg      2012/08/09 13:03:51.0   0.1                          T               61.8  .96        Md 2.0  5042697
PAGF  000.65 357.1 m E Pg      2012/08/09 13:03:49.8  -0.3                          T                                        5052726
PAGF  000.65 357.1 m E Sn      2012/08/09 13:04:03.4   0.2 174.0  -3.1              T               14.2  .66                5052727
HINF  000.73 096.3 m E Pn      2012/08/09 13:03:53.6  -0.1                          T                                        5052725
HINF  000.73 096.3 m E Sg      2012/08/09 13:04:01.3   0.0                          T                2.4  .26                5042696
HINF  000.73 096.3 m E Sn      2012/08/09 13:04:04.9  -0.1                          T                7.0  .34                5042700
CDF   001.13 062.5 m E Pg      2012/08/09 13:03:59.1   0.2                          T                                        5052728
CDF   001.13 062.5 m E Sg      2012/08/09 13:04:13.4  -0.3                          T                                        5052729
CDF   001.13 062.5 m E Sn      2012/08/09 13:04:14.6   0.1                          T                3.9  .34 Ml 2.0         5052730
CABF  001.31 170.5 m E Pg      2012/08/09 13:04:02.3   0.0                          T                                        5052723
CABF  001.31 170.5 m E Sg      2012/08/09 13:04:19.4   0.0                          T                4.6  .48 Ml 1.9         5052724
LOR   001.44 244.7 m E Sg      2012/08/09 13:04:23.6   0.1  69.7  6.4               T                1.6  .19 Ml 1.9         5052721
SMF   001.82 227.0 m E Sg      2012/08/09 13:04:35.2   0.0                          T                4.9  .54 Ml 2.1         5052722

.
EVENT     281028
    Date      Time       Latitude Longitude    Depth    Ndef Nsta Gap    Mag1  N    Mag2  N    Mag3  N   Author         ID
       rms   OT_Error      Smajor Sminor Az        Err   mdist  Mdist     Err        Err        Err      Quality

2012/08/09 14:45:49.2     43.7892    7.5899      2.0      19    7 179  Ml 1.7  5  Md 1.8  2              bulletin    281128
                                                                                                         _ldg
      0.25   +-  0.08       1.7    1.0  154.55 +-  0.0    0.10   1.83   +-0.3      +-0.0                 m i ke

NEAR SOUTH COAST OF FRANCE
Sta     Dist  EvAz     Phase      Date       Time     TRes  Azim  AzRes  Slow  SRes Def   SNR       Amp   Per   Mag1   Mag2       ID
SBF   000.13 303.5 m E Pg      2012/08/09 14:45:51.8  -0.3                          T                                        5042763
SBF   000.13 303.5 m E Sg      2012/08/09 14:45:54.0  -0.1                          T               86.2  .33        Md 1.8  5042762
FRF   000.72 251.9 m E Pg      2012/08/09 14:46:02.4  -0.4                          T                                        5042761
FRF   000.72 251.9 m E Sg      2012/08/09 14:46:12.3   0.0                          T                                Md 1.8  5042760
FRF   000.72 251.9 m E Sn      2012/08/09 14:46:16.0   0.2                          T                 .8  .17                5052731
LMR   000.91 240.3 m E Pg      2012/08/09 14:46:06.5   0.2                          T                                        5042759
LMR   000.91 240.3 m E Sg      2012/08/09 14:46:18.0   0.0                          T                1.4  .29 Ml 1.5         5042758
MBDF  001.11 328.2 m E Pg      2012/08/09 14:46:10.1   0.0                          T                                        5042751
MBDF  001.11 328.2 m E Sg      2012/08/09 14:46:24.2  -0.2                          T                1.4  .36 Ml 1.4         5042750
SMRF  001.47 278.0 m E Pn      2012/08/09 14:46:14.7  -0.3                          T                                        5042757
SMRF  001.47 278.0 m E Sn      2012/08/09 14:46:33.8   0.0                          T                2.4  .33 Ml 1.9         5042756
ORIF  001.67 313.2 m E Pn      2012/08/09 14:46:17.9   0.1                          T                                        5042753
ORIF  001.67 313.2 m E Sg      2012/08/09 14:46:41.7  -0.2                          T                1.3  .33 Ml 1.7         5042752
LPL   001.83 340.8 m E Pn      2012/08/09 14:46:20.3   0.0                          T                                        5042755
LPL   001.83 340.8 m E Sn      2012/08/09 14:46:42.3  -0.3                          T                2.0  .24 Ml 2.1         5042754

.
EVENT     281027
    Date      Time       Latitude Longitude    Depth    Ndef Nsta Gap    Mag1  N    Mag2  N    Mag3  N   Author         ID
       rms   OT_Error      Smajor Sminor Az        Err   mdist  Mdist     Err        Err        Err      Quality

2012/08/09 15:38:24.8     44.7871    6.7350      2.0      28    9 077  Ml 1.6  5  Md 1.7  2              bulletin    281127
                                                                                                         _ldg
      0.26   +-  0.04       1.0     .8   82.03 +-  0.0    0.07   1.47   +-0.2      +-0.1                 m i ke

FRANCE
Sta     Dist  EvAz     Phase      Date       Time     TRes  Azim  AzRes  Slow  SRes Def   SNR       Amp   Per   Mag1   Mag2       ID
MBDF  000.07 156.7 m E Pg      2012/08/09 15:38:26.7   0.0                          T                                        5042733
MBDF  000.07 156.7 m E Sg      2012/08/09 15:38:27.9   0.2                          T               39.4  .16        Md 1.6  5042732
ORIF  000.62 282.5 m E Pg      2012/08/09 15:38:36.9   0.1                          T                                        5042731
ORIF  000.62 282.5 m E Sg      2012/08/09 15:38:44.4  -0.5                          T                4.2  .25        Md 1.7  5042730
LPG   000.71 000.9 m E Pg      2012/08/09 15:38:38.7   0.1                          T                                        5042951
LPG   000.71 000.9 m E Sg      2012/08/09 15:38:47.9   0.0                          T                1.4  .20                5042950
LPL   000.73 359.9 m E Pg      2012/08/09 15:38:39.0   0.1                          T                                        5042729
LPL   000.73 359.9 m E Sg      2012/08/09 15:38:49.1   0.7                          T                1.3  .28                5042741
SBF   001.05 151.2 m E Pg      2012/08/09 15:38:44.8   0.2                          T                                        5042735
SBF   001.05 151.2 m E Sg      2012/08/09 15:38:58.5   0.3                          T                1.1  .20 Ml 1.6         5042734
SMRF  001.16 226.1 m E Pg      2012/08/09 15:38:46.5  -0.1                          T                                        5042740
SMRF  001.16 226.1 m E Sg      2012/08/09 15:39:01.1  -0.5                          T                 .9  .31 Ml 1.3         5042739
FRF   001.23 183.0 m E Pg      2012/08/09 15:38:47.6  -0.2                          T                                        5042728
FRF   001.23 183.0 m E Sg      2012/08/09 15:39:03.6  -0.1                          T                  1  .21 Ml 1.6         5042738
VIVF  001.47 273.4 m E Pn      2012/08/09 15:38:50.4  -0.3                          T                                        5042949
VIVF  001.47 273.4 m E Sn      2012/08/09 15:39:09.6   0.3                          T                1.4  .41 Ml 1.6         5042948
LMR   001.46 186.5 m E Pn      2012/08/09 15:38:50.5   0.0                          T                                        5042737
LMR   001.46 186.5 m E Sn      2012/08/09 15:39:09.1   0.0                          T                1.1  .21 Ml 1.7         5042736

.
EVENT     281109
    Date      Time       Latitude Longitude    Depth    Ndef Nsta Gap    Mag1  N    Mag2  N    Mag3  N   Author         ID
       rms   OT_Error      Smajor Sminor Az        Err   mdist  Mdist     Err        Err        Err      Quality

2012/08/09 17:27:50.5     42.3107    1.8386      5.0 f    18    4 087  Ml 1.4  4  Md 1.5  2              bulletin    281209
                                                                                                         _ldg
      0.30   +-  0.06       1.3     .9    8.91 +-  0.0    0.20   2.30   +-0.3      +-0.1                 m i ke

PYRENEES
Sta     Dist  EvAz     Phase      Date       Time     TRes  Azim  AzRes  Slow  SRes Def   SNR       Amp   Per   Mag1   Mag2       ID
MTLF  001.07 015.0 m E Pg      2012/08/09 17:28:10.2  -0.3                          T                                        5046221
MTLF  001.07 015.0 m E Sg      2012/08/09 17:28:24.0  -0.3                          T                 .4  .25 Ml 1.0 Md 1.6  5046220
EPF   001.32 303.6 m E Pn      2012/08/09 17:28:14.2   0.3                          T                                        5046219
EPF   001.32 303.6 m E Sg      2012/08/09 17:28:32.2   0.0                          T                 .4  .21 Ml 1.3 Md 1.5  5046217
ETSF  001.87 289.2 m E Pn      2012/08/09 17:28:21.7   0.2                          T                                        5046216
ETSF  001.87 289.2 m E Sn      2012/08/09 17:28:44.3   0.3                          T                 .3  .17 Ml 1.4         5046215
LASF  002.30 039.2 m E Pn      2012/08/09 17:28:27.5   0.2                          T                                        5046214
LASF  002.30 039.2 m E Sn      2012/08/09 17:28:54.6   0.3                          T                1.2  .32 Ml 1.8         5046213

.
EVENT     281029
    Date      Time       Latitude Longitude    Depth    Ndef Nsta Gap    Mag1  N    Mag2  N    Mag3  N   Author         ID
       rms   OT_Error      Smajor Sminor Az        Err   mdist  Mdist     Err        Err        Err      Quality

2012/08/10 00:44:59.8     47.9736    7.2555      5.0 f    22    8 055  Ml 1.5  6  Md 1.6  3              bulletin    281129
                                                                                                         _ldg
      0.32   +-  0.05       1.2     .8  174.65 +-  0.0    0.15   2.40   +-0.2      +-0.1                 m i ke

SWITZERLAND
Sta     Dist  EvAz     Phase      Date       Time     TRes  Azim  AzRes  Slow  SRes Def   SNR       Amp   Per   Mag1   Mag2       ID
HINF  000.31 240.0 m E Pg      2012/08/10 00:45:05.8  -0.3                          T                                        5042768
HINF  000.31 240.0 m E Sg      2012/08/10 00:45:10.0  -0.3                          T                7.4  .21        Md 1.5  5042767
CDF   000.44 001.8 m E Pg      2012/08/10 00:45:08.2  -0.2                          T                                        5042765
CDF   000.44 001.8 m E Sg      2012/08/10 00:45:14.0  -0.2                          T                1.1  .29        Md 1.6  5042764
HAU   000.61 273.3 m E Pg      2012/08/10 00:45:11.5   0.1                          T                                        5042766
HAU   000.61 273.3 m E Sg      2012/08/10 00:45:19.7   0.2                          T                1.3  .23        Md 1.6  5042771
PAGF  001.18 300.2 m E Pg      2012/08/10 00:45:22.1   0.3                          T                                        5042770
PAGF  001.18 300.2 m E Sg      2012/08/10 00:45:36.8  -0.2                          T                 .9  .18 Ml 1.6         5042769
SFTF  001.50 279.7 m E Pn      2012/08/10 00:45:26.2   0.5                          T                                        5042777
SFTF  001.50 279.7 m E Sg      2012/08/10 00:45:46.9  -0.4                          T                  1  .20 Ml 1.7         5042772
MEZF  001.57 290.6 m E Pn      2012/08/10 00:45:26.7   0.2                          T                                        5042778
MEZF  001.57 290.6 m E Sg      2012/08/10 00:45:49.5   0.4                          T                1.1  .36 Ml 1.5         5042773
CABF  001.58 210.7 m E Pn      2012/08/10 00:45:27.6   0.7                          T                                        5046770
CABF  001.58 210.7 m E Sn      2012/08/10 00:45:47.0   0.5                          T                 .5  .24 Ml 1.4         5046769
LOR   002.40 254.2 m E Pn      2012/08/10 00:45:38.2   0.2                          T                                        5042776
LOR   002.40 254.2 m E Pg      2012/08/10 00:45:44.4  -0.1  73.5  1.8               T                                        5042775
LOR   002.40 254.2 m E Sg      2012/08/10 00:46:15.1  -0.3                          T                 .3  .20 Ml 1.4         5042774

.
EVENT     281040
    Date      Time       Latitude Longitude    Depth    Ndef Nsta Gap    Mag1  N    Mag2  N    Mag3  N   Author         ID
       rms   OT_Error      Smajor Sminor Az        Err   mdist  Mdist     Err        Err        Err      Quality

2012/08/10 05:28:20.9     44.7775    6.8697      2.0      24    8 077  Ml 1.7  4  Md 1.8  2              bulletin    281140
                                                                                                         _ldg
      0.15   +-  0.04        .8     .6  101.99 +-  0.0    0.09   1.47   +-0.3      +-0.1                 m i ke

FRANCE
Sta     Dist  EvAz     Phase      Date       Time     TRes  Azim  AzRes  Slow  SRes Def   SNR       Amp   Per   Mag1   Mag2       ID
MBDF  000.09 234.2 m E Pg      2012/08/10 05:28:23.3   0.2                          T                                        5042977
MBDF  000.09 234.2 m E Sg      2012/08/10 05:28:24.4   0.1                          T                5.4  .19        Md 1.7  5042976
ORIF  000.72 281.7 m E Pg      2012/08/10 05:28:34.6   0.0                          T                                        5042975
ORIF  000.72 281.7 m E Sg      2012/08/10 05:28:43.8  -0.1                          T                1.1  .24                5042974
LPG   000.73 353.4 m E Pg      2012/08/10 05:28:35.0   0.1                          T                                        5042971
LPG   000.73 353.4 m E Sg      2012/08/10 05:28:44.2  -0.1                          T                 .9  .31                5042969
LPL   000.75 352.6 m E Pg      2012/08/10 05:28:35.2   0.0                          T                                        5042970
LPL   000.75 352.6 m E Sg      2012/08/10 05:28:44.9  -0.1                          T                 .7  .35                5042968
SBF   001.00 155.9 m E Pg      2012/08/10 05:28:39.6  -0.1                          T                                        5042972
SBF   001.00 155.9 m E Sg      2012/08/10 05:28:52.6  -0.1                          T                4.9  .45 Ml 1.9         5046771
SMRF  001.23 229.6 m E Pn      2012/08/10 05:28:42.9  -0.5                          T                                        5042973
SMRF  001.23 229.6 m E Sg      2012/08/10 05:28:59.7   0.0                          T                 .4  .19 Ml 1.2         5046776
FRF   001.23 187.6 m E Pn      2012/08/10 05:28:43.4   0.0                          T                                        5046775
FRF   001.23 187.6 m E Sn      2012/08/10 05:28:59.6   0.0                          T                2.4  .33 Ml 1.8         5046774
LMR   001.47 190.3 m E Pn      2012/08/10 05:28:46.8   0.2                          T                                        5046773
LMR   001.47 190.3 m E Sn      2012/08/10 05:29:05.4   0.1                          T                2.1  .35 Ml 1.8         5046772

.
EVENT     281099
    Date      Time       Latitude Longitude    Depth    Ndef Nsta Gap    Mag1  N    Mag2  N    Mag3  N   Author         ID
       rms   OT_Error      Smajor Sminor Az        Err   mdist  Mdist     Err        Err        Err      Quality

2012/08/10 06:39:07.7     43.1021    -.5973      2.0      14    3 162  Ml 1.5  1  Md 1.6  2              bulletin    281199
                                                                                                         _ldg
      0.23   +-  0.07       1.9    1.0    3.07 +-  0.0    0.21   2.07   +-         +-0.1                 m i ke

PYRENEES
Sta     Dist  EvAz     Phase      Date       Time     TRes  Azim  AzRes  Slow  SRes Def   SNR       Amp   Per   Mag1   Mag2       ID
ETSF  000.21 172.2 m E Pg      2012/08/10 06:39:11.8  -0.1                          T                                        5043102
ETSF  000.21 172.2 m E Sg      2012/08/10 06:39:14.5  -0.2                          T               28.3  .24        Md 1.5  5043101
EPF   000.69 095.6 m E Pg      2012/08/10 06:39:20.8   0.0                          T                                        5043100
EPF   000.69 095.6 m E Pn      2012/08/10 06:39:23.1   0.2                          T                                        5046780
EPF   000.69 095.6 m E Sg      2012/08/10 06:39:29.8   0.0                          T                1.9  .18        Md 1.6  5043099
MTLF  002.07 082.4 m E Pn      2012/08/10 06:39:41.7   0.0                          T                                        5046777
MTLF  002.07 082.4 m E Sg      2012/08/10 06:40:12.9   0.1                          T                 .4  .21 Ml 1.5         5052732

.
