EVENT     292850
    Date      Time       Latitude Longitude    Depth    Ndef Nsta Gap    Mag1  N    Mag2  N    Mag3  N   Author         ID
       rms   OT_Error      Smajor Sminor Az        Err   mdist  Mdist     Err        Err        Err      Quality

2013/02/28 15:44:03.8     44.2037    6.8585      2.0      24    8 064  Ml 0.9  5  Md 0.9  1              bulletin    292950
                                                                                                         _ldg
      0.21   +-  0.04        .9     .8   74.94 +-  0.0    0.14   1.32   +-0.1      +-                    m i ke

FRANCE
Sta     Dist  EvAz     Phase      Date       Time     TRes  Azim  AzRes  Slow  SRes Def   SNR       Amp   Per   Mag1   Mag2       ID
SBF   000.54 129.1 m E Pg      2013/02/28 15:44:13.7  -0.4                          T                                        5212975
SBF   000.54 129.1 m E Sg      2013/02/28 15:44:20.9  -0.3                          T                 .3  .10                5212974
MBDF  000.53 353.2 m E Pg      2013/02/28 15:44:14.0  -0.1                          T                                        5212973
MBDF  000.53 353.2 m E Sg      2013/02/28 15:44:20.6  -0.4                          T                 .3  .17        Md  .9  5212984
FRF   000.66 193.5 m E Pg      2013/02/28 15:44:16.7   0.3                          T                                        5212986
FRF   000.66 193.5 m E Sg      2013/02/28 15:44:24.5  -0.5                          T                 .2  .13                5212985
LMR   000.91 196.3 m E Pg      2013/02/28 15:44:20.9   0.0                          T                                        5212977
LMR   000.91 196.3 m E Sg      2013/02/28 15:44:32.7   0.1                          T                 .2  .15 Ml  .9         5212976
SMRF  000.95 256.6 m E Pg      2013/02/28 15:44:21.7  -0.1                          T                                        5212979
SMRF  000.95 256.6 m E Sg      2013/02/28 15:44:34.4   0.3                          T                 .4  .20 Ml 1.1         5212978
ORIF  001.00 315.9 m E Pg      2013/02/28 15:44:22.7   0.0                          T                                        5212983
ORIF  001.00 315.9 m E Sg      2013/02/28 15:44:35.7   0.0                          T                 .1  .12 Ml  .7         5212982
LPL   001.32 356.1 m E Pn      2013/02/28 15:44:28.0   0.1                          T                                        5212981
LPL   001.32 356.1 m E Sn      2013/02/28 15:44:45.0   0.0                          T                 .1  .13 Ml  .9         5212980
LPG   001.30 356.7 m E Pg      2013/02/28 15:44:28.2  -0.2                          T                                        5212988
LPG   001.30 356.7 m E Sg      2013/02/28 15:44:45.2   0.0                          T                 .1  .15 Ml  .9         5212987

.
EVENT     292853
    Date      Time       Latitude Longitude    Depth    Ndef Nsta Gap    Mag1  N    Mag2  N    Mag3  N   Author         ID
       rms   OT_Error      Smajor Sminor Az        Err   mdist  Mdist     Err        Err        Err      Quality

2013/02/28 17:45:59.3     35.8698   -5.0765     56.0 f    87   15 168  Ml 2.9  3                         bulletin    292953
                                                                                                         _ldg
      0.87   +-  0.23       5.2    2.4  172.20 +-  0.0    0.25  13.32   +-0.1                            m i ke

STRAIT OF GIBRALTAR
Sta     Dist  EvAz     Phase      Date       Time     TRes  Azim  AzRes  Slow  SRes Def   SNR       Amp   Per   Mag1   Mag2       ID
ETSF  007.84 025.1 m E Pn      2013/02/28 17:47:50.2   0.5                          T                                        5213125
ETSF  007.84 025.1 m E Sn      2013/02/28 17:49:13.0   0.5                          T                1.0  .46 Ml 2.7         5213121
SJPF  007.82 021.2 m E Pn      2013/02/28 17:47:50.2   0.9                          T                                        5213126
SJPF  007.82 021.2 m E Sn      2013/02/28 17:49:12.1   0.1                          T                1.4  .32 Ml 3.0         5213122
EPF   008.29 028.7 m E Pn      2013/02/28 17:47:56.3   0.6                          T                                        5213124
EPF   008.29 028.7 m E Sn      2013/02/28 17:49:23.2   0.2                          T                 .7  .24 Ml 2.9         5213123
CAF   010.55 028.8 m E Pn      2013/02/28 17:48:25.9  -0.6                          T                                        5213373
RJF   010.67 026.0 m E Pn      2013/02/28 17:48:27.7  -0.3                          T                                        5213372
MFF   011.34 017.5 m E Pn      2013/02/28 17:48:37.7   0.5                          T                                        5213135
TCF   011.76 025.6 m E Pn      2013/02/28 17:48:42.8  -0.1                          T                                        5213374
QUIF  012.12 006.1 m E Pn      2013/02/28 17:48:48.4   0.7                          T                                        5213127
SGMF  012.52 007.8 m E Pn      2013/02/28 17:48:53.4   0.3                          T                                        5213128
ROSF  012.53 005.6 m E Pn      2013/02/28 17:48:53.7   0.4                          T                                        5213129
SMF   012.67 029.1 m E Pn      2013/02/28 17:48:55.1  -0.2                          T                                        5213134
SSF   012.89 027.2 m E Pn      2013/02/28 17:48:58.0  -0.2                          T                                        5213133
GRR   012.89 012.7 m E Pn      2013/02/28 17:48:58.7   0.5                          T                                        5213130
LDF   013.23 014.5 m E Pn      2013/02/28 17:49:02.7  -0.1                          T                                        5213131
FLN   013.32 013.3 m E Pn      2013/02/28 17:49:03.9  -0.2 192.5  -3.9              T                                        5213132

.
EVENT     292854
    Date      Time       Latitude Longitude    Depth    Ndef Nsta Gap    Mag1  N    Mag2  N    Mag3  N   Author         ID
       rms   OT_Error      Smajor Sminor Az        Err   mdist  Mdist     Err        Err        Err      Quality

2013/02/28 19:54:44.8     43.1695   -1.8460      2.0      26    4 164  Ml 2.0  4  Md 2.0  1              bulletin    292954
                                                                                                         _ldg
      0.58   +-  0.17       4.0    2.4    6.95 +-  0.0    0.25   2.97   +-0.4      +-                    m i ke

PYRENEES
Sta     Dist  EvAz     Phase      Date       Time     TRes  Azim  AzRes  Slow  SRes Def   SNR       Amp   Per   Mag1   Mag2       ID
SJPF  000.46 096.8 m E Pg      2013/02/28 19:54:53.7   0.1                          T                                        5213160
SJPF  000.46 096.8 m E Sg      2013/02/28 19:54:58.3  -1.3                          T                6.5  .20        Md 2.0  5213159
ETSF  000.98 105.6 m E Pg      2013/02/28 19:55:03.4   0.1                          T                                        5213158
ETSF  000.98 105.6 m E Sg      2013/02/28 19:55:15.3  -0.7                          T                9.6  .21 Ml 2.5         5213157
EPF   001.61 094.2 m E Pn      2013/02/28 19:55:12.8   0.3                          T                                        5213164
EPF   001.61 094.2 m E Pg      2013/02/28 19:55:14.9   0.1                          T                                        5213156
EPF   001.61 094.2 m E Sn      2013/02/28 19:55:32.4  -0.2                          T                                        5213163
EPF   001.61 094.2 m E Sg      2013/02/28 19:55:34.4  -1.1                          T                2.2  .15 Ml 2.3         5213155
MTLF  002.97 085.3 m E Pn      2013/02/28 19:55:31.7   0.6                          T                                        5213162
MTLF  002.97 085.3 m E Pg      2013/02/28 19:55:40.6   0.7                          T                                        5213188
MTLF  002.97 085.3 m E Sn      2013/02/28 19:56:04.8  -0.4                          T                 .5  .24 Ml 1.7         5213161

.
EVENT     292857
    Date      Time       Latitude Longitude    Depth    Ndef Nsta Gap    Mag1  N    Mag2  N    Mag3  N   Author         ID
       rms   OT_Error      Smajor Sminor Az        Err   mdist  Mdist     Err        Err        Err      Quality

2013/03/01 04:15:08.7     42.8191   -1.4185      2.0      14    3 152  Ml 1.1  1  Md 1.2  2              bulletin    292957
                                                                                                         _ldg
      0.19   +-  0.07       1.6    1.0  168.74 +-  0.0    0.11   1.31   +-         +-0.1                 m i ke

PYRENEES
Sta     Dist  EvAz     Phase      Date       Time     TRes  Azim  AzRes  Slow  SRes Def   SNR       Amp   Per   Mag1   Mag2       ID
SJPF  000.33 025.7 m E Pg      2013/03/01 04:15:15.1   0.0                          T                                        5213266
SJPF  000.33 025.7 m E Sg      2013/03/01 04:15:19.5   0.0                          T                1.2  .17        Md 1.3  5213263
ETSF  000.64 082.5 m E Pg      2013/03/01 04:15:20.8  -0.1                          T                                        5213265
ETSF  000.64 082.5 m E Sg      2013/03/01 04:15:29.1  -0.1                          T                 .5  .23        Md 1.1  5213264
EPF   001.31 080.1 m E Sg      2013/03/01 04:15:50.2   0.1                          T                 .3  .21 Ml 1.1         5213573

.
EVENT     292856
    Date      Time       Latitude Longitude    Depth    Ndef Nsta Gap    Mag1  N    Mag2  N    Mag3  N   Author         ID
       rms   OT_Error      Smajor Sminor Az        Err   mdist  Mdist     Err        Err        Err      Quality

2013/03/01 04:17:01.0     42.7940   -1.2678      2.0       6    3 287  Ml 1.2  1  Md 1.3  2              bulletin    292956
                                                                                                         _ldg
      0.27   +-  0.65      13.5    4.6   39.99 +-  0.0    0.32   1.20   +-         +-0.3                 m i ke

PYRENEES
Sta     Dist  EvAz     Phase      Date       Time     TRes  Azim  AzRes  Slow  SRes Def   SNR       Amp   Per   Mag1   Mag2       ID
SJPF  000.32 005.6 m E Pg      2013/03/01 04:17:07.5   0.2                          T                                        5213244
SJPF  000.32 005.6 m E Sg      2013/03/01 04:17:11.2  -0.4                          T                6.3  .38        Md 1.6  5213251
ETSF  000.53 078.4 m E Pg      2013/03/01 04:17:11.4   0.2                          T                                        5213243
ETSF  000.53 078.4 m E Sg      2013/03/01 04:17:18.5   0.3                          T                 .2  .19        Md 1.1  5213250
EPF   001.20 078.1 m E Pg      2013/03/01 04:17:23.2  -0.4                          T                                        5213574
EPF   001.20 078.1 m E Sg      2013/03/01 04:17:39.3   0.1                          T                 .6  .30 Ml 1.2         5213248

.
EVENT     292858
    Date      Time       Latitude Longitude    Depth    Ndef Nsta Gap    Mag1  N    Mag2  N    Mag3  N   Author         ID
       rms   OT_Error      Smajor Sminor Az        Err   mdist  Mdist     Err        Err        Err      Quality

2013/03/01 05:11:30.0     43.3176    -.6214     15.0 f    19    6 128  Ml 1.7  3  Md 1.6  2              bulletin    292958
                                                                                                         _ldg
      0.89   +-  0.22       4.7    3.6  159.77 +-  0.0    0.24   2.51   +-0.1      +-0.0                 m i ke

PYRENEES
Sta     Dist  EvAz     Phase      Date       Time     TRes  Azim  AzRes  Slow  SRes Def   SNR       Amp   Per   Mag1   Mag2       ID
ETSF  000.42 173.8 m E Pg      2013/03/01 05:11:38.0  -0.6                          T                                        5213278
ETSF  000.42 173.8 m E Sg      2013/03/01 05:11:43.8  -0.6                          T                5.2  .29        Md 1.5  5213273
SJPF  000.49 245.4 m E Pg      2013/03/01 05:11:39.2  -0.5                          T                                        5213277
SJPF  000.49 245.4 m E Sg      2013/03/01 05:11:45.6  -0.7                          T                2.8  .19        Md 1.6  5213275
EPF   000.76 111.9 m E Pg      2013/03/01 05:11:43.6  -1.1                          T                                        5213276
EPF   000.76 111.9 m E Sg      2013/03/01 05:11:53.5  -1.1                          T                5.9  .21                5213274
LFF   001.89 030.7 m E Pn      2013/03/01 05:12:00.4   0.2                          T                                        5213272
LFF   001.89 030.7 m E Sn      2013/03/01 05:12:23.1   0.7                          T                1.6  .24 Ml 1.8         5213269
MTLF  002.07 088.4 m E Pn      2013/03/01 05:12:02.8   0.2                          T                                        5213270
MTLF  002.07 088.4 m E Sn      2013/03/01 05:12:28.0   1.4                          T                 .5  .20 Ml 1.6         5213267
RJF   002.51 037.0 m E Pn      2013/03/01 05:12:08.9   0.3                          T                                        5213271
RJF   002.51 037.0 m E Sn      2013/03/01 05:12:37.8   0.7                          T                 .7  .20 Ml 1.6         5213268

.
EVENT     292862
    Date      Time       Latitude Longitude    Depth    Ndef Nsta Gap    Mag1  N    Mag2  N    Mag3  N   Author         ID
       rms   OT_Error      Smajor Sminor Az        Err   mdist  Mdist     Err        Err        Err      Quality

2013/03/01 07:36:27.2     42.7565   -1.7593      2.0      12      105  Ml 1.8  2                         bulletin    292962
                                                                                                         _ldg
      1.30   +-  0.36       6.9    5.9  145.51 +-  0.0    0.13   1.95   +-0.3                            m i ke

PYRENEES
Sta     Dist  EvAz     Phase      Date       Time     TRes  Azim  AzRes  Slow  SRes Def   SNR       Amp   Per   Mag1   Mag2       ID
.
EVENT     292873
    Date      Time       Latitude Longitude    Depth    Ndef Nsta Gap    Mag1  N    Mag2  N    Mag3  N   Author         ID
       rms   OT_Error      Smajor Sminor Az        Err   mdist  Mdist     Err        Err        Err      Quality

2013/03/01 08:04:58.5     42.8165   -1.4181      2.0      12    3 167  Ml 1.7  1  Md 1.5  2              bulletin    292973
                                                                                                         _ldg
      0.16   +-  0.07       1.5    1.0  170.22 +-  0.0    0.13   1.31   +-         +-0.3                 m i ke

PYRENEES
Sta     Dist  EvAz     Phase      Date       Time     TRes  Azim  AzRes  Slow  SRes Def   SNR       Amp   Per   Mag1   Mag2       ID
SJPF  000.33 025.5 m E Pg      2013/03/01 08:05:05.0   0.0                          T                                        5213496
SJPF  000.33 025.5 m E Sg      2013/03/01 08:05:09.3  -0.1                          T                7.2  .18        Md 1.7  5213494
ETSF  000.64 082.3 m E Pg      2013/03/01 08:05:10.9   0.2                          T                                        5213495
ETSF  000.64 082.3 m E Sg      2013/03/01 08:05:19.0   0.0                          T                1.7  .22        Md 1.3  5213493
EPF   001.31 080.0 m E Pg      2013/03/01 08:05:23.1   0.0                          T                                        5213575
EPF   001.31 080.0 m E Sg      2013/03/01 08:05:40.1   0.1                          T                1.7  .31 Ml 1.7         5213497

.
EVENT     292865
    Date      Time       Latitude Longitude    Depth    Ndef Nsta Gap    Mag1  N    Mag2  N    Mag3  N   Author         ID
       rms   OT_Error      Smajor Sminor Az        Err   mdist  Mdist     Err        Err        Err      Quality

2013/03/01 08:46:50.2     42.8407   -1.4013      2.0      19    3 095  Ml 1.6  1  Md 1.6  2              bulletin    292965
                                                                                                         _ldg
      0.39   +-  0.11       2.3    1.7  167.37 +-  0.0    0.09   1.54   +-         +-0.1                 m i ke

PYRENEES
Sta     Dist  EvAz     Phase      Date       Time     TRes  Azim  AzRes  Slow  SRes Def   SNR       Amp   Per   Mag1   Mag2       ID
SJPF  000.30 025.3 m E Pg      2013/03/01 08:46:56.1  -0.1                          T                                        5213451
SJPF  000.30 025.3 m E Sg      2013/03/01 08:46:59.1  -1.1                          T                9.6  .21        Md 1.7  5213449
ETSF  000.62 084.4 m E Pg      2013/03/01 08:47:01.5  -0.6                          T                                        5213450
ETSF  000.62 084.4 m E Sg      2013/03/01 08:47:10.4   0.1                          T                1.2  .21        Md 1.6  5213448
EPF   001.29 081.0 m E Pg      2013/03/01 08:47:14.5   0.1                          T                                        5213453
EPF   001.29 081.0 m E Sg      2013/03/01 08:47:31.2   0.0                          T                1.3  .26 Ml 1.6         5213452

.
EVENT     292887
    Date      Time       Latitude Longitude    Depth    Ndef Nsta Gap    Mag1  N    Mag2  N    Mag3  N   Author         ID
       rms   OT_Error      Smajor Sminor Az        Err   mdist  Mdist     Err        Err        Err      Quality

2013/03/01 11:11:21.2     42.8247   -1.3532      2.0      12    3 261  Ml 1.3  1  Md 1.4  2              bulletin    292987
                                                                                                         _ldg
      0.28   +-  0.26       4.7    1.8   34.23 +-  0.0    0.08   1.26   +-         +-0.3                 m i ke

PYRENEES
Sta     Dist  EvAz     Phase      Date       Time     TRes  Azim  AzRes  Slow  SRes Def   SNR       Amp   Per   Mag1   Mag2       ID
SJPF  000.30 018.0 m E Pg      2013/03/01 11:11:27.1   0.0                          T                                        5213572
SJPF  000.30 018.0 m E Sg      2013/03/01 11:11:30.7  -0.5                          T                9.0  .43        Md 1.5  5213570
ETSF  000.59 082.5 m E Pg      2013/03/01 11:11:32.5   0.0                          T                                        5213571
ETSF  000.59 082.5 m E Sg      2013/03/01 11:11:40.4   0.2                          T                1.4  .21        Md 1.2  5213569
EPF   001.26 080.0 m E Pg      2013/03/01 11:11:44.8   0.0                          T                                        5213618
EPF   001.26 080.0 m E Sg      2013/03/01 11:12:00.5  -0.6                          T                 .4  .16 Ml 1.3         5213567

.
