EVENT     276822
    Date      Time       Latitude Longitude    Depth    Ndef Nsta Gap    Mag1  N    Mag2  N    Mag3  N   Author         ID
       rms   OT_Error      Smajor Sminor Az        Err   mdist  Mdist     Err        Err        Err      Quality

2012/05/23 15:52:39.2     45.2613    6.5091      2.0      11    5 138  Ml 1.9  1  Md 1.7  2              bulletin    276922
                                                                                                         _ldg
      1.93   +-  0.23       6.7    3.5  128.55 +-  0.0    0.29   1.36   +-         +-0.1                 m i ke

FRANCE
Sta     Dist  EvAz     Phase      Date       Time     TRes  Azim  AzRes  Slow  SRes Def   SNR       Amp   Per   Mag1   Mag2       ID
LPG   000.29 035.8 m E Pg      2012/05/23 15:52:45.2   0.0                          T                                        4989718
LPG   000.29 035.8 m E Sg      2012/05/23 15:52:49.4   0.3                          T                9.9  .22        Md 1.6  4989719
LPL   000.30 031.6 m E Pg      2012/05/23 15:52:45.3  -0.1                          T                                        4989720
LPL   000.30 031.6 m E Sg      2012/05/23 15:52:50.0   0.6                          T                9.8  .31        Md 1.7  4989721
MBDF  000.57 160.7 m E Pg      2012/05/23 15:52:49.5  -0.6                          T                                        4989714
MBDF  000.57 160.7 m E Sg      2012/05/23 15:52:56.8  -0.8                          T                2.0  .23                4989715
ORIF  000.56 232.6 m E Pg      2012/05/23 15:52:50.2   0.2                          T                                        4989716
ORIF  000.56 232.6 m E Sg      2012/05/23 15:52:57.3   0.0                          T                9.1  .22                4989717
VIVF  001.36 253.4 m E Sg      2012/05/23 15:53:22.6   0.3                          T                1.9  .24 Ml 1.9         4989713

.
EVENT     276721
    Date      Time       Latitude Longitude    Depth    Ndef Nsta Gap    Mag1  N    Mag2  N    Mag3  N   Author         ID
       rms   OT_Error      Smajor Sminor Az        Err   mdist  Mdist     Err        Err        Err      Quality

2012/05/23 16:41:17.0     44.8886   11.1603      2.0      87   21 097  Ml 3.1 23                         bulletin    276821
                                                                                                         _ldg
      0.81   +-  0.12       3.4    2.5   68.87 +-  0.0    0.14   6.62   +-0.2                            m i ke

NORTHERN ITALY
Sta     Dist  EvAz     Phase      Date       Time     TRes  Azim  AzRes  Slow  SRes Def   SNR       Amp   Per   Mag1   Mag2       ID
PGF   002.82 214.6 m E Pn      2012/05/23 16:42:01.5   0.2                          T                                        4961156
PGF   002.82 214.6 m E Sn      2012/05/23 16:42:34.1   0.4                          T               17.0  .30 Ml 3.4         4961155
SBF   002.86 250.3 m E Pn      2012/05/23 16:42:02.8   1.0                          T                                        4961157
SBF   002.86 250.3 m E Sn      2012/05/23 16:42:34.8   0.0                          T               35.5  .40 Ml 3.3         4961154
MBDF  003.13 268.6 m E Pn      2012/05/23 16:42:05.4  -0.1                          T                                        4961163
MBDF  003.13 268.6 m E Sn      2012/05/23 16:42:41.2  -0.1                          T                9.7  .34 Ml 2.9         4961148
LPG   003.18 282.6 m E Pn      2012/05/23 16:42:07.1   0.7                          T                                        4961160
LPG   003.18 282.6 m E Sn      2012/05/23 16:42:42.2  -0.4                          T               15.1  .48 Ml 3.0         4961151
LPL   003.19 282.9 m E Pn      2012/05/23 16:42:09.9   3.3                          T                                        4961161
LPL   003.19 282.9 m E Sn      2012/05/23 16:42:42.7  -0.3                          T               14.3  .50 Ml 2.9         4961150
FRF   003.51 249.3 m E Pn      2012/05/23 16:42:10.5  -0.1                          T                                        4961159
FRF   003.51 249.3 m E Sn      2012/05/23 16:42:51.0   0.8                          T               19.0  .32 Ml 3.4         4961152
LMR   003.69 246.7 m E Pn      2012/05/23 16:42:12.7  -0.4                          T                                        4961158
LMR   003.69 246.7 m E Sn      2012/05/23 16:42:54.8   0.2                          T               13.7  .36 Ml 3.2         4961153
ORIF  003.75 272.3 m E Pn      2012/05/23 16:42:16.2   2.2                          T                                        4961162
ORIF  003.75 272.3 m E Sn      2012/05/23 16:42:55.7  -0.4                          T                6.0  .28 Ml 2.9         4961149
CABF  003.95 297.7 m E Pn      2012/05/23 16:42:17.2   0.6                          T                                        4961168
CABF  003.95 297.7 m E Sn      2012/05/23 16:43:00.6  -0.2                          T                4.8  .33 Ml 2.8         4961140
HINF  004.18 316.0 m E Pn      2012/05/23 16:42:20.2   0.4                          T                                        4961169
HINF  004.18 316.0 m E Sn      2012/05/23 16:43:06.1  -0.2                          T                8.2  .34 Ml 3.1         4961141
CDF   004.42 324.2 m E Pn      2012/05/23 16:42:23.4   0.2                          T                                        4961171
CDF   004.42 324.2 m E Sn      2012/05/23 16:43:12.6   0.4                          T               10.6  .38 Ml 3.3         4961135
HAU   004.56 314.9 m E Pn      2012/05/23 16:42:24.9   0.0                          T                                        4961170
HAU   004.56 314.9 m E Sn      2012/05/23 16:43:15.2  -0.1                          T               18.6  .32 Ml 3.3         4961142
VIVF  004.61 271.9 m E Pn      2012/05/23 16:42:26.2   0.6                          T                                        4961164
VIVF  004.61 271.9 m E Sn      2012/05/23 16:43:24.1   7.5                          T                1.5  .22 Ml 2.6         4961147
THEF  004.88 315.0 m E Pn      2012/05/23 16:42:29.3   0.0                          T                                        4961139
THEF  004.88 315.0 m E Sn      2012/05/23 16:43:22.6  -0.5                          T                4.5  .17 Ml 3.3         4961138
PAGF  005.24 316.4 m E Pn      2012/05/23 16:42:35.7   1.6                          T                                        4961137
PAGF  005.24 316.4 m E Sn      2012/05/23 16:43:29.1  -2.3                          T                6.5  .57 Ml 3.0         4961136
SMF   005.41 291.5 m E Pn      2012/05/23 16:42:36.8   0.2                          T                                        4961166
SMF   005.41 291.5 m E Sn      2012/05/23 16:43:35.7  -0.1                          T                3.1  .27 Ml 3.0         4961144
LOR   005.61 297.7 m E Pn      2012/05/23 16:42:39.4   0.2                          T                                        4961134
LOR   005.61 297.7 m E Sn      2012/05/23 16:43:40.4   0.0                          T                3.8  .24 Ml 3.2         4961133
AVF   005.78 292.0 m E Pn      2012/05/23 16:42:41.7   0.2                          T                                        4961167
BGF   006.06 288.9 m E Pn      2012/05/23 16:42:45.6   0.3                          T                                        4961165
BGF   006.06 288.9 m E Sn      2012/05/23 16:43:50.7  -0.4                          T                6.6  .34 Ml 3.4         4961146
SSF   005.76 294.9 m E Sn      2012/05/23 16:43:43.7  -0.3                          T                1.4  .36 Ml 2.7         4961143
HYF   006.39 294.9 m E Sn      2012/05/23 16:43:58.6  -0.4                          T                                        4961145

.
EVENT     276724
    Date      Time       Latitude Longitude    Depth    Ndef Nsta Gap    Mag1  N    Mag2  N    Mag3  N   Author         ID
       rms   OT_Error      Smajor Sminor Az        Err   mdist  Mdist     Err        Err        Err      Quality

2012/05/23 17:10:49.0     42.9661   -1.2817      2.0      16    3 098  Ml 1.6  1  Md 1.5  2              bulletin    276824
                                                                                                         _ldg
      0.33   +-  0.11       1.9    1.7   53.13 +-  0.0    0.08   1.19   +-         +-0.0                 m i ke

PYRENEES
Sta     Dist  EvAz     Phase      Date       Time     TRes  Azim  AzRes  Slow  SRes Def   SNR       Amp   Per   Mag1   Mag2       ID
SJPF  000.15 015.8 m E Pg      2012/05/23 17:10:52.4   0.2                          T                                        4961282
SJPF  000.15 015.8 m E Sg      2012/05/23 17:10:54.3  -0.1                          T               48.7  .22        Md 1.5  4961279
ETSF  000.53 097.0 m E Pg      2012/05/23 17:10:59.0  -0.3                          T                                        4961280
ETSF  000.53 097.0 m E Sg      2012/05/23 17:11:06.2  -0.1                          T                3.7  .22        Md 1.5  4961281
EPF   001.19 086.4 m E Pg      2012/05/23 17:11:11.2  -0.2                          T                                        4961278
EPF   001.19 086.4 m E Sg      2012/05/23 17:11:26.9   0.1                          T                  1  .21 Ml 1.6         4961277

.
EVENT     276725
    Date      Time       Latitude Longitude    Depth    Ndef Nsta Gap    Mag1  N    Mag2  N    Mag3  N   Author         ID
       rms   OT_Error      Smajor Sminor Az        Err   mdist  Mdist     Err        Err        Err      Quality

2012/05/23 17:11:35.3     42.9427   -1.2905      2.0       6    3 281  Ml 1.3  1  Md 1.1  2              bulletin    276825
                                                                                                         _ldg
      0.22   +-  0.45       9.4    3.1   51.15 +-  0.0    0.18   1.20   +-         +-0.3                 m i ke

PYRENEES
Sta     Dist  EvAz     Phase      Date       Time     TRes  Azim  AzRes  Slow  SRes Def   SNR       Amp   Per   Mag1   Mag2       ID
SJPF  000.18 015.7 m E Pg      2012/05/23 17:11:39.2   0.2                          T                                        4961284
SJPF  000.18 015.7 m E Sg      2012/05/23 17:11:41.0  -0.5                          T                3.9  .20        Md 1.3  4961283
ETSF  000.54 094.4 m E Pg      2012/05/23 17:11:45.6  -0.1                          T                                        4961287
ETSF  000.54 094.4 m E Sg      2012/05/23 17:11:53.0   0.2                          T                 .9  .24        Md  .9  4961288
EPF   001.20 085.3 m E Pg      2012/05/23 17:11:57.8  -0.1                          T                                        4961286
EPF   001.20 085.3 m E Sg      2012/05/23 17:12:13.6   0.3                          T                 .6  .23 Ml 1.3         4961285

.
EVENT     276726
    Date      Time       Latitude Longitude    Depth    Ndef Nsta Gap    Mag1  N    Mag2  N    Mag3  N   Author         ID
       rms   OT_Error      Smajor Sminor Az        Err   mdist  Mdist     Err        Err        Err      Quality

2012/05/23 17:12:18.7     42.9563   -1.2955      2.0      12    3 140  Ml 1.4  1  Md 1.2  2              bulletin    276826
                                                                                                         _ldg
      0.26   +-  0.09       1.9    1.5   70.99 +-  0.0    0.06   1.20   +-         +-0.1                 m i ke

PYRENEES
Sta     Dist  EvAz     Phase      Date       Time     TRes  Azim  AzRes  Slow  SRes Def   SNR       Amp   Per   Mag1   Mag2       ID
SJPF  000.17 018.2 m E Pg      2012/05/23 17:12:22.3   0.2                          T                                        4961294
SJPF  000.17 018.2 m E Sg      2012/05/23 17:12:24.1  -0.3                          T                5.9  .22        Md 1.3  4961293
ETSF  000.54 095.8 m E Pg      2012/05/23 17:12:28.8  -0.4                          T                                        4961292
ETSF  000.54 095.8 m E Sg      2012/05/23 17:12:36.1  -0.2                          T                 .6  .16        Md 1.2  4961291
EPF   001.20 085.9 m E Pg      2012/05/23 17:12:41.2   0.0                          T                                        4961290
EPF   001.20 085.9 m E Sg      2012/05/23 17:12:56.8   0.0                          T                 .6  .19 Ml 1.4         4961289

.
EVENT     276825
    Date      Time       Latitude Longitude    Depth    Ndef Nsta Gap    Mag1  N    Mag2  N    Mag3  N   Author         ID
       rms   OT_Error      Smajor Sminor Az        Err   mdist  Mdist     Err        Err        Err      Quality

2012/05/23 17:52:39.5     45.8684    2.7822       .0 f    17    8 165  Ml 1.8  6                         bulletin    276925
                                                                                                         _ldg
      1.65   +-  0.16       5.0    2.1  122.19 +-  0.0    0.58   1.59   +-0.1                            m i km

FRANCE
Sta     Dist  EvAz     Phase      Date       Time     TRes  Azim  AzRes  Slow  SRes Def   SNR       Amp   Per   Mag1   Mag2       ID
TCF   000.58 316.7 m E Pg      2012/05/23 17:52:51.1   0.4                          T                                        4989756
TCF   000.58 316.7 m E Sg      2012/05/23 17:52:58.3  -0.3                          T                                        4989757
BGF   000.69 003.7 m E Pg      2012/05/23 17:52:53.1   0.3                          T                                        4989746
BGF   000.69 003.7 m E Sg      2012/05/23 17:53:02.0   0.0                          T                7.7  .34                4989747
AVF   001.00 023.0 m E Pg      2012/05/23 17:52:58.5  -0.1                          T                                        4989750
AVF   001.00 023.0 m E Sg      2012/05/23 17:53:11.5  -0.2                          T                3.5  .44 Ml 1.7         4989751
RJF   001.05 238.1 m E Pg      2012/05/23 17:52:59.3  -0.2                          T                                        4989762
RJF   001.05 238.1 m E Sg      2012/05/23 17:53:12.9  -0.5                          T                3.2  .22 Ml 1.7         4989761
CAF   001.07 208.5 m E Pg      2012/05/23 17:52:59.8  -0.1                          T                                        4989758
CAF   001.07 208.5 m E Pn      2012/05/23 17:53:00.4   0.0                          T                                        4989759
CAF   001.07 208.5 m E Sg      2012/05/23 17:53:14.3   0.4                          T                1.9  .16 Ml 1.9         4989760
SMF   001.07 043.0 m E Pg      2012/05/23 17:52:59.9   0.1                          T                                        4989748
SMF   001.07 043.0 m E Sg      2012/05/23 17:53:13.8  -0.1                          T                1.8  .31 Ml 1.6         4989749
SSF   001.29 022.5 m E Pg      2012/05/23 17:53:03.9   0.0                          T                                        4989754
SSF   001.29 022.5 m E Sg      2012/05/23 17:53:20.6  -0.3                          T                2.9  .44 Ml 1.8         4989755
LOR   001.59 027.6 m E Pg      2012/05/23 17:53:09.3   0.0 219.0  10.7              T                                        4989752
LOR   001.59 027.6 m E Sg      2012/05/23 17:53:29.5  -0.5 186.6  -21.8             T                1.0  .18 Ml 1.8         4989753

.
EVENT     276805
    Date      Time       Latitude Longitude    Depth    Ndef Nsta Gap    Mag1  N    Mag2  N    Mag3  N   Author         ID
       rms   OT_Error      Smajor Sminor Az        Err   mdist  Mdist     Err        Err        Err      Quality

2012/05/23 19:13:54.8     48.0151   -3.9276      6.0 f    14    6 296  Ml 2.5  5  Md 2.1  2              bulletin    276905
                                                                                                         _ldg
      1.36   +-  0.59       8.7    6.7   55.65 +-  0.0    0.54   2.94   +-0.1      +-0.1                 m i ke

FRANCE
Sta     Dist  EvAz     Phase      Date       Time     TRes  Azim  AzRes  Slow  SRes Def   SNR       Amp   Per   Mag1   Mag2       ID
ROSF  000.54 053.5 m E Pg      2012/05/23 19:14:05.2   0.1                          T                                        4963837
ROSF  000.54 053.5 m E Sg      2012/05/23 19:14:13.3   1.0                          T               29.5  .26        Md 2.1  4963836
SGMF  000.95 074.9 m E Pg      2012/05/23 19:14:12.1  -0.5                          T                                        4989771
SGMF  000.95 074.9 m E Pn      2012/05/23 19:14:13.0   0.0                          T                                        4963834
SGMF  000.95 074.9 m E Sg      2012/05/23 19:14:25.1   0.2                          T               14.2  .24 Ml 2.6 Md 2.2  4963835
GRR   002.09 078.6 m E Pg      2012/05/23 19:14:33.7   0.1                          T                                        4963839
GRR   002.09 078.6 m E Sg      2012/05/23 19:14:59.7  -0.8                          T                6.4  .24 Ml 2.5         4963829
FLN   002.42 070.7 m E Pg      2012/05/23 19:14:39.7   0.1 264.6  11.3              T                                        4963831
FLN   002.42 070.7 m E Sg      2012/05/23 19:15:09.8  -0.9 247.5  -5.8              T                2.9  .22 Ml 2.3         4963830
LDF   002.61 075.8 m E Pg      2012/05/23 19:14:43.6   0.5                          T                                        4963833
LDF   002.61 075.8 m E Sg      2012/05/23 19:15:16.7   0.1                          T                3.9  .31 Ml 2.4         4963832
MFF   002.94 117.4 m E Sg      2012/05/23 19:15:26.0  -0.9                          T                1.8  .20 Ml 2.5         4963838

.
