EVENT     262630
    Date      Time       Latitude Longitude    Depth    Ndef Nsta Gap    Mag1  N    Mag2  N    Mag3  N   Author         ID
       rms   OT_Error      Smajor Sminor Az        Err   mdist  Mdist     Err        Err        Err      Quality

2011/08/18 04:27:26.5     44.5107    7.4149      4.0 f    10    5 234  Ml 1.6  5  Md 1.6  1              js067245    262630

      0.30   +-  0.36       7.6    2.1   77.43 +-  0.0    0.51   1.35   +-0.3      +-                    m i ke

NORTHERN ITALY
Sta     Dist  EvAz     Phase      Date       Time     TRes  Azim  AzRes  Slow  SRes Def   SNR       Amp   Per   Mag1   Mag2       ID
MBDF  000.51 295.4 m E Pg      2011/08/18 04:27:36.9   0.4                          T                                        4739032
MBDF  000.51 295.4 m E Sg      2011/08/18 04:27:43.1   0.0                          T                2.5  .20        Md 1.6  4739027
FRF   001.10 210.5 m E Pg      2011/08/18 04:27:47.2   0.1                          T                                        4739031
FRF   001.10 210.5 m E Sg      2011/08/18 04:28:00.8  -0.6                          T                1.6  .21 Ml 1.8         4739028
LMR   001.35 209.4 m E Pg      2011/08/18 04:27:51.5  -0.1                          T                                        4739030
LMR   001.35 209.4 m E Sn      2011/08/18 04:28:07.8   0.1                          T                2.1  .22 Ml 2.0         4739029
LPG   001.09 334.7 m E Sg      2011/08/18 04:28:01.1  -0.4                          T                1.1  .20 Ml 1.6         4739025
LPL   001.12 334.5 m E Sg      2011/08/18 04:28:01.7  -0.5                          T                 .7  .24 Ml 1.4         4739026

.
EVENT     262631
    Date      Time       Latitude Longitude    Depth    Ndef Nsta Gap    Mag1  N    Mag2  N    Mag3  N   Author         ID
       rms   OT_Error      Smajor Sminor Az        Err   mdist  Mdist     Err        Err        Err      Quality

2011/08/18 05:06:13.9     45.6682    6.0557      2.0      11    6 278  Ml 2.0  2  Md 2.0  2              js067245    262631

      0.26   +-  0.28       4.9    2.0  145.36 +-  0.0    0.50   2.36   +-0.0      +-0.0                 m i ke

FRANCE
Sta     Dist  EvAz     Phase      Date       Time     TRes  Azim  AzRes  Slow  SRes Def   SNR       Amp   Per   Mag1   Mag2       ID
LPL   000.50 107.5 m E Pg      2011/08/18 05:06:23.8   0.1                          T                                        4739051
LPL   000.50 107.5 m E Sg      2011/08/18 05:06:29.9  -0.4                          T                4.6  .27        Md 2.0  4739049
LPG   000.52 109.0 m E Pg      2011/08/18 05:06:24.3   0.1                          T                                        4739050
LPG   000.52 109.0 m E Sg      2011/08/18 05:06:30.6  -0.4                          T                8.7  .24        Md 2.0  4739048
ORIF  000.76 189.5 m E Pg      2011/08/18 05:06:28.3  -0.1                          T                                        4739043
ORIF  000.76 189.5 m E Sg      2011/08/18 05:06:37.8  -0.5                          T                1.7  .22                4739042
MBDF  001.07 151.5 m E Pg      2011/08/18 05:06:33.9  -0.2                          T                                        4739047
MBDF  001.07 151.5 m E Sg      2011/08/18 05:06:48.2   0.2                          T                2.6  .17 Ml 2.0         4739046
FRF   002.15 168.5 m E Pg      2011/08/18 05:06:53.7  -0.1                          T                                        4739045
FRF   002.15 168.5 m E Sg      2011/08/18 05:07:21.7   0.2                          T                1.7  .29 Ml 2.0         4739044
LMR   002.36 171.9 m E Pg      2011/08/18 05:06:57.2  -0.4                          T                                        4739041

.
EVENT     262633
    Date      Time       Latitude Longitude    Depth    Ndef Nsta Gap    Mag1  N    Mag2  N    Mag3  N   Author         ID
       rms   OT_Error      Smajor Sminor Az        Err   mdist  Mdist     Err        Err        Err      Quality

2011/08/18 05:29:30.3     43.0985   -1.2628     10.7      10    2 117             Md 1.3  2              js067245    262633

      0.18   +-  0.13       1.6    1.4   27.39 +-  1.2    0.03   0.55              +-0.2                 m i ke

PYRENEES
Sta     Dist  EvAz     Phase      Date       Time     TRes  Azim  AzRes  Slow  SRes Def   SNR       Amp   Per   Mag1   Mag2       ID
SJPF  000.03 061.8 m E Pg      2011/08/18 05:29:32.6   0.0                          T                                        4739067
SJPF  000.03 061.8 m E Sg      2011/08/18 05:29:33.9  -0.1                          T                6.6  .23        Md 1.5  4739064
ETSF  000.55 110.9 m E Pg      2011/08/18 05:29:41.3   0.2                          T                                        4739066
ETSF  000.55 110.9 m E Sg      2011/08/18 05:29:47.9  -0.5                          T                 .9  .25        Md 1.2  4739065

.
EVENT     262730
    Date      Time       Latitude Longitude    Depth    Ndef Nsta Gap    Mag1  N    Mag2  N    Mag3  N   Author         ID
       rms   OT_Error      Smajor Sminor Az        Err   mdist  Mdist     Err        Err        Err      Quality

2011/08/18 05:31:56.6     48.2416    7.9926     10.0      10    4 055  Ml 1.8  4  Md 2.0  2              js067245    262730

      0.38   +-  0.06       1.3    1.1  154.19 +-  0.0    0.24   1.54   +-0.3      +-0.1                 m i ke

FRANCE
Sta     Dist  EvAz     Phase      Date       Time     TRes  Azim  AzRes  Slow  SRes Def   SNR       Amp   Per   Mag1   Mag2       ID
HINF  000.88 241.4 m E Pg      2011/08/18 05:32:13.7   0.5                          T                                        4739083
HINF  000.88 241.4 m E Sg      2011/08/18 05:32:24.6   0.0                          T                1.9  .20 Ml 1.7 Md 1.9  4739082
HAU   001.13 258.5 m E Pg      2011/08/18 05:32:17.4  -0.4                          T                                        4739080
HAU   001.13 258.5 m E Sg      2011/08/18 05:32:32.7   0.3                          T                2.3  .24 Ml 1.6 Md 2.1  4739081
THEF  001.34 270.2 m E Sg      2011/08/18 05:32:39.1   0.2                          T                4.1  .25 Ml 2.2         4739078
PAGF  001.54 282.6 m E Sg      2011/08/18 05:32:45.4   0.0                          T                 .7  .21 Ml 1.6         4739079

.
EVENT     262765
    Date      Time       Latitude Longitude    Depth    Ndef Nsta Gap    Mag1  N    Mag2  N    Mag3  N   Author         ID
       rms   OT_Error      Smajor Sminor Az        Err   mdist  Mdist     Err        Err        Err      Quality

2011/08/18 11:49:28.0     46.3993    2.6514       .0 f    35   13 082  Ml 2.2 10  Md 2.2  3              js067245    262765

      0.39   +-  0.05       1.2     .8  129.11 +-  0.0    0.21   3.07   +-0.2      +-0.1                 m i km

FRANCE
Sta     Dist  EvAz     Phase      Date       Time     TRes  Azim  AzRes  Slow  SRes Def   SNR       Amp   Per   Mag1   Mag2       ID
BGF   000.21 040.3 m E Pg      2011/08/18 11:49:31.9  -0.5                          T   001.0                                4737987
BGF   000.21 040.3 m E Sg      2011/08/18 11:49:35.3  -0.1                          T               23.5  .26        Md 2.1  4739117
TCF   000.33 250.2 m E Pg      2011/08/18 11:49:34.5  -0.1                          T   001.0                                4737996
TCF   000.33 250.2 m E Sg      2011/08/18 11:49:38.3  -0.8                          T                7.8  .16        Md 2.1  4739118
AVF   000.62 050.8 m E Pg      2011/08/18 11:49:39.8  -0.1                          T   001.0                                4737985
AVF   000.62 050.8 m E Sg      2011/08/18 11:49:48.2  -0.1                          T   001.0        3.5  .21                4737986
SMF   000.86 072.9 m E Pg      2011/08/18 11:49:44.6   0.3                          T                                        4748076
SMF   000.86 072.9 m E Pn      2011/08/18 11:49:45.6  -0.2                          T                                        4739121
SMF   000.86 072.9 m E Sn      2011/08/18 11:49:58.5   0.0                          T   001.0        7.5  .21 Ml 2.3         4737993
SSF   000.89 041.3 m E Pg      2011/08/18 11:49:44.7  -0.2                          T                                        4748078
SSF   000.89 041.3 m E Pn      2011/08/18 11:49:46.5   0.3                          T   001.0                                4737994
SSF   000.89 041.3 m E Sg      2011/08/18 11:49:56.6   0.0                          T   001.0        4.4  .21 Ml 2.2         4737995
HYF   000.87 359.5 m E Pg      2011/08/18 11:49:44.8   0.2                          T                                        4748075
HYF   000.87 359.5 m E Sg      2011/08/18 11:49:56.1   0.0                          T                                        4739110
LOR   001.20 043.2 m E Pn      2011/08/18 11:49:50.5   0.0 226.9  2.8               T   001.0                                4737990
LOR   001.20 043.2 m E Pg      2011/08/18 11:49:51.2   0.5                          T                                        4748077
LOR   001.20 043.2 m E Sg      2011/08/18 11:50:06.3  -0.2 218.6  -5.5              T   001.0        3.9  .22 Ml 2.2         4737992
RJF   001.35 216.3 m E Pn      2011/08/18 11:49:52.6   0.0                          T                                        4739119
RJF   001.35 216.3 m E P       2011/08/18 11:49:54.1   0.0                          T                                        4748074
RJF   001.35 216.3 m E Sg      2011/08/18 11:50:12.0   0.9                          T   001.0        4.2  .17 Ml 2.0         4737984
CAF   001.53 195.8 m E Pn      2011/08/18 11:49:55.0   0.0                          T   001.0                                4737988
CAF   001.53 195.8 m E Pg      2011/08/18 11:49:57.0   0.3                          T                                        4739115
CAF   001.53 195.8 m E Sg      2011/08/18 11:50:16.6  -0.2                          T   001.0        5.8  .17 Ml 2.6         4737989
MFF   001.94 277.0 m E Pg      2011/08/18 11:50:04.0  -0.3                          T                                        4739112
MFF   001.94 277.0 m E Sg      2011/08/18 11:50:29.7   0.1                          T                  1  .20 Ml 2.1         4739111
LPL   002.98 105.8 m E Pg      2011/08/18 11:50:23.7  -0.1                          T                                        4739114
MTLF  003.07 185.9 m E Pg      2011/08/18 11:50:25.3   0.1                          T                                        4739113
VIVF  002.10 136.7 m E Sg      2011/08/18 11:50:34.6   0.2                          T   001.0        1.6  .22 Ml 2.1         4737998

.
EVENT     262725
    Date      Time       Latitude Longitude    Depth    Ndef Nsta Gap    Mag1  N    Mag2  N    Mag3  N   Author         ID
       rms   OT_Error      Smajor Sminor Az        Err   mdist  Mdist     Err        Err        Err      Quality

2011/08/18 13:48:00.9     43.0877    -.4589      2.0      14    4 161  Ml 1.8  1  Md 1.6  3              js067245    262725

      0.58   +-  0.16       4.1    2.2    2.24 +-  0.0    0.18   1.97   +-         +-0.2                 m i ke

PYRENEES
Sta     Dist  EvAz     Phase      Date       Time     TRes  Azim  AzRes  Slow  SRes Def   SNR       Amp   Per   Mag1   Mag2       ID
ETSF  000.20 201.3 m E Pg      2011/08/18 13:48:04.5  -0.5                          T                                        4739159
ETSF  000.20 201.3 m E Sg      2011/08/18 13:48:06.6  -1.3                          T                8.0  .22        Md 1.8  4739156
SJPF  000.56 272.9 m E Pg      2011/08/18 13:48:11.5  -0.1                          T                                        4739158
SJPF  000.56 272.9 m E Pn      2011/08/18 13:48:14.2  -0.1                          T                                        4739153
SJPF  000.56 272.9 m E Sg      2011/08/18 13:48:19.0   0.0                          T                 .8  .15        Md 1.5  4739154
EPF   000.59 095.3 m E Pg      2011/08/18 13:48:12.0  -0.1                          T                                        4739157
EPF   000.59 095.3 m E Sg      2011/08/18 13:48:18.8  -1.0                          T                2.7  .21        Md 1.4  4739155
MTLF  001.97 081.7 m E Pn      2011/08/18 13:48:33.7   0.1                          T                                        4739152
MTLF  001.97 081.7 m E Sg      2011/08/18 13:49:02.8  -0.2                          T                1.2  .27 Ml 1.8         4748082

.
EVENT     262706
    Date      Time       Latitude Longitude    Depth    Ndef Nsta Gap    Mag1  N    Mag2  N    Mag3  N   Author         ID
       rms   OT_Error      Smajor Sminor Az        Err   mdist  Mdist     Err        Err        Err      Quality

2011/08/18 13:58:01.3     44.3654    7.3266      4.0 f    19    8 165  Ml 2.1  8  Md 2.0  2              js067245    262706

      0.40   +-  0.15       3.3    1.6   60.93 +-  0.0    0.51   2.19   +-0.3      +-0.2                 m i ke

NORTHERN ITALY
Sta     Dist  EvAz     Phase      Date       Time     TRes  Azim  AzRes  Slow  SRes Def   SNR       Amp   Per   Mag1   Mag2       ID
SBF   000.51 171.1 m E Pg      2011/08/18 13:58:11.5   0.4                          T                                        4739175
SBF   000.51 171.1 m E Sg      2011/08/18 13:58:18.4   0.6                          T               16.2  .24        Md 2.1  4739171
MBDF  000.54 312.5 m E Pg      2011/08/18 13:58:11.9   0.1                          T                                        4739178
MBDF  000.54 312.5 m E Sg      2011/08/18 13:58:19.4   0.6                          T               18.2  .28        Md 1.9  4739174
FRF   000.94 211.6 m E Pg      2011/08/18 13:58:19.0   0.0                          T                                        4739177
FRF   000.94 211.6 m E Sg      2011/08/18 13:58:30.7  -0.5                          T                6.0  .17 Ml 2.4         4739173
ORIF  001.17 298.7 m E Pg      2011/08/18 13:58:23.3   0.0                          T                                        4739165
ORIF  001.17 298.7 m E Sg      2011/08/18 13:58:37.9  -0.7                          T                1.7  .20 Ml 1.8         4739169
LMR   001.19 210.1 m E Pg      2011/08/18 13:58:23.5  -0.1                          T                                        4739176
LMR   001.19 210.1 m E Sg      2011/08/18 13:58:38.3  -0.6                          T                8.5  .20 Ml 2.5         4739172
SMRF  001.32 253.4 m E Pg      2011/08/18 13:58:26.4   0.4                          T                                        4739170
SMRF  001.32 253.4 m E Sg      2011/08/18 13:58:42.6  -0.5                          T                3.2  .22 Ml 2.1         4739167
VIVF  001.96 285.4 m E Pn      2011/08/18 13:58:33.9   0.3                          T                                        4739164
VIVF  001.96 285.4 m E Sn      2011/08/18 13:58:57.7   0.6                          T                 .6  .21 Ml 1.7         4739166
LPL   001.23 340.1 m E Sg      2011/08/18 13:58:39.7  -0.7                          T                3.7  .20 Ml 2.2         4739168

.
EVENT     262726
    Date      Time       Latitude Longitude    Depth    Ndef Nsta Gap    Mag1  N    Mag2  N    Mag3  N   Author         ID
       rms   OT_Error      Smajor Sminor Az        Err   mdist  Mdist     Err        Err        Err      Quality

2011/08/18 16:02:03.4     42.8739     .1676      7.0 f     8    3 200  Ml 1.2  2  Md 1.3  2              js067245    262726

      0.81   +-  0.64      25.2    5.7  168.88 +-  0.0    0.20   1.57   +-0.0      +-0.1                 m i ke

PYRENEES
Sta     Dist  EvAz     Phase      Date       Time     TRes  Azim  AzRes  Slow  SRes Def   SNR       Amp   Per   Mag1   Mag2       ID
EPF   000.20 038.9 m E Pg      2011/08/18 16:02:08.2   0.5                          T                                        4739186
EPF   000.20 038.9 m E Sg      2011/08/18 16:02:10.8   0.2                          T                6.0  .23        Md 1.4  4739184
ETSF  000.53 272.9 m E Pg      2011/08/18 16:02:14.7   0.9                          T                                        4739185
ETSF  000.53 272.9 m E Sg      2011/08/18 16:02:21.6   0.7                          T                2.0  .24        Md 1.2  4739183
SJPF  001.05 283.7 m E Pg      2011/08/18 16:02:22.4  -0.8                          T                                        4739181
SJPF  001.05 283.7 m E Sg      2011/08/18 16:02:35.0  -1.8                          T                 .7  .27 Ml 1.2         4739182

.
