BEGIN GSE2.0
MSG_TYPE DATA
MSG_ID 14-OCT-1113:57:12  FRA_NDC
E-MAIL
DATA_TYPE BULLETIN
Reviewed Bulletin (REB) # P2011-039  from French NDC for regional phases     PERIOD 28 SEP 2011 TO 04 OCT 2011 S M., J-P S.
EVENT     264505
    Date      Time       Latitude Longitude    Depth    Ndef Nsta Gap    Mag1  N    Mag2  N    Mag3  N   Author         ID
       rms   OT_Error      Smajor Sminor Az        Err   mdist  Mdist     Err        Err        Err      Quality

2011/09/28 18:39:11.7     43.1198    -.6245      5.0 f   161   30 047  Ml 3.1 27  Md 2.9  1              js067245    264525

      0.97   +-  0.06       1.5    1.1  161.09 +-  0.0    0.07   7.65   +-0.3      +-                    m i ke

PYRENEES
Sta     Dist  EvAz     Phase      Date       Time     TRes  Azim  AzRes  Slow  SRes Def   SNR       Amp   Per   Mag1   Mag2       ID
ETSF  000.23 167.7 m E Pg      2011/09/28 18:39:16.0  -0.5                          T   001.0                                4761237
ETSF  000.23 167.7 m E Sg      2011/09/28 18:39:18.7  -0.9                          T             1153.5  .22                4762230
SJPF  000.44 269.4 m E Pg      2011/09/28 18:39:19.7  -0.5                          T   001.0                                4761250
SJPF  000.44 269.4 m E Sg      2011/09/28 18:39:25.3  -0.8                          T              714.8  .29                4762231
EPF   000.71 096.9 m E Pg      2011/09/28 18:39:25.0  -0.3                          T   001.0                                4761217
EPF   000.71 096.9 m E Sg      2011/09/28 18:39:35.2   0.6                          T              278.2  .34                4762229
LFF   002.07 027.9 m E Pn      2011/09/28 18:39:45.5   0.2                          T                                        4769341
LFF   002.07 027.9 m E Pg      2011/09/28 18:39:50.8   0.6                          T                                        4769340
LFF   002.07 027.9 m E Sn      2011/09/28 18:40:10.6   0.6                          T                                        4769308
LFF   002.07 027.9 m E Sg      2011/09/28 18:40:17.8   1.0                          T               57.4  .32 Ml 3.3         4769294
MTLF  002.09 083.0 m E Pn      2011/09/28 18:39:46.2   0.6                          T   001.0                                4761238
MTLF  002.09 083.0 m E Pg      2011/09/28 18:39:49.5  -1.1                          T                                        4769344
MTLF  002.09 083.0 m E Sn      2011/09/28 18:40:10.6   0.1                          T                                        4769306
MTLF  002.09 083.0 m E Sg      2011/09/28 18:40:17.9   0.4                          T               37.1  .32 Ml 3.3 Md 2.9  4762228
CAF   002.65 046.1 m E Pn      2011/09/28 18:39:52.1  -1.2                          T                                        4769343
CAF   002.65 046.1 m E P       2011/09/28 18:39:56.5   0.5                          T                                        4769342
CAF   002.65 046.1 m E Sn      2011/09/28 18:40:22.5  -1.4                          T                                        4769307
CAF   002.65 046.1 m E Sg      2011/09/28 18:40:35.9   0.9                          T               22.0  .28 Ml 3.2         4769295
RJF   002.67 034.4 m E Pn      2011/09/28 18:39:52.6  -1.0                          T                                        4769339
RJF   002.67 034.4 m E P       2011/09/28 18:39:57.0   0.6                          T                                        4769338
RJF   002.67 034.4 m E Pg      2011/09/28 18:40:02.2   0.9                          T                                        4769337
RJF   002.67 034.4 m E Sn      2011/09/28 18:40:24.1  -0.3                          T                                        4769309
RJF   002.67 034.4 m E Sg      2011/09/28 18:40:35.4  -0.3                          T               22.1  .26 Ml 3.0         4769293
MFF   003.50 005.4 m E Pn      2011/09/28 18:40:03.4  -1.4                          T                                        4769336
MFF   003.50 005.4 m E Sn      2011/09/28 18:40:44.7   0.5                          T                                        4769310
MFF   003.50 005.4 m E Sg      2011/09/28 18:41:02.0   0.5                          T               14.6  .26 Ml 3.5         4769292
LASF  003.39 072.1 m E Pn      2011/09/28 18:40:03.5   0.0                          T   001.0                                4761221
LASF  003.39 072.1 m E P       2011/09/28 18:40:06.7   0.1                          T                                        4769345
LASF  003.39 072.1 m E Sn      2011/09/28 18:40:42.0   0.3                          T                                        4769305
LASF  003.39 072.1 m E Sg      2011/09/28 18:40:58.8   0.6                          T               18.5  .37 Ml 3.2         4762227
TCF   003.76 031.6 m E Pn      2011/09/28 18:40:07.5  -0.9                          T                                        4769325
TCF   003.76 031.6 m E Sn      2011/09/28 18:40:48.5  -1.9                          T                                        4769321
TCF   003.76 031.6 m E Sg      2011/09/28 18:41:10.8   1.2                          T               14.0  .39 Ml 3.2         4769281
BGF   004.23 034.5 m E Pn      2011/09/28 18:40:13.2  -1.6                          T                                        4769329
BGF   004.23 034.5 m E Sn      2011/09/28 18:41:01.6  -0.1                          T                                        4769317
BGF   004.23 034.5 m E Sg      2011/09/28 18:41:24.5   0.2                          T               38.3  .34 Ml 3.8         4769285
VIVF  004.20 063.8 m E Pn      2011/09/28 18:40:14.1  -0.4                          T   001.0                                4761251
VIVF  004.20 063.8 m E P       2011/09/28 18:40:17.9  -0.2                          T                                        4769346
VIVF  004.20 063.8 m E Sn      2011/09/28 18:41:01.2   0.3                          T                                        4769304
VIVF  004.20 063.8 m E Sg      2011/09/28 18:41:23.8   0.5                          T   001.0        6.8  .32 Ml 3.0         4761252
AVF   004.63 036.2 m E Pn      2011/09/28 18:40:19.2  -1.0                          T                                        4769326
AVF   004.63 036.2 m E Sn      2011/09/28 18:41:10.7  -0.5                          T                                        4769320
AVF   004.63 036.2 m E Sg      2011/09/28 18:41:38.3   1.5                          T               10.7  .46 Ml 3.2         4769282
SMRF  004.59 077.1 m E Pn      2011/09/28 18:40:20.3   0.6                          T   001.0                                4761253
SMRF  004.59 077.1 m E P       2011/09/28 18:40:23.5  -0.1                          T                                        4769353
SMRF  004.59 077.1 m E Pg      2011/09/28 18:40:37.0   0.3                          T                                        4769352
SMRF  004.59 077.1 m E Sg      2011/09/28 18:41:36.4   0.9                          T                4.8  .47 Ml 2.8         4769299
HYF   004.75 027.9 m E Pn      2011/09/28 18:40:20.9  -0.9                          T                                        4769328
HYF   004.75 027.9 m E Sn      2011/09/28 18:41:14.5   0.5                          T                                        4769318
HYF   004.75 027.9 m E Sg      2011/09/28 18:41:42.1   1.7                          T               78.7  .46 Ml 4.0         4769284
SMF   004.74 040.5 m E Pn      2011/09/28 18:40:21.3  -0.5                          T                                        4769327
SMF   004.74 040.5 m E Sn      2011/09/28 18:41:13.6  -0.3                          T                                        4769319
SMF   004.74 040.5 m E Sg      2011/09/28 18:41:41.1   0.8                          T                7.4  .44 Ml 3.0         4769283
SSF   004.91 035.1 m E Pn      2011/09/28 18:40:22.7  -1.4                          T                                        4769324
SSF   004.91 035.1 m E Sg      2011/09/28 18:41:45.7   0.2                          T                8.9  .44 Ml 3.2         4769280
QUIF  005.12 340.5 m E Pn      2011/09/28 18:40:26.7  -0.2                          T                                        4769333
QUIF  005.12 340.5 m E Sn      2011/09/28 18:41:22.3  -0.5                          T                                        4769313
QUIF  005.12 340.5 m E Sg      2011/09/28 18:41:53.0   1.0                          T                2.2  .19 Ml 3.0         4769289
ORIF  005.02 066.8 m E Pn      2011/09/28 18:40:26.8   1.1                          T   001.0                                4761241
ORIF  005.02 066.8 m E P       2011/09/28 18:40:30.8   1.0                          T                                        4769348
ORIF  005.02 066.8 m E Sg      2011/09/28 18:41:50.1   0.9                          T                1.8  .30 Ml 2.7         4769297
LOR   005.22 035.8 m E Pn      2011/09/28 18:40:26.9  -1.4                          T                                        4769323
LOR   005.22 035.8 m E Sn      2011/09/28 18:41:25.1  -0.2                          T                                        4769322
LOR   005.22 035.8 m E Sg      2011/09/28 18:41:54.6  -0.6                          T               11.3  .51 Ml 3.3         4769279
SGMF  005.31 345.9 m E Pn      2011/09/28 18:40:28.8  -0.7                          T                                        4769332
SGMF  005.31 345.9 m E Sn      2011/09/28 18:41:26.5  -1.0                          T                                        4769314
SGMF  005.31 345.9 m E Sg      2011/09/28 18:41:59.2   1.2                          T                4.0  .30 Ml 3.1         4769288
GRR   005.27 358.3 m E Pn      2011/09/28 18:40:28.8  -0.1                          T                                        4769335
GRR   005.27 358.3 m E Sn      2011/09/28 18:41:26.1  -0.4                          T                                        4769311
GRR   005.27 358.3 m E Sg      2011/09/28 18:41:58.3   1.5                          T                3.3  .24 Ml 2.9         4769291
LDF   005.49 003.5 m E Pn      2011/09/28 18:40:31.0  -0.9                          T                                        4769334
LDF   005.49 003.5 m E Sn      2011/09/28 18:41:29.9  -1.8                          T                                        4769312
LDF   005.49 003.5 m E Sg      2011/09/28 18:42:05.0   1.6                          T                7.5  .43 Ml 3.2         4769290
ROSF  005.54 341.4 m E Pn      2011/09/28 18:40:32.1  -0.5                          T                                        4769331
ROSF  005.54 341.4 m E Sn      2011/09/28 18:41:32.7  -0.2                          T                                        4769315
ROSF  005.54 341.4 m E Sg      2011/09/28 18:42:06.1   1.1                          T                2.3  .27 Ml 2.9         4769287
LMR   005.22 085.2 m E P       2011/09/28 18:40:32.5   0.1                          T                                        4769357
LMR   005.22 085.2 m E Pg      2011/09/28 18:40:48.5   0.4                          T                                        4769356
LMR   005.22 085.2 m E Sn      2011/09/28 18:41:25.2   0.0                          T                                        4769303
LMR   005.22 085.2 m E Sg      2011/09/28 18:41:55.3   0.2                          T                2.2  .34 Ml 2.8         4769301
FRF   005.32 082.8 m E P       2011/09/28 18:40:33.8  -0.1                          T                                        4769355
FRF   005.32 082.8 m E Pg      2011/09/28 18:40:51.3   1.2                          T                                        4769354
FRF   005.32 082.8 m E Sg      2011/09/28 18:41:59.0   0.6                          T                3.3  .24 Ml 3.1         4769300
LPG   005.80 063.3 m E Pn      2011/09/28 18:40:36.5   0.0                          T                                        4769351
LPG   005.80 063.3 m E P       2011/09/28 18:40:42.1   1.0                          T                                        4769350
LPG   005.80 063.3 m E Sg      2011/09/28 18:42:14.7   1.0                          T                1.7  .36 Ml 2.7         4769298
MBDF  005.58 070.7 m E P       2011/09/28 18:40:37.8   0.1                          T                                        4769347
MBDF  005.58 070.7 m E Sg      2011/09/28 18:42:07.2   0.6                          T                2.2  .55 Ml 2.6         4769296
LPL   005.80 063.1 m E P       2011/09/28 18:40:41.5   0.7                          T                                        4769349
PGF   007.10 091.3 m E Pn      2011/09/28 18:40:53.8  -0.2                          T                                        4769302

.
