EVENT     265429
    Date      Time       Latitude Longitude    Depth    Ndef Nsta Gap    Mag1  N    Mag2  N    Mag3  N   Author         ID
       rms   OT_Error      Smajor Sminor Az        Err   mdist  Mdist     Err        Err        Err      Quality

2011/10/22 12:06:52.7     46.1500    1.5300      3.0 f    70   24 077  Ml 2.7 22                         js067245    265449

      1.01   +-  0.05       1.1    1.0  120.21 +-  0.0    0.49   4.01   +-0.3                            m i ke

FRANCE
Sta     Dist  EvAz     Phase      Date       Time     TRes  Azim  AzRes  Slow  SRes Def   SNR       Amp   Per   Mag1   Mag2       ID
TCF   000.49 073.4 m E Pg      2011/10/22 12:07:02.6   0.5                          T                                        4775953
TCF   000.49 073.4 m E Sg      2011/10/22 12:07:08.7   0.1                          T               60.8  .24                4775952
RJF   000.85 180.7 m E Pg      2011/10/22 12:07:08.5  -0.1                          T                                        4775940
RJF   000.85 180.7 m E Sg      2011/10/22 12:07:19.3  -0.4                          T               83.6  .22                4775931
BGF   001.00 065.4 m E Pg      2011/10/22 12:07:11.8   0.4                          T                                        4775944
BGF   001.00 065.4 m E Sg      2011/10/22 12:07:24.6   0.2                          T               95.2  .32 Ml 3.3         4775924
MFF   001.25 291.9 m E Pn      2011/10/22 12:07:15.6   0.3                          T                                        4775938
MFF   001.25 291.9 m E Pg      2011/10/22 12:07:16.2   0.3                          T                                        4775939
MFF   001.25 291.9 m E Sn      2011/10/22 12:07:31.6   0.0                          T               13.9  .18 Ml 3.0         4775932
CAF   001.28 162.8 m E Pn      2011/10/22 12:07:15.9   0.0                          T                                        4775934
CAF   001.28 162.8 m E Pg      2011/10/22 12:07:16.8   0.1                          T                                        4776472
CAF   001.28 162.8 m E Sn      2011/10/22 12:07:32.7   0.2                          T               24.6  .18 Ml 3.1         4775933
LFF   001.33 204.9 m E Pn      2011/10/22 12:07:16.2  -0.3                          T                                        4775935
LFF   001.33 204.9 m E Pg      2011/10/22 12:07:17.5   0.0                          T                                        4776471
LFF   001.33 204.9 m E Sn      2011/10/22 12:07:34.3   0.7                          T               25.7  .36 Ml 2.6         4775918
AVF   001.41 062.4 m E Pn      2011/10/22 12:07:17.9   0.3                          T                                        4775942
AVF   001.41 062.4 m E Pg      2011/10/22 12:07:19.1   0.1                          T                                        4775937
AVF   001.41 062.4 m E Sn      2011/10/22 12:07:35.4  -0.3                          T               10.2  .30 Ml 2.5         4775927
AVF   001.41 062.4 m E Sg      2011/10/22 12:07:37.3   0.0                          T                                        4775919
HYF   001.35 033.9 m E Pg      2011/10/22 12:07:18.6   0.6                          T                                        4776473
HYF   001.35 033.9 m E Sg      2011/10/22 12:07:35.7   0.2                          T                                        4775943
SSF   001.64 055.5 m E Pn      2011/10/22 12:07:21.0   0.4                          T                                        4775951
SSF   001.64 055.5 m E Pg      2011/10/22 12:07:22.9  -0.3                          T                                        4775947
SSF   001.64 055.5 m E Sn      2011/10/22 12:07:41.1   0.1                          T                                        4775949
SSF   001.64 055.5 m E Sg      2011/10/22 12:07:43.6  -0.8                          T               11.6  .24 Ml 2.9         4775926
SMF   001.67 072.0 m E Pn      2011/10/22 12:07:21.2   0.0                          T                                        4775941
SMF   001.67 072.0 m E Pg      2011/10/22 12:07:23.7  -0.1                          T                                        4775936
SMF   001.67 072.0 m E Sg      2011/10/22 12:07:45.4  -0.1                          T               12.0  .18 Ml 2.9         4775928
LOR   001.95 054.2 m E Pn      2011/10/22 12:07:25.2   0.2 232.1  -3.9              T                                        4775950
LOR   001.95 054.2 m E P       2011/10/22 12:07:27.5   0.3 237.9  2.0               T                                        4775905
LOR   001.95 054.2 m E Pg      2011/10/22 12:07:28.5  -0.5                          T                                        4775946
LOR   001.95 054.2 m E Sg      2011/10/22 12:07:52.9  -1.3 219.0  -17.0             T                4.9  .18 Ml 2.6         4775948
VIVF  002.56 119.2 m E Pn      2011/10/22 12:07:32.8  -0.5                          T                                        4776470
VIVF  002.56 119.2 m E Pg      2011/10/22 12:07:40.5   0.2                          T                                        4775916
VIVF  002.56 119.2 m E Sg      2011/10/22 12:08:13.3   0.1                          T                3.7  .28 Ml 2.4         4775915
LASF  002.65 140.7 m E Pn      2011/10/22 12:07:34.6   0.1                          T                                        4776469
LASF  002.65 140.7 m E Pg      2011/10/22 12:07:41.9   0.1                          T                                        4775910
LASF  002.65 140.7 m E Sg      2011/10/22 12:08:16.3   0.4                          T                6.3  .37 Ml 2.6         4775914
LDF   002.69 335.9 m E Pn      2011/10/22 12:07:35.3   0.3                          T                                        4776463
LDF   002.69 335.9 m E Pg      2011/10/22 12:07:42.4  -0.2                          T                                        4776464
LDF   002.69 335.9 m E Sn      2011/10/22 12:08:06.1   0.0                          T                                        4775906
LDF   002.69 335.9 m E Sg      2011/10/22 12:08:17.2   0.1                          T                4.1  .29 Ml 2.5         4775912
MTLF  002.85 169.9 m E Pn      2011/10/22 12:07:37.1  -0.1                          T                                        4776468
MTLF  002.85 169.9 m E Pg      2011/10/22 12:07:45.5  -0.1                          T                                        4775907
MTLF  002.85 169.9 m E Sg      2011/10/22 12:08:22.0  -0.1                          T                7.5  .28 Ml 2.8         4775917
FLN   002.95 333.2 m E Pn      2011/10/22 12:07:38.5   0.0                          T                                        4776461
FLN   002.95 333.2 m E Pg      2011/10/22 12:07:47.1  -0.3                          T                                        4776462
FLN   002.95 333.2 m E Sn      2011/10/22 12:08:11.8  -0.5                          T                                        4776458
FLN   002.95 333.2 m E Sg      2011/10/22 12:08:25.1  -0.1 154.4  2.7               T                7.4  .26 Ml 2.7         4775911
EPF   003.23 195.7 m E Pn      2011/10/22 12:07:42.4  -0.1                          T                                        4776467
EPF   003.23 195.7 m E Pg      2011/10/22 12:07:52.3  -0.3                          T                                        4775909
EPF   003.23 195.7 m E Sg      2011/10/22 12:08:34.4   0.3                          T                2.6  .24 Ml 2.5         4775913
SJPF  003.62 213.9 m E Pn      2011/10/22 12:07:47.5  -0.2                          T                                        4776466
SJPF  003.62 213.9 m E Sn      2011/10/22 12:08:28.4   0.1                          T                                        4776465
ETSF  003.58 205.4 m E Pg      2011/10/22 12:07:58.7  -0.3                          T                                        4775908
QUIF  003.67 300.5 m E Pg      2011/10/22 12:08:00.2  -0.3                          T                                        4776459
QUIF  003.67 300.5 m E Sg      2011/10/22 12:08:46.9  -0.7                          T                                        4776460
GRR   002.77 324.9 m E Sn      2011/10/22 12:08:08.0   0.0                          T                                        4775929
GRR   002.77 324.9 m E Sg      2011/10/22 12:08:19.5   0.0                          T                4.5  .28 Ml 2.4         4775930
CABF  003.19 080.0 m E Sn      2011/10/22 12:08:17.6  -0.5                          T                                        4776456
CABF  003.19 080.0 m E Sg      2011/10/22 12:08:32.3  -0.5                          T                1.1  .21 Ml 2.2         4776457
SFTF  003.15 048.1 m E Sg      2011/10/22 12:08:31.5  -0.2 238.3  7.7               T                2.4  .18 Ml 2.6         4776453
HINF  004.01 063.5 m E Sn      2011/10/22 12:08:37.0  -0.6                          T                                        4776454
HINF  004.01 063.5 m E Sg      2011/10/22 12:08:58.1  -0.2                          T                1.5  .26 Ml 2.4         4776455

.
EVENT     265430
    Date      Time       Latitude Longitude    Depth    Ndef Nsta Gap    Mag1  N    Mag2  N    Mag3  N   Author         ID
       rms   OT_Error      Smajor Sminor Az        Err   mdist  Mdist     Err        Err        Err      Quality

2011/10/22 12:08:02.3     46.1494    1.5366      3.0 f    27   14 101  Ml 2.3 13  Md 2.3  5              js067245    265450

      0.38   +-  0.07       1.5    1.2  151.88 +-  0.0    0.49   3.23   +-0.3      +-0.1                 m i ke

FRANCE
Sta     Dist  EvAz     Phase      Date       Time     TRes  Azim  AzRes  Slow  SRes Def   SNR       Amp   Per   Mag1   Mag2       ID
TCF   000.49 073.2 m E Pg      2011/10/22 12:08:12.1   0.4                          T                                        4775980
TCF   000.49 073.2 m E Sg      2011/10/22 12:08:18.2   0.1                          T               15.9  .24        Md 2.2  4775979
RJF   000.85 181.0 m E Pg      2011/10/22 12:08:18.0  -0.2                          T                                        4775969
RJF   000.85 181.0 m E Sg      2011/10/22 12:08:28.7  -0.5                          T               23.1  .22        Md 2.1  4775973
BGF   000.99 065.3 m E Pg      2011/10/22 12:08:21.3   0.4                          T                                        4775964
BGF   000.99 065.3 m E Sg      2011/10/22 12:08:34.1   0.3                          T               19.0  .34 Ml 2.6 Md 2.2  4775976
MFF   001.25 291.9 m E Pn      2011/10/22 12:08:25.0   0.1                          T                                        4775970
MFF   001.25 291.9 m E Pg      2011/10/22 12:08:25.7   0.1                          T                                        4776479
MFF   001.25 291.9 m E Sn      2011/10/22 12:08:41.2  -0.1                          T                4.3  .16 Ml 2.5 Md 2.4  4775974
CAF   001.28 162.9 m E Pn      2011/10/22 12:08:25.4   0.0                          T                                        4775971
CAF   001.28 162.9 m E Pg      2011/10/22 12:08:26.2   0.0                          T                                        4776478
CAF   001.28 162.9 m E Sn      2011/10/22 12:08:42.2   0.2                          T                7.5  .18 Ml 2.6         4775972
HYF   001.35 033.7 m E Pg      2011/10/22 12:08:28.1   0.5                          T                                        4776480
AVF   001.41 062.3 m E Pg      2011/10/22 12:08:28.6   0.0                          T                                        4775966
AVF   001.41 062.3 m E Sg      2011/10/22 12:08:46.7  -0.1                          T                2.5  .24 Ml 2.0         4775960
SSF   001.64 055.4 m E Pg      2011/10/22 12:08:32.4  -0.3                          T                                        4775967
SSF   001.64 055.4 m E Sg      2011/10/22 12:08:53.0  -0.8                          T                3.3  .24 Ml 2.3         4775978
SMF   001.67 071.9 m E Pg      2011/10/22 12:08:33.2  -0.2                          T                                        4775965
SMF   001.67 071.9 m E Sg      2011/10/22 12:08:54.8  -0.1                          T                3.8  .25 Ml 2.3         4775977
LOR   001.95 054.2 m E Pg      2011/10/22 12:08:38.1  -0.5 235.6  -0.2              T                                        4776481
LOR   001.95 054.2 m E Sg      2011/10/22 12:09:02.5  -1.2 232.8  -3.0              T                1.0  .19 Ml 1.9         4775968
LFF   001.33 205.1 m E Sn      2011/10/22 12:08:43.8   0.5                          T                5.6  .28 Ml 2.1         4775961
VIVF  002.56 119.3 m E Sg      2011/10/22 12:09:22.3  -0.3                          T                 .9  .25 Ml 1.9         4775962
MTLF  002.85 170.0 m E Sg      2011/10/22 12:09:31.5  -0.2                          T                2.0  .29 Ml 2.2         4776477
EPF   003.23 195.8 m E Sg      2011/10/22 12:09:43.9   0.1                          T                 .6  .23 Ml 1.9         4776476

.
