EVENT     268431
    Date      Time       Latitude Longitude    Depth    Ndef Nsta Gap    Mag1  N    Mag2  N    Mag3  N   Author         ID
       rms   OT_Error      Smajor Sminor Az        Err   mdist  Mdist     Err        Err        Err      Quality

2012/01/10 20:00:28.2     41.6074    2.6011      8.0 f   136   20 124  Ml 3.0 21  Md 3.1  1              js067245    268451

      2.90   +-  0.16       3.2    2.0  139.88 +-  0.0    0.12   6.18   +-0.3      +-                    m i ke

SPAIN
Sta     Dist  EvAz     Phase      Date       Time     TRes  Azim  AzRes  Slow  SRes Def   SNR       Amp   Per   Mag1   Mag2       ID
MTLF  001.76 350.8 m E Pn      2012/01/10 20:00:57.8   0.6                          T   001.0                                4811813
MTLF  001.76 350.8 m E Pg      2012/01/10 20:00:59.8  -1.0                          T                                        4813670
MTLF  001.76 350.8 m E Sg      2012/01/10 20:01:23.4  -0.1                          T   001.0       16.2  .20 Ml 3.1 Md 3.1  4811814
EPF   002.20 311.0 m E Pn      2012/01/10 20:01:04.4   1.1                          T   001.0                                4811796
EPF   002.20 311.0 m E Pg      2012/01/10 20:01:08.3  -0.8                          T                                        4813669
EPF   002.20 311.0 m E Sn      2012/01/10 20:01:29.8   0.7                          T   001.0       43.2  .20 Ml 3.6         4811797
EPF   002.20 311.0 m E Sg      2012/01/10 20:01:36.5  -0.9                          T               49.1  .22 Ml 3.6         4813668
LASF  002.63 020.1 m E Pn      2012/01/10 20:01:09.3   0.1                          T   001.0                                4811799
LASF  002.63 020.1 m E Sn      2012/01/10 20:01:39.6   0.2                          T   001.0                                4811800
LASF  002.63 020.1 m E Sg      2012/01/10 20:01:50.5  -0.4                          T   001.0       10.3  .30 Ml 2.9         4811801
ETSF  002.68 299.9 m E Pn      2012/01/10 20:01:10.9   1.1                          T   001.0                                4811810
ETSF  002.68 299.9 m E Pg      2012/01/10 20:01:17.3  -0.7                          T   001.0                                4811811
ETSF  002.68 299.9 m E Sg      2012/01/10 20:01:50.8  -1.6                          T   001.0       22.3  .23 Ml 3.3         4811812
SMRF  003.22 041.8 m E Pn      2012/01/10 20:01:17.4   0.2                          T   001.0                                4811821
SMRF  003.22 041.8 m E Sg      2012/01/10 20:02:09.7   0.3                          T                7.1  .28 Ml 2.9         4813649
SJPF  003.21 299.2 m E Pn      2012/01/10 20:01:18.2   1.2                          T   001.0                                4811816
SJPF  003.21 299.2 m E Sn      2012/01/10 20:01:54.5   1.3                          T   001.0                                4811817
SJPF  003.21 299.2 m E Sg      2012/01/10 20:02:08.5  -0.4                          T   001.0       28.3  .36 Ml 3.4         4811818
LMR   003.37 057.9 m E Pn      2012/01/10 20:01:19.5   0.4                          T   001.0                                4811804
LMR   003.37 057.9 m E Sn      2012/01/10 20:01:57.8   0.9                          T   001.0        3.1  .19 Ml 2.7         4811805
CAF   003.34 353.4 m E Pn      2012/01/10 20:01:19.7   0.9                          T   001.0                                4811793
CAF   003.34 353.4 m E Pg      2012/01/10 20:01:29.8  -0.3                          T                                        4813666
CAF   003.34 353.4 m E Sn      2012/01/10 20:01:56.3   0.0                          T   001.0                                4811794
CAF   003.34 353.4 m E Sg      2012/01/10 20:02:12.5  -0.5                          T   001.0        6.8  .20 Ml 3.0         4811795
FRF   003.57 055.5 m E Pn      2012/01/10 20:01:21.4  -0.5                          T   001.0                                4811798
FRF   003.57 055.5 m E Sn      2012/01/10 20:02:02.2   0.5                          T                2.2  .24 Ml 2.6         4813650
VIVF  003.58 024.3 m E Pn      2012/01/10 20:01:22.4   0.3                          T                                        4813655
VIVF  003.58 024.3 m E Sn      2012/01/10 20:02:03.0   0.9                          T   001.0                                4811819
VIVF  003.58 024.3 m E Sg      2012/01/10 20:02:19.8  -0.7                          T   001.0        5.7  .26 Ml 2.9         4811820
LFF   003.60 338.4 m E Pn      2012/01/10 20:01:22.9   0.7                          T   001.0                                4811802
LFF   003.60 338.4 m E Pg      2012/01/10 20:01:34.5  -0.2                          T                                        4813667
LFF   003.60 338.4 m E Sg      2012/01/10 20:02:21.2   0.2                          T   001.0       26.5  .38 Ml 3.2         4811803
RJF   003.78 348.3 m E Pn      2012/01/10 20:01:25.0   0.2                          T                                        4813671
RJF   003.78 348.3 m E Pg      2012/01/10 20:01:37.4  -0.8                          T                                        4813663
RJF   003.78 348.3 m E Sg      2012/01/10 20:02:26.5  -0.2                          T   001.0        5.2  .26 Ml 2.6         4811791
SBF   004.21 056.0 m E Pn      2012/01/10 20:01:31.3   0.6                          T   001.0                                4811807
SBF   004.21 056.0 m E Sn      2012/01/10 20:02:17.6   0.4                          T   001.0        3.8  .27 Ml 2.8         4811808
TCF   004.69 356.7 m E Pn      2012/01/10 20:01:37.6   0.5                          T                                        4813652
TCF   004.69 356.7 m E Pg      2012/01/10 20:01:54.7  -0.2                          T                                        4813662
TCF   004.69 356.7 m E Sg      2012/01/10 20:02:55.1   0.0                          T   001.0        5.6  .47 Ml 2.9         4811809
SMF   005.12 009.6 m E Pn      2012/01/10 20:01:43.8   0.9                          T                                        4813653
SMF   005.12 009.6 m E Sg      2012/01/10 20:03:07.6  -0.8                          T                                        4813661
MFF   005.37 339.3 m E Pn      2012/01/10 20:01:47.3   0.9                          T                                        4813664
MFF   005.37 339.3 m E Pg      2012/01/10 20:02:07.7   0.3                          T                                        4813665
MFF   005.37 339.3 m E Sg      2012/01/10 20:03:15.7  -0.6                          T   001.0        1.9  .25 Ml 3.0         4811806
BGF   004.95 002.0 m E Pg      2012/01/10 20:01:59.5  -0.2                          T                                        4813657
BGF   004.95 002.0 m E Sg      2012/01/10 20:03:03.7   0.4                          T                                        4813660
ORIF  004.08 034.8 m E Sn      2012/01/10 20:02:16.4   2.3                          T   001.0        1.3  .36 Ml 2.2         4811815
PGF   004.85 076.7 m E Sn      2012/01/10 20:02:31.1  -1.4                          T                6.6  .38 Ml 3.3         4813651
AVF   005.21 005.7 m E Sg      2012/01/10 20:03:11.1  -0.1                          T   001.0        1.9  .32 Ml 2.7         4811792

.
EVENT     268432
    Date      Time       Latitude Longitude    Depth    Ndef Nsta Gap    Mag1  N    Mag2  N    Mag3  N   Author         ID
       rms   OT_Error      Smajor Sminor Az        Err   mdist  Mdist     Err        Err        Err      Quality

2012/01/10 22:42:07.7     41.5803    2.6061      5.0 f    23    2 205  Ml 1.5  2                         js067245    268452

      0.29   +-  0.12       2.0    1.1  145.80 +-  0.0    0.22   2.22   +-0.2                            m i ke

SPAIN
Sta     Dist  EvAz     Phase      Date       Time     TRes  Azim  AzRes  Slow  SRes Def   SNR       Amp   Per   Mag1   Mag2       ID
MTLF  001.78 350.8 m E Pn      2012/01/10 22:42:37.5   0.0                          T                                        4813751
MTLF  001.78 350.8 m E Pg      2012/01/10 22:42:40.8  -0.1                          T                                        4813750
MTLF  001.78 350.8 m E Sg      2012/01/10 22:43:03.6  -0.2                          T                 .4  .26 Ml 1.4         4813752
EPF   002.22 311.5 m E Pn      2012/01/10 22:42:43.6   0.2                          T                                        4813749
EPF   002.22 311.5 m E Pg      2012/01/10 22:42:48.8  -0.2                          T                                        4813748
EPF   002.22 311.5 m E Sg      2012/01/10 22:43:16.9  -0.7                          T                 .6  .21 Ml 1.7         4813753

.
EVENT     268433
    Date      Time       Latitude Longitude    Depth    Ndef Nsta Gap    Mag1  N    Mag2  N    Mag3  N   Author         ID
       rms   OT_Error      Smajor Sminor Az        Err   mdist  Mdist     Err        Err        Err      Quality

2012/01/10 23:58:42.4     43.0836    -.2773      2.0      20    6 102  Ml 1.9  4  Md 1.9  3              js067245    268453

      0.50   +-  0.09       2.1    1.1  177.64 +-  0.0    0.28   2.50   +-0.2      +-0.0                 m i ke

PYRENEES
Sta     Dist  EvAz     Phase      Date       Time     TRes  Azim  AzRes  Slow  SRes Def   SNR       Amp   Per   Mag1   Mag2       ID
ETSF  000.28 228.3 m E Pg      2012/01/10 23:58:47.6  -0.3                          T                                        4813681
ETSF  000.28 228.3 m E Sg      2012/01/10 23:58:51.3  -0.4                          T                3.7  .19        Md 1.9  4813679
EPF   000.46 096.5 m E Pg      2012/01/10 23:58:51.3   0.1                          T                                        4813676
EPF   000.46 096.5 m E Sg      2012/01/10 23:58:57.1  -0.1                          T                2.7  .18        Md 1.9  4813680
SJPF  000.69 272.8 m E Pg      2012/01/10 23:58:55.3  -0.2                          T                                        4813677
SJPF  000.69 272.8 m E Sg      2012/01/10 23:59:04.8   0.2                          T                1.7  .22        Md 1.8  4813678
MTLF  001.84 081.1 m E Pg      2012/01/10 23:59:16.5  -0.1                          T                                        4813687
MTLF  001.84 081.1 m E Sg      2012/01/10 23:59:40.4   0.0                          T                 .9  .32 Ml 1.6         4813688
LFF   002.00 021.2 m E Sg      2012/01/10 23:59:45.1  -0.1                          T                2.2  .28 Ml 1.9         4813690
CAF   002.50 041.7 m E Sg      2012/01/11 00:00:01.2   0.2                          T                 .8  .21 Ml 1.9         4813689

.

DATA_TYPE ARRIVAL
Sta     Dist  EvAz     Phase      Date       Time     TRes  Azim  AzRes  Slow  SRes Def   SNR       Amp   Per   Mag1   Mag2       ID
ETSF               m E Sg      2012/01/05 22:45:15.5                                T                9.8  .28                4811951
ETSF               m E Pg      2012/01/05 22:45:12.2                                T                                        4811952
ETSF               m E Sg      2012/01/10 09:06:41.3                                T               17.7  .26                4813395
ETSF               m E Pg      2012/01/10 09:06:38.7                                T                                        4813396
EPF                m E Sg      2012/01/10 09:06:58.3                                T                2.1  .29                4813393
EPF                m E Pg      2012/01/10 09:06:47.7                                T                                        4813394
EPF                m E Sg      2012/01/10 16:08:45.4                                T                8.8  .22                4813529
EPF                m E Pg      2012/01/10 16:08:41.1                                T                                        4813530
ETSF               m E Sg      2012/01/10 16:08:57.3                                T                2.0  .30                4813528

STOP
