EVENT     272325
    Date      Time       Latitude Longitude    Depth    Ndef Nsta Gap    Mag1  N    Mag2  N    Mag3  N   Author         ID
       rms   OT_Error      Smajor Sminor Az        Err   mdist  Mdist     Err        Err        Err      Quality

2012/03/23 07:57:56.9     47.7824    5.9343       .0 f    23   11 088  Ml 2.5  6  Md 2.3  2              js067245    272345

      0.36   +-  0.04        .8     .6  152.71 +-  0.0    0.36   1.82   +-0.1      +-0.2                 m i km

FRANCE
Sta     Dist  EvAz     Phase      Date       Time     TRes  Azim  AzRes  Slow  SRes Def   SNR       Amp   Per   Mag1   Mag2       ID
HAU   000.36 051.1 m E Pg      2012/03/23 07:58:04.1   0.0                          T                                        4894650
HAU   000.36 051.1 m E Sg      2012/03/23 07:58:09.0  -0.1                          T              102.8  .72        Md 2.1  4894651
THEF  000.45 005.1 m E Pg      2012/03/23 07:58:05.5  -0.2                          T                                        4894648
THEF  000.45 005.1 m E Sg      2012/03/23 07:58:11.7  -0.2                          T               82.1  .61        Md 2.4  4894649
HINF  000.62 086.5 m E Pg      2012/03/23 07:58:08.7  -0.3                          T                                        4894641
HINF  000.62 086.5 m E Pn      2012/03/23 07:58:11.2  -0.4                          T                                        4894642
HINF  000.62 086.5 m E Sg      2012/03/23 07:58:17.0  -0.2                          T                                        4894647
HINF  000.62 086.5 m E Sn      2012/03/23 07:58:23.4   0.3                          T               55.4  .92                4894643
SFTF  000.74 305.4 m E Pg      2012/03/23 07:58:11.0   0.0 126.7  2.0               T                                        4894637
SFTF  000.74 305.4 m E Sg      2012/03/23 07:58:20.8   0.0 126.3  1.6               T               18.2  .48                4894638
PAGF  000.79 349.8 m E Pg      2012/03/23 07:58:12.1   0.1                          T                                        4894634
PAGF  000.79 349.8 m E Sn      2012/03/23 07:58:25.3  -0.4                          T                6.3  .56                4894645
MEZF  000.93 320.9 m E Pg      2012/03/23 07:58:14.6   0.0                          T                                        4894635
MEZF  000.93 320.9 m E Sg      2012/03/23 07:58:26.9   0.0 137.9  -2.4              T               22.0  .46 Ml 2.5         4894636
CDF   001.10 054.5 m E Pg      2012/03/23 07:58:17.6  -0.2                          T                                        4894632
CDF   001.10 054.5 m E Sn      2012/03/23 07:58:33.3   0.0                          T               19.3  .56 Ml 2.5         4894633
CABF  001.18 174.9 m E Pg      2012/03/23 07:58:19.1  -0.1                          T                                        4894629
CABF  001.18 174.9 m E Sg      2012/03/23 07:58:34.9   0.2                          T               22.4  .54 Ml 2.5         4894646
LOR   001.50 250.7 m E Pg      2012/03/23 07:58:25.1   0.0  66.6  -2.5              T                                        4894631
LOR   001.50 250.7 m E Sg      2012/03/23 07:58:44.7   0.1  66.9  -2.2              T               12.9  .56 Ml 2.4         4894644
SMF   001.82 232.2 m E Pg      2012/03/23 07:58:31.1   0.0                          T                                        4894639
SMF   001.82 232.2 m E Sg      2012/03/23 07:58:54.9   0.1                          T               12.7  .46 Ml 2.6         4894640
SSF   001.80 247.3 m E Sg      2012/03/23 07:58:54.0   0.0                          T                7.8  .44 Ml 2.5         4894630

.
EVENT     272327
    Date      Time       Latitude Longitude    Depth    Ndef Nsta Gap    Mag1  N    Mag2  N    Mag3  N   Author         ID
       rms   OT_Error      Smajor Sminor Az        Err   mdist  Mdist     Err        Err        Err      Quality

2012/03/23 08:36:34.6     44.4770    6.6907      2.0      41    9 046  Ml 2.0  6  Md 2.0  1              js067245    272347

      0.37   +-  0.06       1.1     .9   66.26 +-  0.0    0.09   1.73   +-0.2      +-                    m i ke

FRANCE
Sta     Dist  EvAz     Phase      Date       Time     TRes  Azim  AzRes  Slow  SRes Def   SNR       Amp   Per   Mag1   Mag2       ID
MBDF  000.26 013.0 m E Pg      2012/03/23 08:36:39.6  -0.3                          T                                        4894675
MBDF  000.26 013.0 m E Sg      2012/03/23 08:36:43.0  -0.4                          T               17.7  .28        Md 2.0  4894676
ORIF  000.73 307.6 m E Pg      2012/03/23 08:36:47.8  -0.6                          T                                        4894673
ORIF  000.73 307.6 m E Sg      2012/03/23 08:36:57.5  -0.4                          T                6.2  .28                4894674
SBF   000.81 138.6 m E Pg      2012/03/23 08:36:49.9  -0.2                          T                                        4894666
SBF   000.81 138.6 m E Sg      2012/03/23 08:37:00.7   0.0                          T                4.2  .27                4894665
FRF   000.92 182.0 m E Pg      2012/03/23 08:36:51.8   0.0                          T                                        4894668
FRF   000.92 182.0 m E Sg      2012/03/23 08:37:03.9   0.2                          T                6.8  .20 Ml 2.3         4894663
SMRF  000.95 238.4 m E Pn      2012/03/23 08:36:53.4   0.1                          T                                        4894669
SMRF  000.95 238.4 m E Sn      2012/03/23 08:37:06.9   0.3                          T                7.8  .35 Ml 2.1         4894662
LPG   001.02 002.4 m E Pg      2012/03/23 08:36:54.1  -0.1                          T                                        4894670
LPG   001.02 002.4 m E Sg      2012/03/23 08:37:07.3  -0.1                          T                2.4  .23 Ml 1.9         4894661
LPL   001.04 001.6 m E Pg      2012/03/23 08:36:54.3  -0.1                          T                                        4894671
LPL   001.04 001.6 m E Sg      2012/03/23 08:37:07.9   0.0                          T                2.3  .25 Ml 1.8         4894660
LMR   001.15 186.6 m E Pg      2012/03/23 08:36:56.0  -0.1                          T                                        4894667
LMR   001.15 186.6 m E Sg      2012/03/23 08:37:11.3   0.3                          T                2.8  .22 Ml 2.0         4894664
VIVF  001.49 285.5 m E Sg      2012/03/23 08:37:21.8   0.2                          T                1.4  .30 Ml 1.7         4894672

.
EVENT     272345
    Date      Time       Latitude Longitude    Depth    Ndef Nsta Gap    Mag1  N    Mag2  N    Mag3  N   Author         ID
       rms   OT_Error      Smajor Sminor Az        Err   mdist  Mdist     Err        Err        Err      Quality

2012/03/23 10:51:52.0     44.6272    7.2514      2.0      26    9 129  Ml 1.6  7  Md 1.5  1              js067245    272365

      0.23   +-  0.05       1.1     .7   76.76 +-  0.0    0.12   1.85   +-0.3      +-                    m i ke

NORTHERN ITALY
Sta     Dist  EvAz     Phase      Date       Time     TRes  Azim  AzRes  Slow  SRes Def   SNR       Amp   Per   Mag1   Mag2       ID
MBDF  000.36 286.4 m E Pg      2012/03/23 10:51:59.4   0.3                          T                                        4894677
MBDF  000.36 286.4 m E Sg      2012/03/23 10:52:03.9   0.0                          T               10.7  .24        Md 1.5  4894678
ORIF  001.02 287.1 m E Pg      2012/03/23 10:52:11.3   0.1                          T                                        4894695
ORIF  001.02 287.1 m E Sg      2012/03/23 10:52:24.5   0.1                          T                 .6  .20 Ml 1.3         4894687
FRF   001.15 202.4 m E Pg      2012/03/23 10:52:13.4  -0.1                          T                                        4894694
FRF   001.15 202.4 m E Sg      2012/03/23 10:52:28.2  -0.2                          T                2.3  .28 Ml 1.8         4894691
SBF   000.78 170.1 m E Sg      2012/03/23 10:52:16.8   0.0                          T                 .5  .10                4894693
LPG   000.94 338.0 m E Sg      2012/03/23 10:52:22.2   0.0                          T                1.6  .21 Ml 1.7         4894689
LPL   000.96 337.7 m E Sg      2012/03/23 10:52:22.7   0.0                          T                1.6  .21 Ml 1.7         4894688
SMRF  001.37 242.2 m E Sg      2012/03/23 10:52:35.2   0.0                          T                 .2  .18 Ml 1.1         4894690
LMR   001.40 202.8 m E Sg      2012/03/23 10:52:36.3   0.1                          T                 .8  .20 Ml 1.6         4894692
VIVF  001.85 278.0 m E Sg      2012/03/23 10:52:50.1  -0.2                          T                1.2  .30 Ml 1.8         4894686

.
EVENT     272349
    Date      Time       Latitude Longitude    Depth    Ndef Nsta Gap    Mag1  N    Mag2  N    Mag3  N   Author         ID
       rms   OT_Error      Smajor Sminor Az        Err   mdist  Mdist     Err        Err        Err      Quality

2012/03/23 12:13:20.9     44.4645    6.6772      5.0 f    35    8 047  Ml 1.6  5  Md 1.5  1              js067245    272369

      0.28   +-  0.05        .9     .7   48.86 +-  0.0    0.08   1.48   +-0.3      +-                    m i ke

FRANCE
Sta     Dist  EvAz     Phase      Date       Time     TRes  Azim  AzRes  Slow  SRes Def   SNR       Amp   Per   Mag1   Mag2       ID
MBDF  000.27 014.4 m E Pg      2012/03/23 12:13:26.2  -0.2                          T                                        4894707
MBDF  000.27 014.4 m E Sg      2012/03/23 12:13:29.9  -0.3                          T                9.3  .34        Md 1.5  4894708
ORIF  000.73 308.9 m E Pg      2012/03/23 12:13:34.8   0.0                          T                                        4894706
ORIF  000.73 308.9 m E Sg      2012/03/23 12:13:44.2  -0.1                          T                3.3  .26                4894703
FRF   000.90 181.4 m E Pg      2012/03/23 12:13:37.8  -0.1                          T                                        4894705
FRF   000.90 181.4 m E Sg      2012/03/23 12:13:49.6  -0.1                          T                4.0  .21 Ml 2.1         4894700
SBF   000.81 137.5 m E Sg      2012/03/23 12:13:47.0   0.1                          T                2.2  .16                4894698
SMRF  000.93 238.7 m E Sn      2012/03/23 12:13:52.4   0.5                          T                1.8  .31 Ml 1.6         4894701
LPL   001.05 002.1 m E Sg      2012/03/23 12:13:54.7   0.2                          T                  1  .21 Ml 1.5         4894702
LMR   001.14 186.2 m E Sg      2012/03/23 12:13:56.7  -0.2                          T                1.7  .25 Ml 1.7         4894699
VIVF  001.48 286.0 m E Sg      2012/03/23 12:14:07.7   0.0                          T                 .3  .23 Ml 1.1         4894704

.
EVENT     272362
    Date      Time       Latitude Longitude    Depth    Ndef Nsta Gap    Mag1  N    Mag2  N    Mag3  N   Author         ID
       rms   OT_Error      Smajor Sminor Az        Err   mdist  Mdist     Err        Err        Err      Quality

2012/03/23 15:47:51.5     46.7964    6.3815       .0 f    14    7 207  Ml 2.3  6                         js067245    272382

      2.40   +-  0.55      12.5    4.7  129.17 +-  0.0    0.27   1.79   +-0.2                            m i km

SWITZERLAND
Sta     Dist  EvAz     Phase      Date       Time     TRes  Azim  AzRes  Slow  SRes Def   SNR       Amp   Per   Mag1   Mag2       ID
CABF  000.27 227.6 m E Pg      2012/03/23 15:47:57.2  -0.1                          T                                        4894734
CABF  000.27 227.6 m E Sg      2012/03/23 15:48:01.9   0.7                          T               48.4  .60                4894735
HINF  001.07 017.3 m E Pg      2012/03/23 15:48:12.1   0.2                          T                                        4894728
HINF  001.07 017.3 m E Sg      2012/03/23 15:48:25.9  -0.1                          T                5.7  .26 Ml 2.2         4894733
HAU   001.21 358.9 m E Pg      2012/03/23 15:48:14.1  -0.3                          T                                        4894727
HAU   001.21 358.9 m E Sg      2012/03/23 15:48:29.9  -0.4                          T                6.5  .24 Ml 2.1         4894732
THEF  001.46 349.7 m E Pg      2012/03/23 15:48:18.8  -0.1                          T                                        4894722
THEF  001.46 349.7 m E Sg      2012/03/23 15:48:39.2   1.3                          T                9.4  .30 Ml 2.5         4894731
CDF   001.73 020.2 m E Pg      2012/03/23 15:48:23.9  -0.1                          T                                        4894725
CDF   001.73 020.2 m E Sg      2012/03/23 15:48:46.0  -0.5                          T                3.0  .38 Ml 2.1         4894726
SMF   001.75 266.0 m E Pg      2012/03/23 15:48:24.8   0.4                          T                                        4894729
SMF   001.75 266.0 m E Sg      2012/03/23 15:48:46.6  -0.7                          T                3.6  .20 Ml 2.4         4894730
LOR   001.79 286.2 m E Pg      2012/03/23 15:48:25.1   0.0 128.7  24.3              T                                        4894723
LOR   001.79 286.2 m E Sg      2012/03/23 15:48:47.6  -0.8                          T                3.1  .22 Ml 2.3         4894724

.
EVENT     272366
    Date      Time       Latitude Longitude    Depth    Ndef Nsta Gap    Mag1  N    Mag2  N    Mag3  N   Author         ID
       rms   OT_Error      Smajor Sminor Az        Err   mdist  Mdist     Err        Err        Err      Quality

2012/03/23 17:17:32.8     44.4700    6.6775      7.0 f    25    9 068  Ml 1.6  6  Md 2.0  1              js067245    272386

      0.38   +-  0.05       1.0     .7   50.68 +-  0.0    0.08   1.48   +-0.2      +-                    m i ke

FRANCE
Sta     Dist  EvAz     Phase      Date       Time     TRes  Azim  AzRes  Slow  SRes Def   SNR       Amp   Per   Mag1   Mag2       ID
MBDF  000.27 014.6 m E Pg      2012/03/23 17:17:38.4   0.1                          T                                        4894739
MBDF  000.27 014.6 m E Sg      2012/03/23 17:17:41.8  -0.2                          T                6.9  .30        Md 2.0  4894740
ORIF  000.72 308.5 m E Pg      2012/03/23 17:17:46.5  -0.1                          T                                        4894738
ORIF  000.72 308.5 m E Sg      2012/03/23 17:17:56.1   0.0                          T                1.2  .20                4894747
FRF   000.91 181.4 m E Pg      2012/03/23 17:17:49.9   0.0                          T                                        4894754
FRF   000.91 181.4 m E Sg      2012/03/23 17:18:01.7   0.0                          T                3.2  .21 Ml 2.0         4894753
SBF   000.82 137.8 m E Sg      2012/03/23 17:17:58.6  -0.3                          T                2.9  .32                4894751
SMRF  000.93 238.4 m E Sn      2012/03/23 17:18:03.7   0.1                          T                1.4  .28 Ml 1.5         4894750
LPG   001.03 002.9 m E Sg      2012/03/23 17:18:06.0   0.1                          T                1.0  .21 Ml 1.5         4894749
LPL   001.05 002.1 m E Sg      2012/03/23 17:18:06.3   0.0                          T                1.0  .29 Ml 1.4         4894748
LMR   001.14 186.2 m E Sg      2012/03/23 17:18:08.9  -0.1                          T                1.1  .20 Ml 1.6         4894752
VIVF  001.48 285.8 m E Sg      2012/03/23 17:18:19.4  -0.2                          T                 .9  .27 Ml 1.6         4894746

.
EVENT     272367
    Date      Time       Latitude Longitude    Depth    Ndef Nsta Gap    Mag1  N    Mag2  N    Mag3  N   Author         ID
       rms   OT_Error      Smajor Sminor Az        Err   mdist  Mdist     Err        Err        Err      Quality

2012/03/23 17:24:09.1     44.4697    6.6706      5.0 f    20    8 067  Ml 1.3  5  Md 1.3  1              js067245    272387

      0.14   +-  0.03        .7     .5   55.79 +-  0.0    0.08   2.08   +-0.3      +-                    m i ke

FRANCE
Sta     Dist  EvAz     Phase      Date       Time     TRes  Azim  AzRes  Slow  SRes Def   SNR       Amp   Per   Mag1   Mag2       ID
MBDF  000.27 015.6 m E Pg      2012/03/23 17:24:15.5   0.8                          T                                        4894764
MBDF  000.27 015.6 m E Sg      2012/03/23 17:24:18.1  -0.2                          T                1.3  .17        Md 1.3  4894765
ORIF  000.72 308.8 m E Pg      2012/03/23 17:24:22.9   0.1                          T                                        4894763
ORIF  000.72 308.8 m E Sg      2012/03/23 17:24:32.5   0.1                          T                1.2  .33                4894760
FRF   000.91 181.1 m E Pg      2012/03/23 17:24:26.2   0.0                          T                                        4894762
FRF   000.91 181.1 m E Sg      2012/03/23 17:24:37.9  -0.1                          T                2.1  .23 Ml 1.8         4894757
SBF   000.82 137.5 m E Sg      2012/03/23 17:24:35.5   0.1                          T                1.1  .18                4894755
SMRF  000.93 238.3 m E Sn      2012/03/23 17:24:40.3   0.1                          T                 .4  .27 Ml 1           4894758
LPG   001.03 003.2 m E Sg      2012/03/23 17:24:42.0  -0.2                          T                 .6  .26 Ml 1.2         4894759
LMR   001.14 185.9 m E Sg      2012/03/23 17:24:45.3   0.0                          T                 .8  .22 Ml 1.5         4894756
VIVF  001.48 285.9 m E Sg      2012/03/23 17:24:55.7  -0.1                          T                 .5  .30 Ml 1.3         4894761

.
EVENT     272368
    Date      Time       Latitude Longitude    Depth    Ndef Nsta Gap    Mag1  N    Mag2  N    Mag3  N   Author         ID
       rms   OT_Error      Smajor Sminor Az        Err   mdist  Mdist     Err        Err        Err      Quality

2012/03/23 17:32:37.0     43.0548    -.4093      2.0       6    3 176             Md 1.3  3              js067245    272388

      0.13   +-  0.07       2.7    1.2  173.83 +-  0.0    0.19   0.60              +-0.3                 m i ke

PYRENEES
Sta     Dist  EvAz     Phase      Date       Time     TRes  Azim  AzRes  Slow  SRes Def   SNR       Amp   Per   Mag1   Mag2       ID
ETSF  000.19 215.2 m E Pg      2012/03/23 17:32:40.9  -0.1                          T                                        4894770
ETSF  000.19 215.2 m E Sg      2012/03/23 17:32:43.8   0.2                          T                9.2  .56        Md 1.6  4894771
EPF   000.55 092.3 m E Pg      2012/03/23 17:32:47.6   0.1                          T                                        4894768
EPF   000.55 092.3 m E Sg      2012/03/23 17:32:54.6  -0.1                          T                1.4  .20        Md 1.2  4894769
SJPF  000.60 275.9 m E Pg      2012/03/23 17:32:48.3  -0.1                          T                                        4894766
SJPF  000.60 275.9 m E Sg      2012/03/23 17:32:56.5   0.2                          T                 .8  .23        Md 1.1  4894767

.
