EVENT     284941
    Date      Time       Latitude Longitude    Depth    Ndef Nsta Gap    Mag1  N    Mag2  N    Mag3  N   Author         ID
       rms   OT_Error      Smajor Sminor Az        Err   mdist  Mdist     Err        Err        Err      Quality

2012/10/11 14:18:42.2     45.0565    6.6576      7.0 f   104   25 029  Ml 2.8 22  Md 2.7  4              bulletin    285041
                                                                                                         _ldg
      0.91   +-  0.08       1.9    1.5   64.03 +-  0.0    0.02   7.10   +-0.4      +-0.0                 m i ke

FRANCE
Sta     Dist  EvAz     Phase      Date       Time     TRes  Azim  AzRes  Slow  SRes Def   SNR       Amp   Per   Mag1   Mag2       ID
MBDF  000.34 166.2 m E Pg      2012/10/11 14:18:48.0  -1.0                          T   001.0                                5095603
MBDF  000.34 166.2 m E Sg      2012/10/11 14:18:53.0  -0.6                          T              241.1  .20        Md 2.8  5095685
LPL   000.46 006.5 m E Pg      2012/10/11 14:18:50.8  -0.5                          T   001.0                                5095585
LPL   000.46 006.5 m E Sg      2012/10/11 14:18:57.5  -0.1                          T   001.0       75.0  .18        Md 2.7  5095586
LPG   000.45 008.5 m E Pg      2012/10/11 14:18:50.9  -0.2                          T   001.0                                5095583
LPG   000.45 008.5 m E Sg      2012/10/11 14:18:56.7  -0.4                          T   001.0       77.2  .15        Md 2.7  5095584
ORIF  000.57 256.2 m E Pg      2012/10/11 14:18:51.5  -1.6                          T   001.0                                5095557
ORIF  000.57 256.2 m E Sg      2012/10/11 14:18:58.7  -1.9                          T   001.0      128.8  .21        Md 2.7  5095558
SBF   001.32 154.7 m E Pn      2012/10/11 14:19:05.8   0.4                          T                                        5095698
SBF   001.32 154.7 m E Pg      2012/10/11 14:19:07.1   0.2                          T                                        5095723
SBF   001.32 154.7 m E Sg      2012/10/11 14:19:24.3   0.4                          T   001.0      118.6  .56 Ml 3.3         5095589
SMRF  001.33 216.0 m E Pn      2012/10/11 14:19:06.4   0.9                          T                                        5095695
SMRF  001.33 216.0 m E Sn      2012/10/11 14:19:23.0   0.5                          T   001.0       11.2  .32 Ml 2.5         5095565
SMRF  001.33 216.0 m E Sg      2012/10/11 14:19:25.0   0.8                          T               63.3  .42 Ml 3.1         5096440
VIVF  001.42 262.6 m E Pn      2012/10/11 14:19:07.6   0.8                          T   001.0                                5095560
VIVF  001.42 262.6 m E Sn      2012/10/11 14:19:25.1   0.4                          T   001.0        4.0  .18 Ml 2.3         5095562
VIVF  001.42 262.6 m E Sg      2012/10/11 14:19:27.8   0.6                          T               20.9  .23 Ml 3.0         5096441
FRF   001.50 180.3 m E P       2012/10/11 14:19:09.8   0.2                          T   001.0                                5095573
FRF   001.50 180.3 m E Sn      2012/10/11 14:19:27.2   0.8                          T                5.4  .17 Ml 2.6         5095729
FRF   001.50 180.3 m E Sg      2012/10/11 14:19:29.5   0.1                          T   001.0       29.5  .23 Ml 3.2         5095574
CABF  001.61 345.8 m E Pg      2012/10/11 14:19:12.3   0.1                          T                                        5096442
CABF  001.61 345.8 m E Sn      2012/10/11 14:19:29.2   0.2                          T   001.0                                5095599
CABF  001.61 345.8 m E Sg      2012/10/11 14:19:33.3   0.4                          T   001.0       21.0  .25 Ml 3.0         5095600
LMR   001.73 183.6 m E P       2012/10/11 14:19:13.4   0.4                          T   001.0                                5095578
LMR   001.73 183.6 m E Sg      2012/10/11 14:19:36.9   0.4                          T               21.1  .22 Ml 3.1         5096439
LASF  002.23 244.9 m E Pn      2012/10/11 14:19:18.1   0.3                          T   001.0                                5095575
LASF  002.23 244.9 m E Pg      2012/10/11 14:19:23.5  -0.1                          T   001.0                                5095576
LASF  002.23 244.9 m E Sn      2012/10/11 14:19:44.7   0.8                          T   001.0        5.2  .18 Ml 2.7         5095577
SMF   002.53 309.9 m E Pn      2012/10/11 14:19:22.8   0.9                          T   001.0                                5095590
SMF   002.53 309.9 m E Pg      2012/10/11 14:19:28.8  -0.3                          T   001.0                                5095591
SMF   002.53 309.9 m E Sn      2012/10/11 14:19:51.2   0.1                          T                                        5095686
SMF   002.53 309.9 m E Sg      2012/10/11 14:20:00.2  -1.4                          T   001.0        8.7  .20 Ml 3.0         5095592
AVF   002.89 308.1 m E Pn      2012/10/11 14:19:28.5   1.8                          T   001.0                                5095566
SSF   002.97 313.5 m E Pn      2012/10/11 14:19:28.5   0.6                          T   001.0                                5095593
SSF   002.97 313.5 m E Pg      2012/10/11 14:19:37.3   0.1                          T                                        5095690
AVF   002.89 308.1 m E Sg      2012/10/11 14:20:11.7  -1.0                          T   001.0        7.0  .26 Ml 2.8         5095567
SSF   002.97 313.5 m E Sg      2012/10/11 14:20:12.0  -3.5                          T   001.0        2.7  .23 Ml 2.6         5095594
LOR   002.95 319.7 m E Pn      2012/10/11 14:19:28.7   1.2                          T   001.0                                5095582
LOR   002.95 319.7 m E Pg      2012/10/11 14:19:36.9   0.2 141.9  4.3               T                                        5095691
LOR   002.95 319.7 m E Sg      2012/10/11 14:20:12.8  -1.8                          T                3.3  .24 Ml 2.6         5095689
PGF   003.03 145.1 m E Pn      2012/10/11 14:19:29.3   0.5                          T                                        5095693
PGF   003.03 145.1 m E P       2012/10/11 14:19:31.9   0.2                          T                                        5095722
PGF   003.03 145.1 m E Sn      2012/10/11 14:20:03.4   0.4                          T                1.2  .21 Ml 2.4         5095692
BGF   003.06 300.7 m E Pn      2012/10/11 14:19:30.5   1.4                          T   001.0                                5095569
BGF   003.06 300.7 m E Sn      2012/10/11 14:20:04.9   1.2                          T                                        5095687
BGF   003.06 300.7 m E Sg      2012/10/11 14:20:17.9  -0.2                          T               23.4  .36 Ml 3.3         5095688
CAF   003.26 269.3 m E Pn      2012/10/11 14:19:32.5   0.6                          T   001.0                                5095570
CAF   003.26 269.3 m E Pg      2012/10/11 14:19:42.4  -0.2                          T                                        5095724
CAF   003.26 269.3 m E Sg      2012/10/11 14:20:24.6   0.1                          T   001.0        2.9  .32 Ml 2.4         5095571
HINF  002.76 002.7 m E Pg      2012/10/11 14:19:32.8  -0.7                          T                                        5095727
HINF  002.76 002.7 m E Sg      2012/10/11 14:20:09.3   0.2                          T   001.0        3.9  .23 Ml 2.6         5095602
TCF   003.35 293.1 m E Pn      2012/10/11 14:19:33.5   0.4                          T   001.0                                5095595
TCF   003.35 293.1 m E Sg      2012/10/11 14:20:27.6   0.3                          T   001.0         .7  .21 Ml 2.1         5095596
CDF   003.38 007.0 m E Pn      2012/10/11 14:19:34.3   0.7                          T   001.0                                5095572
MTLF  003.62 243.3 m E Pn      2012/10/11 14:19:36.8   0.0                          T                                        5095721
MTLF  003.62 243.3 m E Sn      2012/10/11 14:20:18.1   0.8                          T                1.5  .27 Ml 2.3         5095697
MTLF  003.62 243.3 m E Sg      2012/10/11 14:20:35.5  -0.3                          T   001.0                                5095604
RJF   003.64 275.7 m E Pg      2012/10/11 14:19:49.2  -0.5                          T                                        5095725
RJF   003.64 275.7 m E Sg      2012/10/11 14:20:36.2  -0.3                          T                                        5095726
ETSF  005.64 250.0 m E Sn      2012/10/11 14:21:08.4   3.0                          T   001.0                                5095601
SGMF  007.10 300.0 m E Sn      2012/10/11 14:21:40.0   0.7                          T   001.0       11.3  .88 Ml 3.4         5095559

.
EVENT     284943
    Date      Time       Latitude Longitude    Depth    Ndef Nsta Gap    Mag1  N    Mag2  N    Mag3  N   Author         ID
       rms   OT_Error      Smajor Sminor Az        Err   mdist  Mdist     Err        Err        Err      Quality

2012/10/11 15:40:48.9     44.4539    6.9658      3.0 f    24    6 087  Ml 1.8  4  Md 1.8  1              bulletin    285043
                                                                                                         _ldg
      0.25   +-  0.05       1.1     .8   53.71 +-  0.0    0.11   1.17   +-0.2      +-                    m i ke

FRANCE
Sta     Dist  EvAz     Phase      Date       Time     TRes  Azim  AzRes  Slow  SRes Def   SNR       Amp   Per   Mag1   Mag2       ID
MBDF  000.31 333.1 m E Pg      2012/10/11 15:40:55.0  -0.2                          T                                        5095765
MBDF  000.31 333.1 m E Sg      2012/10/11 15:40:59.5   0.3                          T                                Md 1.8  5095762
ORIF  000.90 301.3 m E Pg      2012/10/11 15:41:05.7  -0.3                          T                                        5095767
ORIF  000.90 301.3 m E Sg      2012/10/11 15:41:17.5  -0.3                          T                1.6  .20 Ml 1.7         5095766
FRF   000.92 194.6 m E Pn      2012/10/11 15:41:07.8   0.6                          T                                        5095764
FRF   000.92 194.6 m E Sg      2012/10/11 15:41:18.6   0.4                          T                1.3  .19 Ml 1.7         5095761
LPL   001.08 351.2 m E Pg      2012/10/11 15:41:09.2  -0.2                          T                                        5095769
LPL   001.08 351.2 m E Sg      2012/10/11 15:41:23.9   0.6                          T                1.5  .27 Ml 1.6         5095768
LPG   001.05 351.8 m E Pg      2012/10/11 15:41:09.3   0.3                          T                                        5095771
LPG   001.05 351.8 m E Sg      2012/10/11 15:41:22.5  -0.2                          T                                        5095770
LMR   001.17 196.6 m E Pn      2012/10/11 15:41:11.4   1.0                          T                                        5095763
LMR   001.17 196.6 m E Sg      2012/10/11 15:41:26.0   0.1                          T                3.1  .21 Ml 2.1         5095760

.
EVENT     284945
    Date      Time       Latitude Longitude    Depth    Ndef Nsta Gap    Mag1  N    Mag2  N    Mag3  N   Author         ID
       rms   OT_Error      Smajor Sminor Az        Err   mdist  Mdist     Err        Err        Err      Quality

2012/10/11 23:34:37.1     43.0882    -.1663      2.0      16    4 168  Ml 1.2  1  Md 1.5  2              bulletin    285045
                                                                                                         _ldg
      0.45   +-  0.12       3.3    1.5  178.20 +-  0.0    0.34   1.76   +-         +-0.2                 m i ke

PYRENEES
Sta     Dist  EvAz     Phase      Date       Time     TRes  Azim  AzRes  Slow  SRes Def   SNR       Amp   Per   Mag1   Mag2       ID
ETSF  000.34 236.8 m E Pg      2012/10/11 23:34:43.4  -0.4                          T                                        5095787
ETSF  000.34 236.8 m E Sg      2012/10/11 23:34:47.6  -0.8                          T                2.7  .18        Md 1.6  5095786
EPF   000.38 098.7 m E Pg      2012/10/11 23:34:44.3  -0.1                          T                                        5095785
EPF   000.38 098.7 m E Sg      2012/10/11 23:34:49.3   0.0                          T                1.3  .21        Md 1.4  5095784
SJPF  000.78 272.2 m E Pg      2012/10/11 23:34:51.8   0.1                          T                                        5095789
SJPF  000.78 272.2 m E Sg      2012/10/11 23:35:02.0   0.2                          T                 .1  .17                5095788
MTLF  001.76 080.9 m E Pg      2012/10/11 23:35:09.8   0.0                          T                                        5095791
MTLF  001.76 080.9 m E Sg      2012/10/11 23:35:32.0  -0.5                          T                 .2  .18 Ml 1.2         5095790

.
