EVENT     265925
    Date      Time       Latitude Longitude    Depth    Ndef Nsta Gap    Mag1  N    Mag2  N    Mag3  N   Author         ID
       rms   OT_Error      Smajor Sminor Az        Err   mdist  Mdist     Err        Err        Err      Quality

2011/11/03 22:35:33.5     45.8828   10.3257     10.0      42   15 070  Ml 2.5  5                         js067245    265945

      0.66   +-  0.13       2.9    2.5   93.39 +-  0.0    0.22   5.26   +-0.3                            m i ke

NORTHERN ITALY
Sta     Dist  EvAz     Phase      Date       Time     TRes  Azim  AzRes  Slow  SRes Def   SNR       Amp   Per   Mag1   Mag2       ID
MBDF  002.76 246.5 m E Pn      2011/11/03 22:36:15.8  -0.4                          T                                        4781300
MBDF  002.76 246.5 m E Sn      2011/11/03 22:36:47.6   0.0                          T                1.5  .23 Ml 2.2         4783068
LPL   002.54 263.0 m E P       2011/11/03 22:36:16.3   0.3                          T                                        4781295
SBF   002.88 226.5 m E Pn      2011/11/03 22:36:17.9   0.2                          T                                        4781301
CABF  003.03 285.4 m E Pn      2011/11/03 22:36:19.7   0.0                          T                                        4781297
HINF  003.07 310.3 m E Pn      2011/11/03 22:36:20.3   0.1                          T                                        4781302
HINF  003.07 310.3 m E P       2011/11/03 22:36:23.1  -0.2                          T                                        4781296
HINF  003.07 310.3 m E Pg      2011/11/03 22:36:30.2  -0.2                          T                                        4781290
HINF  003.07 310.3 m E Sn      2011/11/03 22:36:54.8   0.0                          T                                        4783069
HINF  003.07 310.3 m E Sg      2011/11/03 22:37:10.0   0.1                          T                4.4  .31 Ml 2.6         4781323
HAU   003.45 309.4 m E Pn      2011/11/03 22:36:25.3  -0.2                          T                                        4781298
HAU   003.45 309.4 m E P       2011/11/03 22:36:28.5  -0.2                          T                                        4781325
HAU   003.45 309.4 m E Sn      2011/11/03 22:37:03.8  -0.2                          T                3.6  .26 Ml 2.5         4783070
ORIF  003.28 254.5 m E P       2011/11/03 22:36:25.7  -0.5                          T                                        4781299
CDF   003.28 321.7 m E P       2011/11/03 22:36:25.7  -0.5                          T                                        4781308
CDF   003.28 321.7 m E Sn      2011/11/03 22:36:59.6  -0.2                          T                1.4  .27 Ml 2.3         4783071
FRF   003.50 229.8 m E Pn      2011/11/03 22:36:26.8   0.7                          T                                        4781294
LMR   003.73 228.3 m E Pn      2011/11/03 22:36:29.2   0.0                          T                                        4781293
SMF   004.56 281.9 m E Pn      2011/11/03 22:36:41.8   1.3                          T                                        4781307
SMF   004.56 281.9 m E Sn      2011/11/03 22:37:30.4   0.0                          T                3.9  .30 Ml 2.9         4781324
LOR   004.67 289.6 m E Pn      2011/11/03 22:36:43.1   1.1 106.6  1.7               T                                        4781303
AVF   004.91 283.1 m E Pn      2011/11/03 22:36:46.5   1.2                          T                                        4781306
LASF  004.93 250.8 m E P       2011/11/03 22:36:49.1  -0.6                          T                                        4781289
BGF   005.23 280.1 m E Pn      2011/11/03 22:36:51.1   1.4                          T                                        4781305

.
EVENT     265998
    Date      Time       Latitude Longitude    Depth    Ndef Nsta Gap    Mag1  N    Mag2  N    Mag3  N   Author         ID
       rms   OT_Error      Smajor Sminor Az        Err   mdist  Mdist     Err        Err        Err      Quality

2011/11/04 01:09:21.2     48.0616    7.3769     16.1      16    6 073  Ml 1.4  3  Md 1.4  1              js067245    266018

      0.86   +-  0.09       1.9    1.3  176.10 +-  1.1    0.21   1.21   +-0.4      +-                    m i ke

FRANCE
Sta     Dist  EvAz     Phase      Date       Time     TRes  Azim  AzRes  Slow  SRes Def   SNR       Amp   Per   Mag1   Mag2       ID
CDF   000.36 349.2 m E Pg      2011/11/04 01:09:28.7   0.0                          T                                        4781329
CDF   000.36 349.2 m E Sg      2011/11/04 01:09:33.6  -0.3                          T                 .9  .18        Md 1.4  4781328
HINF  000.43 235.4 m E Pg      2011/11/04 01:09:29.9   0.0                          T                                        4781326
HINF  000.43 235.4 m E Sg      2011/11/04 01:09:35.7  -0.2                          T                1.1  .18                4781327
HAU   000.69 265.7 m E Pg      2011/11/04 01:09:34.6   0.0                          T                                        4781335
HAU   000.69 265.7 m E Sg      2011/11/04 01:09:44.0   0.2                          T               70.6 1.94                4781334
HAU   000.69 265.7 m E Sn      2011/11/04 01:09:44.8   0.2                          T                1.6  .24                4781333
PAGF  001.21 294.7 m E Pg      2011/11/04 01:09:43.7  -0.3 105.7  -7.8              T                                        4781489
PAGF  001.21 294.7 m E Sg      2011/11/04 01:10:00.0   0.3 124.4  10.9              T                 .2  .21 Ml 1           4781488
LANF  000.96 017.0 m E Sn      2011/11/04 01:09:50.6  -0.5                          T                                        4781332
LANF  000.96 017.0 m E Sg      2011/11/04 01:09:51.8  -0.3                          T                1.4  .20 Ml 1.6         4781331
THEF  000.94 280.7 m E Sn      2011/11/04 01:09:50.8   0.3                          T                2.1  .26 Ml 1.7         4781330

.
EVENT     265926
    Date      Time       Latitude Longitude    Depth    Ndef Nsta Gap    Mag1  N    Mag2  N    Mag3  N   Author         ID
       rms   OT_Error      Smajor Sminor Az        Err   mdist  Mdist     Err        Err        Err      Quality

2011/11/04 01:51:32.5     42.8456   12.8441     10.0 f    46   13 104  Ml 2.8  4                         js067245    265946

      0.76   +-  0.13       3.0    2.7   17.91 +-  0.0    0.17   7.22   +-0.2                            m i ke

CENTRAL ITALY
Sta     Dist  EvAz     Phase      Date       Time     TRes  Azim  AzRes  Slow  SRes Def   SNR       Amp   Per   Mag1   Mag2       ID
PGF   002.85 265.3 m E Pn      2011/11/04 01:52:16.6   0.2                          T                                        4781523
PGF   002.85 265.3 m E P       2011/11/04 01:52:18.9  -0.3                          T                                        4781506
PGF   002.85 265.3 m E Sn      2011/11/04 01:52:48.9   0.3                          T                                        4781505
SBF   004.07 286.3 m E Pn      2011/11/04 01:52:34.6   1.7                          T                                        4781519
FRF   004.59 281.1 m E Pn      2011/11/04 01:52:40.9   1.1                          T                                        4781518
LMR   004.67 278.2 m E Pn      2011/11/04 01:52:41.8   0.9                          T                                        4781520
MBDF  004.78 295.2 m E Pn      2011/11/04 01:52:42.7   0.0                          T                                        4781522
MBDF  004.78 295.2 m E Sn      2011/11/04 01:53:35.1   0.2                          T                1.9  .40 Ml 2.5         4783072
LPL   005.14 303.4 m E P       2011/11/04 01:52:50.9  -1.1                          T                                        4781521
SMRF  005.41 284.5 m E Pn      2011/11/04 01:52:51.2   0.0                          T                                        4781504
SMRF  005.41 284.5 m E P       2011/11/04 01:52:54.3  -1.2                          T                                        4781517
ORIF  005.44 294.7 m E Pn      2011/11/04 01:52:52.2   0.5                          T                                        4781513
ORIF  005.44 294.7 m E P       2011/11/04 01:52:56.4   0.4                          T                                        4781512
CABF  006.11 310.4 m E Pn      2011/11/04 01:53:00.9   0.2                          T                                        4781511
HINF  006.52 321.7 m E Pn      2011/11/04 01:53:07.7   1.4                          T                                        4781515
HINF  006.52 321.7 m E Sn      2011/11/04 01:54:15.8  -0.5                          T                2.1  .38 Ml 2.9         4783073
CDF   006.80 326.9 m E Pn      2011/11/04 01:53:11.2   1.1                          T                                        4781514
CDF   006.80 326.9 m E Sn      2011/11/04 01:54:22.8  -0.1                          T                3.1  .55 Ml 3.1         4783075
HAU   006.89 320.7 m E Pn      2011/11/04 01:53:13.0   1.7                          T                                        4781516
HAU   006.89 320.7 m E Sn      2011/11/04 01:54:24.8  -0.3                          T                3.1  .42 Ml 2.9         4783074
THEF  007.22 320.6 m E Pn      2011/11/04 01:53:16.3   0.7                          T                                        4781510

.
EVENT     265927
    Date      Time       Latitude Longitude    Depth    Ndef Nsta Gap    Mag1  N    Mag2  N    Mag3  N   Author         ID
       rms   OT_Error      Smajor Sminor Az        Err   mdist  Mdist     Err        Err        Err      Quality

2011/11/04 04:32:08.4     42.8839    -.7471      2.0       6    3 219             Md 1.1  2              js067245    265947

      0.51   +-  1.06      49.2    5.0   12.09 +-  0.0    0.14   0.81              +-0.2                 m i ke

PYRENEES
Sta     Dist  EvAz     Phase      Date       Time     TRes  Azim  AzRes  Slow  SRes Def   SNR       Amp   Per   Mag1   Mag2       ID
ETSF  000.14 083.9 m E Pg      2011/11/04 04:32:10.8  -0.6                          T                                        4781537
ETSF  000.14 083.9 m E Sg      2011/11/04 04:32:14.2   0.8                          T                2.8  .17        Md 1.3  4781536
SJPF  000.42 303.3 m E Pg      2011/11/04 04:32:16.8   0.3                          T                                        4781534
SJPF  000.42 303.3 m E Sg      2011/11/04 04:32:21.2  -0.8                          T                3.8  .22        Md  .9  4781535
EPF   000.81 079.2 m E Pg      2011/11/04 04:32:23.9   0.2                          T                                        4783076
EPF   000.81 079.2 m E Sg      2011/11/04 04:32:34.1  -0.3                          T                 .2  .17                4783077

.
EVENT     265928
    Date      Time       Latitude Longitude    Depth    Ndef Nsta Gap    Mag1  N    Mag2  N    Mag3  N   Author         ID
       rms   OT_Error      Smajor Sminor Az        Err   mdist  Mdist     Err        Err        Err      Quality

2011/11/04 05:14:57.6     42.9893    -.8865      2.0      23    3 118  Ml 1.1  1  Md 1.2  2              js067245    265948

      0.32   +-  0.08       1.6    1.1  155.76 +-  0.0    0.17   0.90   +-         +-0.1                 m i ke

PYRENEES
Sta     Dist  EvAz     Phase      Date       Time     TRes  Azim  AzRes  Slow  SRes Def   SNR       Amp   Per   Mag1   Mag2       ID
ETSF  000.26 110.5 m E Pg      2011/11/04 05:15:02.6  -0.2                          T                                        4781530
ETSF  000.26 110.5 m E Sg      2011/11/04 05:15:05.9  -0.4                          T                3.3  .34        Md 1.3  4781531
SJPF  000.28 296.7 m E Pg      2011/11/04 05:15:03.1   0.0                          T                                        4781533
SJPF  000.28 296.7 m E Sg      2011/11/04 05:15:07.0   0.1                          T                5.1  .25        Md 1.2  4781532
EPF   000.90 087.0 m E Pg      2011/11/04 05:15:14.6   0.0                          T                                        4783082
EPF   000.90 087.0 m E Sg      2011/11/04 05:15:26.2  -0.1                          T                 .4  .22 Ml 1.1         4783083

.
EVENT     265955
    Date      Time       Latitude Longitude    Depth    Ndef Nsta Gap    Mag1  N    Mag2  N    Mag3  N   Author         ID
       rms   OT_Error      Smajor Sminor Az        Err   mdist  Mdist     Err        Err        Err      Quality

2011/11/04 09:40:36.5     43.0960   -1.4032     15.0      16    3 126  Ml 1.9  1  Md 1.6  2              js067245    265975

      0.27   +-  0.10       1.8    1.7   53.80 +-  0.0    0.13   1.28   +-         +-0.1                 m i ke

PYRENEES
Sta     Dist  EvAz     Phase      Date       Time     TRes  Azim  AzRes  Slow  SRes Def   SNR       Amp   Per   Mag1   Mag2       ID
SJPF  000.13 082.4 m E Pg      2011/11/04 09:40:40.2  -0.1                          T                                        4781560
SJPF  000.13 082.4 m E Sg      2011/11/04 09:40:42.5  -0.3                          T               12.7  .18        Md 1.7  4781557
ETSF  000.65 107.4 m E Pg      2011/11/04 09:40:48.8  -0.3                          T                                        4781558
ETSF  000.65 107.4 m E Sg      2011/11/04 09:40:57.5  -0.3                          T                6.1  .22        Md 1.5  4781559
ETSF  000.65 107.4 m E Sn      2011/11/04 09:40:59.0  -0.1                          T                                        4781556
EPF   001.28 092.4 m E Pg      2011/11/04 09:41:00.5   0.0                          T                                        4783084
EPF   001.28 092.4 m E Sn      2011/11/04 09:41:14.0  -0.1                          T                                        4783086
EPF   001.28 092.4 m E Sg      2011/11/04 09:41:17.2   0.0                          T                1.9  .21 Ml 1.9         4783085

.
EVENT     265956
    Date      Time       Latitude Longitude    Depth    Ndef Nsta Gap    Mag1  N    Mag2  N    Mag3  N   Author         ID
       rms   OT_Error      Smajor Sminor Az        Err   mdist  Mdist     Err        Err        Err      Quality

2011/11/04 09:49:52.4     44.4563   10.1182     20.0 f    21    6 080  Ml 2.4  6                         js067245    265976

      0.47   +-  0.13       3.3    2.7  174.45 +-  0.0    0.34   2.84   +-0.2                            m i ke

NORTHERN ITALY
Sta     Dist  EvAz     Phase      Date       Time     TRes  Azim  AzRes  Slow  SRes Def   SNR       Amp   Per   Mag1   Mag2       ID
SBF   002.02 253.9 m E Pn      2011/11/04 09:50:23.4  -0.3                          T                                        4781574
SBF   002.02 253.9 m E P       2011/11/04 09:50:25.7  -0.4                          T                                        4781572
SBF   002.02 253.9 m E Sn      2011/11/04 09:50:46.9   0.0                          T                                        4781568
SBF   002.02 253.9 m E Sg      2011/11/04 09:50:55.8  -0.5                          T                9.8  .37 Ml 2.6         4781567
PGF   002.07 203.5 m E Pn      2011/11/04 09:50:24.9   0.4                          T                                        4781571
PGF   002.07 203.5 m E Sn      2011/11/04 09:50:47.9  -0.2                          T                5.4  .37 Ml 2.6         4781579
MBDF  002.41 277.6 m E P       2011/11/04 09:50:31.0   0.2                          T                                        4781570
MBDF  002.41 277.6 m E Pg      2011/11/04 09:50:36.7  -0.6                          T                                        4781580
MBDF  002.41 277.6 m E Sn      2011/11/04 09:50:55.9  -0.3                          T                3.5  .30 Ml 2.4         4781566
FRF   002.66 251.5 m E Pn      2011/11/04 09:50:33.1   0.7                          T                                        4781576
FRF   002.66 251.5 m E Sn      2011/11/04 09:51:01.7  -0.4                          T                6.7  .41 Ml 2.6         4783088
LMR   002.84 248.0 m E Pn      2011/11/04 09:50:35.5   0.7                          T                                        4781575
LMR   002.84 248.0 m E Sn      2011/11/04 09:51:06.5   0.1                          T                  1  .25 Ml 2.0         4781573
LPL   002.63 295.0 m E Pg      2011/11/04 09:50:39.0  -2.5                          T                                        4781569
LPL   002.63 295.0 m E Sn      2011/11/04 09:51:00.9  -0.6                          T                3.7  .36 Ml 2.4         4783089

.
