BEGIN GSE2.0
MSG_TYPE DATA
MSG_ID 04-JUL-1212:08:15  FRA_NDC
E-MAIL
DATA_TYPE BULLETIN
Reviewed Bulletin (REB) # P2012-023  from French NDC for regional phases     PERIOD 06 JUN 2012 TO 12 JUN 2012 Cenalt JP S
EVENT     277613
    Date      Time       Latitude Longitude    Depth    Ndef Nsta Gap    Mag1  N    Mag2  N    Mag3  N   Author         ID
       rms   OT_Error      Smajor Sminor Az        Err   mdist  Mdist     Err        Err        Err      Quality

2012/06/06 00:07:07.4     46.2833    7.2719      2.0      94   24 026  Ml 2.3 25  Md 2.5  3              bulletin    277722
                                                                                                         _ldg
      0.45   +-  0.04        .8     .7   73.31 +-  0.0    0.08   3.33   +-0.3      +-0.1                 m i ke

SWITZERLAND
Sta     Dist  EvAz     Phase      Date       Time     TRes  Azim  AzRes  Slow  SRes Def   SNR       Amp   Per   Mag1   Mag2       ID
LPL   000.85 206.4 m E Pg      2012/06/06 00:07:23.7   0.0                          T                                        4992697
LPL   000.85 206.4 m E Sg      2012/06/06 00:07:34.8  -0.1                          T                9.2  .34 Ml 2.2 Md 2.5  4992694
LPG   000.87 205.0 m E Pg      2012/06/06 00:07:24.1   0.1                          T                                        4992696
LPG   000.87 205.0 m E Sg      2012/06/06 00:07:35.5   0.2                          T                7.8  .26 Ml 2.2 Md 2.4  4992695
CABF  000.88 292.2 m E Pg      2012/06/06 00:07:24.1   0.0                          T                                        4988199
CABF  000.88 292.2 m E Sn      2012/06/06 00:07:37.8  -0.2                          T                8.7  .21 Ml 2.4 Md 2.5  4988192
HINF  001.56 349.6 m E Pn      2012/06/06 00:07:34.7   0.2                          T                                        4992708
HINF  001.56 349.6 m E Pg      2012/06/06 00:07:36.5   0.0                          T                                        4988198
HINF  001.56 349.6 m E Sg      2012/06/06 00:07:56.3  -0.4                          T               15.7  .24 Ml 2.9         4988191
MBDF  001.60 192.9 m E Pn      2012/06/06 00:07:35.1   0.0                          T                                        4992685
MBDF  001.60 192.9 m E Pg      2012/06/06 00:07:37.4   0.0                          T                                        4992691
MBDF  001.60 192.9 m E Sg      2012/06/06 00:07:58.0   0.1                          T               22.9  .64 Ml 2.6         4992690
HAU   001.83 340.2 m E Pn      2012/06/06 00:07:38.3   0.1                          T                                        4992709
HAU   001.83 340.2 m E Pg      2012/06/06 00:07:41.6   0.0                          T                                        4988197
HAU   001.83 340.2 m E Sg      2012/06/06 00:08:04.9  -0.3                          T               10.2  .25 Ml 2.6         4988190
ORIF  001.68 216.1 m E Pg      2012/06/06 00:07:39.1   0.3                          T                                        4992693
ORIF  001.68 216.1 m E Sg      2012/06/06 00:08:00.6   0.2                          T                6.8  .28 Ml 2.5         4992692
CDF   002.13 000.1 m E Pn      2012/06/06 00:07:42.7   0.4                          T                                        4992715
CDF   002.13 000.1 m E Pg      2012/06/06 00:07:47.2   0.1                          T                                        4988196
CDF   002.13 000.1 m E Sg      2012/06/06 00:08:14.2  -0.3                          T                9.8  .46 Ml 2.7         4992716
VIVF  002.32 232.9 m E Pn      2012/06/06 00:07:44.9   0.1                          T                                        4992689
VIVF  002.32 232.9 m E Pg      2012/06/06 00:07:50.4  -0.1                          T                                        4992688
VIVF  002.32 232.9 m E Sn      2012/06/06 00:08:12.4   0.2                          T                                        4992686
VIVF  002.32 232.9 m E Sg      2012/06/06 00:08:20.8   0.5                          T                4.7  .20 Ml 2.6         4992687
SMF   002.40 279.9 m E Pn      2012/06/06 00:07:46.0   0.1                          T                                        4992707
SMF   002.40 279.9 m E Pg      2012/06/06 00:07:52.3   0.4                          T                                        4992706
SMF   002.40 279.9 m E Sn      2012/06/06 00:08:13.9  -0.3                          T                                        4992705
SMF   002.40 279.9 m E Sg      2012/06/06 00:08:22.7  -0.1                          T                3.7  .21 Ml 2.5         4992704
SBF   002.42 177.2 m E Pn      2012/06/06 00:07:46.5   0.2                          T                                        4992684
SBF   002.42 177.2 m E Pg      2012/06/06 00:07:51.3  -1.2                          T                                        4992683
SBF   002.42 177.2 m E Sg      2012/06/06 00:08:23.7   0.1                          T                1.3  .18 Ml 2.1         4992682
THEF  002.13 336.4 m E Pg      2012/06/06 00:07:46.7  -0.4                          T                                        4988195
THEF  002.13 336.4 m E Sg      2012/06/06 00:08:14.0  -0.5                          T                3.2  .20 Ml 2.4         4988189
SMRF  002.60 208.1 m E Pn      2012/06/06 00:07:48.3  -0.4                          T                                        4992671
SMRF  002.60 208.1 m E Sn      2012/06/06 00:08:19.1   0.1                          T                 .4  .21 Ml 1.6         4992670
SSF   002.71 288.1 m E Pn      2012/06/06 00:07:49.9  -0.2                          T                                        4992672
SSF   002.71 288.1 m E Sn      2012/06/06 00:08:20.6  -0.9                          T                                        4992673
SSF   002.71 288.1 m E Sg      2012/06/06 00:08:32.4   0.0                          T                3.6  .34 Ml 2.5         4992674
LANF  002.72 007.4 m E Pn      2012/06/06 00:07:50.6   0.3                          T                                        4992718
LANF  002.72 007.4 m E Sn      2012/06/06 00:08:21.3  -0.6                          T                 .8  .14 Ml 2.1         4992717
FRF   002.76 189.5 m E Pn      2012/06/06 00:07:50.8   0.0                          T                                        4992681
FRF   002.76 189.5 m E Pg      2012/06/06 00:07:59.2   0.6                          T                                        4992680
FRF   002.76 189.5 m E Sn      2012/06/06 00:08:22.9   0.2                          T                 .7  .27 Ml 1.8         4992679
AVF   002.75 282.0 m E Pn      2012/06/06 00:07:50.9   0.2                          T                                        4992676
AVF   002.75 282.0 m E Sn      2012/06/06 00:08:23.0   0.5                          T                 .5  .23 Ml 1.7         4992675
PAGF  002.50 335.8 m E Pg      2012/06/06 00:07:53.0  -0.9                          T                                        4988194
PAGF  002.50 335.8 m E Sn      2012/06/06 00:08:16.7   0.1                          T                                        4992714
PAGF  002.50 335.8 m E Sg      2012/06/06 00:08:26.3   0.3                          T                2.2  .20 Ml 2.4         4992713
SFTF  002.45 322.5 m E Pg      2012/06/06 00:07:53.3   0.4 141.0  0.2               T                                        4992712
SFTF  002.45 322.5 m E Sg      2012/06/06 00:08:24.3  -0.1                          T                3.5  .21 Ml 2.5         4988188
LOR   002.54 294.0 m E Pg      2012/06/06 00:07:53.7  -0.9 115.0  3.4               T                                        4988193
LOR   002.54 294.0 m E Sg      2012/06/06 00:08:27.2  -0.2                          T                4.3  .33 Ml 2.4         4988187
BGF   003.07 276.7 m E Pn      2012/06/06 00:07:54.7  -0.3                          T                                        4992698
BGF   003.07 276.7 m E Sn      2012/06/06 00:08:28.8  -1.4                          T                                        4992700
BGF   003.07 276.7 m E Sg      2012/06/06 00:08:43.9   0.0                          T                2.2  .24 Ml 2.4         4992699
MEZF  002.68 326.6 m E Pg      2012/06/06 00:07:57.0  -0.1                          T                                        4992710
MEZF  002.68 326.6 m E Sg      2012/06/06 00:08:32.9   1.3                          T                8.2  .41 Ml 2.7         4992711
LASF  003.27 228.8 m E Pn      2012/06/06 00:07:57.7  -0.1                          T                                        4992678
LASF  003.27 228.8 m E Sn      2012/06/06 00:08:34.4  -0.6                          T                 .9  .26 Ml 2.0         4992677
HYF   003.33 288.9 m E Pn      2012/06/06 00:07:58.8   0.2                          T                                        4992703
HYF   003.33 288.9 m E Sn      2012/06/06 00:08:36.4  -0.1                          T                                        4992702
HYF   003.33 288.9 m E Sg      2012/06/06 00:08:51.4  -0.5                          T                                        4992701

.
EVENT     277619
    Date      Time       Latitude Longitude    Depth    Ndef Nsta Gap    Mag1  N    Mag2  N    Mag3  N   Author         ID
       rms   OT_Error      Smajor Sminor Az        Err   mdist  Mdist     Err        Err        Err      Quality

2012/06/06 01:20:46.4     42.3332    2.1261      2.0      25    4 070  Ml 1.1  4                         bulletin    277728
                                                                                                         _ldg
      1.07   +-  0.09       2.0    1.6   13.72 +-  0.0    0.06   2.59   +-0.1                            m i ke

PYRENEES
Sta     Dist  EvAz     Phase      Date       Time     TRes  Azim  AzRes  Slow  SRes Def   SNR       Amp   Per   Mag1   Mag2       ID
MTLF  001.01 003.8 m E Pg      2012/06/06 01:21:05.6   0.3                          T                                        5000348
MTLF  001.01 003.8 m E Sg      2012/06/06 01:21:19.3   0.9                          T                 .5  .27 Ml 1.1         5000349
EPF   001.49 298.5 m E Pg      2012/06/06 01:21:13.9  -0.3                          T                                        5000356
EPF   001.49 298.5 m E Sg      2012/06/06 01:21:32.4  -1.1                          T                 .2  .21 Ml 1.0         5000358
ETSF  002.06 286.8 m E Pg      2012/06/06 01:21:24.7  -0.1                          T                                        5000355
ETSF  002.06 286.8 m E Sg      2012/06/06 01:21:50.3  -1.0                          T                 .2  .18 Ml 1.2         5000357
CAF   002.59 359.0 m E Pn      2012/06/06 01:21:27.1  -0.4                          T                                        5000354

.
