EVENT     280509
    Date      Time       Latitude Longitude    Depth    Ndef Nsta Gap    Mag1  N    Mag2  N    Mag3  N   Author         ID
       rms   OT_Error      Smajor Sminor Az        Err   mdist  Mdist     Err        Err        Err      Quality

2012/08/03 19:57:23.6     43.9604   16.7702      2.0     340   37 014  Ml 4.5 25                         bulletin    280609
                                                                                                         _ldg
      1.08   +-  0.06       1.9    1.6   45.26 +-  0.0    0.84  20.00   +-0.3                            m i ke

NORTHWESTERN BALKAN PEN.
Sta     Dist  EvAz     Phase      Date       Time     TRes  Azim  AzRes  Slow  SRes Def   SNR       Amp   Per   Mag1   Mag2       ID
PGF   005.85 258.7 m E Pn      2012/08/03 19:58:53.4   4.3                          T                                        5038668
PGF   005.85 258.7 m E Sn      2012/08/03 19:59:51.3  -1.5                          T               80.2  .90 Ml 4.3         5038687
SBF   006.74 272.4 m E Pn      2012/08/03 19:59:04.1   2.7                          T   013.7                                5038647
SBF   006.74 272.4 m E Sn      2012/08/03 20:00:13.9  -0.3                          T              169.0  .54 Ml 4.7         5038686
MBDF  007.21 279.6 m E Pn      2012/08/03 19:59:09.4   1.6                          T   011.4                                5038652
MBDF  007.21 279.6 m E Sn      2012/08/03 20:00:24.8  -0.7                          T              202.7  .86 Ml 4.7         5038680
LPG   007.30 285.6 m E Pn      2012/08/03 19:59:12.2   3.0                          T   005.6                                5038644
LPG   007.30 285.6 m E Sn      2012/08/03 20:00:27.2  -0.5                          T              171.0  .70 Ml 4.7         5038683
FRF   007.34 270.4 m E Pn      2012/08/03 19:59:12.4   3.0                          T   014.9                                5038638
LPL   007.32 285.8 m E Pn      2012/08/03 19:59:12.4   3.1                          T   004.2                                5038645
LPL   007.32 285.8 m E Sn      2012/08/03 20:00:27.8  -0.3                          T              168.7  .66 Ml 4.7         5038682
FRF   007.34 270.4 m E Sn      2012/08/03 20:00:28.2  -0.2                          T               58.9  .68 Ml 4.3         5038684
LMR   007.47 268.7 m E Pn      2012/08/03 19:59:13.8   2.7                          T   003.4                                5038642
LMR   007.47 268.7 m E Sn      2012/08/03 20:00:31.3  -0.1                          T               20.2  .48 Ml 4.0         5038685
ORIF  007.85 280.8 m E Pn      2012/08/03 19:59:19.7   3.2                          T   008.6                                5038653
ORIF  007.85 280.8 m E Sn      2012/08/03 20:00:40.2  -0.5                          T              138.7  .62 Ml 4.7         5038681
HINF  007.92 302.6 m E Pn      2012/08/03 19:59:20.4   3.0                          T                                        5038666
HINF  007.92 302.6 m E Sn      2012/08/03 20:00:42.4   0.1                          T              117.7  .78 Ml 4.6         5038671
CDF   007.95 307.4 m E Pn      2012/08/03 19:59:20.4   2.7                          T                                        5038660
LANF  007.97 312.2 m E Pn      2012/08/03 19:59:20.9   3.0                          T                                        5038659
CABF  007.99 293.1 m E Pn      2012/08/03 19:59:20.9   2.6                          T   015.0                                5038651
CABF  007.99 293.1 m E Sn      2012/08/03 20:00:44.3   0.3                          T               67.7  .76 Ml 4.4         5045737
SMRF  008.08 274.0 m E Pn      2012/08/03 19:59:23.4   4.0                          T   007.9                                5038656
SMRF  008.08 274.0 m E Sn      2012/08/03 20:00:46.4   0.3                          T               40.8  .78 Ml 4.1         5045733
HAU   008.31 302.8 m E Pn      2012/08/03 19:59:25.5   2.9                          T                                        5038665
HAU   008.31 302.8 m E Sn      2012/08/03 20:00:51.6   0.1                          T              166.1  .68 Ml 4.6         5038670
VIVF  008.71 280.1 m E Pn      2012/08/03 19:59:30.3   2.3                          T   006.5                                5038655
VIVF  008.71 280.1 m E Sn      2012/08/03 20:01:01.1  -0.1                          T               25.5  .68 Ml 4.1         5038679
THEF  008.62 303.4 m E Pn      2012/08/03 19:59:30.5   3.7                          T                                        5038664
THEF  008.62 303.4 m E Sn      2012/08/03 20:00:59.4   0.5                          T              124.6 1.08 Ml 4.6         5038669
PAGF  008.92 304.9 m E Pn      2012/08/03 19:59:35.8   4.8 122.8  5.9               T                                        5038661
SFTF  009.19 301.6 m E Pn      2012/08/03 19:59:37.9   3.3 129.6  16.4              T                                        5038663
LASF  009.31 275.2 m E Pn      2012/08/03 19:59:38.5   2.3                          T   004.7                                5038640
LASF  009.31 275.2 m E Sn      2012/08/03 20:01:15.1  -0.3                          T               22.7  .78 Ml 4.1         5038678
MEZF  009.30 303.3 m E Pn      2012/08/03 19:59:39.9   3.9 116.0  1.2               T                                        5038662
MEZF  009.30 303.3 m E Sn      2012/08/03 20:01:16.9   1.7                          T               39.1  .70 Ml 4.4         5045738
SMF   009.50 290.9 m E Pn      2012/08/03 19:59:41.0   2.2                          T   006.7                                5038648
SMF   009.50 290.9 m E Sn      2012/08/03 20:01:20.3   0.4                          T               78.2  .66 Ml 4.7         5038675
LOR   009.63 294.6 m E Pn      2012/08/03 19:59:43.4   2.8 116.6  11.2              T   024.1                                5038643
LOR   009.63 294.6 m E Sn      2012/08/03 20:01:23.6   0.4                          T               61.2  .62 Ml 4.7         5038688
SSF   009.81 293.0 m E Pn      2012/08/03 19:59:45.4   2.4                          T   010.5                                5038649
SSF   009.81 293.0 m E Sn      2012/08/03 20:01:27.2  -0.3                          T               35.6  .66 Ml 4.5         5038672
AVF   009.86 291.4 m E Pn      2012/08/03 19:59:46.3   2.7                          T   012.3                                5038634
AVF   009.86 291.4 m E Sn      2012/08/03 20:01:28.6   0.1                          T               33.7  .86 Ml 4.3         5038674
BGF   010.16 289.7 m E Pn      2012/08/03 19:59:51.1   3.4                          T   010.0                                5038635
BGF   010.16 289.7 m E Sn      2012/08/03 20:01:35.6   0.0                          T               66.0  .60 Ml 4.8         5038677
GIVF  010.20 311.2 m E Pn      2012/08/03 19:59:52.9   4.6                          T                                        5038658
HYF   010.44 293.4 m E Pn      2012/08/03 19:59:53.0   1.5                          T                                        5045736
HYF   010.44 293.4 m E Sn      2012/08/03 20:01:42.0  -0.4                          T                                        5038676
CAF   010.56 280.4 m E Pn      2012/08/03 19:59:54.9   1.6                          T   001.3                                5038636
CAF   010.56 280.4 m E Sn      2012/08/03 20:01:45.7   0.3                          T               19.9  .76 Ml 4.2         5045735
MTLF  010.57 271.7 m E Pn      2012/08/03 19:59:54.9   1.6                          T                                        5038667
BAIF  010.52 309.8 m E Pn      2012/08/03 19:59:57.3   4.7                          T                                        5038657
TCF   010.55 287.8 m E Pn      2012/08/03 19:59:57.6   4.5                          T   015.9                                5038650
TCF   010.55 287.8 m E Sn      2012/08/03 20:01:45.3   0.2                          T               29.7  .70 Ml 4.5         5038673
RJF   010.96 282.3 m E Pn      2012/08/03 19:59:59.4   0.8                          T   000.6                                5038633
EPF   011.97 271.2 m E Pn      2012/08/03 20:00:12.7   0.2                          T                                        5045734
MFF   012.21 288.4 m E Pn      2012/08/03 20:00:16.4   0.8                          T   001.8                                5038646
LDF   012.57 297.5 m E Pn      2012/08/03 20:00:21.4   0.9                          T   003.2                                5038641
GRR   012.99 296.1 m E Pn      2012/08/03 20:00:27.2   0.9                          T   004.6                                5038639
FLN   012.84 298.0 m E Pn      2012/08/03 20:00:27.8   3.5 114.8  9.3               T   009.4                                5038637

.
EVENT     280510
    Date      Time       Latitude Longitude    Depth    Ndef Nsta Gap    Mag1  N    Mag2  N    Mag3  N   Author         ID
       rms   OT_Error      Smajor Sminor Az        Err   mdist  Mdist     Err        Err        Err      Quality

2012/08/03 21:08:03.3     44.0116    7.6841      2.0      88   23 055  Ml 2.8 25  Md 2.9  3              bulletin    280610
                                                                                                         _ldg
      0.76   +-  0.08       1.7    1.5   54.37 +-  0.0    0.10   4.81   +-0.4      +-0.1                 m i ke

NORTHERN ITALY
Sta     Dist  EvAz     Phase      Date       Time     TRes  Azim  AzRes  Slow  SRes Def   SNR       Amp   Per   Mag1   Mag2       ID
SBF   000.23 230.5 m E Pg      2012/08/03 21:08:07.9  -0.1                          T   001.0                        Md 2.8  5038711
SBF   000.23 230.5 m E Sg      2012/08/03 21:08:11.2   0.0                          T              422.9  .41                5038753
FRF   000.88 239.4 m E Pg      2012/08/03 21:08:19.7   0.0                          T   001.0                                5038694
FRF   000.88 239.4 m E Pn      2012/08/03 21:08:20.9  -0.1                          T                                        5038819
FRF   000.88 239.4 m E Sg      2012/08/03 21:08:31.1  -0.1                          T   001.0       36.7  .26 Ml 3.0 Md 3.0  5038696
FRF   000.88 239.4 m E Sn      2012/08/03 21:08:33.8   0.1                          T              101.9  .22 Ml 3.5         5038820
MBDF  000.97 317.8 m E Pg      2012/08/03 21:08:20.6  -1.1                          T                                        5038752
MBDF  000.97 317.8 m E Sg      2012/08/03 21:08:33.8  -0.4                          T               73.8  .30 Ml 3.2 Md 3.0  5038751
LMR   001.09 231.9 m E Pg      2012/08/03 21:08:23.7   0.0                          T   001.0                                5038702
LMR   001.09 231.9 m E Sn      2012/08/03 21:08:38.7   0.0                          T   001.0      104.5  .30 Ml 3.4         5038704
SMRF  001.52 269.4 m E Pn      2012/08/03 21:08:31.6   1.7                          T   001.0                                5038726
SMRF  001.52 269.4 m E Sn      2012/08/03 21:08:48.9  -0.2                          T   001.0                                5038727
SMRF  001.52 269.4 m E Sg      2012/08/03 21:08:51.6   0.2                          T              101.0  .36 Ml 3.5         5045739
LPG   001.63 336.2 m E Pn      2012/08/03 21:08:31.8   0.1                          T   001.0                                5038707
LPG   001.63 336.2 m E Sn      2012/08/03 21:08:52.0   0.0                          T                8.3  .34 Ml 2.5         5038818
LPG   001.63 336.2 m E Sg      2012/08/03 21:08:55.2   0.2                          T               14.6  .40 Ml 2.7         5045740
ORIF  001.58 305.7 m E Pn      2012/08/03 21:08:31.8   1.1                          T   001.0                                5038720
ORIF  001.58 305.7 m E Sn      2012/08/03 21:08:50.5   0.0                          T   001.0                                5038721
ORIF  001.58 305.7 m E Sg      2012/08/03 21:08:53.3   0.1                          T               21.7  .32 Ml 2.9         5038814
PGF   001.75 146.3 m E Pn      2012/08/03 21:08:32.0  -1.0                          T   001.0                                5038709
PGF   001.75 146.3 m E Sn      2012/08/03 21:08:53.0  -1.6                          T   001.0       25.8  .22 Ml 3.5         5038710
LPL   001.65 336.1 m E Pn      2012/08/03 21:08:32.1   0.2                          T   001.0                                5038708
LPL   001.65 336.1 m E Sn      2012/08/03 21:08:52.5   0.1                          T               10.1  .34 Ml 2.6         5038817
LPL   001.65 336.1 m E Sg      2012/08/03 21:08:55.9   0.3                          T               11.4  .28 Ml 2.7         5045741
VIVF  002.32 292.4 m E Pn      2012/08/03 21:08:42.2   1.5                          T   001.0                                5038722
VIVF  002.32 292.4 m E Sn      2012/08/03 21:09:08.5   0.4                          T   001.0                                5038724
VIVF  002.32 292.4 m E Sg      2012/08/03 21:09:16.5   0.4                          T               10.2  .38 Ml 2.7         5038816
LASF  002.76 272.7 m E Pn      2012/08/03 21:08:47.5   0.8                          T   001.0                                5038699
LASF  002.76 272.7 m E Sn      2012/08/03 21:09:19.3   0.6                          T   001.0                                5038700
LASF  002.76 272.7 m E Sg      2012/08/03 21:09:30.2   0.1                          T                3.9  .32 Ml 2.5         5038815
CABF  002.83 337.1 m E Pn      2012/08/03 21:08:48.8   1.0                          T   001.0                                5038714
CABF  002.83 337.1 m E Sn      2012/08/03 21:09:20.6   0.1                          T   001.0                                5038715
CABF  002.83 337.1 m E Sg      2012/08/03 21:09:32.6   0.2                          T                4.2  .46 Ml 2.4         5045744
SMF   003.78 315.5 m E Pn      2012/08/03 21:09:01.6   1.1                          T   001.0                                5038712
SMF   003.78 315.5 m E Sn      2012/08/03 21:09:44.6   1.6                          T   001.0        2.0  .31 Ml 2.4         5038713
HINF  003.85 351.6 m E Pn      2012/08/03 21:09:01.8   0.2                          T   001.0                                5038716
HINF  003.85 351.6 m E Sn      2012/08/03 21:09:44.9   0.2                          T   001.0        2.7  .40 Ml 2.5         5038717
MTLF  004.02 262.3 m E Pn      2012/08/03 21:09:04.4   0.5                          T   001.0                                5038718
MTLF  004.02 262.3 m E Sn      2012/08/03 21:09:49.2   0.4                          T   001.0        1.8  .28 Ml 2.5         5038719
CAF   004.13 284.8 m E Pn      2012/08/03 21:09:05.5   0.2                          T   001.0                                5038692
CAF   004.13 284.8 m E Sn      2012/08/03 21:09:51.3   0.0                          T                1.5  .31 Ml 2.3         5045742
HAU   004.10 347.4 m E Pn      2012/08/03 21:09:06.0   0.9                          T   001.0                                5038697
HAU   004.10 347.4 m E Sn      2012/08/03 21:09:50.9   0.1                          T   001.0        3.9  .28 Ml 2.6         5038698
AVF   004.13 313.8 m E Pn      2012/08/03 21:09:06.2   1.0                          T   001.0                                5038689
AVF   004.13 313.8 m E Sn      2012/08/03 21:09:51.3   0.0                          T                 .7  .24 Ml 2.1         5038749
BGF   004.26 308.4 m E Pn      2012/08/03 21:09:07.4   0.3                          T   001.0                                5038690
BGF   004.26 308.4 m E P       2012/08/03 21:09:10.8   0.1                          T                                        5045743
BGF   004.26 308.4 m E Sg      2012/08/03 21:10:16.8   0.1                          T   001.0        6.6  .51 Ml 2.8         5038691
LOR   004.22 321.9 m E Pn      2012/08/03 21:09:07.6   1.0                          T   001.0                                5038705
LOR   004.22 321.9 m E Sn      2012/08/03 21:09:54.0   0.5                          T   001.0        2.8  .34 Ml 2.6         5038706
CDF   004.41 356.5 m E Pn      2012/08/03 21:09:10.2   0.9                          T   001.0                                5038693
CDF   004.41 356.5 m E Sn      2012/08/03 21:09:58.5   0.2                          T                1.3  .34 Ml 2.4         5045745
TCF   004.49 302.4 m E Pn      2012/08/03 21:09:11.2   0.9                          T                                        5038748
HYF   004.81 314.4 m E Pn      2012/08/03 21:09:14.8   0.2                          T                                        5038750

.
EVENT     280559
    Date      Time       Latitude Longitude    Depth    Ndef Nsta Gap    Mag1  N    Mag2  N    Mag3  N   Author         ID
       rms   OT_Error      Smajor Sminor Az        Err   mdist  Mdist     Err        Err        Err      Quality

2012/08/03 21:37:03.8     44.0332    7.7276      2.0 f     7    4 275  Ml 1.4  3  Md 1.6  1              bulletin    280659
                                                                                                         _ldg
      0.50   +-  1.02      19.1    9.1   90.86 +-  0.0    0.27   1.13   +-0.2      +-                    m i ke

NORTHERN ITALY
Sta     Dist  EvAz     Phase      Date       Time     TRes  Azim  AzRes  Slow  SRes Def   SNR       Amp   Per   Mag1   Mag2       ID
SBF   000.27 231.3 m E Pg      2012/08/03 21:37:09.1  -0.1                          T                                        5041870
SBF   000.27 231.3 m E Sg      2012/08/03 21:37:12.2  -0.7                          T                8.4  .54        Md 1.6  5041865
FRF   000.91 239.3 m E Pg      2012/08/03 21:37:21.5   0.6                          T                                        5041869
FRF   000.91 239.3 m E Sg      2012/08/03 21:37:33.5   0.7                          T                1.2  .24 Ml 1.5         5041866
LMR   001.13 232.1 m E Pg      2012/08/03 21:37:24.3  -0.5                          T                                        5041868
LMR   001.13 232.1 m E Sg      2012/08/03 21:37:38.9  -0.6                          T                1.2  .28 Ml 1.5         5041867
MBDF  000.98 315.7 m E Sg      2012/08/03 21:37:34.7  -0.3                          T                 .8  .28 Ml 1.2         5045746

.
