EVENT     276236
    Date      Time       Latitude Longitude    Depth    Ndef Nsta Gap    Mag1  N    Mag2  N    Mag3  N   Author         ID
       rms   OT_Error      Smajor Sminor Az        Err   mdist  Mdist     Err        Err        Err      Quality

2012/05/19 17:09:37.5     44.8098   11.0917      2.0      44   18 223  Ml 2.7 12                         bulletin    276336
                                                                                                         _ldg
      1.30   +-  0.51      11.2    6.3   95.12 +-  0.0    0.99   7.02   +-0.2                            m i ke

NORTHERN ITALY
Sta     Dist  EvAz     Phase      Date       Time     TRes  Azim  AzRes  Slow  SRes Def   SNR       Amp   Per   Mag1   Mag2       ID
PGF   002.72 214.6 m E Pn      2012/05/19 17:10:19.7  -0.9                          T                                        4948833
PGF   002.72 214.6 m E Sn      2012/05/19 17:10:52.7   0.6                          T                5.2  .27 Ml 2.9         4948856
SBF   002.79 251.4 m E Pn      2012/05/19 17:10:21.8   0.4                          T                                        4948871
SBF   002.79 251.4 m E Sn      2012/05/19 17:10:54.0   0.4                          T                5.9  .23 Ml 2.8         4948855
LPL   003.16 284.4 m E Pn      2012/05/19 17:10:27.0   0.3                          T                                        4948868
LPL   003.16 284.4 m E Sn      2012/05/19 17:11:03.0   0.2                          T                                        4948852
LPG   003.15 284.2 m E Pn      2012/05/19 17:10:27.4   0.8                          T                                        4948869
LPG   003.15 284.2 m E Sn      2012/05/19 17:11:02.4  -0.1                          T                1.7  .26 Ml 2.3         4948853
FRF   003.43 250.2 m E Pn      2012/05/19 17:10:29.8  -0.3                          T                                        4948831
FRF   003.43 250.2 m E Sn      2012/05/19 17:11:09.1   0.2                          T                1.9  .19 Ml 2.6         4948854
LMR   003.62 247.5 m E Pn      2012/05/19 17:10:31.3  -1.3                          T                                        4948832
LMR   003.62 247.5 m E Sn      2012/05/19 17:11:13.5   0.2                          T                5.2  .30 Ml 2.8         4948870
ORIF  003.71 273.5 m E Pn      2012/05/19 17:10:33.9   0.0                          T                                        4948830
ORIF  003.71 273.5 m E Sn      2012/05/19 17:11:15.4  -0.2                          T                                        4948851
CABF  003.94 299.0 m E Pn      2012/05/19 17:10:37.9   0.7                          T                                        4948828
CABF  003.94 299.0 m E Sn      2012/05/19 17:11:21.6   0.4                          T                2.1  .26 Ml 2.6         4948861
HINF  004.20 317.2 m E Pn      2012/05/19 17:10:39.6  -1.0                          T                                        4948827
HINF  004.20 317.2 m E Sn      2012/05/19 17:11:26.3  -1.1                          T                3.1  .29 Ml 2.7         4948863
CDF   004.46 325.2 m E Pn      2012/05/19 17:10:41.8  -2.4                          T                                        4948826
CDF   004.46 325.2 m E Sn      2012/05/19 17:11:31.2  -2.4                          T                1.8  .19 Ml 2.9         4948860
HAU   004.58 315.9 m E Pn      2012/05/19 17:10:43.4  -2.3                          T                                        4948865
HAU   004.58 315.9 m E Sn      2012/05/19 17:11:34.3  -2.1                          T                5.7  .35 Ml 2.8         4948862
VIVF  004.57 272.8 m E Pn      2012/05/19 17:10:44.3  -1.3                          T                                        4948867
VIVF  004.57 272.8 m E Sn      2012/05/19 17:11:36.5   0.5                          T                                        4948849
SMF   005.40 292.4 m E Pn      2012/05/19 17:10:55.4  -1.4                          T                                        4948866
SMF   005.40 292.4 m E Sn      2012/05/19 17:11:56.3   0.4                          T                                        4948848
MBDF  003.08 270.0 m E Sn      2012/05/19 17:10:59.2  -1.5                          T                                        4948850
AVF   005.76 292.8 m E Pn      2012/05/19 17:11:00.8  -0.9                          T                                        4948829
LOR   005.60 298.6 m E Pn      2012/05/19 17:11:02.1   2.4                          T                                        4948864
LOR   005.60 298.6 m E Sn      2012/05/19 17:11:59.5  -1.3                          T                2.1  .29 Ml 2.9         4948859
BAIF  007.02 320.8 m E Pn      2012/05/19 17:11:19.5   0.5                          T                                        4948858
BAIF  007.02 320.8 m E Sn      2012/05/19 17:12:34.6  -0.1                          T                 .7  .33 Ml 2.6         4948857
TCF   006.41 286.5 m E Sn      2012/05/19 17:12:20.3   0.2                          T                                        4948847

.
EVENT     276633
    Date      Time       Latitude Longitude    Depth    Ndef Nsta Gap    Mag1  N    Mag2  N    Mag3  N   Author         ID
       rms   OT_Error      Smajor Sminor Az        Err   mdist  Mdist     Err        Err        Err      Quality

2012/05/19 20:16:50.0     43.0548    -.3479      2.0       6    3 177             Md 1.3  3              js067245    276733

      0.31   +-  0.18       7.2    2.8  173.91 +-  0.0    0.22   0.65              +-0.2                 m i ke

PYRENEES
Sta     Dist  EvAz     Phase      Date       Time     TRes  Azim  AzRes  Slow  SRes Def   SNR       Amp   Per   Mag1   Mag2       ID
ETSF  000.22 224.9 m E Pg      2012/05/19 20:16:54.4  -0.1                          T                                        4958426
ETSF  000.22 224.9 m E Sg      2012/05/19 20:16:57.6   0.1                          T                6.4  .42        Md 1.5  4958425
EPF   000.50 092.5 m E Pg      2012/05/19 20:16:59.7   0.0                          T                                        4958422
EPF   000.50 092.5 m E Sg      2012/05/19 20:17:06.6   0.2                          T                4.1  .36        Md 1.1  4958424
SJPF  000.65 275.5 m E Pg      2012/05/19 20:17:02.0  -0.3                          T                                        4958423
SJPF  000.65 275.5 m E Sg      2012/05/19 20:17:11.5   0.8                          T                1.5  .23        Md 1.2  4958427

.
EVENT     276634
    Date      Time       Latitude Longitude    Depth    Ndef Nsta Gap    Mag1  N    Mag2  N    Mag3  N   Author         ID
       rms   OT_Error      Smajor Sminor Az        Err   mdist  Mdist     Err        Err        Err      Quality

2012/05/19 21:27:30.0     42.8136     .2549      5.0 f    12    3 084  Ml 0.9  1  Md 1.1  2              js067245    276734

      0.30   +-  0.07       1.4    1.2   14.50 +-  0.0    0.16   1.53   +-         +-0.2                 m i ke

PYRENEES
Sta     Dist  EvAz     Phase      Date       Time     TRes  Azim  AzRes  Slow  SRes Def   SNR       Amp   Per   Mag1   Mag2       ID
EPF   000.23 016.1 m E Pg      2012/05/19 21:27:34.6  -0.1                          T                                        4963311
EPF   000.23 016.1 m E Sg      2012/05/19 21:27:37.9   0.0                          T                5.2  .18        Md 1.0  4963310
ETSF  000.60 278.4 m E Pg      2012/05/19 21:27:41.6   0.0                          T                                        4963308
ETSF  000.60 278.4 m E Sg      2012/05/19 21:27:49.5  -0.1                          T                1.0  .22        Md 1.2  4963309
MTLF  001.53 069.2 m E Sg      2012/05/19 21:28:18.3  -0.1                          T                 .1  .15 Ml  .9         4981462

.
EVENT     276237
    Date      Time       Latitude Longitude    Depth    Ndef Nsta Gap    Mag1  N    Mag2  N    Mag3  N   Author         ID
       rms   OT_Error      Smajor Sminor Az        Err   mdist  Mdist     Err        Err        Err      Quality

2012/05/19 23:13:26.9     44.9102   11.3852      2.0     311   41 013  Ml 4.2 19                         bulletin    276337
                                                                                                         _ldg
      1.00   +-  0.06       1.8    1.4   48.52 +-  0.0    0.24  22.58   +-0.3                            m i ke

NORTHERN ITALY
Sta     Dist  EvAz     Phase      Date       Time     TRes  Azim  AzRes  Slow  SRes Def   SNR       Amp   Per   Mag1   Mag2       ID
PGF   002.93 217.1 m E Pn      2012/05/19 23:14:13.3   0.6                          T                                        4949266
PGF   002.93 217.1 m E Sn      2012/05/19 23:14:45.9  -0.4                          T              606.3  .59 Ml 4.7         4949265
SBF   003.02 251.1 m E Pn      2012/05/19 23:14:14.3   0.4                          T                                        4949264
SBF   003.02 251.1 m E Sn      2012/05/19 23:14:49.0   0.5                          T              772.6  .54 Ml 4.6         4949267
MBDF  003.29 268.4 m E Pn      2012/05/19 23:14:16.9  -0.7                          T                                        4949255
LPL   003.34 282.1 m E Pn      2012/05/19 23:14:20.0   1.5                          T                                        4949257
LPG   003.33 281.8 m E Pn      2012/05/19 23:14:21.1   2.7                          T                                        4949258
FRF   003.66 250.1 m E Pn      2012/05/19 23:14:22.6   0.1                          T                                        4949260
FRF   003.66 250.1 m E Sn      2012/05/19 23:15:03.0  -0.8                          T              236.4  .43 Ml 4.4         4949261
LMR   003.85 247.5 m E Pn      2012/05/19 23:14:25.1   0.0                          T                                        4949263
LMR   003.85 247.5 m E Sn      2012/05/19 23:15:07.3  -0.9                          T              161.7  .34 Ml 4.3         4949262
ORIF  003.91 272.1 m E Pn      2012/05/19 23:14:26.9   0.8                          T                                        4949256
CABF  004.08 296.5 m E Pn      2012/05/19 23:14:28.6   0.3                          T                                        4949222
SMRF  004.26 259.4 m E Pn      2012/05/19 23:14:31.7   0.9                          T                                        4949259
HINF  004.28 314.4 m E Pn      2012/05/19 23:14:31.9   0.9                          T                                        4949221
HINF  004.28 314.4 m E Sn      2012/05/19 23:15:18.0  -0.6                          T               89.1  .25 Ml 4.3         4949271
CDF   004.50 322.5 m E Pn      2012/05/19 23:14:35.2   1.1                          T                                        4949214
CDF   004.50 322.5 m E Sn      2012/05/19 23:15:22.5  -1.5                          T               72.9  .23 Ml 4.4         4949208
HAU   004.66 313.4 m E Pn      2012/05/19 23:14:36.9   0.7                          T                                        4949220
HAU   004.66 313.4 m E Sn      2012/05/19 23:15:26.9  -0.7                          T               84.9  .22 Ml 4.2         4949219
VIVF  004.77 271.7 m E Pn      2012/05/19 23:14:37.1  -0.6                          T                                        4949254
VIVF  004.77 271.7 m E Sn      2012/05/19 23:15:28.7  -1.7                          T               42.2  .46 Ml 3.8         4949253
LANF  004.75 330.2 m E Pn      2012/05/19 23:14:38.9   1.5                          T                                        4949213
PAGF  005.33 315.2 m E Pn      2012/05/19 23:14:46.1   0.8                          T                                        4949215
LASF  005.45 263.8 m E Pn      2012/05/19 23:14:46.3  -0.6                          T                                        4949252
LASF  005.45 263.8 m E Sn      2012/05/19 23:15:45.3  -1.2                          T                                        4949268
SFTF  005.48 309.2 m E Pn      2012/05/19 23:14:48.2   0.9                          T                                        4949216
SFTF  005.48 309.2 m E Sn      2012/05/19 23:15:46.1  -1.1                          T               33.8  .27 Ml 4.1         4949270
SMF   005.56 290.9 m E Pn      2012/05/19 23:14:48.8   0.5                          T                                        4949241
SMF   005.56 290.9 m E Sn      2012/05/19 23:15:47.5  -1.6                          T              141.8  .62 Ml 4.4         4949242
MEZF  005.65 311.8 m E Pn      2012/05/19 23:14:50.9   1.3                          T                                        4949217
MEZF  005.65 311.8 m E Sn      2012/05/19 23:15:49.4  -1.7                          T                                        4949218
LOR   005.74 296.9 m E Pn      2012/05/19 23:14:51.6   0.7                          T                                        4949210
LOR   005.74 296.9 m E Sn      2012/05/19 23:15:52.0  -1.5                          T               63.3  .34 Ml 4.3         4949209
SSF   005.90 294.2 m E Pn      2012/05/19 23:14:53.3   0.3                          T                                        4949236
SSF   005.90 294.2 m E Sn      2012/05/19 23:15:54.4  -2.7                          T               37.6  .50 Ml 4.0         4949237
AVF   005.92 291.4 m E Pn      2012/05/19 23:14:53.9   0.7                          T                                        4949240
AVF   005.92 291.4 m E Sn      2012/05/19 23:15:56.4  -1.2                          T               34.8  .55 Ml 3.9         4949269
BGF   006.20 288.4 m E Pn      2012/05/19 23:14:58.2   1.0                          T                                        4949245
BGF   006.20 288.4 m E Sn      2012/05/19 23:16:03.3  -1.1                          T              126.1  .44 Ml 4.6         4949244
CAF   006.62 273.4 m E Pn      2012/05/19 23:15:03.3   0.4                          T                                        4949248
TCF   006.58 285.3 m E Pn      2012/05/19 23:15:03.4   1.0                          T                                        4949239
TCF   006.58 285.3 m E Sn      2012/05/19 23:16:12.1  -1.5                          T               20.0  .43 Ml 3.9         4949238
MTLF  006.78 259.8 m E Pn      2012/05/19 23:15:04.8  -0.3                          T                                        4949251
GIVF  006.83 321.8 m E Pn      2012/05/19 23:15:06.4   0.7                          T                                        4949212
RJF   007.00 276.7 m E Pn      2012/05/19 23:15:08.2   0.2                          T                                        4949246
BAIF  007.08 319.2 m E Pn      2012/05/19 23:15:09.8   0.7                          T                                        4949211
LFF   007.56 274.0 m E Pn      2012/05/19 23:15:15.5   0.0                          T                                        4949247
MFF   008.24 285.9 m E Pn      2012/05/19 23:15:25.3   0.4                          T                                        4949235
MFF   008.24 285.9 m E Sn      2012/05/19 23:16:51.5  -1.7                          T               13.0  .56 Ml 4.0         4949234
EPF   008.19 260.6 m E Pn      2012/05/19 23:15:28.1   3.8                          T                                        4949250
LDF   008.72 299.1 m E Pn      2012/05/19 23:15:32.0   0.6                          T                                        4949226
LDF   008.72 299.1 m E Sn      2012/05/19 23:17:02.8  -1.8                          T                                        4949225
FLN   009.00 299.6 m E Pn      2012/05/19 23:15:36.3   1.1                          T                                        4949223
FLN   009.00 299.6 m E Sn      2012/05/19 23:17:09.7  -1.6                          T                                        4949224
ETSF  008.86 261.1 m E Pn      2012/05/19 23:15:36.3   3.0                          T                                        4949249
GRR   009.11 296.8 m E Pn      2012/05/19 23:15:36.5  -0.2                          T                                        4949227
GRR   009.11 296.8 m E Sn      2012/05/19 23:17:12.6  -1.4                          T                5.2  .28 Ml 3.7         4949228
SGMF  010.16 294.2 m E Pn      2012/05/19 23:15:51.3   0.2                          T                                        4949231
SGMF  010.16 294.2 m E Sn      2012/05/19 23:17:37.9  -1.3                          T                4.9  .38 Ml 3.9         4949230
QUIF  010.49 291.8 m E Pn      2012/05/19 23:15:56.4   0.9                          T                                        4949232
QUIF  010.49 291.8 m E Sn      2012/05/19 23:17:45.6  -1.2                          T                2.7  .21 Ml 3.9         4949233
HYF   006.52 294.3 m E Sn      2012/05/19 23:16:11.1  -1.0                          T                                        4949243
ROSF  010.65 294.0 m E Sn      2012/05/19 23:17:48.6  -2.1                          T                                        4949229

.
