EVENT     296426
    Date      Time       Latitude Longitude    Depth    Ndef Nsta Gap    Mag1  N    Mag2  N    Mag3  N   Author         ID
       rms   OT_Error      Smajor Sminor Az        Err   mdist  Mdist     Err        Err        Err      Quality

2013/04/18 20:34:00.8     46.3189    7.3777      2.0      14    6 210  Ml 1.6  7  Md 1.6  3              bulletin    296526
                                                                                                         _ldg
      0.18   +-  0.08       2.2     .7   96.40 +-  0.0    0.92   2.10   +-0.3      +-0.0                 m i ke

SWITZERLAND
Sta     Dist  EvAz     Phase      Date       Time     TRes  Azim  AzRes  Slow  SRes Def   SNR       Amp   Per   Mag1   Mag2       ID
CABF  000.94 288.6 m E Pg      2013/04/18 20:34:18.5   0.0                          T                                        5262277
CABF  000.94 288.6 m E Sg      2013/04/18 20:34:30.7   0.0                          T                2.0  .25 Ml 1.7 Md 1.6  5262276
LPL   000.92 209.5 m E Pg      2013/04/18 20:34:18.5   0.2                          T                                        5262673
LPL   000.92 209.5 m E Sg      2013/04/18 20:34:30.5   0.2                          T                1.4  .34 Ml 1.4 Md 1.6  5262676
LPG   000.93 208.3 m E Pg      2013/04/18 20:34:18.7   0.1                          T                                        5262674
LPG   000.93 208.3 m E Sg      2013/04/18 20:34:30.9   0.2                          T                 .8  .23 Ml 1.3 Md 1.6  5262675
HINF  001.54 346.7 m E Pn      2013/04/18 20:34:26.8  -0.8                          T                                        5262274
HINF  001.54 346.7 m E Sg      2013/04/18 20:34:49.5   0.1                          T                1.9  .25 Ml 1.9         5262275
CDF   002.10 358.1 m E Pg      2013/04/18 20:34:39.7  -0.1                          T                                        5262285
CDF   002.10 358.1 m E Sg      2013/04/18 20:35:06.9   0.1                          T                 .4  .21 Ml 1.7         5262283
HAU   001.83 337.8 m E Sg      2013/04/18 20:34:58.6   0.2                          T                1.6  .19 Ml 1.9         5262677

.
EVENT     296423
    Date      Time       Latitude Longitude    Depth    Ndef Nsta Gap    Mag1  N    Mag2  N    Mag3  N   Author         ID
       rms   OT_Error      Smajor Sminor Az        Err   mdist  Mdist     Err        Err        Err      Quality

2013/04/18 20:44:50.0     42.9196     .1752      7.0 f    28    4 077  Ml 1.5  3  Md 1.6  1              bulletin    296523
                                                                                                         _ldg
      0.52   +-  0.05       1.5     .9   21.61 +-  0.0    0.12   1.96   +-0.1      +-                    m i ke

PYRENEES
Sta     Dist  EvAz     Phase      Date       Time     TRes  Azim  AzRes  Slow  SRes Def   SNR       Amp   Per   Mag1   Mag2       ID
EPF   000.16 047.5 m E Pg      2013/04/18 20:44:53.6   0.0                          T                                        5262064
EPF   000.16 047.5 m E Sg      2013/04/18 20:44:55.8  -0.2                          T               12.5  .16        Md 1.6  5262063
ETSF  000.54 268.0 m E Pg      2013/04/18 20:45:00.3  -0.1                          T                                        5262067
ETSF  000.54 268.0 m E Sg      2013/04/18 20:45:07.6   0.1                          T                3.1  .16                5262062
SJPF  001.05 281.2 m E Pg      2013/04/18 20:45:09.8   0.2                          T                                        5262060
SJPF  001.05 281.2 m E Sg      2013/04/18 20:45:23.6   0.4                          T                 .9  .23 Ml 1.4         5262061
MTLF  001.55 073.6 m E Pn      2013/04/18 20:45:17.6   1.3                          T                                        5262065
MTLF  001.55 073.6 m E Sn      2013/04/18 20:45:36.7   1.1                          T                1.2  .34 Ml 1.6         5262066

.
EVENT     296424
    Date      Time       Latitude Longitude    Depth    Ndef Nsta Gap    Mag1  N    Mag2  N    Mag3  N   Author         ID
       rms   OT_Error      Smajor Sminor Az        Err   mdist  Mdist     Err        Err        Err      Quality

2013/04/18 21:25:49.1     47.5579    7.5883     12.0 f   150   30 016  Ml 2.4 43  Md 2.7  2              bulletin    296524
                                                                                                         _ldg
      0.77   +-  0.04        .8     .7  146.03 +-  0.0    0.01   7.34   +-0.3      +-0.1                 m i ke

SWITZERLAND
Sta     Dist  EvAz     Phase      Date       Time     TRes  Azim  AzRes  Slow  SRes Def   SNR       Amp   Per   Mag1   Mag2       ID
HINF  000.56 297.8 m E Pg      2013/04/18 21:25:59.8  -0.1                          T   001.0                                5262101
HINF  000.56 297.8 m E Pn      2013/04/18 21:26:01.3  -0.2                          T                                        5262734
HINF  000.56 297.8 m E Sg      2013/04/18 21:26:07.4  -0.1                          T               45.3  .22                5262735
HINF  000.56 297.8 m E Sn      2013/04/18 21:26:09.9  -0.2                          T   001.0       95.6  .16        Md 2.8  5262102
CDF   000.88 346.3 m E Pg      2013/04/18 21:26:05.6  -0.2                          T                                        5262160
CDF   000.88 346.3 m E Sg      2013/04/18 21:26:17.2  -0.1                          T   001.0       36.5  .25 Ml 3.0         5262075
HAU   000.95 298.6 m E Pg      2013/04/18 21:26:06.9  -0.1                          T   001.0                                5262077
HAU   000.95 298.6 m E Sg      2013/04/18 21:26:19.1  -0.3                          T   001.0       57.7  .23 Ml 3.0 Md 2.6  5262078
THEF  001.27 302.6 m E Pg      2013/04/18 21:26:12.6  -0.2                          T                                        5262428
THEF  001.27 302.6 m E Sg      2013/04/18 21:26:29.9   0.7                          T                                        5262429
CABF  001.40 227.8 m E Pn      2013/04/18 21:26:12.7  -0.2                          T                                        5262164
CABF  001.40 227.8 m E Pg      2013/04/18 21:26:15.4   0.1                          T   001.0                                5262100
CABF  001.40 227.8 m E Sn      2013/04/18 21:26:29.9  -0.2                          T                4.7  .26 Ml 2.3         5262143
CABF  001.40 227.8 m E Sg      2013/04/18 21:26:33.3  -0.1                          T               15.7  .18 Ml 2.9         5262196
LANF  001.43 005.7 m E Pg      2013/04/18 21:26:14.0  -1.9                          T                                        5262566
LANF  001.43 005.7 m E Sg      2013/04/18 21:26:34.2  -0.2                          T                                        5262567
PAGF  001.60 309.3 m E Pn      2013/04/18 21:26:15.6   0.0                          T                                        5263263
PAGF  001.60 309.3 m E Pg      2013/04/18 21:26:18.7  -0.2 131.8  3.9               T                                        5262159
PAGF  001.60 309.3 m E Sn      2013/04/18 21:26:34.8   0.0 120.3  -7.6              T                2.0  .14 Ml 2.2         5262242
PAGF  001.60 309.3 m E Sg      2013/04/18 21:26:39.7   0.1 120.3  -7.6              T               18.5  .22 Ml 3.0         5262158
SFTF  001.83 291.6 m E Pn      2013/04/18 21:26:18.7  -0.1                          T                                        5262199
SFTF  001.83 291.6 m E Pg      2013/04/18 21:26:23.2   0.0 113.4  3.7               T                                        5262144
SFTF  001.83 291.6 m E Sn      2013/04/18 21:26:40.3  -0.2                          T                4.5  .24 Ml 2.4         5262200
SFTF  001.83 291.6 m E Sg      2013/04/18 21:26:46.8  -0.2                          T               23.1  .31 Ml 3.0         5262198
MEZF  001.95 300.0 m E Pn      2013/04/18 21:26:20.3   0.0                          T                                        5263264
MEZF  001.95 300.0 m E Pg      2013/04/18 21:26:25.3   0.0 123.0  4.9               T   001.0                                5262103
MEZF  001.95 300.0 m E Sn      2013/04/18 21:26:43.1  -0.1                          T   001.0        1.9  .20 Ml 2.2         5262104
MEZF  001.95 300.0 m E Sg      2013/04/18 21:26:50.6   0.2                          T   001.0       11.7  .22 Ml 2.9         5262105
LPL   002.13 196.4 m E Pn      2013/04/18 21:26:23.5   0.5                          T                                        5262178
LPL   002.13 196.4 m E Pg      2013/04/18 21:26:28.4  -0.5                          T   001.0                                5262088
LPL   002.13 196.4 m E Sn      2013/04/18 21:26:47.2  -0.5                          T                                        5262177
LPL   002.13 196.4 m E Sg      2013/04/18 21:26:56.4   0.1                          T   001.0        2.8  .22 Ml 2.3         5262089
LPG   002.14 196.0 m E Pn      2013/04/18 21:26:23.8   0.5                          T   001.0                                5262085
LPG   002.14 196.0 m E Pg      2013/04/18 21:26:29.0  -0.2                          T   001.0                                5262086
LPG   002.14 196.0 m E Sn      2013/04/18 21:26:48.2   0.1                          T                                        5262736
LPG   002.14 196.0 m E Sg      2013/04/18 21:26:56.5  -0.3                          T   001.0        4.8  .32 Ml 2.4         5262087
LOR   002.55 264.8 m E Pn      2013/04/18 21:26:28.5   0.0                          T                                        5262732
LOR   002.55 264.8 m E Pg      2013/04/18 21:26:36.6   0.2  89.4  7.3               T   001.0                                5262082
LOR   002.55 264.8 m E Sn      2013/04/18 21:26:57.5   0.0  73.6  -8.5              T   001.0        1.5  .19 Ml 2.3         5262083
LOR   002.55 264.8 m E Sg      2013/04/18 21:27:09.0  -0.2  89.1  7.0               T   001.0        7.1  .21 Ml 2.9         5262084
RUP   002.17 350.9 m E Pg      2013/04/18 21:26:29.6   0.1                          T                                        5262444
SMF   002.72 251.7 m E Pn      2013/04/18 21:26:31.5   0.8                          T                                        5262191
SMF   002.72 251.7 m E Pg      2013/04/18 21:26:39.2  -0.3                          T   001.0                                5262090
SMF   002.72 251.7 m E Sn      2013/04/18 21:27:01.3  -0.3                          T                1.5  .22 Ml 2.2         5262190
SMF   002.72 251.7 m E Sg      2013/04/18 21:27:14.7   0.2                          T   001.0        4.7  .21 Ml 2.7         5262091
SSF   002.82 261.4 m E Pn      2013/04/18 21:26:32.3   0.1                          T   001.0                                5262092
SSF   002.82 261.4 m E Pg      2013/04/18 21:26:40.7  -0.7                          T   001.0                                5262093
SSF   002.82 261.4 m E Sn      2013/04/18 21:27:03.7  -0.4                          T                 .6  .18 Ml 2.0         5262163
SSF   002.82 261.4 m E Sg      2013/04/18 21:27:17.6  -0.1                          T   001.0        2.1  .20 Ml 2.5         5262094
MBDF  002.89 191.6 m E Pn      2013/04/18 21:26:33.4   0.2                          T                                        5263255
MBDF  002.89 191.6 m E Pg      2013/04/18 21:26:42.5  -0.3                          T                                        5262169
MBDF  002.89 191.6 m E Sn      2013/04/18 21:27:05.3  -0.5                          T                                        5262167
MBDF  002.89 191.6 m E Sg      2013/04/18 21:27:19.9   0.0                          T                1.0  .25 Ml 2.0         5262168
ORIF  002.89 204.8 m E Pn      2013/04/18 21:26:33.9   0.7                          T                                        5262175
ORIF  002.89 204.8 m E Pg      2013/04/18 21:26:42.7  -0.1                          T                                        5262176
ORIF  002.89 204.8 m E Sn      2013/04/18 21:27:05.8  -0.1                          T                                        5262174
ORIF  002.89 204.8 m E Sg      2013/04/18 21:27:19.8  -0.3                          T   001.0        5.3  .32 Ml 2.6         5262106
AVF   002.99 256.7 m E Pn      2013/04/18 21:26:35.2   0.7                          T   001.0                                5262070
AVF   002.99 256.7 m E Pg      2013/04/18 21:26:43.9  -0.6                          T                                        5262189
AVF   002.99 256.7 m E Sn      2013/04/18 21:27:07.0   0.0                          T                 .7  .21 Ml 2.0         5262188
AVF   002.99 256.7 m E Sg      2013/04/18 21:27:23.0   0.1                          T   001.0        1.9  .29 Ml 2.3         5262071
GIVF  003.13 325.4 m E Pn      2013/04/18 21:26:36.7   0.3                          T                                        5263265
GIVF  003.13 325.4 m E Pg      2013/04/18 21:26:47.5   0.3                          T                                        5263266
GIVF  003.13 325.4 m E Sn      2013/04/18 21:27:11.5   0.0                          T                1.8  .26 Ml 2.3         5262241
GIVF  003.13 325.4 m E Sg      2013/04/18 21:27:26.8  -0.6                          T                2.3  .21 Ml 2.5         5262240
BAIF  003.36 319.5 m E Pn      2013/04/18 21:26:39.5   0.1                          T                                        5262162
BAIF  003.36 319.5 m E Pg      2013/04/18 21:26:50.7  -0.5                          T                                        5262161
BAIF  003.36 319.5 m E Sn      2013/04/18 21:27:16.8   0.0                          T   001.0         .7  .19 Ml 2.1         5262098
BAIF  003.36 319.5 m E Sg      2013/04/18 21:27:34.4   0.0                          T   001.0        1.1  .21 Ml 2.2         5262099
VIVF  003.38 217.9 m E Pn      2013/04/18 21:26:39.7  -0.1                          T                                        5262173
VIVF  003.38 217.9 m E Pg      2013/04/18 21:26:51.3  -0.4                          T                                        5262172
VIVF  003.38 217.9 m E Sn      2013/04/18 21:27:16.8  -0.5                          T                                        5262170
VIVF  003.38 217.9 m E Sg      2013/04/18 21:27:33.9  -1.1                          T                3.1  .19 Ml 2.7         5262171
HYF   003.37 266.9 m E Pn      2013/04/18 21:26:40.3   0.6                          T                                        5262182
HYF   003.37 266.9 m E Pg      2013/04/18 21:26:51.2  -0.4                          T                                        5262181
HYF   003.37 266.9 m E Sn      2013/04/18 21:27:19.2   2.0                          T                                        5262180
HYF   003.37 266.9 m E Sg      2013/04/18 21:27:34.7  -0.2                          T                                        5262179
BGF   003.39 254.6 m E Pn      2013/04/18 21:26:40.5   0.6                          T   001.0                                5262072
BGF   003.39 254.6 m E Pg      2013/04/18 21:26:51.5  -0.4                          T                                        5262193
BGF   003.39 254.6 m E Sn      2013/04/18 21:27:17.2  -0.5                          T                1.4  .26 Ml 2.3         5262192
BGF   003.39 254.6 m E Sg      2013/04/18 21:27:35.7   0.2                          T   001.0        5.0  .33 Ml 2.7         5262073
SBF   003.70 181.7 m E Pn      2013/04/18 21:26:43.9  -0.2                          T                                        5262166
SBF   003.70 181.7 m E Sn      2013/04/18 21:27:24.5  -0.5                          T                1.6  .33 Ml 2.3         5262165
TCF   003.90 253.0 m E Pn      2013/04/18 21:26:47.5   0.6                          T   001.0                                5262095
TCF   003.90 253.0 m E Pg      2013/04/18 21:27:00.5  -0.8                          T                                        5262187
TCF   003.90 253.0 m E Sn      2013/04/18 21:27:29.8   0.0                          T   001.0         .5  .19 Ml 2.1         5262096
TCF   003.90 253.0 m E Sg      2013/04/18 21:27:51.2  -0.1                          T   001.0         .7  .24 Ml 2.1         5262097
FRF   004.05 189.7 m E Pn      2013/04/18 21:26:48.4  -0.5                          T                                        5263269
FRF   004.05 189.7 m E Pg      2013/04/18 21:27:03.7  -0.3                          T                                        5263268
FRF   004.05 189.7 m E Sn      2013/04/18 21:27:33.4   0.0                          T   001.0         .5  .22 Ml 2.0         5262076
FRF   004.05 189.7 m E Sg      2013/04/18 21:27:55.8  -0.3                          T                 .4  .25 Ml 2.0         5263267
LASF  004.35 218.2 m E Pn      2013/04/18 21:26:52.8  -0.2                          T                                        5263258
LASF  004.35 218.2 m E Pg      2013/04/18 21:27:10.0   0.4                          T                                        5263257
LASF  004.35 218.2 m E Sn      2013/04/18 21:27:40.9   0.3                          T                                        5263256
LASF  004.35 218.2 m E Sg      2013/04/18 21:28:05.7   0.3                          T   001.0          1  .21 Ml 2.4         5262079
LDF   005.27 284.2 m E Pn      2013/04/18 21:27:06.3   0.8                          T                                        5262195
LDF   005.27 284.2 m E Pg      2013/04/18 21:27:25.9  -0.6                          T                                        5262194
LDF   005.27 284.2 m E Sn      2013/04/18 21:28:02.5  -0.1                          T   001.0         .3  .25 Ml 2.0         5262080
LDF   005.27 284.2 m E Sg      2013/04/18 21:28:32.3  -1.8                          T   001.0        1.2  .33 Ml 2.5         5262081
MFF   005.37 262.6 m E Pn      2013/04/18 21:27:07.3   0.5                          T                                        5262186
MFF   005.37 262.6 m E Pg      2013/04/18 21:27:28.2  -0.1                          T                                        5262185
MFF   005.37 262.6 m E Sn      2013/04/18 21:28:04.8  -0.1                          T                 .7  .23 Ml 2.6         5262184
MFF   005.37 262.6 m E Sg      2013/04/18 21:28:36.5  -0.6                          T                 .5  .24 Ml 2.4         5262183
FLN   005.53 285.6 m E Pn      2013/04/18 21:27:09.5   0.5                          T                                        5263262
FLN   005.53 285.6 m E Pg      2013/04/18 21:27:31.9   0.5                          T                                        5263261
FLN   005.53 285.6 m E Sn      2013/04/18 21:28:08.7  -0.2                          T                                        5263260
FLN   005.53 285.6 m E Sg      2013/04/18 21:28:42.6   0.3                          T                1.9  .30 Ml 2.6         5263259

.
