EVENT     283360
    Date      Time       Latitude Longitude    Depth    Ndef Nsta Gap    Mag1  N    Mag2  N    Mag3  N   Author         ID
       rms   OT_Error      Smajor Sminor Az        Err   mdist  Mdist     Err        Err        Err      Quality

2012/09/14 16:09:58.6     47.6476    6.5402       .0 f    12    7 145  Ml 2.2  5  Md 1.8  1              bulletin    283460
                                                                                                         _ldg
      1.76   +-  0.20       5.1    3.1  128.86 +-  0.0    0.27   2.10   +-0.3      +-                    m i km

FRANCE
Sta     Dist  EvAz     Phase      Date       Time     TRes  Azim  AzRes  Slow  SRes Def   SNR       Amp   Per   Mag1   Mag2       ID
HINF  000.27 051.2 m E Pg      2012/09/14 16:10:04.6   0.3                          T                                        5070469
HINF  000.27 051.2 m E Sg      2012/09/14 16:10:07.9  -0.2                          T               43.2  .60        Md 1.8  5070468
HAU   000.38 340.2 m E Pg      2012/09/14 16:10:06.0  -0.2                          T                                        5070465
HAU   000.38 340.2 m E Sg      2012/09/14 16:10:11.0  -0.5                          T               28.5  .74                5070464
CDF   000.91 032.6 m E Pn      2012/09/14 16:10:17.4   0.1                          T                                        5070471
CDF   000.91 032.6 m E Sn      2012/09/14 16:10:30.7   0.2                          T               29.0  .56 Ml 2.6         5070470
CABF  001.08 196.8 m E Pg      2012/09/14 16:10:18.5  -0.7                          T                                        5070466
CABF  001.08 196.8 m E Sg      2012/09/14 16:10:34.1   0.7                          T               16.0  .68 Ml 2.2         5070467
PAGF  001.06 329.3 m E Sn      2012/09/14 16:10:33.6  -0.4 171.0  22.3              T               17.8  .57 Ml 2.3         5072150
LOR   001.86 259.2 m E Pg      2012/09/14 16:10:33.9   0.5  75.1  -2.2              T                                        5072152
LOR   001.86 259.2 m E Sg      2012/09/14 16:10:58.0   0.3                          T                1.8  .34 Ml 1.9         5072153
SMF   002.10 242.4 m E Sg      2012/09/14 16:11:05.4   0.3                          T                1.0  .22 Ml 1.9         5072151

.
EVENT     283366
    Date      Time       Latitude Longitude    Depth    Ndef Nsta Gap    Mag1  N    Mag2  N    Mag3  N   Author         ID
       rms   OT_Error      Smajor Sminor Az        Err   mdist  Mdist     Err        Err        Err      Quality

2012/09/14 18:59:12.0     45.0444    7.3052     18.0 f    28    8 168  Ml 1.8  6  Md 1.7  3              bulletin    283466
                                                                                                         _ldg
      0.30   +-  0.10       2.0    1.1   87.61 +-  0.0    0.11   1.80   +-0.2      +-0.0                 m i ke

NORTHERN ITALY
Sta     Dist  EvAz     Phase      Date       Time     TRes  Azim  AzRes  Slow  SRes Def   SNR       Amp   Per   Mag1   Mag2       ID
MBDF  000.49 230.3 m E Pg      2012/09/14 18:59:22.2   0.2                          T                                        5070727
MBDF  000.49 230.3 m E Sg      2012/09/14 18:59:28.7  -0.2                          T                5.1  .24        Md 1.6  5070726
LPG   000.60 319.4 m E Pg      2012/09/14 18:59:24.1   0.0                          T                                        5070725
LPG   000.60 319.4 m E Sg      2012/09/14 18:59:31.9  -0.3                          T                3.5  .24        Md 1.7  5070724
LPL   000.62 319.6 m E Pg      2012/09/14 18:59:24.5   0.1                          T                                        5070723
LPL   000.62 319.6 m E Sg      2012/09/14 18:59:32.4  -0.4                          T                3.0  .26        Md 1.7  5070720
ORIF  001.02 263.4 m E Pg      2012/09/14 18:59:31.6   0.2                          T                                        5070722
ORIF  001.02 263.4 m E Sg      2012/09/14 18:59:44.5  -0.3                          T                2.6  .25 Ml 1.8         5070721
SBF   001.18 175.4 m E Pg      2012/09/14 18:59:34.8   0.4                          T                                        5070713
SBF   001.18 175.4 m E Sg      2012/09/14 18:59:50.5   0.6                          T                4.1  .27 Ml 2.1         5070712
FRF   001.56 197.9 m E Pg      2012/09/14 18:59:41.3   0.2                          T                                        5072155
FRF   001.56 197.9 m E Sg      2012/09/14 19:00:01.4   0.1                          T                 .7  .19 Ml 1.7         5070716
SMRF  001.63 229.8 m E Pg      2012/09/14 18:59:42.6  -0.1                          T                                        5072156
SMRF  001.63 229.8 m E Sg      2012/09/14 19:00:04.2   0.4                          T                 .8  .35 Ml 1.4         5070718
LMR   001.80 198.8 m E Pg      2012/09/14 18:59:45.8   0.2                          T                                        5072154
LMR   001.80 198.8 m E Sg      2012/09/14 19:00:08.7  -0.3                          T                 .8  .34 Ml 1.6         5070714

.
EVENT     283362
    Date      Time       Latitude Longitude    Depth    Ndef Nsta Gap    Mag1  N    Mag2  N    Mag3  N   Author         ID
       rms   OT_Error      Smajor Sminor Az        Err   mdist  Mdist     Err        Err        Err      Quality

2012/09/14 22:19:23.8     36.2932   13.1835     10.0 f    54   18 245  Ml 3.8  9                         bulletin    283462
                                                                                                         _ldg
      0.87   +-  0.33       7.2    3.3    4.01 +-  0.0    1.05  13.59   +-0.6                            m i ke

CENTRAL MEDITERRANEAN SEA
Sta     Dist  EvAz     Phase      Date       Time     TRes  Azim  AzRes  Slow  SRes Def   SNR       Amp   Per   Mag1   Mag2       ID
PGF   007.04 333.9 m E Pn      2012/09/14 22:21:05.4   0.8                          T                                        5070598
PGF   007.04 333.9 m E Sn      2012/09/14 22:22:19.9   0.0                          T                9.8  .44 Ml 3.8         5070597
LMR   008.70 325.9 m E Pn      2012/09/14 22:21:27.2   0.0                          T                                        5070595
LMR   008.70 325.9 m E Sn      2012/09/14 22:22:59.7   0.0                          T              183.1 2.16 Ml 4.5         5070588
SBF   008.75 331.6 m E Pn      2012/09/14 22:21:28.3   0.4                          T                                        5070596
SBF   008.75 331.6 m E Sn      2012/09/14 22:23:01.2   0.4                          T               62.1 1.14 Ml 4.3         5070589
FRF   008.82 327.3 m E Pn      2012/09/14 22:21:28.8  -0.1                          T                                        5070594
FRF   008.82 327.3 m E Sn      2012/09/14 22:23:02.6   0.0                          T              152.7 1.64 Ml 4.5         5070669
SMRF  009.63 325.2 m E Pn      2012/09/14 22:21:39.8  -0.1                          T                                        5070668
SMRF  009.63 325.2 m E Sn      2012/09/14 22:23:21.8  -0.1                          T               59.8 1.39 Ml 4.3         5070667
MBDF  009.73 331.9 m E Pn      2012/09/14 22:21:41.5   0.1                          T                                        5070592
MBDF  009.73 331.9 m E Sn      2012/09/14 22:23:24.6   0.1                          T                4.6  .72 Ml 3.5         5070656
ORIF  010.24 329.5 m E Pn      2012/09/14 22:21:48.8   0.4                          T                                        5070593
ORIF  010.24 329.5 m E Sn      2012/09/14 22:23:36.6   0.0                          T                 .4  .23 Ml 3.0         5070655
LPG   010.40 334.1 m E Pn      2012/09/14 22:21:50.9   0.2                          T                                        5070666
LPL   010.42 334.1 m E Pn      2012/09/14 22:21:50.9   0.0                          T                                        5070665
LPG   010.40 334.1 m E Sn      2012/09/14 22:23:40.8   0.2                          T                                        5070653
LPL   010.42 334.1 m E Sn      2012/09/14 22:23:41.3   0.3                          T                 .4  .26 Ml 3.0         5070654
LASF  010.54 320.3 m E Pn      2012/09/14 22:21:52.9   0.6                          T                                        5070663
VIVF  010.72 325.5 m E Pn      2012/09/14 22:21:55.3   0.6                          T                                        5070664
MTLF  010.98 313.2 m E Pn      2012/09/14 22:21:57.8  -0.4                          T                                        5070662
EPF   011.96 308.1 m E Pn      2012/09/14 22:22:11.6   0.0                          T                                        5070661
HINF  012.43 339.8 m E Pn      2012/09/14 22:22:17.5  -0.5                          T                                        5070660
HAU   012.75 338.8 m E Pn      2012/09/14 22:22:22.2  -0.1                          T                                        5070659
CDF   012.87 342.1 m E Pn      2012/09/14 22:22:24.2   0.2                          T                                        5070590
SFTF  013.33 335.7 m E Pn      2012/09/14 22:22:30.0  -0.2                          T                                        5070658
MEZF  013.59 336.4 m E Pn      2012/09/14 22:22:33.5  -0.2                          T                                        5070657

.
EVENT     283363
    Date      Time       Latitude Longitude    Depth    Ndef Nsta Gap    Mag1  N    Mag2  N    Mag3  N   Author         ID
       rms   OT_Error      Smajor Sminor Az        Err   mdist  Mdist     Err        Err        Err      Quality

2012/09/14 22:42:41.3     40.8141    1.0834     11.0 f    66    5 105  Ml 2.4  6  Md 2.5  2              bulletin    283463
                                                                                                         _ldg
      0.66   +-  0.12       2.1    1.5  156.33 +-  0.0    0.23   4.35   +-0.2      +-0.1                 m i ke

BALEARIC ISLANDS, SPAIN
Sta     Dist  EvAz     Phase      Date       Time     TRes  Azim  AzRes  Slow  SRes Def   SNR       Amp   Per   Mag1   Mag2       ID
EPF   002.28 346.2 m E Pn      2012/09/14 22:43:18.2   0.9                          T                                        5070609
EPF   002.28 346.2 m E Pg      2012/09/14 22:43:22.9  -1.0                          T                                        5070619
EPF   002.28 346.2 m E Sn      2012/09/14 22:43:45.0   1.3                          T                                        5070610
EPF   002.28 346.2 m E Sg      2012/09/14 22:43:53.3   0.1                          T                6.3  .22 Ml 2.7 Md 2.4  5070618
MTLF  002.66 018.1 m E Pn      2012/09/14 22:43:23.2   0.8                          T                                        5070608
MTLF  002.66 018.1 m E Pg      2012/09/14 22:43:30.4  -0.4                          T                                        5070607
MTLF  002.66 018.1 m E Sn      2012/09/14 22:43:53.3   0.6                          T                                        5070606
MTLF  002.66 018.1 m E Sg      2012/09/14 22:44:04.9  -0.1                          T                1.4  .20 Ml 2.2         5070605
ETSF  002.42 330.0 m E Pg      2012/09/14 22:43:26.1  -0.2                          T                                        5070615
ETSF  002.42 330.0 m E Sn      2012/09/14 22:43:48.7   1.7                          T                                        5070616
ETSF  002.42 330.0 m E Sg      2012/09/14 22:43:57.5   0.0                          T                4.7  .32 Ml 2.5 Md 2.5  5070617
SJPF  002.87 323.9 m E Pn      2012/09/14 22:43:26.4   1.2                          T                                        5070613
SJPF  002.87 323.9 m E Pg      2012/09/14 22:43:34.6   0.0                          T                                        5070614
SJPF  002.87 323.9 m E Sn      2012/09/14 22:43:59.4   1.7                          T                                        5070612
SJPF  002.87 323.9 m E Sg      2012/09/14 22:44:11.7   0.2                          T                3.3  .24 Ml 2.5         5070611
LASF  003.85 031.3 m E Pn      2012/09/14 22:43:39.0   0.4                          T                                        5070604
LASF  003.85 031.3 m E Sn      2012/09/14 22:44:21.9   0.8                          T                 .7  .22 Ml 2.1         5070603

.
EVENT     283364
    Date      Time       Latitude Longitude    Depth    Ndef Nsta Gap    Mag1  N    Mag2  N    Mag3  N   Author         ID
       rms   OT_Error      Smajor Sminor Az        Err   mdist  Mdist     Err        Err        Err      Quality

2012/09/14 23:32:50.7     44.4304    7.2753     11.0 f    41    9 109  Ml 2.0  8  Md 2.0  3              bulletin    283464
                                                                                                         _ldg
      0.29   +-  0.05       1.2     .7   67.24 +-  0.0    0.08   1.91   +-0.3      +-0.1                 m i ke

NORTHERN ITALY
Sta     Dist  EvAz     Phase      Date       Time     TRes  Azim  AzRes  Slow  SRes Def   SNR       Amp   Per   Mag1   Mag2       ID
MBDF  000.47 309.6 m E Pg      2012/09/14 23:32:59.7  -0.2                          T                                        5070703
MBDF  000.47 309.6 m E Sg      2012/09/14 23:33:06.6   0.3                          T               15.0  .20        Md 1.9  5070702
SBF   000.58 168.5 m E Pg      2012/09/14 23:33:02.1   0.2                          T                                        5070701
SBF   000.58 168.5 m E Sg      2012/09/14 23:33:09.7   0.1                          T               14.9  .36        Md 1.9  5070693
FRF   000.98 207.8 m E Pg      2012/09/14 23:33:08.9  -0.2                          T                                        5070699
FRF   000.98 207.8 m E Sg      2012/09/14 23:33:21.4  -0.6                          T                7.0  .22 Ml 2.3 Md 2.1  5070691
ORIF  001.11 296.6 m E Pg      2012/09/14 23:33:11.8   0.1                          T                                        5070695
ORIF  001.11 296.6 m E Sg      2012/09/14 23:33:25.3  -0.7                          T                2.8  .25 Ml 1.9         5070687
LPL   001.15 340.7 m E Pg      2012/09/14 23:33:12.7   0.1                          T                                        5070696
LPL   001.15 340.7 m E Sg      2012/09/14 23:33:28.0   0.4                          T                1.5  .31 Ml 1.6         5070688
LPG   001.13 341.0 m E Pg      2012/09/14 23:33:13.2   1.0                          T                                        5070697
LPG   001.13 341.0 m E Sg      2012/09/14 23:33:26.9   0.0                          T                2.0  .20 Ml 1.9         5070689
LMR   001.23 207.1 m E Pg      2012/09/14 23:33:13.6   0.0                          T                                        5070700
LMR   001.23 207.1 m E Sn      2012/09/14 23:33:27.9   0.1                          T                                        5072163
LMR   001.23 207.1 m E Sg      2012/09/14 23:33:29.9   0.3                          T                3.9  .18 Ml 2.3         5070692
SMRF  001.30 250.2 m E Pg      2012/09/14 23:33:15.7   0.5                          T                                        5070698
SMRF  001.30 250.2 m E Sg      2012/09/14 23:33:32.4   0.3                          T                7.6  .34 Ml 2.3         5070690
VIVF  001.91 283.8 m E Pn      2012/09/14 23:33:21.5   0.0                          T                                        5070694
VIVF  001.91 283.8 m E Sn      2012/09/14 23:33:44.2   0.2                          T                 .5  .23 Ml 1.5         5070686

.
EVENT     283368
    Date      Time       Latitude Longitude    Depth    Ndef Nsta Gap    Mag1  N    Mag2  N    Mag3  N   Author         ID
       rms   OT_Error      Smajor Sminor Az        Err   mdist  Mdist     Err        Err        Err      Quality

2012/09/15 05:58:56.3     44.4677    7.0306      2.0      30    7 086  Ml 1.5  5  Md 1.7  1              bulletin    283468
                                                                                                         _ldg
      0.25   +-  0.05       1.1     .7   67.93 +-  0.0    0.28   1.19   +-0.2      +-                    m i ke

NORTHERN ITALY
Sta     Dist  EvAz     Phase      Date       Time     TRes  Azim  AzRes  Slow  SRes Def   SNR       Amp   Per   Mag1   Mag2       ID
MBDF  000.32 324.5 m E Pg      2012/09/15 05:59:02.6  -0.1                          T                                        5070762
MBDF  000.32 324.5 m E Sg      2012/09/15 05:59:07.3   0.3                          T                7.6  .25        Md 1.7  5070761
SBF   000.67 154.1 m E Pg      2012/09/15 05:59:09.5   0.4                          T                                        5070756
SBF   000.67 154.1 m E Sg      2012/09/15 05:59:18.1   0.3                          T                1.8  .21                5070755
ORIF  000.94 299.2 m E Pg      2012/09/15 05:59:14.0   0.0                          T                                        5070768
ORIF  000.94 299.2 m E Sg      2012/09/15 05:59:26.0  -0.1                          T                 .9  .26 Ml 1.3         5070767
FRF   000.95 197.1 m E Pg      2012/09/15 05:59:14.1   0.0                          T                                        5070760
FRF   000.95 197.1 m E Sg      2012/09/15 05:59:25.7  -0.7                          T                1.6  .17 Ml 1.8         5070759
LPL   001.07 348.7 m E Pg      2012/09/15 05:59:16.5  -0.1                          T                                        5070766
LPL   001.07 348.7 m E Sg      2012/09/15 05:59:30.6   0.1                          T                1.1  .30 Ml 1.4         5070765
SMRF  001.16 245.3 m E Pg      2012/09/15 05:59:18.3   0.3                          T                                        5070770
SMRF  001.16 245.3 m E Sg      2012/09/15 05:59:32.8  -0.1                          T                 .6  .20 Ml 1.4         5070769
LMR   001.19 198.6 m E Pg      2012/09/15 05:59:18.8   0.3                          T                                        5070758
LMR   001.19 198.6 m E Sg      2012/09/15 05:59:34.2   0.2                          T                1.5  .30 Ml 1.6         5070757

.
