EVENT     267911
    Date      Time       Latitude Longitude    Depth    Ndef Nsta Gap    Mag1  N    Mag2  N    Mag3  N   Author         ID
       rms   OT_Error      Smajor Sminor Az        Err   mdist  Mdist     Err        Err        Err      Quality

2011/12/29 06:05:57.3     44.5641    6.7329      2.0      34    9 059  Ml 1.6  7  Md 1.6  2              js067245    267931

      0.15   +-  0.02        .5     .4   67.81 +-  0.0    0.17   1.50   +-0.2      +-0.3                 m i ke

FRANCE
Sta     Dist  EvAz     Phase      Date       Time     TRes  Azim  AzRes  Slow  SRes Def   SNR       Amp   Per   Mag1   Mag2       ID
MBDF  000.17 009.6 m E Pg      2011/12/29 06:06:00.7  -0.1                          T                                        4808338
MBDF  000.17 009.6 m E Sg      2011/12/29 06:06:03.1  -0.2                          T               21.0  .32        Md 1.8  4808339
ORIF  000.70 300.5 m E Pg      2011/12/29 06:06:10.7   0.0                          T                                        4808336
ORIF  000.70 300.5 m E Sg      2011/12/29 06:06:19.7  -0.2                          T                3.4  .28        Md 1.5  4808337
SBF   000.86 144.0 m E Pg      2011/12/29 06:06:13.4  -0.2                          T                                        4808349
SBF   000.86 144.0 m E Sg      2011/12/29 06:06:24.9   0.0                          T                1.6  .19 Ml 1.7         4808348
LPL   000.95 360.0 m E Pg      2011/12/29 06:06:15.5   0.1                          T                                        4808353
LPL   000.95 360.0 m E Sg      2011/12/29 06:06:27.9   0.1                          T                 .9  .24 Ml 1.4         4808342
FRF   001.01 183.6 m E Pg      2011/12/29 06:06:16.2   0.0                          T                                        4808351
FRF   001.01 183.6 m E Sg      2011/12/29 06:06:29.1  -0.1                          T                2.2  .26 Ml 1.8         4808345
FRF   001.01 183.6 m E S       2011/12/29 06:06:33.1  -0.1                          T                                        4808346
SMRF  001.02 235.1 m E Pn      2011/12/29 06:06:17.3   0.3                          T                                        4808352
SMRF  001.02 235.1 m E Sn      2011/12/29 06:06:31.0  -0.1                          T                1.3  .22 Ml 1.6         4808344
LMR   001.24 187.6 m E Pg      2011/12/29 06:06:20.5   0.0                          T                                        4808350
LMR   001.24 187.6 m E Sg      2011/12/29 06:06:36.5   0.0                          T                1.1  .22 Ml 1.7         4808347
VIVF  001.50 282.0 m E Pg      2011/12/29 06:06:25.3   0.1                          T                                        4808341
VIVF  001.50 282.0 m E Sg      2011/12/29 06:06:44.4  -0.2                          T                 .7  .22 Ml 1.5         4808340
LPG   000.93 000.8 m E Sg      2011/12/29 06:06:27.3  -0.1                          T                1.1  .24 Ml 1.4         4808343

.
EVENT     267909
    Date      Time       Latitude Longitude    Depth    Ndef Nsta Gap    Mag1  N    Mag2  N    Mag3  N   Author         ID
       rms   OT_Error      Smajor Sminor Az        Err   mdist  Mdist     Err        Err        Err      Quality

2011/12/29 13:33:40.2     46.8065    -.2561      5.0 f    17    9 186  Ml 2.1  8  Md 1.6  2              js067245    267929

      0.59   +-  0.16       2.6    2.2   89.44 +-  0.0    0.22   2.48   +-0.2      +-0.2                 m i ke

FRANCE
Sta     Dist  EvAz     Phase      Date       Time     TRes  Azim  AzRes  Slow  SRes Def   SNR       Amp   Per   Mag1   Mag2       ID
MFF   000.22 159.6 m E Pg      2011/12/29 13:33:44.5  -0.2                          T                                        4808362
MFF   000.22 159.6 m E Sg      2011/12/29 13:33:47.2  -0.6                          T               29.1  .20        Md 1.7  4808361
TCF   001.78 106.0 m E Pg      2011/12/29 13:34:13.5   0.1                          T                                        4808373
TCF   001.78 106.0 m E Sg      2011/12/29 13:34:35.5  -0.8                          T                  1  .17 Ml 2.0         4808372
RJF   001.94 140.0 m E P       2011/12/29 13:34:14.8   0.4                          T                                        4808379
RJF   001.94 140.0 m E Pg      2011/12/29 13:34:16.6   0.2                          T                                        4808378
RJF   001.94 140.0 m E Sg      2011/12/29 13:34:41.4  -0.1                          T                3.6  .26 Ml 2.0         4808360
LFF   001.99 159.2 m E Pg      2011/12/29 13:34:17.6   0.4                          T                                        4808375
CAF   002.48 138.4 m E Pn      2011/12/29 13:34:19.9   0.3                          T                                        4808377
CAF   002.48 138.4 m E Pg      2011/12/29 13:34:26.0  -0.3                          T                                        4808376
CAF   002.48 138.4 m E Sg      2011/12/29 13:34:58.4   0.1                          T                1.3  .24 Ml 2.0         4808356
GRR   001.63 345.8 m E Sg      2011/12/29 13:34:32.0   0.3                          T                1.8  .19 Ml 2.0         4808359
LDF   001.79 002.8 m E Sg      2011/12/29 13:34:36.7   0.1                          T                5.6  .26 Ml 2.5         4808358
FLN   001.96 355.6 m E Sg      2011/12/29 13:34:41.0  -1.0                          T                1.9  .25 Ml 1.9         4808357
BGF   002.15 095.5 m E Sg      2011/12/29 13:34:46.6  -1.3                          T                3.4  .30 Ml 2.3         4808371

.
EVENT     267908
    Date      Time       Latitude Longitude    Depth    Ndef Nsta Gap    Mag1  N    Mag2  N    Mag3  N   Author         ID
       rms   OT_Error      Smajor Sminor Az        Err   mdist  Mdist     Err        Err        Err      Quality

2011/12/29 16:54:05.2     47.3031   -2.5166      5.0 f    66   21 170  Ml 2.7 20  Md 2.4  2              js067245    267928

      0.76   +-  0.11       2.5    1.3   51.81 +-  0.0    0.75   6.31   +-0.2      +-0.0                 m i ke

FRANCE
Sta     Dist  EvAz     Phase      Date       Time     TRes  Azim  AzRes  Slow  SRes Def   SNR       Amp   Per   Mag1   Mag2       ID
QUIF  000.75 324.7 m E Pg      2011/12/29 16:54:18.8  -0.6                          T   001.0                                4805779
QUIF  000.75 324.7 m E Sg      2011/12/29 16:54:29.0  -0.3                          T   001.0       41.4  .20                4805780
QUIF  000.75 324.7 m E Sn      2011/12/29 16:54:31.7  -0.4                          T                                Md 2.4  4808430
SGMF  000.95 358.4 m E Pg      2011/12/29 16:54:23.3   0.2                          T   001.0                                4805782
SGMF  000.95 358.4 m E Pn      2011/12/29 16:54:23.6   0.0                          T   001.0                                4805783
SGMF  000.95 358.4 m E Sg      2011/12/29 16:54:35.1  -0.3                          T   001.0        8.4  .16 Ml 2.5 Md 2.4  4805784
ROSF  001.15 334.0 m E Pg      2011/12/29 16:54:26.9   0.1                          T   001.0                                4805781
ROSF  001.15 334.0 m E Sg      2011/12/29 16:54:41.4  -0.3                          T                7.0  .20 Ml 2.4         4808431
GRR   001.56 045.2 m E Pn      2011/12/29 16:54:32.1   0.2                          T   001.0                                4805762
GRR   001.56 045.2 m E Pg      2011/12/29 16:54:34.3   0.1                          T                                        4808415
GRR   001.56 045.2 m E Sg      2011/12/29 16:54:54.7   0.3                          T   001.0       10.7  .16 Ml 2.7         4805763
MFF   001.77 112.5 m E Pn      2011/12/29 16:54:35.2   0.4                          T   001.0                                4805767
MFF   001.77 112.5 m E Pg      2011/12/29 16:54:38.5   0.4                          T                                        4808413
MFF   001.77 112.5 m E Sn      2011/12/29 16:54:56.2  -0.1                          T   001.0                                4805768
MFF   001.77 112.5 m E Sg      2011/12/29 16:55:01.7   0.8                          T   001.0       18.4  .24 Ml 3.2         4805769
LDF   002.06 050.4 m E Pn      2011/12/29 16:54:38.7  -0.1                          T   001.0                                4805764
LDF   002.06 050.4 m E Pg      2011/12/29 16:54:43.4  -0.1                          T                                        4808402
LDF   002.06 050.4 m E Sn      2011/12/29 16:55:03.3   0.0                          T                                        4808403
LDF   002.06 050.4 m E Sg      2011/12/29 16:55:10.4   0.3                          T                                        4808404
FLN   002.00 042.3 m E Pn      2011/12/29 16:54:40.2   2.3 216.1  -7.8              T   001.0                                4805760
FLN   002.00 042.3 m E Pg      2011/12/29 16:54:42.3  -0.1                          T                                        4808437
FLN   002.00 042.3 m E Sg      2011/12/29 16:55:08.0  -0.1 226.0  2.1               T   001.0       11.3  .32 Ml 2.6         4805761
LFF   003.27 135.0 m E Pn      2011/12/29 16:54:55.4   0.1                          T   001.0                                4805765
LFF   003.27 135.0 m E PKP2    2011/12/29 16:54:58.7   0.4                          T                                        4808435
LFF   003.27 135.0 m E Pg      2011/12/29 16:55:05.9   0.1                          T                                        4808434
LFF   003.27 135.0 m E Sn      2011/12/29 16:55:37.3   5.0                          T                                        4808407
LFF   003.27 135.0 m E Sg      2011/12/29 16:55:48.5   0.6                          T                8.7  .32 Ml 2.8         4808408
TCF   003.40 105.6 m E Pn      2011/12/29 16:54:57.6   0.6                          T   001.0                                4805773
TCF   003.40 105.6 m E Pg      2011/12/29 16:55:08.0  -0.2                          T                                        4808443
TCF   003.40 105.6 m E Sn      2011/12/29 16:55:34.6  -0.8                          T   001.0                                4805774
TCF   003.40 105.6 m E Sg      2011/12/29 16:55:52.2   0.3                          T   001.0        3.3  .19 Ml 2.8         4805775
HYF   003.51 088.7 m E Pn      2011/12/29 16:54:58.0  -0.5                          T                                        4808439
BGF   003.75 099.5 m E Pn      2011/12/29 16:55:00.8  -1.0                          T   001.0                                4805756
BGF   003.75 099.5 m E Sg      2011/12/29 16:56:01.4  -1.4                          T               12.3  .31 Ml 3.2         4808401
CAF   003.97 125.1 m E Pn      2011/12/29 16:55:04.0   0.2                          T   001.0                                4805757
CAF   003.97 125.1 m E Pg      2011/12/29 16:55:18.8  -0.1                          T                                        4808433
CAF   003.97 125.1 m E Sn      2011/12/29 16:55:46.7  -2.4                          T   001.0                                4805758
CAF   003.97 125.1 m E Sg      2011/12/29 16:56:10.2   0.4                          T   001.0        2.4  .27 Ml 2.6         4805759
AVF   004.05 095.1 m E Pn      2011/12/29 16:55:05.8   0.1                          T   001.0                                4805753
AVF   004.05 095.1 m E PKP2    2011/12/29 16:55:09.2   0.0                          T                                        4808442
AVF   004.05 095.1 m E Pg      2011/12/29 16:55:20.0   0.0                          T                                        4808441
AVF   004.05 095.1 m E Sn      2011/12/29 16:55:49.2  -1.5                          T   001.0                                4805754
AVF   004.05 095.1 m E Sg      2011/12/29 16:56:11.8  -0.2                          T   001.0        1.9  .25 Ml 2.5         4805755
SSF   004.11 091.2 m E Pn      2011/12/29 16:55:06.8   0.2                          T   001.0                                4805772
SSF   004.11 091.2 m E Pg      2011/12/29 16:55:21.3  -0.1                          T                                        4808444
SSF   004.11 091.2 m E Sg      2011/12/29 16:56:14.0  -0.2                          T                1.3  .21 Ml 2.6         4808399
RJF   003.44 124.1 m E Pg      2011/12/29 16:55:08.5  -0.4                          T                                        4808436
RJF   003.44 124.1 m E Sn      2011/12/29 16:55:36.6   0.4                          T   001.0       10.3  .32 Ml 2.7         4805752
RJF   003.44 124.1 m E Sg      2011/12/29 16:55:53.4   0.4                          T                                        4808432
LOR   004.34 088.1 m E Pn      2011/12/29 16:55:10.2   0.4 271.7  -1.1              T   001.0                                4805766
LOR   004.34 088.1 m E Pg      2011/12/29 16:55:25.9   0.4                          T                                        4808445
LOR   004.34 088.1 m E Sg      2011/12/29 16:56:20.5  -0.6                          T                  1  .21 Ml 2.4         4808400
SMF   004.40 096.3 m E Pn      2011/12/29 16:55:11.2   0.6                          T   001.0                                4805770
SMF   004.40 096.3 m E Pg      2011/12/29 16:55:26.6   0.0                          T                                        4808440
SMF   004.40 096.3 m E Sg      2011/12/29 16:56:21.3  -1.8                          T   001.0        1.7  .22 Ml 2.6         4805771
MTLF  005.18 138.2 m E Pn      2011/12/29 16:55:20.6  -0.6                          T   001.0                                4805776
MTLF  005.18 138.2 m E Sn      2011/12/29 16:56:16.3  -1.5                          T   001.0        7.4 1.08 Ml 2.7         4805777
ORIF  006.31 109.2 m E Pn      2011/12/29 16:55:38.1   1.5                          T   001.0                                4805778
EPF   004.73 153.7 m E Sn      2011/12/29 16:56:05.4  -1.6                          T                                        4808406
EPF   004.73 153.7 m E Sg      2011/12/29 16:56:34.0   0.7                          T                 .9  .23 Ml 2.4         4808405
VIVF  005.57 113.4 m E Sn      2011/12/29 16:56:27.7   0.6                          T   001.0          3  .56 Ml 2.7         4805785

.
EVENT     267923
    Date      Time       Latitude Longitude    Depth    Ndef Nsta Gap    Mag1  N    Mag2  N    Mag3  N   Author         ID
       rms   OT_Error      Smajor Sminor Az        Err   mdist  Mdist     Err        Err        Err      Quality

2011/12/30 06:44:53.5     42.2824    2.4389      2.0      35    6 041  Ml 2.0  6  Md 2.0  1              js067245    267943

      0.32   +-  0.05        .9     .8  175.27 +-  0.0    0.18   3.09   +-0.3      +-                    m i ke

PYRENEES
Sta     Dist  EvAz     Phase      Date       Time     TRes  Azim  AzRes  Slow  SRes Def   SNR       Amp   Per   Mag1   Mag2       ID
MTLF  001.07 351.3 m E Pg      2011/12/30 06:45:13.6   0.0                          T                                        4808455
MTLF  001.07 351.3 m E Sg      2011/12/30 06:45:27.5   0.1                          T                3.0  .23 Ml 2.0 Md 2.0  4808447
EPF   001.72 296.5 m E Pg      2011/12/30 06:45:25.8   0.2                          T                                        4808454
EPF   001.72 296.5 m E Sg      2011/12/30 06:45:47.9   0.1                          T                4.4  .30 Ml 2.3         4808448
CAF   002.66 354.3 m E Pg      2011/12/30 06:45:42.5  -0.4                          T                                        4808453
CAF   002.66 354.3 m E Sg      2011/12/30 06:46:17.0   0.0                          T                1.8  .24 Ml 2.2         4808449
RJF   003.09 347.8 m E P       2011/12/30 06:45:44.4  -0.1                          T                                        4808452
RJF   003.09 347.8 m E Sg      2011/12/30 06:46:31.0   0.3                          T                 .6  .19 Ml 1.6         4808451
LASF  002.07 029.6 m E Sg      2011/12/30 06:45:58.6  -0.1                          T                1.2  .32 Ml 1.8         4808446
LFF   002.93 335.7 m E Sg      2011/12/30 06:46:25.7   0.3                          T                1.1  .21 Ml 2.0         4808450

.
EVENT     267925
    Date      Time       Latitude Longitude    Depth    Ndef Nsta Gap    Mag1  N    Mag2  N    Mag3  N   Author         ID
       rms   OT_Error      Smajor Sminor Az        Err   mdist  Mdist     Err        Err        Err      Quality

2011/12/30 07:13:22.4     43.3278    8.2726     25.0      21    5 164  Ml 2.1  4  Md 2.0  1              js067245    267945

      0.76   +-  0.14       5.6    2.4   53.47 +-  0.0    0.65   1.77   +-0.3      +-                    m i ke

CORSICA, FRANCE
Sta     Dist  EvAz     Phase      Date       Time     TRes  Azim  AzRes  Slow  SRes Def   SNR       Amp   Per   Mag1   Mag2       ID
SBF   000.81 311.6 m E Pn      2011/12/30 07:13:36.7   0.0                          T                                        4808496
SBF   000.81 311.6 m E Sn      2011/12/30 07:13:47.0   0.0                          T                9.7  .26        Md 2.0  4808490
PGF   000.94 145.3 m E Pn      2011/12/30 07:13:38.5  -0.1                          T                                        4808499
PGF   000.94 145.3 m E Sn      2011/12/30 07:13:50.0  -0.3                          T                5.7  .20 Ml 2.5         4808500
FRF   001.21 281.7 m E Pn      2011/12/30 07:13:42.0   0.0                          T                                        4808495
FRF   001.21 281.7 m E Sn      2011/12/30 07:13:55.6  -0.8                          T                2.9  .23 Ml 2.0         4808492
LMR   001.29 270.9 m E Pn      2011/12/30 07:13:43.4   0.3                          T                                        4808494
LMR   001.29 270.9 m E Sn      2011/12/30 07:13:57.4  -0.9                          T                3.3  .29 Ml 2.0         4808491
MBDF  001.77 322.8 m E Sn      2011/12/30 07:14:10.2   0.1                          T                 .5  .17 Ml 1.6         4808493

.
