BEGIN GSE2.0
MSG_TYPE DATA
MSG_ID 24-AUG-1215:07:07  FRA_NDC
E-MAIL
DATA_TYPE BULLETIN
Reviewed Bulletin (REB) # P2012-032  from French NDC for regional phases     PERIOD 08 AUG 2012 TO 14 AUG 2012 Cenalt JP S
EVENT     280765
    Date      Time       Latitude Longitude    Depth    Ndef Nsta Gap    Mag1  N    Mag2  N    Mag3  N   Author         ID
       rms   OT_Error      Smajor Sminor Az        Err   mdist  Mdist     Err        Err        Err      Quality

2012/08/08 00:24:33.7     43.0899    -.3791      2.0      43   12 059  Ml 2.1 10  Md 2.1  3              bulletin    280865
                                                                                                         _ldg
      0.86   +-  0.08       1.7    1.5  141.63 +-  0.0    0.23   5.21   +-0.2      +-0.1                 m i ke

PYRENEES
Sta     Dist  EvAz     Phase      Date       Time     TRes  Azim  AzRes  Slow  SRes Def   SNR       Amp   Per   Mag1   Mag2       ID
ETSF  000.23 214.7 m E Pg      2012/08/08 00:24:37.9  -0.6                          T                                        5040960
ETSF  000.23 214.7 m E Sg      2012/08/08 00:24:41.5  -0.1                          T               14.4  .30        Md 2.0  5040956
EPF   000.53 096.2 m E Pg      2012/08/08 00:24:43.3  -0.6                          T                                        5040961
EPF   000.53 096.2 m E P       2012/08/08 00:24:45.1   0.1                          T                                        5042130
EPF   000.53 096.2 m E Sg      2012/08/08 00:24:51.3   0.4                          T                4.5  .20        Md 2.1  5040957
MTLF  001.91 081.6 m E Pn      2012/08/08 00:25:05.7   0.1                          T                                        5042135
MTLF  001.91 081.6 m E Pg      2012/08/08 00:25:09.0  -0.2                          T                                        5040959
MTLF  001.91 081.6 m E Sg      2012/08/08 00:25:33.7  -0.3                          T                  1  .25 Ml 1.8 Md 2.3  5040958
LFF   002.02 023.2 m E Pn      2012/08/08 00:25:06.7  -0.3                          T                                        5042129
LFF   002.02 023.2 m E Pg      2012/08/08 00:25:11.1  -0.1                          T                                        5040955
LFF   002.02 023.2 m E Sg      2012/08/08 00:25:37.8   0.6                          T                9.5  .64 Ml 2.2         5040954
RJF   002.60 031.0 m E Pn      2012/08/08 00:25:14.7  -0.2                          T                                        5042128
RJF   002.60 031.0 m E Pg      2012/08/08 00:25:22.2   0.2                          T                                        5042121
RJF   002.60 031.0 m E Sg      2012/08/08 00:25:55.1  -0.3                          T                1.7  .26 Ml 1.8         5042068
CAF   002.54 043.0 m E Pg      2012/08/08 00:25:20.9  -0.1                          T                                        5042122
CAF   002.54 043.0 m E Sg      2012/08/08 00:25:54.7   1.0                          T                1.2  .20 Ml 2.1         5042067
MFF   003.52 002.6 m E Pg      2012/08/08 00:25:39.2   0.4                          T                                        5042120
MFF   003.52 002.6 m E Sg      2012/08/08 00:26:23.3  -0.7                          T                 .5  .25 Ml 2.1         5042066
TCF   003.69 029.1 m E Sg      2012/08/08 00:26:29.8   0.3                          T                 .7  .26 Ml 2.0         5042119
BGF   004.16 032.4 m E Sg      2012/08/08 00:26:44.4   0.4                          T                2.9  .40 Ml 2.5         5042118
AVF   004.55 034.3 m E Sg      2012/08/08 00:26:54.4  -1.8                          T                1.1  .49 Ml 2.1         5042117
SMF   004.65 038.7 m E Sg      2012/08/08 00:26:59.6   0.3                          T                 .8  .36 Ml 2.1         5042116
QUIF  005.21 338.9 m E Sg      2012/08/08 00:27:16.3  -0.4                          T                 .3  .27 Ml 1.9         5042123

.
EVENT     280766
    Date      Time       Latitude Longitude    Depth    Ndef Nsta Gap    Mag1  N    Mag2  N    Mag3  N   Author         ID
       rms   OT_Error      Smajor Sminor Az        Err   mdist  Mdist     Err        Err        Err      Quality

2012/08/08 00:58:52.8     43.1232   -1.3030      6.0 f    27    4 109  Ml 1.8  3  Md 2.2  2              bulletin    280866
                                                                                                         _ldg
      0.39   +-  0.09       1.8    1.4    2.28 +-  0.0    0.18   3.08   +-0.3      +-0.1                 m i ke

PYRENEES
Sta     Dist  EvAz     Phase      Date       Time     TRes  Azim  AzRes  Slow  SRes Def   SNR       Amp   Per   Mag1   Mag2       ID
ETSF  000.59 112.1 m E Pg      2012/08/08 00:59:03.9  -0.2                          T                                        5040965
ETSF  000.59 112.1 m E Sg      2012/08/08 00:59:11.5  -0.4                          T                7.1  .22        Md 2.3  5040963
EPF   001.21 093.8 m E Pg      2012/08/08 00:59:15.8   0.4                          T                                        5040964
EPF   001.21 093.8 m E Sg      2012/08/08 00:59:31.3   0.2                          T                2.6  .17 Ml 2.1 Md 2.1  5040962
MTLF  002.58 084.0 m E Pn      2012/08/08 00:59:33.6   0.3                          T                                        5051946
MTLF  002.58 084.0 m E Sg      2012/08/08 01:00:13.7  -0.2                          T                 .4  .23 Ml 1.6         5051947
CAF   003.02 052.3 m E Sg      2012/08/08 01:00:27.3  -0.5                          T                 .6  .29 Ml 1.8         5051948

.
EVENT     280896
    Date      Time       Latitude Longitude    Depth    Ndef Nsta Gap    Mag1  N    Mag2  N    Mag3  N   Author         ID
       rms   OT_Error      Smajor Sminor Az        Err   mdist  Mdist     Err        Err        Err      Quality

2012/08/08 02:26:25.7     44.2621    8.5801      2.0       6    3 313  Ml 1.6  3  Md 2.1  1              bulletin    280996
                                                                                                         _ldg
      0.27   +-  0.60      10.8    6.3   91.60 +-  0.0    0.92   1.56   +-0.5      +-                    m i ke

NORTHERN ITALY
Sta     Dist  EvAz     Phase      Date       Time     TRes  Azim  AzRes  Slow  SRes Def   SNR       Amp   Per   Mag1   Mag2       ID
SBF   000.92 244.6 m E Pg      2012/08/08 02:26:43.2   0.2                          T                                        5042139
SBF   000.92 244.6 m E Sg      2012/08/08 02:26:55.5   0.5                          T                4.5  .28 Ml 2.0 Md 2.1  5042138
MBDF  001.38 290.4 m E Pg      2012/08/08 02:26:51.7   0.1                          T                                        5042140
MBDF  001.38 290.4 m E Sg      2012/08/08 02:27:09.1  -0.2                          T                 .3  .22 Ml 1.1         5042141
FRF   001.56 244.0 m E Pg      2012/08/08 02:26:54.6  -0.3                          T                                        5042137
FRF   001.56 244.0 m E Sg      2012/08/08 02:27:14.7  -0.3                          T                 .9  .25 Ml 1.7         5042136

.
EVENT     280767
    Date      Time       Latitude Longitude    Depth    Ndef Nsta Gap    Mag1  N    Mag2  N    Mag3  N   Author         ID
       rms   OT_Error      Smajor Sminor Az        Err   mdist  Mdist     Err        Err        Err      Quality

2012/08/08 02:47:34.0     43.0572    -.7022      2.0      15    3 078  Ml 1.2  1  Md 1.8  2              bulletin    280867
                                                                                                         _ldg
      0.54   +-  0.14       4.1    2.0   12.69 +-  0.0    0.03   2.15   +-         +-0.1                 m i ke

PYRENEES
Sta     Dist  EvAz     Phase      Date       Time     TRes  Azim  AzRes  Slow  SRes Def   SNR       Amp   Per   Mag1   Mag2       ID
ETSF  000.19 146.4 m E Pg      2012/08/08 02:47:37.4  -0.5                          T                                        5040976
ETSF  000.19 146.4 m E Sg      2012/08/08 02:47:40.2  -0.4                          T               24.2  .18        Md 1.8  5040975
EPF   000.76 091.7 m E Pg      2012/08/08 02:47:48.2  -0.2                          T                                        5040974
EPF   000.76 091.7 m E Sg      2012/08/08 02:47:58.9   0.5                          T                1.9  .25        Md 1.7  5040973
MTLF  002.15 081.4 m E P       2012/08/08 02:48:10.8  -0.6                          T                                        5040972
MTLF  002.15 081.4 m E Sg      2012/08/08 02:48:41.6  -0.1                          T                 .2  .24 Ml 1.2         5040971

.
EVENT     280898
    Date      Time       Latitude Longitude    Depth    Ndef Nsta Gap    Mag1  N    Mag2  N    Mag3  N   Author         ID
       rms   OT_Error      Smajor Sminor Az        Err   mdist  Mdist     Err        Err        Err      Quality

2012/08/08 05:49:04.9     47.0137     .2728      2.0      16    9 092  Ml 1.7  8  Md 1.8  1              bulletin    280998
                                                                                                         _ldg
      1.08   +-  0.17       3.5    2.7   64.14 +-  0.0    0.50   2.50   +-0.2      +-                    m i ke

FRANCE
Sta     Dist  EvAz     Phase      Date       Time     TRes  Azim  AzRes  Slow  SRes Def   SNR       Amp   Per   Mag1   Mag2       ID
MFF   000.50 215.1 m E Pg      2012/08/08 05:49:14.7   0.2                          T                                        5042166
MFF   000.50 215.1 m E Sg      2012/08/08 05:49:20.6  -0.5                          T                4.0  .22        Md 1.8  5042165
TCF   001.52 117.8 m E Pg      2012/08/08 05:49:33.7   0.4                          T                                        5042157
TCF   001.52 117.8 m E Sg      2012/08/08 05:49:52.8  -0.1                          T                 .7  .17 Ml 1.7         5042158
GRR   001.57 331.4 m E Pg      2012/08/08 05:49:34.1  -0.1                          T                                        5042153
GRR   001.57 331.4 m E Sg      2012/08/08 05:49:54.8   0.3                          T                  1  .17 Ml 1.7         5042160
LDF   001.60 350.6 m E Pg      2012/08/08 05:49:35.2   0.4                          T                                        5042152
LDF   001.60 350.6 m E Sg      2012/08/08 05:49:55.1  -0.3                          T                1.3  .22 Ml 1.8         5042161
RJF   001.92 152.7 m E Pg      2012/08/08 05:49:40.5   0.0                          T                                        5042154
RJF   001.92 152.7 m E Sg      2012/08/08 05:50:05.3   0.1                          T                1.5  .27 Ml 1.6         5042155
FLN   001.82 344.1 m E Sg      2012/08/08 05:50:02.7   0.4                          T                 .7  .22 Ml 1.5         5042162
SSF   002.21 087.6 m E Sg      2012/08/08 05:50:13.3  -1.1                          T                1.2  .32 Ml 1.9         5042156
QUIF  002.50 292.4 m E Sg      2012/08/08 05:50:20.9  -2.6                          T                 .2  .16 Ml 1.5         5042159
LOR   002.46 082.8 m E Sg      2012/08/08 05:50:21.4  -0.9                          T                  1  .22 Ml 2.0         5042151

.
EVENT     280902
    Date      Time       Latitude Longitude    Depth    Ndef Nsta Gap    Mag1  N    Mag2  N    Mag3  N   Author         ID
       rms   OT_Error      Smajor Sminor Az        Err   mdist  Mdist     Err        Err        Err      Quality

2012/08/08 06:48:38.7     51.3898   16.0641      1.0 f    57   18 094  Ml 3.9 17                         bulletin    281002
                                                                                                         _ldg
      0.76   +-  0.22       5.5    2.8   10.17 +-  0.0    0.57  10.03   +-0.3                            m i sr

POLAND
Sta     Dist  EvAz     Phase      Date       Time     TRes  Azim  AzRes  Slow  SRes Def   SNR       Amp   Per   Mag1   Mag2       ID
LANF  005.83 248.8 m E Pn      2012/08/08 06:50:04.0   0.0                          T                                        5042186
LANF  005.83 248.8 m E Sg      2012/08/08 06:51:43.1   2.0                          T              155.0 1.29 Ml 4.1         5043000
CDF   006.41 245.7 m E Pn      2012/08/08 06:50:12.8   0.7                          T                                        5042187
CDF   006.41 245.7 m E Sg      2012/08/08 06:52:00.1   0.6                          T               43.4  .86 Ml 4.0         5042174
GIVF  007.25 264.1 m E Pn      2012/08/08 06:50:23.5   0.2                          T                                        5042185
GIVF  007.25 264.1 m E Sg      2012/08/08 06:52:25.0  -0.5                          T                3.4  .33 Ml 3.3         5042175
BAIF  007.64 264.6 m E Pn      2012/08/08 06:50:28.9   0.2                          T                                        5042184
BAIF  007.64 264.6 m E Sg      2012/08/08 06:52:39.9   2.1                          T                                        5043002
CABF  008.12 237.8 m E Pn      2012/08/08 06:50:35.0  -0.3                          T                                        5042182
CABF  008.12 237.8 m E Sg      2012/08/08 06:52:52.6  -0.1                          T               40.6 1.00 Ml 4.1         5042181
LOR   008.97 247.4 m E Pn      2012/08/08 06:50:46.6  -0.3                          T                                        5042183
LOR   008.97 247.4 m E Sg      2012/08/08 06:53:20.7   1.3                          T               25.6 1.12 Ml 3.9         5043001
HINF  006.97 242.7 m E Sg      2012/08/08 06:52:17.0   0.1                          T               36.8  .78 Ml 3.9         5042180
HAU   007.15 245.5 m E Sg      2012/08/08 06:52:22.3  -0.3                          T               36.3  .86 Ml 3.7         5042179
PAGF  007.25 251.0 m E Sg      2012/08/08 06:52:24.8  -0.6                          T               27.7  .81 Ml 3.8         5042173
THEF  007.24 248.0 m E Sg      2012/08/08 06:52:24.9  -0.5                          T               23.9  .83 Ml 3.8         5042178
MEZF  007.67 252.2 m E Sg      2012/08/08 06:52:38.8   0.2                          T               16.3  .36 Ml 4.0         5042176
SFTF  007.81 250.2 m E Sg      2012/08/08 06:52:44.0   0.8                          T               77.9 1.39 Ml 4.1         5042177
MBDF  009.11 226.6 m E Sg      2012/08/08 06:53:23.7  -0.2                          T                3.4  .58 Ml 3.3         5042170
SMF   009.33 244.2 m E Sg      2012/08/08 06:53:30.5   0.1                          T               22.8  .96 Ml 4.0         5042999
ORIF  009.39 230.4 m E Sg      2012/08/08 06:53:31.4  -1.0                          T               49.3 1.44 Ml 4.2         5042171
AVF   009.52 246.1 m E Sg      2012/08/08 06:53:36.5   0.1                          T               23.3 1.19 Ml 3.9         5042172
BGF   009.94 246.1 m E Sg      2012/08/08 06:53:49.7   0.1                          T               29.9 1.10 Ml 4.1         5042998
VIVF  010.03 233.8 m E Sg      2012/08/08 06:53:51.5  -0.8                          T                1.2  .33 Ml 3.3         5042169

.
EVENT     280937
    Date      Time       Latitude Longitude    Depth    Ndef Nsta Gap    Mag1  N    Mag2  N    Mag3  N   Author         ID
       rms   OT_Error      Smajor Sminor Az        Err   mdist  Mdist     Err        Err        Err      Quality

2012/08/08 11:52:45.2     44.4662    7.3226      7.0 f    32    8 127  Ml 1.9  6  Md 1.8  2              bulletin    281037
                                                                                                         _ldg
      0.32   +-  0.06       1.7     .8   65.97 +-  0.0    0.07   1.35   +-0.3      +-0.1                 m i ke

NORTHERN ITALY
Sta     Dist  EvAz     Phase      Date       Time     TRes  Azim  AzRes  Slow  SRes Def   SNR       Amp   Per   Mag1   Mag2       ID
MBDF  000.47 303.7 m E Pg      2012/08/08 11:52:54.5   0.0                          T                                        5042784
MBDF  000.47 303.7 m E Sg      2012/08/08 11:53:01.0   0.2                          T                9.2  .25        Md 1.8  5042783
SBF   000.61 172.3 m E Pg      2012/08/08 11:52:57.3   0.4                          T                                        5042785
SBF   000.61 172.3 m E Sg      2012/08/08 11:53:05.4   0.5                          T                                Md 1.7  5042782
FRF   001.03 208.5 m E Pg      2012/08/08 11:53:04.9   0.4                          T                                        5042788
FRF   001.03 208.5 m E Sg      2012/08/08 11:53:17.6  -0.3                          T                2.7  .21 Ml 2.0         5042787
ORIF  001.12 294.2 m E Pg      2012/08/08 11:53:06.4   0.1                          T                                        5042780
ORIF  001.12 294.2 m E Sg      2012/08/08 11:53:20.3  -0.7                          T                1.0  .18 Ml 1.6         5042779
LPG   001.11 338.7 m E Pg      2012/08/08 11:53:06.5   0.2                          T                                        5042792
LPG   001.11 338.7 m E Sg      2012/08/08 11:53:20.7   0.0                          T                1.9  .23 Ml 1.8         5042791
LPL   001.13 338.5 m E Pg      2012/08/08 11:53:06.8   0.1                          T                                        5042794
LPL   001.13 338.5 m E Sg      2012/08/08 11:53:21.5   0.2                          T                1.4  .23 Ml 1.7         5042793
LMR   001.28 207.7 m E Pg      2012/08/08 11:53:09.3   0.2                          T                                        5042786
LMR   001.28 207.7 m E Sg      2012/08/08 11:53:25.7   0.2                          T                6.3  .20 Ml 2.5         5042781
SMRF  001.35 249.3 m E Pn      2012/08/08 11:53:09.5   0.7                          T                                        5042790
SMRF  001.35 249.3 m E Sn      2012/08/08 11:53:26.6   0.7                          T                2.7  .36 Ml 1.8         5042789

.
