EVENT     258098
    Date      Time       Latitude Longitude    Depth    Ndef Nsta Gap    Mag1  N    Mag2  N    Mag3  N   Author         ID
       rms   OT_Error      Smajor Sminor Az        Err   mdist  Mdist     Err        Err        Err      Quality

2011/04/08 15:07:13.3     41.1925   -1.0600     10.0 f   262   41 037  Ml 4.5 47  Md 3.9  5              js067245    258098

      1.18   +-  0.06       1.8    1.1  133.79 +-  0.0    0.69   9.81   +-0.3      +-0.1                 m i ke

SPAIN
Sta     Dist  EvAz     Phase      Date       Time     TRes  Azim  AzRes  Slow  SRes Def   SNR       Amp   Per   Mag1   Mag2       ID
ETSF  001.75 012.2 m E Pn      2011/04/08 15:07:42.9   0.8                          T                                        4671452
ETSF  001.75 012.2 m E Pg      2011/04/08 15:07:44.9  -1.0                          T                                        4671455
ETSF  001.75 012.2 m E Sg      2011/04/08 15:08:08.3  -0.1                          T             1104.1  .36 Ml 4.6 Md 3.8  4671374
SJPF  001.92 356.4 m E Pn      2011/04/08 15:07:45.5   1.1                          T                                        4671453
SJPF  001.92 356.4 m E Pg      2011/04/08 15:07:48.1  -1.1                          T                                        4671454
SJPF  001.92 356.4 m E Sg      2011/04/08 15:08:13.9   0.0                          T             1337.0  .30 Ml 4.8 Md 3.9  4671373
EPF   002.11 029.1 m E Pn      2011/04/08 15:07:48.1   1.1                          T                                        4671451
EPF   002.11 029.1 m E Pg      2011/04/08 15:07:51.0  -1.7                          T                                        4671450
EPF   002.11 029.1 m E Sg      2011/04/08 15:08:17.5  -2.3                          T             6559.2  .56 Ml 5.3 Md 3.9  4671375
MTLF  003.24 047.5 m E Pn      2011/04/08 15:08:03.0   0.6                          T                                        4671448
MTLF  003.24 047.5 m E Pg      2011/04/08 15:08:12.0  -1.4                          T                                        4671449
MTLF  003.24 047.5 m E Sg      2011/04/08 15:08:54.7  -0.4                          T              479.5  .48 Ml 4.5         4671376
LFF   003.97 018.8 m E Pn      2011/04/08 15:08:12.8   0.6                          T                                        4671447
LFF   003.97 018.8 m E Sn      2011/04/08 15:08:55.6  -0.5                          T                                        4671390
LFF   003.97 018.8 m E Sg      2011/04/08 15:09:17.7   0.0                          T              585.0  .62 Ml 4.4 Md 4.0  4671371
CAF   004.38 030.5 m E Pn      2011/04/08 15:08:17.9   0.0                          T                                        4671446
CAF   004.38 030.5 m E Sn      2011/04/08 15:09:05.9   0.1                          T                                        4671389
CAF   004.38 030.5 m E Sg      2011/04/08 15:09:30.3  -0.2                          T              238.7  .44 Ml 4.5         4671372
RJF   004.52 023.7 m E Pn      2011/04/08 15:08:19.6  -0.2                          T                                        4671445
RJF   004.52 023.7 m E Sn      2011/04/08 15:09:08.9  -0.3                          T              609.8  .38 Ml 4.6         4671391
LASF  004.63 049.9 m E Pn      2011/04/08 15:08:21.8   0.5                          T                                        4671422
LASF  004.63 049.9 m E Pg      2011/04/08 15:08:38.6  -0.4                          T                                        4671411
LASF  004.63 049.9 m E Sg      2011/04/08 15:09:38.1  -0.4                          T              439.1  .66 Ml 4.6 Md 4.0  4671377
MFF   005.45 006.7 m E Pn      2011/04/08 15:08:32.1  -0.2                          T                                        4671444
MFF   005.45 006.7 m E Sn      2011/04/08 15:09:31.4   0.0                          T              128.7  .54 Ml 4.5         4671392
TCF   005.62 023.8 m E Pn      2011/04/08 15:08:34.0  -0.8                          T                                        4671425
TCF   005.62 023.8 m E Sn      2011/04/08 15:09:35.4  -0.1                          T                                        4671406
TCF   005.62 023.8 m E Sg      2011/04/08 15:10:09.2   0.0                          T              150.1  .50 Ml 4.5         4671354
VIVF  005.57 047.0 m E Pn      2011/04/08 15:08:34.7   0.5                          T                                        4671421
VIVF  005.57 047.0 m E Sg      2011/04/08 15:10:06.4  -1.4                          T              228.3  .68 Ml 4.5         4671378
SMRF  005.63 058.2 m E Pn      2011/04/08 15:08:35.7   0.8                          T                                        4671416
SMRF  005.63 058.2 m E Sg      2011/04/08 15:10:09.3  -0.4                          T              381.5 1.28 Ml 4.5         4671383
BGF   006.06 026.4 m E Pn      2011/04/08 15:08:40.4  -0.4                          T                                        4671436
BGF   006.06 026.4 m E Sn      2011/04/08 15:09:45.9  -0.2                          T                                        4671400
BGF   006.06 026.4 m E Sg      2011/04/08 15:10:22.9  -0.1                          T              366.4  .52 Ml 5.0         4671367
LMR   006.01 066.6 m E Pn      2011/04/08 15:08:40.5   0.5                          T                                        4671414
LMR   006.01 066.6 m E Sn      2011/04/08 15:09:44.5  -0.3                          T                                        4671388
LMR   006.01 066.6 m E Sg      2011/04/08 15:10:20.6  -0.8                          T               85.9  .86 Ml 4.1         4671385
FRF   006.18 064.9 m E Pn      2011/04/08 15:08:43.4   1.0                          T                                        4671415
FRF   006.18 064.9 m E Sg      2011/04/08 15:10:26.1  -0.6                          T               83.8  .76 Ml 4.2         4671384
ORIF  006.30 051.5 m E Pn      2011/04/08 15:08:45.2   1.1                          T                                        4671419
ORIF  006.30 051.5 m E Sg      2011/04/08 15:10:30.3  -0.3                          T              125.9  .92 Ml 4.3         4671380
AVF   006.44 028.1 m E Pn      2011/04/08 15:08:45.5  -0.4                          T                                        4671433
AVF   006.44 028.1 m E Sn      2011/04/08 15:09:55.0  -0.1                          T                                        4671403
AVF   006.44 028.1 m E Sg      2011/04/08 15:10:34.2  -0.5                          T               75.0  .52 Ml 4.3         4671364
SMF   006.50 031.3 m E Pn      2011/04/08 15:08:46.8   0.1                          T                                        4671434
SMF   006.50 031.3 m E Sn      2011/04/08 15:09:56.1  -0.4                          T                                        4671402
SMF   006.50 031.3 m E Sg      2011/04/08 15:10:36.4  -0.2                          T              126.0  .68 Ml 4.4         4671365
HYF   006.63 022.4 m E Pn      2011/04/08 15:08:48.4  -0.1                          T                                        4671435
HYF   006.63 022.4 m E Sn      2011/04/08 15:09:59.8   0.1                          T                                        4671401
HYF   006.63 022.4 m E Sg      2011/04/08 15:10:40.8   0.0                          T                                        4671366
SSF   006.72 027.7 m E Pn      2011/04/08 15:08:49.1  -0.7                          T                                        4671424
SSF   006.72 027.7 m E Sn      2011/04/08 15:10:01.7  -0.2                          T                                        4671407
SSF   006.72 027.7 m E Sg      2011/04/08 15:10:43.4  -0.3                          T              122.1  .86 Ml 4.4         4671353
MBDF  006.74 055.8 m E Pn      2011/04/08 15:08:51.9   1.7                          T                                        4671420
MBDF  006.74 055.8 m E Sg      2011/04/08 15:10:43.7  -0.8                          T               63.8  .96 Ml 4.0         4671379
SBF   006.82 064.1 m E Pn      2011/04/08 15:08:52.0   0.9                          T                                        4671413
SBF   006.82 064.1 m E Sn      2011/04/08 15:10:04.6   0.3                          T                                        4671682
SBF   006.82 064.1 m E Sg      2011/04/08 15:10:46.7   0.0                          T              127.2  .72 Ml 4.5         4671386
QUIF  006.89 348.1 m E Pn      2011/04/08 15:08:52.2   0.2                          T                                        4671440
QUIF  006.89 348.1 m E Sn      2011/04/08 15:10:05.7  -0.1                          T              100.6  .40 Ml 4.6         4671396
LOR   007.03 028.5 m E Pn      2011/04/08 15:08:53.3  -0.6 216.2  4.2               T                                        4671423
LOR   007.03 028.5 m E Sn      2011/04/08 15:10:08.4  -0.8 215.2  3.2               T                                        4671408
LOR   007.03 028.5 m E Sg      2011/04/08 15:10:52.9  -0.2 217.6  5.7               T               69.7  .58 Ml 4.3         4671352
SGMF  007.14 351.9 m E Pn      2011/04/08 15:08:56.1   0.6                          T                                        4671439
SGMF  007.14 351.9 m E Sn      2011/04/08 15:10:11.8  -0.1                          T               25.8  .30 Ml 4.2         4671397
GRR   007.20 001.1 m E Pn      2011/04/08 15:08:56.6   0.4                          T                                        4671443
GRR   007.20 001.1 m E Sn      2011/04/08 15:10:12.6  -0.5                          T               84.0  .48 Ml 4.4         4671393
LPL   007.14 050.1 m E Pn      2011/04/08 15:08:57.8   2.1                          T                                        4671418
LPL   007.14 050.1 m E Sg      2011/04/08 15:10:56.6  -0.2                          T               49.7  .82 Ml 4.1         4671381
ROSF  007.31 348.3 m E Pn      2011/04/08 15:08:57.8   0.0                          T                                        4671438
ROSF  007.31 348.3 m E Sn      2011/04/08 15:10:16.0   0.0                          T               59.9  .34 Ml 4.6         4671398
LPG   007.14 050.3 m E Pn      2011/04/08 15:08:58.0   2.3                          T                                        4671417
LPG   007.14 050.3 m E Sg      2011/04/08 15:10:56.7  -0.3                          T               72.2  .98 Ml 4.1         4671382
LDF   007.43 004.8 m E Pn      2011/04/08 15:08:59.0  -0.3                          T                                        4671442
LDF   007.43 004.8 m E Sn      2011/04/08 15:10:17.8  -1.0                          T                                        4671394
LDF   007.43 004.8 m E Sg      2011/04/08 15:11:06.0   0.3                          T               81.1  .72 Ml 4.3         4671370
CABF  007.48 041.2 m E Pn      2011/04/08 15:09:00.5   0.3                          T                                        4671432
CABF  007.48 041.2 m E Sg      2011/04/08 15:11:07.1  -0.3                          T              619.9 1.32 Ml 5.0         4671363
FLN   007.58 002.9 m E Pn      2011/04/08 15:09:01.8   0.4 185.2  1.9               T                                        4671441
FLN   007.58 002.9 m E Sn      2011/04/08 15:10:22.1  -0.2 180.0  -3.3              T                                        4671395
FLN   007.58 002.9 m E Sg      2011/04/08 15:11:10.6   0.1                          T               62.6  .62 Ml 4.2         4671369
PGF   007.63 076.5 m E Pn      2011/04/08 15:09:01.9  -0.3                          T                                        4671412
PGF   007.63 076.5 m E Sn      2011/04/08 15:10:22.8  -0.8                          T               37.7  .56 Ml 4.4         4671387
SFTF  008.24 029.7 m E Pn      2011/04/08 15:09:10.2  -0.3                          T                                        4671429
SFTF  008.24 029.7 m E Sn      2011/04/08 15:10:37.9  -0.3 200.3  -13.7             T                                        4671685
SFTF  008.24 029.7 m E Sg      2011/04/08 15:11:31.2   0.0                          T              224.0 1.11 Ml 4.8         4671360
MEZF  008.50 028.6 m E Pn      2011/04/08 15:09:13.8  -0.1 221.7  8.8               T                                        4671409
MEZF  008.50 028.6 m E Sn      2011/04/08 15:10:43.5  -0.7 224.0  11.1              T                                        4671684
MEZF  008.50 028.6 m E Sg      2011/04/08 15:11:38.8  -0.2                          T              213.3 1.11 Ml 4.8         4671359
HAU   008.62 035.3 m E Pn      2011/04/08 15:09:15.3  -0.3                          T                                        4671430
HAU   008.62 035.3 m E Sg      2011/04/08 15:11:42.5  -0.4                          T               85.0  .96 Ml 4.2         4671361
HINF  008.70 037.8 m E Pn      2011/04/08 15:09:16.4  -0.4                          T                                        4671431
HINF  008.70 037.8 m E Sg      2011/04/08 15:11:45.0  -0.5                          T              111.2 1.21 Ml 4.5         4671362
PAGF  008.79 030.9 m E Pn      2011/04/08 15:09:17.8  -0.2 220.6  5.0               T                                        4671410
PAGF  008.79 030.9 m E Sn      2011/04/08 15:10:50.7  -0.7                          T                                        4671683
PAGF  008.79 030.9 m E Sg      2011/04/08 15:11:48.2  -0.2                          T               44.3  .90 Ml 4.2         4671358
CDF   009.33 036.6 m E Pn      2011/04/08 15:09:25.7   0.3                          T                                        4671428
CDF   009.33 036.6 m E Sg      2011/04/08 15:12:04.9  -0.4                          T               59.9 1.04 Ml 4.5         4671357
BAIF  009.60 020.8 m E Pn      2011/04/08 15:09:28.9   0.0                          T                                        4671427
BAIF  009.60 020.8 m E Sn      2011/04/08 15:11:10.2  -0.4                          T                                        4671404
BAIF  009.60 020.8 m E Sg      2011/04/08 15:12:13.3  -0.2                          T               36.9  .81 Ml 4.3         4671356
GIVF  009.81 022.8 m E Pn      2011/04/08 15:09:32.1   0.3                          T                                        4671426
GIVF  009.81 022.8 m E Sn      2011/04/08 15:11:15.7   0.0                          T                                        4671405
GIVF  009.81 022.8 m E Sg      2011/04/08 15:12:20.0  -0.1                          T               61.5  .82 Ml 4.6         4671355

.
EVENT     258100
    Date      Time       Latitude Longitude    Depth    Ndef Nsta Gap    Mag1  N    Mag2  N    Mag3  N   Author         ID
       rms   OT_Error      Smajor Sminor Az        Err   mdist  Mdist     Err        Err        Err      Quality

2011/04/08 17:33:44.8     49.2767    -.8182     14.0 f    18    6 265  Ml 1.9  5  Md 2.0  3              js067245    258100

      0.35   +-  0.12       2.3    1.0   15.43 +-  0.0    0.56   2.07   +-0.1      +-0.0                 m i ke

FRANCE
Sta     Dist  EvAz     Phase      Date       Time     TRes  Azim  AzRes  Slow  SRes Def   SNR       Amp   Per   Mag1   Mag2       ID
FLN   000.56 156.6 m E Pg      2011/04/08 17:33:55.6  -0.1 337.7  0.8               T                                        4671491
FLN   000.56 156.6 m E Sg      2011/04/08 17:34:03.1  -0.2 341.2  4.4               T                3.1  .20        Md 1.9  4671488
LDF   000.82 145.9 m E Pg      2011/04/08 17:34:00.7   0.2                          T                                        4671490
LDF   000.82 145.9 m E Sg      2011/04/08 17:34:11.4   0.1                          T                1.9  .18        Md 2.0  4671486
GRR   000.89 181.7 m E Pn      2011/04/08 17:34:01.3  -0.1                          T                                        4671489
GRR   000.89 181.7 m E Pg      2011/04/08 17:34:01.7   0.0                          T                                        4671695
GRR   000.89 181.7 m E Sg      2011/04/08 17:34:13.2  -0.2                          T                5.6  .23 Ml 2.0 Md 1.9  4671487
SGMF  001.54 229.0 m E Pn      2011/04/08 17:34:10.2   0.0                          T                                        4671693
SGMF  001.54 229.0 m E Sn      2011/04/08 17:34:28.9   0.1                          T                1.3  .19 Ml 1.9         4671694
ROSF  001.88 240.8 m E Pn      2011/04/08 17:34:14.7  -0.1                          T                                        4671690
ROSF  001.88 240.8 m E Pg      2011/04/08 17:34:19.6  -0.2                          T                                        4671689
ROSF  001.88 240.8 m E Sn      2011/04/08 17:34:36.7  -0.1                          T                                        4671691
ROSF  001.88 240.8 m E Sg      2011/04/08 17:34:43.7  -0.3                          T                1.3  .23 Ml 1.9         4671692
QUIF  002.07 229.7 m E Pg      2011/04/08 17:34:23.6   0.3                          T                                        4671686
QUIF  002.07 229.7 m E Sn      2011/04/08 17:34:41.3  -0.1                          T                                        4671688
QUIF  002.07 229.7 m E Sg      2011/04/08 17:34:50.0   0.1                          T                 .8  .25 Ml 1.7         4671687

.
EVENT     258101
    Date      Time       Latitude Longitude    Depth    Ndef Nsta Gap    Mag1  N    Mag2  N    Mag3  N   Author         ID
       rms   OT_Error      Smajor Sminor Az        Err   mdist  Mdist     Err        Err        Err      Quality

2011/04/08 19:37:44.6     41.2377   -1.1868     10.0      24    3 115  Ml 1.7  3  Md 1.7  3              js067245    258101

      0.57   +-  0.14       2.8    2.1   77.57 +-  0.0    0.72   2.12   +-0.1      +-0.0                 m i ke

SPAIN
Sta     Dist  EvAz     Phase      Date       Time     TRes  Azim  AzRes  Slow  SRes Def   SNR       Amp   Per   Mag1   Mag2       ID
ETSF  001.72 015.5 m E P       2011/04/08 19:38:14.8  -0.3                          T                                        4671497
ETSF  001.72 015.5 m E Pg      2011/04/08 19:38:17.2   0.4                          T                                        4671696
ETSF  001.72 015.5 m E Sg      2011/04/08 19:38:39.8   0.7                          T                  1  .24 Ml 1.7 Md 1.7  4671493
SJPF  001.87 359.1 m E Pg      2011/04/08 19:38:20.0   0.5                          T                                        4671496
SJPF  001.87 359.1 m E Sg      2011/04/08 19:38:44.5   0.8                          T                 .7  .29 Ml 1.6 Md 1.7  4671492
EPF   002.12 031.9 m E Pg      2011/04/08 19:38:24.9   0.8                          T                                        4671495
EPF   002.12 031.9 m E Sg      2011/04/08 19:38:52.2   0.8                          T                  1  .33 Ml 1.7 Md 1.6  4671494

.
