EVENT     295841
    Date      Time       Latitude Longitude    Depth    Ndef Nsta Gap    Mag1  N    Mag2  N    Mag3  N   Author         ID
       rms   OT_Error      Smajor Sminor Az        Err   mdist  Mdist     Err        Err        Err      Quality

2013/04/11 17:04:52.7     43.3481    2.2157       .0 f    12    5 111  Ml 1.7  4  Md 1.9  1              bulletin    295941
                                                                                                         _ldg
      6.13   +-  0.09       3.5     .1  169.09 +-  0.0    0.01   2.08   +-0.3      +-                    m i km

FRANCE
Sta     Dist  EvAz     Phase      Date       Time     TRes  Azim  AzRes  Slow  SRes Def   SNR       Amp   Per   Mag1   Mag2       ID
MTLF  000.01 169.1 m E Pg      2013/04/11 17:04:52.9   0.0                          T                                        5253755
MTLF  000.01 169.1 m E Sg      2013/04/11 17:04:54.0   0.9                          T               47.0  .20        Md 1.9  5253754
EPF   001.41 257.6 m E Pn      2013/04/11 17:05:18.1   0.0                          T                                        5253753
EPF   001.41 257.6 m E Sn      2013/04/11 17:05:36.0  -0.5                          T                1.2  .19 Ml 1.8         5253751
LASF  001.40 058.0 m E Pn      2013/04/11 17:05:18.3   0.4                          T                                        5253752
LASF  001.40 058.0 m E Sn      2013/04/11 17:05:36.2   0.1                          T                 .5  .21 Ml 1.3         5253750
CAF   001.58 356.1 m E Pn      2013/04/11 17:05:20.6   0.1                          T                                        5253747
CAF   001.58 356.1 m E Sn      2013/04/11 17:05:40.1  -0.5                          T                1.2  .16 Ml 1.9         5253746
ETSF  002.08 258.5 m E Pn      2013/04/11 17:05:27.1  -0.2                          T                                        5253756
ETSF  002.08 258.5 m E Sn      2013/04/11 17:05:52.2  -0.4                          T                 .7  .18 Ml 1.8         5253757

.
EVENT     295860
    Date      Time       Latitude Longitude    Depth    Ndef Nsta Gap    Mag1  N    Mag2  N    Mag3  N   Author         ID
       rms   OT_Error      Smajor Sminor Az        Err   mdist  Mdist     Err        Err        Err      Quality

2013/04/11 17:07:07.1     42.8980   -1.5393      2.0      24    3 170  Ml 1.4  1  Md 1.4  2              bulletin    295960
                                                                                                         _ldg
      0.56   +-  0.28       4.4    2.6  120.27 +-  0.0    0.13   1.39   +-         +-0.1                 m i ke

PYRENEES
Sta     Dist  EvAz     Phase      Date       Time     TRes  Azim  AzRes  Slow  SRes Def   SNR       Amp   Per   Mag1   Mag2       ID
SJPF  000.32 046.9 m E Pg      2013/04/11 17:07:13.3   0.0                          T                                        5253821
SJPF  000.32 046.9 m E Sg      2013/04/11 17:07:17.7   0.1                          T                3.5  .22        Md 1.5  5253820
ETSF  000.72 089.6 m E Pg      2013/04/11 17:07:20.8   0.0                          T                                        5253822
ETSF  000.72 089.6 m E Sg      2013/04/11 17:07:30.3   0.1                          T                 .8  .20        Md 1.3  5255534
EPF   001.39 083.9 m E Pg      2013/04/11 17:07:33.0   0.0                          T                                        5255533
EPF   001.39 083.9 m E Sg      2013/04/11 17:07:51.3   0.4                          T                 .5  .21 Ml 1.4         5255532

.
EVENT     295851
    Date      Time       Latitude Longitude    Depth    Ndef Nsta Gap    Mag1  N    Mag2  N    Mag3  N   Author         ID
       rms   OT_Error      Smajor Sminor Az        Err   mdist  Mdist     Err        Err        Err      Quality

2013/04/11 18:17:05.4     44.4563    6.9500      2.0      53   10 040  Ml 2.1  9  Md 2.0  1              bulletin    295951
                                                                                                         _ldg
      0.29   +-  0.04        .9     .6   52.41 +-  0.0    0.10   2.42   +-0.4      +-                    m i ke

FRANCE
Sta     Dist  EvAz     Phase      Date       Time     TRes  Azim  AzRes  Slow  SRes Def   SNR       Amp   Per   Mag1   Mag2       ID
MBDF  000.30 334.8 m E Pg      2013/04/11 18:17:11.3  -0.1                          T                                Md 2.0  5253795
MBDF  000.30 334.8 m E Sg      2013/04/11 18:17:15.0  -0.4                          T               33.8  .20                5253791
SBF   000.69 149.3 m E Pg      2013/04/11 18:17:18.5   0.0                          T                                        5253787
SBF   000.69 149.3 m E Sg      2013/04/11 18:17:27.4  -0.1                          T                7.1  .21                5253780
ORIF  000.89 301.6 m E Pg      2013/04/11 18:17:22.2   0.0                          T                                        5253794
ORIF  000.89 301.6 m E Sg      2013/04/11 18:17:33.7  -0.2                          T                3.9  .24 Ml 2.0         5253786
FRF   000.92 193.8 m E Pg      2013/04/11 18:17:22.6  -0.1                          T                                        5253793
FRF   000.92 193.8 m E Sg      2013/04/11 18:17:34.4  -0.2                          T               24.5  .24 Ml 2.8         5253782
LPG   001.05 352.4 m E Pg      2013/04/11 18:17:25.1  -0.3                          T                                        5253789
LPG   001.05 352.4 m E Sg      2013/04/11 18:17:38.3  -0.7                          T                2.7  .24 Ml 1.9         5253784
LPL   001.07 351.8 m E Pg      2013/04/11 18:17:25.6  -0.1                          T                                        5253790
LPL   001.07 351.8 m E Sg      2013/04/11 18:17:39.2  -0.4                          T                1.7  .24 Ml 1.7         5253785
SMRF  001.10 244.6 m E Pg      2013/04/11 18:17:26.5   0.5                          T                                        5253788
SMRF  001.10 244.6 m E Sg      2013/04/11 18:17:40.7   0.4                          T                1.9  .18 Ml 1.9         5253783
LMR   001.17 196.0 m E Pn      2013/04/11 18:17:27.3   0.2                          T                                        5253792
LMR   001.17 196.0 m E Sg      2013/04/11 18:17:42.3   0.0                          T               12.5  .22 Ml 2.7         5253781
VIVF  001.67 284.6 m E Pn      2013/04/11 18:17:34.1   0.1                          T                                        5253778
VIVF  001.67 284.6 m E Sn      2013/04/11 18:17:54.1  -0.7                          T                1.1  .28 Ml 1.7         5253777
PGF   002.42 141.3 m E Pn      2013/04/11 18:17:44.6   0.3                          T                                        5253779
PGF   002.42 141.3 m E Sn      2013/04/11 18:18:13.1   0.4                          T                 .8  .25 Ml 2.0         5253799

.
EVENT     295862
    Date      Time       Latitude Longitude    Depth    Ndef Nsta Gap    Mag1  N    Mag2  N    Mag3  N   Author         ID
       rms   OT_Error      Smajor Sminor Az        Err   mdist  Mdist     Err        Err        Err      Quality

2013/04/11 20:56:17.5     42.6715   -1.9124      2.0      19    3 304  Ml 1.6  2  Md 1.6  1              bulletin    295962
                                                                                                         _ldg
      0.49   +-  0.49       7.6    5.8   35.84 +-  0.0    0.26   1.69   +-0.2      +-                    m i ke

PYRENEES
Sta     Dist  EvAz     Phase      Date       Time     TRes  Azim  AzRes  Slow  SRes Def   SNR       Amp   Per   Mag1   Mag2       ID
SJPF  000.67 048.6 m E Pg      2013/04/11 20:56:30.0  -0.2                          T                                        5253861
SJPF  000.67 048.6 m E Sg      2013/04/11 20:56:38.5  -0.4                          T                1.4  .26        Md 1.6  5253860
ETSF  001.02 076.7 m E Pg      2013/04/11 20:56:36.6  -0.1                          T                                        5253859
ETSF  001.02 076.7 m E Sg      2013/04/11 20:56:49.6  -0.3                          T                 .8  .19 Ml 1.5         5253857
EPF   001.69 077.0 m E Pn      2013/04/11 20:56:46.2  -0.2                          T                                        5253858
EPF   001.69 077.0 m E Pg      2013/04/11 20:56:49.0  -0.1                          T                                        5253855
EPF   001.69 077.0 m E Sg      2013/04/11 20:57:10.4  -0.5                          T                 .8  .20 Ml 1.7         5253856

.
EVENT     295861
    Date      Time       Latitude Longitude    Depth    Ndef Nsta Gap    Mag1  N    Mag2  N    Mag3  N   Author         ID
       rms   OT_Error      Smajor Sminor Az        Err   mdist  Mdist     Err        Err        Err      Quality

2013/04/11 21:23:20.1     43.1029    -.8211      2.0      18    4 159  Ml 1.5  2  Md 1.6  3              bulletin    295961
                                                                                                         _ldg
      0.46   +-  0.09       2.6    1.1  169.27 +-  0.0    0.09   2.23   +-0.0      +-0.1                 m i ke

PYRENEES
Sta     Dist  EvAz     Phase      Date       Time     TRes  Azim  AzRes  Slow  SRes Def   SNR       Amp   Per   Mag1   Mag2       ID
ETSF  000.28 136.7 m E Pg      2013/04/11 21:23:25.9   0.2                          T                                        5253838
ETSF  000.28 136.7 m E Sg      2013/04/11 21:23:29.3  -0.2                          T                1.9  .20        Md 1.7  5253837
SJPF  000.30 272.2 m E Pg      2013/04/11 21:23:26.2   0.3                          T                                        5253836
SJPF  000.30 272.2 m E Sg      2013/04/11 21:23:29.9   0.0                          T                 .6  .20        Md 1.5  5253835
EPF   000.85 094.5 m E Pg      2013/04/11 21:23:36.2  -0.1                          T                                        5253834
EPF   000.85 094.5 m E Sg      2013/04/11 21:23:47.0  -0.4                          T                 .3  .23        Md 1.5  5253833
MTLF  002.23 082.8 m E Pn      2013/04/11 21:23:56.2  -0.1                          T                                        5253841
MTLF  002.23 082.8 m E Sg      2013/04/11 21:24:30.3  -0.1                          T                 .3  .18 Ml 1.5         5253842

.
EVENT     295863
    Date      Time       Latitude Longitude    Depth    Ndef Nsta Gap    Mag1  N    Mag2  N    Mag3  N   Author         ID
       rms   OT_Error      Smajor Sminor Az        Err   mdist  Mdist     Err        Err        Err      Quality

2013/04/11 21:52:33.8     42.7995   -1.2748      2.0      20    4 111  Ml 1.4  3  Md 1.4  2              bulletin    295963
                                                                                                         _ldg
      0.80   +-  0.12       2.8    2.4    5.82 +-  0.0    0.02   2.62   +-0.2      +-0.1                 m i ke

PYRENEES
Sta     Dist  EvAz     Phase      Date       Time     TRes  Azim  AzRes  Slow  SRes Def   SNR       Amp   Per   Mag1   Mag2       ID
SJPF  000.32 006.6 m E Pg      2013/04/11 21:52:40.0   0.0                          T                                        5253879
SJPF  000.32 006.6 m E Sg      2013/04/11 21:52:44.3   0.1                          T                1.0  .22        Md 1.4  5253878
ETSF  000.54 079.1 m E Pg      2013/04/11 21:52:44.0  -0.1                          T                                        5253877
ETSF  000.54 079.1 m E Sg      2013/04/11 21:52:51.0  -0.1                          T                1.1  .22        Md 1.5  5253876
EPF   001.21 078.4 m E Pn      2013/04/11 21:52:56.0  -0.1                          T                                        5253875
EPF   001.21 078.4 m E Sn      2013/04/11 21:53:11.7  -0.4                          T                 .3  .17 Ml 1.2         5253874
MTLF  002.62 076.9 m E Pn      2013/04/11 21:53:15.4   0.2                          T                                        5253873
MTLF  002.62 076.9 m E Sn      2013/04/11 21:53:45.6  -0.1                          T                 .3  .18 Ml 1.5         5253872

.
EVENT     295864
    Date      Time       Latitude Longitude    Depth    Ndef Nsta Gap    Mag1  N    Mag2  N    Mag3  N   Author         ID
       rms   OT_Error      Smajor Sminor Az        Err   mdist  Mdist     Err        Err        Err      Quality

2013/04/11 22:09:46.0     47.8308    7.7120     13.7      37    8 047  Ml 1.7  7  Md 1.9  2              bulletin    295964
                                                                                                         _ldg
      0.46   +-  0.04        .9     .8  147.07 +-  0.5    0.12   2.67   +-0.3      +-0.0                 m i ke

SWITZERLAND
Sta     Dist  EvAz     Phase      Date       Time     TRes  Azim  AzRes  Slow  SRes Def   SNR       Amp   Per   Mag1   Mag2       ID
HINF  000.58 268.9 m E Pg      2013/04/11 22:09:56.5  -0.8                          T                                        5253908
HINF  000.58 268.9 m E Sg      2013/04/11 22:10:04.6  -0.5                          T                2.4  .18        Md 1.9  5253907
CDF   000.65 333.5 m E Pg      2013/04/11 22:09:58.7   0.0                          T                                        5253904
CDF   000.65 333.5 m E Sg      2013/04/11 22:10:07.0  -0.4                          T                1.3  .17        Md 1.9  5253903
HAU   000.93 281.3 m E Pg      2013/04/11 22:10:03.8   0.1                          T                                        5253906
HAU   000.93 281.3 m E Sn      2013/04/11 22:10:15.3  -0.3                          T                6.2  .27 Ml 1.9         5253905
CABF  001.65 222.8 m E Pn      2013/04/11 22:10:13.0   0.0                          T                                        5253910
CABF  001.65 222.8 m E Sn      2013/04/11 22:10:33.2   0.4                          T                                        5253909
CABF  001.65 222.8 m E Sg      2013/04/11 22:10:38.9   0.7                          T                1.7  .30 Ml 1.9         5254893
SFTF  001.83 282.8 m E Pn      2013/04/11 22:10:15.5   0.1 104.8  4.0               T                                        5253912
SFTF  001.83 282.8 m E Pg      2013/04/11 22:10:20.4   0.2                          T                                        5254892
SFTF  001.83 282.8 m E Sg      2013/04/11 22:10:43.8  -0.1 108.1  7.3               T                 .5  .14 Ml 1.7         5253911
LPL   002.41 196.6 m E Pn      2013/04/11 22:10:23.8   0.2                          T                                        5253923
LPL   002.41 196.6 m E Pg      2013/04/11 22:10:31.0  -0.1                          T                                        5254888
LPL   002.41 196.6 m E Sn      2013/04/11 22:10:51.4   0.3                          T                                        5253922
LPL   002.41 196.6 m E Sg      2013/04/11 22:11:02.5   0.3                          T                 .2  .18 Ml 1.4         5253921
LPG   002.43 196.2 m E Pn      2013/04/11 22:10:23.9   0.0                          T                                        5253920
LPG   002.43 196.2 m E Pg      2013/04/11 22:10:31.5   0.1                          T                                        5253919
LPG   002.43 196.2 m E Sn      2013/04/11 22:10:51.7   0.1                          T                 .2  .20 Ml 1.2         5253918
LOR   002.67 259.3 m E Pn      2013/04/11 22:10:27.1   0.2  76.5  0.1               T                                        5253914
LOR   002.67 259.3 m E Pg      2013/04/11 22:10:35.4  -0.2                          T                                        5254890
LOR   002.67 259.3 m E Sn      2013/04/11 22:10:57.4   0.4                          T                                        5254891
LOR   002.67 259.3 m E Sg      2013/04/11 22:11:10.3   0.4  73.4  -3.0              T                 .9  .23 Ml 1.9         5253913

.
EVENT     295865
    Date      Time       Latitude Longitude    Depth    Ndef Nsta Gap    Mag1  N    Mag2  N    Mag3  N   Author         ID
       rms   OT_Error      Smajor Sminor Az        Err   mdist  Mdist     Err        Err        Err      Quality

2013/04/11 22:20:56.6     42.7392   -1.7704      2.0      23    4 171  Ml 1.5  3  Md 1.6  1              bulletin    295965
                                                                                                         _ldg
      0.72   +-  0.28       6.5    3.2   11.44 +-  0.0    0.14   2.98   +-0.2      +-                    m i ke

PYRENEES
Sta     Dist  EvAz     Phase      Date       Time     TRes  Azim  AzRes  Slow  SRes Def   SNR       Amp   Per   Mag1   Mag2       ID
SJPF  000.55 046.8 m E Pg      2013/04/11 22:21:06.8  -0.2                          T                                        5253897
SJPF  000.55 046.8 m E Sg      2013/04/11 22:21:13.6  -0.6                          T                 .7  .22        Md 1.6  5253896
ETSF  000.91 079.5 m E Pg      2013/04/11 22:21:13.5  -0.2                          T                                        5253902
ETSF  000.91 079.5 m E Sg      2013/04/11 22:21:25.0  -0.4                          T                 .8  .20 Ml 1.4         5253901
EPF   001.58 078.7 m E Pn      2013/04/11 22:21:23.5  -0.4                          T                                        5253900
EPF   001.58 078.7 m E Pg      2013/04/11 22:21:26.0   0.0                          T                                        5253899
EPF   001.58 078.7 m E Sg      2013/04/11 22:21:46.0  -0.4                          T                 .3  .15 Ml 1.3         5253898
MTLF  002.98 077.0 m E Pn      2013/04/11 22:21:43.3   0.3                          T                                        5255468
MTLF  002.98 077.0 m E Sn      2013/04/11 22:22:17.3   0.0                          T                 .6  .26 Ml 1.8         5255467

.
