EVENT     278943
    Date      Time       Latitude Longitude    Depth    Ndef Nsta Gap    Mag1  N    Mag2  N    Mag3  N   Author         ID
       rms   OT_Error      Smajor Sminor Az        Err   mdist  Mdist     Err        Err        Err      Quality

2012/06/28 03:39:51.6     48.0891    7.9821     10.0      18    5 070  Ml 2.1  3  Md 2.0  2              bulletin    279043
                                                                                                         _ldg
      0.26   +-  0.04        .8     .7  177.07 +-  0.0    0.12   1.58   +-0.1      +-0.0                 m i ke

FRANCE
Sta     Dist  EvAz     Phase      Date       Time     TRes  Azim  AzRes  Slow  SRes Def   SNR       Amp   Per   Mag1   Mag2       ID
CDF   000.57 304.7 m E Pg      2012/06/28 03:40:02.8   0.1                          T                                        5024544
CDF   000.57 304.7 m E Sg      2012/06/28 03:40:10.4   0.1                          T                5.5  .20        Md 2.0  5024545
HINF  000.81 250.7 m E Pg      2012/06/28 03:40:06.5  -0.4                          T                                        5024539
HINF  000.81 250.7 m E Sg      2012/06/28 03:40:17.4  -0.1                          T                3.3  .26        Md 2.0  5024540
HAU   001.10 266.2 m E Pg      2012/06/28 03:40:12.3   0.1                          T                                        5024535
HAU   001.10 266.2 m E Sg      2012/06/28 03:40:26.7   0.2                          T                7.4  .33 Ml 2.0         5024542
THEF  001.34 276.7 m E Pn      2012/06/28 03:40:14.6  -0.1                          T                                        5024537
THEF  001.34 276.7 m E Pg      2012/06/28 03:40:16.5  -0.1                          T                                        5024536
THEF  001.34 276.7 m E Sg      2012/06/28 03:40:34.6   0.6                          T                3.1  .20 Ml 2.2         5024541
PAGF  001.58 288.0 m E Pg      2012/06/28 03:40:20.8  -0.2                          T                                        5024538
PAGF  001.58 288.0 m E Sg      2012/06/28 03:40:41.8   0.4                          T                3.4  .30 Ml 2.1         5024543

.
EVENT     278821
    Date      Time       Latitude Longitude    Depth    Ndef Nsta Gap    Mag1  N    Mag2  N    Mag3  N   Author         ID
       rms   OT_Error      Smajor Sminor Az        Err   mdist  Mdist     Err        Err        Err      Quality

2012/06/28 10:20:26.3     43.6662    6.9658       .0 f    24    9 091  Ml 1.8  6  Md 2.0  3              bulletin    278921
                                                                                                         _ldg
      0.31   +-  0.08       1.7    1.5  152.20 +-  0.0    0.07   1.86   +-0.3      +-0.1                 m i km

NEAR SOUTH COAST OF FRANCE
Sta     Dist  EvAz     Phase      Date       Time     TRes  Azim  AzRes  Slow  SRes Def   SNR       Amp   Per   Mag1   Mag2       ID
FRF   000.25 245.6 m E Pg      2012/06/28 10:20:31.1  -0.5                          T                                        5014844
FRF   000.25 245.6 m E Sg      2012/06/28 10:20:35.3   0.1                          T               90.7  .64        Md 2.0  5014843
SBF   000.39 059.8 m E Pg      2012/06/28 10:20:34.0  -0.2                          T                                        5014840
SBF   000.39 059.8 m E Sg      2012/06/28 10:20:39.6   0.0                          T               22.6  .44        Md 1.9  5014877
LMR   000.47 225.2 m E Pg      2012/06/28 10:20:35.4  -0.2                          T                                        5014842
LMR   000.47 225.2 m E Sg      2012/06/28 10:20:42.4   0.5                          T                3.2  .22        Md 2.0  5014841
SMRF  001.05 287.6 m E Pg      2012/06/28 10:20:46.7   0.3                          T                                        5014839
SMRF  001.05 287.6 m E Sg      2012/06/28 10:21:00.2   0.0                          T                8.6  .43 Ml 2.1         5014838
MBDF  001.07 352.6 m E Pg      2012/06/28 10:20:47.0   0.2                          T                                        5014880
MBDF  001.07 352.6 m E Sg      2012/06/28 10:21:00.8   0.0                          T                7.0  .54 Ml 2.0         5014879
ORIF  001.47 328.5 m E Pn      2012/06/28 10:20:52.6  -0.1                          T                                        5014873
ORIF  001.47 328.5 m E Sn      2012/06/28 10:21:11.4  -0.4                          T                3.3  .35 Ml 2.0         5014872
LPG   001.84 355.3 m E Pn      2012/06/28 10:20:57.9  -0.1                          T                                        5014876
LPG   001.84 355.3 m E Sn      2012/06/28 10:21:20.2  -0.4                          T                 .4  .21 Ml 1.5         5014875
PGF   001.86 126.2 m E Pn      2012/06/28 10:20:58.1   0.1                          T                                        5014871
PGF   001.86 126.2 m E Sn      2012/06/28 10:21:20.8  -0.2                          T                 .3  .21 Ml 1.6         5014870
LPL   001.86 354.9 m E Pn      2012/06/28 10:20:58.2   0.1                          T                                        5014874
LPL   001.86 354.9 m E Sn      2012/06/28 10:21:20.4  -0.7                          T                1.1  .29 Ml 1.8         5014878

.
EVENT     278829
    Date      Time       Latitude Longitude    Depth    Ndef Nsta Gap    Mag1  N    Mag2  N    Mag3  N   Author         ID
       rms   OT_Error      Smajor Sminor Az        Err   mdist  Mdist     Err        Err        Err      Quality

2012/06/28 10:26:29.9     44.6907    7.3166      7.0 f    23    3 142  Ml 1.7  2  Md 1.7  1              bulletin    278929
                                                                                                         _ldg
      0.25   +-  0.07       1.4     .9   64.51 +-  0.0    0.15   1.67   +-0.1      +-                    m i ke

NORTHERN ITALY
Sta     Dist  EvAz     Phase      Date       Time     TRes  Azim  AzRes  Slow  SRes Def   SNR       Amp   Per   Mag1   Mag2       ID
MBDF  000.39 275.5 m E Pg      2012/06/28 10:26:37.7   0.0                          T                                        5014901
MBDF  000.39 275.5 m E Sg      2012/06/28 10:26:42.4  -0.5                          T                4.0  .20        Md 1.7  5014900
FRF   001.23 203.4 m E Pg      2012/06/28 10:26:52.6  -0.3                          T                                        5014899
FRF   001.23 203.4 m E Sg      2012/06/28 10:27:09.2   0.4                          T                 .9  .20 Ml 1.6         5014898
LMR   001.48 203.5 m E Pg      2012/06/28 10:26:57.9   0.5                          T                                        5014897
LMR   001.48 203.5 m E Sg      2012/06/28 10:27:17.0   0.5                          T                 .9  .19 Ml 1.7         5014896

.
EVENT     278835
    Date      Time       Latitude Longitude    Depth    Ndef Nsta Gap    Mag1  N    Mag2  N    Mag3  N   Author         ID
       rms   OT_Error      Smajor Sminor Az        Err   mdist  Mdist     Err        Err        Err      Quality

2012/06/28 16:50:53.3     43.0882   -1.6340       .0 f     8    4 311  Ml 2.2  2  Md 2.1  3              bulletin    278935
                                                                                                         _ldg
      0.42   +-  0.45       7.4    5.7   47.83 +-  0.0    0.30   3.24   +-0.1      +-0.2                 m i km

PYRENEES
Sta     Dist  EvAz     Phase      Date       Time     TRes  Azim  AzRes  Slow  SRes Def   SNR       Amp   Per   Mag1   Mag2       ID
SJPF  000.30 085.1 m E Pg      2012/06/28 16:50:59.4   0.0                          T                                        5014971
SJPF  000.30 085.1 m E Sg      2012/06/28 16:51:03.0  -0.7                          T               18.1  .18        Md 2.0  5014970
ETSF  000.81 103.1 m E Pg      2012/06/28 16:51:08.5  -0.4                          T                                        5014969
ETSF  000.81 103.1 m E Sg      2012/06/28 16:51:20.1   0.4                          T                6.2  .20        Md 2.1  5014968
EPF   001.45 091.6 m E Pg      2012/06/28 16:51:20.9   0.3                          T                                        5014967
EPF   001.45 091.6 m E Sg      2012/06/28 16:51:40.3   0.8                          T                3.3  .21 Ml 2.2 Md 2.3  5014966
CAF   003.24 054.2 m E Pn      2012/06/28 16:51:44.1   0.5                          T                                        5014973
CAF   003.24 054.2 m E Sn      2012/06/28 16:52:21.4   0.6                          T                 .7  .17 Ml 2.1         5014972

.
EVENT     278836
    Date      Time       Latitude Longitude    Depth    Ndef Nsta Gap    Mag1  N    Mag2  N    Mag3  N   Author         ID
       rms   OT_Error      Smajor Sminor Az        Err   mdist  Mdist     Err        Err        Err      Quality

2012/06/28 17:33:21.1     44.9692   10.9987      2.0      41   12 167  Ml 2.4 12                         bulletin    278936
                                                                                                         _ldg
      0.80   +-  0.25       5.8    3.2  108.20 +-  0.0    0.10   5.47   +-0.2                            m i ke

NORTHERN ITALY
Sta     Dist  EvAz     Phase      Date       Time     TRes  Azim  AzRes  Slow  SRes Def   SNR       Amp   Per   Mag1   Mag2       ID
PGF   002.82 211.6 m E Pn      2012/06/28 17:34:05.1  -0.4                          T                                        5015014
PGF   002.82 211.6 m E Sn      2012/06/28 17:34:37.1  -1.0                          T                 .6  .18 Ml 2.1         5015013
SBF   002.78 247.8 m E Pn      2012/06/28 17:34:05.2   0.3                          T                                        5015012
SBF   002.78 247.8 m E Sn      2012/06/28 17:34:36.4  -0.7                          T                5.7  .32 Ml 2.6         5015011
MBDF  003.02 266.9 m E Pn      2012/06/28 17:34:07.9  -0.3                          T                                        5014998
MBDF  003.02 266.9 m E Sn      2012/06/28 17:34:42.8   0.0                          T                3.4  .51 Ml 2.2         5014997
LPG   003.05 281.5 m E Pn      2012/06/28 17:34:08.6  -0.2                          T                                        5015004
LPG   003.05 281.5 m E Sn      2012/06/28 17:34:43.9   0.2                          T                3.7  .44 Ml 2.4         5015003
LPL   003.06 281.8 m E Pn      2012/06/28 17:34:08.9  -0.1                          T                                        5015002
LPL   003.06 281.8 m E Sn      2012/06/28 17:34:43.8  -0.2                          T                2.4  .35 Ml 2.3         5015001
FRF   003.43 247.3 m E Pn      2012/06/28 17:34:14.0   0.3                          T                                        5015008
FRF   003.43 247.3 m E Sn      2012/06/28 17:34:51.6  -0.8                          T                1.4  .21 Ml 2.4         5015007
ORIF  003.63 271.0 m E Pn      2012/06/28 17:34:16.5  -0.1                          T                                        5015000
ORIF  003.63 271.0 m E Sn      2012/06/28 17:34:57.5   0.0                          T                1.5  .29 Ml 2.3         5014999
LMR   003.62 244.7 m E Pn      2012/06/28 17:34:16.5   0.3                          T                                        5015010
LMR   003.62 244.7 m E Sn      2012/06/28 17:34:55.1  -2.0                          T                3.0  .34 Ml 2.5         5015009
SMRF  004.01 257.6 m E Pn      2012/06/28 17:34:21.6   0.0                          T                                        5015006
SMRF  004.01 257.6 m E Sn      2012/06/28 17:35:05.5  -0.8                          T                 .5  .26 Ml 1.9         5015005
CDF   004.29 324.7 m E Pn      2012/06/28 17:34:25.8   0.3                          T                                        5014994
CDF   004.29 324.7 m E Sn      2012/06/28 17:35:13.1  -0.1                          T                1.2  .27 Ml 2.5         5014993
HAU   004.42 315.1 m E Pn      2012/06/28 17:34:27.3   0.2                          T                                        5014992
HAU   004.42 315.1 m E Sn      2012/06/28 17:35:16.3   0.1                          T                4.9  .26 Ml 2.8         5014991
LOR   005.47 297.4 m E Pn      2012/06/28 17:34:41.1  -0.3                          T                                        5014996
LOR   005.47 297.4 m E Sn      2012/06/28 17:35:40.9  -0.4                          T                1.8  .39 Ml 2.6         5014995

.
EVENT     278837
    Date      Time       Latitude Longitude    Depth    Ndef Nsta Gap    Mag1  N    Mag2  N    Mag3  N   Author         ID
       rms   OT_Error      Smajor Sminor Az        Err   mdist  Mdist     Err        Err        Err      Quality

2012/06/28 18:30:11.4     44.5173    7.2613     10.0      30    8 123  Ml 1.7  4  Md 2.1  4              bulletin    278937
                                                                                                         _ldg
      0.30   +-  0.07       1.6    1.0   64.87 +-  0.0    0.02   1.33   +-0.3      +-0.1                 m i ke

NORTHERN ITALY
Sta     Dist  EvAz     Phase      Date       Time     TRes  Azim  AzRes  Slow  SRes Def   SNR       Amp   Per   Mag1   Mag2       ID
MBDF  000.41 301.1 m E Pg      2012/06/28 18:30:19.7   0.2                          T                                        5015038
MBDF  000.41 301.1 m E Sg      2012/06/28 18:30:25.2   0.1                          T                6.7  .22        Md 2.0  5015037
SBF   000.67 169.1 m E Pg      2012/06/28 18:30:24.4   0.2                          T                                        5015030
SBF   000.67 169.1 m E Sg      2012/06/28 18:30:33.4   0.5                          T                2.4  .18        Md 2.0  5015029
LPG   001.05 339.9 m E Pg      2012/06/28 18:30:30.6  -0.8                          T                                        5015040
LPG   001.05 339.9 m E Sg      2012/06/28 18:30:44.6  -0.4                          T                 .6  .19 Ml 1.3         5015039
ORIF  001.06 292.6 m E Pg      2012/06/28 18:30:31.2  -0.3                          T                                        5015036
ORIF  001.06 292.6 m E Sg      2012/06/28 18:30:43.9  -1.4                          T                1.5  .19 Ml 1.7 Md 2.0  5015035
LPL   001.07 339.6 m E Pg      2012/06/28 18:30:31.3  -0.4                          T                                        5015041
FRF   001.05 205.1 m E Pg      2012/06/28 18:30:31.6   0.4                          T                                        5015034
FRF   001.05 205.1 m E Sg      2012/06/28 18:30:44.4  -0.5                          T                1.5  .18 Ml 1.8         5015033
LMR   001.30 204.9 m E Pg      2012/06/28 18:30:35.4  -0.3                          T                                        5015032
LMR   001.30 204.9 m E Sg      2012/06/28 18:30:51.9  -0.7                          T                                Md 2.3  5015031
SMRF  001.33 246.5 m E Pg      2012/06/28 18:30:36.2  -0.1                          T                                        5015028
SMRF  001.33 246.5 m E Sg      2012/06/28 18:30:53.5   0.1                          T                4.2  .33 Ml 2.1         5015027

.
EVENT     278839
    Date      Time       Latitude Longitude    Depth    Ndef Nsta Gap    Mag1  N    Mag2  N    Mag3  N   Author         ID
       rms   OT_Error      Smajor Sminor Az        Err   mdist  Mdist     Err        Err        Err      Quality

2012/06/28 21:17:08.4     42.9761   -1.6281      2.0       7    3 329  Ml 1.7  1  Md 1.7  2              bulletin    278939
                                                                                                         _ldg
      0.43   +-  0.53      11.3    9.2  171.77 +-  0.0    0.33   1.44   +-         +-0.1                 m i ke

PYRENEES
Sta     Dist  EvAz     Phase      Date       Time     TRes  Azim  AzRes  Slow  SRes Def   SNR       Amp   Per   Mag1   Mag2       ID
SJPF  000.33 065.0 m E Pg      2012/06/28 21:17:14.4  -0.4                          T                                        5015045
SJPF  000.33 065.0 m E Sg      2012/06/28 21:17:18.5  -0.7                          T                3.9  .16        Md 1.8  5015042
ETSF  000.79 095.3 m E Pg      2012/06/28 21:17:23.0  -0.4                          T                                        5015044
ETSF  000.79 095.3 m E Sg      2012/06/28 21:17:32.9  -0.7                          T                1.6  .21        Md 1.6  5015047
EPF   001.44 087.2 m E Pn      2012/06/28 21:17:34.1   0.1                          T                                        5015043
EPF   001.44 087.2 m E Pg      2012/06/28 21:17:35.2  -0.2                          T                                        5015048
EPF   001.44 087.2 m E Sg      2012/06/28 21:17:54.5   0.4                          T                1.0  .22 Ml 1.7         5015046

.
EVENT     278840
    Date      Time       Latitude Longitude    Depth    Ndef Nsta Gap    Mag1  N    Mag2  N    Mag3  N   Author         ID
       rms   OT_Error      Smajor Sminor Az        Err   mdist  Mdist     Err        Err        Err      Quality

2012/06/29 02:16:13.7     42.7264     .2275      2.0      30    6 077  Ml 1.6  4  Md 1.7  1              bulletin    278940
                                                                                                         _ldg
      0.69   +-  0.13       2.6    2.3   10.33 +-  0.0    0.31   2.57   +-0.2      +-                    m i ke

PYRENEES
Sta     Dist  EvAz     Phase      Date       Time     TRes  Azim  AzRes  Slow  SRes Def   SNR       Amp   Per   Mag1   Mag2       ID
EPF   000.31 015.2 m E Pg      2012/06/29 02:16:20.2   0.2                          T                                Md 1.7  5015058
EPF   000.31 015.2 m E Sg      2012/06/29 02:16:23.6  -0.5                          T                                        5015055
ETSF  000.60 286.8 m E Pg      2012/06/29 02:16:23.4  -1.9                          T                                        5015057
SJPF  001.13 290.4 m E Pg      2012/06/29 02:16:35.1   0.1                          T                                        5015056
SJPF  001.13 290.4 m E Sg      2012/06/29 02:16:49.2  -0.5                          T                1.4  .24 Ml 1.6         5015081
MTLF  001.58 066.5 m E Pn      2012/06/29 02:16:41.5   0.4                          T                                        5015054
MTLF  001.58 066.5 m E Pg      2012/06/29 02:16:43.6   0.4                          T                                        5015084
MTLF  001.58 066.5 m E Sn      2012/06/29 02:17:00.8  -0.2                          T                 .3  .19 Ml 1.3         5015083
MTLF  001.58 066.5 m E Sg      2012/06/29 02:17:05.6   1.9                          T                                        5015082
LFF   002.24 009.3 m E Pn      2012/06/29 02:16:50.7   0.6                          T                                        5015051
LFF   002.24 009.3 m E Pg      2012/06/29 02:16:54.2  -1.2                          T                                        5015052
LFF   002.24 009.3 m E Sn      2012/06/29 02:17:16.2  -0.5                          T                1.0  .22 Ml 1.8         5015086
CAF   002.57 030.5 m E Pn      2012/06/29 02:16:54.7   0.2                          T                                        5015053
CAF   002.57 030.5 m E Pg      2012/06/29 02:17:00.5  -1.0                          T                                        5015050
CAF   002.57 030.5 m E Sn      2012/06/29 02:17:24.8   0.3                          T                 .6  .24 Ml 1.7         5015080
CAF   002.57 030.5 m E Sg      2012/06/29 02:17:34.7   0.2                          T                                        5015079

.
