EVENT     297366
    Date      Time       Latitude Longitude    Depth    Ndef Nsta Gap    Mag1  N    Mag2  N    Mag3  N   Author         ID
       rms   OT_Error      Smajor Sminor Az        Err   mdist  Mdist     Err        Err        Err      Quality

2013/05/03 07:08:49.1     44.5043    6.6699      2.0      32   10 055  Ml 1.5  6  Md 1.6  3              bulletin    297466
                                                                                                         _ldg
      0.44   +-  0.06       1.4    1.0   60.76 +-  0.0    0.10   2.59   +-0.2      +-0.1                 m i ke

FRANCE
Sta     Dist  EvAz     Phase      Date       Time     TRes  Azim  AzRes  Slow  SRes Def   SNR       Amp   Per   Mag1   Mag2       ID
MBDF  000.23 018.0 m E Pg      2013/05/03 07:08:54.1   0.1                          T                                        5273825
MBDF  000.23 018.0 m E Sg      2013/05/03 07:08:57.5   0.3                          T                                Md 1.6  5273824
ORIF  000.70 306.6 m E Pg      2013/05/03 07:09:02.1  -0.4                          T                                        5273819
ORIF  000.70 306.6 m E Sg      2013/05/03 07:09:11.7   0.1                          T                2.0  .19        Md 1.6  5273823
SBF   000.85 139.1 m E Pg      2013/05/03 07:09:05.0  -0.1                          T                                        5273836
SBF   000.85 139.1 m E Sg      2013/05/03 07:09:15.3  -0.8                          T                                Md 1.7  5273835
FRF   000.94 181.0 m E Pg      2013/05/03 07:09:07.0   0.2                          T                                        5273821
FRF   000.94 181.0 m E Sg      2013/05/03 07:09:18.9  -0.2                          T                1.3  .17 Ml 1.7         5273826
LPG   001.00 003.3 m E Pg      2013/05/03 07:09:08.0  -0.1                          T                                        5273828
LPG   001.00 003.3 m E Sg      2013/05/03 07:09:21.1   0.0                          T                 .4  .18 Ml 1.2         5273827
LPL   001.01 002.5 m E Pg      2013/05/03 07:09:08.0  -0.4                          T                                        5273830
LPL   001.01 002.5 m E Sg      2013/05/03 07:09:21.6   0.0                          T                 .7  .19 Ml 1.4         5273829
SMRF  000.95 236.5 m E Pg      2013/05/03 07:09:08.7   1.8                          T                                        5273820
SMRF  000.95 236.5 m E Sg      2013/05/03 07:09:19.7   0.4                          T                 .6  .19 Ml 1.3         5273838
LMR   001.18 185.7 m E Pg      2013/05/03 07:09:11.6   0.5                          T                                        5273822
LMR   001.18 185.7 m E Sg      2013/05/03 07:09:26.3   0.0                          T                1.2  .18 Ml 1.7         5273837
VIVF  001.47 284.6 m E Pn      2013/05/03 07:09:15.2   0.2                          T                                        5273832
VIVF  001.47 284.6 m E Sn      2013/05/03 07:09:33.7   0.1                          T                 .5  .19 Ml 1.4         5273831
PGF   002.59 138.3 m E Pn      2013/05/03 07:09:30.3   0.1                          T                                        5273834
PGF   002.59 138.3 m E Sn      2013/05/03 07:10:00.4   0.0                          T                                        5273833

.
EVENT     297371
    Date      Time       Latitude Longitude    Depth    Ndef Nsta Gap    Mag1  N    Mag2  N    Mag3  N   Author         ID
       rms   OT_Error      Smajor Sminor Az        Err   mdist  Mdist     Err        Err        Err      Quality

2013/05/03 08:43:42.9     47.8297    5.9380       .0 f    16    8 084  Ml 2.4  4  Md 2.2  2              bulletin    297471
                                                                                                         _ldg
      0.90   +-  0.08       2.0    1.5  159.32 +-  0.0    0.33   1.82   +-0.1      +-0.0                 m i km

FRANCE
Sta     Dist  EvAz     Phase      Date       Time     TRes  Azim  AzRes  Slow  SRes Def   SNR       Amp   Per   Mag1   Mag2       ID
HAU   000.33 057.3 m E Pg      2013/05/03 08:43:49.2  -0.3                          T                                        5273881
HAU   000.33 057.3 m E Sg      2013/05/03 08:43:53.6  -0.5                          T              110.0  .72        Md 2.2  5273880
HINF  000.62 090.9 m E Pg      2013/05/03 08:43:55.0   0.1                          T                                        5273877
HINF  000.62 090.9 m E Sn      2013/05/03 08:44:10.0   0.5                          T               34.6  .75                5273876
SFTF  000.71 302.2 m E Pg      2013/05/03 08:43:56.9   0.3 127.9  6.4               T                                        5273875
SFTF  000.71 302.2 m E Sg      2013/05/03 08:44:06.0  -0.1                          T               18.9  .56        Md 2.2  5273874
PAGF  000.74 349.0 m E Pg      2013/05/03 08:43:57.0  -0.1                          T                                        5273883
PAGF  000.74 349.0 m E Sg      2013/05/03 08:44:06.8  -0.1 161.1  -7.8              T               27.3  .60                5273882
CDF   001.07 056.5 m E Pg      2013/05/03 08:44:03.3   0.0                          T                                        5284037
CDF   001.07 056.5 m E Sn      2013/05/03 08:44:18.5  -0.1                          T               17.7  .56 Ml 2.5         5284038
CABF  001.22 175.2 m E Pn      2013/05/03 08:44:05.7  -0.2                          T                                        5273879
CABF  001.22 175.2 m E Sg      2013/05/03 08:44:22.3   0.1                          T                8.3  .44 Ml 2.2         5273878
LOR   001.52 249.0 m E Pg      2013/05/03 08:44:11.5   0.1  68.6  1.1               T                                        5284039
LOR   001.52 249.0 m E Sn      2013/05/03 08:44:28.9  -0.3  73.8  6.3               T               11.6  .48 Ml 2.4         5284042
SSF   001.82 245.9 m E Pg      2013/05/03 08:44:16.9  -0.1                          T                                        5284040
SSF   001.82 245.9 m E Sn      2013/05/03 08:44:37.1   0.6                          T                8.6  .50 Ml 2.5         5284041

.
EVENT     297384
    Date      Time       Latitude Longitude    Depth    Ndef Nsta Gap    Mag1  N    Mag2  N    Mag3  N   Author         ID
       rms   OT_Error      Smajor Sminor Az        Err   mdist  Mdist     Err        Err        Err      Quality

2013/05/03 08:59:15.8     48.3008    9.6837       .0 f    16    3 240  Ml 2.1  3                         bulletin    297484
                                                                                                         _ldg
      0.50   +-  0.45       8.7    3.5   38.45 +-  0.0    0.44   2.25   +-0.0                            m i km

GERMANY
Sta     Dist  EvAz     Phase      Date       Time     TRes  Azim  AzRes  Slow  SRes Def   SNR       Amp   Per   Mag1   Mag2       ID
CDF   001.61 274.9 m E Pn      2013/05/03 08:59:43.9  -0.2                          T                                        5274005
CDF   001.61 274.9 m E Pg      2013/05/03 08:59:48.1   1.9                          T                                        5274002
CDF   001.61 274.9 m E Sn      2013/05/03 09:00:03.8  -0.7                          T                                        5274003
CDF   001.61 274.9 m E Sg      2013/05/03 09:00:07.3   0.2                          T                1.3  .19 Ml 2.0         5274004
HINF  001.96 256.7 m E Pn      2013/05/03 08:59:48.4  -0.4                          T                                        5274001
HINF  001.96 256.7 m E Pg      2013/05/03 08:59:53.5   0.9                          T                                        5273998
HINF  001.96 256.7 m E Sn      2013/05/03 09:00:12.0  -0.8                          T                                        5273999
HINF  001.96 256.7 m E Sg      2013/05/03 09:00:17.9  -0.1                          T                1.8  .23 Ml 2.1         5274000
HAU   002.25 263.7 m E Pn      2013/05/03 08:59:52.9   0.2                          T                                        5273997
HAU   002.25 263.7 m E Pg      2013/05/03 08:59:59.0   1.0                          T                                        5273994
HAU   002.25 263.7 m E Sn      2013/05/03 09:00:18.8  -0.9                          T                                        5273995
HAU   002.25 263.7 m E Sg      2013/05/03 09:00:27.4   0.2                          T                3.6  .36 Ml 2.0         5273996

.
EVENT     297379
    Date      Time       Latitude Longitude    Depth    Ndef Nsta Gap    Mag1  N    Mag2  N    Mag3  N   Author         ID
       rms   OT_Error      Smajor Sminor Az        Err   mdist  Mdist     Err        Err        Err      Quality

2013/05/03 09:56:06.0     43.1847    5.9918       .0 f    30    8 137  Ml 2.2  3  Md 2.3  1              bulletin    297479
                                                                                                         _ldg
      1.22   +-  0.24       5.0    3.3   44.93 +-  0.0    0.41   2.30   +-0.3      +-                    m i km

NEAR SOUTH COAST OF FRANCE
Sta     Dist  EvAz     Phase      Date       Time     TRes  Azim  AzRes  Slow  SRes Def   SNR       Amp   Per   Mag1   Mag2       ID
LMR   000.41 068.3 m E Pg      2013/05/03 09:56:14.0  -0.1                          T                                        5273935
LMR   000.41 068.3 m E Sg      2013/05/03 09:56:20.1   0.4                          T                                Md 2.3  5273934
FRF   000.61 051.6 m E Pg      2013/05/03 09:56:17.5  -0.3                          T                                        5273933
FRF   000.61 051.6 m E Sg      2013/05/03 09:56:25.4  -0.6                          T                                        5273932
SMRF  000.85 339.2 m E Pg      2013/05/03 09:56:22.3   0.0                          T                                        5273926
SMRF  000.85 339.2 m E Sg      2013/05/03 09:56:33.6   0.1                          T                                        5273925
SBF   001.25 056.7 m E Pg      2013/05/03 09:56:29.6  -0.1                          T                                        5273929
SBF   001.25 056.7 m E Sg      2013/05/03 09:56:45.9  -0.2                          T                4.3  .15 Ml 2.4         5273936
MBDF  001.64 019.8 m E Pn      2013/05/03 09:56:35.0   0.2                          T                                        5273940
MBDF  001.64 019.8 m E Sn      2013/05/03 09:56:55.7   0.2                          T                1.2  .20 Ml 1.9         5273939
LASF  001.79 300.6 m E Pn      2013/05/03 09:56:35.7  -0.9                          T                                        5273931
LASF  001.79 300.6 m E Sn      2013/05/03 09:56:58.9   0.1                          T                                        5273930
ORIF  001.74 357.4 m E Pn      2013/05/03 09:56:36.0   0.0                          T                                        5273938
ORIF  001.74 357.4 m E Sn      2013/05/03 09:56:57.7   0.0                          T                                        5273937
PGF   002.30 105.0 m E Pn      2013/05/03 09:56:43.6  -0.1                          T                                        5273928
PGF   002.30 105.0 m E Sn      2013/05/03 09:57:11.6   0.4                          T                1.5  .15 Ml 2.5         5273927

.
EVENT     297380
    Date      Time       Latitude Longitude    Depth    Ndef Nsta Gap    Mag1  N    Mag2  N    Mag3  N   Author         ID
       rms   OT_Error      Smajor Sminor Az        Err   mdist  Mdist     Err        Err        Err      Quality

2013/05/03 10:58:05.1     47.0580    6.8347       .0 f    34   10 037  Ml 2.1  4                         bulletin    297480
                                                                                                         _ldg
      0.46   +-  0.08       1.8    1.6   74.09 +-  0.0    0.23   2.40   +-0.2                            m i km

FRANCE
Sta     Dist  EvAz     Phase      Date       Time     TRes  Azim  AzRes  Slow  SRes Def   SNR       Amp   Per   Mag1   Mag2       ID
CABF  000.68 229.2 m E Pg      2013/05/03 10:58:18.5   0.1                          T                                        5273968
CABF  000.68 229.2 m E Sg      2013/05/03 10:58:27.5   0.1                          T                3.1  .22                5273967
HINF  000.76 000.9 m E Pg      2013/05/03 10:58:19.8   0.1                          T                                        5273966
HINF  000.76 000.9 m E Sg      2013/05/03 10:58:29.7  -0.1                          T                8.1  .20                5273965
HAU   001.00 341.0 m E Pg      2013/05/03 10:58:24.5   0.3                          T                                        5273964
HAU   001.00 341.0 m E Sg      2013/05/03 10:58:37.4  -0.1                          T                5.2  .22 Ml 2.0         5273963
CDF   001.39 012.2 m E Pn      2013/05/03 10:58:30.6   0.3                          T                                        5273972
CDF   001.39 012.2 m E Sn      2013/05/03 10:58:48.8   0.3                          T                                        5273971
SFTF  001.67 314.0 m E Pg      2013/05/03 10:58:36.3  -0.2                          T                                        5273962
SFTF  001.67 314.0 m E Sg      2013/05/03 10:58:58.2  -0.1                          T                4.7  .25 Ml 2.4         5273961
PAGF  001.67 333.9 m E Pg      2013/05/03 10:58:36.4  -0.2                          T                                        5273980
PAGF  001.67 333.9 m E Sg      2013/05/03 10:58:58.4   0.1                          T                                        5273979
MEZF  001.88 320.9 m E Pn      2013/05/03 10:58:37.1   0.2                          T                                        5273978
MEZF  001.88 320.9 m E Sg      2013/05/03 10:59:04.1  -0.6                          T                                        5273977
LOR   002.04 277.0 m E Pg      2013/05/03 10:58:43.0  -0.4                          T                                        5273970
LOR   002.04 277.0 m E Sg      2013/05/03 10:59:09.3  -0.6                          T                                        5273969
SMF   002.10 259.7 m E Pg      2013/05/03 10:58:44.1  -0.2                          T                                        5273976
SMF   002.10 259.7 m E Sg      2013/05/03 10:59:11.9   0.4                          T                1.6  .19 Ml 2.2         5273975
AVF   002.40 264.9 m E Pg      2013/05/03 10:58:50.4   0.5                          T                                        5273974
AVF   002.40 264.9 m E Sg      2013/05/03 10:59:21.3   0.3                          T                 .8  .21 Ml 1.9         5273973

.
EVENT     297385
    Date      Time       Latitude Longitude    Depth    Ndef Nsta Gap    Mag1  N    Mag2  N    Mag3  N   Author         ID
       rms   OT_Error      Smajor Sminor Az        Err   mdist  Mdist     Err        Err        Err      Quality

2013/05/03 11:24:25.7     44.6192    7.1033      8.0 f    34    7 097  Ml 1.8  5  Md 1.9  1              bulletin    297485
                                                                                                         _ldg
      0.39   +-  0.06       1.6    1.0   67.69 +-  0.0    0.11   1.35   +-0.4      +-                    m i ke

NORTHERN ITALY
Sta     Dist  EvAz     Phase      Date       Time     TRes  Azim  AzRes  Slow  SRes Def   SNR       Amp   Per   Mag1   Mag2       ID
MBDF  000.26 294.6 m E Pg      2013/05/03 11:24:31.2   0.0                          T                                        5274012
MBDF  000.26 294.6 m E Sg      2013/05/03 11:24:34.7  -0.1                          T               56.0  .18        Md 1.9  5274016
SBF   000.79 162.4 m E Pg      2013/05/03 11:24:40.4  -0.4                          T                                        5274008
SBF   000.79 162.4 m E Sg      2013/05/03 11:24:51.6   0.4                          T                4.7  .22                5274018
LPL   000.93 343.8 m E Pg      2013/05/03 11:24:42.4  -1.2                          T                                        5274006
LPL   000.93 343.8 m E Sg      2013/05/03 11:24:53.6  -2.2                          T                1.2  .21 Ml 1.5         5274014
ORIF  000.92 289.4 m E Pg      2013/05/03 11:24:43.1   0.0                          T                                        5274011
ORIF  000.92 289.4 m E Sg      2013/05/03 11:24:54.6  -0.6                          T                3.8  .26 Ml 1.9         5274015
FRF   001.11 197.4 m E Pg      2013/05/03 11:24:46.8   0.3                          T                                        5274010
FRF   001.11 197.4 m E Sg      2013/05/03 11:25:02.1   1.2                          T                3.2  .19 Ml 2.1         5274013
SMRF  001.27 240.2 m E Pg      2013/05/03 11:24:50.6   1.1                          T                                        5274007
SMRF  001.27 240.2 m E Sn      2013/05/03 11:25:06.8   2.3                          T                 .5  .22 Ml 1.3         5274017
LMR   001.35 198.7 m E Pg      2013/05/03 11:24:51.6   0.6                          T                                        5274009
LMR   001.35 198.7 m E Sg      2013/05/03 11:25:09.9   1.3                          T                2.6  .20 Ml 2.1         5274019

.
