EVENT     255934
    Date      Time       Latitude Longitude    Depth    Ndef Nsta Gap    Mag1  N    Mag2  N    Mag3  N   Author         ID
       rms   OT_Error      Smajor Sminor Az        Err   mdist  Mdist     Err        Err        Err      Quality

2011/02/13 19:29:01.3     58.4198    1.2732     10.0 f    93   36 085  Ml 3.8 33                         js067245    255954

      1.46   +-  0.20       5.5    3.7   67.52 +-  0.0    2.06  15.58   +-0.3                            m i ke

NORTH SEA
Sta     Dist  EvAz     Phase      Date       Time     TRes  Azim  AzRes  Slow  SRes Def   SNR       Amp   Per   Mag1   Mag2       ID
BAIF  008.55 167.2 m E Pn      2011/02/13 19:31:03.8   1.2                          T                                        4646576
BAIF  008.55 167.2 m E Sn      2011/02/13 19:32:35.8   2.3                          T                7.6  .47 Ml 3.7         4646515
GIVF  008.59 164.5 m E Pn      2011/02/13 19:31:04.1   1.0                          T                                        4646577
GIVF  008.59 164.5 m E Sn      2011/02/13 19:32:37.1   2.7                          T               14.9  .44 Ml 4.0         4646514
RUP   009.37 156.3 m E Pn      2011/02/13 19:31:14.6   0.7                          T                                        4646575
RUP   009.37 156.3 m E Sn      2011/02/13 19:32:55.4   2.2                          T                                        4646516
FLN   009.73 186.9 m E Pn      2011/02/13 19:31:18.3  -0.4  10.8  5.3               T                                        4646568
FLN   009.73 186.9 m E Sn      2011/02/13 19:33:01.8   0.1   7.9  2.5               T               18.5  .61 Ml 4.0         4646534
LDF   009.88 185.4 m E Pn      2011/02/13 19:31:20.4  -0.3                          T                                        4646567
LDF   009.88 185.4 m E Sn      2011/02/13 19:33:05.8   0.5                          T                8.1  .43 Ml 3.9         4646535
GRR   010.13 188.1 m E Pn      2011/02/13 19:31:23.5  -0.6                          T                                        4646566
GRR   010.13 188.1 m E Sn      2011/02/13 19:33:11.5   0.3                          T                7.7  .43 Ml 3.9         4646536
MEZF  010.19 165.7 m E Pn      2011/02/13 19:31:24.9   0.0                          T                                        4646565
MEZF  010.19 165.7 m E Sn      2011/02/13 19:33:15.1   2.5                          T               10.5  .74 Ml 3.9         4646522
LANF  010.21 155.0 m E Pn      2011/02/13 19:31:25.8   0.5                          T                                        4646517
LANF  010.21 155.0 m E Sn      2011/02/13 19:33:16.4   3.1                          T                1.2  .24 Ml 3.4         4646518
PAGF  010.23 163.1 m E Pn      2011/02/13 19:31:25.9   0.4 345.1  -1.6              T                                        4646564
PAGF  010.23 163.1 m E Sn      2011/02/13 19:33:16.5   2.8                          T                 .6  .42 Ml 2.9         4646520
ROSF  010.46 196.9 m E Pn      2011/02/13 19:31:27.0  -1.6                          T                                        4646556
ROSF  010.46 196.9 m E Sn      2011/02/13 19:33:18.7  -0.4                          T                7.1  .55 Ml 3.9         4646531
SGMF  010.44 194.3 m E Pn      2011/02/13 19:31:27.1  -1.2                          T                                        4646555
SGMF  010.44 194.3 m E Sn      2011/02/13 19:33:18.4  -0.2                          T                4.1  .36 Ml 3.8         4646532
THEF  010.59 162.6 m E Pn      2011/02/13 19:31:30.6   0.2                          T                                        4646569
THEF  010.59 162.6 m E Sn      2011/02/13 19:33:24.9   2.7                          T                2.2  .25 Ml 3.8         4646521
CDF   010.64 157.8 m E Pn      2011/02/13 19:31:31.5   0.3                          T                                        4646563
CDF   010.64 157.8 m E Sn      2011/02/13 19:33:26.7   3.1                          T                1.8  .46 Ml 3.5         4646519
QUIF  010.85 196.1 m E Pn      2011/02/13 19:31:32.1  -1.8                          T                                        4646554
QUIF  010.85 196.1 m E Sn      2011/02/13 19:33:28.1  -0.3                          T                3.4  .36 Ml 3.8         4646533
HAU   010.86 161.6 m E Pn      2011/02/13 19:31:34.5   0.4                          T                                        4646562
HAU   010.86 161.6 m E Sn      2011/02/13 19:33:31.6   2.8                          T                1.9  .35 Ml 3.4         4646523
HINF  011.13 160.2 m E Pn      2011/02/13 19:31:38.2   0.3                          T                                        4646561
HINF  011.13 160.2 m E Sn      2011/02/13 19:33:38.4   3.1                          T                1.9  .46 Ml 3.5         4646524
HYF   011.20 175.2 m E Pn      2011/02/13 19:31:38.5  -0.2                          T                                        4646559
HYF   011.20 175.2 m E Sn      2011/02/13 19:33:38.1   1.3                          T                                        4646528
LOR   011.28 171.0 m E Pn      2011/02/13 19:31:39.0  -0.8 356.0  3.0               T                                        4646574
LOR   011.28 171.0 m E Sn      2011/02/13 19:33:39.3   0.5                          T                6.9  .49 Ml 4.1         4646511
SSF   011.46 172.3 m E Pn      2011/02/13 19:31:41.9  -0.3                          T                                        4646573
SSF   011.46 172.3 m E Sn      2011/02/13 19:33:44.3   1.3                          T               13.5  .90 Ml 4.2         4646512
AVF   011.72 172.9 m E Pn      2011/02/13 19:31:43.9  -1.8                          T                                        4646571
AVF   011.72 172.9 m E Sn      2011/02/13 19:33:50.4   1.2                          T                1.7  .39 Ml 3.6         4646526
MFF   011.87 184.8 m E Pn      2011/02/13 19:31:46.8  -1.0                          T                                        4646553
MFF   011.87 184.8 m E Sn      2011/02/13 19:33:49.3  -3.5                          T                9.6  .49 Ml 4.4         4646510
BGF   011.92 174.7 m E Pn      2011/02/13 19:31:47.5  -1.0                          T                                        4646558
BGF   011.92 174.7 m E Sn      2011/02/13 19:33:55.9   1.8                          T               18.0  .44 Ml 4.6         4646529
SMF   011.90 171.4 m E Pn      2011/02/13 19:31:47.6  -0.6                          T                                        4646560
SMF   011.90 171.4 m E Sn      2011/02/13 19:33:53.0  -0.5                          T                3.1  .39 Ml 3.9         4646527
TCF   012.17 176.9 m E Pn      2011/02/13 19:31:50.2  -1.7                          T                                        4646572
TCF   012.17 176.9 m E Sn      2011/02/13 19:34:01.5   1.5                          T               21.3  .88 Ml 4.4         4646513
CABF  012.18 164.1 m E Pn      2011/02/13 19:31:53.1   0.9                          T                                        4646570
CABF  012.18 164.1 m E Sn      2011/02/13 19:34:03.0   2.6                          T                2.6  .39 Ml 3.8         4646525
RJF   013.14 179.2 m E Pn      2011/02/13 19:32:03.8  -1.3                          T                                        4646552
LPL   013.35 163.2 m E Pn      2011/02/13 19:32:08.5   0.3                          T                                        4646543
LPL   013.35 163.2 m E Sn      2011/02/13 19:34:31.1   2.7                          T                1.5  .40 Ml 3.6         4646541
LFF   013.50 181.6 m E Pn      2011/02/13 19:32:08.9  -1.2                          T                                        4646551
LPG   013.37 163.1 m E Pn      2011/02/13 19:32:08.9   0.4                          T                                        4646542
LPG   013.37 163.1 m E Sn      2011/02/13 19:34:31.7   2.7                          T                 .7  .40 Ml 3.3         4646540
CAF   013.52 177.6 m E Pn      2011/02/13 19:32:09.7  -0.7                          T                                        4646550
VIVF  013.74 169.8 m E Pn      2011/02/13 19:32:13.3  -0.1                          T                                        4646545
VIVF  013.74 169.8 m E Sn      2011/02/13 19:34:39.6   1.9                          T                1.4  .40 Ml 3.6         4646538
ORIF  013.81 166.2 m E Pn      2011/02/13 19:32:14.5   0.1                          T                                        4646544
ORIF  013.81 166.2 m E Sn      2011/02/13 19:34:41.9   2.5                          T                2.5  .55 Ml 3.7         4646539
LASF  014.45 172.5 m E Pn      2011/02/13 19:32:22.6  -0.4                          T                                        4646546
SJPF  015.41 186.9 m E Pn      2011/02/13 19:32:34.9  -1.1                          T                                        4646549
EPF   015.42 182.6 m E Pn      2011/02/13 19:32:35.2  -1.0                          T                                        4646547
EPF   015.42 182.6 m E Sn      2011/02/13 19:35:18.6   0.9                          T                4.8  .69 Ml 3.9         4646537
ETSF  015.58 185.0 m E Pn      2011/02/13 19:32:36.2  -2.2                          T                                        4646548

.
EVENT     256009
    Date      Time       Latitude Longitude    Depth    Ndef Nsta Gap    Mag1  N    Mag2  N    Mag3  N   Author         ID
       rms   OT_Error      Smajor Sminor Az        Err   mdist  Mdist     Err        Err        Err      Quality

2011/02/13 20:19:32.8     50.2899    7.7976     10.0      38   11 079  Ml 2.0 10  Md 2.3  1              js067245    256029

      0.39   +-  0.05        .9     .8   51.78 +-  0.0    0.14   3.99   +-0.3      +-                    m i ke

GERMANY
Sta     Dist  EvAz     Phase      Date       Time     TRes  Azim  AzRes  Slow  SRes Def   SNR       Amp   Per   Mag1   Mag2       ID
RUP   000.76 219.2 m E Pg      2011/02/13 20:19:46.7  -0.5                          T                                        4649389
RUP   000.76 219.2 m E Pn      2011/02/13 20:19:47.9  -0.1                          T                                        4649390
RUP   000.76 219.2 m E Sg      2011/02/13 20:19:57.1  -0.1                          T                                        4649391
RUP   000.76 219.2 m E Sn      2011/02/13 20:19:58.9   0.0                          T                                Md 2.3  4649392
LANF  001.31 179.8 m E Pg      2011/02/13 20:19:57.3   0.0                          T                                        4649387
LANF  001.31 179.8 m E Sg      2011/02/13 20:20:14.2  -0.1                          T                4.5  .23 Ml 2.3         4649388
CDF   001.91 190.5 m E Pn      2011/02/13 20:20:03.7  -0.2                          T                                        4649383
CDF   001.91 190.5 m E P       2011/02/13 20:20:06.3   0.2                          T                                        4649384
CDF   001.91 190.5 m E Sn      2011/02/13 20:20:26.3  -0.1                          T                                        4649385
CDF   001.91 190.5 m E Sg      2011/02/13 20:20:33.0   0.0                          T                1.2  .23 Ml 2.0         4649386
PAGF  002.20 218.7 m E Pn      2011/02/13 20:20:07.6   0.0                          T                                        4649380
PAGF  002.20 218.7 m E Pg      2011/02/13 20:20:13.9   0.2                          T                                        4649379
PAGF  002.20 218.7 m E Sn      2011/02/13 20:20:33.5   0.2                          T                                        4649381
PAGF  002.20 218.7 m E Sg      2011/02/13 20:20:42.3   0.3                          T                 .3  .23 Ml 1.4         4649382
GIVF  001.92 265.5 m E Pg      2011/02/13 20:20:08.5   0.0                          T                                        4649369
GIVF  001.92 265.5 m E Sg      2011/02/13 20:20:33.2   0.0                          T                3.7  .25 Ml 2.3         4649370
BAIF  002.32 265.7 m E Pg      2011/02/13 20:20:15.6  -0.2                          T                                        4649393
BAIF  002.32 265.7 m E Sn      2011/02/13 20:20:35.9  -0.2                          T                                        4649372
BAIF  002.32 265.7 m E Sg      2011/02/13 20:20:45.8   0.0                          T                1.3  .24 Ml 2.0         4649371
THEF  002.38 210.5 m E Pg      2011/02/13 20:20:16.8  -0.1                          T                                        4649364
THEF  002.38 210.5 m E Sg      2011/02/13 20:20:47.3  -0.3                          T                2.3  .25 Ml 2.3         4649365
HAU   002.48 203.2 m E Pg      2011/02/13 20:20:18.7  -0.1                          T                                        4649374
HAU   002.48 203.2 m E Sg      2011/02/13 20:20:50.0  -0.6                          T                 .9  .22 Ml 1.7         4649366
HINF  002.55 194.4 m E Pg      2011/02/13 20:20:19.9  -0.3                          T                                        4649373
HINF  002.55 194.4 m E Sg      2011/02/13 20:20:53.1   0.1                          T                1.1  .21 Ml 2.0         4649375
MEZF  002.53 226.1 m E Pg      2011/02/13 20:20:20.0   0.2                          T                                        4649376
MEZF  002.53 226.1 m E Sn      2011/02/13 20:20:41.3   0.0                          T                                        4649377
MEZF  002.53 226.1 m E Sg      2011/02/13 20:20:52.4   0.0                          T                2.2  .39 Ml 2.1         4649378
LOR   003.99 222.2 m E Pn      2011/02/13 20:20:31.9  -0.1                          T                                        4649394
LOR   003.99 222.2 m E P       2011/02/13 20:20:35.7   0.1                          T                                        4649395
LOR   003.99 222.2 m E Sn      2011/02/13 20:21:16.0  -0.1                          T                                        4649368
LOR   003.99 222.2 m E Sg      2011/02/13 20:21:37.7  -0.2  47.4  8.2               T                 .4  .21 Ml 1.9         4649367

.
EVENT     255944
    Date      Time       Latitude Longitude    Depth    Ndef Nsta Gap    Mag1  N    Mag2  N    Mag3  N   Author         ID
       rms   OT_Error      Smajor Sminor Az        Err   mdist  Mdist     Err        Err        Err      Quality

2011/02/14 02:53:47.3     40.1967    -.0736     10.0 f    37    6 167  Ml 2.4  5                         js067245    255964

      0.67   +-  0.15       3.2    2.0  139.84 +-  0.0    0.35   4.98   +-0.4                            m i ke

SPAIN
Sta     Dist  EvAz     Phase      Date       Time     TRes  Azim  AzRes  Slow  SRes Def   SNR       Amp   Per   Mag1   Mag2       ID
ETSF  002.72 352.5 m E Pn      2011/02/14 02:54:29.7   0.2                          T                                        4646769
ETSF  002.72 352.5 m E Pg      2011/02/14 02:54:37.9  -0.1                          T                                        4646761
ETSF  002.72 352.5 m E Sn      2011/02/14 02:55:00.1  -0.4                          T                                        4649399
ETSF  002.72 352.5 m E Sg      2011/02/14 02:55:13.5   0.5                          T                6.2  .37 Ml 2.6         4646763
EPF   002.85 006.1 m E Pn      2011/02/14 02:54:31.1   0.0                          T                                        4646768
EPF   002.85 006.1 m E Pg      2011/02/14 02:54:40.0  -0.2                          T                                        4646759
EPF   002.85 006.1 m E Sn      2011/02/14 02:55:03.4   0.0                          T                                        4649400
EPF   002.85 006.1 m E Sg      2011/02/14 02:55:17.2   0.3                          T                6.4  .22 Ml 2.9         4646764
SJPF  003.04 343.9 m E Pn      2011/02/14 02:54:33.9   0.3                          T                                        4646766
SJPF  003.04 343.9 m E Pg      2011/02/14 02:54:43.5  -0.2                          T                                        4646760
SJPF  003.04 343.9 m E Sn      2011/02/14 02:55:07.8  -0.1                          T                                        4649398
SJPF  003.04 343.9 m E Sg      2011/02/14 02:55:23.0   0.2                          T                2.9  .34 Ml 2.4         4646762
MTLF  003.58 027.9 m E Pn      2011/02/14 02:54:41.7   0.7                          T                                        4646767
MTLF  003.58 027.9 m E Pg      2011/02/14 02:54:53.5  -0.1                          T                                        4646758
MTLF  003.58 027.9 m E Sn      2011/02/14 02:55:21.1   0.3                          T                 .5  .18 Ml 2.0         4646765
LFF   004.78 007.0 m E Pn      2011/02/14 02:54:57.2  -0.1                          T                                        4649396
CAF   004.98 017.8 m E Pn      2011/02/14 02:55:00.1  -0.1                          T                                        4649397

.
