BEGIN GSE2.0
MSG_TYPE DATA
MSG_ID 14-FEV-1315:07:09  FRA_NDC
E-MAIL
DATA_TYPE BULLETIN
Reviewed Bulletin (REB) # P2013-005  from French NDC for regional phases     PERIOD 30 JAN 2013 TO 05 FEV 2013 Cenalt JP S
EVENT     291152
    Date      Time       Latitude Longitude    Depth    Ndef Nsta Gap    Mag1  N    Mag2  N    Mag3  N   Author         ID
       rms   OT_Error      Smajor Sminor Az        Err   mdist  Mdist     Err        Err        Err      Quality

2013/01/30 01:00:09.4     45.9318    7.7502      2.0      32    6 073  Ml 1.8  6  Md 1.9  2              bulletin    291252
                                                                                                         _ldg
      0.26   +-  0.06       1.1     .9  148.21 +-  0.0    0.10   3.50   +-0.2      +-0.0                 m i ke

NORTHERN ITALY
Sta     Dist  EvAz     Phase      Date       Time     TRes  Azim  AzRes  Slow  SRes Def   SNR       Amp   Per   Mag1   Mag2       ID
LPG   000.82 238.5 m E Pg      2013/01/30 01:00:24.9  -0.4                          T                                        5182096
LPG   000.82 238.5 m E Sg      2013/01/30 01:00:36.0   0.0                          T                3.2  .22        Md 1.9  5182095
LPL   000.83 240.1 m E Pg      2013/01/30 01:00:25.1  -0.2                          T                                        5182097
LPL   000.83 240.1 m E Sg      2013/01/30 01:00:35.9  -0.1                          T                 .9  .17        Md 1.9  5183560
MBDF  001.39 210.2 m E Pg      2013/01/30 01:00:35.5   0.0                          T                                        5182101
MBDF  001.39 210.2 m E Sg      2013/01/30 01:00:53.3  -0.1                          T                1.2  .18 Ml 1.8         5182100
ORIF  001.66 233.1 m E Pg      2013/01/30 01:00:40.5   0.0                          T                                        5182099
ORIF  001.66 233.1 m E Sg      2013/01/30 01:01:02.4   0.4                          T                1.0  .28 Ml 1.7         5182098
VIVF  002.42 244.7 m E Pn      2013/01/30 01:00:48.6   0.4                          T                                        5183557
VIVF  002.42 244.7 m E Pg      2013/01/30 01:00:54.2  -0.2                          T                                        5183556
VIVF  002.42 244.7 m E Sn      2013/01/30 01:01:16.9   0.2                          T                                        5183555
VIVF  002.42 244.7 m E Sg      2013/01/30 01:01:25.4  -0.1                          T                 .4  .20 Ml 1.6         5183554
SMRF  002.49 219.1 m E Pn      2013/01/30 01:00:49.2   0.0                          T                                        5183559
SMRF  002.49 219.1 m E Sn      2013/01/30 01:01:18.3  -0.1                          T                 .4  .19 Ml 1.6         5183558

.
EVENT     291162
    Date      Time       Latitude Longitude    Depth    Ndef Nsta Gap    Mag1  N    Mag2  N    Mag3  N   Author         ID
       rms   OT_Error      Smajor Sminor Az        Err   mdist  Mdist     Err        Err        Err      Quality

2013/01/30 04:36:17.4     48.4201   -1.9531      2.0      18    7 165  Ml 2.3  7  Md 2.2  3              bulletin    291262
                                                                                                         _ldg
      0.26   +-  0.04       1.1     .5  174.77 +-  0.0    0.44   2.19   +-0.2      +-0.1                 m i ke

FRANCE
Sta     Dist  EvAz     Phase      Date       Time     TRes  Azim  AzRes  Slow  SRes Def   SNR       Amp   Per   Mag1   Mag2       ID
SGMF  000.44 247.8 m E Pg      2013/01/30 04:36:25.8   0.0                          T                                        5192353
SGMF  000.44 247.8 m E Sg      2013/01/30 04:36:31.4  -0.1                          T                4.1  .15        Md 2.2  5192344
GRR   000.73 092.1 m E Pg      2013/01/30 04:36:31.3   0.2                          T                                        5192350
GRR   000.73 092.1 m E Sg      2013/01/30 04:36:40.5  -0.2                          T               12.8  .20        Md 2.1  5192349
ROSF  000.88 265.1 m E Pg      2013/01/30 04:36:34.0   0.0                          T                                        5192352
ROSF  000.88 265.1 m E Sg      2013/01/30 04:36:45.5   0.0                          T                4.6  .15 Ml 2.2 Md 2.1  5192351
QUIF  000.96 238.6 m E Pg      2013/01/30 04:36:35.5   0.2                          T                                        5192348
QUIF  000.96 238.6 m E Sg      2013/01/30 04:36:47.8   0.1                          T                4.1  .13 Ml 2.3         5192345
FLN   001.04 070.1 m E Pg      2013/01/30 04:36:36.7  -0.1 250.2  -1.1              T                                        5192343
FLN   001.04 070.1 m E Sg      2013/01/30 04:36:50.2   0.0 250.3  -0.9              T                4.5  .22 Ml 2.0         5192342
LDF   001.23 081.2 m E Pg      2013/01/30 04:36:40.5   0.1                          T                                        5192347
LDF   001.23 081.2 m E Sg      2013/01/30 04:36:56.2  -0.1                          T               14.4  .31 Ml 2.6         5192346
MFF   002.19 145.4 m E Pg      2013/01/30 04:36:58.0  -0.1                          T                                        5192341
MFF   002.19 145.4 m E Sg      2013/01/30 04:37:26.7   0.3                          T                1.5  .17 Ml 2.3         5192340

.
EVENT     291233
    Date      Time       Latitude Longitude    Depth    Ndef Nsta Gap    Mag1  N    Mag2  N    Mag3  N   Author         ID
       rms   OT_Error      Smajor Sminor Az        Err   mdist  Mdist     Err        Err        Err      Quality

2013/01/30 08:28:16.5     47.2038    7.2580       .0 f    18    5 055  Ml 1.7  5  Md 1.8  2              bulletin    291333
                                                                                                         _ldg
      0.34   +-  0.06       1.5    1.2   34.12 +-  0.0    0.19   2.32   +-0.2      +-0.0                 m i km

SWITZERLAND
Sta     Dist  EvAz     Phase      Date       Time     TRes  Azim  AzRes  Slow  SRes Def   SNR       Amp   Per   Mag1   Mag2       ID
HINF  000.67 336.0 m E Pg      2013/01/30 08:28:29.7   0.2                          T                                        5183524
HINF  000.67 336.0 m E Sg      2013/01/30 08:28:38.3  -0.2                          T                2.7  .20        Md 1.8  5183523
HAU   001.01 322.8 m E Pg      2013/01/30 08:28:35.3  -0.4                          T                                        5183537
HAU   001.01 322.8 m E Sg      2013/01/30 08:28:48.8  -0.2                          T                3.2  .26 Ml 1.7 Md 1.7  5183536
CABF  001.00 234.0 m E Pg      2013/01/30 08:28:35.6   0.1                          T                                        5183522
CABF  001.00 234.0 m E Sg      2013/01/30 08:28:49.1   0.4                          T                2.5  .22 Ml 1.9         5183521
CDF   001.21 000.6 m E Pg      2013/01/30 08:28:39.3  -0.1                          T                                        5183535
CDF   001.21 000.6 m E Sg      2013/01/30 08:28:55.2  -0.1                          T                1.7  .19 Ml 2.0         5183534
LOR   002.32 272.8 m E Pn      2013/01/30 08:28:54.1  -0.1  92.0  1.6               T                                        5183527
LOR   002.32 272.8 m E Pg      2013/01/30 08:29:00.0   0.3  92.5  2.1               T                                        5183526
LOR   002.32 272.8 m E Sn      2013/01/30 08:29:22.0   0.0  92.2  1.9               T                 .7  .23 Ml 1.8         5183525

.
EVENT     291176
    Date      Time       Latitude Longitude    Depth    Ndef Nsta Gap    Mag1  N    Mag2  N    Mag3  N   Author         ID
       rms   OT_Error      Smajor Sminor Az        Err   mdist  Mdist     Err        Err        Err      Quality

2013/01/30 09:00:36.6     43.7484    7.4091       .0 f    14    6 228  Ml 2.1  4  Md 2.1  2              bulletin    291276
                                                                                                         _ldg
      0.16   +-  0.13       2.7    1.1  121.67 +-  0.0    0.12   1.83   +-0.3      +-0.0                 m i km

NEAR SOUTH COAST OF FRANCE
Sta     Dist  EvAz     Phase      Date       Time     TRes  Azim  AzRes  Slow  SRes Def   SNR       Amp   Per   Mag1   Mag2       ID
SBF   000.12 009.3 m E Pg      2013/01/30 09:00:39.0  -0.3                          T                                        5182331
SBF   000.12 009.3 m E Sg      2013/01/30 09:00:41.1  -0.1                          T                                Md 2.1  5182593
LMR   000.77 238.0 m E Pg      2013/01/30 09:00:51.4   0.0                          T                                        5182330
LMR   000.77 238.0 m E Sg      2013/01/30 09:01:01.7   0.0                          T                8.0  .30        Md 2.1  5182592
LMR   000.77 238.0 m E Sn      2013/01/30 09:01:05.1   0.0                          T                                        5192356
MBDF  001.08 335.1 m E Pg      2013/01/30 09:00:57.3   0.1                          T                                        5182649
MBDF  001.08 335.1 m E Sg      2013/01/30 09:01:11.4   0.0                          T                1.7  .28 Ml 1.6         5182648
SMRF  001.35 280.4 m E Pg      2013/01/30 09:01:01.8  -0.2                          T                                        5182329
SMRF  001.35 280.4 m E Sg      2013/01/30 09:01:19.4  -0.2                          T                3.5  .26 Ml 2.1         5182328
ORIF  001.60 317.4 m E Pg      2013/01/30 09:01:06.9   0.1                          T                                        5182590
ORIF  001.60 317.4 m E Sg      2013/01/30 09:01:27.7   0.0                          T                4.1  .25 Ml 2.3         5182591
LPL   001.83 344.9 m E Pn      2013/01/30 09:01:08.2   0.2                          T                                        5192357
LPL   001.83 344.9 m E Pg      2013/01/30 09:01:11.3   0.1                          T                                        5192355
LPL   001.83 344.9 m E Sn      2013/01/30 09:01:30.7   0.0                          T                3.8  .26 Ml 2.3         5192354

.
EVENT     291182
    Date      Time       Latitude Longitude    Depth    Ndef Nsta Gap    Mag1  N    Mag2  N    Mag3  N   Author         ID
       rms   OT_Error      Smajor Sminor Az        Err   mdist  Mdist     Err        Err        Err      Quality

2013/01/30 09:52:46.4     48.7719    5.9811       .0 f    14    7 225  Ml 2.1  3  Md 2.2  1              bulletin    291282
                                                                                                         _ldg
      0.21   +-  0.09       1.7     .9    8.20 +-  0.0    0.28   2.07   +-0.1      +-                    m i km

FRANCE
Sta     Dist  EvAz     Phase      Date       Time     TRes  Azim  AzRes  Slow  SRes Def   SNR       Amp   Per   Mag1   Mag2       ID
PAGF  000.28 218.1 m E Pg      2013/01/30 09:52:52.1   0.1  37.1  -0.8              T                                        5182680
PAGF  000.28 218.1 m E Sg      2013/01/30 09:52:55.5  -0.5  39.2  1.3               T              760.7  .85        Md 2.2  5182676
MEZF  000.67 246.7 m E Pg      2013/01/30 09:52:59.4   0.1                          T                                        5182675
MEZF  000.67 246.7 m E Sg      2013/01/30 09:53:08.4   0.0                          T               17.9  .34                5182674
SFTF  000.85 228.2 m E Pg      2013/01/30 09:53:02.6   0.0                          T                                        5195332
SFTF  000.85 228.2 m E Sg      2013/01/30 09:53:14.1   0.4                          T               16.3  .55                5182673
HAU   000.80 162.2 m E Pn      2013/01/30 09:53:03.3  -0.3                          T                                        5195328
HAU   000.80 162.2 m E Sg      2013/01/30 09:53:12.5  -0.1                          T                                        5182679
HAU   000.80 162.2 m E Sn      2013/01/30 09:53:15.9   0.2                          T               11.2  .24                5182678
CDF   000.93 112.2 m E Pn      2013/01/30 09:53:05.5   0.0                          T                                        5195329
CDF   000.93 112.2 m E Sn      2013/01/30 09:53:18.9   0.0                          T                5.6  .38 Ml 2.1         5195330
HINF  001.12 148.3 m E Pg      2013/01/30 09:53:07.7   0.0                          T                                        5195327
HINF  001.12 148.3 m E Sn      2013/01/30 09:53:23.5   0.2                          T                4.7  .39 Ml 2.0         5182677
LOR   002.07 224.2 m E Sg      2013/01/30 09:53:52.1   0.0                          T                2.8  .34 Ml 2.1         5195331

.
EVENT     291224
    Date      Time       Latitude Longitude    Depth    Ndef Nsta Gap    Mag1  N    Mag2  N    Mag3  N   Author         ID
       rms   OT_Error      Smajor Sminor Az        Err   mdist  Mdist     Err        Err        Err      Quality

2013/01/30 12:03:41.2     44.1696    8.5916     10.0      39    8 092  Ml 2.0  9  Md 2.2  1              bulletin    291324
                                                                                                         _ldg
      0.25   +-  0.07       1.2    1.1  146.81 +-  0.0    0.19   2.89   +-0.3      +-                    m i ke

NORTHERN ITALY
Sta     Dist  EvAz     Phase      Date       Time     TRes  Azim  AzRes  Slow  SRes Def   SNR       Amp   Per   Mag1   Mag2       ID
SBF   000.89 250.2 m E Pg      2013/01/30 12:03:58.3   0.3                          T                                        5183328
SBF   000.89 250.2 m E Sg      2013/01/30 12:04:09.7   0.1                          T               15.0  .20 Ml 2.6 Md 2.2  5183380
MBDF  001.42 293.8 m E Pg      2013/01/30 12:04:07.4  -0.4                          T                                        5183325
MBDF  001.42 293.8 m E Sn      2013/01/30 12:04:23.3   0.2                          T                                        5192394
MBDF  001.42 293.8 m E Sg      2013/01/30 12:04:26.5   0.3                          T                2.8  .32 Ml 1.9         5183359
PGF   001.65 169.5 m E Pn      2013/01/30 12:04:08.4  -0.3                          T                                        5183327
LMR   001.72 241.7 m E Pn      2013/01/30 12:04:09.6   0.1                          T                                        5183379
LMR   001.72 241.7 m E Pg      2013/01/30 12:04:13.2  -0.1                          T                                        5192397
LMR   001.72 241.7 m E Sn      2013/01/30 12:04:30.1  -0.1                          T                                        5183355
LMR   001.72 241.7 m E Sg      2013/01/30 12:04:35.6   0.1                          T                1.4  .22 Ml 2.0         5192396
LPL   001.89 316.2 m E Pn      2013/01/30 12:04:12.1   0.1                          T                                        5183376
LPL   001.89 316.2 m E Sn      2013/01/30 12:04:34.3  -0.1                          T                2.9  .29 Ml 2.2         5183357
ORIF  002.08 292.1 m E Pn      2013/01/30 12:04:14.6   0.1                          T                                        5183375
ORIF  002.08 292.1 m E Pg      2013/01/30 12:04:20.0   0.1                          T                                        5192395
ORIF  002.08 292.1 m E Sn      2013/01/30 12:04:38.9   0.0                          T                 .8  .25 Ml 1.8         5183358
SMRF  002.18 266.0 m E Pg      2013/01/30 12:04:21.6  -0.1                          T                                        5183378
SMRF  002.18 266.0 m E Sg      2013/01/30 12:04:49.9   0.0                          T                1.7  .27 Ml 2.0         5183356
VIVF  002.89 285.1 m E Pn      2013/01/30 12:04:25.1  -0.3                          T                                        5192393
VIVF  002.89 285.1 m E Sn      2013/01/30 12:04:58.1   0.0                          T                 .7  .25 Ml 1.9         5192392

.
EVENT     291221
    Date      Time       Latitude Longitude    Depth    Ndef Nsta Gap    Mag1  N    Mag2  N    Mag3  N   Author         ID
       rms   OT_Error      Smajor Sminor Az        Err   mdist  Mdist     Err        Err        Err      Quality

2013/01/30 14:26:41.1     42.9113    -.7360      2.0       6    3 204             Md 1.1  2              bulletin    291321
                                                                                                         _ldg
      0.41   +-  0.50      28.5    3.7   13.82 +-  0.0    0.13   0.80              +-0.0                 m i ke

PYRENEES
Sta     Dist  EvAz     Phase      Date       Time     TRes  Azim  AzRes  Slow  SRes Def   SNR       Amp   Per   Mag1   Mag2       ID
ETSF  000.13 095.5 m E Pg      2013/01/30 14:26:43.8  -0.2                          T                                        5183320
ETSF  000.13 095.5 m E Sg      2013/01/30 14:26:46.3   0.4                          T               13.0  .30        Md 1.1  5183319
SJPF  000.41 299.5 m E Pg      2013/01/30 14:26:48.9  -0.2                          T                                        5183317
SJPF  000.41 299.5 m E Sg      2013/01/30 14:26:55.0   0.5                          T                2.1  .23        Md 1.1  5183318
EPF   000.80 081.1 m E Pg      2013/01/30 14:26:56.6   0.3                          T                                        5183316
EPF   000.80 081.1 m E Sg      2013/01/30 14:27:05.8  -0.9                          T                1.1  .26                5183315

.
EVENT     291223
    Date      Time       Latitude Longitude    Depth    Ndef Nsta Gap    Mag1  N    Mag2  N    Mag3  N   Author         ID
       rms   OT_Error      Smajor Sminor Az        Err   mdist  Mdist     Err        Err        Err      Quality

2013/01/30 15:01:29.2     42.7728    -.1394      2.0       6    3 238  Ml 1.3  1  Md 1.4  2              bulletin    291323
                                                                                                         _ldg
      0.27   +-  0.29       9.6    1.4  173.98 +-  0.0    0.33   0.87   +-         +-0.1                 m i ke

PYRENEES
Sta     Dist  EvAz     Phase      Date       Time     TRes  Azim  AzRes  Slow  SRes Def   SNR       Amp   Per   Mag1   Mag2       ID
ETSF  000.33 292.3 m E Pg      2013/01/30 15:01:35.4  -0.4                          T                                        5183324
ETSF  000.33 292.3 m E Sg      2013/01/30 15:01:39.8  -0.4                          T                5.9  .32        Md 1.5  5183322
EPF   000.44 053.7 m E Pg      2013/01/30 15:01:37.5  -0.1                          T                                        5183323
EPF   000.44 053.7 m E Sg      2013/01/30 15:01:43.2  -0.2                          T                1.0  .19        Md 1.4  5183321
SJPF  000.87 293.5 m E Pg      2013/01/30 15:01:45.5  -0.1                          T                                        5192398
SJPF  000.87 293.5 m E Sg      2013/01/30 15:01:56.5  -0.3                          T                1.1  .33 Ml 1.3         5192399

.
