EVENT     292137
    Date      Time       Latitude Longitude    Depth    Ndef Nsta Gap    Mag1  N    Mag2  N    Mag3  N   Author         ID
       rms   OT_Error      Smajor Sminor Az        Err   mdist  Mdist     Err        Err        Err      Quality

2013/02/15 20:26:39.2     44.1149    8.6075      7.0 f    52   10 096  Ml 2.1 12  Md 2.0  2              bulletin    292237
                                                                                                         _ldg
      0.60   +-  0.12       2.7    2.0  159.53 +-  0.0    0.21   2.91   +-0.3      +-0.0                 m i ke

NORTHERN ITALY
Sta     Dist  EvAz     Phase      Date       Time     TRes  Azim  AzRes  Slow  SRes Def   SNR       Amp   Per   Mag1   Mag2       ID
SBF   000.88 253.8 m E Pg      2013/02/15 20:26:56.0   0.1                          T                                        5198212
SBF   000.88 253.8 m E Sg      2013/02/15 20:27:07.5   0.1                          T               42.5  .30 Ml 2.9 Md 2.1  5198211
MBDF  001.45 295.6 m E Pn      2013/02/15 20:27:04.4   0.0                          T                                        5198206
MBDF  001.45 295.6 m E Sn      2013/02/15 20:27:23.0   0.5                          T                3.4  .25 Ml 2.2 Md 2.0  5198205
FRF   001.52 249.3 m E Pn      2013/02/15 20:27:05.4   0.3                          T                                        5198209
FRF   001.52 249.3 m E Pg      2013/02/15 20:27:07.6   0.1                          T                                        5198201
FRF   001.52 249.3 m E Sn      2013/02/15 20:27:25.0   1.0                          T                4.3  .18 Ml 2.5         5198208
PGF   001.59 169.5 m E Pn      2013/02/15 20:27:05.4  -0.8                          T                                        5198195
PGF   001.59 169.5 m E Sn      2013/02/15 20:27:23.9  -1.9                          T                2.6  .24 Ml 2.4         5198185
LMR   001.71 243.6 m E Pn      2013/02/15 20:27:07.4  -0.3                          T                                        5198210
LMR   001.71 243.6 m E Sn      2013/02/15 20:27:29.5   1.0                          T                1.5  .17 Ml 2.1         5198194
LPL   001.94 317.1 m E Pn      2013/02/15 20:27:10.9  -0.1                          T                                        5198203
LPL   001.94 317.1 m E Sn      2013/02/15 20:27:34.1  -0.1                          T                1.7  .30 Ml 1.9         5198197
LPG   001.91 316.9 m E Pn      2013/02/15 20:27:10.9   0.1                          T                                        5198207
LPG   001.91 316.9 m E Sn      2013/02/15 20:27:33.7   0.0                          T                 .6  .23 Ml 1.6         5198198
ORIF  002.11 293.3 m E Pg      2013/02/15 20:27:16.7  -1.9                          T                                        5198204
ORIF  002.11 293.3 m E Sn      2013/02/15 20:27:38.0  -0.2                          T                                        5198196
ORIF  002.11 293.3 m E Sg      2013/02/15 20:27:44.8  -0.9                          T                1.7  .28 Ml 2.0         5198193
SMRF  002.19 267.4 m E Pg      2013/02/15 20:27:20.0   0.1                          T                                        5198202
SMRF  002.19 267.4 m E Sg      2013/02/15 20:27:49.5   1.3                          T                3.6  .30 Ml 2.3         5198200
VIVF  002.91 286.1 m E Pn      2013/02/15 20:27:23.3  -0.8                          T                                        5198191
VIVF  002.91 286.1 m E Sn      2013/02/15 20:27:57.4   0.1                          T                1.2  .29 Ml 2.0         5198192

.
EVENT     292138
    Date      Time       Latitude Longitude    Depth    Ndef Nsta Gap    Mag1  N    Mag2  N    Mag3  N   Author         ID
       rms   OT_Error      Smajor Sminor Az        Err   mdist  Mdist     Err        Err        Err      Quality

2013/02/15 20:51:56.9     43.5450   -2.3346     10.0 f    21    3 199  Ml 2.0  3  Md 1.9  2              bulletin    292238
                                                                                                         _ldg
      0.57   +-  0.24       8.2    2.3    7.88 +-  0.0    0.69   3.34   +-0.1      +-0.0                 m i ke

SPAIN
Sta     Dist  EvAz     Phase      Date       Time     TRes  Azim  AzRes  Slow  SRes Def   SNR       Amp   Per   Mag1   Mag2       ID
SJPF  000.92 117.7 m E Pg      2013/02/15 20:52:13.9  -0.3                          T                                        5198235
SJPF  000.92 117.7 m E Sg      2013/02/15 20:52:25.2  -1.1                          T                5.4  .29 Ml 2.1 Md 1.9  5198234
ETSF  001.45 115.9 m E Pg      2013/02/15 20:52:24.0  -0.1                          T                                        5198233
ETSF  001.45 115.9 m E Sn      2013/02/15 20:52:40.9   1.3                          T                                        5198227
ETSF  001.45 115.9 m E Sg      2013/02/15 20:52:42.7  -0.2                          T                1.5  .23 Ml 1.8 Md 1.9  5198232
EPF   002.02 103.8 m E Pn      2013/02/15 20:52:30.1   0.7                          T                                        5198228
EPF   002.02 103.8 m E Pg      2013/02/15 20:52:34.3  -0.3                          T                                        5198231
EPF   002.02 103.8 m E Sn      2013/02/15 20:52:54.4   1.2                          T                                        5198229
EPF   002.02 103.8 m E Sg      2013/02/15 20:53:00.8   0.2                          T                3.1  .51 Ml 2.0         5198230

.
