EVENT     261650
    Date      Time       Latitude Longitude    Depth    Ndef Nsta Gap    Mag1  N    Mag2  N    Mag3  N   Author         ID
       rms   OT_Error      Smajor Sminor Az        Err   mdist  Mdist     Err        Err        Err      Quality

2011/07/22 05:04:01.9     44.0955    7.1976      2.0      14    8 156  Ml 2.0  3  Md 2.0  3              js067245    261650

      0.82   +-  0.29       6.9    4.0   73.19 +-  0.0    0.29   2.41   +-0.3      +-0.1                 m i ke

NORTHERN ITALY
Sta     Dist  EvAz     Phase      Date       Time     TRes  Azim  AzRes  Slow  SRes Def   SNR       Amp   Per   Mag1   Mag2       ID
SBF   000.29 143.5 m E Pg      2011/07/22 05:04:07.1  -0.5                          T                                        4725263
SBF   000.29 143.5 m E Sg      2011/07/22 05:04:11.3  -0.2                          T               14.7  .25        Md 2.1  4725257
FRF   000.67 216.9 m E Pg      2011/07/22 05:04:15.0   0.5                          T                                        4725253
FRF   000.67 216.9 m E Sg      2011/07/22 05:04:22.1  -1.2                          T                6.8  .29        Md 2.0  4725254
MBDF  000.70 334.3 m E Pg      2011/07/22 05:04:15.9   0.5                          T                                        4725261
MBDF  000.70 334.3 m E Sg      2011/07/22 05:04:26.3   1.8                          T                4.3  .21        Md 1.9  4725259
LMR   000.91 213.5 m E Pg      2011/07/22 05:04:19.3   0.4                          T                                        4725262
LMR   000.91 213.5 m E Sg      2011/07/22 05:04:32.4   1.6                          T               11.4  .32 Ml 2.3         4725258
ORIF  001.25 311.6 m E Pg      2011/07/22 05:04:25.1  -0.3                          T                                        4725251
ORIF  001.25 311.6 m E Sg      2011/07/22 05:04:41.3  -0.3                          T                2.3  .34 Ml 1.8         4725255
LPL   001.46 347.0 m E Pg      2011/07/22 05:04:29.0  -0.4                          T                                        4725252
VIVF  001.96 293.7 m E Pn      2011/07/22 05:04:35.0   0.5                          T                                        4725260
VIVF  001.96 293.7 m E Sg      2011/07/22 05:05:01.7  -1.9                          T                1.1  .22 Ml 1.9         4725256
LASF  002.41 270.7 m E Pg      2011/07/22 05:04:45.9  -0.7                          T                                        4725250

.
EVENT     261651
    Date      Time       Latitude Longitude    Depth    Ndef Nsta Gap    Mag1  N    Mag2  N    Mag3  N   Author         ID
       rms   OT_Error      Smajor Sminor Az        Err   mdist  Mdist     Err        Err        Err      Quality

2011/07/22 05:11:53.9     44.0861    7.2675      2.0      16    8 165  Ml 2.1  4  Md 1.9  3              js067245    261651

      0.32   +-  0.11       2.8    1.4   74.30 +-  0.0    0.25   2.01   +-0.3      +-0.1                 m i ke

NORTHERN ITALY
Sta     Dist  EvAz     Phase      Date       Time     TRes  Azim  AzRes  Slow  SRes Def   SNR       Amp   Per   Mag1   Mag2       ID
SBF   000.25 151.4 m E Pg      2011/07/22 05:11:59.1   0.1                          T                                        4725277
SBF   000.25 151.4 m E Sg      2011/07/22 05:12:02.7   0.2                          T               52.3  .34        Md 2.0  4725264
FRF   000.69 220.8 m E Pg      2011/07/22 05:12:07.0   0.0                          T                                        4725275
FRF   000.69 220.8 m E Sg      2011/07/22 05:12:15.6  -0.4                          T                9.5  .30        Md 1.9  4725266
MBDF  000.73 331.1 m E Pg      2011/07/22 05:12:07.9   0.0                          T                                        4725271
MBDF  000.73 331.1 m E Sg      2011/07/22 05:12:18.5   0.9                          T                6.2  .23        Md 1.8  4725268
LMR   000.93 216.4 m E Pg      2011/07/22 05:12:11.3   0.0                          T                                        4725276
LMR   000.93 216.4 m E Sg      2011/07/22 05:12:23.6   0.1                          T               11.4  .23 Ml 2.5         4725265
ORIF  001.30 310.4 m E Pg      2011/07/22 05:12:18.2  -0.1                          T                                        4725272
ORIF  001.30 310.4 m E Sg      2011/07/22 05:12:34.6  -0.4                          T                3.0  .30 Ml 2.0         4725267
LPL   001.48 345.3 m E Pg      2011/07/22 05:12:21.5  -0.3                          T                                        4725273
LPG   001.46 345.6 m E Pg      2011/07/22 05:12:22.2   0.8                          T                                        4725274
VIVF  002.01 293.4 m E Pn      2011/07/22 05:12:27.8   0.7                          T                                        4725270
VIVF  002.01 293.4 m E Sn      2011/07/22 05:12:52.2   0.8                          T                 .9  .18 Ml 1.9         4725269

.
EVENT     261700
    Date      Time       Latitude Longitude    Depth    Ndef Nsta Gap    Mag1  N    Mag2  N    Mag3  N   Author         ID
       rms   OT_Error      Smajor Sminor Az        Err   mdist  Mdist     Err        Err        Err      Quality

2011/07/22 19:19:36.3     36.3756   -9.5743     10.0 f    79   12 267  Ml 3.7 12  Md 3.7  3              js067245    261700

      0.52   +-  0.21       4.2    3.2   65.09 +-  0.0    0.97  14.06   +-0.3      +-0.0                 m i ke

WEST OF GIBRALTAR
Sta     Dist  EvAz     Phase      Date       Time     TRes  Azim  AzRes  Slow  SRes Def   SNR       Amp   Per   Mag1   Mag2       ID
SJPF  009.30 041.1 m E Pn      2011/07/22 19:21:49.0   1.1                          T                                        4725839
SJPF  009.30 041.1 m E Sn      2011/07/22 19:23:27.5   1.0                          T                4.7  .21 Ml 4.0 Md 3.7  4725826
ETSF  009.52 044.1 m E Pn      2011/07/22 19:21:51.9   1.0                          T                                        4725830
ETSF  009.52 044.1 m E Sn      2011/07/22 19:23:32.2   0.3                          T                3.5  .26 Ml 3.8 Md 3.6  4725827
EPF   010.12 045.9 m E Pn      2011/07/22 19:22:00.1   1.1                          T                                        4725829
EPF   010.12 045.9 m E Sn      2011/07/22 19:23:46.7   0.7                          T                3.6  .22 Ml 3.9 Md 3.7  4725828
RJF   012.24 039.8 m E Pn      2011/07/22 19:22:27.9   0.0                          T                                        4725832
RJF   012.24 039.8 m E Sn      2011/07/22 19:24:36.8   0.2                          T                1.8  .29 Ml 3.5         4725819
CAF   012.28 042.4 m E Pn      2011/07/22 19:22:28.3  -0.2                          T                                        4725831
CAF   012.28 042.4 m E Sn      2011/07/22 19:24:38.6   0.9                          T                2.8  .33 Ml 4.0         4725825
MFF   012.41 031.7 m E Pn      2011/07/22 19:22:30.1  -0.1                          T                                        4725833
MFF   012.41 031.7 m E Sn      2011/07/22 19:24:41.3   0.5                          T                1.0  .27 Ml 3.8         4725818
QUIF  012.47 020.4 m E Pn      2011/07/22 19:22:31.4   0.5                          T                                        4725836
QUIF  012.47 020.4 m E Sn      2011/07/22 19:24:43.0   1.0                          T                1.0  .20 Ml 3.7         4725822
ROSF  012.82 019.3 m E Pn      2011/07/22 19:22:36.2   0.5                          T                                        4725838
ROSF  012.82 019.3 m E Sn      2011/07/22 19:24:50.3  -0.3                          T                1.6  .27 Ml 3.8         4725821
SGMF  012.95 021.4 m E Pn      2011/07/22 19:22:37.6   0.2                          T                                        4725837
SGMF  012.95 021.4 m E Sn      2011/07/22 19:24:53.9   0.3                          T                 .8  .20 Ml 3.6         4725820
LDF   014.05 026.7 m E Pn      2011/07/22 19:22:52.2  -0.2                          T                                        4725834
LDF   014.05 026.7 m E Sn      2011/07/22 19:25:19.4  -0.4                          T                 .4  .20 Ml 3.3         4725823
FLN   014.06 025.5 m E Pn      2011/07/22 19:22:52.5  -0.1                          T                                        4725835
FLN   014.06 025.5 m E Sn      2011/07/22 19:25:19.2  -1.0                          T                 .4  .21 Ml 3.1         4725824
VIVF  013.73 047.5 m E Sn      2011/07/22 19:25:13.2   0.9                          T                1.4  .31 Ml 3.7         4725817

.
EVENT     261706
    Date      Time       Latitude Longitude    Depth    Ndef Nsta Gap    Mag1  N    Mag2  N    Mag3  N   Author         ID
       rms   OT_Error      Smajor Sminor Az        Err   mdist  Mdist     Err        Err        Err      Quality

2011/07/22 20:14:36.7     42.8230   -1.0895      2.0      13    3 185  Ml 1.4  1  Md 1.6  2              js067245    261706

      0.35   +-  0.16       4.0    1.5    5.75 +-  0.0    0.11   1.07   +-         +-0.0                 m i ke

PYRENEES
Sta     Dist  EvAz     Phase      Date       Time     TRes  Azim  AzRes  Slow  SRes Def   SNR       Amp   Per   Mag1   Mag2       ID
SJPF  000.31 341.1 m E Pg      2011/07/22 20:14:42.4  -0.2                          T                                        4725843
SJPF  000.31 341.1 m E Sg      2011/07/22 20:14:45.9  -0.9                          T                7.0  .24        Md 1.6  4725840
ETSF  000.40 078.9 m E Pg      2011/07/22 20:14:44.3  -0.2                          T                                        4725844
ETSF  000.40 078.9 m E Sg      2011/07/22 20:14:50.2   0.5                          T                1.6  .19        Md 1.6  4725842
EPF   001.07 078.4 m E Pg      2011/07/22 20:14:56.6  -0.2                          T                                        4725907
EPF   001.07 078.4 m E Sn      2011/07/22 20:15:11.9   0.2                          T                 .8  .21 Ml 1.4         4725906

.
EVENT     261707
    Date      Time       Latitude Longitude    Depth    Ndef Nsta Gap    Mag1  N    Mag2  N    Mag3  N   Author         ID
       rms   OT_Error      Smajor Sminor Az        Err   mdist  Mdist     Err        Err        Err      Quality

2011/07/22 20:29:35.1     43.2099    -.9783     22.0 f    13    3 188  Ml 1.4  1  Md 1.5  2              js067245    261707

      0.28   +-  0.12       3.1    1.4  178.48 +-  0.0    0.20   0.98   +-         +-0.0                 m i ke

PYRENEES
Sta     Dist  EvAz     Phase      Date       Time     TRes  Azim  AzRes  Slow  SRes Def   SNR       Amp   Per   Mag1   Mag2       ID
SJPF  000.20 241.9 m E Pg      2011/07/22 20:29:40.9   0.3                          T                                        4725850
SJPF  000.20 241.9 m E Sg      2011/07/22 20:29:44.9   0.4                          T                7.9  .21        Md 1.5  4725848
ETSF  000.44 135.2 m E Pg      2011/07/22 20:29:44.3   0.0                          T                                        4725849
ETSF  000.44 135.2 m E Sg      2011/07/22 20:29:50.8   0.2                          T                5.0  .17        Md 1.5  4725847
EPF   000.98 100.1 m E Pg      2011/07/22 20:29:54.0   0.1                          T                                        4725845
EPF   000.98 100.1 m E Sg      2011/07/22 20:30:07.0   0.1                          T                 .8  .22 Ml 1.4         4725846

.
EVENT     261708
    Date      Time       Latitude Longitude    Depth    Ndef Nsta Gap    Mag1  N    Mag2  N    Mag3  N   Author         ID
       rms   OT_Error      Smajor Sminor Az        Err   mdist  Mdist     Err        Err        Err      Quality

2011/07/22 20:50:55.4     43.0867   -1.3098     15.0      12    3 132  Ml 1.3  1  Md 1.3  2              js067245    261708

      0.21   +-  0.07       1.8    1.5   20.53 +-  0.0    0.07   1.21   +-         +-0.1                 m i ke

PYRENEES
Sta     Dist  EvAz     Phase      Date       Time     TRes  Azim  AzRes  Slow  SRes Def   SNR       Amp   Per   Mag1   Mag2       ID
SJPF  000.07 066.8 m E Pg      2011/07/22 20:50:58.6   0.0                          T                                        4726021
SJPF  000.07 066.8 m E Sg      2011/07/22 20:51:00.8   0.2                          T                4.8  .17        Md 1.2  4726019
ETSF  000.58 108.6 m E Pg      2011/07/22 20:51:06.4  -0.4                          T                                        4726020
ETSF  000.58 108.6 m E Sg      2011/07/22 20:51:15.0   0.3                          T                1.8  .20        Md 1.3  4726018
EPF   001.21 092.1 m E Pg      2011/07/22 20:51:18.2  -0.1                          T                                        4726016
EPF   001.21 092.1 m E Sg      2011/07/22 20:51:34.6   0.5                          T                 .5  .18 Ml 1.3         4726017

.
EVENT     261709
    Date      Time       Latitude Longitude    Depth    Ndef Nsta Gap    Mag1  N    Mag2  N    Mag3  N   Author         ID
       rms   OT_Error      Smajor Sminor Az        Err   mdist  Mdist     Err        Err        Err      Quality

2011/07/22 21:18:16.0     43.1800    -.5603      2.0      19    6 120  Ml 1.6  3  Md 1.7  3              js067245    261709

      0.44   +-  0.11       2.8    1.6  162.46 +-  0.0    0.14   2.60   +-0.2      +-0.2                 m i ke

PYRENEES
Sta     Dist  EvAz     Phase      Date       Time     TRes  Azim  AzRes  Slow  SRes Def   SNR       Amp   Per   Mag1   Mag2       ID
ETSF  000.28 179.8 m E Pg      2011/07/22 21:18:20.2  -1.4                          T                                        4726032
ETSF  000.28 179.8 m E Sg      2011/07/22 21:18:24.8  -0.6                          T                6.4  .23        Md 1.9  4726029
SJPF  000.49 262.4 m E Pg      2011/07/22 21:18:25.7   0.3                          T                                        4726031
SJPF  000.49 262.4 m E Sg      2011/07/22 21:18:32.5   0.6                          T                3.3  .20        Md 1.7  4726030
EPF   000.68 102.5 m E Pg      2011/07/22 21:18:29.1   0.3                          T                                        4726024
EPF   000.68 102.5 m E Sg      2011/07/22 21:18:37.3  -0.4                          T                2.9  .25        Md 1.5  4726028
MTLF  002.04 084.5 m E Pg      2011/07/22 21:18:53.3  -0.5                          T                                        4726023
MTLF  002.04 084.5 m E Sg      2011/07/22 21:19:20.3   0.2                          T                 .5  .19 Ml 1.7         4726027
CAF   002.57 046.4 m E Pg      2011/07/22 21:19:03.7  -0.1                          T                                        4726025
CAF   002.57 046.4 m E Sg      2011/07/22 21:19:37.7   0.8                          T                 .6  .18 Ml 1.9         4726026
RJF   002.60 034.4 m E Sg      2011/07/22 21:19:38.1   0.5                          T                 .5  .21 Ml 1.4         4726022

.
EVENT     261736
    Date      Time       Latitude Longitude    Depth    Ndef Nsta Gap    Mag1  N    Mag2  N    Mag3  N   Author         ID
       rms   OT_Error      Smajor Sminor Az        Err   mdist  Mdist     Err        Err        Err      Quality

2011/07/22 22:50:21.3     40.3700   -2.3387      2.0      31    3 079  Ml 1.6  3                         js067245    261736

      0.70   +-  0.12       3.0    1.9  122.96 +-  0.0    0.50   3.67   +-0.2                            m i ke

SPAIN
Sta     Dist  EvAz     Phase      Date       Time     TRes  Azim  AzRes  Slow  SRes Def   SNR       Amp   Per   Mag1   Mag2       ID
ETSF  002.86 027.2 m E Pn      2011/07/22 22:51:05.7  -0.4                          T                                        4726336
ETSF  002.86 027.2 m E Pg      2011/07/22 22:51:13.9  -0.5                          T                                        4726332
ETSF  002.86 027.2 m E Sn      2011/07/22 22:51:39.2   0.2                          T                                        4726323
ETSF  002.86 027.2 m E Sg      2011/07/22 22:51:50.9  -0.2                          T                 .2  .17 Ml 1.4         4726327
SJPF  002.86 016.5 m E Pn      2011/07/22 22:51:06.4   0.3                          T                                        4726334
SJPF  002.86 016.5 m E Pg      2011/07/22 22:51:14.2  -0.2                          T                                        4726331
SJPF  002.86 016.5 m E Sn      2011/07/22 22:51:38.5  -0.6                          T                                        4726322
SJPF  002.86 016.5 m E Sg      2011/07/22 22:51:50.6  -0.6                          T                 .4  .25 Ml 1.6         4726326
EPF   003.33 036.2 m E Pn      2011/07/22 22:51:12.3  -0.2                          T                                        4726335
EPF   003.33 036.2 m E Pg      2011/07/22 22:51:22.9  -0.2                          T                                        4726329
EPF   003.33 036.2 m E Sn      2011/07/22 22:51:50.1  -0.1                          T                                        4726321
EPF   003.33 036.2 m E Sg      2011/07/22 22:52:05.7  -0.1                          T                 .7  .28 Ml 1.9         4726328

.
EVENT     261710
    Date      Time       Latitude Longitude    Depth    Ndef Nsta Gap    Mag1  N    Mag2  N    Mag3  N   Author         ID
       rms   OT_Error      Smajor Sminor Az        Err   mdist  Mdist     Err        Err        Err      Quality

2011/07/23 00:29:42.4     42.8743   -1.0956      2.0      22    6 092  Ml 1.7  3  Md 1.8  3              js067245    261710

      0.36   +-  0.09       2.3    1.3  174.38 +-  0.0    0.11   3.07   +-0.1      +-0.0                 m i ke

PYRENEES
Sta     Dist  EvAz     Phase      Date       Time     TRes  Azim  AzRes  Slow  SRes Def   SNR       Amp   Per   Mag1   Mag2       ID
SJPF  000.26 338.4 m E Pg      2011/07/23 00:29:47.3  -0.2                          T                                        4726400
SJPF  000.26 338.4 m E Sg      2011/07/23 00:29:50.9  -0.1                          T               26.0  .25        Md 1.8  4726395
ETSF  000.39 086.3 m E Pg      2011/07/23 00:29:49.9  -0.3                          T                                        4726399
ETSF  000.39 086.3 m E Sg      2011/07/23 00:29:55.4   0.0                          T                4.7  .19        Md 1.8  4726394
EPF   001.07 081.1 m E Pg      2011/07/23 00:30:01.6  -0.8                          T                                        4726398
EPF   001.07 081.1 m E Sg      2011/07/23 00:30:16.5   0.2                          T                2.8  .27 Ml 1.9 Md 1.8  4726393
LFF   002.45 032.1 m E Pg      2011/07/23 00:30:27.7  -0.3                          T                                        4726392
CAF   003.07 047.0 m E Pn      2011/07/23 00:30:30.6   0.5                          T                                        4726397
CAF   003.07 047.0 m E Sn      2011/07/23 00:31:05.4   0.2                          T                 .3  .18 Ml 1.7         4726396
RJF   003.07 036.9 m E Sn      2011/07/23 00:31:05.0  -0.3                          T                 .9  .28 Ml 1.6         4726391

.
