EVENT     270359
    Date      Time       Latitude Longitude    Depth    Ndef Nsta Gap    Mag1  N    Mag2  N    Mag3  N   Author         ID
       rms   OT_Error      Smajor Sminor Az        Err   mdist  Mdist     Err        Err        Err      Quality

2012/02/17 19:24:02.2     47.2547    -.7928      2.0      24   10 147  Ml 2.1 10  Md 2.1  1              js067245    270379

      0.98   +-  0.11       3.3    1.7   53.69 +-  0.0    0.79   2.71   +-0.2      +-                    m i ke

FRANCE
Sta     Dist  EvAz     Phase      Date       Time     TRes  Azim  AzRes  Slow  SRes Def   SNR       Amp   Per   Mag1   Mag2       ID
MFF   000.79 145.6 m E Pg      2012/02/17 19:24:17.0  -0.1                          T                                        4841605
MFF   000.79 145.6 m E Pn      2012/02/17 19:24:18.5  -0.2                          T                                        4843683
MFF   000.79 145.6 m E Sg      2012/02/17 19:24:27.9   0.5                          T                2.7  .24                4843681
MFF   000.79 145.6 m E Sn      2012/02/17 19:24:32.1   1.6                          T                3.8  .20        Md 2.1  4843682
GRR   001.14 357.8 m E Pg      2012/02/17 19:24:23.3  -0.1                          T                                        4841608
GRR   001.14 357.8 m E Sg      2012/02/17 19:24:38.7   0.6                          T                5.7  .18 Ml 2.2         4841607
LDF   001.41 018.4 m E Pg      2012/02/17 19:24:29.2   0.7                          T                                        4841606
LDF   001.41 018.4 m E Sg      2012/02/17 19:24:46.9   0.1                          T                3.3  .19 Ml 2.2         4843699
FLN   001.52 007.8 m E Pg      2012/02/17 19:24:30.5  -0.1                          T                                        4843689
FLN   001.52 007.8 m E Sg      2012/02/17 19:24:50.2   0.0                          T                4.7  .22 Ml 2.2         4841604
SGMF  001.55 310.7 m E Pg      2012/02/17 19:24:31.2   0.0                          T                                        4841602
SGMF  001.55 310.7 m E Sg      2012/02/17 19:24:51.1  -0.1                          T                 .7  .17 Ml 1.7         4841603
QUIF  001.74 293.3 m E P       2012/02/17 19:24:33.5  -0.2                          T                                        4841599
QUIF  001.74 293.3 m E Pg      2012/02/17 19:24:34.4  -0.1                          T                                        4843698
QUIF  001.74 293.3 m E Sg      2012/02/17 19:24:56.9  -0.1                          T                1.7  .22 Ml 2.0         4841600
RJF   002.52 139.8 m E Pn      2012/02/17 19:24:42.1  -0.3                          T                                        4843697
RJF   002.52 139.8 m E Pg      2012/02/17 19:24:48.4  -0.7                          T                                        4843696
RJF   002.52 139.8 m E Sg      2012/02/17 19:25:21.4  -0.1                          T                2.5  .28 Ml 1.9         4843685
ROSF  001.99 303.8 m E Sg      2012/02/17 19:25:04.6  -0.3                          T                1.4  .22 Ml 2.0         4841601
TCF   002.28 114.0 m E Sg      2012/02/17 19:25:13.4  -0.5                          T                1.0  .19 Ml 2.0         4843688
BGF   002.59 104.3 m E Sg      2012/02/17 19:25:22.6  -1.0                          T                3.2  .32 Ml 2.3         4843687

.
EVENT     270360
    Date      Time       Latitude Longitude    Depth    Ndef Nsta Gap    Mag1  N    Mag2  N    Mag3  N   Author         ID
       rms   OT_Error      Smajor Sminor Az        Err   mdist  Mdist     Err        Err        Err      Quality

2012/02/18 00:28:23.7     34.2705   -5.4586     10.0 f   190   18 073  Ml 4.4 13                         js067245    270380

      1.89   +-  0.29       6.6    5.7  173.65 +-  0.0    1.19  64.57   +-0.3                            m i ke

MOROCCO
Sta     Dist  EvAz     Phase      Date       Time     TRes  Azim  AzRes  Slow  SRes Def   SNR       Amp   Per   Mag1   Mag2       ID
SJPF  009.43 019.3 m E Pn      2012/02/18 00:30:40.6   3.6                          T                                        4841621
SJPF  009.43 019.3 m E Sn      2012/02/18 00:32:16.5  -0.4                          T               39.4  .34 Ml 4.7         4841612
EPF   009.85 025.7 m E Pn      2012/02/18 00:30:46.8   4.0                          T                                        4841616
EPF   009.85 025.7 m E Sn      2012/02/18 00:32:28.3   1.3                          T               26.1  .38 Ml 4.5         4841611
LFF   011.67 022.3 m E Pn      2012/02/18 00:31:11.4   3.9                          T                                        4841619
LFF   011.67 022.3 m E Sn      2012/02/18 00:33:10.8   0.2                          T               14.2  .41 Ml 4.3         4841610
CAF   012.11 026.3 m E Pn      2012/02/18 00:31:17.0   3.4                          T                                        4841620
CAF   012.11 026.3 m E Sn      2012/02/18 00:33:20.7  -0.4                          T                5.0  .34 Ml 4.2         4841609
RJF   012.25 023.8 m E Pn      2012/02/18 00:31:17.8   2.4                          T                                        4842006
RJF   012.25 023.8 m E Sn      2012/02/18 00:33:23.8  -0.5                          T                8.4  .47 Ml 3.9         4842010
MFF   012.96 016.5 m E Pn      2012/02/18 00:31:28.5   3.4                          T                                        4841618
MFF   012.96 016.5 m E Sn      2012/02/18 00:33:39.5  -1.8                          T                9.7  .49 Ml 4.5         4842009
QUIF  013.74 006.5 m E Pn      2012/02/18 00:31:37.6   2.0                          T                                        4841615
QUIF  013.74 006.5 m E Sn      2012/02/18 00:33:53.7  -6.2                          T               26.6  .47 Ml 4.8         4842018
BGF   013.80 024.7 m E Pn      2012/02/18 00:31:39.0   2.6                          T                                        4842004
BGF   013.80 024.7 m E Sn      2012/02/18 00:34:00.4  -0.9                          T               12.9  .50 Ml 4.5         4842002
SGMF  014.14 008.0 m E Pn      2012/02/18 00:31:42.9   1.8                          T                                        4841614
SGMF  014.14 008.0 m E Sn      2012/02/18 00:34:04.7  -4.7                          T               13.3  .51 Ml 4.5         4842017
ROSF  014.15 006.0 m E Pn      2012/02/18 00:31:43.7   2.5                          T                                        4841613
ROSF  014.15 006.0 m E Sn      2012/02/18 00:34:04.0  -5.6                          T                9.2  .26 Ml 4.6         4842016
SSF   014.46 025.3 m E Pn      2012/02/18 00:31:47.5   2.0                          T                                        4842000
GRR   014.52 012.3 m E Pn      2012/02/18 00:31:48.8   2.5                          T                                        4841617
GRR   014.52 012.3 m E Sn      2012/02/18 00:34:14.6  -3.9                          T               10.4  .38 Ml 4.3         4842015
FLN   014.95 012.9 m E Pn      2012/02/18 00:31:54.3   2.2                          T                                        4842008
FLN   014.95 012.9 m E Sn      2012/02/18 00:34:24.7  -4.0                          T                                        4842012
LDF   014.85 013.9 m E Pn      2012/02/18 00:31:54.4   3.6                          T                                        4842007
LDF   014.85 013.9 m E Sn      2012/02/18 00:34:23.8  -2.7                          T                3.6  .37 Ml 4.0         4842011
LPG   014.59 036.2 m E Pn      2012/02/18 00:31:54.8   7.1                          T                                        4842013
LPL   014.60 036.1 m E Pn      2012/02/18 00:31:56.3   8.6                          T                                        4842014
BAIF  017.30 021.3 m E Pn      2012/02/18 00:32:24.8   0.7                          T                                        4841999
TCF   013.35 023.6 m E Sn      2012/02/18 00:33:48.6  -1.9                          T                                        4842001

.
EVENT     270361
    Date      Time       Latitude Longitude    Depth    Ndef Nsta Gap    Mag1  N    Mag2  N    Mag3  N   Author         ID
       rms   OT_Error      Smajor Sminor Az        Err   mdist  Mdist     Err        Err        Err      Quality

2012/02/18 01:53:09.1     42.7749    7.7564     25.0      15    7 192  Ml 2.0  8  Md 2.0  2              js067245    270381

      0.84   +-  0.21       9.2    3.2   27.95 +-  0.0    0.94   3.12   +-0.2      +-0.0                 m i ke

WESTERN MEDITERRANEAN SEA
Sta     Dist  EvAz     Phase      Date       Time     TRes  Azim  AzRes  Slow  SRes Def   SNR       Amp   Per   Mag1   Mag2       ID
PGF   000.94 103.5 m E Pn      2012/02/18 01:53:25.4   0.1                          T                                        4841998
PGF   000.94 103.5 m E Sn      2012/02/18 01:53:36.6  -0.4                          T                3.7  .18 Ml 2.3 Md 2.0  4842023
LMR   001.07 301.9 m E Pn      2012/02/18 01:53:26.7  -0.1                          T                                        4841997
LMR   001.07 301.9 m E Sn      2012/02/18 01:53:38.7  -1.1                          T                1.8  .22 Ml 1.8 Md 2.0  4842025
SBF   001.11 347.9 m E Pn      2012/02/18 01:53:27.6   0.1                          T                                        4841995
SBF   001.11 347.9 m E Sn      2012/02/18 01:53:38.9  -2.0                          T                4.9  .21 Ml 2.2         4841994
FRF   001.13 314.4 m E Pn      2012/02/18 01:53:27.6   0.0                          T                                        4841996
FRF   001.13 314.4 m E Sn      2012/02/18 01:53:40.8  -0.5                          T                2.7  .22 Ml 2.0         4841993
SMRF  001.99 307.8 m E Pn      2012/02/18 01:53:39.6   0.2                          T                                        4842020
SMRF  001.99 307.8 m E Sn      2012/02/18 01:54:01.6  -0.4                          T                 .7  .24 Ml 1.7         4842019
LASF  003.12 295.9 m E Pn      2012/02/18 01:53:55.4   0.5                          T                                        4843710
LASF  003.12 295.9 m E Sn      2012/02/18 01:54:28.9   0.0                          T                 .9  .36 Ml 1.8         4843711
MBDF  002.08 340.2 m E Sn      2012/02/18 01:54:05.9   1.8                          T                  1  .22 Ml 1.9         4842024

.
EVENT     270362
    Date      Time       Latitude Longitude    Depth    Ndef Nsta Gap    Mag1  N    Mag2  N    Mag3  N   Author         ID
       rms   OT_Error      Smajor Sminor Az        Err   mdist  Mdist     Err        Err        Err      Quality

2012/02/18 03:08:57.4     43.0731    -.8005     10.0      11    2 154             Md 1.5  2              js067245    270382

      0.14   +-  0.04       1.6     .6  178.34 +-  0.0    0.07   0.84              +-0.2                 m i ke

PYRENEES
Sta     Dist  EvAz     Phase      Date       Time     TRes  Azim  AzRes  Slow  SRes Def   SNR       Amp   Per   Mag1   Mag2       ID
SJPF  000.31 277.5 m E Pg      2012/02/18 03:09:03.6  -0.1                          T                                        4841180
SJPF  000.31 277.5 m E Sg      2012/02/18 03:09:07.9  -0.2                          T                4.4  .22        Md 1.6  4841179
EPF   000.84 092.5 m E Pg      2012/02/18 03:09:13.2  -0.1                          T                                        4843718
EPF   000.84 092.5 m E Sg      2012/02/18 03:09:24.4   0.1                          T                 .5  .24        Md 1.4  4843719

.
EVENT     270392
    Date      Time       Latitude Longitude    Depth    Ndef Nsta Gap    Mag1  N    Mag2  N    Mag3  N   Author         ID
       rms   OT_Error      Smajor Sminor Az        Err   mdist  Mdist     Err        Err        Err      Quality

2012/02/18 14:24:58.0     41.8804   -1.9826     10.0 f    26    3 088  Ml 2.1  3  Md 2.1  3              js067245    270412

      0.56   +-  0.13       2.7    1.9  111.39 +-  0.0    0.94   2.67   +-0.1      +-0.1                 m i ke

SPAIN
Sta     Dist  EvAz     Phase      Date       Time     TRes  Azim  AzRes  Slow  SRes Def   SNR       Amp   Per   Mag1   Mag2       ID
SJPF  001.35 024.2 m E Pn      2012/02/18 14:25:22.2   0.8                          T                                        4842046
SJPF  001.35 024.2 m E Pg      2012/02/18 14:25:23.2  -0.1                          T                                        4842055
SJPF  001.35 024.2 m E Sg      2012/02/18 14:25:40.3  -0.6                          T                2.5  .27 Ml 1.9 Md 2.1  4842048
ETSF  001.47 045.5 m E Pn      2012/02/18 14:25:23.1   0.1                          T                                        4842051
ETSF  001.47 045.5 m E Pg      2012/02/18 14:25:25.3  -0.2                          T                                        4842054
ETSF  001.47 045.5 m E Sn      2012/02/18 14:25:42.5   1.4                          T                2.9  .23 Ml 2.1         4842052
ETSF  001.47 045.5 m E Sg      2012/02/18 14:25:44.3  -0.2                          T                                Md 2.1  4842047
EPF   002.07 055.5 m E Pn      2012/02/18 14:25:31.4   0.2                          T                                        4842045
EPF   002.07 055.5 m E Pg      2012/02/18 14:25:35.6  -0.9                          T                                        4842053
EPF   002.07 055.5 m E Sn      2012/02/18 14:25:56.6   1.2                          T                                        4842049
EPF   002.07 055.5 m E Sg      2012/02/18 14:26:02.8  -0.4                          T                2.2  .22 Ml 2.2 Md 2.2  4842050

.
EVENT     270393
    Date      Time       Latitude Longitude    Depth    Ndef Nsta Gap    Mag1  N    Mag2  N    Mag3  N   Author         ID
       rms   OT_Error      Smajor Sminor Az        Err   mdist  Mdist     Err        Err        Err      Quality

2012/02/18 17:36:59.2     41.5629    2.6309      4.0 f    71   15 099  Ml 2.6 15  Md 2.9  4              js067245    270413

      0.71   +-  0.10       1.9    1.4  138.93 +-  0.0    0.25   5.42   +-0.2      +-0.0                 m i ke

SPAIN
Sta     Dist  EvAz     Phase      Date       Time     TRes  Azim  AzRes  Slow  SRes Def   SNR       Amp   Per   Mag1   Mag2       ID
EPF   002.24 311.6 m E Pn      2012/02/18 17:37:37.3   1.9                          T                                        4842339
EPF   002.24 311.6 m E Sg      2012/02/18 17:38:09.2  -0.7                          T               10.3  .22 Ml 2.9 Md 2.9  4842350
LASF  002.67 019.3 m E Pn      2012/02/18 17:37:41.7   0.5                          T                                        4842326
LASF  002.67 019.3 m E Sn      2012/02/18 17:38:11.9  -0.1                          T                                        4842327
LASF  002.67 019.3 m E Sg      2012/02/18 17:38:22.8  -0.3                          T                4.4  .28 Ml 2.5 Md 2.9  4842348
ETSF  002.72 300.5 m E Pn      2012/02/18 17:37:43.2   1.3                          T                                        4842338
ETSF  002.72 300.5 m E Pg      2012/02/18 17:37:49.8   0.1                          T                                        4842333
ETSF  002.72 300.5 m E Sg      2012/02/18 17:38:23.3  -1.4                          T                6.9  .24 Ml 2.8 Md 2.9  4842349
LMR   003.37 057.0 m E Pn      2012/02/18 17:37:49.5  -1.2                          T                                        4842320
LMR   003.37 057.0 m E Sn      2012/02/18 17:38:28.5  -0.3                          T                1.3  .25 Ml 2.3         4842330
SJPF  003.25 299.7 m E Pn      2012/02/18 17:37:49.7   0.6                          T                                        4842336
SJPF  003.25 299.7 m E Pg      2012/02/18 17:37:59.9   0.4                          T                                        4842335
SJPF  003.25 299.7 m E Sg      2012/02/18 17:38:40.2  -1.0                          T                8.3  .38 Ml 2.8 Md 2.9  4842344
CAF   003.39 353.2 m E Pn      2012/02/18 17:37:51.2   0.2                          T                                        4842337
CAF   003.39 353.2 m E Pg      2012/02/18 17:38:01.6  -0.4                          T                                        4842334
CAF   003.39 353.2 m E Sn      2012/02/18 17:38:29.4   0.2                          T                                        4842325
CAF   003.39 353.2 m E Sg      2012/02/18 17:38:45.4  -0.1                          T                7.3  .40 Ml 2.8         4842347
FRF   003.58 054.7 m E Pn      2012/02/18 17:37:53.4  -0.1                          T                                        4842329
FRF   003.58 054.7 m E Pg      2012/02/18 17:38:04.9  -0.5                          T                                        4842328
LFF   003.65 338.4 m E Pg      2012/02/18 17:38:07.1   0.4                          T                                        4842321
LFF   003.65 338.4 m E Sg      2012/02/18 17:38:54.1   0.5                          T                4.2  .28 Ml 2.6         4842346
TCF   004.73 356.5 m E Pg      2012/02/18 17:38:27.7   0.9                          T                                        4842341
TCF   004.73 356.5 m E Sg      2012/02/18 17:39:27.8   0.2                          T                1.6  .29 Ml 2.6         4842342
VIVF  003.61 023.7 m E Sn      2012/02/18 17:38:35.7   1.0                          T                                        4842324
VIVF  003.61 023.7 m E Sg      2012/02/18 17:38:51.9  -0.7                          T                1.7  .29 Ml 2.3         4842340
SMRF  003.24 041.0 m E Sg      2012/02/18 17:38:40.4  -0.6                          T                1.9  .27 Ml 2.3         4842319
SBF   004.22 055.4 m E Sn      2012/02/18 17:38:49.6   0.4                          T                3.2  .30 Ml 2.7         4842331
RJF   003.83 348.1 m E Sg      2012/02/18 17:38:59.5   0.3                          T                2.9  .26 Ml 2.3         4842345
PGF   004.84 076.2 m E Sn      2012/02/18 17:39:03.0  -1.1                          T                1.5  .28 Ml 2.8         4842332
MFF   005.42 339.3 m E Sg      2012/02/18 17:39:49.4   0.5                          T                 .9  .23 Ml 2.7         4842343

.
