EVENT     289946
    Date      Time       Latitude Longitude    Depth    Ndef Nsta Gap    Mag1  N    Mag2  N    Mag3  N   Author         ID
       rms   OT_Error      Smajor Sminor Az        Err   mdist  Mdist     Err        Err        Err      Quality

2013/01/09 01:37:42.0     47.3498    6.7609     10.0      87   20 089  Ml 2.3 19  Md 2.3  2              bulletin    290046
                                                                                                         _ldg
      0.53   +-  0.04        .8     .7  114.05 +-  0.0    0.05   3.85   +-0.2      +-0.0                 m i ke

FRANCE
Sta     Dist  EvAz     Phase      Date       Time     TRes  Azim  AzRes  Slow  SRes Def   SNR       Amp   Per   Mag1   Mag2       ID
HINF  000.47 007.6 m E Pg      2013/01/09 01:37:51.5   0.3                          T                                        5161985
HINF  000.47 007.6 m E P       2013/01/09 01:37:52.1  -0.3                          T                                        5182299
HINF  000.47 007.6 m E Sg      2013/01/09 01:37:57.6   0.1                          T               14.5  .14        Md 2.3  5161984
HAU   000.71 337.1 m E Pg      2013/01/09 01:37:55.6   0.0                          T                                        5161982
HAU   000.71 337.1 m E Sg      2013/01/09 01:38:04.9  -0.1                          T               19.0  .24                5182300
HAU   000.71 337.1 m E Sn      2013/01/09 01:38:06.7  -0.3                          T               10.5  .20        Md 2.3  5161983
CABF  000.87 212.2 m E Pn      2013/01/09 01:37:58.8  -0.1                          T                                        5161989
CABF  000.87 212.2 m E Sn      2013/01/09 01:38:10.9   0.1                          T                8.6  .24 Ml 2.3         5161988
THEF  001.02 329.8 m E Pg      2013/01/09 01:38:01.7   0.6                          T                                        5163094
THEF  001.02 329.8 m E Sg      2013/01/09 01:38:14.9   0.5                          T                                        5163095
CDF   001.12 017.9 m E Pn      2013/01/09 01:38:01.9  -0.4                          T   001.0                                5162210
CDF   001.12 017.9 m E Pg      2013/01/09 01:38:02.9  -0.2                          T                                        5161981
CDF   001.12 017.9 m E Sn      2013/01/09 01:38:16.4  -0.3                          T               14.9  .32 Ml 2.6         5161980
PAGF  001.39 330.4 m E Pn      2013/01/09 01:38:05.6  -0.2                          T                                        5162836
PAGF  001.39 330.4 m E Pg      2013/01/09 01:38:07.9  -0.1 147.1  -2.5              T                                        5162837
PAGF  001.39 330.4 m E Sn      2013/01/09 01:38:23.0  -0.2                          T                                        5161998
PAGF  001.39 330.4 m E Sg      2013/01/09 01:38:26.2   0.2                          T                7.3  .23 Ml 2.5         5182301
SFTF  001.44 307.0 m E Pn      2013/01/09 01:38:06.5  -0.1 118.3  -7.5              T                                        5162832
SFTF  001.44 307.0 m E Pg      2013/01/09 01:38:08.9  -0.1 124.3  -1.4              T                                        5161987
SFTF  001.44 307.0 m E Sn      2013/01/09 01:38:24.4   0.0 130.3  4.6               T                                        5162831
SFTF  001.44 307.0 m E Sg      2013/01/09 01:38:27.6   0.0 129.1  3.3               T                5.9  .24 Ml 2.4         5161986
MEZF  001.63 315.7 m E Pn      2013/01/09 01:38:08.9  -0.1                          T                                        5162833
MEZF  001.63 315.7 m E Pg      2013/01/09 01:38:12.2  -0.1 131.0  -3.5              T                                        5162834
MEZF  001.63 315.7 m E Sn      2013/01/09 01:38:28.6  -0.2 138.9  4.4               T                                        5162835
MEZF  001.63 315.7 m E Sg      2013/01/09 01:38:33.3   0.0 139.4  5.0               T                6.7  .35 Ml 2.4         5161997
LPL   001.83 180.6 m E Pn      2013/01/09 01:38:12.2   0.0                          T                                        5162823
LPL   001.83 180.6 m E Pg      2013/01/09 01:38:16.5   0.0                          T   001.0                                5162213
LPL   001.83 180.6 m E Sn      2013/01/09 01:38:33.6  -0.5                          T                                        5162822
LPL   001.83 180.6 m E Sg      2013/01/09 01:38:40.2   0.1                          T                1.6  .28 Ml 1.9         5161992
LPG   001.85 180.2 m E Pn      2013/01/09 01:38:12.5   0.0                          T                                        5179117
LPG   001.85 180.2 m E Pg      2013/01/09 01:38:16.9   0.0                          T   001.0                                5162212
LPG   001.85 180.2 m E Sn      2013/01/09 01:38:34.4  -0.1                          T                                        5162821
LPG   001.85 180.2 m E Sg      2013/01/09 01:38:40.7  -0.1                          T                1.8  .24 Ml 2.1         5161991
LOR   001.98 268.7 m E Pn      2013/01/09 01:38:13.8   0.0  94.2  7.6               T                                        5162002
LOR   001.98 268.7 m E Pg      2013/01/09 01:38:18.8   0.1  88.9  2.3               T                                        5162840
LOR   001.98 268.7 m E Sn      2013/01/09 01:38:36.6  -0.5                          T                4.1  .18 Ml 2.6         5162000
LOR   001.98 268.7 m E Sg      2013/01/09 01:38:44.3   0.0                          T                4.8  .20 Ml 2.6         5182302
SMF   002.12 251.6 m E Pn      2013/01/09 01:38:15.6  -0.2                          T                                        5161995
SMF   002.12 251.6 m E Pg      2013/01/09 01:38:21.4   0.0                          T   001.0                                5162214
SMF   002.12 251.6 m E Sn      2013/01/09 01:38:40.3  -0.3                          T   001.0                                5162215
SMF   002.12 251.6 m E Sg      2013/01/09 01:38:48.6  -0.1                          T                3.4  .22 Ml 2.4         5161990
SSF   002.24 263.8 m E Pn      2013/01/09 01:38:17.2  -0.2                          T                                        5162001
SSF   002.24 263.8 m E Pg      2013/01/09 01:38:23.7   0.1                          T                                        5162839
SSF   002.24 263.8 m E Sn      2013/01/09 01:38:43.6   0.2                          T                                        5161999
SSF   002.24 263.8 m E Sg      2013/01/09 01:38:52.6   0.2                          T                1.9  .23 Ml 2.3         5162838
AVF   002.40 257.7 m E Pn      2013/01/09 01:38:19.4  -0.1                          T                                        5161996
AVF   002.40 257.7 m E Pg      2013/01/09 01:38:26.6   0.1                          T   001.0                                5162205
AVF   002.40 257.7 m E Sn      2013/01/09 01:38:47.1   0.0                          T   001.0                                5162206
AVF   002.40 257.7 m E Sg      2013/01/09 01:38:57.4   0.1                          T                 .7  .20 Ml 1.8         5162830
ORIF  002.51 194.5 m E Pn      2013/01/09 01:38:21.0  -0.2                          T                                        5162824
ORIF  002.51 194.5 m E Pg      2013/01/09 01:38:28.4  -0.3                          T   001.0                                5162216
ORIF  002.51 194.5 m E Sn      2013/01/09 01:38:49.7  -0.3                          T                                        5162825
ORIF  002.51 194.5 m E Sg      2013/01/09 01:39:00.7  -0.2                          T                2.7  .26 Ml 2.3         5161993
BGF   002.80 255.0 m E Pn      2013/01/09 01:38:24.8  -0.1                          T   001.0                                5162207
BGF   002.80 255.0 m E Pg      2013/01/09 01:38:34.2   0.4                          T                                        5162826
BGF   002.80 255.0 m E Sn      2013/01/09 01:38:56.7   0.0                          T   001.0                                5162208
BGF   002.80 255.0 m E Sg      2013/01/09 01:39:10.1   0.3                          T   001.0        2.7  .32 Ml 2.3         5162209










VIVF  002.89 211.0 m E Pn      2013/01/09 01:38:26.2  -0.1                          T                                        5162819
VIVF  002.89 211.0 m E Pg      2013/01/09 01:38:35.0  -0.5                          T                                        5162820
VIVF  002.89 211.0 m E Sg      2013/01/09 01:39:12.9   0.2                          T                1.5  .26 Ml 2.2         5161994
TCF   003.30 252.9 m E Pn      2013/01/09 01:38:31.4  -0.5                          T                                        5162814
TCF   003.30 252.9 m E Pg      2013/01/09 01:38:43.2   0.1                          T                                        5162815
TCF   003.30 252.9 m E Sn      2013/01/09 01:39:08.6  -0.2                          T                                        5162813
TCF   003.30 252.9 m E Sg      2013/01/09 01:39:25.7   0.2                          T                 .6  .18 Ml 2.1         5162812
HYF   002.81 269.9 m E Pg      2013/01/09 01:38:34.0   0.0                          T                                        5162828
HYF   002.81 269.9 m E Sn      2013/01/09 01:38:56.5  -0.4                          T                                        5162827
HYF   002.81 269.9 m E Sg      2013/01/09 01:39:10.2   0.1                          T                                        5162829
LASF  003.85 212.9 m E Pn      2013/01/09 01:38:39.6   0.2                          T                                        5162817
LASF  003.85 212.9 m E Pg      2013/01/09 01:38:54.0   0.6                          T                                        5162818
LASF  003.85 212.9 m E Sn      2013/01/09 01:39:22.1   0.0                          T                                        5162816
LASF  003.85 212.9 m E Sg      2013/01/09 01:39:42.8   0.0                          T   001.0         .6  .24 Ml 2.0         5162211

.
EVENT     290204
    Date      Time       Latitude Longitude    Depth    Ndef Nsta Gap    Mag1  N    Mag2  N    Mag3  N   Author         ID
       rms   OT_Error      Smajor Sminor Az        Err   mdist  Mdist     Err        Err        Err      Quality

2013/01/09 02:19:55.3     42.4310    2.0223     11.0 f    29    5 088  Ml 1.4  9                         bulletin    290304
                                                                                                         _ldg
      0.22   +-  0.03        .9     .6   14.18 +-  0.0    0.06   4.59   +-0.4                            m i ke

PYRENEES
Sta     Dist  EvAz     Phase      Date       Time     TRes  Azim  AzRes  Slow  SRes Def   SNR       Amp   Per   Mag1   Mag2       ID
MTLF  000.92 008.9 m E Pg      2013/01/09 02:20:12.6  -0.1                          T                                        5179119
MTLF  000.92 008.9 m E Sg      2013/01/09 02:20:24.7   0.0                          T                 .4  .22 Ml 1           5179118
EPF   001.38 296.4 m E Pn      2013/01/09 02:20:19.0   0.0                          T                                        5179153
EPF   001.38 296.4 m E Pg      2013/01/09 02:20:21.2   0.1                          T                                        5179152
EPF   001.38 296.4 m E Sn      2013/01/09 02:20:36.1   0.0                          T                 .2  .19 Ml  .9         5179151
EPF   001.38 296.4 m E Sg      2013/01/09 02:20:39.0   0.0                          T                 .1  .15 Ml  .9         5179150
ETSF  001.96 284.7 m E Pn      2013/01/09 02:20:27.1   0.2                          T                                        5179149
ETSF  001.96 284.7 m E Pg      2013/01/09 02:20:31.6  -0.3                          T                                        5179148
ETSF  001.96 284.7 m E Sn      2013/01/09 02:20:50.2   0.2                          T                 .2  .18 Ml 1.3         5179147
ETSF  001.96 284.7 m E Sg      2013/01/09 02:20:57.1  -0.1                          T                 .3  .23 Ml 1.3         5179146
SBF   004.21 068.3 m E Pn      2013/01/09 02:20:57.4  -0.1                          T                                        5179123
SBF   004.21 068.3 m E Pg      2013/01/09 02:21:13.1  -0.2                          T                                        5179122
SBF   004.21 068.3 m E Sn      2013/01/09 02:21:43.4  -0.3                          T                 .3  .17 Ml 2.0         5179121
SBF   004.21 068.3 m E Sg      2013/01/09 02:22:07.3  -0.1                          T                 .4  .17 Ml 2.0         5179120
LPL   004.59 046.2 m E Pn      2013/01/09 02:21:03.0   0.1                          T                                        5179127
LPL   004.59 046.2 m E Pg      2013/01/09 02:21:20.6   0.1                          T                                        5179126
LPL   004.59 046.2 m E Sn      2013/01/09 02:21:53.0   0.0                          T                 .1  .18 Ml 1.7         5179125
LPL   004.59 046.2 m E Sg      2013/01/09 02:22:19.2  -0.2                          T                 .2  .16 Ml 1.9         5179124

.
EVENT     289956
    Date      Time       Latitude Longitude    Depth    Ndef Nsta Gap    Mag1  N    Mag2  N    Mag3  N   Author         ID
       rms   OT_Error      Smajor Sminor Az        Err   mdist  Mdist     Err        Err        Err      Quality

2013/01/09 04:24:19.0     43.1150     .1157      2.0      12    5 129  Ml 1.3  4  Md 1.4  2              bulletin    290056
                                                                                                         _ldg
      0.09   +-  0.03        .9     .4  173.57 +-  0.0    0.18   1.88   +-0.6      +-0.1                 m i ke

FRANCE
Sta     Dist  EvAz     Phase      Date       Time     TRes  Azim  AzRes  Slow  SRes Def   SNR       Amp   Per   Mag1   Mag2       ID
EPF   000.18 117.2 m E Pg      2013/01/09 04:24:23.8  -0.1                          T                                        5179178
EPF   000.18 117.2 m E Sg      2013/01/09 04:24:26.4   0.0                          T                5.6  .24        Md 1.3  5179177
ETSF  000.54 246.6 m E Pg      2013/01/09 04:24:30.3   0.0                          T                                        5179176
ETSF  000.54 246.6 m E Sg      2013/01/09 04:24:37.5   0.0                          T                 .8  .19        Md 1.5  5179175
SJPF  000.98 270.4 m E Pg      2013/01/09 04:24:38.4   0.0                          T                                        5179181
SJPF  000.98 270.4 m E Sg      2013/01/09 04:24:51.3   0.1                          T                 .4  .20 Ml 1.1         5179180
MTLF  001.55 080.9 m E Pn      2013/01/09 04:24:47.0   0.1                          T                                        5179187
MTLF  001.55 080.9 m E Pg      2013/01/09 04:24:49.0   0.0                          T                                        5179186
MTLF  001.55 080.9 m E Sn      2013/01/09 04:25:06.3  -0.1                          T                 .1  .15 Ml  .8         5179185
MTLF  001.55 080.9 m E Sg      2013/01/09 04:25:09.0   0.1                          T                 .3  .18 Ml 1.3         5179184
LFF   001.88 013.7 m E Pn      2013/01/09 04:24:51.4   0.1                          T                                        5179179
LFF   001.88 013.7 m E Sg      2013/01/09 04:25:18.9  -0.3                          T                3.2  .24 Ml 2.1         5179182

.
