EVENT     277233
    Date      Time       Latitude Longitude    Depth    Ndef Nsta Gap    Mag1  N    Mag2  N    Mag3  N   Author         ID
       rms   OT_Error      Smajor Sminor Az        Err   mdist  Mdist     Err        Err        Err      Quality

2012/05/30 16:51:25.0     44.7426    6.7438      2.0      84   21 046  Ml 2.8 17  Md 2.9  1              bulletin    277333
                                                                                                         _ldg
      1.00   +-  0.07       1.8    1.3   61.97 +-  0.0    0.03   3.75   +-0.3      +-                    m i ke

FRANCE
Sta     Dist  EvAz     Phase      Date       Time     TRes  Azim  AzRes  Slow  SRes Def   SNR       Amp   Per   Mag1   Mag2       ID
MBDF  000.03 128.6 m E Pg      2012/05/30 16:51:25.6  -0.5                          T                                        4978264
MBDF  000.03 128.6 m E Sg      2012/05/30 16:51:26.5  -0.2                          T             2202.9  .32        Md 2.9  4978256
ORIF  000.64 286.3 m E Pg      2012/05/30 16:51:36.0  -1.2                          T                                        4978263
ORIF  000.64 286.3 m E Sg      2012/05/30 16:51:45.0  -0.5                          T               78.4  .28                4978255
LPL   000.77 359.4 m E Pg      2012/05/30 16:51:39.2  -0.7                          T                                        4978262
LPL   000.77 359.4 m E Sg      2012/05/30 16:51:50.1   0.2                          T               42.5  .32                4978254
LPG   000.76 000.4 m E Pg      2012/05/30 16:51:39.2  -0.3                          T                                        4978261
LPG   000.76 000.4 m E Sg      2012/05/30 16:51:49.9   0.4                          T               19.5  .24                4978253
SBF   001.01 150.3 m E Pg      2012/05/30 16:51:44.0   0.1                          T                                        5011963
SBF   001.01 150.3 m E Sn      2012/05/30 16:51:58.7   0.2                          T              139.5  .46 Ml 3.3         4978233
SMRF  001.14 228.0 m E Pn      2012/05/30 16:51:46.6   0.3                          T                                        4978260
SMRF  001.14 228.0 m E Sg      2012/05/30 16:52:01.2   0.2                          T               40.8  .56 Ml 2.7         4978252
FRF   001.18 183.4 m E Pn      2012/05/30 16:51:47.0   0.2                          T                                        4978259
FRF   001.18 183.4 m E Sg      2012/05/30 16:52:02.6   0.2                          T               46.3  .44 Ml 3.0         4978251
LMR   001.42 186.9 m E Pn      2012/05/30 16:51:50.4   0.3                          T                                        4978258
LMR   001.42 186.9 m E Pg      2012/05/30 16:51:51.6   0.2                          T                                        5011964
LMR   001.42 186.9 m E Sg      2012/05/30 16:52:10.0   0.2                          T               26.2  .30 Ml 3.0         4978250
VIVF  001.48 275.1 m E Pn      2012/05/30 16:51:51.3   0.3                          T                                        4978257
VIVF  001.48 275.1 m E Pg      2012/05/30 16:51:52.7   0.2                          T                                        5011965
VIVF  001.48 275.1 m E Sn      2012/05/30 16:52:09.9   0.2                          T               13.7  .32 Ml 2.7         4978249
CABF  001.92 346.4 m E Pn      2012/05/30 16:51:57.2   0.2                          T                                        4978235
CABF  001.92 346.4 m E P       2012/05/30 16:51:59.2   0.0                          T                                        5011970
CABF  001.92 346.4 m E Pg      2012/05/30 16:52:01.3   0.4                          T                                        5011969
CABF  001.92 346.4 m E Sn      2012/05/30 16:52:19.8  -0.7                          T                                        4978236
CABF  001.92 346.4 m E Sg      2012/05/30 16:52:26.3   0.6                          T               41.0  .84 Ml 2.9         5011958
LASF  002.17 253.2 m E Pn      2012/05/30 16:52:00.2  -0.2                          T                                        4978247
LASF  002.17 253.2 m E Pg      2012/05/30 16:52:05.5   0.1                          T                                        5011966
LASF  002.17 253.2 m E Sn      2012/05/30 16:52:26.5   0.2                          T                8.8  .62 Ml 2.4         4978248
SMF   002.79 314.1 m E Pn      2012/05/30 16:52:08.7   0.0                          T                                        4978243
SMF   002.79 314.1 m E Pg      2012/05/30 16:52:16.8   0.2                          T                                        5011968
SMF   002.79 314.1 m E Sn      2012/05/30 16:52:40.4  -0.5                          T                                        4978244
SMF   002.79 314.1 m E Sg      2012/05/30 16:52:53.0   0.5                          T                9.2  .34 Ml 2.8         5011959
PGF   002.74 142.5 m E P       2012/05/30 16:52:10.8  -0.1                          T                                        4978231
PGF   002.74 142.5 m E Sn      2012/05/30 16:52:40.3   0.4                          T                3.5  .34 Ml 2.6         4978232
AVF   003.13 312.0 m E Pn      2012/05/30 16:52:13.4   0.0                          T                                        4978242
AVF   003.13 312.0 m E Sn      2012/05/30 16:52:48.8  -0.5                          T                                        4978241
AVF   003.13 312.0 m E Sg      2012/05/30 16:53:02.7  -0.6                          T               12.9  .52 Ml 2.8         5011960
LOR   003.23 322.5 m E Pn      2012/05/30 16:52:14.9   0.1 125.7  -14.7             T                                        5011973
LOR   003.23 322.5 m E Sg      2012/05/30 16:53:06.4   0.1 151.3  10.8              T                8.7  .56 Ml 2.7         5011954
SSF   003.24 316.9 m E Pn      2012/05/30 16:52:15.1   0.3                          T                                        4978238
SSF   003.24 316.9 m E Pg      2012/05/30 16:52:25.0   0.0                          T                                        5011972
SSF   003.24 316.9 m E Sn      2012/05/30 16:52:51.1  -0.7                          T                5.3  .30 Ml 2.8         4978237
SSF   003.24 316.9 m E Sg      2012/05/30 16:53:06.4  -0.2                          T                                        5011955
BGF   003.28 305.0 m E P       2012/05/30 16:52:17.4  -1.2                          T                                        4978246
BGF   003.28 305.0 m E Pg      2012/05/30 16:52:26.5   0.8                          T                                        5011967
BGF   003.28 305.0 m E Sn      2012/05/30 16:52:53.3   0.5                          T                                        4978245
BGF   003.28 305.0 m E Sg      2012/05/30 16:53:07.0  -0.9                          T               20.8  .46 Ml 3.1         5011961
TCF   003.54 297.5 m E Pn      2012/05/30 16:52:19.1   0.0                          T                                        4978239
TCF   003.54 297.5 m E Sn      2012/05/30 16:52:58.5  -0.5                          T               10.4  .72 Ml 2.7         4978240
HAU   003.28 355.3 m E Pg      2012/05/30 16:52:25.8   0.1                          T                                        5011971
HAU   003.28 355.3 m E Sg      2012/05/30 16:53:08.3   0.6                          T                4.1  .38 Ml 2.3         5011956
HINF  003.08 001.4 m E Sg      2012/05/30 16:53:01.9   0.3                          T                4.8  .52 Ml 2.4         5011957
RJF   003.75 280.5 m E Sg      2012/05/30 16:53:22.3  -0.2                          T               14.4  .82 Ml 2.5         5011962

.
EVENT     277265
    Date      Time       Latitude Longitude    Depth    Ndef Nsta Gap    Mag1  N    Mag2  N    Mag3  N   Author         ID
       rms   OT_Error      Smajor Sminor Az        Err   mdist  Mdist     Err        Err        Err      Quality

2012/05/30 17:01:07.0     44.7525    6.7365      2.0      27    9 074  Ml 1.7  5  Md 1.8  1              bulletin    277365
                                                                                                         _ldg
      0.34   +-  0.07       1.5    1.1   97.92 +-  0.0    0.04   1.47   +-0.1      +-                    m i ke

FRANCE
Sta     Dist  EvAz     Phase      Date       Time     TRes  Azim  AzRes  Slow  SRes Def   SNR       Amp   Per   Mag1   Mag2       ID
MBDF  000.04 135.8 m E Pg      2012/05/30 17:01:07.6  -0.7                          T                                        5001265
MBDF  000.04 135.8 m E Sg      2012/05/30 17:01:08.5  -0.6                          T              152.8  .28        Md 1.8  5001266
ORIF  000.63 285.5 m E Pg      2012/05/30 17:01:18.0  -1.1                          T                                        5001263
ORIF  000.63 285.5 m E Sg      2012/05/30 17:01:27.1  -0.3                          T                5.6  .38                5001264
LPL   000.76 359.8 m E Pg      2012/05/30 17:01:21.3  -0.5                          T                                        5011978
LPL   000.76 359.8 m E Sg      2012/05/30 17:01:32.2   0.5                          T                2.6  .30                5001257
LPG   000.75 000.8 m E Pg      2012/05/30 17:01:21.3  -0.2                          T                                        5011979
LPG   000.75 000.8 m E Sg      2012/05/30 17:01:32.0   0.8                          T                2.3  .28                5001275
SBF   001.02 150.3 m E Pg      2012/05/30 17:01:26.1  -0.1                          T                                        5001277
SBF   001.02 150.3 m E Sn      2012/05/30 17:01:40.8  -0.1                          T                3.9  .40 Ml 1.8         5001278
SMRF  001.14 227.4 m E Pn      2012/05/30 17:01:28.6   0.2                          T                                        5011977
SMRF  001.14 227.4 m E Sg      2012/05/30 17:01:43.1   0.0                          T                1.9  .30 Ml 1.7         5001262
FRF   001.19 183.1 m E Pn      2012/05/30 17:01:29.1   0.0                          T                                        5001276
FRF   001.19 183.1 m E Sg      2012/05/30 17:01:44.8  -0.1                          T                1.7  .29 Ml 1.7         5001260
LMR   001.43 186.7 m E Pn      2012/05/30 17:01:32.3   0.0                          T                                        5001258
LMR   001.43 186.7 m E Pg      2012/05/30 17:01:33.7   0.1                          T                                        5011976
LMR   001.43 186.7 m E Sg      2012/05/30 17:01:52.0  -0.1                          T                1.3  .23 Ml 1.8         5001259
VIVF  001.47 274.8 m E Pg      2012/05/30 17:01:34.8   0.3                          T                                        5011974
VIVF  001.47 274.8 m E Sn      2012/05/30 17:01:52.0   0.4                          T                1.1  .36 Ml 1.5         5011975

.
EVENT     277234
    Date      Time       Latitude Longitude    Depth    Ndef Nsta Gap    Mag1  N    Mag2  N    Mag3  N   Author         ID
       rms   OT_Error      Smajor Sminor Az        Err   mdist  Mdist     Err        Err        Err      Quality

2012/05/30 17:43:46.1     44.9108   11.1083      2.0      45   14 177  Ml 2.7 10                         bulletin    277334
                                                                                                         _ldg
      0.54   +-  0.17       3.9    2.4  109.21 +-  0.0    1.09   5.73   +-0.1                            m i ke

NORTHERN ITALY
Sta     Dist  EvAz     Phase      Date       Time     TRes  Azim  AzRes  Slow  SRes Def   SNR       Amp   Per   Mag1   Mag2       ID
PGF   002.81 213.6 m E Pn      2012/05/30 17:44:30.7   0.4                          T                                        4978360
PGF   002.81 213.6 m E Sn      2012/05/30 17:45:02.5  -0.3                          T                4.3  .37 Ml 2.7         4978334
SBF   002.83 249.6 m E Pn      2012/05/30 17:44:30.7   0.1                          T                                        4978359
SBF   002.83 249.6 m E Sn      2012/05/30 17:45:03.5   0.2                          T                9.2  .31 Ml 2.9         4978335
LPL   003.15 282.6 m E Pn      2012/05/30 17:44:35.3   0.2                          T                                        4978356
LPL   003.15 282.6 m E Sn      2012/05/30 17:45:11.2   0.1                          T                6.6  .56 Ml 2.5         4978339
LPG   003.14 282.3 m E Pn      2012/05/30 17:44:35.7   0.7                          T                                        4978357
LPG   003.14 282.3 m E Sn      2012/05/30 17:45:11.0   0.2                          T                5.7  .42 Ml 2.6         4978338
FRF   003.48 248.7 m E Pn      2012/05/30 17:44:39.7   0.4                          T                                        4978336
FRF   003.48 248.7 m E Sn      2012/05/30 17:45:18.8   0.2                          T                6.3  .42 Ml 2.8         4978337
LMR   003.67 246.2 m E Pn      2012/05/30 17:44:41.8   0.0                          T                                        4978358
ORIF  003.71 272.0 m E Pn      2012/05/30 17:44:42.6   0.0                          T                                        4978355
ORIF  003.71 272.0 m E Sn      2012/05/30 17:45:24.0  -0.3                          T                2.6  .28 Ml 2.6         4978340
HINF  004.14 316.1 m E Pn      2012/05/30 17:44:48.2  -0.1                          T                                        4978344
HINF  004.14 316.1 m E Sn      2012/05/30 17:45:34.6   0.2                          T                2.7  .28 Ml 2.7         4978343
CDF   004.38 324.4 m E Pn      2012/05/30 17:44:51.6  -0.1                          T                                        4978349
CDF   004.38 324.4 m E Sn      2012/05/30 17:45:40.5   0.1                          T                                        4978350
HAU   004.52 315.0 m E Pn      2012/05/30 17:44:52.5  -0.9                          T                                        4978345
HAU   004.52 315.0 m E Sn      2012/05/30 17:45:43.7   0.2                          T                                        4978346
THEF  004.84 315.1 m E Pn      2012/05/30 17:44:58.1   0.2                          T                                        4978348
THEF  004.84 315.1 m E Sn      2012/05/30 17:45:51.0  -0.2                          T                                        4978347
SMF   005.37 291.4 m E Pn      2012/05/30 17:45:04.2  -0.8                          T                                        4978354
SMF   005.37 291.4 m E Sn      2012/05/30 17:46:02.9  -0.9                          T                6.1  .68 Ml 2.9         4978341
LOR   005.57 297.6 m E Pn      2012/05/30 17:45:07.4  -0.3 117.7  5.3               T                                        4978352
LOR   005.57 297.6 m E Sn      2012/05/30 17:46:08.5   0.0                          T                2.1  .37 Ml 2.8         4978351
AVF   005.73 291.9 m E Pn      2012/05/30 17:45:09.6  -0.3                          T                                        4978353
AVF   005.73 291.9 m E Sn      2012/05/30 17:46:12.6   0.1                          T                1.6  .46 Ml 2.6         4978342

.
EVENT     277235
    Date      Time       Latitude Longitude    Depth    Ndef Nsta Gap    Mag1  N    Mag2  N    Mag3  N   Author         ID
       rms   OT_Error      Smajor Sminor Az        Err   mdist  Mdist     Err        Err        Err      Quality

2012/05/30 21:20:27.8     44.5176    6.6944      2.0      38    9 067  Ml 2.0  6  Md 2.1  2              bulletin    277335
                                                                                                         _ldg
      0.25   +-  0.04        .8     .7   76.06 +-  0.0    0.09   2.59   +-0.3      +-0.2                 m i ke

FRANCE
Sta     Dist  EvAz     Phase      Date       Time     TRes  Azim  AzRes  Slow  SRes Def   SNR       Amp   Per   Mag1   Mag2       ID
MBDF  000.22 014.7 m E Pg      2012/05/30 21:20:32.6   0.2                          T                                        4978383
MBDF  000.22 014.7 m E Sg      2012/05/30 21:20:35.4   0.1                          T               39.3  .38        Md 2.2  4978382
ORIF  000.71 304.9 m E Pg      2012/05/30 21:20:41.1  -0.2                          T                                        4978381
ORIF  000.71 304.9 m E Sg      2012/05/30 21:20:50.3  -0.2                          T                                Md 2.0  4978380
SBF   000.84 140.6 m E Pg      2012/05/30 21:20:43.9   0.1                          T                                        4978387
SBF   000.84 140.6 m E Sg      2012/05/30 21:20:54.9   0.1                          T                6.2  .24                4978386
FRF   000.96 182.1 m E Pg      2012/05/30 21:20:45.8   0.0                          T                                        4978375
FRF   000.96 182.1 m E Sg      2012/05/30 21:20:58.3   0.1                          T                9.1  .26 Ml 2.4         4978390
SMRF  000.97 236.4 m E Pg      2012/05/30 21:20:46.2   0.2                          T                                        4978377
SMRF  000.97 236.4 m E Sg      2012/05/30 21:20:58.6  -0.1                          T                2.3  .26 Ml 1.7         4978376
LPG   000.98 002.3 m E Pg      2012/05/30 21:20:46.6   0.0                          T                2.2  .25 Ml 1.7         4978392
LPG   000.98 002.3 m E Sg      2012/05/30 21:20:59.4   0.0                          T                                        4978391
LPL   001.00 001.5 m E Pg      2012/05/30 21:20:46.7  -0.2                          T                                        4978379
LPL   001.00 001.5 m E Sg      2012/05/30 21:21:00.1   0.3                          T                3.1  .32 Ml 1.8         4978378
LMR   001.19 186.5 m E Pg      2012/05/30 21:20:50.4   0.3                          T                                        4978389
LMR   001.19 186.5 m E Sg      2012/05/30 21:21:06.0   0.5                          T                3.9  .20 Ml 2.2         4978388
PGF   002.59 138.8 m E Pn      2012/05/30 21:21:09.0   0.1                          T                                        4978385
PGF   002.59 138.8 m E Sn      2012/05/30 21:21:39.5   0.4                          T                1.0  .21 Ml 2.3         4978384

.
