EVENT     258784
    Date      Time       Latitude Longitude    Depth    Ndef Nsta Gap    Mag1  N    Mag2  N    Mag3  N   Author         ID
       rms   OT_Error      Smajor Sminor Az        Err   mdist  Mdist     Err        Err        Err      Quality

2011/04/29 19:33:04.1     44.3817    7.3189      6.0 f    98   31 047  Ml 2.6 34  Md 2.6  3              js067245    258784

      0.39   +-  0.03        .8     .6   65.33 +-  0.0    0.13   4.73   +-0.4      +-0.1                 m i ke

NORTHERN ITALY
Sta     Dist  EvAz     Phase      Date       Time     TRes  Azim  AzRes  Slow  SRes Def   SNR       Amp   Per   Mag1   Mag2       ID
CBBF  000.40 303.3 m E Pg      2011/04/29 19:33:11.9   0.2                          T                                        4683833
MBDF  000.52 311.6 m E Pg      2011/04/29 19:33:14.0  -0.2                          T                                        4682404
MBDF  000.52 311.6 m E Sg      2011/04/29 19:33:21.5   0.3                          T               60.8  .16        Md 2.6  4682393
SBF   000.53 170.8 m E Pg      2011/04/29 19:33:14.1  -0.1                          T                                        4682397
SBF   000.53 170.8 m E Sg      2011/04/29 19:33:20.8  -0.3                          T              244.6  .23        Md 2.5  4682385
FRF   000.95 210.8 m E Pg      2011/04/29 19:33:21.6  -0.4                          T                                        4682399
FRF   000.95 210.8 m E Sg      2011/04/29 19:33:33.9  -0.5                          T              149.7  .22 Ml 3.7 Md 2.5  4682389
LPG   001.19 340.3 m E Pn      2011/04/29 19:33:25.3  -0.6                          T                                        4682401
LPG   001.19 340.3 m E Sn      2011/04/29 19:33:41.1  -0.3                          T               35.2  .48 Ml 2.8         4682470
ORIF  001.16 298.1 m E Pn      2011/04/29 19:33:25.5   0.2                          T                                        4682403
ORIF  001.16 298.1 m E Sn      2011/04/29 19:33:40.0  -0.5                          T               19.1  .24 Ml 2.8         4682392
LPL   001.21 340.1 m E Pn      2011/04/29 19:33:25.6  -0.5                          T                                        4682402
LPL   001.21 340.1 m E Sn      2011/04/29 19:33:41.3  -0.5                          T               24.7  .28 Ml 2.9         4682391
LMR   001.20 209.5 m E Pn      2011/04/29 19:33:25.8   0.1                          T                                        4682398
LMR   001.20 209.5 m E Pg      2011/04/29 19:33:26.5   0.0                          T                                        4683821
LMR   001.20 209.5 m E Sg      2011/04/29 19:33:41.6  -0.4                          T              241.8  .30 Ml 3.8         4682388
SMRF  001.32 252.7 m E Pg      2011/04/29 19:33:29.0   0.3                          T                                        4682400
SMRF  001.32 252.7 m E Sg      2011/04/29 19:33:45.9   0.1                          T               63.5  .34 Ml 3.2         4682390
VIVF  001.95 285.0 m E Pn      2011/04/29 19:33:36.4   0.4                          T                                        4682395
VIVF  001.95 285.0 m E Sn      2011/04/29 19:33:59.1  -0.2                          T                                        4683822
VIVF  001.95 285.0 m E Sg      2011/04/29 19:34:05.8   0.4                          T                5.6  .26 Ml 2.5         4682387
PGF   002.20 145.7 m E Pn      2011/04/29 19:33:39.3  -0.3                          T                                        4682396
PGF   002.20 145.7 m E Sn      2011/04/29 19:34:05.1  -0.4                          T                4.0  .26 Ml 2.7         4682386
CABF  002.39 339.2 m E Pn      2011/04/29 19:33:41.9  -0.2                          T                                        4682478
CABF  002.39 339.2 m E Pg      2011/04/29 19:33:48.7   0.1                          T                                        4682440
CABF  002.39 339.2 m E Sn      2011/04/29 19:34:09.8  -0.2                          T                3.8  .36 Ml 2.3         4682445
LASF  002.51 264.2 m E Pn      2011/04/29 19:33:44.1   0.5                          T                                        4682394
LASF  002.51 264.2 m E Pg      2011/04/29 19:33:51.0   0.3                          T                                        4683823
LASF  002.51 264.2 m E Sn      2011/04/29 19:34:12.2  -0.5                          T                1.1  .15 Ml 2.2         4682469
LASF  002.51 264.2 m E Sg      2011/04/29 19:34:23.0   0.2                          T                1.6  .22 Ml 2.2         4683824
SMF   003.33 314.0 m E Pn      2011/04/29 19:33:54.9   0.1                          T                                        4682476
SMF   003.33 314.0 m E Sn      2011/04/29 19:34:32.3  -0.1                          T                4.4  .24 Ml 2.8         4682443
HINF  003.45 354.8 m E Pn      2011/04/29 19:33:56.5   0.0                          T                                        4682462
HINF  003.45 354.8 m E Sn      2011/04/29 19:34:35.2   0.0                          T                2.4  .31 Ml 2.4         4682446
AVF   003.68 312.3 m E Pn      2011/04/29 19:33:59.4  -0.2                          T                                        4682477
AVF   003.68 312.3 m E Sn      2011/04/29 19:34:40.2  -0.5                          T                1.7  .29 Ml 2.3         4682444
HAU   003.69 349.8 m E Pn      2011/04/29 19:34:00.0   0.3                          T                                        4682463
HAU   003.69 349.8 m E Sn      2011/04/29 19:34:40.9   0.1                          T                5.7  .34 Ml 2.6         4682447
LOR   003.77 321.3 m E Pn      2011/04/29 19:34:00.8   0.1 143.1  4.3               T                                        4682481
LOR   003.77 321.3 m E Sn      2011/04/29 19:34:42.7   0.0                          T                2.0  .28 Ml 2.5         4682456
CAF   003.79 280.1 m E Pn      2011/04/29 19:34:01.0   0.0                          T                                        4682472
CAF   003.79 280.1 m E Sn      2011/04/29 19:34:43.1  -0.2                          T                1.0  .23 Ml 2.3         4682467
SSF   003.78 316.4 m E Pn      2011/04/29 19:34:01.2   0.3                          T                                        4682480
SSF   003.78 316.4 m E Sn      2011/04/29 19:34:43.0  -0.2                          T                3.1  .39 Ml 2.6         4682455
MTLF  003.83 256.0 m E Pn      2011/04/29 19:34:01.7   0.1                          T                                        4682473
MTLF  003.83 256.0 m E Pg      2011/04/29 19:34:15.0  -0.1                          T                                        4683825
MTLF  003.83 256.0 m E Sn      2011/04/29 19:34:43.8  -0.5                          T                2.5  .28 Ml 2.6         4682468
BGF   003.83 306.2 m E Pn      2011/04/29 19:34:01.8   0.3                          T                                        4682475
BGF   003.83 306.2 m E Sn      2011/04/29 19:34:44.1  -0.1                          T                4.2  .41 Ml 2.6         4682442
THEF  003.96 347.0 m E Pn      2011/04/29 19:34:03.3   0.0                          T                                        4682461
THEF  003.96 347.0 m E Sn      2011/04/29 19:34:47.1  -0.2                          T                3.7  .39 Ml 2.6         4682448
CDF   004.03 359.6 m E Pn      2011/04/29 19:34:04.6   0.2                          T                                        4682482
CDF   004.03 359.6 m E Sn      2011/04/29 19:34:49.1   0.0                          T                1.6  .33 Ml 2.5         4682452
TCF   004.08 299.7 m E Pn      2011/04/29 19:34:05.2   0.2                          T                                        4682479
TCF   004.08 299.7 m E Sn      2011/04/29 19:34:49.9  -0.2                          T                 .4  .23 Ml 1.9         4682454
SFTF  004.14 338.4 m E Pn      2011/04/29 19:34:05.5  -0.2 154.0  -2.7              T                                        4682460
SFTF  004.14 338.4 m E Sn      2011/04/29 19:34:51.5  -0.1                          T                3.1  .20 Ml 2.9         4682449
RJF   004.23 284.6 m E Pn      2011/04/29 19:34:07.3   0.3                          T                                        4682464
RJF   004.23 284.6 m E Sn      2011/04/29 19:34:53.4  -0.3                          T                 .4  .26 Ml 1.6         4682465
PAGF  004.32 345.8 m E Pn      2011/04/29 19:34:08.1  -0.1                          T                                        4682458
PAGF  004.32 345.8 m E Sn      2011/04/29 19:34:55.4  -0.5                          T                 .7  .35 Ml 2.0         4682451
MEZF  004.41 340.0 m E Pn      2011/04/29 19:34:09.6   0.2                          T                                        4682459
MEZF  004.41 340.0 m E Sn      2011/04/29 19:34:57.2  -0.8                          T                 .8  .18 Ml 2.4         4682450
LANF  004.61 004.0 m E Pn      2011/04/29 19:34:12.5   0.2                          T                                        4682457
LANF  004.61 004.0 m E Sn      2011/04/29 19:35:02.3  -0.6                          T                  1  .21 Ml 2.5         4682453
LFF   004.73 279.1 m E Pn      2011/04/29 19:34:14.0   0.3                          T                                        4682471
LFF   004.73 279.1 m E Sn      2011/04/29 19:35:05.6  -0.1                          T                1.9  .27 Ml 2.5         4682466

.
EVENT     258785
    Date      Time       Latitude Longitude    Depth    Ndef Nsta Gap    Mag1  N    Mag2  N    Mag3  N   Author         ID
       rms   OT_Error      Smajor Sminor Az        Err   mdist  Mdist     Err        Err        Err      Quality

2011/04/29 22:07:35.9     43.2150   10.8325     10.0 f    45   18 146  Ml 2.5 15                         js067245    258785

      0.35   +-  0.07       1.9    1.1   57.64 +-  0.0    0.42   6.54   +-0.3                            m i ke

CENTRAL ITALY
Sta     Dist  EvAz     Phase      Date       Time     TRes  Azim  AzRes  Slow  SRes Def   SNR       Amp   Per   Mag1   Mag2       ID
PGF   001.50 244.3 m E Pn      2011/04/29 22:08:01.6   0.2                          T                                        4682518
PGF   001.50 244.3 m E Sn      2011/04/29 22:08:19.8  -0.1                          T               21.9  .32 Ml 3.1         4682507
SBF   002.55 285.9 m E Pn      2011/04/29 22:08:16.0   0.3                          T                                        4682517
SBF   002.55 285.9 m E Sn      2011/04/29 22:08:44.9   0.0                          T                3.0  .31 Ml 2.3         4682504
FRF   003.07 277.9 m E Pn      2011/04/29 22:08:22.3  -0.3                          T                                        4682515
FRF   003.07 277.9 m E Sn      2011/04/29 22:08:57.0  -0.2                          T                1.6  .20 Ml 2.4         4682506
LMR   003.16 273.6 m E Pn      2011/04/29 22:08:24.0   0.2                          T                                        4682516
LMR   003.16 273.6 m E Sn      2011/04/29 22:08:58.9  -0.4                          T                1.9  .30 Ml 2.3         4682505
MBDF  003.30 298.7 m E Pn      2011/04/29 22:08:25.9  -0.1                          T                                        4682510
MBDF  003.30 298.7 m E P       2011/04/29 22:08:29.3   0.3                          T                                        4683975
MBDF  003.30 298.7 m E Sn      2011/04/29 22:09:02.7  -0.2                          T                3.0  .61 Ml 2.2         4682503
LPG   003.71 309.3 m E Pn      2011/04/29 22:08:31.4  -0.3                          T                                        4682513
LPL   003.73 309.5 m E Pn      2011/04/29 22:08:32.0   0.1                          T                                        4682514
SMRF  003.89 283.1 m E Pn      2011/04/29 22:08:33.5  -0.4                          T                                        4682512
SMRF  003.89 283.1 m E P       2011/04/29 22:08:36.3  -1.1                          T                                        4683973
ORIF  003.95 297.2 m E Pn      2011/04/29 22:08:34.6  -0.2                          T                                        4682511
ORIF  003.95 297.2 m E P       2011/04/29 22:08:38.0  -0.3                          T                                        4683974
ORIF  003.95 297.2 m E Sn      2011/04/29 22:09:18.1  -0.4                          T                1.3  .33 Ml 2.2         4682502
VIVF  004.73 292.4 m E Pn      2011/04/29 22:08:45.5   0.2                          T                                        4682508
CABF  004.78 316.9 m E Pn      2011/04/29 22:08:46.1   0.0                          T                                        4682498
CABF  004.78 316.9 m E Sn      2011/04/29 22:09:38.6   0.3                          T                 .7  .32 Ml 2.1         4682491
LASF  005.13 282.0 m E Pn      2011/04/29 22:08:50.9   0.1                          T                                        4682509
HAU   005.73 328.3 m E Pn      2011/04/29 22:08:59.1   0.2                          T                                        4682496
HAU   005.73 328.3 m E Sn      2011/04/29 22:10:01.2   0.4                          T                1.9  .40 Ml 2.5         4682492
CDF   005.76 335.7 m E Pn      2011/04/29 22:09:01.0   1.6                          T                                        4682497
CDF   005.76 335.7 m E Sn      2011/04/29 22:10:01.7   0.0                          T                1.2  .37 Ml 2.7         4682493
SMF   006.03 307.1 m E Pn      2011/04/29 22:09:03.2   0.2                          T                                        4682499
SMF   006.03 307.1 m E Sn      2011/04/29 22:10:07.8  -0.2                          T                1.0  .39 Ml 2.5         4682489
LOR   006.38 311.9 m E Pn      2011/04/29 22:09:07.7   0.0                          T                                        4682495
LOR   006.38 311.9 m E Sn      2011/04/29 22:10:16.0  -0.2                          T                1.9  .55 Ml 2.7         4682494
AVF   006.39 306.6 m E Pn      2011/04/29 22:09:07.9   0.0                          T                                        4682500
AVF   006.39 306.6 m E Sn      2011/04/29 22:10:16.0  -0.6                          T                1.4  .52 Ml 2.6         4682490
CAF   006.54 288.2 m E Pn      2011/04/29 22:09:10.1   0.1                          T                                        4682501

.
EVENT     258787
    Date      Time       Latitude Longitude    Depth    Ndef Nsta Gap    Mag1  N    Mag2  N    Mag3  N   Author         ID
       rms   OT_Error      Smajor Sminor Az        Err   mdist  Mdist     Err        Err        Err      Quality

2011/04/29 23:19:33.5     44.3799    6.8789      2.0      30   12 143  Ml 2.1 12  Md 2.1  3              js067245    258787

      0.25   +-  0.05       1.1     .7   71.86 +-  0.0    0.36   3.53   +-0.2      +-0.1                 m i ke

FRANCE
Sta     Dist  EvAz     Phase      Date       Time     TRes  Azim  AzRes  Slow  SRes Def   SNR       Amp   Per   Mag1   Mag2       ID
MBDF  000.36 347.5 m E Pg      2011/04/29 23:19:40.7   0.1                          T                                        4682548
MBDF  000.36 347.5 m E Sg      2011/04/29 23:19:45.3  -0.1                          T               46.0  .42        Md 2.2  4682538
SBF   000.65 142.0 m E Pg      2011/04/29 23:19:46.4   0.4                          T                                        4682541
SBF   000.65 142.0 m E Sg      2011/04/29 23:19:54.6   0.1                          T               18.8  .26        Md 2.0  4682537
FRF   000.84 191.6 m E Pg      2011/04/29 23:19:48.8  -0.5                          T                                        4682543
FRF   000.84 191.6 m E Sg      2011/04/29 23:20:00.2   0.0                          T                6.6  .22        Md 2.1  4682531
ORIF  000.89 307.4 m E Pg      2011/04/29 23:19:49.3  -1.1                          T                                        4682547
ORIF  000.89 307.4 m E Sg      2011/04/29 23:20:01.6  -0.4                          T                9.1  .36 Ml 2.2         4682534
SMRF  001.02 247.2 m E Pg      2011/04/29 23:19:52.8   0.1                          T                                        4682544
SMRF  001.02 247.2 m E Sg      2011/04/29 23:20:05.9  -0.1                          T                8.5  .25 Ml 2.4         4682535
LMR   001.08 194.5 m E Pg      2011/04/29 23:19:53.7   0.0                          T                                        4682542
LMR   001.08 194.5 m E Sg      2011/04/29 23:20:07.6  -0.1                          T               14.1  .36 Ml 2.5         4682536
LPG   001.12 355.4 m E Pg      2011/04/29 23:19:54.7  -0.2                          T                                        4682545
LPG   001.12 355.4 m E Sg      2011/04/29 23:20:09.3  -0.1                          T                2.8  .29 Ml 1.8         4682532
LPL   001.14 354.8 m E Pg      2011/04/29 23:19:55.1  -0.1                          T                                        4682546
LPL   001.14 354.8 m E Sg      2011/04/29 23:20:09.8  -0.2                          T                5.4  .36 Ml 2.1         4682533
VIVF  001.65 287.6 m E Pn      2011/04/29 23:20:02.1   0.3                          T                                        4682540
VIVF  001.65 287.6 m E Sn      2011/04/29 23:20:22.2   0.0                          T                1.1  .24 Ml 1.8         4682539
LASF  002.19 263.1 m E Pn      2011/04/29 23:20:09.3   0.1                          T                                        4682530
LASF  002.19 263.1 m E Sn      2011/04/29 23:20:35.4   0.0                          T                1.1  .29 Ml 1.8         4682529
PGF   002.39 139.1 m E Pn      2011/04/29 23:20:12.0  -0.1                          T                                        4682526
PGF   002.39 139.1 m E Sn      2011/04/29 23:20:40.4   0.1                          T                1.6  .22 Ml 2.4         4682525
MTLF  003.53 254.5 m E Pn      2011/04/29 23:20:27.4   0.0                          T                                        4682527
MTLF  003.53 254.5 m E Sn      2011/04/29 23:21:07.3   0.1                          T                1.5  .33 Ml 2.2         4682528

.
