EVENT     289303
    Date      Time       Latitude Longitude    Depth    Ndef Nsta Gap    Mag1  N    Mag2  N    Mag3  N   Author         ID
       rms   OT_Error      Smajor Sminor Az        Err   mdist  Mdist     Err        Err        Err      Quality

2013/01/01 05:41:13.2     43.0842    -.2288      2.0      36    8 101  Ml 2.0  6  Md 2.0  2              bulletin    289403
                                                                                                         _ldg
      0.86   +-  0.11       2.2    1.9  172.68 +-  0.0    0.31   3.13   +-0.1      +-0.0                 m i ke

PYRENEES
Sta     Dist  EvAz     Phase      Date       Time     TRes  Azim  AzRes  Slow  SRes Def   SNR       Amp   Per   Mag1   Mag2       ID
ETSF  000.31 232.7 m E Pg      2013/01/01 05:41:18.7  -0.6                          T                                        5151909
ETSF  000.31 232.7 m E Sg      2013/01/01 05:41:22.4  -0.9                          T               43.4  .22        Md 1.9  5151908
EPF   000.42 097.2 m E Pg      2013/01/01 05:41:21.0  -0.4                          T                                        5151907
EPF   000.42 097.2 m E Sg      2013/01/01 05:41:26.5  -0.4                          T               12.2  .29        Md 2.0  5151906
SJPF  000.73 272.6 m E Pg      2013/01/01 05:41:27.1   0.1                          T                                        5151904
SJPF  000.73 272.6 m E Sg      2013/01/01 05:41:36.4  -0.1                          T                4.5  .24                5151905
LFF   001.98 020.3 m E Pn      2013/01/01 05:41:45.6  -0.3                          T                                        5151903
LFF   001.98 020.3 m E Pg      2013/01/01 05:41:50.2   0.2                          T                                        5151902
LFF   001.98 020.3 m E Sn      2013/01/01 05:42:09.8  -0.1                          T                                        5151901
LFF   001.98 020.3 m E Sg      2013/01/01 05:42:15.5   0.0                          T                5.1  .32 Ml 2.2         5151900
MTLF  001.81 081.0 m E Pg      2013/01/01 05:41:46.7  -0.1                          T                                        5151893
MTLF  001.81 081.0 m E Sn      2013/01/01 05:42:05.3  -0.5                          T                                        5151892
MTLF  001.81 081.0 m E Sg      2013/01/01 05:42:09.6  -0.5                          T                1.8  .24 Ml 2.0         5151897
CAF   002.48 041.2 m E Pn      2013/01/01 05:41:52.4  -0.4                          T                                        5151887
CAF   002.48 041.2 m E Pg      2013/01/01 05:41:58.7  -0.4                          T                                        5151888
CAF   002.48 041.2 m E Sn      2013/01/01 05:42:21.4  -0.3                          T                                        5151896
CAF   002.48 041.2 m E Sg      2013/01/01 05:42:30.7  -0.3                          T                1.6  .23 Ml 2.1         5151898
RJF   002.55 028.9 m E Pg      2013/01/01 05:42:00.1  -0.4                          T                                        5151894
RJF   002.55 028.9 m E Sg      2013/01/01 05:42:33.0  -0.3                          T                2.9  .29 Ml 2.0         5151899
LASF  003.13 070.1 m E Pn      2013/01/01 05:42:02.6   0.9                          T                                        5151889
LASF  003.13 070.1 m E Sn      2013/01/01 05:42:38.8   1.4                          T                                        5151890
LASF  003.13 070.1 m E Sg      2013/01/01 05:42:51.0  -0.4                          T                 .5  .16 Ml 2.0         5151891

.
EVENT     289301
    Date      Time       Latitude Longitude    Depth    Ndef Nsta Gap    Mag1  N    Mag2  N    Mag3  N   Author         ID
       rms   OT_Error      Smajor Sminor Az        Err   mdist  Mdist     Err        Err        Err      Quality

2013/01/01 05:48:55.6     48.3658    9.0184      8.0 f    61   10 034  Ml 2.4 10  Md 2.5  2              bulletin    289401
                                                                                                         _ldg
      0.56   +-  0.05       1.2     .9  150.23 +-  0.0    0.16   3.94   +-0.2      +-0.1                 m i ke

GERMANY
Sta     Dist  EvAz     Phase      Date       Time     TRes  Azim  AzRes  Slow  SRes Def   SNR       Amp   Per   Mag1   Mag2       ID
CDF   001.16 272.9 m E Pn      2013/01/01 05:49:17.1   0.4                          T                                        5151941
CDF   001.16 272.9 m E Sn      2013/01/01 05:49:32.0   0.3                          T               17.7  .22 Ml 2.9 Md 2.6  5151940
HINF  001.55 250.1 m E Pn      2013/01/01 05:49:20.8  -1.1                          T                                        5151936
HINF  001.55 250.1 m E Pg      2013/01/01 05:49:24.3  -0.2                          T                                        5151937
HINF  001.55 250.1 m E Sn      2013/01/01 05:49:41.1   0.1                          T                                Md 2.4  5151939
HINF  001.55 250.1 m E Sg      2013/01/01 05:49:44.4  -0.3                          T                6.6  .26 Ml 2.5         5151938
LANF  001.01 307.9 m E Sg      2013/01/01 05:49:28.1   0.3                          T                                        5153501
HAU   001.82 259.6 m E Pg      2013/01/01 05:49:29.3  -0.2                          T                                        5151935
HAU   001.82 259.6 m E Sn      2013/01/01 05:49:48.6   1.2                          T                                        5151928
HAU   001.82 259.6 m E Sg      2013/01/01 05:49:52.6  -0.5                          T                7.8  .22 Ml 2.5         5151934
MEZF  002.64 274.4 m E Pn      2013/01/01 05:49:37.5   0.8                          T                                        5151918
MEZF  002.64 274.4 m E Pg      2013/01/01 05:49:44.3  -0.3                          T                                        5151919
MEZF  002.64 274.4 m E Sn      2013/01/01 05:50:08.2   1.1                          T                                        5151921
MEZF  002.64 274.4 m E Sg      2013/01/01 05:50:18.2  -0.5                          T                1.8  .18 Ml 2.3         5151920
CABF  002.65 229.6 m E Pg      2013/01/01 05:49:45.2   0.3                          T                                        5151927
CABF  002.65 229.6 m E Sg      2013/01/01 05:50:19.0   0.0                          T                1.9  .31 Ml 2.1         5151926
SFTF  002.66 268.0 m E Pg      2013/01/01 05:49:45.2   0.3                          T                                        5151932
SFTF  002.66 268.0 m E Sg      2013/01/01 05:50:18.9  -0.3                          T                4.1  .27 Ml 2.5         5151933
BAIF  003.58 300.1 m E Pn      2013/01/01 05:49:50.3   0.8                          T                                        5151914
BAIF  003.58 300.1 m E Pg      2013/01/01 05:50:01.8  -0.1                          T                                        5151915
BAIF  003.58 300.1 m E Sn      2013/01/01 05:50:29.8   0.4                          T                                        5151917
BAIF  003.58 300.1 m E Sg      2013/01/01 05:50:47.3  -0.5                          T                 .8  .22 Ml 2.1         5151916
LOR   003.65 254.4 m E Pn      2013/01/01 05:49:51.2   0.8                          T                                        5151923
LOR   003.65 254.4 m E Pg      2013/01/01 05:50:03.3   0.2                          T                                        5151931
LOR   003.65 254.4 m E Sn      2013/01/01 05:50:31.9   0.9                          T                                        5151925
LOR   003.65 254.4 m E Sg      2013/01/01 05:50:49.5  -0.5                          T                 .9  .19 Ml 2.3         5151930
SSF   003.94 252.7 m E Pn      2013/01/01 05:49:54.9   0.5                          T                                        5151924
SSF   003.94 252.7 m E Pg      2013/01/01 05:50:08.9   0.3                          T                                        5151929
SSF   003.94 252.7 m E Sg      2013/01/01 05:50:58.8  -0.3                          T                 .6  .23 Ml 2.1         5151922

.
EVENT     289304
    Date      Time       Latitude Longitude    Depth    Ndef Nsta Gap    Mag1  N    Mag2  N    Mag3  N   Author         ID
       rms   OT_Error      Smajor Sminor Az        Err   mdist  Mdist     Err        Err        Err      Quality

2013/01/01 06:05:51.6     43.0577    -.2073      2.0      87   14 051  Ml 2.7 12  Md 2.8  2              bulletin    289404
                                                                                                         _ldg
      0.54   +-  0.05       1.0     .9   36.65 +-  0.0    0.12   5.29   +-0.2      +-0.1                 m i ke

PYRENEES
Sta     Dist  EvAz     Phase      Date       Time     TRes  Azim  AzRes  Slow  SRes Def   SNR       Amp   Per   Mag1   Mag2       ID
ETSF  000.30 238.5 m E Pg      2013/01/01 06:05:57.0  -0.6                          T                                        5151993
ETSF  000.30 238.5 m E Sg      2013/01/01 06:06:01.1  -0.6                          T              255.3  .22        Md 2.7  5151992
EPF   000.40 093.7 m E Pg      2013/01/01 06:05:59.3  -0.1                          T                                        5151991
EPF   000.40 093.7 m E Sg      2013/01/01 06:06:05.2   0.5                          T               70.2  .24        Md 2.9  5151990
SJPF  000.75 274.6 m E Pg      2013/01/01 06:06:05.5  -0.3                          T                                        5151989
SJPF  000.75 274.6 m E Sg      2013/01/01 06:06:15.3  -0.1                          T               28.4  .24                5151988
MTLF  001.80 080.1 m E Pn      2013/01/01 06:06:21.9   0.0                          T                                        5151957
MTLF  001.80 080.1 m E Pg      2013/01/01 06:06:25.1   0.1                          T                                        5151987
MTLF  001.80 080.1 m E Sn      2013/01/01 06:06:43.7  -0.2                          T                                        5174256
MTLF  001.80 080.1 m E Sg      2013/01/01 06:06:48.1   0.0                          T               11.1  .30 Ml 2.7         5151986
LFF   002.00 019.6 m E Pn      2013/01/01 06:06:24.5  -0.1                          T                                        5151958
LFF   002.00 019.6 m E Pg      2013/01/01 06:06:29.0   0.2                          T                                        5151985
LFF   002.00 019.6 m E Sn      2013/01/01 06:06:48.9   0.1                          T                                        5151959
LFF   002.00 019.6 m E Sg      2013/01/01 06:06:55.0   0.4                          T               46.5  .40 Ml 3.1         5151984
CAF   002.49 040.5 m E Pn      2013/01/01 06:06:31.3   0.0                          T                                        5151977
CAF   002.49 040.5 m E Pg      2013/01/01 06:06:37.8   0.0                          T                                        5151978
CAF   002.49 040.5 m E Sn      2013/01/01 06:07:00.2  -0.2                          T                                        5151979
CAF   002.49 040.5 m E Sg      2013/01/01 06:07:10.0   0.3                          T                7.8  .20 Ml 2.9         5151976
RJF   002.57 028.3 m E Pn      2013/01/01 06:06:31.8  -0.6                          T                                        5151982
RJF   002.57 028.3 m E Pg      2013/01/01 06:06:39.0  -0.2                          T                                        5151983
RJF   002.57 028.3 m E Sn      2013/01/01 06:07:01.8  -0.5                          T                                        5151981
RJF   002.57 028.3 m E Sg      2013/01/01 06:07:12.0  -0.2                          T               10.3  .22 Ml 2.7         5151980
LASF  003.12 069.6 m E Pn      2013/01/01 06:06:40.2   0.3                          T                                        5151975
LASF  003.12 069.6 m E Pg      2013/01/01 06:06:49.9   0.4                          T                                        5151974
LASF  003.12 069.6 m E Sn      2013/01/01 06:07:15.4  -0.2                          T                                        5151973
LASF  003.12 069.6 m E Sg      2013/01/01 06:07:30.1   0.4                          T                2.4  .19 Ml 2.5         5151972
MFF   003.54 000.7 m E Pn      2013/01/01 06:06:45.8   0.2                          T                                        5151963
MFF   003.54 000.7 m E Pg      2013/01/01 06:06:57.4   0.2                          T                                        5151962
MFF   003.54 000.7 m E Sn      2013/01/01 06:07:25.7   0.0                          T                                        5151961
MFF   003.54 000.7 m E Sg      2013/01/01 06:07:43.1   0.4                          T                3.2  .23 Ml 2.9         5151960
TCF   003.66 027.3 m E Pn      2013/01/01 06:06:47.5   0.2                          T                                        5151952
TCF   003.66 027.3 m E Pg      2013/01/01 06:06:59.1  -0.4                          T                                        5151951
TCF   003.66 027.3 m E Sn      2013/01/01 06:07:28.1  -0.4                          T                                        5151950
TCF   003.66 027.3 m E Sg      2013/01/01 06:07:46.8   0.4                          T                3.3  .22 Ml 2.8         5151949
VIVF  003.96 061.3 m E Pn      2013/01/01 06:06:51.4   0.1                          T                                        5151971
VIVF  003.96 061.3 m E Pg      2013/01/01 06:07:05.1   0.3                          T                                        5151970
VIVF  003.96 061.3 m E Sn      2013/01/01 06:07:35.4  -0.1                          T                                        5151969
VIVF  003.96 061.3 m E Sg      2013/01/01 06:07:55.4  -0.2                          T                1.4  .27 Ml 2.4         5151968
BGF   004.12 030.8 m E Pn      2013/01/01 06:06:53.7   0.2                          T                                        5151967
BGF   004.12 030.8 m E Pg      2013/01/01 06:07:08.0   0.1                          T                                        5151966
BGF   004.12 030.8 m E Sn      2013/01/01 06:07:39.6   0.2                          T                                        5151965
BGF   004.12 030.8 m E Sg      2013/01/01 06:08:01.0   0.3                          T                5.3  .25 Ml 3.0         5151964
AVF   004.51 032.9 m E Pn      2013/01/01 06:06:59.0   0.3                          T                                        5151956
AVF   004.51 032.9 m E Pg      2013/01/01 06:07:15.4   0.5                          T                                        5151955
AVF   004.51 032.9 m E Sn      2013/01/01 06:07:48.7   0.0                          T                                        5151954
AVF   004.51 032.9 m E Sg      2013/01/01 06:08:13.2   0.4                          T                2.8  .34 Ml 2.7         5151953
QUIF  005.29 337.9 m E Pn      2013/01/01 06:07:09.5   0.1                          T                                        5151948
QUIF  005.29 337.9 m E Pg      2013/01/01 06:07:29.4   0.1                          T                                        5151947
QUIF  005.29 337.9 m E Sn      2013/01/01 06:08:07.1  -0.2                          T                 .6  .18 Ml 2.5         5151946

.
