EVENT     287381
    Date      Time       Latitude Longitude    Depth    Ndef Nsta Gap    Mag1  N    Mag2  N    Mag3  N   Author         ID
       rms   OT_Error      Smajor Sminor Az        Err   mdist  Mdist     Err        Err        Err      Quality

2012/11/23 16:53:23.4     44.3967    8.3324       .0 f    35    7 126  Ml 1.6  6  Md 2.0  2              bulletin    287481
                                                                                                         _ldg
      0.32   +-  0.10       1.6    1.4   96.23 +-  0.0    0.07   2.34   +-0.3      +-0.1                 m i km

NORTHERN ITALY
Sta     Dist  EvAz     Phase      Date       Time     TRes  Azim  AzRes  Slow  SRes Def   SNR       Amp   Per   Mag1   Mag2       ID
SBF   000.84 230.8 m E Pg      2012/11/23 16:53:39.5   0.0                          T                                        5137159
SBF   000.84 230.8 m E Pn      2012/11/23 16:53:41.3   0.2                          T                                        5123996
SBF   000.84 230.8 m E Sn      2012/11/23 16:53:53.5   0.0                          T                2.3  .15        Md 2.1  5123995
MBDF  001.16 287.0 m E Pg      2012/11/23 16:53:45.0  -0.6                          T                                        5123994
MBDF  001.16 287.0 m E Sg      2012/11/23 16:54:00.7  -0.2                          T                1.4  .19 Ml 1.7 Md 2.0  5123993
FRF   001.48 236.1 m E Pn      2012/11/23 16:53:49.7   0.0                          T                                        5123984
FRF   001.48 236.1 m E Pg      2012/11/23 16:53:51.3   0.1                          T                                        5123992
FRF   001.48 236.1 m E Sg      2012/11/23 16:54:10.4  -0.1                          T                1.3  .17 Ml 2.0         5123991
LPG   001.57 315.0 m E Pg      2012/11/23 16:53:53.1  -0.2                          T                                        5137160
LPL   001.60 315.1 m E Pg      2012/11/23 16:53:53.2  -0.5                          T                                        5123986
LPL   001.60 315.1 m E Sg      2012/11/23 16:54:14.4  -0.1                          T                 .6  .22 Ml 1.5         5123985
LMR   001.69 231.8 m E Pg      2012/11/23 16:53:55.1  -0.1                          T                                        5123990
LMR   001.69 231.8 m E Sn      2012/11/23 16:54:13.9   0.0                          T                                        5123997
LMR   001.69 231.8 m E Sg      2012/11/23 16:54:17.2   0.0                          T                 .9  .17 Ml 1.9         5123989
ORIF  001.83 287.5 m E Pg      2012/11/23 16:53:57.8   0.0                          T                                        5123988
ORIF  001.83 287.5 m E Sg      2012/11/23 16:54:21.6   0.1                          T                 .2  .20 Ml 1.2         5123987

.
EVENT     287382
    Date      Time       Latitude Longitude    Depth    Ndef Nsta Gap    Mag1  N    Mag2  N    Mag3  N   Author         ID
       rms   OT_Error      Smajor Sminor Az        Err   mdist  Mdist     Err        Err        Err      Quality

2012/11/23 17:22:45.9     44.4858    6.6866      2.0      30    8 054  Ml 1.3  4  Md 1.4  1              bulletin    287482
                                                                                                         _ldg
      0.33   +-  0.06       1.2    1.0   63.76 +-  0.0    0.09   1.48   +-0.3      +-                    m i ke

FRANCE
Sta     Dist  EvAz     Phase      Date       Time     TRes  Azim  AzRes  Slow  SRes Def   SNR       Amp   Per   Mag1   Mag2       ID
MBDF  000.25 014.1 m E Pg      2012/11/23 17:22:51.1   0.1                          T                                        5124035
MBDF  000.25 014.1 m E Sg      2012/11/23 17:22:54.3   0.0                          T                2.1  .22        Md 1.4  5124034
ORIF  000.72 307.2 m E Pg      2012/11/23 17:22:59.3  -0.2                          T                                        5124033
ORIF  000.72 307.2 m E Sg      2012/11/23 17:23:09.0   0.0                          T                 .7  .16                5124032
SBF   000.82 138.9 m E Pg      2012/11/23 17:23:01.8   0.3                          T                                        5124023
SBF   000.82 138.9 m E Sg      2012/11/23 17:23:12.8   0.6                          T                1.0  .18                5124022
FRF   000.93 181.8 m E Pg      2012/11/23 17:23:03.3   0.0                          T                                        5124027
FRF   000.93 181.8 m E Sg      2012/11/23 17:23:15.3   0.0                          T                1.1  .16 Ml 1.7         5124026
SMRF  000.95 237.8 m E Pg      2012/11/23 17:23:03.7   0.0                          T                                        5124031
SMRF  000.95 237.8 m E Sg      2012/11/23 17:23:15.7  -0.3                          T                 .6  .22 Ml 1.2         5124030
LPL   001.03 001.8 m E Pg      2012/11/23 17:23:05.7   0.2                          T                                        5124029
LPL   001.03 001.8 m E Sg      2012/11/23 17:23:19.5   0.6                          T                 .3  .20 Ml 1.0         5124028
LMR   001.16 186.4 m E Pg      2012/11/23 17:23:08.0   0.5                          T                                        5124025
LMR   001.16 186.4 m E Sg      2012/11/23 17:23:23.2   0.6                          T                 .6  .20 Ml 1.4         5124024
VIVF  001.48 285.2 m E Pn      2012/11/23 17:23:12.2   0.3                          T                                        5124021

.
EVENT     287384
    Date      Time       Latitude Longitude    Depth    Ndef Nsta Gap    Mag1  N    Mag2  N    Mag3  N   Author         ID
       rms   OT_Error      Smajor Sminor Az        Err   mdist  Mdist     Err        Err        Err      Quality

2012/11/23 18:51:51.4     43.9585    7.6706      4.0 f     9    5 273  Ml 1.2  3  Md 1.4  1              bulletin    287484
                                                                                                         _ldg
      0.13   +-  0.17       3.2    1.3  101.04 +-  0.0    0.20   1.51   +-0.3      +-                    m i ke

NEAR SOUTH COAST OF FRANCE
Sta     Dist  EvAz     Phase      Date       Time     TRes  Azim  AzRes  Slow  SRes Def   SNR       Amp   Per   Mag1   Mag2       ID
SBF   000.20 240.8 m E Pg      2012/11/23 18:51:55.5   0.0                          T                                        5124042
SBF   000.20 240.8 m E Sg      2012/11/23 18:51:58.1  -0.1                          T                3.8  .19        Md 1.4  5124041
FRF   000.84 242.2 m E Pg      2012/11/23 18:52:07.0  -0.2                          T                                        5124040
FRF   000.84 242.2 m E Sg      2012/11/23 18:52:18.2   0.1                          T                 .5  .19                5124039
MBDF  001.00 320.3 m E Pg      2012/11/23 18:52:10.4   0.1                          T                                        5137162
MBDF  001.00 320.3 m E Sg      2012/11/23 18:52:23.4   0.0                          T                 .3  .28 Ml  .9         5137163
LMR   001.05 233.9 m E Pg      2012/11/23 18:52:11.0   0.0                          T                                        5124038
LMR   001.05 233.9 m E Sg      2012/11/23 18:52:25.0   0.3                          T                 .5  .23 Ml 1.2         5124037
SMRF  001.51 271.4 m E Sg      2012/11/23 18:52:39.0  -0.1                          T                 .4  .19 Ml 1.4         5124043

.
EVENT     287385
    Date      Time       Latitude Longitude    Depth    Ndef Nsta Gap    Mag1  N    Mag2  N    Mag3  N   Author         ID
       rms   OT_Error      Smajor Sminor Az        Err   mdist  Mdist     Err        Err        Err      Quality

2012/11/23 22:19:28.6     44.7282    6.5953      2.0      14    8 093  Ml 1.4  4  Md 1.5  3              bulletin    287485
                                                                                                         _ldg
      0.20   +-  0.06       1.5    1.1   65.96 +-  0.0    0.13   1.40   +-0.1      +-0.0                 m i ke

FRANCE
Sta     Dist  EvAz     Phase      Date       Time     TRes  Azim  AzRes  Slow  SRes Def   SNR       Amp   Per   Mag1   Mag2       ID
MBDF  000.13 090.5 m E Pg      2012/11/23 22:19:31.5   0.0                          T                                        5124048
MBDF  000.13 090.5 m E Sg      2012/11/23 22:19:33.0  -0.3                          T                2.4  .14        Md 1.5  5124046
ORIF  000.54 290.7 m E Pg      2012/11/23 22:19:39.0  -0.1                          T                                        5124047
ORIF  000.54 290.7 m E Sg      2012/11/23 22:19:46.1  -0.1                          T                 .5  .30                5124045
LPG   000.78 008.1 m E Pg      2012/11/23 22:19:43.5  -0.1                          T                                        5124053
LPG   000.78 008.1 m E Sg      2012/11/23 22:19:53.8   0.0                          T                 .3  .17        Md 1.5  5124052
LPL   000.79 007.0 m E Pg      2012/11/23 22:19:44.2   0.4                          T                                        5124049
LPL   000.79 007.0 m E Sg      2012/11/23 22:19:53.7  -0.5                          T                 .5  .25        Md 1.5  5124051
SBF   001.05 144.8 m E Pg      2012/11/23 22:19:48.4  -0.1                          T                                        5124056
SBF   001.05 144.8 m E Sg      2012/11/23 22:20:01.9  -0.2                          T                1.0  .22 Ml 1.5         5124055
FRF   001.17 178.2 m E Pn      2012/11/23 22:19:50.5   0.2                          T                                        5124050
FRF   001.17 178.2 m E Sn      2012/11/23 22:20:05.9   0.0                          T                 .4  .20 Ml 1.2         5124044
VIVF  001.37 276.0 m E Sn      2012/11/23 22:20:10.6  -0.3                          T                 .6  .26 Ml 1.4         5124054
LMR   001.40 182.6 m E Sn      2012/11/23 22:20:11.4   0.1                          T                 .6  .21 Ml 1.4         5124057

.
EVENT     287386
    Date      Time       Latitude Longitude    Depth    Ndef Nsta Gap    Mag1  N    Mag2  N    Mag3  N   Author         ID
       rms   OT_Error      Smajor Sminor Az        Err   mdist  Mdist     Err        Err        Err      Quality

2012/11/23 23:19:10.8     49.1385    8.1618      6.0 f    17    4 046  Ml 1.9  5  Md 2.2  1              bulletin    287486
                                                                                                         _ldg
      0.34   +-  0.05       1.1    1.0  115.42 +-  0.0    0.19   2.27   +-0.2      +-                    m i ke

GERMANY
Sta     Dist  EvAz     Phase      Date       Time     TRes  Azim  AzRes  Slow  SRes Def   SNR       Amp   Per   Mag1   Mag2       ID
CDF   000.93 219.2 m E Pg      2012/11/23 23:19:28.2  -0.2                          T                                        5137190
CDF   000.93 219.2 m E Pn      2012/11/23 23:19:28.9  -0.1                          T                                        5137191
CDF   000.93 219.2 m E P       2012/11/23 23:19:30.2   0.1                          T                                        5124061
CDF   000.93 219.2 m E Sg      2012/11/23 23:19:40.5  -0.1                          T                3.2  .22 Ml 2.1 Md 2.2  5124060
HAU   001.65 227.4 m E Pn      2012/11/23 23:19:38.8   0.1                          T                                        5124063
HAU   001.65 227.4 m E Pg      2012/11/23 23:19:41.5  -0.2                          T                                        5124059
HAU   001.65 227.4 m E Sn      2012/11/23 23:19:58.7  -0.3                          T                 .8  .19 Ml 1.5         5124062
HAU   001.65 227.4 m E Sg      2012/11/23 23:20:03.0  -0.1                          T                2.5  .22 Ml 1.9         5124058
PAGF  001.71 251.0 m E Pg      2012/11/23 23:19:42.6  -0.1                          T                                        5137189
PAGF  001.71 251.0 m E Sg      2012/11/23 23:20:04.7  -0.1                          T                 .9  .20 Ml 1.8         5124064
SFTF  002.27 246.9 m E Sg      2012/11/23 23:20:22.2   0.0                          T                1.4  .21 Ml 2.1         5137188

.
EVENT     287387
    Date      Time       Latitude Longitude    Depth    Ndef Nsta Gap    Mag1  N    Mag2  N    Mag3  N   Author         ID
       rms   OT_Error      Smajor Sminor Az        Err   mdist  Mdist     Err        Err        Err      Quality

2012/11/24 02:27:59.4     51.1303    5.9661      6.0 f    71   12 172  Ml 2.2 14  Md 2.5  1              bulletin    287487
                                                                                                         _ldg
      0.26   +-  0.05       1.0     .7  162.90 +-  0.0    0.14   5.20   +-0.3      +-                    m i ke

THE NETHERLANDS
Sta     Dist  EvAz     Phase      Date       Time     TRes  Azim  AzRes  Slow  SRes Def   SNR       Amp   Per   Mag1   Mag2       ID
GIVF  001.26 215.7 m E Pn      2012/11/24 02:28:21.9   0.0                          T                                        5124070
GIVF  001.26 215.7 m E Pg      2012/11/24 02:28:23.1   0.1                          T                                        5137192
GIVF  001.26 215.7 m E Sn      2012/11/24 02:28:37.8  -0.4                          T                                        5125634
GIVF  001.26 215.7 m E Sg      2012/11/24 02:28:39.4   0.1                          T               14.1  .25 Ml 2.7 Md 2.5  5124066
BAIF  001.55 226.9 m E Pn      2012/11/24 02:28:25.9   0.0                          T                                        5124069
BAIF  001.55 226.9 m E Pg      2012/11/24 02:28:28.2  -0.1                          T                                        5125635
BAIF  001.55 226.9 m E Sn      2012/11/24 02:28:45.0  -0.1                          T                                        5124076
BAIF  001.55 226.9 m E Sg      2012/11/24 02:28:48.6   0.2                          T                1.7  .18 Ml 2.0         5124067
PAGF  002.58 183.6 m E Pn      2012/11/24 02:28:40.2   0.2                          T                                        5124086
PAGF  002.58 183.6 m E Sn      2012/11/24 02:29:10.0   0.2   1.5  -1.8              T                 .7  .20 Ml 1.9         5124089
MEZF  002.70 193.0 m E Pn      2012/11/24 02:28:40.8  -0.7                          T                                        5124087
MEZF  002.70 193.0 m E Sn      2012/11/24 02:29:11.9  -0.6                          T                                        5124088
MEZF  002.70 193.0 m E Sg      2012/11/24 02:29:24.0  -0.1                          T                2.7  .19 Ml 2.5         5124072
CDF   002.85 162.2 m E Pn      2012/11/24 02:28:43.7   0.0                          T                                        5125633
CDF   002.85 162.2 m E Sn      2012/11/24 02:29:16.5   0.1                          T                                        5125632
CDF   002.85 162.2 m E Sg      2012/11/24 02:29:28.8  -0.3                          T                 .6  .22 Ml 1.9         5125631
SFTF  002.99 192.0 m E Pn      2012/11/24 02:28:45.7   0.2                          T                                        5124085
SFTF  002.99 192.0 m E Sn      2012/11/24 02:29:19.8   0.2                          T                                        5124090
SFTF  002.99 192.0 m E Sg      2012/11/24 02:29:33.2  -0.1                          T                1.3  .18 Ml 2.3         5124071
HAU   003.14 175.3 m E Pn      2012/11/24 02:28:47.7   0.2                          T                                        5124082
HAU   003.14 175.3 m E Sn      2012/11/24 02:29:22.3  -0.8                          T                                        5124083
HAU   003.14 175.3 m E Sg      2012/11/24 02:29:38.5   0.5                          T                2.0  .23 Ml 2.2         5124075
LOR   004.10 200.5 m E Pn      2012/11/24 02:29:00.7   0.0                          T                                        5124079
LOR   004.10 200.5 m E Sn      2012/11/24 02:29:46.5   0.3                          T                 .5  .24 Ml 2.0         5124078
LOR   004.10 200.5 m E Sg      2012/11/24 02:30:08.5   0.4  19.1  0.3               T                1.1  .21 Ml 2.4         5124074
SSF   004.38 202.6 m E Pn      2012/11/24 02:29:04.4  -0.1                          T                                        5124068
SSF   004.38 202.6 m E Pg      2012/11/24 02:29:20.8   0.3                          T                                        5124091
SSF   004.38 202.6 m E Sn      2012/11/24 02:29:53.1   0.3                          T                                        5124077
SSF   004.38 202.6 m E Sg      2012/11/24 02:30:17.2   0.5                          T                1.1  .32 Ml 2.3         5124084
LDF   004.69 239.5 m E Pn      2012/11/24 02:29:09.0   0.4                          T                                        5124095
LDF   004.69 239.5 m E Sn      2012/11/24 02:29:59.7  -0.3                          T                 .7  .29 Ml 2.1         5124096
FLN   004.79 242.8 m E Pn      2012/11/24 02:29:10.2   0.2                          T                                        5125629
FLN   004.79 242.8 m E Sn      2012/11/24 02:30:02.7   0.2                          T                 .7  .17 Ml 2.3         5125630
GRR   005.20 240.8 m E Pn      2012/11/24 02:29:15.7   0.1                          T                                        5124093
GRR   005.20 240.8 m E Sn      2012/11/24 02:30:12.5   0.1                          T                1.5  .20 Ml 2.7         5124094

.
EVENT     287388
    Date      Time       Latitude Longitude    Depth    Ndef Nsta Gap    Mag1  N    Mag2  N    Mag3  N   Author         ID
       rms   OT_Error      Smajor Sminor Az        Err   mdist  Mdist     Err        Err        Err      Quality

2012/11/24 03:31:41.7     42.5191    2.7217      2.0      34    4 078  Ml 1.8  4  Md 2.1  1              bulletin    287488
                                                                                                         _ldg
      0.41   +-  0.07       1.3    1.1   14.21 +-  0.0    0.12   2.45   +-0.1      +-                    m i ke

PYRENEES
Sta     Dist  EvAz     Phase      Date       Time     TRes  Azim  AzRes  Slow  SRes Def   SNR       Amp   Per   Mag1   Mag2       ID
MTLF  000.90 335.9 m E Pg      2012/11/24 03:31:58.3  -0.3                          T                                        5124115
MTLF  000.90 335.9 m E Sg      2012/11/24 03:32:09.9  -0.4                          T                1.9  .18 Ml 1.8 Md 2.1  5124112
EPF   001.83 287.0 m E Pn      2012/11/24 03:32:12.8   0.4                          T                                        5124114
EPF   001.83 287.0 m E Sg      2012/11/24 03:32:39.5   0.2                          T                 .6  .16 Ml 1.8         5124111
LASF  001.76 027.7 m E Pg      2012/11/24 03:32:14.6   0.1                          T                                        5124117
LASF  001.76 027.7 m E Sg      2012/11/24 03:32:36.5  -0.7                          T                 .9  .21 Ml 1.8         5124116
ETSF  002.45 280.0 m E Pg      2012/11/24 03:32:25.7  -1.4                          T                                        5124113
ETSF  002.45 280.0 m E Sg      2012/11/24 03:32:58.7   0.0                          T                1.6  .29 Ml 2.0         5124118

.
