EVENT     294460
    Date      Time       Latitude Longitude    Depth    Ndef Nsta Gap    Mag1  N    Mag2  N    Mag3  N   Author         ID
       rms   OT_Error      Smajor Sminor Az        Err   mdist  Mdist     Err        Err        Err      Quality

2013/03/21 14:50:15.6     42.7792   -1.9767     10.0      17    3 304  Ml 2.1  2  Md 1.9  2              bulletin    294560
                                                                                                         _ldg
      0.36   +-  0.38       5.6    4.4   50.33 +-  0.0    0.29   1.72   +-0.3      +-0.0                 m i ke

PYRENEES
Sta     Dist  EvAz     Phase      Date       Time     TRes  Azim  AzRes  Slow  SRes Def   SNR       Amp   Per   Mag1   Mag2       ID
SJPF  000.65 058.6 m E Pg      2013/03/21 14:50:27.5  -0.3                          T                                        5232035
SJPF  000.65 058.6 m E Sg      2013/03/21 14:50:36.5   0.1                          T                5.4  .35        Md 1.9  5232030
ETSF  001.05 083.0 m E Pg      2013/03/21 14:50:35.5   0.1                          T                                        5232034
ETSF  001.05 083.0 m E Sg      2013/03/21 14:50:48.9  -0.1                          T                3.3  .29 Ml 1.9 Md 1.9  5232031
EPF   001.72 080.8 m E P       2013/03/21 14:50:44.2  -1.8                          T                                        5232033
EPF   001.72 080.8 m E Pg      2013/03/21 14:50:47.7   0.0                          T                                        5238355
EPF   001.72 080.8 m E Sg      2013/03/21 14:51:09.8  -0.1                          T                6.0  .38 Ml 2.3         5232032

.
EVENT     294462
    Date      Time       Latitude Longitude    Depth    Ndef Nsta Gap    Mag1  N    Mag2  N    Mag3  N   Author         ID
       rms   OT_Error      Smajor Sminor Az        Err   mdist  Mdist     Err        Err        Err      Quality

2013/03/21 15:02:55.5     42.8283   -1.8303      2.0      37    7 101  Ml 2.6  6  Md 2.3  1              bulletin    294562
                                                                                                         _ldg
      0.74   +-  0.14       2.7    2.1  167.18 +-  0.0    0.19   4.32   +-0.3      +-                    m i ke

PYRENEES
Sta     Dist  EvAz     Phase      Date       Time     TRes  Azim  AzRes  Slow  SRes Def   SNR       Amp   Per   Mag1   Mag2       ID
SJPF  000.53 057.1 m E Pg      2013/03/21 15:03:05.6   0.0                          T                                        5232041
SJPF  000.53 057.1 m E Sg      2013/03/21 15:03:12.0  -0.5                          T               39.8  .29        Md 2.3  5232040
ETSF  000.94 085.3 m E Pg      2013/03/21 15:03:14.0   0.8                          T                                        5232037
ETSF  000.94 085.3 m E Sg      2013/03/21 15:03:26.5   1.1                          T               18.2  .32 Ml 2.5         5232036
EPF   001.61 082.0 m E Pg      2013/03/21 15:03:25.7   0.2                          T                                        5232039
EPF   001.61 082.0 m E Sg      2013/03/21 15:03:46.7   0.4                          T               22.4  .35 Ml 2.9         5232038
MTLF  003.01 078.8 m E Sn      2013/03/21 15:04:16.5  -0.4                          T                2.1  .30 Ml 2.3         5238358
RJF   003.46 043.1 m E Sn      2013/03/21 15:04:28.0   0.5                          T                2.1  .24 Ml 2.2         5238360
CAF   003.51 052.0 m E Sn      2013/03/21 15:04:28.9   0.0                          T                3.6  .26 Ml 2.7         5238359
LASF  004.32 071.3 m E Sn      2013/03/21 15:04:47.8  -0.5                          T                2.9  .25 Ml 2.8         5238357

.
EVENT     294463
    Date      Time       Latitude Longitude    Depth    Ndef Nsta Gap    Mag1  N    Mag2  N    Mag3  N   Author         ID
       rms   OT_Error      Smajor Sminor Az        Err   mdist  Mdist     Err        Err        Err      Quality

2013/03/21 15:24:15.3     42.8345   -1.8216      2.0      17    3 104  Ml 2.4  2  Md 2.0  1              bulletin    294563
                                                                                                         _ldg
      0.53   +-  0.17       3.4    2.5  161.44 +-  0.0    0.19   2.23   +-0.3      +-                    m i ke

PYRENEES
Sta     Dist  EvAz     Phase      Date       Time     TRes  Azim  AzRes  Slow  SRes Def   SNR       Amp   Per   Mag1   Mag2       ID
SJPF  000.52 057.3 m E Pg      2013/03/21 15:24:24.8  -0.4                          T                                        5232047
SJPF  000.52 057.3 m E Sg      2013/03/21 15:24:31.2  -0.9                          T               12.3  .33        Md 2.0  5232046
ETSF  000.93 085.6 m E Pg      2013/03/21 15:24:33.7   0.8                          T                                        5232045
ETSF  000.93 085.6 m E Sg      2013/03/21 15:24:45.5   0.5                          T                4.9  .23 Ml 2.1         5232044
EPF   001.60 082.2 m E Pg      2013/03/21 15:24:45.5   0.4                          T                                        5232043
EPF   001.60 082.2 m E Sg      2013/03/21 15:25:05.6  -0.2                          T               15.7  .49 Ml 2.6         5232042

.
EVENT     294464
    Date      Time       Latitude Longitude    Depth    Ndef Nsta Gap    Mag1  N    Mag2  N    Mag3  N   Author         ID
       rms   OT_Error      Smajor Sminor Az        Err   mdist  Mdist     Err        Err        Err      Quality

2013/03/21 15:26:07.7     42.7053   -1.7412      2.0      20    3 106  Ml 1.9  2                         bulletin    294564
                                                                                                         _ldg
      0.50   +-  0.14       2.5    2.1  145.31 +-  0.0    0.14   1.90   +-0.2                            m i ke

PYRENEES
Sta     Dist  EvAz     Phase      Date       Time     TRes  Azim  AzRes  Slow  SRes Def   SNR       Amp   Per   Mag1   Mag2       ID
SJPF  000.56 042.8 m E Pg      2013/03/21 15:26:18.2  -0.2                          T                                        5232053
SJPF  000.56 042.8 m E Sg      2013/03/21 15:26:25.5  -0.2                          T               22.2  .37                5232050
ETSF  000.89 077.1 m E Pg      2013/03/21 15:26:24.2  -0.3                          T                                        5232052
ETSF  000.89 077.1 m E Sg      2013/03/21 15:26:36.2   0.0                          T                2.6  .24 Ml 1.8         5232049
EPF   001.56 077.3 m E Pg      2013/03/21 15:26:37.3   0.3                          T                                        5232051
EPF   001.56 077.3 m E Sg      2013/03/21 15:26:57.1  -0.1                          T                3.4  .35 Ml 2.1         5232048

.
EVENT     294468
    Date      Time       Latitude Longitude    Depth    Ndef Nsta Gap    Mag1  N    Mag2  N    Mag3  N   Author         ID
       rms   OT_Error      Smajor Sminor Az        Err   mdist  Mdist     Err        Err        Err      Quality

2013/03/21 15:31:20.0     42.7083   -1.7504      2.0      20    3 106  Ml 2.0  2  Md 2.1  1              bulletin    294568
                                                                                                         _ldg
      0.64   +-  0.18       3.2    2.7  146.57 +-  0.0    0.14   1.90   +-0.3      +-                    m i ke

PYRENEES
Sta     Dist  EvAz     Phase      Date       Time     TRes  Azim  AzRes  Slow  SRes Def   SNR       Amp   Per   Mag1   Mag2       ID
SJPF  000.56 043.5 m E Pg      2013/03/21 15:31:30.5  -0.1                          T                                        5232065
SJPF  000.56 043.5 m E Sg      2013/03/21 15:31:37.9  -0.1                          T               11.7  .30        Md 2.1  5232064
ETSF  000.90 077.4 m E Pg      2013/03/21 15:31:36.6  -0.3                          T                                        5232063
ETSF  000.90 077.4 m E Sg      2013/03/21 15:31:48.6   0.0                          T                2.1  .21 Ml 1.8         5232062
EPF   001.57 077.5 m E Pg      2013/03/21 15:31:50.3   1.0                          T                                        5232061
EPF   001.57 077.5 m E Sg      2013/03/21 15:32:09.7   0.2                          T                3.0  .24 Ml 2.2         5232060

.
EVENT     294466
    Date      Time       Latitude Longitude    Depth    Ndef Nsta Gap    Mag1  N    Mag2  N    Mag3  N   Author         ID
       rms   OT_Error      Smajor Sminor Az        Err   mdist  Mdist     Err        Err        Err      Quality

2013/03/21 15:39:20.8     42.8385   -1.8020      2.0      44    7 100  Ml 2.7  6  Md 2.6  1              bulletin    294566
                                                                                                         _ldg
      0.79   +-  0.13       2.7    2.0  158.86 +-  0.0    0.18   3.81   +-0.3      +-                    m i ke

PYRENEES
Sta     Dist  EvAz     Phase      Date       Time     TRes  Azim  AzRes  Slow  SRes Def   SNR       Amp   Per   Mag1   Mag2       ID
SJPF  000.50 056.8 m E Pg      2013/03/21 15:39:30.2  -0.2                          T                                        5232075
SJPF  000.50 056.8 m E Sg      2013/03/21 15:39:37.5   0.4                          T               39.5  .24        Md 2.6  5232072
ETSF  000.92 085.8 m E Pg      2013/03/21 15:39:38.1   0.0                          T                                        5232074
ETSF  000.92 085.8 m E Sg      2013/03/21 15:39:50.1   0.1                          T               20.0  .24 Ml 2.7         5232071
EPF   001.58 082.3 m E Pg      2013/03/21 15:39:50.8   0.4                          T                                        5232073
EPF   001.58 082.3 m E Sg      2013/03/21 15:40:11.1   0.3                          T               72.4  .49 Ml 3.2         5232070
MTLF  002.99 079.0 m E Pn      2013/03/21 15:40:08.6   1.3                          T                                        5232069
MTLF  002.99 079.0 m E Sn      2013/03/21 15:40:41.8   0.3                          T                3.1  .28 Ml 2.5         5232068
RJF   003.43 043.0 m E Pn      2013/03/21 15:40:14.0   0.6                          T                                        5238362
RJF   003.43 043.0 m E Sn      2013/03/21 15:40:52.4   0.1                          T                2.7  .19 Ml 2.3         5238363
CAF   003.49 051.9 m E Pn      2013/03/21 15:40:14.8   0.7                          T                                        5232067
CAF   003.49 051.9 m E Sn      2013/03/21 15:40:54.0   0.5                          T                4.6  .33 Ml 2.7         5232066
LFF   002.79 040.3 m E Sn      2013/03/21 15:40:36.9   0.1                          T                8.9  .31 Ml 2.7         5238361

.
EVENT     294467
    Date      Time       Latitude Longitude    Depth    Ndef Nsta Gap    Mag1  N    Mag2  N    Mag3  N   Author         ID
       rms   OT_Error      Smajor Sminor Az        Err   mdist  Mdist     Err        Err        Err      Quality

2013/03/21 15:45:12.8     42.7241   -1.7933      2.0      19    3 107  Ml 2.0  2  Md 2.3  1              bulletin    294567
                                                                                                         _ldg
      0.96   +-  0.33       6.4    4.4    3.09 +-  0.0    0.16   1.91   +-0.2      +-                    m i ke

PYRENEES
Sta     Dist  EvAz     Phase      Date       Time     TRes  Azim  AzRes  Slow  SRes Def   SNR       Amp   Per   Mag1   Mag2       ID
SJPF  000.57 046.8 m E Pg      2013/03/21 15:45:22.9  -0.8                          T                                Md 2.3  5232076
SJPF  000.57 046.8 m E Sg      2013/03/21 15:45:29.2  -1.9                          T                7.1  .30                5232077
ETSF  000.92 078.7 m E Pg      2013/03/21 15:45:31.2   1.0                          T                                        5232079
ETSF  000.92 078.7 m E Sg      2013/03/21 15:45:43.9   1.6                          T                3.3  .27 Ml 1.9         5232078
EPF   001.60 078.2 m E Pg      2013/03/21 15:45:43.0   0.4                          T                                        5232081
EPF   001.60 078.2 m E Sg      2013/03/21 15:46:03.3   0.1                          T                2.0  .20 Ml 2.1         5232080

.
EVENT     294471
    Date      Time       Latitude Longitude    Depth    Ndef Nsta Gap    Mag1  N    Mag2  N    Mag3  N   Author         ID
       rms   OT_Error      Smajor Sminor Az        Err   mdist  Mdist     Err        Err        Err      Quality

2013/03/21 16:13:52.9     42.7252   -1.9354      2.0      15    3 260  Ml 1.8  2  Md 1.9  1              bulletin    294571
                                                                                                         _ldg
      0.54   +-  0.51       7.4    4.9   64.34 +-  0.0    0.27   1.70   +-0.1      +-                    m i ke

PYRENEES
Sta     Dist  EvAz     Phase      Date       Time     TRes  Azim  AzRes  Slow  SRes Def   SNR       Amp   Per   Mag1   Mag2       ID
SJPF  000.65 053.1 m E Pg      2013/03/21 16:14:04.7  -0.5                          T                                        5232108
SJPF  000.65 053.1 m E Sg      2013/03/21 16:14:13.2  -0.5                          T                3.5  .25        Md 1.9  5232107
ETSF  001.03 079.8 m E Pg      2013/03/21 16:14:12.4   0.2                          T                                        5232106
ETSF  001.03 079.8 m E Sg      2013/03/21 16:14:24.5  -1.1                          T                1.6  .22 Ml 1.7         5232105
EPF   001.70 078.9 m E Pg      2013/03/21 16:14:25.4   0.8                          T                                        5232104
EPF   001.70 078.9 m E Sg      2013/03/21 16:14:45.7  -0.8                          T                1.1  .20 Ml 1.9         5232103

.
EVENT     294472
    Date      Time       Latitude Longitude    Depth    Ndef Nsta Gap    Mag1  N    Mag2  N    Mag3  N   Author         ID
       rms   OT_Error      Smajor Sminor Az        Err   mdist  Mdist     Err        Err        Err      Quality

2013/03/21 16:38:02.7     42.8420   -1.8758      2.0      18    3 106  Ml 2.0  2  Md 2.0  1              bulletin    294572
                                                                                                         _ldg
      0.37   +-  0.12       2.4    1.8    6.34 +-  0.0    0.23   2.03   +-0.3      +-                    m i ke

PYRENEES
Sta     Dist  EvAz     Phase      Date       Time     TRes  Azim  AzRes  Slow  SRes Def   SNR       Amp   Per   Mag1   Mag2       ID
SJPF  000.55 060.2 m E Pg      2013/03/21 16:38:13.0  -0.2                          T                                        5232114
SJPF  000.55 060.2 m E Sg      2013/03/21 16:38:20.2  -0.2                          T                6.8  .26        Md 2.0  5232113
ETSF  000.97 086.2 m E Pg      2013/03/21 16:38:21.5   0.4                          T                                        5232112
ETSF  000.97 086.2 m E Sg      2013/03/21 16:38:33.9   0.3                          T                3.3  .28 Ml 1.9         5232111
EPF   001.64 082.7 m E Pg      2013/03/21 16:38:33.3   0.0                          T                                        5232110
EPF   001.64 082.7 m E Sg      2013/03/21 16:38:54.3  -0.1                          T                2.8  .21 Ml 2.2         5232109

.
EVENT     294473
    Date      Time       Latitude Longitude    Depth    Ndef Nsta Gap    Mag1  N    Mag2  N    Mag3  N   Author         ID
       rms   OT_Error      Smajor Sminor Az        Err   mdist  Mdist     Err        Err        Err      Quality

2013/03/21 16:58:47.7     43.0296   -1.9189      2.0       6    3 343  Ml 2.1  2  Md 2.0  1              bulletin    294573
                                                                                                         _ldg
      0.73   +-  1.56      51.7   25.9  179.03 +-  0.0    0.52   1.66   +-0.3      +-                    m i ke

PYRENEES
Sta     Dist  EvAz     Phase      Date       Time     TRes  Azim  AzRes  Slow  SRes Def   SNR       Amp   Per   Mag1   Mag2       ID
SJPF  000.52 080.4 m E Pg      2013/03/21 16:58:56.8  -0.7                          T                                        5232303
SJPF  000.52 080.4 m E Sg      2013/03/21 16:59:05.7   1.3                          T               12.1  .28        Md 2.0  5232302
ETSF  001.01 097.0 m E Pg      2013/03/21 16:59:06.9   0.2                          T                                        5232301
ETSF  001.01 097.0 m E Sg      2013/03/21 16:59:18.5  -1.3                          T                3.6  .29 Ml 1.9         5232300
EPF   001.66 089.2 m E Pg      2013/03/21 16:59:19.0   0.3                          T                                        5232299
EPF   001.66 089.2 m E Sg      2013/03/21 16:59:39.6  -0.4                          T                4.6  .25 Ml 2.4         5232298

.
EVENT     294912
    Date      Time       Latitude Longitude    Depth    Ndef Nsta Gap    Mag1  N    Mag2  N    Mag3  N   Author         ID
       rms   OT_Error      Smajor Sminor Az        Err   mdist  Mdist     Err        Err        Err      Quality

2013/03/21 17:00:15.1     42.8315   -1.8201      2.0      43    8 101  Ml 2.6  8  Md 2.7  2              bulletin    295012
                                                                                                         _ldg
      0.74   +-  0.13       2.4    1.9  159.51 +-  0.0    0.19   4.32   +-0.2      +-0.1                 m i ke

PYRENEES
Sta     Dist  EvAz     Phase      Date       Time     TRes  Azim  AzRes  Slow  SRes Def   SNR       Amp   Per   Mag1   Mag2       ID
SJPF  000.52 057.0 m E Pg      2013/03/21 17:00:25.1   0.1                          T                                        5238422
SJPF  000.52 057.0 m E Sg      2013/03/21 17:00:31.9   0.0                          T               46.3  .40        Md 2.8  5238423
ETSF  000.93 085.4 m E Pg      2013/03/21 17:00:32.6  -0.1                          T                                        5238419
ETSF  000.93 085.4 m E Sg      2013/03/21 17:00:44.8   0.0                          T                                        5238420
ETSF  000.93 085.4 m E Sn      2013/03/21 17:00:46.7   0.0                          T               19.9  .31 Ml 2.6 Md 2.7  5238421
EPF   001.60 082.1 m E Pg      2013/03/21 17:00:44.8  -0.1                          T                                        5238417
EPF   001.60 082.1 m E Sg      2013/03/21 17:01:05.9   0.3                          T               11.9  .23 Ml 2.8         5238418
MTLF  003.00 078.9 m E Sn      2013/03/21 17:01:36.2   0.0                          T                3.6  .37 Ml 2.4         5238412
MTLF  003.00 078.9 m E Sg      2013/03/21 17:01:49.2  -0.1                          T                4.1  .45 Ml 2.4         5238413
LFF   002.80 040.4 m E Sg      2013/03/21 17:01:43.1  -0.1                          T                8.8  .34 Ml 2.6         5238415
RJF   003.45 043.1 m E Sn      2013/03/21 17:01:46.7  -0.2                          T                3.4  .28 Ml 2.3         5238416
CAF   003.50 052.0 m E Sn      2013/03/21 17:01:48.2   0.0                          T                4.5  .28 Ml 2.7         5238414
LASF  004.32 071.3 m E Sn      2013/03/21 17:02:07.8   0.2                          T                4.9  .42 Ml 2.8         5238411

.
