BEGIN GSE2.0
MSG_TYPE DATA
MSG_ID 30-MAR-1213:18:36  FRA_NDC
E-MAIL
DATA_TYPE BULLETIN
Reviewed Bulletin (REB) # P2012-012  from French NDC for regional phases     PERIOD 21 MAR 2012 TO 27 MAR 2012 S M., J-P S
EVENT     272173
    Date      Time       Latitude Longitude    Depth    Ndef Nsta Gap    Mag1  N    Mag2  N    Mag3  N   Author         ID
       rms   OT_Error      Smajor Sminor Az        Err   mdist  Mdist     Err        Err        Err      Quality

2012/03/21 01:22:48.4     43.4722    3.9391     15.0      27   13 168  Ml 2.1 13  Md 2.2  3              js067245    272193

      0.85   +-  0.09       1.9    1.2     .38 +-  0.0    0.61   3.34   +-0.3      +-0.0                 m i ke

NEAR SOUTH COAST OF FRANCE
Sta     Dist  EvAz     Phase      Date       Time     TRes  Azim  AzRes  Slow  SRes Def   SNR       Amp   Per   Mag1   Mag2       ID
LASF  000.61 354.4 m E Pg      2012/03/21 01:23:00.2   0.0                          T                                        4890311
LASF  000.61 354.4 m E Sg      2012/03/21 01:23:08.0  -0.3                          T                5.3  .20        Md 2.2  4890304
MTLF  001.26 264.6 m E Pg      2012/03/21 01:23:12.0  -0.1                          T                                        4890310
MTLF  001.26 264.6 m E Sn      2012/03/21 01:23:25.5  -0.1                          T                                        4894507
MTLF  001.26 264.6 m E Sg      2012/03/21 01:23:28.4  -0.2                          T                5.0  .36 Ml 2.1 Md 2.2  4890307
SMRF  001.29 066.4 m E Pg      2012/03/21 01:23:14.3   1.6                          T                                        4890303
SMRF  001.29 066.4 m E Sg      2012/03/21 01:23:29.3  -0.1                          T                  1  .25 Ml 1.5         4894508
VIVF  001.48 020.6 m E Pg      2012/03/21 01:23:16.5   0.3                          T                                        4890309
VIVF  001.48 020.6 m E Sg      2012/03/21 01:23:35.5   0.1                          T                6.3  .22 Ml 2.5 Md 2.2  4890308
LMR   001.88 093.3 m E Pn      2012/03/21 01:23:18.5   0.2                          T                                        4893874
LMR   001.88 093.3 m E Pg      2012/03/21 01:23:23.3  -0.1                          T                                        4890299
LMR   001.88 093.3 m E Sn      2012/03/21 01:23:40.9   0.6                          T                                        4890300
LMR   001.88 093.3 m E Sg      2012/03/21 01:23:48.5   0.8                          T                2.3  .25 Ml 2.2         4890301
FRF   001.97 086.5 m E Pg      2012/03/21 01:23:24.5  -0.6                          T                                        4890298
FRF   001.97 086.5 m E Sn      2012/03/21 01:23:42.7   0.2                          T                                        4894509
FRF   001.97 086.5 m E Sg      2012/03/21 01:23:50.5  -0.1                          T                2.2  .25 Ml 2.2         4890302
CAF   001.98 317.8 m E Pg      2012/03/21 01:23:25.3  -0.1                          T                                        4890295
CAF   001.98 317.8 m E Sg      2012/03/21 01:23:50.9  -0.1                          T                2.9  .28 Ml 2.2         4890296
EPF   002.67 261.7 m E Pg      2012/03/21 01:23:38.1   0.1                          T                                        4890305
EPF   002.67 261.7 m E Sg      2012/03/21 01:24:12.3   0.0                          T                1.8  .25 Ml 2.2         4890306
RJF   002.52 317.4 m E Sg      2012/03/21 01:24:08.0   0.1                          T                1.3  .21 Ml 1.8         4893878
LFF   002.73 303.6 m E Sg      2012/03/21 01:24:14.0  -0.2                          T                2.1  .33 Ml 2.0         4893875
SMF   003.17 358.8 m E Sg      2012/03/21 01:24:28.0  -0.1                          T                 .7  .24 Ml 1.9         4893877
BGF   003.18 346.3 m E Sg      2012/03/21 01:24:28.2  -0.1                          T                2.8  .43 Ml 2.3         4893871
AVF   003.34 353.1 m E Sg      2012/03/21 01:24:33.4   0.0                          T                 .4  .23 Ml 1.7         4893876

.
EVENT     272168
    Date      Time       Latitude Longitude    Depth    Ndef Nsta Gap    Mag1  N    Mag2  N    Mag3  N   Author         ID
       rms   OT_Error      Smajor Sminor Az        Err   mdist  Mdist     Err        Err        Err      Quality

2012/03/21 02:48:05.4     44.6423    7.2650      2.0      30    7 114  Ml 1.5  6  Md 1.5  2              js067245    272188

      0.41   +-  0.10       2.2    1.2   68.94 +-  0.0    0.14   1.49   +-0.3      +-0.1                 m i ke

NORTHERN ITALY
Sta     Dist  EvAz     Phase      Date       Time     TRes  Azim  AzRes  Slow  SRes Def   SNR       Amp   Per   Mag1   Mag2       ID
MBDF  000.36 283.7 m E Pg      2012/03/21 02:48:12.9   0.3                          T                                        4893893
MBDF  000.36 283.7 m E Sg      2012/03/21 02:48:17.4   0.0                          T               11.5  .24        Md 1.5  4893892
LPG   000.93 337.1 m E Pg      2012/03/21 02:48:22.7  -0.5                          T                                        4893889
LPG   000.93 337.1 m E Sg      2012/03/21 02:48:35.5   0.2                          T                  1  .29 Ml 1.3 Md 1.6  4893888
LPL   000.95 336.8 m E Pg      2012/03/21 02:48:23.6   0.0                          T                                        4893880
LPL   000.95 336.8 m E Sg      2012/03/21 02:48:35.9   0.0                          T                1.0  .27 Ml 1.4         4893881
ORIF  001.02 286.1 m E Pg      2012/03/21 02:48:25.4   0.7                          T                                        4893884
ORIF  001.02 286.1 m E Sg      2012/03/21 02:48:37.3  -0.7                          T                1.5  .33 Ml 1.5         4893885
FRF   001.17 202.6 m E Pg      2012/03/21 02:48:27.7   0.5                          T                                        4893891
FRF   001.17 202.6 m E Sg      2012/03/21 02:48:42.3  -0.1                          T                1.7  .22 Ml 1.8         4893887
LMR   001.42 202.9 m E Pg      2012/03/21 02:48:31.2  -0.6                          T                                        4893890
LMR   001.42 202.9 m E Sg      2012/03/21 02:48:50.4   0.3                          T                1.5  .23 Ml 1.8         4893886
SBF   000.79 171.0 m E Sg      2012/03/21 02:48:31.4   0.7                          T                1.2  .27                4893879

.
EVENT     272169
    Date      Time       Latitude Longitude    Depth    Ndef Nsta Gap    Mag1  N    Mag2  N    Mag3  N   Author         ID
       rms   OT_Error      Smajor Sminor Az        Err   mdist  Mdist     Err        Err        Err      Quality

2012/03/21 05:07:04.7     44.5133    6.6878      2.0      36    8 068  Ml 1.8  5  Md 2.0  1              js067245    272189

      0.64   +-  0.06       1.3     .9   63.32 +-  0.0    0.10   1.19   +-0.3      +-                    m i ke

FRANCE
Sta     Dist  EvAz     Phase      Date       Time     TRes  Azim  AzRes  Slow  SRes Def   SNR       Amp   Per   Mag1   Mag2       ID
MBDF  000.22 015.6 m E Pg      2012/03/21 05:07:09.4   0.1                          T                                        4893909
MBDF  000.22 015.6 m E Sg      2012/03/21 05:07:12.5   0.1                          T                4.1  .19        Md 2.0  4893901
ORIF  000.70 305.4 m E Pg      2012/03/21 05:07:17.9  -0.2                          T                                        4893908
ORIF  000.70 305.4 m E Sg      2012/03/21 05:07:27.0  -0.3                          T                5.8  .22                4893900
SBF   000.84 140.1 m E Pg      2012/03/21 05:07:20.6   0.0                          T                                        4893902
FRF   000.95 181.8 m E Pg      2012/03/21 05:07:22.7   0.1                          T                                        4893904
FRF   000.95 181.8 m E Sg      2012/03/21 05:07:35.1   0.1                          T                5.9  .26 Ml 2.2         4893897
LPG   000.99 002.6 m E Pg      2012/03/21 05:07:23.5  -0.1                          T                                        4893906
LPG   000.99 002.6 m E Sg      2012/03/21 05:07:36.2  -0.1                          T                1.7  .27 Ml 1.6         4893898
LPL   001.00 001.8 m E Pg      2012/03/21 05:07:23.8   0.0                          T                                        4893907
LPL   001.00 001.8 m E Sg      2012/03/21 05:07:35.7  -1.1                          T                1.9  .33 Ml 1.6         4893899
SMRF  000.96 236.5 m E Pn      2012/03/21 05:07:24.0   0.4                          T                                        4893905
SMRF  000.96 236.5 m E Sn      2012/03/21 05:07:37.7   0.6                          T                2.1  .27 Ml 1.7         4893895
LMR   001.19 186.3 m E Pg      2012/03/21 05:07:27.3   0.5                          T                                        4893903
LMR   001.19 186.3 m E Sg      2012/03/21 05:07:42.3   0.1                          T                4.6  .29 Ml 2.1         4893896

.
EVENT     272170
    Date      Time       Latitude Longitude    Depth    Ndef Nsta Gap    Mag1  N    Mag2  N    Mag3  N   Author         ID
       rms   OT_Error      Smajor Sminor Az        Err   mdist  Mdist     Err        Err        Err      Quality

2012/03/21 06:41:58.6     35.7679    -.6283      2.0     120   21 061  Ml 3.6  5                         js067245    272190

      1.17   +-  0.21       5.0    2.8  161.22 +-  0.0    0.50  12.71   +-0.1                            m i ke

NORTHERN ALGERIA
Sta     Dist  EvAz     Phase      Date       Time     TRes  Azim  AzRes  Slow  SRes Def   SNR       Amp   Per   Mag1   Mag2       ID
ETSF  007.12 000.4 m E Pn      2012/03/21 06:43:42.8   1.3                          T                                        4894149
ETSF  007.12 000.4 m E Sn      2012/03/21 06:44:56.8  -1.4                          T                6.5  .43 Ml 3.5         4894129
EPF   007.29 005.6 m E Pn      2012/03/21 06:43:44.3   0.5                          T                                        4894148
EPF   007.29 005.6 m E Sn      2012/03/21 06:45:00.8  -1.4                          T                6.2  .24 Ml 3.7         4894130
SJPF  007.35 356.6 m E Pn      2012/03/21 06:43:45.1   0.6                          T                                        4894150
SJPF  007.35 356.6 m E Sn      2012/03/21 06:45:02.8  -0.8                          T                5.2  .29 Ml 3.6         4894179
MTLF  007.88 015.3 m E Pn      2012/03/21 06:43:51.2  -0.4                          T                                        4894136
LASF  008.98 021.2 m E Pn      2012/03/21 06:44:06.9   0.2                          T                                        4894181
LFF   009.22 006.1 m E Pn      2012/03/21 06:44:09.7  -0.2                          T                                        4894146
CAF   009.37 011.8 m E Pn      2012/03/21 06:44:11.7  -0.3                          T                                        4894147
CAF   009.37 011.8 m E Sn      2012/03/21 06:45:51.2  -0.8                          T                4.0  .42 Ml 3.6         4894126
LMR   009.35 033.9 m E Pn      2012/03/21 06:44:12.5   0.9                          T                                        4894142
LMR   009.35 033.9 m E Sn      2012/03/21 06:45:49.3  -2.0                          T                6.5  .42 Ml 3.8         4894128
RJF   009.66 009.1 m E Pn      2012/03/21 06:44:15.3  -0.7                          T                                        4894131
SMRF  009.48 028.3 m E Pn      2012/03/21 06:44:15.3   1.8                          T                                        4894144
FRF   009.59 033.5 m E Pn      2012/03/21 06:44:17.2   2.2                          T                                        4894143
PGF   010.08 044.9 m E Pn      2012/03/21 06:44:23.8   2.0                          T                                        4894140
PGF   010.08 044.9 m E P       2012/03/21 06:44:29.6   1.9                          T                                        4894139
PGF   010.08 044.9 m E Sn      2012/03/21 06:46:12.1   3.2                          T                                        4894127
SBF   010.18 035.0 m E Pn      2012/03/21 06:44:25.8   2.7                          T                                        4894141
MBDF  010.58 030.0 m E Pn      2012/03/21 06:44:31.2   2.6                          T                                        4894180
MFF   010.83 001.8 m E Pn      2012/03/21 06:44:31.7  -0.2                          T                                        4894145
LPG   011.21 027.7 m E Pn      2012/03/21 06:44:39.9   2.4                          T                                        4894138
LPL   011.22 027.6 m E Pn      2012/03/21 06:44:40.3   2.8                          T                                        4894137
AVF   011.41 014.0 m E P       2012/03/21 06:44:46.4   0.7                          T                                        4894178
QUIF  012.28 352.0 m E Pn      2012/03/21 06:44:52.1   0.4                          T                                        4894135
SGMF  012.56 354.1 m E Pn      2012/03/21 06:44:55.2  -0.1                          T                                        4894132
ROSF  012.71 352.0 m E Pn      2012/03/21 06:44:58.9   1.4                          T                                        4894133

.
EVENT     272171
    Date      Time       Latitude Longitude    Depth    Ndef Nsta Gap    Mag1  N    Mag2  N    Mag3  N   Author         ID
       rms   OT_Error      Smajor Sminor Az        Err   mdist  Mdist     Err        Err        Err      Quality

2012/03/21 06:49:20.0     43.6778    3.4979       .0 f    19    7 215  Ml 2.2  8  Md 2.1  3              js067245    272191

      0.66   +-  0.20       3.9    2.0  141.91 +-  0.0    0.48   2.39   +-0.2      +-0.2                 m i km

NEAR SOUTH COAST OF FRANCE
Sta     Dist  EvAz     Phase      Date       Time     TRes  Azim  AzRes  Slow  SRes Def   SNR       Amp   Per   Mag1   Mag2       ID
LASF  000.48 033.0 m E Pg      2012/03/21 06:49:29.1  -0.3                          T                                        4894216
LASF  000.48 033.0 m E Sg      2012/03/21 06:49:35.8   0.0                          T                7.3  .24        Md 2.1  4894215
MTLF  000.99 250.6 m E Pg      2012/03/21 06:49:38.5  -0.3                          T                                        4894213
MTLF  000.99 250.6 m E Sg      2012/03/21 06:49:52.8   0.9                          T                7.1  .24 Ml 2.3 Md 1.9  4894214
VIVF  001.45 035.2 m E Pg      2012/03/21 06:49:47.5   0.2                          T                                        4894211
VIVF  001.45 035.2 m E Sg      2012/03/21 06:50:07.0   0.8                          T                3.3  .24 Ml 2.2 Md 2.2  4894212
CAF   001.62 321.0 m E Pg      2012/03/21 06:49:50.2  -0.2                          T                                        4894510
CAF   001.62 321.0 m E Sn      2012/03/21 06:50:08.6  -0.1                          T                4.4  .20 Ml 2.4         4894515
CAF   001.62 321.0 m E Sg      2012/03/21 06:50:11.7   0.2                          T                3.3  .27 Ml 2.2         4894514
RJF   002.16 319.6 m E Pn      2012/03/21 06:49:55.6   0.0                          T                                        4894513
RJF   002.16 319.6 m E Pg      2012/03/21 06:50:00.7   0.4                          T                                        4894512
RJF   002.16 319.6 m E Sn      2012/03/21 06:50:21.1  -0.5                          T                                        4894517
RJF   002.16 319.6 m E Sg      2012/03/21 06:50:28.9   0.6                          T                2.1  .30 Ml 1.8         4894518
LFF   002.35 303.5 m E Pg      2012/03/21 06:50:03.4  -0.4                          T                                        4894511
LFF   002.35 303.5 m E Sg      2012/03/21 06:50:34.4   0.2                          T                2.1  .28 Ml 2.0         4894516
EPF   002.39 255.4 m E Pg      2012/03/21 06:50:04.1  -0.6                          T                                        4894209
EPF   002.39 255.4 m E Sg      2012/03/21 06:50:35.7   0.0                          T                2.2  .24 Ml 2.2         4894210

.
EVENT     272172
    Date      Time       Latitude Longitude    Depth    Ndef Nsta Gap    Mag1  N    Mag2  N    Mag3  N   Author         ID
       rms   OT_Error      Smajor Sminor Az        Err   mdist  Mdist     Err        Err        Err      Quality

2012/03/21 07:11:00.7     44.5003    6.7048      2.0      38    8 067  Ml 1.9  5  Md 1.8  2              js067245    272192

      0.44   +-  0.06       1.3    1.1   57.01 +-  0.0    0.08   1.17   +-0.2      +-0.2                 m i ke

FRANCE
Sta     Dist  EvAz     Phase      Date       Time     TRes  Azim  AzRes  Slow  SRes Def   SNR       Amp   Per   Mag1   Mag2       ID
MBDF  000.23 011.8 m E Pg      2012/03/21 07:11:05.6   0.1                          T                                        4894419
MBDF  000.23 011.8 m E Sg      2012/03/21 07:11:08.7   0.0                          T               10.8  .28        Md 1.9  4894418
ORIF  000.72 305.7 m E Pg      2012/03/21 07:11:14.1  -0.4                          T                                        4894417
ORIF  000.72 305.7 m E Sg      2012/03/21 07:11:23.9   0.0                          T                4.2  .26        Md 1.7  4894410
SBF   000.83 140.2 m E Pg      2012/03/21 07:11:16.5   0.1                          T                                        4894411
SBF   000.83 140.2 m E Sg      2012/03/21 07:11:27.6   0.5                          T                4.7  .21                4894405
SMRF  000.97 237.5 m E Pg      2012/03/21 07:11:18.8  -0.1                          T                                        4894402
SMRF  000.97 237.5 m E Pn      2012/03/21 07:11:19.9   0.1                          T                                        4894413
SMRF  000.97 237.5 m E Sg      2012/03/21 07:11:32.2   0.7                          T                9.1  .42 Ml 2.1         4894408
FRF   000.94 182.6 m E Pn      2012/03/21 07:11:19.5   0.2                          T                                        4894412
FRF   000.94 182.6 m E Sn      2012/03/21 07:11:32.3  -0.2                          T                4.5  .24 Ml 2.1         4894407
LPG   001.00 001.9 m E Pg      2012/03/21 07:11:19.6  -0.2                          T                                        4894415
LPG   001.00 001.9 m E Sg      2012/03/21 07:11:32.9   0.1                          T                1.8  .24 Ml 1.7         4894409
LPL   001.02 001.1 m E Pg      2012/03/21 07:11:20.5   0.5                          T                                        4894414
LPL   001.02 001.1 m E Sg      2012/03/21 07:11:33.8   0.5                          T                1.9  .32 Ml 1.6         4894401
LMR   001.17 187.0 m E Pg      2012/03/21 07:11:23.4   0.8                          T                                        4894416
LMR   001.17 187.0 m E Sg      2012/03/21 07:11:38.7   0.8                          T                3.0  .28 Ml 1.9         4894406

.
