EVENT     284856
    Date      Time       Latitude Longitude    Depth    Ndef Nsta Gap    Mag1  N    Mag2  N    Mag3  N   Author         ID
       rms   OT_Error      Smajor Sminor Az        Err   mdist  Mdist     Err        Err        Err      Quality

2012/10/10 05:50:30.8     48.3747    7.7737     15.4      13    4 076  Ml 2.3  2  Md 2.0  2              bulletin    284956
                                                                                                         _ldg
      0.39   +-  0.06       1.2    1.1  174.18 +-  1.0    0.28   1.83   +-0.0      +-0.1                 m i ke

FRANCE
Sta     Dist  EvAz     Phase      Date       Time     TRes  Azim  AzRes  Slow  SRes Def   SNR       Amp   Per   Mag1   Mag2       ID
CDF   000.33 276.6 m E Pg      2012/10/10 05:50:37.5  -0.4                          T                                        5093721
CDF   000.33 276.6 m E Sg      2012/10/10 05:50:42.4  -0.4                          T                8.6  .22        Md 2.0  5093720
HINF  000.83 228.2 m E Pg      2012/10/10 05:50:47.0   0.2                          T                                        5093719
HINF  000.83 228.2 m E Sg      2012/10/10 05:50:57.8   0.0                          T               12.1  .30        Md 2.1  5093718
PAGF  001.38 278.3 m E Pg      2012/10/10 05:50:57.1   0.5 105.4  8.7               T                                        5093717
PAGF  001.38 278.3 m E Sg      2012/10/10 05:51:14.6   0.1                          T                3.6  .17 Ml 2.3         5093716
SFTF  001.83 265.7 m E Sg      2012/10/10 05:51:28.7   0.0                          T                3.4  .23 Ml 2.3         5096418

.
EVENT     284862
    Date      Time       Latitude Longitude    Depth    Ndef Nsta Gap    Mag1  N    Mag2  N    Mag3  N   Author         ID
       rms   OT_Error      Smajor Sminor Az        Err   mdist  Mdist     Err        Err        Err      Quality

2012/10/10 06:14:43.0     36.8809    4.3357     30.0     205   30 076  Ml 4.1 24                         bulletin    284962
                                                                                                         _ldg
      2.35   +-  0.26       6.9    5.1  166.66 +-  0.0    3.01  84.85   +-0.2                            m i ke

NORTHERN ALGERIA
Sta     Dist  EvAz     Phase      Date       Time     TRes  Azim  AzRes  Slow  SRes Def   SNR       Amp   Per   Mag1   Mag2       ID
LMR   006.66 013.8 m E Pn      2012/10/10 06:16:16.5  -0.4                          T   001.0                                5093581
LMR   006.66 013.8 m E Sn      2012/10/10 06:17:25.5  -1.7                          T                                        5093620
PGF   006.70 031.0 m E Pn      2012/10/10 06:16:16.8  -0.8                          T   001.0                                5093587
PGF   006.70 031.0 m E Sn      2012/10/10 06:17:26.0  -2.5                          T               27.7  .37 Ml 4.3         5093621
MTLF  006.65 346.5 m E Pn      2012/10/10 06:16:18.2   1.4                          T   001.0                                5093592
MTLF  006.65 346.5 m E Sn      2012/10/10 06:17:29.4   2.3                          T               59.1  .38 Ml 4.4         5093612
FRF   006.90 014.1 m E Pn      2012/10/10 06:16:20.7   0.5                          T   001.0                                5093576
FRF   006.90 014.1 m E Sn      2012/10/10 06:17:31.6  -1.5                          T   001.0       31.9  .33 Ml 4.3         5093577
EPF   006.86 334.7 m E Pn      2012/10/10 06:16:22.8   3.0                          T   001.0                                5093574
EPF   006.86 334.7 m E Sn      2012/10/10 06:17:34.6   2.3                          T   001.0       15.5  .24 Ml 4.0         5093575
LASF  007.20 357.2 m E Pn      2012/10/10 06:16:24.4   0.2                          T   001.0                                5093578
LASF  007.20 357.2 m E Sn      2012/10/10 06:17:40.1  -0.1                          T               34.5  .42 Ml 4.2         5093613
SMRF  007.15 007.2 m E Pn      2012/10/10 06:16:24.6   1.0                          T   001.0                                5093598
SMRF  007.15 007.2 m E Sn      2012/10/10 06:17:41.3   2.3                          T               18.8  .51 Ml 3.8         5093619
SBF   007.36 017.8 m E Pn      2012/10/10 06:16:25.9  -0.7                          T   001.0                                5093588
SBF   007.36 017.8 m E Sn      2012/10/10 06:17:42.9  -1.4                          T   001.0       65.8  .51 Ml 4.4         5093589
ETSF  007.09 329.5 m E Pn      2012/10/10 06:16:26.0   3.2                          T   001.0                                5093591
ETSF  007.09 329.5 m E Sn      2012/10/10 06:17:39.6   1.9                          T               21.0  .41 Ml 4.0         5093611
MBDF  008.05 012.5 m E Pn      2012/10/10 06:16:32.8  -3.3                          T                                        5093615
MBDF  008.05 012.5 m E Sn      2012/10/10 06:18:00.6  -0.2                          T                                        5093614
SJPF  007.55 327.3 m E Pn      2012/10/10 06:16:32.9   3.9                          T   001.0                                5093595
SJPF  007.55 327.3 m E Sn      2012/10/10 06:17:51.5   3.0                          T               12.9  .35 Ml 3.9         5093610
VIVF  007.97 001.7 m E Pn      2012/10/10 06:16:35.1   0.3                          T   001.0                                5093596
VIVF  007.97 001.7 m E Sn      2012/10/10 06:17:59.8   1.1                          T   001.0       22.8  .33 Ml 4.3         5093597
ORIF  008.11 007.8 m E Pn      2012/10/10 06:16:37.9   1.0                          T                                        5093616
ORIF  008.11 007.8 m E Sn      2012/10/10 06:18:03.8   1.6                          T                                        5093617
CAF   008.22 348.6 m E Pn      2012/10/10 06:16:39.7   1.5                          T   001.0                                5093573
CAF   008.22 348.6 m E Sn      2012/10/10 06:18:06.2   1.6                          T               21.5  .47 Ml 4.1         5093609
LFF   008.50 342.5 m E Pn      2012/10/10 06:16:44.9   3.0                          T   001.0                                5093580
LFF   008.50 342.5 m E Sn      2012/10/10 06:18:13.6   2.4                          T               27.2  .45 Ml 4.1         5093608
RJF   008.68 346.7 m E Pn      2012/10/10 06:16:46.4   2.0                          T                                        5093607
RJF   008.68 346.7 m E Sn      2012/10/10 06:18:18.0   2.5                          T   001.0       22.6  .44 Ml 3.9         5093571
LPG   008.80 011.2 m E Pn      2012/10/10 06:16:48.1   1.8                          T   001.0                                5093582
LPG   008.80 011.2 m E Sn      2012/10/10 06:18:20.3   1.5                          T   001.0       14.8  .52 Ml 4.0         5093583
LPL   008.81 011.1 m E Pn      2012/10/10 06:16:48.7   2.2                          T   001.0                                5093584
LPL   008.81 011.1 m E Sn      2012/10/10 06:18:20.7   1.6                          T                                        5093618
BGF   009.73 353.9 m E Pn      2012/10/10 06:17:00.3   1.6                          T                                        5093606
BGF   009.73 353.9 m E Sn      2012/10/10 06:18:43.6   2.9                          T   001.0       24.8  .52 Ml 4.4         5093572
SSF   010.19 356.8 m E Pn      2012/10/10 06:17:05.8   0.9                          T                                        5093603
SSF   010.19 356.8 m E Sn      2012/10/10 06:18:53.2   1.5                          T               12.8  .66 Ml 4.1         5093602
MFF   010.27 342.4 m E Pn      2012/10/10 06:17:07.0   2.0                          T   001.0                                5093585
MFF   010.27 342.4 m E Sn      2012/10/10 06:18:56.4   2.8                          T   001.0       18.8  .57 Ml 4.5         5093586
LOR   010.39 358.2 m E Pn      2012/10/10 06:17:08.3   0.6                          T                                        5093601
LOR   010.39 358.2 m E Sn      2012/10/10 06:18:58.7   2.4                          T                3.0  .36 Ml 3.7         5093600
HINF  011.09 008.9 m E Pn      2012/10/10 06:17:19.0   1.8                          T                                        5093622
CDF   011.72 009.7 m E Pn      2012/10/10 06:17:26.4   0.4                          T                                        5093626
CDF   011.72 009.7 m E Sn      2012/10/10 06:19:28.7   0.3                          T                1.1  .24 Ml 3.7         5093625
PAGF  011.71 004.6 m E Pn      2012/10/10 06:17:27.8   2.1                          T                                        5093624
PAGF  011.71 004.6 m E Sn      2012/10/10 06:19:28.7   0.7                          T               11.1  .53 Ml 4.3         5093623
LDF   012.15 345.8 m E Pn      2012/10/10 06:17:33.5   1.8                          T   001.0                                5093579
QUIF  012.34 335.7 m E Pn      2012/10/10 06:17:35.7   1.6                          T   001.0                                5093593
QUIF  012.34 335.7 m E Sn      2012/10/10 06:19:45.3   2.4                          T                3.4  .36 Ml 4.0         5093599
FLN   012.39 345.0 m E Pn      2012/10/10 06:17:36.4   1.5                          T                                        5093604
SGMF  012.44 338.1 m E Pn      2012/10/10 06:17:37.4   1.8                          T                                        5093605
ROSF  012.74 336.4 m E Pn      2012/10/10 06:17:41.6   2.0                          T   001.0                                5093594

.
EVENT     284853
    Date      Time       Latitude Longitude    Depth    Ndef Nsta Gap    Mag1  N    Mag2  N    Mag3  N   Author         ID
       rms   OT_Error      Smajor Sminor Az        Err   mdist  Mdist     Err        Err        Err      Quality

2012/10/10 07:26:54.8     37.1004    4.2255     30.0      62   13 218  Ml 3.2 15                         bulletin    284953
                                                                                                         _ldg
      1.25   +-  0.40       8.6    4.4  142.60 +-  0.0    2.98   8.70   +-0.4                            m i ke

WESTERN MEDITERRANEAN SEA
Sta     Dist  EvAz     Phase      Date       Time     TRes  Azim  AzRes  Slow  SRes Def   SNR       Amp   Per   Mag1   Mag2       ID
LMR   006.47 015.0 m E Pn      2012/10/10 07:28:25.8  -0.2                          T                                        5093663
LMR   006.47 015.0 m E Sn      2012/10/10 07:29:36.2   1.7                          T                1.8  .17 Ml 3.2         5093662
MTLF  006.42 346.8 m E Pn      2012/10/10 07:28:26.4   0.9                          T                                        5093653
MTLF  006.42 346.8 m E Sn      2012/10/10 07:29:35.8   2.4                          T                9.5  .39 Ml 3.6         5093652
PGF   006.56 032.5 m E Pn      2012/10/10 07:28:26.8  -0.8                          T                                        5093649
PGF   006.56 032.5 m E Sn      2012/10/10 07:29:37.9   0.9                          T                2.3  .23 Ml 3.4         5093648
FRF   006.71 015.2 m E Pn      2012/10/10 07:28:29.2  -0.2                          T                                        5093661
FRF   006.71 015.2 m E Sn      2012/10/10 07:29:41.9   1.6                          T                4.3  .26 Ml 3.5         5093660
EPF   006.63 334.5 m E Pn      2012/10/10 07:28:29.5   1.2                          T                                        5093651
EPF   006.63 334.5 m E Sn      2012/10/10 07:29:42.7   4.3                          T                2.2  .22 Ml 3.2         5093650
ETSF  006.86 329.1 m E Pn      2012/10/10 07:28:32.3   0.9                          T                                        5093707
ETSF  006.86 329.1 m E Sn      2012/10/10 07:29:46.7   2.8                          T                4.1  .37 Ml 3.3         5093706
SMRF  006.94 008.1 m E Pn      2012/10/10 07:28:32.6   0.0                          T                                        5093659
SMRF  006.94 008.1 m E Sn      2012/10/10 07:29:47.3   1.4                          T                 .4  .16 Ml 2.6         5093658
LASF  006.97 357.8 m E Pn      2012/10/10 07:28:33.5   0.5                          T                                        5093656
LASF  006.97 357.8 m E Sn      2012/10/10 07:29:48.4   1.8                          T                4.6  .36 Ml 3.4         5093657
SBF   007.18 018.9 m E Pn      2012/10/10 07:28:35.0  -0.9                          T                                        5093665
SBF   007.18 018.9 m E Sn      2012/10/10 07:29:52.4   0.7                          T                7.2  .28 Ml 3.7         5093664
SJPF  007.31 326.9 m E Pn      2012/10/10 07:28:38.0   0.4                          T                                        5093705
SJPF  007.31 326.9 m E Sn      2012/10/10 07:29:57.4   2.6                          T                 .5  .24 Ml 2.6         5093704
VIVF  007.76 002.4 m E Pn      2012/10/10 07:28:42.9  -0.7                          T                                        5093655
VIVF  007.76 002.4 m E Sn      2012/10/10 07:30:08.6   3.3                          T                3.1  .35 Ml 3.3         5093654
MBDF  007.86 013.4 m E Pn      2012/10/10 07:28:45.0  -0.2                          T                                        5093711
MBDF  007.86 013.4 m E Sn      2012/10/10 07:30:09.2   1.2                          T                 .3  .21 Ml 2.6         5093710
ORIF  007.91 008.6 m E Pn      2012/10/10 07:28:45.8  -0.1                          T                                        5093709
ORIF  007.91 008.6 m E Sn      2012/10/10 07:30:11.3   2.2                          T                1.3  .21 Ml 3.2         5093708

.
EVENT     284872
    Date      Time       Latitude Longitude    Depth    Ndef Nsta Gap    Mag1  N    Mag2  N    Mag3  N   Author         ID
       rms   OT_Error      Smajor Sminor Az        Err   mdist  Mdist     Err        Err        Err      Quality

2012/10/10 08:34:39.2     44.5541    8.4355       .0 f    24    6 149  Ml 2.0  7  Md 1.9  1              bulletin    284972
                                                                                                         _ldg
      0.27   +-  0.09       1.5    1.3   28.18 +-  0.0    0.08   2.13   +-0.2      +-                    m i km

NORTHERN ITALY
Sta     Dist  EvAz     Phase      Date       Time     TRes  Azim  AzRes  Slow  SRes Def   SNR       Amp   Per   Mag1   Mag2       ID
SBF   001.00 226.5 m E Pg      2012/10/10 08:34:58.4   0.1                          T                                        5093846
SBF   001.00 226.5 m E Sg      2012/10/10 08:35:11.5   0.1                          T                8.8  .31 Ml 2.3 Md 1.9  5093845
MBDF  001.20 278.9 m E Pg      2012/10/10 08:35:01.6  -0.5                          T                                        5093844
MBDF  001.20 278.9 m E Sg      2012/10/10 08:35:18.2   0.4                          T                4.2  .29 Ml 2.1         5093843
FRF   001.63 233.0 m E Pg      2012/10/10 08:35:09.6  -0.1                          T                                        5093852
FRF   001.63 233.0 m E Sg      2012/10/10 08:35:31.2   0.2                          T                3.8  .27 Ml 2.3         5093851
LMR   001.85 229.4 m E Pn      2012/10/10 08:35:10.0   0.4                          T                                        5093848
LMR   001.85 229.4 m E Sg      2012/10/10 08:35:38.0   0.1                          T                1.2  .22 Ml 1.9         5093847
SMRF  002.13 255.3 m E Pn      2012/10/10 08:35:14.5   0.0                          T                                        5093850
SMRF  002.13 255.3 m E Sn      2012/10/10 08:35:39.9  -0.4                          T                 .5  .14 Ml 1.8         5093849
LPL   001.54 309.1 m E Sg      2012/10/10 08:35:28.4  -0.3                          T                2.0  .24 Ml 2.0         5096420

.
EVENT     284889
    Date      Time       Latitude Longitude    Depth    Ndef Nsta Gap    Mag1  N    Mag2  N    Mag3  N   Author         ID
       rms   OT_Error      Smajor Sminor Az        Err   mdist  Mdist     Err        Err        Err      Quality

2012/10/10 10:03:53.4     43.9290    7.1939       .0 f    30    7 093  Ml 1.7  4  Md 1.9  2              bulletin    284989
                                                                                                         _ldg
      0.27   +-  0.05       1.1     .9   24.92 +-  0.0    0.16   1.62   +-0.4      +-0.1                 m i km

NEAR SOUTH COAST OF FRANCE
Sta     Dist  EvAz     Phase      Date       Time     TRes  Azim  AzRes  Slow  SRes Def   SNR       Amp   Per   Mag1   Mag2       ID
SBF   000.19 110.6 m E Pg      2012/10/10 10:03:57.6   0.1                          T                                        5094877
SBF   000.19 110.6 m E Sg      2012/10/10 10:04:00.2   0.0                          T               44.6  .50        Md 2.0  5094890
FRF   000.54 227.3 m E Pg      2012/10/10 10:04:03.8  -0.1                          T                                        5094889
FRF   000.54 227.3 m E Sg      2012/10/10 10:04:11.0  -0.2                          T                4.6  .23        Md 1.8  5094888
LMR   000.78 220.1 m E Pg      2012/10/10 10:04:08.1  -0.1                          T                                        5094881
LMR   000.78 220.1 m E Sg      2012/10/10 10:04:18.4  -0.1                          T                4.9  .27                5094880
MBDF  000.85 339.3 m E Pg      2012/10/10 10:04:10.1   0.2                          T                                        5094885
MBDF  000.85 339.3 m E Sg      2012/10/10 10:04:21.3   0.1                          T                2.0  .22                5094884
SMRF  001.17 272.9 m E Pg      2012/10/10 10:04:15.8   0.2                          T                                        5094876
SMRF  001.17 272.9 m E Sg      2012/10/10 10:04:31.3   0.3                          T                7.5  .26 Ml 2.4         5094875
ORIF  001.37 316.9 m E Pn      2012/10/10 10:04:18.6   0.3                          T                                        5094879
ORIF  001.37 316.9 m E Pg      2012/10/10 10:04:20.2   1.0                          T                                        5094874
ORIF  001.37 316.9 m E Sn      2012/10/10 10:04:36.4   0.2                          T                                        5094878
ORIF  001.37 316.9 m E Sg      2012/10/10 10:04:37.8   0.7                          T                 .7  .17 Ml 1.6         5094873
LPL   001.62 348.5 m E Pg      2012/10/10 10:04:24.2   0.1                          T                                        5094887
LPL   001.62 348.5 m E Sg      2012/10/10 10:04:45.3   0.1                          T                 .4  .24 Ml 1.4         5094886

.
