EVENT     255222
    Date      Time       Latitude Longitude    Depth    Ndef Nsta Gap    Mag1  N    Mag2  N    Mag3  N   Author         ID
       rms   OT_Error      Smajor Sminor Az        Err   mdist  Mdist     Err        Err        Err      Quality

2011/01/26 14:59:52.6     44.3051    7.2432      2.0      16    8 178  Ml 1.9  6  Md 1.8  3              js067245    255242

      0.13   +-  0.06       1.5     .7   85.84 +-  0.0    0.46   1.26   +-0.3      +-0.1                 m i ke

NORTHERN ITALY
Sta     Dist  EvAz     Phase      Date       Time     TRes  Azim  AzRes  Slow  SRes Def   SNR       Amp   Per   Mag1   Mag2       ID
SBF   000.46 162.5 m E Pg      2011/01/26 15:00:01.5  -0.1                          T                                        4638313
SBF   000.46 162.5 m E Sg      2011/01/26 15:00:06.2  -1.5                          T               19.4  .36        Md 1.8  4638309
MBDF  000.54 321.5 m E Pg      2011/01/26 15:00:03.2   0.1                          T                                        4638316
MBDF  000.54 321.5 m E Sg      2011/01/26 15:00:10.0  -0.2                          T                6.5  .24        Md 1.7  4638312
FRF   000.86 210.3 m E Pg      2011/01/26 15:00:08.9   0.1                          T                                        4638315
FRF   000.86 210.3 m E Sg      2011/01/26 15:00:20.1   0.1                          T                5.1  .22 Ml 2.2 Md 1.8  4638311
LMR   001.11 208.9 m E Pg      2011/01/26 15:00:13.2  -0.1                          T                                        4638314
LMR   001.11 208.9 m E Sg      2011/01/26 15:00:27.5  -0.2                          T                3.3  .20 Ml 2.1         4638310
ORIF  001.15 302.7 m E Pg      2011/01/26 15:00:14.1  -0.2                          T                                        4638321
ORIF  001.15 302.7 m E Sg      2011/01/26 15:00:29.1  -0.1                          T                2.6  .31 Ml 1.8         4638317
SMRF  001.25 255.3 m E Pg      2011/01/26 15:00:16.0   0.1                          T                                        4638324
SMRF  001.25 255.3 m E Sg      2011/01/26 15:00:32.1   0.1                          T                3.3  .29 Ml 2.0         4638320
LPL   001.26 343.5 m E Pg      2011/01/26 15:00:16.3  -0.2                          T                                        4638322
LPL   001.26 343.5 m E Sg      2011/01/26 15:00:32.9   0.0                          T                1.8  .24 Ml 1.8         4638318
LPG   001.24 343.8 m E Pg      2011/01/26 15:00:16.4   0.2                          T                                        4638323
LPG   001.24 343.8 m E Sg      2011/01/26 15:00:32.3   0.1                          T                 .6  .17 Ml 1.5         4638319

.
EVENT     255223
    Date      Time       Latitude Longitude    Depth    Ndef Nsta Gap    Mag1  N    Mag2  N    Mag3  N   Author         ID
       rms   OT_Error      Smajor Sminor Az        Err   mdist  Mdist     Err        Err        Err      Quality

2011/01/26 18:15:04.6     45.0138    3.2273      2.0     126   35 031  Ml 3.1 38  Md 3.0  3              js067245    255243

      0.67   +-  0.04        .8     .7  119.93 +-  0.0    0.22   6.31   +-0.3      +-0.0                 m i ke

FRANCE
Sta     Dist  EvAz     Phase      Date       Time     TRes  Azim  AzRes  Slow  SRes Def   SNR       Amp   Per   Mag1   Mag2       ID
CAF   000.83 264.3 m E Pg      2011/01/26 18:15:20.0  -0.3                          T                                        4639460
CAF   000.83 264.3 m E Pn      2011/01/26 18:15:20.9  -0.8                          T                                        4638762
CAF   000.83 264.3 m E Sg      2011/01/26 18:15:30.7  -0.4                          T              127.8  .26        Md 3.0  4638701
LASF  001.04 154.1 m E Pg      2011/01/26 18:15:24.0  -0.1                          T                                        4639459
LASF  001.04 154.1 m E Pn      2011/01/26 18:15:24.8   0.2                          T                                        4638766
LASF  001.04 154.1 m E Sg      2011/01/26 18:15:37.4  -0.2                          T               89.4  .30 Ml 3.3 Md 2.9  4638697
VIVF  001.04 098.2 m E Pg      2011/01/26 18:15:24.1   0.0                          T                                        4639458
VIVF  001.04 098.2 m E Pn      2011/01/26 18:15:24.5  -0.1                          T                                        4638765
VIVF  001.04 098.2 m E Sg      2011/01/26 18:15:37.7   0.1                          T              201.8  .25 Ml 3.7 Md 3.0  4638696
RJF   001.24 284.1 m E Pn      2011/01/26 18:15:27.4   0.0                          T                                        4638763
RJF   001.24 284.1 m E Pg      2011/01/26 18:15:28.0   0.1                          T                                        4639461
RJF   001.24 284.1 m E Sg      2011/01/26 18:15:43.7  -0.3                          T              129.9  .24 Ml 3.3         4638703
TCF   001.46 331.1 m E Pn      2011/01/26 18:15:30.3  -0.1                          T                                        4638732
TCF   001.46 331.1 m E Pg      2011/01/26 18:15:32.2   0.3                          T                                        4638757
TCF   001.46 331.1 m E Sg      2011/01/26 18:15:50.8   0.1                          T               54.6  .30 Ml 3.3         4638673
BGF   001.57 350.3 m E Pn      2011/01/26 18:15:31.6  -0.1                          T                                        4638722
BGF   001.57 350.3 m E Pg      2011/01/26 18:15:34.0   0.1                          T                                        4638760
BGF   001.57 350.3 m E Sg      2011/01/26 18:15:54.3   0.2                          T              181.6  .22 Ml 4.0         4638686
SMF   001.69 014.5 m E Pn      2011/01/26 18:15:33.0  -0.4                          T                                        4638723
SMF   001.69 014.5 m E Pg      2011/01/26 18:15:35.5  -0.5                          T                                        4638759
SMF   001.69 014.5 m E Sg      2011/01/26 18:15:57.7  -0.2                          T               73.3  .19 Ml 3.7         4638684
LFF   001.77 268.5 m E Pn      2011/01/26 18:15:34.1  -0.3                          T                                        4638720
LFF   001.77 268.5 m E Pg      2011/01/26 18:15:37.4   0.0                          T                                        4638744
LFF   001.77 268.5 m E Sg      2011/01/26 18:15:59.8  -0.5                          T               99.2  .22 Ml 3.6         4638702
AVF   001.78 002.8 m E Pn      2011/01/26 18:15:34.4  -0.2                          T                                        4638724
AVF   001.78 002.8 m E Pg      2011/01/26 18:15:37.6  -0.1                          T                                        4638758
AVF   001.78 002.8 m E Sg      2011/01/26 18:16:00.8   0.1                          T               37.0  .24 Ml 3.3         4638683
ORIF  001.89 092.0 m E Pn      2011/01/26 18:15:36.2   0.0                          T                                        4638859
ORIF  001.89 092.0 m E Pg      2011/01/26 18:15:40.0   0.2                          T                                        4638740
ORIF  001.89 092.0 m E Sg      2011/01/26 18:16:04.4   0.3                          T               34.0  .54 Ml 3.0         4638694
SMRF  001.97 120.9 m E Pn      2011/01/26 18:15:37.1  -0.3                          T                                        4638714
SMRF  001.97 120.9 m E Pg      2011/01/26 18:15:41.7   0.3                          T                                        4638737
SMRF  001.97 120.9 m E Sg      2011/01/26 18:16:06.7  -0.1                          T               23.8  .36 Ml 3.0         4638691
MTLF  001.82 203.8 m E Pg      2011/01/26 18:15:38.0  -0.5                          T                                        4638764
MTLF  001.82 203.8 m E Sg      2011/01/26 18:16:01.5  -0.6                          T               27.9  .20 Ml 3.3         4638698
SSF   002.06 005.3 m E Pg      2011/01/26 18:15:42.9   0.1                          T                                        4638755
SSF   002.06 005.3 m E Sg      2011/01/26 18:16:09.5   0.2                          T               32.7  .22 Ml 3.5         4638672
CABF  002.56 050.4 m E Pn      2011/01/26 18:15:43.9  -1.5                          T                                        4638725
CABF  002.56 050.4 m E Pg      2011/01/26 18:15:51.9  -0.4                          T                                        4638747
CABF  002.56 050.4 m E Sg      2011/01/26 18:16:25.6   0.5                          T               11.7  .36 Ml 2.8         4638682
LOR   002.30 010.8 m E P       2011/01/26 18:15:44.3   0.2 192.7  1.5               T                                        4638733
LOR   002.30 010.8 m E Pg      2011/01/26 18:15:47.4   0.1 194.7  3.5               T                                        4638756
LOR   002.30 010.8 m E Sg      2011/01/26 18:16:17.1   0.2 195.6  4.3               T               23.5  .22 Ml 3.3         4638671
MBDF  002.54 095.2 m E Pn      2011/01/26 18:15:45.1  -0.1                          T                                        4638717
MBDF  002.54 095.2 m E Pg      2011/01/26 18:15:51.4  -0.4                          T                                        4638741
MBDF  002.54 095.2 m E Sg      2011/01/26 18:16:24.7   0.2                          T               11.9  .42 Ml 2.8         4638695
LPL   002.53 077.3 m E Pn      2011/01/26 18:15:45.2   0.1                          T                                        4638716
LPL   002.53 077.3 m E Pg      2011/01/26 18:15:51.9   0.2                          T                                        4638739
LPL   002.53 077.3 m E Sg      2011/01/26 18:16:24.5   0.3                          T               13.3  .28 Ml 3.0         4638693
LPG   002.54 077.8 m E Pn      2011/01/26 18:15:46.0   0.7                          T                                        4638715
LPG   002.54 077.8 m E Pg      2011/01/26 18:15:52.5   0.4                          T                                        4638738
LPG   002.54 077.8 m E Sg      2011/01/26 18:16:24.6   0.0                          T               17.5  .34 Ml 3.0         4638692
HYF   002.29 349.9 m E Pg      2011/01/26 18:15:47.1  -0.1                          T                                        4638746
HYF   002.29 349.9 m E Sg      2011/01/26 18:16:16.7   0.0                          T                                        4638685
MFF   002.84 305.2 m E Pn      2011/01/26 18:15:47.9  -1.2                          T                                        4638721
MFF   002.84 305.2 m E Pg      2011/01/26 18:15:57.2  -0.1                          T                                        4638745
MFF   002.84 305.2 m E Sg      2011/01/26 18:16:33.7  -0.2                          T               20.3  .39 Ml 3.3         4638704
EPF   002.88 227.4 m E Pn      2011/01/26 18:15:48.8  -0.9                          T                                        4638718
EPF   002.88 227.4 m E Pg      2011/01/26 18:15:57.5  -0.5                          T                                        4638742
EPF   002.88 227.4 m E Sg      2011/01/26 18:16:34.2  -0.7                          T               13.3  .26 Ml 3.1         4638699
FRF   002.85 119.4 m E Pn      2011/01/26 18:15:49.4   0.1                          T                                        4638713
FRF   002.85 119.4 m E Pg      2011/01/26 18:15:57.0  -0.5                          T                                        4638736
FRF   002.85 119.4 m E Sg      2011/01/26 18:16:34.2   0.0                          T                9.8  .42 Ml 2.8         4638690
LMR   002.90 124.3 m E Pn      2011/01/26 18:15:49.8  -0.1                          T                                        4638712
LMR   002.90 124.3 m E Pg      2011/01/26 18:15:57.5  -0.8                          T                                        4638735
LMR   002.90 124.3 m E Sg      2011/01/26 18:16:35.4  -0.1                          T                4.8  .30 Ml 2.6         4638689
SBF   003.23 109.4 m E Pn      2011/01/26 18:15:54.5   0.1                          T                                        4638711
SBF   003.23 109.4 m E Pg      2011/01/26 18:16:03.7  -0.7                          T                                        4638734
SBF   003.23 109.4 m E Sg      2011/01/26 18:16:46.0   0.1                          T                7.1  .36 Ml 2.8         4638688
ETSF  003.46 233.6 m E Pn      2011/01/26 18:15:57.0  -0.5                          T                                        4638719
ETSF  003.46 233.6 m E Pg      2011/01/26 18:16:08.7   0.0                          T                                        4638743
ETSF  003.46 233.6 m E Sg      2011/01/26 18:16:52.4  -0.7                          T               12.9  .54 Ml 2.9         4638700
SFTF  003.43 020.7 m E Pn      2011/01/26 18:15:57.2   0.1                          T                                        4638729
SFTF  003.43 020.7 m E Pg      2011/01/26 18:16:08.3   0.3                          T                                        4638751
SFTF  003.43 020.7 m E Sg      2011/01/26 18:16:52.5   0.3                          T               25.6  .46 Ml 3.3         4638678
HAU   003.69 034.6 m E Pn      2011/01/26 18:16:00.8   0.1                          T                                        4638727
HAU   003.69 034.6 m E Pg      2011/01/26 18:16:13.0   0.1                          T                                        4638749
HAU   003.69 034.6 m E Sg      2011/01/26 18:17:00.5   0.2                          T               10.6  .30 Ml 2.9         4638680
MEZF  003.71 019.1 m E Pn      2011/01/26 18:16:01.1   0.2                          T                                        4638730
MEZF  003.71 019.1 m E Pg      2011/01/26 18:16:13.3   0.0 200.0  -0.4              T                                        4638752
MEZF  003.71 019.1 m E Sg      2011/01/26 18:17:01.2   0.4                          T               32.0  .52 Ml 3.4         4638677
THEF  003.74 029.7 m E Pn      2011/01/26 18:16:01.7   0.3                          T                                        4638728
HINF  003.76 040.5 m E Pn      2011/01/26 18:16:01.7   0.0                          T                                        4638726
THEF  003.74 029.7 m E Pg      2011/01/26 18:16:13.9   0.1                          T                                        4638750
HINF  003.76 040.5 m E Pg      2011/01/26 18:16:14.4   0.1                          T                                        4638748
THEF  003.74 029.7 m E Sg      2011/01/26 18:17:02.1   0.3                          T               16.3  .35 Ml 3.3         4638679
HINF  003.76 040.5 m E Sg      2011/01/26 18:17:03.0   0.4                          T                5.5  .27 Ml 2.9         4638681
PAGF  003.94 024.9 m E Pn      2011/01/26 18:16:03.9  -0.1 209.2  2.4               T                                        4638731
PAGF  003.94 024.9 m E Pg      2011/01/26 18:16:17.5   0.1 209.9  3.2               T                                        4638754
PAGF  003.94 024.9 m E Sg      2011/01/26 18:17:08.3   0.4                          T                2.9  .37 Ml 2.5         4638676
LDF   004.26 328.5 m E Pn      2011/01/26 18:16:08.4   0.1                          T                                        4638709
LDF   004.26 328.5 m E Sg      2011/01/26 18:17:17.7  -0.2                          T                3.8  .30 Ml 2.8         4638706
GRR   004.39 321.7 m E Pn      2011/01/26 18:16:09.9  -0.3                          T                                        4638708
GRR   004.39 321.7 m E Sg      2011/01/26 18:17:22.1  -0.1                          T                5.5  .33 Ml 2.8         4638705
CDF   004.39 037.9 m E Pn      2011/01/26 18:16:10.4   0.0                          T                                        4638674
CDF   004.39 037.9 m E Pg      2011/01/26 18:16:26.2   0.2                          T                                        4638753
CDF   004.39 037.9 m E Sg      2011/01/26 18:17:22.6   0.2                          T                5.4  .46 Ml 2.9         4638675
FLN   004.53 327.2 m E Pn      2011/01/26 18:16:11.1  -1.0 146.4  1.9               T                                        4638710
FLN   004.53 327.2 m E Sg      2011/01/26 18:17:26.1  -0.4 159.9  15.5              T                4.7  .30 Ml 2.8         4638707

.
EVENT     255224
    Date      Time       Latitude Longitude    Depth    Ndef Nsta Gap    Mag1  N    Mag2  N    Mag3  N   Author         ID
       rms   OT_Error      Smajor Sminor Az        Err   mdist  Mdist     Err        Err        Err      Quality

2011/01/26 19:53:25.6     42.2932    9.5833     18.7      10    4 340  Ml 1.8  3  Md 1.9  1              js067245    255244

      0.46   +-  0.33       5.5    4.6  119.77 +-  0.9    0.50   2.50   +-0.3      +-                    m i ke

CORSICA, FRANCE
Sta     Dist  EvAz     Phase      Date       Time     TRes  Azim  AzRes  Slow  SRes Def   SNR       Amp   Per   Mag1   Mag2       ID
PGF   000.50 300.7 m E Pg      2011/01/26 19:53:35.7   0.0                          T                                        4638863
PGF   000.50 300.7 m E Sg      2011/01/26 19:53:42.8   0.1                          T               47.6  .36        Md 1.9  4638862
SBF   002.22 315.6 m E Pn      2011/01/26 19:54:00.1   0.3                          T                                        4638866
SBF   002.22 315.6 m E Sn      2011/01/26 19:54:25.2   0.1                          T                1.8  .24 Ml 2.1         4638861
LMR   002.49 295.7 m E Pn      2011/01/26 19:54:03.0  -0.4                          T                                        4638867
LMR   002.49 295.7 m E Sn      2011/01/26 19:54:31.3  -0.1                          T                 .4  .17 Ml 1.7         4638860
FRF   002.50 301.4 m E Pn      2011/01/26 19:54:03.6   0.1                          T                                        4638868
FRF   002.50 301.4 m E Sn      2011/01/26 19:54:31.7   0.0                          T                 .5  .20 Ml 1.7         4638869

.
