EVENT     275387
    Date      Time       Latitude Longitude    Depth    Ndef Nsta Gap    Mag1  N    Mag2  N    Mag3  N   Author         ID
       rms   OT_Error      Smajor Sminor Az        Err   mdist  Mdist     Err        Err        Err      Quality

2012/05/03 10:36:39.8     47.4062    5.8353       .0 f    17    9 108  Ml 1.9  5  Md 2.2  4              bulletin    275487
                                                                                                         _ldg
      0.98   +-  0.09       1.9    1.5  100.72 +-  0.0    0.69   1.40   +-0.3      +-0.1                 m i km

FRANCE
Sta     Dist  EvAz     Phase      Date       Time     TRes  Azim  AzRes  Slow  SRes Def   SNR       Amp   Per   Mag1   Mag2       ID
HAU   000.69 029.8 m E Pg      2012/05/03 10:36:53.3   0.0                          T                                        4936358
HAU   000.69 029.8 m E Sg      2012/05/03 10:37:01.8  -0.6                          T                6.3  .30        Md 2.2  4936353
HINF  000.80 058.8 m E Pg      2012/05/03 10:36:55.2   0.0                          T                                        4936357
HINF  000.80 058.8 m E Sg      2012/05/03 10:37:06.2   0.3                          T                5.9  .28        Md 2.2  4936352
CABF  000.81 167.7 m E Pg      2012/05/03 10:36:55.5   0.0                          T                                        4936356
CABF  000.81 167.7 m E Sg      2012/05/03 10:37:06.5   0.2                          T                                Md 2.2  4936351
THEF  000.83 007.3 m E Pg      2012/05/03 10:36:55.8   0.1                          T                                        4936355
THEF  000.83 007.3 m E Sg      2012/05/03 10:37:06.9   0.2                          T               65.2 1.09        Md 2.4  4936354
PAGF  001.15 356.4 m E Pg      2012/05/03 10:37:01.7   0.0 169.0  -7.2              T                                        4941459
PAGF  001.15 356.4 m E Sg      2012/05/03 10:37:16.7  -0.1 181.7  5.4               T                 .8  .27 Ml 1.3         4941460
MEZF  001.22 334.6 m E Pg      2012/05/03 10:37:02.8   0.0 156.5  2.5               T                                        4941455
MEZF  001.22 334.6 m E Sg      2012/05/03 10:37:18.6  -0.1 146.6  -7.4              T                3.5  .39 Ml 1.9         4941456
LOR   001.35 264.9 m E Pn      2012/05/03 10:37:04.4  -0.1  87.6  4.2               T                                        4941462
LOR   001.35 264.9 m E Sn      2012/05/03 10:37:22.2   0.0  85.9  2.5               T                3.2  .25 Ml 2.1         4941463
CDF   001.40 043.4 m E Pg      2012/05/03 10:37:06.4   0.1                          T                                        4941458
CDF   001.40 043.4 m E Sg      2012/05/03 10:37:24.4  -0.1                          T                3.1  .39 Ml 2.0         4941461
SFTF  000.96 326.4 m E Sg      2012/05/03 10:37:10.8  -0.1                          T               10.7  .55 Ml 2.1         4941457

.
EVENT     275390
    Date      Time       Latitude Longitude    Depth    Ndef Nsta Gap    Mag1  N    Mag2  N    Mag3  N   Author         ID
       rms   OT_Error      Smajor Sminor Az        Err   mdist  Mdist     Err        Err        Err      Quality

2012/05/03 11:43:18.6     42.8480   -2.2200       .0 f     6    3 342  Ml 2.3  2  Md 2.1  1              bulletin    275490
                                                                                                         _ldg
      0.11   +-  0.23       6.8    3.8  171.13 +-  0.0    0.78   1.89   +-0.1      +-                    m i km

SPAIN
Sta     Dist  EvAz     Phase      Date       Time     TRes  Azim  AzRes  Slow  SRes Def   SNR       Amp   Per   Mag1   Mag2       ID
SJPF  000.78 069.7 m E Pg      2012/05/03 11:43:33.4  -0.1                          T                                        4936485
SJPF  000.78 069.7 m E Sg      2012/05/03 11:43:44.0   0.2                          T                7.6  .28        Md 2.1  4936484
ETSF  001.22 087.1 m E Pg      2012/05/03 11:43:41.8   0.0                          T                                        4936482
ETSF  001.22 087.1 m E Sg      2012/05/03 11:43:57.6  -0.2                          T                6.2  .29 Ml 2.2         4936483
EPF   001.89 083.6 m E Pg      2012/05/03 11:43:54.1   0.1                          T                                        4936480
EPF   001.89 083.6 m E Sg      2012/05/03 11:44:18.5  -0.1                          T                5.6  .36 Ml 2.4         4936481

.
EVENT     275392
    Date      Time       Latitude Longitude    Depth    Ndef Nsta Gap    Mag1  N    Mag2  N    Mag3  N   Author         ID
       rms   OT_Error      Smajor Sminor Az        Err   mdist  Mdist     Err        Err        Err      Quality

2012/05/03 12:03:24.2     42.9992   -1.5327       .0 f     6    3 325  Ml 1.7  1  Md 2.1  2              bulletin    275492
                                                                                                         _ldg
      0.06   +-  0.15       2.7    2.4   63.39 +-  0.0    0.25   1.37   +-         +-0.3                 m i km

PYRENEES
Sta     Dist  EvAz     Phase      Date       Time     TRes  Azim  AzRes  Slow  SRes Def   SNR       Amp   Per   Mag1   Mag2       ID
SJPF  000.25 063.1 m E Pg      2012/05/03 12:03:29.5   0.0                          T                9.5  .20        Md 1.9  4936491
SJPF  000.25 063.1 m E Sg      2012/05/03 12:03:33.0  -0.1                          T                                        4936490
ETSF  000.72 097.7 m E Pg      2012/05/03 12:03:38.1  -0.1                          T                                        4936488
ETSF  000.72 097.7 m E Sg      2012/05/03 12:03:47.9   0.1                          T                1.1  .18        Md 2.2  4936489
EPF   001.37 088.1 m E Pg      2012/05/03 12:03:50.2   0.1                          T                                        4936487
EPF   001.37 088.1 m E Sg      2012/05/03 12:04:08.1   0.0                          T                 .8  .16 Ml 1.7         4936486

.
EVENT     275393
    Date      Time       Latitude Longitude    Depth    Ndef Nsta Gap    Mag1  N    Mag2  N    Mag3  N   Author         ID
       rms   OT_Error      Smajor Sminor Az        Err   mdist  Mdist     Err        Err        Err      Quality

2012/05/03 12:46:44.1     46.6572    5.6334       .0 f    10    5 171  Ml 1.9  3  Md 2.0  2              bulletin    275493
                                                                                                         _ldg
      0.30   +-  0.13       3.3    1.8  174.19 +-  0.0    0.32   1.43   +-0.1      +-0.2                 m i km

FRANCE
Sta     Dist  EvAz     Phase      Date       Time     TRes  Azim  AzRes  Slow  SRes Def   SNR       Amp   Per   Mag1   Mag2       ID
CABF  000.32 098.2 m E Pg      2012/05/03 12:46:50.7   0.0                          T                                        4936475
CABF  000.32 098.2 m E Sg      2012/05/03 12:46:54.6  -0.4                          T                2.1  .23        Md 1.9  4936474
SMF   001.23 270.1 m E Pg      2012/05/03 12:47:07.7   0.2                          T                                        4936477
SMF   001.23 270.1 m E Sg      2012/05/03 12:47:24.0   0.3                          T                                Md 2.1  4936476
LOR   001.36 297.3 m E Pg      2012/05/03 12:47:09.4  -0.4                          T                                        4936470
LOR   001.36 297.3 m E Sg      2012/05/03 12:47:27.5  -0.1                          T                2.0  .26 Ml 1.9         4936471
HINF  001.43 035.2 m E Pg      2012/05/03 12:47:11.1   0.0                          T                                        4936478
HINF  001.43 035.2 m E Sg      2012/05/03 12:47:30.4   0.7                          T                1.2  .21 Ml 1.8         4936473
HAU   001.43 019.6 m E Pg      2012/05/03 12:47:11.2   0.0                          T                                        4936479
HAU   001.43 019.6 m E Sg      2012/05/03 12:47:29.5  -0.4                          T                5.6  .33 Ml 2.0         4936472

.
EVENT     275400
    Date      Time       Latitude Longitude    Depth    Ndef Nsta Gap    Mag1  N    Mag2  N    Mag3  N   Author         ID
       rms   OT_Error      Smajor Sminor Az        Err   mdist  Mdist     Err        Err        Err      Quality

2012/05/03 13:20:31.2     44.4422    1.5532       .0 f     6    3 274  Ml 1.7  1  Md 2.0  2              bulletin    275500
                                                                                                         _ldg
      0.07   +-  0.12       2.4    1.0  172.60 +-  0.0    0.61   0.86   +-         +-0.0                 m i km

FRANCE
Sta     Dist  EvAz     Phase      Date       Time     TRes  Azim  AzRes  Slow  SRes Def   SNR       Amp   Per   Mag1   Mag2       ID
CAF   000.61 036.8 m E Pg      2012/05/03 13:20:43.0   0.0                          T                                        4936497
CAF   000.61 036.8 m E Sg      2012/05/03 13:20:51.3   0.1                          T                1.6  .22        Md 2.0  4936496
LFF   000.76 310.9 m E Pg      2012/05/03 13:20:45.8   0.0                          T                                        4936494
LFF   000.76 310.9 m E Sg      2012/05/03 13:20:56.1   0.1                          T                4.5  .35        Md 2.0  4936495
RJF   000.86 358.3 m E Pg      2012/05/03 13:20:47.7   0.0                          T                                        4936493
RJF   000.86 358.3 m E Sg      2012/05/03 13:20:59.0  -0.1                          T                6.8  .40 Ml 1.7         4936492

.
EVENT     275396
    Date      Time       Latitude Longitude    Depth    Ndef Nsta Gap    Mag1  N    Mag2  N    Mag3  N   Author         ID
       rms   OT_Error      Smajor Sminor Az        Err   mdist  Mdist     Err        Err        Err      Quality

2012/05/03 14:00:27.9     44.4936    6.7001      2.0      32    9 068  Ml 1.7  6  Md 1.7  1              bulletin    275496
                                                                                                         _ldg
      0.30   +-  0.06       1.2     .9   81.99 +-  0.0    0.08   2.56   +-0.3      +-                    m i ke

FRANCE
Sta     Dist  EvAz     Phase      Date       Time     TRes  Azim  AzRes  Slow  SRes Def   SNR       Amp   Per   Mag1   Mag2       ID
MBDF  000.24 012.3 m E Pg      2012/05/03 14:00:32.8   0.0                          T                3.8  .25        Md 1.7  4936429
MBDF  000.24 012.3 m E Sg      2012/05/03 14:00:36.4   0.3                          T                                        4936428
ORIF  000.72 306.3 m E Pg      2012/05/03 14:00:41.0  -0.6                          T                                        4936426
ORIF  000.72 306.3 m E Sg      2012/05/03 14:00:51.3   0.2                          T                2.2  .25                4936427
SBF   000.82 139.7 m E Pg      2012/05/03 14:00:43.7   0.3                          T                                        4936418
SBF   000.82 139.7 m E Sg      2012/05/03 14:00:54.6   0.5                          T                1.4  .22                4936419
FRF   000.93 182.4 m E Pg      2012/05/03 14:00:45.7   0.3                          T                                        4936425
FRF   000.93 182.4 m E Sg      2012/05/03 14:00:57.7   0.2                          T                3.1  .26 Ml 1.9         4936424
SMRF  000.96 237.8 m E Pg      2012/05/03 14:00:45.9   0.0                          T                                        4936421
SMRF  000.96 237.8 m E Sg      2012/05/03 14:00:57.8  -0.5                          T                1.3  .25 Ml 1.5         4936420
LPG   001.00 002.1 m E Pg      2012/05/03 14:00:46.8  -0.2                          T                                        4936415
LPG   001.00 002.1 m E Sg      2012/05/03 14:01:00.3   0.2                          T                1.6  .31 Ml 1.5         4936414
LPL   001.02 001.3 m E Pg      2012/05/03 14:00:47.4   0.1                          T                                        4936412
LPL   001.02 001.3 m E Sg      2012/05/03 14:01:00.5  -0.1                          T                 .7  .20 Ml 1.3         4936413
LMR   001.17 186.9 m E Pg      2012/05/03 14:00:50.0   0.3                          T                                        4936422
LMR   001.17 186.9 m E Sg      2012/05/03 14:01:05.1   0.3                          T                1.7  .21 Ml 1.8         4936423
PGF   002.56 138.5 m E Pn      2012/05/03 14:01:08.8   0.1                          T                                        4936417
PGF   002.56 138.5 m E Sn      2012/05/03 14:01:38.8   0.1                          T                 .6  .20 Ml 2.1         4936416

.
EVENT     275412
    Date      Time       Latitude Longitude    Depth    Ndef Nsta Gap    Mag1  N    Mag2  N    Mag3  N   Author         ID
       rms   OT_Error      Smajor Sminor Az        Err   mdist  Mdist     Err        Err        Err      Quality

2012/05/03 14:08:06.0     43.1141    -.2242       .0 f     7    4 171  Ml 1.3  1  Md 1.9  3              bulletin    275512
                                                                                                         _ldg
      0.15   +-  0.08       3.5    1.1  174.66 +-  0.0    0.33   1.80   +-         +-0.1                 m i km

PYRENEES
Sta     Dist  EvAz     Phase      Date       Time     TRes  Azim  AzRes  Slow  SRes Def   SNR       Amp   Per   Mag1   Mag2       ID
ETSF  000.33 228.9 m E Pg      2012/05/03 14:08:12.8   0.0                          T                                        4936607
ETSF  000.33 228.9 m E Sg      2012/05/03 14:08:17.1  -0.2                          T                5.5  .37        Md 1.7  4936606
EPF   000.42 101.3 m E Pg      2012/05/03 14:08:14.5   0.1                          T                                        4936603
EPF   000.42 101.3 m E Sg      2012/05/03 14:08:20.1  -0.1                          T                4.9  .44        Md 2.0  4936602
SJPF  000.73 270.3 m E Pg      2012/05/03 14:08:20.2   0.1                          T                                        4936604
SJPF  000.73 270.3 m E Sg      2012/05/03 14:08:29.5  -0.3                          T                                Md 2.0  4936605
MTLF  001.80 081.9 m E Sg      2012/05/03 14:09:02.9  -0.2                          T                 .4  .26 Ml 1.3         4936601

.
EVENT     275407
    Date      Time       Latitude Longitude    Depth    Ndef Nsta Gap    Mag1  N    Mag2  N    Mag3  N   Author         ID
       rms   OT_Error      Smajor Sminor Az        Err   mdist  Mdist     Err        Err        Err      Quality

2012/05/03 14:12:39.4     43.8143    7.5748       .0 f    16    5 168  Ml 1.8  3  Md 1.8  1              bulletin    275507
                                                                                                         _ldg
      0.22   +-  0.06       1.5     .8  161.11 +-  0.0    0.10   1.45   +-0.3      +-                    m i km

NEAR SOUTH COAST OF FRANCE
Sta     Dist  EvAz     Phase      Date       Time     TRes  Azim  AzRes  Slow  SRes Def   SNR       Amp   Per   Mag1   Mag2       ID
SBF   000.11 295.8 m E Pg      2012/05/03 14:12:42.0  -0.1                          T                                        4936557
SBF   000.11 295.8 m E Sg      2012/05/03 14:12:43.4  -0.5                          T               96.7  .29        Md 1.8  4936556
FRF   000.72 249.7 m E Pg      2012/05/03 14:12:53.1  -0.1                          T                                        4942008
FRF   000.72 249.7 m E P       2012/05/03 14:12:54.6   0.0                          T                                        4936553
FRF   000.72 249.7 m E Sg      2012/05/03 14:13:02.8   0.0                          T                2.5  .21                4936552
LMR   000.91 238.6 m E Pg      2012/05/03 14:12:56.7   0.0                          T                                        4936554
LMR   000.91 238.6 m E Sn      2012/05/03 14:13:11.2   0.0                          T                2.2  .18 Ml 1.9         4936555
MBDF  001.08 328.0 m E Pg      2012/05/03 14:12:59.9  -0.1                          T                                        4942006
MBDF  001.08 328.0 m E Sn      2012/05/03 14:13:15.7   0.2                          T                1.0  .25 Ml 1.5         4942004
SMRF  001.45 277.1 m E Pn      2012/05/03 14:13:05.5   0.1                          T                                        4936567
SMRF  001.45 277.1 m E Pg      2012/05/03 14:13:06.8   0.0                          T                                        4942007
SMRF  001.45 277.1 m E Sg      2012/05/03 14:13:25.7  -0.1                          T                2.1  .25 Ml 1.9         4936566

.
EVENT     275397
    Date      Time       Latitude Longitude    Depth    Ndef Nsta Gap    Mag1  N    Mag2  N    Mag3  N   Author         ID
       rms   OT_Error      Smajor Sminor Az        Err   mdist  Mdist     Err        Err        Err      Quality

2012/05/03 14:14:29.9     44.4820    6.6818      2.0      27    7 069  Ml 1.7  3  Md 1.6  1              bulletin    275497
                                                                                                         _ldg
      0.27   +-  0.06       1.1    1.0   56.90 +-  0.0    0.09   2.56   +-0.3      +-                    m i ke

FRANCE
Sta     Dist  EvAz     Phase      Date       Time     TRes  Azim  AzRes  Slow  SRes Def   SNR       Amp   Per   Mag1   Mag2       ID
MBDF  000.25 014.6 m E Pg      2012/05/03 14:14:35.0  -0.1                          T                                        4936447
MBDF  000.25 014.6 m E Sg      2012/05/03 14:14:38.7   0.2                          T                2.8  .19        Md 1.6  4936446
ORIF  000.72 307.6 m E Pg      2012/05/03 14:14:43.5  -0.1                          T                                        4936444
ORIF  000.72 307.6 m E Sg      2012/05/03 14:14:52.2  -0.8                          T                2.1  .27                4936445
SBF   000.82 138.5 m E Pg      2012/05/03 14:14:45.7   0.2                          T                                        4936451
SBF   000.82 138.5 m E Sg      2012/05/03 14:14:56.6   0.4                          T                 .5  .18                4936450
SMRF  000.94 237.9 m E Pg      2012/05/03 14:14:47.6   0.0                          T                                        4936448
SMRF  000.94 237.9 m E Sg      2012/05/03 14:14:59.8  -0.1                          T                  1  .26 Ml 1.4         4936449
LMR   001.15 186.3 m E Pg      2012/05/03 14:14:51.8   0.3                          T                                        4936443
LMR   001.15 186.3 m E Sg      2012/05/03 14:15:06.5   0.1                          T                1.1  .19 Ml 1.7         4936442
FRF   000.92 181.6 m E Sn      2012/05/03 14:15:01.3   0.1                          T                3.2  .22 Ml 2.0         4942009
PGF   002.56 138.1 m E Pn      2012/05/03 14:15:10.5  -0.2                          T                                        4936441

.
