EVENT     298338
    Date      Time       Latitude Longitude    Depth    Ndef Nsta Gap    Mag1  N    Mag2  N    Mag3  N   Author         ID
       rms   OT_Error      Smajor Sminor Az        Err   mdist  Mdist     Err        Err        Err      Quality

2013/05/15 21:26:47.1     44.4333    6.4933     10.0      30    9 073  Ml 1.7  6  Md 1.7  3              bulletin    298438
                                                                                                         _ldg
      0.16   +-  0.03        .8     .5   72.01 +-  0.0    0.35   1.37   +-0.3      +-0.1                 m i ke

FRANCE
Sta     Dist  EvAz     Phase      Date       Time     TRes  Azim  AzRes  Slow  SRes Def   SNR       Amp   Per   Mag1   Mag2       ID
MBDF  000.35 034.0 m E Pg      2013/05/15 21:26:54.4   0.1                          T                                        5283337
MBDF  000.35 034.0 m E Sg      2013/05/15 21:26:59.2   0.0                          T                3.9  .27        Md 1.6  5283352
ORIF  000.65 318.2 m E Pg      2013/05/15 21:26:59.5  -0.2                          T                                        5283336
ORIF  000.65 318.2 m E Pn      2013/05/15 21:27:01.0   0.0                          T                                        5284871
ORIF  000.65 318.2 m E Sg      2013/05/15 21:27:08.1  -0.2                          T                1.8  .20        Md 1.6  5283346
ORIF  000.65 318.2 m E Sn      2013/05/15 21:27:10.8   0.0                          T                                        5284872
SMRF  000.80 235.6 m E Pg      2013/05/15 21:27:02.5   0.2                          T                                        5283334
SMRF  000.80 235.6 m E Sg      2013/05/15 21:27:12.9   0.1                          T                1.8  .21                5283343
FRF   000.88 172.7 m E Pg      2013/05/15 21:27:03.7   0.0                          T                                        5283335
FRF   000.88 172.7 m E Sg      2013/05/15 21:27:15.2   0.0                          T                5.1  .25 Ml 2.1         5283342
SBF   000.89 129.7 m E Pg      2013/05/15 21:27:04.0   0.1                          T                                        5283339
SBF   000.89 129.7 m E Sg      2013/05/15 21:27:15.5   0.1                          T                2.2  .24 Ml 1.7         5283338
LPG   001.08 009.7 m E Pn      2013/05/15 21:27:07.0   0.0                          T                                        5283349
LPG   001.08 009.7 m E Pg      2013/05/15 21:27:07.7   0.0                          T                                        5284876
LPG   001.08 009.7 m E Sn      2013/05/15 21:27:21.2   0.0                          T                 .7  .19 Ml 1.4         5283348
LMR   001.10 179.4 m E Pn      2013/05/15 21:27:07.1   0.2                          T                                        5283341
LMR   001.10 179.4 m E Pg      2013/05/15 21:27:07.7   0.0                          T                                        5284875
LMR   001.10 179.4 m E Sg      2013/05/15 21:27:22.1   0.1                          T                3.0  .22 Ml 2.0         5283340
LPL   001.10 008.8 m E Pn      2013/05/15 21:27:07.2   0.0                          T                                        5283350
LPL   001.10 008.8 m E Sn      2013/05/15 21:27:21.5   0.0                          T                 .7  .21 Ml 1.4         5283347
VIVF  001.37 288.7 m E Pn      2013/05/15 21:27:10.8   0.2                          T                                        5283345
VIVF  001.37 288.7 m E Sn      2013/05/15 21:27:27.2  -0.5                          T                 .8  .21 Ml 1.6         5283344

.
EVENT     298445
    Date      Time       Latitude Longitude    Depth    Ndef Nsta Gap    Mag1  N    Mag2  N    Mag3  N   Author         ID
       rms   OT_Error      Smajor Sminor Az        Err   mdist  Mdist     Err        Err        Err      Quality

2013/05/16 04:40:36.1     45.8877    7.1860      2.0      46    9 046  Ml 1.8  9  Md 1.8  3              bulletin    298545
                                                                                                         _ldg
      0.22   +-  0.03        .6     .5  138.30 +-  0.0    0.14   2.80   +-0.3      +-0.0                 m i ke

NORTHERN ITALY
Sta     Dist  EvAz     Phase      Date       Time     TRes  Azim  AzRes  Slow  SRes Def   SNR       Amp   Per   Mag1   Mag2       ID
LPL   000.49 220.7 m E Pg      2013/05/16 04:40:45.6  -0.1                          T                                        5283533
LPL   000.49 220.7 m E Sg      2013/05/16 04:40:52.4   0.2                          T                2.0  .22        Md 1.8  5283532
LPG   000.49 218.1 m E Pg      2013/05/16 04:40:45.7  -0.2                          T                                        5283531
LPG   000.49 218.1 m E Sg      2013/05/16 04:40:52.5   0.1                          T                2.8  .21        Md 1.8  5283530
CABF  001.05 313.9 m E Pg      2013/05/16 04:40:55.9   0.0                          T                                        5284892
CABF  001.05 313.9 m E Sg      2013/05/16 04:41:09.7   0.2                          T                1.2  .23 Ml 1.5 Md 1.7  5284891
MBDF  001.20 194.3 m E Pg      2013/05/16 04:40:58.6  -0.1                          T                                        5284902
MBDF  001.20 194.3 m E Sg      2013/05/16 04:41:14.2   0.0                          T                  1  .22 Ml 1.5         5284901
HINF  001.94 353.4 m E Pn      2013/05/16 04:41:08.5   0.1                          T                                        5284887
HINF  001.94 353.4 m E Pg      2013/05/16 04:41:12.1  -0.2                          T                                        5284888
HINF  001.94 353.4 m E Sn      2013/05/16 04:41:32.0   0.0                          T                                        5284889
HINF  001.94 353.4 m E Sg      2013/05/16 04:41:37.2  -0.1                          T                1.2  .21 Ml 1.9         5284890
VIVF  002.05 240.7 m E Pg      2013/05/16 04:41:14.4   0.2                          T                                        5284898
VIVF  002.05 240.7 m E Sn      2013/05/16 04:41:34.4  -0.1                          T                                        5284900
VIVF  002.05 240.7 m E Sg      2013/05/16 04:41:40.7   0.1                          T                 .9  .22 Ml 1.8         5284899
SMF   002.44 289.3 m E Pn      2013/05/16 04:41:15.4   0.3                          T                                        5284896
SMF   002.44 289.3 m E Pg      2013/05/16 04:41:21.7   0.3                          T                                        5284894
SMF   002.44 289.3 m E Sn      2013/05/16 04:41:43.4  -0.4                          T                                        5284895
SMF   002.44 289.3 m E Sg      2013/05/16 04:41:52.5  -0.3                          T                1.6  .21 Ml 2.2         5284897
LOR   002.68 302.2 m E Pn      2013/05/16 04:41:18.5   0.1                          T                                        5284883
LOR   002.68 302.2 m E Pg      2013/05/16 04:41:25.8   0.0                          T                                        5284884
LOR   002.68 302.2 m E Sn      2013/05/16 04:41:49.2  -0.2                          T                                        5284885
LOR   002.68 302.2 m E Sg      2013/05/16 04:42:00.3   0.1 119.0  -0.8              T                 .6  .18 Ml 1.9         5284886
AVF   002.80 290.2 m E Sg      2013/05/16 04:42:03.9  -0.2                          T                 .4  .19 Ml 1.7         5284893

.
EVENT     298384
    Date      Time       Latitude Longitude    Depth    Ndef Nsta Gap    Mag1  N    Mag2  N    Mag3  N   Author         ID
       rms   OT_Error      Smajor Sminor Az        Err   mdist  Mdist     Err        Err        Err      Quality

2013/05/16 05:19:58.1     44.7782    6.7496      2.0      20    5 102  Ml 1.5  1  Md 1.6  3              bulletin    298484
                                                                                                         _ldg
      0.23   +-  0.03        .6     .4   57.37 +-  0.0    0.05   1.04   +-         +-0.1                 m i ke

FRANCE
Sta     Dist  EvAz     Phase      Date       Time     TRes  Azim  AzRes  Slow  SRes Def   SNR       Amp   Per   Mag1   Mag2       ID
MBDF  000.05 163.1 m E Pg      2013/05/16 05:19:59.9   0.2                          T                                        5283389
MBDF  000.05 163.1 m E Sg      2013/05/16 05:20:00.9   0.2                          T               70.5  .18        Md 1.5  5283388
ORIF  000.63 283.1 m E Pg      2013/05/16 05:20:10.2   0.0                          T                                        5283387
ORIF  000.63 283.1 m E Sg      2013/05/16 05:20:18.3  -0.2                          T                2.7  .26        Md 1.5  5283386
LPG   000.72 000.1 m E Pg      2013/05/16 05:20:12.1   0.0                          T                                        5283383
LPG   000.72 000.1 m E Sg      2013/05/16 05:20:21.6   0.1                          T                 .4  .18                5283382
LPL   000.74 359.1 m E Pg      2013/05/16 05:20:12.5   0.2                          T                                        5283385
LPL   000.74 359.1 m E Sg      2013/05/16 05:20:21.8  -0.1                          T                 .8  .20                5283384
SBF   001.04 151.5 m E Pg      2013/05/16 05:20:17.7   0.1                          T                                        5284903
SBF   001.04 151.5 m E Sg      2013/05/16 05:20:30.9  -0.2                          T                 .6  .12 Ml 1.5         5284904

.
EVENT     298397
    Date      Time       Latitude Longitude    Depth    Ndef Nsta Gap    Mag1  N    Mag2  N    Mag3  N   Author         ID
       rms   OT_Error      Smajor Sminor Az        Err   mdist  Mdist     Err        Err        Err      Quality

2013/05/16 07:13:56.8     42.9263    -.0367      2.0      10    4 190  Ml 1.6  3  Md 1.6  2              bulletin    298497
                                                                                                         _ldg
      0.08   +-  0.05       3.9     .4  173.49 +-  0.0    0.30   1.70   +-0.3      +-0.0                 m i ke

PYRENEES
Sta     Dist  EvAz     Phase      Date       Time     TRes  Azim  AzRes  Slow  SRes Def   SNR       Amp   Per   Mag1   Mag2       ID
EPF   000.30 069.3 m E Pg      2013/05/16 07:14:02.6  -0.1                          T                                        5283407
EPF   000.30 069.3 m E Sg      2013/05/16 07:14:06.7   0.0                          T                3.8  .19        Md 1.6  5283406
ETSF  000.38 266.1 m E Pg      2013/05/16 07:14:04.3   0.0                          T                                        5283405
ETSF  000.38 266.1 m E Sg      2013/05/16 07:14:09.5   0.0                          T                3.8  .21        Md 1.5  5283404
SJPF  000.89 282.5 m E Pg      2013/05/16 07:14:13.6   0.0                          T                                        5283527
SJPF  000.89 282.5 m E Sg      2013/05/16 07:14:25.3   0.1                          T                 .5  .17 Ml 1.2         5283526
MTLF  001.70 075.1 m E Pg      2013/05/16 07:14:28.6   0.1                          T                                        5283529
MTLF  001.70 075.1 m E Sg      2013/05/16 07:14:50.2  -0.2                          T                1.3  .29 Ml 1.8         5283528

.
EVENT     298523
    Date      Time       Latitude Longitude    Depth    Ndef Nsta Gap    Mag1  N    Mag2  N    Mag3  N   Author         ID
       rms   OT_Error      Smajor Sminor Az        Err   mdist  Mdist     Err        Err        Err      Quality

2013/05/16 11:01:03.2     49.1867    8.0912      4.0 f    34   10 055  Ml 2.2  9  Md 2.2  2              bulletin    298623
                                                                                                         _ldg
      0.56   +-  0.07       1.5    1.1  121.87 +-  0.0    0.06   3.74   +-0.1      +-0.1                 m i ke

GERMANY
Sta     Dist  EvAz     Phase      Date       Time     TRes  Azim  AzRes  Slow  SRes Def   SNR       Amp   Per   Mag1   Mag2       ID
LANF  000.28 222.4 m E Sg      2013/05/16 11:01:12.8   0.2                          T                                        5284133
CDF   000.94 215.1 m E Pg      2013/05/16 11:01:19.4  -1.6                          T                                        5284184
CDF   000.94 215.1 m E Sg      2013/05/16 11:01:33.2  -0.1                          T                5.8  .28 Ml 2.2 Md 2.3  5284180
RUP   000.85 307.8 m E Pg      2013/05/16 11:01:20.1   0.9                          T                                        5284148
HINF  001.60 211.5 m E Pg      2013/05/16 11:01:33.1   0.1                          T                                        5284183
HINF  001.60 211.5 m E Sn      2013/05/16 11:01:50.7   0.2                          T                                        5284181
HINF  001.60 211.5 m E Sg      2013/05/16 11:01:53.9   0.2                          T                2.6  .18 Ml 2.2 Md 2.2  5284182
HAU   001.65 225.0 m E Pg      2013/05/16 11:01:34.1   0.0                          T                                        5284179
HAU   001.65 225.0 m E Sn      2013/05/16 11:01:51.4  -0.4                          T                                        5284177
HAU   001.65 225.0 m E Sg      2013/05/16 11:01:55.5   0.1                          T                5.1  .24 Ml 2.2         5284178
PAGF  001.69 248.9 m E Pg      2013/05/16 11:01:34.6   0.0  68.0  0.9               T                                        5284175
PAGF  001.69 248.9 m E Sg      2013/05/16 11:01:56.1  -0.3                          T                3.4  .29 Ml 2.2         5284176
LOR   003.42 237.4 m E Pn      2013/05/16 11:01:55.2  -0.2                          T                                        5284169
LOR   003.42 237.4 m E Pg      2013/05/16 11:02:06.6   0.1  56.6  2.3               T                                        5284168
LOR   003.42 237.4 m E Sn      2013/05/16 11:02:33.9   0.0                          T                                        5284170
LOR   003.42 237.4 m E Sg      2013/05/16 11:02:49.6  -0.9  59.6  5.3               T                1.1  .22 Ml 2.2         5284171
CABF  002.91 208.4 m E Pg      2013/05/16 11:01:57.6   0.4                          T                                        5284173
CABF  002.91 208.4 m E Sg      2013/05/16 11:02:34.2  -0.4                          T                 .8  .21 Ml 2.0         5284174
SSF   003.74 237.0 m E Pn      2013/05/16 11:01:59.9   0.3                          T                                        5284167
SSF   003.74 237.0 m E Pg      2013/05/16 11:02:12.4   0.0                          T                                        5284166
SSF   003.74 237.0 m E Sn      2013/05/16 11:02:41.5   0.0                          T                                        5284164
SSF   003.74 237.0 m E Sg      2013/05/16 11:03:00.2  -0.1                          T                1.2  .33 Ml 2.2         5284165
MEZF  002.12 252.3 m E Sn      2013/05/16 11:02:02.7  -0.2                          T                4.4  .27 Ml 2.4         5284172

.
EVENT     298541
    Date      Time       Latitude Longitude    Depth    Ndef Nsta Gap    Mag1  N    Mag2  N    Mag3  N   Author         ID
       rms   OT_Error      Smajor Sminor Az        Err   mdist  Mdist     Err        Err        Err      Quality

2013/05/16 17:58:34.2     42.8605    -.0137      2.0      14    5 202  Ml 1.4  4  Md 1.4  2              bulletin    298641
                                                                                                         _ldg
      0.34   +-  0.08       2.3     .8  171.30 +-  0.0    0.31   2.68   +-0.3      +-0.0                 m i ke

PYRENEES
Sta     Dist  EvAz     Phase      Date       Time     TRes  Azim  AzRes  Slow  SRes Def   SNR       Amp   Per   Mag1   Mag2       ID
EPF   000.31 056.7 m E Pg      2013/05/16 17:58:40.2   0.0                          T                                        5284661
EPF   000.31 056.7 m E Sg      2013/05/16 17:58:44.4   0.0                          T                7.2  .22        Md 1.5  5284659
ETSF  000.40 275.6 m E Pg      2013/05/16 17:58:42.0   0.0                          T                                        5284660
ETSF  000.40 275.6 m E Sg      2013/05/16 17:58:47.4   0.0                          T                6.0  .19        Md 1.4  5284658
SJPF  000.92 286.3 m E Pg      2013/05/16 17:58:51.5   0.0                          T                                        5284932
SJPF  000.92 286.3 m E Sg      2013/05/16 17:59:03.6   0.1                          T                 .3  .18 Ml 1.0         5284934
MTLF  001.70 072.9 m E Pg      2013/05/16 17:59:06.1   0.2                          T                                        5284927
MTLF  001.70 072.9 m E Sg      2013/05/16 17:59:28.1   0.3                          T                 .6  .19 Ml 1.6         5284928
RJF   002.68 023.8 m E Pn      2013/05/16 17:59:16.2  -0.2                          T                                        5284929
RJF   002.68 023.8 m E Pg      2013/05/16 17:59:24.0   0.1                          T                                        5284930
RJF   002.68 023.8 m E Sn      2013/05/16 17:59:47.5  -0.1                          T                                        5284931
RJF   002.68 023.8 m E Sg      2013/05/16 17:59:58.4   0.1                          T                 .6  .20 Ml 1.5         5284933

.
