EVENT     297706
    Date      Time       Latitude Longitude    Depth    Ndef Nsta Gap    Mag1  N    Mag2  N    Mag3  N   Author         ID
       rms   OT_Error      Smajor Sminor Az        Err   mdist  Mdist     Err        Err        Err      Quality

2013/05/08 04:29:05.7     43.4604   12.2924     13.8      49   16 101  Ml 2.7 13                         bulletin    297806
                                                                                                         _ldg
      0.37   +-  0.09       2.2    2.1  120.36 +-  0.7    0.04   7.05   +-0.3                            m i ke

CENTRAL ITALY
Sta     Dist  EvAz     Phase      Date       Time     TRes  Azim  AzRes  Slow  SRes Def   SNR       Amp   Per   Mag1   Mag2       ID
PGF   002.58 250.4 m E Pn      2013/05/08 04:29:45.2  -0.2                          T                                        5277545
PGF   002.58 250.4 m E Sn      2013/05/08 04:30:15.3   0.5                          T                3.8  .37 Ml 2.6         5277860
SBF   003.55 278.2 m E P       2013/05/08 04:30:01.9   0.1                          T                                        5289662
SBF   003.55 278.2 m E Sn      2013/05/08 04:30:37.9   0.2                          T                5.6  .27 Ml 2.9         5277632
FRF   004.11 273.3 m E P       2013/05/08 04:30:09.8   0.1                          T                                        5289664
FRF   004.11 273.3 m E Sn      2013/05/08 04:30:51.4   0.4                          T                5.7  .50 Ml 2.8         5277858
MBDF  004.17 289.6 m E P       2013/05/08 04:30:10.6  -0.3                          T                                        5289668
MBDF  004.17 289.6 m E Pg      2013/05/08 04:30:22.3  -0.8                          T                                        5277636
MBDF  004.17 289.6 m E Sn      2013/05/08 04:30:53.2   0.3                          T                1.6  .25 Ml 2.5         5277637
LMR   004.22 270.3 m E P       2013/05/08 04:30:11.1  -0.1                          T                                        5289663
LMR   004.22 270.3 m E Sn      2013/05/08 04:30:54.1   0.4                          T                1.0  .23 Ml 2.4         5277859
LPG   004.46 299.1 m E Pn      2013/05/08 04:30:11.4   0.2                          T                                        5277540
LPG   004.46 299.1 m E P       2013/05/08 04:30:14.9  -0.1                          T                                        5289665
LPG   004.46 299.1 m E Sn      2013/05/08 04:31:00.2   0.4                          T                1.5  .34 Ml 2.4         5277856
LPL   004.48 299.2 m E P       2013/05/08 04:30:15.4   0.1                          T                                        5289666
LPL   004.48 299.2 m E Sn      2013/05/08 04:31:00.6   0.4                          T                3.7  .49 Ml 2.6         5277855
ORIF  004.84 289.7 m E P       2013/05/08 04:30:19.7  -0.5                          T                                        5289667
ORIF  004.84 289.7 m E Sn      2013/05/08 04:31:08.7   0.1                          T                2.1  .34 Ml 2.6         5277854
HINF  005.79 320.7 m E Pn      2013/05/08 04:30:28.5  -0.5                          T                                        5277536
HINF  005.79 320.7 m E P       2013/05/08 04:30:33.6   0.0                          T                                        5289670
HINF  005.79 320.7 m E Sn      2013/05/08 04:31:31.7   0.4                          T                6.0  .54 Ml 3.1         5277633
CABF  005.41 307.8 m E P       2013/05/08 04:30:28.5   0.3                          T                                        5289669
CABF  005.41 307.8 m E Sn      2013/05/08 04:31:22.7   0.5                          T                                        5277853
CDF   006.06 326.5 m E Pn      2013/05/08 04:30:32.6  -0.2                          T                                        5277535
CDF   006.06 326.5 m E P       2013/05/08 04:30:37.3  -0.2                          T                                        5289673
CDF   006.06 326.5 m E Sn      2013/05/08 04:31:38.3   0.4                          T                2.5  .32 Ml 3.1         5277868
HAU   006.16 319.6 m E Pn      2013/05/08 04:30:34.0   0.0                          T                                        5277635
HAU   006.16 319.6 m E P       2013/05/08 04:30:38.8   0.0                          T                                        5289671
HAU   006.16 319.6 m E Sn      2013/05/08 04:31:40.4   0.3                          T                7.4  .43 Ml 3.1         5277634
LOR   007.05 305.6 m E Pn      2013/05/08 04:30:45.9  -0.3                          T                                        5277872
LOR   007.05 305.6 m E P       2013/05/08 04:30:51.2  -0.1                          T                                        5289674
LOR   007.05 305.6 m E Sn      2013/05/08 04:32:01.9   0.4                          T                 .9  .29 Ml 2.7         5277871
PAGF  006.84 320.4 m E Pn      2013/05/08 04:30:49.5   6.2                          T                                        5277867
SFTF  006.94 315.6 m E P       2013/05/08 04:30:50.2   0.5                          T                                        5289672
SMRF  004.90 278.3 m E Sn      2013/05/08 04:31:10.2   0.2                          T                 .6  .33 Ml 2.1         5277857

.
EVENT     297708
    Date      Time       Latitude Longitude    Depth    Ndef Nsta Gap    Mag1  N    Mag2  N    Mag3  N   Author         ID
       rms   OT_Error      Smajor Sminor Az        Err   mdist  Mdist     Err        Err        Err      Quality

2013/05/08 07:53:06.3     42.9804   -1.2091      2.0       6    3 255  Ml 1.4  1  Md 1.1  2              bulletin    297808
                                                                                                         _ldg
      0.12   +-  0.21       5.2    1.2   43.15 +-  0.0    0.13   1.14   +-         +-0.1                 m i ke

PYRENEES
Sta     Dist  EvAz     Phase      Date       Time     TRes  Azim  AzRes  Slow  SRes Def   SNR       Amp   Per   Mag1   Mag2       ID
SJPF  000.13 355.0 m E Pg      2013/05/08 07:53:09.1   0.0                          T                                        5277641
SJPF  000.13 355.0 m E Sg      2013/05/08 07:53:11.2   0.2                          T               10.5  .18        Md 1.2  5277640
ETSF  000.48 099.5 m E Pg      2013/05/08 07:53:15.7   0.0                          T                                        5277638
ETSF  000.48 099.5 m E Sg      2013/05/08 07:53:22.3   0.2                          T                1.1  .16        Md 1.1  5277639
EPF   001.14 087.0 m E Pg      2013/05/08 07:53:27.7   0.0                          T                                        5277642
EPF   001.14 087.0 m E Sg      2013/05/08 07:53:42.2  -0.2                          T                 .7  .20 Ml 1.4         5277643

.
EVENT     297714
    Date      Time       Latitude Longitude    Depth    Ndef Nsta Gap    Mag1  N    Mag2  N    Mag3  N   Author         ID
       rms   OT_Error      Smajor Sminor Az        Err   mdist  Mdist     Err        Err        Err      Quality

2013/05/08 09:06:24.7     43.1841     .1299      3.0 f    20    7 107  Ml 1.8  7  Md 1.8  2              bulletin    297814
                                                                                                         _ldg
      1.21   +-  0.14       4.1    2.2  166.41 +-  0.0    0.22   2.85   +-0.3      +-0.2                 m i ke

FRANCE
Sta     Dist  EvAz     Phase      Date       Time     TRes  Azim  AzRes  Slow  SRes Def   SNR       Amp   Per   Mag1   Mag2       ID
EPF   000.22 134.9 m E Pg      2013/05/08 09:06:28.9  -0.2                          T                                        5277675
EPF   000.22 134.9 m E Sg      2013/05/08 09:06:31.6  -0.5                          T                8.0  .18        Md 1.9  5277674
ETSF  000.58 240.8 m E Pg      2013/05/08 09:06:35.6  -0.2                          T                                        5277672
ETSF  000.58 240.8 m E Sg      2013/05/08 09:06:42.9  -0.5                          T                2.5  .23        Md 1.7  5277673
SJPF  000.99 266.4 m E Pg      2013/05/08 09:06:43.6   0.3                          T                                        5278018
SJPF  000.99 266.4 m E Sg      2013/05/08 09:06:56.2   0.0                          T                1.3  .26 Ml 1.5         5278017
MTLF  001.53 083.4 m E Pn      2013/05/08 09:06:51.3   0.1                          T                                        5278080
MTLF  001.53 083.4 m E Pg      2013/05/08 09:06:53.4   0.2                          T                                        5277671
MTLF  001.53 083.4 m E Sn      2013/05/08 09:07:10.9   0.4                          T                                        5278079
MTLF  001.53 083.4 m E Sg      2013/05/08 09:07:13.7   0.6                          T                 .8  .19 Ml 1.7         5277670
LFF   001.81 013.9 m E Pn      2013/05/08 09:06:55.1   0.1                          T                                        5278082
LFF   001.81 013.9 m E Sn      2013/05/08 09:07:16.8  -0.2                          T                7.5  .23 Ml 2.5         5278081
CAF   002.23 038.0 m E Pn      2013/05/08 09:07:01.0   0.2                          T                                        5278084
CAF   002.23 038.0 m E Sn      2013/05/08 09:07:26.9  -0.3                          T                 .4  .18 Ml 1.6         5278083
LASF  002.85 070.5 m E Pn      2013/05/08 09:07:08.5  -0.6                          T                                        5278028
LASF  002.85 070.5 m E Pg      2013/05/08 09:07:17.6   0.1                          T                                        5278025
LASF  002.85 070.5 m E Sn      2013/05/08 09:07:42.3   0.4                          T                 .5  .22 Ml 1.7         5278026
LASF  002.85 070.5 m E Sg      2013/05/08 09:07:53.4  -0.7                          T                 .7  .25 Ml 1.9         5278027

.
EVENT     297713
    Date      Time       Latitude Longitude    Depth    Ndef Nsta Gap    Mag1  N    Mag2  N    Mag3  N   Author         ID
       rms   OT_Error      Smajor Sminor Az        Err   mdist  Mdist     Err        Err        Err      Quality

2013/05/08 09:12:02.7     49.4626    6.8691       .0 f    23   10 228  Ml 2.1 11  Md 2.1  1              bulletin    297813
                                                                                                         _ldg
      4.93   +-  0.60      11.6    6.5   56.37 +-  0.0    1.09   3.29   +-0.2      +-                    m i km

GERMANY
Sta     Dist  EvAz     Phase      Date       Time     TRes  Azim  AzRes  Slow  SRes Def   SNR       Amp   Per   Mag1   Mag2       ID
CDF   001.09 165.5 m E Pg      2013/05/08 09:12:23.4   0.0                          T                                        5289677
CDF   001.09 165.5 m E P       2013/05/08 09:12:25.2   0.0                          T                                        5277681
CDF   001.09 165.5 m E Sg      2013/05/08 09:12:37.9   0.2                          T                4.8  .24 Ml 2.3 Md 2.1  5277676
PAGF  001.18 220.1 m E Pg      2013/05/08 09:12:25.2   0.2  41.6  2.3               T                                        5277682
PAGF  001.18 220.1 m E Sg      2013/05/08 09:12:40.6   0.0 132.1  92.8              T                3.7  .25 Ml 2.1         5277683
GIVF  001.47 296.6 m E Pn      2013/05/08 09:12:28.7  -0.2                          T                                        5278092
GIVF  001.47 296.6 m E Sg      2013/05/08 09:12:49.3  -0.3                          T                5.8  .32 Ml 2.3         5278091
HAU   001.50 193.5 m E Pg      2013/05/08 09:12:31.2   0.2                          T                                        5277680
HAU   001.50 193.5 m E Sg      2013/05/08 09:12:50.4  -0.1                          T                3.5  .20 Ml 2.1         5277677
MEZF  001.54 231.9 m E Pg      2013/05/08 09:12:31.4  -0.1  54.6  4.1               T                                        5278094
MEZF  001.54 231.9 m E Sg      2013/05/08 09:12:51.4  -0.2  46.9  -3.6              T                2.8  .28 Ml 2.1         5278093
SFTF  001.75 224.6 m E Pn      2013/05/08 09:12:32.9   0.1                          T                                        5278090
SFTF  001.75 224.6 m E Sn      2013/05/08 09:12:53.7  -0.8                          T                1.2  .21 Ml 1.9         5278089
HINF  001.65 180.4 m E Pg      2013/05/08 09:12:33.8   0.1                          T                                        5277679
HINF  001.65 180.4 m E Sg      2013/05/08 09:12:55.6   0.5                          T                3.2  .22 Ml 2.3         5277678
BAIF  001.83 290.1 m E P       2013/05/08 09:12:35.6  -0.1                          T                                        5278016
BAIF  001.83 290.1 m E Sn      2013/05/08 09:12:56.2  -0.2                          T                 .7  .28 Ml 1.6         5278015
LOR   002.97 223.6 m E Pn      2013/05/08 09:12:49.9   0.4  45.2  3.9               T                                        5278086
LOR   002.97 223.6 m E Sn      2013/05/08 09:13:23.7  -0.2  38.3  -3.0              T                2.9  .46 Ml 2.2         5278085
SSF   003.29 224.3 m E Pn      2013/05/08 09:12:53.6  -0.1                          T                                        5278088
SSF   003.29 224.3 m E Sn      2013/05/08 09:13:31.3  -0.1                          T                 .7  .29 Ml 2.0         5278087

.
EVENT     297730
    Date      Time       Latitude Longitude    Depth    Ndef Nsta Gap    Mag1  N    Mag2  N    Mag3  N   Author         ID
       rms   OT_Error      Smajor Sminor Az        Err   mdist  Mdist     Err        Err        Err      Quality

2013/05/08 10:39:35.1     48.0197    9.4805     10.0      30    6 088  Ml 1.9  7  Md 2.2  1              bulletin    297830
                                                                                                         _ldg
      0.51   +-  0.11       1.9    1.7  155.16 +-  0.0    0.25   3.87   +-0.2      +-                    m i ke

GERMANY
Sta     Dist  EvAz     Phase      Date       Time     TRes  Azim  AzRes  Slow  SRes Def   SNR       Amp   Per   Mag1   Mag2       ID
CDF   001.53 285.7 m E Pg      2013/05/08 10:40:03.5  -0.2                          T                                        5277991
CDF   001.53 285.7 m E Sg      2013/05/08 10:40:23.4   0.0                          T                2.5  .23 Ml 2.2 Md 2.2  5277990
HINF  001.78 264.4 m E Pn      2013/05/08 10:40:04.5   0.2                          T                                        5278109
HINF  001.78 264.4 m E Pg      2013/05/08 10:40:07.8  -0.5                          T                                        5277995
HINF  001.78 264.4 m E Sn      2013/05/08 10:40:25.7   0.1                          T                                        5278108
HINF  001.78 264.4 m E Sg      2013/05/08 10:40:31.3   0.1                          T                 .9  .26 Ml 1.7         5277994
HAU   002.10 270.8 m E Pn      2013/05/08 10:40:08.8   0.2                          T                                        5278111
HAU   002.10 270.8 m E Pg      2013/05/08 10:40:13.9  -0.3                          T                                        5277993
HAU   002.10 270.8 m E Sn      2013/05/08 10:40:33.2  -0.1                          T                                        5278110
HAU   002.10 270.8 m E Sg      2013/05/08 10:40:40.7  -0.6                          T                2.0  .31 Ml 1.8         5277992
PAGF  002.56 283.5 m E Pn      2013/05/08 10:40:15.0   0.1 102.8  2.1               T                                        5278105
PAGF  002.56 283.5 m E Pg      2013/05/08 10:40:23.0   0.3  99.9  -0.8              T                                        5278104
PAGF  002.56 283.5 m E Sn      2013/05/08 10:40:44.3   0.0                          T                                        5278103
PAGF  002.56 283.5 m E Sg      2013/05/08 10:40:56.2   0.5                          T                 .9  .28 Ml 1.8         5278102
SFTF  002.98 275.2 m E Pn      2013/05/08 10:40:21.0   0.3 104.6  12.7              T                                        5278101
SFTF  002.98 275.2 m E Sn      2013/05/08 10:40:54.4   0.0                          T                                        5278100
SFTF  002.98 275.2 m E Sg      2013/05/08 10:41:08.7  -0.1                          T                 .8  .19 Ml 2.0         5278099
LOR   003.87 260.9 m E Pn      2013/05/08 10:40:32.5  -0.3                          T                                        5278107
LOR   003.87 260.9 m E Sn      2013/05/08 10:41:15.5  -0.1                          T                 .6  .24 Ml 2.0         5278106

.
