EVENT     262095
    Date      Time       Latitude Longitude    Depth    Ndef Nsta Gap    Mag1  N    Mag2  N    Mag3  N   Author         ID
       rms   OT_Error      Smajor Sminor Az        Err   mdist  Mdist     Err        Err        Err      Quality

2011/08/03 01:46:24.9     44.2975    4.4104      4.0 f    24   12 118  Ml 1.7 13  Md 1.7  3              js067245    262095

      0.34   +-  0.09       1.5    1.3  164.74 +-  0.0    0.46   2.60   +-0.3      +-0.1                 m i ke

FRANCE
Sta     Dist  EvAz     Phase      Date       Time     TRes  Azim  AzRes  Slow  SRes Def   SNR       Amp   Per   Mag1   Mag2       ID
LASF  000.46 241.1 m E Pg      2011/08/03 01:46:33.6  -0.2                          T                                        4731860
LASF  000.46 241.1 m E Sg      2011/08/03 01:46:39.0  -0.7                          T                4.5  .16        Md 1.5  4731847
VIVF  000.59 018.5 m E Pg      2011/08/03 01:46:36.1  -0.1                          T                                        4731859
VIVF  000.59 018.5 m E Pn      2011/08/03 01:46:38.3  -0.3                          T                                        4733285
VIVF  000.59 018.5 m E Sg      2011/08/03 01:46:44.6   0.6                          T                3.1  .18        Md 1.8  4731846
VIVF  000.59 018.5 m E Sn      2011/08/03 01:46:47.3  -0.7                          T                5.3  .24        Md 1.7  4733284
ORIF  001.22 058.9 m E Pn      2011/08/03 01:46:47.4   0.2                          T                                        4733292
ORIF  001.22 058.9 m E Sn      2011/08/03 01:47:03.0  -0.2                          T                 .8  .32 Ml 1.3         4731845
CAF   001.79 291.4 m E Pg      2011/08/03 01:46:58.7   0.4                          T                                        4731858
CAF   001.79 291.4 m E Sg      2011/08/03 01:47:20.9  -0.4                          T                  1  .20 Ml 1.9         4731849
RJF   002.29 297.1 m E Pg      2011/08/03 01:47:08.1   0.6                          T                                        4731857
RJF   002.29 297.1 m E Sg      2011/08/03 01:47:37.1   0.0                          T                2.0  .22 Ml 1.9         4731850
BGF   002.51 334.6 m E Pg      2011/08/03 01:47:12.4   0.8                          T                                        4731856
BGF   002.51 334.6 m E Sg      2011/08/03 01:47:43.2  -0.8                          T                  1  .21 Ml 2.0         4731852
FRF   001.78 113.7 m E Sg      2011/08/03 01:47:20.7  -0.2                          T                 .3  .20 Ml 1.4         4733291
LMR   001.80 121.7 m E Sg      2011/08/03 01:47:21.4  -0.2                          T                 .4  .21 Ml 1.4         4733290
MTLF  001.85 239.7 m E Sg      2011/08/03 01:47:23.3   0.0                          T                1.2  .23 Ml 1.9         4731848
SMF   002.38 350.5 m E Sg      2011/08/03 01:47:39.6  -0.2                          T                 .7  .23 Ml 1.8         4731853
TCF   002.52 322.8 m E Sg      2011/08/03 01:47:44.1  -0.2                          T                 .4  .28 Ml 1.5         4731855
AVF   002.60 343.8 m E Sg      2011/08/03 01:47:46.4  -0.2                          T                 .3  .22 Ml 1.4         4731854

.
EVENT     262096
    Date      Time       Latitude Longitude    Depth    Ndef Nsta Gap    Mag1  N    Mag2  N    Mag3  N   Author         ID
       rms   OT_Error      Smajor Sminor Az        Err   mdist  Mdist     Err        Err        Err      Quality

2011/08/03 01:46:59.2     44.2887    4.4119      7.0 f    28   19 118  Ml 1.8 18  Md 1.8  3              js067245    262096

      0.39   +-  0.10       1.8    1.2  156.65 +-  0.0    0.45   3.95   +-0.3      +-0.2                 m i ke

FRANCE
Sta     Dist  EvAz     Phase      Date       Time     TRes  Azim  AzRes  Slow  SRes Def   SNR       Amp   Per   Mag1   Mag2       ID
LASF  000.45 242.2 m E Pg      2011/08/03 01:47:07.8  -0.2                          T                                        4731895
LASF  000.45 242.2 m E Sg      2011/08/03 01:47:13.2  -0.7                          T                8.4  .18        Md 1.6  4731880
VIVF  000.60 018.1 m E Pg      2011/08/03 01:47:10.8   0.2                          T                                        4731894
VIVF  000.60 018.1 m E Pn      2011/08/03 01:47:12.6   0.0                          T                                        4733302
VIVF  000.60 018.1 m E Sg      2011/08/03 01:47:18.7   0.3                          T                3.9  .18        Md 2.0  4731879
VIVF  000.60 018.1 m E Sn      2011/08/03 01:47:21.5  -0.5                          T                5.3  .17        Md 1.8  4733301
CAF   001.79 291.6 m E Pg      2011/08/03 01:47:33.2   0.5                          T                                        4731896
CAF   001.79 291.6 m E Sg      2011/08/03 01:47:55.2  -0.6                          T                1.8  .18 Ml 2.1         4731883
ORIF  001.22 058.5 m E Sn      2011/08/03 01:47:37.3   0.3                          T                 .8  .31 Ml 1.3         4733299
TCF   002.53 322.9 m E Pg      2011/08/03 01:47:45.5  -0.7                          T                                        4731898
TCF   002.53 322.9 m E Sg      2011/08/03 01:48:18.4  -0.4                          T                 .6  .20 Ml 1.9         4733296
BGF   002.52 334.6 m E Pg      2011/08/03 01:47:46.4   0.4                          T                                        4731899
AVF   002.61 343.8 m E Pg      2011/08/03 01:47:48.3   0.7                          T                                        4731897
AVF   002.61 343.8 m E Sg      2011/08/03 01:48:21.1   0.0                          T                1.0  .25 Ml 2.0         4731891
MBDF  001.74 074.6 m E Sg      2011/08/03 01:47:54.0  -0.3                          T                 .2  .20 Ml 1.1         4733300
FRF   001.77 113.5 m E Sg      2011/08/03 01:47:54.9  -0.1                          T                 .8  .25 Ml 1.7         4733297
LMR   001.79 121.4 m E Sg      2011/08/03 01:47:55.8   0.1                          T                1.0  .30 Ml 1.7         4731878
MTLF  001.85 240.0 m E Sg      2011/08/03 01:47:57.5   0.1                          T                1.3  .16 Ml 2.1         4731881
LPL   002.06 052.5 m E Sg      2011/08/03 01:48:03.6  -0.6                          T                 .4  .24 Ml 1.5         4733298
RJF   002.30 297.2 m E Sg      2011/08/03 01:48:11.3  -0.2                          T                1.4  .20 Ml 1.8         4731885
SMF   002.39 350.5 m E Sg      2011/08/03 01:48:13.7  -0.6                          T                1.5  .21 Ml 2.1         4731890
CABF  002.60 026.3 m E Sg      2011/08/03 01:48:20.4  -0.7                          T                1.9  .24 Ml 2.2         4731892
LFF   002.70 285.2 m E Sg      2011/08/03 01:48:23.6  -0.4                          T                1.7  .32 Ml 1.9         4731884
EPF   003.21 248.4 m E Sg      2011/08/03 01:48:39.6  -0.4                          T                1.4  .29 Ml 2.2         4731882
ETSF  003.87 250.7 m E Sg      2011/08/03 01:49:01.0   0.4                          T                 .4  .22 Ml 1.9         4733056
MFF   003.95 307.4 m E Sg      2011/08/03 01:49:02.4  -0.7                          T                 .4  .23 Ml 2.1         4731886

.
EVENT     262094
    Date      Time       Latitude Longitude    Depth    Ndef Nsta Gap    Mag1  N    Mag2  N    Mag3  N   Author         ID
       rms   OT_Error      Smajor Sminor Az        Err   mdist  Mdist     Err        Err        Err      Quality

2011/08/03 01:47:29.1     44.2794    4.4085      7.0 f    69   24 090  Ml 2.2 26  Md 2.3  2              js067245    262094

      0.48   +-  0.06       1.2     .9  140.83 +-  0.0    0.45   3.96   +-0.3      +-0.0                 m i ke

FRANCE
Sta     Dist  EvAz     Phase      Date       Time     TRes  Azim  AzRes  Slow  SRes Def   SNR       Amp   Per   Mag1   Mag2       ID
LASF  000.45 243.1 m E Pg      2011/08/03 01:47:37.6  -0.1                          T   001.0                                4731609
LASF  000.45 243.1 m E Sg      2011/08/03 01:47:43.1  -0.5                          T               19.8  .15        Md 2.3  4731833
VIVF  000.61 018.0 m E Pg      2011/08/03 01:47:40.7   0.1                          T   001.0                                4731625
VIVF  000.61 018.0 m E Pn      2011/08/03 01:47:42.5  -0.2                          T                                        4733339
VIVF  000.61 018.0 m E Sg      2011/08/03 01:47:48.7   0.1                          T               16.9  .20        Md 2.3  4731832
VIVF  000.61 018.0 m E Sn      2011/08/03 01:47:51.4  -0.7                          T               22.8  .20                4733338
ORIF  001.23 058.2 m E Pn      2011/08/03 01:47:51.5   0.3                          T                                        4733327
ORIF  001.23 058.2 m E Sn      2011/08/03 01:48:07.1   0.0                          T   001.0        2.2  .28 Ml 1.8         4731624
FRF   001.77 113.2 m E Pn      2011/08/03 01:47:58.2  -0.2                          T                                        4733324
FRF   001.77 113.2 m E Sn      2011/08/03 01:48:20.4   0.5                          T   001.0                                4731607
FRF   001.77 113.2 m E Sg      2011/08/03 01:48:24.7  -0.1                          T   001.0        1.3  .20 Ml 2.0         4731608
LMR   001.79 121.1 m E Pn      2011/08/03 01:47:58.3  -0.4                          T                                        4733323
LMR   001.79 121.1 m E Sn      2011/08/03 01:48:20.2  -0.1                          T   001.0                                4731611
LMR   001.79 121.1 m E Sg      2011/08/03 01:48:25.6   0.1                          T   001.0        1.9  .24 Ml 2.1         4731612
CAF   001.79 291.9 m E Pn      2011/08/03 01:47:58.8   0.0                          T                                        4733336
CAF   001.79 291.9 m E Pg      2011/08/03 01:48:02.8   0.3                          T                                        4731829
CAF   001.79 291.9 m E Sg      2011/08/03 01:48:24.9  -0.8                          T   001.0        6.3  .21 Ml 2.6         4731606
MBDF  001.75 074.4 m E Pn      2011/08/03 01:47:59.2   0.9                          T                                        4733328
MBDF  001.75 074.4 m E Sn      2011/08/03 01:48:19.2  -0.3                          T                                        4733321
MBDF  001.75 074.4 m E Sg      2011/08/03 01:48:23.8  -0.6                          T                 .5  .34 Ml 1.3         4733320
MTLF  001.84 240.2 m E Pg      2011/08/03 01:48:03.0  -0.4                          T                                        4733337
MTLF  001.84 240.2 m E Sn      2011/08/03 01:48:21.8   0.2                          T   001.0        7.5  .32 Ml 2.5         4731622
MTLF  001.84 240.2 m E Sg      2011/08/03 01:48:27.5   0.3                          T                7.5  .31 Ml 2.6         4731834
LPL   002.06 052.4 m E Pn      2011/08/03 01:48:03.6   0.9                          T                                        4733326
LPL   002.06 052.4 m E Pg      2011/08/03 01:48:08.0   0.3                          T   001.0                                4731614
LPL   002.06 052.4 m E Sg      2011/08/03 01:48:33.5  -0.8                          T                 .4  .25 Ml 1.5         4733322
RJF   002.30 297.5 m E Pn      2011/08/03 01:48:05.9   0.2                          T                                        4733335
RJF   002.30 297.5 m E Pg      2011/08/03 01:48:11.9   0.1                          T                                        4731831
RJF   002.30 297.5 m E Sn      2011/08/03 01:48:33.0   0.5                          T   001.0                                4731600
RJF   002.30 297.5 m E Sg      2011/08/03 01:48:41.3  -0.1                          T                4.8  .23 Ml 2.3         4731837
SMF   002.40 350.6 m E Pn      2011/08/03 01:48:06.7  -0.3                          T                                        4733333
SMF   002.40 350.6 m E Pg      2011/08/03 01:48:13.7   0.0                          T   001.0                                4731616
SMF   002.40 350.6 m E Sg      2011/08/03 01:48:43.5  -1.0                          T   001.0        2.4  .20 Ml 2.4         4731617
LPG   002.06 053.0 m E Pg      2011/08/03 01:48:08.2   0.4                          T                                        4733325
LPG   002.06 053.0 m E Sg      2011/08/03 01:48:33.7  -0.7                          T                1.0  .23 Ml 1.9         4731827
BGF   002.53 334.8 m E Pn      2011/08/03 01:48:08.9   0.2                          T                                        4733334
BGF   002.53 334.8 m E Pg      2011/08/03 01:48:16.7   0.6                          T   001.0                                4731603
BGF   002.53 334.8 m E Sg      2011/08/03 01:48:47.4  -1.1                          T   001.0        5.4  .28 Ml 2.6         4731604
AVF   002.62 343.9 m E Pn      2011/08/03 01:48:09.6  -0.4                          T                                        4733332
AVF   002.62 343.9 m E Pg      2011/08/03 01:48:18.5   0.9                          T   001.0                                4731601
AVF   002.62 343.9 m E Sg      2011/08/03 01:48:50.4  -1.0                          T   001.0        2.7  .31 Ml 2.3         4731602
CABF  002.61 026.3 m E Pn      2011/08/03 01:48:10.0  -0.1                          T                                        4733331
CABF  002.61 026.3 m E Pg      2011/08/03 01:48:17.9   0.2                          T   001.0                                4731620
CABF  002.61 026.3 m E Sg      2011/08/03 01:48:50.7  -0.6                          T                1.6  .22 Ml 2.2         4731841
SSF   002.85 347.5 m E Pn      2011/08/03 01:48:13.8   0.6                          T                                        4733329
SSF   002.85 347.5 m E Pg      2011/08/03 01:48:22.6   0.6                          T                                        4731843
SSF   002.85 347.5 m E Sg      2011/08/03 01:48:57.8  -0.9                          T   001.0        1.7  .27 Ml 2.3         4731618
TCF   002.54 323.1 m E Pg      2011/08/03 01:48:16.2  -0.1                          T   001.0                                4731619
TCF   002.54 323.1 m E Sg      2011/08/03 01:48:48.3  -0.6                          T                1.2  .21 Ml 2.1         4731842
LOR   003.01 352.9 m E Pg      2011/08/03 01:48:24.9  -0.1                          T                                        4731844
LOR   003.01 352.9 m E Sg      2011/08/03 01:49:02.8  -0.9                          T   001.0        2.0  .28 Ml 2.3         4731613
HYF   003.24 338.1 m E Pg      2011/08/03 01:48:29.1   0.0                          T                                        4731838
EPF   003.21 248.5 m E Pg      2011/08/03 01:48:29.3   0.8                          T                                        4731828
EPF   003.21 248.5 m E Sg      2011/08/03 01:49:09.5  -0.3                          T                3.8  .31 Ml 2.6         4731835
MFF   003.96 307.5 m E Pg      2011/08/03 01:48:43.0   0.7                          T                                        4731830
MFF   003.96 307.5 m E Sg      2011/08/03 01:49:32.3  -0.8                          T   001.0         .7  .19 Ml 2.3         4731615
LFF   002.70 285.4 m E Sg      2011/08/03 01:48:54.0   0.1                          T   001.0        2.5  .22 Ml 2.3         4731610
ETSF  003.86 250.8 m E Sg      2011/08/03 01:49:31.1   0.9                          T                 .3  .17 Ml 1.9         4731836
HINF  003.93 024.8 m E Sg      2011/08/03 01:49:31.5  -0.7                          T                1.1  .28 Ml 2.3         4733330

.
