EVENT     260234
    Date      Time       Latitude Longitude    Depth    Ndef Nsta Gap    Mag1  N    Mag2  N    Mag3  N   Author         ID
       rms   OT_Error      Smajor Sminor Az        Err   mdist  Mdist     Err        Err        Err      Quality

2011/06/12 02:50:24.7     44.4709    9.4257      2.0     157   39 053  Ml 3.4 32  Md 3.2  2              js067245    260234

      1.13   +-  0.08       2.4    1.8    7.57 +-  0.0    0.17   8.11   +-0.4      +-0.0                 m i ke

NORTHERN ITALY
Sta     Dist  EvAz     Phase      Date       Time     TRes  Azim  AzRes  Slow  SRes Def   SNR       Amp   Per   Mag1   Mag2       ID
PTF   001.29 112.8 m E Pg      2011/06/12 02:50:47.4  -1.4                          T                                        4705623
SBF   001.56 247.7 m E Pn      2011/06/12 02:50:50.2  -1.6                          T   001.0                                4705735
SBF   001.56 247.7 m E Sn      2011/06/12 02:51:11.3   0.0                          T   001.0      299.7  .30 Ml 4.1 Md 3.2  4705736
PGF   001.95 189.3 m E Pn      2011/06/12 02:50:54.9  -2.2                          T   001.0                                4705733
PGF   001.95 189.3 m E Sn      2011/06/12 02:51:20.2  -0.6                          T   001.0       41.8  .32 Ml 3.5         4705734
MBDF  001.91 278.6 m E Pn      2011/06/12 02:50:55.8  -1.0                          T   001.0                                4705747
MBDF  001.91 278.6 m E Sn      2011/06/12 02:51:19.8  -0.2                          T   001.0      158.4  .44 Ml 3.7 Md 3.2  4705748
FRF   002.20 246.6 m E Pn      2011/06/12 02:50:59.0  -1.4                          T                                        4706746
FRF   002.20 246.6 m E P       2011/06/12 02:51:02.7  -0.1                          T   001.0                                4705718
FRF   002.20 246.6 m E Sn      2011/06/12 02:51:25.5  -1.2                          T   001.0      134.7  .48 Ml 3.7         4705719
LPL   002.18 299.6 m E Pn      2011/06/12 02:51:00.4  -0.1                          T   001.0                                4705729
LPG   002.16 299.3 m E Pn      2011/06/12 02:51:00.4   0.1                          T   001.0                                4705727
LPG   002.16 299.3 m E Sn      2011/06/12 02:51:26.1   0.1                          T   001.0      105.1  .52 Ml 3.5         4705728
LPL   002.18 299.6 m E Sn      2011/06/12 02:51:26.3  -0.1                          T   001.0                                4705730
LPL   002.18 299.6 m E Sg      2011/06/12 02:51:33.4   0.0                          T   001.0       77.8  .36 Ml 3.6         4705731
LMR   002.39 242.7 m E Pn      2011/06/12 02:51:01.5  -1.6                          T   001.0                                4705723
LMR   002.39 242.7 m E Sn      2011/06/12 02:51:30.0  -1.3                          T   001.0       63.4  .28 Ml 3.7         4705724
ORIF  002.57 281.3 m E Pn      2011/06/12 02:51:06.4   0.8                          T   001.0                                4705754
ORIF  002.57 281.3 m E Sn      2011/06/12 02:51:35.9   0.3                          T              113.5  .48 Ml 3.7         4706745
SMRF  002.81 261.2 m E Pn      2011/06/12 02:51:09.0   0.1                          T   001.0                                4705757
SMRF  002.81 261.2 m E Sn      2011/06/12 02:51:40.6  -0.7                          T   001.0       74.6  .52 Ml 3.5         4705751
CABF  003.18 313.6 m E Pn      2011/06/12 02:51:14.7   0.8                          T   001.0                                4705743
CABF  003.18 313.6 m E Sn      2011/06/12 02:51:49.7  -0.4                          T   001.0       23.7  .36 Ml 3.3         4705744
VIVF  003.41 278.1 m E Pn      2011/06/12 02:51:16.0   0.0                          T   001.0                                4705755
VIVF  003.41 278.1 m E Sn      2011/06/12 02:51:55.0  -0.7                          T   001.0       15.4  .36 Ml 3.2         4705756
HINF  003.79 332.8 m E Pn      2011/06/12 02:51:22.0  -0.2                          T   001.0                                4705745
HINF  003.79 332.8 m E Sn      2011/06/12 02:52:05.1   0.3                          T   001.0       17.2  .28 Ml 3.4         4705746
LASF  004.02 266.3 m E Pn      2011/06/12 02:51:24.2  -1.0                          T   001.0                                4705721
LASF  004.02 266.3 m E Sn      2011/06/12 02:52:09.6  -0.6                          T   001.0       13.8  .52 Ml 3.1         4705722
HAU   004.13 330.0 m E Pn      2011/06/12 02:51:26.5  -0.3                          T   001.0                                4705720
HAU   004.13 330.0 m E Sn      2011/06/12 02:52:13.4   0.6                          T               97.3  .45 Ml 3.8         4706737
CDF   004.21 340.1 m E Pn      2011/06/12 02:51:27.3  -0.7                          T   001.0                                4705716
CDF   004.21 340.1 m E Sn      2011/06/12 02:52:13.7  -1.2                          T   001.0         16  .40 Ml 3.4         4705717
SMF   004.48 301.0 m E Pn      2011/06/12 02:51:32.4   0.8                          T   001.0                                4705738
SMF   004.48 301.0 m E Sn      2011/06/12 02:52:21.2  -0.1                          T   001.0       49.7  .44 Ml 3.8         4705739
LOR   004.79 307.7 m E Pn      2011/06/12 02:51:36.5   0.7 132.3  8.6               T   001.0                                4705725
LOR   004.79 307.7 m E Sn      2011/06/12 02:52:28.2  -0.4                          T   001.0       57.8  .36 Ml 4.0         4705726
PAGF  004.82 329.3 m E Pn      2011/06/12 02:51:36.6   0.4 141.8  -4.9              T                                        4706758
PAGF  004.82 329.3 m E Sn      2011/06/12 02:52:29.0  -0.2                          T                4.0  .35 Ml 2.9         4706735
SFTF  004.81 322.4 m E Pn      2011/06/12 02:51:36.8   0.7 132.6  -6.7              T                                        4706757
SFTF  004.81 322.4 m E Sn      2011/06/12 02:52:29.3   0.2                          T               12.3  .44 Ml 3.3         4706736
AVF   004.85 300.7 m E Pn      2011/06/12 02:51:36.8   0.3                          T   001.0                                4705712
AVF   004.85 300.7 m E Sn      2011/06/12 02:52:29.2  -0.8                          T   001.0        9.9  .48 Ml 3.2         4705713
SSF   004.89 304.1 m E Pn      2011/06/12 02:51:37.7   0.7                          T   001.0                                4705740
SSF   004.89 304.1 m E Sn      2011/06/12 02:52:30.7  -0.1                          T               16.4  .47 Ml 3.5         4706733
MEZF  005.04 324.7 m E Pn      2011/06/12 02:51:39.7   0.6 151.2  9.7               T   001.0                                4705749
MEZF  005.04 324.7 m E Sn      2011/06/12 02:52:34.9   0.4                          T   001.0       11.5  .44 Ml 3.3         4705750
BGF   005.07 296.6 m E Pn      2011/06/12 02:51:40.0   0.4                          T   001.0                                4705714
BGF   005.07 296.6 m E Sn      2011/06/12 02:52:35.8   0.5                          T               60.0  .42 Ml 4.0         4706739
MTLF  005.33 260.3 m E Pn      2011/06/12 02:51:42.6  -0.5                          T   001.0                                4705752
MTLF  005.33 260.3 m E Sn      2011/06/12 02:52:40.3  -1.1                          T   001.0        4.8  .36 Ml 3.1         4705753
CAF   005.27 277.5 m E Pn      2011/06/12 02:51:42.6   0.4                          T   001.0                                4705715
TCF   005.40 292.2 m E Pn      2011/06/12 02:51:45.6   1.5                          T   001.0                                4705741
TCF   005.40 292.2 m E Sn      2011/06/12 02:52:43.5   0.4                          T                8.4  .37 Ml 3.4         4706734
HYF   005.50 302.9 m E Pn      2011/06/12 02:51:45.7   0.2                          T                                        4706756
HYF   005.50 302.9 m E Sn      2011/06/12 02:52:45.9   0.3                          T                                        4706738
RJF   005.68 281.2 m E Pn      2011/06/12 02:51:49.4   1.5                          T                                        4706751
RJF   005.68 281.2 m E Sn      2011/06/12 02:52:50.3   0.4                          T                3.2  .40 Ml 2.6         4706742
LFF   006.21 277.4 m E Pn      2011/06/12 02:51:56.5   1.5                          T                                        4706750
GIVF  006.44 332.6 m E Pn      2011/06/12 02:51:58.5   0.3                          T                                        4706759
EPF   006.74 260.8 m E Pn      2011/06/12 02:52:02.2  -0.1                          T                                        4706747
EPF   006.74 260.8 m E Sn      2011/06/12 02:53:15.2   0.1                          T                1.6  .34 Ml 2.9         4706744
BAIF  006.62 329.4 m E Pn      2011/06/12 02:52:02.6   2.0                          T   001.0                                4705742
MFF   007.05 290.9 m E Pn      2011/06/12 02:52:08.0   1.4                          T   001.0                                4705732
MFF   007.05 290.9 m E Sn      2011/06/12 02:53:22.7   0.2                          T                1.6  .31 Ml 3.1         4706741
ETSF  007.41 261.2 m E Pn      2011/06/12 02:52:11.4   0.0                          T                                        4706748
ETSF  007.41 261.2 m E Sn      2011/06/12 02:53:31.5   0.3                          T                1.5  .28 Ml 3.0         4706743
LDF   007.77 305.4 m E Pn      2011/06/12 02:52:16.2   0.0                          T                                        4706753
SJPF  007.83 263.7 m E Pn      2011/06/12 02:52:16.5  -0.6                          T                                        4706749
FLN   008.06 305.7 m E Pn      2011/06/12 02:52:19.6  -0.6                          T                                        4706752
GRR   008.11 302.5 m E Pn      2011/06/12 02:52:20.8  -0.2                          T                                        4706754

.
EVENT     260235
    Date      Time       Latitude Longitude    Depth    Ndef Nsta Gap    Mag1  N    Mag2  N    Mag3  N   Author         ID
       rms   OT_Error      Smajor Sminor Az        Err   mdist  Mdist     Err        Err        Err      Quality

2011/06/12 02:56:59.4     44.3704    9.5030      2.0      23   17 211  Ml 2.3  5                         js067245    260235

      0.52   +-  0.40       9.5    5.0   97.54 +-  0.0    1.57   5.17   +-0.1                            m i ke

NORTHERN ITALY
Sta     Dist  EvAz     Phase      Date       Time     TRes  Azim  AzRes  Slow  SRes Def   SNR       Amp   Per   Mag1   Mag2       ID
SBF   001.57 251.9 m E Pn      2011/06/12 02:57:26.0  -0.7                          T                                        4706782
SBF   001.57 251.9 m E Sn      2011/06/12 02:57:47.1   0.6                          T                5.0  .25 Ml 2.4         4706764
PGF   001.86 191.6 m E Pn      2011/06/12 02:57:30.6  -0.1                          T                                        4706765
PGF   001.86 191.6 m E Sn      2011/06/12 02:57:56.1   2.7                          T                1.3  .30 Ml 2.1         4706763
MBDF  001.99 281.3 m E Pn      2011/06/12 02:57:31.7  -0.7                          T                                        4706773
MBDF  001.99 281.3 m E Sn      2011/06/12 02:57:55.5  -0.9                          T                3.5  .26 Ml 2.3         4706760
FRF   002.22 249.6 m E Pn      2011/06/12 02:57:34.8  -0.6                          T                                        4706767
FRF   002.22 249.6 m E P       2011/06/12 02:57:38.7   0.9                          T                                        4706768
FRF   002.22 249.6 m E Sn      2011/06/12 02:58:01.4  -0.4                          T                2.8  .27 Ml 2.3         4706761
LPL   002.28 301.2 m E Pn      2011/06/12 02:57:36.2  -0.3                          T                                        4706771
LPG   002.26 300.9 m E Pn      2011/06/12 02:57:36.2  -0.1                          T                                        4706770
LMR   002.40 245.5 m E Pn      2011/06/12 02:57:37.6  -0.3                          T                                        4706766
LMR   002.40 245.5 m E Sn      2011/06/12 02:58:05.9  -0.3                          T                1.9  .22 Ml 2.3         4706762
ORIF  002.64 283.2 m E Pn      2011/06/12 02:57:42.4   1.1                          T                                        4706772
SMRF  002.85 263.4 m E Pn      2011/06/12 02:57:44.6   0.4                          T                                        4706769
CABF  003.28 314.2 m E Pn      2011/06/12 02:57:50.4   0.4                          T                                        4706777
HINF  003.91 332.8 m E Pn      2011/06/12 02:57:58.3  -0.2                          T                                        4706778
HAU   004.24 330.0 m E Pn      2011/06/12 02:58:02.6  -0.5                          T                                        4706779
CDF   004.33 339.9 m E Pn      2011/06/12 02:58:03.0  -1.2                          T                                        4706780
SMF   004.58 301.7 m E Pn      2011/06/12 02:58:08.2   0.5                          T                                        4706775
AVF   004.95 301.4 m E Pn      2011/06/12 02:58:12.1  -0.5                          T                                        4706776
LOR   004.89 308.3 m E Pn      2011/06/12 02:58:12.7   0.8                          T                                        4706781
BGF   005.17 297.4 m E Pn      2011/06/12 02:58:16.1   0.5                          T                                        4706774

.
