EVENT     278265
    Date      Time       Latitude Longitude    Depth    Ndef Nsta Gap    Mag1  N    Mag2  N    Mag3  N   Author         ID
       rms   OT_Error      Smajor Sminor Az        Err   mdist  Mdist     Err        Err        Err      Quality

2012/06/16 01:12:23.4     45.1633   -3.3117     30.0      33   14 122  Ml 2.0 10                         bulletin    278365
                                                                                                         _ldg
      0.48   +-  0.06       1.6    1.3   95.53 +-  0.0    1.93   5.67   +-0.3                            m i ke

BAY OF BISCAY
Sta     Dist  EvAz     Phase      Date       Time     TRes  Azim  AzRes  Slow  SRes Def   SNR       Amp   Per   Mag1   Mag2       ID
SJPF  002.54 143.0 m E Pn      2012/06/16 01:13:01.4   0.1                          T                                        5020452
SJPF  002.54 143.0 m E Sn      2012/06/16 01:13:29.5   0.0                          T                1.1  .20 Ml 2.1         5020467
MFF   002.64 055.8 m E Pn      2012/06/16 01:13:02.9   0.2                          T                                        5020447
MFF   002.64 055.8 m E Sn      2012/06/16 01:13:31.7  -0.1                          T                1.5  .26 Ml 2.3         5020463
QUIF  002.76 002.0 m E Pn      2012/06/16 01:13:04.2   0.0                          T                                        5020446
ETSF  003.01 137.8 m E Pn      2012/06/16 01:13:07.8   0.0                          T                                        5020471
ETSF  003.01 137.8 m E P       2012/06/16 01:13:10.5   0.1                          T                                        5020451
ETSF  003.01 137.8 m E Sn      2012/06/16 01:13:40.8   0.1                          T                1.1  .24 Ml 2.1         5020468
SGMF  003.14 009.3 m E Pn      2012/06/16 01:13:09.4   0.1                          T                                        5020474
ROSF  003.17 000.5 m E Pn      2012/06/16 01:13:09.6  -0.3                          T                                        5020473
ROSF  003.17 000.5 m E Sn      2012/06/16 01:13:44.7   0.2                          T                 .6  .16 Ml 2.0         5020461
EPF   003.39 127.7 m E Pn      2012/06/16 01:13:12.4  -0.4                          T                                        5020449
EPF   003.39 127.7 m E Sn      2012/06/16 01:13:49.9   0.2                          T                 .6  .25 Ml 1.9         5020460
CAF   003.82 091.7 m E Pn      2012/06/16 01:13:18.6  -0.1                          T                                        5020448
CAF   003.82 091.7 m E Sn      2012/06/16 01:14:00.3   0.3                          T                1.4  .19 Ml 2.5         5020466
MTLF  004.37 112.7 m E Pn      2012/06/16 01:13:27.1   0.9                          T                                        5020450
MTLF  004.37 112.7 m E Sn      2012/06/16 01:14:12.9  -0.2                          T                 .7  .25 Ml 2.2         5020469
BGF   004.52 069.9 m E Pn      2012/06/16 01:13:28.3   0.1                          T                                        5020472
LFF   002.88 093.0 m E Sn      2012/06/16 01:13:37.2  -0.4                          T                 .8  .21 Ml 1.8         5020465
VIVF  005.67 090.3 m E P       2012/06/16 01:13:48.0   0.1                          T                                        5020470
RJF   003.41 085.9 m E Sn      2012/06/16 01:13:50.2  -0.1                          T                1.6  .24 Ml 2.0         5020464
GRR   003.64 026.7 m E Sn      2012/06/16 01:13:55.1  -0.5                          T                 .2  .19 Ml 1.5         5020462

.
EVENT     278227
    Date      Time       Latitude Longitude    Depth    Ndef Nsta Gap    Mag1  N    Mag2  N    Mag3  N   Author         ID
       rms   OT_Error      Smajor Sminor Az        Err   mdist  Mdist     Err        Err        Err      Quality

2012/06/16 02:40:32.7     44.8115   11.5811     10.0 f    31   10 154  Ml 2.6  6                         bulletin    278327
                                                                                                         _ldg
      0.58   +-  0.16       5.2    2.8  145.67 +-  0.0    1.19   5.72   +-0.2                            m i ke

NORTHERN ITALY
Sta     Dist  EvAz     Phase      Date       Time     TRes  Azim  AzRes  Slow  SRes Def   SNR       Amp   Per   Mag1   Mag2       ID
PGF   002.94 220.5 m E Pn      2012/06/16 02:41:18.7   1.0                          T                                        5003027
PGF   002.94 220.5 m E Sn      2012/06/16 02:41:51.2   0.4                          T                                        5003009
SBF   003.12 253.8 m E Pn      2012/06/16 02:41:20.1  -0.1                          T                                        5003026
SBF   003.12 253.8 m E Sn      2012/06/16 02:41:55.7   0.4                          T               15.2  .48 Ml 3.0         5003010
FRF   003.76 252.3 m E Pn      2012/06/16 02:41:28.9   0.1                          T                                        5003024
FRF   003.76 252.3 m E Sn      2012/06/16 02:42:10.1  -0.4                          T                3.0  .38 Ml 2.5         5003012
LMR   003.94 249.8 m E Pn      2012/06/16 02:41:31.0  -0.3                          T                                        5003025
LMR   003.94 249.8 m E Sn      2012/06/16 02:42:14.5  -0.3                          T                2.1  .35 Ml 2.4         5003011
ORIF  004.05 273.5 m E Pn      2012/06/16 02:41:33.6   0.7                          T                                        5003022
ORIF  004.05 273.5 m E Sn      2012/06/16 02:42:16.8  -0.8                          T                3.5  .38 Ml 2.6         5003013
SMRF  004.38 261.1 m E Pn      2012/06/16 02:41:37.5   0.2                          T                                        5003023
HINF  004.45 314.2 m E Pn      2012/06/16 02:41:37.7  -0.5                          T                                        5003019
HINF  004.45 314.2 m E Sn      2012/06/16 02:42:25.4  -1.4                          T                1.6  .22 Ml 2.6         5003016
VIVF  004.91 272.9 m E Pn      2012/06/16 02:41:43.9  -0.7                          T                                        5003021
VIVF  004.91 272.9 m E Sn      2012/06/16 02:42:37.5  -0.6                          T                                        5003014
HAU   004.83 313.3 m E Pn      2012/06/16 02:41:44.1   0.7                          T                                        5003018
HAU   004.83 313.3 m E Sn      2012/06/16 02:42:33.3  -2.7                          T                4.0  .34 Ml 2.7         5003017
SMF   005.72 291.4 m E Pn      2012/06/16 02:41:55.0  -0.5                          T                                        5003020
SMF   005.72 291.4 m E Sn      2012/06/16 02:42:54.4  -2.9                          T                                        5003015

.
EVENT     278236
    Date      Time       Latitude Longitude    Depth    Ndef Nsta Gap    Mag1  N    Mag2  N    Mag3  N   Author         ID
       rms   OT_Error      Smajor Sminor Az        Err   mdist  Mdist     Err        Err        Err      Quality

2012/06/16 12:07:04.0     42.8232   -1.2832      2.0      18    3 088  Ml 2.1  1  Md 1.9  2              bulletin    278336
                                                                                                         _ldg
      0.81   +-  0.19       4.2    2.7   29.89 +-  0.0    0.04   2.96   +-         +-0.0                 m i ke

PYRENEES
Sta     Dist  EvAz     Phase      Date       Time     TRes  Azim  AzRes  Slow  SRes Def   SNR       Amp   Per   Mag1   Mag2       ID
SJPF  000.29 008.4 m E Pg      2012/06/16 12:07:09.9   0.2                          T                                        5003046
SJPF  000.29 008.4 m E Sg      2012/06/16 12:07:14.2   0.5                          T               54.9  .32        Md 1.9  5003044
ETSF  000.54 081.7 m E Pg      2012/06/16 12:07:13.9  -0.4                          T                                        5003045
ETSF  000.54 081.7 m E Sg      2012/06/16 12:07:20.7  -0.7                          T                7.8  .22        Md 2.0  5003043
EPF   001.21 079.6 m E Pg      2012/06/16 12:07:26.5  -0.2                          T                                        5003041
EPF   001.21 079.6 m E Sg      2012/06/16 12:07:42.3  -0.1                          T                6.5  .39 Ml 2.1         5003042

.
EVENT     278237
    Date      Time       Latitude Longitude    Depth    Ndef Nsta Gap    Mag1  N    Mag2  N    Mag3  N   Author         ID
       rms   OT_Error      Smajor Sminor Az        Err   mdist  Mdist     Err        Err        Err      Quality

2012/06/16 15:39:10.5     44.9332   11.0587      2.0      65   20 078  Ml 3.0 19                         bulletin    278337
                                                                                                         _ldg
      0.60   +-  0.12       3.1    2.4   78.21 +-  0.0    0.15   5.69   +-0.3                            m i ke

NORTHERN ITALY
Sta     Dist  EvAz     Phase      Date       Time     TRes  Azim  AzRes  Slow  SRes Def   SNR       Amp   Per   Mag1   Mag2       ID
PGF   002.81 212.8 m E Pn      2012/06/16 15:39:55.0   0.3                          T                                        5003115
PGF   002.81 212.8 m E Sn      2012/06/16 15:40:27.1  -0.1                          T               17.1  .34 Ml 3.3         5003111
SBF   002.81 248.9 m E Pn      2012/06/16 15:39:56.0   1.4                          T                                        5003114
SBF   002.81 248.9 m E Sn      2012/06/16 15:40:30.0   2.9                          T               73.8  .38 Ml 3.7         5003110
MBDF  003.06 267.6 m E Pn      2012/06/16 15:39:57.9  -0.2                          T                                        5003093
MBDF  003.06 267.6 m E Sn      2012/06/16 15:40:33.0  -0.1                          T               14.8  .50 Ml 2.9         5003089
LPL   003.11 282.3 m E Pn      2012/06/16 15:39:59.2   0.2                          T                                        5003091
FRF   003.45 248.1 m E Pn      2012/06/16 15:40:03.6   0.3                          T                                        5003113
FRF   003.45 248.1 m E Sn      2012/06/16 15:40:42.3  -0.1                          T               28.0  .48 Ml 3.3         5003109
ORIF  003.68 271.6 m E Pn      2012/06/16 15:40:06.1  -0.4                          T                                        5003107
ORIF  003.68 271.6 m E Sn      2012/06/16 15:40:48.0   0.2                          T               12.8  .64 Ml 2.9         5003090
LMR   003.64 245.6 m E Pn      2012/06/16 15:40:06.4   0.5                          T                                        5003112
LMR   003.64 245.6 m E Sn      2012/06/16 15:40:47.5   0.5                          T               19.6  .28 Ml 3.4         5003108
CABF  003.86 297.5 m E Pn      2012/06/16 15:40:10.0   1.0                          T                                        5003100
CABF  003.86 297.5 m E Sn      2012/06/16 15:40:52.1  -0.1                          T                4.7  .37 Ml 2.7         5003085
SMRF  004.04 258.2 m E Pn      2012/06/16 15:40:10.8  -0.5                          T                                        5003106
SMRF  004.04 258.2 m E Sn      2012/06/16 15:40:56.8   0.3                          T                6.2  .51 Ml 2.7         5003092
HINF  004.10 316.2 m E Pn      2012/06/16 15:40:11.5  -0.6                          T                                        5003099
HINF  004.10 316.2 m E Sn      2012/06/16 15:40:57.5  -0.3                          T                6.6  .34 Ml 3.0         5003084
CDF   004.35 324.5 m E Pn      2012/06/16 15:40:16.6   1.0                          T                                        5003096
CDF   004.35 324.5 m E Sn      2012/06/16 15:41:05.5   1.7                          T                2.8  .22 Ml 2.9         5003094
VIVF  004.54 271.3 m E Pn      2012/06/16 15:40:17.7  -0.4                          T                                        5003105
HAU   004.48 315.0 m E Pn      2012/06/16 15:40:18.1   0.8                          T                                        5003098
HAU   004.48 315.0 m E Sn      2012/06/16 15:41:07.2   0.3                          T                9.0  .30 Ml 3.0         5003083
LASF  005.22 263.1 m E Pn      2012/06/16 15:40:26.8  -0.6                          T                                        5003104
SFTF  005.29 310.4 m E Pn      2012/06/16 15:40:27.1  -1.1                          T                                        5003097
SMF   005.33 291.3 m E Pn      2012/06/16 15:40:29.5   0.6                          T                                        5003101
SMF   005.33 291.3 m E Sn      2012/06/16 15:41:28.3   1.1                          T               11.3  .56 Ml 3.3         5003088
LOR   005.52 297.6 m E Pn      2012/06/16 15:40:31.6   0.0                          T                                        5003095
LOR   005.52 297.6 m E Sn      2012/06/16 15:41:31.9   0.0                          T                4.2  .36 Ml 3.1         5003081
SSF   005.68 294.7 m E Pn      2012/06/16 15:40:32.7  -0.9                          T                                        5003103
SSF   005.68 294.7 m E Sn      2012/06/16 15:41:35.2  -0.3                          T                1.7  .31 Ml 2.8         5003086
AVF   005.69 291.8 m E Pn      2012/06/16 15:40:33.8   0.0                          T                                        5003102
AVF   005.69 291.8 m E Sn      2012/06/16 15:41:34.8  -1.1                          T                 .9  .32 Ml 2.5         5003087
THEF  004.80 315.1 m E Sn      2012/06/16 15:41:14.4  -0.2                          T                2.2  .17 Ml 2.9         5003082

.
EVENT     278238
    Date      Time       Latitude Longitude    Depth    Ndef Nsta Gap    Mag1  N    Mag2  N    Mag3  N   Author         ID
       rms   OT_Error      Smajor Sminor Az        Err   mdist  Mdist     Err        Err        Err      Quality

2012/06/17 01:54:30.0     43.1067   -1.1360      8.0 f    14    3 160  Ml 1.2  1  Md 1.4  2              bulletin    278338
                                                                                                         _ldg
      0.29   +-  0.09       2.3    1.4    4.04 +-  0.0    0.07   1.47   +-         +-0.1                 m i ke

PYRENEES
Sta     Dist  EvAz     Phase      Date       Time     TRes  Azim  AzRes  Slow  SRes Def   SNR       Amp   Per   Mag1   Mag2       ID
SJPF  000.07 275.8 m E Pg      2012/06/17 01:54:32.2   0.0                          T                                        5003143
SJPF  000.07 275.8 m E Sg      2012/06/17 01:54:33.6  -0.1                          T               17.3  .20        Md 1.5  5003140
ETSF  000.47 116.0 m E Pg      2012/06/17 01:54:38.9  -0.3                          T                                        5003142
ETSF  000.47 116.0 m E Sg      2012/06/17 01:54:45.2  -0.3                          T                3.8  .32        Md 1.4  5003139
EPF   001.08 093.5 m E Pn      2012/06/17 01:54:50.1   0.1                          T                                        5003141
EPF   001.08 093.5 m E Sn      2012/06/17 01:55:04.1  -0.2                          T                 .7  .29 Ml 1.2         5003138

.
EVENT     278240
    Date      Time       Latitude Longitude    Depth    Ndef Nsta Gap    Mag1  N    Mag2  N    Mag3  N   Author         ID
       rms   OT_Error      Smajor Sminor Az        Err   mdist  Mdist     Err        Err        Err      Quality

2012/06/17 03:58:59.4     44.4932    6.7037      2.0      34   10 054  Ml 1.3  5  Md 1.5  1              bulletin    278340
                                                                                                         _ldg
      0.31   +-  0.05       1.1     .9   57.41 +-  0.0    0.11   2.09   +-0.1      +-                    m i ke

FRANCE
Sta     Dist  EvAz     Phase      Date       Time     TRes  Azim  AzRes  Slow  SRes Def   SNR       Amp   Per   Mag1   Mag2       ID
MBDF  000.24 011.7 m E Pg      2012/06/17 03:59:04.3   0.0                          T                                        5020480
MBDF  000.24 011.7 m E Sg      2012/06/17 03:59:07.4  -0.2                          T                4.5  .36        Md 1.5  5003177
ORIF  000.73 306.2 m E Pg      2012/06/17 03:59:12.7  -0.5                          T                                        5003176
ORIF  000.73 306.2 m E Sg      2012/06/17 03:59:22.1  -0.5                          T                 .9  .21                5003183
SBF   000.82 139.9 m E Pg      2012/06/17 03:59:15.1   0.2                          T                                        5003170
SBF   000.82 139.9 m E Sg      2012/06/17 03:59:25.8   0.1                          T                1.3  .37                5003180
FRF   000.93 182.5 m E Pg      2012/06/17 03:59:17.3   0.4                          T                                        5003174
FRF   000.93 182.5 m E Sg      2012/06/17 03:59:29.4   0.4                          T                1.2  .24 Ml 1.5         5003182
SMRF  000.96 237.9 m E Pg      2012/06/17 03:59:18.4   0.9                          T                                        5003175
SMRF  000.96 237.9 m E Sn      2012/06/17 03:59:32.4   0.6                          T                 .9  .28 Ml 1.3         5020479
LPG   001.01 001.9 m E Pg      2012/06/17 03:59:18.5   0.0                          T                                        5003172
LPL   001.02 001.1 m E Pg      2012/06/17 03:59:18.6  -0.2                          T                                        5003173
LMR   001.17 187.0 m E Pg      2012/06/17 03:59:21.4   0.2                          T                                        5020478
LMR   001.17 187.0 m E Sg      2012/06/17 03:59:36.8   0.5                          T                 .6  .23 Ml 1.3         5003181
VIVF  001.49 284.8 m E Pn      2012/06/17 03:59:25.6   0.1                          T                                        5003169
VIVF  001.49 284.8 m E Sn      2012/06/17 03:59:44.7   0.2                          T                 .3  .24 Ml 1.1         5003178
LASF  002.09 259.5 m E Pn      2012/06/17 03:59:33.6   0.0                          T                                        5003168
LASF  002.09 259.5 m E Sn      2012/06/17 03:59:59.0   0.3                          T                 .2  .15 Ml 1.4         5003179

.
