EVENT     290479
    Date      Time       Latitude Longitude    Depth    Ndef Nsta Gap    Mag1  N    Mag2  N    Mag3  N   Author         ID
       rms   OT_Error      Smajor Sminor Az        Err   mdist  Mdist     Err        Err        Err      Quality

2013/01/17 20:11:48.8     47.6110    6.9889      4.0 f    15    6 281  Ml 1.8  2  Md 1.8  2              bulletin    290579
                                                                                                         _ldg
      0.22   +-  0.21       3.7    2.3  158.24 +-  0.0    0.23   1.58   +-0.1      +-0.1                 m i ke

FRANCE
Sta     Dist  EvAz     Phase      Date       Time     TRes  Azim  AzRes  Slow  SRes Def   SNR       Amp   Per   Mag1   Mag2       ID
HINF  000.23 336.0 m E Pg      2013/01/17 20:11:53.5   0.0                          T                                        5171716
HINF  000.23 336.0 m E Sg      2013/01/17 20:11:56.5   0.0                          T                3.6  .17        Md 1.7  5171714
HAU   000.59 312.7 m E Pg      2013/01/17 20:11:59.3  -0.6                          T                                        5171715
HAU   000.59 312.7 m E Sg      2013/01/17 20:12:08.0   0.3                          T                                        5171713
CDF   000.82 013.4 m E Pg      2013/01/17 20:12:04.4   0.0                          T                                        5171718
CDF   000.82 013.4 m E Sg      2013/01/17 20:12:15.1  -0.1                          T                 .9  .17        Md 1.9  5171717
PAGF  001.27 318.6 m E Pn      2013/01/17 20:12:11.9   0.2                          T                                        5171727
PAGF  001.27 318.6 m E Sn      2013/01/17 20:12:28.6   0.4                          T                                        5171726
SFTF  001.44 295.1 m E Pn      2013/01/17 20:12:14.0   0.0                          T                                        5171725
SFTF  001.44 295.1 m E Sn      2013/01/17 20:12:32.5   0.3                          T                                        5171724
SFTF  001.44 295.1 m E Sg      2013/01/17 20:12:34.3   0.0                          T                1.0  .23 Ml 1.7         5171723
MEZF  001.58 305.2 m E Pn      2013/01/17 20:12:15.9   0.1                          T                                        5171722
MEZF  001.58 305.2 m E Pg      2013/01/17 20:12:17.7  -0.5                          T                                        5171721
MEZF  001.58 305.2 m E Sn      2013/01/17 20:12:35.3  -0.1                          T                                        5171720
MEZF  001.58 305.2 m E Sg      2013/01/17 20:12:38.3  -0.2                          T                1.5  .24 Ml 1.9         5171719

.
EVENT     290481
    Date      Time       Latitude Longitude    Depth    Ndef Nsta Gap    Mag1  N    Mag2  N    Mag3  N   Author         ID
       rms   OT_Error      Smajor Sminor Az        Err   mdist  Mdist     Err        Err        Err      Quality

2013/01/17 22:06:35.9     43.0575       -.1      2.0      63   16 074  Ml 2.2 15  Md 2.2  3              bulletin    290581
                                                                                                         _ldg
      0.37   +-  0.05       1.0     .9  154.88 +-  0.0    0.13   4.75   +-0.3      +-0.1                 m i ke

PYRENEES
Sta     Dist  EvAz     Phase      Date       Time     TRes  Azim  AzRes  Slow  SRes Def   SNR       Amp   Per   Mag1   Mag2       ID
EPF   000.32 094.7 m E Pg      2013/01/17 22:06:42.2  -0.1                          T                                        5171796
EPF   000.32 094.7 m E Sg      2013/01/17 22:06:46.9   0.3                          T               46.3  .20        Md 2.1  5171791
ETSF  000.37 244.9 m E Pg      2013/01/17 22:06:42.9  -0.3                          T                                        5171795
ETSF  000.37 244.9 m E Sg      2013/01/17 22:06:48.0  -0.2                          T               25.7  .16        Md 2.2  5171790
SJPF  000.83 274.3 m E Pg      2013/01/17 22:06:51.2  -0.3                          T                                        5171794
SJPF  000.83 274.3 m E Sg      2013/01/17 22:07:03.3   1.0                          T               10.0  .24        Md 2.4  5171789
MTLF  001.72 079.7 m E Pn      2013/01/17 22:07:05.1   0.0                          T                                        5171963
MTLF  001.72 079.7 m E Pg      2013/01/17 22:07:08.0   0.1                          T                                        5171962
MTLF  001.72 079.7 m E Sg      2013/01/17 22:07:29.9  -0.2                          T                1.8  .20 Ml 2.1         5171961
LFF   001.98 017.6 m E Pg      2013/01/17 22:07:13.1   0.5                          T                                        5171792
LFF   001.98 017.6 m E Sg      2013/01/17 22:07:38.8   0.7                          T                5.3  .22 Ml 2.4         5171788
RJF   002.53 026.8 m E Pn      2013/01/17 22:07:16.9   0.7                          T                                        5171956
RJF   002.53 026.8 m E Pg      2013/01/17 22:07:22.9   0.0                          T                                        5171955
RJF   002.53 026.8 m E Sg      2013/01/17 22:07:55.4   0.1                          T                2.8  .17 Ml 2.2         5171797
CAF   002.43 039.2 m E Pg      2013/01/17 22:07:21.5   0.3                          T                                        5171793
CAF   002.43 039.2 m E Sg      2013/01/17 22:07:52.4   0.0                          T                4.2  .23 Ml 2.6         5171798
LASF  003.05 069.2 m E Pn      2013/01/17 22:07:23.7   0.4                          T                                        5171960
LASF  003.05 069.2 m E Pg      2013/01/17 22:07:32.2  -0.3                          T                                        5171959
LASF  003.05 069.2 m E Sn      2013/01/17 22:07:58.8   0.6                          T                                        5171958
LASF  003.05 069.2 m E Sg      2013/01/17 22:08:11.6   0.0                          T                1.1  .25 Ml 2.1         5171957
MFF   003.54 359.5 m E Pn      2013/01/17 22:07:29.7  -0.3                          T                                        5171938
MFF   003.54 359.5 m E Pg      2013/01/17 22:07:41.4  -0.1                          T                                        5171937
MFF   003.54 359.5 m E Sg      2013/01/17 22:08:26.9  -0.1                          T                 .7  .23 Ml 2.2         5171936
TCF   003.63 026.2 m E Pn      2013/01/17 22:07:30.6  -0.5                          T                                        5171940
TCF   003.63 026.2 m E Pg      2013/01/17 22:07:42.9  -0.2                          T                                        5171941
TCF   003.63 026.2 m E Sg      2013/01/17 22:08:29.5  -0.1                          T                1.6  .21 Ml 2.5         5171939
VIVF  003.89 060.8 m E Pn      2013/01/17 22:07:34.7   0.1                          T                                        5171954
VIVF  003.89 060.8 m E Pg      2013/01/17 22:07:47.0  -0.9                          T                                        5171953
VIVF  003.89 060.8 m E Sg      2013/01/17 22:08:37.5  -0.3                          T                 .6  .25 Ml 2.0         5171952
BGF   004.08 029.9 m E Pn      2013/01/17 22:07:37.3   0.1                          T                                        5171951
BGF   004.08 029.9 m E Pg      2013/01/17 22:07:51.3  -0.1                          T                                        5171950
BGF   004.08 029.9 m E Sg      2013/01/17 22:08:43.5  -0.2                          T                6.7  .35 Ml 3.0         5171949
AVF   004.47 032.1 m E Pn      2013/01/17 22:07:43.1   0.6                          T                                        5171945
AVF   004.47 032.1 m E Pg      2013/01/17 22:07:58.3  -0.1                          T                                        5171944
AVF   004.47 032.1 m E Sn      2013/01/17 22:08:32.6   0.6                          T                                        5171943
AVF   004.47 032.1 m E Sg      2013/01/17 22:08:55.5  -0.2                          T                 .5  .19 Ml 2.2         5171942
HYF   004.63 023.8 m E Pn      2013/01/17 22:07:44.5  -0.3                          T                                        5171948
HYF   004.63 023.8 m E Sn      2013/01/17 22:08:36.2   0.2                          T                                        5171947
SSF   004.75 031.3 m E Pn      2013/01/17 22:07:47.0   0.7                          T                                        5171935
SSF   004.75 031.3 m E Sg      2013/01/17 22:09:04.9   0.3                          T                 .6  .25 Ml 2.3         5171934
SMF   004.55 036.6 m E Sg      2013/01/17 22:08:58.3  -0.2                          T                 .4  .22 Ml 2.0         5171946

.
EVENT     290482
    Date      Time       Latitude Longitude    Depth    Ndef Nsta Gap    Mag1  N    Mag2  N    Mag3  N   Author         ID
       rms   OT_Error      Smajor Sminor Az        Err   mdist  Mdist     Err        Err        Err      Quality

2013/01/18 00:29:23.6     43.0467    -.2842      2.0      27    7 099  Ml 1.7  5  Md 1.6  3              bulletin    290582
                                                                                                         _ldg
      0.51   +-  0.08       2.2    1.4  171.40 +-  0.0    0.25   2.60   +-0.4      +-0.2                 m i ke

PYRENEES
Sta     Dist  EvAz     Phase      Date       Time     TRes  Azim  AzRes  Slow  SRes Def   SNR       Amp   Per   Mag1   Mag2       ID
ETSF  000.25 233.8 m E Pg      2013/01/18 00:29:28.2  -0.5                          T                                Md 1.4  5171804
ETSF  000.25 233.8 m E Sg      2013/01/18 00:29:32.1   0.0                          T                                        5171800
EPF   000.46 091.8 m E Pg      2013/01/18 00:29:32.3  -0.2                          T                                Md 1.5  5171802
EPF   000.46 091.8 m E Sg      2013/01/18 00:29:37.3  -1.2                          T                                        5171801
SJPF  000.69 275.8 m E Pg      2013/01/18 00:29:36.5  -0.3                          T                                Md 1.9  5171803
SJPF  000.69 275.8 m E Sg      2013/01/18 00:29:45.8   0.0                          T                                        5171799
MTLF  001.85 080.0 m E Pn      2013/01/18 00:29:54.5  -0.2                          T                                        5171838
MTLF  001.85 080.0 m E Pg      2013/01/18 00:29:57.9  -0.2                          T                                        5171837
MTLF  001.85 080.0 m E Sn      2013/01/18 00:30:17.5   0.2                          T                 .3  .22 Ml 1.4         5171836
LFF   002.03 021.0 m E Pn      2013/01/18 00:29:57.1   0.0                          T                                        5171832
LFF   002.03 021.0 m E Pg      2013/01/18 00:30:01.1  -0.3                          T                                        5171831
LFF   002.03 021.0 m E Sn      2013/01/18 00:30:21.6   0.1                          T                                        5171830
LFF   002.03 021.0 m E Sg      2013/01/18 00:30:27.1  -0.5                          T                5.0  .31 Ml 2.2         5171829
CAF   002.53 041.3 m E Pn      2013/01/18 00:30:04.4   0.5                          T                                        5171835
CAF   002.53 041.3 m E Pg      2013/01/18 00:30:10.8   0.2                          T                                        5171834
CAF   002.53 041.3 m E Sn      2013/01/18 00:30:33.4  -0.1                          T                 .9  .24 Ml 1.9         5171833
RJF   002.60 029.2 m E Pn      2013/01/18 00:30:05.1   0.2                          T                                        5171828
RJF   002.60 029.2 m E Pg      2013/01/18 00:30:12.1   0.2                          T                                        5171827
RJF   002.60 029.2 m E Sg      2013/01/18 00:30:45.2  -0.2                          T                 .8  .18 Ml 1.6         5171826

.
EVENT     290483
    Date      Time       Latitude Longitude    Depth    Ndef Nsta Gap    Mag1  N    Mag2  N    Mag3  N   Author         ID
       rms   OT_Error      Smajor Sminor Az        Err   mdist  Mdist     Err        Err        Err      Quality

2013/01/18 02:15:42.3     42.9520    -.7749      2.0      16    5 085  Ml 1.6  2  Md 1.7  3              bulletin    290583
                                                                                                         _ldg
      0.52   +-  0.11       3.0    1.8    3.85 +-  0.0    0.14   2.85   +-0.2      +-0.1                 m i ke

PYRENEES
Sta     Dist  EvAz     Phase      Date       Time     TRes  Azim  AzRes  Slow  SRes Def   SNR       Amp   Per   Mag1   Mag2       ID
ETSF  000.17 108.6 m E Pg      2013/01/18 02:15:45.1  -0.7                          T                                        5171810
ETSF  000.17 108.6 m E Sg      2013/01/18 02:15:47.6  -0.5                          T                                Md 1.7  5171806
SJPF  000.37 296.2 m E Pg      2013/01/18 02:15:49.0  -0.4                          T                                        5171809
SJPF  000.37 296.2 m E Sg      2013/01/18 02:15:54.3   0.0                          T               15.5  .26        Md 1.6  5171805
EPF   000.82 084.2 m E Pg      2013/01/18 02:15:57.3  -0.5                          T                                        5171808
EPF   000.82 084.2 m E Sg      2013/01/18 02:16:08.7   0.2                          T                7.1  .25        Md 1.9  5171807
MTLF  002.22 078.9 m E Sg      2013/01/18 02:16:52.3   0.1                          T                 .9  .27 Ml 1.8         5171861
CAF   002.85 045.1 m E Sg      2013/01/18 02:17:11.8   0.1                          T                 .2  .18 Ml 1.5         5171859

.
