EVENT     283978
    Date      Time       Latitude Longitude    Depth    Ndef Nsta Gap    Mag1  N    Mag2  N    Mag3  N   Author         ID
       rms   OT_Error      Smajor Sminor Az        Err   mdist  Mdist     Err        Err        Err      Quality

2012/09/27 01:08:22.6     41.1854   15.0252      2.0     263   19 036  Ml 3.7 21                         bulletin    284078
                                                                                                         _ldg
      2.08   +-  0.10       3.6    2.4   42.90 +-  0.0    0.07  58.37   +-0.4                            m i ke

SOUTHERN ITALY
Sta     Dist  EvAz     Phase      Date       Time     TRes  Azim  AzRes  Slow  SRes Def   SNR       Amp   Per   Mag1   Mag2       ID
PGF   004.70 288.8 m E Pn      2012/09/27 01:09:33.4   0.9                          T                                        5079290
PGF   004.70 288.8 m E Sn      2012/09/27 01:10:27.0   2.6                          T               30.6  .40 Ml 3.9         5079289
SBF   006.21 298.0 m E Pn      2012/09/27 01:09:52.9  -0.2                          T                                        5079281
SBF   006.21 298.0 m E Sn      2012/09/27 01:11:00.6   0.1                          T              127.3 1.18 Ml 4.2         5079621
FRF   006.64 293.7 m E Pn      2012/09/27 01:09:59.7   0.8                          T                                        5079286
FRF   006.64 293.7 m E Sn      2012/09/27 01:11:10.4  -0.3                          T               26.4  .87 Ml 3.7         5079620
LMR   006.67 291.6 m E Pn      2012/09/27 01:10:00.4   1.1                          T                                        5079288
LMR   006.67 291.6 m E Sn      2012/09/27 01:11:15.3   3.9                          T                6.7  .36 Ml 3.5         5079287
MBDF  000.00 000.0 m E Sg                                                                            9.9  .64 Ml 3.4         5079611
MBDF  007.01 303.1 m E Pn      2012/09/27 01:10:08.8   4.7                          T                                        5079282
MBDF  007.01 303.1 m E Sn      2012/09/27 01:11:19.4  -0.3                          T                                        5079612
LPG   007.41 308.3 m E Pn      2012/09/27 01:10:10.6   1.0                          T                                        5079617
LPG   007.41 308.3 m E Pg      2012/09/27 01:10:40.3   0.5                          T                                        5079616
LPG   007.41 308.3 m E Sn      2012/09/27 01:11:29.5   0.1                          T                2.0  .21 Ml 3.3         5079615
SMRF  007.51 294.9 m E Pn      2012/09/27 01:10:11.6   0.8                          T                                        5079285
SMRF  007.51 294.9 m E Pg      2012/09/27 01:10:42.2   0.8                          T                                        5079619
SMRF  007.51 294.9 m E Sn      2012/09/27 01:11:32.2   0.7                          T               74.5 1.41 Ml 4.1         5079618
LPL   007.43 308.4 m E Pn      2012/09/27 01:10:14.2   4.3                          T                                        5079284
LPL   007.43 308.4 m E Sn      2012/09/27 01:11:30.1   0.3                          T                                        5079280
LPL   007.43 308.4 m E Sg      2012/09/27 01:12:15.7   0.4                          T               11.2  .58 Ml 3.6         5079614
ORIF  007.67 302.2 m E Pn      2012/09/27 01:10:15.5   2.6                          T                                        5079283
ORIF  007.67 302.2 m E Sn      2012/09/27 01:11:35.9   0.6                          T               10.7  .78 Ml 3.5         5079613
VIVF  008.42 299.3 m E Pn      2012/09/27 01:10:23.0  -0.1                          T                                        5079610
VIVF  008.42 299.3 m E Sn      2012/09/27 01:11:53.8   0.5                          T                 .9  .33 Ml 2.9         5079609
CABF  008.43 313.0 m E Pn      2012/09/27 01:10:23.7   0.5                          T                                        5079603
CABF  008.43 313.0 m E Pg      2012/09/27 01:10:58.2  -0.1                          T                                        5079602
CABF  008.43 313.0 m E Sn      2012/09/27 01:11:53.4  -0.1                          T                4.5  .37 Ml 3.6         5079601
LASF  008.73 293.0 m E Pn      2012/09/27 01:10:27.5   0.3                          T                                        5079608
LASF  008.73 293.0 m E Sn      2012/09/27 01:12:00.4  -0.1                          T                2.0  .36 Ml 3.3         5079607
HINF  008.83 321.4 m E Pn      2012/09/27 01:10:29.9   1.2                          T                                        5079279
HINF  008.83 321.4 m E Pg      2012/09/27 01:11:05.7   0.0                          T                                        5079600
HINF  008.83 321.4 m E Sn      2012/09/27 01:12:03.2   0.2                          T               15.1  .45 Ml 4.1         5079278
CDF   009.08 325.3 m E Pn      2012/09/27 01:10:32.7   0.5                          T                                        5079277
CDF   009.08 325.3 m E Sn      2012/09/27 01:12:08.8  -0.3                          T               67.6  .80 Ml 4.6         5079276
SMF   009.74 307.8 m E Pn      2012/09/27 01:10:41.2   0.2                          T                                        5079605
SMF   009.74 307.8 m E Sn      2012/09/27 01:12:24.9   0.2                          T                8.3  .71 Ml 3.7         5079604
SFTF  009.98 318.0 m E Pn      2012/09/27 01:10:44.4   0.0                          T                                        5079599
SFTF  009.98 318.0 m E Pg      2012/09/27 01:11:27.0   0.1                          T                                        5079598
SFTF  009.98 318.0 m E Sn      2012/09/27 01:12:30.7   0.2                          T               13.2  .60 Ml 4.1         5079597
LOR   010.05 310.9 m E Pn      2012/09/27 01:10:45.4   0.1                          T                                        5079594
LOR   010.05 310.9 m E Sn      2012/09/27 01:12:32.9   0.6                          T                4.9  .46 Ml 3.8         5079593
MEZF  010.18 319.3 m E Pn      2012/09/27 01:10:47.4   0.5                          T                                        5079596
MEZF  010.18 319.3 m E Sn      2012/09/27 01:12:35.8   0.7                          T                5.7  .47 Ml 3.8         5079595
BGF   010.30 305.5 m E Pn      2012/09/27 01:10:49.1   0.5                          T                                        5079606

.
EVENT     283980
    Date      Time       Latitude Longitude    Depth    Ndef Nsta Gap    Mag1  N    Mag2  N    Mag3  N   Author         ID
       rms   OT_Error      Smajor Sminor Az        Err   mdist  Mdist     Err        Err        Err      Quality

2012/09/27 03:47:58.8     41.1746   14.9712      2.0     140   12 047  Ml 3.3 11                         bulletin    284080
                                                                                                         _ldg
      0.84   +-  0.07       2.7    1.6   25.99 +-  0.0    0.05  10.18   +-0.3                            m i ke

SOUTHERN ITALY
Sta     Dist  EvAz     Phase      Date       Time     TRes  Azim  AzRes  Slow  SRes Def   SNR       Amp   Per   Mag1   Mag2       ID
PGF   004.67 289.1 m E Pn      2012/09/27 03:49:09.3   1.0                          T                                        5080101
PGF   004.67 289.1 m E Sn      2012/09/27 03:49:59.8   0.0                          T               16.3  .33 Ml 3.7         5080100
SBF   006.18 298.3 m E Pn      2012/09/27 03:49:29.2   0.4                          T                                        5080099
SBF   006.18 298.3 m E Pg      2012/09/27 03:49:52.8  -0.2                          T                                        5080098
SBF   006.18 298.3 m E Sn      2012/09/27 03:50:35.8  -0.1                          T                2.2  .23 Ml 3.1         5080097
FRF   006.61 293.9 m E Pn      2012/09/27 03:49:34.4  -0.1                          T                                        5080094
FRF   006.61 293.9 m E Pg      2012/09/27 03:50:00.8   0.0                          T                                        5080093
FRF   006.61 293.9 m E Sn      2012/09/27 03:50:46.1   0.0                          T                6.0  .54 Ml 3.3         5080092
LMR   006.64 291.8 m E Pn      2012/09/27 03:49:35.1   0.2                          T                                        5080096
LMR   006.64 291.8 m E Sn      2012/09/27 03:50:46.5  -0.3                          T                6.4  .42 Ml 3.4         5080095
MBDF  006.98 303.3 m E Pn      2012/09/27 03:49:40.3   0.4                          T                                        5080084
MBDF  006.98 303.3 m E Sn      2012/09/27 03:50:54.7  -0.5                          T               25.5 1.26 Ml 3.6         5080083
LPL   007.41 308.6 m E Pn      2012/09/27 03:49:45.5  -0.2                          T                                        5080089
LPL   007.41 308.6 m E Pg      2012/09/27 03:50:15.2  -0.6                          T                                        5080088
LPL   007.41 308.6 m E Sn      2012/09/27 03:51:05.8   0.3                          T                1.9  .32 Ml 3.1         5080087
SMRF  007.48 295.1 m E Pn      2012/09/27 03:49:46.8   0.4                          T                                        5080091
SMRF  007.48 295.1 m E Sn      2012/09/27 03:51:06.3  -0.5                          T                1.2  .30 Ml 2.9         5080090
ORIF  007.64 302.4 m E Pn      2012/09/27 03:49:48.7   0.0                          T                                        5080086
ORIF  007.64 302.4 m E Sn      2012/09/27 03:51:11.0   0.3                          T                2.3  .51 Ml 3.0         5080085
VIVF  008.39 299.4 m E Pn      2012/09/27 03:49:59.3   0.4                          T                                        5080082
CABF  008.40 313.2 m E Pn      2012/09/27 03:49:59.7   0.5                          T                                        5080058
CABF  008.40 313.2 m E Pg      2012/09/27 03:50:34.3   0.2                          T                                        5080057
CABF  008.40 313.2 m E Sn      2012/09/27 03:51:29.2   0.1                          T                2.1  .36 Ml 3.3         5080056
HINF  008.81 321.6 m E Pn      2012/09/27 03:50:05.4   0.8                          T                                        5080060
HINF  008.81 321.6 m E Sn      2012/09/27 03:51:39.8   1.0                          T               10.8  .54 Ml 3.8         5080059
CDF   009.07 325.5 m E Pn      2012/09/27 03:50:08.4   0.2                          T                                        5080061

.
EVENT     283979
    Date      Time       Latitude Longitude    Depth    Ndef Nsta Gap    Mag1  N    Mag2  N    Mag3  N   Author         ID
       rms   OT_Error      Smajor Sminor Az        Err   mdist  Mdist     Err        Err        Err      Quality

2012/09/27 04:16:12.3     44.4932    6.7010     10.0      19    7 076  Ml 1.4  4  Md 1.5  1              bulletin    284079
                                                                                                         _ldg
      0.73   +-  0.10       2.6    1.9   60.64 +-  0.0    0.08   1.17   +-0.3      +-                    m i ke

FRANCE
Sta     Dist  EvAz     Phase      Date       Time     TRes  Azim  AzRes  Slow  SRes Def   SNR       Amp   Per   Mag1   Mag2       ID
MBDF  000.24 012.1 m E Pg      2012/09/27 04:16:17.9   0.4                          T                                        5079567
MBDF  000.24 012.1 m E Sg      2012/09/27 04:16:20.9   0.0                          T                2.6  .21        Md 1.5  5079566
ORIF  000.72 306.3 m E Pg      2012/09/27 04:16:26.0  -0.2                          T                                        5079565
ORIF  000.72 306.3 m E Sg      2012/09/27 04:16:36.0   0.3                          T                1.7  .25                5079564
SBF   000.82 139.8 m E Pg      2012/09/27 04:16:27.8  -0.2                          T                                        5079559
SBF   000.82 139.8 m E Sg      2012/09/27 04:16:38.2  -0.6                          T                1.0  .17                5079558
FRF   000.93 182.4 m E Pn      2012/09/27 04:16:29.8  -0.1                          T                                        5079563
FRF   000.93 182.4 m E Sn      2012/09/27 04:16:42.4  -0.2                          T                1.3  .16 Ml 1.7         5079562
SMRF  000.96 237.8 m E Pg      2012/09/27 04:16:31.1   0.7                          T                                        5079555
SMRF  000.96 237.8 m E Sg      2012/09/27 04:16:43.3   0.3                          T                 .4  .17 Ml 1.2         5079554
LPL   001.02 001.2 m E Pg      2012/09/27 04:16:31.5  -0.4                          T                                        5079557
LPL   001.02 001.2 m E Sg      2012/09/27 04:16:45.0  -0.1                          T                 .5  .25 Ml 1.1         5079556
LMR   001.17 186.9 m E Pn      2012/09/27 04:16:33.3   0.2                          T                                        5079561
LMR   001.17 186.9 m E Sn      2012/09/27 04:16:48.2   0.1                          T                 .7  .17 Ml 1.5         5079560

.
EVENT     283993
    Date      Time       Latitude Longitude    Depth    Ndef Nsta Gap    Mag1  N    Mag2  N    Mag3  N   Author         ID
       rms   OT_Error      Smajor Sminor Az        Err   mdist  Mdist     Err        Err        Err      Quality

2012/09/27 08:03:00.6     44.4848    6.6853      2.0      25    9 073  Ml 2.0  6  Md 2.1  2              bulletin    284093
                                                                                                         _ldg
      0.32   +-  0.06       1.5    1.1   79.45 +-  0.0    0.10   3.32   +-0.4      +-0.0                 m i ke

FRANCE
Sta     Dist  EvAz     Phase      Date       Time     TRes  Azim  AzRes  Slow  SRes Def   SNR       Amp   Per   Mag1   Mag2       ID
MBDF  000.25 014.2 m E Pg      2012/09/27 08:03:05.3  -0.4                          T                                        5080128
MBDF  000.25 014.2 m E Sg      2012/09/27 08:03:09.4   0.3                          T               16.5  .26        Md 2.1  5080127
ORIF  000.72 307.3 m E Pg      2012/09/27 08:03:14.0  -0.3                          T                                        5080126
ORIF  000.72 307.3 m E Sg      2012/09/27 08:03:23.7   0.0                          T                8.0  .22        Md 2.1  5080125
SBF   000.82 138.8 m E Pg      2012/09/27 08:03:16.2   0.1                          T                                        5080117
SBF   000.82 138.8 m E Sg      2012/09/27 08:03:27.0   0.1                          T                5.0  .22                5080116
FRF   000.92 181.7 m E Pg      2012/09/27 08:03:17.8  -0.1                          T                                        5080124
FRF   000.92 181.7 m E Sg      2012/09/27 08:03:30.0   0.0                          T               11.4  .18 Ml 2.6         5080118
SMRF  000.95 237.9 m E Pg      2012/09/27 08:03:18.6   0.2                          T                                        5080120
SMRF  000.95 237.9 m E Sg      2012/09/27 08:03:31.6   1.0                          T                4.2  .24 Ml 2.0         5080119
LPL   001.03 001.8 m E Pg      2012/09/27 08:03:20.1  -0.1                          T                                        5080113
LPL   001.03 001.8 m E Sg      2012/09/27 08:03:33.5  -0.1                          T                2.2  .22 Ml 1.8         5081161
LMR   001.16 186.4 m E Pg      2012/09/27 08:03:22.4   0.2                          T                                        5080123
LMR   001.16 186.4 m E Sg      2012/09/27 08:03:37.3   0.1                          T                6.5  .24 Ml 2.3         5080122
VIVF  001.48 285.2 m E Pn      2012/09/27 08:03:26.7   0.1                          T                                        5080115
VIVF  001.48 285.2 m E Sn      2012/09/27 08:03:45.6   0.2                          T                1.8  .27 Ml 1.9         5080114
LPG   001.01 002.6 m E Sg      2012/09/27 08:03:33.0  -0.2                          T                1.1  .19 Ml 1.6         5081162

.
EVENT     283994
    Date      Time       Latitude Longitude    Depth    Ndef Nsta Gap    Mag1  N    Mag2  N    Mag3  N   Author         ID
       rms   OT_Error      Smajor Sminor Az        Err   mdist  Mdist     Err        Err        Err      Quality

2012/09/27 08:35:39.9     41.1589   14.9621      2.0      58    8 087  Ml 3.7  8                         bulletin    284094
                                                                                                         _ldg
      0.39   +-  0.06       2.9    1.3   40.25 +-  0.0    0.03  10.13   +-0.2                            m i ke

SOUTHERN ITALY
Sta     Dist  EvAz     Phase      Date       Time     TRes  Azim  AzRes  Slow  SRes Def   SNR       Amp   Per   Mag1   Mag2       ID
PGF   004.66 289.3 m E Pn      2012/09/27 08:36:49.3  -0.1                          T                                        5080173
PGF   004.66 289.3 m E P       2012/09/27 08:36:53.4   0.1                          T                                        5080170
PGF   004.66 289.3 m E Sn      2012/09/27 08:37:40.7  -0.3                          T               19.9  .33 Ml 3.8         5080171
FRF   006.61 294.0 m E Pn      2012/09/27 08:37:16.0   0.2                          T                                        5080175
FRF   006.61 294.0 m E Sn      2012/09/27 08:38:27.2  -0.1                          T                6.2  .28 Ml 3.6         5080174
LMR   006.64 291.9 m E Pn      2012/09/27 08:37:16.1  -0.1                          T                                        5080172
LMR   006.64 291.9 m E Sn      2012/09/27 08:38:28.1   0.2                          T               11.8  .39 Ml 3.7         5080176
SMRF  007.48 295.2 m E Pn      2012/09/27 08:37:27.8   0.2                          T                                        5080178
SMRF  007.48 295.2 m E Sn      2012/09/27 08:38:48.5   0.4                          T                                        5080177
HINF  008.82 321.7 m E Pn      2012/09/27 08:37:46.2   0.3                          T                                        5080180
HINF  008.82 321.7 m E Sn      2012/09/27 08:39:20.2   0.0                          T                7.1  .28 Ml 3.9         5080179
CDF   009.08 325.6 m E Pn      2012/09/27 08:37:49.3  -0.1                          T                                        5080182
CDF   009.08 325.6 m E Sn      2012/09/27 08:39:26.1  -0.2                          T                7.4  .44 Ml 3.9         5080181
LOR   010.04 311.2 m E Pn      2012/09/27 08:38:02.3  -0.1                          T                                        5080222
LOR   010.04 311.2 m E Sn      2012/09/27 08:39:49.4   0.2                          T                1.7  .30 Ml 3.5         5080221
SSF   010.13 309.5 m E Pn      2012/09/27 08:38:03.7   0.1                          T                                        5080224
SSF   010.13 309.5 m E Sn      2012/09/27 08:39:51.3   0.0                          T                2.1  .31 Ml 3.7         5080223

.
