EVENT     261432
    Date      Time       Latitude Longitude    Depth    Ndef Nsta Gap    Mag1  N    Mag2  N    Mag3  N   Author         ID
       rms   OT_Error      Smajor Sminor Az        Err   mdist  Mdist     Err        Err        Err      Quality

2011/07/14 17:22:08.5     42.9041   -1.5169      2.0      29    4 132  Ml 1.5  2  Md 1.5  2              js067245    261432

      0.22   +-  0.06       1.1     .8   85.88 +-  0.0    0.05   3.25   +-0.4      +-0.1                 m i ke

PYRENEES
Sta     Dist  EvAz     Phase      Date       Time     TRes  Azim  AzRes  Slow  SRes Def   SNR       Amp   Per   Mag1   Mag2       ID
SJPF  000.30 045.6 m E Pg      2011/07/14 17:22:14.4   0.0                          T                                        4723752
SJPF  000.30 045.6 m E Sg      2011/07/14 17:22:18.5   0.1                          T                3.4  .23        Md 1.6  4723751
ETSF  000.70 090.1 m E Pg      2011/07/14 17:22:21.8  -0.1                          T                                        4723750
ETSF  000.70 090.1 m E Sg      2011/07/14 17:22:31.4   0.3                          T                 .6  .26        Md 1.5  4723748
EPF   001.37 084.1 m E Pn      2011/07/14 17:22:32.9  -0.1                          T                                        4723746
EPF   001.37 084.1 m E Sn      2011/07/14 17:22:50.7   0.0                          T                 .4  .23 Ml 1.2         4723747
RJF   003.25 041.3 m E Pn      2011/07/14 17:22:58.4  -0.1                          T                                        4723745
RJF   003.25 041.3 m E Pg      2011/07/14 17:23:08.7   0.1                          T                                        4723744
RJF   003.25 041.3 m E Sn      2011/07/14 17:23:35.1  -0.3                          T                1.1  .29 Ml 1.7         4723743

.
EVENT     261433
    Date      Time       Latitude Longitude    Depth    Ndef Nsta Gap    Mag1  N    Mag2  N    Mag3  N   Author         ID
       rms   OT_Error      Smajor Sminor Az        Err   mdist  Mdist     Err        Err        Err      Quality

2011/07/14 17:48:38.2     42.9029   -1.5053      2.0      23    3 121  Ml 1.3  1  Md 1.3  2              js067245    261433

      0.27   +-  0.09       1.7    1.4  134.57 +-  0.0    0.05   1.36   +-         +-0.1                 m i ke

PYRENEES
Sta     Dist  EvAz     Phase      Date       Time     TRes  Azim  AzRes  Slow  SRes Def   SNR       Amp   Per   Mag1   Mag2       ID
SJPF  000.29 044.3 m E Pg      2011/07/14 17:48:44.3   0.3                          T                                        4723764
SJPF  000.29 044.3 m E Sg      2011/07/14 17:48:48.0   0.0                          T                1.3  .22        Md 1.4  4723757
ETSF  000.70 090.0 m E Pg      2011/07/14 17:48:51.6   0.2                          T                                        4723762
ETSF  000.70 090.0 m E Sg      2011/07/14 17:48:59.9  -0.7                          T                 .5  .27        Md 1.2  4723763
EPF   001.36 084.0 m E Pn      2011/07/14 17:49:02.2  -0.4                          T                                        4723760
EPF   001.36 084.0 m E Pg      2011/07/14 17:49:03.4  -0.3                          T                                        4723759
EPF   001.36 084.0 m E Sn      2011/07/14 17:49:20.0  -0.1                          T                 .6  .27 Ml 1.3         4723758

.
EVENT     261434
    Date      Time       Latitude Longitude    Depth    Ndef Nsta Gap    Mag1  N    Mag2  N    Mag3  N   Author         ID
       rms   OT_Error      Smajor Sminor Az        Err   mdist  Mdist     Err        Err        Err      Quality

2011/07/14 20:55:08.3     50.1067    -.6890     10.0      72   24 117  Ml 2.5 26  Md 2.7  3              js067245    261434

      0.83   +-  0.14       2.6    1.8  158.07 +-  0.0    1.00   7.11   +-0.3      +-0.1                 m i ke

UNITED KINGDOM
Sta     Dist  EvAz     Phase      Date       Time     TRes  Azim  AzRes  Slow  SRes Def   SNR       Amp   Per   Mag1   Mag2       ID
FLN   001.35 174.2 m E Pn      2011/07/14 20:55:32.3   0.7                          T   001.0                                4720965
FLN   001.35 174.2 m E Pg      2011/07/14 20:55:33.7   0.1 354.0  -0.4              T                                        4725293
FLN   001.35 174.2 m E Sn      2011/07/14 20:55:49.3   0.8                          T   001.0       12.4  .23 Ml 2.5         4720966
FLN   001.35 174.2 m E Sg      2011/07/14 20:55:52.9   1.8                          T   001.0       22.5  .20 Ml 2.9 Md 2.7  4720967
LDF   001.56 166.0 m E Pn      2011/07/14 20:55:34.7   0.2                          T   001.0                                4720971
LDF   001.56 166.0 m E P       2011/07/14 20:55:36.6   0.2                          T                                        4725303
LDF   001.56 166.0 m E Pg      2011/07/14 20:55:37.3  -0.1                          T                                        4725302
LDF   001.56 166.0 m E Sn      2011/07/14 20:55:54.4   0.9                          T   001.0       13.0  .18 Ml 2.9 Md 2.7  4720973
GRR   001.72 183.8 m E Pn      2011/07/14 20:55:37.3   0.6                          T   001.0                                4720968
GRR   001.72 183.8 m E Pg      2011/07/14 20:55:40.5   0.1                          T                                        4725301
GRR   001.72 183.8 m E Sn      2011/07/14 20:55:57.6   0.2                          T   001.0                                4720969
GRR   001.72 183.8 m E Sg      2011/07/14 20:56:02.1  -0.6                          T   001.0       11.1  .18 Ml 2.8 Md 2.9  4720970
SGMF  002.22 214.2 m E Pn      2011/07/14 20:55:43.9   0.4                          T                                        4725304
SGMF  002.22 214.2 m E Sn      2011/07/14 20:56:09.2  -0.1                          T   001.0        3.1  .24 Ml 2.4         4720955
SGMF  002.22 214.2 m E Sg      2011/07/14 20:56:19.0   0.8                          T                2.8  .22 Ml 2.4         4725305
ROSF  002.45 224.7 m E Pn      2011/07/14 20:55:48.0   1.4                          T                                        4721553
ROSF  002.45 224.7 m E Pg      2011/07/14 20:55:53.4  -0.4                          T                                        4721554
ROSF  002.45 224.7 m E Sn      2011/07/14 20:56:13.9  -0.9                          T   001.0                                4720953
ROSF  002.45 224.7 m E Sg      2011/07/14 20:56:25.3   0.0                          T   001.0        3.2  .22 Ml 2.5         4720954
QUIF  002.73 217.6 m E Pn      2011/07/14 20:55:51.4   1.1                          T   001.0                                4720988
QUIF  002.73 217.6 m E Pg      2011/07/14 20:55:58.5  -0.5                          T   001.0                                4720950
QUIF  002.73 217.6 m E Sn      2011/07/14 20:56:21.0  -0.5                          T   001.0                                4720951
QUIF  002.73 217.6 m E Sg      2011/07/14 20:56:33.1  -0.9                          T   001.0        2.8  .19 Ml 2.5         4720952
BAIF  003.15 089.0 m E P       2011/07/14 20:55:57.4  -1.8                          T                                        4725318
BAIF  003.15 089.0 m E Pg      2011/07/14 20:56:05.6  -1.2                          T                                        4725317
BAIF  003.15 089.0 m E Sn      2011/07/14 20:56:31.0  -0.6                          T   001.0        3.1  .28 Ml 2.5         4720983
BAIF  003.15 089.0 m E Sg      2011/07/14 20:56:44.9  -2.4                          T                3.8  .36 Ml 2.5         4721552
MFF   003.53 173.9 m E Pn      2011/07/14 20:56:00.5  -0.7                          T                                        4725300
MFF   003.53 173.9 m E Pg      2011/07/14 20:56:13.7   0.1                          T                                        4725299
MFF   003.53 173.9 m E Sg      2011/07/14 20:56:58.5  -0.3                          T   001.0        1.6  .21 Ml 2.6         4720977
GIVF  003.55 088.0 m E P       2011/07/14 20:56:03.2  -1.7                          T   001.0                                4720984
GIVF  003.55 088.0 m E Pg      2011/07/14 20:56:13.6  -0.4                          T                                        4725315
GIVF  003.55 088.0 m E Sn      2011/07/14 20:56:40.7  -0.4                          T                3.5  .24 Ml 2.7         4725316
LOR   004.14 131.6 m E Pn      2011/07/14 20:56:10.0   0.4 312.4  -2.6              T   001.0                                4720975
LOR   004.14 131.6 m E Sn      2011/07/14 20:56:54.5  -0.7                          T                                        4725320
LOR   004.14 131.6 m E Sg      2011/07/14 20:57:18.4   0.3                          T   001.0        1.6  .21 Ml 2.6         4720976
MEZF  004.09 111.0 m E Pn      2011/07/14 20:56:10.2   1.4                          T                                        4725314
MEZF  004.09 111.0 m E Sn      2011/07/14 20:56:53.0  -0.8                          T   001.0                                4720986
MEZF  004.09 111.0 m E Sg      2011/07/14 20:57:16.6   0.3                          T   001.0        3.4  .30 Ml 2.7         4720987
SSF   004.13 136.0 m E Pn      2011/07/14 20:56:10.7   1.3                          T   001.0                                4720978
SSF   004.13 136.0 m E Sn      2011/07/14 20:56:54.8  -0.1                          T                                        4725319
SSF   004.13 136.0 m E Sg      2011/07/14 20:57:18.1   0.4                          T   001.0        2.1  .26 Ml 2.7         4720979
SFTF  004.21 114.7 m E Pn      2011/07/14 20:56:11.5   0.9                          T                                        4725313
TCF   004.28 152.0 m E Pn      2011/07/14 20:56:11.6   0.0                          T   001.0                                4720980
TCF   004.28 152.0 m E Sn      2011/07/14 20:56:58.7   0.1                          T   001.0                                4720981
TCF   004.28 152.0 m E Sg      2011/07/14 20:57:22.1  -0.6                          T   001.0        1.6  .22 Ml 2.6         4720982
AVF   004.27 139.4 m E Pn      2011/07/14 20:56:11.9   0.5                          T   001.0                                4720958
AVF   004.27 139.4 m E Sn      2011/07/14 20:56:57.3  -1.0                          T   001.0         .4  .19 Ml 2.0         4720959
BGF   004.26 145.1 m E Pn      2011/07/14 20:56:12.0   0.8                          T                                        4725310
BGF   004.26 145.1 m E Sg      2011/07/14 20:57:22.1   0.2                          T   001.0        6.2  .33 Ml 3.0         4720961
PAGF  004.47 107.9 m E Pn      2011/07/14 20:56:14.9   0.8                          T                                        4725312
PAGF  004.47 107.9 m E Sn      2011/07/14 20:57:02.6  -0.6                          T                 .2  .25 Ml 1.7         4725311
HYF   003.60 140.9 m E Pg      2011/07/14 20:56:15.3   0.4                          T                                        4725308
HYF   003.60 140.9 m E Sg      2011/07/14 20:57:02.8   1.8                          T                                        4725309
LFF   005.26 168.9 m E Pn      2011/07/14 20:56:24.6  -0.2                          T                                        4725297
LFF   005.26 168.9 m E Sn      2011/07/14 20:57:20.6  -1.3                          T   001.0        1.6  .27 Ml 2.5         4720974
CAF   005.51 159.2 m E Pn      2011/07/14 20:56:28.1  -0.2                          T                                        4725298
CAF   005.51 159.2 m E Sn      2011/07/14 20:57:26.6  -1.3                          T   001.0         .6  .19 Ml 2.5         4720962
CDF   005.48 105.0 m E Pn      2011/07/14 20:56:28.4   0.4                          T   001.0                                4720963
CDF   005.48 105.0 m E Sn      2011/07/14 20:57:27.6   0.2                          T   001.0        1.2  .44 Ml 2.5         4720964
EPF   007.11 173.9 m E Pn      2011/07/14 20:56:48.1  -2.0                          T                                        4725292
RJF   005.03 162.0 m E Sn      2011/07/14 20:57:14.8  -1.7                          T   001.0                                4720956
RJF   005.03 162.0 m E Sg      2011/07/14 20:57:46.5   0.6                          T   001.0        1.3  .27 Ml 2.2         4720957
HINF  005.47 111.9 m E Sn      2011/07/14 20:57:25.6  -1.4                          T   001.0        1.2  .29 Ml 2.6         4720985

.
EVENT     261482
    Date      Time       Latitude Longitude    Depth    Ndef Nsta Gap    Mag1  N    Mag2  N    Mag3  N   Author         ID
       rms   OT_Error      Smajor Sminor Az        Err   mdist  Mdist     Err        Err        Err      Quality

2011/07/14 21:46:12.0     43.3279   20.7840     10.0 f   141   16 020  Ml 3.6  5  Md 3.7  2              js067245    261482

      0.83   +-  0.09       2.6    2.0    5.21 +-  0.0    0.28  42.62   +-0.2      +-0.0                 m i ke

NORTHWESTERN BALKAN PEN.
Sta     Dist  EvAz     Phase      Date       Time     TRes  Azim  AzRes  Slow  SRes Def   SNR       Amp   Per   Mag1   Mag2       ID
SBF   009.70 277.7 m E Pn      2011/07/14 21:48:30.4   1.3                          T                                        4723146
MBDF  010.19 282.7 m E Pn      2011/07/14 21:48:36.3   0.4                          T                                        4723151
FRF   010.29 276.1 m E Pn      2011/07/14 21:48:38.5   1.5                          T                                        4723147
LPG   010.27 287.0 m E P       2011/07/14 21:48:42.2  -1.0                          T                                        4723148
LPG   010.27 287.0 m E Sn      2011/07/14 21:50:26.0   0.2                          T                1.9  .37 Ml 3.5 Md 3.7  4723145
LPL   010.29 287.1 m E P       2011/07/14 21:48:42.8  -0.4                          T                                        4723149
LPL   010.29 287.1 m E Sn      2011/07/14 21:50:26.7   0.6                          T                2.3  .34 Ml 3.6 Md 3.7  4723143
CDF   010.70 303.0 m E Pn      2011/07/14 21:48:43.1   0.3                          T                                        4723156
ORIF  010.84 283.6 m E Pn      2011/07/14 21:48:46.0   1.4                          T                                        4723150
HINF  010.75 299.5 m E P       2011/07/14 21:48:47.7  -1.5                          T                                        4723157
HINF  010.75 299.5 m E Sn      2011/07/14 21:50:35.4  -1.3                          T                3.6  .50 Ml 3.7         4725324
CABF  010.92 292.6 m E P       2011/07/14 21:48:51.2  -0.5                          T                                        4723154
HAU   011.13 299.8 m E P       2011/07/14 21:48:53.1  -1.4                          T                                        4723158
HAU   011.13 299.8 m E Sn      2011/07/14 21:50:45.7  -0.2                          T                6.4  .66 Ml 3.7         4725323
RUP   011.40 308.8 m E P       2011/07/14 21:48:57.7  -0.4                          T                                        4725325
VIVF  011.69 283.1 m E Pn      2011/07/14 21:48:58.2   2.0                          T                                        4723152
PAGF  011.71 301.7 m E P       2011/07/14 21:49:02.4   0.1                          T                                        4723155
LOR   012.55 294.1 m E Pn      2011/07/14 21:49:09.4   1.6                          T                                        4725326
AVF   012.80 291.7 m E P       2011/07/14 21:49:15.3  -1.7                          T                                        4723153
LMR   010.40 274.9 m E Sn      2011/07/14 21:50:29.1   0.6                          T                1.0  .32 Ml 3.3         4723144

.
EVENT     261435
    Date      Time       Latitude Longitude    Depth    Ndef Nsta Gap    Mag1  N    Mag2  N    Mag3  N   Author         ID
       rms   OT_Error      Smajor Sminor Az        Err   mdist  Mdist     Err        Err        Err      Quality

2011/07/14 21:54:24.7     44.0045    7.3355      2.0      17   10 168  Ml 2.1  6  Md 2.1  3              js067245    261435

      0.38   +-  0.12       2.7    1.5   83.02 +-  0.0    0.16   2.51   +-0.3      +-0.1                 m i ke

NORTHERN ITALY
Sta     Dist  EvAz     Phase      Date       Time     TRes  Azim  AzRes  Slow  SRes Def   SNR       Amp   Per   Mag1   Mag2       ID
SBF   000.16 153.0 m E Pg      2011/07/14 21:54:28.1   0.1                          T                                        4721571
SBF   000.16 153.0 m E Sg      2011/07/14 21:54:30.7   0.4                          T              103.1  .26        Md 2.2  4721563
FRF   000.67 228.6 m E Pg      2011/07/14 21:54:37.2  -0.1                          T                                        4721569
FRF   000.67 228.6 m E Sg      2011/07/14 21:54:45.2  -0.8                          T               14.1  .20        Md 2.2  4721561
MBDF  000.83 330.9 m E Pg      2011/07/14 21:54:40.6   0.1                          T                                        4721567
MBDF  000.83 330.9 m E Sg      2011/07/14 21:54:51.8   0.5                          T                5.5  .23        Md 2.0  4721559
LMR   000.90 222.1 m E Pg      2011/07/14 21:54:41.5  -0.1                          T                                        4721570
LMR   000.90 222.1 m E Sg      2011/07/14 21:54:53.3   0.0                          T               14.4  .21 Ml 2.6         4721562
SMRF  001.27 269.3 m E Pg      2011/07/14 21:54:49.4   0.9                          T                                        4721568
SMRF  001.27 269.3 m E Sg      2011/07/14 21:55:05.3   0.4                          T                4.1  .20 Ml 2.2         4721560
ORIF  001.39 311.7 m E Pg      2011/07/14 21:54:50.7   0.0                          T                                        4721566
ORIF  001.39 311.7 m E Sg      2011/07/14 21:55:08.3  -0.3                          T                5.6  .40 Ml 2.1         4721558
LPG   001.55 344.6 m E Pg      2011/07/14 21:54:53.8  -0.2                          T                                        4721565
LPG   001.55 344.6 m E Sg      2011/07/14 21:55:13.5  -0.4                          T                2.4  .38 Ml 1.9         4721557
LPL   001.57 344.3 m E Pg      2011/07/14 21:54:54.2  -0.1                          T                                        4721564
VIVF  002.09 295.0 m E Sn      2011/07/14 21:55:25.6   1.6                          T                 .8  .19 Ml 1.9         4721555
LASF  002.51 272.8 m E Sn      2011/07/14 21:55:35.2   1.2                          T                 .7  .19 Ml 1.9         4721556

.
