EVENT     266471
    Date      Time       Latitude Longitude    Depth    Ndef Nsta Gap    Mag1  N    Mag2  N    Mag3  N   Author         ID
       rms   OT_Error      Smajor Sminor Az        Err   mdist  Mdist     Err        Err        Err      Quality

2011/11/19 07:56:23.8     44.3135    7.4414      2.0      16    8 202  Ml 1.9  6  Md 1.5  1              js067245    266491

      0.52   +-  0.26       5.0    1.9   75.77 +-  0.0    0.45   1.39   +-0.2      +-                    m i ke

NORTHERN ITALY
Sta     Dist  EvAz     Phase      Date       Time     TRes  Azim  AzRes  Slow  SRes Def   SNR       Amp   Per   Mag1   Mag2       ID
SBF   000.45 180.6 m E Pg      2011/11/19 07:56:32.9   0.4                          T                                        4788941
SBF   000.45 180.6 m E Sg      2011/11/19 07:56:38.6   0.1                          T               11.7  .30        Md 1.5  4788949
MBDF  000.63 311.0 m E Pg      2011/11/19 07:56:35.6  -0.3                          T                                        4788933
MBDF  000.63 311.0 m E Sg      2011/11/19 07:56:44.8   0.5                          T                8.1  .38                4788935
FRF   000.95 217.6 m E Pg      2011/11/19 07:56:41.6   0.0                          T                                        4788934
FRF   000.95 217.6 m E Sg      2011/11/19 07:56:53.9   0.1                          T                2.4  .19 Ml 1.9         4788936
LMR   001.19 214.9 m E Pg      2011/11/19 07:56:45.5  -0.6                          T                                        4788938
LMR   001.19 214.9 m E Sg      2011/11/19 07:57:01.7   0.3                          T                4.5  .24 Ml 2.2         4788937
ORIF  001.27 299.0 m E Pg      2011/11/19 07:56:47.3  -0.3                          T                                        4788945
ORIF  001.27 299.0 m E Sg      2011/11/19 07:57:04.5   0.5                          T                3.7  .41 Ml 1.9         4788948
SMRF  001.39 256.5 m E Pg      2011/11/19 07:56:50.0   0.3                          T                                        4788932
SMRF  001.39 256.5 m E Sg      2011/11/19 07:57:08.1   0.4                          T                1.8  .21 Ml 1.9         4788931
LPG   001.28 337.7 m E Sg      2011/11/19 07:57:05.5   0.8                          T                1.8  .34 Ml 1.7         4788946
LPL   001.30 337.5 m E Sg      2011/11/19 07:57:05.8   0.5                          T                2.2  .38 Ml 1.7         4788947

.
EVENT     266472
    Date      Time       Latitude Longitude    Depth    Ndef Nsta Gap    Mag1  N    Mag2  N    Mag3  N   Author         ID
       rms   OT_Error      Smajor Sminor Az        Err   mdist  Mdist     Err        Err        Err      Quality

2011/11/19 09:14:17.7     45.4279    6.0226      3.0 f    19    8 069  Ml 1.8  5  Md 1.6  3              js067245    266492

      0.32   +-  0.05       1.2     .9  114.83 +-  0.0    0.51   2.46   +-0.2      +-0.1                 m i ke

FRANCE
Sta     Dist  EvAz     Phase      Date       Time     TRes  Azim  AzRes  Slow  SRes Def   SNR       Amp   Per   Mag1   Mag2       ID
LPL   000.51 079.7 m E Pg      2011/11/19 09:14:27.8   0.1                          T                                        4788993
LPL   000.51 079.7 m E Sg      2011/11/19 09:14:34.1  -0.4                          T                1.2  .19        Md 1.6  4788991
ORIF  000.52 191.2 m E Pg      2011/11/19 09:14:27.8   0.0                          T                                        4788999
ORIF  000.52 191.2 m E P       2011/11/19 09:14:29.0   0.0                          T                                        4788990
ORIF  000.52 191.2 m E Sg      2011/11/19 09:14:34.6   0.0                          T                4.1  .26        Md 1.8  4788998
LPG   000.52 082.0 m E Pg      2011/11/19 09:14:28.0   0.0                          T                                        4788992
LPG   000.52 082.0 m E Sg      2011/11/19 09:14:34.9   0.0                          T                1.1  .22                4788985
MBDF  000.88 142.6 m E Pg      2011/11/19 09:14:34.4  -0.1                          T                                        4788986
MBDF  000.88 142.6 m E Sg      2011/11/19 09:14:46.1   0.1                          T                1.1  .24 Ml 1.4 Md 1.6  4788984
VIVF  001.11 239.6 m E Pn      2011/11/19 09:14:38.7   0.0                          T                                        4788996
VIVF  001.11 239.6 m E P       2011/11/19 09:14:40.1  -0.2                          T                                        4788982
VIVF  001.11 239.6 m E Sn      2011/11/19 09:14:53.9   0.3                          T                2.7  .18 Ml 2.0         4788997
CABF  001.18 002.2 m E Pg      2011/11/19 09:14:40.2   0.2                          T                                        4788989
CABF  001.18 002.2 m E Sg      2011/11/19 09:14:55.9   0.6                          T                1.9  .30 Ml 1.7         4788988
HINF  002.46 013.2 m E Pn      2011/11/19 09:14:56.9   0.0                          T                                        4789025
HINF  002.46 013.2 m E Sg      2011/11/19 09:15:34.7  -0.3                          T                 .9  .23 Ml 1.9         4788983
SMF   001.95 309.5 m E Sg      2011/11/19 09:15:18.2  -0.8                          T                 .6  .18 Ml 1.7         4788987

.
EVENT     266469
    Date      Time       Latitude Longitude    Depth    Ndef Nsta Gap    Mag1  N    Mag2  N    Mag3  N   Author         ID
       rms   OT_Error      Smajor Sminor Az        Err   mdist  Mdist     Err        Err        Err      Quality

2011/11/19 14:04:35.6     43.2509   -1.0093      2.0      17    4 181  Ml 1.8  2  Md 2.0  2              js067245    266489

      0.24   +-  0.11       2.4    1.1  170.26 +-  0.0    0.21   2.36   +-0.3      +-0.0                 m i ke

PYRENEES
Sta     Dist  EvAz     Phase      Date       Time     TRes  Azim  AzRes  Slow  SRes Def   SNR       Amp   Per   Mag1   Mag2       ID
SJPF  000.21 229.0 m E Pg      2011/11/19 14:04:40.3   0.4                          T                                        4789031
SJPF  000.21 229.0 m E Sg      2011/11/19 14:04:42.4  -0.3                          T               15.0  .24        Md 2.0  4789027
ETSF  000.48 136.7 m E Pg      2011/11/19 14:04:44.6  -0.3                          T                                        4789030
ETSF  000.48 136.7 m E Pn      2011/11/19 14:04:45.9  -0.2                          T                                        4789026
ETSF  000.48 136.7 m E Sg      2011/11/19 14:04:51.1  -0.2                          T                4.7  .20        Md 2.1  4789028
EPF   001.01 102.1 m E Pg      2011/11/19 14:04:54.5  -0.1                          T                                        4789090
EPF   001.01 102.1 m E Sg      2011/11/19 14:05:08.4   0.6                          T                1.0  .18 Ml 1.6         4789029
MTLF  002.36 086.7 m E Pn      2011/11/19 14:05:13.4  -0.1                          T                                        4789089
MTLF  002.36 086.7 m E Sn      2011/11/19 14:05:41.4   0.1                          T                2.5  .48 Ml 2.0         4789088

.
EVENT     266470
    Date      Time       Latitude Longitude    Depth    Ndef Nsta Gap    Mag1  N    Mag2  N    Mag3  N   Author         ID
       rms   OT_Error      Smajor Sminor Az        Err   mdist  Mdist     Err        Err        Err      Quality

2011/11/19 16:43:34.9     43.0811    -.8426      4.0 f    12    3 161  Ml 1.4  1  Md 1.5  2              js067245    266490

      0.19   +-  0.06       2.0     .8  177.01 +-  0.0    0.10   0.87   +-         +-0.1                 m i ke

PYRENEES
Sta     Dist  EvAz     Phase      Date       Time     TRes  Azim  AzRes  Slow  SRes Def   SNR       Amp   Per   Mag1   Mag2       ID
ETSF  000.28 131.2 m E Pg      2011/11/19 16:43:40.3  -0.2                          T                                        4789035
ETSF  000.28 131.2 m E Sg      2011/11/19 16:43:44.3   0.0                          T                6.0  .22        Md 1.4  4789032
SJPF  000.28 276.7 m E Pg      2011/11/19 16:43:40.4  -0.1                          T                                        4789034
SJPF  000.28 276.7 m E Sg      2011/11/19 16:43:44.7   0.3                          T                6.5  .26        Md 1.6  4789033
EPF   000.87 092.9 m E Pn      2011/11/19 16:43:52.4   0.0                          T                                        4789036
EPF   000.87 092.9 m E Sn      2011/11/19 16:44:04.9   0.1                          T                 .9  .22 Ml 1.4         4789037

.
EVENT     266473
    Date      Time       Latitude Longitude    Depth    Ndef Nsta Gap    Mag1  N    Mag2  N    Mag3  N   Author         ID
       rms   OT_Error      Smajor Sminor Az        Err   mdist  Mdist     Err        Err        Err      Quality

2011/11/19 21:14:23.6     44.1188    7.1645     15.0      18    9 154  Ml 1.6  5  Md 1.8  2              js067245    266493

      0.96   +-  0.15       3.4    2.0   76.56 +-  0.0    0.32   1.93   +-0.5      +-0.1                 m i ke

NORTHERN ITALY
Sta     Dist  EvAz     Phase      Date       Time     TRes  Azim  AzRes  Slow  SRes Def   SNR       Amp   Per   Mag1   Mag2       ID
SBF   000.32 142.5 m E Pg      2011/11/19 21:14:30.5   0.1                          T                                        4789043
SBF   000.32 142.5 m E Sg      2011/11/19 21:14:34.0  -0.1                          T                3.9  .20        Md 1.8  4789047
FRF   000.67 214.1 m E Pg      2011/11/19 21:14:36.2  -0.3                          T                                        4789052
FRF   000.67 214.1 m E Sg      2011/11/19 21:14:45.4  -0.1                          T                3.0  .23        Md 1.8  4789051
MBDF  000.67 335.3 m E Pg      2011/11/19 21:14:36.8   0.1                          T                                        4789041
MBDF  000.67 335.3 m E Sg      2011/11/19 21:14:45.3  -0.3                          T                1.0  .22                4789042
LMR   000.92 211.4 m E Pg      2011/11/19 21:14:41.0   0.0                          T                                        4789053
LMR   000.92 211.4 m E Sg      2011/11/19 21:14:52.8  -0.2                          T                3.6  .24 Ml 2.0         4789048
SMRF  001.15 263.4 m E Pg      2011/11/19 21:14:45.9   0.5                          T                                        4789050
SMRF  001.15 263.4 m E Sg      2011/11/19 21:14:59.7  -0.7                          T                4.8  .23 Ml 2.2         4789049
ORIF  001.22 311.5 m E Pg      2011/11/19 21:14:46.9   0.2                          T                                        4789044
ORIF  001.22 311.5 m E Sg      2011/11/19 21:15:02.1  -0.3                          T                1.2  .33 Ml 1.5         4789046
LPL   001.43 347.7 m E Pg      2011/11/19 21:14:50.1  -0.5                          T                                        4789045
VIVF  001.93 293.3 m E Pn      2011/11/19 21:14:54.7   0.5                          T                                        4789278
VIVF  001.93 293.3 m E Sn      2011/11/19 21:15:17.2   0.4                          T                                        4789279
LPG   001.41 348.1 m E Sg      2011/11/19 21:15:08.7   0.0                          T                 .2  .20 Ml  .9         4789280

.
EVENT     266474
    Date      Time       Latitude Longitude    Depth    Ndef Nsta Gap    Mag1  N    Mag2  N    Mag3  N   Author         ID
       rms   OT_Error      Smajor Sminor Az        Err   mdist  Mdist     Err        Err        Err      Quality

2011/11/19 21:23:51.4     44.5785    6.7931      2.0      22    9 148  Ml 1.5  6  Md 1.6  1              js067245    266494

      0.35   +-  0.04        .9     .6   81.37 +-  0.0    0.15   1.54   +-0.2      +-                    m i ke

FRANCE
Sta     Dist  EvAz     Phase      Date       Time     TRes  Azim  AzRes  Slow  SRes Def   SNR       Amp   Per   Mag1   Mag2       ID
MBDF  000.15 354.0 m E Pg      2011/11/19 21:23:54.7   0.0                          T                                        4789074
MBDF  000.15 354.0 m E Sg      2011/11/19 21:23:56.5  -0.3                          T               14.3  .21        Md 1.6  4789068
ORIF  000.73 297.9 m E Pg      2011/11/19 21:24:05.2  -0.1                          T                                        4789073
ORIF  000.73 297.9 m E Sg      2011/11/19 21:24:14.9  -0.1                          T                1.4  .21                4789065
ORIF  000.73 297.9 m E Sn      2011/11/19 21:24:18.7   0.3                          T                                        4789058
SBF   000.85 146.9 m E Pg      2011/11/19 21:24:07.6   0.1                          T                                        4789062
SBF   000.85 146.9 m E Sg      2011/11/19 21:24:18.6   0.1                          T                1.6  .24                4789063
LPG   000.92 358.2 m E Pg      2011/11/19 21:24:09.0   0.0                          T                                        4789071
LPG   000.92 358.2 m E Sg      2011/11/19 21:24:21.2   0.2                          T                1.2  .25 Ml 1.4         4789060
LPL   000.94 357.4 m E Pg      2011/11/19 21:24:09.2   0.0                          T                                        4789072
LPL   000.94 357.4 m E Sg      2011/11/19 21:24:21.3  -0.2                          T                 .8  .23 Ml 1.3         4789064
FRF   001.02 186.0 m E Pg      2011/11/19 21:24:10.4  -0.1                          T                                        4789070
FRF   001.02 186.0 m E Sg      2011/11/19 21:24:23.8   0.0                          T                1.6  .20 Ml 1.8         4789061
SMRF  001.06 235.9 m E Pg      2011/11/19 21:24:11.3   0.0                          T                                        4789069
SMRF  001.06 235.9 m E Sg      2011/11/19 21:24:25.2   0.1                          T                1.5  .30 Ml 1.5         4789281
SMRF  001.06 235.9 m E S       2011/11/19 21:24:28.8  -0.1                          T                                        4789099
LMR   001.26 189.5 m E P       2011/11/19 21:24:15.9  -0.1                          T                                        4789067
LMR   001.26 189.5 m E Sg      2011/11/19 21:24:31.3   0.1                          T                1.3  .19 Ml 1.8         4789066
VIVF  001.54 281.1 m E Pg      2011/11/19 21:24:20.3   0.3                          T                                        4789056
VIVF  001.54 281.1 m E Sg      2011/11/19 21:24:39.7  -0.2                          T                 .5  .22 Ml 1.4         4789057

.
EVENT     266478
    Date      Time       Latitude Longitude    Depth    Ndef Nsta Gap    Mag1  N    Mag2  N    Mag3  N   Author         ID
       rms   OT_Error      Smajor Sminor Az        Err   mdist  Mdist     Err        Err        Err      Quality

2011/11/19 23:13:18.5     51.5798   16.1114      1.0 f    53   12 059  Ml 3.7  6                         js067245    266498

      0.85   +-  0.21       5.6    3.4    8.48 +-  0.0    0.75  12.71   +-0.2                            m i sr

POLAND
Sta     Dist  EvAz     Phase      Date       Time     TRes  Azim  AzRes  Slow  SRes Def   SNR       Amp   Per   Mag1   Mag2       ID
RUP   006.06 255.5 m E P       2011/11/19 23:14:50.9  -0.6                          T                                        4789087
CDF   006.52 244.3 m E Pn      2011/11/19 23:14:51.8  -1.5                          T                                        4789082
CDF   006.52 244.3 m E P       2011/11/19 23:14:56.8  -1.3                          T                                        4789086
CDF   006.52 244.3 m E Sg      2011/11/19 23:16:41.6  -1.0                          T               50.8  .90 Ml 4.0         4789106
HINF  007.09 241.5 m E P       2011/11/19 23:15:04.7  -1.4                          T                                        4789084
HINF  007.09 241.5 m E Sg      2011/11/19 23:16:58.9  -1.4                          T               27.8  .90 Ml 3.8         4789104
PAGF  007.34 249.7 m E P       2011/11/19 23:15:08.3  -1.2                          T                                        4789085
PAGF  007.34 249.7 m E Sg      2011/11/19 23:17:08.2   0.2                          T               16.1 1.14 Ml 3.5         4789105
LPL   008.69 229.4 m E P       2011/11/19 23:15:26.4  -2.1                          T                                        4789080
LPG   008.69 229.2 m E P       2011/11/19 23:15:27.4  -1.3                          T                                        4789079
LPG   008.69 229.2 m E Sg      2011/11/19 23:17:52.6   2.0                          T                9.7  .70 Ml 3.7         4789100
LOR   009.07 246.4 m E P       2011/11/19 23:15:31.1  -2.6                          T                                        4789081
SMF   009.44 243.3 m E P       2011/11/19 23:15:38.3  -0.4                          T                                        4789083
FRF   010.25 222.2 m E P       2011/11/19 23:15:48.7  -1.2                          T                                        4789078
GIVF  007.30 262.7 m E Sg      2011/11/19 23:17:07.4   0.5                          T                                        4789101
HAU   007.26 244.3 m E Sg      2011/11/19 23:17:07.4   1.7                          T               19.6  .73 Ml 3.5         4789103
BAIF  007.69 263.2 m E Sg      2011/11/19 23:17:19.2   0.1                          T               35.8 1.22 Ml 3.8         4789102

.
