EVENT     254074
    Date      Time       Latitude Longitude    Depth    Ndef Nsta Gap    Mag1  N    Mag2  N    Mag3  N   Author         ID
       rms   OT_Error      Smajor Sminor Az        Err   mdist  Mdist     Err        Err        Err      Quality

2011/01/23 00:10:09.9     44.8771    6.7128      2.0      20    9 150  Ml 1.8  5  Md 1.7  3              js067245    254094

      0.50   +-  0.14       2.9    2.0   78.97 +-  0.0    0.16   1.55   +-0.2      +-0.1                 m i ke

FRANCE
Sta     Dist  EvAz     Phase      Date       Time     TRes  Azim  AzRes  Slow  SRes Def   SNR       Amp   Per   Mag1   Mag2       ID
MBDF  000.16 164.5 m E Pg      2011/01/23 00:10:12.5  -0.8                          T                                        4586166
MBDF  000.16 164.5 m E Sg      2011/01/23 00:10:14.1  -1.5                          T               28.6  .22        Md 1.7  4586159
ORIF  000.59 274.3 m E Pg      2011/01/23 00:10:20.8  -0.5                          T                                        4586165
ORIF  000.59 274.3 m E Sg      2011/01/23 00:10:28.8  -0.3                          T                4.4  .26        Md 1.7  4586158
LPG   000.62 002.5 m E Pg      2011/01/23 00:10:21.7  -0.3                          T                                        4586163
LPG   000.62 002.5 m E Sg      2011/01/23 00:10:30.4   0.2                          T                8.0  .62        Md 1.6  4586156
LPL   000.64 001.2 m E Pg      2011/01/23 00:10:22.2  -0.1                          T                                        4586164
LPL   000.64 001.2 m E Sg      2011/01/23 00:10:31.9   1.2                          T                9.3  .48                4586157
SBF   001.14 152.7 m E Pg      2011/01/23 00:10:31.5   0.2                          T                                        4586151
SBF   001.14 152.7 m E Sg      2011/01/23 00:10:46.3   0.2                          T                8.1  .50 Ml 2.1         4586152
SMRF  001.21 222.5 m E Pg      2011/01/23 00:10:34.2   1.6                          T                                        4586162
SMRF  001.21 222.5 m E Sg      2011/01/23 00:10:49.0   0.6                          T                 .8  .22 Ml 1.5         4586155
FRF   001.32 182.1 m E Pg      2011/01/23 00:10:35.8   1.3                          T                                        4586161
FRF   001.32 182.1 m E Sg      2011/01/23 00:10:51.9   0.4                          T                2.0  .26 Ml 1.9         4586154
VIVF  001.45 269.9 m E Pg      2011/01/23 00:10:37.6   0.6                          T                                        4586150
VIVF  001.45 269.9 m E Sg      2011/01/23 00:10:56.0   0.2                          T                2.8  .62 Ml 1.7         4586149
LMR   001.55 185.5 m E Pg      2011/01/23 00:10:38.8   0.0                          T                                        4586160
LMR   001.55 185.5 m E Sg      2011/01/23 00:10:59.1   0.4                          T                1.7  .29 Ml 1.8         4586153

.
EVENT     254078
    Date      Time       Latitude Longitude    Depth    Ndef Nsta Gap    Mag1  N    Mag2  N    Mag3  N   Author         ID
       rms   OT_Error      Smajor Sminor Az        Err   mdist  Mdist     Err        Err        Err      Quality

2011/01/23 04:52:24.1     43.1991     .1902      2.0       6    3 202  Ml 1.0  1  Md 1.2  2              js067245    254098

      0.08   +-  0.07       1.9     .9  167.95 +-  0.0    0.20   1.49   +-         +-0.2                 m i ke

FRANCE
Sta     Dist  EvAz     Phase      Date       Time     TRes  Azim  AzRes  Slow  SRes Def   SNR       Amp   Per   Mag1   Mag2       ID
EPF   000.20 146.9 m E Pg      2011/01/23 04:52:28.3   0.1                          T                                        4586174
EPF   000.20 146.9 m E Sg      2011/01/23 04:52:30.8  -0.2                          T                9.5  .20        Md 1.4  4586172
ETSF  000.63 241.6 m E Pg      2011/01/23 04:52:36.0   0.0                          T                                        4586169
ETSF  000.63 241.6 m E Sg      2011/01/23 04:52:44.2  -0.1                          T                 .4  .21        Md 1.1  4586173
MTLF  001.49 083.8 m E Pg      2011/01/23 04:52:51.8   0.0                          T                                        4586170
MTLF  001.49 083.8 m E Sg      2011/01/23 04:53:11.0   0.0                          T                 .2  .18 Ml 1.0         4586171

.
EVENT     254079
    Date      Time       Latitude Longitude    Depth    Ndef Nsta Gap    Mag1  N    Mag2  N    Mag3  N   Author         ID
       rms   OT_Error      Smajor Sminor Az        Err   mdist  Mdist     Err        Err        Err      Quality

2011/01/23 05:12:40.3     42.8298     .1072      2.0      10    4 207  Ml 1.2  2  Md 1.4  2              js067245    254099

      0.06   +-  0.04       1.3     .3  172.80 +-  0.0    0.26   1.63   +-0.1      +-0.2                 m i ke

PYRENEES
Sta     Dist  EvAz     Phase      Date       Time     TRes  Azim  AzRes  Slow  SRes Def   SNR       Amp   Per   Mag1   Mag2       ID
EPF   000.26 040.4 m E Pg      2011/01/23 05:12:45.6   0.0                          T                                        4586184
EPF   000.26 040.4 m E Sg      2011/01/23 05:12:49.1  -0.1                          T                9.4  .22        Md 1.6  4586181
ETSF  000.49 278.2 m E Pg      2011/01/23 05:12:49.8   0.0                          T                                        4586183
ETSF  000.49 278.2 m E Sg      2011/01/23 05:12:56.5   0.1                          T                2.2  .31        Md 1.3  4586182
SJPF  001.02 286.6 m E Pg      2011/01/23 05:12:59.4   0.0                          T                                        4586177
SJPF  001.02 286.6 m E Sg      2011/01/23 05:13:12.6   0.0                          T                 .5  .16 Ml 1.3         4586180
MTLF  001.63 071.0 m E Pg      2011/01/23 05:13:10.6   0.0                          T                                        4586178
MTLF  001.63 071.0 m E Sg      2011/01/23 05:13:31.8   0.2                          T                 .4  .33 Ml 1.2         4586179

.
EVENT     254075
    Date      Time       Latitude Longitude    Depth    Ndef Nsta Gap    Mag1  N    Mag2  N    Mag3  N   Author         ID
       rms   OT_Error      Smajor Sminor Az        Err   mdist  Mdist     Err        Err        Err      Quality

2011/01/23 06:02:47.9     56.8078   -5.7563     16.0 f    75   38 153  Ml 3.8 17                         js067245    254095

      0.45   +-  0.07       2.5    1.0   83.26 +-  0.0    0.44  15.42   +-0.3                            m i ke

UNITED KINGDOM
Sta     Dist  EvAz     Phase      Date       Time     TRes  Azim  AzRes  Slow  SRes Def   SNR       Amp   Per   Mag1   Mag2       ID
ROSF  008.62 168.9 m E Pn      2011/01/23 06:04:49.4  -0.2                          T                                        4586273
FLN   008.67 156.2 m E Pn      2011/01/23 06:04:50.2   0.0                          T                                        4586270
FLN   008.67 156.2 m E Sn      2011/01/23 06:06:21.7  -0.2                          T                6.8  .31 Ml 3.7         4587757
SGMF  008.79 165.9 m E Pn      2011/01/23 06:04:52.0   0.2                          T                                        4586272
LDF   008.91 155.1 m E Pn      2011/01/23 06:04:53.2  -0.3                          T                                        4586269
GRR   008.94 158.5 m E Pn      2011/01/23 06:04:54.1   0.2                          T                                        4586268
GRR   008.94 158.5 m E Sn      2011/01/23 06:06:28.0  -0.4                          T                5.1  .29 Ml 3.6         4586267
BAIF  009.00 134.5 m E Pn      2011/01/23 06:04:54.5  -0.2                          T                                        4586288
BAIF  009.00 134.5 m E Sn      2011/01/23 06:06:29.3  -0.4                          T                3.3  .33 Ml 3.6         4586260
QUIF  009.04 168.8 m E Pn      2011/01/23 06:04:55.3   0.0                          T                                        4586271
GIVF  009.21 132.4 m E Pn      2011/01/23 06:04:57.8   0.2                          T                                        4586292
GIVF  009.21 132.4 m E Sn      2011/01/23 06:06:34.6  -0.2                          T                4.9  .29 Ml 3.8         4586259
RUP   010.46 127.5 m E Pn      2011/01/23 06:05:14.4  -0.3                          T                                        4586287
MEZF  010.58 137.2 m E Pn      2011/01/23 06:05:16.3   0.0                          T                                        4586283
MEZF  010.58 137.2 m E Sn      2011/01/23 06:07:07.5  -0.1                          T                3.8  .35 Ml 3.9         4586261
PAGF  010.80 135.1 m E Pn      2011/01/23 06:05:19.3   0.1 319.8  -4.5              T                                        4586284
PAGF  010.80 135.1 m E Sn      2011/01/23 06:07:12.3  -0.5                          T                 .4  .25 Ml 3.1         4587754
SFTF  010.83 138.2 m E Pn      2011/01/23 06:05:19.8   0.2 319.3  -7.4              T                                        4586282
SFTF  010.83 138.2 m E Sn      2011/01/23 06:07:13.2  -0.3                          T                6.1  .29 Ml 4.2         4586264
MFF   010.79 158.9 m E Pn      2011/01/23 06:05:20.2   1.1                          T                                        4587773
THEF  011.17 135.3 m E Pn      2011/01/23 06:05:24.0  -0.3                          T                                        4586281
THEF  011.17 135.3 m E Sn      2011/01/23 06:07:21.7   0.1                          T                5.8  .35 Ml 4.1         4586263
LOR   011.23 144.2 m E Pn      2011/01/23 06:05:25.2   0.1 328.5  -3.4              T                                        4586291
LOR   011.23 144.2 m E Sn      2011/01/23 06:07:22.9  -0.2                          T                3.5  .38 Ml 3.9         4586258
LANF  011.32 128.1 m E Pn      2011/01/23 06:05:26.2  -0.1                          T                                        4586286
SSF   011.30 145.8 m E Pn      2011/01/23 06:05:26.2   0.2                          T                                        4586290
AVF   011.50 146.9 m E Pn      2011/01/23 06:05:28.4  -0.3                          T                                        4586277
AVF   011.50 146.9 m E Sn      2011/01/23 06:07:28.2  -1.3                          T                1.1  .32 Ml 3.5         4587755
HAU   011.49 135.0 m E Pn      2011/01/23 06:05:28.8   0.2                          T                                        4586280
HAU   011.49 135.0 m E Sn      2011/01/23 06:07:29.1  -0.2                          T                2.7  .35 Ml 3.6         4586262
CDF   011.53 131.3 m E Pn      2011/01/23 06:05:29.3   0.0                          T                                        4586285
BGF   011.56 149.0 m E Pn      2011/01/23 06:05:29.7   0.1                          T                                        4586275
BGF   011.56 149.0 m E Sn      2011/01/23 06:07:30.7  -0.3                          T                6.7  .39 Ml 4.2         4586266
TCF   011.63 151.5 m E Pn      2011/01/23 06:05:30.7   0.1                          T                                        4586289
SMF   011.77 145.7 m E Pn      2011/01/23 06:05:32.6   0.1                          T                                        4586276
SMF   011.77 145.7 m E Sn      2011/01/23 06:07:35.5  -0.7                          T                1.3  .18 Ml 3.8         4586265
HINF  011.84 134.2 m E Pn      2011/01/23 06:05:33.6   0.1                          T                                        4586279
RJF   012.38 155.4 m E Pn      2011/01/23 06:05:41.1   0.3                          T                                        4587772
RJF   012.38 155.4 m E Sn      2011/01/23 06:07:50.7   0.0                          T                2.6  .34 Ml 3.6         4587758
CABF  012.56 139.4 m E Pn      2011/01/23 06:05:43.2  -0.1                          T                                        4586278
LFF   012.56 158.3 m E Pn      2011/01/23 06:05:43.4   0.2                          T                                        4587771
CAF   012.87 154.3 m E Pn      2011/01/23 06:05:48.0   0.5                          T                                        4587770
CAF   012.87 154.3 m E Sn      2011/01/23 06:08:02.3   0.0                          T                1.7  .32 Ml 3.8         4587759
VIVF  013.64 146.9 m E Pn      2011/01/23 06:05:58.2   0.2                          T                                        4587764
LPL   013.73 140.2 m E Pn      2011/01/23 06:05:58.8  -0.6                          T                                        4587762
LPG   013.75 140.1 m E Pn      2011/01/23 06:05:59.9   0.1                          T                                        4587761
ORIF  013.96 143.6 m E Pn      2011/01/23 06:06:02.3  -0.1                          T                                        4587763
SJPF  014.01 166.2 m E Pn      2011/01/23 06:06:03.4   0.4                          T                                        4587769
LASF  014.12 150.4 m E Pn      2011/01/23 06:06:04.6   0.1                          T                                        4587765
EPF   014.33 161.7 m E Pn      2011/01/23 06:06:07.4   0.0                          T                                        4587767
ETSF  014.31 164.4 m E Pn      2011/01/23 06:06:07.4   0.2                          T                                        4587768
MTLF  014.40 156.0 m E Pn      2011/01/23 06:06:08.0  -0.3                          T                                        4587766
FRF   015.42 144.0 m E Pn      2011/01/23 06:06:22.2   0.1                          T                                        4587760

.
EVENT     254109
    Date      Time       Latitude Longitude    Depth    Ndef Nsta Gap    Mag1  N    Mag2  N    Mag3  N   Author         ID
       rms   OT_Error      Smajor Sminor Az        Err   mdist  Mdist     Err        Err        Err      Quality

2011/01/23 06:32:42.5     48.1745    8.5854     22.0 f     8    4 138  Ml 1.2  4  Md 1.5  1              js067245    254129

      0.15   +-  0.04        .9     .6   18.09 +-  0.0    0.15   1.51   +-0.1      +-                    m i ke

GERMANY
Sta     Dist  EvAz     Phase      Date       Time     TRes  Azim  AzRes  Slow  SRes Def   SNR       Amp   Per   Mag1   Mag2       ID
CDF   000.91 285.7 m E Pg      2011/01/23 06:33:00.0   0.0                          T                                        4587780
CDF   000.91 285.7 m E Sg      2011/01/23 06:33:11.6  -0.4                          T                 .4  .24 Ml 1.2 Md 1.5  4587781
LANF  000.96 327.6 m E Pg      2011/01/23 06:33:00.8  -0.1                          T                                        4587778
LANF  000.96 327.6 m E Sg      2011/01/23 06:33:13.8   0.2                          T                 .4  .15 Ml 1.2         4587779
HINF  001.22 253.5 m E Pg      2011/01/23 06:33:05.6   0.0                          T                                        4587774
HINF  001.22 253.5 m E Sg      2011/01/23 06:33:21.6   0.1                          T                 .2  .19 Ml 1           4587775
HAU   001.51 264.4 m E Pg      2011/01/23 06:33:10.8   0.0                          T                                        4587776
HAU   001.51 264.4 m E Sg      2011/01/23 06:33:30.3  -0.2                          T                 .6  .23 Ml 1.3         4587777

.
EVENT     254076
    Date      Time       Latitude Longitude    Depth    Ndef Nsta Gap    Mag1  N    Mag2  N    Mag3  N   Author         ID
       rms   OT_Error      Smajor Sminor Az        Err   mdist  Mdist     Err        Err        Err      Quality

2011/01/23 09:24:09.8     51.5633   16.1669      1.0 f    64   14 065  Ml 3.8 14                         js067245    254096

      0.82   +-  0.11       2.8    1.8   15.17 +-  0.0    0.73  18.56   +-0.3                            m i sr

POLAND
Sta     Dist  EvAz     Phase      Date       Time     TRes  Azim  AzRes  Slow  SRes Def   SNR       Amp   Per   Mag1   Mag2       ID
LANF  005.95 247.5 m E Pn      2011/01/23 09:25:36.6  -0.1                          T                                        4586321
LANF  005.95 247.5 m E Sg      2011/01/23 09:27:16.0   0.0                          T               82.8  .77 Ml 4.1         4586303
RUP   006.09 255.7 m E Pn      2011/01/23 09:25:38.5  -0.1                          T                                        4586322
RUP   006.09 255.7 m E Sg      2011/01/23 09:27:20.5   0.2                          T                                        4586302
CDF   006.54 244.7 m E Pn      2011/01/23 09:25:45.0   0.1                          T                                        4586320
CDF   006.54 244.7 m E Sg      2011/01/23 09:27:34.4  -0.2                          T               62.9  .96 Ml 4.1         4586304
HINF  007.11 241.8 m E Pn      2011/01/23 09:25:52.6   0.0                          T                                        4586313
HINF  007.11 241.8 m E Sg      2011/01/23 09:27:52.1  -0.1                          T               27.6  .82 Ml 3.8         4586307
HAU   007.28 244.6 m E Pn      2011/01/23 09:25:54.9  -0.1                          T                                        4586315
HAU   007.28 244.6 m E Sg      2011/01/23 09:27:58.0   0.3                          T               26.8  .74 Ml 3.6         4586306
GIVF  007.33 262.9 m E Pn      2011/01/23 09:25:55.6   0.1                          T                                        4586319
GIVF  007.33 262.9 m E Sg      2011/01/23 09:27:59.0  -0.2                          T               36.3  .92 Ml 3.9         4586299
PAGF  007.36 250.0 m E Pn      2011/01/23 09:25:55.9  -0.1  76.7  14.7              T                                        4586312
PAGF  007.36 250.0 m E Sg      2011/01/23 09:28:00.2   0.1                          T               17.2 1.31 Ml 3.4         4586301
THEF  007.37 247.0 m E Pn      2011/01/23 09:25:56.1   0.0                          T                                        4586314
THEF  007.37 247.0 m E Sg      2011/01/23 09:28:00.5   0.2                          T               25.1  .72 Ml 3.9         4586305
BAIF  007.73 263.4 m E Pn      2011/01/23 09:26:00.8   0.0                          T                                        4586318
BAIF  007.73 263.4 m E Sg      2011/01/23 09:28:11.3  -0.1                          T               52.0 1.30 Ml 4.0         4586296
MEZF  007.79 251.2 m E Pn      2011/01/23 09:26:01.8   0.2  74.9  12.3              T                                        4586311
MEZF  007.79 251.2 m E Sg      2011/01/23 09:28:13.4   0.1                          T               17.3  .77 Ml 3.7         4586300
SFTF  007.93 249.3 m E Pn      2011/01/23 09:26:03.5  -0.2  67.7  6.9               T                                        4586310
SFTF  007.93 249.3 m E Sg      2011/01/23 09:28:17.5  -0.4                          T               80.4 1.39 Ml 4.2         4586295
CABF  008.26 237.1 m E Pn      2011/01/23 09:26:08.4   0.0                          T                                        4586309
CABF  008.26 237.1 m E Sg      2011/01/23 09:28:28.5   0.1                          T               22.9  .77 Ml 3.9         4586308
LOR   009.10 246.6 m E Pn      2011/01/23 09:26:19.4  -0.2  68.1  10.8              T                                        4586316
LOR   009.10 246.6 m E Sg      2011/01/23 09:28:54.7   0.3                          T               30.4 1.17 Ml 4.0         4586298
SSF   009.41 246.4 m E Pn      2011/01/23 09:26:24.0   0.1                          T                                        4586317
SSF   009.41 246.4 m E Sg      2011/01/23 09:29:04.4   0.2                          T                7.1  .78 Ml 3.7         4586297

.
