EVENT     287345
    Date      Time       Latitude Longitude    Depth    Ndef Nsta Gap    Mag1  N    Mag2  N    Mag3  N   Author         ID
       rms   OT_Error      Smajor Sminor Az        Err   mdist  Mdist     Err        Err        Err      Quality

2012/11/22 14:57:49.6     44.4919    6.6969      9.0 f    33    8 068  Ml 1.7  5  Md 1.8  1              bulletin    287445
                                                                                                         _ldg
      0.42   +-  0.08       1.7    1.3   70.62 +-  0.0    0.11   2.19   +-0.3      +-                    m i ke

FRANCE
Sta     Dist  EvAz     Phase      Date       Time     TRes  Azim  AzRes  Slow  SRes Def   SNR       Amp   Per   Mag1   Mag2       ID
MBDF  000.24 012.7 m E Pg      2012/11/22 14:57:54.7  -0.1                          T                                        5123033
MBDF  000.24 012.7 m E Sg      2012/11/22 14:57:58.4   0.2                          T                4.3  .17        Md 1.8  5123032
ORIF  000.72 306.5 m E Pg      2012/11/22 14:58:02.9  -0.6                          T                                        5123031
ORIF  000.72 306.5 m E Sg      2012/11/22 14:58:12.9   0.0                          T                1.8  .17                5123030
SBF   000.82 139.5 m E Pg      2012/11/22 14:58:05.4   0.2                          T                                        5123029
SBF   000.82 139.5 m E Sg      2012/11/22 14:58:16.1   0.1                          T                8.4  .35                5123028
FRF   000.93 182.2 m E Pg      2012/11/22 14:58:07.3   0.1                          T                                        5123025
FRF   000.93 182.2 m E Sg      2012/11/22 14:58:19.5   0.2                          T                4.3  .20 Ml 2.2         5123024
SMRF  000.96 237.8 m E Pg      2012/11/22 14:58:08.1   0.4                          T                                        5123023
SMRF  000.96 237.8 m E Sg      2012/11/22 14:58:19.9  -0.2                          T                1.5  .21 Ml 1.7         5123022
LPG   001.01 002.2 m E Pg      2012/11/22 14:58:09.2   0.2                          T                                        5123021
LPG   001.01 002.2 m E Sg      2012/11/22 14:58:22.5   0.5                          T                 .7  .21 Ml 1.3         5123020
LPL   001.02 001.4 m E Pg      2012/11/22 14:58:09.2   0.0                          T                                        5123019
LPL   001.02 001.4 m E Sg      2012/11/22 14:58:23.0   0.4                          T                1.8  .26 Ml 1.7         5123018
LMR   001.17 186.7 m E Pg      2012/11/22 14:58:11.6   0.2                          T                                        5123027
LMR   001.17 186.7 m E Sg      2012/11/22 14:58:26.6   0.0                          T                1.8  .21 Ml 1.9         5123026

.
EVENT     287347
    Date      Time       Latitude Longitude    Depth    Ndef Nsta Gap    Mag1  N    Mag2  N    Mag3  N   Author         ID
       rms   OT_Error      Smajor Sminor Az        Err   mdist  Mdist     Err        Err        Err      Quality

2012/11/22 15:43:16.4     50.2666    7.3597     10.0 f   105   20 030  Ml 3.3 19                         bulletin    287447
                                                                                                         _ldg
      0.75   +-  0.07       1.5    1.2   11.64 +-  0.0    0.25   6.43   +-0.3                            m i ke

GERMANY
Sta     Dist  EvAz     Phase      Date       Time     TRes  Azim  AzRes  Slow  SRes Def   SNR       Amp   Per   Mag1   Mag2       ID
GIVF  001.64 265.2 m E Pg      2012/11/22 15:43:45.4  -1.6                          T   001.0                                5123072
GIVF  001.64 265.2 m E Sg      2012/11/22 15:44:07.5  -0.7                          T   001.0      273.9  .30 Ml 4.1         5123074
CDF   001.86 181.7 m E Pn      2012/11/22 15:43:46.7   0.0                          T   001.0                                5123084
CDF   001.86 181.7 m E Pg      2012/11/22 15:43:49.8  -1.4                          T                                        5123117
CDF   001.86 181.7 m E Sg      2012/11/22 15:44:14.5  -0.6                          T              108.7  .38 Ml 3.7         5123116
BAIF  002.04 265.4 m E Pn      2012/11/22 15:43:48.7  -0.4                          T   001.0                                5123104
BAIF  002.04 265.4 m E Pg      2012/11/22 15:43:52.5  -1.8                          T   001.0                                5123105
BAIF  002.04 265.4 m E Sg      2012/11/22 15:44:19.1  -1.5                          T   001.0       70.1  .28 Ml 3.6         5123106
PAGF  002.02 212.6 m E Pn      2012/11/22 15:43:49.1   0.3  33.5  2.2               T                                        5123115
PAGF  002.02 212.6 m E Pg      2012/11/22 15:43:53.9  -0.1  26.8  -4.5              T                                        5123114
PAGF  002.02 212.6 m E Sg      2012/11/22 15:44:20.2   0.2                          T               42.8  .29 Ml 3.4         5123113
MEZF  002.32 221.4 m E Pn      2012/11/22 15:43:52.7  -0.2  37.7  -1.9              T                                        5123118
MEZF  002.32 221.4 m E Pg      2012/11/22 15:43:58.8  -0.8  32.4  -7.2              T   001.0                                5123078
MEZF  002.32 221.4 m E Sn      2012/11/22 15:44:21.0   1.2                          T   001.0                                5123079
MEZF  002.32 221.4 m E Sg      2012/11/22 15:44:29.0  -0.4  38.9  -0.7              T   001.0       35.2  .32 Ml 3.3         5123080
HAU   002.36 196.7 m E Pn      2012/11/22 15:43:53.9   0.4                          T   001.0                                5123088
HAU   002.36 196.7 m E Pg      2012/11/22 15:43:58.9  -1.3                          T   001.0                                5123089
HAU   002.36 196.7 m E Sg      2012/11/22 15:44:29.5  -1.2                          T   001.0       43.2  .28 Ml 3.3         5123090
HINF  002.47 187.9 m E Pn      2012/11/22 15:43:55.3   0.2                          T   001.0                                5123075
HINF  002.47 187.9 m E Pg      2012/11/22 15:44:01.3  -1.1                          T   001.0                                5123076
HINF  002.47 187.9 m E Sg      2012/11/22 15:44:34.0  -0.3                          T   001.0       35.3  .28 Ml 3.4         5123077
SFTF  002.56 217.3 m E Pn      2012/11/22 15:43:56.5   0.3                          T                                        5123128
SFTF  002.56 217.3 m E Pg      2012/11/22 15:44:03.5  -0.6                          T                                        5123127
CABF  003.76 193.5 m E Pn      2012/11/22 15:44:12.8   0.2                          T   001.0                                5123107
CABF  003.76 193.5 m E Pg      2012/11/22 15:44:24.9  -1.2                          T                                        5123119
CABF  003.76 193.5 m E Sg      2012/11/22 15:45:13.9  -0.4                          T   001.0       12.3  .40 Ml 3.1         5123109
LOR   003.79 219.0 m E Pn      2012/11/22 15:44:13.0   0.1  43.4  7.1               T   001.0                                5123094
LOR   003.79 219.0 m E Pg      2012/11/22 15:44:26.0  -0.7  39.8  3.4               T                                        5123111
LOR   003.79 219.0 m E Sn      2012/11/22 15:44:55.9   0.9                          T                                        5123112
LOR   003.79 219.0 m E Sg      2012/11/22 15:45:15.8   0.5  37.1  0.7               T   001.0       14.7  .28 Ml 3.3         5123095
SSF   004.10 220.0 m E Pn      2012/11/22 15:44:17.3   0.1                          T   001.0                                5123101
SSF   004.10 220.0 m E Sn      2012/11/22 15:45:03.6   1.3                          T   001.0                                5123102
SSF   004.10 220.0 m E Sg      2012/11/22 15:45:24.7  -0.2                          T   001.0       17.5  .40 Ml 3.4         5123103
SMF   004.31 214.2 m E Pn      2012/11/22 15:44:20.0  -0.1                          T   001.0                                5123098
SMF   004.31 214.2 m E Sn      2012/11/22 15:45:08.7   1.2                          T   001.0                                5123099
SMF   004.31 214.2 m E Sg      2012/11/22 15:45:32.9   1.3                          T   001.0         10  .28 Ml 3.3         5123100
HYF   004.33 227.9 m E Pn      2012/11/22 15:44:20.5   0.2                          T                                        5123122
HYF   004.33 227.9 m E Sn      2012/11/22 15:45:08.2   0.3                          T                                        5123121
HYF   004.33 227.9 m E Sg      2012/11/22 15:45:31.5  -0.6                          T                                        5123120
AVF   004.38 219.0 m E Pn      2012/11/22 15:44:22.0   1.0                          T   001.0                                5123071
AVF   004.38 219.0 m E Sn      2012/11/22 15:45:09.6   0.6                          T   001.0                                5123081
AVF   004.38 219.0 m E Sg      2012/11/22 15:45:33.3  -0.4                          T   001.0        1.1  .19 Ml 2.5         5123082
LPG   004.79 185.1 m E Pn      2012/11/22 15:44:25.9  -1.0                          T   001.0                                5123096
TCF   005.26 222.8 m E Pn      2012/11/22 15:44:33.2   0.2                          T                                        5123125
TCF   005.26 222.8 m E Pg      2012/11/22 15:44:53.4  -0.4                          T                                        5123124
TCF   005.26 222.8 m E Sg      2012/11/22 15:46:01.5   0.3                          T                4.7  .37 Ml 3.1         5123123
MFF   006.19 236.6 m E Pn      2012/11/22 15:44:45.5  -0.2                          T   001.0                                5123097
MFF   006.19 236.6 m E Sn      2012/11/22 15:45:52.9   0.5                          T                1.0  .19 Ml 3.0         5123126
LDF   005.16 253.9 m E Sn      2012/11/22 15:45:28.2   0.5                          T   001.0                                5123092
LDF   005.16 253.9 m E Sg      2012/11/22 15:45:55.7  -2.3                          T   001.0        8.6  .32 Ml 3.3         5123093
GRR   005.69 253.9 m E Sn      2012/11/22 15:45:41.7   1.3                          T   001.0        6.9  .28 Ml 3.3         5123087
CAF   006.43 215.8 m E Sn      2012/11/22 15:45:58.3   0.2                          T   001.0        2.8  .44 Ml 3.0         5123083

.
EVENT     287494
    Date      Time       Latitude Longitude    Depth    Ndef Nsta Gap    Mag1  N    Mag2  N    Mag3  N   Author         ID
       rms   OT_Error      Smajor Sminor Az        Err   mdist  Mdist     Err        Err        Err      Quality

2012/11/22 17:11:37.6     41.2266    1.4071      5.0 f    30    3 104  Ml 1.7  3                         bulletin    287594
                                                                                                         _ldg
      0.36   +-  0.08       1.4    1.1  134.36 +-  0.0    0.28   2.22   +-0.4                            m i ke

SPAIN
Sta     Dist  EvAz     Phase      Date       Time     TRes  Azim  AzRes  Slow  SRes Def   SNR       Amp   Per   Mag1   Mag2       ID
EPF   001.97 336.6 m E Pn      2012/11/22 17:12:10.1   0.2                          T                                        5125729
EPF   001.97 336.6 m E Pg      2012/11/22 17:12:14.2  -0.1                          T                                        5125728
EPF   001.97 336.6 m E Sn      2012/11/22 17:12:34.1   0.5                          T                                        5125727
EPF   001.97 336.6 m E Sg      2012/11/22 17:12:39.4  -0.2                          T                1.4  .18 Ml 2.1         5125726
MTLF  002.20 015.6 m E Pn      2012/11/22 17:12:13.4   0.4                          T                                        5125722
MTLF  002.20 015.6 m E Pg      2012/11/22 17:12:18.5   0.1                          T                                        5125721
MTLF  002.20 015.6 m E Sn      2012/11/22 17:12:39.2   0.3                          T                                        5125720
MTLF  002.20 015.6 m E Sg      2012/11/22 17:12:46.4  -0.3                          T                 .4  .19 Ml 1.6         5125719
ETSF  002.22 319.4 m E Pn      2012/11/22 17:12:13.8   0.4                          T                                        5125725
ETSF  002.22 319.4 m E Sn      2012/11/22 17:12:40.3   0.7                          T                                        5125724
ETSF  002.22 319.4 m E Sg      2012/11/22 17:12:47.4  -0.2                          T                 .2  .17 Ml 1.3         5125723

.
EVENT     287353
    Date      Time       Latitude Longitude    Depth    Ndef Nsta Gap    Mag1  N    Mag2  N    Mag3  N   Author         ID
       rms   OT_Error      Smajor Sminor Az        Err   mdist  Mdist     Err        Err        Err      Quality

2012/11/22 18:18:16.4     45.4365    6.6968      2.0      10    5 148  Ml 1.4  1  Md 1.4  2              bulletin    287453
                                                                                                         _ldg
      0.20   +-  0.07       2.7    1.2  108.43 +-  0.0    0.07   1.66   +-         +-0.1                 m i ke

FRANCE
Sta     Dist  EvAz     Phase      Date       Time     TRes  Azim  AzRes  Slow  SRes Def   SNR       Amp   Per   Mag1   Mag2       ID
LPL   000.08 017.4 m E Pg      2012/11/22 18:18:18.6   0.0                          T                                        5123223
LPL   000.08 017.4 m E Sg      2012/11/22 18:18:19.4  -0.5                          T                                Md 1.4  5123222
LPG   000.07 032.1 m E Pg      2012/11/22 18:18:18.7   0.2                          T                                        5123221
LPG   000.07 032.1 m E Sg      2012/11/22 18:18:19.9   0.2                          T                                Md 1.4  5123220
MBDF  000.71 175.7 m E Pg      2012/11/22 18:18:30.0   0.0                          T                                        5123227
MBDF  000.71 175.7 m E Sg      2012/11/22 18:18:39.6   0.2                          T                 .2  .19                5123226
ORIF  000.78 228.4 m E Pg      2012/11/22 18:18:31.0  -0.1                          T                                        5123228
ORIF  000.78 228.4 m E Sg      2012/11/22 18:18:41.6   0.4                          T                 .7  .37                5123229
SBF   001.66 161.2 m E Pn      2012/11/22 18:18:44.8  -0.1                          T                                        5123225
SBF   001.66 161.2 m E Sn      2012/11/22 18:19:05.4  -0.1                          T                 .4  .20 Ml 1.4         5123224

.
EVENT     287355
    Date      Time       Latitude Longitude    Depth    Ndef Nsta Gap    Mag1  N    Mag2  N    Mag3  N   Author         ID
       rms   OT_Error      Smajor Sminor Az        Err   mdist  Mdist     Err        Err        Err      Quality

2012/11/22 20:38:13.0     52.9785    9.1292     10.0 f    61   14 115  Ml 2.7 13                         bulletin    287455
                                                                                                         _ldg
      0.74   +-  0.14       3.4    2.2  166.51 +-  0.0    0.77   9.14   +-0.4                            m i ke

GERMANY
Sta     Dist  EvAz     Phase      Date       Time     TRes  Azim  AzRes  Slow  SRes Def   SNR       Amp   Per   Mag1   Mag2       ID
GIVF  003.94 224.7 m E Pn      2012/11/22 20:39:11.8   0.2                          T                                        5123257
GIVF  003.94 224.7 m E Sn      2012/11/22 20:39:56.0   0.9                          T                7.2  .28 Ml 3.1         5123256
BAIF  004.24 228.4 m E Pn      2012/11/22 20:39:15.7   0.0                          T                                        5123259
BAIF  004.24 228.4 m E Sn      2012/11/22 20:40:03.2   0.9                          T                2.0  .27 Ml 2.6         5123258
CDF   004.72 195.2 m E Pn      2012/11/22 20:39:21.8  -0.6                          T                                        5123260
CDF   004.72 195.2 m E Sn      2012/11/22 20:40:12.7  -1.2                          T                 .5  .19 Ml 2.4         5123276
PAGF  004.93 207.3 m E Pn      2012/11/22 20:39:24.8  -0.2                          T                                        5123275
PAGF  004.93 207.3 m E Sn      2012/11/22 20:40:18.5  -0.2                          T                2.1  .28 Ml 2.7         5123274
MEZF  005.18 211.6 m E Pn      2012/11/22 20:39:28.5   0.1  33.5  5.0               T                                        5123273
MEZF  005.18 211.6 m E Sn      2012/11/22 20:40:25.0   0.4  33.8  5.4               T                 .7  .24 Ml 2.4         5123272
HAU   005.29 200.7 m E Pn      2012/11/22 20:39:29.3  -0.6                          T                                        5123255
HAU   005.29 200.7 m E Sn      2012/11/22 20:40:27.1  -0.2                          T                1.3  .25 Ml 2.4         5123261
HINF  005.37 196.6 m E Pn      2012/11/22 20:39:30.2  -0.9                          T                                        5123269
HINF  005.37 196.6 m E Sn      2012/11/22 20:40:28.3  -1.0                          T                 .6  .22 Ml 2.4         5123268
SFTF  005.44 210.2 m E Pn      2012/11/22 20:39:31.3  -0.8                          T                                        5123271
SFTF  005.44 210.2 m E Sn      2012/11/22 20:40:30.0  -1.0                          T                 .6  .15 Ml 2.5         5123270
LOR   006.64 212.7 m E Pn      2012/11/22 20:39:47.9  -0.5  37.8  9.1               T                                        5123278
LOR   006.64 212.7 m E Sn      2012/11/22 20:41:00.0   0.2                          T                1.1  .27 Ml 2.8         5123277
CABF  006.67 198.4 m E Pn      2012/11/22 20:39:48.7  -0.2                          T                                        5123267
SSF   006.94 213.7 m E Pn      2012/11/22 20:39:51.6  -0.8                          T                                        5123279
SMF   007.20 210.4 m E Pn      2012/11/22 20:39:55.5  -0.5                          T                                        5123264
LDF   007.32 236.9 m E Pn      2012/11/22 20:39:57.7   0.0                          T                                        5123266
LDF   007.32 236.9 m E Sn      2012/11/22 20:41:17.3   1.4                          T                 .3  .17 Ml 2.5         5123265
BGF   007.60 214.8 m E Pn      2012/11/22 20:40:01.3  -0.2                          T                                        5123263
BGF   007.60 214.8 m E Sn      2012/11/22 20:41:22.9   0.3                          T                 .3  .18 Ml 2.6         5123262

.
