BEGIN GSE2.0
MSG_TYPE DATA
MSG_ID 08-OCT-1211:52:27  FRA_NDC
E-MAIL
DATA_TYPE BULLETIN
Reviewed Bulletin (REB) # P2012-039  from French NDC for regional phases     PERIOD 26 SEP 2012 TO 02 OCT 2012 Cenalt JP S
EVENT     283924
    Date      Time       Latitude Longitude    Depth    Ndef Nsta Gap    Mag1  N    Mag2  N    Mag3  N   Author         ID
       rms   OT_Error      Smajor Sminor Az        Err   mdist  Mdist     Err        Err        Err      Quality

2012/09/26 00:00:04.5     44.4899    6.6939      2.0      26    6 068  Ml 1.6  4  Md 1.6  1              bulletin    284024
                                                                                                         _ldg
      0.41   +-  0.08       1.7    1.3   66.25 +-  0.0    0.09   1.16   +-0.2      +-                    m i ke

FRANCE
Sta     Dist  EvAz     Phase      Date       Time     TRes  Azim  AzRes  Slow  SRes Def   SNR       Amp   Per   Mag1   Mag2       ID
MBDF  000.24 013.1 m E Pg      2012/09/26 00:00:09.6   0.1                          T                                        5078440
MBDF  000.24 013.1 m E Sg      2012/09/26 00:00:13.7   0.8                          T                5.4  .32        Md 1.6  5078439
ORIF  000.72 306.7 m E Pg      2012/09/26 00:00:18.0  -0.2                          T                                        5078438
ORIF  000.72 306.7 m E Sg      2012/09/26 00:00:26.8  -0.9                          T                2.5  .27                5078437
FRF   000.93 182.1 m E Pg      2012/09/26 00:00:23.2   1.3                          T                                        5078434
FRF   000.93 182.1 m E Sg      2012/09/26 00:00:34.5   0.5                          T                1.9  .17 Ml 1.9         5078433
LMR   001.16 186.7 m E Pg      2012/09/26 00:00:26.9   0.7                          T                                        5078436
LMR   001.16 186.7 m E Sg      2012/09/26 00:00:41.8   0.5                          T                 .7  .17 Ml 1.5         5078435
SMRF  000.95 237.8 m E Sn      2012/09/26 00:00:36.6  -0.1                          T                2.6  .30 Ml 1.7         5078792
LPL   001.03 001.5 m E Sn      2012/09/26 00:00:38.8   0.1                          T                1.3  .33 Ml 1.4         5078791

.
EVENT     283925
    Date      Time       Latitude Longitude    Depth    Ndef Nsta Gap    Mag1  N    Mag2  N    Mag3  N   Author         ID
       rms   OT_Error      Smajor Sminor Az        Err   mdist  Mdist     Err        Err        Err      Quality

2012/09/26 00:50:03.4     42.9553     .2791     15.0       6    4 190  Ml 1.0  2  Md 1.3  2              bulletin    284025
                                                                                                         _ldg
      0.16   +-  0.12       4.9    1.1  166.34 +-  0.0    0.09   1.47   +-0.2      +-0.2                 m i ke

PYRENEES
Sta     Dist  EvAz     Phase      Date       Time     TRes  Azim  AzRes  Slow  SRes Def   SNR       Amp   Per   Mag1   Mag2       ID
EPF   000.09 030.8 m E Pg      2012/09/26 00:50:06.5  -0.2                          T                                        5078457
EPF   000.09 030.8 m E Sg      2012/09/26 00:50:08.8  -0.1                          T                3.5  .16        Md 1.4  5078455
ETSF  000.62 265.0 m E Pg      2012/09/26 00:50:15.5   0.0                          T                                        5078456
ETSF  000.62 265.0 m E Sg      2012/09/26 00:50:23.3  -0.4                          T                2.5  .21        Md 1.1  5078454
SJPF  001.11 278.7 m E Sg      2012/09/26 00:50:38.8  -0.1                          T                 .5  .23 Ml 1.2         5080453
MTLF  001.47 074.1 m E Sg      2012/09/26 00:50:49.9  -0.1                          T                 .1  .19 Ml  .8         5080454

.
EVENT     283930
    Date      Time       Latitude Longitude    Depth    Ndef Nsta Gap    Mag1  N    Mag2  N    Mag3  N   Author         ID
       rms   OT_Error      Smajor Sminor Az        Err   mdist  Mdist     Err        Err        Err      Quality

2012/09/26 06:36:29.6     47.8097    5.8965       .0 f    18    9 084  Ml 2.2  5  Md 2.2  3              bulletin    284030
                                                                                                         _ldg
      0.68   +-  0.09       1.8    1.6  154.47 +-  0.0    0.64   1.82   +-0.2      +-0.1                 m i km

FRANCE
Sta     Dist  EvAz     Phase      Date       Time     TRes  Azim  AzRes  Slow  SRes Def   SNR       Amp   Per   Mag1   Mag2       ID
HINF  000.64 089.0 m E Pg      2012/09/26 06:36:42.4   0.3                          T                                        5078660
HINF  000.64 089.0 m E Sg      2012/09/26 06:36:49.8  -0.9                          T               10.9  .34        Md 2.1  5078654
SFTF  000.70 304.8 m E Pg      2012/09/26 06:36:43.3   0.3 122.3  -1.8              T                                        5078659
SFTF  000.70 304.8 m E Sg      2012/09/26 06:36:52.3  -0.1                          T               18.5  .38        Md 2.2  5078666
PAGF  000.75 351.3 m E Pg      2012/09/26 06:36:44.1   0.1 164.3  -6.9              T                                        5078658
PAGF  000.75 351.3 m E Sg      2012/09/26 06:36:53.6  -0.4                          T               14.8  .36        Md 2.1  5078655
MEZF  000.89 321.1 m E Pg      2012/09/26 06:36:46.2  -0.4                          T                                        5078669
MEZF  000.89 321.1 m E Sg      2012/09/26 06:36:58.2  -0.2                          T                                        5078668
CDF   001.10 056.4 m E Pg      2012/09/26 06:36:50.8   0.2                          T                                        5078663
CDF   001.10 056.4 m E Sg      2012/09/26 06:37:05.2   0.1                          T                2.9  .25 Ml 2.0         5078667
CABF  001.21 173.7 m E Pg      2012/09/26 06:36:52.2  -0.3                          T                                        5078652
CABF  001.21 173.7 m E Sg      2012/09/26 06:37:08.2  -0.1                          T               14.2  .41 Ml 2.5         5078653
LOR   001.48 249.3 m E Pn      2012/09/26 06:36:56.0   0.0  66.7  -1.1              T                                        5078657
LOR   001.48 249.3 m E Sn      2012/09/26 06:37:15.0  -0.1                          T                1.7  .19 Ml 2.0         5078656
SSF   001.79 246.1 m E Pn      2012/09/26 06:37:00.3   0.2                          T                                        5078662
SSF   001.79 246.1 m E Sn      2012/09/26 06:37:22.3   0.0                          T                3.6  .37 Ml 2.2         5078661
SMF   001.82 231.0 m E Pn      2012/09/26 06:37:00.7   0.1                          T                                        5078664
SMF   001.82 231.0 m E Sg      2012/09/26 06:37:26.9  -0.5                          T                3.5  .34 Ml 2.2         5078665

.
EVENT     283976
    Date      Time       Latitude Longitude    Depth    Ndef Nsta Gap    Mag1  N    Mag2  N    Mag3  N   Author         ID
       rms   OT_Error      Smajor Sminor Az        Err   mdist  Mdist     Err        Err        Err      Quality

2012/09/26 18:51:22.2     42.8020    1.2743      4.0 f    40    5 052  Ml 2.2  5  Md 2.2  1              bulletin    284076
                                                                                                         _ldg
      0.64   +-  0.08       1.6    1.2   11.01 +-  0.0    0.20   2.20   +-0.3      +-                    m i ke

PYRENEES
Sta     Dist  EvAz     Phase      Date       Time     TRes  Azim  AzRes  Slow  SRes Def   SNR       Amp   Per   Mag1   Mag2       ID
EPF   000.72 288.7 m E Pg      2012/09/26 18:51:34.8  -1.2                          T                                        5079268
EPF   000.72 288.7 m E Sg      2012/09/26 18:51:43.5  -2.0                          T                4.7  .33        Md 2.2  5079266
MTLF  000.88 051.7 m E Pg      2012/09/26 18:51:38.8   0.1                          T                                        5080461
MTLF  000.88 051.7 m E P       2012/09/26 18:51:40.3  -0.2                          T                                        5079269
MTLF  000.88 051.7 m E Sg      2012/09/26 18:51:50.5   0.3                          T                                        5080460
MTLF  000.88 051.7 m E Sn      2012/09/26 18:51:52.6   0.4                          T               10.4  .22 Ml 2.4         5079265
ETSF  001.35 274.7 m E Pg      2012/09/26 18:51:46.8  -0.8                          T                                        5080459
ETSF  001.35 274.7 m E Sg      2012/09/26 18:52:06.6   1.5                          T                1.6  .25 Ml 1.8         5079267
LFF   002.17 349.9 m E Sg      2012/09/26 18:52:30.8   0.3                          T                3.1  .28 Ml 2.1         5080457
CAF   002.20 014.8 m E Sg      2012/09/26 18:52:31.7   0.2                          T                1.8  .21 Ml 2.2         5080458

.
EVENT     283981
    Date      Time       Latitude Longitude    Depth    Ndef Nsta Gap    Mag1  N    Mag2  N    Mag3  N   Author         ID
       rms   OT_Error      Smajor Sminor Az        Err   mdist  Mdist     Err        Err        Err      Quality

2012/09/26 23:20:11.0     42.8820    1.7958      1.6       6    2 244  Ml 0.9  1  Md 1.8  1              bulletin    284081
                                                                                                         _ldg
      3.12   +-  1.19      28.1   12.6  174.39 +-  6.4    0.55   1.08   +-         +-                    m i ke

PYRENEES
Sta     Dist  EvAz     Phase      Date       Time     TRes  Azim  AzRes  Slow  SRes Def   SNR       Amp   Per   Mag1   Mag2       ID
MTLF  000.55 033.8 m E Pg      2012/09/26 23:20:21.5   0.0                          T                                        5080464
MTLF  000.55 033.8 m E Pn      2012/09/26 23:20:24.4   0.0                          T                                        5080465
MTLF  000.55 033.8 m E Sn      2012/09/26 23:20:33.7   0.1                          T                4.8  .18        Md 1.8  5080466
EPF   001.08 278.4 m E Sg      2012/09/26 23:20:45.2   0.0                          T                 .3  .21 Ml  .9         5081152

.
EVENT     283977
    Date      Time       Latitude Longitude    Depth    Ndef Nsta Gap    Mag1  N    Mag2  N    Mag3  N   Author         ID
       rms   OT_Error      Smajor Sminor Az        Err   mdist  Mdist     Err        Err        Err      Quality

2012/09/26 23:30:39.6     47.9425   -3.4936      3.0 f    24    7 261  Ml 1.7  4  Md 1.7  2              bulletin    284077
                                                                                                         _ldg
      0.59   +-  0.16       2.5    1.6   62.85 +-  0.0    0.22   2.64   +-0.2      +-0.1                 m i ke

FRANCE
Sta     Dist  EvAz     Phase      Date       Time     TRes  Azim  AzRes  Slow  SRes Def   SNR       Amp   Per   Mag1   Mag2       ID
QUIF  000.22 096.6 m E Pg      2012/09/26 23:30:44.1   0.1                          T                                        5079275
QUIF  000.22 096.6 m E Sg      2012/09/26 23:30:47.5   0.4                          T               47.5  .18        Md 1.7  5079274
ROSF  000.42 020.4 m E Pg      2012/09/26 23:30:47.5  -0.2                          T                                        5079271
ROSF  000.42 020.4 m E Sg      2012/09/26 23:30:52.9  -0.4                          T               12.7  .18                5079270
SGMF  000.70 063.2 m E Pg      2012/09/26 23:30:52.8   0.0                          T                                        5079273
SGMF  000.70 063.2 m E Sg      2012/09/26 23:31:02.7   0.7                          T                9.7  .42                5079272
GRR   001.82 074.8 m E Pn      2012/09/26 23:31:10.1   0.0                          T                                        5079577
GRR   001.82 074.8 m E Pg      2012/09/26 23:31:13.3  -0.1                          T                                        5079576
GRR   001.82 074.8 m E Sn      2012/09/26 23:31:32.5   0.3                          T                                        5079575
GRR   001.82 074.8 m E Sg      2012/09/26 23:31:36.8  -0.1                          T                1.8  .21 Ml 2.0         5079574
FLN   002.17 066.7 m E Pn      2012/09/26 23:31:14.9   0.1                          T                                        5079585
FLN   002.17 066.7 m E Pg      2012/09/26 23:31:19.9   0.0                          T                                        5079584
FLN   002.17 066.7 m E Sn      2012/09/26 23:31:40.8   0.2                          T                                        5079583
FLN   002.17 066.7 m E Sg      2012/09/26 23:31:48.2   0.4                          T                 .3  .13 Ml 1.4         5079582
LDF   002.34 072.6 m E Pn      2012/09/26 23:31:17.4   0.2                          T                                        5079581
LDF   002.34 072.6 m E Pg      2012/09/26 23:31:23.3   0.2                          T                                        5079580
LDF   002.34 072.6 m E Sn      2012/09/26 23:31:44.6  -0.2                          T                                        5079579
LDF   002.34 072.6 m E Sg      2012/09/26 23:31:53.3   0.0                          T                 .8  .21 Ml 1.9         5079578
MFF   002.64 119.2 m E Pn      2012/09/26 23:31:21.2  -0.1                          T                                        5079573
MFF   002.64 119.2 m E Pg      2012/09/26 23:31:28.5  -0.2                          T                                        5079572
MFF   002.64 119.2 m E Sn      2012/09/26 23:31:52.1   0.1                          T                                        5079571
MFF   002.64 119.2 m E Sg      2012/09/26 23:32:02.7   0.1                          T                 .2  .16 Ml 1.7         5079570

.
