EVENT     280121
    Date      Time       Latitude Longitude    Depth    Ndef Nsta Gap    Mag1  N    Mag2  N    Mag3  N   Author         ID
       rms   OT_Error      Smajor Sminor Az        Err   mdist  Mdist     Err        Err        Err      Quality

2012/07/26 10:01:58.8     45.7890    2.8316       .0 f    18    9 087  Ml 2.3  7  Md 1.9  2              bulletin    280221
                                                                                                         _ldg
      0.36   +-  0.10       2.5    1.6  115.74 +-  0.0    0.33   1.64   +-0.1      +-0.0                 m i km

FRANCE
Sta     Dist  EvAz     Phase      Date       Time     TRes  Azim  AzRes  Slow  SRes Def   SNR       Amp   Per   Mag1   Mag2       ID
TCF   000.66 319.3 m E Pg      2012/07/26 10:02:11.8   0.2                          T                                        5033010
TCF   000.66 319.3 m E Sg      2012/07/26 10:02:24.4   3.9                          T                9.8  .18                5033007
BGF   000.77 000.8 m E Pg      2012/07/26 10:02:13.8   0.2                          T                                        5033013
BGF   000.77 000.8 m E Sg      2012/07/26 10:02:27.4   3.6                          T               31.4  .26                5033004
RJF   001.04 242.8 m E Pg      2012/07/26 10:02:18.1  -0.6                          T                                        5033002
RJF   001.04 242.8 m E Sg      2012/07/26 10:02:32.0  -0.4                          T               14.7  .34 Ml 2.1         5033003
CAF   001.02 212.3 m E Pg      2012/07/26 10:02:18.6   0.4                          T                                        5040441
CAF   001.02 212.3 m E Sg      2012/07/26 10:02:32.8   1.1                          T                8.5  .18 Ml 2.5 Md 1.9  5040442
AVF   001.07 019.6 m E Pg      2012/07/26 10:02:19.1   0.1                          T                                        5033011
AVF   001.07 019.6 m E Sg      2012/07/26 10:02:33.1   0.1                          T                4.3  .20 Ml 2.2         5033006
SMF   001.11 038.9 m E Pg      2012/07/26 10:02:20.2   0.3                          T                                        5033012
SMF   001.11 038.9 m E Sg      2012/07/26 10:02:34.6   0.2                          T                5.7  .18 Ml 2.4         5033005
SSF   001.36 019.9 m E Pg      2012/07/26 10:02:24.4   0.0                          T                                        5033009
SSF   001.36 019.9 m E Sg      2012/07/26 10:02:42.1  -0.1                          T                6.0  .28 Ml 2.4         5033008
VIVF  001.60 125.0 m E Pg      2012/07/26 10:02:28.7  -0.2                          T                                        5033015
VIVF  001.60 125.0 m E Sg      2012/07/26 10:02:49.4  -0.4                          T                2.2  .18 Ml 2.2         5033014
LOR   001.64 025.2 m E Pg      2012/07/26 10:02:29.4  -0.3                          T                                        5040445
LOR   001.64 025.2 m E Sg      2012/07/26 10:02:50.9  -0.1                          T                3.7  .24 Ml 2.3         5040446

.
EVENT     280123
    Date      Time       Latitude Longitude    Depth    Ndef Nsta Gap    Mag1  N    Mag2  N    Mag3  N   Author         ID
       rms   OT_Error      Smajor Sminor Az        Err   mdist  Mdist     Err        Err        Err      Quality

2012/07/26 10:49:35.3     42.9065    -.5192       .0 f     7    4 176             Md 2.2  2              bulletin    280223
                                                                                                         _ldg
      0.88   +-  0.51      22.5    7.7  175.11 +-  0.0    0.03   2.75              +-0.0                 m i km

PYRENEES
Sta     Dist  EvAz     Phase      Date       Time     TRes  Azim  AzRes  Slow  SRes Def   SNR       Amp   Per   Mag1   Mag2       ID
ETSF  000.03 254.9 m E Pg      2012/07/26 10:49:35.2  -0.9                          T                                        5033021
ETSF  000.03 254.9 m E Sg      2012/07/26 10:49:38.8   2.2                          T               15.7  .30        Md 2.2  5033018
SJPF  000.56 292.0 m E Pg      2012/07/26 10:49:46.1   0.0                          T                                        5033020
SJPF  000.56 292.0 m E Sg      2012/07/26 10:49:54.4   0.8                          T                4.8  .28        Md 2.2  5033017
EPF   000.64 078.6 m E Pg      2012/07/26 10:49:48.0   0.2                          T                                        5033019
EPF   000.64 078.6 m E Sg      2012/07/26 10:49:57.4   1.0                          T                3.5  .26                5033016
CAF   002.75 041.9 m E Pg      2012/07/26 10:50:26.1  -0.5                          T                                        5034308

.
EVENT     280126
    Date      Time       Latitude Longitude    Depth    Ndef Nsta Gap    Mag1  N    Mag2  N    Mag3  N   Author         ID
       rms   OT_Error      Smajor Sminor Az        Err   mdist  Mdist     Err        Err        Err      Quality

2012/07/26 11:28:42.8     47.6620    6.2113       .0 f    14    7 114  Ml 2.0  4  Md 2.0  3              bulletin    280226
                                                                                                         _ldg
      0.71   +-  0.17       4.0    2.9  120.42 +-  0.0    0.36   1.64   +-0.1      +-0.1                 m i km

FRANCE
Sta     Dist  EvAz     Phase      Date       Time     TRes  Azim  AzRes  Slow  SRes Def   SNR       Amp   Per   Mag1   Mag2       ID
HAU   000.36 015.0 m E Pg      2012/07/26 11:28:49.2  -0.8                          T                                        5033048
HAU   000.36 015.0 m E Sg      2012/07/26 11:28:55.1   0.1                          T               87.3  .96        Md 2.0  5033047
HINF  000.46 070.1 m E Pg      2012/07/26 11:28:52.5   0.6                          T                                        5040546
HINF  000.46 070.1 m E Sg      2012/07/26 11:28:59.1   0.9                          T               20.2  .84        Md 1.9  5040547
THEF  000.59 345.6 m E Pg      2012/07/26 11:28:54.2   0.0                          T                                        5040545
THEF  000.59 345.6 m E P       2012/07/26 11:28:55.7   0.5                          T                                        5040548
THEF  000.59 345.6 m E Sg      2012/07/26 11:29:02.9   0.8                          T               48.7 1.13        Md 2.1  5040549
CDF   001.04 043.2 m E Pg      2012/07/26 11:29:02.2  -0.4                          T                                        5033044
CDF   001.04 043.2 m E Sg      2012/07/26 11:29:16.0  -0.3                          T                2.5  .23 Ml 2.0         5033043
CABF  001.05 184.6 m E Pg      2012/07/26 11:29:02.4  -0.5                          T                                        5033046
CABF  001.05 184.6 m E Sg      2012/07/26 11:29:18.0   1.1                          T                7.7  .60 Ml 1.9         5033045
PAGF  000.95 340.1 m E Sg      2012/07/26 11:29:13.7   0.2                          T                8.6  .40 Ml 2.1         5040544
LOR   001.64 257.0 m E Pg      2012/07/26 11:29:13.8   0.1  79.6  4.3               T                                        5033042
LOR   001.64 257.0 m E Sg      2012/07/26 11:29:35.2   0.0  77.9  2.6               T                3.7  .37 Ml 2.1         5033041

.
EVENT     280153
    Date      Time       Latitude Longitude    Depth    Ndef Nsta Gap    Mag1  N    Mag2  N    Mag3  N   Author         ID
       rms   OT_Error      Smajor Sminor Az        Err   mdist  Mdist     Err        Err        Err      Quality

2012/07/26 12:01:19.9     46.2845    2.8286       .0 f    15    8 128  Ml 2.0  3  Md 1.8  4              bulletin    280253
                                                                                                         _ldg
      0.99   +-  0.12       3.4    1.8  132.51 +-  0.0    0.17   2.08   +-0.3      +-0.2                 m i km

FRANCE
Sta     Dist  EvAz     Phase      Date       Time     TRes  Azim  AzRes  Slow  SRes Def   SNR       Amp   Per   Mag1   Mag2       ID
BGF   000.27 002.6 m E Pg      2012/07/26 12:01:25.6   0.2                          T                                        5033362
BGF   000.27 002.6 m E Sg      2012/07/26 12:01:29.2  -0.2                          T               15.3  .26        Md 1.6  5033354
TCF   000.43 270.7 m E Pg      2012/07/26 12:01:28.4   0.0                          T                                        5033361
TCF   000.43 270.7 m E Sg      2012/07/26 12:01:34.0  -0.3                          T               12.9  .24        Md 1.7  5033357
AVF   000.62 035.4 m E Pg      2012/07/26 12:01:31.6  -0.2                          T                                        5033360
AVF   000.62 035.4 m E Sg      2012/07/26 12:01:40.0  -0.2                          T                1.4  .18        Md 1.9  5033356
SMF   000.79 062.4 m E Pg      2012/07/26 12:01:35.1   0.2                          T                                        5033359
SMF   000.79 062.4 m E Sg      2012/07/26 12:01:45.1  -0.3                          T                3.4  .22                5033355
SSF   000.91 030.7 m E Pg      2012/07/26 12:01:37.0  -0.1                          T                                        5033358
SSF   000.91 030.7 m E Sg      2012/07/26 12:01:48.9  -0.2                          T                7.1  .40 Ml 2.1         5033353
RJF   001.34 223.6 m E Pn      2012/07/26 12:01:45.0   0.7                          T                                        5033352
RJF   001.34 223.6 m E Sn      2012/07/26 12:02:02.1   0.1                          T                2.3  .22 Ml 1.7         5033351
MFF   002.08 279.9 m E Pn      2012/07/26 12:01:54.3  -0.1                          T                                        5033364
MFF   002.08 279.9 m E Sn      2012/07/26 12:02:18.4  -1.2                          T                                        5033363
LOR   001.21 035.4 m E Sg      2012/07/26 12:01:59.1   0.5 201.5  -14.6             T                3.2  .21 Ml 2.1         5040552

.
EVENT     280157
    Date      Time       Latitude Longitude    Depth    Ndef Nsta Gap    Mag1  N    Mag2  N    Mag3  N   Author         ID
       rms   OT_Error      Smajor Sminor Az        Err   mdist  Mdist     Err        Err        Err      Quality

2012/07/26 17:05:12.2     44.4644    6.9688      2.0      40    9 047  Ml 2.4  6  Md 2.3  7              bulletin    280257
                                                                                                         _ldg
      0.33   +-  0.04       1.0     .7   62.63 +-  0.0    0.10   1.68   +-0.3      +-0.2                 m i ke

FRANCE
Sta     Dist  EvAz     Phase      Date       Time     TRes  Azim  AzRes  Slow  SRes Def   SNR       Amp   Per   Mag1   Mag2       ID
MBDF  000.30 331.8 m E Pg      2012/07/26 17:05:18.1  -0.2                          T                                        5033425
MBDF  000.30 331.8 m E Sg      2012/07/26 17:05:22.5   0.2                          T               66.4  .40        Md 2.6  5033417
SBF   000.69 150.7 m E Pg      2012/07/26 17:05:25.4   0.1                          T                                        5033418
SBF   000.69 150.7 m E Sg      2012/07/26 17:05:34.9   0.6                          T               25.3  .38        Md 2.5  5033411
ORIF  000.90 300.7 m E Pg      2012/07/26 17:05:29.2   0.0                          T                                        5033424
ORIF  000.90 300.7 m E Sg      2012/07/26 17:05:40.1  -0.9                          T                8.5  .30 Ml 2.2 Md 2.1  5033416
FRF   000.93 194.5 m E Pg      2012/07/26 17:05:29.8   0.0                          T                                        5033420
FRF   000.93 194.5 m E Sg      2012/07/26 17:05:42.0   0.2                          T               17.4  .20 Ml 2.8 Md 2.3  5033413
LPG   001.04 351.6 m E Pg      2012/07/26 17:05:32.1  -0.1                          T                                        5033422
LPG   001.04 351.6 m E Sg      2012/07/26 17:05:45.9   0.2                          T                4.5  .30 Ml 2.0 Md 2.0  5033410
LPL   001.07 351.0 m E Pg      2012/07/26 17:05:32.4  -0.1                          T                                        5033423
LPL   001.07 351.0 m E Sg      2012/07/26 17:05:47.3   1.1                          T                4.4  .26 Ml 2.1 Md 2.1  5033415
LMR   001.18 196.5 m E Pg      2012/07/26 17:05:34.3   0.0                          T                                        5033419
LMR   001.18 196.5 m E Sg      2012/07/26 17:05:49.8   0.3                          T               18.2  .24 Ml 2.8         5033412
SMRF  001.11 244.5 m E Pg      2012/07/26 17:05:34.3   1.2                          T                                        5033421
SMRF  001.11 244.5 m E Sg      2012/07/26 17:05:48.9   1.3                          T               11.8  .46 Ml 2.3 Md 2.3  5033414
VIVF  001.68 284.2 m E Pn      2012/07/26 17:05:42.7   1.7                          T                                        5033409
VIVF  001.68 284.2 m E Sn      2012/07/26 17:06:01.0  -0.8                          T                                        5033408

.
EVENT     280158
    Date      Time       Latitude Longitude    Depth    Ndef Nsta Gap    Mag1  N    Mag2  N    Mag3  N   Author         ID
       rms   OT_Error      Smajor Sminor Az        Err   mdist  Mdist     Err        Err        Err      Quality

2012/07/26 20:34:06.0     39.3508   14.4394    400.0 f    44   18 074                                    bulletin    280258
                                                                                                         _ldg
      0.56   +-  0.11       5.4    3.0   44.63 +-  0.0    1.06  15.33                                    m i ke

TYRRHENIAN SEA
Sta     Dist  EvAz     Phase      Date       Time     TRes  Azim  AzRes  Slow  SRes Def   SNR       Amp   Per   Mag1   Mag2       ID
PGF   005.21 309.5 m E P       2012/07/26 20:35:31.7   0.6                          T                                        5040562
SBF   006.92 312.9 m E P       2012/07/26 20:35:49.4  -0.3                          T                                        5040563
FRF   007.21 308.2 m E P       2012/07/26 20:35:52.6  -0.3                          T                                        5040564
MBDF  007.83 315.8 m E P       2012/07/26 20:36:00.7   0.5                          T                                        5033741
SMRF  008.08 307.7 m E P       2012/07/26 20:36:03.7   0.7                          T                                        5033737
LPL   008.39 319.7 m E P       2012/07/26 20:36:07.1   0.4                          T                                        5033739
ORIF  008.45 314.0 m E P       2012/07/26 20:36:07.1  -0.1                          T                                        5033740
LPG   008.37 319.7 m E P       2012/07/26 20:36:07.8   1.3                          T                                        5033738
VIVF  009.10 310.3 m E P       2012/07/26 20:36:14.1  -0.6                          T                                        5033736
CABF  009.49 322.6 m E P       2012/07/26 20:36:17.1  -2.1                          T                                        5033735
CDF   010.42 332.7 m E P       2012/07/26 20:36:30.8   0.7                          T                                        5033734
SMF   010.64 316.7 m E P       2012/07/26 20:36:31.5  -1.0                          T                                        5040558
HAU   010.44 328.6 m E P       2012/07/26 20:36:31.7   1.4                          T                                        5040569
ETSF  011.85 292.2 m E P       2012/07/26 20:36:47.2   0.7                          T                                        5040559
LDF   013.95 316.2 m E P       2012/07/26 20:37:08.7  -0.9                          T                                        5040568
FLN   014.25 316.2 m E P       2012/07/26 20:37:11.6  -1.1                          T                                        5040567
SGMF  015.13 311.6 m E P       2012/07/26 20:37:21.6  -0.4                          T                                        5040570
QUIF  015.33 309.7 m E P       2012/07/26 20:37:23.1  -0.9                          T                                        5040557

.
EVENT     280159
    Date      Time       Latitude Longitude    Depth    Ndef Nsta Gap    Mag1  N    Mag2  N    Mag3  N   Author         ID
       rms   OT_Error      Smajor Sminor Az        Err   mdist  Mdist     Err        Err        Err      Quality

2012/07/26 23:38:47.3     44.5609    6.8109      2.0      30    7 061  Ml 1.6  4  Md 1.6  1              bulletin    280259
                                                                                                         _ldg
      0.31   +-  0.05       1.3     .8   57.89 +-  0.0    0.08   1.25   +-0.3      +-                    m i ke

FRANCE
Sta     Dist  EvAz     Phase      Date       Time     TRes  Azim  AzRes  Slow  SRes Def   SNR       Amp   Per   Mag1   Mag2       ID
MBDF  000.17 350.4 m E Pg      2012/07/26 23:38:50.8  -0.1                          T                                        5033473
MBDF  000.17 350.4 m E Sg      2012/07/26 23:38:53.3   0.0                          T                9.4  .19        Md 1.6  5033469
ORIF  000.75 298.6 m E Pg      2012/07/26 23:39:01.5  -0.1                          T                                        5033472
ORIF  000.75 298.6 m E Sg      2012/07/26 23:39:11.1  -0.4                          T                1.4  .22                5033468
SBF   000.83 147.0 m E Pg      2012/07/26 23:39:03.2   0.2                          T                                        5040578
SBF   000.83 147.0 m E Sg      2012/07/26 23:39:14.0   0.2                          T                3.0  .38                5040579
LPL   000.96 356.7 m E Pg      2012/07/26 23:39:05.5   0.0                          T                                        5033470
LPL   000.96 356.7 m E Sg      2012/07/26 23:39:17.6  -0.4                          T                 .5  .19 Ml 1.2         5033466
FRF   001.01 186.8 m E Pg      2012/07/26 23:39:06.2   0.1                          T                                        5033465
FRF   001.01 186.8 m E Sg      2012/07/26 23:39:19.0  -0.2                          T                  1  .18 Ml 1.6         5033462
SMRF  001.06 237.1 m E Pg      2012/07/26 23:39:07.9   0.7                          T                                        5033471
SMRF  001.06 237.1 m E Sg      2012/07/26 23:39:22.2   1.2                          T                2.4  .32 Ml 1.7         5033467
LMR   001.25 190.2 m E Pn      2012/07/26 23:39:10.6   0.6                          T                                        5033464
LMR   001.25 190.2 m E Sn      2012/07/26 23:39:26.5   0.1                          T                1.4  .18 Ml 1.8         5033463

.
