EVENT     289097
    Date      Time       Latitude Longitude    Depth    Ndef Nsta Gap    Mag1  N    Mag2  N    Mag3  N   Author         ID
       rms   OT_Error      Smajor Sminor Az        Err   mdist  Mdist     Err        Err        Err      Quality

2012/12/28 03:47:14.6     47.0253   -1.6862      5.0 f    33   14 172  Ml 2.3 16  Md 2.0  1              bulletin    289197
                                                                                                         _ldg
      1.36   +-  0.24       6.2    2.6   35.45 +-  0.0    1.14   3.79   +-0.3      +-                    m i ke

FRANCE
Sta     Dist  EvAz     Phase      Date       Time     TRes  Azim  AzRes  Slow  SRes Def   SNR       Amp   Per   Mag1   Mag2       ID
MFF   001.14 111.2 m E Pn      2012/12/28 03:47:35.2  -0.4                          T                                        5147468
MFF   001.14 111.2 m E Pg      2012/12/28 03:47:36.1   0.1                          T                                        5164255
MFF   001.14 111.2 m E Sg      2012/12/28 03:47:51.1   0.4                          T               12.9  .24 Ml 2.8 Md 2.0  5147451
QUIF  001.34 312.2 m E Pn      2012/12/28 03:47:37.5  -0.8                          T                                        5147467
QUIF  001.34 312.2 m E Sg      2012/12/28 03:47:54.7  -2.4                          T                5.1  .22 Ml 2.3         5147452
SGMF  001.36 334.7 m E Pn      2012/12/28 03:47:38.6  -0.1                          T                                        5147466
SGMF  001.36 334.7 m E Sg      2012/12/28 03:47:56.0  -1.7                          T                6.4  .22 Ml 2.4         5147453
GRR   001.47 022.0 m E Pn      2012/12/28 03:47:41.1   1.0                          T                                        5147464
GRR   001.47 022.0 m E Sg      2012/12/28 03:48:00.5  -0.7                          T                6.9  .24 Ml 2.3         5147455
ROSF  001.69 321.3 m E Pn      2012/12/28 03:47:44.1   1.0                          T                                        5147465
ROSF  001.69 321.3 m E Sn      2012/12/28 03:48:03.7  -0.2                          T                1.4  .20 Ml 2.0         5147454
ROSF  001.69 321.3 m E Sg      2012/12/28 03:48:06.7  -1.4                          T                1.4  .19 Ml 2.0         5164247
LDF   001.89 033.3 m E Pn      2012/12/28 03:47:47.1   1.3                          T                                        5147463
LDF   001.89 033.3 m E Sg      2012/12/28 03:48:12.7  -1.5                          T                3.5  .23 Ml 2.3         5147456
FLN   001.92 024.6 m E Pn      2012/12/28 03:47:47.4   1.2 209.7  4.2               T                                        5147462
FLN   001.92 024.6 m E Sg      2012/12/28 03:48:12.3  -2.7                          T                4.6  .26 Ml 2.3         5147457
AVF   003.46 092.1 m E Pn      2012/12/28 03:48:07.0  -0.2                          T                                        5147450
AVF   003.46 092.1 m E Sn      2012/12/28 03:48:46.9   0.7                          T                                        5147448
AVF   003.46 092.1 m E Sg      2012/12/28 03:49:02.7  -0.5                          T                 .4  .19 Ml 1.9         5164252
SSF   003.55 087.5 m E Pn      2012/12/28 03:48:08.5   0.1                          T                                        5147461
SSF   003.55 087.5 m E Sn      2012/12/28 03:48:48.2  -0.1                          T                                        5147460
SSF   003.55 087.5 m E Sg      2012/12/28 03:49:05.4  -0.6                          T                                        5164254
LOR   003.79 084.3 m E Pn      2012/12/28 03:48:11.9   0.1 262.9  -5.5              T                                        5147458
LOR   003.79 084.3 m E Sn      2012/12/28 03:48:54.2   0.1                          T                1.7  .37 Ml 2.3         5147459
TCF   002.78 103.9 m E Sn      2012/12/28 03:48:30.1   0.1                          T                                        5147449
TCF   002.78 103.9 m E Sg      2012/12/28 03:48:41.6  -0.5                          T                2.6  .31 Ml 2.3         5164253
LFF   002.69 140.1 m E Sg      2012/12/28 03:48:37.9  -1.1                          T                4.7  .36 Ml 2.3         5164248
RJF   002.81 126.6 m E Sg      2012/12/28 03:48:42.4  -0.6                          T                 .6  .13 Ml 1.7         5164249
BGF   003.15 096.9 m E Sg      2012/12/28 03:48:52.5  -1.0                          T                5.8  .43 Ml 2.6         5164251

.
EVENT     289119
    Date      Time       Latitude Longitude    Depth    Ndef Nsta Gap    Mag1  N    Mag2  N    Mag3  N   Author         ID
       rms   OT_Error      Smajor Sminor Az        Err   mdist  Mdist     Err        Err        Err      Quality

2012/12/28 05:10:18.5     45.8212    7.1437      7.0 f    18    4 089  Ml 1.1  2  Md 1.2  2              bulletin    289219
                                                                                                         _ldg
      0.18   +-  0.04       1.2     .7  123.01 +-  0.0    0.07   1.27   +-0.0      +-0.1                 m i ke

NORTHERN ITALY
Sta     Dist  EvAz     Phase      Date       Time     TRes  Azim  AzRes  Slow  SRes Def   SNR       Amp   Per   Mag1   Mag2       ID
LPL   000.42 223.6 m E Pg      2012/12/28 05:10:26.8  -0.1                          T                                        5147506
LPL   000.42 223.6 m E Sg      2012/12/28 05:10:32.4  -0.2                          T                1.6  .22        Md 1.3  5147504
LPG   000.42 220.5 m E Pg      2012/12/28 05:10:27.2   0.1                          T                                        5147507
LPG   000.42 220.5 m E Sg      2012/12/28 05:10:32.8   0.0                          T                2.2  .23        Md 1.2  5147505
MBDF  001.13 193.6 m E Pg      2012/12/28 05:10:39.8   0.0                          T                                        5147503
MBDF  001.13 193.6 m E Sg      2012/12/28 05:10:54.2  -0.2                          T                 .4  .20 Ml 1.1         5147502
ORIF  001.27 225.1 m E Pn      2012/12/28 05:10:41.2   0.0                          T                                        5147501
ORIF  001.27 225.1 m E Sn      2012/12/28 05:10:57.5   0.1                          T                 .3  .18 Ml 1.2         5147500

.
EVENT     289537
    Date      Time       Latitude Longitude    Depth    Ndef Nsta Gap    Mag1  N    Mag2  N    Mag3  N   Author         ID
       rms   OT_Error      Smajor Sminor Az        Err   mdist  Mdist     Err        Err        Err      Quality

2012/12/28 11:35:22.2     38.1236   -8.9763     10.0 f    87   10 170  Ml 3.2  6                         bulletin    289637
                                                                                                         _ldg
      0.90   +-  0.19       3.7    2.3   79.38 +-  0.0    0.36  12.81   +-0.1                            m i ke

PORTUGAL
Sta     Dist  EvAz     Phase      Date       Time     TRes  Azim  AzRes  Slow  SRes Def   SNR       Amp   Per   Mag1   Mag2       ID
SJPF  007.72 047.3 m E Pn      2012/12/28 11:37:13.1   0.9                          T                                        5164335
SJPF  007.72 047.3 m E Sn      2012/12/28 11:38:34.4  -0.1                          T                2.5  .41 Ml 3.2         5164331
SJPF  007.72 047.3 m E Sg      2012/12/28 11:39:23.1  -0.5                          T                1.9  .36 Ml 3.1         5164326
ETSF  007.99 050.7 m E Pn      2012/12/28 11:37:15.1  -0.9                          T                                        5164334
ETSF  007.99 050.7 m E Sn      2012/12/28 11:38:41.2   0.1                          T                4.5  .56 Ml 3.3         5164330
ETSF  007.99 050.7 m E Sg      2012/12/28 11:39:32.7   0.5                          T                1.5  .41 Ml 3.0         5164327
EPF   008.62 052.4 m E Pn      2012/12/28 11:37:24.8   0.3                          T                                        5164333
EPF   008.62 052.4 m E Sn      2012/12/28 11:38:56.3   0.3                          T                3.4  .47 Ml 3.4         5164329
EPF   008.62 052.4 m E Sg      2012/12/28 11:39:51.4  -0.3                          T                3.0  .56 Ml 3.2         5164328
MTLF  009.96 054.9 m E Pn      2012/12/28 11:37:42.3  -0.5                          T                                        5164332
RJF   010.62 044.2 m E Pn      2012/12/28 11:37:51.1  -0.7                          T                                        5164338
MFF   010.69 034.8 m E Pn      2012/12/28 11:37:52.5  -0.2                          T                                        5164337
TCF   011.63 041.9 m E Pn      2012/12/28 11:38:05.3  -0.2                          T                                        5164340
GRR   011.84 027.3 m E Pn      2012/12/28 11:38:07.7  -0.5                          T                                        5164336
AVF   012.55 042.5 m E Pn      2012/12/28 11:38:18.3   0.3                          T                                        5164339
SSF   012.81 041.8 m E Pn      2012/12/28 11:38:21.1  -0.4                          T                                        5164341

.
EVENT     289122
    Date      Time       Latitude Longitude    Depth    Ndef Nsta Gap    Mag1  N    Mag2  N    Mag3  N   Author         ID
       rms   OT_Error      Smajor Sminor Az        Err   mdist  Mdist     Err        Err        Err      Quality

2012/12/28 22:35:29.2     45.7560    2.9834      8.0 f    21   10 092  Ml 1.8  9  Md 1.8  3              bulletin    289222
                                                                                                         _ldg
      0.55   +-  0.10       2.2    1.5  119.50 +-  0.0    0.39   2.33   +-0.3      +-0.2                 m i ke

FRANCE
Sta     Dist  EvAz     Phase      Date       Time     TRes  Azim  AzRes  Slow  SRes Def   SNR       Amp   Per   Mag1   Mag2       ID
TCF   000.76 314.9 m E Pg      2012/12/28 22:35:43.7   0.0                          T                                        5147724
TCF   000.76 314.9 m E Sg      2012/12/28 22:35:53.9   0.4                          T                1.4  .20        Md 2.0  5147720
BGF   000.81 353.3 m E Pg      2012/12/28 22:35:44.5   0.0                          T                                        5147722
BGF   000.81 353.3 m E Sg      2012/12/28 22:35:55.0  -0.1                          T                8.6  .38        Md 1.8  5147717
CAF   001.05 218.3 m E Pg      2012/12/28 22:35:48.7  -0.4                          T                                        5147714
CAF   001.05 218.3 m E Sg      2012/12/28 22:36:02.2  -0.5                          T                2.2  .22 Ml 1.8         5147715
AVF   001.07 013.8 m E Pg      2012/12/28 22:35:49.0  -0.2                          T                                        5147723
AVF   001.07 013.8 m E Sn      2012/12/28 22:36:02.7  -0.3                          T                5.0  .22 Ml 2.2         5147719
SMF   001.07 033.5 m E Pg      2012/12/28 22:35:49.3  -0.1                          T                                        5147707
SMF   001.07 033.5 m E Sn      2012/12/28 22:36:02.7  -0.5                          T                2.3  .22 Ml 1.9         5147718
RJF   001.13 246.9 m E Pg      2012/12/28 22:35:50.2  -0.1                          T                                        5147721
RJF   001.13 246.9 m E Sg      2012/12/28 22:36:04.9  -0.1                          T                1.0  .25 Ml 1.2         5147716
SSF   001.35 015.3 m E Pg      2012/12/28 22:35:54.3  -0.3                          T                                        5164385
SSF   001.35 015.3 m E Sg      2012/12/28 22:36:12.4   0.3                          T                1.3  .18 Ml 1.9         5147711
VIVF  001.49 126.4 m E Pn      2012/12/28 22:35:55.2   0.5                          T                                        5147712
VIVF  001.49 126.4 m E Sn      2012/12/28 22:36:14.3   1.1                          T                 .9  .25 Ml 1.6         5147713
LOR   001.63 021.5 m E Pg      2012/12/28 22:35:59.2  -0.4 198.7  -3.4              T                                        5164344
LOR   001.63 021.5 m E Sg      2012/12/28 22:36:20.4  -0.3 195.8  -6.3              T                2.0  .21 Ml 2.1         5147708
MFF   002.33 292.4 m E Sg      2012/12/28 22:36:42.6   0.0                          T                 .5  .22 Ml 1.8         5164383

.
EVENT     289124
    Date      Time       Latitude Longitude    Depth    Ndef Nsta Gap    Mag1  N    Mag2  N    Mag3  N   Author         ID
       rms   OT_Error      Smajor Sminor Az        Err   mdist  Mdist     Err        Err        Err      Quality

2012/12/28 23:38:11.6     45.9843   10.6446     10.0      26    2 086  Ml 1.9  2                         bulletin    289224
                                                                                                         _ldg
      0.35   +-  0.08       1.8    1.7   78.66 +-  0.0    0.12   2.78   +-0.1                            m i ke

NORTHERN ITALY
Sta     Dist  EvAz     Phase      Date       Time     TRes  Azim  AzRes  Slow  SRes Def   SNR       Amp   Per   Mag1   Mag2       ID
LPG   002.77 261.3 m E Pn      2012/12/28 23:38:54.3  -0.2                          T                                        5147743
LPG   002.77 261.3 m E Pg      2012/12/28 23:39:00.8  -2.5                          T                                        5147746
LPG   002.77 261.3 m E Sn      2012/12/28 23:39:26.2   0.1                          T                 .8  .27 Ml 1.8         5147742
LPL   002.78 261.7 m E Pn      2012/12/28 23:38:54.4  -0.2                          T                                        5147744
LPL   002.78 261.7 m E Pg      2012/12/28 23:39:01.5  -1.9                          T                                        5147745
LPL   002.78 261.7 m E Sn      2012/12/28 23:39:26.8   0.6                          T                1.3  .32 Ml 2.0         5147747

.
EVENT     289125
    Date      Time       Latitude Longitude    Depth    Ndef Nsta Gap    Mag1  N    Mag2  N    Mag3  N   Author         ID
       rms   OT_Error      Smajor Sminor Az        Err   mdist  Mdist     Err        Err        Err      Quality

2012/12/29 01:39:07.9     44.6206    7.2380     12.0 f    34    7 089  Ml 1.5  5  Md 1.6  1              bulletin    289225
                                                                                                         _ldg
      0.32   +-  0.05       1.2     .8   68.60 +-  0.0    0.12   1.39   +-0.1      +-                    m i ke

NORTHERN ITALY
Sta     Dist  EvAz     Phase      Date       Time     TRes  Azim  AzRes  Slow  SRes Def   SNR       Amp   Per   Mag1   Mag2       ID
MBDF  000.35 287.9 m E Pg      2012/12/29 01:39:15.3   0.1                          T                                        5147761
MBDF  000.35 287.9 m E Sg      2012/12/29 01:39:20.1   0.1                          T                5.5  .18        Md 1.6  5147757
SBF   000.77 169.3 m E Pg      2012/12/29 01:39:22.7   0.0                          T                                        5147753
SBF   000.77 169.3 m E Sg      2012/12/29 01:39:33.2   0.4                          T                                        5147754
LPG   000.94 338.7 m E Pg      2012/12/29 01:39:26.1   0.0                          T                                        5147760
LPG   000.94 338.7 m E Sg      2012/12/29 01:39:38.3  -0.1                          T                1.5  .28 Ml 1.5         5147755
ORIF  001.01 287.6 m E Pg      2012/12/29 01:39:26.3  -0.8                          T                                        5147758
ORIF  001.01 287.6 m E Sg      2012/12/29 01:39:39.6  -0.7                          T                 .9  .23 Ml 1.4         5147748
LPL   000.96 338.4 m E Pg      2012/12/29 01:39:26.6   0.2                          T                                        5147759
LPL   000.96 338.4 m E Sg      2012/12/29 01:39:38.0  -0.9                          T                1.0  .24 Ml 1.4         5147756
SMRF  001.36 242.2 m E Pg      2012/12/29 01:39:32.8  -0.5                          T                                        5164346
SMRF  001.36 242.2 m E Sg      2012/12/29 01:39:51.0   0.1                          T                1.0  .36 Ml 1.4         5147750
LMR   001.39 202.5 m E Pg      2012/12/29 01:39:33.8  -0.1                          T                                        5164345
LMR   001.39 202.5 m E Sg      2012/12/29 01:39:51.9   0.0                          T                1.1  .28 Ml 1.6         5147751

.
