EVENT     273964
    Date      Time       Latitude Longitude    Depth    Ndef Nsta Gap    Mag1  N    Mag2  N    Mag3  N   Author         ID
       rms   OT_Error      Smajor Sminor Az        Err   mdist  Mdist     Err        Err        Err      Quality

2012/04/19 09:59:56.6     48.2568   -1.5206       .0 f    12    6 180  Ml 2.2  3  Md 1.9  1              bulletin    273984
                                                                                                         _ldg
      0.34   +-  0.12       8.6    1.4  163.97 +-  0.0    0.46   1.17   +-0.8      +-                    m i km

FRANCE
Sta     Dist  EvAz     Phase      Date       Time     TRes  Azim  AzRes  Slow  SRes Def   SNR       Amp   Per   Mag1   Mag2       ID
GRR   000.46 073.2 m E Pg      2012/04/19 10:00:05.5  -0.1                          T                                        4916625
GRR   000.46 073.2 m E Sg      2012/04/19 10:00:11.3  -0.6                          T              132.5  .98        Md 1.9  4916624
SGMF  000.69 270.2 m E Pg      2012/04/19 10:00:09.9   0.0                          T                                        4916620
SGMF  000.69 270.2 m E Sg      2012/04/19 10:00:18.2  -0.9                          T                2.0  .19                4916627
FLN   000.86 053.4 m E Pg      2012/04/19 10:00:13.2   0.3                          T                                        4916622
FLN   000.86 053.4 m E Sg      2012/04/19 10:00:24.0  -0.2                          T                2.0  .24 Ml 1.5         4916617
LDF   000.99 069.6 m E Pg      2012/04/19 10:00:15.4   0.0                          T                                        4916623
LDF   000.99 069.6 m E Sg      2012/04/19 10:00:28.3  -0.1                          T                9.0  .48 Ml 2.1         4916618
QUIF  001.15 253.5 m E Pg      2012/04/19 10:00:18.3  -0.1                          T                                        4916621
QUIF  001.15 253.5 m E P       2012/04/19 10:00:19.8  -0.1                          T                                        4919767
QUIF  001.15 253.5 m E Sg      2012/04/19 10:00:34.4   0.9                          T              318.8 1.90 Ml 3.1         4919768
ROSF  001.17 274.5 m E Pg      2012/04/19 10:00:18.7  -0.1                          T                                        4916619

.
EVENT     273965
    Date      Time       Latitude Longitude    Depth    Ndef Nsta Gap    Mag1  N    Mag2  N    Mag3  N   Author         ID
       rms   OT_Error      Smajor Sminor Az        Err   mdist  Mdist     Err        Err        Err      Quality

2012/04/19 10:00:51.3     48.4799    7.2538       .0 f    12    6 131  Ml 1.7  2  Md 2.1  1              bulletin    273985
                                                                                                         _ldg
      0.30   +-  0.14       4.0    2.2  131.30 +-  0.0    0.07   1.02   +-0.7      +-                    m i km

FRANCE
Sta     Dist  EvAz     Phase      Date       Time     TRes  Azim  AzRes  Slow  SRes Def   SNR       Amp   Per   Mag1   Mag2       ID
CDF   000.07 167.6 m E Pg      2012/04/19 10:00:52.2  -0.9                          T                                        4916781
CDF   000.07 167.6 m E Sg      2012/04/19 10:00:53.7  -0.6                          T              146.1  .50        Md 2.1  4916780
LANF  000.62 035.9 m E P       2012/04/19 10:01:04.6   0.1                          T                                        4919803
LANF  000.62 035.9 m E Sg      2012/04/19 10:01:11.3  -0.3                          T                4.7  .24                4916783
HINF  000.72 202.2 m E Pg      2012/04/19 10:01:05.5   0.4                          T                                        4916779
HINF  000.72 202.2 m E Sg      2012/04/19 10:01:14.6   0.0                          T                4.6  .18                4916777
HAU   000.77 232.2 m E Pg      2012/04/19 10:01:05.7  -0.4                          T                                        4916778
HAU   000.77 232.2 m E Sg      2012/04/19 10:01:16.4   0.1                          T                8.9  .40                4916776
THEF  000.88 253.8 m E Pg      2012/04/19 10:01:08.6   0.6                          T                                        4916782
THEF  000.88 253.8 m E Sg      2012/04/19 10:01:19.7   0.1                          T                3.3  .14 Ml 2.1         4919806
PAGF  001.02 274.8 m E Pg      2012/04/19 10:01:09.8  -0.8                          T                                        4919804
PAGF  001.02 274.8 m E Sg      2012/04/19 10:01:24.1   0.0                          T                 .5  .23 Ml 1.2         4919805

.
EVENT     273966
    Date      Time       Latitude Longitude    Depth    Ndef Nsta Gap    Mag1  N    Mag2  N    Mag3  N   Author         ID
       rms   OT_Error      Smajor Sminor Az        Err   mdist  Mdist     Err        Err        Err      Quality

2012/04/19 10:03:03.2     44.0746    1.7490       .0 f    11    6 084  Ml 2.4  5  Md 2.0  2              bulletin    273986
                                                                                                         _ldg
      0.29   +-  0.10       2.2    1.6  107.60 +-  0.0    0.81   2.05   +-0.2      +-0.0                 m i km

FRANCE
Sta     Dist  EvAz     Phase      Date       Time     TRes  Azim  AzRes  Slow  SRes Def   SNR       Amp   Per   Mag1   Mag2       ID
MTLF  000.81 155.0 m E Pg      2012/04/19 10:03:18.8   0.1                          T                                        4919814
MTLF  000.81 155.0 m E Sg      2012/04/19 10:03:29.2  -0.2                          T               15.1  .44        Md 2.0  4919807
CAF   000.88 014.7 m E Pg      2012/04/19 10:03:20.0  -0.1                          T                                        4919813
CAF   000.88 014.7 m E Sg      2012/04/19 10:03:32.3   0.6                          T                3.9  .20 Ml 2.0 Md 2.0  4919812
LFF   001.13 320.5 m E Pg      2012/04/19 10:03:25.6   1.0                          T                                        4919809
LFF   001.13 320.5 m E Sg      2012/04/19 10:03:39.1  -0.2                          T               19.8  .44 Ml 2.4         4919808
EPF   001.46 224.9 m E Pg      2012/04/19 10:03:30.8  -0.1                          T                                        4919810
EPF   001.46 224.9 m E Sg      2012/04/19 10:03:50.5   0.6                          T                7.9  .37 Ml 2.4         4919811
ETSF  002.05 235.8 m E Pg      2012/04/19 10:03:40.8  -0.9                          T                                        4919824
ETSF  002.05 235.8 m E Sg      2012/04/19 10:04:07.9  -0.3                          T               21.7  .80 Ml 2.7         4919823
LASF  001.52 089.2 m E Sg      2012/04/19 10:03:51.4  -0.3                          T               13.4  .58 Ml 2.4         4922393

.
EVENT     273967
    Date      Time       Latitude Longitude    Depth    Ndef Nsta Gap    Mag1  N    Mag2  N    Mag3  N   Author         ID
       rms   OT_Error      Smajor Sminor Az        Err   mdist  Mdist     Err        Err        Err      Quality

2012/04/19 10:05:25.8     48.7993    -.0115       .0 f     8    4 278  Ml 2.2  1  Md 1.7  2              bulletin    273987
                                                                                                         _ldg
      0.52   +-  0.47       8.3    3.7   70.04 +-  0.0    0.22   2.20   +-         +-0.0                 m i km

FRANCE
Sta     Dist  EvAz     Phase      Date       Time     TRes  Azim  AzRes  Slow  SRes Def   SNR       Amp   Per   Mag1   Mag2       ID
LDF   000.22 199.7 m E Pg      2012/04/19 10:05:30.0  -0.3                          T                                        4917004
LDF   000.22 199.7 m E Sg      2012/04/19 10:05:33.2  -0.4                          T              193.3 1.34        Md 1.7  4917003
FLN   000.31 263.4 m E Pg      2012/04/19 10:05:31.9  -0.2  81.1  -2.0              T                                        4917000
FLN   000.31 263.4 m E Sg      2012/04/19 10:05:36.7   0.2  80.5  -2.5              T              107.5  .92        Md 1.8  4916999
GRR   000.70 234.1 m E Pg      2012/04/19 10:05:41.1   2.0                          T                                        4917002
GRR   000.70 234.1 m E Pn      2012/04/19 10:05:42.0   0.6                          T                                        4919825
GRR   000.70 234.1 m E Sg      2012/04/19 10:05:48.3  -0.1                          T                3.2  .20                4923640
MFF   002.20 182.4 m E Sg      2012/04/19 10:06:35.4   0.0                          T                1.9  .34 Ml 2.2         4923639

.
EVENT     273968
    Date      Time       Latitude Longitude    Depth    Ndef Nsta Gap    Mag1  N    Mag2  N    Mag3  N   Author         ID
       rms   OT_Error      Smajor Sminor Az        Err   mdist  Mdist     Err        Err        Err      Quality

2012/04/19 10:14:42.9     45.7471    1.2591       .0 f     9    4 193  Ml 2.3  3  Md 1.8  1              bulletin    273988
                                                                                                         _ldg
      0.19   +-  0.09       3.8    1.3   52.61 +-  0.0    0.48   1.30   +-0.2      +-                    m i km

FRANCE
Sta     Dist  EvAz     Phase      Date       Time     TRes  Azim  AzRes  Slow  SRes Def   SNR       Amp   Per   Mag1   Mag2       ID
RJF   000.48 157.7 m E Pg      2012/04/19 10:14:52.4   0.1                          T                                        4920094
RJF   000.48 157.7 m E Sg      2012/04/19 10:14:58.9   0.2                          T              119.4  .82        Md 1.8  4920093
CAF   001.00 145.0 m E Pg      2012/04/19 10:15:01.7  -0.2                          T                                        4920090
CAF   001.00 145.0 m E P       2012/04/19 10:15:04.1   0.0                          T                                        4920091
CAF   001.00 145.0 m E Sg      2012/04/19 10:15:14.8  -0.3                          T                6.9  .23 Ml 2.3         4920089
CAF   001.00 145.0 m E Sn      2012/04/19 10:15:17.2   0.3                          T                                        4920092
MFF   001.30 311.7 m E Pg      2012/04/19 10:15:07.5   0.1                          T                                        4923641
MFF   001.30 311.7 m E Sn      2012/04/19 10:15:23.5  -0.4                          T                2.9  .30 Ml 2.1         4923642
LFF   000.89 204.6 m E Sg      2012/04/19 10:15:11.4  -0.1                          T               65.0  .92 Ml 2.4         4920088

.
EVENT     273969
    Date      Time       Latitude Longitude    Depth    Ndef Nsta Gap    Mag1  N    Mag2  N    Mag3  N   Author         ID
       rms   OT_Error      Smajor Sminor Az        Err   mdist  Mdist     Err        Err        Err      Quality

2012/04/19 10:17:40.0     41.4360    1.5711       .0 f     8    3 299  Ml 2.3  3  Md 2.1  1              bulletin    273989
                                                                                                         _ldg
      0.49   +-  0.79      13.6    6.6  165.42 +-  0.0    1.84   2.15   +-0.2      +-                    m i km

SPAIN
Sta     Dist  EvAz     Phase      Date       Time     TRes  Azim  AzRes  Slow  SRes Def   SNR       Amp   Per   Mag1   Mag2       ID
EPF   001.84 330.6 m E Pg      2012/04/19 10:18:15.0   0.6                          T                                        4920100
EPF   001.84 330.6 m E Sg      2012/04/19 10:18:38.8   0.5                          T                5.2  .31 Ml 2.4 Md 2.1  4920099
MTLF  001.96 013.9 m E Pg      2012/04/19 10:18:16.7   0.0                          T                                        4920095
MTLF  001.96 013.9 m E Sg      2012/04/19 10:18:41.5  -0.7                          T                4.0  .44 Ml 2.2         4920096
ETSF  002.15 313.4 m E Pg      2012/04/19 10:18:20.2  -0.2                          T                                        4920097
ETSF  002.15 313.4 m E Sg      2012/04/19 10:18:47.3  -1.0                          T                7.4  .46 Ml 2.4         4920098

.
EVENT     273970
    Date      Time       Latitude Longitude    Depth    Ndef Nsta Gap    Mag1  N    Mag2  N    Mag3  N   Author         ID
       rms   OT_Error      Smajor Sminor Az        Err   mdist  Mdist     Err        Err        Err      Quality

2012/04/19 10:18:25.8     45.8874    1.1340       .0 f     9    4 196  Ml 2.0  4  Md 1.7  1              bulletin    273990
                                                                                                         _ldg
      2.82   +-  0.55      23.6    6.1   52.28 +-  0.0    0.64   1.16   +-0.2      +-                    m i km

FRANCE
Sta     Dist  EvAz     Phase      Date       Time     TRes  Azim  AzRes  Slow  SRes Def   SNR       Amp   Per   Mag1   Mag2       ID
RJF   000.64 155.1 m E Pg      2012/04/19 10:18:37.6  -0.7                          T                                        4920111
RJF   000.64 155.1 m E Sg      2012/04/19 10:18:44.9  -1.9                          T               59.9  .84        Md 1.7  4920110
MFF   001.14 309.3 m E Pg      2012/04/19 10:18:47.4   0.0                          T                                        4920109
MFF   001.14 309.3 m E Sg      2012/04/19 10:19:02.5   0.1                          T                4.1  .26 Ml 2.2         4920108
CAF   001.16 145.4 m E Pg      2012/04/19 10:18:48.4   0.5                          T                                        4920105
CAF   001.16 145.4 m E Sg      2012/04/19 10:19:03.6   0.5                          T                3.8  .28 Ml 2.0         4920106
LFF   000.99 196.4 m E Sg      2012/04/19 10:19:00.1   2.5                          T                4.7  .39 Ml 1.7         4920107

.
EVENT     273987
    Date      Time       Latitude Longitude    Depth    Ndef Nsta Gap    Mag1  N    Mag2  N    Mag3  N   Author         ID
       rms   OT_Error      Smajor Sminor Az        Err   mdist  Mdist     Err        Err        Err      Quality

2012/04/19 10:40:59.5     47.1050    5.5109       .0 f    15    8 107  Ml 2.0  8  Md 1.8  2              bulletin    274007
                                                                                                         _ldg
      1.14   +-  0.17       3.7    2.6  177.24 +-  0.0    0.63   1.51   +-0.2      +-0.0                 m i km

FRANCE
Sta     Dist  EvAz     Phase      Date       Time     TRes  Azim  AzRes  Slow  SRes Def   SNR       Amp   Per   Mag1   Mag2       ID
CABF  000.63 141.1 m E Pg      2012/04/19 10:41:11.9   0.0                          T                                        4923643
CABF  000.63 141.1 m E Sg      2012/04/19 10:41:20.6   0.2                          T                3.1  .36        Md 1.8  4923644
LOR   001.14 278.9 m E Pg      2012/04/19 10:41:21.1   0.0 108.8  11.1              T                                        4920151
LOR   001.14 278.9 m E Sg      2012/04/19 10:41:36.2   0.2                          T                2.8  .22 Ml 2.0 Md 1.8  4920150
SMF   001.23 248.7 m E Pg      2012/04/19 10:41:23.1   0.2                          T                                        4920146
SMF   001.23 248.7 m E Sg      2012/04/19 10:41:39.9   0.9                          T                2.4  .22 Ml 2.0         4920147
SSF   001.37 268.9 m E Pg      2012/04/19 10:41:25.5   0.1                          T                                        4920149
SSF   001.37 268.9 m E Sg      2012/04/19 10:41:42.4  -0.9                          T                1.5  .22 Ml 1.9         4920148
AVF   001.51 258.8 m E Pg      2012/04/19 10:41:27.9   0.0                          T                                        4920145
AVF   001.51 258.8 m E Sg      2012/04/19 10:41:47.4  -0.3                          T                 .7  .22 Ml 1.6         4920144
HAU   001.06 031.9 m E Sg      2012/04/19 10:41:33.8   0.0                          T                7.6  .36 Ml 1.9         4923646
HINF  001.16 051.5 m E Sg      2012/04/19 10:41:36.0  -0.6                          T                7.7  .29 Ml 2.3         4923647
THEF  001.17 016.0 m E Sg      2012/04/19 10:41:37.4   0.4                          T                5.8  .37 Ml 2.1         4923645

.
EVENT     273992
    Date      Time       Latitude Longitude    Depth    Ndef Nsta Gap    Mag1  N    Mag2  N    Mag3  N   Author         ID
       rms   OT_Error      Smajor Sminor Az        Err   mdist  Mdist     Err        Err        Err      Quality

2012/04/19 10:54:52.3     45.8592    4.3696       .0 f     8    4 192  Ml 2.0  4                         bulletin    274012
                                                                                                         _ldg
      0.26   +-  0.17       8.1    1.9   64.34 +-  0.0    0.87   1.27   +-0.3                            m i km

FRANCE
Sta     Dist  EvAz     Phase      Date       Time     TRes  Azim  AzRes  Slow  SRes Def   SNR       Amp   Per   Mag1   Mag2       ID
SMF   000.87 335.2 m E Pg      2012/04/19 10:55:09.1   0.2                          T                                        4923654
SMF   000.87 335.2 m E Sg      2012/04/19 10:55:20.0  -0.4                          T                3.6  .21 Ml 2.0         4923655
VIVF  001.03 167.9 m E Pg      2012/04/19 10:55:11.8  -0.1                          T                                        4923648
VIVF  001.03 167.9 m E Sg      2012/04/19 10:55:25.4   0.1                          T                4.8  .18 Ml 2.3         4923649
AVF   001.17 323.3 m E Pg      2012/04/19 10:55:13.6  -0.8                          T                1.9  .31 Ml 1.7         4923650
AVF   001.17 323.3 m E Sg      2012/04/19 10:55:29.4  -0.3                          T                                        4923651
BGF   001.27 304.0 m E Pg      2012/04/19 10:55:16.1  -0.1                          T                                        4923652
BGF   001.27 304.0 m E Sg      2012/04/19 10:55:33.3   0.5                          T                3.9  .23 Ml 2.2         4923653

.
