EVENT     292129
    Date      Time       Latitude Longitude    Depth    Ndef Nsta Gap    Mag1  N    Mag2  N    Mag3  N   Author         ID
       rms   OT_Error      Smajor Sminor Az        Err   mdist  Mdist     Err        Err        Err      Quality

2013/02/15 12:35:33.4     48.3489    -.5774      5.0 f    77   29 086  Ml 3.2 28  Md 3.2  5              bulletin    292229
                                                                                                         _ldg
      1.44   +-  0.07       1.5    1.1    9.72 +-  0.0    0.19   5.38   +-0.3      +-0.1                 m i ke

FRANCE
Sta     Dist  EvAz     Phase      Date       Time     TRes  Azim  AzRes  Slow  SRes Def   SNR       Amp   Per   Mag1   Mag2       ID
GRR   000.19 282.0 m E Pg      2013/02/15 12:35:38.1   0.8                          T                                        5197994
GRR   000.19 282.0 m E Sg      2013/02/15 12:35:40.8   0.7                          T              498.4  .20        Md 3.3  5197990
LDF   000.39 050.9 m E Pg      2013/02/15 12:35:40.9   0.0                          T                                        5197993
LDF   000.39 050.9 m E Sg      2013/02/15 12:35:45.7  -0.5                          T              283.6  .24        Md 3.2  5197991
FLN   000.42 008.7 m E Pg      2013/02/15 12:35:41.2  -0.2 189.5  0.7               T                                        5197995
FLN   000.42 008.7 m E Sg      2013/02/15 12:35:46.2  -0.9 164.1  -24.7             T              192.2  .18        Md 3.2  5197992
SGMF  001.33 266.6 m E Pn      2013/02/15 12:35:57.1   0.2                          T                                        5197989
SGMF  001.33 266.6 m E Pg      2013/02/15 12:35:58.3   0.2                          T                                        5201463
SGMF  001.33 266.6 m E Sg      2013/02/15 12:36:15.3   0.0                          T              103.3  .28 Ml 3.5 Md 3.0  5197986
QUIF  001.79 257.0 m E Pn      2013/02/15 12:36:03.4   0.2                          T                                        5197983
QUIF  001.79 257.0 m E Pg      2013/02/15 12:36:06.6  -0.1                          T                                        5201464
QUIF  001.79 257.0 m E Sg      2013/02/15 12:36:29.0  -0.6                          T               61.9  .30 Ml 3.5         5197985
MFF   001.77 170.3 m E Pn      2013/02/15 12:36:03.4   0.4                          T                                        5197982
MFF   001.77 170.3 m E Pg      2013/02/15 12:36:06.1  -0.2                          T                                        5201451
MFF   001.77 170.3 m E Sg      2013/02/15 12:36:29.7   0.5                          T               47.7  .24 Ml 3.6 Md 3.2  5197984
ROSF  001.80 270.6 m E Pn      2013/02/15 12:36:03.6   0.2                          T                                        5197988
ROSF  001.80 270.6 m E Pg      2013/02/15 12:36:06.2  -0.7                          T                                        5201462
ROSF  001.80 270.6 m E Sg      2013/02/15 12:36:29.8  -0.2                          T               55.1  .24 Ml 3.5         5197987
TCF   002.80 136.4 m E Pn      2013/02/15 12:36:16.9  -0.2                          T                                        5201459
TCF   002.80 136.4 m E Pg      2013/02/15 12:36:25.7   0.3                          T                                        5201458
TCF   002.80 136.4 m E Sg      2013/02/15 12:37:01.8   0.4                          T                8.8  .20 Ml 3.1         5197963
BGF   002.93 126.4 m E Pn      2013/02/15 12:36:18.2  -0.6                          T                                        5197979
BGF   002.93 126.4 m E Pg      2013/02/15 12:36:27.6  -0.2                          T                                        5201454
BGF   002.93 126.4 m E Sg      2013/02/15 12:37:05.7   0.2                          T               45.9  .50 Ml 3.4         5197970
HYF   002.42 115.3 m E Pg      2013/02/15 12:36:19.0   0.6                          T                                        5201455
HYF   002.42 115.3 m E Sn      2013/02/15 12:36:39.4  -0.7                          T                                        5197966
HYF   002.42 115.3 m E Sg      2013/02/15 12:36:49.2  -0.3                          T                                        5201573
SSF   003.04 113.5 m E Pn      2013/02/15 12:36:20.5   0.2                          T                                        5197976
SSF   003.04 113.5 m E Pg      2013/02/15 12:36:30.2   0.3                          T                                        5201460
SSF   003.04 113.5 m E Sg      2013/02/15 12:37:09.5   0.6                          T               12.3  .36 Ml 3.1         5197957
AVF   003.08 118.9 m E Pn      2013/02/15 12:36:21.0   0.2                          T                                        5197981
AVF   003.08 118.9 m E Pg      2013/02/15 12:36:31.0   0.5                          T                                        5201457
AVF   003.08 118.9 m E Sg      2013/02/15 12:37:10.4   0.2                          T                5.5  .24 Ml 2.8         5197964
LOR   003.18 108.2 m E Pn      2013/02/15 12:36:22.1  -0.1 287.1  -4.4              T                                        5197975
LOR   003.18 108.2 m E Pg      2013/02/15 12:36:32.5   0.1 292.1  0.6               T                                        5201461
LOR   003.18 108.2 m E Sg      2013/02/15 12:37:13.2   0.0 303.8  12.3              T               12.6  .36 Ml 3.0         5197958
RJF   003.37 154.0 m E Pn      2013/02/15 12:36:24.9   0.2                          T                                        5197977
RJF   003.37 154.0 m E Pg      2013/02/15 12:36:35.4  -0.4                          T                                        5201450
RJF   003.37 154.0 m E Sn      2013/02/15 12:37:02.5  -0.2                          T                                        5197971
RJF   003.37 154.0 m E Sg      2013/02/15 12:37:19.4   0.4                          T               24.5  .30 Ml 3.1         5197969
SMF   003.45 118.0 m E Pn      2013/02/15 12:36:25.7  -0.1                          T                                        5197980
SMF   003.45 118.0 m E Pg      2013/02/15 12:36:37.2  -0.1                          T                                        5201456
SMF   003.45 118.0 m E Sg      2013/02/15 12:37:22.1   0.6                          T                4.5  .18 Ml 2.9         5197965
BAIF  003.57 059.6 m E Pn      2013/02/15 12:36:27.7   0.2                          T                                        5197974
BAIF  003.57 059.6 m E Sg      2013/02/15 12:37:25.3  -0.1                          T                7.3  .38 Ml 2.8         5197959
CAF   003.88 151.0 m E Pn      2013/02/15 12:36:31.4  -0.3                          T                                        5201449
CAF   003.88 151.0 m E Pg      2013/02/15 12:36:45.1  -0.1                          T                                        5201581
CAF   003.88 151.0 m E Sn      2013/02/15 12:37:13.5  -1.4                          T                                        5201448
CAF   003.88 151.0 m E Sg      2013/02/15 12:37:35.0   0.0                          T               21.7  .46 Ml 3.3         5197967
GIVF  003.95 061.6 m E Pn      2013/02/15 12:36:32.9   0.2                          T                                        5197973
GIVF  003.95 061.6 m E Sg      2013/02/15 12:37:36.6  -0.6                          T                6.6  .26 Ml 3.0         5197960
LFF   003.53 164.6 m E Pg      2013/02/15 12:36:38.8   0.1                          T                                        5201582
LFF   003.53 164.6 m E Sg      2013/02/15 12:37:24.1   0.0                          T               29.2  .42 Ml 3.2         5197968
HAU   004.65 091.7 m E Pn      2013/02/15 12:36:41.8  -0.4                          T                                        5201583
HAU   004.65 091.7 m E Sg      2013/02/15 12:37:58.6  -0.3                          T               12.3  .28 Ml 3.2         5201571
MEZF  003.75 085.6 m E Pg      2013/02/15 12:36:42.8   0.0                          T                                        5201585
MEZF  003.75 085.6 m E Sg      2013/02/15 12:37:31.3   0.2 244.4  -25.3             T               17.7  .38 Ml 3.3         5197961
SFTF  003.75 090.1 m E Pg      2013/02/15 12:36:43.0   0.1 279.1  4.8               T                                        5201584
SFTF  003.75 090.1 m E Sg      2013/02/15 12:37:31.3   0.2 246.5  -27.8             T               17.1  .25 Ml 3.4         5197962
CDF   005.23 086.4 m E Pn      2013/02/15 12:36:50.7   0.4                          T                                        5197972
CDF   005.23 086.4 m E Sg      2013/02/15 12:38:17.4   0.0                          T                5.3  .40 Ml 3.2         5201569
EPF   005.36 172.8 m E Pn      2013/02/15 12:36:51.8  -0.1                          T                                        5201579
EPF   005.36 172.8 m E Sg      2013/02/15 12:38:21.6   0.4                          T                5.1  .30 Ml 3.2         5201576
MTLF  005.38 157.7 m E Pn      2013/02/15 12:36:52.1   0.0                          T                                        5201580
MTLF  005.38 157.7 m E Sg      2013/02/15 12:38:21.5  -0.2                          T                4.1  .45 Ml 2.9         5201577
PAGF  004.20 084.8 m E Sg      2013/02/15 12:37:45.1   0.1 257.6  -11.9             T                                        5201570
HINF  005.01 093.3 m E Sg      2013/02/15 12:38:09.7  -0.6                          T                6.9  .28 Ml 3.3         5201572
VIVF  005.03 132.1 m E Sg      2013/02/15 12:38:11.0   0.0                          T                 .9  .23 Ml 2.5         5201578
SJPF  005.26 185.2 m E Sg      2013/02/15 12:38:18.3   0.3                          T                 .9  .17 Ml 2.6         5201575

.
EVENT     292135
    Date      Time       Latitude Longitude    Depth    Ndef Nsta Gap    Mag1  N    Mag2  N    Mag3  N   Author         ID
       rms   OT_Error      Smajor Sminor Az        Err   mdist  Mdist     Err        Err        Err      Quality

2013/02/15 12:45:54.0     45.9089    7.1588      6.0 f    51   10 058  Ml 2.1 10  Md 2.1  2              bulletin    292235
                                                                                                         _ldg
      0.37   +-  0.04        .8     .6  115.71 +-  0.0    0.07   2.77   +-0.2      +-0.0                 m i ke

NORTHERN ITALY
Sta     Dist  EvAz     Phase      Date       Time     TRes  Azim  AzRes  Slow  SRes Def   SNR       Amp   Per   Mag1   Mag2       ID
LPL   000.49 217.4 m E Pg      2013/02/15 12:46:03.7  -0.1                          T                                        5198118
LPL   000.49 217.4 m E Sg      2013/02/15 12:46:10.5   0.1                          T                6.8  .28        Md 2.1  5198117
LPG   000.50 214.9 m E Pg      2013/02/15 12:46:03.8  -0.2                          T                                        5198120
LPG   000.50 214.9 m E Sg      2013/02/15 12:46:10.6  -0.1                          T               12.3  .22        Md 2.1  5198119
MBDF  001.21 193.2 m E Pg      2013/02/15 12:46:16.9   0.0                          T                                        5198115
MBDF  001.21 193.2 m E Sg      2013/02/15 12:46:32.7   0.0                          T                2.7  .26 Ml 1.9         5198114
ORIF  001.34 222.7 m E Pg      2013/02/15 12:46:19.5   0.3                          T                                        5198116
ORIF  001.34 222.7 m E Sg      2013/02/15 12:46:36.7   0.2                          T                2.9  .26 Ml 2.0         5198113
VIVF  002.04 239.9 m E Pn      2013/02/15 12:46:27.9   0.6                          T                                        5198111
VIVF  002.04 239.9 m E Pg      2013/02/15 12:46:32.0  -0.1                          T                                        5198112
VIVF  002.04 239.9 m E Sn      2013/02/15 12:46:52.4   0.8                          T                                        5198110
VIVF  002.04 239.9 m E Sg      2013/02/15 12:46:58.6   0.2                          T                1.0  .19 Ml 1.9         5198109
SBF   002.06 174.4 m E Pn      2013/02/15 12:46:28.3   0.8                          T                                        5198108
SBF   002.06 174.4 m E Sn      2013/02/15 12:46:52.8   0.9                          T                1.8  .21 Ml 2.1         5198107
HAU   002.17 345.5 m E Pn      2013/02/15 12:46:28.8  -0.2                          T                                        5198102
HAU   002.17 345.5 m E Pg      2013/02/15 12:46:34.0  -0.4                          T                                        5198101
HAU   002.17 345.5 m E Sn      2013/02/15 12:46:54.9   0.3                          T                                        5198103
HAU   002.17 345.5 m E Sg      2013/02/15 12:47:02.0  -0.3                          T                3.8  .24 Ml 2.2         5198104
HINF  001.92 353.8 m E Pg      2013/02/15 12:46:29.3  -0.5                          T                                        5198106
HINF  001.92 353.8 m E Sg      2013/02/15 12:46:54.0  -0.5                          T                4.0  .22 Ml 2.5         5198105
SSF   002.77 295.9 m E Pn      2013/02/15 12:46:37.5   0.3                          T                                        5198094
SSF   002.77 295.9 m E Pg      2013/02/15 12:46:45.3  -0.2                          T                                        5198095
SSF   002.77 295.9 m E Sn      2013/02/15 12:47:09.5   0.5                          T                                        5198096
SSF   002.77 295.9 m E Sg      2013/02/15 12:47:20.9  -0.3                          T                1.1  .29 Ml 2.0         5198097
LOR   002.65 302.0 m E Pg      2013/02/15 12:46:42.9  -0.3                          T                                        5198098
LOR   002.65 302.0 m E Sn      2013/02/15 12:47:06.6   0.5                          T                                        5198100
LOR   002.65 302.0 m E Sg      2013/02/15 12:47:17.0  -0.3                          T                2.0  .25 Ml 2.3         5198099

.
EVENT     292136
    Date      Time       Latitude Longitude    Depth    Ndef Nsta Gap    Mag1  N    Mag2  N    Mag3  N   Author         ID
       rms   OT_Error      Smajor Sminor Az        Err   mdist  Mdist     Err        Err        Err      Quality

2013/02/15 12:49:04.7     43.9325    7.1888       .0 f    35    9 092  Ml 2.2  3  Md 2.0  2              bulletin    292236
                                                                                                         _ldg
      0.18   +-  0.03        .7     .6   23.12 +-  0.0    0.17   2.03   +-0.1      +-0.1                 m i km

NEAR SOUTH COAST OF FRANCE
Sta     Dist  EvAz     Phase      Date       Time     TRes  Azim  AzRes  Slow  SRes Def   SNR       Amp   Per   Mag1   Mag2       ID
SBF   000.19 111.2 m E Pg      2013/02/15 12:49:08.8  -0.1                          T                                        5198160
SBF   000.19 111.2 m E Sg      2013/02/15 12:49:11.7   0.0                          T              176.1  .52        Md 2.1  5198159
FRF   000.54 226.8 m E Pg      2013/02/15 12:49:15.3   0.1                          T                                        5198152
FRF   000.54 226.8 m E Sg      2013/02/15 12:49:22.5   0.0                          T                9.2  .31        Md 2.0  5198153
LMR   000.78 219.7 m E Pg      2013/02/15 12:49:19.5   0.0                          T                                        5198158
LMR   000.78 219.7 m E Sg      2013/02/15 12:49:29.8   0.0                          T               11.3  .46                5198157
MBDF  000.85 339.5 m E Pg      2013/02/15 12:49:21.2   0.1                          T                                        5198155
MBDF  000.85 339.5 m E Sg      2013/02/15 12:49:32.4   0.1                          T                2.2  .19                5198150
SMRF  001.17 272.7 m E Pg      2013/02/15 12:49:26.9   0.0                          T                                        5198156
ORIF  001.36 316.9 m E Pg      2013/02/15 12:49:30.5   0.1                          T                                        5198154
ORIF  001.36 316.9 m E Sg      2013/02/15 12:49:48.4   0.2                          T               13.6  .58 Ml 2.3         5198148
LPG   001.60 348.9 m E Pn      2013/02/15 12:49:32.7  -0.3                          T                                        5198151
LPL   001.62 348.5 m E Pn      2013/02/15 12:49:33.4   0.2                          T                                        5198149
VIVF  002.03 298.0 m E Pn      2013/02/15 12:49:38.6   0.1                          T                                        5198147
VIVF  002.03 298.0 m E Sn      2013/02/15 12:50:03.4   0.1                          T                2.6  .34 Ml 2.1         5198146

.
