EVENT     290432
    Date      Time       Latitude Longitude    Depth    Ndef Nsta Gap    Mag1  N    Mag2  N    Mag3  N   Author         ID
       rms   OT_Error      Smajor Sminor Az        Err   mdist  Mdist     Err        Err        Err      Quality

2013/01/16 21:16:57.5     47.6568    7.0038      4.0 f    16    7 171  Ml 1.5  5  Md 1.6  3              bulletin    290532
                                                                                                         _ldg
      0.36   +-  0.07       1.3    1.0   84.34 +-  0.0    0.19   2.17   +-0.3      +-0.1                 m i ke

SWITZERLAND
Sta     Dist  EvAz     Phase      Date       Time     TRes  Azim  AzRes  Slow  SRes Def   SNR       Amp   Per   Mag1   Mag2       ID
HINF  000.19 327.6 m E Pg      2013/01/16 21:17:01.3  -0.1                          T                                        5170335
HINF  000.19 327.6 m E Sg      2013/01/16 21:17:04.2   0.0                          T                3.1  .22        Md 1.5  5170334
HAU   000.56 308.5 m E Pg      2013/01/16 21:17:08.2  -0.1                          T                                        5170333
HAU   000.56 308.5 m E Sg      2013/01/16 21:17:15.6   0.0                          T                1.2  .23        Md 1.6  5170332
CDF   000.78 013.5 m E Pg      2013/01/16 21:17:12.3   0.0                          T                                        5170331
CDF   000.78 013.5 m E Sg      2013/01/16 21:17:22.6   0.1                          T                 .5  .18        Md 1.7  5170330
SFTF  001.43 293.3 m E Pg      2013/01/16 21:17:24.2   0.0 114.2  2.4               T                                        5170328
SFTF  001.43 293.3 m E Sg      2013/01/16 21:17:43.0   0.3                          T                 .5  .16 Ml 1.5         5170329
LPL   002.15 185.1 m E Pn      2013/01/16 21:17:32.6   0.0                          T                                        5170325
LPL   002.15 185.1 m E Sn      2013/01/16 21:17:58.3   0.2                          T                1.5  .30 Ml 1.9         5170324
LPG   002.17 184.7 m E Pn      2013/01/16 21:17:32.9   0.0                          T                                        5170323
LPG   002.17 184.7 m E Sn      2013/01/16 21:17:58.8   0.2                          T                 .3  .20 Ml 1.4         5170322
LOR   002.17 260.8 m E Pg      2013/01/16 21:17:37.5  -0.3  81.2  2.7               T                                        5170326
LOR   002.17 260.8 m E Sg      2013/01/16 21:18:05.5  -0.2  79.2  0.7               T                 .1  .16 Ml 1.1         5170327

.
EVENT     290433
    Date      Time       Latitude Longitude    Depth    Ndef Nsta Gap    Mag1  N    Mag2  N    Mag3  N   Author         ID
       rms   OT_Error      Smajor Sminor Az        Err   mdist  Mdist     Err        Err        Err      Quality

2013/01/16 21:29:13.7     47.6503    6.9985      4.0 f    10    5 279  Ml 1.5  2  Md 1.6  3              bulletin    290533
                                                                                                         _ldg
      0.09   +-  0.14       2.4    1.1  159.29 +-  0.0    0.19   1.56   +-0.1      +-0.1                 m i ke

FRANCE
Sta     Dist  EvAz     Phase      Date       Time     TRes  Azim  AzRes  Slow  SRes Def   SNR       Amp   Per   Mag1   Mag2       ID
HINF  000.19 329.5 m E Pg      2013/01/16 21:29:17.6  -0.1                          T                                        5170345
HINF  000.19 329.5 m E Sg      2013/01/16 21:29:20.5   0.0                          T                6.0  .20        Md 1.4  5170344
HAU   000.56 309.3 m E Pg      2013/01/16 21:29:24.4  -0.1                          T                                        5170343
HAU   000.56 309.3 m E Sg      2013/01/16 21:29:31.9   0.0                          T                 .9  .20        Md 1.6  5170342
CDF   000.78 013.6 m E Pg      2013/01/16 21:29:28.6   0.0                          T                                        5170341
CDF   000.78 013.6 m E Sg      2013/01/16 21:29:38.9   0.0                          T                1.1  .19        Md 1.7  5170340
SFTF  001.43 293.6 m E Pg      2013/01/16 21:29:40.6   0.2                          T                                        5170339
SFTF  001.43 293.6 m E Sg      2013/01/16 21:29:58.8  -0.1                          T                 .4  .16 Ml 1.4         5170338
MEZF  001.56 303.9 m E Pg      2013/01/16 21:29:42.7  -0.1                          T                                        5170336
MEZF  001.56 303.9 m E Sg      2013/01/16 21:30:02.9   0.0                          T                 .7  .20 Ml 1.6         5170337

.
EVENT     290434
    Date      Time       Latitude Longitude    Depth    Ndef Nsta Gap    Mag1  N    Mag2  N    Mag3  N   Author         ID
       rms   OT_Error      Smajor Sminor Az        Err   mdist  Mdist     Err        Err        Err      Quality

2013/01/16 21:30:17.4     47.6441    7.0399      4.0 f     8    4 281  Ml 1.4  1  Md 1.0  2              bulletin    290534
                                                                                                         _ldg
      0.49   +-  0.16       2.8    1.3  157.56 +-  0.0    0.21   1.46   +-         +-0.0                 m i ke

SWITZERLAND
Sta     Dist  EvAz     Phase      Date       Time     TRes  Azim  AzRes  Slow  SRes Def   SNR       Amp   Per   Mag1   Mag2       ID
HINF  000.21 323.9 m E Pg      2013/01/16 21:30:21.3  -0.4                          T                                        5170353
HINF  000.21 323.9 m E Sg      2013/01/16 21:30:24.2  -0.6                          T                1.2  .18        Md 1.0  5170352
HAU   000.59 308.1 m E Pg      2013/01/16 21:30:28.1  -0.5                          T                                        5170349
HAU   000.59 308.1 m E Sg      2013/01/16 21:30:35.6  -0.8                          T                  1  .19        Md 1.0  5170348
CDF   000.78 011.6 m E Pg      2013/01/16 21:30:32.3   0.0                          T                                        5170351
CDF   000.78 011.6 m E Sg      2013/01/16 21:30:42.6   0.0                          T                 .8  .21                5170350
SFTF  001.46 293.4 m E Pg      2013/01/16 21:30:44.2  -0.3                          T                                        5170347
SFTF  001.46 293.4 m E Sg      2013/01/16 21:31:02.5  -0.9                          T                 .3  .14 Ml 1.4         5170346

.
EVENT     290436
    Date      Time       Latitude Longitude    Depth    Ndef Nsta Gap    Mag1  N    Mag2  N    Mag3  N   Author         ID
       rms   OT_Error      Smajor Sminor Az        Err   mdist  Mdist     Err        Err        Err      Quality

2013/01/17 01:55:17.8     43.0590    -.2145      2.0      36    7 099  Ml 2.1  5  Md 2.2  2              bulletin    290536
                                                                                                         _ldg
      0.46   +-  0.06       1.4    1.0    1.36 +-  0.0    0.13   2.57   +-0.3      +-0.0                 m i ke

PYRENEES
Sta     Dist  EvAz     Phase      Date       Time     TRes  Azim  AzRes  Slow  SRes Def   SNR       Amp   Per   Mag1   Mag2       ID
ETSF  000.30 237.8 m E Pg      2013/01/17 01:55:23.4  -0.4                          T                                        5170383
ETSF  000.30 237.8 m E Sg      2013/01/17 01:55:27.1  -0.7                          T               29.0  .24        Md 2.2  5170380
EPF   000.41 093.8 m E Pg      2013/01/17 01:55:25.8   0.0                          T                                        5170382
EPF   000.41 093.8 m E Sg      2013/01/17 01:55:31.3   0.1                          T                8.3  .32        Md 2.2  5170379
SJPF  000.74 274.5 m E Pg      2013/01/17 01:55:32.2   0.4                          T                                        5170381
SJPF  000.74 274.5 m E Sg      2013/01/17 01:55:41.8   0.3                          T                3.4  .19                5170378
MTLF  001.80 080.2 m E Pn      2013/01/17 01:55:48.3   0.2                          T                                        5170377
MTLF  001.80 080.2 m E Pg      2013/01/17 01:55:51.4   0.1                          T                                        5170376
MTLF  001.80 080.2 m E Sn      2013/01/17 01:56:10.4   0.1                          T                                        5170375
MTLF  001.80 080.2 m E Sg      2013/01/17 01:56:14.6   0.0                          T                 .9  .20 Ml 1.8         5170374
LFF   002.00 019.8 m E Pn      2013/01/17 01:55:50.9   0.0                          T                                        5170372
LFF   002.00 019.8 m E Pg      2013/01/17 01:55:55.3   0.3                          T                                        5170373
LFF   002.00 019.8 m E Sg      2013/01/17 01:56:20.7  -0.1                          T                7.1  .33 Ml 2.4         5170371
CAF   002.49 040.6 m E Pg      2013/01/17 01:56:04.2   0.1                          T                                        5187440
CAF   002.49 040.6 m E Sg      2013/01/17 01:56:35.9  -0.1                          T                 .4  .13 Ml 1.8         5187441
RJF   002.57 028.4 m E Pg      2013/01/17 01:56:05.0  -0.5                          T                                        5170370
RJF   002.57 028.4 m E Sn      2013/01/17 01:56:28.3  -0.3                          T                                        5170368
RJF   002.57 028.4 m E Sg      2013/01/17 01:56:38.6   0.1                          T                2.0  .21 Ml 2.0         5170367

.
EVENT     290438
    Date      Time       Latitude Longitude    Depth    Ndef Nsta Gap    Mag1  N    Mag2  N    Mag3  N   Author         ID
       rms   OT_Error      Smajor Sminor Az        Err   mdist  Mdist     Err        Err        Err      Quality

2013/01/17 02:13:20.0     42.9987     .0071      2.0      15    5 117  Ml 1.7  4  Md 1.6  2              bulletin    290538
                                                                                                         _ldg
      0.61   +-  0.14       3.7    2.1    4.60 +-  0.0    0.25   2.43   +-0.3      +-0.0                 m i ke

PYRENEES
Sta     Dist  EvAz     Phase      Date       Time     TRes  Azim  AzRes  Slow  SRes Def   SNR       Amp   Per   Mag1   Mag2       ID
EPF   000.25 082.5 m E Pg      2013/01/17 02:13:24.4  -0.6                          T                                        5170406
EPF   000.25 082.5 m E Sg      2013/01/17 02:13:28.0  -0.3                          T                6.2  .22        Md 1.7  5170405
ETSF  000.43 256.7 m E Pg      2013/01/17 02:13:27.8  -0.6                          T                                        5170404
ETSF  000.43 256.7 m E Sg      2013/01/17 02:13:33.9  -0.1                          T                2.0  .19        Md 1.6  5170403
SJPF  000.91 277.6 m E Pg      2013/01/17 02:13:37.4   0.3                          T                                        5170398
SJPF  000.91 277.6 m E Sg      2013/01/17 02:13:50.0   1.0                          T                 .7  .21 Ml 1.3         5170397
MTLF  001.65 077.3 m E Pn      2013/01/17 02:13:48.2  -0.1                          T                                        5170402
MTLF  001.65 077.3 m E Sg      2013/01/17 02:14:11.4  -0.7                          T                1.2  .20 Ml 1.9         5170401
CAF   002.43 036.9 m E Pn      2013/01/17 02:13:59.3   0.3                          T                                        5170400
CAF   002.43 036.9 m E Sg      2013/01/17 02:14:38.2   1.6                          T                 .4  .17 Ml 1.6         5170399

.
EVENT     290437
    Date      Time       Latitude Longitude    Depth    Ndef Nsta Gap    Mag1  N    Mag2  N    Mag3  N   Author         ID
       rms   OT_Error      Smajor Sminor Az        Err   mdist  Mdist     Err        Err        Err      Quality

2013/01/17 02:23:21.5     47.6591    7.0018      5.0 f    23    8 051  Ml 1.5  4  Md 1.5  3              bulletin    290537
                                                                                                         _ldg
      0.36   +-  0.05        .9     .8    2.29 +-  0.0    0.19   2.17   +-0.2      +-0.3                 m i ke

SWITZERLAND
Sta     Dist  EvAz     Phase      Date       Time     TRes  Azim  AzRes  Slow  SRes Def   SNR       Amp   Per   Mag1   Mag2       ID
HINF  000.19 327.6 m E Pg      2013/01/17 02:23:25.1  -0.3                          T                                        5170421
HINF  000.19 327.6 m E Sg      2013/01/17 02:23:27.8  -0.3                          T                2.3  .18        Md 1.2  5170420
HAU   000.56 308.4 m E Pg      2013/01/17 02:23:31.9  -0.3                          T                                        5170419
HAU   000.56 308.4 m E Sg      2013/01/17 02:23:39.4  -0.2                          T                1.4  .18        Md 1.5  5170418
CDF   000.78 013.6 m E Pg      2013/01/17 02:23:36.1  -0.1                          T                                        5170415
CDF   000.78 013.6 m E Sg      2013/01/17 02:23:46.4   0.0                          T                1.8  .20        Md 1.7  5170414
THEF  000.89 310.4 m E Pg      2013/01/17 02:23:38.3   0.2                          T                                        5170820
THEF  000.89 310.4 m E Sg      2013/01/17 02:23:51.0   1.3                          T                                        5170821
CABF  001.22 211.1 m E Pg      2013/01/17 02:23:44.6   0.1                          T                                        5170407
CABF  001.22 211.1 m E Sg      2013/01/17 02:24:00.3   0.1                          T                 .6  .21 Ml 1.4         5170408
PAGF  001.24 316.8 m E Pg      2013/01/17 02:23:44.7   0.0 135.4  -0.5              T                                        5170413
PAGF  001.24 316.8 m E Sg      2013/01/17 02:24:00.4  -0.3                          T                1.2  .20 Ml 1.7         5170412
SFTF  001.43 293.2 m E Pg      2013/01/17 02:23:48.5   0.3 112.4  0.7               T                                        5170417
SFTF  001.43 293.2 m E Sg      2013/01/17 02:24:06.5  -0.1                          T                1.2  .19 Ml 1.8         5170416
LOR   002.17 260.8 m E Pg      2013/01/17 02:24:02.0   0.2  81.2  2.7               T                                        5170411
LOR   002.17 260.8 m E Sn      2013/01/17 02:24:23.0   0.9  80.1  1.6               T                                        5170410
LOR   002.17 260.8 m E Sg      2013/01/17 02:24:29.8   0.1  80.4  1.9               T                 .2  .20 Ml 1.3         5170409

.
EVENT     290440
    Date      Time       Latitude Longitude    Depth    Ndef Nsta Gap    Mag1  N    Mag2  N    Mag3  N   Author         ID
       rms   OT_Error      Smajor Sminor Az        Err   mdist  Mdist     Err        Err        Err      Quality

2013/01/17 04:04:01.1     43.2202    -.0285      2.0       9    4 114  Ml 1.5  1  Md 1.5  2              bulletin    290540
                                                                                                         _ldg
      0.19   +-  0.06       1.6    1.2  155.34 +-  0.0    0.33   1.81   +-         +-0.0                 m i ke

PYRENEES
Sta     Dist  EvAz     Phase      Date       Time     TRes  Azim  AzRes  Slow  SRes Def   SNR       Amp   Per   Mag1   Mag2       ID
EPF   000.33 125.0 m E Pg      2013/01/17 04:04:07.5  -0.1                          T                                        5170515
EPF   000.33 125.0 m E Sg      2013/01/17 04:04:11.8  -0.2                          T               12.6  .30        Md 1.5  5170514
ETSF  000.50 230.6 m E Pg      2013/01/17 04:04:10.9   0.1                          T                                        5170513
ETSF  000.50 230.6 m E Sg      2013/01/17 04:04:16.9  -0.6                          T                8.2  .39        Md 1.5  5170512
SJPF  000.88 263.4 m E Pg      2013/01/17 04:04:17.5  -0.2                          T                                        5170511
SJPF  000.88 263.4 m E Sg      2013/01/17 04:04:29.1   0.0                          T                  1  .20 Ml 1.5         5170510
LFF   001.81 017.6 m E Pn      2013/01/17 04:04:31.4   0.0                          T                                        5170509
LFF   001.81 017.6 m E Sn      2013/01/17 04:04:53.5   0.0                          T                                        5170508
LFF   001.81 017.6 m E Sg      2013/01/17 04:04:58.0   0.0                          T                                        5170507

.
