EVENT     256976
    Date      Time       Latitude Longitude    Depth    Ndef Nsta Gap    Mag1  N    Mag2  N    Mag3  N   Author         ID
       rms   OT_Error      Smajor Sminor Az        Err   mdist  Mdist     Err        Err        Err      Quality

2011/03/10 23:23:57.4     46.3174    1.4787      2.0      26   11 114  Ml 1.9 12  Md 1.9  3              js067245    256976

      0.13   +-  0.03        .6     .5  155.27 +-  0.0    0.51   1.89   +-0.3      +-0.0                 m i ke

FRANCE
Sta     Dist  EvAz     Phase      Date       Time     TRes  Azim  AzRes  Slow  SRes Def   SNR       Amp   Per   Mag1   Mag2       ID
TCF   000.51 093.0 m E Pg      2011/03/10 23:24:07.3   0.2                          T                                        4658982
TCF   000.51 093.0 m E Sg      2011/03/10 23:24:13.7  -0.1                          T                7.3  .16        Md 1.9  4658981
BGF   000.98 075.2 m E Pg      2011/03/10 23:24:15.8   0.1                          T                                        4658977
BGF   000.98 075.2 m E Sg      2011/03/10 23:24:28.2  -0.1                          T               10.7  .34 Ml 2.3 Md 1.9  4658980
RJF   001.01 178.5 m E Pg      2011/03/10 23:24:16.5   0.1                          T                                        4658975
RJF   001.01 178.5 m E Sg      2011/03/10 23:24:29.5   0.0                          T                8.1  .22 Ml 2.1         4658972
MFF   001.16 284.8 m E Pg      2011/03/10 23:24:19.2   0.2                          T                                        4658976
MFF   001.16 284.8 m E Sg      2011/03/10 23:24:33.7  -0.3                          T                3.1  .29 Ml 2.1         4658971
HYF   001.24 039.5 m E Pg      2011/03/10 23:24:20.5  -0.1                          T                                        4658965
HYF   001.24 039.5 m E Sg      2011/03/10 23:24:36.6   0.0                          T                                        4658964
AVF   001.38 069.2 m E Pn      2011/03/10 23:24:21.9   0.0                          T                                        4658967
AVF   001.38 069.2 m E Sn      2011/03/10 23:24:39.6   0.0                          T                 .5  .20 Ml 1.4         4658970
CAF   001.45 163.3 m E Pg      2011/03/10 23:24:24.3  -0.2                          T                                        4658974
CAF   001.45 163.3 m E Sg      2011/03/10 23:24:43.1  -0.2                          T                2.4  .25 Ml 2.0         4658973
SSF   001.58 061.2 m E Pn      2011/03/10 23:24:24.7   0.0                          T                                        4658961
SSF   001.58 061.2 m E Sn      2011/03/10 23:24:44.6   0.0                          T                  1  .27 Ml 1.7         4658962
LFF   001.47 200.9 m E Pg      2011/03/10 23:24:24.9   0.1                          T                                        4658959
LFF   001.47 200.9 m E Sg      2011/03/10 23:24:43.7  -0.1                          T                4.4  .33 Ml 2.0         4658960
SMF   001.67 077.8 m E Pn      2011/03/10 23:24:25.9   0.1                          T                                        4658966
SMF   001.67 077.8 m E Sn      2011/03/10 23:24:46.4  -0.2                          T                 .8  .20 Ml 1.7         4658969
LOR   001.89 059.0 m E Pn      2011/03/10 23:24:29.0   0.1                          T                                        4658963
LOR   001.89 059.0 m E Sn      2011/03/10 23:24:51.8  -0.1                          T                 .7  .25 Ml 1.6         4658968

.
EVENT     256977
    Date      Time       Latitude Longitude    Depth    Ndef Nsta Gap    Mag1  N    Mag2  N    Mag3  N   Author         ID
       rms   OT_Error      Smajor Sminor Az        Err   mdist  Mdist     Err        Err        Err      Quality

2011/03/11 00:33:10.7     43.2524    5.4747      2.0      10    5 222  Ml 1.9  3  Md 2.1  3              js067245    256977

      0.20   +-  0.19       4.5    1.6   14.30 +-  0.0    0.73   1.55   +-0.1      +-0.0                 m i ke

NEAR SOUTH COAST OF FRANCE
Sta     Dist  EvAz     Phase      Date       Time     TRes  Azim  AzRes  Slow  SRes Def   SNR       Amp   Per   Mag1   Mag2       ID
SMRF  000.73 005.7 m E Pg      2011/03/11 00:33:24.7   0.2                          T                                        4659000
SMRF  000.73 005.7 m E Sg      2011/03/11 00:33:34.0   0.0                          T                2.0  .18        Md 2.1  4658996
LMR   000.76 083.5 m E Pg      2011/03/11 00:33:25.4   0.3                          T                                        4658998
LMR   000.76 083.5 m E Sg      2011/03/11 00:33:34.9  -0.1                          T                1.4  .16        Md 2.1  4658995
FRF   000.91 069.8 m E Pg      2011/03/11 00:33:27.6  -0.2                          T                                        4658999
FRF   000.91 069.8 m E Sg      2011/03/11 00:33:39.7   0.0                          T                4.7  .31 Ml 2.0 Md 2.1  4658994
LASF  001.43 305.6 m E Pg      2011/03/11 00:33:37.5   0.0                          T                                        4658992
LASF  001.43 305.6 m E Sg      2011/03/11 00:33:55.8  -0.3                          T                1.5  .25 Ml 1.8         4658991
SBF   001.55 066.1 m E Pg      2011/03/11 00:33:39.4  -0.3                          T                                        4658997
SBF   001.55 066.1 m E Sg      2011/03/11 00:33:59.7  -0.1                          T                2.1  .26 Ml 2.0         4658993

.
EVENT     256978
    Date      Time       Latitude Longitude    Depth    Ndef Nsta Gap    Mag1  N    Mag2  N    Mag3  N   Author         ID
       rms   OT_Error      Smajor Sminor Az        Err   mdist  Mdist     Err        Err        Err      Quality

2011/03/11 04:46:00.2     44.4940    7.2508      2.0      18    8 187  Ml 1.4  7  Md 1.6  3              js067245    256978

      0.09   +-  0.04        .9     .4   77.87 +-  0.0    0.41   1.31   +-0.2      +-0.0                 m i ke

NORTHERN ITALY
Sta     Dist  EvAz     Phase      Date       Time     TRes  Azim  AzRes  Slow  SRes Def   SNR       Amp   Per   Mag1   Mag2       ID
MBDF  000.41 304.4 m E Pg      2011/03/11 04:46:08.3   0.0                          T                                        4659034
MBDF  000.41 304.4 m E Sg      2011/03/11 04:46:13.8   0.0                          T                7.3  .40        Md 1.5  4659033
SBF   000.64 168.1 m E Pg      2011/03/11 04:46:12.4  -0.1                          T                                        4659022
SBF   000.64 168.1 m E Sg      2011/03/11 04:46:20.9   0.0                          T                2.1  .22        Md 1.6  4659029
FRF   001.03 205.2 m E Pg      2011/03/11 04:46:19.4   0.0                          T                                        4659024
FRF   001.03 205.2 m E Sg      2011/03/11 04:46:33.0   0.1                          T                1.7  .22 Ml 1.8 Md 1.6  4659031
ORIF  001.07 293.9 m E Pg      2011/03/11 04:46:20.2   0.0                          T                                        4659028
ORIF  001.07 293.9 m E Sg      2011/03/11 04:46:34.0   0.0                          T                1.4  .37 Ml 1.4         4659019
LPG   001.06 340.7 m E Pg      2011/03/11 04:46:20.6   0.1                          T                                        4659026
LPG   001.06 340.7 m E Sg      2011/03/11 04:46:34.2  -0.1                          T                2.4  .50 Ml 1.5         4659021
LPL   001.09 340.4 m E Pg      2011/03/11 04:46:20.9   0.1                          T                                        4659027
LPL   001.09 340.4 m E Sg      2011/03/11 04:46:34.7  -0.1                          T                 .4  .25 Ml 1.1         4659020
LMR   001.28 205.1 m E Pg      2011/03/11 04:46:24.0   0.0                          T                                        4659023
LMR   001.28 205.1 m E Sg      2011/03/11 04:46:40.6   0.1                          T                 .6  .21 Ml 1.5         4659030
SMRF  001.31 247.3 m E Pg      2011/03/11 04:46:24.8   0.1                          T                                        4659025
SMRF  001.31 247.3 m E Sg      2011/03/11 04:46:41.7   0.1                          T                 .8  .34 Ml 1.3         4659032

.
EVENT     257084
    Date      Time       Latitude Longitude    Depth    Ndef Nsta Gap    Mag1  N    Mag2  N    Mag3  N   Author         ID
       rms   OT_Error      Smajor Sminor Az        Err   mdist  Mdist     Err        Err        Err      Quality

2011/03/11 14:27:09.9     42.8245     .0149      2.0      10    4 208  Ml 1.7  3  Md 1.7  3              js067245    257084

      0.09   +-  0.07       2.8     .5  174.50 +-  0.0    0.32   1.69   +-0.2      +-0.0                 m i ke

PYRENEES
Sta     Dist  EvAz     Phase      Date       Time     TRes  Azim  AzRes  Slow  SRes Def   SNR       Amp   Per   Mag1   Mag2       ID
EPF   000.32 049.1 m E Pg      2011/03/11 14:27:16.1   0.0                          T                                        4659167
EPF   000.32 049.1 m E Sg      2011/03/11 14:27:20.1  -0.2                          T               12.6  .22        Md 1.7  4659164
ETSF  000.43 280.1 m E Pg      2011/03/11 14:27:18.1  -0.1                          T                                        4659166
ETSF  000.43 280.1 m E Sg      2011/03/11 14:27:23.9   0.0                          T               16.7  .36        Md 1.6  4659165
SJPF  000.95 288.0 m E Pg      2011/03/11 14:27:27.9   0.1                          T                                        4659162
SJPF  000.95 288.0 m E Sg      2011/03/11 14:27:40.2   0.0                          T                1.6  .32 Ml 1.5 Md 1.7  4659163
MTLF  001.69 071.5 m E Pg      2011/03/11 14:27:41.4   0.0                          T                                        4659161
MTLF  001.69 071.5 m E Sg      2011/03/11 14:28:03.4   0.2                          T                1.3  .29 Ml 1.8         4659160

.
EVENT     257085
    Date      Time       Latitude Longitude    Depth    Ndef Nsta Gap    Mag1  N    Mag2  N    Mag3  N   Author         ID
       rms   OT_Error      Smajor Sminor Az        Err   mdist  Mdist     Err        Err        Err      Quality

2011/03/11 17:07:37.7     42.8960   -1.3673      2.0      14    3 104  Ml 1.7  1  Md 1.7  3              js067245    257085

      0.31   +-  0.08       1.6    1.4   66.18 +-  0.0    0.09   1.26   +-         +-0.0                 m i ke

PYRENEES
Sta     Dist  EvAz     Phase      Date       Time     TRes  Azim  AzRes  Slow  SRes Def   SNR       Amp   Per   Mag1   Mag2       ID
SJPF  000.24 025.6 m E Pg      2011/03/11 17:07:42.4   0.0                          T                                        4659175
SJPF  000.24 025.6 m E Sg      2011/03/11 17:07:45.4  -0.3                          T                8.4  .20        Md 1.7  4659174
ETSF  000.59 089.5 m E Pg      2011/03/11 17:07:48.9  -0.1                          T                                        4659170
ETSF  000.59 089.5 m E Sg      2011/03/11 17:07:56.4  -0.4                          T                1.1  .25        Md 1.6  4659172
EPF   001.26 083.3 m E Pg      2011/03/11 17:08:01.2  -0.1                          T                                        4659171
EPF   001.26 083.3 m E Sg      2011/03/11 17:08:17.0  -0.6                          T                1.8  .33 Ml 1.7 Md 1.7  4659173

.
