EVENT     283609
    Date      Time       Latitude Longitude    Depth    Ndef Nsta Gap    Mag1  N    Mag2  N    Mag3  N   Author         ID
       rms   OT_Error      Smajor Sminor Az        Err   mdist  Mdist     Err        Err        Err      Quality

2012/09/19 21:52:32.4     43.4213    2.4032      3.0 f    54   19 061  Ml 2.6 19  Md 2.1  1              bulletin    283709
                                                                                                         _ldg
      0.55   +-  0.06       1.3     .9  111.20 +-  0.0    0.16   4.92   +-0.3      +-                    m i ke

FRANCE
Sta     Dist  EvAz     Phase      Date       Time     TRes  Azim  AzRes  Slow  SRes Def   SNR       Amp   Per   Mag1   Mag2       ID
MTLF  000.16 239.4 m E Pg      2012/09/19 21:52:35.2  -0.5                          T                                        5074351
MTLF  000.16 239.4 m E Sg      2012/09/19 21:52:37.4  -0.5                          T               62.6  .18        Md 2.1  5074341
LASF  001.24 057.6 m E Pn      2012/09/19 21:52:54.9  -0.1                          T   001.0                                5074368
LASF  001.24 057.6 m E Pg      2012/09/19 21:52:56.0   0.4                          T                                        5074350
LASF  001.24 057.6 m E Sn      2012/09/19 21:53:10.7  -0.5                          T   001.0       16.9  .24 Ml 2.8         5074369
LASF  001.24 057.6 m E Sg      2012/09/19 21:53:11.6   0.0                          T               14.7  .20 Ml 2.8         5074342
CAF   001.52 350.9 m E Pg      2012/09/19 21:53:00.8   0.0                          T                                        5074348
CAF   001.52 350.9 m E Sn      2012/09/19 21:53:17.8  -0.2                          T   001.0       27.3  .36 Ml 2.9         5074364
CAF   001.52 350.9 m E Sg      2012/09/19 21:53:20.3  -0.2                          T                                        5074338
EPF   001.56 256.2 m E Pg      2012/09/19 21:53:01.7   0.3                          T                                        5074349
EPF   001.56 256.2 m E Sn      2012/09/19 21:53:19.0   0.1                          T   001.0       21.4  .20 Ml 3.1         5074365
EPF   001.56 256.2 m E Sg      2012/09/19 21:53:22.1   0.5                          T               22.2  .20 Ml 3.1         5074340
RJF   001.99 341.6 m E Pn      2012/09/19 21:53:05.9   0.8                          T   001.0                                5074361
RJF   001.99 341.6 m E Pg      2012/09/19 21:53:10.4   1.0                          T                                        5074345
RJF   001.99 341.6 m E Sn      2012/09/19 21:53:29.2   0.1                          T   001.0                                5074362
RJF   001.99 341.6 m E Sg      2012/09/19 21:53:34.9  -0.1                          T                8.5  .20 Ml 2.5         5074336
VIVF  002.17 047.9 m E Pn      2012/09/19 21:53:07.7   0.0                          T   001.0                                5074376
VIVF  002.17 047.9 m E Sg      2012/09/19 21:53:40.6  -0.3                          T                4.4  .26 Ml 2.5         5074344
LFF   001.93 322.3 m E Pg      2012/09/19 21:53:09.5   1.2                          T                                        5074347
LFF   001.93 322.3 m E Sg      2012/09/19 21:53:33.4   0.2                          T               12.9  .25 Ml 2.7         5074337
SMRF  002.37 075.4 m E Pn      2012/09/19 21:53:10.4   0.1                          T   001.0                                5074378
SMRF  002.37 075.4 m E Sg      2012/09/19 21:53:48.1   1.3                          T   001.0        6.7  .56 Ml 2.4         5074379
ETSF  002.23 257.5 m E Pg      2012/09/19 21:53:13.1  -0.8                          T                                        5074346
ETSF  002.23 257.5 m E Sg      2012/09/19 21:53:41.4  -1.2                          T                9.0  .32 Ml 2.7         5074339
LMR   002.99 090.3 m E Pn      2012/09/19 21:53:18.0  -0.8                          T   001.0                                5074370
LMR   002.99 090.3 m E Sn      2012/09/19 21:53:52.1  -1.0                          T   001.0        9.6  .84 Ml 2.5         5074371
FRF   003.09 086.0 m E Pn      2012/09/19 21:53:20.3   0.1                          T   001.0                                5074366
FRF   003.09 086.0 m E Sn      2012/09/19 21:53:58.1   2.7                          T   001.0        9.1  .84 Ml 2.5         5074367
FRF   003.09 086.0 m E Sg      2012/09/19 21:54:09.2  -0.2                          T                1.2  .28 Ml 2.1         5076606
BGF   003.15 005.6 m E Pn      2012/09/19 21:53:21.3   0.3                          T                                        5076609
BGF   003.15 005.6 m E Pg      2012/09/19 21:53:31.1   0.3                          T                                        5076610
BGF   003.15 005.6 m E Sg      2012/09/19 21:54:11.1  -0.2                          T                7.1  .37 Ml 2.7         5074335
SMF   003.38 017.0 m E Pn      2012/09/19 21:53:24.2   0.0                          T                                        5076608
SMF   003.38 017.0 m E Pg      2012/09/19 21:53:34.5  -0.5                          T                                        5076607
TCF   002.87 357.3 m E Pg      2012/09/19 21:53:25.6   0.0                          T                                        5076603
TCF   002.87 357.3 m E Sn      2012/09/19 21:53:50.1  -0.1                          T                                        5076602
TCF   002.87 357.3 m E Sg      2012/09/19 21:54:02.3  -0.2                          T   001.0        2.5  .21 Ml 2.5         5074375
HYF   003.85 002.4 m E Pn      2012/09/19 21:53:30.2  -0.3                          T                                        5076605
AVF   003.44 011.0 m E Pg      2012/09/19 21:53:36.2   0.2                          T                                        5076604
AVF   003.44 011.0 m E Sg      2012/09/19 21:54:19.9  -0.2                          T   001.0         .7  .28 Ml 1.9         5074363
PGF   004.92 098.0 m E Pn      2012/09/19 21:53:45.0  -0.2                          T   001.0                                5074374
MFF   003.66 331.3 m E Sg      2012/09/19 21:54:25.7  -1.4                          T   001.0        2.7  .28 Ml 2.7         5074373
LOR   003.98 014.4 m E Sg      2012/09/19 21:54:36.8  -0.4                          T   001.0         .9  .20 Ml 2.3         5074372

.
EVENT     283610
    Date      Time       Latitude Longitude    Depth    Ndef Nsta Gap    Mag1  N    Mag2  N    Mag3  N   Author         ID
       rms   OT_Error      Smajor Sminor Az        Err   mdist  Mdist     Err        Err        Err      Quality

2012/09/19 22:38:15.7     47.4524    -.7768      4.0 f    24    8 134  Ml 2.0  9  Md 2.2  2              bulletin    283710
                                                                                                         _ldg
      0.88   +-  0.08       2.1    1.3   57.40 +-  0.0    0.94   2.67   +-0.2      +-0.0                 m i ke

FRANCE
Sta     Dist  EvAz     Phase      Date       Time     TRes  Azim  AzRes  Slow  SRes Def   SNR       Amp   Per   Mag1   Mag2       ID
MFF   000.95 152.9 m E Pg      2012/09/19 22:38:33.6  -0.1                          T                                        5074359
MFF   000.95 152.9 m E Sg      2012/09/19 22:38:46.7   0.7                          T                5.3  .22 Ml 2.3 Md 2.2  5074352
GRR   000.94 356.7 m E Pg      2012/09/19 22:38:33.6   0.3                          T                                        5074360
GRR   000.94 356.7 m E Sg      2012/09/19 22:38:45.8   0.3                          T                3.4  .28 Ml 1.7 Md 2.2  5074356
LDF   001.22 020.8 m E Pg      2012/09/19 22:38:38.5  -0.1                          T                                        5074358
LDF   001.22 020.8 m E Sg      2012/09/19 22:38:54.2  -0.3                          T                2.1  .20 Ml 1.9         5074357
FLN   001.33 008.5 m E Pn      2012/09/19 22:38:39.6   0.2                          T                                        5077676
FLN   001.33 008.5 m E Pg      2012/09/19 22:38:40.4   0.0 177.9  -10.8             T                                        5076617
FLN   001.33 008.5 m E Sn      2012/09/19 22:38:56.3  -0.1                          T                                        5076619
FLN   001.33 008.5 m E Sg      2012/09/19 22:38:57.7   0.1                          T                3.2  .28 Ml 1.9         5076618
SGMF  001.44 304.4 m E Pn      2012/09/19 22:38:41.0   0.0                          T                                        5077677
SGMF  001.44 304.4 m E Pg      2012/09/19 22:38:42.5  -0.1                          T                                        5076623
SGMF  001.44 304.4 m E Sg      2012/09/19 22:39:00.7  -0.6                          T                1.3  .18 Ml 1.9         5074354
QUIF  001.68 286.9 m E Pn      2012/09/19 22:38:44.1  -0.1                          T                                        5076621
QUIF  001.68 286.9 m E Pg      2012/09/19 22:38:47.2   0.2                          T                                        5076620
QUIF  001.68 286.9 m E Sn      2012/09/19 22:39:04.5  -0.3                          T                                        5076622
QUIF  001.68 286.9 m E Sg      2012/09/19 22:39:08.5  -0.2                          T                1.2  .15 Ml 2.0         5074353
ROSF  001.90 298.7 m E Pn      2012/09/19 22:38:46.9  -0.3                          T                                        5077679
ROSF  001.90 298.7 m E Pg      2012/09/19 22:38:50.9  -0.2                          T                                        5077678
ROSF  001.90 298.7 m E Sg      2012/09/19 22:39:15.4  -0.1                          T                2.9  .30 Ml 2.2         5074355
RJF   002.67 142.7 m E Pg      2012/09/19 22:39:05.2  -0.1                          T                                        5077674
RJF   002.67 142.7 m E Sg      2012/09/19 22:39:39.3  -0.4                          T                2.0  .37 Ml 1.8         5077675

.
EVENT     283614
    Date      Time       Latitude Longitude    Depth    Ndef Nsta Gap    Mag1  N    Mag2  N    Mag3  N   Author         ID
       rms   OT_Error      Smajor Sminor Az        Err   mdist  Mdist     Err        Err        Err      Quality

2012/09/20 07:51:06.1     42.9979     .1437      2.0       9    5 081  Ml 1.9  2  Md 1.7  2              bulletin    283714
                                                                                                         _ldg
      0.31   +-  0.08       2.2    1.5  179.07 +-  0.0    0.07   2.37   +-0.3      +-0.1                 m i ke

PYRENEES
Sta     Dist  EvAz     Phase      Date       Time     TRes  Azim  AzRes  Slow  SRes Def   SNR       Amp   Per   Mag1   Mag2       ID
EPF   000.15 077.3 m E Pg      2012/09/20 07:51:08.8  -0.4                          T                                        5074548
EPF   000.15 077.3 m E Sg      2012/09/20 07:51:11.7   0.4                          T               28.5  .16        Md 1.7  5074547
ETSF  000.53 259.4 m E Pg      2012/09/20 07:51:15.5  -0.7                          T                                        5074546
ETSF  000.53 259.4 m E Sg      2012/09/20 07:51:22.5  -0.6                          T               14.0  .22        Md 1.8  5074545
SJPF  001.01 277.0 m E Pg      2012/09/20 07:51:25.2   0.2                          T                                        5074565
SJPF  001.01 277.0 m E Sg      2012/09/20 07:51:38.3   0.2                          T                2.5  .33 Ml 1.7         5074564
MTLF  001.56 076.6 m E Pn      2012/09/20 07:51:32.9  -0.2                          T                                        5074557
MTLF  001.56 076.6 m E Sn      2012/09/20 07:51:52.8   0.2                          T                2.6  .20 Ml 2.2         5074566
CAF   002.37 035.1 m E Pn      2012/09/20 07:51:44.6   0.3                          T                                        5074556

.
EVENT     283659
    Date      Time       Latitude Longitude    Depth    Ndef Nsta Gap    Mag1  N    Mag2  N    Mag3  N   Author         ID
       rms   OT_Error      Smajor Sminor Az        Err   mdist  Mdist     Err        Err        Err      Quality

2012/09/20 07:59:05.9     46.4524   10.1751      2.0      61   17 124  Ml 2.6 18                         bulletin    283759
                                                                                                         _ldg
      0.44   +-  0.08       1.6    1.3   30.90 +-  0.0    0.14   5.52   +-0.3                            m i ke

NORTHERN ITALY
Sta     Dist  EvAz     Phase      Date       Time     TRes  Azim  AzRes  Slow  SRes Def   SNR       Amp   Per   Mag1   Mag2       ID
LPG   002.57 249.4 m E Pn      2012/09/20 07:59:46.5  -0.6                          T                                        5074954
LPG   002.57 249.4 m E Pg      2012/09/20 07:59:54.1   0.1                          T                                        5074953
LPG   002.57 249.4 m E Sn      2012/09/20 08:00:16.7  -0.5                          T                                        5074952
LPG   002.57 249.4 m E Sg      2012/09/20 08:00:27.6   0.6                          T                6.9  .26 Ml 2.8         5074951
LPL   002.58 249.9 m E Pn      2012/09/20 07:59:47.1   0.0                          T                                        5074955
LPL   002.58 249.9 m E Pg      2012/09/20 07:59:54.0   0.0                          T                                        5074950
LPL   002.58 249.9 m E Sn      2012/09/20 08:00:16.7  -0.4                          T                                        5074949
LPL   002.58 249.9 m E Sg      2012/09/20 08:00:27.5   0.4                          T                4.5  .40 Ml 2.4         5074948
HINF  002.65 302.2 m E Pn      2012/09/20 07:59:47.8   0.0                          T                                        5074933
HINF  002.65 302.2 m E Sn      2012/09/20 08:00:18.4  -0.2                          T                                        5074932
HINF  002.65 302.2 m E Sg      2012/09/20 08:00:29.2   0.1                          T                4.7  .33 Ml 2.5         5074928
CDF   002.78 316.0 m E Pn      2012/09/20 07:59:49.2  -0.4                          T                                        5074924
CDF   002.78 316.0 m E Pg      2012/09/20 07:59:58.0   0.4                          T                                        5074923
CDF   002.78 316.0 m E Sn      2012/09/20 08:00:21.4  -0.4                          T                                        5074922
CDF   002.78 316.0 m E Sg      2012/09/20 08:00:33.5   0.3                          T                8.6  .52 Ml 2.7         5074921
CABF  002.83 274.7 m E Pn      2012/09/20 07:59:50.5   0.1                          T                                        5074931
CABF  002.83 274.7 m E Sn      2012/09/20 08:00:22.2  -0.8                          T               96.6 1.74 Ml 3.1         5074930
CABF  002.83 274.7 m E Sg      2012/09/20 08:00:35.0   0.2                          T                3.9  .37 Ml 2.4         5074929
MBDF  002.95 235.4 m E Pn      2012/09/20 07:59:51.7  -0.4                          T                                        5074956
MBDF  002.95 235.4 m E Pg      2012/09/20 08:00:00.9   0.2                          T                                        5074944
MBDF  002.95 235.4 m E Sn      2012/09/20 08:00:25.6  -0.3                          T                                        5074943
MBDF  002.95 235.4 m E Sg      2012/09/20 08:00:38.8   0.1                          T                 .8  .18 Ml 2.1         5074942
HAU   003.04 302.2 m E Pn      2012/09/20 07:59:53.3   0.2                          T                                        5074927
HAU   003.04 302.2 m E Pg      2012/09/20 08:00:02.4   0.2                          T                                        5074926
HAU   003.04 302.2 m E Sn      2012/09/20 08:00:27.3  -0.6                          T                2.8  .22 Ml 2.3         5074925
SBF   003.23 217.8 m E Pn      2012/09/20 07:59:56.1   0.2                          T                                        5074910
SBF   003.23 217.8 m E Sn      2012/09/20 08:00:32.0  -0.6                          T                6.1  .38 Ml 2.7         5074908
ORIF  003.38 244.5 m E Pn      2012/09/20 07:59:57.9   0.0                          T                                        5074947
ORIF  003.38 244.5 m E Sn      2012/09/20 08:00:35.0  -1.1                          T                                        5074946
ORIF  003.38 244.5 m E Sg      2012/09/20 08:00:52.3   0.3                          T                4.0  .42 Ml 2.5         5074945
PAGF  003.68 306.5 m E Pn      2012/09/20 08:00:01.7  -0.1                          T                                        5074918
PAGF  003.68 306.5 m E Pg      2012/09/20 08:00:14.6   0.6                          T                                        5074917
PAGF  003.68 306.5 m E Sn      2012/09/20 08:00:42.3  -0.8                          T                4.6  .38 Ml 2.7         5074916
FRF   003.82 222.1 m E Pn      2012/09/20 08:00:03.1  -0.6                          T                                        5074911
FRF   003.82 222.1 m E Sn      2012/09/20 08:00:46.5  -0.2                          T                2.5  .27 Ml 2.6         5074909
SFTF  003.91 298.5 m E Pn      2012/09/20 08:00:04.9  -0.1 123.6  8.9               T                                        5074915
SFTF  003.91 298.5 m E Sn      2012/09/20 08:00:48.6  -0.1                          T                                        5074914
SFTF  003.91 298.5 m E Sg      2012/09/20 08:01:08.7   0.3                          T                6.8  .25 Ml 3.1         5074913
VIVF  004.18 249.5 m E Pn      2012/09/20 08:00:08.6   0.0                          T                                        5074941
VIVF  004.18 249.5 m E Pg      2012/09/20 08:00:22.6  -0.7                          T                                        5074940
VIVF  004.18 249.5 m E Sn      2012/09/20 08:00:55.0  -0.1                          T                                        5074939
VIVF  004.18 249.5 m E Sg      2012/09/20 08:01:17.1   0.3                          T                1.1  .33 Ml 2.2         5074938
AVF   004.71 276.6 m E Pn      2012/09/20 08:00:16.3   0.5                          T                                        5074934
LASF  005.05 244.2 m E Pn      2012/09/20 08:00:21.1   0.5                          T                                        5074937
LASF  005.05 244.2 m E Pg      2012/09/20 08:00:40.0   0.6                          T                                        5074936
LASF  005.05 244.2 m E Sn      2012/09/20 08:01:16.1   0.0                          T                1.1  .25 Ml 2.5         5074935
BAIF  005.38 314.3 m E Pn      2012/09/20 08:00:24.5  -0.4                          T                                        5074920
BAIF  005.38 314.3 m E Sn      2012/09/20 08:01:22.9  -0.9                          T                3.3  .27 Ml 3.0         5074919
TCF   005.52 271.2 m E Pn      2012/09/20 08:00:27.5   0.6                          T                                        5074912

.
