EVENT     284501
    Date      Time       Latitude Longitude    Depth    Ndef Nsta Gap    Mag1  N    Mag2  N    Mag3  N   Author         ID
       rms   OT_Error      Smajor Sminor Az        Err   mdist  Mdist     Err        Err        Err      Quality

2012/10/04 00:46:19.6     42.8988    -.0584      2.0       6    4 195  Ml 1.0  2  Md 1.4  2              bulletin    284602
                                                                                                         _ldg
      0.19   +-  0.19      12.0    1.4  171.15 +-  0.0    0.32   1.72   +-0.0      +-0.0                 m i ke

PYRENEES
Sta     Dist  EvAz     Phase      Date       Time     TRes  Azim  AzRes  Slow  SRes Def   SNR       Amp   Per   Mag1   Mag2       ID
EPF   000.32 065.7 m E Pg      2012/10/04 00:46:25.8  -0.1                          T                                        5091691
EPF   000.32 065.7 m E Sg      2012/10/04 00:46:30.7   0.4                          T                4.0  .24        Md 1.4  5091692
ETSF  000.37 270.1 m E Pg      2012/10/04 00:46:26.8   0.0                          T                                        5091689
ETSF  000.37 270.1 m E Sg      2012/10/04 00:46:31.8   0.1                          T                6.1  .33        Md 1.4  5091690
SJPF  000.88 284.5 m E Sg      2012/10/04 00:46:47.6  -0.1                          T                 .4  .20 Ml 1.0         5091687
MTLF  001.72 074.4 m E Sg      2012/10/04 00:47:13.7  -0.2                          T                 .1  .20 Ml 1           5091688

.
EVENT     284307
    Date      Time       Latitude Longitude    Depth    Ndef Nsta Gap    Mag1  N    Mag2  N    Mag3  N   Author         ID
       rms   OT_Error      Smajor Sminor Az        Err   mdist  Mdist     Err        Err        Err      Quality

2012/10/04 01:49:58.6     44.5591    2.6763      5.0 f    33   15 076  Ml 2.2 15  Md 2.3  1              bulletin    284408
                                                                                                         _ldg
      0.23   +-  0.04        .9     .7   95.31 +-  0.0    0.57   2.87   +-0.3      +-                    m i ke

FRANCE
Sta     Dist  EvAz     Phase      Date       Time     TRes  Azim  AzRes  Slow  SRes Def   SNR       Amp   Per   Mag1   Mag2       ID
CAF   000.57 310.3 m E Pg      2012/10/04 01:50:09.6   0.1                          T                                        5083545
CAF   000.57 310.3 m E Sg      2012/10/04 01:50:16.9  -0.1                          T                2.3  .13        Md 2.3  5083543
LASF  000.98 119.3 m E Pg      2012/10/04 01:50:16.8  -0.1                          T   001.0                                5083558
LASF  000.98 119.3 m E Sg      2012/10/04 01:50:28.7  -0.9                          T   001.0        3.4  .25 Ml 1.9         5083559
RJF   001.11 312.5 m E Pn      2012/10/04 01:50:19.2   0.0                          T   001.0                                5083546
RJF   001.11 312.5 m E Sg      2012/10/04 01:50:33.3  -0.5                          T               11.9  .20 Ml 2.3         5083542
MTLF  001.26 195.4 m E Pn      2012/10/04 01:50:21.2   0.0                          T   001.0                                5083552
MTLF  001.26 195.4 m E Pg      2012/10/04 01:50:22.1   0.0                          T                                        5091696
MTLF  001.26 195.4 m E Sg      2012/10/04 01:50:38.4  -0.1                          T   001.0        3.8  .24 Ml 2.1         5083557
VIVF  001.45 077.5 m E Pn      2012/10/04 01:50:24.0   0.1                          T   001.0                                5083566
VIVF  001.45 077.5 m E Pg      2012/10/04 01:50:25.9   0.2                          T                                        5091697
VIVF  001.45 077.5 m E Sn      2012/10/04 01:50:42.1  -0.1                          T                                        5091698
VIVF  001.45 077.5 m E Sg      2012/10/04 01:50:44.7   0.2                          T   001.0        2.8  .26 Ml 2.0         5083567
LFF   001.43 286.1 m E Pg      2012/10/04 01:50:25.4   0.1                          T   001.0                                5083560
LFF   001.43 286.1 m E Sg      2012/10/04 01:50:43.6  -0.2                          T               11.2  .24 Ml 2.5         5083541
TCF   001.76 349.4 m E Pn      2012/10/04 01:50:28.1   0.0                          T                                        5083573
TCF   001.76 349.4 m E Sg      2012/10/04 01:50:54.1   0.0                          T   001.0        2.8  .23 Ml 2.3         5083565
BGF   002.00 003.4 m E Pn      2012/10/04 01:50:31.6   0.2                          T                                        5083569
BGF   002.00 003.4 m E Sg      2012/10/04 01:51:01.5  -0.1                          T                7.2  .36 Ml 2.5         5083568
SMF   002.24 021.0 m E Pn      2012/10/04 01:50:34.5  -0.1                          T   001.0                                5083562
SMF   002.24 021.0 m E Sg      2012/10/04 01:51:09.1   0.1                          T   001.0        2.9  .24 Ml 2.3         5083563
EPF   002.28 228.7 m E Pn      2012/10/04 01:50:35.4   0.2                          T   001.0                                5083548
EPF   002.28 228.7 m E Pg      2012/10/04 01:50:41.4   0.4                          T   001.0                                5083549
EPF   002.28 228.7 m E Sg      2012/10/04 01:51:10.1  -0.3                          T   001.0        1.4  .23 Ml 2.0         5083553
AVF   002.28 011.8 m E Pn      2012/10/04 01:50:35.5   0.4                          T                                        5083570
AVF   002.28 011.8 m E Sg      2012/10/04 01:51:10.3   0.0                          T   001.0        2.0  .26 Ml 2.1         5083547
ETSF  002.87 235.8 m E Pn      2012/10/04 01:50:41.9  -1.4                          T   001.0                                5083551
MFF   002.85 316.9 m E Pn      2012/10/04 01:50:42.5  -0.3                          T                                        5083571
MFF   002.85 316.9 m E Sn      2012/10/04 01:51:15.4   0.0                          T                 .1  .20 Ml 1.4         5083572
SSF   002.57 012.8 m E Sg      2012/10/04 01:51:19.2  -0.1                          T   001.0        2.9  .30 Ml 2.4         5083564
LOR   002.83 016.5 m E Sg      2012/10/04 01:51:27.1  -0.5                          T   001.0        1.9  .36 Ml 2.1         5083561

.
EVENT     284324
    Date      Time       Latitude Longitude    Depth    Ndef Nsta Gap    Mag1  N    Mag2  N    Mag3  N   Author         ID
       rms   OT_Error      Smajor Sminor Az        Err   mdist  Mdist     Err        Err        Err      Quality

2012/10/04 06:39:11.3     44.6207    7.2358     12.0 f    37    8 125  Ml 2.1  7  Md 1.9  1              bulletin    284425
                                                                                                         _ldg
      0.30   +-  0.05       1.4     .7   68.52 +-  0.0    0.12   2.16   +-0.1      +-                    m i ke

NORTHERN ITALY
Sta     Dist  EvAz     Phase      Date       Time     TRes  Azim  AzRes  Slow  SRes Def   SNR       Amp   Per   Mag1   Mag2       ID
MBDF  000.35 287.9 m E Pg      2012/10/04 06:39:18.6   0.0                          T                                        5083614
MBDF  000.35 287.9 m E Sg      2012/10/04 06:39:22.6  -0.8                          T               32.1  .22        Md 1.9  5083608
SBF   000.77 169.2 m E Pg      2012/10/04 06:39:26.3   0.2                          T                                        5083600
SBF   000.77 169.2 m E Sg      2012/10/04 06:39:36.4   0.2                          T                4.5  .19                5083599
LPG   000.94 338.8 m E Pg      2012/10/04 06:39:29.6   0.1                          T                                        5083611
LPG   000.94 338.8 m E Sg      2012/10/04 06:39:41.6  -0.2                          T                5.1  .22 Ml 2.2         5083605
LPL   000.96 338.5 m E Pg      2012/10/04 06:39:30.2   0.4                          T                                        5083612
LPL   000.96 338.5 m E Sg      2012/10/04 06:39:42.2  -0.1                          T                5.4  .36 Ml 2.0         5083606
ORIF  001.01 287.6 m E Pg      2012/10/04 06:39:30.4   0.0                          T                                        5083613
ORIF  001.01 287.6 m E Sg      2012/10/04 06:39:43.1  -0.5                          T                9.3  .48 Ml 2.1         5083607
FRF   001.14 202.0 m E Pg      2012/10/04 06:39:32.5  -0.2                          T                                        5092700
FRF   001.14 202.0 m E Sg      2012/10/04 06:39:47.8   0.2                          T                5.2  .23 Ml 2.3         5083603
SMRF  001.36 242.2 m E Pg      2012/10/04 06:39:36.8   0.1                          T                                        5092702
SMRF  001.36 242.2 m E Sg      2012/10/04 06:39:54.5   0.2                          T                3.4  .24 Ml 2.1         5083604
LMR   001.39 202.4 m E Pg      2012/10/04 06:39:37.3   0.1                          T                                        5092701
LMR   001.39 202.4 m E Sg      2012/10/04 06:39:55.3   0.1                          T                7.1  .36 Ml 2.3         5083602

.
EVENT     284325
    Date      Time       Latitude Longitude    Depth    Ndef Nsta Gap    Mag1  N    Mag2  N    Mag3  N   Author         ID
       rms   OT_Error      Smajor Sminor Az        Err   mdist  Mdist     Err        Err        Err      Quality

2012/10/04 06:40:54.3     44.6348    7.2512     13.0 f    38    8 130  Ml 2.4  7  Md 2.2  1              bulletin    284426
                                                                                                         _ldg
      0.46   +-  0.09       2.2    1.2   71.09 +-  0.0    0.13   1.45   +-0.1      +-                    m i ke

NORTHERN ITALY
Sta     Dist  EvAz     Phase      Date       Time     TRes  Azim  AzRes  Slow  SRes Def   SNR       Amp   Per   Mag1   Mag2       ID
MBDF  000.35 285.2 m E Pg      2012/10/04 06:41:01.7   0.1                          T                                        5083629
MBDF  000.35 285.2 m E Sg      2012/10/04 06:41:06.3  -0.3                          T               70.8  .28        Md 2.2  5083622
SBF   000.78 170.2 m E Pg      2012/10/04 06:41:09.5   0.2                          T                                        5083623
SBF   000.78 170.2 m E Sg      2012/10/04 06:41:20.0   0.4                          T                4.8  .14                5092708
LPG   000.93 337.9 m E Pg      2012/10/04 06:41:11.6  -0.7                          T                                        5083626
LPG   000.93 337.9 m E Sg      2012/10/04 06:41:24.2  -0.3                          T                6.7  .21 Ml 2.3         5092704
LPL   000.96 337.5 m E Pg      2012/10/04 06:41:12.4  -0.2                          T                                        5083627
LPL   000.96 337.5 m E Sg      2012/10/04 06:41:25.1   0.0                          T                9.1  .25 Ml 2.4         5092703
ORIF  001.02 286.7 m E Pg      2012/10/04 06:41:13.3  -0.3                          T                                        5083628
ORIF  001.02 286.7 m E Sg      2012/10/04 06:41:27.1   0.2                          T                6.7  .27 Ml 2.2         5083621
FRF   001.16 202.3 m E Pg      2012/10/04 06:41:16.3   0.3                          T                                        5092710
FRF   001.16 202.3 m E Sg      2012/10/04 06:41:31.7   0.6                          T               15.1  .31 Ml 2.6         5092706
SMRF  001.37 241.9 m E Pn      2012/10/04 06:41:17.9   0.3                          T                                        5083620
SMRF  001.37 241.9 m E Pg      2012/10/04 06:41:20.4   0.4                          T                                        5092711
SMRF  001.37 241.9 m E Sg      2012/10/04 06:41:38.2   0.3                          T                9.7  .43 Ml 2.3         5092705
LMR   001.41 202.6 m E Pg      2012/10/04 06:41:20.8   0.2                          T                                        5092709
LMR   001.41 202.6 m E Sg      2012/10/04 06:41:39.3   0.5                          T                7.4  .28 Ml 2.4         5092707

.
EVENT     284326
    Date      Time       Latitude Longitude    Depth    Ndef Nsta Gap    Mag1  N    Mag2  N    Mag3  N   Author         ID
       rms   OT_Error      Smajor Sminor Az        Err   mdist  Mdist     Err        Err        Err      Quality

2012/10/04 06:44:46.0     44.6202    7.2581     13.0 f    42    9 129  Ml 2.3  8                         bulletin    284427
                                                                                                         _ldg
      0.42   +-  0.07       1.7    1.0   63.48 +-  0.0    0.12   1.86   +-0.1                            m i ke

NORTHERN ITALY
Sta     Dist  EvAz     Phase      Date       Time     TRes  Azim  AzRes  Slow  SRes Def   SNR       Amp   Per   Mag1   Mag2       ID
MBDF  000.36 287.2 m E Pg      2012/10/04 06:44:53.4  -0.2                          T                                        5083693
MBDF  000.36 287.2 m E Sg      2012/10/04 06:44:57.7  -1.0                          T               34.6  .20                5083688
SBF   000.77 170.4 m E Pg      2012/10/04 06:45:01.5   0.8                          T                                        5083681
SBF   000.77 170.4 m E Sg      2012/10/04 06:45:10.5  -0.3                          T                8.6  .22                5083680
LPG   000.95 337.9 m E Pg      2012/10/04 06:45:04.1  -0.2                          T                                        5083689
LPG   000.95 337.9 m E Sg      2012/10/04 06:45:17.3   0.6                          T                6.5  .21 Ml 2.3         5083685
ORIF  001.03 287.4 m E Pg      2012/10/04 06:45:05.5   0.1                          T                                        5083692
ORIF  001.03 287.4 m E Sg      2012/10/04 06:45:17.7  -1.2                          T                6.5  .26 Ml 2.2         5083687
LPL   000.97 337.6 m E Pg      2012/10/04 06:45:05.9   1.3                          T                                        5083691
LPL   000.97 337.6 m E Sg      2012/10/04 06:45:17.8   0.5                          T                4.6  .22 Ml 2.1         5083686
FRF   001.15 202.8 m E Pg      2012/10/04 06:45:08.1   0.5                          T                                        5083690
FRF   001.15 202.8 m E Sg      2012/10/04 06:45:22.4  -0.1                          T                9.0  .26 Ml 2.5         5083684
SMRF  001.37 242.5 m E Pn      2012/10/04 06:45:09.7   0.4                          T                                        5083679
SMRF  001.37 242.5 m E Sg      2012/10/04 06:45:30.1   0.6                          T                7.1  .35 Ml 2.3         5083678
LMR   001.40 203.1 m E Pg      2012/10/04 06:45:12.5   0.4                          T                                        5092715
LMR   001.40 203.1 m E Sg      2012/10/04 06:45:30.6   0.4                          T                6.1  .29 Ml 2.3         5083682
VIVF  001.86 278.2 m E Pn      2012/10/04 06:45:16.1   0.2                          T                                        5083677
VIVF  001.86 278.2 m E Pg      2012/10/04 06:45:20.9   0.2                          T                                        5092714
VIVF  001.86 278.2 m E Sn      2012/10/04 06:45:38.5   0.7                          T                1.7  .22 Ml 2.1         5083676

.
EVENT     284327
    Date      Time       Latitude Longitude    Depth    Ndef Nsta Gap    Mag1  N    Mag2  N    Mag3  N   Author         ID
       rms   OT_Error      Smajor Sminor Az        Err   mdist  Mdist     Err        Err        Err      Quality

2012/10/04 06:45:08.3     44.6205    7.2448     12.0 f    27    8 127  Ml 2.2  6  Md 1.7  1              bulletin    284428
                                                                                                         _ldg
      0.26   +-  0.05       1.3     .7   68.10 +-  0.0    0.12   1.39   +-0.2      +-                    m i ke

NORTHERN ITALY
Sta     Dist  EvAz     Phase      Date       Time     TRes  Azim  AzRes  Slow  SRes Def   SNR       Amp   Per   Mag1   Mag2       ID
MBDF  000.35 287.6 m E Pg      2012/10/04 06:45:15.7   0.1                          T                                        5083745
MBDF  000.35 287.6 m E Sg      2012/10/04 06:45:20.0  -0.5                          T               40.0  .20        Md 1.7  5083739
SBF   000.77 169.7 m E Pg      2012/10/04 06:45:23.2   0.2                          T                                        5092718
SBF   000.77 169.7 m E Sg      2012/10/04 06:45:33.2   0.1                          T                7.0  .20                5083734
LPL   000.97 338.1 m E Pg      2012/10/04 06:45:26.7  -0.1                          T                                        5083743
LPL   000.97 338.1 m E Sg      2012/10/04 06:45:38.6  -0.8                          T                3.0  .23 Ml 1.9         5083746
ORIF  001.02 287.5 m E Pg      2012/10/04 06:45:27.8   0.2                          T                                        5083744
ORIF  001.02 287.5 m E Sg      2012/10/04 06:45:40.8  -0.1                          T                5.7  .28 Ml 2.1         5083738
FRF   001.14 202.3 m E Pg      2012/10/04 06:45:29.7  -0.1                          T                                        5092716
FRF   001.14 202.3 m E Sg      2012/10/04 06:45:44.7   0.0                          T                8.1  .29 Ml 2.4         5083735
LPG   000.94 338.4 m E Sg      2012/10/04 06:45:38.8   0.0                          T                6.7  .25 Ml 2.2         5092717
SMRF  001.36 242.3 m E Sg      2012/10/04 06:45:51.4   0.0                          T                6.9  .42 Ml 2.2         5083730
LMR   001.39 202.7 m E Sg      2012/10/04 06:45:52.2  -0.1                          T                8.5  .35 Ml 2.4         5083733

.
