EVENT     268080
    Date      Time       Latitude Longitude    Depth    Ndef Nsta Gap    Mag1  N    Mag2  N    Mag3  N   Author         ID
       rms   OT_Error      Smajor Sminor Az        Err   mdist  Mdist     Err        Err        Err      Quality

2012/01/03 09:43:25.9     44.9195     .4786       .0 f    14    7 162  Ml 2.0  6  Md 2.0  1              js067245    268100

      0.32   +-  0.12       2.4    1.8  108.85 +-  0.0    0.19   2.02   +-0.2      +-                    m i km

FRANCE
Sta     Dist  EvAz     Phase      Date       Time     TRes  Azim  AzRes  Slow  SRes Def   SNR       Amp   Per   Mag1   Mag2       ID
LFF   000.19 083.8 m E Pg      2012/01/03 09:43:29.7  -0.2                          T                                        4811147
LFF   000.19 083.8 m E Sg      2012/01/03 09:43:33.0   0.3                          T               16.9  .20        Md 2.0  4811195
RJF   000.83 062.0 m E Pg      2012/01/03 09:43:41.8   0.1                          T                                        4811146
RJF   000.83 062.0 m E Sg      2012/01/03 09:43:52.6  -0.2                          T               12.9  .22                4811196
CAF   001.13 089.1 m E Pg      2012/01/03 09:43:47.6   0.3                          T                                        4811144
CAF   001.13 089.1 m E Sg      2012/01/03 09:44:01.7  -0.4                          T                3.9  .22 Ml 2.1         4811145
MFF   001.74 345.7 m E Pn      2012/01/03 09:43:56.0   0.2                          T                                        4811357
MFF   001.74 345.7 m E Sn      2012/01/03 09:44:16.6  -0.9                          T                1.4  .20 Ml 2.2         4811362
TCF   001.83 041.0 m E Pn      2012/01/03 09:43:57.2   0.2                          T                                        4811359
TCF   001.83 041.0 m E Sn      2012/01/03 09:44:19.0  -0.7                          T                2.1  .27 Ml 2.1         4811360
MTLF  002.01 141.0 m E Pn      2012/01/03 09:43:59.5   0.0                          T                                        4811355
MTLF  002.01 141.0 m E Sn      2012/01/03 09:44:23.7  -0.4                          T                 .9  .25 Ml 1.8         4811361
EPF   001.89 183.1 m E Pg      2012/01/03 09:44:01.3  -0.1                          T                                        4811354
EPF   001.89 183.1 m E Sg      2012/01/03 09:44:25.9   0.0                          T                 .9  .24 Ml 1.7         4811356

.
EVENT     268079
    Date      Time       Latitude Longitude    Depth    Ndef Nsta Gap    Mag1  N    Mag2  N    Mag3  N   Author         ID
       rms   OT_Error      Smajor Sminor Az        Err   mdist  Mdist     Err        Err        Err      Quality

2012/01/03 11:27:14.4     44.0671    1.7089       .0 f    20   10 097  Ml 2.4 10  Md 2.0  1              js067245    268099

      0.90   +-  0.12       2.8    1.8   77.36 +-  0.0    0.81   2.85   +-0.3      +-                    m i km

FRANCE
Sta     Dist  EvAz     Phase      Date       Time     TRes  Azim  AzRes  Slow  SRes Def   SNR       Amp   Per   Mag1   Mag2       ID
MTLF  000.81 152.9 m E Pg      2012/01/03 11:27:29.5  -0.5                          T                                        4811363
MTLF  000.81 152.9 m E Pn      2012/01/03 11:27:31.8   0.0                          T                                        4811226
MTLF  000.81 152.9 m E Sg      2012/01/03 11:27:41.9   1.0                          T               12.9  .28        Md 2.0  4811220
CAF   000.90 016.4 m E Pg      2012/01/03 11:27:31.0  -0.6                          T                                        4811225
CAF   000.90 016.4 m E Sg      2012/01/03 11:27:43.5   0.1                          T               12.5  .24 Ml 2.5         4811223
LFF   001.11 321.9 m E Pg      2012/01/03 11:27:35.9   0.4                          T                                        4811224
LFF   001.11 321.9 m E Sn      2012/01/03 11:27:51.4   0.3                          T               19.6  .34 Ml 2.5         4811222
RJF   001.24 353.7 m E Pg      2012/01/03 11:27:37.5  -0.4                          T                                        4811215
RJF   001.24 353.7 m E Sg      2012/01/03 11:27:54.7   0.4                          T                5.0  .25 Ml 1.9         4811221
EPF   001.44 224.3 m E Pn      2012/01/03 11:27:40.6   0.3                          T                                        4811216
EPF   001.44 224.3 m E Sn      2012/01/03 11:27:58.7  -0.2                          T               16.6  .36 Ml 2.7         4811217
LASF  001.55 088.9 m E Pn      2012/01/03 11:27:41.9   0.1                          T                                        4811214
LASF  001.55 088.9 m E Pg      2012/01/03 11:27:43.6   0.0                          T                                        4811218
LASF  001.55 088.9 m E Sg      2012/01/03 11:28:04.6   0.8                          T                9.0  .30 Ml 2.5         4811219
TCF   002.25 008.9 m E Sg      2012/01/03 11:28:25.9   0.3                          T                2.5  .31 Ml 2.2         4811365
VIVF  002.26 068.6 m E Sg      2012/01/03 11:28:26.4   0.2                          T                4.3  .37 Ml 2.3         4811213
BGF   002.62 017.5 m E Sg      2012/01/03 11:28:37.5   0.4                          T               19.7  .38 Ml 3.1         4811366
MFF   002.85 333.4 m E Sg      2012/01/03 11:28:44.8   0.3                          T                2.1  .28 Ml 2.4         4811364

.
EVENT     268090
    Date      Time       Latitude Longitude    Depth    Ndef Nsta Gap    Mag1  N    Mag2  N    Mag3  N   Author         ID
       rms   OT_Error      Smajor Sminor Az        Err   mdist  Mdist     Err        Err        Err      Quality

2012/01/03 13:13:15.9     48.1172   -1.9994 f     .0 f    23   11 126  Ml 2.4  4  Md 1.9  2              js067245    268110

      0.20   +-  0.14    9999.9 9999.9   99.90 +-  0.0    0.40   4.25   +-0.1      +-0.0                 m i km

FRANCE
Sta     Dist  EvAz     Phase      Date       Time     TRes  Azim  AzRes  Slow  SRes Def   SNR       Amp   Per   Mag1   Mag2       ID
SGMF  000.40 290.4 m E Pg      2012/01/03 13:13:22.9  -0.9                          T                                        4811371
SGMF  000.40 290.4 m E Sg      2012/01/03 13:13:29.2   0.0                          T                6.0  .15        Md 1.9  4811265
QUIF  000.81 256.1 m E Pg      2012/01/03 13:13:30.9  -0.4                          T                                        4811264
QUIF  000.81 256.1 m E P       2012/01/03 13:13:33.0   0.0                          T                                        4811277
QUIF  000.81 256.1 m E Sg      2012/01/03 13:13:42.2   0.2                          T               11.9  .24        Md 1.9  4811370
GRR   000.81 070.0 m E Pg      2012/01/03 13:13:31.4   0.1                          T                                        4811368
GRR   000.81 070.0 m E Pn      2012/01/03 13:13:33.2   0.2                          T                                        4811261
GRR   000.81 070.0 m E Sg      2012/01/03 13:13:41.9  -0.2                          T                7.9  .23                4811375
FLN   001.20 056.9 m E Pg      2012/01/03 13:13:38.7   0.2 236.2  -1.8              T                                        4811263
FLN   001.20 056.9 m E Sg      2012/01/03 13:13:54.2   0.0                          T               11.4  .23 Ml 2.4         4811276
LDF   001.34 068.5 m E Pg      2012/01/03 13:13:41.4   0.2                          T                                        4811369
LDF   001.34 068.5 m E Sg      2012/01/03 13:13:58.8   0.2                          T                6.2  .24 Ml 2.4         4811275
MFF   001.97 139.6 m E Pn      2012/01/03 13:13:48.7  -0.2                          T                                        4811384
MFF   001.97 139.6 m E Pg      2012/01/03 13:13:52.0  -0.8                          T                                        4811383
MFF   001.97 139.6 m E Sg      2012/01/03 13:14:18.1  -0.3                          T                2.7  .23 Ml 2.4         4811382
TCF   003.40 121.0 m E Pn      2012/01/03 13:14:08.4  -0.1                          T                                        4811379
AVF   003.87 108.1 m E Pn      2012/01/03 13:14:14.6  -0.1                          T                                        4811378
SSF   003.87 103.8 m E Pn      2012/01/03 13:14:14.7  -0.1                          T                                        4811380
LOR   004.05 099.9 m E Pn      2012/01/03 13:14:16.9  -0.3                          T                                        4811381
CAF   004.25 137.2 m E Pn      2012/01/03 13:14:20.3   0.4                          T                                        4811376

.
EVENT     268076
    Date      Time       Latitude Longitude    Depth    Ndef Nsta Gap    Mag1  N    Mag2  N    Mag3  N   Author         ID
       rms   OT_Error      Smajor Sminor Az        Err   mdist  Mdist     Err        Err        Err      Quality

2012/01/03 15:13:52.4     44.2298    7.4414     10.0      19    5 108  Ml 1.6  3  Md 1.4  1              js067245    268096

      0.16   +-  0.04        .9     .6   52.57 +-  0.0    0.02   1.36   +-0.1      +-                    m i ke

NORTHERN ITALY
Sta     Dist  EvAz     Phase      Date       Time     TRes  Azim  AzRes  Slow  SRes Def   SNR       Amp   Per   Mag1   Mag2       ID
SBF   000.37 180.7 m E Pg      2012/01/03 15:14:00.0   0.3                          T                                        4811390
SBF   000.37 180.7 m E Sg      2012/01/03 15:14:04.8   0.1                          T               11.6  .20        Md 1.4  4811391
MBDF  000.69 316.3 m E Pg      2012/01/03 15:14:05.7   0.0                          T                                        4811385
MBDF  000.69 316.3 m E Sg      2012/01/03 15:14:14.8   0.0                          T                 .9  .21                4811387
FRF   000.88 220.9 m E Sg      2012/01/03 15:14:20.7   0.1                          T                2.2  .30 Ml 1.7         4811388
LMR   001.12 217.3 m E Sg      2012/01/03 15:14:27.9  -0.1                          T                1.1  .21 Ml 1.6         4811389
LPG   001.36 339.1 m E Sg      2012/01/03 15:14:35.7   0.0                          T                 .7  .21 Ml 1.5         4811386

.
EVENT     268077
    Date      Time       Latitude Longitude    Depth    Ndef Nsta Gap    Mag1  N    Mag2  N    Mag3  N   Author         ID
       rms   OT_Error      Smajor Sminor Az        Err   mdist  Mdist     Err        Err        Err      Quality

2012/01/03 15:31:36.5     43.8006    7.5817       .0 f    20    5 175  Ml 1.5  3  Md 1.6  1              js067245    268097

      0.21   +-  0.06       1.4     .8  155.87 +-  0.0    0.10   1.46   +-0.2      +-                    m i km

NEAR SOUTH COAST OF FRANCE
Sta     Dist  EvAz     Phase      Date       Time     TRes  Azim  AzRes  Slow  SRes Def   SNR       Amp   Per   Mag1   Mag2       ID
SBF   000.12 300.6 m E Pg      2012/01/03 15:31:39.4   0.0                          T                                        4811392
SBF   000.12 300.6 m E Sg      2012/01/03 15:31:40.9  -0.5                          T              109.8  .34        Md 1.6  4811393
FRF   000.72 250.9 m E Pg      2012/01/03 15:31:50.3   0.0                          T                                        4811401
FRF   000.72 250.9 m E P       2012/01/03 15:31:51.6  -0.2                          T                                        4811402
FRF   000.72 250.9 m E Pn      2012/01/03 15:31:52.4  -0.1                          T                                        4811403
FRF   000.72 250.9 m E Sg      2012/01/03 15:32:00.0   0.1                          T                3.2  .23                4811397
LMR   000.91 239.5 m E Pg      2012/01/03 15:31:54.0   0.1                          T                                        4811399
LMR   000.91 239.5 m E Pn      2012/01/03 15:31:55.0  -0.1                          T                                        4811400
LMR   000.91 239.5 m E Sn      2012/01/03 15:32:08.2  -0.1                          T                1.6  .20 Ml 1.7         4811396
MBDF  001.09 328.1 m E Pg      2012/01/03 15:31:57.5   0.1                          T                                        4811398
MBDF  001.09 328.1 m E Sg      2012/01/03 15:32:12.1   0.2                          T                 .7  .24 Ml 1.3         4811395
SMRF  001.46 277.6 m E Sg      2012/01/03 15:32:23.4   0.2                          T                 .9  .22 Ml 1.6         4811394

.
