EVENT     269951
    Date      Time       Latitude Longitude    Depth    Ndef Nsta Gap    Mag1  N    Mag2  N    Mag3  N   Author         ID
       rms   OT_Error      Smajor Sminor Az        Err   mdist  Mdist     Err        Err        Err      Quality

2012/02/10 15:30:53.8     47.9618    6.3953       .0 f    13    7 170  Ml 1.8  2  Md 1.8  1              js067245    269971

      0.90   +-  0.14       3.8    1.8   18.72 +-  0.0    0.05   1.05   +-0.2      +-                    m i km

FRANCE
Sta     Dist  EvAz     Phase      Date       Time     TRes  Azim  AzRes  Slow  SRes Def   SNR       Amp   Per   Mag1   Mag2       ID
HAU   000.05 324.1 m E Pg      2012/02/10 15:30:55.2   0.0                          T                                        4836177
HAU   000.05 324.1 m E Sg      2012/02/10 15:30:56.5   0.4                          T               66.9  .32        Md 1.8  4836178
HINF  000.34 115.1 m E Pg      2012/02/10 15:31:00.7   0.0                          T                                        4836175
HINF  000.34 115.1 m E Sg      2012/02/10 15:31:05.8   0.3                          T                3.0  .26                4836176
THEF  000.38 314.9 m E Pg      2012/02/10 15:31:01.1  -0.2                          T                                        4836167
THEF  000.38 314.9 m E Sg      2012/02/10 15:31:06.3  -0.3                          T                9.7  .37                4836168
PAGF  000.74 323.2 m E Pg      2012/02/10 15:31:08.0  -0.1 142.3  -0.4              T                                        4836169
PAGF  000.74 323.2 m E Sn      2012/02/10 15:31:21.6   0.0                          T                2.3  .45                4836172
CDF   000.74 052.3 m E Pg      2012/02/10 15:31:08.2   0.1                          T                                        4836173
CDF   000.74 052.3 m E Sg      2012/02/10 15:31:17.5  -0.6                          T                1.8  .26                4836174
SFTF  000.94 285.5 m E Pg      2012/02/10 15:31:11.9   0.2 113.1  8.6               T                                        4836170
SFTF  000.94 285.5 m E Sg      2012/02/10 15:31:24.1  -0.1                          T                5.9  .37 Ml 2.0         4836171
MEZF  001.05 301.5 m E Sn      2012/02/10 15:31:29.2   0.3 120.1  -0.4              T                1.8  .25 Ml 1.7         4836166

.
EVENT     269959
    Date      Time       Latitude Longitude    Depth    Ndef Nsta Gap    Mag1  N    Mag2  N    Mag3  N   Author         ID
       rms   OT_Error      Smajor Sminor Az        Err   mdist  Mdist     Err        Err        Err      Quality

2012/02/10 15:46:22.5     42.3630    1.7743      4.0 f    66   10 028  Ml 2.6 10  Md 2.5  2              js067245    269979

      0.47   +-  0.05        .9     .8  167.08 +-  0.0    0.19   4.26   +-0.2      +-0.0                 m i ke

PYRENEES
Sta     Dist  EvAz     Phase      Date       Time     TRes  Azim  AzRes  Slow  SRes Def   SNR       Amp   Per   Mag1   Mag2       ID
MTLF  001.03 018.3 m E Pn      2012/02/10 15:46:42.4   0.2                          T                                        4835989
MTLF  001.03 018.3 m E Sg      2012/02/10 15:46:55.0  -0.3                          T                                Md 2.5  4835978
MTLF  001.03 018.3 m E Sn      2012/02/10 15:46:56.4   0.2                          T                                        4835977
EPF   001.25 302.7 m E Pn      2012/02/10 15:46:45.1  -0.1                          T                                        4835988
EPF   001.25 302.7 m E Sg      2012/02/10 15:47:01.8  -0.4                          T               22.0  .30 Ml 2.8 Md 2.5  4835979
LASF  002.29 040.9 m E Pn      2012/02/10 15:46:59.7   0.4                          T                                        4835987
LASF  002.29 040.9 m E Pg      2012/02/10 15:47:05.0  -0.1                          T                                        4835968
LASF  002.29 040.9 m E Sg      2012/02/10 15:47:35.5   0.9                          T                5.8  .34 Ml 2.5         4835976
CAF   002.57 004.6 m E Pn      2012/02/10 15:47:03.7   0.6                          T                                        4835985
CAF   002.57 004.6 m E Pg      2012/02/10 15:47:10.7   0.5                          T                                        4835980
CAF   002.57 004.6 m E Sn      2012/02/10 15:47:34.3   1.3                          T                                        4835975
CAF   002.57 004.6 m E Sg      2012/02/10 15:47:43.1  -0.3                          T                6.0  .20 Ml 2.8         4835984
SJPF  002.33 289.8 m E Pg      2012/02/10 15:47:06.4   0.5                          T                                        4835986
SJPF  002.33 289.8 m E Sg      2012/02/10 15:47:36.7   0.8                          T                2.8  .22 Ml 2.4         4835983
LFF   002.68 344.1 m E Pg      2012/02/10 15:47:12.4   0.2                          T                                        4835974
LFF   002.68 344.1 m E Sg      2012/02/10 15:47:46.9   0.1                          T                7.7  .32 Ml 2.6         4835981
RJF   002.95 356.5 m E Sg      2012/02/10 15:47:54.5  -0.5                          T                3.3  .18 Ml 2.4         4835982
LMR   003.61 072.8 m E Sn      2012/02/10 15:47:59.7   1.8                          T                                        4835967
VIVF  003.26 039.2 m E Sg      2012/02/10 15:48:05.5   0.6                          T                2.7  .27 Ml 2.5         4835973
BGF   004.26 010.0 m E Sg      2012/02/10 15:48:36.2   0.1                          T                5.9  .39 Ml 2.9         4835990

.
EVENT     269952
    Date      Time       Latitude Longitude    Depth    Ndef Nsta Gap    Mag1  N    Mag2  N    Mag3  N   Author         ID
       rms   OT_Error      Smajor Sminor Az        Err   mdist  Mdist     Err        Err        Err      Quality

2012/02/10 15:51:56.0     42.3599    1.7745      3.0 f   144   29 026  Ml 3.3 38  Md 3.1  4              js067245    269972

      0.89   +-  0.05       1.1    1.0  140.90 +-  0.0    0.19   6.95   +-0.3      +-0.1                 m i ke

PYRENEES
Sta     Dist  EvAz     Phase      Date       Time     TRes  Azim  AzRes  Slow  SRes Def   SNR       Amp   Per   Mag1   Mag2       ID
MTLF  001.03 018.2 m E Pn      2012/02/10 15:52:15.6  -0.2                          T   001.0                                4834822
MTLF  001.03 018.2 m E Sg      2012/02/10 15:52:28.5  -0.3                          T   001.0       89.7  .18 Ml 3.5 Md 3.0  4834823
MTLF  001.03 018.2 m E Sn      2012/02/10 15:52:29.9   0.0                          T                                Md 3.1  4836162
EPF   001.25 302.8 m E Pn      2012/02/10 15:52:18.2  -0.6                          T   001.0                                4834801
EPF   001.25 302.8 m E Sn      2012/02/10 15:52:34.3  -0.9                          T   001.0      198.3  .28 Ml 3.8 Md 3.0  4834802
LASF  002.29 040.9 m E Pn      2012/02/10 15:52:33.1   0.2                          T   001.0                                4834806
LASF  002.29 040.9 m E Pg      2012/02/10 15:52:38.4  -0.2                          T                                        4836161
LASF  002.29 040.9 m E Sn      2012/02/10 15:52:59.7  -0.3                          T                 10  .21 Ml 3.0         4836164
LASF  002.29 040.9 m E Sg      2012/02/10 15:53:08.5   0.3                          T               35.9  .32 Ml 3.3         4836090
SJPF  002.33 289.8 m E P       2012/02/10 15:52:35.9   0.0                          T   001.0                                4834826
SJPF  002.33 289.8 m E Pg      2012/02/10 15:52:39.4   0.0                          T   001.0                                4834827
SJPF  002.33 289.8 m E Sg      2012/02/10 15:53:09.8   0.5                          T   001.0       38.4  .29 Ml 3.4 Md 3.2  4834828
CAF   002.57 004.6 m E Pn      2012/02/10 15:52:37.9   1.1                          T   001.0                                4834799
CAF   002.57 004.6 m E Pg      2012/02/10 15:52:44.0   0.2                          T                                        4836022
CAF   002.57 004.6 m E Sn      2012/02/10 15:53:06.0  -0.7                          T   001.0       11.9  .20 Ml 3.1         4834800
CAF   002.57 004.6 m E Sg      2012/02/10 15:53:16.2  -0.7                          T               73.9  .28 Ml 3.8         4836091
LFF   002.69 344.1 m E Pn      2012/02/10 15:52:38.8   0.6                          T   001.0                                4834807
LFF   002.69 344.1 m E P       2012/02/10 15:52:40.2  -0.7                          T                                        4836165
LFF   002.69 344.1 m E Pg      2012/02/10 15:52:45.9   0.1                          T                                        4836021
LFF   002.69 344.1 m E Sn      2012/02/10 15:53:09.0  -0.3                          T   001.0       17.3  .26 Ml 3.0         4834808
LFF   002.69 344.1 m E Sg      2012/02/10 15:53:20.3   0.0                          T               69.9  .30 Ml 3.6         4836163
SMRF  003.22 058.6 m E Pn      2012/02/10 15:52:46.1   0.5                          T   001.0                                4834831
SMRF  003.22 058.6 m E Pg      2012/02/10 15:52:56.0   0.4                          T                                        4836160
VIVF  003.26 039.2 m E Pn      2012/02/10 15:52:46.8   0.6                          T   001.0                                4834829
VIVF  003.26 039.2 m E Pg      2012/02/10 15:52:56.4  -0.1                          T                                        4836089
VIVF  003.26 039.2 m E Sg      2012/02/10 15:53:38.6   0.1                          T   001.0       14.3  .24 Ml 3.3         4834830
RJF   002.95 356.5 m E Pg      2012/02/10 15:52:49.9  -0.8                          T                                        4836088
RJF   002.95 356.5 m E Sn      2012/02/10 15:53:15.4  -0.3                          T   001.0        9.8  .18 Ml 2.8         4834796
RJF   002.95 356.5 m E Sg      2012/02/10 15:53:27.9  -0.7                          T   001.0       30.3  .20 Ml 3.3         4834797
LMR   003.62 072.8 m E Pn      2012/02/10 15:52:52.3   1.4                          T   001.0                                4834809
LMR   003.62 072.8 m E Pg      2012/02/10 15:53:03.1   0.2                          T                                        4836150
LMR   003.62 072.8 m E Sn      2012/02/10 15:53:32.4   0.8                          T   001.0       10.8  .34 Ml 3.1         4834810
FRF   003.77 069.8 m E Pn      2012/02/10 15:52:54.2   1.1                          T   001.0                                4834804
FRF   003.77 069.8 m E Pg      2012/02/10 15:53:05.8   0.0                          T                                        4836115
FRF   003.77 069.8 m E Sn      2012/02/10 15:53:34.6  -0.7                          T   001.0        7.8  .31 Ml 3.0         4834805
ORIF  003.93 048.0 m E Pn      2012/02/10 15:52:57.0   1.7                          T   001.0                                4834824
SBF   004.41 068.2 m E Pn      2012/02/10 15:53:02.1   0.3                          T   001.0                                4834816
SBF   004.41 068.2 m E P       2012/02/10 15:53:05.3  -0.3                          T                                        4836149
SBF   004.41 068.2 m E Sn      2012/02/10 15:53:50.2  -0.4                          T                7.2  .28 Ml 3.2         4836148
MFF   004.46 342.7 m E Pn      2012/02/10 15:53:02.6   0.3                          T   001.0                                4834812
MFF   004.46 342.7 m E Pg      2012/02/10 15:53:17.9  -0.6                          T                                        4836151
MFF   004.46 342.7 m E Sn      2012/02/10 15:53:51.2  -0.5                          T   001.0        5.7  .26 Ml 3.3         4834813
MFF   004.46 342.7 m E Sg      2012/02/10 15:54:15.8   0.1                          T               16.7  .46 Ml 3.5         4836159
SMF   004.53 018.3 m E P       2012/02/10 15:53:06.8  -0.4                          T                                        4836117
SMF   004.53 018.3 m E Pg      2012/02/10 15:53:21.1   1.3                          T                                        4836138
SMF   004.53 018.3 m E Sg      2012/02/10 15:54:17.9  -0.1                          T   001.0       15.4  .46 Ml 3.3         4834817
LPG   004.77 047.2 m E Pn      2012/02/10 15:53:06.8  -0.2                          T                                        4836116
TCF   003.94 004.4 m E Pg      2012/02/10 15:53:09.0   0.1                          T                                        4836119
TCF   003.94 004.4 m E Sn      2012/02/10 15:53:39.1  -0.3                          T   001.0        4.3  .23 Ml 2.9         4834819
TCF   003.94 004.4 m E Sg      2012/02/10 15:53:58.8  -0.7                          T   001.0       14.1  .28 Ml 3.4         4834820
PGF   005.35 085.6 m E Pn      2012/02/10 15:53:14.5  -0.1                          T   001.0                                4834814
PGF   005.35 085.6 m E Sn      2012/02/10 15:54:11.5  -1.6                          T   001.0        4.9  .25 Ml 3.5         4834815
BGF   004.27 010.0 m E Pg      2012/02/10 15:53:15.0   0.1                          T                                        4836140
BGF   004.27 010.0 m E Sg      2012/02/10 15:54:09.3  -0.4                          T               55.8  .36 Ml 3.9         4836139
AVF   004.57 013.7 m E Pg      2012/02/10 15:53:20.8   0.3                          T                                        4836137
AVF   004.57 013.7 m E Sg      2012/02/10 15:54:19.3   0.2                          T   001.0        6.7  .31 Ml 3.1         4834798
SSF   004.86 014.1 m E Pg      2012/02/10 15:53:26.0   0.1                          T                                        4836120
SSF   004.86 014.1 m E Sg      2012/02/10 15:54:28.3   0.1                          T   001.0        9.6  .28 Ml 3.5         4834818
GRR   006.31 343.8 m E Pn      2012/02/10 15:53:28.0   0.4                          T                                        4836157
GRR   006.31 343.8 m E Pg      2012/02/10 15:53:52.7   0.2                          T                                        4836158
GRR   006.31 343.8 m E Sn      2012/02/10 15:54:36.0   0.2                          T                3.2  .30 Ml 3.0         4836155
GRR   006.31 343.8 m E Sg      2012/02/10 15:55:14.5   1.2                          T                3.0  .28 Ml 3.0         4836153
LDF   006.37 348.6 m E Pn      2012/02/10 15:53:28.5   0.0                          T                                        4836156
LDF   006.37 348.6 m E Sn      2012/02/10 15:54:37.6   0.1                          T                3.9  .30 Ml 3.2         4836154
LDF   006.37 348.6 m E Sg      2012/02/10 15:55:16.9   1.4                          T                2.5  .28 Ml 3.1         4836152
QUIF  006.56 329.5 m E Pn      2012/02/10 15:53:31.3   0.3                          T                                        4836145
QUIF  006.56 329.5 m E Sn      2012/02/10 15:54:41.9   0.0                          T                5.0  .36 Ml 3.3         4836147
SGMF  006.64 334.1 m E Pn      2012/02/10 15:53:32.6   0.6                          T                                        4836144
SGMF  006.64 334.1 m E Sn      2012/02/10 15:54:43.2  -0.6                          T                1.5  .24 Ml 3.0         4836146
CABF  005.25 034.5 m E Pg      2012/02/10 15:53:33.6   0.4                          T                                        4836136
CABF  005.25 034.5 m E Sg      2012/02/10 15:54:40.6   0.0                          T   001.0        4.2  .35 Ml 3.0         4834821
ROSF  006.95 331.0 m E Pn      2012/02/10 15:53:38.1   1.8                          T   001.0                                4834825
MEZF  006.56 019.4 m E Pg      2012/02/10 15:53:57.8   0.6                          T                                        4836118
LOR   005.13 016.1 m E Sg      2012/02/10 15:54:36.9   0.4                          T   001.0        5.4  .26 Ml 3.2         4834811

.
