EVENT     268616
    Date      Time       Latitude Longitude    Depth    Ndef Nsta Gap    Mag1  N    Mag2  N    Mag3  N   Author         ID
       rms   OT_Error      Smajor Sminor Az        Err   mdist  Mdist     Err        Err        Err      Quality

2012/01/15 18:37:00.3     44.2131    7.5903      2.0      27    8 105  Ml 1.2  5  Md 1.4  2              js067245    268636

      0.13   +-  0.02        .5     .4   49.46 +-  0.0    0.12   1.47   +-0.3      +-0.2                 m i ke

NORTHERN ITALY
Sta     Dist  EvAz     Phase      Date       Time     TRes  Azim  AzRes  Slow  SRes Def   SNR       Amp   Per   Mag1   Mag2       ID
SBF   000.37 197.8 m E Pg      2012/01/15 18:37:07.7   0.2                          T                                        4816065
SBF   000.37 197.8 m E Sg      2012/01/15 18:37:12.1  -0.3                          T                3.4  .28        Md 1.5  4816051
MBDF  000.78 311.5 m E Pg      2012/01/15 18:37:15.0  -0.1                          T                                        4816059
MBDF  000.78 311.5 m E Sg      2012/01/15 18:37:25.2  -0.2                          T                 .6  .24        Md 1.3  4816057
FRF   000.94 226.6 m E Pg      2012/01/15 18:37:17.9  -0.1                          T                                        4816063
FRF   000.94 226.6 m E Sg      2012/01/15 18:37:30.1  -0.2                          T                 .4  .22 Ml 1.1         4816053
LMR   001.18 222.1 m E Pg      2012/01/15 18:37:22.3   0.0                          T                                        4816064
LMR   001.18 222.1 m E Sg      2012/01/15 18:37:37.4  -0.2                          T                 .5  .29 Ml 1.2         4816052
ORIF  001.41 300.6 m E Pg      2012/01/15 18:37:26.9   0.1                          T                                        4816058
ORIF  001.41 300.6 m E Sg      2012/01/15 18:37:44.9  -0.1                          T                 .3  .22 Ml 1.1         4816056
LPG   001.42 335.4 m E Pg      2012/01/15 18:37:27.1   0.0                          T                                        4816061
LPG   001.42 335.4 m E Sg      2012/01/15 18:37:45.4   0.0                          T                 .2  .24 Ml  .9         4816054
LPL   001.44 335.2 m E Pg      2012/01/15 18:37:27.4  -0.1                          T                                        4816060
LPL   001.44 335.2 m E Sg      2012/01/15 18:37:46.2   0.1                          T                1.6  .30 Ml 1.7         4816055
SMRF  001.47 261.4 m E Pg      2012/01/15 18:37:27.8   0.1                          T                                        4816062

.
EVENT     268604
    Date      Time       Latitude Longitude    Depth    Ndef Nsta Gap    Mag1  N    Mag2  N    Mag3  N   Author         ID
       rms   OT_Error      Smajor Sminor Az        Err   mdist  Mdist     Err        Err        Err      Quality

2012/01/15 20:09:25.7     46.9466    5.9025      5.0 f    66   23 073  Ml 2.3 18  Md 2.5  1              js067245    268624

      0.66   +-  0.05       1.1     .9   78.79 +-  0.0    0.36   3.43   +-0.4      +-                    m i ke

FRANCE
Sta     Dist  EvAz     Phase      Date       Time     TRes  Azim  AzRes  Slow  SRes Def   SNR       Amp   Per   Mag1   Mag2       ID
CABF  000.36 159.2 m E Pg      2012/01/15 20:09:32.7  -0.2                          T   001.0                                4814202
CABF  000.36 159.2 m E Sg      2012/01/15 20:09:38.2   0.5                          T               38.3  .66        Md 2.5  4816066
HINF  001.08 036.2 m E Pn      2012/01/15 20:09:45.7  -0.3                          T   001.0                                4814203
HINF  001.08 036.2 m E Pg      2012/01/15 20:09:46.1   0.0                          T                                        4816072
HINF  001.08 036.2 m E Sg      2012/01/15 20:10:00.5   0.3                          T   001.0        9.6  .24 Ml 2.5         4814204
HAU   001.10 015.8 m E Pn      2012/01/15 20:09:46.1  -0.2                          T   001.0                                4814183
HAU   001.10 015.8 m E Pg      2012/01/15 20:09:46.5   0.1                          T   001.0                                4814182
HAU   001.10 015.8 m E Sg      2012/01/15 20:10:00.8   0.0                          T   001.0       11.6  .28 Ml 2.3         4814184
THEF  001.28 002.7 m E Pg      2012/01/15 20:09:49.7  -0.1                          T                                        4816082
THEF  001.28 002.7 m E Sg      2012/01/15 20:10:06.8   0.4                          T                8.9  .23 Ml 2.5         4816077
SFTF  001.39 335.4 m E Pn      2012/01/15 20:09:50.0  -0.2                          T                                        4816071
SFTF  001.39 335.4 m E Pg      2012/01/15 20:09:51.8   0.1 153.3  -1.4              T                                        4816070
SFTF  001.39 335.4 m E Sg      2012/01/15 20:10:09.6   0.0 158.4  3.7               T               39.8  .37 Ml 3.0         4816076
LOR   001.43 283.7 m E Pn      2012/01/15 20:09:50.6  -0.1                          T   001.0                                4814185
LOR   001.43 283.7 m E Pg      2012/01/15 20:09:52.3  -0.2 106.4  4.2               T   001.0                                4814186
LOR   001.43 283.7 m E Sn      2012/01/15 20:10:08.6  -0.2                          T   001.0                                4814187
LOR   001.43 283.7 m E Sg      2012/01/15 20:10:11.0   0.0 115.4  13.2              T   001.0       14.4  .16 Ml 3.0         4814188
SMF   001.45 258.7 m E Pn      2012/01/15 20:09:51.0   0.1                          T   001.0                                4814196
SMF   001.45 258.7 m E Pg      2012/01/15 20:09:52.9   0.2                          T                                        4816069
SMF   001.45 258.7 m E Sn      2012/01/15 20:10:09.2   0.0                          T   001.0                                4814197
SMF   001.45 258.7 m E Sg      2012/01/15 20:10:12.0   0.5                          T   001.0          3  .20 Ml 2.2         4814198
LPG   001.56 157.6 m E Pn      2012/01/15 20:09:52.9   0.0                          T   001.0                                4814189
LPG   001.56 157.6 m E Pg      2012/01/15 20:09:55.1  -0.1                          T   001.0                                4814190
LPG   001.56 157.6 m E Sn      2012/01/15 20:10:12.6   0.3                          T   001.0                                4814191
LPG   001.56 157.6 m E Sg      2012/01/15 20:10:15.6   0.2                          T   001.0        2.8  .26 Ml 2.1         4814192
SSF   001.64 274.9 m E Pn      2012/01/15 20:09:53.6   0.1                          T   001.0                                4814199
SSF   001.64 274.9 m E Pg      2012/01/15 20:09:56.1  -0.3                          T                                        4816086
SSF   001.64 274.9 m E Sg      2012/01/15 20:10:17.2  -0.4                          T   001.0        5.5  .28 Ml 2.5         4814200
AVF   001.76 265.8 m E Pn      2012/01/15 20:09:54.4  -0.7                          T   001.0                                4814177
AVF   001.76 265.8 m E Pg      2012/01/15 20:09:58.5   0.1                          T                                        4816068
AVF   001.76 265.8 m E Sg      2012/01/15 20:10:20.9  -0.2                          T   001.0        1.3  .28 Ml 1.8         4814178
LPL   001.54 157.8 m E Pg      2012/01/15 20:09:54.8   0.0                          T   001.0                                4814193
LPL   001.54 157.8 m E Sn      2012/01/15 20:10:11.5  -0.3                          T   001.0                                4814194
LPL   001.54 157.8 m E Sg      2012/01/15 20:10:15.2   0.5                          T   001.0        2.1  .24 Ml 2.0         4814195
PAGF  001.61 355.8 m E Pg      2012/01/15 20:09:55.8  -0.1 171.1  -4.6              T                                        4816083
PAGF  001.61 355.8 m E Sg      2012/01/15 20:10:16.6  -0.1 168.5  -7.2              T                 .9  .20 Ml 1.7         4816074
MEZF  001.66 340.1 m E Pg      2012/01/15 20:09:56.6   0.0 158.2  -1.2              T   001.0                                4814205
MEZF  001.66 340.1 m E Sn      2012/01/15 20:10:13.8  -0.4                          T   001.0       13.7  .36 Ml 2.7         4814206
MEZF  001.66 340.1 m E Sg      2012/01/15 20:10:17.9  -0.1 157.8  -1.7              T               15.6  .41 Ml 2.7         4816075
ORIF  002.03 180.5 m E Pn      2012/01/15 20:09:59.6   0.6                          T   001.0                                4814207
ORIF  002.03 180.5 m E Pg      2012/01/15 20:10:03.2  -0.4                          T   001.0                                4814208
ORIF  002.03 180.5 m E Sg      2012/01/15 20:10:29.6  -0.1                          T   001.0        1.9  .24 Ml 2.1         4814209
VIVF  002.26 202.8 m E Pn      2012/01/15 20:10:01.5  -0.5                          T   001.0                                4814210
VIVF  002.26 202.8 m E Pg      2012/01/15 20:10:07.5  -0.3                          T   001.0                                4814211
VIVF  002.26 202.8 m E Sg      2012/01/15 20:10:36.4  -0.4                          T   001.0        1.6  .20 Ml 2.2         4814212
BGF   002.14 260.6 m E Pg      2012/01/15 20:10:05.8   0.4                          T                                        4816067
BGF   002.14 260.6 m E Sg      2012/01/15 20:10:33.3   0.3                          T   001.0        4.3  .36 Ml 2.3         4814179
HYF   002.25 279.4 m E Pg      2012/01/15 20:10:07.2  -0.3                          T                                        4816081
MBDF  002.30 164.4 m E Pg      2012/01/15 20:10:08.7   0.0                          T                                        4816079
MBDF  002.30 164.4 m E Sg      2012/01/15 20:10:38.5   0.2                          T                                        4816078
GIVF  003.24 347.6 m E Pn      2012/01/15 20:10:15.5   0.2                          T                                        4816084
CAF   003.35 234.3 m E Pn      2012/01/15 20:10:16.5  -0.4                          T   001.0                                4814180
BAIF  003.31 340.7 m E Pn      2012/01/15 20:10:16.6   0.3                          T                                        4816085
TCF   002.63 256.8 m E Sg      2012/01/15 20:10:48.2  -0.2                          T   001.0        2.2  .40 Ml 2.1         4814201
FRF   003.43 170.9 m E Sn      2012/01/15 20:10:57.1   0.6                          T   001.0        3.4  .76 Ml 2.2         4814181

.
EVENT     268617
    Date      Time       Latitude Longitude    Depth    Ndef Nsta Gap    Mag1  N    Mag2  N    Mag3  N   Author         ID
       rms   OT_Error      Smajor Sminor Az        Err   mdist  Mdist     Err        Err        Err      Quality

2012/01/15 22:46:10.2     44.1908    7.5847      2.0      15    4 121  Ml 1.1  2  Md 1.2  1              js067245    268637

      0.17   +-  0.05       1.0     .8   35.65 +-  0.0    0.12   1.16   +-0.1      +-                    m i ke

NORTHERN ITALY
Sta     Dist  EvAz     Phase      Date       Time     TRes  Azim  AzRes  Slow  SRes Def   SNR       Amp   Per   Mag1   Mag2       ID
SBF   000.34 198.3 m E Pg      2012/01/15 22:46:16.8  -0.2                          T                                        4816093
SBF   000.34 198.3 m E Sg      2012/01/15 22:46:21.6   0.0                          T                 .6  .25        Md 1.2  4816087
MBDF  000.79 312.9 m E Pg      2012/01/15 22:46:25.1  -0.2                          T                                        4816091
MBDF  000.79 312.9 m E Sg      2012/01/15 22:46:35.6   0.0                          T                 .4  .22                4816090
FRF   000.93 227.4 m E Pg      2012/01/15 22:46:27.5  -0.1                          T                                        4816092
FRF   000.93 227.4 m E Sg      2012/01/15 22:46:39.7   0.1                          T                 .6  .28 Ml 1.1         4816088
LMR   001.16 222.7 m E Sg      2012/01/15 22:46:47.1   0.3                          T                 .4  .31 Ml 1           4816089

.
EVENT     268609
    Date      Time       Latitude Longitude    Depth    Ndef Nsta Gap    Mag1  N    Mag2  N    Mag3  N   Author         ID
       rms   OT_Error      Smajor Sminor Az        Err   mdist  Mdist     Err        Err        Err      Quality

2012/01/16 01:18:10.4     43.1558   -1.1289      2.0      10    2 173  Ml 0.9  1  Md 0.9  1              js067245    268629

      0.27   +-  0.10       2.4    1.3  177.56 +-  0.0    0.28   1.08   +-         +-                    m i ke

PYRENEES
Sta     Dist  EvAz     Phase      Date       Time     TRes  Azim  AzRes  Slow  SRes Def   SNR       Amp   Per   Mag1   Mag2       ID
ETSF  000.49 121.4 m E Pg      2012/01/16 01:18:19.8   0.0                          T                                        4816096
ETSF  000.49 121.4 m E Sg      2012/01/16 01:18:26.2  -0.1                          T                 .6  .24        Md  .9  4816097
EPF   001.08 096.1 m E Pg      2012/01/16 01:18:30.7   0.0                          T                                        4816094
EPF   001.08 096.1 m E Sg      2012/01/16 01:18:44.7  -0.1                          T                 .3  .30 Ml  .9         4816095

.
EVENT     268614
    Date      Time       Latitude Longitude    Depth    Ndef Nsta Gap    Mag1  N    Mag2  N    Mag3  N   Author         ID
       rms   OT_Error      Smajor Sminor Az        Err   mdist  Mdist     Err        Err        Err      Quality

2012/01/16 01:47:22.1     44.4118    7.2820     14.0 f    48    9 083  Ml 1.8  7  Md 2.1  2              js067245    268634

      0.23   +-  0.03        .8     .5   50.82 +-  0.0    0.10   1.92   +-0.6      +-0.1                 m i ke

NORTHERN ITALY
Sta     Dist  EvAz     Phase      Date       Time     TRes  Azim  AzRes  Slow  SRes Def   SNR       Amp   Per   Mag1   Mag2       ID
MBDF  000.48 311.0 m E Pg      2012/01/16 01:47:31.8   0.0                          T                                        4816131
MBDF  000.48 311.0 m E Sg      2012/01/16 01:47:38.3   0.0                          T               28.4  .39        Md 2.1  4816114
SBF   000.56 168.6 m E Pg      2012/01/16 01:47:33.2   0.1                          T                                        4816123
SBF   000.56 168.6 m E Pn      2012/01/16 01:47:34.2   0.0                          T                                        4816124
SBF   000.56 168.6 m E Sg      2012/01/16 01:47:40.5   0.0                          T               10.2  .24        Md 2.0  4816122
FRF   000.97 208.5 m E Pg      2012/01/16 01:47:40.2  -0.2                          T                                        4816126
FRF   000.97 208.5 m E Sn      2012/01/16 01:47:52.4   0.0                          T                7.6  .18 Ml 2.5         4816120
ORIF  001.12 297.3 m E Pg      2012/01/16 01:47:43.3   0.0                          T                                        4816130
ORIF  001.12 297.3 m E Sg      2012/01/16 01:47:57.9   0.0                          T                1.6  .24 Ml 1.7         4816116
LPG   001.15 341.1 m E Pg      2012/01/16 01:47:44.1   0.1                          T                                        4816128
LPG   001.15 341.1 m E Sg      2012/01/16 01:47:59.0   0.0                          T                1.1  .28 Ml 1.5         4816118
LPL   001.17 340.7 m E Pg      2012/01/16 01:47:44.4   0.0                          T                                        4816129
LPL   001.17 340.7 m E Sg      2012/01/16 01:47:59.3  -0.3                          T                1.1  .30 Ml 1.4         4816117
LMR   001.21 207.7 m E Pg      2012/01/16 01:47:44.7  -0.1                          T                                        4816125
LMR   001.21 207.7 m E Sg      2012/01/16 01:48:00.4  -0.2                          T               17.1  .22 Ml 2.8         4816121
SMRF  001.30 251.1 m E Pg      2012/01/16 01:47:46.9   0.4                          T                                        4816127
SMRF  001.30 251.1 m E Sg      2012/01/16 01:48:03.6   0.1                          T                3.2  .26 Ml 2.0         4816119
VIVF  001.92 284.3 m E Pg      2012/01/16 01:47:57.4  -0.4                          T                                        4816132
VIVF  001.92 284.3 m E Sg      2012/01/16 01:48:22.5   0.0                          T                 .1  .21 Ml 1           4816115

.
