EVENT     295282
    Date      Time       Latitude Longitude    Depth    Ndef Nsta Gap    Mag1  N    Mag2  N    Mag3  N   Author         ID
       rms   OT_Error      Smajor Sminor Az        Err   mdist  Mdist     Err        Err        Err      Quality

2013/04/03 15:31:12.8     48.8960    -.7643      2.0      47   15 223  Ml 2.5 18  Md 2.5  3              bulletin    295382
                                                                                                         _ldg
      0.56   +-  0.08       1.6     .8    4.19 +-  0.0    0.23   4.42   +-0.3      +-0.1                 m i ke

FRANCE
Sta     Dist  EvAz     Phase      Date       Time     TRes  Azim  AzRes  Slow  SRes Def   SNR       Amp   Per   Mag1   Mag2       ID
FLN   000.23 125.5 m E Pg      2013/04/03 15:31:17.6   0.2 310.8  5.1               T                                        5243674
FLN   000.23 125.5 m E Sg      2013/04/03 15:31:20.6   0.1 308.8  3.1               T               41.0  .14        Md 2.5  5243669
GRR   000.51 187.0 m E Pg      2013/04/03 15:31:22.8   0.2                          T                                        5250299
GRR   000.51 187.0 m E P       2013/04/03 15:31:23.7   0.0                          T                                        5243672
GRR   000.51 187.0 m E Sg      2013/04/03 15:31:29.1  -0.2                          T               20.2  .17        Md 2.6  5243671
LDF   000.52 125.2 m E Pg      2013/04/03 15:31:23.0   0.3                          T                                        5250300
LDF   000.52 125.2 m E P       2013/04/03 15:31:23.8  -0.2                          T                                        5243673
LDF   000.52 125.2 m E Sg      2013/04/03 15:31:29.6   0.0                          T               17.1  .21        Md 2.4  5243670
SGMF  001.35 242.3 m E Pn      2013/04/03 15:31:37.2   0.2                          T                                        5243681
SGMF  001.35 242.3 m E Pg      2013/04/03 15:31:38.2   0.2                          T                                        5243668
SGMF  001.35 242.3 m E Sn      2013/04/03 15:31:54.5   0.0                          T                3.5  .24 Ml 2.1         5243667
ROSF  001.76 252.4 m E Pn      2013/04/03 15:31:42.6   0.1                          T                                        5243680
ROSF  001.76 252.4 m E Pg      2013/04/03 15:31:45.4  -0.1                          T                                        5243666
ROSF  001.76 252.4 m E Sn      2013/04/03 15:32:04.1  -0.1                          T                2.6  .16 Ml 2.4         5243685
ROSF  001.76 252.4 m E Sg      2013/04/03 15:32:07.4  -0.7                          T                7.1  .19 Ml 2.7         5243665
QUIF  001.88 239.4 m E Pn      2013/04/03 15:31:44.2   0.1                          T                                        5243678
QUIF  001.88 239.4 m E Pg      2013/04/03 15:31:47.9   0.2                          T                                        5243679
QUIF  001.88 239.4 m E Sn      2013/04/03 15:32:06.9  -0.1                          T                1.4  .20 Ml 2.0         5243683
QUIF  001.88 239.4 m E Sg      2013/04/03 15:32:11.4  -0.5                          T                6.2  .17 Ml 2.7         5243684
MFF   002.33 169.5 m E Pn      2013/04/03 15:31:50.6   0.2                          T                                        5243677
MFF   002.33 169.5 m E Pg      2013/04/03 15:31:56.0  -0.1                          T                                        5243676
MFF   002.33 169.5 m E Sn      2013/04/03 15:32:18.0   0.1                          T                 .9  .17 Ml 2.2         5243682
MFF   002.33 169.5 m E Sg      2013/04/03 15:32:25.8  -0.4                          T                4.3  .18 Ml 2.8         5243675
TCF   003.30 141.2 m E Pn      2013/04/03 15:32:04.1   0.6                          T                                        5243695
TCF   003.30 141.2 m E Pg      2013/04/03 15:32:13.8  -0.1                          T                                        5243694
TCF   003.30 141.2 m E Sn      2013/04/03 15:32:40.9   0.0                          T                 .6  .18 Ml 2.1         5243692
TCF   003.30 141.2 m E Sg      2013/04/03 15:32:56.8   0.6                          T                                        5243693
SSF   003.41 121.0 m E Pn      2013/04/03 15:32:04.9  -0.1                          T                                        5250352
SSF   003.41 121.0 m E Pg      2013/04/03 15:32:15.8  -0.1                          T                                        5250351
SSF   003.41 121.0 m E Sg      2013/04/03 15:32:59.7   0.0                          T                1.2  .22 Ml 2.4         5250347
AVF   003.48 125.7 m E Pn      2013/04/03 15:32:05.8  -0.2                          T                                        5243699
AVF   003.48 125.7 m E Pg      2013/04/03 15:32:17.1  -0.2                          T                                        5243698
AVF   003.48 125.7 m E Sn      2013/04/03 15:32:45.4   0.0                          T                 .3  .14 Ml 1.8         5243696
AVF   003.48 125.7 m E Sg      2013/04/03 15:33:02.2   0.2                          T                1.2  .20 Ml 2.3         5243697
LOR   003.50 116.0 m E Pn      2013/04/03 15:32:06.3  -0.1 298.7  -0.7              T                                        5250350
LOR   003.50 116.0 m E Pg      2013/04/03 15:32:17.7   0.0 295.9  -3.6              T                                        5250349
LOR   003.50 116.0 m E Sg      2013/04/03 15:33:02.8   0.2 297.1  -2.4              T                1.4  .21 Ml 2.4         5250348
BGF   003.38 132.5 m E Sg      2013/04/03 15:32:59.0   0.3                          T               10.9  .32 Ml 3.0         5250346
RJF   003.92 155.7 m E Sg      2013/04/03 15:33:14.6  -1.0                          T                3.9  .26 Ml 2.5         5250345
LFF   004.09 164.8 m E Sg      2013/04/03 15:33:20.1  -0.9                          T                6.4  .35 Ml 2.8         5250344
CAF   004.42 152.9 m E Sg      2013/04/03 15:33:31.7   0.4                          T                1.9  .31 Ml 2.5         5250343

.
EVENT     295281
    Date      Time       Latitude Longitude    Depth    Ndef Nsta Gap    Mag1  N    Mag2  N    Mag3  N   Author         ID
       rms   OT_Error      Smajor Sminor Az        Err   mdist  Mdist     Err        Err        Err      Quality

2013/04/03 15:31:59.6     49.1971    6.0622       .0 f    18    8 175  Ml 2.2  7  Md 2.3  1              bulletin    295381
                                                                                                         _ldg
      0.77   +-  0.08       1.8    1.0   57.61 +-  0.0    0.68   1.48   +-0.1      +-                    m i km

GERMANY
Sta     Dist  EvAz     Phase      Date       Time     TRes  Azim  AzRes  Slow  SRes Def   SNR       Amp   Per   Mag1   Mag2       ID
PAGF  000.68 199.2 m E Pg      2013/04/03 15:32:12.6  -0.1  19.3  0.3               T                                        5243710
PAGF  000.68 199.2 m E Sg      2013/04/03 15:32:21.8   0.0  20.8  1.8               T               89.7 1.19        Md 2.3  5243714
MEZF  000.96 224.2 m E Pg      2013/04/03 15:32:18.1   0.1  39.0  -4.5              T                                        5243709
MEZF  000.96 224.2 m E Sg      2013/04/03 15:32:30.7   0.0  32.5  -10.9             T                9.0  .34 Ml 2.2         5243702
CDF   001.12 133.9 m E Pg      2013/04/03 15:32:21.0   0.0                          T                                        5243706
CDF   001.12 133.9 m E Sg      2013/04/03 15:32:35.8   0.0                          T                2.7  .18 Ml 2.2         5243701
SFTF  001.20 214.7 m E Pg      2013/04/03 15:32:22.3  -0.1                          T                                        5250364
SFTF  001.20 214.7 m E Sg      2013/04/03 15:32:38.4   0.2                          T                5.8  .30 Ml 2.2         5250365
GIVF  001.21 318.8 m E Pn      2013/04/03 15:32:22.4   0.0                          T                                        5243705
GIVF  001.21 318.8 m E Sg      2013/04/03 15:32:38.6   0.2                          T                3.6  .20 Ml 2.2         5243700
HAU   001.21 170.9 m E Pg      2013/04/03 15:32:22.5   0.0                          T                                        5243708
HAU   001.21 170.9 m E Sg      2013/04/03 15:32:38.5   0.2                          T                5.5  .26 Ml 2.0         5243704
BAIF  001.48 306.3 m E Pn      2013/04/03 15:32:26.1   0.0                          T                                        5243712
BAIF  001.48 306.3 m E Pg      2013/04/03 15:32:27.5   0.0                          T                                        5250366
BAIF  001.48 306.3 m E Sn      2013/04/03 15:32:45.1   0.0                          T                7.8  .45 Ml 2.3         5243711
HINF  001.48 158.9 m E Pg      2013/04/03 15:32:27.5   0.0                          T                                        5243707
HINF  001.48 158.9 m E Sn      2013/04/03 15:32:44.8  -0.3                          T                                        5243703
HINF  001.48 158.9 m E Sg      2013/04/03 15:32:46.7  -0.1                          T                2.2  .18 Ml 2.1         5243713

.
EVENT     295283
    Date      Time       Latitude Longitude    Depth    Ndef Nsta Gap    Mag1  N    Mag2  N    Mag3  N   Author         ID
       rms   OT_Error      Smajor Sminor Az        Err   mdist  Mdist     Err        Err        Err      Quality

2013/04/03 17:57:11.5     42.7456   -1.7088      2.0      39    5 095  Ml 2.2  3  Md 2.2  3              bulletin    295383
                                                                                                         _ldg
      0.69   +-  0.11       2.0    1.7  123.09 +-  0.0    0.10   3.49   +-0.2      +-0.1                 m i ke

PYRENEES
Sta     Dist  EvAz     Phase      Date       Time     TRes  Azim  AzRes  Slow  SRes Def   SNR       Amp   Per   Mag1   Mag2       ID
SJPF  000.51 043.9 m E Pg      2013/04/03 17:57:21.0  -0.2                          T                                        5243765
SJPF  000.51 043.9 m E Sg      2013/04/03 17:57:28.2   0.2                          T               16.4  .23        Md 2.3  5243758
ETSF  000.86 079.4 m E Pg      2013/04/03 17:57:28.0   0.3                          T                                        5243764
ETSF  000.86 079.4 m E Sg      2013/04/03 17:57:43.5   4.6                          T                6.9  .25 Ml 2.2 Md 2.1  5243759
EPF   001.53 078.6 m E Pg      2013/04/03 17:57:40.3   0.2                          T                                        5243763
EPF   001.53 078.6 m E Sn      2013/04/03 17:57:57.6   0.1                          T                                        5243762
EPF   001.53 078.6 m E Sg      2013/04/03 17:58:00.3   0.4                          T                7.9  .31 Ml 2.5 Md 2.2  5243761
MTLF  002.94 077.0 m E Pn      2013/04/03 17:57:57.6   0.3                          T                                        5243757
MTLF  002.94 077.0 m E Pg      2013/04/03 17:58:05.6  -0.3                          T                                        5243756
MTLF  002.94 077.0 m E Sn      2013/04/03 17:58:30.9  -0.1                          T                                        5243755
MTLF  002.94 077.0 m E Sg      2013/04/03 17:58:43.7   0.0                          T                1.2  .28 Ml 2.0         5243754
CAF   003.49 050.1 m E Pn      2013/04/03 17:58:04.9   0.1                          T                                        5243753
CAF   003.49 050.1 m E Pg      2013/04/03 17:58:16.0  -0.1                          T                                        5243752
CAF   003.49 050.1 m E Sn      2013/04/03 17:58:44.2  -0.1                          T                                        5243751
CAF   003.49 050.1 m E Sg      2013/04/03 17:59:01.1   0.0                          T                                        5243750

.
EVENT     295284
    Date      Time       Latitude Longitude    Depth    Ndef Nsta Gap    Mag1  N    Mag2  N    Mag3  N   Author         ID
       rms   OT_Error      Smajor Sminor Az        Err   mdist  Mdist     Err        Err        Err      Quality

2013/04/03 18:19:53.4     42.8182   -1.8127      2.0      21    3 099  Ml 2.1  1  Md 2.0  2              bulletin    295384
                                                                                                         _ldg
      0.52   +-  0.15       2.5    2.3   22.02 +-  0.0    0.18   2.81   +-         +-0.1                 m i ke

PYRENEES
Sta     Dist  EvAz     Phase      Date       Time     TRes  Azim  AzRes  Slow  SRes Def   SNR       Amp   Per   Mag1   Mag2       ID
SJPF  000.52 055.4 m E Pg      2013/04/03 18:20:03.2  -0.2                          T                                        5243775
SJPF  000.52 055.4 m E Sg      2013/04/03 18:20:10.5   0.3                          T                                Md 1.9  5243776
ETSF  000.93 084.6 m E Pg      2013/04/03 18:20:11.1   0.2                          T                                        5243773
ETSF  000.93 084.6 m E Sg      2013/04/03 18:20:23.2   0.3                          T                                Md 2.1  5243774
EPF   001.60 081.6 m E Pg      2013/04/03 18:20:23.6   0.4                          T                                        5243772
EPF   001.60 081.6 m E Sg      2013/04/03 18:20:44.3   0.5                          T                2.3  .22 Ml 2.1         5243770

.
EVENT     295298
    Date      Time       Latitude Longitude    Depth    Ndef Nsta Gap    Mag1  N    Mag2  N    Mag3  N   Author         ID
       rms   OT_Error      Smajor Sminor Az        Err   mdist  Mdist     Err        Err        Err      Quality

2013/04/03 19:38:03.9     42.7628    -.6028      2.0       6    3 239             Md 1.2  2              bulletin    295398
                                                                                                         _ldg
      0.20   +-  0.28       7.3    2.5    7.19 +-  0.0    0.14   0.74              +-0.1                 m i ke

PYRENEES
Sta     Dist  EvAz     Phase      Date       Time     TRes  Azim  AzRes  Slow  SRes Def   SNR       Amp   Per   Mag1   Mag2       ID
ETSF  000.14 013.3 m E Pg      2013/04/03 19:38:06.0  -1.0                          T                                        5250371
ETSF  000.14 013.3 m E Sg      2013/04/03 19:38:09.0   0.1                          T                6.6  .32        Md 1.3  5250372
SJPF  000.58 307.7 m E Pg      2013/04/03 19:38:15.0   0.1                          T                                        5250367
SJPF  000.58 307.7 m E Sg      2013/04/03 19:38:22.0  -0.4                          T                2.2  .27        Md 1.2  5250370
EPF   000.74 068.6 m E Pg      2013/04/03 19:38:17.9  -0.1                          T                                        5250368
EPF   000.74 068.6 m E Sg      2013/04/03 19:38:27.8   0.1                          T                2.2  .34                5250369

.
EVENT     295299
    Date      Time       Latitude Longitude    Depth    Ndef Nsta Gap    Mag1  N    Mag2  N    Mag3  N   Author         ID
       rms   OT_Error      Smajor Sminor Az        Err   mdist  Mdist     Err        Err        Err      Quality

2013/04/03 21:01:06.5     42.6881   -1.7027      2.0      16    3 105  Ml 1.5  2  Md 1.5  2              bulletin    295399
                                                                                                         _ldg
      0.43   +-  0.15       2.7    2.3  173.28 +-  0.0    0.12   1.89   +-0.2      +-0.1                 m i ke

PYRENEES
Sta     Dist  EvAz     Phase      Date       Time     TRes  Azim  AzRes  Slow  SRes Def   SNR       Amp   Per   Mag1   Mag2       ID
SJPF  000.55 039.4 m E Pg      2013/04/03 21:01:16.7  -0.3                          T                                        5244656
SJPF  000.55 039.4 m E Sg      2013/04/03 21:01:24.3   0.1                          T                1.2  .19        Md 1.6  5244655
ETSF  000.87 075.6 m E Pg      2013/04/03 21:01:22.9   0.0                          T                                        5244654
ETSF  000.87 075.6 m E Sg      2013/04/03 21:01:34.3   0.1                          T                 .9  .20 Ml 1.4 Md 1.5  5244653
EPF   001.54 076.5 m E Pg      2013/04/03 21:01:35.2   0.0                          T                                        5244652
EPF   001.54 076.5 m E Sg      2013/04/03 21:01:54.9  -0.3                          T                1.1  .28 Ml 1.6         5244651

.
