EVENT     261984
    Date      Time       Latitude Longitude    Depth    Ndef Nsta Gap    Mag1  N    Mag2  N    Mag3  N   Author         ID
       rms   OT_Error      Smajor Sminor Az        Err   mdist  Mdist     Err        Err        Err      Quality

2011/07/31 10:55:22.7     40.1812    3.9937     25.0      92   23 185  Ml 2.8 19  Md 3.1  3              js067245    261984

      0.84   +-  0.15       3.2    2.0  148.55 +-  0.0    1.00   9.29   +-0.2      +-0.1                 m i ke

BALEARIC ISLANDS, SPAIN
Sta     Dist  EvAz     Phase      Date       Time     TRes  Azim  AzRes  Slow  SRes Def   SNR       Amp   Per   Mag1   Mag2       ID
MTLF  003.43 337.8 m E Pn      2011/07/31 10:56:12.5   0.0                          T   001.0                                4730041
MTLF  003.43 337.8 m E Sn      2011/07/31 10:56:49.4  -0.3                          T   001.0        6.1  .29 Ml 2.8 Md 3.1  4730042
LMR   003.67 030.0 m E Pn      2011/07/31 10:56:15.8   0.0                          T   001.0                                4730031
LMR   003.67 030.0 m E Sn      2011/07/31 10:56:54.4  -1.2                          T   001.0        7.2  .21 Ml 3.1 Md 3.2  4730032
LASF  003.89 358.5 m E Pn      2011/07/31 10:56:19.0   0.0                          T   001.0                                4730029
LASF  003.89 358.5 m E Sn      2011/07/31 10:57:00.4  -0.5                          T   001.0        6.1  .30 Ml 2.9 Md 3.0  4730030
FRF   003.91 029.5 m E Pn      2011/07/31 10:56:19.4   0.3                          T   001.0                                4730027
FRF   003.91 029.5 m E Sn      2011/07/31 10:57:00.9  -0.5                          T   001.0       11.4  .41 Ml 3.1         4730028
EPF   003.95 317.3 m E Pn      2011/07/31 10:56:20.4   0.7                          T   001.0                                4730026
EPF   003.95 317.3 m E Sn      2011/07/31 10:57:02.8   0.5                          T                6.8  .22 Ml 3.1         4730369
ETSF  004.36 310.0 m E Pn      2011/07/31 10:56:25.7   0.3                          T   001.0                                4730039
ETSF  004.36 310.0 m E Sn      2011/07/31 10:57:13.2   0.9                          T   001.0        3.1  .32 Ml 2.7         4730040
SBF   004.48 033.7 m E Pn      2011/07/31 10:56:26.9  -0.1                          T   001.0                                4730036
SBF   004.48 033.7 m E Sn      2011/07/31 10:57:15.0  -0.1                          T   001.0        1.7  .19 Ml 2.7         4730037
PGF   004.45 056.3 m E Pn      2011/07/31 10:56:27.4   0.8                          T   001.0                                4730034
PGF   004.45 056.3 m E Sn      2011/07/31 10:57:13.5  -0.7                          T   001.0        3.1  .30 Ml 3.0         4730035
VIVF  004.70 005.9 m E Pn      2011/07/31 10:56:31.0   1.0                          T   001.0                                4730047
VIVF  004.70 005.9 m E Sn      2011/07/31 10:57:20.5   0.3                          T   001.0        3.6  .32 Ml 2.9         4730048
SJPF  004.89 308.5 m E Pn      2011/07/31 10:56:33.0   0.6                          T   001.0                                4730045
SJPF  004.89 308.5 m E Sn      2011/07/31 10:57:24.6   0.0                          T   001.0        3.1  .39 Ml 2.8         4730046
ORIF  004.93 015.8 m E Pn      2011/07/31 10:56:35.5   2.3                          T                                        4731231
ORIF  004.93 015.8 m E Sn      2011/07/31 10:57:26.4   0.5                          T                1.8  .38 Ml 2.5         4731229
LFF   005.33 334.3 m E Pn      2011/07/31 10:56:38.3  -0.1                          T                                        4731233
LFF   005.33 334.3 m E Sn      2011/07/31 10:57:35.4   0.2                          T                1.6  .24 Ml 2.6         4730371
RJF   005.44 341.2 m E Pn      2011/07/31 10:56:39.9   0.0                          T                                        4731234
RJF   005.44 341.2 m E Sn      2011/07/31 10:57:37.6  -0.2                          T   001.0        1.9  .21 Ml 2.6         4730024
LPL   005.70 019.8 m E P       2011/07/31 10:56:47.4  -0.9                          T                                        4731230
BGF   006.43 352.9 m E Pn      2011/07/31 10:56:53.1  -0.3                          T                                        4731236
BGF   006.43 352.9 m E Sn      2011/07/31 10:58:00.6  -0.9                          T                3.7  .35 Ml 3.2         4731227
CABF  006.61 012.6 m E Pn      2011/07/31 10:56:55.6  -0.3                          T                                        4731238
MFF   007.09 336.2 m E Pn      2011/07/31 10:57:02.3  -0.1                          T                                        4731232
MFF   007.09 336.2 m E Sn      2011/07/31 10:58:18.0   0.7                          T   001.0         .9  .34 Ml 2.9         4730033
HINF  007.91 014.1 m E Pn      2011/07/31 10:57:13.7   0.1                          T                                        4731239
SFTF  008.06 005.0 m E Pn      2011/07/31 10:57:15.6   0.0 198.0  12.3              T                                        4731240
CDF   008.56 014.9 m E Pn      2011/07/31 10:57:23.1   0.6                          T   001.0                                4730025
CAF   004.95 343.9 m E Sn      2011/07/31 10:57:26.2   0.0                          T                2.1  .23 Ml 2.8         4730370
MBDF  004.99 023.4 m E Sn      2011/07/31 10:57:27.9   0.7                          T                 .8  .25 Ml 2.4         4731228
QUIF  009.29 328.7 m E Pn      2011/07/31 10:57:32.0  -0.3                          T                                        4731235

.
EVENT     261986
    Date      Time       Latitude Longitude    Depth    Ndef Nsta Gap    Mag1  N    Mag2  N    Mag3  N   Author         ID
       rms   OT_Error      Smajor Sminor Az        Err   mdist  Mdist     Err        Err        Err      Quality

2011/07/31 11:07:44.7     45.3382    6.5875      2.0      10    5 138  Ml 1.5  1  Md 1.1  3              js067245    261986

      0.26   +-  0.11       4.8    1.5  130.59 +-  0.0    0.20   1.44   +-         +-0.1                 m i ke

FRANCE
Sta     Dist  EvAz     Phase      Date       Time     TRes  Azim  AzRes  Slow  SRes Def   SNR       Amp   Per   Mag1   Mag2       ID
LPL   000.21 029.7 m E Pg      2011/07/31 11:07:49.0  -0.2                          T                                        4730394
LPL   000.21 029.7 m E Sg      2011/07/31 11:07:52.3   0.3                          T                3.2  .24        Md 1.2  4730390
LPG   000.20 035.8 m E Pg      2011/07/31 11:07:49.0  -0.1                          T                                        4730393
LPG   000.20 035.8 m E Sg      2011/07/31 11:07:51.9   0.1                          T                3.9  .21        Md 1.2  4730389
ORIF  000.65 230.3 m E Pg      2011/07/31 11:07:57.7   0.5                          T                                        4730392
ORIF  000.65 230.3 m E Sg      2011/07/31 11:08:05.4  -0.3                          T                1.5  .20        Md 1.0  4730391
MBDF  000.62 167.9 m E Sg      2011/07/31 11:08:05.0   0.0                          T                 .8  .22                4730387
VIVF  001.44 251.1 m E Sg      2011/07/31 11:08:30.3   0.1                          T                1.0  .33 Ml 1.5         4730388

.
EVENT     261987
    Date      Time       Latitude Longitude    Depth    Ndef Nsta Gap    Mag1  N    Mag2  N    Mag3  N   Author         ID
       rms   OT_Error      Smajor Sminor Az        Err   mdist  Mdist     Err        Err        Err      Quality

2011/07/31 11:26:28.6     45.4018    6.5065      2.0       9    4 166  Ml 1.5  1  Md 1.1  3              js067245    261987

      0.35   +-  0.17      15.6    1.9  142.08 +-  0.0    0.20   1.41   +-         +-0.1                 m i ke

FRANCE
Sta     Dist  EvAz     Phase      Date       Time     TRes  Azim  AzRes  Slow  SRes Def   SNR       Amp   Per   Mag1   Mag2       ID
LPL   000.20 054.1 m E Pg      2011/07/31 11:26:32.7  -0.2                          T                                        4730405
LPL   000.20 054.1 m E Sg      2011/07/31 11:26:36.3   0.7                          T                3.1  .19        Md 1.2  4730401
LPG   000.20 060.8 m E Pg      2011/07/31 11:26:32.8  -0.2                          T                                        4730403
LPG   000.20 060.8 m E Sg      2011/07/31 11:26:35.7   0.0                          T                2.3  .15        Md 1.1  4730400
ORIF  000.66 222.7 m E Pg      2011/07/31 11:26:41.6   0.4                          T                                        4730404
ORIF  000.66 222.7 m E Sg      2011/07/31 11:26:49.2  -0.5                          T                1.4  .18        Md 1.0  4730402
VIVF  001.41 247.8 m E Sg      2011/07/31 11:27:12.9  -0.2                          T                1.1  .32 Ml 1.5         4730399

.
EVENT     261988
    Date      Time       Latitude Longitude    Depth    Ndef Nsta Gap    Mag1  N    Mag2  N    Mag3  N   Author         ID
       rms   OT_Error      Smajor Sminor Az        Err   mdist  Mdist     Err        Err        Err      Quality

2011/07/31 17:54:53.4     45.0200    7.2242      2.0      38   17 162  Ml 2.2  8  Md 2.4  3              js067245    261988

      0.67   +-  0.12       2.5    1.5   90.86 +-  0.0    0.13   5.34   +-0.3      +-0.1                 m i ke

NORTHERN ITALY
Sta     Dist  EvAz     Phase      Date       Time     TRes  Azim  AzRes  Slow  SRes Def   SNR       Amp   Per   Mag1   Mag2       ID
MBDF  000.44 227.8 m E Pg      2011/07/31 17:55:01.9  -0.1                          T                                        4730466
MBDF  000.44 227.8 m E Sg      2011/07/31 17:55:07.6  -0.1                          T               27.3  .26        Md 2.4  4730457
LPG   000.58 325.2 m E Pg      2011/07/31 17:55:04.1  -0.8                          T                                        4730463
LPG   000.58 325.2 m E Sg      2011/07/31 17:55:11.8  -0.7                          T               47.4  .23        Md 2.4  4730454
LPL   000.61 325.2 m E Pg      2011/07/31 17:55:04.7  -0.5                          T                                        4730464
LPL   000.61 325.2 m E Sg      2011/07/31 17:55:12.3  -0.9                          T               50.9  .27        Md 2.3  4730455
ORIF  000.96 264.4 m E Pg      2011/07/31 17:55:11.3  -0.3                          T                                        4730465
ORIF  000.96 264.4 m E Sg      2011/07/31 17:55:24.5   0.5                          T               16.5  .36 Ml 2.5         4730456
ORIF  000.96 264.4 m E S       2011/07/31 17:55:28.9   0.5                          T                                        4731277
SBF   001.17 172.5 m E Pn      2011/07/31 17:55:15.1  -0.1                          T                                        4730460
SBF   001.17 172.5 m E P       2011/07/31 17:55:16.8   0.0                          T                                        4731278
SBF   001.17 172.5 m E Sn      2011/07/31 17:55:30.1  -0.7                          T               12.6  .18 Ml 2.7         4730441
FRF   001.52 196.1 m E Pn      2011/07/31 17:55:19.9   0.0                          T                                        4730462
FRF   001.52 196.1 m E Sn      2011/07/31 17:55:39.2   0.1                          T                3.1  .19 Ml 2.3         4730453
LMR   001.76 197.2 m E Pn      2011/07/31 17:55:23.2  -0.1                          T                                        4730461
LMR   001.76 197.2 m E Sn      2011/07/31 17:55:45.1   0.2                          T                3.9  .21 Ml 2.5         4730452
VIVF  001.82 265.7 m E Pn      2011/07/31 17:55:24.3   0.3                          T                                        4730459
VIVF  001.82 265.7 m E Sn      2011/07/31 17:55:46.4   0.1                          T                1.0  .23 Ml 1.8         4730451
CABF  001.78 333.9 m E Pg      2011/07/31 17:55:26.8   0.2                          T                                        4730458
CABF  001.78 333.9 m E Sg      2011/07/31 17:55:49.7   0.1                          T                4.4  .30 Ml 2.3         4730444
HINF  002.81 354.9 m E Pn      2011/07/31 17:55:36.3  -1.2                          T                                        4730446
SMF   002.87 305.7 m E Pn      2011/07/31 17:55:38.6   0.3                          T                                        4730448
AVF   003.23 304.6 m E Pn      2011/07/31 17:55:43.6   0.3                          T                                        4730447
AVF   003.23 304.6 m E Sn      2011/07/31 17:56:20.1   0.1                          T                 .8  .23 Ml 2.0         4730443
LOR   003.24 315.1 m E Pn      2011/07/31 17:55:43.7   0.3                          T                                        4730438
CDF   003.39 000.6 m E Pn      2011/07/31 17:55:44.3  -1.3                          T                                        4730445
BGF   003.43 298.2 m E Pn      2011/07/31 17:55:46.4   0.5                          T                                        4730450
TCF   003.74 291.6 m E Pn      2011/07/31 17:55:50.5   0.3                          T                                        4730439
GIVF  005.34 343.1 m E Pn      2011/07/31 17:56:12.3   0.4                          T                                        4730440

.
EVENT     261989
    Date      Time       Latitude Longitude    Depth    Ndef Nsta Gap    Mag1  N    Mag2  N    Mag3  N   Author         ID
       rms   OT_Error      Smajor Sminor Az        Err   mdist  Mdist     Err        Err        Err      Quality

2011/07/31 20:20:34.6     42.8402   -1.3729      2.0      30    3 066  Ml 1.1  1  Md 1.3  2              js067245    261989

      0.54   +-  0.10       2.1    1.6   11.36 +-  0.0    0.04   1.27   +-         +-0.2                 m i ke

PYRENEES
Sta     Dist  EvAz     Phase      Date       Time     TRes  Azim  AzRes  Slow  SRes Def   SNR       Amp   Per   Mag1   Mag2       ID
SJPF  000.29 021.6 m E Pg      2011/07/31 20:20:39.9  -0.5                          T                                        4730475
SJPF  000.29 021.6 m E Sg      2011/07/31 20:20:43.7  -0.7                          T                1.1  .29        Md 1.5  4730474
ETSF  000.60 084.1 m E Pg      2011/07/31 20:20:46.1   0.0                          T                                        4731288
ETSF  000.60 084.1 m E Sg      2011/07/31 20:20:53.9  -0.1                          T                 .4  .29        Md 1.1  4731287
EPF   001.27 080.8 m E Pn      2011/07/31 20:20:57.6  -0.2                          T                                        4730473
EPF   001.27 080.8 m E Sg      2011/07/31 20:21:14.1  -0.8                          T                 .4  .26 Ml 1.1         4730471

.
EVENT     261990
    Date      Time       Latitude Longitude    Depth    Ndef Nsta Gap    Mag1  N    Mag2  N    Mag3  N   Author         ID
       rms   OT_Error      Smajor Sminor Az        Err   mdist  Mdist     Err        Err        Err      Quality

2011/08/01 00:02:49.0     40.1810    3.9445     25.0      14    5 184  Ml 1.6  3                         js067245    261990

      0.64   +-  0.24       6.1    3.8  141.36 +-  0.0    0.96   4.70   +-0.2                            m i ke

BALEARIC ISLANDS, SPAIN
Sta     Dist  EvAz     Phase      Date       Time     TRes  Azim  AzRes  Slow  SRes Def   SNR       Amp   Per   Mag1   Mag2       ID
MTLF  003.41 338.3 m E Pn      2011/08/01 00:03:38.7   0.1                          T                                        4730481
MTLF  003.41 338.3 m E Sn      2011/08/01 00:04:16.0   0.3                          T                 .2  .26 Ml 1.4         4730480
LMR   003.69 030.5 m E Pn      2011/08/01 00:03:41.8  -0.6                          T                                        4730483
LMR   003.69 030.5 m E Sn      2011/08/01 00:04:20.5  -1.8                          T                 .3  .23 Ml 1.8         4730484
FRF   003.93 030.0 m E Pn      2011/08/01 00:03:45.9   0.2                          T                                        4730479
FRF   003.93 030.0 m E Sn      2011/08/01 00:04:27.7  -0.5                          T                 .2  .22 Ml 1.7         4730478
PGF   004.48 056.5 m E Pn      2011/08/01 00:03:54.1   0.7                          T                                        4731290
VIVF  004.70 006.3 m E Pn      2011/08/01 00:03:56.9   0.6                          T                                        4730482

.
EVENT     262127
    Date      Time       Latitude Longitude    Depth    Ndef Nsta Gap    Mag1  N    Mag2  N    Mag3  N   Author         ID
       rms   OT_Error      Smajor Sminor Az        Err   mdist  Mdist     Err        Err        Err      Quality

2011/08/01 00:55:41.3     46.4470    6.8686      2.0      19    7 105  Ml 1.3  6  Md 1.5  3              js067245    262127

      0.25   +-  0.06       1.8    1.0   79.96 +-  0.0    0.12   1.72   +-0.2      +-0.1                 m i ke

SWITZERLAND
Sta     Dist  EvAz     Phase      Date       Time     TRes  Azim  AzRes  Slow  SRes Def   SNR       Amp   Per   Mag1   Mag2       ID
CABF  000.56 287.2 m E Pg      2011/08/01 00:55:51.7  -0.4                          T                                        4731914
CABF  000.56 287.2 m E Sn      2011/08/01 00:56:04.6   0.4                          T                 .5  .28        Md 1.5  4731915
LPL   000.94 185.9 m E Pg      2011/08/01 00:55:59.4   0.2                          T                                        4731908
LPL   000.94 185.9 m E Sg      2011/08/01 00:56:10.7  -0.6                          T                 .4  .26 Ml 1.0 Md 1.6  4731909
LPG   000.95 185.0 m E Pg      2011/08/01 00:55:59.9   0.3                          T                                        4731906
LPG   000.95 185.0 m E Sg      2011/08/01 00:56:11.6  -0.4                          T                 .5  .19 Ml 1.2 Md 1.4  4731907
HINF  001.37 359.6 m E Pg      2011/08/01 00:56:07.1   0.2                          T                                        4731918
HINF  001.37 359.6 m E Sg      2011/08/01 00:56:24.6   0.0                          T                 .9  .22 Ml 1.6         4731919
HINF  001.37 359.6 m E S       2011/08/01 00:56:26.8   0.2                          T                                        4731920
HAU   001.60 347.4 m E Pg      2011/08/01 00:56:10.0  -0.1                          T                                        4731916
HAU   001.60 347.4 m E Sg      2011/08/01 00:56:31.8   0.0                          T                 .7  .18 Ml 1.4         4731917
ORIF  001.68 204.7 m E P       2011/08/01 00:56:12.2   0.1                          T                                        4731911
ORIF  001.68 204.7 m E Sg      2011/08/01 00:56:34.5   0.2                          T                 .3  .22 Ml 1.3         4731912
MBDF  001.72 182.3 m E Pg      2011/08/01 00:56:13.2  -0.3                          T                                        4731910
MBDF  001.72 182.3 m E Sg      2011/08/01 00:56:35.9   0.1                          T                 .4  .19 Ml 1.5         4731913

.
