BEGIN GSE2.0
MSG_TYPE DATA
MSG_ID 04-SEP-1214:44:44  FRA_NDC
E-MAIL
DATA_TYPE BULLETIN
Reviewed Bulletin (REB) # P2012-034  from French NDC for regional phases     PERIOD 22 AUG 2012 TO 28 AUG 2012 Cenalt JP S
EVENT     281629
    Date      Time       Latitude Longitude    Depth    Ndef Nsta Gap    Mag1  N    Mag2  N    Mag3  N   Author         ID
       rms   OT_Error      Smajor Sminor Az        Err   mdist  Mdist     Err        Err        Err      Quality

2012/08/22 00:50:24.4     42.7391    1.9234      4.0 f    39    7 063  Ml 1.7  6  Md 1.8  2              bulletin    281729
                                                                                                         _ldg
      0.29   +-  0.04        .8     .8   73.69 +-  0.0    0.26   2.58   +-0.3      +-0.1                 m i ke

PYRENEES
Sta     Dist  EvAz     Phase      Date       Time     TRes  Azim  AzRes  Slow  SRes Def   SNR       Amp   Per   Mag1   Mag2       ID
MTLF  000.64 019.6 m E Pg      2012/08/22 00:50:36.3  -0.2                          T                                        5050137
MTLF  000.64 019.6 m E Sg      2012/08/22 00:50:44.8  -0.1                          T               11.6  .32        Md 1.8  5050134
EPF   001.20 284.6 m E Pg      2012/08/22 00:50:47.3   0.5                          T                                        5050136
EPF   001.20 284.6 m E Sg      2012/08/22 00:51:02.4   0.0                          T               17.3 1.34 Ml 2.0 Md 1.7  5050135
ETSF  001.83 275.8 m E Pn      2012/08/22 00:50:55.4   0.4                          T                                        5050129
ETSF  001.83 275.8 m E Pg      2012/08/22 00:50:59.0   0.5                          T                                        5050128
ETSF  001.83 275.8 m E Sg      2012/08/22 00:51:22.3   0.1                          T                 .4  .20 Ml 1.5         5050127
LASF  001.94 045.9 m E Pn      2012/08/22 00:50:57.0   0.6                          T                                        5050133
LASF  001.94 045.9 m E Pg      2012/08/22 00:51:00.5   0.0                          T                                        5050131
LASF  001.94 045.9 m E Sn      2012/08/22 00:51:19.9   0.1                          T                                        5050132
LASF  001.94 045.9 m E Sg      2012/08/22 00:51:25.3  -0.2                          T                 .6  .22 Ml 1.6         5050130
CAF   002.19 002.6 m E Pn      2012/08/22 00:51:00.0   0.2                          T                                        5050162
CAF   002.19 002.6 m E Sn      2012/08/22 00:51:25.8   0.0                          T                                        5050161
CAF   002.19 002.6 m E Sg      2012/08/22 00:51:33.1  -0.1                          T                1.2  .20 Ml 2.0         5050160
LFF   002.36 339.1 m E Pn      2012/08/22 00:51:02.3   0.3                          T                                        5050159
LFF   002.36 339.1 m E Sn      2012/08/22 00:51:30.1   0.4                          T                                        5050158
LFF   002.36 339.1 m E Sg      2012/08/22 00:51:38.7   0.1                          T                1.1  .25 Ml 1.8         5050157
RJF   002.58 353.6 m E Pn      2012/08/22 00:51:04.8  -0.3                          T                                        5050156
RJF   002.58 353.6 m E Sn      2012/08/22 00:51:35.5   0.4                          T                                        5050155
RJF   002.58 353.6 m E Sg      2012/08/22 00:51:45.6   0.1                          T                 .7  .28 Ml 1.4         5050154

.
EVENT     281630
    Date      Time       Latitude Longitude    Depth    Ndef Nsta Gap    Mag1  N    Mag2  N    Mag3  N   Author         ID
       rms   OT_Error      Smajor Sminor Az        Err   mdist  Mdist     Err        Err        Err      Quality

2012/08/22 01:56:03.9     45.2616    7.3574      6.0 f    41   10 130  Ml 1.6  7  Md 1.6  2              bulletin    281730
                                                                                                         _ldg
      0.30   +-  0.06       1.3     .7  103.41 +-  0.0    0.13   2.82   +-0.2      +-0.0                 m i ke

NORTHERN ITALY
Sta     Dist  EvAz     Phase      Date       Time     TRes  Azim  AzRes  Slow  SRes Def   SNR       Amp   Per   Mag1   Mag2       ID
LPG   000.49 299.2 m E Pg      2012/08/22 01:56:13.5  -0.2                          T                                        5050174
LPG   000.49 299.2 m E Sg      2012/08/22 01:56:20.2   0.1                          T                6.5  .20        Md 1.6  5050173
LPL   000.51 300.3 m E Pg      2012/08/22 01:56:14.1   0.1                          T                                        5050176
LPL   000.51 300.3 m E Sg      2012/08/22 01:56:20.7   0.1                          T                4.9  .26        Md 1.6  5050175
MBDF  000.68 218.1 m E Pg      2012/08/22 01:56:16.9  -0.1                          T                                        5050178
MBDF  000.68 218.1 m E Sg      2012/08/22 01:56:25.4  -0.4                          T                8.6  .30                5050177
ORIF  001.10 252.4 m E Pg      2012/08/22 01:56:25.2   0.5                          T                                        5050172
ORIF  001.10 252.4 m E Sg      2012/08/22 01:56:38.8  -0.2                          T                4.1  .36 Ml 1.9         5050169
SBF   001.40 177.7 m E Pn      2012/08/22 01:56:28.9   0.6                          T                                        5050166
SBF   001.40 177.7 m E Sn      2012/08/22 01:56:46.6   0.5                          T                 .8  .19 Ml 1.6         5050165
CABF  001.61 327.2 m E Pn      2012/08/22 01:56:31.5   0.2                          T                                        5050181
CABF  001.61 327.2 m E Pg      2012/08/22 01:56:34.1   0.0                          T                                        5050180
CABF  001.61 327.2 m E Sg      2012/08/22 01:56:54.8  -0.1                          T                1.3  .38 Ml 1.6         5050179
VIVF  001.95 258.9 m E Pn      2012/08/22 01:56:36.4   0.6                          T                                        5050168
VIVF  001.95 258.9 m E Sn      2012/08/22 01:56:59.0  -0.1                          T                                        5057459
VIVF  001.95 258.9 m E Sg      2012/08/22 01:57:05.3   0.1                          T                 .7  .29 Ml 1.6         5050167
LMR   002.02 197.8 m E Pn      2012/08/22 01:56:37.4   0.7                          T                                        5050164
LMR   002.02 197.8 m E Sg      2012/08/22 01:57:07.6   0.1                          T                 .5  .21 Ml 1.6         5050163
SMRF  001.81 225.3 m E Pg      2012/08/22 01:56:37.8   0.2                          T                                        5057457
SMRF  001.81 225.3 m E Sg      2012/08/22 01:57:00.9   0.0                          T                 .3  .23 Ml 1.3         5057458
SMF   002.82 300.7 m E P       2012/08/22 01:56:50.8   0.4                          T                                        5057460

.
EVENT     281668
    Date      Time       Latitude Longitude    Depth    Ndef Nsta Gap    Mag1  N    Mag2  N    Mag3  N   Author         ID
       rms   OT_Error      Smajor Sminor Az        Err   mdist  Mdist     Err        Err        Err      Quality

2012/08/22 10:04:29.3     47.0460    3.5411       .0 f    13    6 108  Ml 1.7  1  Md 1.9  2              bulletin    281768
                                                                                                         _ldg
      0.59   +-  0.11       2.5    1.9  127.74 +-  0.0    0.03   1.19   +-         +-0.2                 m i km

FRANCE
Sta     Dist  EvAz     Phase      Date       Time     TRes  Azim  AzRes  Slow  SRes Def   SNR       Amp   Per   Mag1   Mag2       ID
SSF   000.03 302.9 m E Pg      2012/08/22 10:04:29.8  -0.2                          T                                        5051462
SSF   000.03 302.9 m E Sg      2012/08/22 10:04:30.1  -0.4                          T              431.0  .34        Md 2.0  5051461
AVF   000.29 206.9 m E Pg      2012/08/22 10:04:35.2   0.0                          T                                        5051458
AVF   000.29 206.9 m E Sg      2012/08/22 10:04:38.1  -1.1                          T               26.2  .84                5051457
LOR   000.31 044.2 m E Pg      2012/08/22 10:04:35.5  -0.1 220.7  -3.7              T                                        5057462
LOR   000.31 044.2 m E Sg      2012/08/22 10:04:40.0   0.0 220.4  -4.0              T               49.3  .62        Md 1.7  5057463
SMF   000.45 152.7 m E Pg      2012/08/22 10:04:38.3   0.1                          T                                        5051456
SMF   000.45 152.7 m E Sg      2012/08/22 10:04:45.3   1.0                          T                2.2  .21                5051455
BGF   000.68 224.6 m E Pg      2012/08/22 10:04:42.5   0.1                          T                                        5057461
BGF   000.68 224.6 m E Pn      2012/08/22 10:04:44.8   0.0                          T                                        5051460
BGF   000.68 224.6 m E Sg      2012/08/22 10:04:51.8   0.2                          T               11.1  .53                5051459
TCF   001.19 230.9 m E Pg      2012/08/22 10:04:51.8   0.0                          T                                        5058343
TCF   001.19 230.9 m E Sg      2012/08/22 10:05:07.2  -0.2                          T                1.2  .22 Ml 1.7         5058344

.
EVENT     281665
    Date      Time       Latitude Longitude    Depth    Ndef Nsta Gap    Mag1  N    Mag2  N    Mag3  N   Author         ID
       rms   OT_Error      Smajor Sminor Az        Err   mdist  Mdist     Err        Err        Err      Quality

2012/08/22 12:31:27.0     44.8628    7.2027      7.0 f    22    8 114  Ml 1.4  5  Md 1.4  1              bulletin    281765
                                                                                                         _ldg
      0.16   +-  0.05       1.0     .8   83.93 +-  0.0    0.05   1.80   +-0.2      +-                    m i ke

NORTHERN ITALY
Sta     Dist  EvAz     Phase      Date       Time     TRes  Azim  AzRes  Slow  SRes Def   SNR       Amp   Per   Mag1   Mag2       ID
MBDF  000.34 246.3 m E Pg      2012/08/22 12:31:33.8   0.0                          T                                        5051419
MBDF  000.34 246.3 m E Sg      2012/08/22 12:31:38.4  -0.1                          T                2.7  .33        Md 1.4  5051418
LPG   000.71 333.5 m E Pg      2012/08/22 12:31:40.9   0.1                          T                                        5051413
LPG   000.71 333.5 m E Sg      2012/08/22 12:31:50.1  -0.1                          T                2.9  .27                5051412
LPL   000.73 333.2 m E Pg      2012/08/22 12:31:41.3   0.2                          T                                        5051415
LPL   000.73 333.2 m E Sg      2012/08/22 12:31:50.8   0.0                          T                1.5  .22                5051414
ORIF  000.94 273.8 m E Pg      2012/08/22 12:31:44.8  -0.1                          T                                        5051417
ORIF  000.94 273.8 m E Sg      2012/08/22 12:31:57.2   0.0                          T                1.4  .22 Ml 1.6         5051416
SBF   001.01 170.4 m E Pg      2012/08/22 12:31:46.4   0.2                          T                                        5051409
SBF   001.01 170.4 m E Sg      2012/08/22 12:31:59.1  -0.2                          T                1.2  .20 Ml 1.6         5051408
SMRF  001.46 233.3 m E Pn      2012/08/22 12:31:53.0   0.7                          T                                        5051411
SMRF  001.46 233.3 m E Sn      2012/08/22 12:32:10.3  -0.2                          T                 .3  .19 Ml 1.2         5051410
VIVF  001.80 270.7 m E Pn      2012/08/22 12:31:57.0   0.2                          T                                        5051407
VIVF  001.80 270.7 m E Pg      2012/08/22 12:32:00.4  -0.1                          T                                        5051406
VIVF  001.80 270.7 m E Sn      2012/08/22 12:32:19.0   0.4                          T                 .3  .23 Ml 1.3         5051405
LMR   001.61 198.3 m E Sg      2012/08/22 12:32:17.9   0.1                          T                 .8  .36 Ml 1.4         5058375

.
EVENT     281661
    Date      Time       Latitude Longitude    Depth    Ndef Nsta Gap    Mag1  N    Mag2  N    Mag3  N   Author         ID
       rms   OT_Error      Smajor Sminor Az        Err   mdist  Mdist     Err        Err        Err      Quality

2012/08/22 13:48:33.5     47.7386    3.7550       .0 f    30   12 169  Ml 2.2  9  Md 2.2  2              bulletin    281761
                                                                                                         _ldg
      0.49   +-  0.05       1.4     .6  129.38 +-  0.0    0.48   2.95   +-0.2      +-0.0                 m i km

FRANCE
Sta     Dist  EvAz     Phase      Date       Time     TRes  Azim  AzRes  Slow  SRes Def   SNR       Amp   Per   Mag1   Mag2       ID
LOR   000.48 171.4 m E Pg      2012/08/22 13:48:42.7  -0.1 348.7  -2.8              T                                        5051147
LOR   000.48 171.4 m E Sg      2012/08/22 13:48:49.1  -0.2 347.1  -4.4              T                8.8  .20        Md 2.2  5051146
SSF   000.70 194.1 m E Pg      2012/08/22 13:48:47.0   0.1                          T                                        5051145
SSF   000.70 194.1 m E Pn      2012/08/22 13:48:49.3   0.1                          T                                        5058378
SSF   000.70 194.1 m E Sg      2012/08/22 13:48:56.2   0.0                          T                                        5051141
SSF   000.70 194.1 m E Sn      2012/08/22 13:49:00.3   0.1                          T                6.5  .28        Md 2.1  5058379
HYF   000.89 238.5 m E Pg      2012/08/22 13:48:50.2  -0.3                          T                                        5058406
HYF   000.89 238.5 m E Sn      2012/08/22 13:49:04.7  -0.1                          T                                        5058407
SFTF  000.98 061.1 m E Pg      2012/08/22 13:48:52.1   0.0 238.9  -3.2              T                                        5058411
SFTF  000.98 061.1 m E Sn      2012/08/22 13:49:06.9   0.0                          T                5.1  .27 Ml 2.1         5058412
AVF   000.99 196.3 m E Pg      2012/08/22 13:48:52.2   0.0                          T                                        5051144
AVF   000.99 196.3 m E P       2012/08/22 13:48:54.3  -0.1                          T                                        5058408
AVF   000.99 196.3 m E Sg      2012/08/22 13:49:05.2   0.0                          T                                        5058376
AVF   000.99 196.3 m E Sn      2012/08/22 13:49:07.1   0.1                          T                2.2  .22 Ml 1.8         5051140
SMF   001.10 176.9 m E Pg      2012/08/22 13:48:54.3   0.1                          T                                        5051143
SMF   001.10 176.9 m E P       2012/08/22 13:48:56.0   0.0                          T                                        5058409
SMF   001.10 176.9 m E Sn      2012/08/22 13:49:09.8   0.1                          T                7.9  .30 Ml 2.3         5051139
MEZF  001.16 048.2 m E Pg      2012/08/22 13:48:55.3   0.0 225.2  -4.0              T                                        5051142
MEZF  001.16 048.2 m E P       2012/08/22 13:48:56.8  -0.1 227.2  -2.0              T                                        5058413
MEZF  001.16 048.2 m E Sg      2012/08/22 13:49:10.4  -0.1 226.8  -2.3              T                5.9  .24 Ml 2.3         5058377
BGF   001.33 208.0 m E Pg      2012/08/22 13:48:58.8   0.2                          T                                        5051138
BGF   001.33 208.0 m E Sg      2012/08/22 13:49:16.2   0.1                          T               10.3  .32 Ml 2.5         5051137
TCF   001.80 216.6 m E Pg      2012/08/22 13:49:07.1  -0.1                          T                                        5058380
TCF   001.80 216.6 m E Sg      2012/08/22 13:49:30.6   0.1                          T                1.7  .20 Ml 2.1         5058381
HINF  002.09 086.7 m E Sg      2012/08/22 13:49:39.6  -0.1                          T                1.7  .21 Ml 2.1         5058410
CDF   002.46 072.8 m E Sg      2012/08/22 13:49:51.1  -0.1                          T                1.9  .27 Ml 2.3         5058414
VIVF  002.95 167.2 m E Sn      2012/08/22 13:49:53.9  -0.2                          T                                        5058405
VIVF  002.95 167.2 m E Sg      2012/08/22 13:50:06.6  -0.1                          T                1.8  .32 Ml 2.2         5051136

.
EVENT     281664
    Date      Time       Latitude Longitude    Depth    Ndef Nsta Gap    Mag1  N    Mag2  N    Mag3  N   Author         ID
       rms   OT_Error      Smajor Sminor Az        Err   mdist  Mdist     Err        Err        Err      Quality

2012/08/22 14:14:53.5     45.6449    6.9378      3.0 f    33    7 083  Ml 1.8  6  Md 1.8  3              bulletin    281764
                                                                                                         _ldg
      0.16   +-  0.03        .7     .5  136.35 +-  0.0    0.06   2.09   +-0.2      +-0.1                 m i ke

FRANCE
Sta     Dist  EvAz     Phase      Date       Time     TRes  Azim  AzRes  Slow  SRes Def   SNR       Amp   Per   Mag1   Mag2       ID
LPL   000.19 228.4 m E Pg      2012/08/22 14:14:57.7  -0.1                          T                                        5051296
LPL   000.19 228.4 m E Sg      2012/08/22 14:15:00.3  -0.2                          T               19.5  .32        Md 1.8  5051295
LPG   000.20 221.7 m E Pg      2012/08/22 14:14:57.9  -0.1                          T                                        5051294
LPG   000.20 221.7 m E Sg      2012/08/22 14:15:00.7   0.0                          T                8.6  .16        Md 1.8  5051293
MBDF  000.93 187.4 m E Pg      2012/08/22 14:15:11.1   0.0                          T                                        5051290
MBDF  000.93 187.4 m E Sg      2012/08/22 14:15:23.1   0.0                          T                2.7  .28 Ml 1.8 Md 1.7  5051289
ORIF  001.04 226.2 m E Pg      2012/08/22 14:15:13.2   0.0                          T                                        5051292
ORIF  001.04 226.2 m E Sg      2012/08/22 14:15:26.6  -0.1                          T                1.8  .28 Ml 1.6         5051291
VIVF  001.78 244.6 m E Pn      2012/08/22 14:15:23.6   0.0                          T                                        5051288
VIVF  001.78 244.6 m E Sn      2012/08/22 14:15:45.5   0.1                          T                1.0  .25 Ml 1.8         5051287
SMRF  001.93 210.6 m E Pn      2012/08/22 14:15:25.7   0.2                          T                                        5051286
SMRF  001.93 210.6 m E Sn      2012/08/22 14:15:49.1   0.2                          T                                        5051285
SMRF  001.93 210.6 m E Sg      2012/08/22 14:15:54.2  -0.1                          T                 .6  .20 Ml 1.7         5051284
FRF   002.09 185.8 m E Pn      2012/08/22 14:15:28.0   0.3                          T                                        5051283
FRF   002.09 185.8 m E Sn      2012/08/22 14:15:52.9   0.1                          T                3.0  .34 Ml 2.2         5051282

.
