EVENT     259237
    Date      Time       Latitude Longitude    Depth    Ndef Nsta Gap    Mag1  N    Mag2  N    Mag3  N   Author         ID
       rms   OT_Error      Smajor Sminor Az        Err   mdist  Mdist     Err        Err        Err      Quality

2011/05/13 03:59:04.9     51.5120   16.2471      1.0 f   171   34 038  Ml 4.5 34                         js067245    259237

      0.91   +-  0.09       2.5    1.7  175.93 +-  0.0    0.67  18.61   +-0.2                            m i sr

POLAND
Sta     Dist  EvAz     Phase      Date       Time     TRes  Azim  AzRes  Slow  SRes Def   SNR       Amp   Per   Mag1   Mag2       ID
LANF  005.98 248.2 m E Pn      2011/05/13 04:00:34.1   1.9                          T                                        4690545
LANF  005.98 248.2 m E Pg      2011/05/13 04:00:55.2  -0.2                          T                                        4690510
LANF  005.98 248.2 m E Sg      2011/05/13 04:02:11.7  -0.4                          T              515.2 1.19 Ml 4.7         4690539
RUP   006.12 256.4 m E Pn      2011/05/13 04:00:35.9   1.6                          T                                        4690546
RUP   006.12 256.4 m E Pg      2011/05/13 04:00:58.0  -0.2                          T                                        4690511
RUP   006.12 256.4 m E Sg      2011/05/13 04:02:16.9   0.3                          T                                        4690499
CDF   006.57 245.3 m E Pn      2011/05/13 04:00:41.0   0.6                          T                                        4690544
CDF   006.57 245.3 m E Sg      2011/05/13 04:02:30.1  -0.5                          T              261.2  .98 Ml 4.7         4690498
HINF  007.13 242.4 m E Pn      2011/05/13 04:00:47.6  -0.4                          T                                        4690540
HINF  007.13 242.4 m E Sg      2011/05/13 04:02:48.3   0.2                          T              163.2  .96 Ml 4.5         4690493
GIVF  007.38 263.4 m E Pn      2011/05/13 04:00:51.1  -0.2                          T                                        4690536
GIVF  007.38 263.4 m E Sg      2011/05/13 04:02:55.8   0.1                          T              245.8 1.14 Ml 4.6         4690501
PAGF  007.39 250.5 m E Pn      2011/05/13 04:00:51.3  -0.3  73.2  10.7              T                                        4690534
PAGF  007.39 250.5 m E Pg      2011/05/13 04:01:28.6   7.1                          T                                        4690826
PAGF  007.39 250.5 m E Sg      2011/05/13 04:02:56.1  -0.1                          T               52.7 1.09 Ml 4.0         4690497
HAU   007.31 245.2 m E Pn      2011/05/13 04:00:52.0   1.6                          T                                        4690541
HAU   007.31 245.2 m E Pg      2011/05/13 04:01:24.6   4.7                          T                                        4690828
HAU   007.31 245.2 m E Sg      2011/05/13 04:02:53.7   0.1                          T              137.3  .98 Ml 4.2         4690494
BAIF  007.77 263.9 m E Pn      2011/05/13 04:00:56.2  -0.4                          T                                        4690535
BAIF  007.77 263.9 m E Sg      2011/05/13 04:03:07.6  -0.3                          T              191.5 1.14 Ml 4.6         4690500
MEZF  007.82 251.7 m E Pn      2011/05/13 04:00:58.3   1.0  71.9  8.8               T                                        4690533
MEZF  007.82 251.7 m E Sg      2011/05/13 04:03:09.3  -0.1                          T              187.1 1.10 Ml 4.6         4690496
SFTF  007.96 249.8 m E Pn      2011/05/13 04:00:59.6   0.3                          T                                        4690532
SFTF  007.96 249.8 m E Pg      2011/05/13 04:01:37.4   5.4                          T                                        4690827
SFTF  007.96 249.8 m E Sg      2011/05/13 04:03:14.1   0.1                          T              313.8 1.32 Ml 4.8         4690495
CABF  008.28 237.6 m E Pn      2011/05/13 04:01:03.6  -0.1                          T                                        4690531
CABF  008.28 237.6 m E Sg      2011/05/13 04:03:23.8  -0.2                          T              261.2 1.12 Ml 4.8         4690492
LPL   008.71 230.2 m E Pn      2011/05/13 04:01:12.4   2.7                          T                                        4690516
LPL   008.71 230.2 m E Sg      2011/05/13 04:03:37.2  -0.2                          T              103.5 1.34 Ml 4.4         4690508
LPG   008.71 230.0 m E Pn      2011/05/13 04:01:13.5   3.7                          T                                        4690515
LPG   008.71 230.0 m E Sg      2011/05/13 04:03:37.2  -0.4                          T               93.9 1.14 Ml 4.4         4690509
LOR   009.13 247.1 m E Pn      2011/05/13 04:01:16.2   1.1  63.2  5.5               T                                        4690543
LOR   009.13 247.1 m E Sg      2011/05/13 04:03:50.2  -0.1                          T              163.8 1.32 Ml 4.7         4690503
MBDF  009.28 226.7 m E Pn      2011/05/13 04:01:18.3   0.9                          T                                        4690518
MBDF  009.28 226.7 m E Sg      2011/05/13 04:03:55.0  -0.3                          T               38.5  .88 Ml 4.3         4690506
SSF   009.44 246.8 m E Pn      2011/05/13 04:01:18.9  -0.5                          T                                        4690542
SSF   009.44 246.8 m E Sg      2011/05/13 04:03:59.8  -0.2                          T              112.2 1.26 Ml 4.7         4690502
SMF   009.48 243.9 m E Pn      2011/05/13 04:01:20.1   0.1                          T                                        4690529
SMF   009.48 243.9 m E Sg      2011/05/13 04:04:01.5   0.0                          T               56.3  .96 Ml 4.4         4690490
AVF   009.68 245.8 m E Pn      2011/05/13 04:01:22.5  -0.1                          T                                        4690530
AVF   009.68 245.8 m E Sg      2011/05/13 04:04:07.5   0.1                          T               93.8 1.16 Ml 4.6         4690491
ORIF  009.55 230.4 m E Pn      2011/05/13 04:01:23.9   2.9                          T                                        4690517
ORIF  009.55 230.4 m E Sg      2011/05/13 04:04:03.6  -0.2                          T               79.7 1.20 Ml 4.5         4690507
SBF   009.68 221.2 m E Pn      2011/05/13 04:01:25.7   2.9                          T                                        4690512
BGF   010.10 245.8 m E Pn      2011/05/13 04:01:28.2  -0.1                          T                                        4690528
BGF   010.10 245.8 m E Sg      2011/05/13 04:04:20.4  -0.2                          T               58.9  .72 Ml 4.7         4690488
VIVF  010.19 233.7 m E Pn      2011/05/13 04:01:30.8   1.1                          T                                        4690519
VIVF  010.19 233.7 m E Sg      2011/05/13 04:04:23.4  -0.3                          T               52.4 1.16 Ml 4.4         4690505
FRF   010.26 222.9 m E Pn      2011/05/13 04:01:34.2   3.7                          T                                        4690514
TCF   010.61 246.0 m E Pn      2011/05/13 04:01:36.1   0.7                          T                                        4690537
TCF   010.61 246.0 m E Sg      2011/05/13 04:04:36.6  -0.1                          T               44.8  .94 Ml 4.5         4690538
LMR   010.50 222.6 m E Pn      2011/05/13 04:01:36.9   3.1                          T                                        4690513
LDF   010.92 260.9 m E Pn      2011/05/13 04:01:39.3  -0.2                          T                                        4690527
LDF   010.92 260.9 m E Sg      2011/05/13 04:04:46.5   0.1                          T               55.1 1.22 Ml 4.5         4690486
LASF  011.16 233.0 m E Pn      2011/05/13 04:01:44.5   1.7                          T                                        4690520
LASF  011.16 233.0 m E Sg      2011/05/13 04:04:53.2  -0.6                          T               91.8 1.50 Ml 4.7         4690504
GRR   011.45 260.9 m E Pn      2011/05/13 04:01:46.9   0.1                          T                                        4690526
GRR   011.45 260.9 m E Sg      2011/05/13 04:05:02.5  -0.4                          T               80.6 1.38 Ml 4.6         4690485
CAF   011.52 240.7 m E Pn      2011/05/13 04:01:47.4  -0.4                          T                                        4690523
CAF   011.52 240.7 m E Sg      2011/05/13 04:05:05.1   0.1                          T               43.4 1.14 Ml 4.5         4690481
RJF   011.58 243.3 m E Pn      2011/05/13 04:01:48.5  -0.1                          T                                        4690524
RJF   011.58 243.3 m E Sg      2011/05/13 04:05:06.6  -0.4                          T               54.4 1.06 Ml 4.3         4690483
MFF   011.82 251.9 m E Pn      2011/05/13 04:01:51.3  -0.4                          T                                        4690525
MFF   011.82 251.9 m E Sg      2011/05/13 04:05:14.3   0.0                          T               60.4 1.32 Ml 4.8         4690484
LFF   012.24 243.6 m E Pn      2011/05/13 04:01:57.2  -0.3                          T                                        4690522
LFF   012.24 243.6 m E Sg      2011/05/13 04:05:27.2  -0.3                          T               40.0  .96 Ml 4.5         4690482
MTLF  012.52 234.7 m E Pn      2011/05/13 04:02:01.2  -0.1                          T                                        4690521
MTLF  012.52 234.7 m E Sg      2011/05/13 04:05:35.8  -0.2                          T               46.9 1.50 Ml 4.5         4690480
HYF   009.83 249.7 m E Sg      2011/05/13 04:04:12.2  -0.2                          T                                        4690489

.
EVENT     259239
    Date      Time       Latitude Longitude    Depth    Ndef Nsta Gap    Mag1  N    Mag2  N    Mag3  N   Author         ID
       rms   OT_Error      Smajor Sminor Az        Err   mdist  Mdist     Err        Err        Err      Quality

2011/05/13 06:11:59.9     43.2185     .0782      2.0       9    4 180  Ml 1.4  2  Md 1.4  2              js067245    259239

      0.25   +-  0.12       4.5    1.6  176.08 +-  0.0    0.27   1.57   +-0.3      +-0.1                 m i ke

FRANCE
Sta     Dist  EvAz     Phase      Date       Time     TRes  Azim  AzRes  Slow  SRes Def   SNR       Amp   Per   Mag1   Mag2       ID
EPF   000.27 134.4 m E Pg      2011/05/13 06:12:05.6   0.3                          T                                        4690554
EPF   000.27 134.4 m E Sg      2011/05/13 06:12:08.2  -0.7                          T               16.3  .18        Md 1.4  4690551
ETSF  000.57 235.8 m E Pg      2011/05/13 06:12:10.8   0.0                          T                                        4690553
ETSF  000.57 235.8 m E Sg      2011/05/13 06:12:16.9  -1.3                          T                4.5  .20        Md 1.3  4690552
SJPF  000.96 264.2 m E Pg      2011/05/13 06:12:18.0   0.0                          T                                        4690547
SJPF  000.96 264.2 m E Sg      2011/05/13 06:12:30.2  -0.2                          T                 .7  .24 Ml 1.3         4690549
MTLF  001.57 084.8 m E Pg      2011/05/13 06:12:29.0  -0.2                          T                                        4690548
MTLF  001.57 084.8 m E Sg      2011/05/13 06:12:49.5   0.2                          T                 .8  .22 Ml 1.6         4690550

.
EVENT     259258
    Date      Time       Latitude Longitude    Depth    Ndef Nsta Gap    Mag1  N    Mag2  N    Mag3  N   Author         ID
       rms   OT_Error      Smajor Sminor Az        Err   mdist  Mdist     Err        Err        Err      Quality

2011/05/13 07:29:49.7     43.0287     .3464      2.0     100   16 065  Ml 2.8 17  Md 2.8  3              js067245    259258

      0.77   +-  0.07       1.5    1.2  160.51 +-  0.0    0.00   4.91   +-0.2      +-0.0                 m i ke

FRANCE
Sta     Dist  EvAz     Phase      Date       Time     TRes  Azim  AzRes  Slow  SRes Def   SNR       Amp   Per   Mag1   Mag2       ID
EPF   000.00 289.3 m E Pg      2011/05/13 07:29:50.2  -0.1                          T                                        4690728
EPF   000.00 289.3 m E Sg      2011/05/13 07:29:50.7   0.0                          T             2266.5  .18        Md 2.8  4690727
ETSF  000.68 259.2 m E Pg      2011/05/13 07:30:01.5  -1.1                          T                                        4690722
ETSF  000.68 259.2 m E Sg      2011/05/13 07:30:09.8  -1.6                          T               65.0  .22        Md 2.8  4690726
SJPF  001.15 274.7 m E Pg      2011/05/13 07:30:09.9  -1.4                          T                                        4690723
SJPF  001.15 274.7 m E Sg      2011/05/13 07:30:25.5  -0.7                          T               18.2  .36 Ml 2.6 Md 2.8  4690724
MTLF  001.40 076.5 m E Pg      2011/05/13 07:30:16.6   0.7                          T                                        4690721
MTLF  001.40 076.5 m E Sg      2011/05/13 07:30:36.4   2.4                          T               37.9  .26 Ml 3.2         4690725
LFF   001.93 008.3 m E Pn      2011/05/13 07:30:21.3  -0.4                          T                                        4690709
LFF   001.93 008.3 m E Pg      2011/05/13 07:30:25.0  -0.6                          T                                        4690720
LFF   001.93 008.3 m E Sg      2011/05/13 07:30:50.2  -0.2                          T               21.1  .32 Ml 2.8         4690719
CAF   002.27 032.6 m E Pn      2011/05/13 07:30:26.7   0.3                          T                                        4690708
CAF   002.27 032.6 m E Pg      2011/05/13 07:30:32.5   0.7                          T                                        4690707
CAF   002.27 032.6 m E Sn      2011/05/13 07:30:53.7   0.5                          T                                        4690765
CAF   002.27 032.6 m E Sg      2011/05/13 07:31:01.5   0.5                          T                8.5  .24 Ml 2.8         4690718
RJF   002.43 019.9 m E Pn      2011/05/13 07:30:28.4  -0.1                          T                                        4690710
RJF   002.43 019.9 m E Pg      2011/05/13 07:30:34.6  -0.1                          T                                        4690711
RJF   002.43 019.9 m E Sg      2011/05/13 07:31:06.1   0.1                          T                7.5  .20 Ml 2.5         4690717
LASF  002.76 066.5 m E Pn      2011/05/13 07:30:33.2   0.2                          T                                        4690705
LASF  002.76 066.5 m E Pg      2011/05/13 07:30:41.1   0.3                          T                                        4690706
LASF  002.76 066.5 m E Sg      2011/05/13 07:31:17.3   1.0                          T                9.7  .42 Ml 2.7         4690716
TCF   003.52 021.6 m E Pn      2011/05/13 07:30:43.3  -0.2                          T                                        4690771
TCF   003.52 021.6 m E Sn      2011/05/13 07:31:23.2   0.0                          T                                        4690768
TCF   003.52 021.6 m E Sg      2011/05/13 07:31:40.2   0.1                          T                3.4  .26 Ml 2.7         4690778
MFF   003.59 354.6 m E Pn      2011/05/13 07:30:43.9  -0.5                          T                                        4690713
MFF   003.59 354.6 m E Pg      2011/05/13 07:30:55.6  -0.6                          T                                        4690712
MFF   003.59 354.6 m E Sg      2011/05/13 07:31:41.5  -0.7                          T                3.3  .24 Ml 2.9         4690714
VIVF  003.62 058.2 m E Pn      2011/05/13 07:30:45.0   0.2                          T                                        4690704
VIVF  003.62 058.2 m E Pg      2011/05/13 07:30:57.2   0.5                          T                                        4690703
VIVF  003.62 058.2 m E Sg      2011/05/13 07:31:44.1   0.9                          T                2.5  .28 Ml 2.5         4690715
BGF   003.95 025.9 m E Pn      2011/05/13 07:30:49.0  -0.3                          T                                        4690774
BGF   003.95 025.9 m E Sg      2011/05/13 07:31:53.8   0.2                          T               16.0  .42 Ml 3.2         4690780
AVF   004.33 028.5 m E Pn      2011/05/13 07:30:54.4   0.1                          T                                        4690772
AVF   004.33 028.5 m E Sg      2011/05/13 07:32:05.7   0.5                          T                5.5  .60 Ml 2.7         4690779
SMF   004.39 033.3 m E Pn      2011/05/13 07:30:55.1  -0.1                          T                                        4690773
SSF   004.61 027.9 m E Pn      2011/05/13 07:30:58.2  -0.1                          T                                        4690770
SSF   004.61 027.9 m E Sg      2011/05/13 07:32:14.3   0.2                          T                2.6  .35 Ml 2.7         4690777
LOR   004.91 029.2 m E Pn      2011/05/13 07:31:02.1  -0.3                          T                                        4690769
LOR   004.91 029.2 m E Sn      2011/05/13 07:31:56.6   0.1                          T                                        4690767
LOR   004.91 029.2 m E Sg      2011/05/13 07:32:23.8   0.3                          T                4.9  .54 Ml 2.8         4690776

.
EVENT     259259
    Date      Time       Latitude Longitude    Depth    Ndef Nsta Gap    Mag1  N    Mag2  N    Mag3  N   Author         ID
       rms   OT_Error      Smajor Sminor Az        Err   mdist  Mdist     Err        Err        Err      Quality

2011/05/13 09:52:48.7     43.3024     .2181      2.0 f    10    4 187  Ml 1.6  2  Md 1.7  3              js067245    259259

      0.19   +-  0.06       1.8     .9  169.99 +-  0.0    0.29   1.46   +-0.3      +-0.0                 m i ke

FRANCE
Sta     Dist  EvAz     Phase      Date       Time     TRes  Azim  AzRes  Slow  SRes Def   SNR       Amp   Per   Mag1   Mag2       ID
EPF   000.29 161.8 m E Pg      2011/05/13 09:52:54.3  -0.1                          T                                        4690805
EPF   000.29 161.8 m E Sg      2011/05/13 09:52:57.7  -0.6                          T               36.0  .14        Md 1.7  4690804
ETSF  000.70 234.9 m E Pg      2011/05/13 09:53:02.1   0.1                          T                                        4690802
ETSF  000.70 234.9 m E Sg      2011/05/13 09:53:11.2   0.1                          T                2.9  .38        Md 1.7  4690803
SJPF  001.07 260.3 m E Pg      2011/05/13 09:53:08.7  -0.1                          T                                        4690798
SJPF  001.07 260.3 m E Sg      2011/05/13 09:53:22.6  -0.2                          T                1.1  .32 Ml 1.4 Md 1.7  4690801
MTLF  001.46 087.8 m E Pn      2011/05/13 09:53:14.4   0.0                          T                                        4690799
MTLF  001.46 087.8 m E Sn      2011/05/13 09:53:33.0   0.0                          T                                        4690800

.
