EVENT     255940
    Date      Time       Latitude Longitude    Depth    Ndef Nsta Gap    Mag1  N    Mag2  N    Mag3  N   Author         ID
       rms   OT_Error      Smajor Sminor Az        Err   mdist  Mdist     Err        Err        Err      Quality

2011/02/12 06:44:32.8     42.5982     .8916      3.0 f    57   14 047  Ml 2.3 16  Md 2.3  3              js067245    255960

      0.30   +-  0.04        .7     .7   48.96 +-  0.0    0.27   5.92   +-0.2      +-0.0                 m i ke

PYRENEES
Sta     Dist  EvAz     Phase      Date       Time     TRes  Azim  AzRes  Slow  SRes Def   SNR       Amp   Per   Mag1   Mag2       ID
EPF   000.59 317.0 m E Pg      2011/02/12 06:44:43.9  -0.2                          T                                        4646225
EPF   000.59 317.0 m E Sg      2011/02/12 06:44:51.3  -0.6                          T               29.4  .22        Md 2.3  4646224
ETSF  001.11 286.2 m E Pg      2011/02/12 06:44:53.3  -0.4                          T                                        4646221
ETSF  001.11 286.2 m E Sg      2011/02/12 06:45:08.0  -0.1                          T                5.8  .20 Ml 2.3 Md 2.3  4646242
MTLF  001.22 052.2 m E Pg      2011/02/12 06:44:55.5  -0.2                          T                                        4646222
MTLF  001.22 052.2 m E Sg      2011/02/12 06:45:11.5  -0.1                          T               10.6  .38 Ml 2.4 Md 2.2  4646223
SJPF  001.64 289.0 m E Pn      2011/02/12 06:45:01.0   0.2                          T                                        4646249
SJPF  001.64 289.0 m E Pg      2011/02/12 06:45:03.5   0.1                          T                                        4646259
SJPF  001.64 289.0 m E Sg      2011/02/12 06:45:25.0   0.5                          T                4.6  .29 Ml 2.3         4646241
LFF   002.34 357.4 m E Pn      2011/02/12 06:45:10.6   0.2                          T                                        4646252
LFF   002.34 357.4 m E Pg      2011/02/12 06:45:16.2  -0.1                          T                                        4646258
LFF   002.34 357.4 m E Sg      2011/02/12 06:45:46.5   0.1                          T                5.2  .30 Ml 2.4         4646240
CAF   002.48 019.7 m E Pn      2011/02/12 06:45:12.1  -0.2                          T                                        4646250
CAF   002.48 019.7 m E Pg      2011/02/12 06:45:18.6  -0.2                          T                                        4646220
CAF   002.48 019.7 m E Sg      2011/02/12 06:45:50.6  -0.1                          T                2.7  .22 Ml 2.4         4646218
LASF  002.62 054.7 m E Pn      2011/02/12 06:45:14.2   0.0                          T                                        4646248
LASF  002.62 054.7 m E Pg      2011/02/12 06:45:21.4  -0.1                          T                                        4646247
LASF  002.62 054.7 m E Sg      2011/02/12 06:45:55.0  -0.2                          T                1.6  .20 Ml 2.2         4646243
RJF   002.74 009.3 m E Pn      2011/02/12 06:45:16.0   0.1                          T                                        4646251
RJF   002.74 009.3 m E Pg      2011/02/12 06:45:23.8   0.1                          T                                        4646219
RJF   002.74 009.3 m E Sg      2011/02/12 06:45:58.9  -0.1                          T                2.4  .19 Ml 2.1         4646239
VIVF  003.55 049.2 m E Pn      2011/02/12 06:45:27.0   0.1                          T                                        4646245
VIVF  003.55 049.2 m E Pg      2011/02/12 06:45:38.5  -0.1                          T                                        4646246
VIVF  003.55 049.2 m E Sg      2011/02/12 06:46:24.0  -0.2                          T                  1  .23 Ml 2.2         4646244
TCF   003.81 013.9 m E Pn      2011/02/12 06:45:30.4   0.0                          T                                        4646232
TCF   003.81 013.9 m E Pg      2011/02/12 06:45:43.3   0.0                          T                                        4646233
TCF   003.81 013.9 m E Sg      2011/02/12 06:46:32.3   0.0                          T                 .5  .28 Ml 1.9         4646234
MFF   004.07 349.9 m E Pn      2011/02/12 06:45:33.9   0.0                          T                                        4646231
MFF   004.07 349.9 m E Sn      2011/02/12 06:46:19.7   0.4                          T                 .8  .23 Ml 2.4         4646230
BGF   004.20 018.8 m E Pn      2011/02/12 06:45:35.8   0.2                          T                                        4646255
BGF   004.20 018.8 m E Sg      2011/02/12 06:46:44.4   0.1                          T                5.5  .47 Ml 2.8         4646236
SMF   004.56 026.5 m E Pn      2011/02/12 06:45:40.7   0.1                          T                                        4646254
SMF   004.56 026.5 m E Sg      2011/02/12 06:46:55.7   0.0                          T                 .7  .26 Ml 2.2         4646235
GRR   005.92 348.6 m E Pn      2011/02/12 06:45:59.2   0.1                          T                                        4646253
GRR   005.92 348.6 m E Sn      2011/02/12 06:47:03.6   0.2                          T                 .4  .28 Ml 2.1         4646238

.
EVENT     255930
    Date      Time       Latitude Longitude    Depth    Ndef Nsta Gap    Mag1  N    Mag2  N    Mag3  N   Author         ID
       rms   OT_Error      Smajor Sminor Az        Err   mdist  Mdist     Err        Err        Err      Quality

2011/02/12 10:46:48.0     44.6541    6.6983      4.0 f    20    9 110  Ml 2.1  6  Md 2.0  3              js067245    255950

      0.47   +-  0.08       1.7    1.2   87.02 +-  0.0    0.09   1.46   +-0.2      +-0.0                 m i ke

FRANCE
Sta     Dist  EvAz     Phase      Date       Time     TRes  Azim  AzRes  Slow  SRes Def   SNR       Amp   Per   Mag1   Mag2       ID
MBDF  000.09 035.6 m E Pg      2011/02/12 10:46:50.5   0.2                          T                                        4646279
MBDF  000.09 035.6 m E Sg      2011/02/12 10:46:51.6  -0.2                          T               84.3  .34        Md 2.0  4646273
ORIF  000.64 294.7 m E Pg      2011/02/12 10:47:00.1  -0.2                          T                                        4646278
ORIF  000.64 294.7 m E Sg      2011/02/12 10:47:08.1  -0.6                          T                7.9  .24        Md 2.0  4646272
LPG   000.84 002.5 m E Pg      2011/02/12 10:47:04.4   0.2                          T                                        4646266
LPG   000.84 002.5 m E Sg      2011/02/12 10:47:15.2   0.0                          T                2.4  .20        Md 2.0  4646262
LPL   000.86 001.6 m E Pg      2011/02/12 10:47:04.6   0.0                          T                                        4646267
LPL   000.86 001.6 m E Sg      2011/02/12 10:47:15.4  -0.3                          T                3.2  .26 Ml 1.8         4646263
SBF   000.95 145.9 m E Pg      2011/02/12 10:47:05.7  -0.3                          T                                        4646275
SBF   000.95 145.9 m E Sg      2011/02/12 10:47:18.0  -0.3                          T               10.9  .33 Ml 2.3         4646268
SMRF  001.05 230.3 m E Pg      2011/02/12 10:47:08.3   0.6                          T                                        4646277
FRF   001.09 182.0 m E Pg      2011/02/12 10:47:08.3  -0.1                          T                                        4646276
SMRF  001.05 230.3 m E Sg      2011/02/12 10:47:21.7   0.3                          T                5.3  .30 Ml 2.1         4646271
FRF   001.09 182.0 m E Sg      2011/02/12 10:47:22.7   0.1                          T                3.8  .21 Ml 2.2         4646270
LMR   001.33 186.0 m E Pg      2011/02/12 10:47:12.7  -0.1                          T                                        4646274
LMR   001.33 186.0 m E Sg      2011/02/12 10:47:30.0   0.1                          T                8.4  .39 Ml 2.3         4646269
VIVF  001.46 278.7 m E Pg      2011/02/12 10:47:15.4   0.2                          T                                        4646265
VIVF  001.46 278.7 m E Sg      2011/02/12 10:47:34.4   0.3                          T                4.7  .48 Ml 2.0         4646264

.
EVENT     255931
    Date      Time       Latitude Longitude    Depth    Ndef Nsta Gap    Mag1  N    Mag2  N    Mag3  N   Author         ID
       rms   OT_Error      Smajor Sminor Az        Err   mdist  Mdist     Err        Err        Err      Quality

2011/02/12 11:10:37.8     43.8679   17.2627      2.0      59   21 144  Ml 3.3 21                         js067245    255951

      0.56   +-  0.06       2.6    1.0   33.14 +-  0.0    1.34  10.18   +-0.3                            m i ke

NORTHWESTERN BALKAN PEN.
Sta     Dist  EvAz     Phase      Date       Time     TRes  Azim  AzRes  Slow  SRes Def   SNR       Amp   Per   Mag1   Mag2       ID
PGF   006.18 260.5 m E Pn      2011/02/12 11:12:08.0   0.1                          T                                        4646317
PGF   006.18 260.5 m E Sn      2011/02/12 11:13:15.1   0.1                          T                  1  .32 Ml 2.9         4646286
SBF   007.10 273.4 m E Pn      2011/02/12 11:12:20.6   0.2                          T                                        4646318
SBF   007.10 273.4 m E Sn      2011/02/12 11:13:37.2   0.2                          T                6.6  .51 Ml 3.4         4646288
MBDF  007.58 280.1 m E Pn      2011/02/12 11:12:26.9  -0.1                          T                                        4646325
MBDF  007.58 280.1 m E Sn      2011/02/12 11:13:48.5   0.1                          T               15.6  .82 Ml 3.6         4646294
FRF   007.70 271.4 m E Pn      2011/02/12 11:12:28.5   0.0                          T                                        4646320
FRF   007.70 271.4 m E Sn      2011/02/12 11:13:51.2   0.0                          T                5.0  .56 Ml 3.4         4646289
LPG   007.67 285.9 m E Pn      2011/02/12 11:12:28.5   0.1                          T                                        4646322
LPG   007.67 285.9 m E Sn      2011/02/12 11:13:50.8   0.0                          T               29.7  .94 Ml 3.9         4646291
LPL   007.68 286.0 m E Pn      2011/02/12 11:12:28.7   0.2                          T                                        4646323
LPL   007.68 286.0 m E Sn      2011/02/12 11:13:51.3   0.2                          T               12.3  .53 Ml 3.7         4646292
LMR   007.82 269.8 m E Pn      2011/02/12 11:12:30.0  -0.1                          T                                        4646319
LMR   007.82 269.8 m E Sn      2011/02/12 11:13:54.0  -0.2                          T                2.3  .45 Ml 3.1         4646287
ORIF  008.22 281.3 m E Pn      2011/02/12 11:12:35.8   0.1                          T                                        4646324
ORIF  008.22 281.3 m E Sn      2011/02/12 11:14:03.7  -0.1                          T                8.2  .50 Ml 3.7         4646293
HINF  008.27 302.1 m E Pn      2011/02/12 11:12:36.1  -0.2                          T                                        4646313
HINF  008.27 302.1 m E Sn      2011/02/12 11:14:04.9   0.0                          T                2.1  .35 Ml 3.2         4646298
LANF  008.29 311.4 m E Pn      2011/02/12 11:12:36.5   0.0                          T                                        4646308
LANF  008.29 311.4 m E Sn      2011/02/12 11:14:05.3  -0.1                          T                3.0  .40 Ml 3.3         4646301
CDF   008.29 306.7 m E Pn      2011/02/12 11:12:36.7   0.0                          T                                        4646311
CDF   008.29 306.7 m E Sn      2011/02/12 11:14:05.4   0.0                          T                1.4  .35 Ml 3.2         4646300
CABF  008.35 293.1 m E Pn      2011/02/12 11:12:37.6   0.2                          T                                        4646314
CABF  008.35 293.1 m E Sn      2011/02/12 11:14:06.8  -0.1                          T                  1  .38 Ml 2.9         4646297
SMRF  008.44 274.8 m E Pn      2011/02/12 11:12:38.5  -0.1                          T                                        4646321
SMRF  008.44 274.8 m E Sn      2011/02/12 11:14:08.9  -0.1                          T                1.0  .24 Ml 3.1         4646290
HAU   008.66 302.4 m E Pn      2011/02/12 11:12:41.6   0.1                          T                                        4646312
HAU   008.66 302.4 m E Sn      2011/02/12 11:14:14.2   0.1                          T                3.7  .42 Ml 3.2         4646299
VIVF  009.08 280.6 m E Pn      2011/02/12 11:12:47.0  -0.2                          T                                        4646316
VIVF  009.08 280.6 m E Sn      2011/02/12 11:14:24.3   0.2                          T                2.3  .46 Ml 3.3         4646295
RUP   009.11 313.4 m E Pn      2011/02/12 11:12:47.6  -0.1                          T                                        4646307
RUP   009.11 313.4 m E Sn      2011/02/12 11:14:25.0   0.1                          T                                        4646302
PAGF  009.27 304.4 m E Pn      2011/02/12 11:12:49.9   0.1                          T                                        4646310
SFTF  009.54 301.3 m E Pn      2011/02/12 11:12:53.7   0.2 120.1  7.6               T                                        4646309
LASF  009.67 275.9 m E Pn      2011/02/12 11:12:55.2  -0.2                          T                                        4646315
LASF  009.67 275.9 m E Sn      2011/02/12 11:14:38.2  -0.1                          T                 .6  .31 Ml 3.0         4646296
LOR   010.00 294.6 m E Pn      2011/02/12 11:12:59.8   0.0 112.0  7.0               T                                        4646306
LOR   010.00 294.6 m E Sn      2011/02/12 11:14:46.0  -0.1                          T                4.8  .56 Ml 3.7         4646304
SSF   010.18 293.1 m E Pn      2011/02/12 11:13:02.2   0.0                          T                                        4646305
SSF   010.18 293.1 m E Sn      2011/02/12 11:14:50.3  -0.1                          T                2.1  .52 Ml 3.5         4646303

.
EVENT     255941
    Date      Time       Latitude Longitude    Depth    Ndef Nsta Gap    Mag1  N    Mag2  N    Mag3  N   Author         ID
       rms   OT_Error      Smajor Sminor Az        Err   mdist  Mdist     Err        Err        Err      Quality

2011/02/12 17:40:31.7     43.1004    -.5318      2.0      58   14 073  Ml 2.8 13  Md 2.8  3              js067245    255961

      0.77   +-  0.08       1.7    1.3  163.77 +-  0.0    0.11   4.71   +-0.2      +-0.0                 m i ke

PYRENEES
Sta     Dist  EvAz     Phase      Date       Time     TRes  Azim  AzRes  Slow  SRes Def   SNR       Amp   Per   Mag1   Mag2       ID
ETSF  000.20 185.7 m E Pg      2011/02/12 17:40:35.5  -0.4                          T                                        4646362
ETSF  000.20 185.7 m E Sg      2011/02/12 17:40:37.8  -0.8                          T              437.1  .26        Md 2.8  4646358
SJPF  000.51 271.7 m E Pg      2011/02/12 17:40:41.1  -0.3                          T                                        4646361
SJPF  000.51 271.7 m E Sg      2011/02/12 17:40:48.3   0.2                          T               45.3  .26        Md 2.8  4646359
EPF   000.64 096.0 m E Pg      2011/02/12 17:40:43.4  -0.5                          T                                        4646360
EPF   000.64 096.0 m E Sg      2011/02/12 17:40:51.5  -0.8                          T               29.8  .22        Md 2.7  4646357
MTLF  002.02 082.2 m E Pn      2011/02/12 17:41:05.4   0.3                          T                                        4646349
MTLF  002.02 082.2 m E Pg      2011/02/12 17:41:08.5  -0.8                          T                                        4646354
MTLF  002.02 082.2 m E S       2011/02/12 17:41:34.3   0.8                          T                 10  .36                4646353
LFF   002.05 026.1 m E Pg      2011/02/12 17:41:09.3  -0.5                          T                                        4646347
LFF   002.05 026.1 m E Sg      2011/02/12 17:41:36.6   0.3                          T               21.2  .30 Ml 2.9         4646332
CAF   002.61 044.9 m E Pn      2011/02/12 17:41:13.8   0.7                          T                                        4646348
CAF   002.61 044.9 m E Pg      2011/02/12 17:41:20.1  -0.1                          T                                        4646355
CAF   002.61 044.9 m E Sg      2011/02/12 17:41:54.0   0.2                          T                9.5  .20 Ml 3.0         4646356
RJF   002.65 033.1 m E Pg      2011/02/12 17:41:20.0  -0.9                          T                                        4646346
RJF   002.65 033.1 m E Sg      2011/02/12 17:41:54.1  -0.8                          T               11.0  .20 Ml 2.8         4646333
LASF  003.33 071.5 m E Pn      2011/02/12 17:41:23.3   0.4                          T                                        4646350
LASF  003.33 071.5 m E Pg      2011/02/12 17:41:34.0   0.5                          T                                        4646351
LASF  003.33 071.5 m E Sg      2011/02/12 17:42:15.9  -0.4                          T                4.2  .26 Ml 2.7         4646352
VIVF  004.15 063.2 m E Pn      2011/02/12 17:41:34.6   0.7                          T                                        4646330
VIVF  004.15 063.2 m E Sg      2011/02/12 17:42:41.5  -0.1                          T                2.3  .35 Ml 2.5         4646331
MFF   003.51 004.3 m E Pg      2011/02/12 17:41:36.3  -0.4                          T                                        4646345
MFF   003.51 004.3 m E Sg      2011/02/12 17:42:21.3  -0.5                          T                7.6  .39 Ml 3.0         4646334
TCF   003.74 030.6 m E Pg      2011/02/12 17:41:40.3  -0.6                          T                                        4646342
TCF   003.74 030.6 m E Sg      2011/02/12 17:42:29.7   0.7                          T                5.8  .28 Ml 3.0         4646341
AVF   004.61 035.4 m E Pn      2011/02/12 17:41:41.1   0.9                          T                                        4646340
AVF   004.61 035.4 m E Sg      2011/02/12 17:42:55.2  -0.7                          T                4.4  .51 Ml 2.7         4646338
SMF   004.71 039.7 m E Pn      2011/02/12 17:41:42.5   0.8                          T                                        4646339
SMF   004.71 039.7 m E Sg      2011/02/12 17:42:59.0  -0.3                          T                2.3  .43 Ml 2.5         4646337
BGF   004.21 033.6 m E Pg      2011/02/12 17:41:49.7   0.1                          T                                        4646343
BGF   004.21 033.6 m E Sg      2011/02/12 17:42:43.0  -0.6                          T               15.3  .40 Ml 3.3         4646336

.
