EVENT     257247
    Date      Time       Latitude Longitude    Depth    Ndef Nsta Gap    Mag1  N    Mag2  N    Mag3  N   Author         ID
       rms   OT_Error      Smajor Sminor Az        Err   mdist  Mdist     Err        Err        Err      Quality

2011/03/16 21:52:57.9     42.4472   19.5688      2.0      52   16 097  Ml 3.8 11                         js067245    257247

      0.26   +-  0.06       2.0    1.1   14.51 +-  0.0    0.23  12.31   +-0.2                            m i ke

NORTHWESTERN BALKAN PEN.
Sta     Dist  EvAz     Phase      Date       Time     TRes  Azim  AzRes  Slow  SRes Def   SNR       Amp   Per   Mag1   Mag2       ID
PGF   007.81 274.3 m E Pn      2011/03/16 21:54:50.3   0.1                          T                                        4660746
SBF   008.98 283.2 m E Pn      2011/03/16 21:55:06.3   0.2                          T                                        4660745
FRF   009.53 281.1 m E Pn      2011/03/16 21:55:13.7   0.2                          T                                        4660748
MBDF  009.56 288.1 m E Pn      2011/03/16 21:55:14.2   0.1                          T                                        4660751
MBDF  009.56 288.1 m E Sn      2011/03/16 21:56:55.9  -0.1                          T                7.6  .76 Ml 3.7         4660733
LMR   009.63 279.7 m E Pn      2011/03/16 21:55:14.9   0.1                          T                                        4660744
LPG   009.73 292.6 m E Pn      2011/03/16 21:55:16.5   0.0                          T                                        4660749
LPG   009.73 292.6 m E Sn      2011/03/16 21:56:59.8  -0.4                          T                7.6  .63 Ml 3.8         4660734
LPL   009.75 292.7 m E Pn      2011/03/16 21:55:17.0   0.3                          T                                        4660750
LPL   009.75 292.7 m E Sn      2011/03/16 21:57:00.6   0.1                          T                7.4  .47 Ml 3.9         4660735
ORIF  010.22 288.6 m E Pn      2011/03/16 21:55:23.1   0.1                          T                                        4660747
ORIF  010.22 288.6 m E Sn      2011/03/16 21:57:11.4  -0.2                          T                3.3  .35 Ml 3.7         4660732
SMRF  010.33 283.2 m E Pn      2011/03/16 21:55:24.6   0.2                          T                                        4660743
HINF  010.46 305.2 m E Pn      2011/03/16 21:55:26.2   0.0                          T                                        4660740
HINF  010.46 305.2 m E Sn      2011/03/16 21:57:17.3   0.0                          T                7.1  .51 Ml 3.9         4660731
CABF  010.49 298.0 m E Pn      2011/03/16 21:55:26.5  -0.1                          T                                        4660741
CABF  010.49 298.0 m E Sn      2011/03/16 21:57:18.1   0.2                          T                1.5  .37 Ml 3.4         4660730
CDF   010.49 308.8 m E Pn      2011/03/16 21:55:26.7   0.0                          T                                        4660739
CDF   010.49 308.8 m E Sn      2011/03/16 21:57:17.9  -0.2                          T                1.9  .56 Ml 3.4         4660729
HAU   010.85 305.3 m E Pn      2011/03/16 21:55:31.4   0.0                          T                                        4660738
VIVF  011.06 287.6 m E Pn      2011/03/16 21:55:34.3   0.0                          T                                        4660742
LOR   012.14 298.7 m E Pn      2011/03/16 21:55:49.0   0.0                          T                                        4660737
LOR   012.14 298.7 m E Sn      2011/03/16 21:57:57.3  -0.1                          T                7.0  .51 Ml 4.2         4660728
SSF   012.31 297.5 m E Pn      2011/03/16 21:55:51.3   0.0                          T                                        4660736
SSF   012.31 297.5 m E Sn      2011/03/16 21:58:01.4  -0.1                          T                4.0  .66 Ml 3.9         4660727

.
EVENT     257243
    Date      Time       Latitude Longitude    Depth    Ndef Nsta Gap    Mag1  N    Mag2  N    Mag3  N   Author         ID
       rms   OT_Error      Smajor Sminor Az        Err   mdist  Mdist     Err        Err        Err      Quality

2011/03/16 23:48:01.3     51.4325    6.2076      2.0      35   15 235  Ml 2.4 15                         js067245    257243

      0.51   +-  0.39       7.1    4.6   24.54 +-  0.0    0.50   5.78   +-0.3                            m i ke

GERMANY
Sta     Dist  EvAz     Phase      Date       Time     TRes  Azim  AzRes  Slow  SRes Def   SNR       Amp   Per   Mag1   Mag2       ID
GIVF  001.60 214.0 m E Pn      2011/03/16 23:48:28.9   0.1                          T                                        4660786
GIVF  001.60 214.0 m E Sn      2011/03/16 23:48:48.3  -0.5                          T               22.0  .42 Ml 2.8         4660785
BAIF  001.87 223.5 m E Pn      2011/03/16 23:48:31.4  -1.1                          T                                        4660779
BAIF  001.87 223.5 m E Sn      2011/03/16 23:48:54.8  -0.6                          T                3.3  .31 Ml 2.2         4660784
RUP   001.82 162.3 m E Pn      2011/03/16 23:48:32.3   0.4                          T                                        4660778
RUP   001.82 162.3 m E Sn      2011/03/16 23:48:54.5   0.3                          T                                        4660774
LANF  002.66 156.7 m E Pn      2011/03/16 23:48:43.5   0.1                          T                                        4660773
LANF  002.66 156.7 m E Sn      2011/03/16 23:49:15.0   0.7                          T               10.5  .57 Ml 2.6         4660757
PAGF  002.90 186.4 m E Pn      2011/03/16 23:48:46.8   0.2                          T                                        4660781
PAGF  002.90 186.4 m E Sn      2011/03/16 23:49:20.1   0.1                          T                1.9  .75 Ml 1.8         4660759
MEZF  003.03 194.7 m E Pn      2011/03/16 23:48:48.2  -0.1                          T                                        4660771
MEZF  003.03 194.7 m E Sn      2011/03/16 23:49:23.0   0.0                          T                4.3  .50 Ml 2.4         4660760
CDF   003.10 166.7 m E Pn      2011/03/16 23:48:49.6   0.1                          T                                        4660772
CDF   003.10 166.7 m E Sn      2011/03/16 23:49:25.5   0.6                          T                3.7  .63 Ml 2.3         4660758
THEF  003.21 182.6 m E Pn      2011/03/16 23:48:51.3   0.4                          T                                        4660769
THEF  003.21 182.6 m E Sn      2011/03/16 23:49:27.9   0.5                          T                2.7  .33 Ml 2.4         4660762
SFTF  003.32 193.6 m E Pn      2011/03/16 23:48:52.4   0.1                          T                                        4660770
SFTF  003.32 193.6 m E Sn      2011/03/16 23:49:30.1   0.1                          T                1.7  .36 Ml 2.2         4660761
HAU   003.43 178.4 m E Pn      2011/03/16 23:48:54.0   0.1                          T                                        4660768
HAU   003.43 178.4 m E Sn      2011/03/16 23:49:32.9   0.2                          T                1.2  .30 Ml 1.9         4660763
HINF  003.64 173.1 m E Pn      2011/03/16 23:48:57.3   0.5                          T                                        4660767
HINF  003.64 173.1 m E Sn      2011/03/16 23:49:38.2   0.4                          T                1.8  .46 Ml 2.2         4660764
LOR   004.44 201.1 m E Pn      2011/03/16 23:49:08.1   0.5                          T                                        4660782
LOR   004.44 201.1 m E Sn      2011/03/16 23:49:57.0   0.1                          T                3.5  .60 Ml 2.5         4660777
SSF   004.72 203.1 m E Pn      2011/03/16 23:49:11.7   0.3                          T                                        4660783
SSF   004.72 203.1 m E Sn      2011/03/16 23:50:03.3  -0.1                          T                  1  .33 Ml 2.4         4660776
BGF   005.36 205.7 m E Pn      2011/03/16 23:49:20.5   0.4                          T                                        4660766
BGF   005.36 205.7 m E Sn      2011/03/16 23:50:18.6  -0.1                          T                5.0  .51 Ml 2.9         4660765
TCF   005.78 208.7 m E Pn      2011/03/16 23:49:25.6  -0.3                          T                                        4660780
TCF   005.78 208.7 m E Sn      2011/03/16 23:50:29.3   0.4                          T                 .6  .33 Ml 2.4         4660775

.
EVENT     257283
    Date      Time       Latitude Longitude    Depth    Ndef Nsta Gap    Mag1  N    Mag2  N    Mag3  N   Author         ID
       rms   OT_Error      Smajor Sminor Az        Err   mdist  Mdist     Err        Err        Err      Quality

2011/03/17 10:01:16.1     44.2897   -1.6351      2.0      73   21 085  Ml 2.9 23                         cm165940    257283

      0.56   +-  0.07       1.7    1.1  101.66 +-  0.0    1.07   4.86   +-0.2                            m i ke

FRANCE
Sta     Dist  EvAz     Phase      Date       Time     TRes  Azim  AzRes  Slow  SRes Def   SNR       Amp   Per   Mag1   Mag2       ID
SJPF  001.21 165.7 m E Pn      2011/03/17 10:01:37.1  -1.3                          T                                        4661013
SJPF  001.21 165.7 m E Sg      2011/03/17 10:01:52.6  -1.9                          T               27.2  .22 Ml 3.0         4660972
ETSF  001.60 150.3 m E Pn      2011/03/17 10:01:43.3  -0.4                          T                                        4661009
ETSF  001.60 150.3 m E Sg      2011/03/17 10:02:06.3  -0.3                          T               19.6  .38 Ml 2.8         4660971
LFF   001.82 068.2 m E Pn      2011/03/17 10:01:46.7   0.1                          T                                        4661012
LFF   001.82 068.2 m E Sg      2011/03/17 10:02:13.4   0.1                          T               37.6  .34 Ml 3.0         4660974
EPF   001.91 130.6 m E Pn      2011/03/17 10:01:48.1   0.1                          T                                        4661008
EPF   001.91 130.6 m E Sg      2011/03/17 10:02:16.3   0.0                          T               15.3  .22 Ml 3.0         4660970
RJF   002.46 064.6 m E Pn      2011/03/17 10:01:55.8   0.4                          T                                        4661010
RJF   002.46 064.6 m E Sg      2011/03/17 10:02:33.4  -0.1                          T               13.7  .22 Ml 2.8         4660975
MFF   002.54 023.9 m E Pn      2011/03/17 10:01:56.6   0.2                          T                                        4661004
MFF   002.54 023.9 m E Pg      2011/03/17 10:02:01.9  -1.3                          T                                        4660999
MFF   002.54 023.9 m E Sg      2011/03/17 10:02:36.0   0.1                          T                9.0  .33 Ml 2.9         4660976
CAF   002.72 075.2 m E Pn      2011/03/17 10:01:59.1   0.1                          T                                        4661011
CAF   002.72 075.2 m E Pg      2011/03/17 10:02:05.2  -1.3                          T                                        4660998
CAF   002.72 075.2 m E Sg      2011/03/17 10:02:41.5   0.0                          T                9.0  .27 Ml 2.9         4660973
MTLF  002.95 107.4 m E Pn      2011/03/17 10:02:02.5   0.5                          T                                        4661003
MTLF  002.95 107.4 m E Sg      2011/03/17 10:02:48.5   0.0                          T                5.8  .32 Ml 2.7         4660969
TCF   003.37 052.3 m E Pn      2011/03/17 10:02:08.2   0.3                          T                                        4661005
TCF   003.37 052.3 m E Sg      2011/03/17 10:03:02.1   0.3                          T                8.0  .45 Ml 2.8         4660989
QUIF  003.78 344.2 m E Pn      2011/03/17 10:02:13.4   0.0                          T                                        4661002
QUIF  003.78 344.2 m E Pg      2011/03/17 10:02:26.1   0.1                          T                                        4660995
QUIF  003.78 344.2 m E Sg      2011/03/17 10:03:14.9   0.3                          T                5.0  .41 Ml 2.7         4660980
BGF   003.89 052.7 m E Pn      2011/03/17 10:02:15.0   0.2                          T                                        4661006
BGF   003.89 052.7 m E Pg      2011/03/17 10:02:27.0  -1.1                          T                                        4661001
BGF   003.89 052.7 m E Sg      2011/03/17 10:03:18.0   0.1                          T               24.6  .40 Ml 3.4         4660983
LASF  003.96 091.2 m E Pn      2011/03/17 10:02:15.4  -0.5                          T                                        4660997
LASF  003.96 091.2 m E Sg      2011/03/17 10:03:19.8  -0.3                          T               10.4  .61 Ml 2.9         4660968
SGMF  004.02 351.2 m E Pn      2011/03/17 10:02:16.4  -0.2                          T                                        4660993
SGMF  004.02 351.2 m E Pg      2011/03/17 10:02:30.1  -0.3                          T                                        4660994
SGMF  004.02 351.2 m E Sg      2011/03/17 10:03:22.3   0.3                          T                                        4660981
GRR   004.13 007.2 m E Pn      2011/03/17 10:02:18.1  -0.1                          T                                        4660964
GRR   004.13 007.2 m E Sg      2011/03/17 10:03:25.8   0.2                          T                2.9  .27 Ml 2.6         4660977
AVF   004.30 052.7 m E Pn      2011/03/17 10:02:20.9   0.4                          T                                        4660986
AVF   004.30 052.7 m E Sg      2011/03/17 10:03:31.3   0.3                          T                7.6  .66 Ml 2.8         4660987
LDF   004.43 013.1 m E Pn      2011/03/17 10:02:22.2   0.0                          T                                        4660965
LDF   004.43 013.1 m E Sg      2011/03/17 10:03:35.2   0.3                          T                3.0  .30 Ml 2.7         4660978
VIVF  004.54 080.6 m E Pn      2011/03/17 10:02:23.6  -0.2                          T                                        4660996
VIVF  004.54 080.6 m E Sg      2011/03/17 10:03:38.5   0.1                          T                7.4  .49 Ml 3.0         4660967
SSF   004.55 050.6 m E Pn      2011/03/17 10:02:23.6  -0.2                          T                                        4660992
SSF   004.55 050.6 m E Sg      2011/03/17 10:03:38.8   0.3                          T                4.6  .48 Ml 2.8         4660988
SMF   004.52 056.6 m E Pn      2011/03/17 10:02:23.7   0.3                          T                                        4660985
SMF   004.52 056.6 m E Sg      2011/03/17 10:03:38.1   0.5                          T                6.9  .53 Ml 2.9         4660984
FLN   004.54 009.7 m E Pn      2011/03/17 10:02:23.9   0.2                          T                                        4660966
FLN   004.54 009.7 m E Sg      2011/03/17 10:03:38.6   0.2                          T                4.8  .33 Ml 2.8         4660979
LOR   004.86 050.3 m E Pn      2011/03/17 10:02:28.1   0.0                          T                                        4660991
LOR   004.86 050.3 m E Sg      2011/03/17 10:03:48.8   0.3                          T                6.2  .63 Ml 2.8         4660990

.
EVENT     257291
    Date      Time       Latitude Longitude    Depth    Ndef Nsta Gap    Mag1  N    Mag2  N    Mag3  N   Author         ID
       rms   OT_Error      Smajor Sminor Az        Err   mdist  Mdist     Err        Err        Err      Quality

2011/03/17 15:10:08.3     42.9968    6.3979       .0 f    30   12 175  Ml 2.4 14  Md 2.5  3              js067245    257291

      0.15   +-  0.05       1.0     .8    8.62 +-  0.0    0.35   3.68   +-0.3      +-0.0                 m i sm

WESTERN MEDITERRANEAN SEA
Sta     Dist  EvAz     Phase      Date       Time     TRes  Azim  AzRes  Slow  SRes Def   SNR       Amp   Per   Mag1   Mag2       ID
LMR   000.35 013.5 m E Pg      2011/03/17 15:10:14.8  -0.4                          T                                        4661073
LMR   000.35 013.5 m E Sg      2011/03/17 15:10:19.7  -0.4                          T               32.7  .19        Md 2.5  4661067
SMRF  001.15 328.8 m E Pg      2011/03/17 15:10:30.0   0.0                          T                                        4661072
SMRF  001.15 328.8 m E Sg      2011/03/17 15:10:45.1   0.0                          T               11.5  .25 Ml 2.5 Md 2.5  4661066
SBF   001.15 040.8 m E Pg      2011/03/17 15:10:30.3   0.2                          T                                        4661071
SBF   001.15 040.8 m E Sg      2011/03/17 15:10:45.3   0.1                          T               20.0  .17 Ml 3.0 Md 2.4  4661068
MBDF  001.75 008.7 m E Pn      2011/03/17 15:10:38.6   0.1                          T                                        4661065
MBDF  001.75 008.7 m E Sn      2011/03/17 15:11:00.5   0.1                          T                9.1  .35 Ml 2.6         4661056
ORIF  001.96 349.2 m E Pn      2011/03/17 15:10:41.2  -0.1                          T                                        4661063
ORIF  001.96 349.2 m E Sn      2011/03/17 15:11:05.5   0.2                          T               41.3 1.02 Ml 2.8         4661055
PGF   001.97 102.3 m E Pn      2011/03/17 15:10:41.4   0.0                          T                                        4661070
PGF   001.97 102.3 m E Sn      2011/03/17 15:11:05.2  -0.2                          T                4.5  .22 Ml 2.7         4661069
LASF  002.14 301.1 m E Pn      2011/03/17 15:10:43.6  -0.1                          T                                        4661060
LASF  002.14 301.1 m E Sn      2011/03/17 15:11:09.6   0.1                          T                1.6  .25 Ml 2.0         4661058
VIVF  002.24 326.7 m E Pn      2011/03/17 15:10:45.0   0.0                          T                                        4661064
VIVF  002.24 326.7 m E Sn      2011/03/17 15:11:12.0   0.1                          T                1.6  .23 Ml 2.1         4661057
LPG   002.51 005.7 m E Pn      2011/03/17 15:10:48.2  -0.9                          T                                        4661090
LPG   002.51 005.7 m E Sn      2011/03/17 15:11:18.8   0.1                          T                1.8  .22 Ml 2.2         4661087
LPL   002.53 005.3 m E Pn      2011/03/17 15:10:49.3   0.1                          T                                        4661062
LPL   002.53 005.3 m E Sn      2011/03/17 15:11:19.1   0.0                          T                2.3  .30 Ml 2.2         4661054
MTLF  003.08 277.8 m E Pn      2011/03/17 15:10:56.4   0.0                          T                                        4661061
MTLF  003.08 277.8 m E Sn      2011/03/17 15:11:32.0   0.1                          T                1.5  .19 Ml 2.3         4661059
CAF   003.68 303.1 m E Pn      2011/03/17 15:11:04.4  -0.1                          T                                        4661089
CAF   003.68 303.1 m E Sn      2011/03/17 15:11:46.0  -0.2                          T                 .8  .23 Ml 2.1         4661088

.
