EVENT     284877
    Date      Time       Latitude Longitude    Depth    Ndef Nsta Gap    Mag1  N    Mag2  N    Mag3  N   Author         ID
       rms   OT_Error      Smajor Sminor Az        Err   mdist  Mdist     Err        Err        Err      Quality

2012/10/10 10:10:33.8     45.8088    2.8482       .0 f    31   13 086  Ml 2.4 10  Md 2.5  3              bulletin    284977
                                                                                                         _ldg
      0.32   +-  0.06       1.5    1.1   95.78 +-  0.0    0.31   2.51   +-0.2      +-0.3                 m i km

FRANCE
Sta     Dist  EvAz     Phase      Date       Time     TRes  Azim  AzRes  Slow  SRes Def   SNR       Amp   Per   Mag1   Mag2       ID
TCF   000.65 317.4 m E Pg      2012/10/10 10:10:46.2  -0.3                          T                                        5096353
TCF   000.65 317.4 m E Pn      2012/10/10 10:10:48.7  -0.3                          T                                        5096354
TCF   000.65 317.4 m E Sg      2012/10/10 10:10:55.7   0.4                          T                                        5094184
TCF   000.65 317.4 m E Sn      2012/10/10 10:10:59.5  -0.1                          T               16.0  .26        Md 2.3  5094183
BGF   000.75 359.9 m E Pg      2012/10/10 10:10:48.7   0.5                          T                                        5094180
BGF   000.75 359.9 m E Sg      2012/10/10 10:10:58.1  -0.1                          T                                        5094179
BGF   000.75 359.9 m E Sn      2012/10/10 10:11:02.0   0.2                          T               57.0  .25        Md 2.4  5094201
AVF   001.04 019.4 m E Pg      2012/10/10 10:10:53.3  -0.3                          T   001.0                                5094164
AVF   001.04 019.4 m E Sg      2012/10/10 10:11:07.9   0.6                          T               11.0  .24 Ml 2.5         5094182
CAF   001.04 212.3 m E Pg      2012/10/10 10:10:54.0   0.3                          T                                        5094186
CAF   001.04 212.3 m E Sg      2012/10/10 10:11:06.8  -0.5                          T               13.3  .22 Ml 2.6         5094185
RJF   001.06 242.1 m E Pg      2012/10/10 10:10:54.2   0.2                          T                                        5094221
RJF   001.06 242.1 m E Sg      2012/10/10 10:11:07.5  -0.5                          T               36.0  .36 Ml 2.5         5094187
SMF   001.08 039.1 m E Pn      2012/10/10 10:10:54.5  -0.3                          T   001.0                                5094173
SMF   001.08 039.1 m E Sg      2012/10/10 10:11:09.0   0.4                          T                5.7  .19 Ml 2.3         5094181
SSF   001.33 019.7 m E Pn      2012/10/10 10:10:58.0  -0.2                          T   001.0                                5094174
SSF   001.33 019.7 m E Sg      2012/10/10 10:11:16.5   0.1                          T                6.6  .28 Ml 2.4         5096352
HYF   001.47 354.4 m E Pg      2012/10/10 10:11:01.5   0.1                          T                                        5094203
HYF   001.47 354.4 m E Sg      2012/10/10 10:11:20.6   0.0                          T                                        5094202
VIVF  001.60 125.9 m E Pn      2012/10/10 10:11:02.0   0.1                          T                                        5094207
VIVF  001.60 125.9 m E Pg      2012/10/10 10:11:03.7  -0.3                          T                                        5094196
VIVF  001.60 125.9 m E Sn      2012/10/10 10:11:21.7  -0.5                          T                                        5094195
VIVF  001.60 125.9 m E Sg      2012/10/10 10:11:24.6  -0.2                          T                5.8  .22 Ml 2.5         5094206
LOR   001.62 025.2 m E Pn      2012/10/10 10:11:02.5   0.4                          T                                        5094217
LOR   001.62 025.2 m E Sn      2012/10/10 10:11:22.8   0.2                          T                6.1  .25 Ml 2.5         5094216
LFF   001.72 240.4 m E Pn      2012/10/10 10:11:03.7   0.3                          T                                        5094205
LFF   001.72 240.4 m E Sn      2012/10/10 10:11:25.0   0.0                          T                6.3  .26 Ml 2.4         5094204
LASF  001.87 157.2 m E Pn      2012/10/10 10:11:06.0   0.4                          T                                        5094198
LASF  001.87 157.2 m E Sn      2012/10/10 10:11:28.9   0.2                          T                1.8  .22 Ml 2.1         5094197
MTLF  002.51 190.6 m E Pn      2012/10/10 10:11:13.4  -0.8                          T                                        5094200
MTLF  002.51 190.6 m E Sn      2012/10/10 10:11:43.2  -0.6                          T                1.6  .32 Ml 2.0         5094199

.
EVENT     284878
    Date      Time       Latitude Longitude    Depth    Ndef Nsta Gap    Mag1  N    Mag2  N    Mag3  N   Author         ID
       rms   OT_Error      Smajor Sminor Az        Err   mdist  Mdist     Err        Err        Err      Quality

2012/10/10 10:47:35.7     37.2383    4.1264     30.0      49   10 214  Ml 3.2 10                         bulletin    284978
                                                                                                         _ldg
      0.72   +-  0.27       5.6    3.3  136.22 +-  0.0    2.73   8.11   +-0.2                            m i ke

WESTERN MEDITERRANEAN SEA
Sta     Dist  EvAz     Phase      Date       Time     TRes  Azim  AzRes  Slow  SRes Def   SNR       Amp   Per   Mag1   Mag2       ID
MTLF  006.27 347.1 m E Pn      2012/10/10 10:49:04.7   0.4                          T                                        5094308
MTLF  006.27 347.1 m E Sn      2012/10/10 10:50:11.7   1.1                          T                4.6  .36 Ml 3.3         5094307
LMR   006.35 015.9 m E Pn      2012/10/10 10:49:05.6   0.2                          T                                        5094295
LMR   006.35 015.9 m E Sn      2012/10/10 10:50:14.2   1.5                          T                3.9  .24 Ml 3.4         5094296
PGF   006.49 033.7 m E Pn      2012/10/10 10:49:06.6  -0.8                          T                                        5094298
PGF   006.49 033.7 m E Sn      2012/10/10 10:50:14.6  -1.5                          T                1.1  .16 Ml 3.3         5094297
EPF   006.47 334.6 m E Pn      2012/10/10 10:49:07.6   0.6                          T                                        5094306
EPF   006.47 334.6 m E Sn      2012/10/10 10:50:16.1   0.5                          T                4.7  .34 Ml 3.3         5094305
FRF   006.60 016.1 m E Pn      2012/10/10 10:49:08.4  -0.3                          T                                        5094293
FRF   006.60 016.1 m E Sn      2012/10/10 10:50:19.1   0.5                          T                5.2  .31 Ml 3.4         5094294
ETSF  006.70 329.0 m E Pn      2012/10/10 10:49:10.9   0.7                          T                                        5094304
ETSF  006.70 329.0 m E Sn      2012/10/10 10:50:20.5  -0.5                          T                1.8  .34 Ml 2.9         5094303
LASF  006.83 358.4 m E Pn      2012/10/10 10:49:12.3   0.4                          T                                        5094300
LASF  006.83 358.4 m E Sn      2012/10/10 10:50:24.8   0.6                          T                2.6  .33 Ml 3.1         5094299
SBF   007.08 019.8 m E Pn      2012/10/10 10:49:15.9   0.6                          T                                        5094291
SBF   007.08 019.8 m E Sn      2012/10/10 10:50:30.2   0.1                          T                3.3  .26 Ml 3.4         5094292
SJPF  007.16 326.7 m E Pn      2012/10/10 10:49:15.9  -0.4                          T                                        5094301
SJPF  007.16 326.7 m E Sn      2012/10/10 10:50:32.5   0.6                          T                1.8  .30 Ml 3.1         5094302
LFF   008.11 342.7 m E Pn      2012/10/10 10:49:29.5   0.3                          T                                        5094310
LFF   008.11 342.7 m E Sn      2012/10/10 10:50:53.9  -0.6                          T                3.0  .35 Ml 3.2         5094309

.
EVENT     284882
    Date      Time       Latitude Longitude    Depth    Ndef Nsta Gap    Mag1  N    Mag2  N    Mag3  N   Author         ID
       rms   OT_Error      Smajor Sminor Az        Err   mdist  Mdist     Err        Err        Err      Quality

2012/10/10 15:10:21.7     48.2060   -2.6273       .0 f    14    6 150  Ml 2.4  2  Md 2.0  1              bulletin    284982
                                                                                                         _ldg
      0.82   +-  0.24       8.8    3.7  168.14 +-  0.0    0.07   1.71   +-0.0      +-                    m i km

FRANCE
Sta     Dist  EvAz     Phase      Date       Time     TRes  Azim  AzRes  Slow  SRes Def   SNR       Amp   Per   Mag1   Mag2       ID
SGMF  000.07 044.3 m E Pg      2012/10/10 15:10:23.0  -0.3                          T                                        5094490
SGMF  000.07 044.3 m E Sg      2012/10/10 15:10:24.5   0.0                          T              121.4  .72        Md 2.0  5094489
QUIF  000.46 231.5 m E Pg      2012/10/10 15:10:30.6  -0.2                          T                                        5094486
QUIF  000.46 231.5 m E Sg      2012/10/10 15:10:36.4  -0.6                          T                4.2  .24                5094485
ROSF  000.45 287.1 m E Pg      2012/10/10 15:10:31.2   0.7                          T                                        5094488
ROSF  000.45 287.1 m E Sg      2012/10/10 15:10:34.8  -1.9                          T               10.6 1.04                5094487
GRR   001.20 080.6 m E Pn      2012/10/10 15:10:42.7  -1.4                          T                                        5094500
GRR   001.20 080.6 m E Sn      2012/10/10 15:10:58.9  -1.3                          T                9.3  .20 Ml 2.4         5094499
FLN   001.53 067.9 m E Pn      2012/10/10 15:10:48.6  -0.1 250.6  1.1               T                                        5094496
FLN   001.53 067.9 m E Sn      2012/10/10 15:11:07.8  -0.5                          T               10.4  .36 Ml 2.4         5094495
LDF   001.71 076.0 m E Pn      2012/10/10 15:10:51.6   0.4                          T                                        5094498
LDF   001.71 076.0 m E Sn      2012/10/10 15:11:13.0   0.3                          T                                        5094497

.
EVENT     284887
    Date      Time       Latitude Longitude    Depth    Ndef Nsta Gap    Mag1  N    Mag2  N    Mag3  N   Author         ID
       rms   OT_Error      Smajor Sminor Az        Err   mdist  Mdist     Err        Err        Err      Quality

2012/10/10 19:55:07.8     51.3729   16.3763      1.0 f    34    5 174  Ml 3.3  5                         bulletin    284987
                                                                                                         _ldg
      0.67   +-  0.39      10.0    3.3   11.25 +-  0.0    0.53   8.27   +-0.4                            m i sr

POLAND
Sta     Dist  EvAz     Phase      Date       Time     TRes  Azim  AzRes  Slow  SRes Def   SNR       Amp   Per   Mag1   Mag2       ID
CDF   006.58 246.8 m E Pn      2012/10/10 19:56:43.9   0.4                          T                                        5094704
CDF   006.58 246.8 m E Sn      2012/10/10 19:57:53.4  -1.3                          T                                        5094703
CDF   006.58 246.8 m E Sg      2012/10/10 19:58:34.6   0.7                          T               26.2  .92 Ml 3.8         5094702
HINF  007.14 243.8 m E Pn      2012/10/10 19:56:51.7   0.7                          T                                        5094701
HINF  007.14 243.8 m E Sn      2012/10/10 19:58:06.9  -1.0                          T                                        5094700
HINF  007.14 243.8 m E Sg      2012/10/10 19:58:51.7   0.5                          T                8.9  .66 Ml 3.4         5094699
PAGF  007.43 251.8 m E Pn      2012/10/10 19:56:54.3  -0.5                          T                                        5094696
PAGF  007.43 251.8 m E Pg      2012/10/10 19:57:25.1   0.2                          T                                        5094695
PAGF  007.43 251.8 m E Sn      2012/10/10 19:58:14.0  -0.8                          T                                        5094694
PAGF  007.43 251.8 m E Sg      2012/10/10 19:59:00.5   0.4                          T                 .7  .22 Ml 2.8         5094693
CABF  008.27 238.8 m E Pn      2012/10/10 19:57:06.1  -0.3                          T                                        5094692
CABF  008.27 238.8 m E Pg      2012/10/10 19:57:41.2   0.5                          T                                        5094691
CABF  008.27 238.8 m E Sn      2012/10/10 19:58:33.1  -2.0                          T                                        5094690
CABF  008.27 238.8 m E Sg      2012/10/10 19:59:27.0   0.4                          T                 .7  .24 Ml 2.9         5094689
SFTF  007.99 251.1 m E Sn      2012/10/10 19:58:27.5  -0.8                          T                                        5094697
SFTF  007.99 251.1 m E Sg      2012/10/10 19:59:17.9   0.1                          T                6.1  .59 Ml 3.4         5094698

.
EVENT     284888
    Date      Time       Latitude Longitude    Depth    Ndef Nsta Gap    Mag1  N    Mag2  N    Mag3  N   Author         ID
       rms   OT_Error      Smajor Sminor Az        Err   mdist  Mdist     Err        Err        Err      Quality

2012/10/10 20:25:29.4     51.6724   16.4361      1.0 f    36    5 228  Ml 3.3  4                         bulletin    284988
                                                                                                         _ldg
      0.44   +-  0.26       7.6    2.0    5.32 +-  0.0    0.84   8.46   +-0.2                            m i sr

POLAND
Sta     Dist  EvAz     Phase      Date       Time     TRes  Azim  AzRes  Slow  SRes Def   SNR       Amp   Per   Mag1   Mag2       ID
CDF   006.74 244.6 m E Pn      2012/10/10 20:27:07.5   0.2                          T                                        5094745
CDF   006.74 244.6 m E Pg      2012/10/10 20:27:34.0  -0.1                          T                                        5094744
CDF   006.74 244.6 m E Sn      2012/10/10 20:28:19.3  -0.8                          T                                        5094743
CDF   006.74 244.6 m E Sg      2012/10/10 20:29:00.7   0.3                          T               15.4  .90 Ml 3.6         5094742
HINF  007.31 241.9 m E Pn      2012/10/10 20:27:14.6  -0.3                          T                                        5094738
HINF  007.31 241.9 m E Pg      2012/10/10 20:27:44.9   0.4                          T                                        5094737
HINF  007.31 241.9 m E Sn      2012/10/10 20:28:32.3  -1.3                          T                                        5094736
HINF  007.31 241.9 m E Sg      2012/10/10 20:29:18.4   0.3                          T                2.2  .38 Ml 3.1         5094735
PAGF  007.56 249.8 m E Pn      2012/10/10 20:27:18.4   0.2                          T                                        5094741
PAGF  007.56 249.8 m E Pg      2012/10/10 20:27:49.4   0.4                          T                                        5094740
PAGF  007.56 249.8 m E Sn      2012/10/10 20:28:39.1  -0.5                          T                                        5094739
MEZF  007.98 251.0 m E Pn      2012/10/10 20:27:24.1   0.1                          T                                        5094731
MEZF  007.98 251.0 m E Pg      2012/10/10 20:27:57.0   0.3                          T                                        5094730
MEZF  007.98 251.0 m E Sn      2012/10/10 20:28:49.3  -0.4                          T                                        5094729
MEZF  007.98 251.0 m E Sg      2012/10/10 20:29:39.4   0.4                          T                2.3  .38 Ml 3.2         5094728
CABF  008.46 237.3 m E Pn      2012/10/10 20:27:30.9   0.2                          T                                        5094734
CABF  008.46 237.3 m E Sn      2012/10/10 20:28:59.8  -1.6                          T                                        5094733
CABF  008.46 237.3 m E Sg      2012/10/10 20:29:54.6   0.4                          T                4.7  .56 Ml 3.4         5094732

.
