EVENT     290007
    Date      Time       Latitude Longitude    Depth    Ndef Nsta Gap    Mag1  N    Mag2  N    Mag3  N   Author         ID
       rms   OT_Error      Smajor Sminor Az        Err   mdist  Mdist     Err        Err        Err      Quality

2013/01/10 06:23:43.5     44.5676    6.8619      2.0      22    7 059  Ml 1.4  2  Md 1.4  1              bulletin    290107
                                                                                                         _ldg
      0.24   +-  0.04       1.0     .7   70.70 +-  0.0    0.09   1.26   +-0.0      +-                    m i ke

FRANCE
Sta     Dist  EvAz     Phase      Date       Time     TRes  Azim  AzRes  Slow  SRes Def   SNR       Amp   Per   Mag1   Mag2       ID
MBDF  000.17 338.0 m E Pg      2013/01/10 06:23:47.2   0.0                          T                                        5163077
MBDF  000.17 338.0 m E Sg      2013/01/10 06:23:49.6   0.0                          T               14.0  .34        Md 1.4  5163076
ORIF  000.78 297.0 m E Pg      2013/01/10 06:23:58.5   0.1                          T                                        5163074
ORIF  000.78 297.0 m E Sg      2013/01/10 06:24:07.8  -0.8                          T                1.2  .27                5163075
LPG   000.93 355.2 m E Pg      2013/01/10 06:24:01.6   0.2                          T                                        5163080
LPG   000.93 355.2 m E Sg      2013/01/10 06:24:13.0  -0.5                          T                                        5163078
LPL   000.95 354.5 m E Pg      2013/01/10 06:24:01.9   0.2                          T                                        5163073
LPL   000.95 354.5 m E Sg      2013/01/10 06:24:13.6  -0.5                          T                                        5163079
FRF   001.02 188.8 m E Pg      2013/01/10 06:24:02.5  -0.2                          T                                        5163072
LMR   001.26 191.8 m E Pg      2013/01/10 06:24:07.2   0.2                          T                                        5182692
LMR   001.26 191.8 m E Sg      2013/01/10 06:24:23.8   0.5                          T                 .7  .25 Ml 1.4         5163069
SMRF  001.10 237.8 m E Sg      2013/01/10 06:24:18.7   0.3                          T                1.1  .28 Ml 1.4         5182691

.
EVENT     290037
    Date      Time       Latitude Longitude    Depth    Ndef Nsta Gap    Mag1  N    Mag2  N    Mag3  N   Author         ID
       rms   OT_Error      Smajor Sminor Az        Err   mdist  Mdist     Err        Err        Err      Quality

2013/01/10 09:26:46.8     43.9461    7.1968       .0 f    35    8 083  Ml 1.8  6  Md 2.0  4              bulletin    290137
                                                                                                         _ldg
      0.23   +-  0.04        .9     .7   21.18 +-  0.0    0.17   1.92   +-0.4      +-0.0                 m i km

NEAR SOUTH COAST OF FRANCE
Sta     Dist  EvAz     Phase      Date       Time     TRes  Azim  AzRes  Slow  SRes Def   SNR       Amp   Per   Mag1   Mag2       ID
SBF   000.19 115.6 m E Pg      2013/01/10 09:26:51.1   0.2                          T                                        5163919
SBF   000.19 115.6 m E Sg      2013/01/10 09:26:53.5  -0.3                          T               23.1  .34        Md 2.0  5163918
FRF   000.55 226.2 m E Pg      2013/01/10 09:26:57.7   0.1                          T                                        5163930
FRF   000.55 226.2 m E Pn      2013/01/10 09:27:00.4  -0.1                          T                                        5163926
FRF   000.55 226.2 m E Sg      2013/01/10 09:27:04.8  -0.2                          T                7.0  .29        Md 1.9  5163929
LMR   000.79 219.4 m E Pg      2013/01/10 09:27:01.8   0.0                          T                                        5163917
LMR   000.79 219.4 m E Sg      2013/01/10 09:27:12.5   0.1                          T                3.2  .21        Md 2.0  5163916
MBDF  000.84 338.8 m E Pg      2013/01/10 09:27:03.1   0.1                          T                                        5163928
MBDF  000.84 338.8 m E Sg      2013/01/10 09:27:14.0  -0.1                          T                1.8  .24        Md 2.0  5163927
SMRF  001.17 272.0 m E Pg      2013/01/10 09:27:09.0   0.0                          T                                        5163915
SMRF  001.17 272.0 m E Sg      2013/01/10 09:27:24.5   0.2                          T                6.9  .27 Ml 2.3         5163914
ORIF  001.35 316.3 m E Pn      2013/01/10 09:27:11.7   0.2                          T                                        5163921
ORIF  001.35 316.3 m E Sn      2013/01/10 09:27:28.9  -0.4                          T                2.1  .23 Ml 1.9         5163920
LPG   001.58 348.6 m E Pn      2013/01/10 09:27:15.0   0.1                          T                                        5163925
LPG   001.58 348.6 m E Sn      2013/01/10 09:27:34.5  -0.5                          T                1.3  .19 Ml 1.9         5163924
LPL   001.60 348.3 m E Pn      2013/01/10 09:27:15.0  -0.1                          T                                        5163923
LPL   001.60 348.3 m E Sn      2013/01/10 09:27:35.1  -0.4                          T                1.3  .18 Ml 1.9         5163922

.
EVENT     290033
    Date      Time       Latitude Longitude    Depth    Ndef Nsta Gap    Mag1  N    Mag2  N    Mag3  N   Author         ID
       rms   OT_Error      Smajor Sminor Az        Err   mdist  Mdist     Err        Err        Err      Quality

2013/01/10 14:08:57.1     43.0533    -.2144      2.0       8    5 145  Ml 1.7  2  Md 1.6  2              bulletin    290133
                                                                                                         _ldg
      0.16   +-  0.07       2.9    1.0  168.89 +-  0.0    0.30   2.49   +-0.5      +-0.1                 m i ke

PYRENEES
Sta     Dist  EvAz     Phase      Date       Time     TRes  Azim  AzRes  Slow  SRes Def   SNR       Amp   Per   Mag1   Mag2       ID
ETSF  000.30 238.7 m E Pg      2013/01/10 14:09:03.2   0.1                          T                                        5164013
ETSF  000.30 238.7 m E Sg      2013/01/10 14:09:07.0   0.0                          T                6.7  .21        Md 1.7  5164012
EPF   000.41 093.0 m E Pg      2013/01/10 14:09:04.9  -0.2                          T                                        5164011
EPF   000.41 093.0 m E Sg      2013/01/10 14:09:10.5   0.1                          T                3.5  .26        Md 1.6  5164010
SJPF  000.74 275.0 m E Pg      2013/01/10 14:09:11.1   0.0                          T                                        5164016
SJPF  000.74 275.0 m E Sg      2013/01/10 14:09:20.6  -0.3                          T                3.6  .39                5164015
MTLF  001.80 080.0 m E Sg      2013/01/10 14:09:53.9   0.0                          T                 .3  .18 Ml 1.4         5182694
CAF   002.49 040.5 m E Sg      2013/01/10 14:10:15.7   0.2                          T                1.0  .17 Ml 2.1         5182693

.
EVENT     290040
    Date      Time       Latitude Longitude    Depth    Ndef Nsta Gap    Mag1  N    Mag2  N    Mag3  N   Author         ID
       rms   OT_Error      Smajor Sminor Az        Err   mdist  Mdist     Err        Err        Err      Quality

2013/01/10 17:11:46.9     43.0568    -.2340      2.0      10    5 143  Ml 1.3  3  Md 1.5  2              bulletin    290140
                                                                                                         _ldg
      0.19   +-  0.06       3.0    1.0  168.24 +-  0.0    0.29   2.50   +-0.1      +-0.1                 m i ke

PYRENEES
Sta     Dist  EvAz     Phase      Date       Time     TRes  Azim  AzRes  Slow  SRes Def   SNR       Amp   Per   Mag1   Mag2       ID
ETSF  000.29 236.6 m E Pg      2013/01/10 17:11:52.7   0.1                          T                                        5163986
ETSF  000.29 236.6 m E Sg      2013/01/10 17:11:56.5   0.0                          T                3.4  .21        Md 1.4  5163985
EPF   000.42 093.4 m E Pg      2013/01/10 17:11:55.0  -0.1                          T                                        5163983
EPF   000.42 093.4 m E Sg      2013/01/10 17:12:00.4  -0.3                          T                 .4  .15        Md 1.5  5163984
SJPF  000.73 274.8 m E Pg      2013/01/10 17:12:00.7   0.0                          T                                        5163995
SJPF  000.73 274.8 m E Sg      2013/01/10 17:12:09.7  -0.5                          T                 .3  .19                5163994
MTLF  001.82 080.2 m E Sg      2013/01/10 17:12:43.8  -0.3                          T                 .2  .17 Ml 1.3         5163991
CAF   002.50 040.8 m E Sg      2013/01/10 17:13:05.5   0.1                          T                 .3  .19 Ml 1.5         5182732

.
EVENT     290041
    Date      Time       Latitude Longitude    Depth    Ndef Nsta Gap    Mag1  N    Mag2  N    Mag3  N   Author         ID
       rms   OT_Error      Smajor Sminor Az        Err   mdist  Mdist     Err        Err        Err      Quality

2013/01/10 20:48:33.8     42.3135    2.3502      4.0 f    44    5 042  Ml 1.8  6  Md 1.8  1              bulletin    290141
                                                                                                         _ldg
      0.46   +-  0.07       1.5    1.1  173.10 +-  0.0    0.13   3.63   +-0.2      +-                    m i ke

PYRENEES
Sta     Dist  EvAz     Phase      Date       Time     TRes  Azim  AzRes  Slow  SRes Def   SNR       Amp   Per   Mag1   Mag2       ID
MTLF  001.03 354.6 m E Pg      2013/01/10 20:48:53.2   0.1                          T                                        5164024
MTLF  001.03 354.6 m E Sg      2013/01/10 20:49:06.6   0.0                          T                2.2  .16 Ml 2.0 Md 1.8  5164023
EPF   001.65 296.5 m E Pn      2013/01/10 20:49:02.2   0.3                          T                                        5164022
EPF   001.65 296.5 m E Sn      2013/01/10 20:49:23.0   0.8                          T                                        5164021
EPF   001.65 296.5 m E Sg      2013/01/10 20:49:26.5   0.7                          T                 .8  .13 Ml 1.9         5164052
LASF  002.08 031.5 m E Pn      2013/01/10 20:49:07.9   0.2                          T                                        5164026
LASF  002.08 031.5 m E Pg      2013/01/10 20:49:12.6   0.2                          T                                        5164053
LASF  002.08 031.5 m E Sn      2013/01/10 20:49:32.7   0.2                          T                 .4  .17 Ml 1.6         5164025
LASF  002.08 031.5 m E Sg      2013/01/10 20:49:39.5   0.2                          T                 .8  .20 Ml 1.8         5164054
ETSF  002.23 286.2 m E Pn      2013/01/10 20:49:10.3   0.5                          T                                        5164020
ETSF  002.23 286.2 m E Pg      2013/01/10 20:49:15.7   0.5                          T                                        5164051
ETSF  002.23 286.2 m E Sn      2013/01/10 20:49:36.5   0.4                          T                                        5164019
ETSF  002.23 286.2 m E Sg      2013/01/10 20:49:44.3   0.4                          T                1.1  .17 Ml 2.1         5164050
SJPF  002.75 288.1 m E Pn      2013/01/10 20:49:17.4   0.5                          T                                        5164058
SJPF  002.75 288.1 m E Pg      2013/01/10 20:49:25.8   0.9                          T                                        5164057
SJPF  002.75 288.1 m E Sn      2013/01/10 20:49:48.9   0.2                          T                                        5164056
SJPF  002.75 288.1 m E Sg      2013/01/10 20:50:00.4   0.1                          T                 .4  .20 Ml 1.6         5164055

.
EVENT     290042
    Date      Time       Latitude Longitude    Depth    Ndef Nsta Gap    Mag1  N    Mag2  N    Mag3  N   Author         ID
       rms   OT_Error      Smajor Sminor Az        Err   mdist  Mdist     Err        Err        Err      Quality

2013/01/10 21:31:15.7     44.6970    6.5931      2.0      11    5 115  Ml 1.2  1  Md 1.5  2              bulletin    290142
                                                                                                         _ldg
      0.28   +-  0.21       4.5    2.2  177.50 +-  0.0    0.13   1.14   +-         +-0.1                 m i ke

FRANCE
Sta     Dist  EvAz     Phase      Date       Time     TRes  Azim  AzRes  Slow  SRes Def   SNR       Amp   Per   Mag1   Mag2       ID
MBDF  000.13 076.7 m E Pg      2013/01/10 21:31:18.8   0.1                          T                                        5164062
MBDF  000.13 076.7 m E Sg      2013/01/10 21:31:20.5  -0.1                          T                3.1  .17        Md 1.4  5164060
ORIF  000.55 293.8 m E Pg      2013/01/10 21:31:26.6   0.3                          T                                        5164061
ORIF  000.55 293.8 m E Sg      2013/01/10 21:31:33.9   0.2                          T                 .8  .20        Md 1.5  5164059
LPL   000.83 006.8 m E Pg      2013/01/10 21:31:31.0  -0.5                          T                                        5164063
LPL   000.83 006.8 m E Sg      2013/01/10 21:31:42.5   0.2                          T                 .3  .20                5164066
LPG   000.81 007.9 m E Pg      2013/01/10 21:31:31.6   0.2                          T                                        5164065
LPG   000.81 007.9 m E Sg      2013/01/10 21:31:42.2   0.3                          T                 .3  .17                5164064
FRF   001.14 178.0 m E Sg      2013/01/10 21:31:55.1   3.4                          T                 .5  .26 Ml 1.2         5182749

.
EVENT     290045
    Date      Time       Latitude Longitude    Depth    Ndef Nsta Gap    Mag1  N    Mag2  N    Mag3  N   Author         ID
       rms   OT_Error      Smajor Sminor Az        Err   mdist  Mdist     Err        Err        Err      Quality

2013/01/11 00:07:50.7     44.0444    7.1257      2.0      22    4 072  Ml 1.5  1  Md 1.4  2              bulletin    290145
                                                                                                         _ldg
      0.17   +-  0.04        .7     .6  131.92 +-  0.0    0.15   1.12   +-         +-0.1                 m i ke

NORTHERN ITALY
Sta     Dist  EvAz     Phase      Date       Time     TRes  Azim  AzRes  Slow  SRes Def   SNR       Amp   Per   Mag1   Mag2       ID
SBF   000.29 128.9 m E Pg      2013/01/11 00:07:56.5   0.0                          T                                        5164218
SBF   000.29 128.9 m E Sg      2013/01/11 00:08:00.3  -0.1                          T                1.8  .28        Md 1.3  5164217
FRF   000.60 215.8 m E Pg      2013/01/11 00:08:01.8  -0.2                          T                                        5164223
FRF   000.60 215.8 m E Sg      2013/01/11 00:08:09.8  -0.1                          T                 .9  .15        Md 1.5  5164220
LMR   000.84 212.4 m E Pg      2013/01/11 00:08:06.6   0.1                          T                                        5164222
LMR   000.84 212.4 m E Sg      2013/01/11 00:08:17.6   0.2                          T                2.3  .24                5164219
SMRF  001.12 267.0 m E Pg      2013/01/11 00:08:13.0   1.2                          T                                        5164221
SMRF  001.12 267.0 m E Sg      2013/01/11 00:08:26.3   0.0                          T                 .7  .18 Ml 1.5         5164216

.
