BEGIN GSE2.0
MSG_TYPE DATA
MSG_ID 13-JUL-1215:12:02  FRA_NDC
E-MAIL
DATA_TYPE BULLETIN
Reviewed Bulletin (REB) # P2012-026  from French NDC for regional phases     PERIOD 27 JUN 2012 TO 03 JUL 2012 Cenalt JP S
EVENT     278767
    Date      Time       Latitude Longitude    Depth    Ndef Nsta Gap    Mag1  N    Mag2  N    Mag3  N   Author         ID
       rms   OT_Error      Smajor Sminor Az        Err   mdist  Mdist     Err        Err        Err      Quality

2012/06/27 00:25:15.2     43.9375    8.7144      6.0 f    33    8 114  Ml 1.8  7  Md 2.0  3              bulletin    278867
                                                                                                         _ldg
      0.71   +-  0.11       2.1    1.9   28.82 +-  0.0    0.37   2.27   +-0.3      +-0.2                 m i ke

CORSICA, FRANCE
Sta     Dist  EvAz     Phase      Date       Time     TRes  Azim  AzRes  Slow  SRes Def   SNR       Amp   Per   Mag1   Mag2       ID
SBF   000.93 265.8 m E Pg      2012/06/27 00:25:32.1  -0.6                          T                                        5014481
SBF   000.93 265.8 m E Sg      2012/06/27 00:25:44.1  -0.7                          T               10.2  .24 Ml 2.4 Md 2.2  5014474
PGF   001.40 171.4 m E Pn      2012/06/27 00:25:39.6  -0.2                          T                                        5014480
PGF   001.40 171.4 m E Sn      2012/06/27 00:25:57.0  -0.6                          T                 .4  .19 Ml 1.6 Md 1.8  5014473
FRF   001.54 256.6 m E Pn      2012/06/27 00:25:41.3  -0.3                          T                                        5014478
FRF   001.54 256.6 m E Sn      2012/06/27 00:26:00.2  -0.6                          T                 .5  .17 Ml 1.6 Md 2.0  5014476
MBDF  001.60 300.2 m E Pn      2012/06/27 00:25:42.8   0.2                          T                                        5014470
MBDF  001.60 300.2 m E Sn      2012/06/27 00:26:02.7   0.4                          T                  1  .25 Ml 1.7         5014469
LMR   001.71 250.1 m E Pn      2012/06/27 00:25:43.5  -0.4                          T                                        5014479
LMR   001.71 250.1 m E Sn      2012/06/27 00:26:04.5  -0.2                          T                 .6  .16 Ml 1.7         5014475
LPG   002.10 318.8 m E Pn      2012/06/27 00:25:49.9   0.4                          T                                        5014477
LPG   002.10 318.8 m E Sn      2012/06/27 00:26:14.6   0.2                          T                 .6  .21 Ml 1.7         5014468
LPL   002.12 318.9 m E Pn      2012/06/27 00:25:49.9   0.2                          T                                        5014471
LPL   002.12 318.9 m E Sn      2012/06/27 00:26:15.5   0.7                          T                 .7  .26 Ml 1.7         5014467
SMRF  002.27 272.1 m E Pn      2012/06/27 00:25:51.1  -0.4                          T                                        5014472

.
EVENT     279421
    Date      Time       Latitude Longitude    Depth    Ndef Nsta Gap    Mag1  N    Mag2  N    Mag3  N   Author         ID
       rms   OT_Error      Smajor Sminor Az        Err   mdist  Mdist     Err        Err        Err      Quality

2012/06/27 04:14:48.3     42.5909     .2844      2.0     140   29 051  Ml 3.0 40  Md 3.2  3              bulletin    279521
                                                                                                         _ldg
      0.89   +-  0.07       1.4    1.2   52.86 +-  0.0    0.10   6.27   +-0.2      +-0.1                 m i ke

PYRENEES
Sta     Dist  EvAz     Phase      Date       Time     TRes  Azim  AzRes  Slow  SRes Def   SNR       Amp   Per   Mag1   Mag2       ID
EPF   000.44 005.3 m E Pg      2012/06/27 04:14:57.2   0.4                          T                                        5013809
EPF   000.44 005.3 m E Sg      2012/06/27 04:15:02.6   0.0                          T              169.5  .38        Md 3.3  5013807
ETSF  000.69 296.6 m E Pg      2012/06/27 04:15:00.3  -1.2                          T   001.0                                5013794
ETSF  000.69 296.6 m E Sg      2012/06/27 04:15:10.6   0.0                          T              131.9  .38        Md 3.2  5013808
SJPF  001.23 295.7 m E Pn      2012/06/27 04:15:10.9   0.1                          T   001.0                                5013803
SJPF  001.23 295.7 m E Pg      2012/06/27 04:15:11.5   0.2                          T                                        5024344
SJPF  001.23 295.7 m E Sn      2012/06/27 04:15:26.9  -0.1                          T   001.0      120.8  .54 Ml 3.3 Md 3.2  5013804
MTLF  001.60 061.5 m E Pg      2012/06/27 04:15:18.7   0.5                          T   001.0                                5013796
MTLF  001.60 061.5 m E Sn      2012/06/27 04:15:35.7  -0.3                          T   001.0       16.5  .44 Ml 2.7         5013797
MTLF  001.60 061.5 m E Sg      2012/06/27 04:15:39.1   0.2                          T               60.9  .44 Ml 3.2         5024331
LFF   002.37 007.8 m E Pn      2012/06/27 04:15:26.8   0.5                          T                                        5014486
LFF   002.37 007.8 m E P       2012/06/27 04:15:30.6   1.7                          T                                        5024347
LFF   002.37 007.8 m E Pg      2012/06/27 04:15:33.5   1.3                          T                                        5024345
LFF   002.37 007.8 m E Sn      2012/06/27 04:15:54.3   0.0                          T   001.0                                5013784
LFF   002.37 007.8 m E Sg      2012/06/27 04:16:02.2  -0.5                          T               76.8  .58 Ml 3.2         5014485
CAF   002.67 028.3 m E Pn      2012/06/27 04:15:30.2  -0.2                          T   001.0                                5013779
CAF   002.67 028.3 m E P       2012/06/27 04:15:34.3   1.2                          T                                        5014487
CAF   002.67 028.3 m E Pg      2012/06/27 04:15:38.4   0.6                          T                                        5024346
CAF   002.67 028.3 m E Sn      2012/06/27 04:16:01.2  -0.3                          T               19.8  .41 Ml 3.0         5013831
CAF   002.67 028.3 m E Sg      2012/06/27 04:16:12.8   0.7                          T               31.1  .52 Ml 3.1         5024330
RJF   002.85 017.7 m E Pn      2012/06/27 04:15:32.6  -0.3                          T   001.0                                5013776
RJF   002.85 017.7 m E P       2012/06/27 04:15:36.5   0.8                          T                                        5024348
RJF   002.85 017.7 m E Sn      2012/06/27 04:16:05.5  -0.4                          T   001.0       27.4  .50 Ml 2.8         5013777
RJF   002.85 017.7 m E Sg      2012/06/27 04:16:17.9   0.0                          T               27.6  .52 Ml 2.8         5024329
LASF  003.00 059.1 m E Pn      2012/06/27 04:15:34.8  -0.1                          T   001.0                                5013781
LASF  003.00 059.1 m E Pg      2012/06/27 04:15:43.8  -0.1                          T                                        5014488
LASF  003.00 059.1 m E Sn      2012/06/27 04:16:09.8   0.4                          T                                        5013832
LASF  003.00 059.1 m E Sg      2012/06/27 04:16:22.8   0.4                          T               36.9  .70 Ml 3.2         5014489
VIVF  003.90 053.1 m E Pn      2012/06/27 04:15:47.1  -0.2                          T                                        5024343
VIVF  003.90 053.1 m E Pg      2012/06/27 04:15:59.0  -1.6                          T                                        5024342
VIVF  003.90 053.1 m E Sg      2012/06/27 04:16:50.4  -0.3                          T               12.5  .60 Ml 2.9         5024332
TCF   003.95 019.8 m E Pn      2012/06/27 04:15:47.9   0.1                          T                                        5013830
TCF   003.95 019.8 m E Pg      2012/06/27 04:16:01.5   0.1                          T                                        5024357
TCF   003.95 019.8 m E Sn      2012/06/27 04:16:31.6  -0.4                          T   001.0        6.8  .42 Ml 2.9         5013791
TCF   003.95 019.8 m E Sg      2012/06/27 04:16:52.6   0.6                          T               15.5  .48 Ml 3.2         5024317
MFF   004.02 355.8 m E Pn      2012/06/27 04:15:48.5  -0.3                          T   001.0                                5013788
MFF   004.02 355.8 m E Pg      2012/06/27 04:16:02.3  -0.4                          T                                        5014483
MFF   004.02 355.8 m E Sn      2012/06/27 04:16:33.3  -0.5                          T   001.0                                5013789
MFF   004.02 355.8 m E Sg      2012/06/27 04:16:54.1  -0.3                          T   001.0       10.3  .46 Ml 3.2         5013790
SMRF  004.10 068.5 m E P       2012/06/27 04:15:53.5  -0.1                          T                                        5024337
SMRF  004.10 068.5 m E Sg      2012/06/27 04:16:56.6  -0.3                          T               15.4  .89 Ml 2.9         5024336
BGF   004.37 023.9 m E Pn      2012/06/27 04:15:53.7   0.1                          T                                        5013826
BGF   004.37 023.9 m E Pg      2012/06/27 04:16:09.5   0.4                          T                                        5024351
BGF   004.37 023.9 m E Sn      2012/06/27 04:16:41.9  -0.2                          T               23.4  .48 Ml 3.4         5014484
BGF   004.37 023.9 m E Sg      2012/06/27 04:17:06.1   1.0                          T               46.3  .46 Ml 3.7         5024319
AVF   004.73 026.5 m E Pn      2012/06/27 04:15:58.4  -0.1                          T                                        5014493
AVF   004.73 026.5 m E Sg      2012/06/27 04:17:16.8   0.2                          T               10.0  .53 Ml 3.1         5014492
SMF   004.78 030.8 m E Pn      2012/06/27 04:15:59.4   0.2                          T                                        5013825
SMF   004.78 030.8 m E P       2012/06/27 04:16:03.2   0.0                          T                                        5024354
SMF   004.78 030.8 m E Pg      2012/06/27 04:16:16.4  -0.3                          T                                        5024353
SMF   004.78 030.8 m E Sn      2012/06/27 04:16:51.8  -0.2                          T                                        5014491
SMF   004.78 030.8 m E Sg      2012/06/27 04:17:17.3  -0.7                          T                5.4  .50 Ml 2.9         5014490
ORIF  004.67 058.2 m E P       2012/06/27 04:16:01.7   0.0                          T                                        5024341
ORIF  004.67 058.2 m E Sg      2012/06/27 04:17:14.6  -0.2                          T                6.2  .70 Ml 2.7         5024333
FRF   004.76 076.1 m E P       2012/06/27 04:16:02.4  -0.5                          T                                        5024338
FRF   004.76 076.1 m E Sg      2012/06/27 04:17:17.0  -0.4                          T                6.4  .62 Ml 2.9         5024335
LOR   005.32 027.3 m E Pn      2012/06/27 04:16:05.8  -0.8 210.6  0.9               T                                        5024315
LOR   005.32 027.3 m E Pg      2012/06/27 04:16:25.0  -1.7                          T                                        5024314
LOR   005.32 027.3 m E Sn      2012/06/27 04:17:04.4  -0.4 189.8  -19.9             T                                        5024313
LOR   005.32 027.3 m E Sg      2012/06/27 04:17:34.7  -0.2 216.3  6.6               T                7.8  .53 Ml 3.1         5024310
HYF   004.97 018.9 m E P       2012/06/27 04:16:05.8   0.0                          T                                        5024352
CABF  005.77 043.9 m E Pn      2012/06/27 04:16:12.7  -0.1                          T                                        5024356
CABF  005.77 043.9 m E Pg      2012/06/27 04:16:35.0  -0.1                          T                                        5024355
CABF  005.77 043.9 m E Sg      2012/06/27 04:17:48.8  -0.2                          T               15.9  .76 Ml 3.4         5024318
LPL   005.49 055.6 m E P       2012/06/27 04:16:13.2  -0.2                          T                                        5024340
LPL   005.49 055.6 m E Sg      2012/06/27 04:17:40.4   0.0                          T                2.1  .36 Ml 2.7         5024334
LPG   005.49 055.9 m E P       2012/06/27 04:16:13.3  -0.2                          T                                        5024339
QUIF  005.86 336.6 m E Pn      2012/06/27 04:16:13.6  -0.2                          T   001.0                                5013799
QUIF  005.86 336.6 m E P       2012/06/27 04:16:18.3   0.1                          T                                        5024350
QUIF  005.86 336.6 m E Sn      2012/06/27 04:17:16.6  -0.9                          T                6.1  .52 Ml 3.1         5014494
QUIF  005.86 336.6 m E Sg      2012/06/27 04:17:50.8  -0.8                          T                2.2  .36 Ml 2.8         5024321
GRR   005.85 352.5 m E Pn      2012/06/27 04:16:13.9   0.2                          T                                        5014495
GRR   005.85 352.5 m E Sn      2012/06/27 04:17:17.3  -0.2                          T                4.9  .37 Ml 3.0         5014496
GRR   005.85 352.5 m E Sg      2012/06/27 04:17:52.1   0.6                          T                5.2  .49 Ml 3.0         5024328
SGMF  006.01 341.5 m E Pn      2012/06/27 04:16:15.3  -0.5                          T   001.0                                5013801
SGMF  006.01 341.5 m E Sn      2012/06/27 04:17:20.9  -0.2                          T                4.0  .42 Ml 3.1         5024322
SGMF  006.01 341.5 m E Sg      2012/06/27 04:17:56.1  -0.2                          T                3.2  .51 Ml 2.9         5024320
LDF   006.01 357.4 m E Pn      2012/06/27 04:16:15.6  -0.3                          T                                        5024349
LDF   006.01 357.4 m E Sn      2012/06/27 04:17:20.7  -0.6                          T                9.3  .54 Ml 3.3         5024327
LDF   006.01 357.4 m E Sg      2012/06/27 04:17:56.2  -0.1                          T                8.7  .70 Ml 3.2         5024326
ROSF  006.27 337.7 m E Pn      2012/06/27 04:16:20.2   0.8                          T   001.0                                5013800
ROSF  006.27 337.7 m E Sn      2012/06/27 04:17:27.3  -0.1                          T                5.2  .46 Ml 3.2         5024323
SSF   005.02 026.0 m E Pg      2012/06/27 04:16:21.3   0.1                          T                                        5024316
SSF   005.02 026.0 m E Sn      2012/06/27 04:16:57.8   0.1                          T                2.9  .33 Ml 2.9         5024312
SSF   005.02 026.0 m E Sg      2012/06/27 04:17:25.1  -0.5                          T                9.5  .58 Ml 3.2         5024311
FLN   006.20 355.3 m E Sn      2012/06/27 04:17:25.2  -0.5                          T                1.9  .33 Ml 2.8         5024325
FLN   006.20 355.3 m E Sg      2012/06/27 04:18:02.4   0.3 168.3  -6.4              T                3.5  .46 Ml 2.9         5024324

.
EVENT     278760
    Date      Time       Latitude Longitude    Depth    Ndef Nsta Gap    Mag1  N    Mag2  N    Mag3  N   Author         ID
       rms   OT_Error      Smajor Sminor Az        Err   mdist  Mdist     Err        Err        Err      Quality

2012/06/27 04:43:15.6     44.9740   11.0931      2.0      38   10 106  Ml 2.7 12                         bulletin    278860
                                                                                                         _ldg
      0.51   +-  0.16       3.9    2.3   74.58 +-  0.0    0.22   4.46   +-0.2                            m i ke

NORTHERN ITALY
Sta     Dist  EvAz     Phase      Date       Time     TRes  Azim  AzRes  Slow  SRes Def   SNR       Amp   Per   Mag1   Mag2       ID
SBF   002.85 248.3 m E Pn      2012/06/27 04:44:00.1  -0.1                          T                                        5014522
SBF   002.85 248.3 m E Sn      2012/06/27 04:44:33.5   0.5                          T                9.1  .29 Ml 2.9         5014521
PGF   002.86 212.8 m E Pn      2012/06/27 04:44:00.5   0.0                          T                                        5014524
PGF   002.86 212.8 m E Sn      2012/06/27 04:44:33.6   0.2                          T               10.9  .32 Ml 3.2         5014523
MBDF  003.08 266.9 m E Pn      2012/06/27 04:44:03.3  -0.3                          T                                        5014511
MBDF  003.08 266.9 m E Sn      2012/06/27 04:44:38.9   0.1                          T                9.0  .66 Ml 2.6         5014510
LPG   003.11 281.2 m E Pn      2012/06/27 04:44:03.8  -0.3                          T                                        5014517
LPG   003.11 281.2 m E Sn      2012/06/27 04:44:38.9  -0.7                          T                8.3  .80 Ml 2.5         5014516
LPL   003.13 281.5 m E Pn      2012/06/27 04:44:05.0   0.8                          T                                        5014515
LPL   003.13 281.5 m E Sn      2012/06/27 04:44:39.4  -0.6                          T                2.7  .32 Ml 2.4         5014514
FRF   003.49 247.7 m E Pn      2012/06/27 04:44:08.8  -0.1                          T                                        5014519
FRF   003.49 247.7 m E Sn      2012/06/27 04:44:49.5   1.0                          T                7.2  .34 Ml 2.9         5014518
LMR   003.68 245.2 m E Pn      2012/06/27 04:44:11.8   0.2                          T                                        5014525
LMR   003.68 245.2 m E Sn      2012/06/27 04:44:53.3   0.4                          T                3.7  .27 Ml 2.7         5014520
ORIF  003.70 271.0 m E Pn      2012/06/27 04:44:12.1   0.2                          T                                        5014513
ORIF  003.70 271.0 m E Sn      2012/06/27 04:44:52.7  -0.9                          T                9.0  .72 Ml 2.7         5014512
CDF   004.33 324.0 m E Pn      2012/06/27 04:44:20.3  -0.1                          T                                        5014509
CDF   004.33 324.0 m E Sn      2012/06/27 04:45:07.7  -0.8                          T                1.7  .37 Ml 2.5         5014508
HAU   004.46 314.5 m E Pn      2012/06/27 04:44:23.1   0.8                          T                                        5014507
HAU   004.46 314.5 m E Sn      2012/06/27 04:45:12.9   1.2                          T                3.1  .26 Ml 2.6         5014506

.
