EVENT     273064
    Date      Time       Latitude Longitude    Depth    Ndef Nsta Gap    Mag1  N    Mag2  N    Mag3  N   Author         ID
       rms   OT_Error      Smajor Sminor Az        Err   mdist  Mdist     Err        Err        Err      Quality

2012/04/04 17:20:55.7     48.3672    8.9636     10.0      11    2 059  Ml 2.0  2                         js067245    273084

      0.42   +-  0.08       1.7    1.2  126.41 +-  0.0    0.17   1.52   +-0.2                            m i ke

GERMANY
Sta     Dist  EvAz     Phase      Date       Time     TRes  Azim  AzRes  Slow  SRes Def   SNR       Amp   Per   Mag1   Mag2       ID
CDF   001.13 272.9 m E Pg      2012/04/04 17:21:16.8  -0.2                          T                                        4902246
CDF   001.13 272.9 m E Sg      2012/04/04 17:21:31.6   0.0                          T                3.3  .22 Ml 2.2         4902245
HINF  001.52 249.5 m E Pg      2012/04/04 17:21:24.1   0.0                          T                                        4902243
HINF  001.52 249.5 m E Sg      2012/04/04 17:21:43.8   0.0                          T                1.5  .21 Ml 1.9         4902244

.
EVENT     273047
    Date      Time       Latitude Longitude    Depth    Ndef Nsta Gap    Mag1  N    Mag2  N    Mag3  N   Author         ID
       rms   OT_Error      Smajor Sminor Az        Err   mdist  Mdist     Err        Err        Err      Quality

2012/04/04 20:50:36.6     44.5304    6.6382      2.0      15    7 121  Ml 1.3  5  Md 1.4  1              bulletin    273067
                                                                                                         _ldg
      1.37   +-  0.19       5.2    2.9   85.87 +-  0.0    0.22   1.20   +-0.2      +-                    m i ke

FRANCE
Sta     Dist  EvAz     Phase      Date       Time     TRes  Azim  AzRes  Slow  SRes Def   SNR       Amp   Per   Mag1   Mag2       ID
MBDF  000.22 025.8 m E Pg      2012/04/04 20:50:40.7  -0.5                          T                                        4901602
MBDF  000.22 025.8 m E Sg      2012/04/04 20:50:44.2   0.0                          T                3.5  .36        Md 1.4  4901601
ORIF  000.67 305.9 m E Pg      2012/04/04 20:50:49.9   0.6                          T                                        4901599
ORIF  000.67 305.9 m E Sg      2012/04/04 20:50:58.6   0.5                          T                1.4  .24                4901600
LPG   000.97 004.7 m E Pg      2012/04/04 20:50:54.7  -0.5                          T                                        4901595
LPG   000.97 004.7 m E Sg      2012/04/04 20:51:07.6  -0.2                          T                 .4  .21 Ml 1.1         4901596
LPL   000.99 003.8 m E Pg      2012/04/04 20:50:55.2  -0.3                          T                                        4901598
LPL   000.99 003.8 m E Sg      2012/04/04 20:51:08.8   0.5                          T                 .5  .23 Ml 1.2         4901597
FRF   000.97 179.6 m E Pn      2012/04/04 20:50:55.9   0.3                          T                                        4902407
FRF   000.97 179.6 m E Sg      2012/04/04 20:51:07.5   0.1                          T                1.0  .19 Ml 1.6         4902406
LMR   001.20 184.5 m E Pg      2012/04/04 20:50:58.9  -0.2                          T                                        4902404
LMR   001.20 184.5 m E Sg      2012/04/04 20:51:14.4  -0.1                          T                 .7  .23 Ml 1.4         4902405
SBF   000.88 139.1 m E Sg      2012/04/04 20:51:04.5  -0.2                          T                1.6  .31 Ml 1.5         4902410

.
EVENT     273051
    Date      Time       Latitude Longitude    Depth    Ndef Nsta Gap    Mag1  N    Mag2  N    Mag3  N   Author         ID
       rms   OT_Error      Smajor Sminor Az        Err   mdist  Mdist     Err        Err        Err      Quality

2012/04/04 23:06:29.2     42.5256    1.4169      6.0 f   138   28 029  Ml 3.0 26  Md 3.1  3              js067245    273071

      0.82   +-  0.05       1.1     .9  169.45 +-  0.0    0.13   6.68   +-0.3      +-0.1                 m i ke

PYRENEES
Sta     Dist  EvAz     Phase      Date       Time     TRes  Azim  AzRes  Slow  SRes Def   SNR       Amp   Per   Mag1   Mag2       ID
EPF   000.94 302.8 m E Pg      2012/04/04 23:06:46.4  -0.5                          T   001.0                                4902006
EPF   000.94 302.8 m E P       2012/04/04 23:06:48.6   0.1                          T                                        4902356
EPF   000.94 302.8 m E Sg      2012/04/04 23:06:58.8  -0.3                          T   001.0       26.3  .24 Ml 2.8 Md 3.1  4902007
MTLF  001.00 035.5 m E Pg      2012/04/04 23:06:48.2   0.1                          T   001.0                                4902035
MTLF  001.00 035.5 m E P       2012/04/04 23:06:50.0   0.2                          T                                        4902355
MTLF  001.00 035.5 m E Sg      2012/04/04 23:07:00.9  -0.2                          T   001.0      104.7  .28 Ml 3.4 Md 3.1  4902036
ETSF  001.50 285.0 m E Pn      2012/04/04 23:06:54.9  -0.1                          T   001.0                                4902031
ETSF  001.50 285.0 m E P       2012/04/04 23:06:56.8  -0.2                          T                                        4902357
ETSF  001.50 285.0 m E Pg      2012/04/04 23:06:57.3   0.0                          T   001.0                                4902032
ETSF  001.50 285.0 m E Sn      2012/04/04 23:07:13.5  -0.3                          T   001.0                                4902033
ETSF  001.50 285.0 m E Sg      2012/04/04 23:07:16.6  -0.1                          T   001.0       25.5  .28 Ml 3.0 Md 3.0  4902034
SJPF  002.03 287.7 m E P       2012/04/04 23:07:04.7   0.2                          T                                        4902358
SJPF  002.03 287.7 m E Pg      2012/04/04 23:07:06.8  -0.1                          T   001.0                                4902040
SJPF  002.03 287.7 m E Sg      2012/04/04 23:07:32.6  -0.5                          T   001.0       12.7  .32 Ml 2.8         4902041
LASF  002.36 048.1 m E Pn      2012/04/04 23:07:07.4   0.7                          T   001.0                                4902011
LASF  002.36 048.1 m E Pg      2012/04/04 23:07:13.5   0.5                          T   001.0                                4902012
LASF  002.36 048.1 m E Sn      2012/04/04 23:07:34.3   0.1                          T   001.0                                4902013
LASF  002.36 048.1 m E Sg      2012/04/04 23:07:43.4   0.0                          T   001.0       18.5  .28 Ml 3.1         4902014
CAF   002.44 010.8 m E Pn      2012/04/04 23:07:08.8   0.9                          T   001.0                                4902003
CAF   002.44 010.8 m E Pg      2012/04/04 23:07:15.0   0.4                          T   001.0                                4902004
CAF   002.44 010.8 m E Sn      2012/04/04 23:07:35.5  -0.8                          T   001.0       17.2  .20 Ml 3.2         4902005
CAF   002.44 010.8 m E Sg      2012/04/04 23:07:45.7  -0.3                          T               16.2  .18 Ml 3.3         4902343
LFF   002.46 348.7 m E Pn      2012/04/04 23:07:09.2   1.2                          T   001.0                                4902015
LFF   002.46 348.7 m E Pg      2012/04/04 23:07:15.2   0.4                          T                                        4902359
LFF   002.46 348.7 m E Sn      2012/04/04 23:07:36.0  -0.6                          T   001.0                                4902016
LFF   002.46 348.7 m E Sg      2012/04/04 23:07:46.1  -0.4                          T   001.0         16  .28 Ml 2.9         4902017
RJF   002.78 001.4 m E Pn      2012/04/04 23:07:13.1   0.7                          T   001.0                                4901998
RJF   002.78 001.4 m E Pg      2012/04/04 23:07:20.7   0.0                          T                                        4902360
RJF   002.78 001.4 m E Sn      2012/04/04 23:07:43.1  -1.1                          T   001.0         13  .24 Ml 2.8         4901999
RJF   002.78 001.4 m E Sg      2012/04/04 23:07:56.0  -0.4                          T               12.3  .22 Ml 2.8         4902342
VIVF  003.32 044.3 m E Pn      2012/04/04 23:07:19.5  -0.2                          T   001.0                                4902042
VIVF  003.32 044.3 m E P       2012/04/04 23:07:22.9   0.1                          T                                        4902353
VIVF  003.32 044.3 m E Pg      2012/04/04 23:07:30.9   0.2                          T                                        4902354
VIVF  003.32 044.3 m E Sg      2012/04/04 23:08:13.3   0.1                          T                7.3  .25 Ml 3.0         4902344
SMRF  003.37 063.1 m E P       2012/04/04 23:07:22.8  -0.7                          T                                        4902348
SMRF  003.37 063.1 m E Sg      2012/04/04 23:08:15.1   0.3                          T                2.6  .35 Ml 2.4         4902345
TCF   003.80 008.3 m E Pn      2012/04/04 23:07:26.9   0.6                          T   001.0                                4902028
TCF   003.80 008.3 m E P       2012/04/04 23:07:29.8   0.1                          T                                        4902366
TCF   003.80 008.3 m E Sn      2012/04/04 23:08:07.6  -1.2                          T   001.0                                4902029
TCF   003.80 008.3 m E Sg      2012/04/04 23:08:27.2  -1.3                          T   001.0        5.1  .24 Ml 3.0         4902030
LMR   003.83 076.1 m E Pn      2012/04/04 23:07:28.2   1.6                          T   001.0                                4902018
LMR   003.83 076.1 m E Sn      2012/04/04 23:08:09.3   0.1                          T                  1  .23 Ml 2.3         4902346
ORIF  004.02 052.0 m E Pn      2012/04/04 23:07:30.1   0.7                          T   001.0                                4902037
ORIF  004.02 052.0 m E P       2012/04/04 23:07:32.6  -0.3                          T                                        4902351
FRF   003.97 073.1 m E P       2012/04/04 23:07:30.9  -1.2                          T                                        4902347
FRF   003.97 073.1 m E Sg      2012/04/04 23:08:33.7   0.1                          T   001.0        2.2  .28 Ml 2.6         4902010
BGF   004.16 013.7 m E Pn      2012/04/04 23:07:32.5   1.4                          T   001.0                                4902001
BGF   004.16 013.7 m E Pg      2012/04/04 23:07:46.6   0.5                          T                                        4902363
BGF   004.16 013.7 m E Sg      2012/04/04 23:08:39.2  -0.3                          T   001.0       30.4  .36 Ml 3.6         4902002
MFF   004.23 345.2 m E Pn      2012/04/04 23:07:33.5   1.4                          T   001.0                                4902022
MFF   004.23 345.2 m E Sg      2012/04/04 23:08:40.8  -0.8                          T   001.0        3.9  .36 Ml 2.9         4902023
SMF   004.47 022.0 m E Pn      2012/04/04 23:07:36.3   0.9                          T                                        4902364
SMF   004.47 022.0 m E Sg      2012/04/04 23:08:49.2   0.0                          T                4.8  .38 Ml 2.9         4902339
AVF   004.48 017.3 m E Pn      2012/04/04 23:07:36.6   1.1                          T                                        4902365
AVF   004.48 017.3 m E Sg      2012/04/04 23:08:49.1  -0.4                          T   001.0        2.4  .24 Ml 2.8         4902000
SBF   004.60 071.1 m E Pn      2012/04/04 23:07:37.6   0.4                          T   001.0                                4902026
MBDF  004.47 058.7 m E P       2012/04/04 23:07:38.4  -1.0                          T                                        4902352
LPL   004.86 050.2 m E Pn      2012/04/04 23:07:40.7  -0.3                          T   001.0                                4902021
LPL   004.86 050.2 m E P       2012/04/04 23:07:44.8  -0.2                          T                                        4902350
LPG   004.86 050.5 m E Pn      2012/04/04 23:07:41.0   0.0                          T   001.0                                4902020
LPG   004.86 050.5 m E P       2012/04/04 23:07:44.9  -0.2                          T                                        4902349
HYF   004.82 010.0 m E P       2012/04/04 23:07:44.3   0.2                          T                                        4902362
HYF   004.82 010.0 m E Sg      2012/04/04 23:08:59.8  -0.3                          T                                        4902340
PGF   005.60 087.2 m E Pn      2012/04/04 23:07:51.6   0.7                          T   001.0                                4902024
PGF   005.60 087.2 m E Sn      2012/04/04 23:08:53.8   2.0                          T   001.0        2.7  .40 Ml 3.1         4902025
SSF   004.77 017.4 m E Sg      2012/04/04 23:08:58.4  -0.2                          T   001.0        3.7  .32 Ml 3.0         4902027
LOR   005.05 019.3 m E Sg      2012/04/04 23:09:07.9   0.6 197.6  -3.4              T   001.0        4.4  .36 Ml 3.0         4902019
FLN   006.38 348.6 m E Sn      2012/04/04 23:09:10.5   0.3 167.6  0.4               T   001.0        5.2  .76 Ml 2.8         4902008
ROSF  006.68 332.0 m E Sn      2012/04/04 23:09:17.9   0.5                          T   001.0        9.5  .84 Ml 3.3         4902038

.
EVENT     273049
    Date      Time       Latitude Longitude    Depth    Ndef Nsta Gap    Mag1  N    Mag2  N    Mag3  N   Author         ID
       rms   OT_Error      Smajor Sminor Az        Err   mdist  Mdist     Err        Err        Err      Quality

2012/04/05 01:13:22.5     43.6242    3.2117     15.0      14    6 203  Ml 1.7  4                         bulletin    273069
                                                                                                         _ldg
      0.54   +-  0.17       4.5    2.0  145.63 +-  0.0    0.65   2.21   +-0.1                            m i ke

NEAR SOUTH COAST OF FRANCE
Sta     Dist  EvAz     Phase      Date       Time     TRes  Azim  AzRes  Slow  SRes Def   SNR       Amp   Per   Mag1   Mag2       ID
LASF  000.65 045.7 m E Pg      2012/04/05 01:13:35.3   0.3                          T                                        4901628
LASF  000.65 045.7 m E Sg      2012/04/05 01:13:44.0   0.3                          T                4.7  .20                4901624
MTLF  000.78 249.0 m E Pg      2012/04/05 01:13:37.1  -0.2                          T                                        4901627
MTLF  000.78 249.0 m E Sg      2012/04/05 01:13:48.0   0.4                          T                2.6  .22                4901625
CAF   001.54 328.0 m E Pg      2012/04/05 01:13:51.7   0.3                          T                                        4902427
CAF   001.54 328.0 m E Sg      2012/04/05 01:14:09.9  -1.4                          T                1.1  .19 Ml 1.8         4902428
VIVF  001.62 039.9 m E Pg      2012/04/05 01:13:52.3  -0.5                          T                                        4901620
VIVF  001.62 039.9 m E Sg      2012/04/05 01:14:13.9   0.2                          T                  1  .21 Ml 1.8         4901619
EPF   002.18 255.2 m E Pn      2012/04/05 01:13:56.5  -0.1                          T                                        4901626
EPF   002.18 255.2 m E Pg      2012/04/05 01:14:04.2   1.2                          T                                        4902426
EPF   002.18 255.2 m E Sg      2012/04/05 01:14:31.2   0.0                          T                 .7  .22 Ml 1.8         4902430
LFF   002.21 307.4 m E Sg      2012/04/05 01:14:32.6   0.6                          T                 .6  .18 Ml 1.6         4902429

.
EVENT     273055
    Date      Time       Latitude Longitude    Depth    Ndef Nsta Gap    Mag1  N    Mag2  N    Mag3  N   Author         ID
       rms   OT_Error      Smajor Sminor Az        Err   mdist  Mdist     Err        Err        Err      Quality

2012/04/05 04:12:41.9     42.9649   -1.2703      2.0      13    3 095  Ml 1.6  1  Md 1.6  2              js067245    273075

      0.27   +-  0.08       1.6    1.4  110.97 +-  0.0    0.08   1.18   +-         +-0.1                 m i ke

PYRENEES
Sta     Dist  EvAz     Phase      Date       Time     TRes  Azim  AzRes  Slow  SRes Def   SNR       Amp   Per   Mag1   Mag2       ID
SJPF  000.15 012.6 m E Pg      2012/04/05 04:12:45.1   0.0                          T                                        4902435
SJPF  000.15 012.6 m E Sg      2012/04/05 04:12:46.8  -0.5                          T                9.9  .16        Md 1.5  4902434
ETSF  000.53 097.0 m E Pg      2012/04/05 04:12:51.8  -0.3                          T                                        4902432
ETSF  000.53 097.0 m E Sg      2012/04/05 04:12:59.0   0.0                          T                1.3  .27        Md 1.6  4902433
EPF   001.18 086.3 m E Pg      2012/04/05 04:13:04.5   0.4                          T                                        4902437
EPF   001.18 086.3 m E Sg      2012/04/05 04:13:19.3  -0.2                          T                1.7  .34 Ml 1.6         4902436

.
