EVENT     271435
    Date      Time       Latitude Longitude    Depth    Ndef Nsta Gap    Mag1  N    Mag2  N    Mag3  N   Author         ID
       rms   OT_Error      Smajor Sminor Az        Err   mdist  Mdist     Err        Err        Err      Quality

2012/03/08 01:06:03.4     44.5103    6.6868      2.0      38    9 047  Ml 1.6  6  Md 1.7  1              js067245    271455

      0.40   +-  0.07       1.6    1.1   49.38 +-  0.0    0.09   1.48   +-0.3      +-                    m i ke

FRANCE
Sta     Dist  EvAz     Phase      Date       Time     TRes  Azim  AzRes  Slow  SRes Def   SNR       Amp   Per   Mag1   Mag2       ID
MBDF  000.22 015.5 m E Pg      2012/03/08 01:06:08.3   0.2                          T                                        4874530
MBDF  000.22 015.5 m E Sg      2012/03/08 01:06:11.6   0.4                          T                6.4  .22        Md 1.7  4874529
ORIF  000.71 305.6 m E Pg      2012/03/08 01:06:16.7  -0.2                          T                                        4874528
ORIF  000.71 305.6 m E Sg      2012/03/08 01:06:26.0  -0.1                          T                3.7  .22                4874527
SBF   000.84 140.0 m E Pg      2012/03/08 01:06:19.5   0.1                          T                                        4876299
SBF   000.84 140.0 m E Sg      2012/03/08 01:06:30.5   0.2                          T                1.5  .21                4874519
FRF   000.95 181.8 m E Pn      2012/03/08 01:06:22.0  -0.1                          T                                        4874523
FRF   000.95 181.8 m E Sg      2012/03/08 01:06:33.5  -0.1                          T                4.3  .29 Ml 2.0         4874525
LPG   000.99 002.6 m E Pg      2012/03/08 01:06:22.2  -0.2                          T                                        4874522
LPG   000.99 002.6 m E Sg      2012/03/08 01:06:35.3   0.1                          T                 .9  .20 Ml 1.4         4874518
SMRF  000.96 236.6 m E Pn      2012/03/08 01:06:22.9   0.6                          T                                        4874517
SMRF  000.96 236.6 m E Sn      2012/03/08 01:06:35.8   0.0                          T                 .8  .22 Ml 1.4         4874515
LPL   001.01 001.8 m E Pg      2012/03/08 01:06:23.0   0.4                          T                                        4874526
LPL   001.01 001.8 m E Sg      2012/03/08 01:06:35.6  -0.1                          T                 .7  .21 Ml 1.4         4876298
LMR   001.18 186.3 m E Pg      2012/03/08 01:06:26.9   1.3                          T                                        4874521
LMR   001.18 186.3 m E Sg      2012/03/08 01:06:41.2   0.3                          T                2.3  .26 Ml 1.9         4874524
VIVF  001.48 284.2 m E Pg      2012/03/08 01:06:30.9  -0.1                          T                                        4874512
VIVF  001.48 284.2 m E Sg      2012/03/08 01:06:50.0  -0.1                          T                 .7  .28 Ml 1.4         4874513

.
EVENT     271436
    Date      Time       Latitude Longitude    Depth    Ndef Nsta Gap    Mag1  N    Mag2  N    Mag3  N   Author         ID
       rms   OT_Error      Smajor Sminor Az        Err   mdist  Mdist     Err        Err        Err      Quality

2012/03/08 02:02:00.4     44.5116    6.6867      2.0      28    9 047  Ml 1.6  5  Md 1.7  2              js067245    271456

      0.68   +-  0.12       2.9    2.1   65.14 +-  0.0    0.10   1.48   +-0.3      +-0.1                 m i ke

FRANCE
Sta     Dist  EvAz     Phase      Date       Time     TRes  Azim  AzRes  Slow  SRes Def   SNR       Amp   Per   Mag1   Mag2       ID
MBDF  000.22 015.7 m E Pg      2012/03/08 02:02:05.3   0.2                          T                                        4874547
MBDF  000.22 015.7 m E Sg      2012/03/08 02:02:08.7   0.5                          T                6.8  .20        Md 1.7  4874541
ORIF  000.70 305.5 m E Pg      2012/03/08 02:02:13.8  -0.1                          T                                        4874546
ORIF  000.70 305.5 m E Sg      2012/03/08 02:02:22.9  -0.2                          T                3.4  .24                4874542
SBF   000.84 140.0 m E Pg      2012/03/08 02:02:16.2  -0.2                          T                                        4874536
SBF   000.84 140.0 m E Sg      2012/03/08 02:02:27.2  -0.2                          T                2.6  .23        Md 1.8  4874535
FRF   000.95 181.7 m E Pn      2012/03/08 02:02:18.6  -0.6                          T                                        4874543
FRF   000.95 181.7 m E Sg      2012/03/08 02:02:29.7  -0.9                          T                2.8  .24 Ml 1.9         4874538
LPG   000.99 002.6 m E Pg      2012/03/08 02:02:19.4   0.1                          T                                        4874544
LPG   000.99 002.6 m E Sg      2012/03/08 02:02:32.2   0.0                          T                 .8  .22 Ml 1.4         4876337
LPL   001.01 001.8 m E Pg      2012/03/08 02:02:19.6   0.0                          T                                        4874545
LPL   001.01 001.8 m E Sg      2012/03/08 02:02:32.3  -0.4                          T                 .7  .25 Ml 1.3         4876336
SMRF  000.96 236.6 m E Pn      2012/03/08 02:02:19.7   0.3                          T                                        4874537
LMR   001.18 186.3 m E P       2012/03/08 02:02:23.6  -0.5                          T                                        4874539
LMR   001.18 186.3 m E Sg      2012/03/08 02:02:37.9   0.0                          T                1.4  .25 Ml 1.6         4874540
VIVF  001.48 284.2 m E Pg      2012/03/08 02:02:27.6  -0.4                          T                                        4874533
VIVF  001.48 284.2 m E Sg      2012/03/08 02:02:46.9  -0.3                          T                1.9  .37 Ml 1.7         4874534

.
EVENT     271437
    Date      Time       Latitude Longitude    Depth    Ndef Nsta Gap    Mag1  N    Mag2  N    Mag3  N   Author         ID
       rms   OT_Error      Smajor Sminor Az        Err   mdist  Mdist     Err        Err        Err      Quality

2012/03/08 02:10:51.0     44.5009    6.6880      2.0      39    9 047  Ml 2.0  5  Md 1.9  3              js067245    271457

      0.59   +-  0.06       1.3    1.1   52.74 +-  0.0    0.09   1.48   +-0.4      +-0.0                 m i ke

FRANCE
Sta     Dist  EvAz     Phase      Date       Time     TRes  Azim  AzRes  Slow  SRes Def   SNR       Amp   Per   Mag1   Mag2       ID
MBDF  000.23 014.7 m E Pg      2012/03/08 02:10:56.1   0.2                          T                                        4874592
MBDF  000.23 014.7 m E Sg      2012/03/08 02:10:59.8   0.7                          T                8.4  .24        Md 2.0  4874586
ORIF  000.71 306.2 m E Pg      2012/03/08 02:11:04.5  -0.1                          T                                        4874591
ORIF  000.71 306.2 m E Sg      2012/03/08 02:11:14.1   0.2                          T                8.9  .22        Md 1.9  4874585
SBF   000.83 139.6 m E Pg      2012/03/08 02:11:07.1   0.3                          T                                        4874578
SBF   000.83 139.6 m E Sg      2012/03/08 02:11:17.6   0.0                          T                                        4874577
FRF   000.94 181.8 m E Pn      2012/03/08 02:11:09.3  -0.3                          T                                        4874588
FRF   000.94 181.8 m E Sg      2012/03/08 02:11:21.7   0.8                          T                6.3  .19 Ml 2.4 Md 1.9  4874584
LPG   001.00 002.6 m E Pg      2012/03/08 02:11:10.0  -0.1                          T                                        4874589
LPG   001.00 002.6 m E Sg      2012/03/08 02:11:23.5   0.4                          T                1.6  .26 Ml 1.6         4874582
SMRF  000.96 237.1 m E Pn      2012/03/08 02:11:10.3   0.4                          T                                        4874579
SMRF  000.96 237.1 m E Sg      2012/03/08 02:11:22.1   0.6                          T                3.1  .34 Ml 1.8         4874580
LPL   001.02 001.8 m E Pg      2012/03/08 02:11:10.4   0.0                          T                                        4874590
LPL   001.02 001.8 m E Sg      2012/03/08 02:11:23.9   0.3                          T                                        4874581
LMR   001.17 186.4 m E P       2012/03/08 02:11:14.3  -0.2                          T                                        4874587
LMR   001.17 186.4 m E Sg      2012/03/08 02:11:28.1   0.0                          T                9.5  .24 Ml 2.5         4874583
VIVF  001.48 284.6 m E Pg      2012/03/08 02:11:18.2  -0.5                          T                                        4874575
VIVF  001.48 284.6 m E Sg      2012/03/08 02:11:37.6  -0.2                          T                1.7  .26 Ml 1.8         4874576

.
EVENT     271438
    Date      Time       Latitude Longitude    Depth    Ndef Nsta Gap    Mag1  N    Mag2  N    Mag3  N   Author         ID
       rms   OT_Error      Smajor Sminor Az        Err   mdist  Mdist     Err        Err        Err      Quality

2012/03/08 02:28:47.0     44.5180    6.6899      2.0      83   24 039  Ml 2.5 13  Md 2.5  2              js067245    271458

      0.85   +-  0.07       1.7    1.2   52.88 +-  0.0    0.10   5.79   +-0.3      +-0.0                 m i ke

FRANCE
Sta     Dist  EvAz     Phase      Date       Time     TRes  Azim  AzRes  Slow  SRes Def   SNR       Amp   Per   Mag1   Mag2       ID
MBDF  000.22 015.5 m E Pg      2012/03/08 02:28:51.9   0.4                          T   001.0                                4866551
MBDF  000.22 015.5 m E Sg      2012/03/08 02:28:55.5   1.0                          T               79.8  .23        Md 2.6  4874640
ORIF  000.70 305.0 m E Pg      2012/03/08 02:29:00.4   0.0                          T   001.0                                4866552
ORIF  000.70 305.0 m E Sg      2012/03/08 02:29:10.2   0.6                          T               48.0  .22        Md 2.5  4874629
SBF   000.85 140.4 m E Pg      2012/03/08 02:29:03.4   0.4                          T   001.0                                4866542
SBF   000.85 140.4 m E Sg      2012/03/08 02:29:13.7  -0.3                          T   001.0       49.2  .28                4866543
FRF   000.96 181.9 m E Pg      2012/03/08 02:29:05.2   0.2                          T   001.0                                4866528
FRF   000.96 181.9 m E P       2012/03/08 02:29:06.3  -0.8                          T                                        4874627
FRF   000.96 181.9 m E Sg      2012/03/08 02:29:17.7   0.2                          T   001.0       53.5  .22 Ml 3.2         4866529
LPG   000.98 002.5 m E Pg      2012/03/08 02:29:06.0   0.2                          T   001.0                                4866537
LPG   000.98 002.5 m E Sg      2012/03/08 02:29:19.1   0.6                          T   001.0        7.5  .25 Ml 2.3         4866538
LPL   001.00 001.7 m E Pg      2012/03/08 02:29:06.3   0.2                          T   001.0                                4866539
LPL   001.00 001.7 m E Sg      2012/03/08 02:29:19.5   0.5                          T                7.9  .24 Ml 2.3         4874628
SMRF  000.97 236.3 m E Pg      2012/03/08 02:29:06.5   1.3                          T   001.0                                4866555
SMRF  000.97 236.3 m E Sg      2012/03/08 02:29:18.3   0.5                          T   001.0       13.8  .30 Ml 2.5         4866556
LMR   001.19 186.4 m E Pn      2012/03/08 02:29:09.1   0.1                          T   001.0                                4866531
LMR   001.19 186.4 m E P       2012/03/08 02:29:10.1  -0.6                          T                                        4874641
LMR   001.19 186.4 m E Sg      2012/03/08 02:29:24.6  -0.1                          T   001.0       49.2  .26 Ml 3.2         4866533
VIVF  001.48 283.9 m E Pg      2012/03/08 02:29:14.3  -0.3                          T   001.0                                4866553
VIVF  001.48 283.9 m E Sg      2012/03/08 02:29:33.4  -0.4                          T   001.0       14.1  .34 Ml 2.6         4866554
LASF  002.08 258.7 m E P       2012/03/08 02:29:23.3  -0.1                          T                                        4874630
LASF  002.08 258.7 m E Sn      2012/03/08 02:29:45.5  -0.7                          T                2.5  .26 Ml 2.2         4874631
CABF  002.14 348.8 m E P       2012/03/08 02:29:25.0   0.7                          T   001.0                                4866549
CABF  002.14 348.8 m E Sg      2012/03/08 02:29:53.8  -0.5                          T   001.0        4.6  .36 Ml 2.3         4866550
PGF   002.59 138.7 m E P       2012/03/08 02:29:29.3  -1.5                          T   001.0                                4866540
PGF   002.59 138.7 m E Sn      2012/03/08 02:29:58.2  -0.2                          T   001.0        3.3  .28 Ml 2.7         4866541
SMF   002.92 317.8 m E P       2012/03/08 02:29:34.9  -0.6                          T   001.0                                4866544
SMF   002.92 317.8 m E Sn      2012/03/08 02:30:09.0   2.8                          T   001.0                                4866545
SMF   002.92 317.8 m E Sg      2012/03/08 02:30:18.6  -0.1                          T   001.0        2.9  .32 Ml 2.4         4866546
HINF  003.30 001.9 m E P       2012/03/08 02:29:39.2  -1.7                          T                                        4874626
AVF   003.26 315.3 m E P       2012/03/08 02:29:39.7  -0.6                          T   001.0                                4866525
AVF   003.26 315.3 m E Sg      2012/03/08 02:30:30.0   0.7                          T   001.0        3.2  .40 Ml 2.4         4866526
LOR   003.39 325.3 m E P       2012/03/08 02:29:41.5  -0.6                          T   001.0                                4866535
LOR   003.39 325.3 m E Sn      2012/03/08 02:30:19.5   2.1                          T   001.0        3.1  .43 Ml 2.4         4866536
LOR   003.39 325.3 m E Sg      2012/03/08 02:30:34.0   0.7                          T                                        4874633
SSF   003.38 319.9 m E P       2012/03/08 02:29:41.5  -0.5                          T                                        4874639
BGF   003.38 308.4 m E P       2012/03/08 02:29:41.6  -0.4                          T                                        4874635
BGF   003.38 308.4 m E Sg      2012/03/08 02:30:32.8  -0.4                          T                                        4874624
HAU   003.50 356.2 m E P       2012/03/08 02:29:43.1  -0.6                          T   001.0                                4866530
TCF   003.62 300.9 m E P       2012/03/08 02:29:44.7  -0.6                          T                                        4874638
TCF   003.62 300.9 m E Sg      2012/03/08 02:30:42.0   1.5                          T   001.0        5.1  .80 Ml 2.4         4866548
CDF   003.92 005.7 m E P       2012/03/08 02:29:47.9  -1.8                          T   001.0                                4866527
HYF   003.95 315.6 m E P       2012/03/08 02:29:49.6  -0.4                          T                                        4874625
PAGF  004.09 351.0 m E P       2012/03/08 02:29:51.6  -0.5                          T                                        4874637
BAIF  005.79 344.0 m E P       2012/03/08 02:30:14.8  -1.4                          T                                        4874634

.
EVENT     271454
    Date      Time       Latitude Longitude    Depth    Ndef Nsta Gap    Mag1  N    Mag2  N    Mag3  N   Author         ID
       rms   OT_Error      Smajor Sminor Az        Err   mdist  Mdist     Err        Err        Err      Quality

2012/03/08 03:21:30.3     44.4893    6.6532      2.0      20    6 122  Ml 1.2  4  Md 1.2  1              js067245    271474

      1.17   +-  0.17       4.0    2.7   70.24 +-  0.0    0.10   1.16   +-0.3      +-                    m i ke

FRANCE
Sta     Dist  EvAz     Phase      Date       Time     TRes  Azim  AzRes  Slow  SRes Def   SNR       Amp   Per   Mag1   Mag2       ID
MBDF  000.25 019.5 m E Pg      2012/03/08 03:21:35.3  -0.1                          T                                        4874666
MBDF  000.25 019.5 m E Sg      2012/03/08 03:21:38.8   0.0                          T                1.6  .23        Md 1.2  4874665
ORIF  000.70 308.2 m E Pg      2012/03/08 03:21:43.7   0.1                          T                                        4874664
ORIF  000.70 308.2 m E Sg      2012/03/08 03:21:53.1   0.4                          T                1.1  .27                4874660
FRF   000.93 180.3 m E P       2012/03/08 03:21:49.9   0.1                          T                                        4874661
FRF   000.93 180.3 m E Sg      2012/03/08 03:21:59.8   0.0                          T                1.0  .17 Ml 1.6         4874659
LPL   001.03 003.1 m E Pg      2012/03/08 03:21:50.0   0.1                          T                                        4874663
LPL   001.03 003.1 m E Sg      2012/03/08 03:22:02.7  -0.5                          T                 .3  .21 Ml 1           4874656
LMR   001.16 185.2 m E P       2012/03/08 03:21:53.2  -0.3                          T                                        4874662
LMR   001.16 185.2 m E Sg      2012/03/08 03:22:07.3   0.3                          T                 .7  .20 Ml 1.4         4874658
LPG   001.01 003.9 m E Sg      2012/03/08 03:22:02.4  -0.3                          T                 .3  .22 Ml 1           4874657

.
