EVENT     256129
    Date      Time       Latitude Longitude    Depth    Ndef Nsta Gap    Mag1  N    Mag2  N    Mag3  N   Author         ID
       rms   OT_Error      Smajor Sminor Az        Err   mdist  Mdist     Err        Err        Err      Quality

2011/02/17 03:20:51.5     50.3459    7.8130     11.0 f    14    6 110  Ml 1.8  5  Md 2.1  1              js067245    256149

      0.26   +-  0.06       1.1     .9   26.91 +-  0.0    0.10   2.33   +-0.4      +-                    m i ke

GERMANY
Sta     Dist  EvAz     Phase      Date       Time     TRes  Azim  AzRes  Slow  SRes Def   SNR       Amp   Per   Mag1   Mag2       ID
RUP   000.81 217.3 m E Pg      2011/02/17 03:21:06.1  -0.7                          T                                        4653038
RUP   000.81 217.3 m E Sg      2011/02/17 03:21:17.5   0.1                          T                                Md 2.1  4653039
LANF  001.37 180.2 m E Pg      2011/02/17 03:21:17.0  -0.1                          T                                        4653036
LANF  001.37 180.2 m E Sg      2011/02/17 03:21:34.7  -0.1                          T                1.1  .17 Ml 1.8         4653037
GIVF  001.94 263.9 m E Pg      2011/02/17 03:21:27.4   0.0                          T                                        4653032
GIVF  001.94 263.9 m E Sg      2011/02/17 03:21:52.3  -0.1                          T                1.5  .20 Ml 2.1         4653033
PAGF  002.25 218.0 m E Pg      2011/02/17 03:21:33.3   0.0                          T                                        4653028
PAGF  002.25 218.0 m E Sg      2011/02/17 03:22:01.9  -0.4                          T                 .1  .19 Ml 1.1         4653029
BAIF  002.33 264.3 m E Pg      2011/02/17 03:21:34.7  -0.1                          T                                        4653031
BAIF  002.33 264.3 m E Sn      2011/02/17 03:21:55.1   0.1                          T                                        4653034
BAIF  002.33 264.3 m E Sg      2011/02/17 03:22:04.7  -0.2                          T                1.7  .28 Ml 2.1         4653035
CDF   001.97 190.5 m E Sg      2011/02/17 03:21:53.4  -0.1                          T                 .7  .20 Ml 1.8         4653030

.
EVENT     256095
    Date      Time       Latitude Longitude    Depth    Ndef Nsta Gap    Mag1  N    Mag2  N    Mag3  N   Author         ID
       rms   OT_Error      Smajor Sminor Az        Err   mdist  Mdist     Err        Err        Err      Quality

2011/02/17 04:29:39.0     42.9831    -.9053      2.0      21    5 091  Ml 2.0  4  Md 1.9  3              js067245    256115

      0.75   +-  0.15       3.4    2.3  178.66 +-  0.0    0.18   2.31   +-0.1      +-0.0                 m i ke

PYRENEES
Sta     Dist  EvAz     Phase      Date       Time     TRes  Azim  AzRes  Slow  SRes Def   SNR       Amp   Per   Mag1   Mag2       ID
ETSF  000.27 108.3 m E Pg      2011/02/17 04:29:43.4  -1.0                          T                                        4650533
ETSF  000.27 108.3 m E Sg      2011/02/17 04:29:46.9  -1.1                          T               27.9  .22        Md 1.9  4650530
SJPF  000.27 299.2 m E Pg      2011/02/17 04:29:44.2  -0.1                          T                                        4650534
SJPF  000.27 299.2 m E Sg      2011/02/17 04:29:47.6  -0.4                          T               29.0  .24        Md 1.9  4650531
EPF   000.91 086.6 m E Pg      2011/02/17 04:29:55.6  -0.7                          T                                        4650532
EPF   000.91 086.6 m E Sg      2011/02/17 04:30:08.0  -0.2                          T                3.0  .20 Ml 1.9 Md 1.9  4650529
LFF   002.29 030.7 m E Pg      2011/02/17 04:30:21.3  -0.2                          T                                        4650526
LFF   002.29 030.7 m E Sg      2011/02/17 04:30:50.1  -0.8                          T                5.5  .55 Ml 2.1         4650527
MTLF  002.31 080.0 m E Pg      2011/02/17 04:30:21.8  -0.2                          T                                        4650525
MTLF  002.31 080.0 m E Sg      2011/02/17 04:30:51.3  -0.4                          T                2.3  .41 Ml 2.0         4650528

.
EVENT     256096
    Date      Time       Latitude Longitude    Depth    Ndef Nsta Gap    Mag1  N    Mag2  N    Mag3  N   Author         ID
       rms   OT_Error      Smajor Sminor Az        Err   mdist  Mdist     Err        Err        Err      Quality

2011/02/17 05:23:16.3     42.9190    -.8978      2.0      31    3 091  Ml 1.3  1  Md 1.3  2              js067245    256116

      0.54   +-  0.10       1.9    1.6  151.52 +-  0.0    0.22   1.59   +-         +-0.1                 m i ke

PYRENEES
Sta     Dist  EvAz     Phase      Date       Time     TRes  Azim  AzRes  Slow  SRes Def   SNR       Amp   Per   Mag1   Mag2       ID
ETSF  000.25 094.6 m E Pg      2011/02/17 05:23:20.9  -0.4                          T                                        4650542
ETSF  000.25 094.6 m E Sg      2011/02/17 05:23:24.3  -0.4                          T                8.7  .31        Md 1.3  4650538
SJPF  000.31 309.1 m E Pg      2011/02/17 05:23:22.1  -0.2                          T                                        4650541
SJPF  000.31 309.1 m E Sg      2011/02/17 05:23:26.3  -0.1                          T                8.9  .32        Md 1.2  4650537
EPF   000.92 082.6 m E Pg      2011/02/17 05:23:33.3  -0.2                          T                                        4650540
EPF   000.92 082.6 m E Sg      2011/02/17 05:23:45.2  -0.2                          T                 .8  .23 Ml 1.3         4650539

.
EVENT     256263
    Date      Time       Latitude Longitude    Depth    Ndef Nsta Gap    Mag1  N    Mag2  N    Mag3  N   Author         ID
       rms   OT_Error      Smajor Sminor Az        Err   mdist  Mdist     Err        Err        Err      Quality

2011/02/17 08:01:12.2     42.0405    1.9610     20.5      13    4 156  Ml 1.5  3                         js067245    256283

      0.13   +-  0.04       1.0     .7   33.13 +-  0.3    0.09   2.46   +-0.3                            m i ke

PYRENEES
Sta     Dist  EvAz     Phase      Date       Time     TRes  Azim  AzRes  Slow  SRes Def   SNR       Amp   Per   Mag1   Mag2       ID
MTLF  001.31 008.2 m E Pn      2011/02/17 08:01:33.7  -0.1                          T                                        4653049
MTLF  001.31 008.2 m E Pg      2011/02/17 08:01:36.8  -0.1                          T                                        4653048
MTLF  001.31 008.2 m E Sn      2011/02/17 08:01:49.6   0.0                          T                 .4  .23 Ml 1.2         4653050
EPF   001.55 310.1 m E Pg      2011/02/17 08:01:41.4   0.0                          T                                        4653043
EPF   001.55 310.1 m E Sn      2011/02/17 08:01:55.7   0.3                          T                 .9  .24 Ml 1.6         4653044
ETSF  002.05 295.5 m E Pn      2011/02/17 08:01:43.9   0.0                          T                                        4653042
LASF  002.46 033.7 m E Pn      2011/02/17 08:01:49.5   0.0                          T                                        4653047
LASF  002.46 033.7 m E Pg      2011/02/17 08:01:58.0   0.0                          T                                        4653045
LASF  002.46 033.7 m E Sn      2011/02/17 08:02:17.1   0.0                          T                 .7  .26 Ml 1.7         4653046

.
EVENT     256100
    Date      Time       Latitude Longitude    Depth    Ndef Nsta Gap    Mag1  N    Mag2  N    Mag3  N   Author         ID
       rms   OT_Error      Smajor Sminor Az        Err   mdist  Mdist     Err        Err        Err      Quality

2011/02/17 09:35:30.6     44.5608   10.1980     10.0 f    46   18 083  Ml 2.8 21                         js067245    256120

      0.85   +-  0.14       3.6    2.4   45.10 +-  0.0    0.21   5.54   +-0.2                            m i ke

NORTHERN ITALY
Sta     Dist  EvAz     Phase      Date       Time     TRes  Azim  AzRes  Slow  SRes Def   SNR       Amp   Per   Mag1   Mag2       ID
SBF   002.11 251.6 m E Pn      2011/02/17 09:36:03.8  -0.4                          T                                        4650624
SBF   002.11 251.6 m E Sn      2011/02/17 09:36:29.8   0.9                          T               48.4  .54 Ml 3.2         4650611
PGF   002.19 203.8 m E Pn      2011/02/17 09:36:04.1  -1.4                          T                                        4650623
PGF   002.19 203.8 m E Sn      2011/02/17 09:36:30.0  -1.1                          T               11.3  .44 Ml 2.9         4650610
MBDF  002.45 275.1 m E Pn      2011/02/17 09:36:09.4   0.3                          T                                        4650628
MBDF  002.45 275.1 m E Sn      2011/02/17 09:36:38.4   1.1                          T               10.9  .36 Ml 2.8         4650617
LPG   002.62 292.2 m E Pn      2011/02/17 09:36:11.3  -0.2                          T                                        4650620
LPG   002.62 292.2 m E Sn      2011/02/17 09:36:43.1   1.6                          T               14.6  .52 Ml 2.8         4650614
LPL   002.64 292.5 m E Pn      2011/02/17 09:36:11.6   0.0                          T                                        4650621
LPL   002.64 292.5 m E Sn      2011/02/17 09:36:43.3   1.5                          T               20.0  .54 Ml 2.9         4650615
FRF   002.75 249.9 m E Pn      2011/02/17 09:36:12.5  -0.4                          T                                        4650626
FRF   002.75 249.9 m E Sn      2011/02/17 09:36:44.4   0.3                          T                8.8  .28 Ml 2.9         4650613
LMR   002.93 246.6 m E Pn      2011/02/17 09:36:14.9  -0.5                          T                                        4650625
LMR   002.93 246.6 m E Sn      2011/02/17 09:36:47.4  -1.1                          T                7.4  .28 Ml 2.9         4650612
ORIF  003.10 278.1 m E Pn      2011/02/17 09:36:17.6  -0.1                          T                                        4650627
ORIF  003.10 278.1 m E Sn      2011/02/17 09:36:54.0   1.3                          T               18.2  .60 Ml 2.9         4650616
SMRF  003.37 261.6 m E Pn      2011/02/17 09:36:21.1  -0.3                          T                                        4650619
CABF  003.54 306.8 m E Pn      2011/02/17 09:36:23.5  -0.3                          T                                        4650608
CABF  003.54 306.8 m E Sn      2011/02/17 09:37:04.3   1.1                          T                2.4  .30 Ml 2.4         4650597
VIVF  003.95 276.2 m E Pn      2011/02/17 09:36:29.2  -0.1                          T                                        4650622
VIVF  003.95 276.2 m E Sn      2011/02/17 09:37:14.5   1.5                          T                3.7  .26 Ml 2.8         4650618
HINF  004.00 325.7 m E Pn      2011/02/17 09:36:29.5  -0.5                          T                                        4650607
HINF  004.00 325.7 m E Sn      2011/02/17 09:37:13.3  -0.8                          T                4.4  .25 Ml 2.9         4650598
HAU   004.36 323.6 m E Pn      2011/02/17 09:36:34.2  -0.7                          T                                        4650606
HAU   004.36 323.6 m E Sn      2011/02/17 09:37:23.3   0.6                          T               13.1  .46 Ml 3.0         4650600
CDF   004.35 333.4 m E Pn      2011/02/17 09:36:34.2  -0.6                          T                                        4650601
CDF   004.35 333.4 m E Sn      2011/02/17 09:37:21.7  -0.8                          T                3.2  .40 Ml 2.7         4650602
THEF  004.68 323.1 m E Pn      2011/02/17 09:36:38.8  -0.4                          T                                        4650605
THEF  004.68 323.1 m E Sn      2011/02/17 09:37:30.9   0.6                          T                4.0  .30 Ml 2.9         4650599
SMF   004.92 297.3 m E Pn      2011/02/17 09:36:42.3  -0.2                          T                                        4650593
SMF   004.92 297.3 m E Sn      2011/02/17 09:37:37.6   1.4                          T                3.8  .37 Ml 2.9         4650592
LOR   005.19 303.7 m E Pn      2011/02/17 09:36:45.9  -0.3 118.7  -0.5              T                                        4650604
LOR   005.19 303.7 m E Sn      2011/02/17 09:37:43.7   1.3                          T                2.4  .32 Ml 2.8         4650603
BGF   005.54 293.7 m E Pn      2011/02/17 09:36:50.7  -0.1                          T                                        4650609
BGF   005.54 293.7 m E Sn      2011/02/17 09:37:51.8   1.0                          T                7.0  .48 Ml 3.2         4650596

.
EVENT     256265
    Date      Time       Latitude Longitude    Depth    Ndef Nsta Gap    Mag1  N    Mag2  N    Mag3  N   Author         ID
       rms   OT_Error      Smajor Sminor Az        Err   mdist  Mdist     Err        Err        Err      Quality

2011/02/17 11:37:56.2     42.6646     .6786      2.0      11    4 116  Ml 1.3  3  Md 1.4  1              js067245    256285

      0.13   +-  0.04       1.1     .7   33.17 +-  0.0    0.35   1.47   +-0.3      +-                    m i ke

PYRENEES
Sta     Dist  EvAz     Phase      Date       Time     TRes  Azim  AzRes  Slow  SRes Def   SNR       Amp   Per   Mag1   Mag2       ID
EPF   000.44 325.8 m E Pg      2011/02/17 11:38:05.0   0.2                          T                                        4653239
EPF   000.44 325.8 m E Sg      2011/02/17 11:38:10.5  -0.2                          T                4.7  .24        Md 1.4  4653240
ETSF  000.94 284.8 m E Pn      2011/02/17 11:38:14.9   0.0                          T                                        4653237
ETSF  000.94 284.8 m E Sg      2011/02/17 11:38:26.3   0.1                          T                1.3  .24 Ml 1.5         4653238
MTLF  001.32 058.6 m E Pg      2011/02/17 11:38:20.6  -0.2                          T                                        4653234
MTLF  001.32 058.6 m E Sg      2011/02/17 11:38:37.9   0.1                          T                 .2  .16 Ml 1.0         4653235
SJPF  001.47 288.4 m E Sg      2011/02/17 11:38:42.5  -0.1                          T                 .6  .21 Ml 1.5         4653236

.
