EVENT     264374
    Date      Time       Latitude Longitude    Depth    Ndef Nsta Gap    Mag1  N    Mag2  N    Mag3  N   Author         ID
       rms   OT_Error      Smajor Sminor Az        Err   mdist  Mdist     Err        Err        Err      Quality

2011/09/24 06:33:05.3     48.3198    6.6547      5.0 f    24   10 079  Ml 2.0  5  Md 1.9  3              js067245    264394

      0.26   +-  0.05       1.1     .8    6.47 +-  0.0    0.35   2.16   +-0.3      +-0.1                 m i ke

FRANCE
Sta     Dist  EvAz     Phase      Date       Time     TRes  Azim  AzRes  Slow  SRes Def   SNR       Amp   Per   Mag1   Mag2       ID
HAU   000.38 213.2 m E Pg      2011/09/24 06:33:12.9   0.3                          T                                        4760618
HAU   000.38 213.2 m E Sg      2011/09/24 06:33:17.7   0.0                          T                5.9  .18        Md 2.1  4760615
CDF   000.42 077.2 m E Pg      2011/09/24 06:33:13.4  -0.2                          T                                        4760609
CDF   000.42 077.2 m E Sg      2011/09/24 06:33:19.0  -0.3                          T                6.8  .32                4760608
THEF  000.45 258.5 m E Pg      2011/09/24 06:33:14.0   0.0                          T                                        4760619
THEF  000.45 258.5 m E Sg      2011/09/24 06:33:19.4  -0.6                          T                9.4  .21                4760616
HINF  000.52 165.1 m E Pg      2011/09/24 06:33:15.5   0.1                          T                                        4760617
HINF  000.52 165.1 m E Sg      2011/09/24 06:33:22.4   0.2                          T                6.3  .20        Md 1.8  4760614
HINF  000.52 165.1 m E Sn      2011/09/24 06:33:25.4  -0.6                          T                4.2  .16                4760605
PAGF  000.66 291.2 m E Pg      2011/09/24 06:33:18.2   0.4                          T                                        4760612
PAGF  000.66 291.2 m E Sg      2011/09/24 06:33:26.7   0.2                          T                 .3  .13                4760610
PAGF  000.66 291.2 m E Sn      2011/09/24 06:33:30.1   0.1                          T                                Md 2.0  4760604
SFTF  001.09 264.5 m E Pg      2011/09/24 06:33:25.3  -0.4                          T                                        4760613
SFTF  001.09 264.5 m E Sg      2011/09/24 06:33:40.3   0.6                          T                4.4  .23 Ml 2.1         4760611
RUP   001.41 010.8 m E Pn      2011/09/24 06:33:30.1   0.1                          T                                        4760600
RUP   001.41 010.8 m E Sn      2011/09/24 06:33:48.2   0.3                          T                                        4760599
RUP   001.41 010.8 m E Sg      2011/09/24 06:33:49.7  -0.2                          T                                        4760598
CABF  001.75 192.9 m E Pg      2011/09/24 06:33:38.1   0.0                          T                                        4760603
CABF  001.75 192.9 m E Sg      2011/09/24 06:34:00.4  -0.3                          T                 .5  .23 Ml 1.5         4768247
MEZF  001.08 280.3 m E Sg      2011/09/24 06:33:39.6   0.0                          T                2.0  .20 Ml 1.9         4768189
LOR   002.16 241.9 m E Pg      2011/09/24 06:33:45.4   0.0                          T                                        4760606
LOR   002.16 241.9 m E Sg      2011/09/24 06:34:13.1  -0.1                          T                2.2  .24 Ml 2.2         4760607

.
EVENT     264373
    Date      Time       Latitude Longitude    Depth    Ndef Nsta Gap    Mag1  N    Mag2  N    Mag3  N   Author         ID
       rms   OT_Error      Smajor Sminor Az        Err   mdist  Mdist     Err        Err        Err      Quality

2011/09/24 06:33:41.8     48.3390    6.6596     10.0 f    22    9 150  Ml 2.0  3  Md 1.7  4              js067245    264393

      0.33   +-  0.07       1.6     .9   15.86 +-  0.0    0.36   2.17   +-0.1      +-0.2                 m i ke

FRANCE
Sta     Dist  EvAz     Phase      Date       Time     TRes  Azim  AzRes  Slow  SRes Def   SNR       Amp   Per   Mag1   Mag2       ID
HAU   000.39 212.1 m E Pg      2011/09/24 06:33:49.7   0.1                          T                                        4760588
HAU   000.39 212.1 m E Sg      2011/09/24 06:33:54.3  -0.7                          T                4.7  .16        Md 1.6  4760584
CDF   000.42 079.7 m E Pg      2011/09/24 06:33:50.1   0.0                          T                                        4760949
CDF   000.42 079.7 m E Sg      2011/09/24 06:33:55.8   0.0                          T                                        4760948
THEF  000.46 256.2 m E Pg      2011/09/24 06:33:50.8   0.1                          T                                        4760587
THEF  000.46 256.2 m E Sg      2011/09/24 06:33:56.7  -0.2                          T                7.4  .21        Md 1.8  4760583
HINF  000.54 166.0 m E Pg      2011/09/24 06:33:52.2   0.0                          T                                        4760586
HINF  000.54 166.0 m E Sg      2011/09/24 06:33:59.2  -0.2                          T                5.6  .22        Md 1.9  4760585
HINF  000.54 166.0 m E Sn      2011/09/24 06:34:02.2  -0.5                          T                2.4  .14        Md 1.6  4760573
PAGF  000.66 289.5 m E Pg      2011/09/24 06:33:54.7   0.4                          T                                        4760579
PAGF  000.66 289.5 m E Pn      2011/09/24 06:33:55.7   0.0                          T                                        4760578
PAGF  000.66 289.5 m E Sg      2011/09/24 06:34:03.1   0.0                          T                 .4  .17                4760580
PAGF  000.66 289.5 m E Sn      2011/09/24 06:34:05.7   0.2                          T                 .8  .21                4760572
MEZF  001.08 279.3 m E Pg      2011/09/24 06:34:01.9  -0.3                          T                                        4760563
MEZF  001.08 279.3 m E Sg      2011/09/24 06:34:16.3   0.0                          T                3.7  .29 Ml 2.0         4760564
SFTF  001.09 263.5 m E Pg      2011/09/24 06:34:02.3  -0.1                          T                                        4760582
SFTF  001.09 263.5 m E Sg      2011/09/24 06:34:16.6   0.1                          T                3.8  .24 Ml 2.1         4760581
CABF  001.77 192.9 m E Pg      2011/09/24 06:34:15.0   0.1                          T                                        4760569
CABF  001.77 192.9 m E Sg      2011/09/24 06:34:37.8   0.0                          T                                        4760568
LOR   002.17 241.5 m E S       2011/09/24 06:34:46.7   0.6                          T                                        4760565
LOR   002.17 241.5 m E Sg      2011/09/24 06:34:49.4  -0.7                          T                1.6  .21 Ml 2.1         4760566

.
EVENT     264375
    Date      Time       Latitude Longitude    Depth    Ndef Nsta Gap    Mag1  N    Mag2  N    Mag3  N   Author         ID
       rms   OT_Error      Smajor Sminor Az        Err   mdist  Mdist     Err        Err        Err      Quality

2011/09/24 06:38:27.8     48.3228    6.6592      5.0 f    20   10 079  Ml 1.9  4  Md 1.9  4              js067245    264395

      0.29   +-  0.07       1.4     .9   11.63 +-  0.0    0.35   2.16   +-0.2      +-0.2                 m i ke

FRANCE
Sta     Dist  EvAz     Phase      Date       Time     TRes  Azim  AzRes  Slow  SRes Def   SNR       Amp   Per   Mag1   Mag2       ID
HAU   000.38 213.4 m E Pg      2011/09/24 06:38:35.2   0.0                          T                                        4760676
HAU   000.38 213.4 m E Sg      2011/09/24 06:38:39.9  -0.4                          T                4.5  .22        Md 1.7  4760677
CDF   000.42 077.5 m E Pg      2011/09/24 06:38:35.7  -0.3                          T                                        4760673
CDF   000.42 077.5 m E Sg      2011/09/24 06:38:41.4  -0.3                          T                5.4  .23                4760667
THEF  000.45 258.2 m E Pg      2011/09/24 06:38:36.3  -0.3                          T                                        4760679
THEF  000.45 258.2 m E Sg      2011/09/24 06:38:42.3  -0.3                          T                5.8  .21        Md 2.0  4760678
HINF  000.52 165.5 m E Pg      2011/09/24 06:38:37.7  -0.1                          T                                        4760681
HINF  000.52 165.5 m E Sg      2011/09/24 06:38:44.6  -0.1                          T                3.7  .18        Md 1.8  4760680
HINF  000.52 165.5 m E Sn      2011/09/24 06:38:47.7  -0.9                          T                2.2  .19                4760664
PAGF  000.66 290.8 m E Pg      2011/09/24 06:38:40.7   0.3                          T                                        4760675
PAGF  000.66 290.8 m E Sg      2011/09/24 06:38:49.4   0.3                          T                 .3  .16                4760674
PAGF  000.66 290.8 m E Sn      2011/09/24 06:38:52.7   0.2                          T                 .5  .20        Md 2.1  4760669
SFTF  001.09 264.4 m E Pg      2011/09/24 06:38:47.9  -0.3                          T                                        4760671
SFTF  001.09 264.4 m E Sg      2011/09/24 06:39:02.9   0.6                          T                2.4  .18 Ml 2.0         4760672
CABF  001.76 193.0 m E Pg      2011/09/24 06:39:00.7   0.1                          T                                        4760663
CABF  001.76 193.0 m E Sg      2011/09/24 06:39:22.8  -0.5                          T                 .7  .30 Ml 1.5         4760662
MEZF  001.09 280.1 m E Sg      2011/09/24 06:39:02.1  -0.1                          T                5.1  .34 Ml 2.0         4760665
LOR   002.16 241.8 m E Pg      2011/09/24 06:39:08.0   0.0                          T                                        4768226
LOR   002.16 241.8 m E Sg      2011/09/24 06:39:35.8  -0.1                          T                1.2  .26 Ml 1.9         4768227
RUP   001.41 010.7 m E Sg      2011/09/24 06:39:12.4   0.1                          T                                        4768225

.
EVENT     264371
    Date      Time       Latitude Longitude    Depth    Ndef Nsta Gap    Mag1  N    Mag2  N    Mag3  N   Author         ID
       rms   OT_Error      Smajor Sminor Az        Err   mdist  Mdist     Err        Err        Err      Quality

2011/09/24 07:05:12.8     48.6556   -2.3756      3.0 f    22    6 202  Ml 2.0  5  Md 2.0  2              js067245    264391

      0.37   +-  0.09       2.6     .9  161.50 +-  0.0    0.42   1.50   +-0.2      +-0.0                 m i ke

FRANCE
Sta     Dist  EvAz     Phase      Date       Time     TRes  Azim  AzRes  Slow  SRes Def   SNR       Amp   Per   Mag1   Mag2       ID
SGMF  000.42 196.8 m E Pg      2011/09/24 07:05:21.0   0.1                          T                                        4760695
SGMF  000.42 196.8 m E Sg      2011/09/24 07:05:26.2  -0.2                          T                                        4760796
SGMF  000.42 196.8 m E Sn      2011/09/24 07:05:26.8  -0.3                          T                7.0  .30        Md 2.0  4760791
ROSF  000.68 242.2 m E Pg      2011/09/24 07:05:25.2  -0.4                          T                                        4760687
ROSF  000.68 242.2 m E P       2011/09/24 07:05:27.3   0.2                          T                                        4760789
ROSF  000.68 242.2 m E Sg      2011/09/24 07:05:34.7   0.2                          T                                        4760797
ROSF  000.68 242.2 m E Sn      2011/09/24 07:05:37.6  -0.5                          T                5.6  .19                4760790
QUIF  000.91 215.8 m E Pg      2011/09/24 07:05:30.0   0.1                          T                                        4760694
QUIF  000.91 215.8 m E Pn      2011/09/24 07:05:30.9   0.1                          T                                        4760786
QUIF  000.91 215.8 m E Sg      2011/09/24 07:05:42.1   0.5                          T                                Md 2.0  4760793
QUIF  000.91 215.8 m E Sn      2011/09/24 07:05:43.6  -0.1                          T                1.6  .19 Ml 1.7         4760792
GRR   001.04 104.3 m E Pg      2011/09/24 07:05:32.5   0.2                          T                                        4760692
GRR   001.04 104.3 m E P       2011/09/24 07:05:34.4   0.1                          T                                        4760788
GRR   001.04 104.3 m E Sg      2011/09/24 07:05:45.5  -0.4                          T                6.0  .20 Ml 2.2         4760691
GRR   001.04 104.3 m E Sn      2011/09/24 07:05:47.1   0.2                          T                6.0  .22 Ml 2.1         4760795
FLN   001.26 084.4 m E Pg      2011/09/24 07:05:36.3   0.0                          T                                        4760693
FLN   001.26 084.4 m E Sn      2011/09/24 07:05:51.3  -0.8                          T                                        4760787
FLN   001.26 084.4 m E Sg      2011/09/24 07:05:52.7   0.1                          T                3.3  .24 Ml 1.9         4760688
LDF   001.50 091.5 m E Pg      2011/09/24 07:05:40.6  -0.1                          T                                        4760689
LDF   001.50 091.5 m E Sg      2011/09/24 07:06:00.0   0.0                          T                3.9  .22 Ml 2.3         4760690

.
EVENT     264376
    Date      Time       Latitude Longitude    Depth    Ndef Nsta Gap    Mag1  N    Mag2  N    Mag3  N   Author         ID
       rms   OT_Error      Smajor Sminor Az        Err   mdist  Mdist     Err        Err        Err      Quality

2011/09/24 08:48:14.8     48.3206    6.6630      5.0 f    20   10 088  Ml 1.7  4  Md 1.7  3              js067245    264396

      0.29   +-  0.08       1.5    1.2   13.75 +-  0.0    0.38   2.16   +-0.2      +-0.2                 m i ke

FRANCE
Sta     Dist  EvAz     Phase      Date       Time     TRes  Azim  AzRes  Slow  SRes Def   SNR       Amp   Per   Mag1   Mag2       ID
HAU   000.38 213.9 m E Pg      2011/09/24 08:48:22.3   0.1                          T                                        4760887
HAU   000.38 213.9 m E Sg      2011/09/24 08:48:26.9  -0.4                          T                3.4  .18        Md 1.6  4760886
CDF   000.42 077.1 m E Pg      2011/09/24 08:48:22.9  -0.1                          T                                        4768245
CDF   000.42 077.1 m E Sg      2011/09/24 08:48:28.4  -0.2                          T                3.2  .24        Md 1.6  4768246
THEF  000.46 258.6 m E Pg      2011/09/24 08:48:23.5  -0.1                          T                                        4760883
THEF  000.46 258.6 m E Sg      2011/09/24 08:48:28.7  -0.9                          T                6.9  .25                4760882
HINF  000.52 165.7 m E Pg      2011/09/24 08:48:24.9   0.1                          T                                        4760884
HINF  000.52 165.7 m E Sg      2011/09/24 08:48:31.8   0.1                          T                4.9  .22        Md 1.9  4760885
HINF  000.52 165.7 m E Sn      2011/09/24 08:48:34.9  -0.6                          T                1.4  .14                4760874
PAGF  000.67 290.9 m E Pg      2011/09/24 08:48:27.7   0.2                          T                                        4760879
PAGF  000.67 290.9 m E Sg      2011/09/24 08:48:36.2   0.0                          T                 .4  .20                4760878
PAGF  000.67 290.9 m E Sn      2011/09/24 08:48:39.5  -0.1                          T                 .3  .18                4760877
SFTF  001.09 264.5 m E Pg      2011/09/24 08:48:34.6  -0.6                          T                                        4760872
SFTF  001.09 264.5 m E Sg      2011/09/24 08:48:49.7   0.3                          T                1.9  .19 Ml 1.9         4760873
MEZF  001.09 280.2 m E Pg      2011/09/24 08:48:35.4   0.2                          T                                        4760870
MEZF  001.09 280.2 m E Sg      2011/09/24 08:48:49.0  -0.3                          T                1.5  .23 Ml 1.7         4760871
CABF  001.75 193.1 m E Pg      2011/09/24 08:48:47.7   0.1                          T                                        4760875
CABF  001.75 193.1 m E Sg      2011/09/24 08:49:09.0  -1.2                          T                 .4  .24 Ml 1.3         4760876
RUP   001.41 010.6 m E Sg      2011/09/24 08:48:59.1  -0.2                          T                                        4768243
LOR   002.16 241.9 m E Sg      2011/09/24 08:49:22.6  -0.3                          T                  1  .26 Ml 1.8         4768244

.
