EVENT     282017
    Date      Time       Latitude Longitude    Depth    Ndef Nsta Gap    Mag1  N    Mag2  N    Mag3  N   Author         ID
       rms   OT_Error      Smajor Sminor Az        Err   mdist  Mdist     Err        Err        Err      Quality

2012/08/25 04:03:02.1     44.6181    6.3034      2.0      20    9 063  Ml 1.4  5  Md 1.5  2              bulletin    282117
                                                                                                         _ldg
      0.72   +-  0.08       1.8    1.5   77.50 +-  0.0    0.35   1.29   +-0.1      +-0.0                 m i ke

FRANCE
Sta     Dist  EvAz     Phase      Date       Time     TRes  Azim  AzRes  Slow  SRes Def   SNR       Amp   Per   Mag1   Mag2       ID
MBDF  000.35 071.8 m E Pg      2012/08/25 04:03:08.5  -0.6                          T                                        5058685
MBDF  000.35 071.8 m E Sg      2012/08/25 04:03:14.0   0.2                          T                4.2  .49        Md 1.5  5054791
ORIF  000.43 315.0 m E Pg      2012/08/25 04:03:10.1  -0.3                          T                                        5058684
ORIF  000.43 315.0 m E Sg      2012/08/25 04:03:16.7   0.6                          T                5.2  .41        Md 1.5  5054792
SMRF  000.83 219.4 m E Pg      2012/08/25 04:03:18.0   0.2                          T                                        5058686
SMRF  000.83 219.4 m E Sn      2012/08/25 04:03:31.2  -0.1                          T                 .6  .25                5058699
LPG   000.94 019.7 m E Pg      2012/08/25 04:03:20.0   0.0                          T                                        5058696
LPG   000.94 019.7 m E Sg      2012/08/25 04:03:32.3   0.1                          T                1.0  .29 Ml 1.3         5058691
LPL   000.95 018.5 m E Pg      2012/08/25 04:03:20.1  -0.1                          T                                        5058695
LPL   000.95 018.5 m E Sg      2012/08/25 04:03:32.8   0.3                          T                1.0  .29 Ml 1.4         5058692
FRF   001.09 166.7 m E Pg      2012/08/25 04:03:22.8   0.3                          T                                        5058687
FRF   001.09 166.7 m E S       2012/08/25 04:03:40.1  -0.1                          T                                        5058688
SBF   001.11 132.5 m E Pg      2012/08/25 04:03:23.2   0.2                          T                                        5058698
SBF   001.11 132.5 m E Sn      2012/08/25 04:03:38.1   0.0                          T                1.2  .26 Ml 1.5         5058689
VIVF  001.19 282.1 m E Pg      2012/08/25 04:03:24.3   0.0                          T                                        5058693
VIVF  001.19 282.1 m E Sg      2012/08/25 04:03:39.7   0.0                          T                 .6  .25 Ml 1.3         5058694
LMR   001.29 173.3 m E Pg      2012/08/25 04:03:26.1  -0.1                          T                                        5058697
LMR   001.29 173.3 m E Sg      2012/08/25 04:03:42.8  -0.1                          T                 .9  .32 Ml 1.4         5058690

.
EVENT     281956
    Date      Time       Latitude Longitude    Depth    Ndef Nsta Gap    Mag1  N    Mag2  N    Mag3  N   Author         ID
       rms   OT_Error      Smajor Sminor Az        Err   mdist  Mdist     Err        Err        Err      Quality

2012/08/25 07:50:09.1     44.8925    6.5503      2.0      20    9 123  Ml 1.9  4  Md 1.8  2              bulletin    282056
                                                                                                         _ldg
      0.65   +-  0.13       2.8    2.2   78.59 +-  0.0    0.23   1.56   +-0.2      +-0.1                 m i ke

FRANCE
Sta     Dist  EvAz     Phase      Date       Time     TRes  Azim  AzRes  Slow  SRes Def   SNR       Amp   Per   Mag1   Mag2       ID
MBDF  000.23 136.4 m E Pg      2012/08/25 07:50:13.1  -0.7                          T                                        5053207
MBDF  000.23 136.4 m E Sg      2012/08/25 07:50:16.2  -0.7                          T               12.3  .34        Md 1.7  5053201
ORIF  000.48 273.3 m E Pg      2012/08/25 07:50:17.9  -0.5                          T                                        5053206
ORIF  000.48 273.3 m E Sg      2012/08/25 07:50:23.7  -0.9                          T               12.4  .32        Md 1.8  5053200
LPG   000.62 013.2 m E Pg      2012/08/25 07:50:21.4   0.2                          T                                        5053337
LPG   000.62 013.2 m E Sg      2012/08/25 07:50:28.9  -0.5                          T                2.5  .23                5053336
LPL   000.64 011.6 m E Pg      2012/08/25 07:50:21.7   0.2                          T                                        5053205
LPL   000.64 011.6 m E Sg      2012/08/25 07:50:31.1   1.3                          T                2.9  .33                5053338
SMRF  001.15 217.7 m E Pg      2012/08/25 07:50:31.1   0.4                          T                                        5053214
SMRF  001.15 217.7 m E Sg      2012/08/25 07:50:45.7   0.1                          T                4.4  .40 Ml 1.9         5053213
SBF   001.21 148.0 m E Pg      2012/08/25 07:50:31.5  -0.3                          T                                        5058700
FRF   001.33 177.0 m E Pg      2012/08/25 07:50:34.8   0.8                          T                                        5053203
FRF   001.33 177.0 m E Sg      2012/08/25 07:50:51.4   0.2                          T                1.4  .23 Ml 1.8         5053212
VIVF  001.34 269.1 m E P       2012/08/25 07:50:35.3   0.5                          T                                        5053208
VIVF  001.34 269.1 m E Sg      2012/08/25 07:50:51.3  -0.1                          T                1.4  .34 Ml 1.6         5053209
LMR   001.56 181.1 m E Pn      2012/08/25 07:50:36.4   0.3                          T                                        5053335
LMR   001.56 181.1 m E Pg      2012/08/25 07:50:37.7  -0.4                          T                                        5053202
LMR   001.56 181.1 m E Sg      2012/08/25 07:50:58.5   0.3                          T                3.7  .31 Ml 2.2         5053210

.
EVENT     281957
    Date      Time       Latitude Longitude    Depth    Ndef Nsta Gap    Mag1  N    Mag2  N    Mag3  N   Author         ID
       rms   OT_Error      Smajor Sminor Az        Err   mdist  Mdist     Err        Err        Err      Quality

2012/08/25 08:26:46.8     41.9412     .7244     10.0      31    4 058  Ml 2.4  4  Md 2.4  2              bulletin    282057
                                                                                                         _ldg
      0.47   +-  0.08       1.7    1.4   12.41 +-  0.0    0.53   2.09   +-0.2      +-0.1                 m i ke

SPAIN
Sta     Dist  EvAz     Phase      Date       Time     TRes  Azim  AzRes  Slow  SRes Def   SNR       Amp   Per   Mag1   Mag2       ID
EPF   001.12 345.5 m E Pn      2012/08/25 08:27:07.3   0.2                          T                                        5053221
EPF   001.12 345.5 m E Pg      2012/08/25 08:27:07.9  -0.1                          T                                        5058701
EPF   001.12 345.5 m E Sg      2012/08/25 08:27:22.4  -0.2                          T               11.6  .20 Ml 2.6 Md 2.3  5058702
EPF   001.12 345.5 m E S       2012/08/25 08:27:24.6   0.0                          T                                        5053218
ETSF  001.35 315.6 m E Pn      2012/08/25 08:27:10.5   0.3                          T                                        5053220
ETSF  001.35 315.6 m E Pg      2012/08/25 08:27:11.9  -0.2                          T                                        5058703
ETSF  001.35 315.6 m E Sn      2012/08/25 08:27:27.1   0.1                          T                                        5053217
ETSF  001.35 315.6 m E Sg      2012/08/25 08:27:29.5   0.0                          T               10.7  .36 Ml 2.4 Md 2.4  5058704
MTLF  001.78 037.7 m E Pn      2012/08/25 08:27:16.1   0.1                          T                                        5053367
MTLF  001.78 037.7 m E Pg      2012/08/25 08:27:19.9  -0.1                          T                                        5053340
MTLF  001.78 037.7 m E Sn      2012/08/25 08:27:37.1  -0.2                          T                                        5053222
MTLF  001.78 037.7 m E Sg      2012/08/25 08:27:43.2   0.3                          T                2.3  .28 Ml 2.1         5053341
SJPF  001.86 309.8 m E Pn      2012/08/25 08:27:17.2   0.2                          T                                        5053368
SJPF  001.86 309.8 m E Pg      2012/08/25 08:27:21.4   0.1                          T                                        5053224
SJPF  001.86 309.8 m E Sn      2012/08/25 08:27:39.3   0.2                          T                                        5053369
SJPF  001.86 309.8 m E Sg      2012/08/25 08:27:45.4   0.1                          T                7.2  .36 Ml 2.5         5053342

.
EVENT     281958
    Date      Time       Latitude Longitude    Depth    Ndef Nsta Gap    Mag1  N    Mag2  N    Mag3  N   Author         ID
       rms   OT_Error      Smajor Sminor Az        Err   mdist  Mdist     Err        Err        Err      Quality

2012/08/25 09:00:30.0     44.4480    2.7023      7.0 f    78   25 084  Ml 2.5 29  Md 2.5  3              bulletin    282058
                                                                                                         _ldg
      0.28   +-  0.03        .6     .5  135.16 +-  0.0    0.66   4.65   +-0.4      +-0.0                 m i ke

FRANCE
Sta     Dist  EvAz     Phase      Date       Time     TRes  Azim  AzRes  Slow  SRes Def   SNR       Amp   Per   Mag1   Mag2       ID
CAF   000.66 316.6 m E Pg      2012/08/25 09:00:42.7   0.2                          T                                        5058709
CAF   000.66 316.6 m E Pn      2012/08/25 09:00:44.3   0.1                          T                                        5058710
CAF   000.66 316.6 m E Sg      2012/08/25 09:00:51.2  -0.1                          T               20.0  .20                5053248
CAF   000.66 316.6 m E Sn      2012/08/25 09:00:54.4   0.2                          T               39.8  .24        Md 2.5  5053241
LASF  000.91 113.7 m E Pg      2012/08/25 09:00:47.0  -0.1                          T                                        5053247
LASF  000.91 113.7 m E Pn      2012/08/25 09:00:47.9   0.3                          T   001.0                                5053269
LASF  000.91 113.7 m E Sg      2012/08/25 09:00:58.6  -0.3                          T               19.0  .26 Ml 2.6 Md 2.6  5053236
MTLF  001.16 197.7 m E Pn      2012/08/25 09:00:51.0   0.0                          T                                        5053246
MTLF  001.16 197.7 m E Pg      2012/08/25 09:00:52.0   0.2                          T                                        5058706
MTLF  001.16 197.7 m E Sg      2012/08/25 09:01:06.6  -0.2                          T               22.4  .18 Ml 3.0         5053237
RJF   001.20 315.9 m E Pn      2012/08/25 09:00:52.0   0.4                          T   001.0                                5053262
RJF   001.20 315.9 m E Pg      2012/08/25 09:00:53.2   0.7                          T                                        5053249
RJF   001.20 315.9 m E Sn      2012/08/25 09:01:07.2   0.1                          T   001.0       47.7  .20 Ml 3.0         5053263
RJF   001.20 315.9 m E Sg      2012/08/25 09:01:08.4   0.3                          T               44.3  .18 Ml 3.0 Md 2.5  5053243
VIVF  001.46 073.1 m E Pn      2012/08/25 09:00:55.2   0.0                          T                                        5053245
VIVF  001.46 073.1 m E Pg      2012/08/25 09:00:57.5   0.1                          T   001.0                                5053260
VIVF  001.46 073.1 m E Sn      2012/08/25 09:01:13.7   0.2                          T                                        5053235
VIVF  001.46 073.1 m E Sg      2012/08/25 09:01:16.7   0.4                          T   001.0        9.6  .26 Ml 2.6         5053261
LFF   001.48 290.0 m E Pn      2012/08/25 09:00:55.5   0.1                          T                                        5053244
LFF   001.48 290.0 m E Pg      2012/08/25 09:00:57.3  -0.4                          T   001.0                                5053250
LFF   001.48 290.0 m E Sg      2012/08/25 09:01:16.8   0.0                          T               25.5  .25 Ml 2.9         5053242
TCF   001.87 349.5 m E Pn      2012/08/25 09:01:00.9   0.1                          T                                        5058785
TCF   001.87 349.5 m E P       2012/08/25 09:01:03.1   0.2                          T                                        5053231
TCF   001.87 349.5 m E Pg      2012/08/25 09:01:04.8   0.0                          T                                        5058714
TCF   001.87 349.5 m E Sn      2012/08/25 09:01:22.9  -0.4                          T   001.0                                5053254
TCF   001.87 349.5 m E Sg      2012/08/25 09:01:28.0   0.0                          T   001.0       11.3  .26 Ml 2.9         5053255
SMRF  002.12 101.9 m E Pn      2012/08/25 09:01:03.9  -0.2                          T                                        5053371
SMRF  002.12 101.9 m E Sn      2012/08/25 09:01:29.1   0.0                          T                1.6  .27 Ml 2.0         5053370
SMRF  002.12 101.9 m E Sg      2012/08/25 09:01:36.8   0.0                          T                2.3  .31 Ml 2.1         5058778
EPF   002.22 231.2 m E Pn      2012/08/25 09:01:05.4  -0.2                          T                                        5053238
EPF   002.22 231.2 m E Pg      2012/08/25 09:01:11.2  -0.1                          T   001.0                                5053266
EPF   002.22 231.2 m E Sn      2012/08/25 09:01:31.2  -0.4                          T                2.3  .27 Ml 2.2         5053234
EPF   002.22 231.2 m E Sg      2012/08/25 09:01:40.1   0.2                          T   001.0        5.8  .20 Ml 2.7         5053267
SMF   002.34 019.6 m E Pn      2012/08/25 09:01:07.4   0.3                          T                                        5058782
SMF   002.34 019.6 m E Pg      2012/08/25 09:01:13.1  -0.3                          T   001.0                                5053251
SMF   002.34 019.6 m E Sn      2012/08/25 09:01:34.4   0.0                          T   001.0                                5053252
SMF   002.34 019.6 m E Sg      2012/08/25 09:01:43.3  -0.2                          T                5.4  .22 Ml 2.7         5053227
AVF   002.39 010.8 m E Pn      2012/08/25 09:01:07.7   0.0                          T                                        5058783
AVF   002.39 010.8 m E Pg      2012/08/25 09:01:14.2  -0.1                          T   001.0                                5053264
AVF   002.39 010.8 m E Sg      2012/08/25 09:01:44.6  -0.4                          T                5.6  .26 Ml 2.6         5053228
BGF   002.11 002.7 m E Pg      2012/08/25 09:01:09.2   0.0                          T   001.0                                5053265
BGF   002.11 002.7 m E Sg      2012/08/25 09:01:36.3  -0.2                          T               26.8  .46 Ml 3.0         5053226
SSF   002.67 011.9 m E Pn      2012/08/25 09:01:11.6   0.0                          T                                        5058786
SSF   002.67 011.9 m E Pg      2012/08/25 09:01:19.0  -0.6                          T   001.0                                5053253
SSF   002.67 011.9 m E Sg      2012/08/25 09:01:53.6  -0.4                          T                4.8  .36 Ml 2.6         5053229
ORIF  002.32 077.2 m E Pg      2012/08/25 09:01:13.2   0.1                          T   001.0                                5053257
ORIF  002.32 077.2 m E Sg      2012/08/25 09:01:42.2  -0.7                          T   001.0        1.2  .28 Ml 1.9         5053258
ETSF  002.83 237.9 m E Pn      2012/08/25 09:01:13.7  -0.1                          T                                        5058780
ETSF  002.83 237.9 m E P       2012/08/25 09:01:16.8   0.2                          T                                        5053240
ETSF  002.83 237.9 m E Pg      2012/08/25 09:01:22.3  -0.2                          T                                        5058707
ETSF  002.83 237.9 m E Sn      2012/08/25 09:01:46.0  -0.1                          T                4.3  .34 Ml 2.5         5053239
ETSF  002.83 237.9 m E Sg      2012/08/25 09:01:58.8   0.0                          T                2.2  .31 Ml 2.2         5058773
MBDF  002.92 083.1 m E Pn      2012/08/25 09:01:14.9  -0.3                          T                                        5058779
MBDF  002.92 083.1 m E Sn      2012/08/25 09:01:48.5   0.1                          T                                        5058775
MBDF  002.92 083.1 m E Sg      2012/08/25 09:02:01.8  -0.1                          T                 .5  .23 Ml 1.8         5058774
LOR   002.93 015.6 m E Pn      2012/08/25 09:01:14.9  -0.3 194.5  -2.0              T                                        5058787
LOR   002.93 015.6 m E Pg      2012/08/25 09:01:24.2  -0.2 196.6  0.2               T                                        5053372
LOR   002.93 015.6 m E Sg      2012/08/25 09:02:01.6  -0.5 192.9  -3.5              T                4.1  .22 Ml 2.7         5053230
MFF   002.94 318.1 m E Pn      2012/08/25 09:01:15.3   0.1                          T                                        5058781
MFF   002.94 318.1 m E Sg      2012/08/25 09:02:02.0  -0.2                          T                3.1  .28 Ml 2.6         5058771
SJPF  003.14 246.2 m E Pn      2012/08/25 09:01:19.1   1.1                          T   001.0                                5053259
SJPF  003.14 246.2 m E Pg      2012/08/25 09:01:28.0  -0.2                          T                                        5058708
SJPF  003.14 246.2 m E Sg      2012/08/25 09:02:08.5  -0.1                          T                2.2  .34 Ml 2.3         5058772
GRR   004.65 329.3 m E Pn      2012/08/25 09:01:37.0  -0.5                          T   001.0                                5053268
HINF  004.44 039.1 m E Pg      2012/08/25 09:01:52.2   0.1                          T                                        5058784
HINF  004.44 039.1 m E Sg      2012/08/25 09:02:48.9  -0.1                          T                1.9  .37 Ml 2.4         5058770
LPL   003.05 068.1 m E Sg      2012/08/25 09:02:05.9  -0.2                          T                1.0  .29 Ml 2.0         5058776
LPG   003.06 068.5 m E Sg      2012/08/25 09:02:06.7   0.4                          T                2.0  .29 Ml 2.3         5058777
CABF  003.22 046.5 m E Sg      2012/08/25 09:02:10.8  -0.2                          T   001.0        1.6  .32 Ml 2.2         5053256
HAU   004.37 034.1 m E Sg      2012/08/25 09:02:46.7  -0.1                          T                1.8  .27 Ml 2.3         5058769

.
