EVENT     264589
    Date      Time       Latitude Longitude    Depth    Ndef Nsta Gap    Mag1  N    Mag2  N    Mag3  N   Author         ID
       rms   OT_Error      Smajor Sminor Az        Err   mdist  Mdist     Err        Err        Err      Quality

2011/10/01 02:23:43.1     45.7005    6.8834      2.0      25   10 086  Ml 1.8  7  Md 1.8  2              js067245    264609

      0.31   +-  0.06       1.5    1.0  107.75 +-  0.0    0.15   2.94   +-0.3      +-0.0                 m i ke

FRANCE
Sta     Dist  EvAz     Phase      Date       Time     TRes  Azim  AzRes  Slow  SRes Def   SNR       Amp   Per   Mag1   Mag2       ID
LPL   000.21 210.0 m E Pg      2011/10/01 02:23:47.5  -0.2                          T                                        4763341
LPL   000.21 210.0 m E Sg      2011/10/01 02:23:50.5  -0.1                          T                7.9  .20        Md 1.8  4763333
LPG   000.22 204.6 m E Pg      2011/10/01 02:23:47.8  -0.2                          T                                        4763342
LPG   000.22 204.6 m E Sg      2011/10/01 02:23:50.9  -0.1                          T               10.8  .20        Md 1.8  4763332
MBDF  000.98 184.7 m E Pg      2011/10/01 02:24:01.6  -0.1                          T                                        4763328
MBDF  000.98 184.7 m E Sn      2011/10/01 02:24:15.7  -0.3                          T                1.6  .28 Ml 1.6         4763331
ORIF  001.06 222.5 m E Pg      2011/10/01 02:24:02.6  -0.4                          T                                        4763340
ORIF  001.06 222.5 m E Sg      2011/10/01 02:24:16.8   0.1                          T                2.8  .22 Ml 1.9         4763337
CABF  001.07 329.0 m E Pn      2011/10/01 02:24:03.6   0.1                          T                                        4763336
CABF  001.07 329.0 m E P       2011/10/01 02:24:05.2   0.1                          T                                        4763335
CABF  001.07 329.0 m E Sg      2011/10/01 02:24:17.2   0.2                          T                3.7  .28 Ml 2.0         4763334
VIVF  001.77 242.4 m E Pg      2011/10/01 02:24:16.5   0.4                          T                                        4763339
VIVF  001.77 242.4 m E Sg      2011/10/01 02:24:39.1   0.0                          T                2.2  .22 Ml 2.2         4763338
FRF   002.15 184.6 m E Pg      2011/10/01 02:24:23.1   0.1                          T                                        4763326
FRF   002.15 184.6 m E Sg      2011/10/01 02:24:50.6   0.0                          T                 .2  .20 Ml 1.3         4770001
AVF   002.68 295.3 m E Pg      2011/10/01 02:24:34.0   1.1                          T                                        4763330
AVF   002.68 295.3 m E Sn      2011/10/01 02:24:56.8   0.2                          T                                        4763325
AVF   002.68 295.3 m E Sg      2011/10/01 02:25:08.3   1.0                          T                 .7  .25 Ml 1.8         4763327
BGF   002.94 288.4 m E Pg      2011/10/01 02:24:37.8   0.2                          T                                        4763329
SMF   002.32 295.2 m E Sg      2011/10/01 02:24:55.3  -0.6                          T                1.7  .20 Ml 2.2         4770002

.
EVENT     264599
    Date      Time       Latitude Longitude    Depth    Ndef Nsta Gap    Mag1  N    Mag2  N    Mag3  N   Author         ID
       rms   OT_Error      Smajor Sminor Az        Err   mdist  Mdist     Err        Err        Err      Quality

2011/10/01 04:11:07.7     46.1561    7.9680      3.0 f    27   10 123  Ml 2.1  8  Md 2.3  3              js067245    264619

      0.31   +-  0.09       1.7    1.1   96.43 +-  0.0    0.09   2.76   +-0.1      +-0.1                 m i ke

SWITZERLAND
Sta     Dist  EvAz     Phase      Date       Time     TRes  Azim  AzRes  Slow  SRes Def   SNR       Amp   Per   Mag1   Mag2       ID
LPG   001.08 232.7 m E Pg      2011/10/01 04:11:27.7  -0.5                          T                                        4763760
LPG   001.08 232.7 m E P       2011/10/01 04:11:29.8  -0.3                          T                                        4763745
LPG   001.08 232.7 m E Sg      2011/10/01 04:11:42.0  -0.2                          T                5.1  .20 Ml 2.3 Md 2.2  4763759
LPG   001.08 232.7 m E S       2011/10/01 04:11:45.6  -0.1                          T                                        4763744
LPL   001.07 233.9 m E Pg      2011/10/01 04:11:27.8  -0.4                          T                                        4763763
LPL   001.07 233.9 m E Sg      2011/10/01 04:11:42.6   0.5                          T                4.8  .28 Ml 2.1 Md 2.3  4763758
CABF  001.38 289.9 m E Pg      2011/10/01 04:11:34.5   1.0                          T                                        4763757
CABF  001.38 289.9 m E S       2011/10/01 04:11:53.0  -0.1                          T                                        4763753
MBDF  001.66 210.9 m E Pg      2011/10/01 04:11:38.7  -0.1                          T                                        4763761
MBDF  001.66 210.9 m E Sg      2011/10/01 04:12:01.0   0.8                          T                2.1  .21 Ml 2.1 Md 2.2  4763755
HINF  001.83 335.7 m E Pn      2011/10/01 04:11:39.8   1.4                          T                                        4763749
HINF  001.83 335.7 m E Sg      2011/10/01 04:12:06.1   0.7                          T                2.1  .24 Ml 2.1         4763748
ORIF  001.92 230.6 m E Pg      2011/10/01 04:11:43.5   0.0                          T                                        4763762
ORIF  001.92 230.6 m E Sg      2011/10/01 04:12:09.6   1.3                          T                3.2  .36 Ml 2.1         4763756
FRF   002.76 200.4 m E P       2011/10/01 04:11:54.3   0.5                          T                                        4763747
FRF   002.76 200.4 m E Pg      2011/10/01 04:11:58.1  -0.7                          T                                        4763746
HAU   002.16 329.7 m E Sn      2011/10/01 04:12:07.8  -0.7                          T                                        4763751
HAU   002.16 329.7 m E Sg      2011/10/01 04:12:15.3  -0.3                          T                1.7  .22 Ml 1.9         4763752
CDF   002.31 348.5 m E Sg      2011/10/01 04:12:20.1  -0.2                          T                  1  .24 Ml 2.0         4763750
VIVF  002.66 241.9 m E Sg      2011/10/01 04:12:31.5   0.3                          T                1.3  .33 Ml 2.0         4763754

.
EVENT     264590
    Date      Time       Latitude Longitude    Depth    Ndef Nsta Gap    Mag1  N    Mag2  N    Mag3  N   Author         ID
       rms   OT_Error      Smajor Sminor Az        Err   mdist  Mdist     Err        Err        Err      Quality

2011/10/01 07:14:38.1     42.5570   -7.2287      8.0 f   131   31 072  Ml 3.8 28  Md 3.7  3              js067245    264610

      1.13   +-  0.13       2.8    2.1  116.49 +-  0.0    0.68  11.74   +-0.2      +-0.1                 m i ke

SPAIN
Sta     Dist  EvAz     Phase      Date       Time     TRes  Azim  AzRes  Slow  SRes Def   SNR       Amp   Per   Mag1   Mag2       ID
SJPF  004.45 080.8 m E Pn      2011/10/01 07:15:45.0   1.2                          T   001.0                        Md 3.6  4763103
SJPF  004.45 080.8 m E Sn      2011/10/01 07:16:32.1  -0.6                          T               41.0  .32 Ml 3.9         4763888
SJPF  004.45 080.8 m E Sg      2011/10/01 07:16:57.0  -0.5                          T   001.0      121.5  .85 Ml 3.9         4763104
ETSF  004.93 083.8 m E Pn      2011/10/01 07:15:51.4   1.0                          T   001.0                                4763094
ETSF  004.93 083.8 m E Sn      2011/10/01 07:16:44.2   0.0                          T               26.9  .30 Ml 3.8         4770017
ETSF  004.93 083.8 m E Sg      2011/10/01 07:17:11.7  -0.7                          T               69.2  .66 Ml 3.9         4763887
EPF   005.59 082.6 m E Pn      2011/10/01 07:16:01.6   2.2                          T   001.0                                4763082
EPF   005.59 082.6 m E Sn      2011/10/01 07:16:59.9  -0.1                          T               22.0  .29 Ml 3.9         4770018
EPF   005.59 082.6 m E Sg      2011/10/01 07:17:31.9  -1.2                          T               64.2  .52 Ml 4.1 Md 3.7  4763884
QUIF  006.08 026.8 m E Pn      2011/10/01 07:16:05.4  -0.6                          T   001.0                                4763098
QUIF  006.08 026.8 m E Sn      2011/10/01 07:17:10.2  -1.4                          T               18.1  .29 Ml 3.9         4763890
ROSF  006.41 024.3 m E Pn      2011/10/01 07:16:10.0  -0.5                          T   001.0                                4763099
ROSF  006.41 024.3 m E Sn      2011/10/01 07:17:15.6  -4.0                          T   001.0       11.8  .41 Ml 3.6         4763100
MFF   006.47 048.9 m E Pn      2011/10/01 07:16:10.8  -0.6                          T   001.0                                4763088
MFF   006.47 048.9 m E Sn      2011/10/01 07:17:18.2  -2.9                          T   001.0       16.4  .36 Ml 4.0         4763089
SGMF  006.58 028.4 m E Pn      2011/10/01 07:16:12.0  -0.8                          T   001.0                                4763101
SGMF  006.58 028.4 m E Sn      2011/10/01 07:17:21.4  -2.1                          T   001.0        8.5  .30 Ml 3.6         4763102
RJF   006.88 063.5 m E Pn      2011/10/01 07:16:16.8  -0.2                          T   001.0                                4763076
RJF   006.88 063.5 m E P       2011/10/01 07:16:22.0   0.0                          T                                        4763875
RJF   006.88 063.5 m E Sn      2011/10/01 07:17:29.2  -1.7                          T   001.0       19.8  .32 Ml 3.7         4763077
MTLF  006.98 080.4 m E Pn      2011/10/01 07:16:18.6   0.3                          T   001.0                                4763095
MTLF  006.98 080.4 m E Sn      2011/10/01 07:17:32.6  -0.5                          T                6.0  .36 Ml 3.5         4770019
MTLF  006.98 080.4 m E Sg      2011/10/01 07:18:15.3  -1.0                          T   001.0        8.9  .58 Ml 3.4         4763096
CAF   007.13 067.5 m E Pn      2011/10/01 07:16:19.9  -0.5                          T   001.0                        Md 3.8  4763081
CAF   007.13 067.5 m E Sn      2011/10/01 07:17:35.4  -1.6                          T                7.4  .30 Ml 3.7         4763889
GRR   007.35 035.3 m E Pn      2011/10/01 07:16:22.6  -0.7                          T                                        4763894
GRR   007.35 035.3 m E Sn      2011/10/01 07:17:39.2  -2.8                          T   001.0        8.3  .35 Ml 3.5         4763083
TCF   007.72 057.9 m E Pn      2011/10/01 07:16:27.7  -0.6                          T   001.0                                4763092
TCF   007.72 057.9 m E Sn      2011/10/01 07:17:48.0  -2.8                          T                9.4  .28 Ml 3.9         4763891
LDF   007.83 037.1 m E Pn      2011/10/01 07:16:29.8   0.0                          T   001.0                                4763085
LDF   007.83 037.1 m E Sn      2011/10/01 07:17:51.3  -2.1                          T   001.0       10.8  .46 Ml 3.7         4763086
BGF   008.23 057.5 m E Pn      2011/10/01 07:16:35.0  -0.3                          T   001.0                                4763080
BGF   008.23 057.5 m E Sn      2011/10/01 07:18:02.7  -0.4                          T               21.9  .36 Ml 4.2         4763883
LASF  008.23 075.6 m E Pn      2011/10/01 07:16:35.5   0.2                          T   001.0                                4763084
LASF  008.23 075.6 m E Sn      2011/10/01 07:18:02.3  -0.7                          T                4.8  .32 Ml 3.6         4763874
HYF   008.44 052.7 m E Pn      2011/10/01 07:16:38.4   0.2                          T                                        4763892
HYF   008.44 052.7 m E Sn      2011/10/01 07:18:06.0  -2.0                          T                                        4770014
AVF   008.64 057.1 m E Pn      2011/10/01 07:16:40.1  -0.8                          T   001.0                                4763078
AVF   008.64 057.1 m E Sn      2011/10/01 07:18:12.3  -0.7                          T   001.0        2.8  .36 Ml 3.4         4763079
SSF   008.86 055.8 m E Pn      2011/10/01 07:16:43.1  -0.8                          T   001.0                                4763091
SSF   008.86 055.8 m E Sn      2011/10/01 07:18:16.2  -1.9                          T                7.8  .44 Ml 3.9         4763876
SMF   008.89 058.9 m E Pn      2011/10/01 07:16:43.5  -0.8                          T   001.0                                4763090
SMF   008.89 058.9 m E Sn      2011/10/01 07:18:19.5   0.6                          T                3.1  .20 Ml 3.7         4770013
VIVF  008.92 071.0 m E Pn      2011/10/01 07:16:45.4   0.6                          T   001.0                                4763105
VIVF  008.92 071.0 m E Sn      2011/10/01 07:18:16.9  -2.8                          T                9.7  .40 Ml 3.9         4763886
LOR   009.17 055.3 m E Pn      2011/10/01 07:16:47.2  -0.8 240.0  -3.1              T   001.0                                4763087
LOR   009.17 055.3 m E Sn      2011/10/01 07:18:26.1   0.6                          T                5.6  .39 Ml 3.8         4763877
ORIF  009.78 071.6 m E Pn      2011/10/01 07:16:58.0   1.4                          T   001.0                                4763097
ORIF  009.78 071.6 m E Sn      2011/10/01 07:18:40.9   0.7                          T                6.7  .57 Ml 3.8         4770020
SFTF  010.31 052.6 m E Pn      2011/10/01 07:17:02.6  -1.0 234.5  -6.8              T                                        4763882
MBDF  010.38 073.2 m E Pn      2011/10/01 07:17:06.0   1.2                          T                                        4763885
THEF  010.89 054.1 m E Pn      2011/10/01 07:17:10.2  -1.3                          T                                        4763881
PAGF  010.88 052.1 m E Pn      2011/10/01 07:17:10.9  -0.5 237.7  -3.6              T                                        4763879
HAU   011.00 055.7 m E Pn      2011/10/01 07:17:12.0  -1.1                          T                                        4770021
BAIF  010.89 042.6 m E Pn      2011/10/01 07:17:12.6   1.0                          T   001.0                                4763093
BAIF  010.89 042.6 m E Sn      2011/10/01 07:19:07.4   0.7                          T                2.3  .36 Ml 3.7         4763878
LFF   006.24 064.9 m E Sn      2011/10/01 07:17:15.1  -0.4                          T               20.3  .40 Ml 3.7         4770016
HINF  011.24 057.3 m E Pn      2011/10/01 07:17:16.2  -0.1                          T                                        4763880
CDF   011.74 055.1 m E Pn      2011/10/01 07:17:21.8  -1.4                          T                                        4770022

.
EVENT     264600
    Date      Time       Latitude Longitude    Depth    Ndef Nsta Gap    Mag1  N    Mag2  N    Mag3  N   Author         ID
       rms   OT_Error      Smajor Sminor Az        Err   mdist  Mdist     Err        Err        Err      Quality

2011/10/01 10:09:27.8     48.3938    6.8919       .0 f    16    8 123  Ml 2.0  2  Md 2.0  1              js067245    264620

      0.68   +-  0.09       2.3    1.5  147.34 +-  0.0    0.26   2.33   +-0.0      +-                    m i km

FRANCE
Sta     Dist  EvAz     Phase      Date       Time     TRes  Azim  AzRes  Slow  SRes Def   SNR       Amp   Per   Mag1   Mag2       ID
CDF   000.26 085.8 m E Pg      2011/10/01 10:09:33.2   0.0                          T                                        4763898
CDF   000.26 085.8 m E Sg      2011/10/01 10:09:37.1   0.2                          T                4.7  .28        Md 2.0  4763897
HAU   000.53 223.3 m E Pg      2011/10/01 10:09:38.4   0.2                          T                                        4763905
HAU   000.53 223.3 m E Pn      2011/10/01 10:09:41.1  -0.5                          T                                        4763904
HAU   000.53 223.3 m E Sg      2011/10/01 10:09:45.0  -0.4                          T                9.3  .42                4770040
HINF  000.58 182.6 m E Pg      2011/10/01 10:09:39.5   0.4                          T                                        4763903
HINF  000.58 182.6 m E Pn      2011/10/01 10:09:41.8  -0.1                          T                                        4763902
HINF  000.58 182.6 m E Sg      2011/10/01 10:09:46.8  -0.1                          T                6.1  .26                4770038
PAGF  000.79 282.2 m E Pg      2011/10/01 10:09:43.0   0.0                          T                                        4763900
PAGF  000.79 282.2 m E Pn      2011/10/01 10:09:44.9   0.1 105.6  4.3               T                                        4763899
PAGF  000.79 282.2 m E Sn      2011/10/01 10:09:56.5  -0.3 100.9  -0.5              T                1.2  .26                4763896
LANF  000.84 045.5 m E Pg      2011/10/01 10:09:43.8  -0.1                          T                                        4770036
LANF  000.84 045.5 m E Sg      2011/10/01 10:09:54.7  -0.4                          T                4.1  .35                4770035
THEF  000.62 254.9 m E Sg      2011/10/01 10:09:48.2   0.0                          T                3.5  .30                4770034
CABF  001.87 197.3 m E Sg      2011/10/01 10:10:26.6  -0.5                          T                3.0  .43 Ml 2.0         4770033
LOR   002.33 242.3 m E Sg      2011/10/01 10:10:42.0   0.4  67.5  7.4               T                1.4  .24 Ml 2.1         4770037

.
