EVENT     300465
    Date      Time       Latitude Longitude    Depth    Ndef Nsta Gap    Mag1  N    Mag2  N    Mag3  N   Author         ID
       rms   OT_Error      Smajor Sminor Az        Err   mdist  Mdist     Err        Err        Err      Quality

2013/06/07 16:31:06.0     44.1876    5.9581      2.0       9    4 233  Ml 1.6  2  Md 1.6  2              bulletin    300565
                                                                                                         _ldg
      0.47   +-  0.43       9.1    3.8  177.81 +-  0.0    0.35   1.11   +-0.2      +-0.1                 m i ke

FRANCE
Sta     Dist  EvAz     Phase      Date       Time     TRes  Azim  AzRes  Slow  SRes Def   SNR       Amp   Per   Mag1   Mag2       ID
SMRF  000.35 232.6 m E Pg      2013/06/07 16:31:12.4  -0.4                          T                                        5306210
SMRF  000.35 232.6 m E Sg      2013/06/07 16:31:17.8   0.4                          T                8.0  .23        Md 1.6  5306209
FRF   000.80 141.3 m E Pg      2013/06/07 16:31:20.6  -0.4                          T                                        5306208
FRF   000.80 141.3 m E Sg      2013/06/07 16:31:30.7  -0.8                          T                3.5  .31        Md 1.5  5306207
FRF   000.80 141.3 m E Sn      2013/06/07 16:31:35.1   0.6                          T                1.6  .27                5308676
LMR   000.94 154.7 m E Pg      2013/06/07 16:31:23.9   0.3                          T                                        5306206
LMR   000.94 154.7 m E Sg      2013/06/07 16:31:35.4  -0.4                          T                 .9  .18 Ml 1.5         5306205
SBF   001.11 106.4 m E Pg      2013/06/07 16:31:27.1   0.2                          T                                        5306212
SBF   001.11 106.4 m E Sg      2013/06/07 16:31:40.5  -0.8                          T                2.3  .33 Ml 1.7         5306211

.
EVENT     300512
    Date      Time       Latitude Longitude    Depth    Ndef Nsta Gap    Mag1  N    Mag2  N    Mag3  N   Author         ID
       rms   OT_Error      Smajor Sminor Az        Err   mdist  Mdist     Err        Err        Err      Quality

2013/06/07 16:50:46.4     49.9122    8.2667     10.0      35   11 048  Ml 2.5  9  Md 2.5  1              bulletin    300612
                                                                                                         _ldg
      0.44   +-  0.05        .9     .9   38.14 +-  0.0    0.27   3.94   +-0.1      +-                    m i ke

GERMANY
Sta     Dist  EvAz     Phase      Date       Time     TRes  Azim  AzRes  Slow  SRes Def   SNR       Amp   Per   Mag1   Mag2       ID
RUP   000.81 255.4 m E Pg      2013/06/07 16:51:01.4  -0.4                          T                                        5307438
RUP   000.81 255.4 m E Pn      2013/06/07 16:51:03.4   1.0                          T                                        5307439
CDF   001.64 203.8 m E P       2013/06/07 16:51:15.7   0.0                          T                                        5308733
CDF   001.64 203.8 m E Pg      2013/06/07 16:51:17.1   0.1                          T                                        5308732
CDF   001.64 203.8 m E Sg      2013/06/07 16:51:37.8  -0.3                          T                7.1  .32 Ml 2.6 Md 2.5  5308723
LANF  000.98 198.1 m E Sg      2013/06/07 16:51:17.5  -0.1                          T                                        5307447
GIVF  002.23 276.2 m E Pn      2013/06/07 16:51:21.6   0.0                          T                                        5308738
GIVF  002.23 276.2 m E Pg      2013/06/07 16:51:27.9   0.1                          T                                        5308737
GIVF  002.23 276.2 m E Sn      2013/06/07 16:51:47.3  -0.2                          T                                        5308720
GIVF  002.23 276.2 m E Sg      2013/06/07 16:51:56.5  -0.1                          T                7.0  .28 Ml 2.7         5308719
HAU   002.29 214.3 m E P       2013/06/07 16:51:24.9  -0.1                          T                                        5308730
HAU   002.29 214.3 m E Pg      2013/06/07 16:51:29.0   0.1                          T                                        5308729
HAU   002.29 214.3 m E Sg      2013/06/07 16:51:58.0  -0.4                          T                6.7  .27 Ml 2.4         5308727
PAGF  002.15 231.8 m E Pg      2013/06/07 16:51:26.3   0.0  55.7  5.9               T                                        5308731
PAGF  002.15 231.8 m E Sg      2013/06/07 16:51:54.3   0.2  46.4  -3.4              T                3.5  .28 Ml 2.3         5308724
BAIF  002.62 274.8 m E Pn      2013/06/07 16:51:27.0   0.0                          T                                        5308736
BAIF  002.62 274.8 m E P       2013/06/07 16:51:29.9   0.2                          T                                        5308735
BAIF  002.62 274.8 m E Pg      2013/06/07 16:51:35.0  -0.1                          T                                        5308734
BAIF  002.62 274.8 m E Sn      2013/06/07 16:51:57.0   0.0                          T                                        5308722
BAIF  002.62 274.8 m E Sg      2013/06/07 16:52:08.9   0.1                          T                3.1  .24 Ml 2.5         5308721
HINF  002.30 204.5 m E Sg      2013/06/07 16:51:58.6  -0.1                          T                4.7  .27 Ml 2.5         5308728
MEZF  002.54 237.4 m E Sg      2013/06/07 16:52:06.5   0.4  52.7  -2.3              T                4.1  .34 Ml 2.4         5308725
SFTF  002.73 232.4 m E Sg      2013/06/07 16:52:12.2   0.2  50.9  0.9               T                3.4  .30 Ml 2.4         5308726
LOR   003.94 229.5 m E Sn      2013/06/07 16:52:28.2  -0.4                          T                                        5308718
LOR   003.94 229.5 m E Sg      2013/06/07 16:52:50.0  -0.1                          T                1.6  .28 Ml 2.4         5308717

.
EVENT     300467
    Date      Time       Latitude Longitude    Depth    Ndef Nsta Gap    Mag1  N    Mag2  N    Mag3  N   Author         ID
       rms   OT_Error      Smajor Sminor Az        Err   mdist  Mdist     Err        Err        Err      Quality

2013/06/07 20:33:45.8     45.3541    6.0500      2.0      20   11 069  Ml 1.8  6  Md 1.5  1              bulletin    300567
                                                                                                         _ldg
      2.84   +-  0.23       4.2    3.8  114.84 +-  0.0    0.45   2.44   +-0.1      +-                    m i ke

FRANCE
Sta     Dist  EvAz     Phase      Date       Time     TRes  Azim  AzRes  Slow  SRes Def   SNR       Amp   Per   Mag1   Mag2       ID
ORIF  000.45 195.5 m E Pg      2013/06/07 20:33:54.6   0.0                          T                                        5306219
ORIF  000.45 195.5 m E Sg      2013/06/07 20:34:00.2  -0.4                          T                5.3  .20        Md 1.5  5306213
LPL   000.51 071.1 m E Pg      2013/06/07 20:33:55.9   0.1                          T                                        5306218
LPL   000.51 071.1 m E Sg      2013/06/07 20:34:02.7   0.3                          T                                        5306225
LPG   000.51 073.5 m E Pg      2013/06/07 20:33:56.1   0.1                          T                                        5306217
LPG   000.51 073.5 m E Sg      2013/06/07 20:34:03.3   0.5                          T                                        5306214
MBDF  000.81 140.5 m E Pg      2013/06/07 20:34:01.2  -0.1                          T                                        5306223
MBDF  000.81 140.5 m E Sg      2013/06/07 20:34:12.2   0.4                          T                                        5306224
VIVF  001.10 243.4 m E Pg      2013/06/07 20:34:06.3  -0.1                          T                                        5306216
VIVF  001.10 243.4 m E Sg      2013/06/07 20:34:20.1  -0.5                          T                1.6  .22 Ml 1.7         5306215
CABF  001.26 001.2 m E Pg      2013/06/07 20:34:09.3  -0.2                          T                                        5308744
CABF  001.26 001.2 m E Sg      2013/06/07 20:34:25.7   0.0                          T                1.6  .28 Ml 1.7         5308745
FRF   001.84 166.4 m E Pg      2013/06/07 20:34:21.3   1.1                          T                                        5306222
FRF   001.84 166.4 m E Sg      2013/06/07 20:34:43.7  -0.2                          T                 .7  .23 Ml 1.7         5306227
LASF  002.02 231.5 m E Sg      2013/06/07 20:34:48.4  -1.0                          T                                        5306226
SMF   002.01 310.8 m E Sg      2013/06/07 20:34:48.6  -0.5                          T                1.3  .21 Ml 2.0         5308743
AVF   002.36 308.4 m E Sg      2013/06/07 20:34:59.5  -0.6                          T                1.2  .32 Ml 1.9         5308742
LOR   002.44 322.4 m E Sg      2013/06/07 20:35:02.5  -0.2                          T                 .8  .24 Ml 1.9         5308741

.
EVENT     300468
    Date      Time       Latitude Longitude    Depth    Ndef Nsta Gap    Mag1  N    Mag2  N    Mag3  N   Author         ID
       rms   OT_Error      Smajor Sminor Az        Err   mdist  Mdist     Err        Err        Err      Quality

2013/06/07 23:09:13.7     42.5324     .6038     10.0 f    39    5 068  Ml 1.6  5  Md 1.6  1              bulletin    300568
                                                                                                         _ldg
      0.45   +-  0.06       1.2    1.0   28.68 +-  0.0    0.24   2.62   +-0.2      +-                    m i ke

PYRENEES
Sta     Dist  EvAz     Phase      Date       Time     TRes  Azim  AzRes  Slow  SRes Def   SNR       Amp   Per   Mag1   Mag2       ID
EPF   000.53 338.8 m E Pg      2013/06/07 23:09:23.7  -0.3                          T                                        5308746
EPF   000.53 338.8 m E P       2013/06/07 23:09:25.6   0.3                          T                                        5306236
EPF   000.53 338.8 m E Sg      2013/06/07 23:09:30.4  -0.8                          T                3.0  .16        Md 1.6  5306235
ETSF  000.93 293.5 m E Pg      2013/06/07 23:09:31.3   0.0                          T                                        5306233
ETSF  000.93 293.5 m E Sg      2013/06/07 23:09:43.4  -0.2                          T                1.6  .21 Ml 1.7         5306234
MTLF  001.43 055.2 m E Pg      2013/06/07 23:09:40.8   0.3                          T                                        5306229
MTLF  001.43 055.2 m E Sg      2013/06/07 23:09:59.8   0.7                          T                 .9  .24 Ml 1.6         5306230
SJPF  001.47 294.0 m E Pg      2013/06/07 23:09:41.4   0.3                          T                                        5306494
SJPF  001.47 294.0 m E Sg      2013/06/07 23:09:59.8  -0.2                          T                 .4  .21 Ml 1.3         5306231
CAF   002.62 023.4 m E Pn      2013/06/07 23:09:54.5   0.2                          T                                        5306496
CAF   002.62 023.4 m E Sn      2013/06/07 23:10:24.6   0.4                          T                 .9  .35 Ml 1.8         5306495

.
EVENT     300470
    Date      Time       Latitude Longitude    Depth    Ndef Nsta Gap    Mag1  N    Mag2  N    Mag3  N   Author         ID
       rms   OT_Error      Smajor Sminor Az        Err   mdist  Mdist     Err        Err        Err      Quality

2013/06/08 02:17:37.4     43.0587    -.6291      2.0       7    4 115  Ml 1.2  1  Md 1.6  2              bulletin    300570
                                                                                                         _ldg
      0.23   +-  0.11       2.7    1.9   11.12 +-  0.0    0.17   2.12   +-         +-0.0                 m i ke

PYRENEES
Sta     Dist  EvAz     Phase      Date       Time     TRes  Azim  AzRes  Slow  SRes Def   SNR       Amp   Per   Mag1   Mag2       ID
ETSF  000.17 162.2 m E Pg      2013/06/08 02:17:40.9  -0.1                          T                                        5306245
ETSF  000.17 162.2 m E Sg      2013/06/08 02:17:43.5   0.2                          T               22.0  .28        Md 1.6  5306241
SJPF  000.44 277.3 m E Pg      2013/06/08 02:17:45.7  -0.2                          T                                        5306244
SJPF  000.44 277.3 m E Sg      2013/06/08 02:17:52.0   0.3                          T                9.0  .34        Md 1.6  5306240
EPF   000.71 092.0 m E Pg      2013/06/08 02:17:51.1   0.2                          T                                        5306243
EPF   000.71 092.0 m E Sg      2013/06/08 02:17:59.7  -0.5                          T                2.0  .22                5306242
LFF   002.12 027.3 m E Sg      2013/06/08 02:18:44.2   0.1                          T                 .3  .22 Ml 1.2         5308778

.
