EVENT     262757
    Date      Time       Latitude Longitude    Depth    Ndef Nsta Gap    Mag1  N    Mag2  N    Mag3  N   Author         ID
       rms   OT_Error      Smajor Sminor Az        Err   mdist  Mdist     Err        Err        Err      Quality

2011/08/20 20:02:48.0     44.0706   10.8916     18.8      59   21 054  Ml 3.0  7                         js067245    262757

      0.61   +-  0.09       2.6    1.9   18.74 +-  0.9    0.19   6.33   +-0.3                            m i ke

NORTHERN ITALY
Sta     Dist  EvAz     Phase      Date       Time     TRes  Azim  AzRes  Slow  SRes Def   SNR       Amp   Per   Mag1   Mag2       ID
PGF   002.05 222.9 m E P       2011/08/20 20:03:22.4   0.0                          T                                        4739782
SBF   002.50 266.4 m E P       2011/08/20 20:03:28.3  -0.4                          T                                        4739783
SBF   002.50 266.4 m E Sn      2011/08/20 20:03:53.6  -0.6                          T                6.0  .20 Ml 2.8         4739763
MBDF  003.03 284.0 m E P       2011/08/20 20:03:36.5   0.2                          T                                        4739788
MBDF  003.03 284.0 m E Sn      2011/08/20 20:04:07.9   1.1                          T               25.2  .57 Ml 3.1         4739765
FRF   003.11 262.1 m E P       2011/08/20 20:03:37.3  -0.1                          T                                        4739789
LMR   003.26 258.5 m E P       2011/08/20 20:03:38.4  -1.1                          T                                        4739784
LPG   003.28 297.3 m E P       2011/08/20 20:03:40.4   0.3                          T                                        4739785
LPL   003.29 297.5 m E P       2011/08/20 20:03:40.9   0.7                          T                                        4739786
LPL   003.29 297.5 m E Sn      2011/08/20 20:04:13.5   0.2                          T               10.1  .50 Ml 2.8         4739764
ORIF  003.68 285.0 m E P       2011/08/20 20:03:47.1   1.4                          T                                        4739787
SMRF  003.84 270.4 m E P       2011/08/20 20:03:47.8   0.1                          T                                        4739781
CABF  004.23 308.5 m E P       2011/08/20 20:03:54.5   1.1                          T                                        4739778
VIVF  004.52 282.2 m E P       2011/08/20 20:03:56.4  -1.0                          T                                        4739772
HINF  004.69 324.5 m E P       2011/08/20 20:03:59.3  -0.4                          T                                        4739779
HINF  004.69 324.5 m E Sn      2011/08/20 20:04:46.0  -0.3                          T               10.8  .47 Ml 3.2         4739759
HINF  004.69 324.5 m E S       2011/08/20 20:04:53.8  -0.8                          T                                        4739767
LASF  005.07 272.5 m E P       2011/08/20 20:04:03.9  -1.3                          T                                        4739770
CDF   005.01 331.3 m E P       2011/08/20 20:04:04.1  -0.4                          T                                        4739777
HAU   005.05 322.8 m E P       2011/08/20 20:04:04.5  -0.4                          T                                        4739780
HAU   005.05 322.8 m E Sn      2011/08/20 20:04:54.9   0.0                          T               19.5  .49 Ml 3.3         4739760
SMF   005.60 299.9 m E P       2011/08/20 20:04:12.7   0.2                          T                                        4739773
PAGF  005.74 323.2 m E P       2011/08/20 20:04:14.6   0.0                          T                                        4739775
PAGF  005.74 323.2 m E Sn      2011/08/20 20:05:09.7  -1.7                          T                2.2  .63 Ml 2.6         4739768
LOR   005.87 305.4 m E P       2011/08/20 20:04:16.1  -0.4                          T                                        4739776
LOR   005.87 305.4 m E Sn      2011/08/20 20:05:14.9   0.3                          T                6.7  .50 Ml 3.2         4739769
AVF   005.96 299.8 m E P       2011/08/20 20:04:17.7   0.0                          T                                        4739774
BGF   006.19 296.5 m E P       2011/08/20 20:04:20.9  -0.1                          T                                        4739766
MTLF  006.33 266.4 m E P       2011/08/20 20:04:21.9  -1.0                          T                                        4739771

.
EVENT     262759
    Date      Time       Latitude Longitude    Depth    Ndef Nsta Gap    Mag1  N    Mag2  N    Mag3  N   Author         ID
       rms   OT_Error      Smajor Sminor Az        Err   mdist  Mdist     Err        Err        Err      Quality

2011/08/20 21:08:33.6     45.0453    6.4289      2.0      22   10 115  Ml 1.7  6  Md 1.8  3              js067245    262759

      0.91   +-  0.21       4.5    3.3  107.31 +-  0.0    0.40   1.71   +-0.2      +-0.1                 m i ke

FRANCE
Sta     Dist  EvAz     Phase      Date       Time     TRes  Azim  AzRes  Slow  SRes Def   SNR       Amp   Per   Mag1   Mag2       ID
MBDF  000.40 142.5 m E Pg      2011/08/20 21:08:39.7  -1.7                          T                                        4739806
MBDF  000.40 142.5 m E Sg      2011/08/20 21:08:45.2  -1.6                          T                4.2  .22        Md 1.8  4739795
ORIF  000.41 252.1 m E Pg      2011/08/20 21:08:40.6  -1.0                          T                                        4739805
ORIF  000.41 252.1 m E Sg      2011/08/20 21:08:45.6  -1.4                          T                6.1  .23        Md 2.0  4739794
LPG   000.51 026.6 m E Pg      2011/08/20 21:08:43.1  -0.5                          T                                        4739803
LPG   000.51 026.6 m E Sg      2011/08/20 21:08:49.7  -0.5                          T                1.3  .21        Md 1.8  4739792
LPL   000.52 024.3 m E Pg      2011/08/20 21:08:43.6  -0.1                          T                                        4739804
LPL   000.52 024.3 m E Sg      2011/08/20 21:08:49.4  -1.1                          T                2.8  .21                4739793
SMRF  001.23 210.0 m E Pg      2011/08/20 21:08:57.4   0.7                          T                                        4739801
SMRF  001.23 210.0 m E Sg      2011/08/20 21:09:13.5   1.0                          T                1.1  .26 Ml 1.5         4739791
VIVF  001.26 262.0 m E Pg      2011/08/20 21:08:57.8   0.6                          T                                        4739802
VIVF  001.26 262.0 m E Sg      2011/08/20 21:09:15.4   2.0                          T                1.8  .36 Ml 1.6         4739796
SBF   001.38 148.3 m E Pg      2011/08/20 21:09:00.1   0.6                          T                                        4739790
SBF   001.38 148.3 m E Sg      2011/08/20 21:09:17.6   0.2                          T                3.1  .28 Ml 2.0         4739824
FRF   001.49 173.9 m E Pg      2011/08/20 21:09:01.2  -0.1                          T                                        4739800
FRF   001.49 173.9 m E Sg      2011/08/20 21:09:21.4   0.8                          T                1.4  .26 Ml 1.8         4739798
LMR   001.71 178.0 m E Pg      2011/08/20 21:09:03.8  -1.6                          T                                        4739799
LMR   001.71 178.0 m E Sg      2011/08/20 21:09:26.7  -0.8                          T                 .7  .20 Ml 1.7         4739797
CABF  001.58 351.5 m E Pg      2011/08/20 21:09:03.9   0.7                          T                                        4739823
CABF  001.58 351.5 m E Sg      2011/08/20 21:09:25.3   1.6                          T                 .8  .28 Ml 1.5         4739822

.
EVENT     262760
    Date      Time       Latitude Longitude    Depth    Ndef Nsta Gap    Mag1  N    Mag2  N    Mag3  N   Author         ID
       rms   OT_Error      Smajor Sminor Az        Err   mdist  Mdist     Err        Err        Err      Quality

2011/08/20 21:24:31.3     45.0364    6.6564      2.0      10    5 182  Ml 1.7  2  Md 1.7  3              js067245    262760

      0.24   +-  0.11      11.5    1.4   91.46 +-  0.0    0.32   1.71   +-0.1      +-0.0                 m i ke

FRANCE
Sta     Dist  EvAz     Phase      Date       Time     TRes  Azim  AzRes  Slow  SRes Def   SNR       Amp   Per   Mag1   Mag2       ID
MBDF  000.32 165.2 m E Pg      2011/08/20 21:24:37.5  -0.2                          T                                        4739907
MBDF  000.32 165.2 m E Sg      2011/08/20 21:24:42.1   0.1                          T                4.9  .21        Md 1.7  4739903
LPG   000.47 008.2 m E Pg      2011/08/20 21:24:40.2  -0.3                          T                                        4739905
LPG   000.47 008.2 m E Sg      2011/08/20 21:24:47.2   0.5                          T                3.3  .23        Md 1.7  4739901
LPL   000.48 006.4 m E Pg      2011/08/20 21:24:40.7  -0.1                          T                                        4739906
LPL   000.48 006.4 m E Sg      2011/08/20 21:24:47.4   0.3                          T                2.8  .23        Md 1.7  4739902
FRF   001.48 180.3 m E Pn      2011/08/20 21:24:57.4   0.3                          T                                        4739904
FRF   001.48 180.3 m E Sg      2011/08/20 21:25:17.6  -0.3                          T                1.8  .32 Ml 1.8         4739900
LMR   001.71 183.6 m E Pn      2011/08/20 21:25:00.2  -0.1                          T                                        4739899
LMR   001.71 183.6 m E Sg      2011/08/20 21:25:25.1   0.1                          T                 .8  .23 Ml 1.7         4739898

.
EVENT     262758
    Date      Time       Latitude Longitude    Depth    Ndef Nsta Gap    Mag1  N    Mag2  N    Mag3  N   Author         ID
       rms   OT_Error      Smajor Sminor Az        Err   mdist  Mdist     Err        Err        Err      Quality

2011/08/20 21:53:13.7     44.0454   10.9165      2.0      32   16 083  Ml 2.4  8                         js067245    262758

      0.45   +-  0.14       3.6    2.4  150.38 +-  0.0    0.19   6.35   +-0.3                            m i ke

NORTHERN ITALY
Sta     Dist  EvAz     Phase      Date       Time     TRes  Azim  AzRes  Slow  SRes Def   SNR       Amp   Per   Mag1   Mag2       ID
PGF   002.05 223.7 m E Pn      2011/08/20 21:53:48.2   0.7                          T                                        4739934
PGF   002.05 223.7 m E Sn      2011/08/20 21:54:11.2  -0.9                          T                9.6  .44 Ml 2.8         4739928
SBF   002.52 267.1 m E Pn      2011/08/20 21:53:54.1   0.2                          T                                        4739935
SBF   002.52 267.1 m E Sn      2011/08/20 21:54:22.8  -0.6                          T                4.8  .29 Ml 2.5         4739927
FRF   003.13 262.6 m E Pn      2011/08/20 21:54:01.9  -0.2                          T                                        4739937
FRF   003.13 262.6 m E Sn      2011/08/20 21:54:37.6  -0.2                          T                1.3  .27 Ml 2.2         4739925
LMR   003.27 259.0 m E Pn      2011/08/20 21:54:03.9  -0.2                          T                                        4739936
LMR   003.27 259.0 m E Sn      2011/08/20 21:54:40.3  -1.0                          T                1.0  .24 Ml 2.1         4739926
MBDF  003.05 284.4 m E P       2011/08/20 21:54:04.7   0.6                          T                                        4739933
LPG   003.30 297.5 m E P       2011/08/20 21:54:08.2   0.3                          T                                        4739938
LPL   003.32 297.7 m E P       2011/08/20 21:54:09.0   0.9                          T                                        4739939
SMRF  003.85 270.8 m E Pn      2011/08/20 21:54:12.4   0.4                          T                                        4739932
ORIF  003.71 285.4 m E P       2011/08/20 21:54:13.0  -0.4                          T                                        4739940
CABF  004.26 308.7 m E P       2011/08/20 21:54:20.9  -0.4                          T                                        4739943
VIVF  004.54 282.4 m E Pn      2011/08/20 21:54:21.2  -0.2                          T                                        4739931
HINF  004.72 324.5 m E Pn      2011/08/20 21:54:23.9   0.1                          T                                        4739944
HAU   005.08 322.8 m E Pn      2011/08/20 21:54:27.5  -1.1                          T                                        4739942
CDF   005.04 331.2 m E Pn      2011/08/20 21:54:28.8   0.5                          T                                        4739930
CDF   005.04 331.2 m E Sn      2011/08/20 21:55:23.9   0.2                          T                 .9  .34 Ml 2.4         4739924
LOR   005.90 305.6 m E Pn      2011/08/20 21:54:40.2   0.3                          T                                        4739929
LOR   005.90 305.6 m E Sn      2011/08/20 21:55:44.2   0.0                          T                1.6  .37 Ml 2.7         4739923
MTLF  006.35 266.6 m E Pn      2011/08/20 21:54:46.5   0.6                          T                                        4739941

.
EVENT     262761
    Date      Time       Latitude Longitude    Depth    Ndef Nsta Gap    Mag1  N    Mag2  N    Mag3  N   Author         ID
       rms   OT_Error      Smajor Sminor Az        Err   mdist  Mdist     Err        Err        Err      Quality

2011/08/20 23:52:49.6     43.5696   11.1627     22.0 f    17    7 118  Ml 2.2  7                         js067245    262761

      0.37   +-  0.17       3.8    3.4   41.14 +-  0.0    0.13   6.02   +-0.4                            m i ke

CENTRAL ITALY
Sta     Dist  EvAz     Phase      Date       Time     TRes  Azim  AzRes  Slow  SRes Def   SNR       Amp   Per   Mag1   Mag2       ID
PGF   001.89 238.0 m E Pn      2011/08/20 23:53:18.9  -0.1                          T                                        4739962
PGF   001.89 238.0 m E Sn      2011/08/20 23:53:40.2  -0.3                          T                6.5  .38 Ml 2.6         4739960
FRF   003.28 271.4 m E Pn      2011/08/20 23:53:38.2   0.4                          T                                        4739964
FRF   003.28 271.4 m E Sn      2011/08/20 23:54:13.6  -0.1                          T                2.0  .42 Ml 2.2         4739957
LMR   003.40 267.6 m E Pn      2011/08/20 23:53:39.5   0.1                          T                                        4739963
LMR   003.40 267.6 m E Sn      2011/08/20 23:54:16.0  -0.5                          T                 .3  .22 Ml 1.6         4739958
SMRF  004.07 277.7 m E Pn      2011/08/20 23:53:48.9   0.3                          T                                        4739965
SMRF  004.07 277.7 m E Sn      2011/08/20 23:54:33.4   0.8                          T                 .2  .19 Ml 1.8         4739956
ORIF  004.03 291.4 m E P       2011/08/20 23:53:52.1   0.3                          T                                        4739961
SBF   002.72 277.5 m E Sn      2011/08/20 23:53:59.5  -0.9                          T                2.1  .36 Ml 2.1         4739959
SMF   006.02 303.2 m E Sn      2011/08/20 23:55:19.4   0.1                          T                1.4  .45 Ml 2.6         4739955

.
EVENT     262762
    Date      Time       Latitude Longitude    Depth    Ndef Nsta Gap    Mag1  N    Mag2  N    Mag3  N   Author         ID
       rms   OT_Error      Smajor Sminor Az        Err   mdist  Mdist     Err        Err        Err      Quality

2011/08/21 03:30:46.2     44.0911    7.2164      4.0 f    12    6 171  Ml 1.8  3  Md 2.0  3              js067245    262762

      0.20   +-  0.09       1.9    1.3   66.22 +-  0.0    0.28   1.98   +-0.4      +-0.2                 m i ke

NORTHERN ITALY
Sta     Dist  EvAz     Phase      Date       Time     TRes  Azim  AzRes  Slow  SRes Def   SNR       Amp   Per   Mag1   Mag2       ID
SBF   000.28 145.2 m E Pg      2011/08/21 03:30:51.6  -0.2                          T                                        4739985
SBF   000.28 145.2 m E Sg      2011/08/21 03:30:55.6   0.1                          T                7.7  .22        Md 2.1  4739980
FRF   000.67 218.1 m E Pg      2011/08/21 03:30:58.5  -0.4                          T                                        4739983
FRF   000.67 218.1 m E Sg      2011/08/21 03:31:07.7   0.1                          T                2.2  .17        Md 2.1  4739979
MBDF  000.71 333.5 m E Pg      2011/08/21 03:30:59.8   0.0                          T                                        4739976
MBDF  000.71 333.5 m E Sg      2011/08/21 03:31:08.7  -0.4                          T                2.1  .18        Md 1.8  4739977
LMR   000.91 214.4 m E Pg      2011/08/21 03:31:03.3   0.0                          T                                        4739984
LMR   000.91 214.4 m E Sg      2011/08/21 03:31:15.3   0.1                          T                5.4  .19 Ml 2.2         4739981
SMRF  001.19 265.0 m E Pg      2011/08/21 03:31:08.7   0.2                          T                                        4739982
SMRF  001.19 265.0 m E Sg      2011/08/21 03:31:23.7  -0.2                          T                2.1  .21 Ml 1.9         4739978
VIVF  001.98 293.7 m E Pn      2011/08/21 03:31:18.6  -0.1                          T                                        4739974
VIVF  001.98 293.7 m E Sn      2011/08/21 03:31:42.7   0.3                          T                 .4  .26 Ml 1.4         4739975

.
EVENT     262763
    Date      Time       Latitude Longitude    Depth    Ndef Nsta Gap    Mag1  N    Mag2  N    Mag3  N   Author         ID
       rms   OT_Error      Smajor Sminor Az        Err   mdist  Mdist     Err        Err        Err      Quality

2011/08/21 05:08:04.4     43.0595    -.6334      2.0       6    3 174             Md 1.5  2              js067245    262763

      0.07   +-  0.04       1.2     .6   14.16 +-  0.0    0.17   0.71              +-0.0                 m i ke

PYRENEES
Sta     Dist  EvAz     Phase      Date       Time     TRes  Azim  AzRes  Slow  SRes Def   SNR       Amp   Per   Mag1   Mag2       ID
ETSF  000.17 161.3 m E Pg      2011/08/21 05:08:08.0   0.0                          T                                        4740009
ETSF  000.17 161.3 m E Sg      2011/08/21 05:08:10.4   0.0                          T                7.4  .21        Md 1.5  4740007
SJPF  000.44 277.3 m E Pg      2011/08/21 05:08:12.9   0.0                          T                                        4740008
SJPF  000.44 277.3 m E Sg      2011/08/21 05:08:18.4  -0.2                          T                 .6  .20        Md 1.5  4740006
EPF   000.71 092.0 m E Pg      2011/08/21 05:08:17.9   0.0                          T                                        4748428
EPF   000.71 092.0 m E Sg      2011/08/21 05:08:27.3   0.0                          T                 .6  .21                4740005

.
