EVENT     272765
    Date      Time       Latitude Longitude    Depth    Ndef Nsta Gap    Mag1  N    Mag2  N    Mag3  N   Author         ID
       rms   OT_Error      Smajor Sminor Az        Err   mdist  Mdist     Err        Err        Err      Quality

2012/03/30 18:52:44.5     45.4877     .7737      5.0 f    71   23 101  Ml 2.6 24  Md 2.8  2              js067245    272785

      0.84   +-  0.05       1.1    1.0   75.75 +-  0.0    0.55   3.98   +-0.3      +-0.0                 m i ke

FRANCE
Sta     Dist  EvAz     Phase      Date       Time     TRes  Azim  AzRes  Slow  SRes Def   SNR       Amp   Per   Mag1   Mag2       ID
RJF   000.55 109.0 m E Pg      2012/03/30 18:52:54.7  -0.4                          T   001.0                                4898470
RJF   000.55 109.0 m E Sg      2012/03/30 18:53:02.2  -0.2                          T   001.0       60.4  .16        Md 2.8  4898471
LFF   000.55 182.5 m E Pg      2012/03/30 18:52:55.0   0.0                          T                                        4899168
LFF   000.55 182.5 m E Sg      2012/03/30 18:53:02.0  -0.1                          T   001.0       61.7  .32        Md 2.8  4898491
CAF   001.07 121.2 m E Pn      2012/03/30 18:53:03.8  -0.8                          T   001.0                                4898477
CAF   001.07 121.2 m E Pg      2012/03/30 18:53:04.6   0.0                          T                                        4899167
CAF   001.07 121.2 m E Sg      2012/03/30 18:53:18.7   0.2                          T   001.0       51.4  .20 Ml 3.3         4898478
MFF   001.29 330.5 m E Pn      2012/03/30 18:53:07.3  -0.1                          T   001.0                                4898495
MFF   001.29 330.5 m E Pg      2012/03/30 18:53:08.6   0.1                          T   001.0                                4898496
MFF   001.29 330.5 m E Sg      2012/03/30 18:53:25.4   0.2                          T               28.8  .20 Ml 3.3         4899166
TCF   001.28 050.9 m E Pn      2012/03/30 18:53:07.6   0.1                          T   001.0                                4898505
TCF   001.28 050.9 m E Pg      2012/03/30 18:53:08.5   0.0                          T                                        4899173
TCF   001.28 050.9 m E Sn      2012/03/30 18:53:23.9  -0.1                          T   001.0        8.2  .20 Ml 2.6         4898506
BGF   001.80 052.7 m E Pn      2012/03/30 18:53:14.4   0.0                          T   001.0                                4898475
BGF   001.80 052.7 m E Pg      2012/03/30 18:53:17.5  -0.4                          T                                        4899171
BGF   001.80 052.7 m E Sg      2012/03/30 18:53:40.4  -0.7                          T   001.0       26.9  .36 Ml 3.0         4898476
AVF   002.22 053.1 m E Pn      2012/03/30 18:53:20.7   0.6                          T   001.0                                4898472
AVF   002.22 053.1 m E Pg      2012/03/30 18:53:25.8   0.1                          T   001.0                                4898473
AVF   002.22 053.1 m E Sg      2012/03/30 18:53:53.7  -0.4                          T   001.0        5.8  .44 Ml 2.4         4898474
MTLF  002.38 153.8 m E Pn      2012/03/30 18:53:22.6   0.2                          T                                        4899188
MTLF  002.38 153.8 m E Pg      2012/03/30 18:53:28.7   0.0                          T                                        4899187
MTLF  002.38 153.8 m E Sn      2012/03/30 18:53:50.5   0.3                          T   001.0                                4898509
MTLF  002.38 153.8 m E Sg      2012/03/30 18:53:59.4   0.0                          T   001.0        3.3  .36 Ml 2.3         4898479
SMF   002.43 060.4 m E Pn      2012/03/30 18:53:23.5   0.5                          T   001.0                                4898498
SMF   002.43 060.4 m E Pg      2012/03/30 18:53:29.6   0.0                          T   001.0                                4898499
SMF   002.43 060.4 m E Sg      2012/03/30 18:54:00.0  -0.8                          T   001.0        2.4  .20 Ml 2.4         4898500
EPF   002.48 187.4 m E Pn      2012/03/30 18:53:23.7  -0.1                          T                                        4899190
EPF   002.48 187.4 m E Pg      2012/03/30 18:53:30.8   0.3                          T                                        4899189
EPF   002.48 187.4 m E Sn      2012/03/30 18:53:52.0  -0.6                          T   001.0                                4898482
EPF   002.48 187.4 m E Sg      2012/03/30 18:54:02.5   0.1                          T   001.0        4.9  .20 Ml 2.7         4898483
SSF   002.46 049.3 m E Pn      2012/03/30 18:53:23.9   0.4                          T   001.0                                4898501
SSF   002.46 049.3 m E Pg      2012/03/30 18:53:29.5  -0.7                          T   001.0                                4898502
SSF   002.46 049.3 m E Sn      2012/03/30 18:53:51.0  -1.2                          T   001.0                                4898503
SSF   002.46 049.3 m E Sg      2012/03/30 18:54:01.5  -0.4                          T   001.0        4.1  .32 Ml 2.5         4898504
HYF   002.20 035.3 m E Pg      2012/03/30 18:53:25.3   0.0                          T                                        4899172
HYF   002.20 035.3 m E Sg      2012/03/30 18:53:53.6  -0.1                          T                                        4899177
ETSF  002.76 200.8 m E Pn      2012/03/30 18:53:28.0   0.3                          T   001.0                                4898507
ETSF  002.76 200.8 m E Pg      2012/03/30 18:53:35.8   0.0                          T                                        4899191
ETSF  002.76 200.8 m E Sg      2012/03/30 18:54:10.3  -0.9                          T   001.0        4.3  .32 Ml 2.5         4898508
LOR   002.78 049.1 m E Pn      2012/03/30 18:53:28.1   0.2 228.9  -2.4              T   001.0                                4898492
LOR   002.78 049.1 m E Pg      2012/03/30 18:53:36.1   0.0 234.1  2.8               T                                        4899174
LOR   002.78 049.1 m E Sn      2012/03/30 18:54:00.0   0.2 220.1  -11.2             T   001.0                                4898493
LOR   002.78 049.1 m E Sg      2012/03/30 18:54:12.0   0.2 212.9  -18.4             T   001.0        2.6  .24 Ml 2.4         4898494
VIVF  002.83 101.5 m E Pn      2012/03/30 18:53:28.5   0.0                          T                                        4899186
VIVF  002.83 101.5 m E Pg      2012/03/30 18:53:36.8  -0.2                          T                                        4899185
VIVF  002.83 101.5 m E Sg      2012/03/30 18:54:13.1  -0.3                          T   001.0        4.9  .32 Ml 2.6         4898512
SJPF  002.77 211.9 m E P       2012/03/30 18:53:30.4  -0.1                          T                                        4899193
SJPF  002.77 211.9 m E Pn      2012/03/30 18:53:35.9   8.2                          T                                        4899192
SJPF  002.77 211.9 m E Sn      2012/03/30 18:53:58.5  -1.1                          T   001.0        2.2  .24 Ml 2.3         4898511
SJPF  002.77 211.9 m E Sg      2012/03/30 18:54:11.0  -0.6                          T                3.6  .33 Ml 2.4         4899184
GRR   003.11 339.5 m E Pn      2012/03/30 18:53:32.8   0.5                          T                                        4899194
GRR   003.11 339.5 m E Sn      2012/03/30 18:54:06.5  -1.1                          T   001.0                                4898486
GRR   003.11 339.5 m E Sg      2012/03/30 18:54:21.6  -0.4                          T   001.0        3.5  .24 Ml 2.5         4898487
LASF  002.61 121.6 m E Pg      2012/03/30 18:53:32.9   0.0                          T   001.0                                4898488
LASF  002.61 121.6 m E Sg      2012/03/30 18:54:06.5   0.0                          T   001.0        8.3  .44 Ml 2.6         4898489
LDF   003.17 349.2 m E Pn      2012/03/30 18:53:33.1   0.0                          T   001.0                                4898490
LDF   003.17 349.2 m E Sg      2012/03/30 18:54:23.8  -0.1                          T                3.8  .24 Ml 2.6         4899183
FLN   003.39 345.8 m E Pn      2012/03/30 18:53:35.8  -0.3 162.3  -2.5              T                                        4899195
FLN   003.39 345.8 m E Sn      2012/03/30 18:54:13.6  -0.6 158.8  -6.0              T   001.0                                4898484
FLN   003.39 345.8 m E Sg      2012/03/30 18:54:30.5  -0.2 169.8  4.9               T   001.0        2.7  .24 Ml 2.4         4898485
SGMF  003.59 321.7 m E Pn      2012/03/30 18:53:39.1   0.3                          T                                        4899197
SGMF  003.59 321.7 m E Sn      2012/03/30 18:54:18.6  -0.4                          T   001.0        2.5  .40 Ml 2.4         4898510
SGMF  003.59 321.7 m E Sg      2012/03/30 18:54:36.7  -0.2                          T                2.3  .40 Ml 2.3         4899180
QUIF  003.64 313.3 m E Pn      2012/03/30 18:53:39.2  -0.3                          T                                        4899196
QUIF  003.64 313.3 m E Sn      2012/03/30 18:54:20.1  -0.2                          T                                        4899182
QUIF  003.64 313.3 m E Sg      2012/03/30 18:54:38.6   0.1                          T                1.7  .20 Ml 2.5         4899181
ROSF  003.98 317.2 m E Pn      2012/03/30 18:53:44.9   0.8                          T   001.0                                4898480
ROSF  003.98 317.2 m E Sn      2012/03/30 18:54:27.3  -1.0                          T                                        4899179
ROSF  003.98 317.2 m E Sg      2012/03/30 18:54:49.2   0.1                          T   001.0        2.5  .36 Ml 2.5         4898481

.
EVENT     272788
    Date      Time       Latitude Longitude    Depth    Ndef Nsta Gap    Mag1  N    Mag2  N    Mag3  N   Author         ID
       rms   OT_Error      Smajor Sminor Az        Err   mdist  Mdist     Err        Err        Err      Quality

2012/03/30 20:05:00.0     44.4673    6.6831      2.0      20    6 067  Ml 1.1  4  Md 1.5  1              js067245    272808

      0.41   +-  0.04        .8     .8   20.88 +-  0.0    0.08   1.49   +-0.2      +-                    m i ke

FRANCE
Sta     Dist  EvAz     Phase      Date       Time     TRes  Azim  AzRes  Slow  SRes Def   SNR       Amp   Per   Mag1   Mag2       ID
MBDF  000.27 013.6 m E Pg      2012/03/30 20:05:05.6   0.2                          T                                        4899217
MBDF  000.27 013.6 m E Sg      2012/03/30 20:05:09.0  -0.1                          T                3.9  .35        Md 1.5  4899218
ORIF  000.73 308.5 m E Pg      2012/03/30 20:05:13.8  -0.1                          T                                        4899216
ORIF  000.73 308.5 m E Sg      2012/03/30 20:05:23.5   0.1                          T                1.1  .26                4899209
FRF   000.91 181.7 m E Pn      2012/03/30 20:05:18.2   0.1                          T                                        4899214
FRF   000.91 181.7 m E Sg      2012/03/30 20:05:28.7  -0.1                          T                 .6  .18 Ml 1.3         4899211
SMRF  000.94 238.7 m E Pn      2012/03/30 20:05:18.6   0.0                          T                                        4899215
SMRF  000.94 238.7 m E Sn      2012/03/30 20:05:31.8   0.0                          T                 .5  .31 Ml 1           4899210
LMR   001.14 186.4 m E Pg      2012/03/30 20:05:21.3   0.1                          T                                        4899213
LMR   001.14 186.4 m E Sg      2012/03/30 20:05:36.1   0.1                          T                 .3  .21 Ml 1.1         4899212
VIVF  001.49 285.9 m E Sg      2012/03/30 20:05:47.0   0.0                          T                 .3  .22 Ml 1.1         4899208

.
EVENT     272767
    Date      Time       Latitude Longitude    Depth    Ndef Nsta Gap    Mag1  N    Mag2  N    Mag3  N   Author         ID
       rms   OT_Error      Smajor Sminor Az        Err   mdist  Mdist     Err        Err        Err      Quality

2012/03/31 03:58:40.1     44.4918    6.6833      2.0      43    9 047  Ml 1.8  6                         js067245    272787

      0.44   +-  0.05       1.1     .9   61.29 +-  0.0    0.09   1.71   +-0.3                            m i ke

FRANCE
Sta     Dist  EvAz     Phase      Date       Time     TRes  Azim  AzRes  Slow  SRes Def   SNR       Amp   Per   Mag1   Mag2       ID
MBDF  000.24 015.0 m E Pg      2012/03/31 03:58:44.9  -0.2                          T                                        4899605
MBDF  000.24 015.0 m E Sg      2012/03/31 03:58:48.4   0.0                          T               12.6  .28                4899596
ORIF  000.71 306.9 m E Pg      2012/03/31 03:58:53.5  -0.2                          T                                        4899236
ORIF  000.71 306.9 m E Sg      2012/03/31 03:59:02.6  -0.3                          T                4.5  .22                4899597
SBF   000.83 139.0 m E Pg      2012/03/31 03:58:55.9   0.1                          T                                        4899598
SBF   000.83 139.0 m E Sg      2012/03/31 03:59:06.7   0.1                          T                3.3  .24                4899594
FRF   000.93 181.6 m E Pg      2012/03/31 03:58:57.7   0.2                          T                                        4899235
FRF   000.93 181.6 m E Sg      2012/03/31 03:59:09.5  -0.2                          T                6.1  .20 Ml 2.3         4899222
LPG   001.01 002.7 m E Pg      2012/03/31 03:58:59.2  -0.1                          T                                        4899229
LPG   001.01 002.7 m E Sg      2012/03/31 03:59:10.4  -2.0                          T                2.9  .34 Ml 1.8         4899592
SMRF  000.95 237.5 m E Pn      2012/03/31 03:58:59.3   0.5                          T                                        4899601
SMRF  000.95 237.5 m E Sn      2012/03/31 03:59:12.0  -0.1                          T                1.1  .23 Ml 1.5         4899223
LPL   001.03 001.9 m E Pg      2012/03/31 03:58:59.8   0.3                          T                                        4899603
LPL   001.03 001.9 m E Sg      2012/03/31 03:59:13.4   0.5                          T                2.0  .33 Ml 1.6         4899590
LMR   001.16 186.3 m E Pg      2012/03/31 03:59:01.8   0.0                          T                                        4899234
LMR   001.16 186.3 m E Sg      2012/03/31 03:59:16.7  -0.2                          T                4.2  .30 Ml 2.1         4899595
VIVF  001.48 285.0 m E Pn      2012/03/31 03:59:06.0   0.0                          T                                        4899232
VIVF  001.48 285.0 m E Pg      2012/03/31 03:59:07.7   0.0                          T                                        4899231
VIVF  001.48 285.0 m E Sg      2012/03/31 03:59:26.8   0.0                          T                1.4  .30 Ml 1.7         4899227

.
EVENT     272768
    Date      Time       Latitude Longitude    Depth    Ndef Nsta Gap    Mag1  N    Mag2  N    Mag3  N   Author         ID
       rms   OT_Error      Smajor Sminor Az        Err   mdist  Mdist     Err        Err        Err      Quality

2012/03/31 09:10:47.9     44.5294    7.1805      5.0 f    35    7 075  Ml 1.8  6  Md 1.8  1              js067245    272788

      0.64   +-  0.06       1.4    1.1   61.52 +-  0.0    0.05   1.92   +-0.3      +-                    m i ke

NORTHERN ITALY
Sta     Dist  EvAz     Phase      Date       Time     TRes  Azim  AzRes  Slow  SRes Def   SNR       Amp   Per   Mag1   Mag2       ID
MBDF  000.35 304.2 m E Pg      2012/03/31 09:10:54.9   0.0                          T                                        4899254
MBDF  000.35 304.2 m E Sg      2012/03/31 09:10:59.7   0.0                          T                6.9  .24        Md 1.8  4899246
SBF   000.69 164.5 m E Pg      2012/03/31 09:11:00.9  -0.1                          T                                        4899250
SBF   000.69 164.5 m E Sg      2012/03/31 09:11:10.1   0.0                          T                3.7  .27                4899241
ORIF  001.01 293.2 m E Pg      2012/03/31 09:11:06.9   0.0                          T                                        4899252
ORIF  001.01 293.2 m E Sg      2012/03/31 09:11:19.5  -0.4                          T                1.2  .24 Ml 1.5         4899245
FRF   001.04 201.9 m E Pg      2012/03/31 09:11:07.5   0.1                          T                                        4899251
FRF   001.04 201.9 m E Sg      2012/03/31 09:11:21.0   0.1                          T                3.2  .26 Ml 2.0         4899243
SMRF  001.28 244.9 m E Pg      2012/03/31 09:11:11.8   0.0                          T                                        4899248
SMRF  001.28 244.9 m E Sg      2012/03/31 09:11:28.4   0.0                          T                2.2  .25 Ml 1.9         4899244
LMR   001.29 202.3 m E Pg      2012/03/31 09:11:12.0   0.0                          T                                        4899249
LMR   001.29 202.3 m E Sg      2012/03/31 09:11:28.7   0.0                          T                3.1  .20 Ml 2.2         4899242
VIVF  001.82 281.2 m E Pg      2012/03/31 09:11:21.7   0.0                          T                                        4899253
VIVF  001.82 281.2 m E Sg      2012/03/31 09:11:45.2   0.0                          T                 .6  .26 Ml 1.6         4899247

.
