EVENT     272377
    Date      Time       Latitude Longitude    Depth    Ndef Nsta Gap    Mag1  N    Mag2  N    Mag3  N   Author         ID
       rms   OT_Error      Smajor Sminor Az        Err   mdist  Mdist     Err        Err        Err      Quality

2012/03/24 05:50:02.4     36.3818     .7263     30.0 f   130   28 059  Ml 3.4 11                         js067245    272397

      1.41   +-  0.18       4.4    3.4  164.83 +-  0.0    0.35  75.04   +-0.2                            m i ke

NORTHERN ALGERIA
Sta     Dist  EvAz     Phase      Date       Time     TRes  Azim  AzRes  Slow  SRes Def   SNR       Amp   Per   Mag1   Mag2       ID
EPF   006.65 357.6 m E Pn      2012/03/24 05:51:37.1   1.0                          T   001.0                                4884226
EPF   006.65 357.6 m E Sn      2012/03/24 05:52:45.9  -0.5                          T   001.0        9.2  .58 Ml 3.4         4884227
ETSF  006.58 351.7 m E P       2012/03/24 05:51:40.1   0.3                          T   001.0                                4884241
ETSF  006.58 351.7 m E Sn      2012/03/24 05:52:44.4  -0.5                          T                7.3  .54 Ml 3.3         4897000
MTLF  007.04 008.9 m E Pn      2012/03/24 05:51:42.9   1.4                          T   001.0                                4884242
SJPF  006.89 348.0 m E P       2012/03/24 05:51:44.1   0.1                          T   001.0                                4884243
SJPF  006.89 348.0 m E Sn      2012/03/24 05:52:52.2   0.0                          T   001.0        6.8  .48 Ml 3.4         4884244
LASF  008.05 016.3 m E Pn      2012/03/24 05:51:56.6   1.4                          T   001.0                                4884230
LMR   008.24 030.9 m E Pn      2012/03/24 05:51:58.8   1.0                          T   001.0                                4884232
LMR   008.24 030.9 m E Sn      2012/03/24 05:53:23.7  -0.8                          T   001.0        2.8  .28 Ml 3.5         4884233
LFF   008.55 000.1 m E Pn      2012/03/24 05:52:02.3   0.4                          T   001.0                                4884231
LFF   008.55 000.1 m E Sn      2012/03/24 05:53:32.2   0.4                          T                4.8  .47 Ml 3.3         4896998
FRF   008.49 030.5 m E Pn      2012/03/24 05:52:02.5   1.4                          T   001.0                                4884228
FRF   008.49 030.5 m E Sn      2012/03/24 05:53:29.7  -0.6                          T   001.0        2.3  .23 Ml 3.5         4884229
SMRF  008.44 024.6 m E P       2012/03/24 05:52:04.1  -1.5                          T   001.0                                4884245
SMRF  008.44 024.6 m E Sn      2012/03/24 05:53:29.2  -0.1                          T                1.6  .36 Ml 3.1         4897001
CAF   008.60 006.4 m E Pn      2012/03/24 05:52:05.1   2.4                          T   001.0                                4884225
CAF   008.60 006.4 m E Sn      2012/03/24 05:53:32.6  -0.3                          T                3.5  .41 Ml 3.4         4896999
PGF   008.88 043.6 m E Pn      2012/03/24 05:52:06.5   0.0                          T   001.0                                4884237
PGF   008.88 043.6 m E Sn      2012/03/24 05:53:37.2  -2.6                          T   001.0        3.4  .28 Ml 3.9         4884238
RJF   008.93 003.6 m E Pn      2012/03/24 05:52:08.2   1.0                          T   001.0                                4884222
RJF   008.93 003.6 m E Sn      2012/03/24 05:53:41.5   0.5                          T                1.7  .35 Ml 2.9         4896997
SBF   009.07 032.4 m E Pn      2012/03/24 05:52:08.7  -0.4                          T   001.0                                4884239
SBF   009.07 032.4 m E Sn      2012/03/24 05:53:41.7  -2.5                          T                2.1  .28 Ml 3.4         4897002
VIVF  008.98 018.3 m E Pn      2012/03/24 05:52:08.8   0.9                          T                                        4895222
ORIF  009.38 023.1 m E Pn      2012/03/24 05:52:14.1   0.7                          T                                        4895225
MBDF  009.52 027.0 m E Pn      2012/03/24 05:52:16.0   0.7                          T                                        4897003
TCF   009.96 006.0 m E Pn      2012/03/24 05:52:21.4   0.2                          T                                        4897007
MFF   010.23 356.6 m E Pn      2012/03/24 05:52:25.2   0.3                          T   001.0                                4884236
BGF   010.29 008.2 m E Pn      2012/03/24 05:52:26.3   0.6                          T   001.0                                4884224
SMF   010.52 011.8 m E Pn      2012/03/24 05:52:28.6  -0.2                          T   001.0                                4884240
LPL   010.19 024.6 m E P       2012/03/24 05:52:29.6  -0.5                          T   001.0                                4884235
LPG   010.18 024.7 m E P       2012/03/24 05:52:29.7  -0.3                          T   001.0                                4884234
AVF   010.58 009.9 m E Pn      2012/03/24 05:52:30.1   0.5                          T   001.0                                4884223
SSF   010.87 010.1 m E Pn      2012/03/24 05:52:33.6   0.0                          T                                        4897008
CABF  010.98 019.8 m E Pn      2012/03/24 05:52:36.8   1.7                          T                                        4895223
LOR   011.12 011.1 m E Pn      2012/03/24 05:52:37.1   0.1                          T                                        4897006
LDF   012.22 357.3 m E Pn      2012/03/24 05:52:52.9   1.0                          T                                        4897004
HINF  012.29 019.7 m E Pn      2012/03/24 05:52:53.1   0.1                          T                                        4897005

.
EVENT     272378
    Date      Time       Latitude Longitude    Depth    Ndef Nsta Gap    Mag1  N    Mag2  N    Mag3  N   Author         ID
       rms   OT_Error      Smajor Sminor Az        Err   mdist  Mdist     Err        Err        Err      Quality

2012/03/24 07:23:43.9     43.0757    -.6536      2.0       6    3 147             Md 1.3  2              js067245    272398

      0.38   +-  0.11       4.3    1.9   18.09 +-  0.0    0.04   0.73              +-0.0                 m i ke

PYRENEES
Sta     Dist  EvAz     Phase      Date       Time     TRes  Azim  AzRes  Slow  SRes Def   SNR       Amp   Per   Mag1   Mag2       ID
ETSF  000.19 158.6 m E Pg      2012/03/24 07:23:47.5  -0.3                          T                                        4895812
ETSF  000.19 158.6 m E Sg      2012/03/24 07:23:50.3  -0.2                          T                7.0  .18        Md 1.3  4895811
SJPF  000.42 275.3 m E Pg      2012/03/24 07:23:51.5  -0.4                          T                                        4895809
SJPF  000.42 275.3 m E Sg      2012/03/24 07:23:57.6   0.0                          T                6.3  .34        Md 1.3  4895810
EPF   000.73 093.2 m E Pg      2012/03/24 07:23:57.9   0.2                          T                                        4895807
EPF   000.73 093.2 m E Sg      2012/03/24 07:24:07.7   0.5                          T                1.2  .21                4895808

.
EVENT     272379
    Date      Time       Latitude Longitude    Depth    Ndef Nsta Gap    Mag1  N    Mag2  N    Mag3  N   Author         ID
       rms   OT_Error      Smajor Sminor Az        Err   mdist  Mdist     Err        Err        Err      Quality

2012/03/24 11:16:15.6     46.1306    2.6407      2.0      10    5 102  Ml 1.3  2  Md 1.2  3              js067245    272399

      0.19   +-  0.08       1.6    1.2  177.39 +-  0.0    0.10   1.27   +-0.0      +-0.1                 m i ke

FRANCE
Sta     Dist  EvAz     Phase      Date       Time     TRes  Azim  AzRes  Slow  SRes Def   SNR       Amp   Per   Mag1   Mag2       ID
TCF   000.34 297.9 m E Pg      2012/03/24 11:16:22.2   0.0                          T                                        4897028
TCF   000.34 297.9 m E Sg      2012/03/24 11:16:26.9   0.1                          T                 .5  .19        Md 1.1  4897029
BGF   000.45 018.4 m E Pg      2012/03/24 11:16:24.1  -0.2                          T                                        4895815
BGF   000.45 018.4 m E Sg      2012/03/24 11:16:30.3   0.1                          T                2.8  .30        Md 1.3  4895816
AVF   000.82 036.4 m E Pg      2012/03/24 11:16:31.0  -0.1                          T                                        4897023
AVF   000.82 036.4 m E Pn      2012/03/24 11:16:32.7   0.1                          T                                        4897027
AVF   000.82 036.4 m E Sn      2012/03/24 11:16:44.4  -0.2                          T                 .9  .21                4897026
SMF   000.98 057.8 m E Pg      2012/03/24 11:16:34.0   0.0                          T                                        4897025
SMF   000.98 057.8 m E Sg      2012/03/24 11:16:46.7   0.1                          T                 .7  .23 Ml 1.3         4897024
CAF   001.27 198.8 m E Sg      2012/03/24 11:16:55.6  -0.2                          T                 .5  .24 Ml 1.2         4897022

.
EVENT     272380
    Date      Time       Latitude Longitude    Depth    Ndef Nsta Gap    Mag1  N    Mag2  N    Mag3  N   Author         ID
       rms   OT_Error      Smajor Sminor Az        Err   mdist  Mdist     Err        Err        Err      Quality

2012/03/24 16:52:56.3     43.0305    2.4855      5.0 f    25   11 103  Ml 2.2 11  Md 2.2  3              js067245    272400

      0.68   +-  0.11       2.3    1.6  171.48 +-  0.0    0.37   3.10   +-0.2      +-0.1                 m i ke

FRANCE
Sta     Dist  EvAz     Phase      Date       Time     TRes  Azim  AzRes  Slow  SRes Def   SNR       Amp   Per   Mag1   Mag2       ID
MTLF  000.37 327.8 m E Pg      2012/03/24 16:53:03.3  -0.2                          T                                        4895832
MTLF  000.37 327.8 m E Sg      2012/03/24 16:53:08.0  -0.5                          T               14.3  .30        Md 2.1  4895831
LASF  001.44 043.2 m E Pn      2012/03/24 16:53:21.0  -0.5                          T                                        4895829
LASF  001.44 043.2 m E Pg      2012/03/24 16:53:24.2   0.8                          T                                        4895978
LASF  001.44 043.2 m E Sg      2012/03/24 16:53:42.3   0.3                          T                8.0  .24 Ml 2.5 Md 2.3  4895830
EPF   001.57 270.7 m E Pn      2012/03/24 16:53:23.5   0.2                          T                                        4895827
EPF   001.57 270.7 m E Pg      2012/03/24 16:53:25.5  -0.2                          T                                        4897038
EPF   001.57 270.7 m E Sg      2012/03/24 16:53:45.8  -0.3                          T                2.8  .20 Ml 2.2 Md 2.3  4895828
VIVF  002.41 040.1 m E Pn      2012/03/24 16:53:34.5  -0.2                          T                                        4896006
VIVF  002.41 040.1 m E Pg      2012/03/24 16:53:41.2   0.0                          T                                        4897039
VIVF  002.41 040.1 m E Sg      2012/03/24 16:54:12.0  -0.2                          T                1.2  .22 Ml 2.0         4895982
SMRF  002.44 066.1 m E Pn      2012/03/24 16:53:35.3   0.2                          T                                        4897037
SMRF  002.44 066.1 m E Sg      2012/03/24 16:54:12.9  -0.2                          T                 .5  .18 Ml 1.8         4897031
ETSF  002.24 267.7 m E Pg      2012/03/24 16:53:38.0   0.0                          T                                        4895981
ETSF  002.24 267.7 m E Sg      2012/03/24 16:54:05.7  -1.2                          T                3.2  .38 Ml 2.2         4895825
FRF   003.08 078.7 m E Pn      2012/03/24 16:53:44.1   0.3                          T                                        4897036
FRF   003.08 078.7 m E Pg      2012/03/24 16:53:53.1  -0.4                          T                                        4897035
FRF   003.08 078.7 m E Sg      2012/03/24 16:54:33.2   0.1                          T                 .8  .27 Ml 1.9         4897032
LMR   002.96 082.7 m E Pg      2012/03/24 16:53:50.9  -0.3                          T                                        4897034
LMR   002.96 082.7 m E Sg      2012/03/24 16:54:29.1  -0.1                          T                1.2  .30 Ml 2.0         4897033
CAF   001.92 351.0 m E Sg      2012/03/24 16:53:57.0   0.1                          T                5.8  .28 Ml 2.5         4895826
LFF   002.29 327.2 m E Sg      2012/03/24 16:54:09.7   1.5                          T                7.1  .32 Ml 2.4         4895824
RJF   002.38 343.3 m E Sg      2012/03/24 16:54:12.0   0.9                          T                2.8  .18 Ml 2.2         4895823

.
EVENT     272381
    Date      Time       Latitude Longitude    Depth    Ndef Nsta Gap    Mag1  N    Mag2  N    Mag3  N   Author         ID
       rms   OT_Error      Smajor Sminor Az        Err   mdist  Mdist     Err        Err        Err      Quality

2012/03/24 17:24:48.0     44.5169    6.7026      2.0      36    8 068  Ml 1.7  5  Md 1.7  3              js067245    272401

      0.65   +-  0.07       1.6    1.2   57.26 +-  0.0    0.09   1.19   +-0.3      +-0.1                 m i ke

FRANCE
Sta     Dist  EvAz     Phase      Date       Time     TRes  Azim  AzRes  Slow  SRes Def   SNR       Amp   Per   Mag1   Mag2       ID
MBDF  000.22 013.1 m E Pg      2012/03/24 17:24:52.6   0.1                          T                                        4896026
MBDF  000.22 013.1 m E Sg      2012/03/24 17:24:56.1   0.5                          T                8.6  .44        Md 1.7  4896025
ORIF  000.71 304.7 m E Pg      2012/03/24 17:25:01.4  -0.2                          T                                        4896024
ORIF  000.71 304.7 m E Sg      2012/03/24 17:25:10.5  -0.3                          T                1.4  .18                4896020
SBF   000.84 140.9 m E Pg      2012/03/24 17:25:05.5   1.6                          T                                        4896013
SBF   000.84 140.9 m E Sg      2012/03/24 17:25:15.3   0.5                          T                2.7  .28        Md 1.6  4896014
LPG   000.98 002.0 m E Pg      2012/03/24 17:25:06.8   0.0                          T                                        4896016
LPG   000.98 002.0 m E Sg      2012/03/24 17:25:19.4  -0.2                          T                  1  .24 Ml 1.4         4896015
FRF   000.96 182.4 m E Pg      2012/03/24 17:25:07.2   1.2                          T                                        4896023
FRF   000.96 182.4 m E Sg      2012/03/24 17:25:18.8   0.3                          T                4.1  .26 Ml 2.0         4896021
SMRF  000.97 236.7 m E P       2012/03/24 17:25:09.2   0.7                          T                                        4896017
SMRF  000.97 236.7 m E Sg      2012/03/24 17:25:18.4  -0.6                          T                1.5  .29 Ml 1.5 Md 1.8  4896018
LMR   001.19 186.8 m E Pg      2012/03/24 17:25:10.9   0.7                          T                                        4896022
LMR   001.19 186.8 m E Sg      2012/03/24 17:25:25.9   0.2                          T                2.6  .29 Ml 1.9         4896019
LPL   001.00 001.2 m E Sg      2012/03/24 17:25:20.5   0.4                          T                1.9  .36 Ml 1.5         4896012

.
