EVENT     298261
    Date      Time       Latitude Longitude    Depth    Ndef Nsta Gap    Mag1  N    Mag2  N    Mag3  N   Author         ID
       rms   OT_Error      Smajor Sminor Az        Err   mdist  Mdist     Err        Err        Err      Quality

2013/05/15 14:14:35.5     42.8751    -.0298      2.0      19    7 200  Ml 2.1  6  Md 2.2  2              bulletin    298361
                                                                                                         _ldg
      0.86   +-  0.18       5.8    1.9  173.17 +-  0.0    0.31   3.07   +-0.2      +-0.1                 m i ke

PYRENEES
Sta     Dist  EvAz     Phase      Date       Time     TRes  Azim  AzRes  Slow  SRes Def   SNR       Amp   Per   Mag1   Mag2       ID
EPF   000.31 060.1 m E Pg      2013/05/15 14:14:40.9  -0.8                          T                                        5282967
EPF   000.31 060.1 m E Sg      2013/05/15 14:14:45.3  -0.5                          T               16.6  .20        Md 2.2  5282966
ETSF  000.39 273.6 m E Pg      2013/05/15 14:14:42.6  -0.5                          T                                        5282965
ETSF  000.39 273.6 m E Sg      2013/05/15 14:14:47.9  -0.4                          T               25.9  .19        Md 2.1  5282964
SJPF  000.91 285.6 m E Pg      2013/05/15 14:14:52.9   0.3                          T                                        5282963
SJPF  000.91 285.6 m E Sg      2013/05/15 14:15:03.8  -0.6                          T                3.3  .24 Ml 1.9         5282962
MTLF  001.71 073.4 m E Pn      2013/05/15 14:15:04.7   0.1                          T                                        5282961
MTLF  001.71 073.4 m E Pg      2013/05/15 14:15:07.2  -0.1                          T                                        5282959
MTLF  001.71 073.4 m E Sg      2013/05/15 14:15:29.4   0.0                          T                3.9  .35 Ml 2.2         5282960
LFF   002.14 014.8 m E Pn      2013/05/15 14:15:10.9   0.5                          T                                        5282953
LFF   002.14 014.8 m E Sn      2013/05/15 14:15:35.8  -0.1                          T                5.1  .30 Ml 2.3         5282952
CAF   002.55 035.7 m E Pn      2013/05/15 14:15:15.9  -0.2                          T                                        5282956
CAF   002.55 035.7 m E Sn      2013/05/15 14:15:45.5  -0.3                          T                                        5282955
CAF   002.55 035.7 m E Sg      2013/05/15 14:15:55.6   0.0                          T                1.7  .25 Ml 2.1         5282954
LASF  003.07 065.7 m E Pn      2013/05/15 14:15:23.8   0.6                          T                                        5282958
LASF  003.07 065.7 m E Sg      2013/05/15 14:16:12.0   0.0                          T                 .5  .27 Ml 1.8         5282957

.
EVENT     298263
    Date      Time       Latitude Longitude    Depth    Ndef Nsta Gap    Mag1  N    Mag2  N    Mag3  N   Author         ID
       rms   OT_Error      Smajor Sminor Az        Err   mdist  Mdist     Err        Err        Err      Quality

2013/05/15 14:33:29.7     45.3977    6.4238      2.0      14    6 174  Ml 1.5  2                         bulletin    298363
                                                                                                         _ldg
      0.70   +-  0.11       3.3    1.5  145.28 +-  0.0    0.25   1.54   +-0.1                            m i ke

FRANCE
Sta     Dist  EvAz     Phase      Date       Time     TRes  Azim  AzRes  Slow  SRes Def   SNR       Amp   Per   Mag1   Mag2       ID
LPL   000.25 061.2 m E Pg      2013/05/15 14:33:34.8  -0.1                          T                                        5282984
LPL   000.25 061.2 m E Sg      2013/05/15 14:33:38.0  -0.2                          T                3.5  .20                5282983
LPG   000.25 066.4 m E Pg      2013/05/15 14:33:35.1   0.1                          T                                        5282982
LPG   000.25 066.4 m E Sg      2013/05/15 14:33:38.4  -0.1                          T                2.2  .18                5282981
ORIF  000.61 218.9 m E Pg      2013/05/15 14:33:41.6   0.1                          T                                        5282980
ORIF  000.61 218.9 m E Sg      2013/05/15 14:33:49.0  -0.5                          T                2.0  .19                5282979
MBDF  000.71 159.7 m E Pg      2013/05/15 14:33:43.0  -0.3                          T                                        5282976
MBDF  000.71 159.7 m E Sg      2013/05/15 14:33:52.5  -0.2                          T                1.1  .21                5282975
VIVF  001.35 247.0 m E Pg      2013/05/15 14:33:54.8  -0.1                          T                                        5282977
VIVF  001.35 247.0 m E Sg      2013/05/15 14:34:13.1   0.6                          T                  1  .22 Ml 1.6         5282978
SMRF  001.54 203.4 m E Pn      2013/05/15 14:33:56.8   0.2                          T                                        5282974
SMRF  001.54 203.4 m E Sn      2013/05/15 14:34:15.8  -0.2                          T                 .6  .26 Ml 1.4         5282973

.
EVENT     298265
    Date      Time       Latitude Longitude    Depth    Ndef Nsta Gap    Mag1  N    Mag2  N    Mag3  N   Author         ID
       rms   OT_Error      Smajor Sminor Az        Err   mdist  Mdist     Err        Err        Err      Quality

2013/05/15 14:43:31.8     46.9919    8.3079       .0 f     6    2 059  Ml 1.9  2                         bulletin    298365
                                                                                                         _ldg
      0.82   +-  0.34       9.3    6.7  164.49 +-  0.0    0.15   1.57   +-0.2                            m i km

SWITZERLAND
Sta     Dist  EvAz     Phase      Date       Time     TRes  Azim  AzRes  Slow  SRes Def   SNR       Amp   Per   Mag1   Mag2       ID
HINF  001.29 310.4 m E Pn      2013/05/15 14:43:55.4  -0.2                          T                                        5283088
HINF  001.29 310.4 m E Sg      2013/05/15 14:44:13.5   0.4                          T                2.3  .19 Ml 2.0         5283087
CABF  001.57 256.8 m E Pg      2013/05/15 14:44:00.7  -0.8                          T                                        5283086
CABF  001.57 256.8 m E Sg      2013/05/15 14:44:21.4  -0.6                          T                1.3  .22 Ml 1.8         5283085

.
EVENT     298264
    Date      Time       Latitude Longitude    Depth    Ndef Nsta Gap    Mag1  N    Mag2  N    Mag3  N   Author         ID
       rms   OT_Error      Smajor Sminor Az        Err   mdist  Mdist     Err        Err        Err      Quality

2013/05/15 14:54:53.3     41.4277   19.5100      2.0      61   12 109  Ml 3.6  8                         bulletin    298364
                                                                                                         _ldg
      0.53   +-  0.07       2.9    1.5   29.63 +-  0.0    0.28  12.78   +-0.4                            m i ke

ALBANIA
Sta     Dist  EvAz     Phase      Date       Time     TRes  Azim  AzRes  Slow  SRes Def   SNR       Amp   Per   Mag1   Mag2       ID
PGF   007.91 281.6 m E Pn      2013/05/15 14:56:47.1   0.2                          T                                        5283048
PGF   007.91 281.6 m E Sn      2013/05/15 14:58:12.2   0.4                          T                 .8  .26 Ml 3.1         5283047
SBF   009.23 289.3 m E Pn      2013/05/15 14:57:04.5  -0.3                          T                                        5283046
MBDF  009.89 293.7 m E Pn      2013/05/15 14:57:13.7  -0.2                          T                                        5283051
LPG   010.13 297.9 m E Pn      2013/05/15 14:57:17.0  -0.3                          T                                        5283049
LPG   010.13 297.9 m E Sn      2013/05/15 14:59:05.2   0.2                          T                1.7  .25 Ml 3.6         5283043
LPL   010.15 298.0 m E Pn      2013/05/15 14:57:17.7   0.2                          T                                        5283050
LPL   010.15 298.0 m E Sn      2013/05/15 14:59:05.6   0.2                          T                3.4  .24 Ml 3.9         5283042
LMR   009.81 285.5 m E P       2013/05/15 14:57:17.9  -0.6                          T                                        5283045
ORIF  010.55 293.9 m E Pn      2013/05/15 14:57:22.3  -0.5                          T                                        5283041
ORIF  010.55 293.9 m E Sn      2013/05/15 14:59:14.7  -0.1                          T                1.0  .24 Ml 3.5         5283040
CABF  010.96 302.7 m E Pn      2013/05/15 14:57:28.6   0.2                          T                                        5283039
HINF  011.05 309.6 m E Pn      2013/05/15 14:57:29.9   0.4                          T                                        5283038
LOR   012.62 302.8 m E Pn      2013/05/15 14:57:51.2   0.2 117.6  5.8               T                                        5283052
LOR   012.62 302.8 m E Sn      2013/05/15 15:00:04.6   0.2                          T                3.7  .38 Ml 4.0         5283037
SMRF  010.57 288.6 m E Sn      2013/05/15 14:59:15.8   0.6                          T                 .7  .25 Ml 3.3         5283044
SSF   012.78 301.5 m E Sn      2013/05/15 15:00:08.3   0.4                          T                1.2  .31 Ml 3.7         5283036

.
EVENT     298266
    Date      Time       Latitude Longitude    Depth    Ndef Nsta Gap    Mag1  N    Mag2  N    Mag3  N   Author         ID
       rms   OT_Error      Smajor Sminor Az        Err   mdist  Mdist     Err        Err        Err      Quality

2013/05/15 15:02:40.6     41.3775   19.4520      2.0      59   13 041  Ml 3.8 13                         bulletin    298366
                                                                                                         _ldg
      0.78   +-  0.10       2.8    2.1   44.99 +-  0.0    0.31  12.76   +-0.3                            m i ke

ALBANIA
Sta     Dist  EvAz     Phase      Date       Time     TRes  Azim  AzRes  Slow  SRes Def   SNR       Amp   Per   Mag1   Mag2       ID
PGF   007.88 282.0 m E Pn      2013/05/15 15:04:34.6   0.7                          T                                        5283210
SBF   009.20 289.7 m E P       2013/05/15 15:04:57.4  -0.2                          T                                        5283209
SBF   009.20 289.7 m E Sn      2013/05/15 15:06:29.7  -0.2                          T                4.0  .26 Ml 3.8         5283208
LMR   009.78 285.8 m E Pn      2013/05/15 15:04:58.5  -1.1                          T                                        5283207
LMR   009.78 285.8 m E Sn      2013/05/15 15:06:43.8   0.1                          T                 .7  .20 Ml 3.3         5283206
MBDF  009.87 294.1 m E Pn      2013/05/15 15:05:00.9  -0.1                          T                                        5283198
MBDF  009.87 294.1 m E Sn      2013/05/15 15:06:46.3   0.4                          T                2.5  .30 Ml 3.6         5283197
FRF   009.71 287.2 m E P       2013/05/15 15:05:03.3  -1.2                          T                                        5283205
LPG   010.11 298.3 m E Pn      2013/05/15 15:05:04.5   0.0                          T                                        5283204
LPG   010.11 298.3 m E Sn      2013/05/15 15:06:52.5   0.5                          T                3.5  .33 Ml 3.8         5283203
LPL   010.13 298.3 m E Pn      2013/05/15 15:05:04.6  -0.1                          T                                        5283202
LPL   010.13 298.3 m E Sn      2013/05/15 15:06:52.3   0.0                          T               10.7  .38 Ml 4.2         5283201
ORIF  010.53 294.2 m E Pn      2013/05/15 15:05:10.3   0.3                          T                                        5283200
ORIF  010.53 294.2 m E Sn      2013/05/15 15:07:02.3   0.5                          T                1.8  .28 Ml 3.6         5283199
CABF  010.95 303.0 m E Pn      2013/05/15 15:05:15.5  -0.2                          T                                        5283196
CABF  010.95 303.0 m E Sn      2013/05/15 15:07:12.7   0.8                          T                6.4  .72 Ml 3.8         5283195
HINF  011.04 309.9 m E Pn      2013/05/15 15:05:17.0   0.1                          T                                        5283194
HINF  011.04 309.9 m E Sn      2013/05/15 15:07:15.0   1.1                          T                1.4  .22 Ml 3.7         5283193
CDF   011.13 313.3 m E Pn      2013/05/15 15:05:17.9  -0.2                          T                                        5283192
CDF   011.13 313.3 m E Sn      2013/05/15 15:07:16.9   0.8                          T                 .8  .25 Ml 3.5         5283191
LOR   012.62 303.1 m E Pn      2013/05/15 15:05:38.4   0.2                          T                                        5283188
LOR   012.62 303.1 m E Sn      2013/05/15 15:07:51.7   0.3                          T                7.5  .40 Ml 4.3         5283187
SSF   012.76 301.8 m E Pn      2013/05/15 15:05:40.5   0.3                          T                                        5283190
SSF   012.76 301.8 m E Sn      2013/05/15 15:07:55.2   0.1                          T                2.2  .41 Ml 3.9         5283189

.
EVENT     298336
    Date      Time       Latitude Longitude    Depth    Ndef Nsta Gap    Mag1  N    Mag2  N    Mag3  N   Author         ID
       rms   OT_Error      Smajor Sminor Az        Err   mdist  Mdist     Err        Err        Err      Quality

2013/05/15 20:10:03.9     42.7659     .0003      2.0      14    5 218  Ml 1.7  4  Md 1.6  2              bulletin    298436
                                                                                                         _ldg
      0.24   +-  0.12       3.5    1.0  177.51 +-  0.0    0.36   2.24   +-0.4      +-0.1                 m i ke

PYRENEES
Sta     Dist  EvAz     Phase      Date       Time     TRes  Azim  AzRes  Slow  SRes Def   SNR       Amp   Per   Mag1   Mag2       ID
EPF   000.36 043.2 m E Pg      2013/05/15 20:10:11.2   0.2                          T                                        5283316
EPF   000.36 043.2 m E Sg      2013/05/15 20:10:15.3  -0.6                          T                3.1  .22        Md 1.7  5283315
ETSF  000.43 288.1 m E Pg      2013/05/15 20:10:12.5   0.2                          T                                        5283314
ETSF  000.43 288.1 m E Sg      2013/05/15 20:10:18.1   0.1                          T                5.3  .27        Md 1.6  5283313
SJPF  000.96 291.5 m E Pg      2013/05/15 20:10:21.9  -0.1                          T                                        5283317
SJPF  000.96 291.5 m E Sg      2013/05/15 20:10:33.9  -0.7                          T                 .8  .23 Ml 1.3         5283318
MTLF  001.72 069.8 m E Pn      2013/05/15 20:10:33.2   0.0                          T                                        5284869
MTLF  001.72 069.8 m E Pg      2013/05/15 20:10:36.0   0.0                          T                                        5284867
MTLF  001.72 069.8 m E Sn      2013/05/15 20:10:54.7   0.2                          T                                        5283319
MTLF  001.72 069.8 m E Sg      2013/05/15 20:10:58.3   0.0                          T                 .4  .19 Ml 1.4         5284868
LFF   002.24 013.6 m E Pn      2013/05/15 20:10:40.3   0.2                          T                                        5283322
LFF   002.24 013.6 m E Sn      2013/05/15 20:11:06.9   0.1                          T                  1  .24 Ml 1.7         5283321

.
EVENT     298337
    Date      Time       Latitude Longitude    Depth    Ndef Nsta Gap    Mag1  N    Mag2  N    Mag3  N   Author         ID
       rms   OT_Error      Smajor Sminor Az        Err   mdist  Mdist     Err        Err        Err      Quality

2013/05/15 20:53:46.8     42.9892    -.0467      2.0      28    8 175  Ml 1.8  7  Md 1.8  3              bulletin    298437
                                                                                                         _ldg
      0.19   +-  0.04       1.1     .6  168.15 +-  0.0    0.29   3.04   +-0.3      +-0.1                 m i ke

PYRENEES
Sta     Dist  EvAz     Phase      Date       Time     TRes  Azim  AzRes  Slow  SRes Def   SNR       Amp   Per   Mag1   Mag2       ID
EPF   000.29 081.6 m E Pg      2013/05/15 20:53:52.5   0.0                          T                                        5283359
EPF   000.29 081.6 m E Sg      2013/05/15 20:53:56.7   0.3                          T               11.7  .24        Md 1.9  5283355
ETSF  000.39 256.6 m E Pg      2013/05/15 20:53:54.4   0.0                          T                                        5283358
ETSF  000.39 256.6 m E Sg      2013/05/15 20:53:59.6   0.0                          T               12.5  .20        Md 1.8  5283354
SJPF  000.87 278.6 m E Pg      2013/05/15 20:54:03.3   0.0                          T                                        5283357
SJPF  000.87 278.6 m E Sg      2013/05/15 20:54:14.8   0.2                          T                 .5  .19 Ml 1.1 Md 1.7  5283363
MTLF  001.69 077.2 m E Pn      2013/05/15 20:54:15.9   0.2                          T                                        5284870
MTLF  001.69 077.2 m E Pg      2013/05/15 20:54:18.4   0.0                          T                                        5283356
MTLF  001.69 077.2 m E Sn      2013/05/15 20:54:36.7   0.0                          T                                        5283370
MTLF  001.69 077.2 m E Sg      2013/05/15 20:54:40.1  -0.1                          T                1.4  .25 Ml 1.9         5283353
LFF   002.03 016.0 m E Pn      2013/05/15 20:54:20.3   0.1                          T                                        5283376
LFF   002.03 016.0 m E Pg      2013/05/15 20:54:24.3  -0.2                          T                                        5283375
LFF   002.03 016.0 m E Sn      2013/05/15 20:54:44.8   0.1                          T                                        5283374
LFF   002.03 016.0 m E Sg      2013/05/15 20:54:51.1   0.4                          T                1.8  .29 Ml 1.8         5283361
CAF   002.46 037.5 m E Pn      2013/05/15 20:54:26.1  -0.2                          T                                        5283379
CAF   002.46 037.5 m E Pg      2013/05/15 20:54:32.5  -0.1                          T                                        5283378
CAF   002.46 037.5 m E Sn      2013/05/15 20:54:55.3   0.2                          T                                        5283377
CAF   002.46 037.5 m E Sg      2013/05/15 20:55:04.6   0.3                          T                 .8  .21 Ml 1.9         5283362
RJF   002.57 025.4 m E Pn      2013/05/15 20:54:27.5  -0.2                          T                                        5283373
RJF   002.57 025.4 m E Pg      2013/05/15 20:54:34.8   0.2                          T                                        5283372
RJF   002.57 025.4 m E Sn      2013/05/15 20:54:57.8   0.0                          T                                        5283371
RJF   002.57 025.4 m E Sg      2013/05/15 20:55:07.6  -0.1                          T                1.1  .22 Ml 1.7         5283360
LASF  003.04 067.7 m E Pn      2013/05/15 20:54:34.1   0.0                          T                                        5283369
LASF  003.04 067.7 m E Pg      2013/05/15 20:54:43.2   0.0                          T                                        5283368
LASF  003.04 067.7 m E Sn      2013/05/15 20:55:08.6  -0.3                          T                                        5283367
LASF  003.04 067.7 m E Sg      2013/05/15 20:55:22.0  -0.3                          T                 .9  .31 Ml 1.9         5283366

.
