EVENT     260745
    Date      Time       Latitude Longitude    Depth    Ndef Nsta Gap    Mag1  N    Mag2  N    Mag3  N   Author         ID
       rms   OT_Error      Smajor Sminor Az        Err   mdist  Mdist     Err        Err        Err      Quality

2011/06/25 01:29:28.1     43.1316    -.4640     15.0      35    6 108  Ml 1.5  3  Md 1.8  3              js067245    260745

      0.30   +-  0.07       1.5     .8  170.60 +-  0.0    0.24   2.56   +-0.2      +-0.1                 m i ke

PYRENEES
Sta     Dist  EvAz     Phase      Date       Time     TRes  Azim  AzRes  Slow  SRes Def   SNR       Amp   Per   Mag1   Mag2       ID
ETSF  000.24 196.7 m E Pg      2011/06/25 01:29:33.5   0.0                          T                                        4712604
ETSF  000.24 196.7 m E Sg      2011/06/25 01:29:36.7  -0.6                          T               16.2  .24        Md 1.7  4712601
SJPF  000.56 268.4 m E Pg      2011/06/25 01:29:38.4  -0.6                          T                                        4712603
SJPF  000.56 268.4 m E Sg      2011/06/25 01:29:46.0  -0.4                          T                3.9  .29        Md 1.8  4712599
EPF   000.60 099.5 m E Pg      2011/06/25 01:29:39.8   0.0                          T                                        4712602
EPF   000.60 099.5 m E Sg      2011/06/25 01:29:48.5   0.7                          T                3.0  .20        Md 1.9  4712600
MTLF  001.97 083.0 m E Sg      2011/06/25 01:30:30.0  -0.2                          T                 .4  .24 Ml 1.5         4712998
LFF   002.01 025.2 m E Sg      2011/06/25 01:30:31.2  -0.1                          T                1.3  .33 Ml 1.6         4712997
CAF   002.56 044.6 m E Sn      2011/06/25 01:30:35.9  -0.3                          T                 .2  .23 Ml 1.3         4712598

.
EVENT     260746
    Date      Time       Latitude Longitude    Depth    Ndef Nsta Gap    Mag1  N    Mag2  N    Mag3  N   Author         ID
       rms   OT_Error      Smajor Sminor Az        Err   mdist  Mdist     Err        Err        Err      Quality

2011/06/25 09:05:34.7     42.9418   -1.5619      2.0      19    3 183  Ml 1.7  1  Md 1.6  2              js067245    260746

      0.33   +-  0.14       2.4    1.8   90.70 +-  0.0    0.17   1.46   +-         +-0.2                 m i ke

PYRENEES
Sta     Dist  EvAz     Phase      Date       Time     TRes  Azim  AzRes  Slow  SRes Def   SNR       Amp   Per   Mag1   Mag2       ID
SJPF  000.30 055.1 m E Pg      2011/06/25 09:05:40.6   0.0                          T                                        4712611
SJPF  000.30 055.1 m E Sg      2011/06/25 09:05:44.9   0.2                          T                6.3  .24        Md 1.7  4712608
ETSF  000.74 093.0 m E Pg      2011/06/25 09:05:48.3  -0.4                          T                                        4712610
ETSF  000.74 093.0 m E Sg      2011/06/25 09:05:57.6  -0.8                          T                2.0  .32        Md 1.4  4712607
EPF   001.40 085.7 m E Pn      2011/06/25 09:06:00.0   0.4                          T                                        4712609
EPF   001.40 085.7 m E Sg      2011/06/25 09:06:19.3   0.4                          T                  1  .21 Ml 1.7         4712606

.
EVENT     260747
    Date      Time       Latitude Longitude    Depth    Ndef Nsta Gap    Mag1  N    Mag2  N    Mag3  N   Author         ID
       rms   OT_Error      Smajor Sminor Az        Err   mdist  Mdist     Err        Err        Err      Quality

2011/06/25 17:34:01.5     45.8542    7.1990      2.0      15    8 193  Ml 2.1  6  Md 2.2  2              js067245    260747

      0.52   +-  0.13       3.7    1.5  105.00 +-  0.0    0.47   2.56   +-0.2      +-0.0                 m i ke

NORTHERN ITALY
Sta     Dist  EvAz     Phase      Date       Time     TRes  Azim  AzRes  Slow  SRes Def   SNR       Amp   Per   Mag1   Mag2       ID
LPG   000.47 221.5 m E Pg      2011/06/25 17:34:10.8  -0.1                          T                                        4712656
LPG   000.47 221.5 m E Sg      2011/06/25 17:34:16.9  -0.3                          T                6.6  .43        Md 2.2  4712666
LPL   000.47 224.2 m E Pg      2011/06/25 17:34:10.9   0.2                          T                                        4712657
LPL   000.47 224.2 m E Sg      2011/06/25 17:34:16.8  -0.2                          T                6.3  .46        Md 2.2  4712663
CABF  001.08 314.9 m E Pn      2011/06/25 17:34:20.1  -2.0                          T                                        4712655
CABF  001.08 314.9 m E Sg      2011/06/25 17:34:35.7  -0.2                          T               18.2  .68 Ml 2.3         4712668
MBDF  001.17 195.1 m E Pn      2011/06/25 17:34:23.3  -0.1                          T                                        4713005
MBDF  001.17 195.1 m E Sg      2011/06/25 17:34:39.0   0.4                          T                3.7  .36 Ml 1.9         4712680
ORIF  001.32 225.3 m E Pn      2011/06/25 17:34:25.3  -0.1                          T                                        4712653
ORIF  001.32 225.3 m E Sg      2011/06/25 17:34:43.7   0.4                          T               12.2  .76 Ml 2.2         4712664
HINF  001.98 353.2 m E Pn      2011/06/25 17:34:34.4   0.2                          T                                        4712654
HINF  001.98 353.2 m E Sn      2011/06/25 17:34:57.7  -0.5                          T                2.8  .31 Ml 2.2         4712665
VIVF  002.04 241.6 m E Sg      2011/06/25 17:35:05.5  -0.2                          T                1.4  .38 Ml 1.8         4713004
CDF   002.56 001.1 m E Sg      2011/06/25 17:35:22.1   0.1                          T                4.3  .52 Ml 2.4         4712667

.
EVENT     260748
    Date      Time       Latitude Longitude    Depth    Ndef Nsta Gap    Mag1  N    Mag2  N    Mag3  N   Author         ID
       rms   OT_Error      Smajor Sminor Az        Err   mdist  Mdist     Err        Err        Err      Quality

2011/06/25 22:44:16.9     44.1248    6.7970      4.0 f    14    8 121  Ml 1.4  2  Md 1.7  2              js067245    260748

      0.26   +-  0.08       2.0    1.5   78.06 +-  0.0    0.53   1.69   +-0.1      +-0.1                 m i ke

FRANCE
Sta     Dist  EvAz     Phase      Date       Time     TRes  Azim  AzRes  Slow  SRes Def   SNR       Amp   Per   Mag1   Mag2       ID
SBF   000.53 119.4 m E Pg      2011/06/25 22:44:27.4   0.3                          T                                        4713015
SBF   000.53 119.4 m E Sg      2011/06/25 22:44:33.7  -0.4                          T                2.2  .29        Md 1.8  4713016
FRF   000.57 191.0 m E Pg      2011/06/25 22:44:27.7  -0.2                          T                                        4713019
FRF   000.57 191.0 m E Sg      2011/06/25 22:44:35.6   0.2                          T                2.5  .35                4713020
MBDF  000.60 358.3 m E Pg      2011/06/25 22:44:28.6   0.0                          T                                        4713009
MBDF  000.60 358.3 m E Sg      2011/06/25 22:44:36.4  -0.1                          T                1.6  .29        Md 1.6  4713010
LMR   000.82 194.9 m E Pg      2011/06/25 22:44:32.0  -0.3                          T                                        4713017
LMR   000.82 194.9 m E Sn      2011/06/25 22:44:46.2   0.7                          T                2.2  .31                4713018
SMRF  000.89 260.8 m E Pg      2011/06/25 22:44:34.0   0.2                          T                                        4713013
SMRF  000.89 260.8 m E Sg      2011/06/25 22:44:45.6   0.2                          T                1.2  .31 Ml 1.4         4713014
ORIF  001.03 320.7 m E Pg      2011/06/25 22:44:35.6  -0.8                          T                                        4713011
ORIF  001.03 320.7 m E Sg      2011/06/25 22:44:49.7   0.0                          T                1.6  .37 Ml 1.5         4713012
LPL   001.39 358.1 m E Pn      2011/06/25 22:44:41.8   0.1                          T                                        4713008
VIVF  001.69 296.4 m E Pn      2011/06/25 22:44:45.2  -0.3                          T                                        4713007

.
EVENT     260749
    Date      Time       Latitude Longitude    Depth    Ndef Nsta Gap    Mag1  N    Mag2  N    Mag3  N   Author         ID
       rms   OT_Error      Smajor Sminor Az        Err   mdist  Mdist     Err        Err        Err      Quality

2011/06/25 22:49:46.3     45.4380    6.8939      2.0       8    3 289  Ml 1.7  1  Md 1.2  2              js067245    260749

      2.29   +-  1.36      24.4    9.1   87.53 +-  0.0    0.12   0.89   +-         +-0.1                 m i ke

FRANCE
Sta     Dist  EvAz     Phase      Date       Time     TRes  Azim  AzRes  Slow  SRes Def   SNR       Amp   Per   Mag1   Mag2       ID
LPL   000.14 304.7 m E Pg      2011/06/25 22:49:49.0  -0.5                          T                                        4713027
LPL   000.14 304.7 m E Sg      2011/06/25 22:49:49.8  -1.7                          T               14.7  .22        Md 1.1  4713028
LPG   000.12 300.8 m E Pg      2011/06/25 22:49:49.4   0.2                          T                                        4713025
LPG   000.12 300.8 m E Sg      2011/06/25 22:49:50.3  -0.7                          T               12.9  .22        Md 1.2  4713026
ORIF  000.89 234.4 m E Pg      2011/06/25 22:50:03.4   0.3                          T                                        4713023
ORIF  000.89 234.4 m E Sg      2011/06/25 22:50:13.9  -0.7                          T                1.8  .22 Ml 1.7         4713024

.
EVENT     260765
    Date      Time       Latitude Longitude    Depth    Ndef Nsta Gap    Mag1  N    Mag2  N    Mag3  N   Author         ID
       rms   OT_Error      Smajor Sminor Az        Err   mdist  Mdist     Err        Err        Err      Quality

2011/06/25 23:05:03.8     47.8405    8.9689     10.0      12    4 079  Ml 1.6  4  Md 1.9  1              js067245    260765

      0.67   +-  0.15       2.8    2.4  142.91 +-  0.0    0.15   2.66   +-0.3      +-                    m i ke

SWITZERLAND
Sta     Dist  EvAz     Phase      Date       Time     TRes  Azim  AzRes  Slow  SRes Def   SNR       Amp   Per   Mag1   Mag2       ID
CDF   001.27 297.4 m E Pg      2011/06/25 23:05:27.5  -0.2                          T                                        4713078
CDF   001.27 297.4 m E Sn      2011/06/25 23:05:42.2   0.0                          T                1.2  .24 Ml 1.7 Md 1.9  4713079
HINF  001.43 269.8 m E Pg      2011/06/25 23:05:30.4  -0.1                          T                                        4713073
HINF  001.43 269.8 m E Sg      2011/06/25 23:05:48.9  -0.1                          T                 .4  .25 Ml 1.3         4713074
SFTF  002.66 279.3 m E Pn      2011/06/25 23:05:45.0   0.0                          T                                        4713076
SFTF  002.66 279.3 m E Pg      2011/06/25 23:05:53.2  -0.1                          T                                        4713075
SFTF  002.66 279.3 m E Sg      2011/06/25 23:06:27.5   0.0                          T                 .7  .20 Ml 1.9         4713077
HAU   001.77 276.3 m E Sg      2011/06/25 23:05:59.7  -0.1                          T                1.1  .30 Ml 1.5         4713072

.
EVENT     260754
    Date      Time       Latitude Longitude    Depth    Ndef Nsta Gap    Mag1  N    Mag2  N    Mag3  N   Author         ID
       rms   OT_Error      Smajor Sminor Az        Err   mdist  Mdist     Err        Err        Err      Quality

2011/06/26 00:08:54.5     43.9062    6.2779      2.0       9    5 114  Ml 1.3  1  Md 1.6  3              js067245    260754

      0.37   +-  0.14       3.4    2.4   25.27 +-  0.0    0.44   0.89   +-         +-0.2                 m i ke

NEAR SOUTH COAST OF FRANCE
Sta     Dist  EvAz     Phase      Date       Time     TRes  Azim  AzRes  Slow  SRes Def   SNR       Amp   Per   Mag1   Mag2       ID
FRF   000.44 142.1 m E Pg      2011/06/26 00:09:02.8   0.0                          T                                        4713087
FRF   000.44 142.1 m E Sg      2011/06/26 00:09:07.8  -0.8                          T                4.9  .24        Md 1.8  4713088
SMRF  000.51 278.1 m E Pg      2011/06/26 00:09:04.1  -0.2                          T                                        4713083
SMRF  000.51 278.1 m E Sg      2011/06/26 00:09:11.1   0.1                          T                 .4  .23        Md 1.3  4713081
LMR   000.60 163.6 m E Pg      2011/06/26 00:09:05.5  -0.2                          T                                        4713085
LMR   000.60 163.6 m E Sg      2011/06/26 00:09:14.5   0.9                          T                1.6  .20        Md 1.7  4713086
SBF   000.84 092.5 m E Pg      2011/06/26 00:09:10.4   0.1                          T                                        4713084
SBF   000.84 092.5 m E Sg      2011/06/26 00:09:21.0  -0.2                          T                2.3  .28                4713080
MBDF  000.89 023.2 m E Sg      2011/06/26 00:09:23.1   0.1                          T                 .6  .17 Ml 1.3         4713082

.
EVENT     260755
    Date      Time       Latitude Longitude    Depth    Ndef Nsta Gap    Mag1  N    Mag2  N    Mag3  N   Author         ID
       rms   OT_Error      Smajor Sminor Az        Err   mdist  Mdist     Err        Err        Err      Quality

2011/06/26 00:09:05.0     44.7411   10.7988     25.0      16   11 224  Ml 2.2  5                         js067245    260755

      0.20   +-  0.16       4.1    1.7   84.83 +-  0.0    0.69   5.60   +-0.2                            m i ke

NORTHERN ITALY
Sta     Dist  EvAz     Phase      Date       Time     TRes  Azim  AzRes  Slow  SRes Def   SNR       Amp   Per   Mag1   Mag2       ID
SBF   002.57 251.2 m E Pn      2011/06/26 00:09:43.9   0.6                          T                                        4713098
SBF   002.57 251.2 m E Sn      2011/06/26 00:10:11.8   0.1                          T                2.3  .31 Ml 2.2         4713089
LPL   002.98 286.5 m E Pn      2011/06/26 00:09:49.0  -0.1                          T                                        4713095
FRF   003.21 249.9 m E Pn      2011/06/26 00:09:51.8  -0.2                          T                                        4713097
FRF   003.21 249.9 m E Sn      2011/06/26 00:10:27.1   0.1                          T                1.2  .31 Ml 2.1         4713101
LMR   003.40 247.0 m E Pn      2011/06/26 00:09:54.4  -0.1                          T                                        4713096
LMR   003.40 247.0 m E Sn      2011/06/26 00:10:30.3  -1.1                          T                 .7  .25 Ml 2.0         4713100
CABF  003.79 301.2 m E Pn      2011/06/26 00:10:00.9   0.9                          T                                        4713102
HINF  004.12 319.8 m E Pn      2011/06/26 00:10:03.8  -0.5                          T                                        4713103
HINF  004.12 319.8 m E Sn      2011/06/26 00:10:48.6   0.0                          T                1.2  .38 Ml 2.2         4713090
CDF   004.40 327.8 m E Pn      2011/06/26 00:10:08.2  -0.1                          T                                        4713104
HAU   004.49 318.2 m E Pn      2011/06/26 00:10:09.4   0.0                          T                                        4713092
HAU   004.49 318.2 m E Sn      2011/06/26 00:10:58.3   0.8                          T                2.6  .35 Ml 2.4         4713091
SMF   005.23 293.8 m E Pn      2011/06/26 00:10:19.6   0.1                          T                                        4713094
LOR   005.46 300.0 m E Pn      2011/06/26 00:10:22.6   0.1                          T                                        4713105
AVF   005.60 294.1 m E Pn      2011/06/26 00:10:24.3  -0.2                          T                                        4713093

.
EVENT     260879
    Date      Time       Latitude Longitude    Depth    Ndef Nsta Gap    Mag1  N    Mag2  N    Mag3  N   Author         ID
       rms   OT_Error      Smajor Sminor Az        Err   mdist  Mdist     Err        Err        Err      Quality

2011/06/26 00:18:55.8     43.9062   12.0044      2.0      22   12 222  Ml 2.2  5                         js067245    260879

      0.27   +-  0.16       3.3    1.7   86.21 +-  0.0    0.11   7.13   +-0.2                            m i ke

CENTRAL ITALY
Sta     Dist  EvAz     Phase      Date       Time     TRes  Azim  AzRes  Slow  SRes Def   SNR       Amp   Per   Mag1   Mag2       ID
PGF   002.58 239.3 m E Pn      2011/06/26 00:19:36.6  -0.3                          T                                        4713119
SBF   003.30 270.8 m E Pn      2011/06/26 00:19:47.1   0.5                          T                                        4713126
SBF   003.30 270.8 m E Sn      2011/06/26 00:20:24.1  -0.1                          T                3.0  .46 Ml 2.3         4713127
MBDF  003.84 284.1 m E Pn      2011/06/26 00:19:54.2   0.0                          T                                        4713113
FRF   003.90 266.8 m E Pn      2011/06/26 00:19:55.0   0.4                          T                                        4713130
FRF   003.90 266.8 m E Sn      2011/06/26 00:20:36.1  -2.3                          T                 .4  .25 Ml 1.8         4713131
LMR   004.03 263.7 m E Pn      2011/06/26 00:19:56.4  -0.1                          T                                        4713128
LMR   004.03 263.7 m E Sn      2011/06/26 00:20:41.3  -0.2                          T                                        4713129
LPL   004.09 295.0 m E Pn      2011/06/26 00:19:57.7   0.2                          T                                        4713114
SMRF  004.64 273.1 m E Pn      2011/06/26 00:20:04.7  -0.2                          T                                        4713115
CABF  004.98 305.0 m E Pn      2011/06/26 00:20:09.2  -0.3                          T                                        4713116
CABF  004.98 305.0 m E P       2011/06/26 00:20:12.9  -0.6                          T                                        4713117
HINF  005.31 319.2 m E Pn      2011/06/26 00:20:13.9  -0.1                          T                                        4713111
HINF  005.31 319.2 m E P       2011/06/26 00:20:18.3   0.1                          T                                        4713112
HINF  005.31 319.2 m E Sn      2011/06/26 00:21:12.0  -0.1                          T                 .6  .27 Ml 2.3         4713106
CDF   005.58 325.6 m E Pn      2011/06/26 00:20:18.4   0.8                          T                                        4713109
CDF   005.58 325.6 m E Sn      2011/06/26 00:21:18.8   0.3                          T                 .4  .24 Ml 2.4         4713108
HAU   005.69 318.1 m E Pn      2011/06/26 00:20:19.0  -0.1                          T                                        4713110
HAU   005.69 318.1 m E Sn      2011/06/26 00:21:21.8   0.7                          T                1.2  .37 Ml 2.3         4713107
MTLF  007.13 268.8 m E Pn      2011/06/26 00:20:38.5  -0.1                          T                                        4713118

.
