EVENT     253906
    Date      Time       Latitude Longitude    Depth    Ndef Nsta Gap    Mag1  N    Mag2  N    Mag3  N   Author         ID
       rms   OT_Error      Smajor Sminor Az        Err   mdist  Mdist     Err        Err        Err      Quality

2011/01/17 20:09:38.0     43.1181    -.8386      2.0       6    3 186  Ml 1.0  1  Md 1.2  3              js067245    253926

      0.05   +-  0.02        .8     .3   10.87 +-  0.0    0.28   0.87   +-         +-0.1                 m i ke

PYRENEES
Sta     Dist  EvAz     Phase      Date       Time     TRes  Azim  AzRes  Slow  SRes Def   SNR       Amp   Per   Mag1   Mag2       ID
SJPF  000.28 269.2 m E Pg      2011/01/17 20:09:43.5   0.0                          T                                        4583585
SJPF  000.28 269.2 m E Sg      2011/01/17 20:09:47.3  -0.1                          T                5.4  .30        Md 1.3  4583582
ETSF  000.30 136.9 m E Pg      2011/01/17 20:09:44.0   0.0                          T                                        4583584
ETSF  000.30 136.9 m E Sg      2011/01/17 20:09:48.0   0.0                          T                2.6  .23        Md 1.1  4583583
EPF   000.87 095.4 m E Pg      2011/01/17 20:09:54.4   0.0                          T                                        4583580
EPF   000.87 095.4 m E Sg      2011/01/17 20:10:05.6  -0.1                          T                 .5  .26 Ml 1.0 Md 1.1  4583581

.
EVENT     253907
    Date      Time       Latitude Longitude    Depth    Ndef Nsta Gap    Mag1  N    Mag2  N    Mag3  N   Author         ID
       rms   OT_Error      Smajor Sminor Az        Err   mdist  Mdist     Err        Err        Err      Quality

2011/01/17 22:46:26.0     49.0138   -1.6563     10.0 f    16    6 229  Ml 1.9  5  Md 1.9  3              js067245    253927

      0.79   +-  0.14       3.4    1.0  171.13 +-  0.0    0.81   1.49   +-0.3      +-0.1                 m i ke

FRANCE
Sta     Dist  EvAz     Phase      Date       Time     TRes  Azim  AzRes  Slow  SRes Def   SNR       Amp   Per   Mag1   Mag2       ID
FLN   000.81 107.5 m E Pg      2011/01/17 22:46:41.3  -0.1                          T                                        4583775
FLN   000.81 107.5 m E Pn      2011/01/17 22:46:42.1   0.1 287.5  -1.0              T                                        4583599
FLN   000.81 107.5 m E Sg      2011/01/17 22:46:51.9  -0.2 277.9  -10.5             T                4.2  .17        Md 1.9  4583591
GRR   000.82 139.5 m E Pg      2011/01/17 22:46:41.6   0.2                          T                                        4583774
GRR   000.82 139.5 m E Pn      2011/01/17 22:46:42.0   0.0                          T                                        4583598
GRR   000.82 139.5 m E Sg      2011/01/17 22:46:52.3   0.1                          T                5.3  .16        Md 1.8  4583593
SGMF  000.97 218.5 m E Pg      2011/01/17 22:46:44.3   0.1                          T                                        4583596
SGMF  000.97 218.5 m E Sg      2011/01/17 22:46:57.0   0.2                          T                1.8  .21 Ml 1.7 Md 1.8  4583589
LDF   001.10 111.9 m E Pg      2011/01/17 22:46:46.7   0.0                          T                                        4583597
LDF   001.10 111.9 m E Sg      2011/01/17 22:47:00.5  -0.4                          T                 .8  .18 Ml 1.5         4583592
ROSF  001.27 238.3 m E Pg      2011/01/17 22:46:49.7   0.0                          T                                        4583595
ROSF  001.27 238.3 m E Sg      2011/01/17 22:47:06.2   0.0                          T                1.5  .18 Ml 1.9         4583588
QUIF  001.49 223.0 m E Pg      2011/01/17 22:46:53.7  -0.1                          T                                        4583594
QUIF  001.49 223.0 m E Sg      2011/01/17 22:47:13.1   0.0                          T                3.5  .30 Ml 2.1         4583590

.
EVENT     253908
    Date      Time       Latitude Longitude    Depth    Ndef Nsta Gap    Mag1  N    Mag2  N    Mag3  N   Author         ID
       rms   OT_Error      Smajor Sminor Az        Err   mdist  Mdist     Err        Err        Err      Quality

2011/01/18 03:24:55.5     44.4585    7.2916      2.0      22   10 166  Ml 2.1  9  Md 1.9  3              js067245    253928

      0.32   +-  0.11       2.2    1.2   77.85 +-  0.0    0.46   2.28   +-0.2      +-0.1                 m i ke

NORTHERN ITALY
Sta     Dist  EvAz     Phase      Date       Time     TRes  Azim  AzRes  Slow  SRes Def   SNR       Amp   Per   Mag1   Mag2       ID
MBDF  000.46 306.0 m E Pg      2011/01/18 03:25:04.7   0.3                          T                                        4583607
MBDF  000.46 306.0 m E Sg      2011/01/18 03:25:10.5   0.0                          T               28.4  .26        Md 1.9  4583622
SBF   000.60 170.1 m E Pg      2011/01/18 03:25:07.7   0.6                          T                                        4583600
SBF   000.60 170.1 m E Sg      2011/01/18 03:25:15.5   0.5                          T               14.2  .22        Md 1.9  4583639
FRF   001.01 207.6 m E Pg      2011/01/18 03:25:14.6   0.2                          T                                        4583602
FRF   001.01 207.6 m E Sg      2011/01/18 03:25:27.5  -0.1                          T                4.9  .18 Ml 2.3 Md 1.8  4583641
ORIF  001.11 295.0 m E Pg      2011/01/18 03:25:16.4   0.1                          T                                        4583606
ORIF  001.11 295.0 m E Sg      2011/01/18 03:25:29.8  -0.9                          T                4.0  .28 Ml 2.0         4583645
LPG   001.11 339.9 m E Pg      2011/01/18 03:25:16.5  -0.2                          T                                        4583605
LPG   001.11 339.9 m E Sg      2011/01/18 03:25:31.0   0.0                          T                5.0  .24 Ml 2.2         4583643
LPL   001.13 339.6 m E Pg      2011/01/18 03:25:17.3   0.4                          T                                        4583604
LPL   001.13 339.6 m E Sg      2011/01/18 03:25:31.6   0.0                          T                3.1  .25 Ml 2.0         4583644
LMR   001.26 207.0 m E Pg      2011/01/18 03:25:18.9  -0.1                          T                                        4583601
LMR   001.26 207.0 m E Sg      2011/01/18 03:25:35.6   0.3                          T                7.5  .18 Ml 2.6         4583640
SMRF  001.32 249.2 m E Pg      2011/01/18 03:25:20.5   0.2                          T                                        4583603
SMRF  001.32 249.2 m E Sg      2011/01/18 03:25:37.4  -0.1                          T                3.5  .24 Ml 2.1         4583642
VIVF  001.91 282.9 m E Pn      2011/01/18 03:25:27.4   0.0                          T                                        4583638
VIVF  001.91 282.9 m E Sn      2011/01/18 03:25:50.6   0.0                          T                1.1  .25 Ml 1.8         4583637
PGF   002.28 146.4 m E Pn      2011/01/18 03:25:32.0  -0.4                          T                                        4583635
PGF   002.28 146.4 m E Sn      2011/01/18 03:25:57.4  -2.1                          T                 .9  .20 Ml 2.1         4583636

.
EVENT     253909
    Date      Time       Latitude Longitude    Depth    Ndef Nsta Gap    Mag1  N    Mag2  N    Mag3  N   Author         ID
       rms   OT_Error      Smajor Sminor Az        Err   mdist  Mdist     Err        Err        Err      Quality

2011/01/18 03:54:57.9     49.0041    8.2923      5.0 f    18    9 268  Ml 1.9  7  Md 2.0  3              js067245    253929

      0.43   +-  0.21       3.5    2.2   95.16 +-  0.0    0.32   2.30   +-0.4      +-0.1                 m i ke

GERMANY
Sta     Dist  EvAz     Phase      Date       Time     TRes  Azim  AzRes  Slow  SRes Def   SNR       Amp   Per   Mag1   Mag2       ID
LANF  000.32 266.0 m E Pg      2011/01/18 03:55:04.4   0.1                          T                                        4583657
LANF  000.32 266.0 m E Sg      2011/01/18 03:55:08.5  -0.1                          T               11.2  .17        Md 2.1  4583654
CDF   000.90 229.0 m E Pg      2011/01/18 03:55:15.0   0.1                          T                                        4583656
CDF   000.90 229.0 m E Sg      2011/01/18 03:55:26.7   0.2                          T                4.5  .20 Ml 2.2 Md 2.0  4583655
RUP   001.07 311.4 m E Pg      2011/01/18 03:55:17.9  -0.1                          T                                        4583646
RUP   001.07 311.4 m E Sg      2011/01/18 03:55:31.5  -0.3                          T                                Md 2.0  4583653
HINF  001.53 219.4 m E Pg      2011/01/18 03:55:26.1  -0.3                          T                                        4583652
HINF  001.53 219.4 m E Sg      2011/01/18 03:55:46.0  -0.1                          T                1.5  .17 Ml 2.0         4583649
PAGF  001.76 256.1 m E Pn      2011/01/18 03:55:27.8   0.5  78.4  4.2               T                                        4583805
PAGF  001.76 256.1 m E Sg      2011/01/18 03:55:53.3   0.1                          T                 .2  .20 Ml 1.2         4583804
HAU   001.63 233.0 m E Pg      2011/01/18 03:55:28.5   0.2                          T                                        4583651
HAU   001.63 233.0 m E Sg      2011/01/18 03:55:49.6   0.1                          T                2.4  .22 Ml 1.9         4583648
THEF  001.71 243.9 m E Pg      2011/01/18 03:55:29.0  -0.8                          T                                        4583650
THEF  001.71 243.9 m E Sg      2011/01/18 03:55:51.8   0.0                          T                3.4  .28 Ml 2.2         4583647
MEZF  002.20 258.0 m E P       2011/01/18 03:55:35.4  -0.4                          T                                        4583807
MEZF  002.20 258.0 m E Sg      2011/01/18 03:56:07.1   0.0                          T                1.7  .30 Ml 2.0         4583802
SFTF  002.30 250.9 m E P       2011/01/18 03:55:37.2   0.0                          T                                        4583806
SFTF  002.30 250.9 m E Sg      2011/01/18 03:56:10.2  -0.1                          T                1.4  .23 Ml 2.1         4583803

.
EVENT     253927
    Date      Time       Latitude Longitude    Depth    Ndef Nsta Gap    Mag1  N    Mag2  N    Mag3  N   Author         ID
       rms   OT_Error      Smajor Sminor Az        Err   mdist  Mdist     Err        Err        Err      Quality

2011/01/18 08:47:32.5     44.2045    4.0622       .0 f    18    7 127  Ml 1.9  7  Md 1.8  3              js067245    253947

      0.65   +-  0.06       2.1     .9  154.89 +-  0.0    0.20   2.01   +-0.4      +-0.0                 m i km

FRANCE
Sta     Dist  EvAz     Phase      Date       Time     TRes  Azim  AzRes  Slow  SRes Def   SNR       Amp   Per   Mag1   Mag2       ID
LASF  000.20 229.1 m E Pg      2011/01/18 08:47:36.8   0.1                          T                                        4583720
LASF  000.20 229.1 m E Sg      2011/01/18 08:47:39.2  -0.4                          T                8.5  .16        Md 1.8  4583719
VIVF  000.78 033.6 m E Pg      2011/01/18 08:47:47.6   0.0                          T                                        4583721
VIVF  000.78 033.6 m E Sg      2011/01/18 08:47:57.9  -0.1                          T                7.1  .22        Md 1.8  4583722
SMRF  001.11 101.3 m E Pg      2011/01/18 08:47:53.9   0.2                          T                                        4583734
SMRF  001.11 101.3 m E Sg      2011/01/18 08:48:08.4   0.1                          T                 .7  .25 Ml 1.3 Md 1.7  4583730
ORIF  001.48 060.6 m E Pg      2011/01/18 08:48:00.5   0.0                          T                                        4583733
ORIF  001.48 060.6 m E Sg      2011/01/18 08:48:19.7  -0.2                          T                1.2  .41 Ml 1.5         4583731
MTLF  001.59 237.8 m E Pg      2011/01/18 08:48:02.2  -0.2                          T                                        4583736
MTLF  001.59 237.8 m E Sg      2011/01/18 08:48:23.2   0.1                          T                2.2  .21 Ml 2.1         4583723
CAF   001.60 297.5 m E Pg      2011/01/18 08:48:02.5  -0.1                          T                                        4583735
CAF   001.60 297.5 m E Sg      2011/01/18 08:48:23.5   0.1                          T                4.4  .24 Ml 2.3         4583732
MBDF  002.01 074.0 m E Pn      2011/01/18 08:48:06.0  -0.2                          T                                        4583728
MBDF  002.01 074.0 m E Sg      2011/01/18 08:48:36.4   0.0                          T                1.2  .31 Ml 1.8         4583729

.
EVENT     253931
    Date      Time       Latitude Longitude    Depth    Ndef Nsta Gap    Mag1  N    Mag2  N    Mag3  N   Author         ID
       rms   OT_Error      Smajor Sminor Az        Err   mdist  Mdist     Err        Err        Err      Quality

2011/01/18 11:18:28.7     47.6734    5.9719       .0 f    16    8 134  Ml 2.1  4  Md 2.1  3              js067245    253951

      0.71   +-  0.09       1.7    1.5   59.27 +-  0.0    0.42   1.15   +-0.4      +-0.3                 m i km

FRANCE
Sta     Dist  EvAz     Phase      Date       Time     TRes  Azim  AzRes  Slow  SRes Def   SNR       Amp   Per   Mag1   Mag2       ID
HAU   000.42 037.2 m E Pg      2011/01/18 11:18:37.2   0.2                          T                                        4583752
HAU   000.42 037.2 m E Sg      2011/01/18 11:18:42.6  -0.2                          T               53.4  .84        Md 2.4  4583747
THEF  000.56 001.5 m E Pg      2011/01/18 11:18:39.8   0.3                          T                                        4583751
THEF  000.56 001.5 m E Sg      2011/01/18 11:18:47.1   0.1                          T               63.9  .84        Md 1.9  4583746
HINF  000.61 076.1 m E Pg      2011/01/18 11:18:40.5  -0.1                          T                                        4583750
HINF  000.61 076.1 m E Sg      2011/01/18 11:18:48.9   0.1                          T               42.7  .80        Md 2.0  4583745
SFTF  000.82 310.6 m E Pg      2011/01/18 11:18:44.3  -0.2 132.4  2.4               T                                        4583744
SFTF  000.82 310.6 m E Sg      2011/01/18 11:18:55.2  -0.1 135.0  5.1               T               15.0  .66                4583737
PAGF  000.90 349.5 m E Pg      2011/01/18 11:18:45.8   0.0                          T                                        4583739
PAGF  000.90 349.5 m E Sg      2011/01/18 11:18:58.0   0.3                          T                3.1  .50 Ml 1.6         4583740
MEZF  001.03 323.7 m E Pg      2011/01/18 11:18:48.2  -0.1 136.8  -6.2              T                                        4583742
MEZF  001.03 323.7 m E Sg      2011/01/18 11:19:01.9   0.0                          T                8.2  .46 Ml 2.1         4583738
CABF  001.07 175.7 m E Pg      2011/01/18 11:18:48.9  -0.1                          T                                        4583749
CABF  001.07 175.7 m E Sg      2011/01/18 11:19:03.6   0.6                          T               21.8  .73 Ml 2.3         4583748
CDF   001.15 049.3 m E Pg      2011/01/18 11:18:50.3  -0.2                          T                                        4583743
CDF   001.15 049.3 m E Sg      2011/01/18 11:19:05.6   0.0                          T                9.4  .40 Ml 2.4         4583741

.
EVENT     253940
    Date      Time       Latitude Longitude    Depth    Ndef Nsta Gap    Mag1  N    Mag2  N    Mag3  N   Author         ID
       rms   OT_Error      Smajor Sminor Az        Err   mdist  Mdist     Err        Err        Err      Quality

2011/01/18 12:15:31.2     42.2916    1.3827       .0 f    16    3 093  Ml 1.5  4  Md 1.6  3              js067245    253960

      0.39   +-  0.08       1.8    1.5   60.86 +-  0.0    0.20   1.73   +-0.1      +-0.0                 m i km

PYRENEES
Sta     Dist  EvAz     Phase      Date       Time     TRes  Azim  AzRes  Slow  SRes Def   SNR       Amp   Per   Mag1   Mag2       ID
EPF   001.07 314.2 m E Pg      2011/01/18 12:15:51.5   0.0                          T                                        4583880
EPF   001.07 314.2 m E Sg      2011/01/18 12:16:05.4  -0.1                          T                  1  .23 Ml 1.5 Md 1.6  4583876
MTLF  001.22 030.1 m E Pg      2011/01/18 12:15:54.4   0.2                          T                                        4583879
MTLF  001.22 030.1 m E Sg      2011/01/18 12:16:10.2   0.1                          T                1.1  .24 Ml 1.6 Md 1.6  4583875
ETSF  001.56 293.6 m E Pg      2011/01/18 12:16:00.6   0.0                          T                                        4583878
ETSF  001.56 293.6 m E Sg      2011/01/18 12:16:20.9   0.0                          T                 .5  .24 Ml 1.4 Md 1.6  4583877

.
