EVENT     261439
    Date      Time       Latitude Longitude    Depth    Ndef Nsta Gap    Mag1  N    Mag2  N    Mag3  N   Author         ID
       rms   OT_Error      Smajor Sminor Az        Err   mdist  Mdist     Err        Err        Err      Quality

2011/07/14 07:59:06.4     45.8358    6.9458      2.0       8    5 307  Ml 1.8  1  Md 1.8  3              js067245    261439

      0.16   +-  0.32       5.5    3.7  172.13 +-  0.0    0.35   1.88   +-         +-0.3                 m i ke

FRANCE
Sta     Dist  EvAz     Phase      Date       Time     TRes  Azim  AzRes  Slow  SRes Def   SNR       Amp   Per   Mag1   Mag2       ID
LPL   000.35 205.2 m E Pg      2011/07/14 07:59:12.6  -0.9                          T                                        4721493
LPL   000.35 205.2 m E Sg      2011/07/14 07:59:18.3   0.1                          T                5.7  .25        Md 1.6  4721491
LPG   000.36 202.0 m E Pg      2011/07/14 07:59:13.6  -0.1                          T                                        4721492
LPG   000.36 202.0 m E Sg      2011/07/14 07:59:18.6  -0.1                          T                2.7  .16        Md 1.8  4721490
MBDF  001.12 186.4 m E Pg      2011/07/14 07:59:27.6   0.2                          T                                        4721487
ORIF  001.19 219.7 m E Pg      2011/07/14 07:59:28.6  -0.1                          T                                        4721486
ORIF  001.19 219.7 m E Sg      2011/07/14 07:59:43.8  -0.2                          T                                Md 2.1  4721489
VIVF  001.88 239.4 m E Sg      2011/07/14 08:00:05.9   0.3                          T                 .8  .17 Ml 1.8         4721488

.
EVENT     261436
    Date      Time       Latitude Longitude    Depth    Ndef Nsta Gap    Mag1  N    Mag2  N    Mag3  N   Author         ID
       rms   OT_Error      Smajor Sminor Az        Err   mdist  Mdist     Err        Err        Err      Quality

2011/07/14 09:44:05.7     47.5323    8.2059       .0 f    10    5 198  Ml 1.9  5  Md 2.2  3              js067245    261436

      0.23   +-  0.14       2.6    1.9  131.44 +-  0.0    0.06   1.95   +-0.4      +-0.0                 m i km

SWITZERLAND
Sta     Dist  EvAz     Phase      Date       Time     TRes  Azim  AzRes  Slow  SRes Def   SNR       Amp   Per   Mag1   Mag2       ID
HINF  000.96 287.8 m E Pg      2011/07/14 09:44:24.2   0.2                          T                                        4721501
HINF  000.96 287.8 m E Sg      2011/07/14 09:44:36.5  -0.1                          T                4.0  .19 Ml 2.1 Md 2.1  4721497
CDF   001.08 325.0 m E Pg      2011/07/14 09:44:26.6   0.3                          T                                        4721495
CDF   001.08 325.0 m E Sg      2011/07/14 09:44:40.8   0.2                          T                3.6  .23 Ml 2.2 Md 2.2  4721494
HAU   001.34 291.4 m E Pg      2011/07/14 09:44:30.9  -0.1                          T                                        4721500
HAU   001.34 291.4 m E Sg      2011/07/14 09:44:48.4  -0.1                          T                7.3  .29 Ml 2.1 Md 2.2  4721498
CABF  001.72 238.3 m E Pn      2011/07/14 09:44:35.5   0.1                          T                                        4721499
CABF  001.72 238.3 m E Pg      2011/07/14 09:44:38.2   0.2                          T                                        4724887
CABF  001.72 238.3 m E Sg      2011/07/14 09:45:00.1  -0.2                          T                1.1  .17 Ml 1.9         4721496
PAGF  001.95 302.5 m E Sg      2011/07/14 09:45:07.4  -0.3                          T                 .3  .29 Ml 1.2         4724886

.
EVENT     261428
    Date      Time       Latitude Longitude    Depth    Ndef Nsta Gap    Mag1  N    Mag2  N    Mag3  N   Author         ID
       rms   OT_Error      Smajor Sminor Az        Err   mdist  Mdist     Err        Err        Err      Quality

2011/07/14 10:38:43.3     45.7787    5.8728      2.0      67   25 054  Ml 2.6 25  Md 2.6  3              js067245    261428

      0.70   +-  0.06       1.2    1.0   82.94 +-  0.0    0.53   3.10   +-0.3      +-0.0                 m i ke

FRANCE
Sta     Dist  EvAz     Phase      Date       Time     TRes  Azim  AzRes  Slow  SRes Def   SNR       Amp   Per   Mag1   Mag2       ID
LPL   000.66 113.2 m E Pg      2011/07/14 10:38:56.0   0.0                          T                                        4721541
LPL   000.66 113.2 m E Sg      2011/07/14 10:39:05.1   0.5                          T                4.1  .20        Md 2.7  4721507
LPG   000.68 114.2 m E Pg      2011/07/14 10:38:56.5   0.0                          T                                        4721536
LPG   000.68 114.2 m E Sg      2011/07/14 10:39:05.9   0.6                          T                6.1  .21        Md 2.6  4721506
ORIF  000.86 179.7 m E Pg      2011/07/14 10:38:58.8  -0.8                          T                                        4721540
ORIF  000.86 179.7 m E Sg      2011/07/14 10:39:10.1  -0.6                          T               20.7  .36 Ml 2.5 Md 2.6  4721517
ORIF  000.86 179.7 m E Sn      2011/07/14 10:39:13.4   0.0                          T               38.5  .20 Ml 3.0         4725045
CABF  000.85 010.1 m E Pg      2011/07/14 10:38:59.4   0.1                          T                                        4721531
CABF  000.85 010.1 m E Pn      2011/07/14 10:39:01.0   0.2                          T                                        4725032
CABF  000.85 010.1 m E Sg      2011/07/14 10:39:10.2  -0.1                          T                                        4725039
CABF  000.85 010.1 m E Sn      2011/07/14 10:39:13.6   0.6                          T               16.8  .25                4721502
VIVF  001.25 223.0 m E Pn      2011/07/14 10:39:06.0  -0.2                          T                                        4721539
VIVF  001.25 223.0 m E Pg      2011/07/14 10:39:06.6  -0.1                          T                                        4725038
VIVF  001.25 223.0 m E Sg      2011/07/14 10:39:22.4  -0.5                          T               18.9  .16 Ml 3.0         4721518
MBDF  001.23 148.6 m E Pg      2011/07/14 10:39:06.3  -0.1                          T                                        4721538
MBDF  001.23 148.6 m E Sg      2011/07/14 10:39:22.3  -0.1                          T                5.2  .22 Ml 2.3         4725044
SMF   001.66 302.3 m E Pn      2011/07/14 10:39:11.6  -0.1                          T                                        4725034
SMF   001.66 302.3 m E Pg      2011/07/14 10:39:13.9  -0.3                          T                                        4721533
SMF   001.66 302.3 m E Sg      2011/07/14 10:39:34.7  -0.8                          T               15.4  .20 Ml 3.0         4721526
AVF   002.02 301.0 m E Pn      2011/07/14 10:39:16.7   0.2                          T                                        4725033
AVF   002.02 301.0 m E Pg      2011/07/14 10:39:20.7  -0.1                          T                                        4721532
AVF   002.02 301.0 m E Sg      2011/07/14 10:39:45.7  -1.1                          T                3.9  .20 Ml 2.5         4721525
LOR   002.04 317.7 m E Pn      2011/07/14 10:39:16.9   0.0                          T                                        4725021
LOR   002.04 317.7 m E Pg      2011/07/14 10:39:21.0  -0.2                          T                                        4721529
LOR   002.04 317.7 m E Sg      2011/07/14 10:39:46.8  -0.6                          T                6.1  .17 Ml 2.8         4721521
SSF   002.08 308.9 m E Pn      2011/07/14 10:39:17.1  -0.3                          T                                        4725022
SSF   002.08 308.9 m E Pg      2011/07/14 10:39:21.6  -0.3                          T                                        4721528
SSF   002.08 308.9 m E Sg      2011/07/14 10:39:48.1  -0.6                          T                7.4  .28 Ml 2.7         4721520
SMRF  001.81 186.8 m E Pg      2011/07/14 10:39:17.5   0.4                          T                                        4721535
SMRF  001.81 186.8 m E Sg      2011/07/14 10:39:40.4  -0.1                          T                4.9  .33 Ml 2.3         4725043
HINF  002.15 017.9 m E Pn      2011/07/14 10:39:18.0  -0.4                          T                                        4725031
HINF  002.15 017.9 m E Pg      2011/07/14 10:39:22.9  -0.3                          T                                        4721514
HINF  002.15 017.9 m E Sg      2011/07/14 10:39:50.9   0.0                          T                7.3  .29 Ml 2.6         4721527
LASF  002.22 220.8 m E Pn      2011/07/14 10:39:19.3  -0.1                          T                                        4725037
LASF  002.22 220.8 m E Pg      2011/07/14 10:39:24.2  -0.4                          T                                        4721537
LASF  002.22 220.8 m E Sg      2011/07/14 10:39:53.3   0.0                          T                3.7  .22 Ml 2.5         4721519
HAU   002.25 008.2 m E Pn      2011/07/14 10:39:19.6  -0.2                          T                                        4725030
HAU   002.25 008.2 m E Pg      2011/07/14 10:39:25.1   0.0                          T                                        4721530
HAU   002.25 008.2 m E Sg      2011/07/14 10:39:54.4   0.3                          T               13.1  .26 Ml 2.7         4721524
BGF   002.24 291.4 m E Pn      2011/07/14 10:39:19.8   0.2                          T                                        4725035
BGF   002.24 291.4 m E Pg      2011/07/14 10:39:25.5   0.5                          T                                        4721515
BGF   002.24 291.4 m E Sg      2011/07/14 10:39:53.4  -0.4                          T                9.2  .31 Ml 2.7         4721512
THEF  002.45 001.9 m E Pn      2011/07/14 10:39:22.5   0.0                          T                                        4725028
THEF  002.45 001.9 m E Pg      2011/07/14 10:39:28.7  -0.1                          T                                        4725029
THEF  002.45 001.9 m E Sg      2011/07/14 10:39:59.8  -0.6                          T                4.3  .16 Ml 2.7         4721523
FRF   002.29 165.7 m E Pg      2011/07/14 10:39:25.6  -0.1                          T                                        4721534
FRF   002.29 165.7 m E Sg      2011/07/14 10:39:55.1  -0.1                          T                7.5  .26 Ml 2.8         4725042
CDF   002.80 019.5 m E Pn      2011/07/14 10:39:26.7  -0.7                          T                                        4725023
CDF   002.80 019.5 m E Pg      2011/07/14 10:39:35.6   0.3                          T                                        4725024
CDF   002.80 019.5 m E Sg      2011/07/14 10:40:11.2  -0.3                          T                2.7  .31 Ml 2.4         4721510
SFTF  002.49 347.1 m E Pg      2011/07/14 10:39:29.6   0.0                          T                                        4725027
SFTF  002.49 347.1 m E Sg      2011/07/14 10:40:01.9   0.2                          T                5.0  .22 Ml 2.7         4721522
LMR   002.49 169.2 m E Pg      2011/07/14 10:39:30.0   0.6                          T                                        4721503
LMR   002.49 169.2 m E Sn      2011/07/14 10:39:52.6   0.5                          T                                        4721505
LMR   002.49 169.2 m E Sg      2011/07/14 10:40:00.6  -0.7                          T                5.3  .23 Ml 2.7         4721504
TCF   002.60 282.6 m E Pg      2011/07/14 10:39:31.0  -0.6                          T                                        4721508
TCF   002.60 282.6 m E Sg      2011/07/14 10:40:03.5  -1.6                          T                1.5  .22 Ml 2.2         4721509
MEZF  002.78 348.7 m E Pg      2011/07/14 10:39:34.6  -0.3                          T                                        4725025
MEZF  002.78 348.7 m E Sg      2011/07/14 10:40:10.7   0.1                          T                2.3  .25 Ml 2.3         4725026
CAF   002.82 253.7 m E Sg      2011/07/14 10:40:11.4  -0.4                          T                2.3  .24 Ml 2.4         4725041
PAGF  002.78 358.0 m E Sg      2011/07/14 10:40:11.4   0.8                          T                 .8  .25 Ml 1.9         4721511
RJF   003.10 262.7 m E Sg      2011/07/14 10:40:19.2  -1.4                          T                3.9  .38 Ml 2.1         4725040

.
EVENT     261429
    Date      Time       Latitude Longitude    Depth    Ndef Nsta Gap    Mag1  N    Mag2  N    Mag3  N   Author         ID
       rms   OT_Error      Smajor Sminor Az        Err   mdist  Mdist     Err        Err        Err      Quality

2011/07/14 10:50:36.2     43.2411   -1.7139       .0 f     6    3 345  Ml 1.9  2  Md 2.0  2              js067245    261429

      0.67   +-  1.23      43.8   20.5   16.72 +-  0.0    0.38   1.52   +-0.2      +-0.0                 m i sm

PYRENEES
Sta     Dist  EvAz     Phase      Date       Time     TRes  Azim  AzRes  Slow  SRes Def   SNR       Amp   Per   Mag1   Mag2       ID
SJPF  000.38 109.5 m E Pg      2011/07/14 10:50:43.1  -0.7                          T                                        4723187
SJPF  000.38 109.5 m E Sg      2011/07/14 10:50:47.5  -1.5                          T               15.9  .22        Md 2.0  4723186
ETSF  000.91 111.6 m E Pg      2011/07/14 10:50:54.0   0.3                          T                                        4723182
ETSF  000.91 111.6 m E Sg      2011/07/14 10:51:05.7  -0.1                          T                4.4  .26 Ml 2.0 Md 2.0  4723185
EPF   001.52 097.3 m E Pg      2011/07/14 10:51:04.4  -0.5                          T                                        4723183
EPF   001.52 097.3 m E Sg      2011/07/14 10:51:24.8   0.1                          T                1.0  .21 Ml 1.7         4723184

.
EVENT     261431
    Date      Time       Latitude Longitude    Depth    Ndef Nsta Gap    Mag1  N    Mag2  N    Mag3  N   Author         ID
       rms   OT_Error      Smajor Sminor Az        Err   mdist  Mdist     Err        Err        Err      Quality

2011/07/14 13:30:48.9     50.1041    -.6653      5.0 f    49   14 147  Ml 2.6 17  Md 2.7  3              js067245    261431

      0.82   +-  0.16       2.8    2.2    8.31 +-  0.0    1.26   5.25   +-0.2      +-0.0                 m i ke

UNITED KINGDOM
Sta     Dist  EvAz     Phase      Date       Time     TRes  Azim  AzRes  Slow  SRes Def   SNR       Amp   Per   Mag1   Mag2       ID
FLN   001.35 174.8 m E Pn      2011/07/14 13:31:13.4   0.7 349.3  -5.6              T                                        4725077
FLN   001.35 174.8 m E Pg      2011/07/14 13:31:14.9   0.8 354.0  -0.9              T   001.0                                4721004
FLN   001.35 174.8 m E Sn      2011/07/14 13:31:30.4   0.5 352.9  -2.1              T   001.0                        Md 2.7  4721005
FLN   001.35 174.8 m E Sg      2011/07/14 13:31:33.6   2.1                          T               20.9  .20 Ml 2.8         4725075
LDF   001.55 166.6 m E Pn      2011/07/14 13:31:15.6   0.1                          T                                        4725076
LDF   001.55 166.6 m E P       2011/07/14 13:31:17.6   0.2                          T   001.0                                4721010
LDF   001.55 166.6 m E Sn      2011/07/14 13:31:35.7   0.9                          T   001.0       12.7  .22 Ml 2.8 Md 2.6  4721011
LDF   001.55 166.6 m E Sg      2011/07/14 13:31:40.1   2.2                          T               11.6  .22 Ml 2.8         4725095
GRR   001.72 184.3 m E Pn      2011/07/14 13:31:18.0   0.2                          T   001.0                                4721006
GRR   001.72 184.3 m E Pg      2011/07/14 13:31:21.6   0.6                          T   001.0                                4721007
GRR   001.72 184.3 m E Sn      2011/07/14 13:31:38.7  -0.1                          T   001.0                                4721008
GRR   001.72 184.3 m E Sg      2011/07/14 13:31:43.2   0.0                          T   001.0       13.9  .22 Ml 2.8 Md 2.7  4721009
SGMF  002.23 214.6 m E Pn      2011/07/14 13:31:25.1   0.4                          T                                        4721550
SGMF  002.23 214.6 m E Sn      2011/07/14 13:31:50.3  -0.7                          T   001.0                                4721023
SGMF  002.23 214.6 m E Sg      2011/07/14 13:31:59.6   0.6                          T   001.0        2.5  .24 Ml 2.3         4721024
ROSF  002.46 225.0 m E Pn      2011/07/14 13:31:28.1   0.2                          T   001.0                                4721020
ROSF  002.46 225.0 m E Sn      2011/07/14 13:31:56.0  -0.5                          T   001.0                                4721021
ROSF  002.46 225.0 m E Sg      2011/07/14 13:32:06.4   0.2                          T   001.0        5.0  .23 Ml 2.6         4721022
QUIF  002.74 217.9 m E Pn      2011/07/14 13:31:31.9   0.2                          T                                        4721549
QUIF  002.74 217.9 m E Sg      2011/07/14 13:32:14.5  -0.3                          T   001.0        2.8  .22 Ml 2.5         4721019
SSF   004.12 136.1 m E Pn      2011/07/14 13:31:49.8  -0.6                          T   001.0                                4721015
SSF   004.12 136.1 m E Sn      2011/07/14 13:32:34.9  -1.2                          T   001.0        1.9  .28 Ml 2.6         4721016
LOR   004.13 131.7 m E Pn      2011/07/14 13:31:50.7   0.1 312.2  -2.9              T                1.6  .20 Ml 2.6         4721551
LOR   004.13 131.7 m E Sn      2011/07/14 13:32:35.3  -1.1 317.7  2.6               T   001.0                                4721012
LOR   004.13 131.7 m E Sg      2011/07/14 13:32:57.8  -0.4                          T   001.0        3.8  .32 Ml 2.8         4721013
AVF   004.26 139.6 m E Pn      2011/07/14 13:31:52.2  -0.1                          T   001.0                                4721000
AVF   004.26 139.6 m E Sn      2011/07/14 13:32:37.5  -2.0                          T   001.0                                4721001
AVF   004.26 139.6 m E Sg      2011/07/14 13:33:01.1  -1.2                          T   001.0        2.3  .43 Ml 2.4         4721002
BGF   004.25 145.2 m E Pn      2011/07/14 13:31:52.8   0.5                          T   001.0                                4721003
BGF   004.25 145.2 m E Sg      2011/07/14 13:33:01.9  -0.3                          T               15.2  .50 Ml 3.2         4725094
MFF   003.52 174.2 m E Pg      2011/07/14 13:31:54.8   0.7                          T                                        4725322
MFF   003.52 174.2 m E Sg      2011/07/14 13:32:38.4  -0.9                          T   001.0        1.9  .25 Ml 2.6         4721014
LFF   005.25 169.0 m E Pn      2011/07/14 13:32:06.0   0.1                          T                                        4725321
TCF   004.28 152.2 m E Sn      2011/07/14 13:32:39.0  -0.9                          T   001.0                                4721017
TCF   004.28 152.2 m E Sg      2011/07/14 13:33:02.5  -0.3                          T   001.0        1.2  .26 Ml 2.4         4721018
RJF   005.02 162.1 m E Sn      2011/07/14 13:32:56.6  -1.2                          T   001.0        1.3  .28 Ml 2.2         4720999

.
