EVENT     255748
    Date      Time       Latitude Longitude    Depth    Ndef Nsta Gap    Mag1  N    Mag2  N    Mag3  N   Author         ID
       rms   OT_Error      Smajor Sminor Az        Err   mdist  Mdist     Err        Err        Err      Quality

2011/02/07 01:01:09.2     42.6049     .9220      7.0 f    18    4 096  Ml 1.3  3  Md 1.7  1              js067245    255768

      0.38   +-  0.08       1.6    1.3   18.04 +-  0.0    0.25   1.66   +-0.1      +-                    m i ke

PYRENEES
Sta     Dist  EvAz     Phase      Date       Time     TRes  Azim  AzRes  Slow  SRes Def   SNR       Amp   Per   Mag1   Mag2       ID
EPF   000.60 315.0 m E Pg      2011/02/07 01:01:20.3  -0.4                          T                                        4643921
EPF   000.60 315.0 m E Sg      2011/02/07 01:01:27.9  -0.9                          T                1.1  .20        Md 1.7  4643923
ETSF  001.13 285.6 m E Pg      2011/02/07 01:01:30.8   0.3                          T                                        4643917
ETSF  001.13 285.6 m E Sg      2011/02/07 01:01:45.2   0.1                          T                 .7  .30 Ml 1.3         4643922
MTLF  001.20 051.8 m E Pg      2011/02/07 01:01:31.6  -0.1                          T                                        4643916
MTLF  001.20 051.8 m E Sg      2011/02/07 01:01:47.4   0.1                          T                 .8  .28 Ml 1.3         4643918
SJPF  001.66 288.6 m E Pg      2011/02/07 01:01:40.3   0.2                          T                                        4643920
SJPF  001.66 288.6 m E Sg      2011/02/07 01:02:01.9   0.4                          T                 .6  .27 Ml 1.4         4643919

.
EVENT     255749
    Date      Time       Latitude Longitude    Depth    Ndef Nsta Gap    Mag1  N    Mag2  N    Mag3  N   Author         ID
       rms   OT_Error      Smajor Sminor Az        Err   mdist  Mdist     Err        Err        Err      Quality

2011/02/07 01:16:05.9     40.2465   -1.1145      2.0      12    3 232  Ml 1.5  3                         js067245    255769

      0.25   +-  0.21       4.5    1.7   10.58 +-  0.0    0.51   2.99   +-0.1                            m i ke

SPAIN
Sta     Dist  EvAz     Phase      Date       Time     TRes  Azim  AzRes  Slow  SRes Def   SNR       Amp   Per   Mag1   Mag2       ID
ETSF  002.68 008.8 m E Pn      2011/02/07 01:16:48.5   0.2                          T                                        4643928
ETSF  002.68 008.8 m E Sn      2011/02/07 01:17:19.1  -0.3                          T                 .3  .21 Ml 1.5         4643925
SJPF  002.87 358.4 m E Pn      2011/02/07 01:16:50.7   0.0                          T                                        4643929
SJPF  002.87 358.4 m E Sn      2011/02/07 01:17:23.6  -0.2                          T                 .2  .16 Ml 1.5         4643926
EPF   002.99 020.9 m E Pn      2011/02/07 01:16:52.3  -0.2                          T                                        4643927
EPF   002.99 020.9 m E Sn      2011/02/07 01:17:26.3  -0.4                          T                 .4  .25 Ml 1.6         4643924

.
EVENT     255750
    Date      Time       Latitude Longitude    Depth    Ndef Nsta Gap    Mag1  N    Mag2  N    Mag3  N   Author         ID
       rms   OT_Error      Smajor Sminor Az        Err   mdist  Mdist     Err        Err        Err      Quality

2011/02/07 11:31:50.4     42.9325    -.0159      2.0      10    4 190  Ml 1.5  3  Md 1.6  3              js067245    255770

      0.12   +-  0.08       5.6     .6  173.21 +-  0.0    0.28   1.69   +-0.3      +-0.0                 m i ke

PYRENEES
Sta     Dist  EvAz     Phase      Date       Time     TRes  Azim  AzRes  Slow  SRes Def   SNR       Amp   Per   Mag1   Mag2       ID
EPF   000.28 069.4 m E Pg      2011/02/07 11:31:55.7  -0.2                          T                                        4643939
EPF   000.28 069.4 m E Sg      2011/02/07 11:31:59.9   0.1                          T                9.6  .37        Md 1.6  4643937
ETSF  000.40 265.3 m E Pg      2011/02/07 11:31:58.2   0.0                          T                                        4643940
ETSF  000.40 265.3 m E Sg      2011/02/07 11:32:03.5  -0.1                          T                4.2  .23        Md 1.6  4643938
SJPF  000.90 281.9 m E Pg      2011/02/07 11:32:07.5   0.0                          T                                        4643934
SJPF  000.90 281.9 m E Sg      2011/02/07 11:32:19.1  -0.2                          T                1.0  .27 Ml 1.4 Md 1.6  4643935
MTLF  001.69 075.2 m E Pg      2011/02/07 11:32:21.8   0.0                          T                                        4643933
MTLF  001.69 075.2 m E Sg      2011/02/07 11:32:43.6   0.1                          T                 .6  .33 Ml 1.4         4643936

.
EVENT     255765
    Date      Time       Latitude Longitude    Depth    Ndef Nsta Gap    Mag1  N    Mag2  N    Mag3  N   Author         ID
       rms   OT_Error      Smajor Sminor Az        Err   mdist  Mdist     Err        Err        Err      Quality

2011/02/07 16:54:08.1     46.4351    8.7566      5.0 f    16    7 074  Ml 1.7  7                         js067245    255785

      0.18   +-  0.04       1.0     .9   43.87 +-  0.0    0.07   2.27   +-0.2                            m i ke

SWITZERLAND
Sta     Dist  EvAz     Phase      Date       Time     TRes  Azim  AzRes  Slow  SRes Def   SNR       Amp   Per   Mag1   Mag2       ID
LPG   001.68 236.9 m E Pn      2011/02/07 16:54:36.9   0.0                          T                                        4644052
LPG   001.68 236.9 m E Sn      2011/02/07 16:54:57.6   0.0                          T                 .6  .26 Ml 1.5         4644048
LPL   001.68 237.7 m E Pn      2011/02/07 16:54:36.9   0.1                          T                                        4644053
LPL   001.68 237.7 m E Sn      2011/02/07 16:54:57.5   0.0                          T                 .4  .18 Ml 1.5         4644049
CABF  001.85 276.4 m E Pn      2011/02/07 16:54:39.0   0.1                          T                                        4644055
CABF  001.85 276.4 m E Sn      2011/02/07 16:55:01.5   0.1                          T                 .6  .24 Ml 1.6         4644047
HINF  001.90 317.5 m E Pn      2011/02/07 16:54:39.5   0.0                          T                                        4644056
HINF  001.90 317.5 m E Sn      2011/02/07 16:55:02.6   0.3                          T                1.1  .27 Ml 1.8         4644046
MBDF  002.20 219.9 m E Pn      2011/02/07 16:54:43.7  -0.1                          T                                        4644051
MBDF  002.20 219.9 m E Sn      2011/02/07 16:55:09.7  -0.1                          T                 .7  .30 Ml 1.6         4644050
CDF   002.22 333.6 m E Pn      2011/02/07 16:54:44.2   0.3                          T                                        4644057
CDF   002.22 333.6 m E Sn      2011/02/07 16:55:10.4   0.3                          T                1.1  .27 Ml 2.0         4644044
HAU   002.27 314.6 m E Pn      2011/02/07 16:54:44.7   0.1                          T                                        4644054
HAU   002.27 314.6 m E Sn      2011/02/07 16:55:11.5   0.2                          T                2.1  .34 Ml 1.8         4644045

.
EVENT     255760
    Date      Time       Latitude Longitude    Depth    Ndef Nsta Gap    Mag1  N    Mag2  N    Mag3  N   Author         ID
       rms   OT_Error      Smajor Sminor Az        Err   mdist  Mdist     Err        Err        Err      Quality

2011/02/07 18:49:48.1     46.4327    5.7286     13.0 f    36   16 088  Ml 2.2 18  Md 2.2  3              js067245    255780

      0.60   +-  0.06       1.3    1.0   76.52 +-  0.0    0.31   2.24   +-0.3      +-0.0                 m i ke

FRANCE
Sta     Dist  EvAz     Phase      Date       Time     TRes  Azim  AzRes  Slow  SRes Def   SNR       Amp   Per   Mag1   Mag2       ID
CABF  000.31 054.1 m E Pg      2011/02/07 18:49:54.8   0.2                          T                                        4644068
CABF  000.31 054.1 m E Sg      2011/02/07 18:49:58.6  -0.4                          T                7.2  .23        Md 2.2  4644079
LPL   001.15 142.3 m E Pg      2011/02/07 18:50:10.5   0.4                          T                                        4644066
LPL   001.15 142.3 m E Sg      2011/02/07 18:50:24.4  -0.7                          T                1.3  .26 Ml 1.6 Md 2.1  4644083
LPG   001.18 142.3 m E Pg      2011/02/07 18:50:11.2   0.6                          T                                        4644067
LPG   001.18 142.3 m E Sg      2011/02/07 18:50:25.0  -0.9                          T                2.9  .39 Ml 1.8 Md 2.1  4644062
SMF   001.32 280.0 m E Pg      2011/02/07 18:50:13.5   0.7                          T                                        4644060
SMF   001.32 280.0 m E Sg      2011/02/07 18:50:30.1   0.1                          T                5.4  .14 Ml 2.5         4644061
LOR   001.53 303.8 m E Pg      2011/02/07 18:50:16.3  -0.5 126.8  4.4               T                                        4644095
LOR   001.53 303.8 m E Sg      2011/02/07 18:50:36.7   0.1 124.4  2.0               T                6.4  .27 Ml 2.4         4644073
ORIF  001.52 175.9 m E Pg      2011/02/07 18:50:16.6   0.0                          T                                        4644065
ORIF  001.52 175.9 m E Sg      2011/02/07 18:50:36.3   0.0                          T                6.7  .26 Ml 2.5         4644064
HINF  001.58 028.6 m E Pg      2011/02/07 18:50:17.6  -0.2                          T                                        4644092
HINF  001.58 028.6 m E Sg      2011/02/07 18:50:37.6  -0.7                          T                2.1  .22 Ml 2.1         4644059
SSF   001.65 293.2 m E Pg      2011/02/07 18:50:18.3  -0.7                          T                                        4644094
SSF   001.65 293.2 m E Sg      2011/02/07 18:50:40.5   0.2                          T                3.1  .30 Ml 2.2         4644074
HAU   001.63 014.8 m E Pg      2011/02/07 18:50:18.4  -0.1                          T                                        4644093
HAU   001.63 014.8 m E Sg      2011/02/07 18:50:39.6   0.0                          T                4.1  .30 Ml 2.0         4644058
VIVF  001.74 205.5 m E Pg      2011/02/07 18:50:20.7   0.0                          T                                        4644085
VIVF  001.74 205.5 m E Sg      2011/02/07 18:50:42.0  -1.2                          T                3.6  .27 Ml 2.3         4644063
THEF  001.81 005.6 m E Pg      2011/02/07 18:50:21.8   0.0                          T                                        4644091
THEF  001.81 005.6 m E Sg      2011/02/07 18:50:45.1   0.0                          T                8.3  .31 Ml 2.6         4644078
SFTF  001.83 345.4 m E Pg      2011/02/07 18:50:22.4   0.1 152.6  -12.3             T                                        4644090
SFTF  001.83 345.4 m E Sg      2011/02/07 18:50:46.0  -0.1 164.9  0.0               T                4.3  .31 Ml 2.3         4644077
MBDF  001.86 156.4 m E Pg      2011/02/07 18:50:22.9   0.0                          T                                        4644084
MBDF  001.86 156.4 m E Sg      2011/02/07 18:50:46.9   0.1                          T                2.8  .58 Ml 1.9         4644082
BGF   001.99 274.6 m E Pg      2011/02/07 18:50:25.5   0.2                          T                                        4644087
BGF   001.99 274.6 m E Sg      2011/02/07 18:50:51.4   0.3                          T                4.8  .46 Ml 2.2         4644080
MEZF  002.12 347.7 m E Pg      2011/02/07 18:50:27.5   0.0 163.7  -3.5              T                                        4644089
MEZF  002.12 347.7 m E Sg      2011/02/07 18:50:54.9   0.0 159.3  -7.9              T                3.2  .32 Ml 2.2         4644076
CDF   002.24 027.4 m E Pg      2011/02/07 18:50:30.1   0.2                          T                                        4644088
CDF   002.24 027.4 m E Sg      2011/02/07 18:50:59.0   0.1                          T                1.0  .25 Ml 2.0         4644075

.
EVENT     255763
    Date      Time       Latitude Longitude    Depth    Ndef Nsta Gap    Mag1  N    Mag2  N    Mag3  N   Author         ID
       rms   OT_Error      Smajor Sminor Az        Err   mdist  Mdist     Err        Err        Err      Quality

2011/02/07 20:46:06.0     42.7268     .7954      4.0 f    37    6 045  Ml 2.0  6  Md 2.0  3              js067245    255783

      0.36   +-  0.05       1.0     .8   39.41 +-  0.0    0.15   2.86   +-0.2      +-0.0                 m i ke

PYRENEES
Sta     Dist  EvAz     Phase      Date       Time     TRes  Azim  AzRes  Slow  SRes Def   SNR       Amp   Per   Mag1   Mag2       ID
EPF   000.45 312.3 m E Pg      2011/02/07 20:46:14.4  -0.3                          T                                        4644109
EPF   000.45 312.3 m E Sg      2011/02/07 20:46:20.5  -0.3                          T                4.0  .19        Md 2.0  4644105
ETSF  001.01 280.2 m E Pg      2011/02/07 20:46:25.5   0.4                          T                                        4644108
ETSF  001.01 280.2 m E Sg      2011/02/07 20:46:37.8  -0.4                          T                5.1  .28 Ml 2.1 Md 2.0  4644106
MTLF  001.21 059.0 m E Pg      2011/02/07 20:46:28.8   0.1                          T                                        4644107
MTLF  001.21 059.0 m E Sg      2011/02/07 20:46:44.5   0.2                          T                2.6  .18 Ml 2.1 Md 1.9  4644104
SJPF  001.53 285.3 m E Pg      2011/02/07 20:46:34.6   0.0                          T                                        4644098
SJPF  001.53 285.3 m E Sg      2011/02/07 20:46:54.2  -0.2                          T                2.5  .37 Ml 1.9         4644103
LFF   002.21 359.0 m E Pg      2011/02/07 20:46:47.0  -0.1                          T                                        4644100
LFF   002.21 359.0 m E Sg      2011/02/07 20:47:15.5  -0.1                          T                1.9  .37 Ml 1.8         4644101
CAF   002.38 022.2 m E Pg      2011/02/07 20:46:50.4   0.1                          T                                        4644099
CAF   002.38 022.2 m E Sg      2011/02/07 20:47:21.0   0.1                          T                  1  .25 Ml 1.9         4644102

.
EVENT     255761
    Date      Time       Latitude Longitude    Depth    Ndef Nsta Gap    Mag1  N    Mag2  N    Mag3  N   Author         ID
       rms   OT_Error      Smajor Sminor Az        Err   mdist  Mdist     Err        Err        Err      Quality

2011/02/07 21:53:40.5     44.6088    5.9329      2.0      14    6 123  Ml 1.3  3  Md 1.4  1              js067245    255781

      0.97   +-  0.15       2.9    2.2  140.72 +-  0.0    0.31   1.07   +-0.4      +-                    m i ke

FRANCE
Sta     Dist  EvAz     Phase      Date       Time     TRes  Azim  AzRes  Slow  SRes Def   SNR       Amp   Per   Mag1   Mag2       ID
ORIF  000.31 353.1 m E Pg      2011/02/07 21:53:46.4  -0.3                          T                                        4644113
ORIF  000.31 353.1 m E Sg      2011/02/07 21:53:50.5  -0.4                          T                2.8  .40        Md 1.4  4644111
MBDF  000.61 078.5 m E Pg      2011/02/07 21:53:52.3   0.0                          T                                        4644121
MBDF  000.61 078.5 m E Sg      2011/02/07 21:53:59.9  -0.4                          T                 .5  .26                4644120
SMRF  000.68 202.2 m E Pg      2011/02/07 21:53:53.1  -0.4                          T                                        4644122
SMRF  000.68 202.2 m E Sg      2011/02/07 21:54:02.9   0.4                          T                 .3  .22                4644123
VIVF  000.93 285.8 m E Pg      2011/02/07 21:53:58.6   0.6                          T                                        4644110
VIVF  000.93 285.8 m E Sg      2011/02/07 21:54:09.3  -0.9                          T                1.7  .19 Ml 1.7         4644112
LPG   001.06 032.8 m E Pg      2011/02/07 21:54:00.7  -0.1                          T                                        4644117
LPG   001.06 032.8 m E Sg      2011/02/07 21:54:14.5  -0.1                          T                 .4  .22 Ml 1.1         4644118
LPL   001.07 031.7 m E Pg      2011/02/07 21:54:00.9   0.0                          T                                        4644116
LPL   001.07 031.7 m E Sg      2011/02/07 21:54:14.7   0.0                          T                 .5  .34 Ml 1.0         4644119

.
EVENT     255762
    Date      Time       Latitude Longitude    Depth    Ndef Nsta Gap    Mag1  N    Mag2  N    Mag3  N   Author         ID
       rms   OT_Error      Smajor Sminor Az        Err   mdist  Mdist     Err        Err        Err      Quality

2011/02/07 23:22:17.3     48.7845    9.5799     10.0      26    7 047  Ml 2.2  6  Md 2.3  3              js067245    255782

      0.40   +-  0.07       1.6    1.0  158.35 +-  0.0    0.26   3.21   +-0.2      +-0.1                 m i ke

GERMANY
Sta     Dist  EvAz     Phase      Date       Time     TRes  Azim  AzRes  Slow  SRes Def   SNR       Amp   Per   Mag1   Mag2       ID
LANF  001.19 280.2 m E Pg      2011/02/07 23:22:40.1   0.5                          T                                        4644128
LANF  001.19 280.2 m E Sg      2011/02/07 23:22:54.8  -0.2                          T               10.8  .42 Ml 2.3 Md 2.4  4644125
CDF   001.57 257.2 m E Pg      2011/02/07 23:22:47.0   0.2                          T                                        4644133
CDF   001.57 257.2 m E Sg      2011/02/07 23:23:06.7  -0.4                          T                3.9  .20 Ml 2.5 Md 2.3  4644137
HINF  002.06 243.0 m E Pn      2011/02/07 23:22:49.9  -0.5                          T                                        4644132
HINF  002.06 243.0 m E Pg      2011/02/07 23:22:55.8   0.1                          T                                        4644139
HINF  002.06 243.0 m E Sg      2011/02/07 23:23:22.0  -0.3                          T                3.5  .42 Ml 2.1 Md 2.3  4644135
RUP   001.89 300.0 m E Pg      2011/02/07 23:22:52.4  -0.1                          T                                        4644127
RUP   001.89 300.0 m E Sg      2011/02/07 23:23:16.7  -0.2                          T                                        4644126
HAU   002.29 251.3 m E Pn      2011/02/07 23:22:52.6  -0.8                          T                                        4644131
HAU   002.29 251.3 m E Pg      2011/02/07 23:22:59.9   0.0                          T                                        4644138
HAU   002.29 251.3 m E Sg      2011/02/07 23:23:28.8  -0.6                          T                3.2  .29 Ml 2.1         4644136
THEF  002.45 258.2 m E Pn      2011/02/07 23:22:55.6   0.0                          T                                        4644130
THEF  002.45 258.2 m E Sg      2011/02/07 23:23:34.0  -0.3                          T                2.7  .25 Ml 2.3         4644134
CABF  003.21 228.6 m E Pn      2011/02/07 23:23:05.8  -0.2                          T                                        4644129
CABF  003.21 228.6 m E Sn      2011/02/07 23:23:39.8  -2.2                          T                1.2  .28 Ml 2.1         4644124

.
