EVENT     282685
    Date      Time       Latitude Longitude    Depth    Ndef Nsta Gap    Mag1  N    Mag2  N    Mag3  N   Author         ID
       rms   OT_Error      Smajor Sminor Az        Err   mdist  Mdist     Err        Err        Err      Quality

2012/09/05 22:10:12.6     47.6579    8.8816      9.0 f    28    5 041  Ml 1.7  4                         bulletin    282785
                                                                                                         _ldg
      0.42   +-  0.07       1.5    1.3   18.82 +-  0.0    0.01   3.28   +-0.2                            m i ke

SWITZERLAND
Sta     Dist  EvAz     Phase      Date       Time     TRes  Azim  AzRes  Slow  SRes Def   SNR       Amp   Per   Mag1   Mag2       ID
CDF   001.32 305.6 m E Pn      2012/09/05 22:10:36.5   0.8                          T                                        5064666
CDF   001.32 305.6 m E Sg      2012/09/05 22:10:54.4   0.0                          T                 .8  .22 Ml 1.6         5064673
HINF  001.38 277.4 m E Pg      2012/09/05 22:10:38.4  -0.1                          T                                        5067655
HINF  001.38 277.4 m E Sg      2012/09/05 22:10:56.0  -0.3                          T                1.3  .28 Ml 1.6         5067656
LPL   002.60 215.5 m E Pn      2012/09/05 22:10:53.8   0.4                          T                                        5064670
LPL   002.60 215.5 m E Sn      2012/09/05 22:11:24.0   0.7                          T                                        5064669
LPG   002.61 215.0 m E Pn      2012/09/05 22:10:54.2   0.6                          T                                        5064672
LPG   002.61 215.0 m E Sn      2012/09/05 22:11:24.2   0.7                          T                 .3  .21 Ml 1.6         5064671
MBDF  003.28 207.3 m E Pn      2012/09/05 22:11:02.9   0.4                          T                                        5064668
MBDF  003.28 207.3 m E Sn      2012/09/05 22:11:40.3   1.0                          T                 .9  .25 Ml 2.0         5064667

.
EVENT     282637
    Date      Time       Latitude Longitude    Depth    Ndef Nsta Gap    Mag1  N    Mag2  N    Mag3  N   Author         ID
       rms   OT_Error      Smajor Sminor Az        Err   mdist  Mdist     Err        Err        Err      Quality

2012/09/05 23:38:31.1     44.7893    6.2574      2.0      12    6 140  Ml 1.1  2  Md 1.3  2              bulletin    282737
                                                                                                         _ldg
      1.05   +-  0.25       5.0    3.3  129.35 +-  0.0    0.30   1.26   +-0.0      +-0.0                 m i ke

FRANCE
Sta     Dist  EvAz     Phase      Date       Time     TRes  Azim  AzRes  Slow  SRes Def   SNR       Amp   Per   Mag1   Mag2       ID
ORIF  000.30 295.8 m E Pg      2012/09/05 23:38:37.7   0.7                          T                                        5063009
ORIF  000.30 295.8 m E Sg      2012/09/05 23:38:39.5  -1.6                          T                5.3  .17        Md 1.3  5063008
LPG   000.79 026.1 m E Pg      2012/09/05 23:38:46.1  -0.3                          T                                        5063007
LPG   000.79 026.1 m E Sg      2012/09/05 23:38:56.4  -0.3                          T                 .4  .18                5063006
LPL   000.80 024.6 m E Pg      2012/09/05 23:38:46.4  -0.1                          T                                        5063014
LPL   000.80 024.6 m E Sg      2012/09/05 23:38:56.3  -0.6                          T                 .2  .18                5063013
SMRF  000.95 211.3 m E Pg      2012/09/05 23:38:49.0   0.0                          T                                        5067670
VIVF  001.13 273.9 m E Pg      2012/09/05 23:38:52.3   0.0                          T                                        5067668
VIVF  001.13 273.9 m E Sg      2012/09/05 23:39:07.0   0.0                          T                 .5  .29 Ml 1.1         5067669
FRF   001.26 167.0 m E Sg      2012/09/05 23:39:10.7  -0.3                          T                 .3  .27 Ml 1.1         5067667

.
EVENT     282636
    Date      Time       Latitude Longitude    Depth    Ndef Nsta Gap    Mag1  N    Mag2  N    Mag3  N   Author         ID
       rms   OT_Error      Smajor Sminor Az        Err   mdist  Mdist     Err        Err        Err      Quality

2012/09/05 23:46:11.7     44.9986    6.5616      2.0       9    4 138  Ml 1.1  1  Md 1.4  2              bulletin    282736
                                                                                                         _ldg
      0.88   +-  0.11       2.2    1.9  105.96 +-  0.0    0.31   1.24   +-         +-0.1                 m i ke

FRANCE
Sta     Dist  EvAz     Phase      Date       Time     TRes  Azim  AzRes  Slow  SRes Def   SNR       Amp   Per   Mag1   Mag2       ID
MBDF  000.31 151.2 m E Pg      2012/09/05 23:46:17.9  -0.1                          T                                        5067674
MBDF  000.31 151.2 m E Sg      2012/09/05 23:46:22.2   0.1                          T                1.2  .23                5067675
ORIF  000.49 260.8 m E Pg      2012/09/05 23:46:21.4   0.2                          T                                        5063018
ORIF  000.49 260.8 m E Sg      2012/09/05 23:46:27.2  -0.5                          T                3.1  .22        Md 1.4  5063017
LPL   000.53 013.1 m E Pg      2012/09/05 23:46:22.1  -0.1                          T                                        5063016
LPL   000.53 013.1 m E Sg      2012/09/05 23:46:29.0  -0.1                          T                 .7  .21        Md 1.4  5063015
SMRF  001.24 215.0 m E Sg      2012/09/05 23:46:51.2   0.1                          T                 .6  .36 Ml 1.1         5067673

.
EVENT     282639
    Date      Time       Latitude Longitude    Depth    Ndef Nsta Gap    Mag1  N    Mag2  N    Mag3  N   Author         ID
       rms   OT_Error      Smajor Sminor Az        Err   mdist  Mdist     Err        Err        Err      Quality

2012/09/06 02:35:08.9     42.8150   -1.3239      2.0     101   18 046  Ml 2.6 15  Md 2.5  2              bulletin    282739
                                                                                                         _ldg
      0.76   +-  0.07       1.5    1.4  108.46 +-  0.0    0.03   5.84   +-0.2      +-0.1                 m i ke

PYRENEES
Sta     Dist  EvAz     Phase      Date       Time     TRes  Azim  AzRes  Slow  SRes Def   SNR       Amp   Per   Mag1   Mag2       ID
SJPF  000.31 013.7 m E Pg      2012/09/06 02:35:14.8  -0.1                          T   001.0                                5063075
SJPF  000.31 013.7 m E Sg      2012/09/06 02:35:19.9   0.8                          T               82.9  .29        Md 2.4  5063077
ETSF  000.57 081.3 m E Pg      2012/09/06 02:35:19.6  -0.3                          T   001.0                                5063071
ETSF  000.57 081.3 m E Sg      2012/09/06 02:35:27.9   0.6                          T               36.3  .43        Md 2.6  5063076
EPF   001.24 079.5 m E Pg      2012/09/06 02:35:31.4  -0.8                          T   001.0                                5063064
EPF   001.24 079.5 m E Sg      2012/09/06 02:35:47.8  -0.5                          T   001.0       23.8  .31 Ml 2.8         5063065
LFF   002.60 034.4 m E Pn      2012/09/06 02:35:50.4   0.4                          T   001.0                                5063067
LFF   002.60 034.4 m E P       2012/09/06 02:35:53.3   0.6                          T                                        5067762
LFF   002.60 034.4 m E Sn      2012/09/06 02:36:20.1  -0.2                          T   001.0        9.7  .44 Ml 2.5         5063068
LFF   002.60 034.4 m E Sg      2012/09/06 02:36:30.9   0.5                          T               15.5  .62 Ml 2.6         5067756
MTLF  002.65 077.3 m E Pn      2012/09/06 02:35:50.6  -0.2                          T   001.0                                5063072
MTLF  002.65 077.3 m E P       2012/09/06 02:35:53.3  -0.2                          T                                        5067760
MTLF  002.65 077.3 m E Pg      2012/09/06 02:35:57.9  -0.1                          T                                        5067759
MTLF  002.65 077.3 m E Sn      2012/09/06 02:36:21.4  -0.2                          T                2.2  .37 Ml 2.1         5063089
RJF   003.22 038.5 m E Pn      2012/09/06 02:35:58.5  -0.2                          T   001.0                                5063056
RJF   003.22 038.5 m E P       2012/09/06 02:36:01.6   0.0                          T                                        5067764
RJF   003.22 038.5 m E Pg      2012/09/06 02:36:08.6  -0.1                          T                                        5067763
RJF   003.22 038.5 m E Sn      2012/09/06 02:36:35.3   0.0                          T   001.0        7.5  .48 Ml 2.3         5063057
CAF   003.23 048.1 m E Pn      2012/09/06 02:35:58.6  -0.3                          T   001.0                                5063061
CAF   003.23 048.1 m E P       2012/09/06 02:36:01.5  -0.4                          T                                        5067761
CAF   003.23 048.1 m E Sn      2012/09/06 02:36:35.6  -0.1                          T   001.0                                5063062
MFF   003.88 012.1 m E Pn      2012/09/06 02:36:08.0   0.4                          T   001.0                                5063069
MFF   003.88 012.1 m E Sn      2012/09/06 02:36:50.7  -0.2                          T                6.4  .54 Ml 2.9         5067755
LASF  003.98 069.8 m E Pn      2012/09/06 02:36:08.5  -0.5                          T                                        5063088
LASF  003.98 069.8 m E P       2012/09/06 02:36:12.6   0.2                          T                                        5067758
LASF  003.98 069.8 m E Sn      2012/09/06 02:36:53.9   0.5                          T   001.0        3.5  .52 Ml 2.5         5063066
TCF   004.29 034.8 m E Pn      2012/09/06 02:36:13.2   0.0                          T   001.0                                5063070
TCF   004.29 034.8 m E Sn      2012/09/06 02:37:01.6   0.7                          T                1.7  .29 Ml 2.5         5063086
BGF   004.78 037.0 m E Pn      2012/09/06 02:36:20.7   0.8                          T                                        5063087
BGF   004.78 037.0 m E Sn      2012/09/06 02:37:12.5   0.0                          T   001.0        8.3  .48 Ml 3.1         5063060
AVF   005.18 038.3 m E Pn      2012/09/06 02:36:26.1   0.8                          T   001.0                                5063058
AVF   005.18 038.3 m E Sn      2012/09/06 02:37:22.4   0.3                          T   001.0        2.3  .48 Ml 2.6         5063059
QUIF  005.26 346.4 m E Pn      2012/09/06 02:36:27.3   0.9                          T   001.0                                5063074
QUIF  005.26 346.4 m E Sn      2012/09/06 02:37:23.8  -0.3                          T                 .9  .25 Ml 2.5         5063083
SSF   005.46 037.3 m E Pn      2012/09/06 02:36:29.0  -0.1                          T                                        5063085
SSF   005.46 037.3 m E Sn      2012/09/06 02:37:28.9   0.2                          T                1.4  .29 Ml 2.7         5063084
SMRF  005.16 074.7 m E P       2012/09/06 02:36:29.2   0.0                          T                                        5067757
GRR   005.58 003.2 m E Pn      2012/09/06 02:36:32.1   1.4                          T                                        5063081
GRR   005.58 003.2 m E Sn      2012/09/06 02:37:31.6  -0.1                          T                 .7  .22 Ml 2.3         5063080
ROSF  005.69 346.8 m E Pn      2012/09/06 02:36:33.2   1.0                          T                                        5063082
LDF   005.84 007.9 m E Pn      2012/09/06 02:36:35.1   0.9                          T                                        5063079
LDF   005.84 007.9 m E Sn      2012/09/06 02:37:37.9   0.0                          T                1.1  .41 Ml 2.5         5063078

.
EVENT     282681
    Date      Time       Latitude Longitude    Depth    Ndef Nsta Gap    Mag1  N    Mag2  N    Mag3  N   Author         ID
       rms   OT_Error      Smajor Sminor Az        Err   mdist  Mdist     Err        Err        Err      Quality

2012/09/06 03:12:42.6     42.8068   -1.3516      2.0      22    3 084  Ml 0.9  1  Md 1.3  2              bulletin    282781
                                                                                                         _ldg
      0.44   +-  0.11       2.3    1.7   66.27 +-  0.0    0.00   1.26   +-         +-0.1                 m i ke

PYRENEES
Sta     Dist  EvAz     Phase      Date       Time     TRes  Azim  AzRes  Slow  SRes Def   SNR       Amp   Per   Mag1   Mag2       ID
SJPF  000.32 016.8 m E Pg      2012/09/06 03:12:48.8  -0.1                          T                                        5064700
SJPF  000.32 016.8 m E Sg      2012/09/06 03:12:53.1   0.0                          T                2.2  .22        Md 1.4  5064703
ETSF  000.59 080.8 m E Pg      2012/09/06 03:12:53.7  -0.2                          T                                        5067793
ETSF  000.59 080.8 m E Sg      2012/09/06 03:13:01.7   0.1                          T                 .7  .29        Md 1.3  5067794
EPF   001.26 079.2 m E Pg      2012/09/06 03:13:06.2   0.0                          T                                        5067791
EPF   001.26 079.2 m E Sg      2012/09/06 03:13:22.4  -0.2                          T                 .2  .25 Ml  .9         5067792

.
EVENT     282682
    Date      Time       Latitude Longitude    Depth    Ndef Nsta Gap    Mag1  N    Mag2  N    Mag3  N   Author         ID
       rms   OT_Error      Smajor Sminor Az        Err   mdist  Mdist     Err        Err        Err      Quality

2012/09/06 04:24:50.0     36.6204   -2.8748      2.0      64    9 126  Ml 3.1  8                         bulletin    282782
                                                                                                         _ldg
      0.88   +-  0.19       3.8    2.9  158.97 +-  0.0    0.28  11.63   +-0.4                            m i ke

STRAIT OF GIBRALTAR
Sta     Dist  EvAz     Phase      Date       Time     TRes  Azim  AzRes  Slow  SRes Def   SNR       Amp   Per   Mag1   Mag2       ID
ETSF  006.52 015.2 m E Pn      2012/09/06 04:26:24.5  -0.1                          T                                        5064808
ETSF  006.52 015.2 m E P       2012/09/06 04:26:29.1  -0.3                          T                                        5067805
ETSF  006.52 015.2 m E Sn      2012/09/06 04:27:34.3  -1.0                          T                                        5067800
ETSF  006.52 015.2 m E Sg      2012/09/06 04:28:13.0  -1.1                          T               18.8  .98 Ml 3.5         5067801
EPF   006.86 020.1 m E Pn      2012/09/06 04:26:29.3   0.0                          T                                        5064803
EPF   006.86 020.1 m E P       2012/09/06 04:26:34.0  -0.3                          T                                        5067804
EPF   006.86 020.1 m E Sn      2012/09/06 04:27:42.1  -1.3                          T                3.4  .38 Ml 3.2         5064801
EPF   006.86 020.1 m E Sg      2012/09/06 04:28:23.4  -1.4                          T               10.9  .65 Ml 3.5         5067799
SJPF  006.61 010.6 m E P       2012/09/06 04:26:30.4  -0.3                          T                                        5067806
SJPF  006.61 010.6 m E Sg      2012/09/06 04:28:16.3  -0.5                          T               17.9  .76 Ml 3.6         5067797
MTLF  007.77 028.6 m E Pn      2012/09/06 04:26:41.2  -0.4                          T                                        5064802
MTLF  007.77 028.6 m E P       2012/09/06 04:26:47.2   0.3                          T                                        5067803
MTLF  007.77 028.6 m E Sn      2012/09/06 04:28:05.2   0.2                          T                 .4  .34 Ml 2.5         5064782
MTLF  007.77 028.6 m E Sg      2012/09/06 04:28:52.0  -0.9                          T                3.5  .65 Ml 3.1         5067798
CAF   009.10 022.7 m E P       2012/09/06 04:27:05.3  -0.2                          T                                        5064804
VIVF  010.02 032.5 m E Pn      2012/09/06 04:27:12.2  -0.1                          T                                        5067802
VIVF  010.02 032.5 m E Sn      2012/09/06 04:28:57.6  -1.2                          T                 .2  .21 Ml 2.8         5064784
QUIF  011.29 359.0 m E Pn      2012/09/06 04:27:29.5   0.0                          T                                        5064806
SGMF  011.63 001.1 m E Pn      2012/09/06 04:27:33.8  -0.3                          T                                        5064805
LASF  009.04 032.5 m E Sn      2012/09/06 04:28:34.8  -0.7                          T                 .4  .23 Ml 2.8         5064783

.
EVENT     282683
    Date      Time       Latitude Longitude    Depth    Ndef Nsta Gap    Mag1  N    Mag2  N    Mag3  N   Author         ID
       rms   OT_Error      Smajor Sminor Az        Err   mdist  Mdist     Err        Err        Err      Quality

2012/09/06 04:25:27.2     42.9620   -1.4312      2.0       6    3 309  Ml 1.6  1  Md 1.3  2              bulletin    282783
                                                                                                         _ldg
      0.10   +-  0.21       3.7    2.2   64.22 +-  0.0    0.21   1.30   +-         +-0.0                 m i ke

PYRENEES
Sta     Dist  EvAz     Phase      Date       Time     TRes  Azim  AzRes  Slow  SRes Def   SNR       Amp   Per   Mag1   Mag2       ID
SJPF  000.21 044.9 m E Pg      2012/09/06 04:25:31.4  -0.1                          T                                        5064758
SJPF  000.21 044.9 m E Sg      2012/09/06 04:25:34.6   0.1                          T                3.5  .18        Md 1.3  5064763
ETSF  000.64 095.4 m E Pg      2012/09/06 04:25:39.5   0.0                          T                                        5064760
ETSF  000.64 095.4 m E Sg      2012/09/06 04:25:47.6  -0.3                          T                1.5  .25        Md 1.3  5064759
EPF   001.30 086.4 m E Pg      2012/09/06 04:25:51.6   0.0                          T                                        5064762
EPF   001.30 086.4 m E Sg      2012/09/06 04:26:08.4   0.1                          T                 .9  .22 Ml 1.6         5064761

.
