EVENT     294999
    Date      Time       Latitude Longitude    Depth    Ndef Nsta Gap    Mag1  N    Mag2  N    Mag3  N   Author         ID
       rms   OT_Error      Smajor Sminor Az        Err   mdist  Mdist     Err        Err        Err      Quality

2013/03/29 17:21:22.1     42.6995   -1.7235      2.0      24    5 157  Ml 1.7  5  Md 1.9  1              bulletin    295099
                                                                                                         _ldg
      1.18   +-  0.23       4.4    3.2   15.90 +-  0.0    0.13   3.53   +-0.1      +-                    m i ke

PYRENEES
Sta     Dist  EvAz     Phase      Date       Time     TRes  Azim  AzRes  Slow  SRes Def   SNR       Amp   Per   Mag1   Mag2       ID
SJPF  000.55 041.4 m E Pg      2013/03/29 17:21:32.3  -0.3                          T                                        5239778
SJPF  000.55 041.4 m E Sg      2013/03/29 17:21:39.8  -0.1                          T                6.0  .23        Md 1.9  5239777
ETSF  000.88 076.5 m E Pg      2013/03/29 17:21:38.7  -0.1                          T                                        5239776
ETSF  000.88 076.5 m E Sg      2013/03/29 17:21:50.3   0.1                          T                1.8  .23 Ml 1.6         5239775
EPF   001.55 077.0 m E Pg      2013/03/29 17:21:50.6  -0.5                          T                                        5239774
EPF   001.55 077.0 m E Sg      2013/03/29 17:22:11.7   0.6                          T                 .7  .23 Ml 1.6         5239773
MTLF  002.96 076.2 m E Pn      2013/03/29 17:22:07.8  -0.4                          T                                        5239780
MTLF  002.96 076.2 m E Sn      2013/03/29 17:22:42.7   0.5                          T                 .5  .32 Ml 1.6         5239779
CAF   003.53 049.6 m E Pn      2013/03/29 17:22:16.4   0.4                          T                                        5239784
CAF   003.53 049.6 m E Sn      2013/03/29 17:22:56.6   0.6                          T                 .2  .17 Ml 1.7         5239783

.
EVENT     294985
    Date      Time       Latitude Longitude    Depth    Ndef Nsta Gap    Mag1  N    Mag2  N    Mag3  N   Author         ID
       rms   OT_Error      Smajor Sminor Az        Err   mdist  Mdist     Err        Err        Err      Quality

2013/03/29 17:23:46.2     42.7137   -1.7412      2.0      26    5 157  Ml 2.0  4  Md 2.3  1              bulletin    295085
                                                                                                         _ldg
      0.66   +-  0.20       3.8    3.0   22.46 +-  0.0    0.13   3.50   +-0.4      +-                    m i ke

PYRENEES
Sta     Dist  EvAz     Phase      Date       Time     TRes  Azim  AzRes  Slow  SRes Def   SNR       Amp   Per   Mag1   Mag2       ID
SJPF  000.55 043.3 m E Pg      2013/03/29 17:23:56.3  -0.4                          T                                        5239509
SJPF  000.55 043.3 m E Sg      2013/03/29 17:24:03.3  -0.6                          T               45.9  .46        Md 2.3  5239506
ETSF  000.89 077.6 m E Pg      2013/03/29 17:24:02.3  -0.7                          T                                        5239508
ETSF  000.89 077.6 m E Sg      2013/03/29 17:24:13.9  -0.7                          T               10.1  .45 Ml 2.1         5239554
EPF   001.56 077.6 m E Pn      2013/03/29 17:24:14.1   0.8                          T                                        5239507
EPF   001.56 077.6 m E Sn      2013/03/29 17:24:33.0   0.0                          T                                        5239505
EPF   001.56 077.6 m E Sg      2013/03/29 17:24:35.6   0.0                          T                7.3  .29 Ml 2.5         5239553
MTLF  002.97 076.5 m E Pn      2013/03/29 17:24:32.7   0.3                          T                                        5239810
MTLF  002.97 076.5 m E Pg      2013/03/29 17:24:41.0  -0.2                          T                                        5239809
MTLF  002.97 076.5 m E Sn      2013/03/29 17:25:06.7   0.2                          T                 .5  .26 Ml 1.7         5239808
RJF   003.50 041.1 m E Pn      2013/03/29 17:24:40.4   0.7                          T                                        5239552

.
EVENT     294986
    Date      Time       Latitude Longitude    Depth    Ndef Nsta Gap    Mag1  N    Mag2  N    Mag3  N   Author         ID
       rms   OT_Error      Smajor Sminor Az        Err   mdist  Mdist     Err        Err        Err      Quality

2013/03/29 17:26:22.6     42.7191   -1.7007      2.0      58   16 056  Ml 2.6 17  Md 2.7  2              bulletin    295086
                                                                                                         _ldg
      0.71   +-  0.11       2.1    2.0    3.07 +-  0.0    0.10   5.73   +-0.3      +-0.0                 m i ke

PYRENEES
Sta     Dist  EvAz     Phase      Date       Time     TRes  Azim  AzRes  Slow  SRes Def   SNR       Amp   Per   Mag1   Mag2       ID
SJPF  000.53 041.4 m E Pg      2013/03/29 17:26:31.9  -0.7                          T                                        5239558
SJPF  000.53 041.4 m E Sg      2013/03/29 17:26:39.9   0.3                          T              152.6  .46        Md 2.7  5239557
ETSF  000.86 077.6 m E Pg      2013/03/29 17:26:38.4  -0.4                          T                                        5239556
ETSF  000.86 077.6 m E Sg      2013/03/29 17:26:50.2   0.2                          T               54.6  .60 Ml 2.7 Md 2.7  5239569
EPF   001.53 077.6 m E Pn      2013/03/29 17:26:50.8   1.4                          T                                        5239555
EPF   001.53 077.6 m E Sg      2013/03/29 17:27:10.7  -0.2                          T               21.3  .32 Ml 2.9         5239570
LFF   002.84 037.7 m E Pn      2013/03/29 17:27:07.7   0.7                          T                                        5239564
LFF   002.84 037.7 m E Sn      2013/03/29 17:27:40.2   0.5                          T               10.8  .36 Ml 2.7         5239561
MTLF  002.94 076.5 m E Pn      2013/03/29 17:27:09.5   1.1                          T                                        5239563
MTLF  002.94 076.5 m E Sg      2013/03/29 17:27:53.5  -1.4                          T                2.6  .33 Ml 2.3         5239597
RJF   003.47 040.8 m E Pn      2013/03/29 17:27:15.7   0.0                          T                                        5239567
RJF   003.47 040.8 m E Sn      2013/03/29 17:27:55.8   0.8                          T               11.8  .46 Ml 2.6         5239560
CAF   003.51 049.7 m E Pn      2013/03/29 17:27:16.3   0.1                          T                                        5239568
CAF   003.51 049.7 m E Sn      2013/03/29 17:27:55.7  -0.1                          T                3.5  .26 Ml 2.7         5239562
MFF   004.04 015.4 m E Pn      2013/03/29 17:27:23.8   0.4                          T                                        5239565
MFF   004.04 015.4 m E Sn      2013/03/29 17:28:09.0   0.5                          T                  1  .21 Ml 2.5         5239817
LASF  004.27 069.6 m E Pn      2013/03/29 17:27:27.1   0.6                          T                                        5239812
LASF  004.27 069.6 m E Sn      2013/03/29 17:28:14.8   0.8                          T                2.9  .33 Ml 2.7         5239811
TCF   004.53 036.8 m E Pn      2013/03/29 17:27:30.5   0.4                          T                                        5239816
TCF   004.53 036.8 m E Sn      2013/03/29 17:28:20.3   0.0                          T                1.1  .22 Ml 2.5         5239815
BGF   005.03 038.7 m E Pn      2013/03/29 17:27:37.1   0.3                          T                                        5239566
BGF   005.03 038.7 m E Sn      2013/03/29 17:28:31.6  -0.4                          T               12.4  .42 Ml 3.3         5239559
QUIF  005.30 349.3 m E Pn      2013/03/29 17:27:40.2  -0.3                          T                                        5239819
QUIF  005.30 349.3 m E Sn      2013/03/29 17:28:39.3   0.7                          T                 .6  .24 Ml 2.3         5239818
AVF   005.43 039.7 m E Pn      2013/03/29 17:27:41.9  -0.5                          T                                        5239814
AVF   005.43 039.7 m E Sn      2013/03/29 17:28:42.1   0.4                          T                 .5  .22 Ml 2.3         5239813
SSF   005.70 038.6 m E Pn      2013/03/29 17:27:45.2  -0.8                          T                                        5239825
SSF   005.70 038.6 m E Sn      2013/03/29 17:28:48.4   0.1                          T                 .7  .26 Ml 2.6         5239824
ROSF  005.73 349.4 m E Pn      2013/03/29 17:27:46.0  -0.3                          T                                        5239821
ROSF  005.73 349.4 m E Sn      2013/03/29 17:28:48.9   0.2                          T                2.0  .21 Ml 3.0         5239820
GRR   005.70 005.7 m E Pn      2013/03/29 17:27:46.1   0.1                          T                                        5239823
GRR   005.70 005.7 m E Sn      2013/03/29 17:28:48.0  -0.2                          T                 .5  .21 Ml 2.3         5239822

.
EVENT     294997
    Date      Time       Latitude Longitude    Depth    Ndef Nsta Gap    Mag1  N    Mag2  N    Mag3  N   Author         ID
       rms   OT_Error      Smajor Sminor Az        Err   mdist  Mdist     Err        Err        Err      Quality

2013/03/29 20:19:53.2     46.1813    6.9477      2.0      51   11 052  Ml 1.6  8  Md 1.7  2              bulletin    295097
                                                                                                         _ldg
      0.28   +-  0.04        .8     .7   91.57 +-  0.0    0.04   2.56   +-0.3      +-0.0                 m i ke

SWITZERLAND
Sta     Dist  EvAz     Phase      Date       Time     TRes  Azim  AzRes  Slow  SRes Def   SNR       Amp   Per   Mag1   Mag2       ID
LPL   000.68 192.8 m E Pg      2013/03/29 20:20:06.4   0.0                          T                                        5239712
LPL   000.68 192.8 m E Sg      2013/03/29 20:20:15.3   0.0                          T                1.1  .21        Md 1.7  5239710
LPG   000.70 191.4 m E Pg      2013/03/29 20:20:06.7   0.0                          T                                        5239711
LPG   000.70 191.4 m E Sg      2013/03/29 20:20:15.9   0.0                          T                1.4  .23        Md 1.7  5239709
CABF  000.73 306.1 m E Pg      2013/03/29 20:20:07.1   0.0                          T                                        5239696
CABF  000.73 306.1 m E Sg      2013/03/29 20:20:16.7  -0.1                          T                1.0  .23                5239695
ORIF  001.47 211.1 m E Pg      2013/03/29 20:20:20.8   0.0                          T                                        5239708
ORIF  001.47 211.1 m E Sg      2013/03/29 20:20:39.4  -0.2                          T                 .6  .20 Ml 1.5         5239707
MBDF  001.46 184.9 m E Pg      2013/03/29 20:20:20.8   0.2                          T                                        5239706
MBDF  001.46 184.9 m E Sg      2013/03/29 20:20:39.4  -0.1                          T                 .5  .21 Ml 1.4         5239705
HINF  001.64 357.8 m E Pn      2013/03/29 20:20:21.4   0.1                          T                                        5239691
HINF  001.64 357.8 m E Pg      2013/03/29 20:20:23.6  -0.1                          T                                        5239694
HINF  001.64 357.8 m E Sn      2013/03/29 20:20:41.7  -0.1                          T                                        5239693
HINF  001.64 357.8 m E Sg      2013/03/29 20:20:44.9   0.0                          T                1.6  .25 Ml 1.9         5239692
HAU   001.87 347.6 m E Pn      2013/03/29 20:20:24.4  -0.1                          T                                        5239690
HAU   001.87 347.6 m E Sn      2013/03/29 20:20:46.9  -0.4                          T                                        5239689
HAU   001.87 347.6 m E Sg      2013/03/29 20:20:52.5   0.3                          T                2.0  .28 Ml 1.8         5239688
CDF   002.24 005.6 m E Pn      2013/03/29 20:20:30.2   0.5                          T                                        5239687
CDF   002.24 005.6 m E Sn      2013/03/29 20:20:56.6   0.3                          T                 .4  .18 Ml 1.7         5239686
VIVF  002.08 231.2 m E Pg      2013/03/29 20:20:31.6  -0.2                          T                                        5239703
VIVF  002.08 231.2 m E Sg      2013/03/29 20:20:58.4  -0.2                          T                1.6  .26 Ml 2.0         5239704
SMF   002.20 283.3 m E Pg      2013/03/29 20:20:33.1  -1.0                          T                                        5239701
SMF   002.20 283.3 m E Sg      2013/03/29 20:21:02.1  -0.3                          T                 .5  .22 Ml 1.6         5239702
AVF   002.56 285.1 m E Pn      2013/03/29 20:20:34.5   0.7                          T                                        5239699
AVF   002.56 285.1 m E Pg      2013/03/29 20:20:40.9   0.2                          T                                        5239700
AVF   002.56 285.1 m E Sn      2013/03/29 20:21:03.9   0.3                          T                                        5239698
AVF   002.56 285.1 m E Sg      2013/03/29 20:21:13.2  -0.3                          T                 .1  .19 Ml 1.1         5239697

.
EVENT     294998
    Date      Time       Latitude Longitude    Depth    Ndef Nsta Gap    Mag1  N    Mag2  N    Mag3  N   Author         ID
       rms   OT_Error      Smajor Sminor Az        Err   mdist  Mdist     Err        Err        Err      Quality

2013/03/29 23:23:52.6     42.7097   -1.7084      2.0      44    7 083  Ml 2.2  7  Md 2.3  2              bulletin    295098
                                                                                                         _ldg
      0.54   +-  0.11       2.2    1.7  113.66 +-  0.0    0.11   3.74   +-0.2      +-0.1                 m i ke

PYRENEES
Sta     Dist  EvAz     Phase      Date       Time     TRes  Azim  AzRes  Slow  SRes Def   SNR       Amp   Per   Mag1   Mag2       ID
SJPF  000.54 041.2 m E Pg      2013/03/29 23:24:02.7  -0.1                          T                                        5239733
SJPF  000.54 041.2 m E Sg      2013/03/29 23:24:09.7  -0.2                          T               46.3  .36        Md 2.3  5239730
ETSF  000.87 077.0 m E Pg      2013/03/29 23:24:09.0   0.0                          T                                        5239732
ETSF  000.87 077.0 m E Sg      2013/03/29 23:24:20.4   0.1                          T                9.4  .28 Ml 2.3 Md 2.2  5239729
EPF   001.54 077.3 m E Pg      2013/03/29 23:24:21.5   0.1                          T                                        5239731
EPF   001.54 077.3 m E Sg      2013/03/29 23:24:41.7   0.5                          T               14.1  .40 Ml 2.6         5239728
LFF   002.85 037.6 m E Pn      2013/03/29 23:24:38.1   1.0                          T                                        5239723
LFF   002.85 037.6 m E Pg      2013/03/29 23:24:45.7   0.3                          T                                        5239722
LFF   002.85 037.6 m E Sn      2013/03/29 23:25:10.2   0.2                          T                                        5239721
LFF   002.85 037.6 m E Sg      2013/03/29 23:25:21.1  -0.9                          T                4.8  .34 Ml 2.4         5239720
MTLF  002.95 076.3 m E Pn      2013/03/29 23:24:39.1   0.6                          T                                        5239716
MTLF  002.95 076.3 m E Pg      2013/03/29 23:24:47.0  -0.2                          T                                        5239713
MTLF  002.95 076.3 m E Sn      2013/03/29 23:25:12.1  -0.3                          T                                        5239715
MTLF  002.95 076.3 m E Sg      2013/03/29 23:25:24.6  -0.5                          T                1.2  .33 Ml 2.0         5239714
RJF   003.48 040.8 m E Pn      2013/03/29 23:24:46.4   0.6                          T                                        5239719
RJF   003.48 040.8 m E Pg      2013/03/29 23:24:56.8  -0.3                          T                                        5239718
RJF   003.48 040.8 m E Sn      2013/03/29 23:25:25.0  -0.2                          T                1.7  .23 Ml 2.1         5239717
CAF   003.52 049.7 m E Pn      2013/03/29 23:24:47.5   1.2                          T                                        5239727
CAF   003.52 049.7 m E Pg      2013/03/29 23:24:57.6  -0.1                          T                                        5239726
CAF   003.52 049.7 m E Sn      2013/03/29 23:25:26.5   0.5                          T                                        5239725
CAF   003.52 049.7 m E Sg      2013/03/29 23:25:42.8  -0.1                          T                1.0  .25 Ml 2.2         5239724

.
