EVENT     273399
    Date      Time       Latitude Longitude    Depth    Ndef Nsta Gap    Mag1  N    Mag2  N    Mag3  N   Author         ID
       rms   OT_Error      Smajor Sminor Az        Err   mdist  Mdist     Err        Err        Err      Quality

2012/04/12 04:46:39.9     41.6065    2.5770      4.0 f    75   13 116  Ml 2.6 12  Md 2.6  3              bulletin    273419
                                                                                                         _ldg
      0.79   +-  0.15       2.7    1.7  131.87 +-  0.0    0.19   4.69   +-0.3      +-0.0                 m i ke

SPAIN
Sta     Dist  EvAz     Phase      Date       Time     TRes  Azim  AzRes  Slow  SRes Def   SNR       Amp   Per   Mag1   Mag2       ID
FBR   000.39 240.7 m E Pg      2012/04/12 04:46:47.0  -0.5                          T                                        4909037
FBR   000.39 240.7 m E Sg      2012/04/12 04:46:52.7   0.0                          T                                        4909038
MTLF  001.75 351.4 m E Pn      2012/04/12 04:47:09.9   0.5                          T                                        4912288
MTLF  001.75 351.4 m E Pg      2012/04/12 04:47:11.7  -0.9                          T                                        4907873
MTLF  001.75 351.4 m E Sg      2012/04/12 04:47:35.3   0.1                          T                6.0  .18 Ml 2.7 Md 2.6  4907872
EPF   002.19 311.4 m E Pn      2012/04/12 04:47:17.2   1.8                          T                                        4912287
EPF   002.19 311.4 m E Pg      2012/04/12 04:47:20.2  -0.4                          T                                        4907870
EPF   002.19 311.4 m E Sg      2012/04/12 04:47:47.7  -1.1                          T               14.1  .22 Ml 3.1 Md 2.6  4907871
ETSF  002.66 300.1 m E Pn      2012/04/12 04:47:29.5   7.6                          T                                        4912286
ETSF  002.66 300.1 m E Pg      2012/04/12 04:47:32.1   2.7                          T                                        4907865
ETSF  002.66 300.1 m E Sg      2012/04/12 04:48:02.0  -1.6                          T                9.4  .28 Ml 2.9 Md 2.6  4907869
SJPF  003.19 299.4 m E Pn      2012/04/12 04:47:30.5   1.4                          T                                        4912285
SJPF  003.19 299.4 m E Sg      2012/04/12 04:48:19.6  -0.6                          T               12.8  .41 Ml 3.0         4907868
LMR   003.38 058.0 m E Pn      2012/04/12 04:47:32.2   0.6                          T                                        4912281
LMR   003.38 058.0 m E Sn      2012/04/12 04:48:09.8   0.1                          T                2.1  .30 Ml 2.4         4912282
CAF   003.34 353.7 m E Pg      2012/04/12 04:47:41.6  -0.2                          T                                        4907867
CAF   003.34 353.7 m E Sg      2012/04/12 04:48:24.0  -0.7                          T                2.1  .23 Ml 2.5         4907864
LASF  002.64 020.4 m E Sg      2012/04/12 04:48:02.2  -0.7                          T                3.9  .31 Ml 2.5         4907866
FRF   003.58 055.6 m E Sn      2012/04/12 04:48:14.3  -0.3                          T                 .9  .24 Ml 2.1         4912280
VIVF  003.59 024.5 m E Sg      2012/04/12 04:48:32.6   0.0                          T                1.5  .23 Ml 2.4         4912284
LFF   003.59 338.7 m E Sg      2012/04/12 04:48:33.9   1.4                          T                4.5  .27 Ml 2.6         4907863
RJF   003.78 348.6 m E Sg      2012/04/12 04:48:39.0   0.7                          T                1.5  .21 Ml 2.1         4907862
TCF   004.69 356.9 m E Sg      2012/04/12 04:49:06.4  -0.4                          T                                        4912283

.
EVENT     273424
    Date      Time       Latitude Longitude    Depth    Ndef Nsta Gap    Mag1  N    Mag2  N    Mag3  N   Author         ID
       rms   OT_Error      Smajor Sminor Az        Err   mdist  Mdist     Err        Err        Err      Quality

2012/04/12 05:28:21.5     44.3322   10.5669      2.0      26    6 138  Ml 2.3  3  Md 2.3  1              bulletin    273444
                                                                                                         _ldg
      0.89   +-  0.21       4.6    3.5   24.68 +-  0.0    0.14   3.61   +-0.1      +-                    m i ke

NORTHERN ITALY
Sta     Dist  EvAz     Phase      Date       Time     TRes  Azim  AzRes  Slow  SRes Def   SNR       Amp   Per   Mag1   Mag2       ID
PGF   002.12 213.2 m E Pn      2012/04/12 05:28:55.6  -0.6                          T                                        4912321
PGF   002.12 213.2 m E Sn      2012/04/12 05:29:21.1  -0.5                          T                1.5  .23 Ml 2.3 Md 2.3  4912320
SBF   002.30 259.3 m E Pn      2012/04/12 05:28:59.0   0.2                          T                                        4912323
SBF   002.30 259.3 m E Sn      2012/04/12 05:29:26.5   0.5                          T                2.7  .28 Ml 2.3         4912322
MBDF  002.74 279.6 m E Pn      2012/04/12 05:29:06.5   1.6                          T                                        4912329
LMR   003.10 252.6 m E Pn      2012/04/12 05:29:08.5  -1.0                          T                                        4912325
LMR   003.10 252.6 m E P       2012/04/12 05:29:11.6  -0.9                          T                                        4912324
LMR   003.10 252.6 m E Sn      2012/04/12 05:29:47.4   2.4                          T                2.8  .28 Ml 2.5         4912326
LPL   002.97 294.8 m E P       2012/04/12 05:29:10.7  -0.2                          T                                        4912328
SMRF  003.61 266.1 m E Pn      2012/04/12 05:29:17.1   0.6                          T                                        4912327

.
EVENT     273428
    Date      Time       Latitude Longitude    Depth    Ndef Nsta Gap    Mag1  N    Mag2  N    Mag3  N   Author         ID
       rms   OT_Error      Smajor Sminor Az        Err   mdist  Mdist     Err        Err        Err      Quality

2012/04/12 07:53:26.3     45.2575     .8703       .0 f     7    4 205  Ml 2.5  2  Md 1.9  2              bulletin    273448
                                                                                                         _ldg
      0.23   +-  0.23       5.4    2.1  137.05 +-  0.0    0.33   1.39   +-0.1      +-0.1                 m i km

FRANCE
Sta     Dist  EvAz     Phase      Date       Time     TRes  Azim  AzRes  Slow  SRes Def   SNR       Amp   Per   Mag1   Mag2       ID
LFF   000.33 196.2 m E Pg      2012/04/12 07:53:32.9   0.0                          T                                        4910829
LFF   000.33 196.2 m E Sg      2012/04/12 07:53:37.9   0.3                          T               29.2  .42        Md 1.9  4910828
RJF   000.46 083.9 m E Pg      2012/04/12 07:53:35.1  -0.2                          T                                        4910827
RJF   000.46 083.9 m E Sg      2012/04/12 07:53:41.5  -0.1                          T                                Md 1.8  4912330
CAF   000.91 111.0 m E Pg      2012/04/12 07:53:43.6   0.0                          T                                        4910825
CAF   000.91 111.0 m E Sg      2012/04/12 07:53:56.1   0.4                          T               10.5  .24 Ml 2.4         4910824
TCF   001.39 041.8 m E Sg      2012/04/12 07:54:11.3   0.5                          T               14.7  .42 Ml 2.6         4912523

.
EVENT     273440
    Date      Time       Latitude Longitude    Depth    Ndef Nsta Gap    Mag1  N    Mag2  N    Mag3  N   Author         ID
       rms   OT_Error      Smajor Sminor Az        Err   mdist  Mdist     Err        Err        Err      Quality

2012/04/12 08:19:30.8     45.8599    3.8202       .0 f    15    8 147  Ml 2.1  6  Md 2.1  1              bulletin    273460
                                                                                                         _ldg
      0.40   +-  0.11       2.6    1.6   70.84 +-  0.0    0.79   1.55   +-0.3      +-                    m i km

FRANCE
Sta     Dist  EvAz     Phase      Date       Time     TRes  Azim  AzRes  Slow  SRes Def   SNR       Amp   Per   Mag1   Mag2       ID
SMF   000.79 001.0 m E Pg      2012/04/12 08:19:45.8  -0.1                          T                                        4910930
SMF   000.79 001.0 m E Sg      2012/04/12 08:19:57.2   0.8                          T               20.0  .28        Md 2.1  4910928
AVF   000.99 341.0 m E Pg      2012/04/12 08:19:49.6   0.0                          T                                        4910922
AVF   000.99 341.0 m E Sg      2012/04/12 08:20:02.7   0.2                          T               14.2  .68 Ml 2.1         4910924
BGF   000.97 316.3 m E Pg      2012/04/12 08:19:49.7   0.3                          T                                        4910926
BGF   000.97 316.3 m E Sg      2012/04/12 08:20:01.3  -0.8                          T               30.4  .50 Ml 2.6         4910927
VIVF  001.17 148.8 m E Pg      2012/04/12 08:19:52.8  -0.2                          T                                        4910923
VIVF  001.17 148.8 m E Sg      2012/04/12 08:20:08.5   0.1                          T                                        4910929
TCF   001.20 291.5 m E Pg      2012/04/12 08:19:53.5  -0.1                          T                                        4912332
TCF   001.20 291.5 m E Sg      2012/04/12 08:20:09.0  -0.2                          T                4.8  .40 Ml 2.0         4912331
SSF   001.22 349.9 m E Pg      2012/04/12 08:19:53.8  -0.1                          T                                        4910932
SSF   001.22 349.9 m E Sg      2012/04/12 08:20:09.7  -0.2                          T                4.9  .35 Ml 2.2         4910931
LOR   001.41 001.1 m E Pn      2012/04/12 08:19:57.1   0.8 183.4  2.3               T                                        4910919
LOR   001.41 001.1 m E Sg      2012/04/12 08:20:15.6  -0.2                          T                3.9  .36 Ml 2.0         4910918
CAF   001.55 233.6 m E Sg      2012/04/12 08:20:20.7   0.5                          T                2.2  .37 Ml 1.8         4912524

.
EVENT     273442
    Date      Time       Latitude Longitude    Depth    Ndef Nsta Gap    Mag1  N    Mag2  N    Mag3  N   Author         ID
       rms   OT_Error      Smajor Sminor Az        Err   mdist  Mdist     Err        Err        Err      Quality

2012/04/12 08:41:27.1     48.6482    -.9826       .0 f     8    5 171  Ml 1.9  1  Md 1.8  2              bulletin    273462
                                                                                                         _ldg
      0.21   +-  0.08       2.1    1.3  169.60 +-  0.0    0.27   1.56   +-         +-0.0                 m i km

FRANCE
Sta     Dist  EvAz     Phase      Date       Time     TRes  Azim  AzRes  Slow  SRes Def   SNR       Amp   Per   Mag1   Mag2       ID
GRR   000.27 162.3 m E Pg      2012/04/12 08:41:32.7   0.0                          T                                        4910940
GRR   000.27 162.3 m E Sg      2012/04/12 08:41:36.4  -0.1                          T              113.0  .76        Md 1.8  4910939
FLN   000.35 070.8 m E Pg      2012/04/12 08:41:34.2   0.0 252.2  1.0               T                                        4910937
FLN   000.35 070.8 m E Sg      2012/04/12 08:41:38.7  -0.3                          T               50.7  .58        Md 1.8  4910933
LDF   000.57 095.1 m E Pg      2012/04/12 08:41:38.3   0.1                          T                                        4910938
SGMF  001.12 250.0 m E Pg      2012/04/12 08:41:48.0  -0.3                          T                                        4910936
SGMF  001.12 250.0 m E Sg      2012/04/12 08:42:03.1   0.1                          T                3.6  .37 Ml 1.9         4912525
ROSF  001.56 259.3 m E Pg      2012/04/12 08:41:56.6   0.2                          T                                        4910934

.
EVENT     273474
    Date      Time       Latitude Longitude    Depth    Ndef Nsta Gap    Mag1  N    Mag2  N    Mag3  N   Author         ID
       rms   OT_Error      Smajor Sminor Az        Err   mdist  Mdist     Err        Err        Err      Quality

2012/04/12 08:47:29.1     45.0820    1.7852       .0 f     8    4 131  Ml 2.4  2  Md 1.8  2              js067245    273494

      0.17   +-  0.06       1.4    1.2   16.12 +-  0.0    0.25   1.25   +-0.3      +-0.0                 m i km

FRANCE
Sta     Dist  EvAz     Phase      Date       Time     TRes  Azim  AzRes  Slow  SRes Def   SNR       Amp   Per   Mag1   Mag2       ID
CAF   000.25 128.2 m E Pg      2012/04/12 08:47:34.3  -0.1                          T                                        4910987
CAF   000.25 128.2 m E Sg      2012/04/12 08:47:38.1   0.1                          T               60.3  .74        Md 1.8  4910985
RJF   000.29 319.6 m E Pg      2012/04/12 08:47:35.2   0.1                          T                                        4910986
RJF   000.29 319.6 m E Sg      2012/04/12 08:47:38.9  -0.3                          T               45.1  .40        Md 1.8  4910984
LFF   000.75 259.5 m E Pg      2012/04/12 08:47:43.6   0.0                          T                                        4912333
LFF   000.75 259.5 m E Sg      2012/04/12 08:47:53.5  -0.1                          T                                        4912334
TCF   001.24 013.7 m E Pn      2012/04/12 08:47:52.3   0.0                          T                                        4910988
TCF   001.24 013.7 m E Sn      2012/04/12 08:48:09.1   0.2                          T               82.4 1.84 Ml 2.6         4910989

.
EVENT     273443
    Date      Time       Latitude Longitude    Depth    Ndef Nsta Gap    Mag1  N    Mag2  N    Mag3  N   Author         ID
       rms   OT_Error      Smajor Sminor Az        Err   mdist  Mdist     Err        Err        Err      Quality

2012/04/12 08:48:20.7     48.4014   -2.9674       .0 f     9    4 197  Ml 1.7  1  Md 1.5  2              bulletin    273463
                                                                                                         _ldg
      4.20   +-  0.75      13.5    9.6   19.14 +-  0.0    0.21   1.41   +-         +-0.0                 m i km

FRANCE
Sta     Dist  EvAz     Phase      Date       Time     TRes  Azim  AzRes  Slow  SRes Def   SNR       Amp   Per   Mag1   Mag2       ID
ROSF  000.21 252.4 m E Pg      2012/04/12 08:48:24.5  -0.8                          T                                        4910997
ROSF  000.21 252.4 m E Sg      2012/04/12 08:48:26.7  -1.7                          T               41.7  .60        Md 1.6  4910996
SGMF  000.31 118.1 m E Pg      2012/04/12 08:48:26.7  -0.3                          T                                        4910994
SGMF  000.31 118.1 m E Sg      2012/04/12 08:48:33.3   1.9                          T                4.1  .41        Md 1.5  4910995
QUIF  000.50 195.4 m E Pg      2012/04/12 08:48:31.6   1.1                          T                                        4910993
QUIF  000.50 195.4 m E Sg      2012/04/12 08:48:40.8   3.4                          T               14.6  .34                4910992
GRR   001.41 089.7 m E Sg      2012/04/12 08:49:03.3  -2.2                          T                1.7  .25 Ml 1.7         4912530

.
EVENT     273475
    Date      Time       Latitude Longitude    Depth    Ndef Nsta Gap    Mag1  N    Mag2  N    Mag3  N   Author         ID
       rms   OT_Error      Smajor Sminor Az        Err   mdist  Mdist     Err        Err        Err      Quality

2012/04/12 09:00:38.9     47.4946   -2.2974       .0 f    16    7 185  Ml 2.2  5  Md 2.0  2              js067245    273495

      0.21   +-  0.09       1.9    1.1   25.19 +-  0.0    0.72   1.83   +-0.2      +-0.0                 m i km

FRANCE
Sta     Dist  EvAz     Phase      Date       Time     TRes  Azim  AzRes  Slow  SRes Def   SNR       Amp   Per   Mag1   Mag2       ID
QUIF  000.72 306.1 m E Pg      2012/04/12 09:00:52.7   0.0                          T                                        4911004
QUIF  000.72 306.1 m E Pn      2012/04/12 09:00:54.9   0.0                          T                                        4912337
QUIF  000.72 306.1 m E Sg      2012/04/12 09:01:02.3   0.0                          T                                        4911000
QUIF  000.72 306.1 m E Sn      2012/04/12 09:01:06.2   0.0                          T                6.5  .19        Md 2.0  4912336
SGMF  000.78 347.2 m E Pg      2012/04/12 09:00:53.7  -0.1                          T                                        4911003
SGMF  000.78 347.2 m E Pn      2012/04/12 09:00:55.7   0.0                          T                                        4912344
SGMF  000.78 347.2 m E Sg      2012/04/12 09:01:03.9  -0.3                          T                                        4911001
SGMF  000.78 347.2 m E Sn      2012/04/12 09:01:07.6   0.0                          T                8.1  .16        Md 2.0  4912335
ROSF  001.07 322.4 m E Pg      2012/04/12 09:00:58.4  -0.7                          T                                        4911002
ROSF  001.07 322.4 m E Sg      2012/04/12 09:01:13.3   0.2                          T                2.6  .16 Ml 2.1         4910999
GRR   001.32 046.7 m E Pg      2012/04/12 09:01:04.1   0.4                          T                                        4912339
GRR   001.32 046.7 m E Sg      2012/04/12 09:01:20.7  -0.2                          T                2.7  .14 Ml 2.1         4912342
MFF   001.72 120.5 m E Pg      2012/04/12 09:01:10.9  -0.2                          T                                        4912340
MFF   001.72 120.5 m E Sg      2012/04/12 09:01:33.7   0.2                          T                3.6  .20 Ml 2.6         4912341
FLN   001.76 043.1 m E Sg      2012/04/12 09:01:34.1  -0.6                          T                2.6  .21 Ml 2.1         4912343
LDF   001.83 052.2 m E Sg      2012/04/12 09:01:37.0   0.2                          T                2.1  .23 Ml 2.1         4912338

.
