BEGIN GSE2.0
MSG_TYPE DATA
MSG_ID 26-JAN-1115:02:53  FRA_NDC
E-MAIL
DATA_TYPE BULLETIN
Reviewed Bulletin (REB) # P2011-003  from French NDC for regional phases     PERIOD 19 JAN 2011 TO 25 JAN 2011 C M., J-P S
EVENT     253949
    Date      Time       Latitude Longitude    Depth    Ndef Nsta Gap    Mag1  N    Mag2  N    Mag3  N   Author         ID
       rms   OT_Error      Smajor Sminor Az        Err   mdist  Mdist     Err        Err        Err      Quality

2011/01/19 01:26:50.2     48.1615    9.0633     10.0      44   14 062  Ml 2.1 14  Md 2.0  3              js067245    253969

      0.27   +-  0.03        .7     .5  133.52 +-  0.0    0.10   3.92   +-0.3      +-0.2                 m i ke

GERMANY
Sta     Dist  EvAz     Phase      Date       Time     TRes  Azim  AzRes  Slow  SRes Def   SNR       Amp   Per   Mag1   Mag2       ID
LANF  001.17 314.9 m E Pn      2011/01/19 01:27:11.1   0.1                          T                                        4584110
LANF  001.17 314.9 m E Pg      2011/01/19 01:27:12.2   0.1                          T                                        4584123
LANF  001.17 314.9 m E Sg      2011/01/19 01:27:27.2  -0.1                          T                4.8  .24 Ml 2.2 Md 2.3  4584124
CDF   001.22 282.5 m E Pn      2011/01/19 01:27:12.0   0.2                          T                                        4584111
CDF   001.22 282.5 m E Pg      2011/01/19 01:27:13.0  -0.2                          T                                        4584130
CDF   001.22 282.5 m E Sg      2011/01/19 01:27:28.8  -0.2                          T                5.0  .22 Ml 2.4 Md 1.9  4584125
HINF  001.52 257.7 m E Pn      2011/01/19 01:27:16.0   0.0                          T                                        4584112
HINF  001.52 257.7 m E Pg      2011/01/19 01:27:18.4  -0.3                          T                                        4584129
HINF  001.52 257.7 m E Sg      2011/01/19 01:27:38.1  -0.3                          T                1.7  .19 Ml 2.0 Md 1.8  4584127
HAU   001.83 266.1 m E Pn      2011/01/19 01:27:19.9  -0.2                          T                                        4584113
HAU   001.83 266.1 m E Pg      2011/01/19 01:27:24.2  -0.1                          T                                        4584128
HAU   001.83 266.1 m E Sg      2011/01/19 01:27:47.7  -0.1                          T                3.2  .31 Ml 2.0         4584126
RUP   002.03 320.2 m E Pn      2011/01/19 01:27:22.8   0.0                          T                                        4584118
RUP   002.03 320.2 m E Pg      2011/01/19 01:27:28.0  -0.1                          T                                        4584119
RUP   002.03 320.2 m E Sg      2011/01/19 01:27:54.1  -0.1                          T                                        4584120
THEF  002.05 273.0 m E Pn      2011/01/19 01:27:23.2   0.1                          T                                        4584114
THEF  002.05 273.0 m E Sg      2011/01/19 01:27:55.0   0.1                          T                2.9  .22 Ml 2.3         4584102
PAGF  002.26 281.3 m E Pn      2011/01/19 01:27:25.8  -0.1 109.3  10.5              T                                        4584117
PAGF  002.26 281.3 m E Sg      2011/01/19 01:28:01.2  -0.2                          T                 .3  .23 Ml 1.4         4584105
SFTF  002.69 272.4 m E Pn      2011/01/19 01:27:31.7  -0.2                          T                                        4584115
SFTF  002.69 272.4 m E Sg      2011/01/19 01:28:14.9   0.0                          T                2.8  .34 Ml 2.3         4584103
MEZF  002.70 278.7 m E Pn      2011/01/19 01:27:31.9   0.1                          T                                        4584116
MEZF  002.70 278.7 m E Sg      2011/01/19 01:28:14.9  -0.1                          T                1.6  .30 Ml 2.1         4584104
LPL   003.09 212.0 m E Pn      2011/01/19 01:27:37.5   0.0                          T                                        4584099
LPL   003.09 212.0 m E Sg      2011/01/19 01:28:27.5  -0.1                          T                 .7  .38 Ml 1.7         4584101
CABF  002.55 233.6 m E Pg      2011/01/19 01:27:37.6  -0.1                          T                                        4584122
CABF  002.55 233.6 m E Sg      2011/01/19 01:28:10.3  -0.1                          T                1.5  .34 Ml 2.0         4584121
LPG   003.10 211.6 m E Pn      2011/01/19 01:27:37.9   0.2                          T                                        4584098
LPG   003.10 211.6 m E Sg      2011/01/19 01:28:27.9   0.0                          T                 .4  .25 Ml 1.7         4584100
LOR   003.63 257.7 m E Pn      2011/01/19 01:27:44.5   0.0  74.3  0.5               T                                        4584109
LOR   003.63 257.7 m E Sg      2011/01/19 01:28:43.9  -0.1                          T                 .9  .18 Ml 2.3         4584107
SSF   003.92 255.7 m E Pn      2011/01/19 01:27:48.3  -0.1                          T                                        4584108
SSF   003.92 255.7 m E Sg      2011/01/19 01:28:53.0   0.0                          T                 .8  .23 Ml 2.3         4584106

.
EVENT     253950
    Date      Time       Latitude Longitude    Depth    Ndef Nsta Gap    Mag1  N    Mag2  N    Mag3  N   Author         ID
       rms   OT_Error      Smajor Sminor Az        Err   mdist  Mdist     Err        Err        Err      Quality

2011/01/19 02:57:57.9     45.1329    7.4850      2.0      18    9 235  Ml 1.9  6  Md 2.1  3              js067245    253970

      0.20   +-  0.14       2.3    1.1   69.87 +-  0.0    0.49   2.01   +-0.1      +-0.0                 m i ke

NORTHERN ITALY
Sta     Dist  EvAz     Phase      Date       Time     TRes  Azim  AzRes  Slow  SRes Def   SNR       Amp   Per   Mag1   Mag2       ID
LPG   000.63 305.4 m E Pg      2011/01/19 02:58:10.3   0.0                          T                                        4584149
LPG   000.63 305.4 m E Sg      2011/01/19 02:58:17.8  -0.7                          T                8.0  .18        Md 2.1  4584144
MBDF  000.65 231.6 m E Pg      2011/01/19 02:58:10.5   0.1                          T                                        4584150
MBDF  000.65 231.6 m E Sg      2011/01/19 02:58:18.8   0.0                          T                7.8  .20        Md 2.0  4584146
LPL   000.65 306.1 m E Pg      2011/01/19 02:58:10.7   0.2                          T                                        4584148
LPL   000.65 306.1 m E Sg      2011/01/19 02:58:18.6  -0.5                          T               11.4  .36        Md 2.0  4584145
ORIF  001.16 259.9 m E Pg      2011/01/19 02:58:19.9   0.2                          T                                        4584147
ORIF  001.16 259.9 m E Sg      2011/01/19 02:58:34.6   0.0                          T                5.9  .42 Ml 2.0         4584137
SBF   001.27 181.6 m E Pg      2011/01/19 02:58:21.7   0.0                          T                                        4584142
SBF   001.27 181.6 m E Sg      2011/01/19 02:58:38.1  -0.1                          T                1.6  .20 Ml 1.8         4584134
FRF   001.68 201.2 m E Pg      2011/01/19 02:58:29.0  -0.3                          T                                        4584143
FRF   001.68 201.2 m E Sg      2011/01/19 02:58:51.0   0.0                          T                1.7  .21 Ml 2.1         4584136
SMRF  001.79 230.4 m E Pg      2011/01/19 02:58:31.2   0.0                          T                                        4584141
SMRF  001.79 230.4 m E Sg      2011/01/19 02:58:54.2  -0.1                          T                2.6  .50 Ml 1.9         4584133
LMR   001.93 201.6 m E Pg      2011/01/19 02:58:33.1  -0.7                          T                                        4584140
LMR   001.93 201.6 m E Sg      2011/01/19 02:58:58.5  -0.1                          T                2.8  .42 Ml 2.0         4584135
VIVF  002.01 263.1 m E Pg      2011/01/19 02:58:35.4   0.1                          T                                        4584138
VIVF  002.01 263.1 m E Sg      2011/01/19 02:59:01.3   0.0                          T                1.2  .35 Ml 1.7         4584139

.
EVENT     253947
    Date      Time       Latitude Longitude    Depth    Ndef Nsta Gap    Mag1  N    Mag2  N    Mag3  N   Author         ID
       rms   OT_Error      Smajor Sminor Az        Err   mdist  Mdist     Err        Err        Err      Quality

2011/01/19 06:18:22.9     40.9617    1.6907     10.0      34    6 190  Ml 2.0  4                         js067245    253967

      0.56   +-  0.17       3.0    1.7  135.80 +-  0.0    0.35   4.04   +-0.3                            m i ke

BALEARIC ISLANDS, SPAIN
Sta     Dist  EvAz     Phase      Date       Time     TRes  Azim  AzRes  Slow  SRes Def   SNR       Amp   Per   Mag1   Mag2       ID
EPF   002.30 334.5 m E Pn      2011/01/19 06:18:59.8   0.6                          T                                        4584162
EPF   002.30 334.5 m E Sn      2011/01/19 06:19:25.9   0.1                          T                                        4585042
EPF   002.30 334.5 m E Sg      2011/01/19 06:19:35.7   0.4                          T                3.3  .26 Ml 2.4         4584156
MTLF  002.41 009.2 m E Pn      2011/01/19 06:19:00.9   0.3                          T                                        4584159
MTLF  002.41 009.2 m E Sn      2011/01/19 06:19:28.2  -0.2                          T                                        4585041
MTLF  002.41 009.2 m E Sg      2011/01/19 06:19:38.9   0.2                          T                 .6  .16 Ml 1.9         4584154
ETSF  002.56 319.8 m E Pn      2011/01/19 06:19:03.5   0.7                          T                                        4584161
ETSF  002.56 319.8 m E Sn      2011/01/19 06:19:32.4   0.3                          T                                        4585043
ETSF  002.56 319.8 m E Sg      2011/01/19 06:19:44.2   0.7                          T                 .9  .29 Ml 1.8         4584155
SJPF  003.06 315.7 m E Pn      2011/01/19 06:19:09.7   0.3                          T                                        4584160
SJPF  003.06 315.7 m E Sn      2011/01/19 06:19:43.8  -0.1                          T                                        4585036
SJPF  003.06 315.7 m E Sg      2011/01/19 06:19:59.4   0.6                          T                 .6  .23 Ml 1.9         4584158
CAF   003.97 003.8 m E Pn      2011/01/19 06:19:21.6  -0.3                          T                                        4585039
CAF   003.97 003.8 m E Sn      2011/01/19 06:20:05.5  -0.3                          T                                        4585037
LFF   004.04 350.4 m E Pn      2011/01/19 06:19:22.7   0.0                          T                                        4585040
LFF   004.04 350.4 m E Sn      2011/01/19 06:20:07.3   0.1                          T                                        4585038

.
EVENT     253980
    Date      Time       Latitude Longitude    Depth    Ndef Nsta Gap    Mag1  N    Mag2  N    Mag3  N   Author         ID
       rms   OT_Error      Smajor Sminor Az        Err   mdist  Mdist     Err        Err        Err      Quality

2011/01/19 13:03:17.2     47.6297    7.8839       .0 f    22   10 233  Ml 2.2 10  Md 2.1  3              js067245    254000

      0.61   +-  0.13       2.3    1.4  118.92 +-  0.0    0.72   3.20   +-0.3      +-0.0                 m i km

SWITZERLAND
Sta     Dist  EvAz     Phase      Date       Time     TRes  Azim  AzRes  Slow  SRes Def   SNR       Amp   Per   Mag1   Mag2       ID
HINF  000.72 285.4 m E Pg      2011/01/19 13:03:31.2   0.0                          T                                        4584600
HINF  000.72 285.4 m E Sg      2011/01/19 13:03:40.7  -0.1                          T                9.4  .20        Md 2.1  4584596
CDF   000.88 332.7 m E Pg      2011/01/19 13:03:34.3   0.1                          T                                        4584602
CDF   000.88 332.7 m E Sg      2011/01/19 13:03:45.7  -0.2                          T                9.4  .26 Ml 2.4 Md 2.2  4584598
HAU   001.10 290.5 m E Pg      2011/01/19 13:03:38.5   0.3                          T                                        4584601
HAU   001.10 290.5 m E Sg      2011/01/19 13:03:52.5  -0.1                          T               10.0  .28 Ml 2.2 Md 2.1  4584597
LANF  001.35 357.8 m E Pg      2011/01/19 13:03:42.8   0.0                          T                                        4584593
LANF  001.35 357.8 m E Sg      2011/01/19 13:04:00.1  -0.3                          T                4.3  .27 Ml 2.2         4584594
THEF  001.41 295.9 m E Pg      2011/01/19 13:03:43.6  -0.1                          T                                        4584599
THEF  001.41 295.9 m E Sg      2011/01/19 13:04:01.9  -0.2                          T                7.2  .26 Ml 2.4         4584595
CABF  001.59 230.9 m E Pn      2011/01/19 13:03:45.2  -0.1                          T                                        4584586
CABF  001.59 230.9 m E Sg      2011/01/19 13:04:08.1   0.0                          T                 .8  .22 Ml 1.7         4584584
SFTF  002.00 287.8 m E Pn      2011/01/19 13:03:50.7   0.0 111.8  6.1               T                                        4584587
SFTF  002.00 287.8 m E Sg      2011/01/19 13:04:20.6   0.0 108.1  2.4               T                7.5  .46 Ml 2.4         4584588
LOR   002.76 263.9 m E Pn      2011/01/19 13:04:01.1   0.1  76.6  -4.4              T                                        4584592
LOR   002.76 263.9 m E Sg      2011/01/19 13:04:44.4   0.1                          T                2.1  .37 Ml 2.1         4584590
SSF   003.03 260.8 m E Pn      2011/01/19 13:04:04.6  -0.1                          T                                        4584591
SSF   003.03 260.8 m E Sg      2011/01/19 13:04:52.7  -0.1                          T                1.3  .37 Ml 2.1         4584589
AVF   003.20 256.5 m E Pn      2011/01/19 13:04:07.1   0.1                          T                                        4584585
AVF   003.20 256.5 m E Sg      2011/01/19 13:04:58.2   0.1                          T                 .7  .36 Ml 1.8         4584583

.
