EVENT     255244
    Date      Time       Latitude Longitude    Depth    Ndef Nsta Gap    Mag1  N    Mag2  N    Mag3  N   Author         ID
       rms   OT_Error      Smajor Sminor Az        Err   mdist  Mdist     Err        Err        Err      Quality

2011/01/27 11:28:51.9     43.2760    3.7014      2.0      42   16 177  Ml 2.5 18  Md 2.4  3              js067245    255264

      0.25   +-  0.05       1.0     .7  169.51 +-  0.0    0.81   3.99   +-0.2      +-0.0                 m i ke

NEAR SOUTH COAST OF FRANCE
Sta     Dist  EvAz     Phase      Date       Time     TRes  Azim  AzRes  Slow  SRes Def   SNR       Amp   Per   Mag1   Mag2       ID
LASF  000.81 008.0 m E Pg      2011/01/27 11:29:07.3   0.2                          T                                        4639238
LASF  000.81 008.0 m E Sg      2011/01/27 11:29:17.4  -0.2                          T               35.7  .30        Md 2.4  4639268
MTLF  001.09 273.9 m E Pg      2011/01/27 11:29:12.4   0.2                          T                                        4639237
MTLF  001.09 273.9 m E Sg      2011/01/27 11:29:26.5   0.2                          T               22.2  .20 Ml 2.9 Md 2.3  4639269
SMRF  001.53 062.1 m E Pn      2011/01/27 11:29:18.8   0.2                          T                                        4639624
SMRF  001.53 062.1 m E Pg      2011/01/27 11:29:21.3   0.9                          T                                        4639241
SMRF  001.53 062.1 m E Sg      2011/01/27 11:29:40.7   0.5                          T                6.7  .39 Ml 2.3 Md 2.4  4639246
VIVF  001.73 023.6 m E Pn      2011/01/27 11:29:21.2   0.0                          T                                        4639625
VIVF  001.73 023.6 m E Pg      2011/01/27 11:29:24.1   0.1                          T                                        4639236
VIVF  001.73 023.6 m E Sg      2011/01/27 11:29:45.6  -0.8                          T               17.0  .26 Ml 3.0         4639267
CAF   002.03 325.0 m E Pn      2011/01/27 11:29:25.2  -0.1                          T                                        4639626
CAF   002.03 325.0 m E Pg      2011/01/27 11:29:29.6   0.0                          T                                        4639250
CAF   002.03 325.0 m E Sg      2011/01/27 11:29:55.5  -0.2                          T                5.9  .32 Ml 2.5         4639265
FRF   002.16 081.4 m E Pn      2011/01/27 11:29:27.1  -0.1                          T                                        4639623
FRF   002.16 081.4 m E Pg      2011/01/27 11:29:31.7  -0.4                          T                                        4639242
FRF   002.16 081.4 m E Sg      2011/01/27 11:30:00.3   0.3                          T                5.8  .23 Ml 2.7         4639245
LMR   002.05 087.4 m E Pg      2011/01/27 11:29:29.6  -0.3                          T                                        4639243
LMR   002.05 087.4 m E Sg      2011/01/27 11:29:56.3  -0.1                          T                6.9  .27 Ml 2.6         4639244
EPF   002.47 265.4 m E Pn      2011/01/27 11:29:31.3  -0.1                          T                                        4639628
EPF   002.47 265.4 m E P       2011/01/27 11:29:33.7  -0.2                          T                                        4639249
EPF   002.47 265.4 m E Pg      2011/01/27 11:29:37.8   0.0                          T                                        4639627
EPF   002.47 265.4 m E Sg      2011/01/27 11:30:09.3  -0.3                          T                5.6  .22 Ml 2.7         4639266
MBDF  002.65 055.7 m E Pn      2011/01/27 11:29:34.2   0.3                          T                                        4639240
MBDF  002.65 055.7 m E Sn      2011/01/27 11:30:05.2   0.5                          T                2.0  .30 Ml 2.2         4639239
RJF   002.56 323.0 m E Pg      2011/01/27 11:29:39.3  -0.1                          T                                        4639252
RJF   002.56 323.0 m E Sg      2011/01/27 11:30:12.4   0.0                          T                4.6  .28 Ml 2.2         4639263
LFF   002.70 309.0 m E Pg      2011/01/27 11:29:41.9  -0.1                          T                                        4639251
LFF   002.70 309.0 m E Sg      2011/01/27 11:30:16.5  -0.3                          T               13.7  .51 Ml 2.6         4639264
ETSF  003.14 264.6 m E Pg      2011/01/27 11:29:50.3   0.1                          T                                        4639248
ETSF  003.14 264.6 m E Sg      2011/01/27 11:30:30.6   0.0                          T                3.4  .45 Ml 2.3         4639247
TCF   003.19 341.1 m E Pg      2011/01/27 11:29:51.2   0.1                          T                                        4639255
TCF   003.19 341.1 m E Sg      2011/01/27 11:30:31.9  -0.3                          T                3.7  .45 Ml 2.4         4639258
BGF   003.34 349.8 m E Pg      2011/01/27 11:29:53.8   0.1                          T                                        4639254
BGF   003.34 349.8 m E Sg      2011/01/27 11:30:36.3  -0.3                          T                7.6  .41 Ml 2.8         4639261
SSF   003.79 358.0 m E Pg      2011/01/27 11:30:02.1   0.1                          T                                        4639256
SSF   003.79 358.0 m E Sg      2011/01/27 11:30:50.4  -0.2                          T                2.8  .41 Ml 2.5         4639259
LOR   003.99 001.5 m E Pg      2011/01/27 11:30:05.9   0.1                          T                                        4639257
LOR   003.99 001.5 m E Sg      2011/01/27 11:30:57.0  -0.1                          T                4.5  .41 Ml 2.7         4639260

.
EVENT     255252
    Date      Time       Latitude Longitude    Depth    Ndef Nsta Gap    Mag1  N    Mag2  N    Mag3  N   Author         ID
       rms   OT_Error      Smajor Sminor Az        Err   mdist  Mdist     Err        Err        Err      Quality

2011/01/27 15:57:18.1     47.1521    6.2576       .0 f    14    6 161  Ml 2.1  5  Md 1.9  3              js067245    255272

      0.61   +-  0.16       3.6    2.1  124.57 +-  0.0    0.55   1.64   +-0.1      +-0.0                 m i km

FRANCE
Sta     Dist  EvAz     Phase      Date       Time     TRes  Azim  AzRes  Slow  SRes Def   SNR       Amp   Per   Mag1   Mag2       ID
CABF  000.55 192.2 m E Pg      2011/01/27 15:57:29.0   0.0                          T                                        4639394
CABF  000.55 192.2 m E Sg      2011/01/27 15:57:36.5   0.1                          T                3.4  .38        Md 1.9  4639395
HINF  000.78 031.1 m E Pg      2011/01/27 15:57:32.8  -0.3                          T                                        4639399
HINF  000.78 031.1 m E Sg      2011/01/27 15:57:43.0  -0.4                          T               10.6  .34        Md 1.9  4639398
HAU   000.86 004.1 m E Pg      2011/01/27 15:57:34.2  -0.3                          T                                        4639401
HAU   000.86 004.1 m E Sg      2011/01/27 15:57:46.1   0.3                          T               11.9  .36 Ml 2.0 Md 1.9  4639397
THEF  001.09 350.7 m E Pg      2011/01/27 15:57:39.4   0.6                          T                                        4639400
THEF  001.09 350.7 m E Sg      2011/01/27 15:57:53.5   0.3                          T                2.7  .15 Ml 2.1         4639396
CDF   001.44 028.2 m E Pg      2011/01/27 15:57:45.5   0.3                          T                                        4639393
CDF   001.44 028.2 m E Sg      2011/01/27 15:58:02.9  -1.1                          T                4.5  .38 Ml 2.2         4639392
LOR   001.64 274.9 m E Pg      2011/01/27 15:57:49.1   0.3  94.5  1.4               T                                        4639390
LOR   001.64 274.9 m E Sg      2011/01/27 15:58:09.3  -0.9  98.6  5.4               T                1.5  .19 Ml 2.0         4639391

.
EVENT     255253
    Date      Time       Latitude Longitude    Depth    Ndef Nsta Gap    Mag1  N    Mag2  N    Mag3  N   Author         ID
       rms   OT_Error      Smajor Sminor Az        Err   mdist  Mdist     Err        Err        Err      Quality

2011/01/27 20:15:13.1     43.0114     .1627      3.0 f    14    4 137  Ml 1.3  3  Md 1.3  2              js067245    255273

      0.41   +-  0.09       3.5    1.4  173.84 +-  0.0    0.07   1.79   +-0.3      +-0.1                 m i ke

FRANCE
Sta     Dist  EvAz     Phase      Date       Time     TRes  Azim  AzRes  Slow  SRes Def   SNR       Amp   Per   Mag1   Mag2       ID
EPF   000.13 081.7 m E Pg      2011/01/27 20:15:16.1   0.1                          T                                        4639411
EPF   000.13 081.7 m E Sg      2011/01/27 20:15:18.2   0.2                          T                4.2  .17        Md 1.4  4639406
ETSF  000.54 258.2 m E Pg      2011/01/27 20:15:23.4  -0.1                          T                                        4639410
ETSF  000.54 258.2 m E Sg      2011/01/27 20:15:30.2  -0.5                          T                3.0  .36        Md 1.2  4639407
SJPF  001.02 276.2 m E Pg      2011/01/27 20:15:32.0  -0.3                          T                                        4639404
SJPF  001.02 276.2 m E Sg      2011/01/27 20:15:45.1  -0.5                          T                 .4  .25 Ml 1           4639405
MTLF  001.54 076.9 m E Pg      2011/01/27 20:15:41.8   0.0                          T                                        4639409
MTLF  001.54 076.9 m E Sg      2011/01/27 20:16:01.4  -0.3                          T                 .6  .22 Ml 1.5         4639408

.
EVENT     255254
    Date      Time       Latitude Longitude    Depth    Ndef Nsta Gap    Mag1  N    Mag2  N    Mag3  N   Author         ID
       rms   OT_Error      Smajor Sminor Az        Err   mdist  Mdist     Err        Err        Err      Quality

2011/01/28 05:08:04.3     45.0775    7.2373      2.0      12    5 212  Ml 2.1  3  Md 2.0  3              js067245    255274

      0.38   +-  0.17       3.3    1.7   73.82 +-  0.0    0.48   1.22   +-0.1      +-0.0                 m i ke

NORTHERN ITALY
Sta     Dist  EvAz     Phase      Date       Time     TRes  Azim  AzRes  Slow  SRes Def   SNR       Amp   Per   Mag1   Mag2       ID
MBDF  000.48 223.5 m E Pg      2011/01/28 05:08:13.5  -0.2                          T                                        4639423
MBDF  000.48 223.5 m E Sg      2011/01/28 05:08:19.5  -0.5                          T               17.7  .22        Md 2.0  4639419
LPG   000.54 320.9 m E Pg      2011/01/28 05:08:14.7  -0.3                          T                                        4639421
LPG   000.54 320.9 m E Sg      2011/01/28 05:08:22.0  -0.1                          T                9.1  .20        Md 2.0  4639416
LPL   000.57 321.1 m E Pg      2011/01/28 05:08:15.2  -0.1                          T                                        4639422
LPL   000.57 321.1 m E Sg      2011/01/28 05:08:22.8   0.0                          T               17.4  .48        Md 2.0  4639417
ORIF  000.98 261.1 m E Pg      2011/01/28 05:08:23.1   0.4                          T                                        4639420
ORIF  000.98 261.1 m E Sg      2011/01/28 05:08:34.8  -0.6                          T                7.0  .30 Ml 2.2         4639418
SBF   001.22 173.3 m E Pg      2011/01/28 05:08:27.2   0.0                          T                                        4639414
SBF   001.22 173.3 m E Sg      2011/01/28 05:08:42.9  -0.1                          T                2.8  .26 Ml 1.9         4639415

.
EVENT     255327
    Date      Time       Latitude Longitude    Depth    Ndef Nsta Gap    Mag1  N    Mag2  N    Mag3  N   Author         ID
       rms   OT_Error      Smajor Sminor Az        Err   mdist  Mdist     Err        Err        Err      Quality

2011/01/28 14:36:38.5     47.7539    8.6533       .0 f    22   10 144  Ml 2.3  9  Md 2.2  3              js067245    255347

      0.47   +-  0.07       1.6    1.0   42.54 +-  0.0    0.11   2.53   +-0.3      +-0.3                 m i km

SWITZERLAND
Sta     Dist  EvAz     Phase      Date       Time     TRes  Azim  AzRes  Slow  SRes Def   SNR       Amp   Per   Mag1   Mag2       ID
CDF   001.13 306.0 m E Pg      2011/01/28 14:37:00.2   0.1                          T                                        4639733
CDF   001.13 306.0 m E Sg      2011/01/28 14:37:15.6   0.6                          T               16.3  .43 Ml 2.6 Md 2.0  4639732
HINF  001.22 273.6 m E Pg      2011/01/28 14:37:01.6   0.1                          T                                        4639735
HINF  001.22 273.6 m E Sg      2011/01/28 14:37:17.1  -0.3                          T               10.7  .40 Ml 2.3 Md 2.0  4639730
LANF  001.35 335.6 m E Pg      2011/01/28 14:37:03.8  -0.2                          T                                        4639744
LANF  001.35 335.6 m E Sg      2011/01/28 14:37:21.5  -0.1                          T                5.4  .33 Ml 2.2 Md 2.5  4639743
HAU   001.57 280.1 m E Pg      2011/01/28 14:37:07.7  -0.4                          T                                        4639734
HAU   001.57 280.1 m E Sg      2011/01/28 14:37:28.4  -0.2                          T               17.3  .48 Ml 2.4         4639731
THEF  001.85 285.9 m E Pg      2011/01/28 14:37:13.2   0.1                          T                                        4639748
THEF  001.85 285.9 m E Sg      2011/01/28 14:37:37.0  -0.1                          T               10.5  .50 Ml 2.5         4639749
CABF  002.09 237.8 m E Pg      2011/01/28 14:37:17.6  -0.1                          T                                        4639738
CABF  002.09 237.8 m E Sg      2011/01/28 14:37:44.6  -0.2                          T                2.5  .37 Ml 2.1         4639739
PAGF  002.12 293.3 m E Pg      2011/01/28 14:37:17.9  -0.2                          T                                        4639745
PAGF  002.12 293.3 m E Sg      2011/01/28 14:37:45.4  -0.2 118.7  7.5               T                  1  .50 Ml 1.5         4639742
RUP   002.22 332.2 m E Pg      2011/01/28 14:37:20.0   0.0                          T                                        4639737
RUP   002.22 332.2 m E Sg      2011/01/28 14:37:48.6   0.0                          T                                        4639736
SFTF  002.47 281.9 m E Pg      2011/01/28 14:37:24.7   0.1 101.6  2.4               T                                        4639747
SFTF  002.47 281.9 m E Sg      2011/01/28 14:37:56.4  -0.1                          T                3.8  .37 Ml 2.3         4639740
MEZF  002.53 288.6 m E Pg      2011/01/28 14:37:25.8   0.2                          T                                        4639746
MEZF  002.53 288.6 m E Sg      2011/01/28 14:37:58.3   0.0                          T                5.8  .50 Ml 2.4         4639741

.
