EVENT     270611
    Date      Time       Latitude Longitude    Depth    Ndef Nsta Gap    Mag1  N    Mag2  N    Mag3  N   Author         ID
       rms   OT_Error      Smajor Sminor Az        Err   mdist  Mdist     Err        Err        Err      Quality

2012/02/24 00:32:30.2     47.2098    8.5306     30.0     132   37 016                                    js067245    270632

                                               +-         0.13   7.55                                    m i ke

SWITZERLAND
Sta     Dist  EvAz     Phase      Date       Time     TRes  Azim  AzRes  Slow  SRes Def   SNR       Amp   Per   Mag1   Mag2       ID
HINF  001.29 298.7 m E P       2012/02/24 00:32:51.8  -0.7                          T                                        4847143
HINF  001.29 298.7 m E Sn      2012/02/24 00:33:06.5  -0.1                          T              148.7  .26                4847107
CDF   001.47 325.4 m E P       2012/02/24 00:32:54.5  -0.6                          T                                        4847150
CDF   001.47 325.4 m E Sn      2012/02/24 00:33:11.2   0.3                          T              204.6  .38                4847102
HAU   001.68 299.1 m E P       2012/02/24 00:32:57.4  -0.7                          T                                        4847144
HAU   001.68 299.1 m E Sn      2012/02/24 00:33:15.5  -0.3                          T              266.5  .34                4847106
CABF  001.78 251.2 m E Pn      2012/02/24 00:32:58.0   0.1                          T                                        4847142
CABF  001.78 251.2 m E Sn      2012/02/24 00:33:17.8  -0.5                          T               87.2  .30                4847108
LANF  001.84 344.9 m E P       2012/02/24 00:32:59.6  -0.7                          T                                        4847151
THEF  001.99 301.7 m E P       2012/02/24 00:33:02.3  -0.3                          T                                        4847145
LPL   002.10 217.0 m E Pn      2012/02/24 00:33:03.2   0.7                          T                                        4847124
LPL   002.10 217.0 m E Sn      2012/02/24 00:33:25.4  -0.7                          T               39.8  .38                4847113
LPG   002.11 216.4 m E Pn      2012/02/24 00:33:03.5   0.8                          T                                        4847123
LPG   002.11 216.4 m E Sn      2012/02/24 00:33:26.1  -0.2                          T               34.1  .32                4847114
PAGF  002.32 306.5 m E Pn      2012/02/24 00:33:05.2   0.1 131.1  6.7               T                                        4847148
PAGF  002.32 306.5 m E P       2012/02/24 00:33:07.0  -0.2                          T                                        4847149
PAGF  002.32 306.5 m E Sn      2012/02/24 00:33:31.0   0.0                          T                7.0  .19                4847103
SFTF  002.56 294.2 m E P       2012/02/24 00:33:09.8  -0.8 120.5  8.9               T                                        4847146
SFTF  002.56 294.2 m E Sn      2012/02/24 00:33:36.7   0.0                          T               31.1  .19                4847105
MEZF  002.68 300.2 m E P       2012/02/24 00:33:11.7  -0.6 120.8  3.2               T                                        4847147
MEZF  002.68 300.2 m E Sn      2012/02/24 00:33:39.4   0.0                          T               49.6  .40                4847104
MBDF  002.77 206.9 m E P       2012/02/24 00:33:13.3  -0.5                          T                                        4847126
MBDF  002.77 206.9 m E Sn      2012/02/24 00:33:42.6   0.7                          T               36.5  .38                4847111
ORIF  002.94 219.8 m E Pn      2012/02/24 00:33:14.0   0.3                          T                                        4847125
ORIF  002.94 219.8 m E Sn      2012/02/24 00:33:46.3   0.3                          T               15.8  .26                4847112
LOR   003.18 272.8 m E Pn      2012/02/24 00:33:17.7   0.9  97.7  8.4               T                                        4847156
LOR   003.18 272.8 m E Sn      2012/02/24 00:33:51.5  -0.1                          T               29.1  .18                4847098
SMF   003.26 261.7 m E Pn      2012/02/24 00:33:18.1   0.2                          T                                        4847139
SSF   003.43 269.4 m E Pn      2012/02/24 00:33:21.1   0.9                          T                                        4847155
SSF   003.43 269.4 m E Sn      2012/02/24 00:33:55.7  -1.8                          T                8.0  .26                4847099
SBF   003.43 193.3 m E Pn      2012/02/24 00:33:21.4   1.0                          T                                        4847119
SBF   003.43 193.3 m E Sn      2012/02/24 00:33:57.6  -0.1                          T               17.3  .38                4847117
VIVF  003.57 230.2 m E Pn      2012/02/24 00:33:21.4  -0.7                          T                                        4847127
VIVF  003.57 230.2 m E Sn      2012/02/24 00:34:00.9   0.0                          T               18.1  .30                4847110
AVF   003.57 265.1 m E Pn      2012/02/24 00:33:22.4   0.4                          T                                        4847140
SMRF  003.84 213.7 m E Pn      2012/02/24 00:33:26.0   0.2                          T                                        4847122
SMRF  003.84 213.7 m E Sn      2012/02/24 00:34:07.4   0.1                          T                5.0  .30                4847115
GIVF  003.80 321.0 m E Pn      2012/02/24 00:33:26.1   0.9                          T                                        4847153
FRF   003.88 200.7 m E Pn      2012/02/24 00:33:26.7   0.3                          T                                        4847121
BGF   003.95 262.6 m E Pn      2012/02/24 00:33:27.6   0.3                          T                                        4847138
BGF   003.95 262.6 m E Sn      2012/02/24 00:34:10.0   0.1                          T               16.5  .24                4847109
LMR   004.13 200.9 m E Pn      2012/02/24 00:33:30.0   0.4                          T                                        4847120
LMR   004.13 200.9 m E Sn      2012/02/24 00:34:13.8  -0.4                          T                1.2  .17                4847116
HYF   004.01 273.0 m E P       2012/02/24 00:33:30.3  -1.0                          T                                        4847141
BAIF  004.04 316.4 m E P       2012/02/24 00:33:31.3  -0.4                          T                                        4847152
BAIF  004.04 316.4 m E Sn      2012/02/24 00:34:12.3   0.3                          T               17.4  .54                4847101
TCF   004.44 260.3 m E Pn      2012/02/24 00:33:34.1   0.1                          T                                        4847154
TCF   004.44 260.3 m E Sn      2012/02/24 00:34:20.7  -0.9                          T               10.6  .52                4847100
LASF  004.53 228.0 m E Pn      2012/02/24 00:33:35.3   0.1                          T                                        4847128
PGF   004.67 175.7 m E Pn      2012/02/24 00:33:37.3   0.1                          T                                        4847118
CAF   005.05 245.4 m E Pn      2012/02/24 00:33:42.2   0.0                          T                                        4847131
RJF   005.22 251.2 m E Pn      2012/02/24 00:33:44.3  -0.3                          T                                        4847129
LFF   005.88 250.1 m E Pn      2012/02/24 00:33:53.2  -0.2                          T                                        4847130
MFF   005.98 267.3 m E Pn      2012/02/24 00:33:55.8   1.0                          T                                        4847132
MFF   005.98 267.3 m E Sn      2012/02/24 00:34:57.0  -1.2                          T                3.7  .34                4847097
LDF   005.98 286.6 m E Pn      2012/02/24 00:33:55.8   1.0                          T                                        4847134
FLN   006.25 287.7 m E Pn      2012/02/24 00:33:59.5   1.1 114.3  13.2              T                                        4847135
GRR   006.43 284.0 m E Pn      2012/02/24 00:34:01.8   0.8                          T                                        4847133
SGMF  007.55 282.0 m E Pn      2012/02/24 00:34:17.2   1.0                          T                                        4847136

.
EVENT     270621
    Date      Time       Latitude Longitude    Depth    Ndef Nsta Gap    Mag1  N    Mag2  N    Mag3  N   Author         ID
       rms   OT_Error      Smajor Sminor Az        Err   mdist  Mdist     Err        Err        Err      Quality

2012/02/24 01:50:07.8     48.7797    8.6475     18.0 f    36   11 052  Ml 2.3  9                         js067245    270642

      0.36   +-  0.05       1.0    1.0  134.65 +-  0.0    0.15   4.09   +-0.4                            m i ke

GERMANY
Sta     Dist  EvAz     Phase      Date       Time     TRes  Azim  AzRes  Slow  SRes Def   SNR       Amp   Per   Mag1   Mag2       ID
LANF  000.59 290.2 m E Pg      2012/02/24 01:50:20.0   0.6                          T                                        4847157
LANF  000.59 290.2 m E Sg      2012/02/24 01:50:28.3   0.9                          T                                        4847158
CDF   000.98 248.5 m E Pg      2012/02/24 01:50:26.3  -0.2                          T   001.0                                4845971
CDF   000.98 248.5 m E Sg      2012/02/24 01:50:39.5   0.0                          T   001.0       21.1  .20 Ml 2.9         4845972
HINF  001.54 231.9 m E Pn      2012/02/24 01:50:32.6  -0.2                          T   001.0                                4845979
HINF  001.54 231.9 m E Pg      2012/02/24 01:50:36.7   0.0                          T   001.0                                4845980
HINF  001.54 231.9 m E Sn      2012/02/24 01:50:51.2   0.1                          T                                        4847179
HINF  001.54 231.9 m E Sg      2012/02/24 01:50:56.7   0.1                          T   001.0        4.4  .24 Ml 2.3         4845981
HAU   001.72 244.0 m E Pn      2012/02/24 01:50:34.9  -0.4                          T   001.0                                4845973
HAU   001.72 244.0 m E Pg      2012/02/24 01:50:40.0   0.1                          T                                        4847180
HAU   001.72 244.0 m E Sn      2012/02/24 01:50:55.3  -0.1                          T                                        4847178
HAU   001.72 244.0 m E Sg      2012/02/24 01:51:01.7  -0.5                          T   001.0        5.1  .28 Ml 2.2         4845974
THEF  001.85 253.6 m E Pn      2012/02/24 01:50:37.0  -0.1                          T                                        4847177
THEF  001.85 253.6 m E Pg      2012/02/24 01:50:42.2  -0.2                          T                                        4847176
THEF  001.85 253.6 m E Sg      2012/02/24 01:51:06.0  -0.3                          T                5.8  .27 Ml 2.5         4847175
PAGF  001.95 264.5 m E Pg      2012/02/24 01:50:43.9  -0.3                          T                                        4847182
PAGF  001.95 264.5 m E Sg      2012/02/24 01:51:09.4   0.1                          T                 .6  .23 Ml 1.6         4847173
MEZF  002.40 264.7 m E Pg      2012/02/24 01:50:52.3  -0.1                          T                                        4847181
MEZF  002.40 264.7 m E Sg      2012/02/24 01:51:22.8  -0.6                          T   001.0        6.7  .64 Ml 2.3         4845982
BAIF  003.17 295.5 m E Pn      2012/02/24 01:50:55.7   0.8                          T   001.0                                4845978
LOR   003.55 246.6 m E Pn      2012/02/24 01:50:59.7  -0.5                          T   001.0                                4845975
LOR   003.55 246.6 m E Sn      2012/02/24 01:51:38.8  -0.4                          T   001.0                                4845976
LOR   003.55 246.6 m E Sg      2012/02/24 01:51:59.4   0.1                          T   001.0          1  .20 Ml 2.3         4845977
SFTF  002.47 257.9 m E Sg      2012/02/24 01:51:25.4  -0.2                          T                3.3  .26 Ml 2.4         4847174
AVF   004.09 242.8 m E Sn      2012/02/24 01:51:52.4   0.5                          T   001.0        1.5  .72 Ml 2.0         4845970

.
EVENT     270641
    Date      Time       Latitude Longitude    Depth    Ndef Nsta Gap    Mag1  N    Mag2  N    Mag3  N   Author         ID
       rms   OT_Error      Smajor Sminor Az        Err   mdist  Mdist     Err        Err        Err      Quality

2012/02/24 01:50:32.3     48.7664    8.6443     20.0 f    15    9 120  Ml 1.8  8                         js067245    270662

      0.36   +-  0.12       2.0    1.4   29.08 +-  0.0    0.14   3.54   +-0.3                            m i ke

GERMANY
Sta     Dist  EvAz     Phase      Date       Time     TRes  Azim  AzRes  Slow  SRes Def   SNR       Amp   Per   Mag1   Mag2       ID
LANF  000.59 291.5 m E Pg      2012/02/24 01:50:44.3   0.2                          T                                        4847159
LANF  000.59 291.5 m E Sg      2012/02/24 01:50:52.7   0.5                          T                                        4847162
CDF   000.98 249.2 m E Pg      2012/02/24 01:50:50.7  -0.3                          T                                        4847160
CDF   000.98 249.2 m E Sg      2012/02/24 01:51:03.8  -0.1                          T                3.4  .19 Ml 2.2         4847161
HAU   001.71 244.4 m E Pn      2012/02/24 01:50:59.2  -0.2                          T                                        4847183
HAU   001.71 244.4 m E Sn      2012/02/24 01:51:19.6   0.2                          T                                        4847184
HAU   001.71 244.4 m E Sg      2012/02/24 01:51:26.0  -0.6                          T                2.0  .27 Ml 1.8         4847164
HINF  001.53 232.2 m E Sn      2012/02/24 01:51:15.5   0.5                          T                                        4847185
HINF  001.53 232.2 m E Sg      2012/02/24 01:51:21.1   0.2                          T                2.3  .23 Ml 2.1         4847165
THEF  001.84 254.0 m E Sg      2012/02/24 01:51:30.4  -0.3                          T                1.4  .22 Ml 2.0         4847186
PAGF  001.95 264.9 m E Sg      2012/02/24 01:51:33.9   0.1                          T                 .3  .32 Ml 1.1         4847188
MEZF  002.40 265.0 m E Sg      2012/02/24 01:51:47.2  -0.7                          T                1.2  .29 Ml 1.9         4847163
SFTF  002.46 258.2 m E Sg      2012/02/24 01:51:49.7  -0.3                          T                 .5  .21 Ml 1.7         4847187
LOR   003.54 246.8 m E Sg      2012/02/24 01:52:23.9   0.3                          T                 .4  .21 Ml 1.8         4847166

.
EVENT     270623
    Date      Time       Latitude Longitude    Depth    Ndef Nsta Gap    Mag1  N    Mag2  N    Mag3  N   Author         ID
       rms   OT_Error      Smajor Sminor Az        Err   mdist  Mdist     Err        Err        Err      Quality

2012/02/24 04:04:14.6     42.9074   -1.4872      2.0      19    3 150  Ml 1.0  1  Md 1.4  2              js067245    270644

      0.31   +-  0.11       1.8    1.5  103.76 +-  0.0    0.13   1.40   +-         +-0.1                 m i ke

PYRENEES
Sta     Dist  EvAz     Phase      Date       Time     TRes  Azim  AzRes  Slow  SRes Def   SNR       Amp   Per   Mag1   Mag2       ID
SJPF  000.28 043.0 m E Pg      2012/02/24 04:04:20.0  -0.1                          T                                        4847193
SJPF  000.28 043.0 m E Sg      2012/02/24 04:04:24.0   0.0                          T                1.0  .18        Md 1.5  4847194
ETSF  000.68 090.4 m E Pg      2012/02/24 04:04:27.8   0.2                          T                                        4847191
ETSF  000.68 090.4 m E Sg      2012/02/24 04:04:37.0   0.5                          T                 .4  .24        Md 1.3  4847192
EPF   001.35 084.1 m E Pg      2012/02/24 04:04:39.7  -0.1                          T                                        4847189
EPF   001.35 084.1 m E Sg      2012/02/24 04:04:57.1  -0.1                          T                 .2  .19 Ml 1           4847190

.
