EVENT     265951
    Date      Time       Latitude Longitude    Depth    Ndef Nsta Gap    Mag1  N    Mag2  N    Mag3  N   Author         ID
       rms   OT_Error      Smajor Sminor Az        Err   mdist  Mdist     Err        Err        Err      Quality

2011/11/04 09:51:19.4     44.4074   10.2228     20.0 f    31   13 131  Ml 2.6  6                         js067245    265971

      0.49   +-  0.14       3.5    2.2   55.16 +-  0.0    0.27   6.98   +-0.2                            m i ke

NORTHERN ITALY
Sta     Dist  EvAz     Phase      Date       Time     TRes  Azim  AzRes  Slow  SRes Def   SNR       Amp   Per   Mag1   Mag2       ID
PGF   002.06 206.0 m E Pn      2011/11/04 09:51:50.8  -0.5                          T                                        4781590
PGF   002.06 206.0 m E Sn      2011/11/04 09:52:14.9   0.1                          T                4.7  .28 Ml 2.7         4783109
SBF   002.08 255.8 m E Pn      2011/11/04 09:51:51.5   0.0                          T                                        4781595
SBF   002.08 255.8 m E Sn      2011/11/04 09:52:16.1   0.8                          T               13.9  .31 Ml 2.9         4783108
MBDF  002.49 278.6 m E Pn      2011/11/04 09:51:57.8   0.5                          T                                        4781585
MBDF  002.49 278.6 m E Sn      2011/11/04 09:52:25.3   0.2                          T                                        4783106
MBDF  002.49 278.6 m E Sg      2011/11/04 09:52:38.3   0.4                          T                8.8  .52 Ml 2.5         4783107
FRF   002.72 253.1 m E Pn      2011/11/04 09:51:59.7  -0.4                          T                                        4781592
FRF   002.72 253.1 m E Sn      2011/11/04 09:52:30.1  -0.3                          T                3.1  .20 Ml 2.6         4781588
LPG   002.69 295.1 m E Pn      2011/11/04 09:52:00.1  -0.2                          T                                        4781594
LPG   002.69 295.1 m E P       2011/11/04 09:52:04.0   1.0                          T                                        4781587
LPL   002.71 295.3 m E Pn      2011/11/04 09:52:00.8   0.4                          T                                        4781591
LPL   002.71 295.3 m E P       2011/11/04 09:52:03.9   0.7                          T                                        4781586
LMR   002.89 249.5 m E Pn      2011/11/04 09:52:01.8  -0.7                          T                                        4781593
LMR   002.89 249.5 m E Sn      2011/11/04 09:52:33.9  -0.6                          T                2.2  .23 Ml 2.4         4781589
SMRF  003.37 264.3 m E Pn      2011/11/04 09:52:09.6   0.4                          T                                        4783110
HAU   004.49 324.6 m E Pn      2011/11/04 09:52:24.3   0.0                          T                                        4783105
HAU   004.49 324.6 m E Sn      2011/11/04 09:53:12.7  -0.1                          T                4.2  .28 Ml 2.7         4783104
LANF  004.87 340.9 m E Pn      2011/11/04 09:52:29.0  -0.5                          T                                        4783111
MTLF  005.88 262.4 m E Pn      2011/11/04 09:52:43.2  -0.1                          T                                        4781582
MTLF  005.88 262.4 m E P       2011/11/04 09:52:48.0   0.1                          T                                        4781584
BAIF  006.98 326.2 m E Pn      2011/11/04 09:52:56.3  -1.9                          T                                        4783112
HINF  004.14 326.7 m E Sn      2011/11/04 09:53:04.5   0.0                          T                                        4781583

.
EVENT     265953
    Date      Time       Latitude Longitude    Depth    Ndef Nsta Gap    Mag1  N    Mag2  N    Mag3  N   Author         ID
       rms   OT_Error      Smajor Sminor Az        Err   mdist  Mdist     Err        Err        Err      Quality

2011/11/04 11:05:01.0     44.6710   11.6430     30.0 f    80   23 098                                    js067245    265973

                                               +-         0.32   6.83                                    m i ke

NORTHERN ITALY
Sta     Dist  EvAz     Phase      Date       Time     TRes  Azim  AzRes  Slow  SRes Def   SNR       Amp   Per   Mag1   Mag2       ID
PGF   002.86 223.1 m E Pn      2011/11/04 11:05:44.0   0.7                          T                                        4781648
PGF   002.86 223.1 m E P       2011/11/04 11:05:45.7  -0.1                          T                                        4781631
SBF   003.13 256.5 m E Pn      2011/11/04 11:05:47.9   1.0                          T                                        4781647
SBF   003.13 256.5 m E P       2011/11/04 11:05:49.7   0.2                          T                                        4781621
SBF   003.13 256.5 m E Sn      2011/11/04 11:06:21.2   0.1                          T               61.1  .49                4781622
MBDF  003.47 272.6 m E Pn      2011/11/04 11:05:50.6  -1.1                          T                                        4781633
LPL   003.58 285.4 m E Pn      2011/11/04 11:05:52.5  -0.8                          T                                        4781646
LPL   003.58 285.4 m E P       2011/11/04 11:05:56.4   0.3                          T                                        4781630
LPG   003.56 285.1 m E Pn      2011/11/04 11:05:53.2   0.1                          T                                        4781628
LPG   003.56 285.1 m E P       2011/11/04 11:05:55.7  -0.2                          T                                        4781629
FRF   003.77 254.6 m E Pn      2011/11/04 11:05:56.0   0.5                          T                                        4781650
FRF   003.77 254.6 m E P       2011/11/04 11:05:58.5   0.0                          T                                        4781632
FRF   003.77 254.6 m E Sn      2011/11/04 11:06:36.3   0.1                          T                                        4781623
FRF   003.77 254.6 m E S       2011/11/04 11:06:42.7   0.2                          T               22.6  .32                4781611
LMR   003.94 251.9 m E Pn      2011/11/04 11:06:00.2   2.4                          T                                        4781649
LMR   003.94 251.9 m E Sn      2011/11/04 11:06:40.2  -0.1                          T               20.2  .46                4781624
ORIF  004.11 275.5 m E Pn      2011/11/04 11:06:00.7   0.4                          T                                        4781645
ORIF  004.11 275.5 m E P       2011/11/04 11:06:02.4  -1.2                          T                                        4781625
CABF  004.35 298.4 m E Pn      2011/11/04 11:06:03.9   0.3                          T                                        4781642
HINF  004.58 315.1 m E Pn      2011/11/04 11:06:06.4  -0.2                          T                                        4781641
HINF  004.58 315.1 m E Sn      2011/11/04 11:06:56.0   0.4                          T                6.9  .30                4781640
CDF   004.80 322.7 m E Pn      2011/11/04 11:06:10.0   0.3                          T                                        4781638
CDF   004.80 322.7 m E Sn      2011/11/04 11:07:01.5   0.4                          T                4.3  .35                4781637
VIVF  004.97 274.6 m E Pn      2011/11/04 11:06:11.4  -0.4                          T                                        4781626
HAU   004.96 314.2 m E Pn      2011/11/04 11:06:11.6  -0.2                          T                                        4781609
HAU   004.96 314.2 m E Sn      2011/11/04 11:07:05.0   0.4                          T               21.0  .51                4781639
LANF  005.05 329.9 m E Pn      2011/11/04 11:06:13.0   0.0                          T                                        4781607
THEF  005.28 314.3 m E Pn      2011/11/04 11:06:16.5   0.4                          T                                        4781608
LASF  005.61 266.6 m E Pn      2011/11/04 11:06:20.9   0.3                          T                                        4781610
LASF  005.61 266.6 m E P       2011/11/04 11:06:25.0   0.4                          T                                        4781620
SMF   005.81 292.6 m E Pn      2011/11/04 11:06:23.3  -0.1                          T                                        4781644
SMF   005.81 292.6 m E Sn      2011/11/04 11:07:24.2  -0.9                          T                6.7  .28                4781618
LOR   006.01 298.3 m E Pn      2011/11/04 11:06:26.0  -0.1 118.2  5.5               T                                        4781636
LOR   006.01 298.3 m E Sn      2011/11/04 11:07:30.2   0.3                          T                7.1  .36                4781616
SSF   006.16 295.7 m E Pn      2011/11/04 11:06:27.9  -0.2                          T                                        4781635
AVF   006.18 293.0 m E Pn      2011/11/04 11:06:28.3   0.0                          T                                        4781643
BGF   006.45 290.1 m E Pn      2011/11/04 11:06:32.2   0.2                          T                                        4781634
HYF   006.79 295.7 m E Pn      2011/11/04 11:06:36.7   0.0                          T                                        4781627
TCF   006.83 287.0 m E Sn      2011/11/04 11:07:49.6   0.3                          T                5.6  .41                4781617

.
EVENT     265954
    Date      Time       Latitude Longitude    Depth    Ndef Nsta Gap    Mag1  N    Mag2  N    Mag3  N   Author         ID
       rms   OT_Error      Smajor Sminor Az        Err   mdist  Mdist     Err        Err        Err      Quality

2011/11/04 11:22:04.9     39.8891   14.7749    330.0 f   217   43 039  Ml 3.4  2                         js067245    265974

      1.12   +-  0.07       2.4    2.0   51.27 +-  0.0    0.50  44.87   +-0.3                            m i ke

TYRRHENIAN SEA
Sta     Dist  EvAz     Phase      Date       Time     TRes  Azim  AzRes  Slow  SRes Def   SNR       Amp   Per   Mag1   Mag2       ID
PGF   005.10 303.2 m E P       2011/11/04 11:23:25.6   0.0                          T                                        4781703
SBF   006.76 308.3 m E P       2011/11/04 11:23:45.3   0.3                          T                                        4781679
FRF   007.10 303.7 m E P       2011/11/04 11:23:48.8  -0.1                          T                                        4781702
FRF   007.10 303.7 m E Pn      2011/11/04 11:23:52.9   0.7                          T                                        4781680
LMR   007.09 301.7 m E P       2011/11/04 11:23:49.2   0.5                          T                                        4781666
MBDF  007.65 311.8 m E P       2011/11/04 11:23:56.1   0.5                          T                                        4781704
MBDF  007.65 311.8 m E Pn      2011/11/04 11:23:59.8   0.5                          T                                        4781670
MBDF  007.65 311.8 m E Sn      2011/11/04 11:25:24.2  -0.9                          T                2.9  .48 Ml 3.1         4783114
SMRF  007.98 303.8 m E P       2011/11/04 11:24:00.2   0.7                          T                                        4781701
SMRF  007.98 303.8 m E Pn      2011/11/04 11:24:03.7   0.3                          T                                        4781681
LPG   008.14 316.1 m E P       2011/11/04 11:24:01.5  -0.2                          T                                        4781667
LPL   008.16 316.2 m E P       2011/11/04 11:24:02.4   0.5                          T                                        4781700
LPL   008.16 316.2 m E Pn      2011/11/04 11:24:06.0   0.0                          T                                        4781668
LPL   008.16 316.2 m E Sn      2011/11/04 11:25:36.6  -0.2                          T                6.2  .43 Ml 3.6         4783115
ORIF  008.28 310.3 m E P       2011/11/04 11:24:03.5   0.3                          T                                        4781699
ORIF  008.28 310.3 m E Pn      2011/11/04 11:24:07.9   0.6                          T                                        4781669
VIVF  008.97 306.9 m E P       2011/11/04 11:24:11.4   0.0                          T                                        4781698
LASF  009.14 300.8 m E P       2011/11/04 11:24:13.1  -0.4                          T                                        4781697
CABF  009.23 319.5 m E P       2011/11/04 11:24:13.3  -1.4                          T                                        4781716
CABF  009.23 319.5 m E Pn      2011/11/04 11:24:17.0  -2.6                          T                                        4781686
HINF  009.77 326.8 m E P       2011/11/04 11:24:19.3  -1.8                          T                                        4781715
HINF  009.77 326.8 m E Pn      2011/11/04 11:24:24.4  -2.2                          T                                        4781685
HAU   010.13 326.0 m E P       2011/11/04 11:24:23.7  -1.7                          T                                        4781714
HAU   010.13 326.0 m E Pn      2011/11/04 11:24:28.3  -3.0                          T                                        4781684
MTLF  010.02 294.2 m E P       2011/11/04 11:24:23.9  -0.1                          T                                        4781696
CDF   010.08 330.2 m E P       2011/11/04 11:24:24.8  -0.1                          T                                        4781712
SMF   010.44 313.9 m E P       2011/11/04 11:24:27.0  -2.2                          T                                        4781718
SMF   010.44 313.9 m E Pn      2011/11/04 11:24:30.2  -5.1                          T                                        4781688
THEF  010.45 325.8 m E P       2011/11/04 11:24:27.9  -1.5                          T                                        4781713
LOR   010.81 316.6 m E P       2011/11/04 11:24:30.9  -2.8 132.8  3.7               T                                        4781711
AVF   010.80 313.4 m E P       2011/11/04 11:24:31.7  -1.8                          T                                        4781717
AVF   010.80 313.4 m E Pn      2011/11/04 11:24:34.8  -5.3                          T                                        4781687
SSF   010.88 314.9 m E P       2011/11/04 11:24:32.6  -1.8                          T                                        4781672
SFTF  010.86 323.1 m E P       2011/11/04 11:24:32.8  -1.6 140.5  4.1               T                                        4781682
CAF   010.66 302.3 m E P       2011/11/04 11:24:32.8   0.9                          T                                        4781693
PAGF  010.82 326.2 m E P       2011/11/04 11:24:32.8  -1.0                          T                                        4781677
BGF   010.96 311.4 m E P       2011/11/04 11:24:34.5  -1.0                          T                                        4781689
MEZF  011.07 324.2 m E P       2011/11/04 11:24:37.7   0.8 147.1  9.7               T                                        4781683
EPF   011.28 290.8 m E P       2011/11/04 11:24:38.8  -0.7                          T                                        4783117
EPF   011.28 290.8 m E Pn      2011/11/04 11:24:45.8  -0.7                          T                                        4783116
RUP   011.23 333.4 m E P       2011/11/04 11:24:38.8   0.0                          T                                        4781676
TCF   011.19 309.0 m E P       2011/11/04 11:24:39.0   0.7                          T                                        4781673
RJF   011.17 303.3 m E P       2011/11/04 11:24:39.4   1.3                          T                                        4781691
HYF   011.47 314.0 m E P       2011/11/04 11:24:41.6  -0.1                          T                                        4781671
LFF   011.53 300.5 m E P       2011/11/04 11:24:43.7   1.3                          T                                        4781692
ETSF  011.90 289.6 m E P       2011/11/04 11:24:47.8   0.7                          T                                        4781695
GIVF  012.39 328.8 m E P       2011/11/04 11:24:52.0  -0.8                          T                                        4781674
SJPF  012.42 290.2 m E P       2011/11/04 11:24:53.7   0.5                          T                                        4781694
BAIF  012.61 327.2 m E P       2011/11/04 11:24:53.8  -1.7                          T                                        4781675
MFF   012.77 306.6 m E P       2011/11/04 11:24:57.7   0.4                          T                                        4781690
MFF   012.77 306.6 m E Pn      2011/11/04 11:25:05.2  -0.9                          T                                        4781678
LDF   013.76 314.1 m E P       2011/11/04 11:25:06.9  -2.0                          T                                        4781710
FLN   014.05 314.2 m E P       2011/11/04 11:25:09.8  -2.4                          T                                        4781709
GRR   014.06 312.3 m E P       2011/11/04 11:25:09.9  -2.4                          T                                        4781705
SGMF  014.98 309.6 m E P       2011/11/04 11:25:20.9  -1.8                          T                                        4781708
QUIF  015.19 307.8 m E P       2011/11/04 11:25:23.3  -1.7                          T                                        4781706
ROSF  015.44 309.1 m E P       2011/11/04 11:25:25.9  -1.9                          T                                        4781707

.
EVENT     265983
    Date      Time       Latitude Longitude    Depth    Ndef Nsta Gap    Mag1  N    Mag2  N    Mag3  N   Author         ID
       rms   OT_Error      Smajor Sminor Az        Err   mdist  Mdist     Err        Err        Err      Quality

2011/11/04 20:02:33.4     46.1484    2.8754     22.0 f    10    5 214  Ml 1.5  2  Md 1.4  3              js067245    266003

      0.66   +-  0.16       4.0    1.8  142.27 +-  0.0    0.07   1.31   +-0.0      +-0.2                 m i ke

FRANCE
Sta     Dist  EvAz     Phase      Date       Time     TRes  Azim  AzRes  Slow  SRes Def   SNR       Amp   Per   Mag1   Mag2       ID
BGF   000.41 357.2 m E Pg      2011/11/04 20:02:42.4   0.3                          T                                        4781761
BGF   000.41 357.2 m E Sg      2011/11/04 20:02:47.7  -0.4                          T                2.9  .22                4781760
TCF   000.48 287.1 m E Pg      2011/11/04 20:02:43.2  -0.1                          T                                        4781756
TCF   000.48 287.1 m E Sg      2011/11/04 20:02:49.8  -0.4                          T                1.3  .18        Md 1.4  4781757
AVF   000.72 027.0 m E Pg      2011/11/04 20:02:47.6   0.1                          T                                        4781758
AVF   000.72 027.0 m E Sg      2011/11/04 20:02:57.4   0.2                          T                 .7  .19        Md 1.6  4781759
SSF   001.01 025.2 m E Pg      2011/11/04 20:02:52.7   0.0                          T                                        4781754
SSF   001.01 025.2 m E Sg      2011/11/04 20:03:06.0   0.0                          T                 .8  .21 Ml 1.5         4781755
LOR   001.31 030.8 m E Pg      2011/11/04 20:02:57.8  -0.3 211.5  0.0               T                                        4781752
LOR   001.31 030.8 m E Sg      2011/11/04 20:03:14.9  -0.3 203.1  -8.4              T                 .7  .20 Ml 1.5         4781753

.
