EVENT     258256
    Date      Time       Latitude Longitude    Depth    Ndef Nsta Gap    Mag1  N    Mag2  N    Mag3  N   Author         ID
       rms   OT_Error      Smajor Sminor Az        Err   mdist  Mdist     Err        Err        Err      Quality

2011/04/13 16:24:40.7     44.3754    6.8538      2.0      20   10 142  Ml 2.0  7  Md 2.1  3              js067245    258256

      0.05   +-  0.01        .4     .2   80.12 +-  0.0    0.36   2.40   +-0.3      +-0.0                 m i ke

FRANCE
Sta     Dist  EvAz     Phase      Date       Time     TRes  Azim  AzRes  Slow  SRes Def   SNR       Amp   Per   Mag1   Mag2       ID
MBDF  000.36 350.5 m E Pg      2011/04/13 16:24:47.8   0.0                          T                                        4673394
MBDF  000.36 350.5 m E Sg      2011/04/13 16:24:52.4  -0.2                          T               19.5  .20        Md 2.1  4673391
SBF   000.66 140.5 m E Pg      2011/04/13 16:24:53.3   0.0                          T                                        4673383
SBF   000.66 140.5 m E Sg      2011/04/13 16:25:01.9   0.0                          T               18.4  .35        Md 2.1  4673376
FRF   000.83 190.5 m E Pg      2011/04/13 16:24:56.3   0.0                          T                                        4673392
FRF   000.83 190.5 m E Sg      2011/04/13 16:25:07.1   0.0                          T                2.8  .18        Md 2.2  4673378
ORIF  000.88 308.3 m E Pg      2011/04/13 16:24:56.6  -0.8                          T                                        4673393
ORIF  000.88 308.3 m E Sg      2011/04/13 16:25:09.0   0.1                          T                3.6  .29 Ml 1.9         4673381
SMRF  001.00 247.0 m E Pg      2011/04/13 16:24:59.6   0.0                          T                                        4673390
SMRF  001.00 247.0 m E Sg      2011/04/13 16:25:12.6   0.0                          T                7.1  .24 Ml 2.3         4673387
LMR   001.07 193.6 m E Pg      2011/04/13 16:25:00.7   0.0                          T                                        4673389
LMR   001.07 193.6 m E Sg      2011/04/13 16:25:14.7   0.0                          T                5.3  .26 Ml 2.2         4673377
LPG   001.12 356.3 m E Pg      2011/04/13 16:25:02.2   0.1                          T                                        4673384
LPG   001.12 356.3 m E Sg      2011/04/13 16:25:16.7   0.0                          T                2.2  .20 Ml 1.9         4673379
LPL   001.14 355.7 m E Pg      2011/04/13 16:25:02.4  -0.1                          T                                        4673388
LPL   001.14 355.7 m E Sg      2011/04/13 16:25:17.3   0.0                          T                4.0  .38 Ml 1.9         4673380
VIVF  001.63 287.9 m E Pn      2011/04/13 16:25:08.8   0.0                          T                                        4673386
VIVF  001.63 287.9 m E Sn      2011/04/13 16:25:29.1   0.0                          T                 .7  .26 Ml 1.5         4673385
PGF   002.40 138.7 m E Pn      2011/04/13 16:25:19.4   0.0                          T                                        4673382
PGF   002.40 138.7 m E Sn      2011/04/13 16:25:47.6   0.0                          T                 .8  .16 Ml 2.2         4673375

.
EVENT     258257
    Date      Time       Latitude Longitude    Depth    Ndef Nsta Gap    Mag1  N    Mag2  N    Mag3  N   Author         ID
       rms   OT_Error      Smajor Sminor Az        Err   mdist  Mdist     Err        Err        Err      Quality

2011/04/13 18:36:54.9     37.4062    3.2686      2.0      59   15 237  Ml 2.9 16                         js067245    258257

      0.95   +-  0.27       5.4    3.3  153.40 +-  0.0    2.38   8.71   +-0.2                            m i ke

WESTERN MEDITERRANEAN SEA
Sta     Dist  EvAz     Phase      Date       Time     TRes  Azim  AzRes  Slow  SRes Def   SNR       Amp   Per   Mag1   Mag2       ID
MTLF  005.98 352.6 m E Pn      2011/04/13 18:38:22.5   0.4                          T                                        4673420
MTLF  005.98 352.6 m E Sn      2011/04/13 18:39:27.4   0.2                          T                2.1  .52 Ml 2.7         4673402
EPF   006.05 339.2 m E Pn      2011/04/13 18:38:23.3   0.2                          T                                        4673422
EPF   006.05 339.2 m E Sn      2011/04/13 18:39:28.9   0.0                          T                4.0  .46 Ml 3.0         4673403
ETSF  006.22 333.1 m E Pn      2011/04/13 18:38:25.9   0.5                          T                                        4673421
ETSF  006.22 333.1 m E Sn      2011/04/13 18:39:33.1   0.1                          T                2.3  .44 Ml 2.9         4673404
LMR   006.42 021.7 m E Pn      2011/04/13 18:38:28.0   0.0                          T                                        4673409
LMR   006.42 021.7 m E Sn      2011/04/13 18:39:37.6   0.0                          T                3.1  .32 Ml 3.2         4673395
SJPF  006.65 330.3 m E Pn      2011/04/13 18:38:31.2  -0.2                          T                                        4673419
SJPF  006.65 330.3 m E Sn      2011/04/13 18:39:43.4   0.1                          T                2.0  .39 Ml 2.9         4673405
FRF   006.66 021.7 m E Pn      2011/04/13 18:38:31.4   0.0                          T                                        4673410
FRF   006.66 021.7 m E Sn      2011/04/13 18:39:43.7   0.2                          T                6.0  .54 Ml 3.3         4673396
LASF  006.68 003.6 m E Pn      2011/04/13 18:38:31.7   0.0                          T                                        4673414
LASF  006.68 003.6 m E Sn      2011/04/13 18:39:44.0   0.1                          T                2.1  .38 Ml 2.9         4673401
PGF   006.76 038.8 m E Pn      2011/04/13 18:38:33.3   0.4                          T                                        4673763
PGF   006.76 038.8 m E Sn      2011/04/13 18:39:44.7  -1.2                          T                3.7  .42 Ml 3.4         4673764
SMRF  006.79 014.2 m E Pn      2011/04/13 18:38:33.3   0.1                          T                                        4673411
SMRF  006.79 014.2 m E Sn      2011/04/13 18:39:46.8   0.2                          T                1.7  .42 Ml 2.8         4673397
VIVF  007.52 007.7 m E Pn      2011/04/13 18:38:43.0  -0.1                          T                                        4673415
VIVF  007.52 007.7 m E Sn      2011/04/13 18:40:03.9   0.0                          T                 .8  .32 Ml 2.7         4673400
CAF   007.57 353.5 m E Pn      2011/04/13 18:38:43.7  -0.1                          T                                        4673418
CAF   007.57 353.5 m E Sn      2011/04/13 18:40:05.4   0.2                          T                1.3  .34 Ml 2.9         4673406
LFF   007.76 346.6 m E Pn      2011/04/13 18:38:45.5  -0.9                          T                                        4673417
LFF   007.76 346.6 m E Sn      2011/04/13 18:40:09.7   0.0                          T                3.4  .47 Ml 3.1         4673407
ORIF  007.76 013.9 m E Pn      2011/04/13 18:38:46.5   0.0                          T                                        4673412
ORIF  007.76 013.9 m E Sn      2011/04/13 18:40:09.9   0.1                          T                 .7  .31 Ml 2.7         4673398
MBDF  007.78 018.8 m E Pn      2011/04/13 18:38:46.7  -0.1                          T                                        4673413
MBDF  007.78 018.8 m E Sn      2011/04/13 18:40:10.4   0.1                          T                1.1  .32 Ml 2.9         4673399
RJF   008.00 351.1 m E Pn      2011/04/13 18:38:49.5  -0.1                          T                                        4673416
RJF   008.00 351.1 m E Sn      2011/04/13 18:40:15.8   0.3                          T                 .8  .28 Ml 2.5         4673408

.
EVENT     258258
    Date      Time       Latitude Longitude    Depth    Ndef Nsta Gap    Mag1  N    Mag2  N    Mag3  N   Author         ID
       rms   OT_Error      Smajor Sminor Az        Err   mdist  Mdist     Err        Err        Err      Quality

2011/04/13 19:04:31.3     43.1189    -.4737      2.0      99   23 053  Ml 3.0 24  Md 2.9  3              js067245    258258

      0.58   +-  0.05       1.0     .9  148.10 +-  0.0    0.08   5.64   +-0.2      +-0.1                 m i ke

PYRENEES
Sta     Dist  EvAz     Phase      Date       Time     TRes  Azim  AzRes  Slow  SRes Def   SNR       Amp   Per   Mag1   Mag2       ID
ETSF  000.23 195.9 m E Pg      2011/04/13 19:04:34.9  -1.1                          T                                        4673486
ETSF  000.23 195.9 m E Sg      2011/04/13 19:04:37.1  -2.1                          T              884.9  .24        Md 2.9  4673481
SJPF  000.55 269.7 m E Pg      2011/04/13 19:04:41.2  -0.6                          T                                        4673485
SJPF  000.55 269.7 m E Sg      2011/04/13 19:04:48.7  -0.4                          T               79.5  .36        Md 2.9  4673479
EPF   000.60 098.2 m E Pg      2011/04/13 19:04:42.5  -0.4                          T                                        4673484
EPF   000.60 098.2 m E Sg      2011/04/13 19:04:50.6  -0.1                          T               66.5  .18        Md 2.8  4673480
MTLF  001.98 082.6 m E Pn      2011/04/13 19:05:04.0   0.0                          T                                        4673447
MTLF  001.98 082.6 m E Pg      2011/04/13 19:05:07.4  -0.7                          T                                        4673482
MTLF  001.98 082.6 m E Sg      2011/04/13 19:05:33.2  -0.4                          T               19.5  .26 Ml 3.1         4673478
LFF   002.02 025.3 m E Pn      2011/04/13 19:05:04.7   0.1                          T                                        4673449
LFF   002.02 025.3 m E Pg      2011/04/13 19:05:09.6   0.7                          T                                        4673483
LFF   002.02 025.3 m E Sg      2011/04/13 19:05:34.9   0.0                          T               38.6  .26 Ml 3.2         4673441
CAF   002.57 044.5 m E Pn      2011/04/13 19:05:12.2   0.0                          T                                        4673448
CAF   002.57 044.5 m E Pg      2011/04/13 19:05:19.2   0.1                          T                                        4673477
CAF   002.57 044.5 m E Sg      2011/04/13 19:05:52.0  -0.1                          T               12.9  .24 Ml 3.1         4673442
RJF   002.61 032.5 m E Pn      2011/04/13 19:05:12.8   0.1                          T                                        4673450
RJF   002.61 032.5 m E Pg      2011/04/13 19:05:19.9   0.2                          T                                        4673476
RJF   002.61 032.5 m E Sg      2011/04/13 19:05:53.4   0.0                          T               30.4  .42 Ml 2.9         4673440
LASF  003.29 071.6 m E Pn      2011/04/13 19:05:22.0   0.1                          T                                        4673446
LASF  003.29 071.6 m E Pg      2011/04/13 19:05:32.3   0.0                          T                                        4673474
LASF  003.29 071.6 m E Sg      2011/04/13 19:06:14.6   0.1                          T                7.5  .32 Ml 2.9         4673443
MFF   003.49 003.7 m E Pn      2011/04/13 19:05:24.7   0.1                          T                                        4673451
MFF   003.49 003.7 m E Pg      2011/04/13 19:05:36.1   0.1                          T                                        4673475
MFF   003.49 003.7 m E Sg      2011/04/13 19:06:20.8   0.0                          T               17.4  .41 Ml 3.3         4673439
TCF   003.70 030.2 m E Pn      2011/04/13 19:05:27.5  -0.1                          T                                        4673463
TCF   003.70 030.2 m E Pg      2011/04/13 19:05:39.9   0.1                          T                                        4673468
TCF   003.70 030.2 m E Sg      2011/04/13 19:06:27.4   0.0                          T                8.9  .22 Ml 3.2         4673427
VIVF  004.10 063.2 m E Pn      2011/04/13 19:05:33.1   0.1                          T                                        4673445
VIVF  004.10 063.2 m E Pg      2011/04/13 19:05:47.3   0.1                          T                                        4673473
VIVF  004.10 063.2 m E Sg      2011/04/13 19:06:40.1   0.2                          T                5.8  .48 Ml 2.8         4673444
BGF   004.17 033.3 m E Pn      2011/04/13 19:05:33.9   0.0                          T                                        4673460
BGF   004.17 033.3 m E Pg      2011/04/13 19:05:48.5   0.0                          T                                        4673471
BGF   004.17 033.3 m E Sg      2011/04/13 19:06:42.0   0.0                          T               28.3  .36 Ml 3.6         4673431
AVF   004.57 035.2 m E Pn      2011/04/13 19:05:39.1  -0.2                          T                                        4673462
AVF   004.57 035.2 m E Pg      2011/04/13 19:05:55.8   0.1                          T                                        4673470
AVF   004.57 035.2 m E Sg      2011/04/13 19:06:54.4   0.0                          T                7.1  .40 Ml 3.0         4673428
SMF   004.67 039.5 m E Pn      2011/04/13 19:05:41.0   0.2                          T                                        4673461
SMF   004.67 039.5 m E Pg      2011/04/13 19:05:57.8   0.1                          T                                        4673469
SMF   004.67 039.5 m E Sg      2011/04/13 19:06:57.8   0.1                          T                8.1  .62 Ml 2.9         4673429
HYF   004.70 026.9 m E Pn      2011/04/13 19:05:41.2   0.1                          T                                        4673459
HYF   004.70 026.9 m E Sg      2011/04/13 19:06:58.5   0.0                          T                                        4673430
SSF   004.85 034.2 m E Pn      2011/04/13 19:05:43.3   0.2                          T                                        4673464
SSF   004.85 034.2 m E Pg      2011/04/13 19:06:00.7  -0.2                          T                                        4673467
SSF   004.85 034.2 m E Sg      2011/04/13 19:07:03.0  -0.1                          T                2.4  .29 Ml 2.9         4673426
QUIF  005.16 339.4 m E Pn      2011/04/13 19:05:47.4   0.1                          T                                        4673454
QUIF  005.16 339.4 m E Sg      2011/04/13 19:07:12.6  -0.2                          T                2.6  .31 Ml 2.8         4673435
LOR   005.16 034.9 m E Pn      2011/04/13 19:05:47.6   0.2                          T                                        4673465
LOR   005.16 034.9 m E Pg      2011/04/13 19:06:06.8   0.1                          T                                        4673466
LOR   005.16 034.9 m E Sg      2011/04/13 19:07:12.7  -0.1                          T                5.4  .43 Ml 3.0         4673425
GRR   005.28 357.2 m E Pn      2011/04/13 19:05:48.9   0.0                          T                                        4673456
GRR   005.28 357.2 m E Sg      2011/04/13 19:07:16.3  -0.2                          T                4.3  .41 Ml 2.8         4673438
SGMF  005.34 344.9 m E Pn      2011/04/13 19:05:49.7  -0.1                          T                                        4673453
SGMF  005.34 344.9 m E Sg      2011/04/13 19:07:18.3  -0.2                          T                2.6  .31 Ml 2.9         4673434
LDF   005.48 002.4 m E Pn      2011/04/13 19:05:51.8   0.1                          T                                        4673457
LDF   005.48 002.4 m E Sg      2011/04/13 19:07:22.8  -0.1                          T                3.0  .31 Ml 2.9         4673437
ROSF  005.57 340.4 m E Pn      2011/04/13 19:05:53.0   0.0                          T                                        4673452
ROSF  005.57 340.4 m E Sg      2011/04/13 19:07:25.6  -0.2                          T                2.5  .31 Ml 2.9         4673433
FLN   005.64 359.9 m E Pn      2011/04/13 19:05:54.1   0.1                          T                                        4673455
FLN   005.64 359.9 m E Sg      2011/04/13 19:07:28.0   0.0                          T                8.4  .51 Ml 3.1         4673436

.
EVENT     258260
    Date      Time       Latitude Longitude    Depth    Ndef Nsta Gap    Mag1  N    Mag2  N    Mag3  N   Author         ID
       rms   OT_Error      Smajor Sminor Az        Err   mdist  Mdist     Err        Err        Err      Quality

2011/04/13 19:17:03.4     48.1701   -2.7340      5.0 f    14    6 149  Ml 1.9  3  Md 1.9  3              js067245    258260

      0.67   +-  0.09       2.6    1.2  168.54 +-  0.0    0.15   1.79   +-0.0      +-0.1                 m i ke

FRANCE
Sta     Dist  EvAz     Phase      Date       Time     TRes  Azim  AzRes  Slow  SRes Def   SNR       Amp   Per   Mag1   Mag2       ID
SGMF  000.15 054.5 m E Pg      2011/04/13 19:17:06.7   0.2                          T                                        4673511
SGMF  000.15 054.5 m E Sg      2011/04/13 19:17:08.3  -0.4                          T               33.1  .20        Md 1.9  4673507
QUIF  000.38 229.0 m E Pg      2011/04/13 19:17:10.9   0.1                          T                                        4673509
QUIF  000.38 229.0 m E Sg      2011/04/13 19:17:16.2   0.2                          T                7.0  .18        Md 1.9  4673506
ROSF  000.40 295.0 m E Pg      2011/04/13 19:17:11.2   0.2                          T                                        4673510
ROSF  000.40 295.0 m E Sg      2011/04/13 19:17:16.0  -0.4                          T                5.0  .22        Md 1.8  4673508
GRR   001.27 079.4 m E Pg      2011/04/13 19:17:27.2   0.1                          T                                        4673500
GRR   001.27 079.4 m E Sg      2011/04/13 19:17:43.6   0.0                          T                2.4  .20 Ml 1.9         4673503
FLN   001.61 067.6 m E Pg      2011/04/13 19:17:33.4   0.0 252.8  3.5               T                                        4673502
FLN   001.61 067.6 m E Sg      2011/04/13 19:17:54.4   0.2                          T                1.8  .22 Ml 1.9         4673505
LDF   001.79 075.3 m E Pg      2011/04/13 19:17:36.6  -0.1                          T                                        4673501
LDF   001.79 075.3 m E Sg      2011/04/13 19:17:59.0  -0.8                          T                1.2  .21 Ml 1.9         4673504

.
