EVENT     284106
    Date      Time       Latitude Longitude    Depth    Ndef Nsta Gap    Mag1  N    Mag2  N    Mag3  N   Author         ID
       rms   OT_Error      Smajor Sminor Az        Err   mdist  Mdist     Err        Err        Err      Quality

2012/09/29 23:47:23.1     46.2478    7.1199      3.0 f    48   13 049  Ml 1.7 10  Md 1.6  3              bulletin    284207
                                                                                                         _ldg
      0.41   +-  0.06       1.2    1.1  103.20 +-  0.0    0.01   2.66   +-0.3      +-0.2                 m i ke

SWITZERLAND
Sta     Dist  EvAz     Phase      Date       Time     TRes  Azim  AzRes  Slow  SRes Def   SNR       Amp   Per   Mag1   Mag2       ID
LPL   000.78 200.4 m E Pg      2012/09/29 23:47:38.0   0.0                          T                                        5081691
LPL   000.78 200.4 m E Sg      2012/09/29 23:47:47.7  -0.5                          T                2.3  .27        Md 1.8  5081688
LPG   000.79 199.1 m E Pg      2012/09/29 23:47:38.1  -0.3                          T                                        5081690
LPG   000.79 199.1 m E Sg      2012/09/29 23:47:48.8   0.1                          T                2.7  .23        Md 1.8  5081689
CABF  000.80 297.3 m E Pg      2012/09/29 23:47:38.2   0.0                          T                                        5081695
CABF  000.80 297.3 m E Sg      2012/09/29 23:47:48.8   0.1                          T                1.3  .16        Md 1.4  5081694
MBDF  001.54 189.3 m E Pn      2012/09/29 23:47:50.1   0.2                          T                                        5081709
MBDF  001.54 189.3 m E Sn      2012/09/29 23:48:09.1  -0.2                          T                1.4  .37 Ml 1.6         5081708
ORIF  001.59 213.7 m E Pn      2012/09/29 23:47:50.2  -0.3                          T                                        5081711
ORIF  001.59 213.7 m E Sn      2012/09/29 23:48:11.3   0.9                          T                 .8  .24 Ml 1.6         5081710
HINF  001.58 353.5 m E Pn      2012/09/29 23:47:50.6   0.3                          T                                        5081692
HINF  001.58 353.5 m E Sn      2012/09/29 23:48:09.9  -0.2                          T                2.8  .19 Ml 2.2         5081693
CDF   002.17 002.8 m E Pn      2012/09/29 23:47:58.1  -0.3                          T                                        5081701
CDF   002.17 002.8 m E Sn      2012/09/29 23:48:24.3   0.1                          T                 .2  .18 Ml 1.4         5081700
VIVF  002.21 231.9 m E Pn      2012/09/29 23:47:59.2   0.3                          T                                        5081706
VIVF  002.21 231.9 m E Sn      2012/09/29 23:48:25.5   0.4                          T                1.0  .23 Ml 1.9         5081707
SMF   002.30 281.1 m E Pn      2012/09/29 23:48:00.4   0.3                          T                                        5081705
SMF   002.30 281.1 m E Sn      2012/09/29 23:48:27.8   0.5                          T                 .7  .20 Ml 1.8         5081704
LOR   002.46 295.7 m E Pn      2012/09/29 23:48:02.7   0.3                          T                                        5081699
LOR   002.46 295.7 m E Sn      2012/09/29 23:48:31.2   0.1                          T                 .4  .18 Ml 1.7         5081698
MEZF  002.66 328.8 m E Pn      2012/09/29 23:48:04.7  -0.2                          T                                        5081713
MEZF  002.66 328.8 m E Sn      2012/09/29 23:48:35.9   0.2                          T                 .8  .32 Ml 1.7         5081712
SSF   002.62 289.4 m E Pn      2012/09/29 23:48:04.8   0.3                          T                                        5081696
SSF   002.62 289.4 m E Sn      2012/09/29 23:48:35.2   0.3                          T                 .2  .17 Ml 1.5         5081697
AVF   002.66 283.1 m E Pn      2012/09/29 23:48:05.4   0.5                          T                                        5081703
AVF   002.66 283.1 m E Sn      2012/09/29 23:48:36.7   0.9                          T                 .2  .17 Ml 1.3         5081702

.
EVENT     284176
    Date      Time       Latitude Longitude    Depth    Ndef Nsta Gap    Mag1  N    Mag2  N    Mag3  N   Author         ID
       rms   OT_Error      Smajor Sminor Az        Err   mdist  Mdist     Err        Err        Err      Quality

2012/09/30 06:25:10.4     47.5510   -5.4279     10.0 f    11    5 345  Ml 2.1  6                         bulletin    284277
                                                                                                         _ldg
      0.90   +-  0.40      17.6    6.1  161.45 +-  0.0    1.57   3.71   +-0.1                            m i ke

NORTH ATLANTIC OCEAN
Sta     Dist  EvAz     Phase      Date       Time     TRes  Azim  AzRes  Slow  SRes Def   SNR       Amp   Per   Mag1   Mag2       ID
QUIF  001.57 075.7 m E Pn      2012/09/30 06:25:36.7   0.0                          T                                        5082277
QUIF  001.57 075.7 m E Sn      2012/09/30 06:25:55.4  -0.4                          T                                        5082278
QUIF  001.57 075.7 m E Sg      2012/09/30 06:25:59.9   0.0                          T                3.0  .21 Ml 2.2         5082273
ROSF  001.65 060.7 m E Pn      2012/09/30 06:25:37.2  -0.5                          T                                        5082281
ROSF  001.65 060.7 m E Sg      2012/09/30 06:26:01.7  -0.6                          T                2.0  .20 Ml 2.1         5082282
SGMF  002.06 068.9 m E Pn      2012/09/30 06:25:43.7   0.5                          T                                        5082279
SGMF  002.06 068.9 m E Sg      2012/09/30 06:26:14.4  -0.7                          T                2.1  .23 Ml 2.2         5082280
GRR   003.18 073.1 m E Sg      2012/09/30 06:26:50.5   0.2                          T                1.5  .27 Ml 2.1         5082272
LDF   003.71 071.7 m E Sg      2012/09/30 06:27:07.2   0.6                          T                 .4  .19 Ml 1.9         5082276

.
EVENT     284110
    Date      Time       Latitude Longitude    Depth    Ndef Nsta Gap    Mag1  N    Mag2  N    Mag3  N   Author         ID
       rms   OT_Error      Smajor Sminor Az        Err   mdist  Mdist     Err        Err        Err      Quality

2012/09/30 08:05:26.8     45.1709    6.4777      2.0      18    8 130  Ml 2.0  1  Md 1.7  2              bulletin    284211
                                                                                                         _ldg
      0.55   +-  0.07       1.7    1.2  122.25 +-  0.0    0.38   1.61   +-         +-0.0                 m i ls

FRANCE
Sta     Dist  EvAz     Phase      Date       Time     TRes  Azim  AzRes  Slow  SRes Def   SNR       Amp   Per   Mag1   Mag2       ID
LPG   000.38 030.5 m E Pg      2012/09/30 08:05:34.4  -0.1                          T                                        5081777
LPG   000.38 030.5 m E Sg      2012/09/30 08:05:39.2  -0.3                          T                 10  .50                5081765
LPL   000.39 027.4 m E Pg      2012/09/30 08:05:34.7   0.2                          T                                        5081778
LPL   000.39 027.4 m E Sg      2012/09/30 08:05:39.5  -0.3                          T               14.2  .60        Md 1.7  5081766
ORIF  000.49 239.4 m E Pg      2012/09/30 08:05:36.1  -0.2                          T                                        5081768
ORIF  000.49 239.4 m E Sg      2012/09/30 08:05:42.4  -0.4                          T               24.6  .72                5081767
MBDF  000.49 154.7 m E Pg      2012/09/30 08:05:36.3   0.0                          T                                        5081781
MBDF  000.49 154.7 m E Sg      2012/09/30 08:05:42.7  -0.1                          T               20.8  .66        Md 1.8  5081764
VIVF  001.32 256.8 m E Pn      2012/09/30 08:05:50.3  -0.2                          T                                        5081769
VIVF  001.32 256.8 m E Sn      2012/09/30 08:06:07.8   0.1                          T                5.8  .57 Ml 2.0         5081770
SMRF  001.36 208.7 m E Pn      2012/09/30 08:05:51.3   0.2                          T                                        5081776
SMRF  001.36 208.7 m E Sn      2012/09/30 08:06:09.0   0.3                          T                                        5081771
SBF   001.48 152.0 m E Pn      2012/09/30 08:05:52.8   0.1                          T                                        5081774
SBF   001.48 152.0 m E Sn      2012/09/30 08:06:11.3  -0.2                          T                                        5081773
FRF   001.61 175.6 m E Pn      2012/09/30 08:05:54.7   0.1                          T                                        5081775
FRF   001.61 175.6 m E Sn      2012/09/30 08:06:15.0   0.3                          T                                        5081772

.
EVENT     284109
    Date      Time       Latitude Longitude    Depth    Ndef Nsta Gap    Mag1  N    Mag2  N    Mag3  N   Author         ID
       rms   OT_Error      Smajor Sminor Az        Err   mdist  Mdist     Err        Err        Err      Quality

2012/09/30 11:04:31.1     43.1342    -.5798      2.0      25    7 109  Ml 1.8  4  Md 1.8  3              bulletin    284210
                                                                                                         _ldg
      0.46   +-  0.09       2.2    1.1    5.74 +-  0.0    0.10   2.64   +-0.2      +-0.3                 m i ke

PYRENEES
Sta     Dist  EvAz     Phase      Date       Time     TRes  Azim  AzRes  Slow  SRes Def   SNR       Amp   Per   Mag1   Mag2       ID
ETSF  000.24 176.3 m E Pg      2012/09/30 11:04:35.3  -0.6                          T                                        5081740
ETSF  000.24 176.3 m E Sg      2012/09/30 11:04:38.4  -0.7                          T               60.8  .24        Md 2.1  5081736
SJPF  000.47 267.7 m E Pg      2012/09/30 11:04:39.8  -0.3                          T                                        5081739
SJPF  000.47 267.7 m E Sg      2012/09/30 11:04:45.9  -0.5                          T                8.5  .26        Md 1.9  5081737
EPF   000.68 098.5 m E Pg      2012/09/30 11:04:43.8  -0.3                          T                                        5081738
EPF   000.68 098.5 m E Sg      2012/09/30 11:04:53.3   0.3                          T                4.5  .22        Md 1.5  5081735
MTLF  002.05 083.3 m E Sg      2012/09/30 11:05:35.5  -0.3                          T                 .5  .21 Ml 1.6         5082283
LFF   002.04 027.4 m E Sg      2012/09/30 11:05:35.9   0.6                          T                1.1  .16 Ml 1.9         5082285
CAF   002.62 045.9 m E Sg      2012/09/30 11:05:53.4   0.0                          T                 .7  .19 Ml 1.9         5082284
RJF   002.64 034.1 m E Sg      2012/09/30 11:05:54.1   0.0                          T                1.0  .24 Ml 1.7         5082286

.
EVENT     284111
    Date      Time       Latitude Longitude    Depth    Ndef Nsta Gap    Mag1  N    Mag2  N    Mag3  N   Author         ID
       rms   OT_Error      Smajor Sminor Az        Err   mdist  Mdist     Err        Err        Err      Quality

2012/09/30 17:41:00.2     42.8453    -.8728      2.0       6    3 238  Ml 1.2  1  Md 1.1  2              bulletin    284212
                                                                                                         _ldg
      0.13   +-  0.23       7.8    1.1   16.09 +-  0.0    0.24   0.91   +-         +-0.0                 m i ke

PYRENEES
Sta     Dist  EvAz     Phase      Date       Time     TRes  Azim  AzRes  Slow  SRes Def   SNR       Amp   Per   Mag1   Mag2       ID
ETSF  000.24 076.9 m E Pg      2012/09/30 17:41:05.0   0.0                          T                                        5081785
ETSF  000.24 076.9 m E Sg      2012/09/30 17:41:08.5   0.2                          T                3.6  .22        Md 1.2  5081783
SJPF  000.37 316.1 m E Pg      2012/09/30 17:41:07.4   0.0                          T                                        5081784
SJPF  000.37 316.1 m E Sg      2012/09/30 17:41:12.3  -0.1                          T                1.0  .20        Md 1.1  5081782
EPF   000.91 077.9 m E Pg      2012/09/30 17:41:17.3   0.0                          T                                        5082287
EPF   000.91 077.9 m E Sg      2012/09/30 17:41:28.9  -0.3                          T                 .5  .21 Ml 1.2         5082288

.
EVENT     284112
    Date      Time       Latitude Longitude    Depth    Ndef Nsta Gap    Mag1  N    Mag2  N    Mag3  N   Author         ID
       rms   OT_Error      Smajor Sminor Az        Err   mdist  Mdist     Err        Err        Err      Quality

2012/09/30 18:48:47.6     42.9019    1.8066      5.0 f    23    6 087  Ml 1.8  4  Md 1.8  1              bulletin    284213
                                                                                                         _ldg
      0.62   +-  0.07       1.5    1.4  138.37 +-  0.0    0.44   2.23   +-0.3      +-                    m i ke

PYRENEES
Sta     Dist  EvAz     Phase      Date       Time     TRes  Azim  AzRes  Slow  SRes Def   SNR       Amp   Per   Mag1   Mag2       ID
MTLF  000.53 034.3 m E Pg      2012/09/30 18:48:57.5  -0.3                          T                                        5081797
MTLF  000.53 034.3 m E Sg      2012/09/30 18:49:04.2  -0.6                          T                3.8  .20        Md 1.8  5081796
EPF   001.08 277.3 m E Pg      2012/09/30 18:49:08.1   0.1                          T                                        5081795
EPF   001.08 277.3 m E Sg      2012/09/30 18:49:22.0  -0.1                          T                2.5  .20 Ml 1.9         5081793
ETSF  001.74 270.7 m E Pn      2012/09/30 18:49:17.4   0.5                          T                                        5081792
ETSF  001.74 270.7 m E Sn      2012/09/30 18:49:38.7   0.6                          T                                        5081791
LASF  001.90 051.1 m E Pn      2012/09/30 18:49:19.5   0.5                          T                                        5081794
LASF  001.90 051.1 m E Sn      2012/09/30 18:49:42.6   0.7                          T                                        5081786
LASF  001.90 051.1 m E Sg      2012/09/30 18:49:47.4  -0.1                          T                1.3  .26 Ml 1.9         5082289
CAF   002.03 005.2 m E Pn      2012/09/30 18:49:20.9   0.1                          T                                        5081787
CAF   002.03 005.2 m E Sn      2012/09/30 18:49:45.1   0.0                          T                1.4  .23 Ml 2.0         5081790
SJPF  002.23 276.5 m E Pn      2012/09/30 18:49:24.2   0.7                          T                                        5081788
SJPF  002.23 276.5 m E Sn      2012/09/30 18:49:50.2   0.3                          T                 .4  .25 Ml 1.4         5081789

.
EVENT     284116
    Date      Time       Latitude Longitude    Depth    Ndef Nsta Gap    Mag1  N    Mag2  N    Mag3  N   Author         ID
       rms   OT_Error      Smajor Sminor Az        Err   mdist  Mdist     Err        Err        Err      Quality

2012/10/01 00:43:00.3     42.9047     .1662      2.0      13    5 196  Ml 1.1  4  Md 1.3  2              bulletin    284217
                                                                                                         _ldg
      0.11   +-  0.05       2.1     .5  170.20 +-  0.0    0.18   2.44   +-0.2      +-0.1                 m i ke

PYRENEES
Sta     Dist  EvAz     Phase      Date       Time     TRes  Azim  AzRes  Slow  SRes Def   SNR       Amp   Per   Mag1   Mag2       ID
EPF   000.18 045.4 m E Pg      2012/10/01 00:43:04.1   0.1                          T                                        5081820
EPF   000.18 045.4 m E Sg      2012/10/01 00:43:06.5   0.0                          T                2.7  .20        Md 1.2  5081819
ETSF  000.53 269.6 m E Pg      2012/10/01 00:43:10.6   0.0                          T                                        5081818
ETSF  000.53 269.6 m E Sg      2012/10/01 00:43:17.7   0.1                          T                1.6  .23        Md 1.3  5081817
SJPF  001.04 282.0 m E Pg      2012/10/01 00:43:19.9   0.0                          T                                        5081822
SJPF  001.04 282.0 m E Sg      2012/10/01 00:43:33.3  -0.1                          T                 .3  .29 Ml  .9         5081821
MTLF  001.56 073.1 m E Pg      2012/10/01 00:43:29.4  -0.1                          T                                        5081826
MTLF  001.56 073.1 m E Sg      2012/10/01 00:43:49.9   0.2                          T                 .1  .19 Ml  .9         5081825
CAF   002.44 033.5 m E Pn      2012/10/01 00:43:39.4   0.0                          T                                        5081824
CAF   002.44 033.5 m E Sn      2012/10/01 00:44:08.0  -0.1                          T                 .2  .17 Ml 1.3         5081823

.
