BEGIN GSE2.0
MSG_TYPE DATA
MSG_ID 21-DEC-1214:22:47  FRA_NDC
E-MAIL
DATA_TYPE BULLETIN
Reviewed Bulletin (REB) # P2012-047  from French NDC for regional phases     PERIOD 21 NOV 2012 TO 27 NOV 2012 Cenalt JP S
EVENT     287215
    Date      Time       Latitude Longitude    Depth    Ndef Nsta Gap    Mag1  N    Mag2  N    Mag3  N   Author         ID
       rms   OT_Error      Smajor Sminor Az        Err   mdist  Mdist     Err        Err        Err      Quality

2012/11/21 01:08:58.0     44.0477    7.1619      2.0      40    9 049  Ml 1.8  6  Md 2.2  2              bulletin    287315
                                                                                                         _ldg
      0.18   +-  0.03        .5     .5   57.28 +-  0.0    0.15   1.96   +-0.2      +-0.1                 m i ke

NORTHERN ITALY
Sta     Dist  EvAz     Phase      Date       Time     TRes  Azim  AzRes  Slow  SRes Def   SNR       Amp   Per   Mag1   Mag2       ID
SBF   000.27 133.0 m E Pg      2012/11/21 01:09:03.4   0.0                          T                                        5122021
SBF   000.27 133.0 m E Sg      2012/11/21 01:09:06.8  -0.2                          T               26.1  .20        Md 2.1  5122020
FRF   000.61 217.6 m E Pg      2012/11/21 01:09:09.5  -0.1                          T                                        5122018
FRF   000.61 217.6 m E Sg      2012/11/21 01:09:17.7   0.1                          T                3.8  .20        Md 2.2  5122014
MBDF  000.73 337.7 m E Pg      2012/11/21 01:09:11.9  -0.2                          T                                        5122016
MBDF  000.73 337.7 m E Sg      2012/11/21 01:09:22.1   0.5                          T                5.5  .40                5122009
LMR   000.86 213.8 m E Pg      2012/11/21 01:09:14.0  -0.1                          T                                        5122019
LMR   000.86 213.8 m E Sg      2012/11/21 01:09:25.3   0.0                          T                6.1  .27 Ml 2.1         5122015
SMRF  001.15 267.0 m E Pg      2012/11/21 01:09:19.5   0.0                          T                                        5135492
SMRF  001.15 267.0 m E P       2012/11/21 01:09:21.0  -0.1                          T                                        5122017
SMRF  001.15 267.0 m E Sg      2012/11/21 01:09:34.5   0.1                          T                3.8  .26 Ml 2.0         5122013
ORIF  001.26 313.9 m E Pn      2012/11/21 01:09:21.6   0.4                          T                                        5122010
ORIF  001.26 313.9 m E Sg      2012/11/21 01:09:38.1   0.0                          T                1.5  .22 Ml 1.8         5135497
LPG   001.48 348.7 m E Pg      2012/11/21 01:09:25.8  -0.1                          T                                        5135493
LPG   001.48 348.7 m E Sg      2012/11/21 01:09:44.9  -0.1                          T                 .8  .26 Ml 1.5         5135496
LPL   001.50 348.4 m E Pg      2012/11/21 01:09:26.2   0.0                          T                                        5135494
LPL   001.50 348.4 m E Sg      2012/11/21 01:09:45.6  -0.1                          T                1.8  .42 Ml 1.7         5135498
VIVF  001.96 295.3 m E Pn      2012/11/21 01:09:30.5   0.0                          T                                        5122008
VIVF  001.96 295.3 m E Sn      2012/11/21 01:09:54.3   0.1                          T                                        5122007
VIVF  001.96 295.3 m E Sg      2012/11/21 01:09:59.4  -0.2                          T                 .8  .23 Ml 1.7         5135495

.
EVENT     287216
    Date      Time       Latitude Longitude    Depth    Ndef Nsta Gap    Mag1  N    Mag2  N    Mag3  N   Author         ID
       rms   OT_Error      Smajor Sminor Az        Err   mdist  Mdist     Err        Err        Err      Quality

2012/11/21 01:56:55.7     44.6150    6.7663      2.0      78   22 049  Ml 2.5 16  Md 2.0  1              bulletin    287316
                                                                                                         _ldg
      0.86   +-  0.08       2.2    1.6   72.28 +-  0.0    0.11   3.81   +-0.3      +-                    m i ke

FRANCE
Sta     Dist  EvAz     Phase      Date       Time     TRes  Azim  AzRes  Slow  SRes Def   SNR       Amp   Per   Mag1   Mag2       ID
MBDF  000.11 001.9 m E Pg      2012/11/21 01:56:57.5  -0.9                          T   001.0                                5121959
MBDF  000.11 001.9 m E Sg      2012/11/21 01:56:59.5  -0.5                          T              422.6  .34        Md 2.0  5122026
ORIF  000.70 296.0 m E Pg      2012/11/21 01:57:07.1  -2.0                          T   001.0                                5121962
ORIF  000.70 296.0 m E Sg      2012/11/21 01:57:15.3  -3.0                          T               35.9  .24                5122025
LPG   000.88 359.3 m E Pg      2012/11/21 01:57:11.4  -1.3                          T   001.0                                5121941
LPG   000.88 359.3 m E Sg      2012/11/21 01:57:23.1  -1.1                          T   001.0       11.2  .20 Ml 2.5         5121942
LPL   000.90 358.5 m E Pg      2012/11/21 01:57:11.8  -1.2                          T   001.0                                5121944
LPL   000.90 358.5 m E Sg      2012/11/21 01:57:24.1  -0.6                          T   001.0       14.4  .28 Ml 2.5         5121945
SBF   000.89 147.2 m E Pg      2012/11/21 01:57:12.4  -0.1                          T   001.0                                5121947
SBF   000.89 147.2 m E Sg      2012/11/21 01:57:23.5  -0.7                          T   001.0       61.2  .34 Ml 3.0         5121949
FRF   001.06 184.7 m E Pg      2012/11/21 01:57:15.0  -0.5                          T   001.0                                5121931
FRF   001.06 184.7 m E Sg      2012/11/21 01:57:27.5  -1.7                          T   001.0       26.5  .28 Ml 2.9         5121932
SMRF  001.07 233.7 m E Pg      2012/11/21 01:57:15.6  -0.1                          T   001.0                                5121967
SMRF  001.07 233.7 m E Sg      2012/11/21 01:57:29.9   0.3                          T               20.9  .26 Ml 2.8         5122024
LMR   001.29 188.3 m E Pn      2012/11/21 01:57:19.3   0.2                          T   001.0                                5121936
LMR   001.29 188.3 m E Sg      2012/11/21 01:57:36.0  -0.6                          T   001.0       27.3  .28 Ml 3.0         5121938
VIVF  001.51 279.9 m E Pn      2012/11/21 01:57:21.8  -0.3                          T   001.0                                5121964
VIVF  001.51 279.9 m E Sn      2012/11/21 01:57:41.5   0.2                          T   001.0        6.1  .34 Ml 2.3         5121965
LASF  002.16 256.5 m E Pn      2012/11/21 01:57:30.0  -0.9                          T   001.0                                5121935
LASF  002.16 256.5 m E Sn      2012/11/21 01:57:55.7  -1.0                          T                1.9  .18 Ml 2.3         5122022
CABF  002.05 346.8 m E Pn      2012/11/21 01:57:31.0   1.4                          T   001.0                                5121956
CABF  002.05 346.8 m E Sn      2012/11/21 01:57:56.5   2.2                          T   001.0                                5121957
CABF  002.05 346.8 m E Sg      2012/11/21 01:57:59.1  -1.3                          T   001.0        5.6  .60 Ml 2.2         5121958
PGF   002.63 141.1 m E Pn      2012/11/21 01:57:37.7   0.2                          T   001.0                                5121946
PGF   002.63 141.1 m E Sn      2012/11/21 01:58:07.2  -0.8                          T                4.1  .30 Ml 2.7         5122023
SMF   002.89 315.7 m E Pn      2012/11/21 01:57:41.5   0.7                          T   001.0                                5121950
SMF   002.89 315.7 m E Sn      2012/11/21 01:58:16.6   2.5                          T   001.0        3.9  .28 Ml 2.5         5121951
AVF   003.23 313.5 m E Pn      2012/11/21 01:57:46.2   0.7                          T   001.0                                5121925
LOR   003.34 323.6 m E Pn      2012/11/21 01:57:47.3   0.3                          T   001.0                                5121939
LOR   003.34 323.6 m E Sn      2012/11/21 01:58:25.1   0.2                          T   001.0        3.7  .52 Ml 2.4         5121940
CAF   003.36 276.9 m E Pn      2012/11/21 01:57:48.0   0.6                          T   001.0                                5121928
SSF   003.34 318.2 m E Pn      2012/11/21 01:57:48.1   1.1                          T   001.0                                5121952
SSF   003.34 318.2 m E Sn      2012/11/21 01:58:25.1   0.1                          T   001.0                                5121953
SSF   003.34 318.2 m E Sg      2012/11/21 01:58:39.7  -0.9                          T   001.0        1.1  .20 Ml 2.3         5121954
BGF   003.37 306.6 m E Pn      2012/11/21 01:57:48.2   0.8                          T   001.0                                5121926
BGF   003.37 306.6 m E Sg      2012/11/21 01:58:43.9   2.5                          T   001.0        4.9  .40 Ml 2.6         5121927
HAU   003.40 355.3 m E Pn      2012/11/21 01:57:48.6   0.7                          T   001.0                                5121933
HAU   003.40 355.3 m E Sn      2012/11/21 01:58:26.6   0.1                          T   001.0        6.8  .34 Ml 2.6         5121934
MTLF  003.52 250.4 m E Pn      2012/11/21 01:57:49.0   0.5                          T   001.0                                5121960
MTLF  003.52 250.4 m E Sn      2012/11/21 01:58:28.7  -0.6                          T   001.0         .8  .24 Ml 2.1         5121961
TCF   003.62 299.2 m E Pn      2012/11/21 01:57:51.0   0.2                          T   001.0                                5121955
CDF   003.81 005.1 m E Pn      2012/11/21 01:57:54.0   0.4                          T   001.0                                5121929

.
EVENT     287217
    Date      Time       Latitude Longitude    Depth    Ndef Nsta Gap    Mag1  N    Mag2  N    Mag3  N   Author         ID
       rms   OT_Error      Smajor Sminor Az        Err   mdist  Mdist     Err        Err        Err      Quality

2012/11/21 03:35:30.5     44.4815    6.7208      2.0      36    9 050  Ml 2.2  3  Md 2.1  1              bulletin    287317
                                                                                                         _ldg
      0.27   +-  0.05       1.0     .8   69.76 +-  0.0    0.07   1.51   +-0.1      +-                    m i ke

FRANCE
Sta     Dist  EvAz     Phase      Date       Time     TRes  Azim  AzRes  Slow  SRes Def   SNR       Amp   Per   Mag1   Mag2       ID
MBDF  000.25 008.4 m E Pg      2012/11/21 03:35:35.4  -0.1                          T                                        5122038
MBDF  000.25 008.4 m E Sg      2012/11/21 03:35:39.2   0.2                          T               12.2  .28        Md 2.1  5122037
ORIF  000.74 306.4 m E Pg      2012/11/21 03:35:44.0  -0.5                          T                                        5122036
ORIF  000.74 306.4 m E Sg      2012/11/21 03:35:53.9  -0.4                          T                4.4  .22                5122053
SBF   000.80 140.0 m E Pg      2012/11/21 03:35:45.8   0.2                          T                                        5122031
SBF   000.80 140.0 m E Sg      2012/11/21 03:35:56.5   0.3                          T                7.8  .30                5122059
FRF   000.92 183.3 m E Pg      2012/11/21 03:35:47.9   0.1                          T                                        5122033
FRF   000.92 183.3 m E Sg      2012/11/21 03:36:00.2   0.4                          T                7.3  .20 Ml 2.4         5122057
SMRF  000.97 238.9 m E Pg      2012/11/21 03:35:49.4   0.7                          T                                        5122056
SMRF  000.97 238.9 m E Sg      2012/11/21 03:36:01.6   0.4                          T               22.2  .96 Ml 2.2         5122055
LPG   001.02 001.2 m E Pg      2012/11/21 03:35:49.9   0.0                          T                                        5122034
LPG   001.02 001.2 m E Sg      2012/11/21 03:36:02.9  -0.2                          T                                        5122054
LPL   001.03 000.5 m E Pg      2012/11/21 03:35:50.6   0.5                          T                                        5122035
LMR   001.16 187.7 m E Pg      2012/11/21 03:35:52.6   0.5                          T                                        5122032
LMR   001.16 187.7 m E Sg      2012/11/21 03:36:06.9  -0.2                          T                4.0  .22 Ml 2.2         5122058
VIVF  001.51 285.1 m E Pn      2012/11/21 03:35:56.7  -0.2                          T                                        5122052

.
EVENT     287247
    Date      Time       Latitude Longitude    Depth    Ndef Nsta Gap    Mag1  N    Mag2  N    Mag3  N   Author         ID
       rms   OT_Error      Smajor Sminor Az        Err   mdist  Mdist     Err        Err        Err      Quality

2012/11/21 07:09:03.8     44.7794    6.7373      2.0      26    6 096  Ml 1.9  2  Md 2.0  1              bulletin    287347
                                                                                                         _ldg
      0.18   +-  0.03        .8     .5   72.02 +-  0.0    0.06   1.45   +-0.1      +-                    m i ke

FRANCE
Sta     Dist  EvAz     Phase      Date       Time     TRes  Azim  AzRes  Slow  SRes Def   SNR       Amp   Per   Mag1   Mag2       ID
MBDF  000.06 155.1 m E Pg      2012/11/21 07:09:05.5   0.0                          T                                        5122135
MBDF  000.06 155.1 m E Sg      2012/11/21 07:09:06.5   0.0                          T               68.1  .20        Md 2.0  5122132
ORIF  000.63 283.1 m E Pg      2012/11/21 07:09:15.8   0.1                          T                                        5122134
ORIF  000.63 283.1 m E Sg      2012/11/21 07:09:23.9  -0.1                          T                4.2  .27                5122131
LPG   000.72 000.8 m E Pg      2012/11/21 07:09:17.8   0.1                          T                                        5122128
LPG   000.72 000.8 m E Sg      2012/11/21 07:09:26.8  -0.3                          T                2.0  .29                5122129
LPL   000.74 359.7 m E Pg      2012/11/21 07:09:18.3   0.3                          T                                        5122133
LPL   000.74 359.7 m E Sg      2012/11/21 07:09:27.7   0.1                          T                1.9  .30                5122130
FRF   001.22 183.1 m E Sg      2012/11/21 07:09:42.2  -0.2                          T                2.8  .29 Ml 1.9         5136581
LMR   001.45 186.6 m E Sg      2012/11/21 07:09:49.6  -0.1                          T                1.2  .23 Ml 1.8         5136580

.
EVENT     287867
    Date      Time       Latitude Longitude    Depth    Ndef Nsta Gap    Mag1  N    Mag2  N    Mag3  N   Author         ID
       rms   OT_Error      Smajor Sminor Az        Err   mdist  Mdist     Err        Err        Err      Quality

2012/11/21 07:49:31.0     36.8478   -7.0277     38.0 f    79    9 174                                    bulletin    287967
                                                                                                         _ldg
                                               +-         0.78  11.81                                    m i ke

STRAIT OF GIBRALTAR
Sta     Dist  EvAz     Phase      Date       Time     TRes  Azim  AzRes  Slow  SRes Def   SNR       Amp   Per   Mag1   Mag2       ID
SJPF  007.68 033.6 m E Pn      2012/11/21 07:51:19.9   1.0                          T                                        5130402
SJPF  007.68 033.6 m E Sn      2012/11/21 07:52:39.3  -0.5                          T               26.8  .50                5130401
ETSF  007.82 037.5 m E Pn      2012/11/21 07:51:21.5   0.6                          T                                        5130400
ETSF  007.82 037.5 m E Sn      2012/11/21 07:52:42.4  -1.0                          T                2.2  .26                5130403
EPF   008.37 040.2 m E Pn      2012/11/21 07:51:30.1   1.8                          T                                        5130404
EPF   008.37 040.2 m E Sn      2012/11/21 07:52:57.5   1.1                          T                4.2  .22                5130405
LFF   009.99 033.6 m E Pn      2012/11/21 07:51:50.4   0.2                          T                                        5136587
LFF   009.99 033.6 m E Sn      2012/11/21 07:53:35.1   0.1                          T                6.7  .37                5136583
RJF   010.62 034.7 m E Pn      2012/11/21 07:51:58.8  -0.1                          T                                        5136586
LASF  010.99 045.6 m E Pn      2012/11/21 07:52:03.5  -0.3                          T                                        5136588
QUIF  011.42 013.2 m E Pn      2012/11/21 07:52:09.5  -0.2                          T                                        5136590
QUIF  011.42 013.2 m E Sn      2012/11/21 07:54:09.4   0.3                          T                2.4  .24                5136584
ROSF  011.81 012.3 m E Pn      2012/11/21 07:52:14.6  -0.4                          T                                        5136589
ROSF  011.81 012.3 m E Sn      2012/11/21 07:54:17.7  -0.6                          T                2.6  .28                5136585
CAF   010.60 037.6 m E Sn      2012/11/21 07:53:49.5  -0.1                          T                3.3  .35                5136582

.
