BEGIN GSE2.0
MSG_TYPE DATA
MSG_ID 21-SEP-1114:03:53  FRA_NDC
E-MAIL
DATA_TYPE BULLETIN
Reviewed Bulletin (REB) # P2011-034  from French NDC for regional phases     PERIOD 24 AUG 2011 TO 30 AUG 2011 N P., J-P S.
EVENT     262982
    Date      Time       Latitude Longitude    Depth    Ndef Nsta Gap    Mag1  N    Mag2  N    Mag3  N   Author         ID
       rms   OT_Error      Smajor Sminor Az        Err   mdist  Mdist     Err        Err        Err      Quality

2011/08/24 07:23:48.5     50.2299   12.4855     10.0 f    55   15 041  Ml 3.3 13                         js067245    262982

      0.97   +-  0.11       2.5    2.0  146.18 +-  0.0    0.02   9.85   +-0.3                            m i ke

GERMANY
Sta     Dist  EvAz     Phase      Date       Time     TRes  Azim  AzRes  Slow  SRes Def   SNR       Amp   Per   Mag1   Mag2       ID
LANF  003.29 249.5 m E Pn      2011/08/24 07:24:39.8   1.6                          T                                        4740638
LANF  003.29 249.5 m E Sg      2011/08/24 07:25:33.8   2.0                          T               33.0  .31 Ml 3.5         4740643
RUP   003.54 263.5 m E Pn      2011/08/24 07:24:43.4   1.8                          T                                        4740649
RUP   003.54 263.5 m E Sg      2011/08/24 07:25:38.8  -0.9                          T                                        4740644
CDF   003.86 243.9 m E Pn      2011/08/24 07:24:47.6   1.5                          T                                        4740648
CDF   003.86 243.9 m E Sg      2011/08/24 07:25:51.2   1.5                          T               19.2  .40 Ml 3.4         4740634
HAU   004.60 243.4 m E Pn      2011/08/24 07:24:56.4   0.3                          T                                        4740647
HAU   004.60 243.4 m E Pg      2011/08/24 07:25:13.4  -0.3                          T                                        4740623
HAU   004.60 243.4 m E Sg      2011/08/24 07:26:12.5  -0.3                          T               14.2  .31 Ml 3.2         4740645
THEF  004.70 247.3 m E Pn      2011/08/24 07:24:57.2  -0.2                          T                                        4740636
THEF  004.70 247.3 m E Pg      2011/08/24 07:25:16.0   0.5                          T                                        4740624
THEF  004.70 247.3 m E Sg      2011/08/24 07:26:15.8   0.0                          T               12.4  .36 Ml 3.3         4740646
PAGF  004.72 251.8 m E Pn      2011/08/24 07:24:58.8   1.1  71.3  4.6               T                                        4740637
PAGF  004.72 251.8 m E Sg      2011/08/24 07:26:19.1   2.6                          T                1.4  .24 Ml 2.6         4740633
BAIF  005.33 271.3 m E Pn      2011/08/24 07:25:07.0   1.1                          T                                        4740639
BAIF  005.33 271.3 m E Sn      2011/08/24 07:26:06.5   2.9                          T                                        4740628
BAIF  005.33 271.3 m E Sg      2011/08/24 07:26:33.5  -1.8                          T                4.5  .33 Ml 3.1         4740627
LOR   006.43 245.8 m E Pn      2011/08/24 07:25:21.2   0.2  70.2  10.9              T                                        4740641
LOR   006.43 245.8 m E Sg      2011/08/24 07:27:09.8   0.2                          T                4.6  .30 Ml 3.4         4740625
SSF   006.74 245.4 m E Pn      2011/08/24 07:25:26.2   1.0                          T                                        4740640
SSF   006.74 245.4 m E Pg      2011/08/24 07:25:52.9  -0.1                          T                                        4740650
SSF   006.74 245.4 m E Sg      2011/08/24 07:27:16.9  -2.5                          T                5.3  .41 Ml 3.4         4740626
MTLF  009.85 229.5 m E Pn      2011/08/24 07:26:06.7  -0.8                          T                                        4740635
HINF  004.42 239.1 m E Sg      2011/08/24 07:26:08.2   1.0                          T               14.4  .28 Ml 3.5         4740632
GIVF  004.93 271.5 m E Sg      2011/08/24 07:26:23.4   0.6                          T                8.3  .32 Ml 3.3         4740642
CABF  005.59 232.1 m E Sg      2011/08/24 07:26:44.0   0.4                          T                2.2  .24 Ml 3.0         4740631
SMF   006.78 241.4 m E Sg      2011/08/24 07:27:22.1   1.6                          T                5.8  .31 Ml 3.5         4740630
LASF  008.51 227.0 m E Sn      2011/08/24 07:27:23.7   3.9                          T                1.8  .29 Ml 3.3         4740629

.
EVENT     262992
    Date      Time       Latitude Longitude    Depth    Ndef Nsta Gap    Mag1  N    Mag2  N    Mag3  N   Author         ID
       rms   OT_Error      Smajor Sminor Az        Err   mdist  Mdist     Err        Err        Err      Quality

2011/08/24 07:42:06.9     46.0255    6.8772      2.0      14    4 083  Ml 2.1  1  Md 1.8  3              js067245    262992

      0.29   +-  0.06       1.8    1.0  105.70 +-  0.0    0.04   1.94   +-         +-0.1                 m i ke

SWITZERLAND
Sta     Dist  EvAz     Phase      Date       Time     TRes  Azim  AzRes  Slow  SRes Def   SNR       Amp   Per   Mag1   Mag2       ID
LPL   000.52 191.3 m E Pg      2011/08/24 07:42:17.0  -0.1                          T                                        4741065
LPL   000.52 191.3 m E Sg      2011/08/24 07:42:23.9   0.0                          T                2.9  .27        Md 1.8  4741062
LPG   000.54 189.5 m E Pg      2011/08/24 07:42:17.2  -0.3                          T                                        4741064
LPG   000.54 189.5 m E Sg      2011/08/24 07:42:24.4  -0.1                          T                5.2  .25        Md 1.8  4741063
CABF  000.80 317.2 m E Pg      2011/08/24 07:42:22.6   0.4                          T                                        4741059
CABF  000.80 317.2 m E Sg      2011/08/24 07:42:33.5   0.9                          T                2.7  .25        Md 1.9  4741060
VIVF  001.94 233.8 m E Sg      2011/08/24 07:43:08.1   0.0                          T                2.2  .28 Ml 2.1         4741061

.
EVENT     262994
    Date      Time       Latitude Longitude    Depth    Ndef Nsta Gap    Mag1  N    Mag2  N    Mag3  N   Author         ID
       rms   OT_Error      Smajor Sminor Az        Err   mdist  Mdist     Err        Err        Err      Quality

2011/08/24 09:42:06.8     43.0291     .3491       .0 f    12    5 182  Ml 1.9  4  Md 2.2  3              js067245    262994

      0.33   +-  0.11       3.9    1.6  167.60 +-  0.0    0.01   1.93   +-0.7      +-0.2                 m i km

FRANCE
Sta     Dist  EvAz     Phase      Date       Time     TRes  Azim  AzRes  Slow  SRes Def   SNR       Amp   Per   Mag1   Mag2       ID
EPF   000.01 280.2 m E Pg      2011/08/24 09:42:07.2   0.1                          T                                        4740766
EPF   000.01 280.2 m E Sg      2011/08/24 09:42:07.8   0.6                          T              594.6  .18        Md 2.2  4740763
ETSF  000.68 259.2 m E Pg      2011/08/24 09:42:19.7  -0.3                          T                                        4740764
ETSF  000.68 259.2 m E Sg      2011/08/24 09:42:30.0   0.9                          T                3.1  .24        Md 2.0  4740762
SJPF  001.16 274.7 m E Pg      2011/08/24 09:42:28.5  -0.2                          T                                        4740758
SJPF  001.16 274.7 m E Sg      2011/08/24 09:42:44.3   0.4                          T                 .2  .17 Ml  .9 Md 2.3  4740759
MTLF  001.40 076.5 m E Pg      2011/08/24 09:42:33.3   0.1                          T                                        4740765
MTLF  001.40 076.5 m E Sg      2011/08/24 09:42:51.7   0.2                          T                2.6  .24 Ml 2.0         4740769
LFF   001.93 008.3 m E Pg      2011/08/24 09:42:42.7  -0.2                          T                                        4740760
LFF   001.93 008.3 m E Sg      2011/08/24 09:43:08.4   0.4                          T                4.8  .22 Ml 2.4         4740761

.
EVENT     262995
    Date      Time       Latitude Longitude    Depth    Ndef Nsta Gap    Mag1  N    Mag2  N    Mag3  N   Author         ID
       rms   OT_Error      Smajor Sminor Az        Err   mdist  Mdist     Err        Err        Err      Quality

2011/08/24 10:20:01.0     47.6259    6.2244       .0 f    16    9 119  Ml 2.2  6  Md 2.1  1              js067245    262995

      1.15   +-  0.10       2.0    1.5  125.10 +-  0.0    0.39   1.64   +-0.2      +-                    m i km

FRANCE
Sta     Dist  EvAz     Phase      Date       Time     TRes  Azim  AzRes  Slow  SRes Def   SNR       Amp   Per   Mag1   Mag2       ID
HAU   000.39 012.3 m E Pg      2011/08/24 10:20:08.6  -0.2                          T                                        4751761
HAU   000.39 012.3 m E Sg      2011/08/24 10:20:13.7  -0.5                          T               74.4  .82        Md 2.1  4751762
HINF  000.47 065.6 m E Pg      2011/08/24 10:20:10.0  -0.2                          T                                        4751759
HINF  000.47 065.6 m E Sg      2011/08/24 10:20:16.2  -0.4                          T               58.0  .86                4751760
SFTF  000.99 306.4 m E Pg      2011/08/24 10:20:19.7  -0.1 126.9  1.4               T                                        4751752
SFTF  000.99 306.4 m E Sn      2011/08/24 10:20:34.5  -0.1 139.5  14.0              T               14.2  .58 Ml 2.2         4751764
CABF  001.02 185.3 m E Pg      2011/08/24 10:20:20.6   0.1                          T                                        4751756
CABF  001.02 185.3 m E Sg      2011/08/24 10:20:33.7  -0.2                          T                                        4751757
CABF  001.02 185.3 m E Sn      2011/08/24 10:20:35.8   0.2                          T               19.5  .70 Ml 2.3         4751758
CDF   001.06 041.5 m E Pg      2011/08/24 10:20:21.6   0.4                          T                                        4751766
CDF   001.06 041.5 m E Sg      2011/08/24 10:20:35.1   0.0                          T               11.9  .40 Ml 2.4         4751767
THEF  000.62 345.7 m E Sg      2011/08/24 10:20:21.7   0.3                          T               64.1 1.08                4751763
LOR   001.64 258.3 m E Pg      2011/08/24 10:20:31.8  -0.1  78.5  1.9               T                                        4751754
LOR   001.64 258.3 m E Sg      2011/08/24 10:20:53.5   0.2  67.4  -9.1              T                4.9  .48 Ml 2.1         4751755
PAGF  000.99 340.4 m E Sn      2011/08/24 10:20:34.7   0.0 159.6  -0.4              T               12.7 1.19 Ml 1.8         4751765
MEZF  001.18 318.5 m E Sg      2011/08/24 10:20:39.0   0.3                          T               10.8  .47 Ml 2.3         4751753

.
EVENT     262996
    Date      Time       Latitude Longitude    Depth    Ndef Nsta Gap    Mag1  N    Mag2  N    Mag3  N   Author         ID
       rms   OT_Error      Smajor Sminor Az        Err   mdist  Mdist     Err        Err        Err      Quality

2011/08/24 12:01:06.8     50.2322   12.3984     10.0 f    47   13 045  Ml 3.3 13                         js067245    262996

      0.66   +-  0.09       2.3    1.5  134.06 +-  0.0    0.03   9.98   +-0.3                            m i ke

GERMANY
Sta     Dist  EvAz     Phase      Date       Time     TRes  Azim  AzRes  Slow  SRes Def   SNR       Amp   Per   Mag1   Mag2       ID
SMF   006.73 241.0 m E Pn      2011/08/24 12:02:42.6  -0.7                          T                                        4741017
SMF   006.73 241.0 m E Pg      2011/08/24 12:03:11.0  -0.1                          T                                        4741018
SMF   006.73 241.0 m E Sg      2011/08/24 12:04:37.6   0.2                          T                7.4  .38 Ml 3.5         4741015
LANF  003.24 249.0 m E Sg      2011/08/24 12:02:47.9  -0.6                          T               24.9  .22 Ml 3.5         4741028
CABF  005.55 231.6 m E Pg      2011/08/24 12:02:48.2  -1.3                          T                                        4741021
CABF  005.55 231.6 m E Sg      2011/08/24 12:04:00.2  -0.4                          T                3.5  .37 Ml 3.0         4741024
RUP   003.49 263.3 m E Sg      2011/08/24 12:02:55.4  -0.9                          T                                        4741029
TCF   007.86 243.8 m E Pn      2011/08/24 12:02:59.0   0.2                          T                                        4741020
TCF   007.86 243.8 m E Sg      2011/08/24 12:05:11.9  -0.8                          T                1.5  .29 Ml 3.1         4741031
LOR   006.38 245.6 m E Pg      2011/08/24 12:03:04.0  -0.6  65.2  6.0               T                                        4741019
LOR   006.38 245.6 m E Sg      2011/08/24 12:04:26.3  -0.1                          T                3.5  .24 Ml 3.3         4741033
CDF   003.81 243.4 m E Sg      2011/08/24 12:03:05.8  -0.7                          T               15.4  .25 Ml 3.5         4741027
HINF  004.38 238.6 m E Sg      2011/08/24 12:03:23.5  -0.5                          T               16.7  .33 Ml 3.4         4741025
SGMF  009.98 264.3 m E Pn      2011/08/24 12:03:27.8   0.2                          T                                        4741016
PAGF  004.67 251.5 m E Sg      2011/08/24 12:03:32.4  -0.7                          T                1.5  .29 Ml 2.5         4741026
BAIF  005.27 271.3 m E Sg      2011/08/24 12:03:51.2  -0.6                          T                5.3  .35 Ml 3.1         4741030
SSF   006.69 245.1 m E Sg      2011/08/24 12:04:36.2   0.1                          T                6.9  .48 Ml 3.4         4741032
BGF   007.34 243.6 m E Sg      2011/08/24 12:04:58.4   1.8                          T                9.1  .45 Ml 3.6         4741023

.
EVENT     262997
    Date      Time       Latitude Longitude    Depth    Ndef Nsta Gap    Mag1  N    Mag2  N    Mag3  N   Author         ID
       rms   OT_Error      Smajor Sminor Az        Err   mdist  Mdist     Err        Err        Err      Quality

2011/08/24 12:11:51.8     43.2687   -1.5368       .0 f     6    3 335  Ml 1.6  1  Md 2.1  2              js067245    262997

      0.28   +-  0.39       8.5    6.6   27.28 +-  0.0    0.28   1.39   +-         +-0.0                 m i km

PYRENEES
Sta     Dist  EvAz     Phase      Date       Time     TRes  Azim  AzRes  Slow  SRes Def   SNR       Amp   Per   Mag1   Mag2       ID
SJPF  000.28 124.2 m E Pg      2011/08/24 12:11:57.2  -0.3                          T                                        4740916
SJPF  000.28 124.2 m E Sg      2011/08/24 12:12:01.2  -0.2                          T                7.8  .17        Md 2.1  4740914
ETSF  000.81 117.0 m E Pg      2011/08/24 12:12:07.4   0.0                          T                                        4740915
ETSF  000.81 117.0 m E Sg      2011/08/24 12:12:17.4  -0.6                          T                2.2  .21        Md 2.1  4740913
EPF   001.39 099.2 m E Pg      2011/08/24 12:12:18.0  -0.2                          T                                        4751768
EPF   001.39 099.2 m E Sg      2011/08/24 12:12:36.4   0.1                          T                 .9  .24 Ml 1.6         4751769

.
EVENT     262998
    Date      Time       Latitude Longitude    Depth    Ndef Nsta Gap    Mag1  N    Mag2  N    Mag3  N   Author         ID
       rms   OT_Error      Smajor Sminor Az        Err   mdist  Mdist     Err        Err        Err      Quality

2011/08/24 14:05:53.2     46.0320    6.8875      2.0      22    6 082  Ml 2.0  4  Md 2.0  3              js067245    262998

      0.22   +-  0.04       1.3     .7  110.81 +-  0.0    0.03   1.95   +-0.3      +-0.3                 m i ke

SWITZERLAND
Sta     Dist  EvAz     Phase      Date       Time     TRes  Azim  AzRes  Slow  SRes Def   SNR       Amp   Per   Mag1   Mag2       ID
LPL   000.53 191.9 m E Pg      2011/08/24 14:06:03.2  -0.3                          T                                        4740941
LPL   000.53 191.9 m E Sg      2011/08/24 14:06:10.5   0.0                          T                5.6  .29        Md 2.1  4740938
LPG   000.54 190.2 m E Pg      2011/08/24 14:06:03.6  -0.3                          T                                        4740940
LPG   000.54 190.2 m E Sg      2011/08/24 14:06:11.1   0.1                          T                4.4  .18        Md 1.7  4740939
CABF  000.80 316.5 m E Pg      2011/08/24 14:06:08.7   0.3                          T                                        4740932
CABF  000.80 316.5 m E Sg      2011/08/24 14:06:18.8  -0.1                          T                4.6  .29        Md 2.3  4740931
ORIF  001.32 212.8 m E Pg      2011/08/24 14:06:18.0   0.1                          T                                        4740935
ORIF  001.32 212.8 m E Sg      2011/08/24 14:06:35.5   0.5                          T                3.4  .30 Ml 2.0         4740937
MBDF  001.31 183.6 m E Pg      2011/08/24 14:06:18.0   0.3                          T                                        4740936
MBDF  001.31 183.6 m E Sg      2011/08/24 14:06:34.9   0.2                          T                1.9  .33 Ml 1.7         4751771
VIVF  001.95 233.8 m E Pn      2011/08/24 14:06:26.2   0.6                          T                                        4740928
VIVF  001.95 233.8 m E Pg      2011/08/24 14:06:29.7   0.2                          T                                        4740933
VIVF  001.95 233.8 m E Sg      2011/08/24 14:06:54.4  -0.3                          T                4.1  .26 Ml 2.4         4740934

.
