EVENT     297341
    Date      Time       Latitude Longitude    Depth    Ndef Nsta Gap    Mag1  N    Mag2  N    Mag3  N   Author         ID
       rms   OT_Error      Smajor Sminor Az        Err   mdist  Mdist     Err        Err        Err      Quality

2013/05/02 18:26:53.8     44.8756    6.6571      4.0 f    28    8 090  Ml 1.6  4  Md 1.7  3              bulletin    297441
                                                                                                         _ldg
      0.29   +-  0.05       1.1     .8   94.70 +-  0.0    0.10   1.55   +-0.3      +-0.1                 m i ke

FRANCE
Sta     Dist  EvAz     Phase      Date       Time     TRes  Azim  AzRes  Slow  SRes Def   SNR       Amp   Per   Mag1   Mag2       ID
MBDF  000.17 151.3 m E Pg      2013/05/02 18:26:57.2  -0.3                          T                                        5273393
MBDF  000.17 151.3 m E Sg      2013/05/02 18:26:59.7  -0.2                          T               18.2  .18        Md 1.5  5273386
ORIF  000.55 274.7 m E Pg      2013/05/02 18:27:04.2  -0.2                          T                                Md 1.7  5273392
ORIF  000.55 274.7 m E Sg      2013/05/02 18:27:11.2  -0.5                          T                4.1  .20                5273387
LPG   000.63 006.1 m E Pg      2013/05/02 18:27:06.1   0.1                          T                                        5273390
LPG   000.63 006.1 m E Sg      2013/05/02 18:27:15.0   0.7                          T                3.1  .24        Md 1.8  5273389
LPL   000.64 004.7 m E Pg      2013/05/02 18:27:06.7   0.5                          T                                        5273391
LPL   000.64 004.7 m E Sg      2013/05/02 18:27:15.6   0.9                          T                1.6  .18                5273388
SBF   001.16 150.9 m E Pg      2013/05/02 18:27:15.7   0.2                          T                                        5273394
SBF   001.16 150.9 m E Sg      2013/05/02 18:27:30.8   0.3                          T                 .9  .21 Ml 1.5         5273396
FRF   001.31 180.3 m E Pg      2013/05/02 18:27:18.6   0.2                          T                                        5273384
FRF   001.31 180.3 m E Sg      2013/05/02 18:27:35.6   0.3                          T                1.4  .21 Ml 1.8         5273385
LMR   001.55 184.0 m E Pg      2013/05/02 18:27:22.8   0.3                          T                                        5273395
LMR   001.55 184.0 m E Sg      2013/05/02 18:27:42.7   0.2                          T                1.1  .20 Ml 1.8         5273383
SMRF  001.19 221.1 m E Sg      2013/05/02 18:27:31.5   0.1                          T                 .6  .26 Ml 1.3         5283858

.
EVENT     297342
    Date      Time       Latitude Longitude    Depth    Ndef Nsta Gap    Mag1  N    Mag2  N    Mag3  N   Author         ID
       rms   OT_Error      Smajor Sminor Az        Err   mdist  Mdist     Err        Err        Err      Quality

2013/05/02 18:55:36.2     35.6620     .0117      2.0     156   26 052  Ml 3.8  9                         bulletin    297442
                                                                                                         _ldg
      1.11   +-  0.18       4.6    2.5  168.03 +-  0.0    0.28  25.84   +-0.2                            m i ke

NORTHERN ALGERIA
Sta     Dist  EvAz     Phase      Date       Time     TRes  Azim  AzRes  Slow  SRes Def   SNR       Amp   Per   Mag1   Mag2       ID
ETSF  007.24 356.7 m E Pn      2013/05/02 18:57:21.8   1.1                          T                                        5273412
ETSF  007.24 356.7 m E Sn      2013/05/02 18:58:38.7   0.0                          T               18.9  .50 Ml 3.9         5273425
EPF   007.36 001.9 m E Pn      2013/05/02 18:57:24.0   1.6                          T                                        5273415
EPF   007.36 001.9 m E Sn      2013/05/02 18:58:43.1   1.5                          T               11.8  .52 Ml 3.7         5273397
SJPF  007.50 353.0 m E Pn      2013/05/02 18:57:25.4   1.2                          T                                        5273411
SJPF  007.50 353.0 m E Sn      2013/05/02 18:58:45.2   0.3                          T                                        5273433
MTLF  007.86 011.9 m E Pn      2013/05/02 18:57:30.6   1.6                          T                                        5273414
MTLF  007.86 011.9 m E Sn      2013/05/02 18:58:57.7   4.4                          T                9.7  .68 Ml 3.6         5273398
LASF  008.91 018.2 m E Pn      2013/05/02 18:57:45.7   2.3                          T                                        5273413
LMR   009.16 031.3 m E Pn      2013/05/02 18:57:46.2  -0.4                          T                                        5273420
LMR   009.16 031.3 m E Sn      2013/05/02 18:59:22.2  -2.2                          T                6.2  .35 Ml 3.9         5273401
LFF   009.28 003.2 m E Pn      2013/05/02 18:57:49.7   1.3                          T                                        5273409
LFF   009.28 003.2 m E Sn      2013/05/02 18:59:27.6   0.2                          T               12.0  .44 Ml 3.9         5273424
CAF   009.38 009.0 m E Pn      2013/05/02 18:57:50.2   0.3                          T                                        5273410
CAF   009.38 009.0 m E Sn      2013/05/02 18:59:29.6  -0.3                          T                                        5273422
FRF   009.40 030.9 m E Pn      2013/05/02 18:57:50.7   0.7                          T                                        5273421
FRF   009.40 030.9 m E Sn      2013/05/02 18:59:29.5  -0.7                          T               10.4  .51 Ml 4.0         5273402
RJF   009.70 006.3 m E Pn      2013/05/02 18:57:55.5   1.4                          T                                        5273408
RJF   009.70 006.3 m E Sn      2013/05/02 18:59:37.1  -0.2                          T                7.5  .56 Ml 3.5         5273423
PGF   009.80 042.7 m E Pn      2013/05/02 18:57:56.4   0.8                          T                                        5273418
PGF   009.80 042.7 m E Sn      2013/05/02 18:59:36.0  -3.8                          T                6.0  .35 Ml 4.2         5273399
SBF   009.98 032.6 m E Pn      2013/05/02 18:57:59.1   1.1                          T                                        5273419
SBF   009.98 032.6 m E Sn      2013/05/02 18:59:42.3  -1.9                          T                7.8  .47 Ml 3.9         5273400
TCF   010.74 008.2 m E Pn      2013/05/02 18:58:08.8   0.4                          T                                        5273407
MFF   010.93 359.4 m E Pn      2013/05/02 18:58:12.1   1.3                          T                                        5273405
BGF   011.09 010.2 m E Pn      2013/05/02 18:58:14.1   1.0                          T                                        5273426
LPL   011.09 025.3 m E Pn      2013/05/02 18:58:16.0   2.8                          T                                        5273417
LPG   011.08 025.4 m E Pn      2013/05/02 18:58:16.2   3.0                          T                                        5273416
AVF   011.40 011.7 m E Pn      2013/05/02 18:58:19.5   2.3                          T                                        5273406
SSF   011.69 011.9 m E Pn      2013/05/02 18:58:22.0   0.9                          T                                        5273427
QUIF  012.47 350.1 m E Pn      2013/05/02 18:58:33.0   1.2                          T                                        5273404
GRR   012.73 357.4 m E Pn      2013/05/02 18:58:36.6   1.2                          T                                        5273432
ROSF  012.90 350.1 m E Pn      2013/05/02 18:58:38.6   1.0                          T                                        5273403
LDF   012.92 359.6 m E Pn      2013/05/02 18:58:39.1   1.1                          T                                        5273431
SFTF  013.08 015.0 m E Pn      2013/05/02 18:58:40.8   0.8                          T                                        5273428
FLN   013.10 358.6 m E Pn      2013/05/02 18:58:40.9   0.5                          T                                        5273430
HAU   013.20 018.9 m E Pn      2013/05/02 18:58:42.4   0.6                          T                                        5273429

.
EVENT     297343
    Date      Time       Latitude Longitude    Depth    Ndef Nsta Gap    Mag1  N    Mag2  N    Mag3  N   Author         ID
       rms   OT_Error      Smajor Sminor Az        Err   mdist  Mdist     Err        Err        Err      Quality

2013/05/02 22:50:11.3     43.1001    -.5852      2.0      26    7 106  Ml 1.9  4  Md 1.9  3              bulletin    297443
                                                                                                         _ldg
      0.61   +-  0.12       2.9    1.6    2.82 +-  0.0    0.09   2.67   +-0.2      +-0.1                 m i ke

PYRENEES
Sta     Dist  EvAz     Phase      Date       Time     TRes  Azim  AzRes  Slow  SRes Def   SNR       Amp   Per   Mag1   Mag2       ID
ETSF  000.20 174.6 m E Pg      2013/05/02 22:50:15.1  -0.3                          T                                        5273439
ETSF  000.20 174.6 m E Sg      2013/05/02 22:50:16.9  -1.4                          T               49.5  .25        Md 1.8  5273438
SJPF  000.47 271.8 m E Pg      2013/05/02 22:50:20.0  -0.3                          T                                        5273437
SJPF  000.47 271.8 m E Sg      2013/05/02 22:50:26.3  -0.2                          T               13.3  .23        Md 1.9  5273436
EPF   000.68 095.6 m E Pg      2013/05/02 22:50:24.1  -0.1                          T                                        5273435
EPF   000.68 095.6 m E Sg      2013/05/02 22:50:33.2   0.1                          T                6.5  .22        Md 2.1  5273434
MTLF  002.06 082.3 m E Pg      2013/05/02 22:50:49.7   0.1                          T                                        5284034
MTLF  002.06 082.3 m E Sn      2013/05/02 22:51:09.9   0.0                          T                                        5284036
MTLF  002.06 082.3 m E Sg      2013/05/02 22:51:15.7  -0.4                          T                2.2  .29 Ml 2.1         5284035
LFF   002.07 027.0 m E Sg      2013/05/02 22:51:16.6   0.2                          T                1.4  .27 Ml 1.8         5284032
CAF   002.64 045.4 m E Sg      2013/05/02 22:51:34.4   0.1                          T                 .9  .21 Ml 2.0         5284033
RJF   002.67 033.7 m E Sg      2013/05/02 22:51:35.4   0.3                          T                1.3  .25 Ml 1.8         5284031

.
EVENT     297344
    Date      Time       Latitude Longitude    Depth    Ndef Nsta Gap    Mag1  N    Mag2  N    Mag3  N   Author         ID
       rms   OT_Error      Smajor Sminor Az        Err   mdist  Mdist     Err        Err        Err      Quality

2013/05/03 02:02:53.6     44.6475    6.8304      2.0      61   11 054  Ml 2.6  9  Md 2.6  4              bulletin    297444
                                                                                                         _ldg
      0.77   +-  0.09       2.3    1.6   60.92 +-  0.0    0.09   2.62   +-0.2      +-0.4                 m i ke

FRANCE
Sta     Dist  EvAz     Phase      Date       Time     TRes  Azim  AzRes  Slow  SRes Def   SNR       Amp   Per   Mag1   Mag2       ID
MBDF  000.09 332.1 m E Pg      2013/05/03 02:02:55.5  -0.3                          T                                        5273463
MBDF  000.09 332.1 m E Sg      2013/05/03 02:02:57.3   0.1                          T              390.0  .18        Md 2.1  5273462
ORIF  000.73 292.1 m E Pg      2013/05/03 02:03:06.8  -0.7                          T                                        5273461
ORIF  000.73 292.1 m E Sg      2013/05/03 02:03:15.8  -1.2                          T               28.4  .33        Md 2.6  5273458
LPG   000.85 356.3 m E Pg      2013/05/03 02:03:09.6  -0.4                          T                                        5273455
LPG   000.85 356.3 m E Sg      2013/05/03 02:03:21.7   0.6                          T               13.0  .28        Md 2.7  5273444
LPL   000.87 355.5 m E Pg      2013/05/03 02:03:09.9  -0.4                          T                                        5273457
LPL   000.87 355.5 m E Sg      2013/05/03 02:03:22.7   1.0                          T               23.2  .36 Ml 2.6         5273456
SBF   000.90 150.8 m E Pg      2013/05/03 02:03:10.5   0.0                          T                                        5273451
SBF   000.90 150.8 m E Sg      2013/05/03 02:03:22.7   0.5                          T               59.1  .35 Ml 3.0         5273448
FRF   001.09 187.0 m E Pg      2013/05/03 02:03:13.7  -0.4                          T                                        5273453
FRF   001.09 187.0 m E Sg      2013/05/03 02:03:30.1   1.8                          T               14.9  .18 Ml 2.8         5273446
SMRF  001.12 233.7 m E Pg      2013/05/03 02:03:15.2   0.5                          T                                        5273454
SMRF  001.12 233.7 m E Sg      2013/05/03 02:03:31.2   2.0                          T               16.5  .29 Ml 2.6         5273445
LMR   001.33 190.1 m E Pg      2013/05/03 02:03:18.5   0.0                          T                                        5273452
LMR   001.33 190.1 m E Sg      2013/05/03 02:03:35.9   0.1                          T               13.1  .19 Ml 2.8         5273447
VIVF  001.55 278.5 m E Pg      2013/05/03 02:03:21.5  -1.1                          T                                        5273460
VIVF  001.55 278.5 m E Sg      2013/05/03 02:03:43.9   1.3                          T                5.0  .34 Ml 2.2         5273459
LASF  002.21 256.0 m E Pn      2013/05/03 02:03:29.8   0.3                          T                                        5273443
LASF  002.21 256.0 m E Sn      2013/05/03 02:03:56.4   0.6                          T                3.2  .21 Ml 2.4         5273442
PGF   002.62 142.3 m E Pn      2013/05/03 02:03:36.2   0.9                          T                                        5273450
PGF   002.62 142.3 m E Sn      2013/05/03 02:04:08.5   2.7                          T                3.7  .26 Ml 2.7         5273449

.
EVENT     297345
    Date      Time       Latitude Longitude    Depth    Ndef Nsta Gap    Mag1  N    Mag2  N    Mag3  N   Author         ID
       rms   OT_Error      Smajor Sminor Az        Err   mdist  Mdist     Err        Err        Err      Quality

2013/05/03 02:47:54.4     42.7090   -1.6816      2.0      75    8 081  Ml 2.8  7  Md 2.7  1              bulletin    297445
                                                                                                         _ldg
      0.90   +-  0.09       2.1    1.6  164.68 +-  0.0    0.10   5.66   +-0.3      +-                    m i ke

PYRENEES
Sta     Dist  EvAz     Phase      Date       Time     TRes  Azim  AzRes  Slow  SRes Def   SNR       Amp   Per   Mag1   Mag2       ID
SJPF  000.53 039.5 m E Pg      2013/05/03 02:48:04.0  -0.5                          T                                        5273482
SJPF  000.53 039.5 m E Sg      2013/05/03 02:48:11.4   0.0                          T               88.0  .30        Md 2.7  5273471
ETSF  000.85 076.7 m E Pn      2013/05/03 02:48:10.0  -1.8                          T                                        5273481
ETSF  000.85 076.7 m E Sn      2013/05/03 02:48:23.8  -0.3                          T               19.6  .26                5273469
EPF   001.52 077.1 m E Pn      2013/05/03 02:48:21.8   0.8                          T                                        5273480
EPF   001.52 077.1 m E Sn      2013/05/03 02:48:41.0   0.7                          T               36.7  .32 Ml 3.1         5273470
LFF   002.84 037.3 m E Pn      2013/05/03 02:48:39.7   0.9                          T                                        5273477
LFF   002.84 037.3 m E Sn      2013/05/03 02:49:13.5   2.0                          T                 10  .40 Ml 2.6         5273489
MTLF  002.93 076.2 m E Pn      2013/05/03 02:48:41.3   1.2                          T                                        5273479
MTLF  002.93 076.2 m E Sn      2013/05/03 02:49:13.7  -0.1                          T                4.5  .29 Ml 2.6         5273468
RJF   003.47 040.6 m E Pn      2013/05/03 02:48:47.9   0.3                          T                                        5273476
RJF   003.47 040.6 m E Sn      2013/05/03 02:49:28.9   2.1                          T                3.2  .16 Ml 2.5         5273474
CAF   003.50 049.5 m E Pn      2013/05/03 02:48:48.2   0.3                          T                                        5273478
CAF   003.50 049.5 m E Sn      2013/05/03 02:49:28.6   1.1                          T                4.4  .25 Ml 2.8         5273473
BGF   005.02 038.5 m E Pn      2013/05/03 02:49:08.5  -0.2                          T                                        5273475
BGF   005.02 038.5 m E Sn      2013/05/03 02:50:04.0   0.1                          T                7.8  .34 Ml 3.2         5273472

.
EVENT     297346
    Date      Time       Latitude Longitude    Depth    Ndef Nsta Gap    Mag1  N    Mag2  N    Mag3  N   Author         ID
       rms   OT_Error      Smajor Sminor Az        Err   mdist  Mdist     Err        Err        Err      Quality

2013/05/03 03:21:27.6     42.7185   -1.6856      2.0      15    3 103  Ml 2.5  1  Md 2.5  2              bulletin    297446
                                                                                                         _ldg
      0.56   +-  0.16       3.3    2.6  157.28 +-  0.0    0.09   2.32   +-         +-0.2                 m i ke

PYRENEES
Sta     Dist  EvAz     Phase      Date       Time     TRes  Azim  AzRes  Slow  SRes Def   SNR       Amp   Per   Mag1   Mag2       ID
SJPF  000.52 040.5 m E Pg      2013/05/03 03:21:36.8  -0.6                          T                                        5273488
SJPF  000.52 040.5 m E Sg      2013/05/03 03:21:44.3   0.0                          T                                Md 2.4  5273483
ETSF  000.85 077.4 m E Pg      2013/05/03 03:21:43.6   0.0                          T                                        5273487
ETSF  000.85 077.4 m E Sg      2013/05/03 03:21:54.8   0.2                          T                4.6  .32        Md 2.6  5273484
EPF   001.52 077.5 m E Pn      2013/05/03 03:21:54.4   0.2                          T                                        5273486
EPF   001.52 077.5 m E Sn      2013/05/03 03:22:13.4   0.1                          T                7.3  .24 Ml 2.5         5273485

.
