EVENT     287317
    Date      Time       Latitude Longitude    Depth    Ndef Nsta Gap    Mag1  N    Mag2  N    Mag3  N   Author         ID
       rms   OT_Error      Smajor Sminor Az        Err   mdist  Mdist     Err        Err        Err      Quality

2012/11/22 10:27:11.5     44.9371    8.1699     20.0 f   100   20 071  Ml 2.7 18  Md 2.7  1              bulletin    287417
                                                                                                         _ldg
      1.06   +-  0.13       2.8    2.2   79.12 +-  0.0    0.16   4.39   +-0.3      +-                    m i ke

NORTHERN ITALY
Sta     Dist  EvAz     Phase      Date       Time     TRes  Azim  AzRes  Slow  SRes Def   SNR       Amp   Per   Mag1   Mag2       ID
MBDF  001.02 258.6 m E Pn      2012/11/22 10:27:28.7  -0.6                          T                                        5122619
MBDF  001.02 258.6 m E Pg      2012/11/22 10:27:30.8  -0.2                          T                                        5136682
MBDF  001.02 258.6 m E Sn      2012/11/22 10:27:41.9  -0.2                          T                                        5136667
MBDF  001.02 258.6 m E Sg      2012/11/22 10:27:44.2  -0.3                          T               40.5  .42 Ml 2.8         5122606
LPG   001.15 299.7 m E Pn      2012/11/22 10:27:30.5  -0.8                          T                                        5122616
LPG   001.15 299.7 m E Pg      2012/11/22 10:27:33.3  -0.2                          T                                        5136678
LPG   001.15 299.7 m E Sn      2012/11/22 10:27:45.2  -0.2                          T                                        5136669
LPG   001.15 299.7 m E Sg      2012/11/22 10:27:48.3  -0.3                          T               17.2  .32 Ml 2.6         5122604
LPL   001.17 300.2 m E Pn      2012/11/22 10:27:30.6  -0.9                          T                                        5122617
LPL   001.17 300.2 m E Pg      2012/11/22 10:27:33.9   0.0                          T                                        5136679
LPL   001.17 300.2 m E Sn      2012/11/22 10:27:45.6  -0.3                          T                                        5136670
LPL   001.17 300.2 m E Sg      2012/11/22 10:27:48.5  -0.7                          T               23.2  .36 Ml 2.7         5122605
SBF   001.20 206.4 m E P       2012/11/22 10:27:33.3  -0.1                          T                                        5122615
SBF   001.20 206.4 m E Pg      2012/11/22 10:27:34.5   0.4                          T                                        5136674
SBF   001.20 206.4 m E Sn      2012/11/22 10:27:46.0  -0.2                          T                                        5136673
SBF   001.20 206.4 m E Sg      2012/11/22 10:27:49.9   0.1                          T               91.5  .39 Ml 3.3 Md 2.7  5122600
ORIF  001.63 270.1 m E Pn      2012/11/22 10:27:37.8   0.2                          T                                        5122618
ORIF  001.63 270.1 m E P       2012/11/22 10:27:39.7   0.0                          T                                        5136681
ORIF  001.63 270.1 m E Pg      2012/11/22 10:27:41.8  -0.2                          T                                        5136680
ORIF  001.63 270.1 m E Sn      2012/11/22 10:27:56.2  -0.4                          T                                        5136668
ORIF  001.63 270.1 m E Sg      2012/11/22 10:28:03.6   0.4                          T               22.3  .48 Ml 2.8         5122603
FRF   001.76 219.0 m E Pn      2012/11/22 10:27:39.2   0.0                          T                                        5122612
FRF   001.76 219.0 m E Pg      2012/11/22 10:27:44.2  -0.1                          T                                        5136676
FRF   001.76 219.0 m E Sn      2012/11/22 10:28:02.8   3.2                          T                                        5122602
SMRF  002.09 243.6 m E Pn      2012/11/22 10:27:43.9   0.0                          T                                        5122611
SMRF  002.09 243.6 m E Pg      2012/11/22 10:27:49.9  -0.6                          T                                        5136677
SMRF  002.09 243.6 m E Sg      2012/11/22 10:28:17.4  -0.2                          T                2.3  .24 Ml 2.2         5136671
LMR   002.00 217.3 m E P       2012/11/22 10:27:45.2   0.3                          T                                        5122613
LMR   002.00 217.3 m E Pg      2012/11/22 10:27:49.1   0.4                          T                                        5136675
LMR   002.00 217.3 m E Sn      2012/11/22 10:28:04.9  -0.5                          T                                        5136672
LMR   002.00 217.3 m E Sg      2012/11/22 10:28:14.4  -0.2                          T               10.7  .32 Ml 2.7         5122601
CABF  002.22 319.7 m E Pn      2012/11/22 10:27:45.7   0.1                          T                                        5136683
CABF  002.22 319.7 m E Sn      2012/11/22 10:28:10.6  -0.2                          T                4.3  .27 Ml 2.5         5136684
PGF   002.46 165.6 m E Pn      2012/11/22 10:27:49.3   0.4                          T                                        5122614
PGF   002.46 165.6 m E Sn      2012/11/22 10:28:17.0   0.4                          T                5.2  .28 Ml 2.8         5122599
VIVF  002.49 269.4 m E Pn      2012/11/22 10:27:49.8   0.6                          T                                        5122610
VIVF  002.49 269.4 m E Sn      2012/11/22 10:28:16.6  -0.5                          T                                        5136666
VIVF  002.49 269.4 m E Sg      2012/11/22 10:28:29.0  -0.9                          T                1.8  .20 Ml 2.3         5122598
HINF  003.02 342.9 m E Pn      2012/11/22 10:27:56.4   0.0                          T                                        5136685
HINF  003.02 342.9 m E Sn      2012/11/22 10:28:29.5  -0.4                          T                2.4  .22 Ml 2.5         5136661
HAU   003.32 338.4 m E Pn      2012/11/22 10:28:00.7   0.2                          T                                        5122694
HAU   003.32 338.4 m E Sn      2012/11/22 10:28:37.2   0.3                          T                9.6  .24 Ml 2.9         5122693
SMF   003.48 301.0 m E Pn      2012/11/22 10:28:03.6   1.0                          T                                        5122609
SMF   003.48 301.0 m E Sn      2012/11/22 10:28:40.6  -0.1                          T                3.0  .20 Ml 2.7         5136662
SMF   003.48 301.0 m E Sg      2012/11/22 10:29:00.2  -0.4                          T                2.2  .26 Ml 2.5         5136663
LOR   003.80 309.4 m E Pn      2012/11/22 10:28:07.6   0.6                          T                                        5122691
LOR   003.80 309.4 m E Sn      2012/11/22 10:28:48.3  -0.1                          T                4.4  .18 Ml 3.0         5122692
AVF   003.84 300.6 m E Pn      2012/11/22 10:28:08.7   1.1                          T                                        5122607
AVF   003.84 300.6 m E Sn      2012/11/22 10:28:50.4   1.0                          T                                        5122596
SSF   003.88 304.8 m E Pn      2012/11/22 10:28:09.1   0.9                          T                                        5122690
BGF   004.06 295.4 m E Pn      2012/11/22 10:28:11.0   0.4                          T                                        5122608
BGF   004.06 295.4 m E Sn      2012/11/22 10:28:54.9   0.2                          T                8.7  .34 Ml 3.1         5136664
TCF   004.39 290.0 m E Pn      2012/11/22 10:28:16.1   0.9                          T                                        5122595
TCF   004.39 290.0 m E Sn      2012/11/22 10:29:03.7   1.0                          T                                        5122597
LASF  003.20 255.9 m E Sn      2012/11/22 10:28:34.2   0.0                          T                1.7  .32 Ml 2.2         5136665

.
EVENT     287337
    Date      Time       Latitude Longitude    Depth    Ndef Nsta Gap    Mag1  N    Mag2  N    Mag3  N   Author         ID
       rms   OT_Error      Smajor Sminor Az        Err   mdist  Mdist     Err        Err        Err      Quality

2012/11/22 11:08:05.1     44.4756    6.6786      2.0      75   18 052  Ml 2.7 14  Md 2.7  1              bulletin    287437
                                                                                                         _ldg
      0.44   +-  0.04        .9     .7   47.23 +-  0.0    0.10   5.83   +-0.3      +-                    m i ke

FRANCE
Sta     Dist  EvAz     Phase      Date       Time     TRes  Azim  AzRes  Slow  SRes Def   SNR       Amp   Per   Mag1   Mag2       ID
MBDF  000.26 014.8 m E Pg      2012/11/22 11:08:10.3  -0.1                          T   001.0                                5122767
MBDF  000.26 014.8 m E Sg      2012/11/22 11:08:13.5  -0.4                          T              142.7  .31        Md 2.7  5122802
ORIF  000.72 308.1 m E Pg      2012/11/22 11:08:18.7  -0.1                          T   001.0                                5122769
ORIF  000.72 308.1 m E Sg      2012/11/22 11:08:28.4   0.2                          T   001.0       28.4  .22                5122770
SBF   000.82 138.1 m E Pg      2012/11/22 11:08:20.3  -0.3                          T                                        5136711
SBF   000.82 138.1 m E Pn      2012/11/22 11:08:22.0  -0.1                          T   001.0                                5122760
SBF   000.82 138.1 m E Sg      2012/11/22 11:08:30.8  -0.5                          T   001.0       36.1  .20                5122762
FRF   000.91 181.4 m E Pg      2012/11/22 11:08:22.5   0.3                          T                                        5136710
FRF   000.91 181.4 m E P       2012/11/22 11:08:24.2  -0.1                          T   001.0                                5122747
FRF   000.91 181.4 m E Sn      2012/11/22 11:08:36.5   0.2                          T   001.0       74.8  .18 Ml 3.4         5122748
SMRF  000.94 238.2 m E Pn      2012/11/22 11:08:24.1   0.4                          T   001.0                                5122773
SMRF  000.94 238.2 m E Sn      2012/11/22 11:08:37.0   0.1                          T   001.0       60.8  .34 Ml 3.0         5122774
LPG   001.02 002.9 m E Pg      2012/11/22 11:08:24.2  -0.4                          T   001.0                                5122753
LPG   001.02 002.9 m E Pn      2012/11/22 11:08:25.4   0.3                          T   001.0                                5122754
LPG   001.02 002.9 m E Sg      2012/11/22 11:08:37.8  -0.1                          T   001.0       27.6  .30 Ml 2.8         5122756
LPL   001.04 002.1 m E Pg      2012/11/22 11:08:24.4  -0.5                          T                                        5136709
LPL   001.04 002.1 m E Pn      2012/11/22 11:08:25.4   0.1                          T   001.0                                5122757
LPL   001.04 002.1 m E Sn      2012/11/22 11:08:39.5  -0.1                          T               25.3  .38 Ml 2.7         5122801
LMR   001.15 186.2 m E Pg      2012/11/22 11:08:26.5   0.0                          T   001.0                                5122751
LMR   001.15 186.2 m E P       2012/11/22 11:08:28.0  -0.1                          T   001.0                                5122750
LMR   001.15 186.2 m E Sg      2012/11/22 11:08:41.6   0.2                          T   001.0       27.1  .18 Ml 3.1         5122752
VIVF  001.48 285.6 m E Pn      2012/11/22 11:08:31.4   0.4                          T   001.0                                5122771
VIVF  001.48 285.6 m E Pg      2012/11/22 11:08:32.3  -0.4                          T                                        5136708
VIVF  001.48 285.6 m E Sn      2012/11/22 11:08:49.6  -0.2                          T   001.0                                5122772
VIVF  001.48 285.6 m E Sg      2012/11/22 11:08:52.4   0.5                          T                7.9  .28 Ml 2.5         5136699
LASF  002.07 259.8 m E Pn      2012/11/22 11:08:39.0   0.0                          T   001.0                                5122749
LASF  002.07 259.8 m E Pg      2012/11/22 11:08:43.4   0.0                          T                                        5136707
LASF  002.07 259.8 m E Sn      2012/11/22 11:09:04.1   0.3                          T                                        5122800
CABF  002.18 349.2 m E P       2012/11/22 11:08:43.4   0.5                          T   001.0                                5122765
CABF  002.18 349.2 m E Sg      2012/11/22 11:09:13.6   0.0                          T   001.0        4.8  .34 Ml 2.4         5122766
PGF   002.56 138.0 m E Pn      2012/11/22 11:08:46.5   0.6                          T   001.0                                5122758
PGF   002.56 138.0 m E Sn      2012/11/22 11:09:15.1  -0.7                          T   001.0        5.2  .22 Ml 2.9         5122759
SMF   002.95 318.4 m E Pn      2012/11/22 11:08:51.1   0.1                          T   001.0                                5122763
SMF   002.95 318.4 m E Pg      2012/11/22 11:08:59.6  -0.1                          T                                        5136706
SMF   002.95 318.4 m E Sg      2012/11/22 11:09:37.6   0.0                          T                3.3  .32 Ml 2.4         5136700
AVF   003.29 315.9 m E P       2012/11/22 11:08:58.2  -0.5                          T                                        5136705
LOR   003.42 325.8 m E P       2012/11/22 11:08:59.7  -0.9                          T                                        5136704
LOR   003.42 325.8 m E Sn      2012/11/22 11:09:35.9  -0.2                          T                                        5136703
LOR   003.42 325.8 m E Sg      2012/11/22 11:09:52.1  -0.2                          T                4.0  .47 Ml 2.5         5136702
MTLF  003.42 252.2 m E Sn      2012/11/22 11:09:36.2   0.1                          T   001.0        1.8  .34 Ml 2.2         5122768
HAU   003.54 356.4 m E Sn      2012/11/22 11:09:38.8  -0.2                          T                9.0  .39 Ml 2.7         5136701
BAIF  005.83 344.1 m E Sn      2012/11/22 11:10:35.9   2.1                          T   001.0        3.1  .48 Ml 2.9         5122764

.
EVENT     287344
    Date      Time       Latitude Longitude    Depth    Ndef Nsta Gap    Mag1  N    Mag2  N    Mag3  N   Author         ID
       rms   OT_Error      Smajor Sminor Az        Err   mdist  Mdist     Err        Err        Err      Quality

2012/11/22 14:56:18.5     44.3817    7.2782     15.0 f    32    8 110  Ml 1.9  6  Md 1.9  2              bulletin    287444
                                                                                                         _ldg
      0.29   +-  0.05       1.5     .8   60.92 +-  0.0    0.12   1.29   +-0.3      +-0.0                 m i ke

NORTHERN ITALY
Sta     Dist  EvAz     Phase      Date       Time     TRes  Azim  AzRes  Slow  SRes Def   SNR       Amp   Per   Mag1   Mag2       ID
MBDF  000.50 313.8 m E Pg      2012/11/22 14:56:28.4  -0.1                          T                                        5123004
MBDF  000.50 313.8 m E Sg      2012/11/22 14:56:35.5   0.1                          T               14.8  .22        Md 1.9  5123003
SBF   000.53 167.6 m E Pg      2012/11/22 14:56:29.4   0.4                          T                                        5123002
SBF   000.53 167.6 m E Sg      2012/11/22 14:56:36.3   0.2                          T                7.9  .21        Md 1.9  5123001
FRF   000.94 209.3 m E Pg      2012/11/22 14:56:36.1  -0.2                          T                                        5123000
FRF   000.94 209.3 m E Sg      2012/11/22 14:56:48.6   0.0                          T                5.0  .22 Ml 2.2         5122999
ORIF  001.13 298.8 m E Pg      2012/11/22 14:56:40.3   0.4                          T                                        5122994
ORIF  001.13 298.8 m E Sg      2012/11/22 14:56:54.6  -0.1                          T                2.2  .19 Ml 1.9         5122995
LMR   001.19 208.2 m E Pg      2012/11/22 14:56:40.9   0.2                          T                                        5123017
LMR   001.19 208.2 m E Sg      2012/11/22 14:56:55.7  -0.5                          T                4.5  .21 Ml 2.3         5122998
LPG   001.18 341.7 m E Pg      2012/11/22 14:56:41.3   0.3                          T                                        5123006
LPG   001.18 341.7 m E Sg      2012/11/22 14:56:56.6   0.3                          T                1.8  .28 Ml 1.7         5123005
LPL   001.20 341.3 m E Pg      2012/11/22 14:56:41.5   0.1                          T                                        5123008
LPL   001.20 341.3 m E Sg      2012/11/22 14:56:57.4   0.4                          T                1.0  .23 Ml 1.6         5123007
SMRF  001.29 252.3 m E Pn      2012/11/22 14:56:42.6   2.1                          T                                        5122997
SMRF  001.29 252.3 m E Sn      2012/11/22 14:56:59.3   2.9                          T                3.1  .30 Ml 2.0         5122996

.
