EVENT     260830
    Date      Time       Latitude Longitude    Depth    Ndef Nsta Gap    Mag1  N    Mag2  N    Mag3  N   Author         ID
       rms   OT_Error      Smajor Sminor Az        Err   mdist  Mdist     Err        Err        Err      Quality

2011/06/27 15:48:10.1     53.3704    6.5994     10.0 f    77   32 141  Ml 3.6 14                         js067245    260830

      0.92   +-  0.13       3.2    2.0  126.01 +-  0.0    1.12  13.21   +-0.3                            m i ke

THE NETHERLANDS
Sta     Dist  EvAz     Phase      Date       Time     TRes  Azim  AzRes  Slow  SRes Def   SNR       Amp   Per   Mag1   Mag2       ID
RUP   003.69 175.3 m E Pn      2011/06/27 15:49:05.4   0.1                          T                                        4713379
RUP   003.69 175.3 m E Sg      2011/06/27 15:50:05.6  -0.2                          T                                        4713335
BAIF  003.63 205.1 m E Pn      2011/06/27 15:49:05.5   1.0                          T                                        4713380
BAIF  003.63 205.1 m E Sn      2011/06/27 15:49:44.4  -0.4                          T                                        4713341
BAIF  003.63 205.1 m E Sg      2011/06/27 15:50:04.0   0.0                          T              129.7 1.14 Ml 3.6         4713336
GIVF  003.45 199.3 m E Pn      2011/06/27 15:49:13.8  11.7                          T                                        4713381
GIVF  003.45 199.3 m E Sn      2011/06/27 15:49:40.3  -0.2                          T                                        4713342
GIVF  003.45 199.3 m E Sg      2011/06/27 15:49:58.8   0.3                          T               37.5  .46 Ml 3.4         4713337
LANF  004.46 169.7 m E Pn      2011/06/27 15:49:16.0   0.2                          T                                        4713377
LANF  004.46 169.7 m E Pg      2011/06/27 15:49:33.3   0.6                          T                                        4713378
LANF  004.46 169.7 m E Sg      2011/06/27 15:50:29.9   0.0                          T                                        4713334
PAGF  004.85 186.9 m E Pn      2011/06/27 15:49:21.2   0.0                          T                                        4713374
PAGF  004.85 186.9 m E Sg      2011/06/27 15:50:42.5   0.3                          T                6.8  .65 Ml 2.9         4713332
CDF   004.98 174.8 m E Pn      2011/06/27 15:49:22.8  -0.1                          T                                        4713375
CDF   004.98 174.8 m E Pg      2011/06/27 15:49:41.4  -1.0                          T                                        4713376
CDF   004.98 174.8 m E Sg      2011/06/27 15:50:45.9  -0.4                          T               29.3  .80 Ml 3.5         4713333
MEZF  004.97 192.0 m E Pn      2011/06/27 15:49:23.1   0.4 336.2  *****             T                                        4713373
MEZF  004.97 192.0 m E Sg      2011/06/27 15:50:45.2  -0.6                          T               27.9  .61 Ml 3.5         4713331
HAU   005.37 181.8 m E Pn      2011/06/27 15:49:28.0  -0.2                          T                                        4713371
HINF  005.56 178.2 m E Pn      2011/06/27 15:49:30.5  -0.3                          T                                        4713372
LOR   006.36 197.1 m E Pn      2011/06/27 15:49:41.6   0.0  16.9  1.9               T                                        4713384
LOR   006.36 197.1 m E Pg      2011/06/27 15:50:07.7   0.1                          T                                        4713385
LOR   006.36 197.1 m E Sn      2011/06/27 15:50:50.0   0.0                          T                                        4713340
LOR   006.36 197.1 m E Sg      2011/06/27 15:51:29.2   0.1                          T                9.9  .60 Ml 3.4         4713339
LDF   006.39 224.3 m E Pn      2011/06/27 15:49:42.4   0.4                          T                                        4713361
LDF   006.39 224.3 m E Sn      2011/06/27 15:50:51.1   0.3                          T               19.5  .66 Ml 3.6         4713349
FLN   006.42 226.9 m E Pn      2011/06/27 15:49:42.5   0.1  52.8  11.4              T                                        4713362
FLN   006.42 226.9 m E Sn      2011/06/27 15:50:51.4   0.1                          T               23.9  .59 Ml 3.6         4713348
HYF   006.61 204.1 m E Pn      2011/06/27 15:49:45.0  -0.1                          T                                        4713367
SSF   006.62 198.7 m E Pn      2011/06/27 15:49:45.2   0.1                          T                                        4713383
SSF   006.62 198.7 m E Sg      2011/06/27 15:51:36.5  -0.8                          T               11.5  .60 Ml 3.6         4713338
CABF  006.78 183.0 m E Pn      2011/06/27 15:49:47.4   0.0                          T                                        4713370
AVF   006.91 198.9 m E Pn      2011/06/27 15:49:48.7  -0.4                          T                                        4713369
AVF   006.91 198.9 m E Sn      2011/06/27 15:51:01.7  -1.4                          T                                        4713343
GRR   006.86 226.4 m E Pn      2011/06/27 15:49:48.8   0.4                          T                                        4713360
GRR   006.86 226.4 m E Sn      2011/06/27 15:51:01.7  -0.3                          T               10.5  .38 Ml 3.5         4713350
SMF   006.96 195.9 m E Pn      2011/06/27 15:49:49.6  -0.2                          T                                        4713368
BGF   007.24 201.0 m E Pn      2011/06/27 15:49:53.5   0.0                          T                                        4713366
BGF   007.24 201.0 m E Sn      2011/06/27 15:51:09.8  -1.1                          T               16.0  .52 Ml 3.8         4713344
TCF   007.64 203.5 m E Pn      2011/06/27 15:49:59.1   0.1                          T                                        4713382
SGMF  007.73 232.2 m E Pn      2011/06/27 15:50:00.0  -0.4                          T                                        4713364
SGMF  007.73 232.2 m E Sn      2011/06/27 15:51:23.5   0.6                          T                6.2  .44 Ml 3.5         4713346
LPG   007.88 179.2 m E Pn      2011/06/27 15:50:02.5  -0.2                          T                                        4713351
LPL   007.86 179.3 m E Pn      2011/06/27 15:50:03.2   0.8                          T                                        4713352
QUIF  008.26 232.6 m E Pn      2011/06/27 15:50:07.4  -0.1                          T                                        4713363
QUIF  008.26 232.6 m E Sn      2011/06/27 15:51:36.3   0.9                          T               15.2  .62 Ml 3.9         4713347
ORIF  008.47 183.5 m E Pn      2011/06/27 15:50:09.5  -1.0                          T                                        4713353
VIVF  008.61 189.2 m E Pn      2011/06/27 15:50:12.0  -0.4                          T                                        4713355
MBDF  008.65 179.2 m E Pn      2011/06/27 15:50:12.6  -0.5                          T                                        4713354
RJF   008.73 204.3 m E Pn      2011/06/27 15:50:13.5  -0.4                          T                                        4713359
LFF   009.27 206.8 m E Pn      2011/06/27 15:50:20.9  -0.3                          T                                        4713358
LASF  009.48 192.1 m E Pn      2011/06/27 15:50:23.9  -0.1                          T                                        4713356
MTLF  010.45 197.9 m E Pn      2011/06/27 15:50:37.3   0.0                          T                                        4713357
ROSF  008.02 235.1 m E Sn      2011/06/27 15:51:29.9   0.1                          T               35.6  .68 Ml 4.1         4713345

.
EVENT     260831
    Date      Time       Latitude Longitude    Depth    Ndef Nsta Gap    Mag1  N    Mag2  N    Mag3  N   Author         ID
       rms   OT_Error      Smajor Sminor Az        Err   mdist  Mdist     Err        Err        Err      Quality

2011/06/27 16:13:23.8     47.6335    6.2322       .0 f    12    6 120  Ml 1.8  4  Md 1.8  2              js067245    260831

      0.44   +-  0.11       2.1    2.0  129.70 +-  0.0    0.38   1.05   +-0.4      +-0.0                 m i km

FRANCE
Sta     Dist  EvAz     Phase      Date       Time     TRes  Azim  AzRes  Slow  SRes Def   SNR       Amp   Per   Mag1   Mag2       ID
HAU   000.38 011.8 m E Pg      2011/06/27 16:13:31.3  -0.2                          T                                        4713396
HAU   000.38 011.8 m E Sg      2011/06/27 16:13:36.9   0.2                          T               81.3  .90        Md 1.8  4713397
HINF  000.46 066.2 m E Pg      2011/06/27 16:13:33.2   0.3                          T                                        4713394
HINF  000.46 066.2 m E Sg      2011/06/27 16:13:39.4   0.2                          T               31.7  .90        Md 1.9  4713395
SFTF  000.99 305.9 m E Pg      2011/06/27 16:13:42.6   0.0 128.6  3.6               T                                        4713386
SFTF  000.99 305.9 m E Sg      2011/06/27 16:13:55.5   0.0 125.4  0.4               T                9.7  .44 Ml 2.2         4713387
CDF   001.05 041.6 m E Pg      2011/06/27 16:13:43.4  -0.4                          T                                        4713390
CDF   001.05 041.6 m E Sg      2011/06/27 16:13:57.5  -0.2                          T                2.5  .30 Ml 1.9         4713391
PAGF  000.98 340.0 m E Pn      2011/06/27 16:13:43.8   0.3                          T                                        4713388
PAGF  000.98 340.0 m E Sg      2011/06/27 16:13:55.7   0.2                          T                 .6  .23 Ml 1.2         4713389
CABF  001.03 185.6 m E Pn      2011/06/27 16:13:44.2   0.0                          T                                        4713392
CABF  001.03 185.6 m E Sn      2011/06/27 16:13:58.5  -0.1                          T               10.4  .64 Ml 2.0         4713393

.
EVENT     260832
    Date      Time       Latitude Longitude    Depth    Ndef Nsta Gap    Mag1  N    Mag2  N    Mag3  N   Author         ID
       rms   OT_Error      Smajor Sminor Az        Err   mdist  Mdist     Err        Err        Err      Quality

2011/06/27 18:42:44.8     46.8841    6.9113      2.0      11    7 235  Ml 1.9  5  Md 1.7  1              js067245    260832

      0.29   +-  0.20       4.1    2.0  124.35 +-  0.0    0.63   2.12   +-0.3      +-                    m i ke

SWITZERLAND
Sta     Dist  EvAz     Phase      Date       Time     TRes  Azim  AzRes  Slow  SRes Def   SNR       Amp   Per   Mag1   Mag2       ID
CABF  000.63 244.6 m E Pg      2011/06/27 18:42:57.2   0.3                          T                                        4713405
CABF  000.63 244.6 m E Sg      2011/06/27 18:43:04.2  -0.9                          T                1.1  .26        Md 1.7  4713406
HINF  000.93 357.6 m E Pn      2011/06/27 18:43:03.3  -0.1                          T                                        4713407
HINF  000.93 357.6 m E Sn      2011/06/27 18:43:16.8   0.2                          T                5.4  .18 Ml 2.3         4713408
HAU   001.19 341.4 m E Pg      2011/06/27 18:43:06.9  -0.1                          T                                        4713403
HAU   001.19 341.4 m E Sg      2011/06/27 18:43:22.6   0.2                          T                4.1  .26 Ml 1.9         4713404
CDF   001.55 009.0 m E Pg      2011/06/27 18:43:13.8   0.0                          T                                        4713401
CDF   001.55 009.0 m E Sg      2011/06/27 18:43:34.0   0.2                          T                                        4713402
SFTF  001.83 316.9 m E Sg      2011/06/27 18:43:42.6   0.0                          T                3.8  .37 Ml 2.2         4713398
PAGF  001.85 334.8 m E Sg      2011/06/27 18:43:43.2   0.0                          T                 .9  .39 Ml 1.5         4713399
LOR   002.12 281.6 m E Sg      2011/06/27 18:43:51.7   0.1                          T                 .7  .20 Ml 1.8         4713400

.
EVENT     260833
    Date      Time       Latitude Longitude    Depth    Ndef Nsta Gap    Mag1  N    Mag2  N    Mag3  N   Author         ID
       rms   OT_Error      Smajor Sminor Az        Err   mdist  Mdist     Err        Err        Err      Quality

2011/06/27 20:09:27.8     44.4231    6.4332     25.0      22   10 089  Ml 2.2  7  Md 2.2  1              js067245    260833

      0.41   +-  0.05       1.2     .9   84.84 +-  0.0    0.39   1.88   +-0.3      +-                    m i ke

FRANCE
Sta     Dist  EvAz     Phase      Date       Time     TRes  Azim  AzRes  Slow  SRes Def   SNR       Amp   Per   Mag1   Mag2       ID
MBDF  000.39 038.4 m E Pg      2011/06/27 20:09:36.5   0.0                          T                                        4713429
MBDF  000.39 038.4 m E Sg      2011/06/27 20:09:42.3  -0.1                          T               53.4  .60        Md 2.2  4713430
ORIF  000.63 321.6 m E Pg      2011/06/27 20:09:40.4  -0.1                          T                                        4713428
ORIF  000.63 321.6 m E Sn      2011/06/27 20:09:48.1  -0.1                          T               15.6  .44                4713419
SMRF  000.76 234.4 m E Pg      2011/06/27 20:09:42.9   0.2                          T                                        4713427
SMRF  000.76 234.4 m E Sg      2011/06/27 20:09:53.0   0.0                          T                5.8  .22                4713416
FRF   000.88 169.8 m E Pg      2011/06/27 20:09:44.5  -0.2                          T                                        4713425
FRF   000.88 169.8 m E Sg      2011/06/27 20:09:56.4  -0.1                          T               10.5  .22 Ml 2.5         4713415
SBF   000.91 127.5 m E Pg      2011/06/27 20:09:45.5   0.0                          T                                        4713424
SBF   000.91 127.5 m E Sg      2011/06/27 20:09:57.7   0.0                          T               14.6  .38 Ml 2.4         4713413
LMR   001.09 177.1 m E Pg      2011/06/27 20:09:48.7   0.2                          T                                        4713426
LMR   001.09 177.1 m E Sg      2011/06/27 20:10:03.0   0.1                          T               12.7  .24 Ml 2.6         4713414
LPL   001.11 010.9 m E Pg      2011/06/27 20:09:49.1  -0.2                          T                                        4713422
LPL   001.11 010.9 m E Sg      2011/06/27 20:10:03.8  -0.2                          T                4.8  .36 Ml 2.0         4713418
LPG   001.10 011.8 m E Pg      2011/06/27 20:09:49.3   0.3                          T                                        4713423
LPG   001.10 011.8 m E Sg      2011/06/27 20:10:03.4  -0.2                          T                3.3  .39 Ml 1.8         4713417
VIVF  001.33 289.6 m E Pg      2011/06/27 20:09:53.2   0.3                          T                                        4713421
VIVF  001.33 289.6 m E Sg      2011/06/27 20:10:11.2   0.8                          T                6.2  .23 Ml 2.4         4713420
LASF  001.88 260.3 m E Sn      2011/06/27 20:10:17.4  -0.6                          T                                        4713412
LASF  001.88 260.3 m E Sg      2011/06/27 20:10:27.0  -0.5                          T                1.7  .23 Ml 2.1         4713411

.
EVENT     260835
    Date      Time       Latitude Longitude    Depth    Ndef Nsta Gap    Mag1  N    Mag2  N    Mag3  N   Author         ID
       rms   OT_Error      Smajor Sminor Az        Err   mdist  Mdist     Err        Err        Err      Quality

2011/06/28 00:27:55.0     47.7071    1.5082      4.0 f    26   11 154  Ml 1.7 11  Md 2.0  2              js067245    260835

      1.73   +-  0.17       3.3    2.2   12.80 +-  0.0    0.88   2.81   +-0.3      +-0.1                 m i ke

FRANCE
Sta     Dist  EvAz     Phase      Date       Time     TRes  Azim  AzRes  Slow  SRes Def   SNR       Amp   Per   Mag1   Mag2       ID
HYF   000.88 119.4 m E Pg      2011/06/28 00:28:11.7   0.1                          T                                        4713454
HYF   000.88 119.4 m E Sn      2011/06/28 00:28:25.3   0.2                          T                                Md 2.0  4713455
LDF   001.41 309.7 m E Pg      2011/06/28 00:28:21.0  -0.2                          T                                        4713447
LDF   001.41 309.7 m E Sg      2011/06/28 00:28:38.7  -0.7                          T                1.3  .22 Ml 1.8         4713448
AVF   001.56 125.4 m E Pn      2011/06/28 00:28:21.6  -0.1                          T                                        4713442
AVF   001.56 125.4 m E Pg      2011/06/28 00:28:23.8  -0.2                          T                                        4713458
AVF   001.56 125.4 m E Sg      2011/06/28 00:28:44.8   0.7                          T                 .3  .24 Ml 1.1         4713443
BGF   001.47 141.0 m E Pg      2011/06/28 00:28:22.5   0.1                          T                                        4713445
BGF   001.47 141.0 m E Sg      2011/06/28 00:28:41.2  -0.2                          T                4.9  .30 Ml 2.2 Md 2.1  4713446
TCF   001.50 161.0 m E Pg      2011/06/28 00:28:22.8  -0.2                          T                                        4713453
TCF   001.50 161.0 m E Sg      2011/06/28 00:28:43.1   0.7                          T                1.9  .21 Ml 2.0         4713437
SSF   001.50 114.7 m E Pg      2011/06/28 00:28:23.0   0.0                          T                                        4713456
SSF   001.50 114.7 m E Sg      2011/06/28 00:28:42.3  -0.2                          T                 .8  .21 Ml 1.7         4713457
LOR   001.65 104.5 m E Pn      2011/06/28 00:28:23.4   0.2                          T                                        4713439
LOR   001.65 104.5 m E Pg      2011/06/28 00:28:25.8  -0.1 284.6  -1.6              T                                        4713438
LOR   001.65 104.5 m E Sg      2011/06/28 00:28:47.1   0.0 307.3  21.1              T                  1  .19 Ml 1.8         4713440
MFF   001.58 226.2 m E Pg      2011/06/28 00:28:24.6   0.1                          T                                        4713434
MFF   001.58 226.2 m E Sn      2011/06/28 00:28:41.4  -0.3                          T                                        4713451
MFF   001.58 226.2 m E Sg      2011/06/28 00:28:44.8   0.0                          T                 .7  .20 Ml 1.8         4713435
SMF   001.91 122.9 m E Sg      2011/06/28 00:28:55.3   0.0                          T                 .7  .21 Ml 1.7         4713441
RJF   002.40 179.9 m E Sn      2011/06/28 00:29:01.2  -0.2                          T                                        4713452
RJF   002.40 179.9 m E Sg      2011/06/28 00:29:10.2  -0.4                          T                 .6  .20 Ml 1.4         4713433
CAF   002.81 171.9 m E Sn      2011/06/28 00:29:11.3   0.1                          T                                        4713449
CAF   002.81 171.9 m E Sg      2011/06/28 00:29:22.8  -0.4                          T                 .2  .15 Ml 1.5         4713450

.
