EVENT     286643
    Date      Time       Latitude Longitude    Depth    Ndef Nsta Gap    Mag1  N    Mag2  N    Mag3  N   Author         ID
       rms   OT_Error      Smajor Sminor Az        Err   mdist  Mdist     Err        Err        Err      Quality

2012/11/10 22:30:18.9     44.4327    6.3741      2.0       9    5 172  Ml 1.9  2  Md 2.3  3              bulletin    286743
                                                                                                         _ldg
      0.35   +-  0.22       5.4    2.4  113.55 +-  0.0    0.41   1.10   +-0.0      +-0.2                 m i ke

FRANCE
Sta     Dist  EvAz     Phase      Date       Time     TRes  Azim  AzRes  Slow  SRes Def   SNR       Amp   Per   Mag1   Mag2       ID
MBDF  000.41 043.8 m E Pg      2012/11/10 22:30:26.9  -0.1                          T                                        5113946
MBDF  000.41 043.8 m E Sg      2012/11/10 22:30:32.6   0.1                          T                2.7  .17        Md 2.1  5113943
FRF   000.89 167.2 m E Pg      2012/11/10 22:30:34.9  -0.8                          T                                        5113945
FRF   000.89 167.2 m E Sg      2012/11/10 22:30:46.4  -0.9                          T                2.8  .21 Ml 1.9         5113942
FRF   000.89 167.2 m E Sn      2012/11/10 22:30:50.2   0.5                          T                2.9  .21 Ml 2.0 Md 2.4  5113940
SBF   000.95 126.3 m E Pg      2012/11/10 22:30:36.9   0.0                          T                                        5113938
LMR   001.10 174.9 m E Pg      2012/11/10 22:30:39.8   0.2                          T                                        5113944
LMR   001.10 174.9 m E Sg      2012/11/10 22:30:53.9   0.1                          T                                Md 2.4  5113941
SMRF  000.73 231.8 m E Sg      2012/11/10 22:30:42.2  -0.2                          T                                        5113939

.
EVENT     286644
    Date      Time       Latitude Longitude    Depth    Ndef Nsta Gap    Mag1  N    Mag2  N    Mag3  N   Author         ID
       rms   OT_Error      Smajor Sminor Az        Err   mdist  Mdist     Err        Err        Err      Quality

2012/11/11 00:19:19.8     36.2745   -3.6802      2.0      82    3 129  Ml 3.0  3                         bulletin    286744
                                                                                                         _ldg
      0.80   +-  0.12       2.6    2.3   20.44 +-  0.0    0.62   7.42   +-0.0                            m i ke

STRAIT OF GIBRALTAR
Sta     Dist  EvAz     Phase      Date       Time     TRes  Azim  AzRes  Slow  SRes Def   SNR       Amp   Per   Mag1   Mag2       ID
ETSF  007.04 019.1 m E Pn      2012/11/11 00:21:02.5   0.9                          T                                        5113951
ETSF  007.04 019.1 m E Sn      2012/11/11 00:22:17.2  -0.2                          T                2.5  .43 Ml 3.0         5121070
SJPF  007.09 014.7 m E Pn      2012/11/11 00:21:03.6   1.5                          T                                        5113950
SJPF  007.09 014.7 m E Sn      2012/11/11 00:22:18.6   0.0                          T                2.4  .43 Ml 3.0         5121069
EPF   007.42 023.4 m E Pn      2012/11/11 00:21:06.7   0.0                          T                                        5113949
EPF   007.42 023.4 m E Sn      2012/11/11 00:22:26.5  -0.1                          T                                        5121072
EPF   007.42 023.4 m E Sg      2012/11/11 00:23:11.1  -1.0                          T                2.2  .40 Ml 3.1         5121071

.
EVENT     286645
    Date      Time       Latitude Longitude    Depth    Ndef Nsta Gap    Mag1  N    Mag2  N    Mag3  N   Author         ID
       rms   OT_Error      Smajor Sminor Az        Err   mdist  Mdist     Err        Err        Err      Quality

2012/11/11 01:44:00.3     51.4401   16.1013      1.0 f    99   17 105  Ml 4.2 11                         bulletin    286745
                                                                                                         _ldg
      1.28   +-  0.31       7.5    4.5   17.91 +-  0.0    0.61  18.69   +-0.2                            m i sr

POLAND
Sta     Dist  EvAz     Phase      Date       Time     TRes  Azim  AzRes  Slow  SRes Def   SNR       Amp   Per   Mag1   Mag2       ID
CDF   006.45 245.4 m E Pn      2012/11/11 01:45:35.1   0.9                          T                                        5114012
CDF   006.45 245.4 m E Pg      2012/11/11 01:45:59.9   0.3                          T                                        5114029
CDF   006.45 245.4 m E Sn      2012/11/11 01:46:44.1   0.0                          T                                        5113993
CDF   006.45 245.4 m E Sg      2012/11/11 01:47:21.8  -0.6                          T              186.3 1.20 Ml 4.5         5114002
HINF  007.02 242.5 m E Pn      2012/11/11 01:45:42.4   0.6                          T                                        5114005
HINF  007.02 242.5 m E Pg      2012/11/11 01:46:12.9   3.0                          T                                        5114026
HINF  007.02 242.5 m E Sn      2012/11/11 01:46:58.2   0.7                          T                                        5113989
HINF  007.02 242.5 m E Sg      2012/11/11 01:47:38.8  -1.1                          T               46.8  .74 Ml 4.1         5113990
PAGF  007.28 250.7 m E Pn      2012/11/11 01:45:46.4   1.0                          T                                        5114008
BAIF  007.67 264.3 m E Pn      2012/11/11 01:45:52.1   1.5                          T                                        5114009
BAIF  007.67 264.3 m E Sn      2012/11/11 01:47:12.7  -0.4                          T                                        5113995
BAIF  007.67 264.3 m E Sg      2012/11/11 01:47:59.7  -0.5                          T               37.7  .94 Ml 4.0         5113997
MEZF  007.71 251.9 m E Pn      2012/11/11 01:45:52.3   1.2                          T                                        5114007
MEZF  007.71 251.9 m E Pg      2012/11/11 01:46:23.3   0.7                          T                                        5114028
MEZF  007.71 251.9 m E Sn      2012/11/11 01:47:13.8  -0.2                          T                                        5113992
MEZF  007.71 251.9 m E Sg      2012/11/11 01:48:00.9  -0.5                          T               69.4 1.21 Ml 4.1         5113991
SFTF  007.85 250.0 m E Pn      2012/11/11 01:45:53.7   0.6                          T                                        5114006
SFTF  007.85 250.0 m E Pg      2012/11/11 01:46:25.4   0.1                          T                                        5114027
SFTF  007.85 250.0 m E Sn      2012/11/11 01:47:16.6  -0.9                          T               20.6  .66 Ml 3.9         5113988
SFTF  007.85 250.0 m E Sg      2012/11/11 01:48:04.9  -1.0                          T               73.9 1.07 Ml 4.2         5113987
LPL   008.59 230.0 m E Pn      2012/11/11 01:46:04.8   1.3                          T                                        5114018
LPG   008.59 229.9 m E Pn      2012/11/11 01:46:04.8   1.3                          T                                        5114017
LOR   009.01 247.2 m E Pn      2012/11/11 01:46:09.5   0.5  62.9  5.0               T                                        5114010
LOR   009.01 247.2 m E Sn      2012/11/11 01:47:45.2  -0.1                          T                                        5113999
LOR   009.01 247.2 m E Sg      2012/11/11 01:48:41.8  -0.3                          T               13.4  .63 Ml 3.9         5113996
MBDF  009.17 226.5 m E Pn      2012/11/11 01:46:12.6   1.5                          T                                        5114019
SSF   009.33 246.9 m E Pn      2012/11/11 01:46:13.9   0.7                          T                                        5114011
SSF   009.33 246.9 m E Sn      2012/11/11 01:47:52.7   0.0                          T                                        5114000
SSF   009.33 246.9 m E Sg      2012/11/11 01:48:51.8  -0.1                          T               50.8 1.22 Ml 4.3         5114001
SMF   009.37 244.0 m E Pn      2012/11/11 01:46:15.0   1.2                          T                                        5114003
SMF   009.37 244.0 m E Pg      2012/11/11 01:46:54.7   1.4                          T                                        5114024
SMF   009.37 244.0 m E Sn      2012/11/11 01:47:53.7   0.0                          T                                        5114020
SMF   009.37 244.0 m E Sg      2012/11/11 01:48:52.6  -0.6                          T               51.4 1.10 Ml 4.3         5114023
AVF   009.56 245.9 m E Pn      2012/11/11 01:46:16.6   0.2                          T                                        5114004
AVF   009.56 245.9 m E Pg      2012/11/11 01:46:58.0   1.2                          T                                        5114025
AVF   009.56 245.9 m E Sn      2012/11/11 01:47:58.0  -0.4                          T                                        5114021
AVF   009.56 245.9 m E Sg      2012/11/11 01:48:59.0  -0.3                          T               69.8 1.34 Ml 4.4         5114022
SBF   009.57 221.0 m E Pn      2012/11/11 01:46:17.7   1.2                          T                                        5114014
FRF   010.14 222.7 m E Pn      2012/11/11 01:46:25.9   1.6                          T                                        5114016
LMR   010.39 222.4 m E Pn      2012/11/11 01:46:27.8   0.2                          T                                        5114015
GIVF  007.28 263.8 m E Sn      2012/11/11 01:47:04.0   0.2                          T                                        5113994
GIVF  007.28 263.8 m E Sg      2012/11/11 01:47:47.8  -0.1                          T               60.9  .88 Ml 4.1         5113998

.
EVENT     286646
    Date      Time       Latitude Longitude    Depth    Ndef Nsta Gap    Mag1  N    Mag2  N    Mag3  N   Author         ID
       rms   OT_Error      Smajor Sminor Az        Err   mdist  Mdist     Err        Err        Err      Quality

2012/11/11 03:17:31.2     49.2711    6.9579      1.0 f    12    6 231  Ml 1.6  6  Md 1.9  1              bulletin    286746
                                                                                                         _ldg
      0.20   +-  0.18       4.1    1.8   50.31 +-  0.0    0.89   1.95   +-0.2      +-                    m i sr

GERMANY
Sta     Dist  EvAz     Phase      Date       Time     TRes  Azim  AzRes  Slow  SRes Def   SNR       Amp   Per   Mag1   Mag2       ID
CDF   000.89 166.1 m E Pg      2012/11/11 03:17:47.8  -0.2                          T                                        5114035
CDF   000.89 166.1 m E Sg      2012/11/11 03:17:59.9   0.4                          T                2.3  .22 Ml 1.9 Md 1.9  5114034
PAGF  001.08 229.1 m E Pg      2012/11/11 03:17:51.4  -0.2                          T                                        5114032
PAGF  001.08 229.1 m E Sg      2012/11/11 03:18:03.9  -1.7                          T                1.1  .26 Ml 1.5         5114033
HINF  001.46 182.8 m E Pn      2012/11/11 03:17:57.1   0.1                          T                                        5114030
HINF  001.46 182.8 m E Sn      2012/11/11 03:18:15.9   0.2                          T                1.7  .22 Ml 1.9         5114031
MEZF  001.47 239.3 m E Pn      2012/11/11 03:17:57.4   0.1                          T                                        5114040
MEZF  001.47 239.3 m E Sn      2012/11/11 03:18:15.9  -0.1                          T                 .4  .16 Ml 1.4         5114041
SFTF  001.66 230.7 m E Pn      2012/11/11 03:17:59.9   0.2                          T                                        5114039
SFTF  001.66 230.7 m E Sn      2012/11/11 03:18:20.3  -0.2                          T                 .8  .19 Ml 1.7         5114038
BAIF  001.95 294.9 m E Pn      2012/11/11 03:18:03.6  -0.1                          T                                        5114037
BAIF  001.95 294.9 m E Sn      2012/11/11 03:18:27.9   0.4                          T                 .4  .24 Ml 1.4         5114036

.
EVENT     286650
    Date      Time       Latitude Longitude    Depth    Ndef Nsta Gap    Mag1  N    Mag2  N    Mag3  N   Author         ID
       rms   OT_Error      Smajor Sminor Az        Err   mdist  Mdist     Err        Err        Err      Quality

2012/11/11 11:07:22.9     45.0043    3.0022      3.0 f    56   19 052  Ml 2.6 19  Md 2.5  4              bulletin    286750
                                                                                                         _ldg
      0.27   +-  0.04        .7     .6  108.78 +-  0.0    0.67   4.01   +-0.2      +-0.2                 m i ke

FRANCE
Sta     Dist  EvAz     Phase      Date       Time     TRes  Azim  AzRes  Slow  SRes Def   SNR       Amp   Per   Mag1   Mag2       ID
CAF   000.67 263.6 m E Pg      2012/11/11 11:07:35.6   0.0                          T                                        5121117
CAF   000.67 263.6 m E Pn      2012/11/11 11:07:37.9   0.1                          T                                        5114258
CAF   000.67 263.6 m E Sg      2012/11/11 11:07:44.9   0.4                          T               38.7  .18        Md 2.7  5114260
RJF   001.09 286.5 m E Pg      2012/11/11 11:07:43.2  -0.2                          T                                        5114256
RJF   001.09 286.5 m E Sg      2012/11/11 11:07:58.0   0.5                          T               23.5  .23 Ml 2.5 Md 2.6  5114265
LASF  001.11 146.3 m E Pg      2012/11/11 11:07:43.8   0.1                          T                                        5114282
LASF  001.11 146.3 m E Sg      2012/11/11 11:07:58.0  -0.2                          T                                        5114263
LASF  001.11 146.3 m E Sn      2012/11/11 11:07:59.4   0.7                          T   001.0       11.9  .21 Ml 2.6 Md 2.4  5115196
VIVF  001.20 096.5 m E Pg      2012/11/11 11:07:45.2  -0.2                          T                                        5121113
VIVF  001.20 096.5 m E P       2012/11/11 11:07:46.6   0.0                          T                                        5114281
VIVF  001.20 096.5 m E Sg      2012/11/11 11:08:00.8   0.0                          T               16.4  .24 Ml 2.7         5114262
TCF   001.40 336.9 m E Pg      2012/11/11 11:07:49.2   0.1                          T                                        5114280
TCF   001.40 336.9 m E Sn      2012/11/11 11:08:05.7   0.1                          T   001.0       20.8  .36 Ml 2.8         5115200
TCF   001.40 336.9 m E Sg      2012/11/11 11:08:07.2   0.1                          T               14.1  .25 Ml 2.8         5114268
BGF   001.56 356.0 m E Pg      2012/11/11 11:07:52.3   0.4                          T                                        5114255
BGF   001.56 356.0 m E Sg      2012/11/11 11:08:12.7   0.6                          T               23.7  .29 Ml 3.0         5114269
AVF   001.80 007.7 m E Pn      2012/11/11 11:07:53.3   0.2                          T                                        5114278
AVF   001.80 007.7 m E Pg      2012/11/11 11:07:56.5   0.0                          T                                        5114253
AVF   001.80 007.7 m E Sn      2012/11/11 11:08:16.6   1.4                          T   001.0                                5115194
AVF   001.80 007.7 m E Sg      2012/11/11 11:08:19.7   0.0                          T                4.0  .21 Ml 2.4         5114277
LFF   001.61 268.5 m E Pg      2012/11/11 11:07:53.7   0.9                          T                                        5114257
LFF   001.61 268.5 m E Sg      2012/11/11 11:08:13.9   0.3                          T               20.0  .24 Ml 2.8         5114259
SMF   001.74 019.4 m E Pg      2012/11/11 11:07:55.3  -0.1                          T                                        5114254
SMF   001.74 019.4 m E Sg      2012/11/11 11:08:18.0   0.1                          T                6.7  .21 Ml 2.7         5114279
MTLF  001.76 199.0 m E Pg      2012/11/11 11:07:55.7   0.1                          T                                        5114283
MTLF  001.76 199.0 m E Sg      2012/11/11 11:08:18.1  -0.1                          T                7.2  .18 Ml 2.7         5114261
ORIF  002.04 091.4 m E Pg      2012/11/11 11:08:00.8  -0.2                          T                                        5121111
ORIF  002.04 091.4 m E Sg      2012/11/11 11:08:27.1  -0.3                          T                1.9  .30 Ml 2.0         5121112
SSF   002.09 009.5 m E Pg      2012/11/11 11:08:01.6  -0.1                          T                                        5114274
SSF   002.09 009.5 m E Sn      2012/11/11 11:08:22.5   0.5                          T                                        5114275
SSF   002.09 009.5 m E Sg      2012/11/11 11:08:28.6   0.0                          T                4.7  .24 Ml 2.6         5114267
MFF   002.72 307.1 m E Pn      2012/11/11 11:08:05.1  -0.5                          T   001.0                                5115197
MFF   002.72 307.1 m E Sn      2012/11/11 11:08:37.2   0.1                          T   001.0                                5115198
MFF   002.72 307.1 m E Sg      2012/11/11 11:08:48.4   0.0                          T                3.0  .26 Ml 2.6         5114264
HYF   002.28 353.8 m E Pg      2012/11/11 11:08:05.2  -0.1                          T                                        5121119
HYF   002.28 353.8 m E Sn      2012/11/11 11:08:26.3  -0.3                          T                                        5121120
HYF   002.28 353.8 m E Sg      2012/11/11 11:08:33.9  -0.7                          T                                        5121121
EPF   002.75 225.2 m E Pn      2012/11/11 11:08:06.3   0.2                          T                                        5121116
EPF   002.75 225.2 m E Pg      2012/11/11 11:08:13.9  -0.1                          T                                        5121115
EPF   002.75 225.2 m E Sg      2012/11/11 11:08:49.6   0.1                          T   001.0        3.3  .24 Ml 2.5         5115195
LOR   002.34 014.4 m E Pg      2012/11/11 11:08:06.4   0.0 196.7  1.6               T                                        5114273
LOR   002.34 014.4 m E Sn      2012/11/11 11:08:28.1   0.0                          T                                        5114276
LOR   002.34 014.4 m E Sg      2012/11/11 11:08:36.3  -0.3                          T                2.6  .18 Ml 2.4         5114266
CABF  002.69 052.2 m E Pg      2012/11/11 11:08:13.1   0.2                          T   001.0                                5115201
ETSF  003.32 231.9 m E Pn      2012/11/11 11:08:13.1  -0.9                          T   001.0                                5115203
CABF  002.69 052.2 m E Sg      2012/11/11 11:08:47.7   0.2                          T   001.0        2.2  .24 Ml 2.3         5115202
ETSF  003.32 231.9 m E Sg      2012/11/11 11:09:06.8  -0.5                          T                2.0  .29 Ml 2.3         5121114
PAGF  004.01 026.8 m E Pn      2012/11/11 11:08:21.9  -1.4                          T                                        5114272
PAGF  004.01 026.8 m E Sn      2012/11/11 11:09:08.5   0.5                          T                                        5114271
PAGF  004.01 026.8 m E Sg      2012/11/11 11:09:28.6  -0.1                          T                2.6  .28 Ml 2.6         5114270

.
