EVENT     288473
    Date      Time       Latitude Longitude    Depth    Ndef Nsta Gap    Mag1  N    Mag2  N    Mag3  N   Author         ID
       rms   OT_Error      Smajor Sminor Az        Err   mdist  Mdist     Err        Err        Err      Quality

2012/12/14 23:03:02.5     50.9770    -.8254     10.0     129   36 054  Ml 3.4 53  Md 3.3  3              bulletin    288573
                                                                                                         _ldg
      0.73   +-  0.06       1.5    1.1   46.80 +-  0.0    0.47   8.07   +-0.3      +-0.2                 m i ke

UNITED KINGDOM
Sta     Dist  EvAz     Phase      Date       Time     TRes  Azim  AzRes  Slow  SRes Def   SNR       Amp   Per   Mag1   Mag2       ID
HEA   000.47 324.3 m E P       2012/12/14 23:03:12.7  -0.2                          T                                        5142162
HEA   000.47 324.3 m E Sg      2012/12/14 23:03:19.6   1.6                          T                                        5142163
BUW   000.50 330.0 m E P       2012/12/14 23:03:13.3  -0.1                          T                                        5142164
BUW   000.50 330.0 m E Sg      2012/12/14 23:03:20.4   1.5                          T                                        5142165
FLN   002.23 174.1 m E Pn      2012/12/14 23:03:38.7   0.9 353.4  -1.0              T                                        5139005
FLN   002.23 174.1 m E Pg      2012/12/14 23:03:43.9   0.0 352.5  -1.9              T                                        5161490
FLN   002.23 174.1 m E Sg      2012/12/14 23:04:12.6   0.0                          T              115.4  .24 Ml 3.8 Md 3.1  5139004
LDF   002.43 168.9 m E Pn      2012/12/14 23:03:41.2   0.6                          T                                        5139003
LDF   002.43 168.9 m E Pg      2012/12/14 23:03:48.1   0.4                          T                                        5161489
LDF   002.43 168.9 m E Sg      2012/12/14 23:04:18.4  -0.5                          T               98.2  .29 Ml 3.8 Md 3.4  5139007
GRR   002.59 180.5 m E Pn      2012/12/14 23:03:43.6   0.9                          T                                        5139002
GRR   002.59 180.5 m E Pg      2012/12/14 23:03:50.6   0.0                          T                                        5161488
GRR   002.59 180.5 m E Sg      2012/12/14 23:04:23.0  -1.0                          T               88.3  .22 Ml 3.8 Md 3.5  5139006
SGMF  002.95 203.1 m E Pn      2012/12/14 23:03:48.6   1.0                          T                                        5139000
SGMF  002.95 203.1 m E Pg      2012/12/14 23:03:57.1  -0.1                          T                                        5161492
SGMF  002.95 203.1 m E Sn      2012/12/14 23:04:20.9  -0.1                          T                8.5  .19 Ml 3.1         5139021
SGMF  002.95 203.1 m E Sg      2012/12/14 23:04:34.9  -0.2                          T                9.9  .19 Ml 3.1         5161456
ROSF  003.08 212.0 m E Pn      2012/12/14 23:03:50.4   1.0                          T                                        5139001
ROSF  003.08 212.0 m E Sn      2012/12/14 23:04:23.8  -0.4                          T               16.3  .20 Ml 3.4         5139022
ROSF  003.08 212.0 m E Sg      2012/12/14 23:04:39.1  -0.3                          T               16.9  .22 Ml 3.3         5161457
BAIF  003.34 104.0 m E Pn      2012/12/14 23:03:53.4   0.4                          T                                        5138993
BAIF  003.34 104.0 m E P       2012/12/14 23:03:56.3   0.3                          T                                        5161511
BAIF  003.34 104.0 m E Pg      2012/12/14 23:04:04.1  -0.3                          T                                        5161510
BAIF  003.34 104.0 m E Sn      2012/12/14 23:04:30.3   0.0                          T                3.9  .20 Ml 2.8         5161479
BAIF  003.34 104.0 m E Sg      2012/12/14 23:04:47.4   0.1                          T               10.9  .22 Ml 3.2         5161466
QUIF  003.42 207.4 m E Pn      2012/12/14 23:03:54.8   0.8                          T                                        5138999
QUIF  003.42 207.4 m E Pg      2012/12/14 23:04:05.9   0.0                          T                                        5161491
QUIF  003.42 207.4 m E Sn      2012/12/14 23:04:32.0  -0.2                          T                3.2  .17 Ml 2.8         5139020
QUIF  003.42 207.4 m E Sg      2012/12/14 23:04:49.6  -0.3                          T               17.0  .25 Ml 3.4         5161455
GIVF  003.71 101.5 m E P       2012/12/14 23:04:01.4   0.1                          T                                        5138992
GIVF  003.71 101.5 m E Pg      2012/12/14 23:04:11.5   0.3                          T                                        5161512
GIVF  003.71 101.5 m E Sn      2012/12/14 23:04:39.4   0.3                          T               10.1  .24 Ml 3.2         5139025
GIVF  003.71 101.5 m E Sg      2012/12/14 23:04:58.9   0.1                          T               13.9  .21 Ml 3.4         5161467
HYF   004.35 147.2 m E Pn      2012/12/14 23:04:06.8   0.0                          T                                        5161497
HYF   004.35 147.2 m E Pg      2012/12/14 23:04:22.8  -0.3                          T                                        5161496
HYF   004.35 147.2 m E Sg      2012/12/14 23:05:19.6   0.7                          T                                        5139015
MFF   004.40 173.9 m E Pn      2012/12/14 23:04:08.5   1.1                          T                                        5138998
MFF   004.40 173.9 m E Sn      2012/12/14 23:04:54.9  -0.7                          T                6.5  .33 Ml 3.2         5139019
MFF   004.40 173.9 m E Sg      2012/12/14 23:05:20.7   0.2                          T               13.1  .26 Ml 3.6         5161454
MEZF  004.55 120.8 m E Pn      2012/12/14 23:04:09.7   0.4 302.4  -2.8              T                                        5139028
MEZF  004.55 120.8 m E Pg      2012/12/14 23:04:26.0  -0.7 297.8  -7.4              T                                        5161506
MEZF  004.55 120.8 m E Sn      2012/12/14 23:04:59.0  -0.1                          T                5.6  .26 Ml 3.1         5139024
MEZF  004.55 120.8 m E Sg      2012/12/14 23:05:25.1   0.2                          T               11.8  .33 Ml 3.3         5161463
SFTF  004.72 123.8 m E Pn      2012/12/14 23:04:11.7   0.0 312.5  4.3               T                                        5139029
SFTF  004.72 123.8 m E Pg      2012/12/14 23:04:29.6  -0.1 312.8  4.5               T                                        5161505
SFTF  004.72 123.8 m E Sn      2012/12/14 23:05:01.9  -1.3                          T                3.1  .18 Ml 3.1         5139023
SFTF  004.72 123.8 m E Sg      2012/12/14 23:05:30.3   0.0                          T                4.7  .15 Ml 3.3         5161462
LOR   004.82 138.6 m E Pn      2012/12/14 23:04:13.7   0.5 318.7  -3.4              T                                        5138991
LOR   004.82 138.6 m E Pg      2012/12/14 23:04:31.9   0.2 324.9  2.8               T                                        5161515
LOR   004.82 138.6 m E Sn      2012/12/14 23:05:04.0  -1.7                          T                6.8  .26 Ml 3.3         5139026
LOR   004.82 138.6 m E Sg      2012/12/14 23:05:33.8   0.3 322.4  0.3               T               16.0  .29 Ml 3.6         5161470
SSF   004.84 142.3 m E Pn      2012/12/14 23:04:13.9   0.5                          T                                        5138990
SSF   004.84 142.3 m E Sn      2012/12/14 23:05:04.5  -1.8                          T               14.2  .48 Ml 3.4         5139027
SSF   004.84 142.3 m E Sg      2012/12/14 23:05:33.2  -1.1                          T               30.1  .44 Ml 3.8         5161469
PAGF  004.89 117.2 m E Pn      2012/12/14 23:04:14.1   0.1                          T                                        5161508
PAGF  004.89 117.2 m E Pg      2012/12/14 23:04:32.9  -0.1 294.7  -7.4              T                                        5161507
PAGF  004.89 117.2 m E Sn      2012/12/14 23:05:07.2  -0.1                          T                2.5  .18 Ml 3.0         5161478
PAGF  004.89 117.2 m E Sg      2012/12/14 23:05:35.7   0.1                          T                6.6  .26 Ml 3.2         5161464
AVF   005.01 145.1 m E Pn      2012/12/14 23:04:16.1   0.4                          T                                        5138997
AVF   005.01 145.1 m E Pg      2012/12/14 23:04:35.1  -0.1                          T                                        5161500
AVF   005.01 145.1 m E Sn      2012/12/14 23:05:08.0  -2.2                          T                8.5  .34 Ml 3.3         5139018
AVF   005.01 145.1 m E Sg      2012/12/14 23:05:39.0  -0.6                          T               14.0  .38 Ml 3.4         5139017
BGF   005.04 149.8 m E Pn      2012/12/14 23:04:16.4   0.2                          T                                        5138996
BGF   005.04 149.8 m E Pg      2012/12/14 23:04:35.5  -0.4                          T                                        5161495
BGF   005.04 149.8 m E Sg      2012/12/14 23:05:40.0  -0.6                          T               37.0  .24 Ml 4.1         5139014
TCF   005.11 155.6 m E Pn      2012/12/14 23:04:17.4   0.4                          T                                        5161514
TCF   005.11 155.6 m E Pg      2012/12/14 23:04:36.8  -0.2                          T                                        5161513
TCF   005.11 155.6 m E Sn      2012/12/14 23:05:11.0  -1.5                          T                5.0  .29 Ml 3.2         5161480
TCF   005.11 155.6 m E Sg      2012/12/14 23:05:42.4   0.0                          T                8.2  .24 Ml 3.5         5161468
SMF   005.32 142.8 m E Pn      2012/12/14 23:04:19.3  -0.6                          T                                        5161499
SMF   005.32 142.8 m E Pg      2012/12/14 23:04:40.7  -0.2                          T                                        5161498
SMF   005.32 142.8 m E Sg      2012/12/14 23:05:48.7  -0.4                          T               18.4  .39 Ml 3.6         5139016
RJF   005.89 163.7 m E Pn      2012/12/14 23:04:27.5  -0.1                          T                                        5161487
RJF   005.89 163.7 m E Pg      2012/12/14 23:04:51.5   0.1                          T                                        5161486
RJF   005.89 163.7 m E Sn      2012/12/14 23:05:29.7  -1.5                          T               12.3  .34 Ml 3.3         5139013
RJF   005.89 163.7 m E Sg      2012/12/14 23:06:07.3   0.4                          T               13.4  .36 Ml 3.3         5161453
CDF   005.85 112.9 m E Pn      2012/12/14 23:04:27.6   0.4                          T                                        5161509
CDF   005.85 112.9 m E Sg      2012/12/14 23:06:06.1   0.4                          T                5.5  .40 Ml 3.3         5161465
HINF  005.93 119.3 m E Pn      2012/12/14 23:04:28.5   0.3                          T                                        5161503
HINF  005.93 119.3 m E Pg      2012/12/14 23:04:51.2  -0.9                          T                                        5161502
HINF  005.93 119.3 m E Sn      2012/12/14 23:05:31.9  -0.3                          T                1.6  .21 Ml 3.0         5161476
HINF  005.93 119.3 m E Sg      2012/12/14 23:06:08.5   0.4                          T                5.8  .39 Ml 3.3         5161460
LFF   006.13 169.5 m E Pn      2012/12/14 23:04:31.6   0.6                          T                                        5138995
LFF   006.13 169.5 m E Sn      2012/12/14 23:05:35.2  -1.7                          T                5.3  .25 Ml 3.3         5139012
LFF   006.13 169.5 m E Sg      2012/12/14 23:06:14.3  -0.1                          T               34.3  .51 Ml 3.8         5161452
CABF  006.32 131.1 m E Pn      2012/12/14 23:04:33.7   0.1                          T                                        5161501
CABF  006.32 131.1 m E Sg      2012/12/14 23:06:20.9   0.4                          T               10.1  .53 Ml 3.4         5161459
CAF   006.36 161.1 m E Pn      2012/12/14 23:04:34.7   0.6                          T                                        5138994
CAF   006.36 161.1 m E Sn      2012/12/14 23:05:40.3  -2.1                          T                6.7  .26 Ml 3.6         5139011
CAF   006.36 161.1 m E Sg      2012/12/14 23:06:21.9   0.4                          T               10.1  .39 Ml 3.6         5161451
HAU   005.54 119.7 m E Pg      2012/12/14 23:04:44.8  -0.2                          T                                        5161504
HAU   005.54 119.7 m E Sn      2012/12/14 23:05:22.8  -0.1                          T                4.2  .22 Ml 3.0         5161477
HAU   005.54 119.7 m E Sg      2012/12/14 23:05:56.9   0.9                          T                9.7  .30 Ml 3.3         5161461
VIVF  007.15 146.8 m E Pn      2012/12/14 23:04:45.3   0.4                          T                                        5139009
VIVF  007.15 146.8 m E Sn      2012/12/14 23:06:00.5  -0.9                          T                1.6  .27 Ml 3.0         5161472
LPL   007.43 134.4 m E Pn      2012/12/14 23:04:48.7  -0.3                          T                                        5161482
LPG   007.46 134.4 m E Pn      2012/12/14 23:04:49.7   0.3                          T                                        5161481
SJPF  007.87 182.1 m E Pn      2012/12/14 23:04:54.6   0.0                          T                                        5161485
SJPF  007.87 182.1 m E Sn      2012/12/14 23:06:18.1  -0.5                          T                1.9  .30 Ml 3.2         5161474
MTLF  007.91 163.7 m E Pn      2012/12/14 23:04:54.9  -0.4                          T                                        5161484
MTLF  007.91 163.7 m E Sn      2012/12/14 23:06:18.7  -0.9                          T                3.1  .34 Ml 3.4         5161473
EPF   007.99 173.8 m E Pn      2012/12/14 23:04:56.3   0.0                          T                                        5139010
EPF   007.99 173.8 m E Sn      2012/12/14 23:06:19.9  -1.5                          T                3.0  .27 Ml 3.5         5139008
MBDF  008.07 137.8 m E Pn      2012/12/14 23:04:57.5   0.0                          T                                        5161483
ORIF  007.55 140.8 m E Sn      2012/12/14 23:06:11.4   0.5                          T                3.5  .23 Ml 3.5         5161471

.
EVENT     289917
    Date      Time       Latitude Longitude    Depth    Ndef Nsta Gap    Mag1  N    Mag2  N    Mag3  N   Author         ID
       rms   OT_Error      Smajor Sminor Az        Err   mdist  Mdist     Err        Err        Err      Quality

2012/12/15 04:54:38.3     50.1205   -3.0627     15.0      22    8 294  Ml 2.2  7                         bulletin    290017
                                                                                                         _ldg
      1.42   +-  0.52       9.6    5.8  161.89 +-  0.0    1.79   5.40   +-0.1                            m i ke

UNITED KINGDOM
Sta     Dist  EvAz     Phase      Date       Time     TRes  Azim  AzRes  Slow  SRes Def   SNR       Amp   Per   Mag1   Mag2       ID
ROSF  001.79 184.5 m E Pn      2012/12/15 04:55:06.0  -1.0                          T                                        5161524
ROSF  001.79 184.5 m E Pg      2012/12/15 04:55:12.3   0.6                          T                                        5161523
ROSF  001.79 184.5 m E Sn      2012/12/15 04:55:28.7   0.6                          T                3.3  .24 Ml 2.3         5161535
SGMF  001.90 169.7 m E Pn      2012/12/15 04:55:07.2  -1.2                          T                                        5161529
SGMF  001.90 169.7 m E Sn      2012/12/15 04:55:31.6   0.9                          T                3.0  .20 Ml 2.3         5161534
FLN   002.16 127.9 m E Pn      2012/12/15 04:55:12.6   0.5 300.4  -9.4              T                                        5161527
FLN   002.16 127.9 m E Sn      2012/12/15 04:55:37.2   0.1 296.6  -13.3             T                3.2  .19 Ml 2.3         5161532
FLN   002.16 127.9 m E Sg      2012/12/15 04:55:45.4  -1.0                          T                4.0  .30 Ml 2.2         5161520
QUIF  002.21 181.8 m E Pn      2012/12/15 04:55:13.1   0.4                          T                                        5161528
QUIF  002.21 181.8 m E Sn      2012/12/15 04:55:39.4   1.4                          T                                        5161533
QUIF  002.21 181.8 m E Sg      2012/12/15 04:55:47.8   0.0                          T                1.3  .20 Ml 2.1         5161519
GRR   002.26 139.4 m E Pn      2012/12/15 04:55:13.8   0.5                          T                                        5161521
GRR   002.26 139.4 m E Sn      2012/12/15 04:55:40.3   1.1                          T                                        5161530
GRR   002.26 139.4 m E Sg      2012/12/15 04:55:49.2  -0.1                          T                1.8  .17 Ml 2.2         5161517
LDF   002.46 127.4 m E Pn      2012/12/15 04:55:16.3   0.2                          T                                        5161525
LDF   002.46 127.4 m E Pg      2012/12/15 04:55:24.0   0.1                          T                                        5161522
LDF   002.46 127.4 m E Sn      2012/12/15 04:55:43.1  -0.9                          T                                        5161531
LDF   002.46 127.4 m E Sg      2012/12/15 04:55:54.6  -0.9                          T                2.0  .25 Ml 2.2         5161526
MFF   004.02 150.0 m E P       2012/12/15 04:55:40.7  -0.3                          T                                        5161516
LOR   005.40 119.3 m E Pn      2012/12/15 04:55:56.4   0.2                          T                                        5161518

.
EVENT     288477
    Date      Time       Latitude Longitude    Depth    Ndef Nsta Gap    Mag1  N    Mag2  N    Mag3  N   Author         ID
       rms   OT_Error      Smajor Sminor Az        Err   mdist  Mdist     Err        Err        Err      Quality

2012/12/15 16:00:45.1     38.0289   -3.2764      2.0     112    3 044  Ml 3.1  3                         bulletin    288577
                                                                                                         _ldg
      1.07   +-  0.10       2.1    1.6  159.57 +-  0.0    0.28   6.06   +-0.0                            m i ke

SPAIN
Sta     Dist  EvAz     Phase      Date       Time     TRes  Azim  AzRes  Slow  SRes Def   SNR       Amp   Per   Mag1   Mag2       ID
ETSF  005.29 022.2 m E Pn      2012/12/15 16:02:04.5   1.5                          T                                        5139066
ETSF  005.29 022.2 m E Sn      2012/12/15 16:03:02.4   1.4                          T                5.3  .36 Ml 3.1         5139061
SJPF  005.31 016.4 m E Pn      2012/12/15 16:02:04.7   1.4                          T                                        5139063
SJPF  005.31 016.4 m E Sn      2012/12/15 16:03:02.4   0.9                          T                6.2  .43 Ml 3.1         5139062
EPF   005.70 027.7 m E Pn      2012/12/15 16:02:09.5   0.9                          T                                        5139065
EPF   005.70 027.7 m E Sn      2012/12/15 16:03:11.2   0.3                          T                3.8  .35 Ml 3.1         5139064

.
