BEGIN GSE2.0
MSG_TYPE DATA
MSG_ID 16-MAR-1110:23:22  FRA_NDC
E-MAIL
DATA_TYPE BULLETIN
Reviewed Bulletin (REB) # P2011-010  from French NDC for regional phases     PERIOD 09 MAR 2011 TO 15 MAR 2011 C M., J-P S
EVENT     256860
    Date      Time       Latitude Longitude    Depth    Ndef Nsta Gap    Mag1  N    Mag2  N    Mag3  N   Author         ID
       rms   OT_Error      Smajor Sminor Az        Err   mdist  Mdist     Err        Err        Err      Quality

2011/03/09 07:41:22.3     44.8029    7.1905      2.0      18    8 193  Ml 1.8  6  Md 1.7  3              js067245    256860

      0.13   +-  0.06       1.2     .6   77.27 +-  0.0    0.31   1.55   +-0.2      +-0.0                 m i ke

NORTHERN ITALY
Sta     Dist  EvAz     Phase      Date       Time     TRes  Azim  AzRes  Slow  SRes Def   SNR       Amp   Per   Mag1   Mag2       ID
MBDF  000.31 255.9 m E Pg      2011/03/09 07:41:28.6   0.1                          T                                        4658246
MBDF  000.31 255.9 m E Sg      2011/03/09 07:41:32.7   0.0                          T               16.1  .26        Md 1.8  4658243
LPG   000.76 336.1 m E Pg      2011/03/09 07:41:36.7  -0.3                          T                                        4658244
LPG   000.76 336.1 m E Sg      2011/03/09 07:41:46.8  -0.2                          T                1.7  .25        Md 1.8  4658241
LPL   000.78 335.7 m E Pg      2011/03/09 07:41:37.5   0.2                          T                                        4658245
LPL   000.78 335.7 m E Sg      2011/03/09 07:41:47.4  -0.1                          T                1.4  .20        Md 1.7  4658242
ORIF  000.94 277.5 m E Pg      2011/03/09 07:41:39.9  -0.2                          T                                        4658239
ORIF  000.94 277.5 m E Sg      2011/03/09 07:41:52.2  -0.1                          T                3.1  .35 Ml 1.7         4658240
SBF   000.96 169.3 m E Pg      2011/03/09 07:41:40.3   0.0                          T                                        4658235
SBF   000.96 169.3 m E Sg      2011/03/09 07:41:52.5  -0.2                          T                2.9  .32 Ml 1.8         4658238
FRF   001.30 197.7 m E Pg      2011/03/09 07:41:46.5  -0.1                          T                                        4658233
FRF   001.30 197.7 m E Sg      2011/03/09 07:42:03.5   0.0                          T                6.1  .45 Ml 2.1         4658237
SMRF  001.42 235.0 m E Pg      2011/03/09 07:41:48.8  -0.1                          T                                        4658232
SMRF  001.42 235.0 m E Sg      2011/03/09 07:42:07.2  -0.1                          T                1.7  .39 Ml 1.6         4658231
LMR   001.55 198.7 m E Pg      2011/03/09 07:41:51.1   0.0                          T                                        4658234
LMR   001.55 198.7 m E Sg      2011/03/09 07:42:11.1   0.0                          T                1.9  .26 Ml 1.9         4658236

.
EVENT     256875
    Date      Time       Latitude Longitude    Depth    Ndef Nsta Gap    Mag1  N    Mag2  N    Mag3  N   Author         ID
       rms   OT_Error      Smajor Sminor Az        Err   mdist  Mdist     Err        Err        Err      Quality

2011/03/09 10:38:10.1     43.0800    -.6162      2.0      12    3 159  Ml 1.9  2  Md 1.8  3              js067245    256875

      0.26   +-  0.06       4.2     .9  177.62 +-  0.0    0.06   2.09   +-0.2      +-0.0                 m i ke

PYRENEES
Sta     Dist  EvAz     Phase      Date       Time     TRes  Azim  AzRes  Slow  SRes Def   SNR       Amp   Per   Mag1   Mag2       ID
SJPF  000.45 274.5 m E Pg      2011/03/09 10:38:18.4  -0.2                          T                                        4658262
SJPF  000.45 274.5 m E Sg      2011/03/09 10:38:24.5  -0.1                          T                6.1  .32        Md 1.8  4658261
EPF   000.70 093.7 m E Pg      2011/03/09 10:38:23.5   0.0                          T                                        4658259
EPF   000.70 093.7 m E Sg      2011/03/09 10:38:32.6   0.0                          T                1.4  .29        Md 1.8  4658260
MTLF  002.09 081.9 m E Pg      2011/03/09 10:38:48.9   0.0                          T                                        4658258
MTLF  002.09 081.9 m E Sg      2011/03/09 10:39:15.9   0.1                          T                2.5  .40 Ml 2.0 Md 1.8  4658257

.
EVENT     256883
    Date      Time       Latitude Longitude    Depth    Ndef Nsta Gap    Mag1  N    Mag2  N    Mag3  N   Author         ID
       rms   OT_Error      Smajor Sminor Az        Err   mdist  Mdist     Err        Err        Err      Quality

2011/03/09 21:19:44.1     45.5457    6.9026      2.0      12    5 214  Ml 1.5  3  Md 1.6  3              js067245    256883

      0.10   +-  0.08       1.5     .8   90.03 +-  0.0    0.12   1.21   +-0.1      +-0.0                 m i ke

FRANCE
Sta     Dist  EvAz     Phase      Date       Time     TRes  Azim  AzRes  Slow  SRes Def   SNR       Amp   Per   Mag1   Mag2       ID
LPL   000.12 256.3 m E Pg      2011/03/09 21:19:47.0  -0.1                          T                                        4658301
LPL   000.12 256.3 m E Sg      2011/03/09 21:19:48.7  -0.1                          T               11.9  .30        Md 1.6  4658292
LPG   000.12 245.8 m E Pg      2011/03/09 21:19:47.2   0.2                          T                                        4658300
LPG   000.12 245.8 m E Sg      2011/03/09 21:19:48.6  -0.1                          T               42.2  .20        Md 1.6  4658299
MBDF  000.82 186.5 m E Pg      2011/03/09 21:19:59.8  -0.1                          T                                        4658295
MBDF  000.82 186.5 m E Sg      2011/03/09 21:20:10.6   0.0                          T                2.3  .25        Md 1.5  4658298
ORIF  000.96 229.4 m E Pg      2011/03/09 21:20:02.2   0.0                          T                                        4658296
ORIF  000.96 229.4 m E Sg      2011/03/09 21:20:14.6  -0.1                          T                1.1  .24 Ml 1.4         4658297
CABF  001.21 332.3 m E Pg      2011/03/09 21:20:06.8   0.0                          T                                        4658294
CABF  001.21 332.3 m E Sg      2011/03/09 21:20:22.5   0.1                          T                1.5  .34 Ml 1.5         4658293

.
EVENT     256888
    Date      Time       Latitude Longitude    Depth    Ndef Nsta Gap    Mag1  N    Mag2  N    Mag3  N   Author         ID
       rms   OT_Error      Smajor Sminor Az        Err   mdist  Mdist     Err        Err        Err      Quality

2011/03/09 22:09:41.4     50.3488    7.8166      2.0      23   10 084  Ml 2.1 11                         cm165940    256888

      0.28   +-  0.06       1.3    1.1  131.65 +-  0.0    0.11   4.36   +-0.2                            m i ke

GERMANY
Sta     Dist  EvAz     Phase      Date       Time     TRes  Azim  AzRes  Slow  SRes Def   SNR       Amp   Per   Mag1   Mag2       ID
GIVF  001.94 263.8 m E Pn      2011/03/09 22:10:13.6   0.0                          T                                        4658346
GIVF  001.94 263.8 m E Sg      2011/03/09 22:10:42.4   0.0                          T                3.4  .26 Ml 2.3         4658335
CDF   001.97 190.5 m E Pn      2011/03/09 22:10:14.1   0.0                          T                                        4658348
CDF   001.97 190.5 m E Sg      2011/03/09 22:10:43.3  -0.2                          T                1.7  .28 Ml 2.1         4658334
PAGF  002.26 218.0 m E Pn      2011/03/09 22:10:18.0   0.1                          T                                        4658344
PAGF  002.26 218.0 m E Sg      2011/03/09 22:10:52.4   0.1                          T                 .8  .38 Ml 1.6         4658333
BAIF  002.34 264.3 m E Pn      2011/03/09 22:10:18.7  -0.2                          T                                        4658345
BAIF  002.34 264.3 m E Sg      2011/03/09 22:10:54.7  -0.1                          T                1.7  .33 Ml 2.0         4658347
HAU   002.54 202.9 m E Pn      2011/03/09 22:10:21.5  -0.2                          T                                        4658340
HAU   002.54 202.9 m E Sg      2011/03/09 22:11:01.3   0.2                          T                3.1  .48 Ml 1.9         4658330
MEZF  002.58 225.4 m E Pn      2011/03/09 22:10:22.2  -0.1                          T                                        4658343
MEZF  002.58 225.4 m E Sg      2011/03/09 22:11:02.6   0.1                          T                3.0  .38 Ml 2.2         4658332
HINF  002.61 194.4 m E Pn      2011/03/09 22:10:23.0   0.2                          T                                        4658341
HINF  002.61 194.4 m E Sg      2011/03/09 22:11:03.8   0.3                          T                4.5  .48 Ml 2.3         4658329
SFTF  002.81 221.4 m E Pn      2011/03/09 22:10:25.8   0.3                          T                                        4658342
SFTF  002.81 221.4 m E Sg      2011/03/09 22:11:09.8   0.1                          T                6.0  .48 Ml 2.5         4658331
LOR   004.04 221.8 m E Pn      2011/03/09 22:10:42.2   0.0                          T                                        4658339
LOR   004.04 221.8 m E Sg      2011/03/09 22:11:48.3   0.2                          T                 .5  .22 Ml 2.0         4658337
SSF   004.36 222.6 m E Pn      2011/03/09 22:10:46.4  -0.1                          T                                        4658338
SSF   004.36 222.6 m E Sg      2011/03/09 22:11:58.1   0.2                          T                 .6  .34 Ml 2.1         4658336

.
EVENT     256884
    Date      Time       Latitude Longitude    Depth    Ndef Nsta Gap    Mag1  N    Mag2  N    Mag3  N   Author         ID
       rms   OT_Error      Smajor Sminor Az        Err   mdist  Mdist     Err        Err        Err      Quality

2011/03/09 22:23:37.4     42.0305   13.7507      7.0 f    37   14 076  Ml 2.7  4                         js067245    256884

      0.75   +-  0.16       4.9    3.5   40.36 +-  0.0    0.12   7.95   +-0.2                            m i ke

CENTRAL ITALY
Sta     Dist  EvAz     Phase      Date       Time     TRes  Azim  AzRes  Slow  SRes Def   SNR       Amp   Per   Mag1   Mag2       ID
PGF   003.56 279.9 m E Pn      2011/03/09 22:24:31.8   0.5                          T                                        4658363
PGF   003.56 279.9 m E Sn      2011/03/09 22:25:11.1   0.0                          T                7.8  .62 Ml 2.9         4658349
SBF   004.98 293.7 m E Pn      2011/03/09 22:24:50.8   0.3                          T                                        4658362
FRF   005.45 288.7 m E Pn      2011/03/09 22:24:56.6  -0.2                          T                                        4658360
LMR   005.49 286.1 m E Pn      2011/03/09 22:24:57.1  -0.3                          T                                        4658361
MBDF  005.76 300.3 m E Pn      2011/03/09 22:25:01.9   0.7                          T                                        4658359
LPG   006.14 306.7 m E Pn      2011/03/09 22:25:06.9   0.3                          T                                        4658354
LPG   006.14 306.7 m E Sn      2011/03/09 22:26:12.5  -0.4                          T                1.3  .49 Ml 2.6         4658367
LPL   006.16 306.8 m E Pn      2011/03/09 22:25:07.0   0.2                          T                                        4658355
LPL   006.16 306.8 m E Sn      2011/03/09 22:26:12.9  -0.4                          T                1.9  .55 Ml 2.7         4658368
SMRF  006.30 290.7 m E Pn      2011/03/09 22:25:08.7   0.2                          T                                        4658357
ORIF  006.41 299.4 m E Pn      2011/03/09 22:25:10.1   0.0                          T                                        4658358
CABF  007.15 312.4 m E Pn      2011/03/09 22:25:20.2   0.1                          T                                        4658352
VIVF  007.18 296.2 m E Pn      2011/03/09 22:25:20.7   0.2                          T                                        4658353
HINF  007.58 322.1 m E Pn      2011/03/09 22:25:26.0   0.1                          T                                        4658351
CDF   007.85 326.6 m E Pn      2011/03/09 22:25:29.4  -0.1                          T                                        4658356
HAU   007.95 321.3 m E Pn      2011/03/09 22:25:31.0   0.1                          T                                        4658350

.
EVENT     256886
    Date      Time       Latitude Longitude    Depth    Ndef Nsta Gap    Mag1  N    Mag2  N    Mag3  N   Author         ID
       rms   OT_Error      Smajor Sminor Az        Err   mdist  Mdist     Err        Err        Err      Quality

2011/03/10 02:13:39.7     49.5789    -.3545      2.0      41   17 200  Ml 2.4 19  Md 2.4  3              js067245    256886

      0.16   +-  0.06       1.0     .6  177.22 +-  0.0    0.82   4.94   +-0.2      +-0.0                 m i ke

FRANCE
Sta     Dist  EvAz     Phase      Date       Time     TRes  Azim  AzRes  Slow  SRes Def   SNR       Amp   Per   Mag1   Mag2       ID
FLN   000.82 185.9 m E Pg      2011/03/10 02:13:55.3   0.2                          T                                        4658393
FLN   000.82 185.9 m E Sg      2011/03/10 02:14:05.6  -0.3                          T               32.0  .28        Md 2.4  4658388
LDF   001.00 171.1 m E Pg      2011/03/10 02:13:58.5   0.1                          T                                        4658392
LDF   001.00 171.1 m E Sg      2011/03/10 02:14:11.2  -0.2                          T               25.6  .26 Ml 2.8 Md 2.4  4658387
GRR   001.24 195.8 m E Pg      2011/03/10 02:14:02.8   0.0                          T                                        4658391
GRR   001.24 195.8 m E Sg      2011/03/10 02:14:18.7  -0.1                          T               19.5  .18 Ml 2.8 Md 2.3  4658386
SGMF  001.97 228.4 m E Pn      2011/03/10 02:14:12.4   0.2                          T                                        4659064
SGMF  001.97 228.4 m E Pg      2011/03/10 02:14:15.7  -0.6                          T                                        4658390
SGMF  001.97 228.4 m E Sg      2011/03/10 02:14:41.2  -0.4                          T                7.0  .43 Ml 2.4         4658427
ROSF  002.29 238.2 m E Pg      2011/03/10 02:14:22.2   0.0                          T                                        4658409
ROSF  002.29 238.2 m E Sg      2011/03/10 02:14:51.7   0.0                          T                3.4  .32 Ml 2.3         4658420
QUIF  002.50 229.3 m E Pg      2011/03/10 02:14:26.0   0.1                          T                                        4658389
QUIF  002.50 229.3 m E Sg      2011/03/10 02:14:58.0   0.0                          T                2.2  .28 Ml 2.2         4658419
BAIF  002.99 079.0 m E Pg      2011/03/10 02:14:34.7  -0.4                          T                                        4658400
BAIF  002.99 079.0 m E Sg      2011/03/10 02:15:13.7   0.1                          T                3.3  .46 Ml 2.3         4658415
MFF   002.98 177.2 m E Pg      2011/03/10 02:14:34.9   0.0                          T                                        4658410
MFF   002.98 177.2 m E Sg      2011/03/10 02:15:12.9  -0.4                          T                2.1  .23 Ml 2.5         4658424
HYF   003.05 138.1 m E Pg      2011/03/10 02:14:36.4   0.2                          T                                        4658406
HYF   003.05 138.1 m E Sg      2011/03/10 02:15:15.5   0.0                          T                                        4658414
SSF   003.60 132.9 m E Pg      2011/03/10 02:14:46.5   0.1                          T                                        4658402
SSF   003.60 132.9 m E Sg      2011/03/10 02:15:32.7   0.1                          T                1.7  .38 Ml 2.3         4658417
LOR   003.64 127.9 m E Pg      2011/03/10 02:14:47.1   0.1                          T                                        4658403
LOR   003.64 127.9 m E Sg      2011/03/10 02:15:33.7   0.0                          T                2.4  .38 Ml 2.4         4658418
BGF   003.71 143.4 m E Pg      2011/03/10 02:14:48.2  -0.1                          T                                        4658407
BGF   003.71 143.4 m E Sg      2011/03/10 02:15:35.8  -0.1                          T                8.1  .34 Ml 3.0         4658426
AVF   003.73 137.0 m E Pg      2011/03/10 02:14:48.8   0.0                          T                                        4658405
AVF   003.73 137.0 m E Sg      2011/03/10 02:15:36.8   0.1                          T                 .9  .40 Ml 2.0         4658404
TCF   003.72 151.4 m E Pg      2011/03/10 02:14:48.9   0.4                          T                                        4658401
TCF   003.72 151.4 m E Sg      2011/03/10 02:15:36.1  -0.2                          T                1.1  .28 Ml 2.2         4658416
RJF   004.46 162.8 m E Pg      2011/03/10 02:15:02.3   0.1                          T                                        4658411
RJF   004.46 162.8 m E Sg      2011/03/10 02:15:59.5   0.0                          T                1.9  .34 Ml 2.2         4658423
LFF   004.70 170.5 m E Pg      2011/03/10 02:15:06.6   0.0                          T                                        4658412
LFF   004.70 170.5 m E Sg      2011/03/10 02:16:06.9   0.0                          T                2.6  .39 Ml 2.5         4658422
CAF   004.94 159.6 m E Pg      2011/03/10 02:15:11.1   0.1                          T                                        4658413
CAF   004.94 159.6 m E Sg      2011/03/10 02:16:14.3  -0.1                          T                 .9  .43 Ml 2.2         4658421

.
