EVENT     272723
    Date      Time       Latitude Longitude    Depth    Ndef Nsta Gap    Mag1  N    Mag2  N    Mag3  N   Author         ID
       rms   OT_Error      Smajor Sminor Az        Err   mdist  Mdist     Err        Err        Err      Quality

2012/03/30 00:13:44.8     44.3422    7.2962     10.0      35    8 106  Ml 1.7  6  Md 1.7  2              js067245    272743

      0.24   +-  0.04       1.1     .6   51.83 +-  0.0    0.10   1.29   +-0.4      +-0.0                 m i ke

NORTHERN ITALY
Sta     Dist  EvAz     Phase      Date       Time     TRes  Azim  AzRes  Slow  SRes Def   SNR       Amp   Per   Mag1   Mag2       ID
SBF   000.49 168.1 m E Pg      2012/03/30 00:13:54.3   0.0                          T                                        4898270
SBF   000.49 168.1 m E Sg      2012/03/30 00:14:00.5  -0.3                          T                7.4  .20        Md 1.7  4898258
MBDF  000.54 315.9 m E Pg      2012/03/30 00:13:55.0  -0.3                          T                                        4898273
MBDF  000.54 315.9 m E Sg      2012/03/30 00:14:02.5   0.0                          T                4.2  .26        Md 1.7  4898265
FRF   000.91 211.2 m E Pg      2012/03/30 00:14:01.5  -0.4                          T                                        4898272
FRF   000.91 211.2 m E Sg      2012/03/30 00:14:13.1  -0.7                          T                4.4  .22 Ml 2.1         4898260
LMR   001.16 209.7 m E Pg      2012/03/30 00:14:05.8  -0.6                          T                                        4898271
LMR   001.16 209.7 m E Sn      2012/03/30 00:14:20.3   0.0                          T                3.0  .18 Ml 2.1         4898259
ORIF  001.16 300.2 m E Pg      2012/03/30 00:14:06.7   0.0                          T                                        4898269
ORIF  001.16 300.2 m E Sg      2012/03/30 00:14:21.8   0.0                          T                 .6  .23 Ml 1.3         4898264
LPG   001.22 341.7 m E Pg      2012/03/30 00:14:07.9  -0.1                          T                                        4898267
LPG   001.22 341.7 m E Sg      2012/03/30 00:14:23.8   0.0                          T                 .5  .24 Ml 1.3         4898262
LPL   001.24 341.4 m E Pg      2012/03/30 00:14:08.2   0.0                          T                                        4898268
LPL   001.24 341.4 m E Sg      2012/03/30 00:14:24.3  -0.1                          T                 .9  .33 Ml 1.4         4898263
SMRF  001.29 254.1 m E Pg      2012/03/30 00:14:09.1   0.1                          T                                        4898266
SMRF  001.29 254.1 m E Sg      2012/03/30 00:14:25.9   0.2                          T                2.3  .31 Ml 1.8         4898261

.
EVENT     272724
    Date      Time       Latitude Longitude    Depth    Ndef Nsta Gap    Mag1  N    Mag2  N    Mag3  N   Author         ID
       rms   OT_Error      Smajor Sminor Az        Err   mdist  Mdist     Err        Err        Err      Quality

2012/03/30 02:35:05.2     44.3445    7.2963     10.0      35    8 107  Ml 1.4  6  Md 1.5  2              js067245    272744

      0.29   +-  0.05       1.3     .8   54.57 +-  0.0    0.10   1.29   +-0.5      +-0.0                 m i ke

NORTHERN ITALY
Sta     Dist  EvAz     Phase      Date       Time     TRes  Azim  AzRes  Slow  SRes Def   SNR       Amp   Per   Mag1   Mag2       ID
SBF   000.49 168.2 m E Pg      2012/03/30 02:35:14.8   0.0                          T                                        4898286
SBF   000.49 168.2 m E Sg      2012/03/30 02:35:21.0  -0.4                          T                3.6  .20        Md 1.5  4898274
MBDF  000.54 315.7 m E Pg      2012/03/30 02:35:15.5  -0.2                          T                                        4898289
MBDF  000.54 315.7 m E Sg      2012/03/30 02:35:23.0   0.1                          T                1.3  .21        Md 1.5  4898281
FRF   000.91 211.1 m E Pg      2012/03/30 02:35:22.0  -0.4                          T                                        4898288
FRF   000.91 211.1 m E Sg      2012/03/30 02:35:33.6  -0.7                          T                3.0  .22 Ml 2.0         4898276
LMR   001.16 209.7 m E Pg      2012/03/30 02:35:26.5  -0.4                          T                                        4898287
LMR   001.16 209.7 m E Sn      2012/03/30 02:35:40.8   0.0                          T                1.8  .20 Ml 1.9         4898275
ORIF  001.16 300.1 m E Pg      2012/03/30 02:35:27.0  -0.1                          T                                        4898285
ORIF  001.16 300.1 m E Sg      2012/03/30 02:35:42.3   0.0                          T                 .2  .18 Ml  .9         4898280
LPG   001.22 341.6 m E Pg      2012/03/30 02:35:28.0  -0.3                          T                                        4898283
LPG   001.22 341.6 m E Sg      2012/03/30 02:35:44.3   0.1                          T                 .5  .27 Ml 1.2         4898278
LPL   001.24 341.3 m E Pg      2012/03/30 02:35:28.6  -0.1                          T                                        4898284
LPL   001.24 341.3 m E Sg      2012/03/30 02:35:44.7   0.0                          T                 .3  .26 Ml  .9         4898279
SMRF  001.29 254.0 m E Pg      2012/03/30 02:35:29.6   0.2                          T                                        4898282
SMRF  001.29 254.0 m E Sg      2012/03/30 02:35:46.4   0.2                          T                1.6  .29 Ml 1.7         4898277

.
EVENT     272729
    Date      Time       Latitude Longitude    Depth    Ndef Nsta Gap    Mag1  N    Mag2  N    Mag3  N   Author         ID
       rms   OT_Error      Smajor Sminor Az        Err   mdist  Mdist     Err        Err        Err      Quality

2012/03/30 10:42:59.3     36.6388    7.1251     10.0 f    57   13 088  Ml 3.5  8                         js067245    272749

      0.73   +-  0.21       4.8    4.1  143.67 +-  0.0    1.64  13.87   +-0.1                            m i ke

NORTHERN ALGERIA
Sta     Dist  EvAz     Phase      Date       Time     TRes  Azim  AzRes  Slow  SRes Def   SNR       Amp   Per   Mag1   Mag2       ID
PGF   006.08 013.2 m E P       2012/03/30 10:44:32.2   0.5                          T                                        4899122
PGF   006.08 013.2 m E Sn      2012/03/30 10:45:33.6   1.1                          T                5.7  .36 Ml 3.6         4899121
LMR   006.70 356.1 m E P       2012/03/30 10:44:39.5  -0.9                          T                                        4899124
LMR   006.70 356.1 m E Sn      2012/03/30 10:45:48.8   1.4                          T               12.5  .35 Ml 3.8         4899120
FRF   006.92 357.1 m E P       2012/03/30 10:44:41.2  -2.3                          T                                        4899125
FRF   006.92 357.1 m E Sn      2012/03/30 10:45:53.2   0.6                          T                9.6  .46 Ml 3.6         4899119
SBF   007.22 001.8 m E Pn      2012/03/30 10:44:42.4  -0.2                          T                                        4899123
SMRF  007.42 351.3 m E P       2012/03/30 10:44:49.6  -1.0                          T                                        4899126
SMRF  007.42 351.3 m E Sn      2012/03/30 10:46:05.4   0.7                          T               13.2  .67 Ml 3.6         4899118
MTLF  007.68 332.2 m E P       2012/03/30 10:44:51.5  -2.6                          T                                        4899130
MTLF  007.68 332.2 m E Sn      2012/03/30 10:46:10.3  -0.5                          T                4.8  .47 Ml 3.4         4899115
LASF  007.84 342.5 m E P       2012/03/30 10:44:55.2  -1.1                          T                                        4899129
MBDF  008.08 358.2 m E P       2012/03/30 10:44:59.3  -0.6                          T                                        4899127
MBDF  008.08 358.2 m E Sn      2012/03/30 10:46:20.4  -0.2                          T                9.8  .72 Ml 3.6         4899117
EPF   008.24 322.8 m E P       2012/03/30 10:45:02.2   0.2                          T                                        4899131
EPF   008.24 322.8 m E Sn      2012/03/30 10:46:24.9   0.7                          T                2.8  .39 Ml 3.3         4899114
VIVF  008.42 348.0 m E P       2012/03/30 10:45:02.5  -1.9                          T                                        4899128
VIVF  008.42 348.0 m E Sn      2012/03/30 10:46:28.2  -0.1                          T                6.5  .62 Ml 3.5         4899116
ETSF  008.60 318.9 m E P       2012/03/30 10:45:06.8  -0.2                          T                                        4899132
SJPF  009.11 317.8 m E P       2012/03/30 10:45:14.7   0.8                          T                                        4899133
RJF   009.64 335.7 m E P       2012/03/30 10:45:22.1   0.8                          T                                        4899134

.
EVENT     272748
    Date      Time       Latitude Longitude    Depth    Ndef Nsta Gap    Mag1  N    Mag2  N    Mag3  N   Author         ID
       rms   OT_Error      Smajor Sminor Az        Err   mdist  Mdist     Err        Err        Err      Quality

2012/03/30 14:58:03.3     44.4702    6.6837     10.0      35    8 047  Ml 1.6  5  Md 1.7  1              js067245    272768

      0.30   +-  0.04        .9     .7   58.05 +-  0.0    0.08   1.49   +-0.3      +-                    m i ke

FRANCE
Sta     Dist  EvAz     Phase      Date       Time     TRes  Azim  AzRes  Slow  SRes Def   SNR       Amp   Per   Mag1   Mag2       ID
MBDF  000.26 013.7 m E Pg      2012/03/30 14:58:08.6  -0.3                          T                                        4899136
MBDF  000.26 013.7 m E Sg      2012/03/30 14:58:12.8   0.2                          T               11.5  .34        Md 1.7  4899137
ORIF  000.73 308.3 m E Pg      2012/03/30 14:58:17.3   0.1                          T                                        4899135
ORIF  000.73 308.3 m E Sg      2012/03/30 14:58:27.1   0.3                          T                2.6  .24                4899140
FRF   000.91 181.7 m E Pg      2012/03/30 14:58:20.4  -0.1                          T                                        4899147
FRF   000.91 181.7 m E Sg      2012/03/30 14:58:32.3   0.0                          T                3.7  .21 Ml 2.1         4899143
LPL   001.05 001.9 m E Pg      2012/03/30 14:58:22.8  -0.4                          T                                        4899148
LPL   001.05 001.9 m E Sg      2012/03/30 14:58:37.1   0.2                          T                1.2  .24 Ml 1.5         4899141
LMR   001.14 186.4 m E Pg      2012/03/30 14:58:24.6  -0.1                          T                                        4899146
LMR   001.14 186.4 m E Sg      2012/03/30 14:58:39.4  -0.1                          T                1.3  .22 Ml 1.7         4899144
SBF   000.81 138.0 m E Sg      2012/03/30 14:58:29.3  -0.1                          T                3.1  .22                4899145
SMRF  000.94 238.6 m E Sn      2012/03/30 14:58:33.7   0.0                          T                1.3  .24 Ml 1.5         4899142
VIVF  001.49 285.8 m E Sg      2012/03/30 14:58:50.3   0.0                          T                 .4  .19 Ml 1.4         4899139

.
EVENT     272762
    Date      Time       Latitude Longitude    Depth    Ndef Nsta Gap    Mag1  N    Mag2  N    Mag3  N   Author         ID
       rms   OT_Error      Smajor Sminor Az        Err   mdist  Mdist     Err        Err        Err      Quality

2012/03/30 16:42:43.0     43.0604    -.3171      2.0       5    3 178             Md 1.5  2              js067245    272782

      0.22   +-  0.21       9.1    2.5  167.79 +-  0.0    0.24   0.67              +-0.0                 m i ke

PYRENEES
Sta     Dist  EvAz     Phase      Date       Time     TRes  Azim  AzRes  Slow  SRes Def   SNR       Amp   Per   Mag1   Mag2       ID
ETSF  000.24 227.8 m E Pg      2012/03/30 16:42:48.0   0.1                          T                                        4899152
ETSF  000.24 227.8 m E Sg      2012/03/30 16:42:50.8  -0.3                          T               15.6  .32        Md 1.5  4899153
EPF   000.48 093.3 m E Pg      2012/03/30 16:42:52.1  -0.2                          T                                        4899149
EPF   000.48 093.3 m E Sg      2012/03/30 16:42:59.0   0.4                          T                6.9  .26        Md 1.6  4899150
SJPF  000.67 274.9 m E Sg      2012/03/30 16:43:04.3   0.0                          T                1.8  .23                4899151

.
EVENT     272763
    Date      Time       Latitude Longitude    Depth    Ndef Nsta Gap    Mag1  N    Mag2  N    Mag3  N   Author         ID
       rms   OT_Error      Smajor Sminor Az        Err   mdist  Mdist     Err        Err        Err      Quality

2012/03/30 16:47:48.2     43.0283    -.3162      2.0       5    3 171             Md 1.4  2              js067245    272783

      0.15   +-  0.10       5.0    1.3  168.19 +-  0.0    0.22   0.67              +-0.1                 m i ke

PYRENEES
Sta     Dist  EvAz     Phase      Date       Time     TRes  Azim  AzRes  Slow  SRes Def   SNR       Amp   Per   Mag1   Mag2       ID
ETSF  000.22 234.1 m E Pg      2012/03/30 16:47:52.6  -0.1                          T                                        4899157
ETSF  000.22 234.1 m E Sg      2012/03/30 16:47:55.8   0.1                          T               10.5  .32        Md 1.4  4899158
EPF   000.48 089.5 m E Pg      2012/03/30 16:47:57.5   0.0                          T                                        4899154
EPF   000.48 089.5 m E Sg      2012/03/30 16:48:03.5  -0.3                          T                3.9  .34        Md 1.3  4899155
SJPF  000.67 277.6 m E Sg      2012/03/30 16:48:09.6  -0.1                          T                1.1  .26                4899156

.
EVENT     272764
    Date      Time       Latitude Longitude    Depth    Ndef Nsta Gap    Mag1  N    Mag2  N    Mag3  N   Author         ID
       rms   OT_Error      Smajor Sminor Az        Err   mdist  Mdist     Err        Err        Err      Quality

2012/03/30 18:23:54.7     48.1035   -2.4895      2.0       7    4 184  Ml 1.6  1  Md 1.5  2              js067245    272784

      0.22   +-  0.16       3.4    2.0  133.98 +-  0.0    0.16   1.49   +-         +-0.0                 m i ke

FRANCE
Sta     Dist  EvAz     Phase      Date       Time     TRes  Azim  AzRes  Slow  SRes Def   SNR       Amp   Per   Mag1   Mag2       ID
SGMF  000.16 343.4 m E Pg      2012/03/30 18:23:57.9  -0.1                          T                                        4899164
SGMF  000.16 343.4 m E Sg      2012/03/30 18:23:59.8  -0.4                          T                5.7  .20        Md 1.5  4899165
QUIF  000.49 247.9 m E Pg      2012/03/30 18:24:04.2   0.1                          T                                        4899162
QUIF  000.49 247.9 m E Sg      2012/03/30 18:24:10.2  -0.3                          T                1.6  .24        Md 1.5  4899163
ROSF  000.57 294.3 m E Pg      2012/03/30 18:24:05.3  -0.3                          T                                        4899160
ROSF  000.57 294.3 m E Sg      2012/03/30 18:24:13.4   0.2                          T                2.8  .24                4899161
FLN   001.49 063.0 m E Sn      2012/03/30 18:24:39.6  -0.1                          T                 .9  .19 Ml 1.6         4899159

.
