EVENT     291713
    Date      Time       Latitude Longitude    Depth    Ndef Nsta Gap    Mag1  N    Mag2  N    Mag3  N   Author         ID
       rms   OT_Error      Smajor Sminor Az        Err   mdist  Mdist     Err        Err        Err      Quality

2013/02/08 02:11:00.0     43.2604   -2.7334      6.0 f    27    5 142  Ml 1.9  6  Md 2.1  2              bulletin    291813
                                                                                                         _ldg
      0.60   +-  0.14       5.2    2.0    5.53 +-  0.0    0.51   3.67   +-0.2      +-0.1                 m i ke

SPAIN
Sta     Dist  EvAz     Phase      Date       Time     TRes  Azim  AzRes  Slow  SRes Def   SNR       Amp   Per   Mag1   Mag2       ID
SJPF  001.11 097.1 m E Pg      2013/02/08 02:11:21.0   0.1                          T                                        5191611
SJPF  001.11 097.1 m E Sg      2013/02/08 02:11:35.3  -0.1                          T                3.1  .19 Ml 2.1 Md 2.2  5191610
ETSF  001.63 102.0 m E Pn      2013/02/08 02:11:28.2   0.5                          T                                        5191609
ETSF  001.63 102.0 m E Pg      2013/02/08 02:11:30.2  -0.4                          T                                        5191608
ETSF  001.63 102.0 m E Sg      2013/02/08 02:11:51.5  -0.2                          T                1.6  .17 Ml 2.1 Md 2.0  5191607
EPF   002.26 094.8 m E Pn      2013/02/08 02:11:36.7   0.4                          T                                        5191603
EPF   002.26 094.8 m E Pg      2013/02/08 02:11:41.9  -0.2                          T                                        5191604
EPF   002.26 094.8 m E Sn      2013/02/08 02:12:03.4   0.6                          T                                        5191606
EPF   002.26 094.8 m E Sg      2013/02/08 02:12:11.2   0.0                          T                 .5  .17 Ml 1.7         5191605
MTLF  003.61 087.0 m E Pn      2013/02/08 02:11:54.5  -0.1                          T                                        5198166
MTLF  003.61 087.0 m E Sn      2013/02/08 02:12:35.1   0.0                          T                 .5  .26 Ml 1.8         5198165
RJF   003.67 054.7 m E Pn      2013/02/08 02:11:55.9   0.5                          T                                        5198162
RJF   003.67 054.7 m E Sn      2013/02/08 02:12:35.7  -0.8                          T                 .5  .17 Ml 1.7         5198161

.
EVENT     291722
    Date      Time       Latitude Longitude    Depth    Ndef Nsta Gap    Mag1  N    Mag2  N    Mag3  N   Author         ID
       rms   OT_Error      Smajor Sminor Az        Err   mdist  Mdist     Err        Err        Err      Quality

2013/02/08 10:06:14.2     47.0969    5.4511       .0 f    14    6 131  Ml 2.2  6  Md 1.9  1              bulletin    291822
                                                                                                         _ldg
      1.34   +-  0.25       5.3    3.8  173.12 +-  0.0    0.65   1.33   +-0.2      +-                    m i km

FRANCE
Sta     Dist  EvAz     Phase      Date       Time     TRes  Azim  AzRes  Slow  SRes Def   SNR       Amp   Per   Mag1   Mag2       ID
CABF  000.65 137.8 m E Pg      2013/02/08 10:06:27.1   0.1                          T                                        5191909
CABF  000.65 137.8 m E Sg      2013/02/08 10:06:38.4   2.7                          T                2.5  .20        Md 1.9  5191908
HAU   001.09 033.4 m E Pg      2013/02/08 10:06:34.7  -0.3                          T                                        5191889
HAU   001.09 033.4 m E Sg      2013/02/08 10:06:50.3   0.9                          T                6.6  .29 Ml 2.0         5191888
LOR   001.10 279.6 m E Pg      2013/02/08 10:06:35.3   0.2 104.5  6.1               T                                        5191882
LOR   001.10 279.6 m E Sg      2013/02/08 10:06:50.7   1.2  99.7  1.3               T                4.5  .18 Ml 2.3         5191881
HINF  001.19 052.4 m E Pg      2013/02/08 10:06:35.9  -1.0                          T                                        5191887
HINF  001.19 052.4 m E Sg      2013/02/08 10:06:51.8  -0.8                          T                4.7  .17 Ml 2.3         5191886
SFTF  001.14 346.0 m E Pg      2013/02/08 10:06:36.3   0.4 164.3  -1.5              T                                        5191885
SFTF  001.14 346.0 m E Sg      2013/02/08 10:06:52.6   1.7                          T                2.6  .18 Ml 2.0         5191884
SSF   001.33 269.2 m E Pg      2013/02/08 10:06:38.4  -1.0                          T                                        5191880
SSF   001.33 269.2 m E Sg      2013/02/08 10:06:56.3  -0.4                          T                1.9  .22 Ml 2.0         5191879

.
EVENT     291751
    Date      Time       Latitude Longitude    Depth    Ndef Nsta Gap    Mag1  N    Mag2  N    Mag3  N   Author         ID
       rms   OT_Error      Smajor Sminor Az        Err   mdist  Mdist     Err        Err        Err      Quality

2013/02/08 14:53:59.4     42.1048    1.7747     11.0 f    18    4 103  Ml 1.9  5  Md 1.9  1              bulletin    291851
                                                                                                         _ldg
      0.49   +-  0.09       1.7    1.5  142.21 +-  0.0    0.40   2.43   +-0.3      +-                    m i ke

PYRENEES
Sta     Dist  EvAz     Phase      Date       Time     TRes  Azim  AzRes  Slow  SRes Def   SNR       Amp   Per   Mag1   Mag2       ID
MTLF  001.28 014.6 m E Pn      2013/02/08 14:54:21.6   0.1                          T                                        5192429
MTLF  001.28 014.6 m E Pg      2013/02/08 14:54:23.2  -0.2                          T                                        5192430
MTLF  001.28 014.6 m E Sn      2013/02/08 14:54:37.6   0.0                          T                                        5192431
MTLF  001.28 014.6 m E Sg      2013/02/08 14:54:39.8  -0.1                          T                1.4  .21 Ml 1.8 Md 1.9  5192432
EPF   001.41 311.6 m E Pg      2013/02/08 14:54:26.1   0.4                          T                                        5192434
EPF   001.41 311.6 m E Sg      2013/02/08 14:54:44.0   0.1                          T                6.2  .28 Ml 2.3         5192433
ETSF  001.90 295.5 m E Pn      2013/02/08 14:54:30.1   0.0                          T                                        5192427
ETSF  001.90 295.5 m E Sn      2013/02/08 14:54:52.1  -0.5                          T                 .7  .25 Ml 1.6         5192428
SJPF  002.43 295.5 m E Pn      2013/02/08 14:54:37.8   0.5                          T                                        5198168
SJPF  002.43 295.5 m E Sn      2013/02/08 14:55:05.0  -0.3                          T                 .5  .18 Ml 1.7         5198167

.
EVENT     291764
    Date      Time       Latitude Longitude    Depth    Ndef Nsta Gap    Mag1  N    Mag2  N    Mag3  N   Author         ID
       rms   OT_Error      Smajor Sminor Az        Err   mdist  Mdist     Err        Err        Err      Quality

2013/02/08 16:37:17.9     43.1485    -.1322      2.0      18    6 122  Ml 1.6  4  Md 1.6  3              bulletin    291864
                                                                                                         _ldg
      0.23   +-  0.06       2.1    1.0  165.51 +-  0.0    0.37   2.46   +-0.1      +-0.0                 m i ke

PYRENEES
Sta     Dist  EvAz     Phase      Date       Time     TRes  Azim  AzRes  Slow  SRes Def   SNR       Amp   Per   Mag1   Mag2       ID
EPF   000.37 108.7 m E Pg      2013/02/08 16:37:25.0   0.0                          T                                        5192649
EPF   000.37 108.7 m E Sg      2013/02/08 16:37:29.7  -0.3                          T                4.2  .17        Md 1.6  5192648
ETSF  000.40 231.6 m E Pg      2013/02/08 16:37:25.8   0.1                          T                                        5192651
ETSF  000.40 231.6 m E Sg      2013/02/08 16:37:30.6  -0.4                          T               13.5  .23        Md 1.6  5192650
SJPF  000.80 267.9 m E Pg      2013/02/08 16:37:33.2   0.1                          T                                        5192642
SJPF  000.80 267.9 m E Sg      2013/02/08 16:37:43.0  -0.4                          T                 .9  .19        Md 1.7  5192647
MTLF  001.73 082.8 m E Pn      2013/02/08 16:37:47.2  -0.1                          T                                        5192646
MTLF  001.73 082.8 m E Pg      2013/02/08 16:37:50.2   0.1                          T                                        5192645
MTLF  001.73 082.8 m E Sn      2013/02/08 16:38:08.4  -0.1                          T                                        5192644
MTLF  001.73 082.8 m E Sg      2013/02/08 16:38:12.0  -0.3                          T                 .8  .22 Ml 1.7         5192643
CAF   002.38 041.0 m E Pn      2013/02/08 16:37:56.4   0.2                          T                                        5192641
CAF   002.38 041.0 m E Sn      2013/02/08 16:38:24.5   0.3                          T                 .4  .21 Ml 1.6         5192640
RJF   002.46 028.2 m E Pn      2013/02/08 16:37:56.8  -0.4                          T                                        5192639
RJF   002.46 028.2 m E Sg      2013/02/08 16:38:35.2   0.0                          T                 .6  .15 Ml 1.6         5192637

.
EVENT     291763
    Date      Time       Latitude Longitude    Depth    Ndef Nsta Gap    Mag1  N    Mag2  N    Mag3  N   Author         ID
       rms   OT_Error      Smajor Sminor Az        Err   mdist  Mdist     Err        Err        Err      Quality

2013/02/08 17:51:19.7     44.5538    6.7027      2.0      18    9 126  Ml 1.5  6  Md 1.4  2              bulletin    291863
                                                                                                         _ldg
      0.24   +-  0.05       1.3     .8   79.84 +-  0.0    0.18   1.48   +-0.2      +-0.1                 m i ke

FRANCE
Sta     Dist  EvAz     Phase      Date       Time     TRes  Azim  AzRes  Slow  SRes Def   SNR       Amp   Per   Mag1   Mag2       ID
MBDF  000.18 015.8 m E Pg      2013/02/08 17:51:23.5   0.0                          T                                        5192663
MBDF  000.18 015.8 m E Sg      2013/02/08 17:51:25.9  -0.1                          T                 .1  .14        Md 1.4  5192662
ORIF  000.69 302.2 m E Pg      2013/02/08 17:51:33.2   0.3                          T                                        5192657
ORIF  000.69 302.2 m E Sg      2013/02/08 17:51:42.0   0.2                          T                 .7  .20        Md 1.3  5192656
SBF   000.87 142.4 m E Pg      2013/02/08 17:51:36.1   0.0                          T                                        5192667
SBF   000.87 142.4 m E Sg      2013/02/08 17:51:47.4   0.0                          T                 .6  .16 Ml 1.4         5192668
LPL   000.96 001.2 m E Pg      2013/02/08 17:51:38.0   0.0                          T                                        5192670
LPL   000.96 001.2 m E Sg      2013/02/08 17:51:50.2  -0.3                          T                1.3  .22 Ml 1.6         5192671
SMRF  000.99 234.9 m E Pg      2013/02/08 17:51:38.4   0.0                          T                                        5192666
FRF   000.99 182.3 m E Pg      2013/02/08 17:51:38.4   0.2                          T                                        5192669
FRF   000.99 182.3 m E Sg      2013/02/08 17:51:51.2   0.0                          T                2.6  .25 Ml 1.9         5192673
LMR   001.23 186.6 m E Pg      2013/02/08 17:51:42.4  -0.2                          T                                        5192665
LMR   001.23 186.6 m E Sg      2013/02/08 17:51:58.7   0.2                          T                 .4  .17 Ml 1.2         5192664
VIVF  001.48 282.5 m E Pn      2013/02/08 17:51:45.6   0.0                          T                                        5192661
VIVF  001.48 282.5 m E Sn      2013/02/08 17:52:04.3  -0.1                          T                 .6  .23 Ml 1.4         5192660
LPG   000.94 002.1 m E Sg      2013/02/08 17:51:50.4   0.4                          T                 .8  .16 Ml 1.5         5192672

.
EVENT     291766
    Date      Time       Latitude Longitude    Depth    Ndef Nsta Gap    Mag1  N    Mag2  N    Mag3  N   Author         ID
       rms   OT_Error      Smajor Sminor Az        Err   mdist  Mdist     Err        Err        Err      Quality

2013/02/08 18:32:46.0     43.0621    -.6529      2.0       6    3 175             Md 1.5  2              bulletin    291866
                                                                                                         _ldg
      0.11   +-  0.06       2.1    1.0   14.79 +-  0.0    0.18   0.73              +-0.1                 m i ke

PYRENEES
Sta     Dist  EvAz     Phase      Date       Time     TRes  Azim  AzRes  Slow  SRes Def   SNR       Amp   Per   Mag1   Mag2       ID
ETSF  000.18 157.1 m E Pg      2013/02/08 18:32:49.8   0.1                          T                                        5192678
ETSF  000.18 157.1 m E Sg      2013/02/08 18:32:52.1  -0.1                          T                8.6  .21        Md 1.6  5192677
SJPF  000.42 277.2 m E Pg      2013/02/08 18:32:54.1   0.0                          T                                        5192676
SJPF  000.42 277.2 m E Sg      2013/02/08 18:32:59.9   0.1                          T                2.4  .26        Md 1.5  5192675
EPF   000.73 092.2 m E Pg      2013/02/08 18:32:59.8  -0.1                          T                                        5200112
EPF   000.73 092.2 m E Sg      2013/02/08 18:33:09.6   0.2                          T                 .8  .18                5192674

.
EVENT     291769
    Date      Time       Latitude Longitude    Depth    Ndef Nsta Gap    Mag1  N    Mag2  N    Mag3  N   Author         ID
       rms   OT_Error      Smajor Sminor Az        Err   mdist  Mdist     Err        Err        Err      Quality

2013/02/08 20:38:22.9     43.0544    -.6555      2.0       6    3 173             Md 1.5  2              bulletin    291869
                                                                                                         _ldg
      0.05   +-  0.03       1.0     .5   15.43 +-  0.0    0.17   0.73              +-0.0                 m i ke

PYRENEES
Sta     Dist  EvAz     Phase      Date       Time     TRes  Azim  AzRes  Slow  SRes Def   SNR       Amp   Per   Mag1   Mag2       ID
ETSF  000.17 155.6 m E Pg      2013/02/08 20:38:26.5   0.0                          T                                        5192706
ETSF  000.17 155.6 m E Sg      2013/02/08 20:38:28.8  -0.1                          T                2.1  .15        Md 1.5  5192705
SJPF  000.42 278.2 m E Pg      2013/02/08 20:38:31.0  -0.1                          T                                        5192704
SJPF  000.42 278.2 m E Sg      2013/02/08 20:38:36.7   0.1                          T                5.4  .35        Md 1.4  5192703
EPF   000.73 091.6 m E Pg      2013/02/08 20:38:36.8   0.0                          T                                        5192702
EPF   000.73 091.6 m E Sg      2013/02/08 20:38:46.3   0.0                          T                1.1  .26                5192701

.
EVENT     291767
    Date      Time       Latitude Longitude    Depth    Ndef Nsta Gap    Mag1  N    Mag2  N    Mag3  N   Author         ID
       rms   OT_Error      Smajor Sminor Az        Err   mdist  Mdist     Err        Err        Err      Quality

2013/02/08 20:58:48.9     43.0588    -.6536      2.0       5    3 174             Md 1.1  2              bulletin    291867
                                                                                                         _ldg
      0.28   +-  0.16       5.8    2.8   20.73 +-  0.0    0.17   0.73              +-0.0                 m i ke

PYRENEES
Sta     Dist  EvAz     Phase      Date       Time     TRes  Azim  AzRes  Slow  SRes Def   SNR       Amp   Per   Mag1   Mag2       ID
ETSF  000.17 156.6 m E Pg      2013/02/08 20:58:52.7   0.0                          T                                        5192691
ETSF  000.17 156.6 m E Sg      2013/02/08 20:58:54.3  -0.8                          T                8.5  .25        Md 1.1  5192690
SJPF  000.42 277.6 m E Pg      2013/02/08 20:58:56.9  -0.2                          T                                        5192686
SJPF  000.42 277.6 m E Sg      2013/02/08 20:59:02.7   0.0                          T                3.1  .32        Md 1.1  5192689
EPF   000.73 091.9 m E Pg      2013/02/08 20:59:02.7  -0.1                          T                                        5192687

.
EVENT     291768
    Date      Time       Latitude Longitude    Depth    Ndef Nsta Gap    Mag1  N    Mag2  N    Mag3  N   Author         ID
       rms   OT_Error      Smajor Sminor Az        Err   mdist  Mdist     Err        Err        Err      Quality

2013/02/08 21:01:22.7     43.0649    -.6442      2.0       5    3 175             Md 1.1  2              bulletin    291868
                                                                                                         _ldg
      0.35   +-  0.23       8.0    4.0   20.20 +-  0.0    0.18   0.72              +-0.1                 m i ke

PYRENEES
Sta     Dist  EvAz     Phase      Date       Time     TRes  Azim  AzRes  Slow  SRes Def   SNR       Amp   Per   Mag1   Mag2       ID
ETSF  000.18 159.4 m E Pg      2013/02/08 21:01:26.6   0.1                          T                                        5192700
ETSF  000.18 159.4 m E Sg      2013/02/08 21:01:28.1  -0.9                          T                8.4  .35        Md 1.1  5192699
SJPF  000.43 276.7 m E Pg      2013/02/08 21:01:30.7  -0.3                          T                                        5192697
SJPF  000.43 276.7 m E Sg      2013/02/08 21:01:36.8   0.2                          T                 .5  .27        Md 1.0  5192698
EPF   000.72 092.4 m E Pg      2013/02/08 21:01:36.3  -0.1                          T                                        5192696

.
EVENT     291752
    Date      Time       Latitude Longitude    Depth    Ndef Nsta Gap    Mag1  N    Mag2  N    Mag3  N   Author         ID
       rms   OT_Error      Smajor Sminor Az        Err   mdist  Mdist     Err        Err        Err      Quality

2013/02/08 22:38:56.4     43.0466    -.6626      2.0       6    3 171             Md 1.2  2              bulletin    291852
                                                                                                         _ldg
      0.11   +-  0.06       2.1    1.0   16.14 +-  0.0    0.17   0.74              +-0.0                 m i ke

PYRENEES
Sta     Dist  EvAz     Phase      Date       Time     TRes  Azim  AzRes  Slow  SRes Def   SNR       Amp   Per   Mag1   Mag2       ID
ETSF  000.17 152.8 m E Pg      2013/02/08 22:39:00.0   0.0                          T                                        5192446
ETSF  000.17 152.8 m E Sg      2013/02/08 22:39:02.1  -0.2                          T                1.1  .18        Md 1.2  5192445
SJPF  000.42 279.4 m E Pg      2013/02/08 22:39:04.3  -0.1                          T                                        5192442
SJPF  000.42 279.4 m E Sg      2013/02/08 22:39:10.2   0.2                          T                1.1  .20        Md 1.1  5192443
EPF   000.74 090.9 m E Pg      2013/02/08 22:39:10.3   0.0                          T                                        5192444
EPF   000.74 090.9 m E Sg      2013/02/08 22:39:20.0   0.0                          T                 .2  .14                5192441

.
