EVENT     287947
    Date      Time       Latitude Longitude    Depth    Ndef Nsta Gap    Mag1  N    Mag2  N    Mag3  N   Author         ID
       rms   OT_Error      Smajor Sminor Az        Err   mdist  Mdist     Err        Err        Err      Quality

2012/12/01 03:29:42.4     48.1586   -2.6341      2.0      12    6 157  Ml 1.6  3  Md 1.6  2              bulletin    288047
                                                                                                         _ldg
      0.18   +-  0.06       2.0     .9  163.94 +-  0.0    0.11   1.73   +-0.1      +-0.1                 m i ke

FRANCE
Sta     Dist  EvAz     Phase      Date       Time     TRes  Azim  AzRes  Slow  SRes Def   SNR       Amp   Per   Mag1   Mag2       ID
SGMF  000.11 028.3 m E Pg      2012/12/01 03:29:44.9   0.1                          T                                        5140293
SGMF  000.11 028.3 m E Sg      2012/12/01 03:29:46.1  -0.3                          T                                        5140294
QUIF  000.43 236.0 m E Pg      2012/12/01 03:29:50.6   0.0                          T                                        5140289
QUIF  000.43 236.0 m E Sg      2012/12/01 03:29:56.3  -0.1                          T                2.7  .24        Md 1.6  5140290
ROSF  000.46 292.8 m E Pg      2012/12/01 03:29:51.4   0.2                          T                                        5140291
ROSF  000.46 292.8 m E Sg      2012/12/01 03:29:56.9  -0.4                          T                 .5  .19        Md 1.6  5140292
GRR   001.21 078.4 m E Pg      2012/12/01 03:30:05.0   0.0                          T                                        5140285
GRR   001.21 078.4 m E Sg      2012/12/01 03:30:20.8   0.2                          T                  1  .18 Ml 1.5         5140286
FLN   001.55 066.3 m E Pg      2012/12/01 03:30:11.3   0.0                          T                                        5140283
FLN   001.55 066.3 m E Sg      2012/12/01 03:30:31.5   0.1                          T                1.1  .22 Ml 1.6         5140288
LDF   001.73 074.5 m E Pg      2012/12/01 03:30:14.4  -0.2                          T                                        5140284
LDF   001.73 074.5 m E Sg      2012/12/01 03:30:37.1   0.2                          T                  1  .23 Ml 1.7         5140287

.
EVENT     287948
    Date      Time       Latitude Longitude    Depth    Ndef Nsta Gap    Mag1  N    Mag2  N    Mag3  N   Author         ID
       rms   OT_Error      Smajor Sminor Az        Err   mdist  Mdist     Err        Err        Err      Quality

2012/12/01 03:31:22.5     43.0240    -.6305      2.0       6    3 167             Md 1.3  2              bulletin    288048
                                                                                                         _ldg
      0.53   +-  0.28       9.4    4.9   16.74 +-  0.0    0.14   0.71              +-0.3                 m i ke

PYRENEES
Sta     Dist  EvAz     Phase      Date       Time     TRes  Azim  AzRes  Slow  SRes Def   SNR       Amp   Per   Mag1   Mag2       ID
ETSF  000.14 157.3 m E Pg      2012/12/01 03:31:25.1  -0.4                          T                                        5140299
ETSF  000.14 157.3 m E Sg      2012/12/01 03:31:27.6   0.2                          T               14.9  .20        Md 1.5  5140300
SJPF  000.44 281.8 m E Pg      2012/12/01 03:31:31.3   0.2                          T                                        5140297
SJPF  000.44 281.8 m E Sg      2012/12/01 03:31:36.0  -1.0                          T                1.6  .24        Md 1.1  5140298
EPF   000.71 089.2 m E Pg      2012/12/01 03:31:36.3   0.3                          T                                        5140295
EPF   000.71 089.2 m E Sg      2012/12/01 03:31:44.4  -0.9                          T                 .8  .23                5140296

.
EVENT     288537
    Date      Time       Latitude Longitude    Depth    Ndef Nsta Gap    Mag1  N    Mag2  N    Mag3  N   Author         ID
       rms   OT_Error      Smajor Sminor Az        Err   mdist  Mdist     Err        Err        Err      Quality

2012/12/01 07:24:04.2     51.5081    6.5490      1.0 f    31    6 239  Ml 2.4  4                         bulletin    288637
                                                                                                         _ldg
      0.66   +-  0.32       6.1    3.2  175.97 +-  0.0    0.32   5.71   +-0.3                            m i sr

GERMANY
Sta     Dist  EvAz     Phase      Date       Time     TRes  Azim  AzRes  Slow  SRes Def   SNR       Amp   Per   Mag1   Mag2       ID
GIVF  001.78 218.5 m E P       2012/12/01 07:24:36.0  -0.4                          T                                        5140375
GIVF  001.78 218.5 m E Sg      2012/12/01 07:24:59.8  -0.5                          T               10.5  .38 Ml 2.6         5140376
BAIF  002.08 226.6 m E Pg      2012/12/01 07:24:42.7  -0.1                          T                                        5140372
BAIF  002.08 226.6 m E S       2012/12/01 07:25:07.0  -0.5                          T                                        5140374
BAIF  002.08 226.6 m E Sg      2012/12/01 07:25:09.2  -0.3                          T                4.4  .35 Ml 2.3         5140373
CDF   003.13 171.1 m E Pn      2012/12/01 07:24:52.6  -0.2                          T                                        5140368
CDF   003.13 171.1 m E Pg      2012/12/01 07:25:02.3  -0.1                          T                                        5140370
CDF   003.13 171.1 m E Sn      2012/12/01 07:25:28.3  -0.4                          T                                        5140369
CDF   003.13 171.1 m E Sg      2012/12/01 07:25:42.5  -0.2                          T                1.1  .31 Ml 2.1         5140371
LOR   004.59 203.5 m E Pn      2012/12/01 07:25:12.5  -0.1  26.1  4.7               T                                        5140378
SSF   004.88 205.3 m E Pn      2012/12/01 07:25:16.2  -0.2                          T                                        5140377
GRR   005.71 239.7 m E Sg      2012/12/01 07:26:30.2 -32.7                          T                1.7  .23 Ml 2.8         5140367

.
EVENT     287721
    Date      Time       Latitude Longitude    Depth    Ndef Nsta Gap    Mag1  N    Mag2  N    Mag3  N   Author         ID
       rms   OT_Error      Smajor Sminor Az        Err   mdist  Mdist     Err        Err        Err      Quality

2012/12/01 11:34:53.5     44.0014   11.7314     18.1      46   13 129  Ml 2.5 12                         bulletin    287821
                                                                                                         _ldg
      0.96   +-  0.15       3.6    3.3   60.61 +-  1.2    0.13   6.41   +-0.3                            m i ke

NORTHERN ITALY
Sta     Dist  EvAz     Phase      Date       Time     TRes  Azim  AzRes  Slow  SRes Def   SNR       Amp   Per   Mag1   Mag2       ID
PGF   002.47 234.9 m E P       2012/12/01 11:35:33.9   0.0                          T                                        5128701
PGF   002.47 234.9 m E Sn      2012/12/01 11:35:58.4  -0.7                          T                 .7  .19 Ml 2.1         5128692
SBF   003.11 268.9 m E Pn      2012/12/01 11:35:39.7  -0.2                          T                                        5128721
SBF   003.11 268.9 m E Sn      2012/12/01 11:36:14.7   0.4                          T                3.9  .23 Ml 2.7         5128691
MBDF  003.63 283.2 m E P       2012/12/01 11:35:50.5   0.0                          T                                        5128700
MBDF  003.63 283.2 m E Sn      2012/12/01 11:36:26.9   0.0                          T                1.3  .25 Ml 2.3         5128706
FRF   003.71 264.9 m E P       2012/12/01 11:35:51.2  -0.3                          T                                        5128688
FRF   003.71 264.9 m E Sn      2012/12/01 11:36:28.6   0.0                          T                2.4  .30 Ml 2.5         5128703
LMR   003.85 261.8 m E P       2012/12/01 11:35:53.1  -0.3                          T                                        5128702
LPL   003.87 294.8 m E P       2012/12/01 11:35:54.2   0.2                          T                                        5128690
LPL   003.87 294.8 m E Sn      2012/12/01 11:36:32.9   0.1                          T                1.1  .26 Ml 2.2         5128704
LPG   003.85 294.6 m E P       2012/12/01 11:35:54.6   0.8                          T                                        5128693
LPG   003.85 294.6 m E Sn      2012/12/01 11:36:32.7   0.3                          T                1.3  .24 Ml 2.4         5128705
CABF  004.76 305.2 m E P       2012/12/01 11:36:06.5   0.0                          T                                        5128695
CABF  004.76 305.2 m E Sn      2012/12/01 11:36:54.4   0.6                          T                 .4  .25 Ml 2.0         5128710
CDF   005.39 326.5 m E P       2012/12/01 11:36:14.2  -1.2                          T                                        5128689
CDF   005.39 326.5 m E Sn      2012/12/01 11:37:09.6   0.8                          T                 .9  .26 Ml 2.6         5128708
HAU   005.49 318.8 m E P       2012/12/01 11:36:15.7  -1.0                          T                                        5128697
HAU   005.49 318.8 m E Sn      2012/12/01 11:37:11.7   0.6                          T                1.6  .27 Ml 2.5         5128696
SMF   006.16 298.2 m E P       2012/12/01 11:36:25.3  -0.8                          T                                        5128699
SMF   006.16 298.2 m E Sn      2012/12/01 11:37:27.8   0.6                          T                  1  .22 Ml 2.8         5128711
SFTF  006.27 314.4 m E P       2012/12/01 11:36:27.2  -0.5 138.1  8.4               T                                        5128694
SFTF  006.27 314.4 m E Sn      2012/12/01 11:37:30.3   0.5                          T                2.3  .27 Ml 3.1         5128709
LOR   006.41 303.4 m E P       2012/12/01 11:36:28.8  -0.9 127.6  9.9               T                                        5128698
LOR   006.41 303.4 m E Sn      2012/12/01 11:37:33.8   0.5                          T                1.5  .29 Ml 2.9         5128707

.
EVENT     287960
    Date      Time       Latitude Longitude    Depth    Ndef Nsta Gap    Mag1  N    Mag2  N    Mag3  N   Author         ID
       rms   OT_Error      Smajor Sminor Az        Err   mdist  Mdist     Err        Err        Err      Quality

2012/12/01 13:05:32.0     48.1588   -2.6349      2.0      12    6 157  Ml 1.7  3  Md 1.6  3              bulletin    288060
                                                                                                         _ldg
      0.19   +-  0.07       2.2     .9  163.92 +-  0.0    0.11   1.73   +-0.1      +-0.1                 m i ke

FRANCE
Sta     Dist  EvAz     Phase      Date       Time     TRes  Azim  AzRes  Slow  SRes Def   SNR       Amp   Per   Mag1   Mag2       ID
SGMF  000.11 028.6 m E Pg      2012/12/01 13:05:34.5   0.1                          T                                        5140391
SGMF  000.11 028.6 m E Sg      2012/12/01 13:05:35.7  -0.3                          T                8.1  .27        Md 1.5  5140394
QUIF  000.43 236.0 m E Pg      2012/12/01 13:05:40.3   0.0                          T                                        5140389
QUIF  000.43 236.0 m E Sg      2012/12/01 13:05:45.9  -0.1                          T                1.5  .17        Md 1.6  5140390
ROSF  000.46 292.8 m E Pg      2012/12/01 13:05:41.0   0.2                          T                                        5140392
ROSF  000.46 292.8 m E Sg      2012/12/01 13:05:46.5  -0.5                          T                1.2  .25        Md 1.6  5140393
GRR   001.21 078.4 m E Pg      2012/12/01 13:05:54.6   0.0                          T                                        5140385
GRR   001.21 078.4 m E Sg      2012/12/01 13:06:10.5   0.3                          T                1.5  .18 Ml 1.7         5140386
FLN   001.56 066.3 m E Pg      2012/12/01 13:06:00.9   0.0                          T                                        5140384
FLN   001.56 066.3 m E Sg      2012/12/01 13:06:21.1   0.1                          T                1.4  .20 Ml 1.8         5140388
LDF   001.73 074.5 m E Pg      2012/12/01 13:06:04.0  -0.2                          T                                        5140383
LDF   001.73 074.5 m E Sg      2012/12/01 13:06:26.7   0.2                          T                1.1  .24 Ml 1.8         5140387

.
EVENT     287722
    Date      Time       Latitude Longitude    Depth    Ndef Nsta Gap    Mag1  N    Mag2  N    Mag3  N   Author         ID
       rms   OT_Error      Smajor Sminor Az        Err   mdist  Mdist     Err        Err        Err      Quality

2012/12/01 13:22:06.9     45.1731    7.7310     10.0      49   21 109  Ml 2.4 12  Md 2.6  3              bulletin    287822
                                                                                                         _ldg
      0.92   +-  0.17       3.8    2.6  102.94 +-  0.0    0.34   4.02   +-0.4      +-0.1                 m i ke

NORTHERN ITALY
Sta     Dist  EvAz     Phase      Date       Time     TRes  Azim  AzRes  Slow  SRes Def   SNR       Amp   Per   Mag1   Mag2       ID
LPG   000.76 295.5 m E Pg      2012/12/01 13:22:21.5  -0.3                          T   001.0                                5128671
LPG   000.76 295.5 m E Sg      2012/12/01 13:22:30.3  -1.5                          T               24.6  .23        Md 2.7  5128714
MBDF  000.81 237.1 m E Pg      2012/12/01 13:22:21.6  -0.9                          T   001.0                                5128681
MBDF  000.81 237.1 m E Sg      2012/12/01 13:22:31.8  -1.4                          T   001.0       17.8  .16        Md 2.5  5128682
LPL   000.78 296.3 m E Pg      2012/12/01 13:22:22.0  -0.1                          T   001.0                                5128672
LPL   000.78 296.3 m E Sg      2012/12/01 13:22:31.4  -1.0                          T               24.0  .28        Md 2.6  5128713
SBF   001.33 189.3 m E Pn      2012/12/01 13:22:29.9  -0.1                          T   001.0                                5128674
SBF   001.33 189.3 m E Sn      2012/12/01 13:22:45.1  -1.6                          T                6.0  .17 Ml 2.5         5128715
ORIF  001.34 259.7 m E Pn      2012/12/01 13:22:31.3   1.2                          T   001.0                                5128683
ORIF  001.34 259.7 m E Sn      2012/12/01 13:22:46.9  -0.1                          T   001.0        8.5  .25 Ml 2.5         5128685
FRF   001.79 206.1 m E Pn      2012/12/01 13:22:36.3   0.1                          T   001.0                                5128664
FRF   001.79 206.1 m E Sn      2012/12/01 13:22:57.6  -0.1                          T   001.0        4.0  .18 Ml 2.5         5128665
CABF  001.84 322.0 m E Pn      2012/12/01 13:22:37.9   0.9                          T   001.0                                5128678
CABF  001.84 322.0 m E Sn      2012/12/01 13:22:58.0  -1.0                          T   001.0        2.1  .28 Ml 2.0         5128679
SMRF  001.95 232.9 m E Pn      2012/12/01 13:22:39.0   0.5                          T                                        5128723
SMRF  001.95 232.9 m E Sn      2012/12/01 13:23:02.7   1.2                          T                 .6  .19 Ml 1.7         5128722
LMR   002.04 205.9 m E Pn      2012/12/01 13:22:39.8   0.2                          T                                        5128725
LMR   002.04 205.9 m E Sn      2012/12/01 13:23:04.1   0.6                          T   001.0        4.9  .23 Ml 2.6         5128668
VIVF  002.19 262.8 m E Pn      2012/12/01 13:22:41.9   0.2                          T   001.0                                5128686
VIVF  002.19 262.8 m E Sn      2012/12/01 13:23:06.8  -0.5                          T   001.0         .8  .15 Ml 2.0         5128687
PGF   002.78 160.3 m E Pn      2012/12/01 13:22:49.0  -0.8                          T                                        5128724
PGF   002.78 160.3 m E Sn      2012/12/01 13:23:23.1   1.7                          T   001.0       15.1  .76 Ml 2.9         5128673
HINF  002.71 347.4 m E Pn      2012/12/01 13:22:49.5   0.7                          T   001.0                                5128680
HAU   002.99 341.9 m E Pn      2012/12/01 13:22:52.5  -0.1                          T   001.0                                5128666
LASF  002.98 249.7 m E Pn      2012/12/01 13:22:52.0   0.6                          T   001.0                                5128667
LASF  002.98 249.7 m E Sn      2012/12/01 13:23:24.4  -1.6                          T                                        5128726
SMF   003.09 299.8 m E Pn      2012/12/01 13:22:54.0   0.1                          T   001.0                                5128675
SMF   003.09 299.8 m E Sn      2012/12/01 13:23:23.7  -4.9                          T                1.4  .21 Ml 2.3         5128712
LOR   003.41 309.3 m E Pn      2012/12/01 13:22:58.0   0.7 117.0  -9.5              T   001.0                                5128669
LOR   003.41 309.3 m E Sn      2012/12/01 13:23:34.5  -1.8                          T   001.0        1.2  .20 Ml 2.3         5128670
AVF   003.45 299.5 m E Pn      2012/12/01 13:22:59.5   0.6                          T   001.0                                5128661
AVF   003.45 299.5 m E Sn      2012/12/01 13:23:34.7  -2.7                          T                                        5128728
SSF   003.49 304.2 m E Pn      2012/12/01 13:22:59.9   0.5                          T                                        5128716
BGF   003.68 293.8 m E Pn      2012/12/01 13:23:02.7   0.7                          T   001.0                                5128662
BGF   003.68 293.8 m E Sn      2012/12/01 13:23:40.5  -2.3                          T   001.0        3.5  .24 Ml 2.7         5128663
CAF   004.02 268.5 m E Pn      2012/12/01 13:23:06.9   0.3                          T                                        5128727
TCF   004.02 288.0 m E Pn      2012/12/01 13:23:07.0   0.3                          T   001.0                                5128676
TCF   004.02 288.0 m E Sn      2012/12/01 13:23:50.2  -0.9                          T   001.0        3.5  .28 Ml 2.8         5128677

.
EVENT     287723
    Date      Time       Latitude Longitude    Depth    Ndef Nsta Gap    Mag1  N    Mag2  N    Mag3  N   Author         ID
       rms   OT_Error      Smajor Sminor Az        Err   mdist  Mdist     Err        Err        Err      Quality

2012/12/01 16:41:45.5     42.7730   -1.2936      2.0       6    3 291  Ml 1.5  1  Md 1.6  2              bulletin    287823
                                                                                                         _ldg
      0.18   +-  0.33       6.8    3.1   42.09 +-  0.0    0.34   1.23   +-         +-0.0                 m i ke

PYRENEES
Sta     Dist  EvAz     Phase      Date       Time     TRes  Azim  AzRes  Slow  SRes Def   SNR       Amp   Per   Mag1   Mag2       ID
SJPF  000.34 008.4 m E Pg      2012/12/01 16:41:52.2   0.1                          T                                        5128733
SJPF  000.34 008.4 m E Sg      2012/12/01 16:41:56.6  -0.2                          T                2.0  .21        Md 1.6  5128730
ETSF  000.55 076.7 m E Pg      2012/12/01 16:41:55.8  -0.3                          T                                        5128732
ETSF  000.55 076.7 m E Sg      2012/12/01 16:42:03.5   0.1                          T                1.7  .17        Md 1.7  5128731
EPF   001.23 077.4 m E Pn      2012/12/01 16:42:08.1   0.1                          T                                        5128734
EPF   001.23 077.4 m E Sg      2012/12/01 16:42:24.3  -0.1                          T                 .7  .17 Ml 1.5         5128729

.
