EVENT     264040
    Date      Time       Latitude Longitude    Depth    Ndef Nsta Gap    Mag1  N    Mag2  N    Mag3  N   Author         ID
       rms   OT_Error      Smajor Sminor Az        Err   mdist  Mdist     Err        Err        Err      Quality

2011/09/17 17:21:46.6     45.6614    6.3158      2.0      75   24 036  Ml 2.6 22  Md 2.6  3              js067245    264060

      0.65   +-  0.06       1.3    1.1   62.93 +-  0.0    0.22   5.61   +-0.3      +-0.1                 m i ke

FRANCE
Sta     Dist  EvAz     Phase      Date       Time     TRes  Azim  AzRes  Slow  SRes Def   SNR       Amp   Per   Mag1   Mag2       ID
LPL   000.33 116.2 m E Pg      2011/09/17 17:21:53.0  -0.2                          T   001.0                                4754037
LPL   000.33 116.2 m E Sg      2011/09/17 17:21:57.9   0.3                          T               54.9  .32        Md 2.7  4766140
LPG   000.35 118.0 m E Pg      2011/09/17 17:21:53.6  -0.1                          T   001.0                                4754036
LPG   000.35 118.0 m E Sg      2011/09/17 17:21:58.5   0.2                          T               71.5  .25        Md 2.6  4758028
ORIF  000.80 202.6 m E Pg      2011/09/17 17:22:01.4  -0.4                          T   001.0                                4754008
ORIF  000.80 202.6 m E Pn      2011/09/17 17:22:03.4  -0.1                          T   001.0                                4754009
ORIF  000.80 202.6 m E Sg      2011/09/17 17:22:11.8  -0.5                          T               11.5  .22        Md 2.5  4766145
MBDF  000.99 160.8 m E Pn      2011/09/17 17:22:05.3  -0.7                          T   001.0                                4754050
MBDF  000.99 160.8 m E P       2011/09/17 17:22:07.2  -0.3                          T                                        4758020
MBDF  000.99 160.8 m E Sg      2011/09/17 17:22:17.8  -0.4                          T   001.0        8.1  .24 Ml 2.3         4754051
MBDF  000.99 160.8 m E Sn      2011/09/17 17:22:19.7  -0.1                          T               10.2  .30 Ml 2.3         4758019
CABF  000.96 350.6 m E Pn      2011/09/17 17:22:05.6   0.0                          T   001.0                                4754047
CABF  000.96 350.6 m E Sg      2011/09/17 17:22:17.0  -0.3                          T                                        4766146
CABF  000.96 350.6 m E Sn      2011/09/17 17:22:18.9  -0.2                          T   001.0       47.1  .28 Ml 3.0         4754048
VIVF  001.41 235.8 m E Pn      2011/09/17 17:22:11.5  -0.2                          T   001.0                                4754011
VIVF  001.41 235.8 m E Pg      2011/09/17 17:22:12.5  -0.5                          T                                        4758015
VIVF  001.41 235.8 m E Sn      2011/09/17 17:22:29.3  -0.5                          T   001.0                                4754012
VIVF  001.41 235.8 m E Sg      2011/09/17 17:22:31.2   0.0                          T               13.6  .32 Ml 2.6         4758027
SMRF  001.77 197.6 m E P       2011/09/17 17:22:18.2  -0.4                          T                                        4766141
SMRF  001.77 197.6 m E Sg      2011/09/17 17:22:42.2  -0.1                          T                3.0  .40 Ml 2.0         4766142
SMF   001.98 300.7 m E Pn      2011/09/17 17:22:19.2  -0.2                          T   001.0                                4754040
SMF   001.98 300.7 m E Pg      2011/09/17 17:22:23.6   0.1                          T   001.0                                4754041
SMF   001.98 300.7 m E Sn      2011/09/17 17:22:43.0  -0.3                          T                                        4758022
SMF   001.98 300.7 m E S       2011/09/17 17:22:47.1  -0.3                          T                                        4758021
SMF   001.98 300.7 m E Sg      2011/09/17 17:22:49.3   0.3                          T   001.0       16.0  .18 Ml 3.1         4754042
SBF   001.97 155.7 m E P       2011/09/17 17:22:21.3  -0.2                          T   001.0                                4754038
SBF   001.97 155.7 m E Sg      2011/09/17 17:22:48.5  -0.1                          T   001.0        5.6  .29 Ml 2.5         4754039
HINF  002.19 009.5 m E Pn      2011/09/17 17:22:22.4   0.1                          T                                        4758026
HINF  002.19 009.5 m E Sg      2011/09/17 17:22:56.1   0.7                          T   001.0        9.7  .24 Ml 2.9         4754049
FRF   002.11 173.5 m E P       2011/09/17 17:22:23.2  -0.3                          T                                        4758016
FRF   002.11 173.5 m E Pg      2011/09/17 17:22:25.9   0.1                          T   001.0                                4754023
FRF   002.11 173.5 m E Sg      2011/09/17 17:22:52.9  -0.2                          T   001.0        4.4  .32 Ml 2.4         4754024
LMR   002.33 176.5 m E Pn      2011/09/17 17:22:24.1   0.0                          T                                        4766143
LMR   002.33 176.5 m E Pg      2011/09/17 17:22:29.7  -0.1                          T                                        4766144
LMR   002.33 176.5 m E Sn      2011/09/17 17:22:52.0   0.4                          T   001.0                                4754031
LMR   002.33 176.5 m E Sg      2011/09/17 17:22:59.6  -0.2                          T   001.0        1.7  .21 Ml 2.2         4754032
HAU   002.35 000.5 m E Pn      2011/09/17 17:22:24.9   0.5                          T                                        4758025
HAU   002.35 000.5 m E Pg      2011/09/17 17:22:30.6   0.4                          T                                        4758018
HAU   002.35 000.5 m E Sn      2011/09/17 17:22:52.2   0.2                          T                                        4758017
HAU   002.35 000.5 m E Sg      2011/09/17 17:22:59.4  -0.9                          T   001.0       15.5  .28 Ml 2.8         4754026
LOR   002.34 314.3 m E Pn      2011/09/17 17:22:24.9   0.6                          T   001.0                                4754033
LASF  002.36 228.7 m E Pn      2011/09/17 17:22:24.9   0.4                          T   001.0                                4754027
LOR   002.34 314.3 m E Pg      2011/09/17 17:22:29.5  -0.5                          T   001.0                                4754034
LASF  002.36 228.7 m E Sn      2011/09/17 17:22:51.3  -1.1                          T   001.0                                4754028
LOR   002.34 314.3 m E Sg      2011/09/17 17:22:59.3  -0.8                          T   001.0          8  .20 Ml 2.9         4754035
LASF  002.36 228.7 m E Sg      2011/09/17 17:23:00.6  -0.2                          T   001.0        2.4  .28 Ml 2.2         4754029
AVF   002.35 299.8 m E P       2011/09/17 17:22:26.5  -0.3                          T   001.0                                4754013
AVF   002.35 299.8 m E Sn      2011/09/17 17:22:51.5  -0.5                          T   001.0                                4754014
AVF   002.35 299.8 m E Sg      2011/09/17 17:23:00.6   0.3                          T   001.0        9.3  .28 Ml 2.8         4754015
BGF   002.57 291.6 m E Pn      2011/09/17 17:22:27.5   0.0                          T   001.0                                4754016
BGF   002.57 291.6 m E Pg      2011/09/17 17:22:34.5   0.1                          T   001.0                                4754017
BGF   002.57 291.6 m E Sg      2011/09/17 17:23:07.2  -0.2                          T   001.0       18.7  .32 Ml 3.1         4754018
SSF   002.40 306.8 m E Pg      2011/09/17 17:22:30.5  -0.6                          T   001.0                                4754043
SSF   002.40 306.8 m E Sg      2011/09/17 17:23:02.6   0.7                          T   001.0        5.2  .24 Ml 2.7         4754044
CDF   002.83 013.1 m E Pn      2011/09/17 17:22:31.5   0.5                          T   001.0                                4754020
CDF   002.83 013.1 m E Sg      2011/09/17 17:23:16.1   0.6                          T   001.0        4.8  .36 Ml 2.6         4754021
LDF   005.28 306.0 m E Pn      2011/09/17 17:23:04.0  -0.3                          T   001.0                                4754030
TCF   002.93 283.8 m E Sn      2011/09/17 17:23:06.6   0.6                          T   001.0                                4754045
TCF   002.93 283.8 m E Sg      2011/09/17 17:23:16.1  -2.5                          T   001.0        4.9  .32 Ml 2.6         4754046
CAF   003.09 257.7 m E Sg      2011/09/17 17:23:21.6  -2.0                          T   001.0        2.1  .20 Ml 2.5         4754019
EPF   005.03 240.6 m E Sg      2011/09/17 17:24:23.8  -0.3                          T   001.0        1.4  .32 Ml 2.5         4754022
GRR   005.61 301.7 m E Sg      2011/09/17 17:24:43.4   1.2                          T   001.0       10.1  .96 Ml 2.9         4754025

.
EVENT     264041
    Date      Time       Latitude Longitude    Depth    Ndef Nsta Gap    Mag1  N    Mag2  N    Mag3  N   Author         ID
       rms   OT_Error      Smajor Sminor Az        Err   mdist  Mdist     Err        Err        Err      Quality

2011/09/17 18:27:43.2     44.6278    7.0213      2.0      18    8 170  Ml 1.6  6  Md 1.8  1              js067245    264061

      0.29   +-  0.09       2.4    1.1   77.86 +-  0.0    0.20   1.35   +-0.2      +-                    m i ke

NORTHERN ITALY
Sta     Dist  EvAz     Phase      Date       Time     TRes  Azim  AzRes  Slow  SRes Def   SNR       Amp   Per   Mag1   Mag2       ID
MBDF  000.20 299.1 m E Pg      2011/09/17 18:27:47.4   0.0                          T                                        4758048
MBDF  000.20 299.1 m E Sg      2011/09/17 18:27:50.5   0.2                          T                8.9  .18        Md 1.8  4758047
SBF   000.82 158.6 m E Pg      2011/09/17 18:27:58.7   0.0                          T                                        4766159
SBF   000.82 158.6 m E Sg      2011/09/17 18:28:08.9  -0.5                          T                2.9  .21                4758037
ORIF  000.86 290.1 m E Pg      2011/09/17 18:27:59.5   0.0                          T                                        4758046
ORIF  000.86 290.1 m E Sg      2011/09/17 18:28:09.9  -0.8                          T                1.5  .24 Ml 1.5         4758038
LPG   000.89 347.7 m E Pg      2011/09/17 18:28:00.1  -0.1                          T                                        4758031
LPG   000.89 347.7 m E Sg      2011/09/17 18:28:11.1  -0.7                          T                 .8  .19 Ml 1.4         4758035
LPL   000.91 347.1 m E Pg      2011/09/17 18:28:00.9   0.3                          T                                        4758045
LPL   000.91 347.1 m E Sg      2011/09/17 18:28:12.3  -0.1                          T                 .8  .21 Ml 1.3         4758036
FRF   001.10 194.3 m E Pg      2011/09/17 18:28:03.5  -0.3                          T                                        4758044
FRF   001.10 194.3 m E Pn      2011/09/17 18:28:04.2   0.3                          T                                        4758034
FRF   001.10 194.3 m E Sg      2011/09/17 18:28:17.8  -0.2                          T                2.1  .22 Ml 1.9         4758042
SMRF  001.23 238.4 m E P       2011/09/17 18:28:07.6   0.2                          T                                        4758039
SMRF  001.23 238.4 m E Sg      2011/09/17 18:28:22.4   0.4                          T                2.2  .27 Ml 1.8         4758040
SMRF  001.23 238.4 m E S       2011/09/17 18:28:24.8   0.0                          T                                        4758030
LMR   001.35 196.1 m E Pg      2011/09/17 18:28:08.2  -0.1                          T                                        4758033
LMR   001.35 196.1 m E Sg      2011/09/17 18:28:25.6  -0.1                          T                1.8  .28 Ml 1.8         4758032

.
EVENT     264757
    Date      Time       Latitude Longitude    Depth    Ndef Nsta Gap    Mag1  N    Mag2  N    Mag3  N   Author         ID
       rms   OT_Error      Smajor Sminor Az        Err   mdist  Mdist     Err        Err        Err      Quality

2011/09/17 20:53:41.3     42.7301    2.6240      8.0 f    15    4 077  Ml 1.6  3  Md 1.8  1              js067245    264777

      0.29   +-  0.07       1.3    1.1   76.14 +-  0.0    0.17   2.59   +-0.2      +-                    m i ke

PYRENEES
Sta     Dist  EvAz     Phase      Date       Time     TRes  Azim  AzRes  Slow  SRes Def   SNR       Amp   Per   Mag1   Mag2       ID
MTLF  000.68 334.1 m E Pg      2011/09/17 20:53:54.1  -0.1                          T                                        4766160
MTLF  000.68 334.1 m E Pn      2011/09/17 20:53:56.3   0.6                          T                                        4766161
MTLF  000.68 334.1 m E Sg      2011/09/17 20:54:03.7   0.6                          T                                        4766162
MTLF  000.68 334.1 m E Sn      2011/09/17 20:54:06.4   0.6                          T                1.8  .21        Md 1.8  4766163
LASF  001.62 033.3 m E Sg      2011/09/17 20:54:32.2  -0.2                          T                 .9  .27 Ml 1.6         4766165
EPF   001.71 280.9 m E Sg      2011/09/17 20:54:35.3   0.1                          T                 .6  .28 Ml 1.5         4766166
VIVF  002.59 034.2 m E Sg      2011/09/17 20:55:02.6  -0.2                          T                1.2  .35 Ml 1.9         4766164

.
EVENT     264064
    Date      Time       Latitude Longitude    Depth    Ndef Nsta Gap    Mag1  N    Mag2  N    Mag3  N   Author         ID
       rms   OT_Error      Smajor Sminor Az        Err   mdist  Mdist     Err        Err        Err      Quality

2011/09/18 02:25:08.4     49.4610    7.9070     10.0      10    4 078  Ml 1.5  2  Md 1.5  2              js067245    264084

      0.31   +-  0.07       1.9     .9   84.88 +-  0.0    0.13   1.79   +-0.1      +-0.1                 m i ke

GERMANY
Sta     Dist  EvAz     Phase      Date       Time     TRes  Azim  AzRes  Slow  SRes Def   SNR       Amp   Per   Mag1   Mag2       ID
LANF  000.49 187.9 m E Pg      2011/09/18 02:25:17.9   0.1                          T                                        4758050
LANF  000.49 187.9 m E Sg      2011/09/18 02:25:24.2  -0.1                          T                2.5  .37        Md 1.6  4758051
RUP   000.60 293.9 m E Pg      2011/09/18 02:25:20.1   0.1                          T                                        4758052
RUP   000.60 293.9 m E Sg      2011/09/18 02:25:28.0   0.1                          T                                Md 1.5  4758053
CDF   001.13 201.9 m E Pg      2011/09/18 02:25:28.8  -0.9                          T                                        4758055
CDF   001.13 201.9 m E Sg      2011/09/18 02:25:43.8  -0.6                          T                 .9  .23 Ml 1.6         4758054
HAU   001.79 215.9 m E Sg      2011/09/18 02:26:04.8   0.0                          T                 .7  .25 Ml 1.4         4766169

.
