EVENT     297813
    Date      Time       Latitude Longitude    Depth    Ndef Nsta Gap    Mag1  N    Mag2  N    Mag3  N   Author         ID
       rms   OT_Error      Smajor Sminor Az        Err   mdist  Mdist     Err        Err        Err      Quality

2013/05/09 15:25:43.5     48.0159    9.4930      6.0 f    34    6 075  Ml 2.3  6  Md 2.3  1              bulletin    297913
                                                                                                         _ldg
      0.80   +-  0.08       1.6    1.3  137.76 +-  0.0    0.26   3.88   +-0.3      +-                    m i ke

GERMANY
Sta     Dist  EvAz     Phase      Date       Time     TRes  Azim  AzRes  Slow  SRes Def   SNR       Amp   Per   Mag1   Mag2       ID
CDF   001.53 285.8 m E Pg      2013/05/09 15:26:12.1  -0.1                          T                                        5278874
CDF   001.53 285.8 m E Sg      2013/05/09 15:26:31.5  -0.6                          T                2.8  .18 Ml 2.4 Md 2.3  5278873
HINF  001.79 264.6 m E Pg      2013/05/09 15:26:16.4  -0.5                          T                                        5278866
HINF  001.79 264.6 m E Sg      2013/05/09 15:26:40.0   0.1                          T                1.9  .25 Ml 2.0         5278865
HAU   002.11 270.9 m E Pg      2013/05/09 15:26:22.8   0.0                          T                                        5278868
HAU   002.11 270.9 m E Sg      2013/05/09 15:26:50.0   0.0                          T                2.3  .21 Ml 2.0         5278867
PAGF  002.57 283.5 m E Pg      2013/05/09 15:26:31.2  -0.1 108.5  7.8               T                                        5278872
PAGF  002.57 283.5 m E Sg      2013/05/09 15:27:04.5   0.1 117.8  17.1              T                1.9  .22 Ml 2.3         5278871
CABF  002.71 240.0 m E Pg      2013/05/09 15:26:33.8  -0.1                          T                                        5278864
CABF  002.71 240.0 m E Sg      2013/05/09 15:27:08.9   0.2                          T                1.6  .24 Ml 2.2         5278863
SFTF  002.99 275.3 m E Pg      2013/05/09 15:26:38.6  -0.4                          T                                        5278870
SFTF  002.99 275.3 m E Sg      2013/05/09 15:27:17.7   0.3                          T                7.2  .35 Ml 2.7         5278869

.
EVENT     297767
    Date      Time       Latitude Longitude    Depth    Ndef Nsta Gap    Mag1  N    Mag2  N    Mag3  N   Author         ID
       rms   OT_Error      Smajor Sminor Az        Err   mdist  Mdist     Err        Err        Err      Quality

2013/05/09 16:18:06.9     44.4870    6.6602      7.0 f    34    8 070  Ml 1.4  5  Md 1.9  1              bulletin    297867
                                                                                                         _ldg
      0.24   +-  0.04        .8     .6   60.42 +-  0.0    0.11   1.16   +-0.3      +-                    m i ke

FRANCE
Sta     Dist  EvAz     Phase      Date       Time     TRes  Azim  AzRes  Slow  SRes Def   SNR       Amp   Per   Mag1   Mag2       ID
MBDF  000.25 018.3 m E Pg      2013/05/09 16:18:12.2   0.0                          T                                        5278441
MBDF  000.25 018.3 m E Sg      2013/05/09 16:18:15.9   0.2                          T                5.5  .22        Md 1.9  5278440
ORIF  000.70 308.1 m E Pg      2013/05/09 16:18:20.5   0.2                          T                                        5278439
ORIF  000.70 308.1 m E Sg      2013/05/09 16:18:29.2  -0.4                          T                2.2  .26                5278438
SBF   000.84 137.9 m E Pg      2013/05/09 16:18:23.0   0.3                          T                                        5283217
SBF   000.84 137.9 m E Sg      2013/05/09 16:18:33.3  -0.4                          T                1.1  .16                5283216
FRF   000.93 180.6 m E Pg      2013/05/09 16:18:24.3   0.0                          T                                        5283219
FRF   000.93 180.6 m E Sg      2013/05/09 16:18:36.0  -0.3                          T                1.7  .20 Ml 1.7         5283218
SMRF  000.93 237.1 m E Pg      2013/05/09 16:18:24.5   0.0                          T                                        5283221
SMRF  000.93 237.1 m E Sg      2013/05/09 16:18:36.5  -0.1                          T                  1  .24 Ml 1.4         5283220
LPL   001.03 002.8 m E Pg      2013/05/09 16:18:26.2  -0.3                          T                                        5283225
LPL   001.03 002.8 m E Sg      2013/05/09 16:18:40.0   0.1                          T                 .6  .26 Ml 1.2         5283224
LPG   001.01 003.6 m E Pg      2013/05/09 16:18:26.4   0.1                          T                                        5283223
LPG   001.01 003.6 m E Sg      2013/05/09 16:18:39.4   0.0                          T                 .4  .21 Ml 1.1         5283222
LMR   001.16 185.5 m E Pg      2013/05/09 16:18:29.4   0.9                          T                                        5278435
LMR   001.16 185.5 m E Sg      2013/05/09 16:18:43.7   0.1                          T                 .7  .17 Ml 1.5         5278434

.
EVENT     297777
    Date      Time       Latitude Longitude    Depth    Ndef Nsta Gap    Mag1  N    Mag2  N    Mag3  N   Author         ID
       rms   OT_Error      Smajor Sminor Az        Err   mdist  Mdist     Err        Err        Err      Quality

2013/05/09 21:33:05.1     42.8578    -.8136     18.5       9    5 232  Ml 1.6  1  Md 1.7  2              bulletin    297877
                                                                                                         _ldg
      0.23   +-  0.47      12.9    2.5   12.01 +-  1.6    0.19   2.36   +-         +-0.1                 m i ke

PYRENEES
Sta     Dist  EvAz     Phase      Date       Time     TRes  Azim  AzRes  Slow  SRes Def   SNR       Amp   Per   Mag1   Mag2       ID
ETSF  000.19 077.6 m E Pg      2013/05/09 21:33:10.3   0.2                          T                                        5278464
ETSF  000.19 077.6 m E Sg      2013/05/09 21:33:13.0  -0.5                          T               14.9  .23        Md 1.7  5278463
SJPF  000.40 310.4 m E Pg      2013/05/09 21:33:13.2  -0.1                          T                                        5278462
SJPF  000.40 310.4 m E Sg      2013/05/09 21:33:19.2   0.3                          T                8.2  .28        Md 1.7  5278461
EPF   000.86 078.1 m E Pn      2013/05/09 21:33:21.3   0.4                          T                                        5278460
EPF   000.86 078.1 m E Sg      2013/05/09 21:33:33.1   0.0                          T                2.0  .28 Ml 1.6         5278465
MTLF  002.27 076.7 m E Pn      2013/05/09 21:33:38.9  -1.1                          T                                        5278466
LFF   002.36 027.8 m E Pn      2013/05/09 21:33:41.2  -0.1                          T                                        5278468
LFF   002.36 027.8 m E Sn      2013/05/09 21:34:08.2   0.2                          T                                        5278467

.
EVENT     297778
    Date      Time       Latitude Longitude    Depth    Ndef Nsta Gap    Mag1  N    Mag2  N    Mag3  N   Author         ID
       rms   OT_Error      Smajor Sminor Az        Err   mdist  Mdist     Err        Err        Err      Quality

2013/05/09 22:54:40.4     42.9564     .1708     15.0      18    4 107  Ml 1.3  2  Md 1.5  2              bulletin    297878
                                                                                                         _ldg
      0.37   +-  0.08       1.9    1.3   15.77 +-  0.0    0.14   1.55   +-0.3      +-0.2                 m i ke

PYRENEES
Sta     Dist  EvAz     Phase      Date       Time     TRes  Azim  AzRes  Slow  SRes Def   SNR       Amp   Per   Mag1   Mag2       ID
EPF   000.14 059.2 m E Pg      2013/05/09 22:54:44.3  -0.1                          T                                        5278495
EPF   000.14 059.2 m E Sg      2013/05/09 22:54:46.3  -0.9                          T               68.3  .28        Md 1.6  5278494
ETSF  000.54 264.1 m E Pg      2013/05/09 22:54:51.0  -0.1                          T                                        5278492
ETSF  000.54 264.1 m E Sg      2013/05/09 22:54:58.6   0.3                          T                5.7  .24        Md 1.4  5278493
SJPF  001.04 279.2 m E Pn      2013/05/09 22:54:58.5  -0.3                          T                                        5278499
SJPF  001.04 279.2 m E Sg      2013/05/09 22:55:13.7   0.2                          T                 .4  .26 Ml 1.1         5278498
MTLF  001.55 074.9 m E Pg      2013/05/09 22:55:09.1  -0.2                          T                                        5289889
MTLF  001.55 074.9 m E Sg      2013/05/09 22:55:29.5   0.1                          T                 .7  .27 Ml 1.5         5278496

.
EVENT     297779
    Date      Time       Latitude Longitude    Depth    Ndef Nsta Gap    Mag1  N    Mag2  N    Mag3  N   Author         ID
       rms   OT_Error      Smajor Sminor Az        Err   mdist  Mdist     Err        Err        Err      Quality

2013/05/09 23:34:01.2     42.9844     .2640      2.0      37    4 113  Ml 1.9  2  Md 2.2  2              bulletin    297879
                                                                                                         _ldg
      0.54   +-  0.09       2.1    1.2   16.70 +-  0.0    0.07   2.03   +-0.0      +-0.0                 m i ke

PYRENEES
Sta     Dist  EvAz     Phase      Date       Time     TRes  Azim  AzRes  Slow  SRes Def   SNR       Amp   Per   Mag1   Mag2       ID
EPF   000.07 050.5 m E Pg      2013/05/09 23:34:04.2   1.2                          T                                        5278503
EPF   000.07 050.5 m E Sg      2013/05/09 23:34:05.8   1.7                          T               33.2  .18        Md 2.2  5278502
ETSF  000.61 262.2 m E Pg      2013/05/09 23:34:12.8   0.0                          T                                        5278500
ETSF  000.61 262.2 m E Sg      2013/05/09 23:34:20.7  -0.1                          T               22.1  .30        Md 2.1  5278501
SJPF  001.10 277.2 m E Pg      2013/05/09 23:34:21.7   0.0                          T                                        5278505
SJPF  001.10 277.2 m E Sg      2013/05/09 23:34:35.7  -0.3                          T                2.7  .23 Ml 1.9         5278504
MTLF  001.47 075.3 m E Pn      2013/05/09 23:34:26.5  -0.5                          T                                        5278508
MTLF  001.47 075.3 m E Sn      2013/05/09 23:34:45.9   0.2                          T                                        5278507
MTLF  001.47 075.3 m E Sg      2013/05/09 23:34:47.9   0.2                          T                1.5  .18 Ml 1.9         5278506

.
EVENT     297780
    Date      Time       Latitude Longitude    Depth    Ndef Nsta Gap    Mag1  N    Mag2  N    Mag3  N   Author         ID
       rms   OT_Error      Smajor Sminor Az        Err   mdist  Mdist     Err        Err        Err      Quality

2013/05/10 01:17:17.9     46.6541    1.3834      6.0 f    34   12 146  Ml 2.3 12  Md 2.5  4              bulletin    297880
                                                                                                         _ldg
      0.91   +-  0.13       3.0    2.0  160.68 +-  0.0    0.68   3.37   +-0.2      +-0.0                 m i ke

FRANCE
Sta     Dist  EvAz     Phase      Date       Time     TRes  Azim  AzRes  Slow  SRes Def   SNR       Amp   Per   Mag1   Mag2       ID
TCF   000.68 122.4 m E Pg      2013/05/10 01:17:31.7   0.8                          T                                        5278516
TCF   000.68 122.4 m E Sg      2013/05/10 01:17:40.4   0.7                          T               11.8  .24        Md 2.5  5278515
BGF   001.01 094.9 m E Pg      2013/05/10 01:17:37.8   0.8                          T                                        5278509
BGF   001.01 094.9 m E Sg      2013/05/10 01:17:49.9  -0.2                          T   001.0       23.9  .28 Ml 2.8 Md 2.4  5278523
HYF   001.06 054.0 m E Pg      2013/05/10 01:17:37.8   0.0                          T                                        5289892
HYF   001.06 054.0 m E P       2013/05/10 01:17:39.7   0.4                          T                                        5278510
HYF   001.06 054.0 m E Sg      2013/05/10 01:17:50.9  -0.6                          T                                Md 2.4  5278535
MFF   001.06 267.7 m E Pg      2013/05/10 01:17:37.8   0.1                          T                                        5278513
MFF   001.06 267.7 m E Pn      2013/05/10 01:17:37.9   0.3                          T   001.0                                5278528
MFF   001.06 267.7 m E Sg      2013/05/10 01:17:51.4   0.0                          T               11.0  .22 Ml 2.7 Md 2.5  5278514
AVF   001.36 083.5 m E Pn      2013/05/10 01:17:41.9   0.1                          T                                        5278512
AVF   001.36 083.5 m E Pg      2013/05/10 01:17:42.9  -0.4                          T   001.0                                5278519
AVF   001.36 083.5 m E Sn      2013/05/10 01:17:58.7  -0.4                          T   001.0                                5278520
AVF   001.36 083.5 m E Sg      2013/05/10 01:18:01.1   0.2                          T   001.0        6.2  .38 Ml 2.2         5278521
RJF   001.35 176.0 m E Pg      2013/05/10 01:17:42.4  -0.8                          T   001.0                                5278517
RJF   001.35 176.0 m E Sn      2013/05/10 01:17:59.5   0.5                          T   001.0        7.1  .18 Ml 2.2         5278518
SSF   001.51 073.6 m E Pg      2013/05/10 01:17:45.3  -0.8                          T   001.0                                5278530
SSF   001.51 073.6 m E Sg      2013/05/10 01:18:05.9   0.2                          T   001.0        1.2  .16 Ml 2.0         5278531
SMF   001.69 089.4 m E Pn      2013/05/10 01:17:46.0  -0.4                          T                                        5278511
SMF   001.69 089.4 m E Pg      2013/05/10 01:17:49.1  -0.4                          T   001.0                                5278529
SMF   001.69 089.4 m E Sn      2013/05/10 01:18:06.9  -0.2                          T                                        5278537
SMF   001.69 089.4 m E Sg      2013/05/10 01:18:10.6  -0.8                          T                2.0  .18 Ml 2.2         5278536
LFF   001.77 194.9 m E Pn      2013/05/10 01:17:46.5  -0.9                          T   001.0                                5278525
LFF   001.77 194.9 m E Sn      2013/05/10 01:18:08.1  -0.8                          T   001.0        7.8  .36 Ml 2.3         5278526
LFF   001.77 194.9 m E Sg      2013/05/10 01:18:13.1  -0.7                          T                8.1  .36 Ml 2.3         5278534
CAF   001.79 164.3 m E Pn      2013/05/10 01:17:48.0   0.2                          T                                        5278541
CAF   001.79 164.3 m E Pg      2013/05/10 01:17:50.9  -0.4                          T                                        5278542
CAF   001.79 164.3 m E Sn      2013/05/10 01:18:10.5   1.0                          T   001.0        3.5  .24 Ml 2.3         5278524
CAF   001.79 164.3 m E Sg      2013/05/10 01:18:14.2  -0.2                          T                3.3  .22 Ml 2.3         5278533
LOR   001.80 069.2 m E Pg      2013/05/10 01:17:51.7   0.2 242.0  -8.9              T                                        5278538
LOR   001.80 069.2 m E Sg      2013/05/10 01:18:13.5  -1.3                          T   001.0                                5278527
MTLF  003.37 169.6 m E Sg      2013/05/10 01:19:05.3   1.8                          T   001.0        3.2  .68 Ml 2.2         5278532

.
EVENT     297810
    Date      Time       Latitude Longitude    Depth    Ndef Nsta Gap    Mag1  N    Mag2  N    Mag3  N   Author         ID
       rms   OT_Error      Smajor Sminor Az        Err   mdist  Mdist     Err        Err        Err      Quality

2013/05/10 05:08:03.1     42.8579   -1.4969      2.0      14    3 142  Ml 1.2  1  Md 1.1  2              bulletin    297910
                                                                                                         _ldg
      0.28   +-  0.10       2.4    1.4  126.00 +-  0.0    0.10   1.36   +-         +-0.2                 m i ke

PYRENEES
Sta     Dist  EvAz     Phase      Date       Time     TRes  Azim  AzRes  Slow  SRes Def   SNR       Amp   Per   Mag1   Mag2       ID
SJPF  000.32 037.9 m E Pg      2013/05/10 05:08:09.3  -0.2                          T                                        5278767
SJPF  000.32 037.9 m E Sg      2013/05/10 05:08:13.9   0.0                          T                5.7  .27        Md 1.3  5278768
ETSF  000.69 086.3 m E Pg      2013/05/10 05:08:16.7   0.4                          T                                        5278772
ETSF  000.69 086.3 m E Sg      2013/05/10 05:08:24.6  -0.7                          T                1.1  .24        Md 1.0  5278771
EPF   001.36 082.1 m E Pn      2013/05/10 05:08:27.7   0.2                          T                                        5278770
EPF   001.36 082.1 m E Sn      2013/05/10 05:08:44.9  -0.1                          T                 .3  .15 Ml 1.2         5278769

.
