EVENT     259521
    Date      Time       Latitude Longitude    Depth    Ndef Nsta Gap    Mag1  N    Mag2  N    Mag3  N   Author         ID
       rms   OT_Error      Smajor Sminor Az        Err   mdist  Mdist     Err        Err        Err      Quality

2011/05/19 18:50:55.0     43.0825    -.1921      2.0      65   11 081  Ml 2.5  9  Md 2.5  3              js067245    259521

      0.42   +-  0.04        .9     .6  173.36 +-  0.0    0.15   4.09   +-0.2      +-0.1                 m i ke

PYRENEES
Sta     Dist  EvAz     Phase      Date       Time     TRes  Azim  AzRes  Slow  SRes Def   SNR       Amp   Per   Mag1   Mag2       ID
ETSF  000.33 235.8 m E Pg      2011/05/19 18:51:01.1  -0.4                          T   001.0                                4697319
ETSF  000.33 235.8 m E Sg      2011/05/19 18:51:05.3  -0.6                          T               75.5  .24        Md 2.6  4697329
EPF   000.39 097.4 m E Pg      2011/05/19 18:51:02.9   0.2                          T   001.0                                4697314
EPF   000.39 097.4 m E Sg      2011/05/19 18:51:08.1   0.2                          T               29.6  .15        Md 2.5  4697330
SJPF  000.76 272.7 m E Pg      2011/05/19 18:51:09.1  -0.2                          T   001.0                                4697323
SJPF  000.76 272.7 m E Sg      2011/05/19 18:51:19.4   0.2                          T               11.0  .20        Md 2.5  4697328
MTLF  001.78 080.8 m E Pn      2011/05/19 18:51:25.0   0.0                          T   001.0                                4697320
MTLF  001.78 080.8 m E Pg      2011/05/19 18:51:27.9  -0.3                          T                                        4697334
MTLF  001.78 080.8 m E Sg      2011/05/19 18:51:50.8  -0.3                          T   001.0          2  .16 Ml 2.3         4697321
LFF   001.97 019.6 m E Pg      2011/05/19 18:51:32.8   1.1                          T   001.0                                4697315
LFF   001.97 019.6 m E Sg      2011/05/19 18:51:57.2   0.0                          T   001.0       10.6  .28 Ml 2.6         4697316
CAF   002.46 040.7 m E Pn      2011/05/19 18:51:34.5   0.1                          T   001.0                                4697311
CAF   002.46 040.7 m E Pg      2011/05/19 18:51:41.6   0.9                          T                                        4697335
CAF   002.46 040.7 m E Sn      2011/05/19 18:52:01.9  -1.3                          T   001.0                                4697312
CAF   002.46 040.7 m E Sg      2011/05/19 18:52:12.5   0.2                          T   001.0        4.7  .24 Ml 2.6         4697313
RJF   002.54 028.4 m E Pn      2011/05/19 18:51:36.6   1.1                          T   001.0                                4697308
RJF   002.54 028.4 m E Pg      2011/05/19 18:51:42.4   0.3                          T   001.0                                4697309
RJF   002.54 028.4 m E Sg      2011/05/19 18:52:14.6  -0.2                          T   001.0          3  .16 Ml 2.3         4697310
LASF  003.11 070.0 m E Pn      2011/05/19 18:51:42.9  -0.3                          T                                        4697333
LASF  003.11 070.0 m E Pg      2011/05/19 18:51:52.4  -0.2                          T                                        4697332
LASF  003.11 070.0 m E Sg      2011/05/19 18:52:32.5   0.0                          T                1.7  .28 Ml 2.2         4697331
MFF   003.52 000.5 m E Sg      2011/05/19 18:52:45.5   0.1                          T   001.0        1.5  .20 Ml 2.6         4697317
TCF   003.63 027.3 m E Sg      2011/05/19 18:52:49.1   0.1                          T   001.0        1.7  .20 Ml 2.5         4697318
BGF   004.09 030.8 m E Sg      2011/05/19 18:53:03.0  -0.3                          T                6.0  .32 Ml 2.9         4697326

.
EVENT     259522
    Date      Time       Latitude Longitude    Depth    Ndef Nsta Gap    Mag1  N    Mag2  N    Mag3  N   Author         ID
       rms   OT_Error      Smajor Sminor Az        Err   mdist  Mdist     Err        Err        Err      Quality

2011/05/19 19:21:15.6     43.5854    6.2104      3.0 f    20   11 147  Ml 1.7  5  Md 2.0  3              js067245    259522

      0.25   +-  0.08       1.9    1.1   30.29 +-  0.0    0.32   2.29   +-0.3      +-0.1                 m i ke

NEAR SOUTH COAST OF FRANCE
Sta     Dist  EvAz     Phase      Date       Time     TRes  Azim  AzRes  Slow  SRes Def   SNR       Amp   Per   Mag1   Mag2       ID
FRF   000.32 094.3 m E Pg      2011/05/19 19:21:21.5  -0.4                          T                                        4697354
FRF   000.32 094.3 m E Sg      2011/05/19 19:21:25.7  -0.5                          T                7.5  .24        Md 2.1  4697355
LMR   000.33 139.0 m E Pg      2011/05/19 19:21:22.3   0.2                          T                                        4697351
LMR   000.33 139.0 m E Sg      2011/05/19 19:21:26.7   0.1                          T                6.3  .20        Md 1.9  4697352
SMRF  000.60 310.6 m E Pg      2011/05/19 19:21:27.2   0.1                          T                                        4697353
SMRF  000.60 310.6 m E Sg      2011/05/19 19:21:35.1   0.0                          T                1.9  .25                4697340
SBF   000.93 072.2 m E Pg      2011/05/19 19:21:33.4   0.2                          T                                        4697349
SBF   000.93 072.2 m E Sg      2011/05/19 19:21:45.4   0.1                          T                6.9  .24 Ml 2.2 Md 2.0  4697350
MBDF  001.21 019.3 m E Pg      2011/05/19 19:21:38.2  -0.3                          T                                        4697345
MBDF  001.21 019.3 m E Sg      2011/05/19 19:21:54.1  -0.1                          T                 .7  .20 Ml 1.5         4697338
ORIF  001.35 350.0 m E Pg      2011/05/19 19:21:41.0   0.0                          T                                        4697344
ORIF  001.35 350.0 m E Sg      2011/05/19 19:21:58.4  -0.1                          T                1.1  .23 Ml 1.6         4697339
VIVF  001.68 319.5 m E Pn      2011/05/19 19:21:44.6   0.3                          T                                        4697348
VIVF  001.68 319.5 m E Sg      2011/05/19 19:22:08.9   0.1                          T                1.1  .23 Ml 1.8         4697337
LASF  001.77 286.9 m E Pn      2011/05/19 19:21:45.1  -0.4                          T                                        4697347
LASF  001.77 286.9 m E Pg      2011/05/19 19:21:48.7   0.0                          T                                        4697346
LASF  001.77 286.9 m E Sn      2011/05/19 19:22:06.7  -0.5                          T                 .4  .24 Ml 1.4         4697336
LPL   001.97 010.8 m E P       2011/05/19 19:21:50.6   0.0                          T                                        4697343
LPG   001.95 011.2 m E P       2011/05/19 19:21:50.7   0.3                          T                                        4697342
PGF   002.29 115.9 m E Pn      2011/05/19 19:21:52.6  -0.1                          T                                        4697341

.
EVENT     259524
    Date      Time       Latitude Longitude    Depth    Ndef Nsta Gap    Mag1  N    Mag2  N    Mag3  N   Author         ID
       rms   OT_Error      Smajor Sminor Az        Err   mdist  Mdist     Err        Err        Err      Quality

2011/05/20 10:54:21.7     48.2974    9.0197      4.0 f    11    3 108  Ml 1.9  3                         js067245    259524

      0.27   +-  0.06       1.2    1.0  111.07 +-  0.0    0.23   1.53   +-0.2                            m i ke

GERMANY
Sta     Dist  EvAz     Phase      Date       Time     TRes  Azim  AzRes  Slow  SRes Def   SNR       Amp   Per   Mag1   Mag2       ID
LANF  001.06 310.8 m E Pg      2011/05/20 10:54:41.5   0.0                          T                                        4697443
LANF  001.06 310.8 m E Sg      2011/05/20 10:54:55.5   0.3                          T                3.4  .22 Ml 2.0         4697444
CDF   001.17 276.3 m E Pg      2011/05/20 10:54:43.7   0.0                          T                                        4697441
CDF   001.17 276.3 m E Sg      2011/05/20 10:54:59.0   0.2                          T                2.8  .24 Ml 2.1         4697442
HINF  001.53 252.5 m E Pg      2011/05/20 10:54:50.0  -0.3                          T                                        4697439
HINF  001.53 252.5 m E Sg      2011/05/20 10:55:10.0  -0.1                          T                1.2  .29 Ml 1.7         4697440

.
EVENT     259527
    Date      Time       Latitude Longitude    Depth    Ndef Nsta Gap    Mag1  N    Mag2  N    Mag3  N   Author         ID
       rms   OT_Error      Smajor Sminor Az        Err   mdist  Mdist     Err        Err        Err      Quality

2011/05/20 17:44:52.1     43.0593    -.1929      2.0      30    4 160  Ml 1.5  1  Md 1.8  3              js067245    259527

      0.56   +-  0.16       3.8    1.7  179.67 +-  0.0    0.31   1.78   +-         +-0.1                 m i ke

PYRENEES
Sta     Dist  EvAz     Phase      Date       Time     TRes  Azim  AzRes  Slow  SRes Def   SNR       Amp   Per   Mag1   Mag2       ID
ETSF  000.31 239.3 m E Pg      2011/05/20 17:44:57.9  -0.5                          T                                        4697480
ETSF  000.31 239.3 m E Sg      2011/05/20 17:45:01.2  -1.4                          T               25.5  .30        Md 1.9  4697481
EPF   000.39 094.1 m E Pg      2011/05/20 17:44:59.7  -0.1                          T                                        4697478
EPF   000.39 094.1 m E Sg      2011/05/20 17:45:05.1   0.1                          T                6.1  .20        Md 1.8  4697479
SJPF  000.76 274.4 m E Pg      2011/05/20 17:45:08.2   1.7                          T                                        4697482
SJPF  000.76 274.4 m E Sg      2011/05/20 17:45:16.9   0.6                          T                3.2  .31        Md 1.6  4697483
MTLF  001.78 080.1 m E Sg      2011/05/20 17:45:49.5   1.2                          T                 .3  .15 Ml 1.5         4697477

.
EVENT     259526
    Date      Time       Latitude Longitude    Depth    Ndef Nsta Gap    Mag1  N    Mag2  N    Mag3  N   Author         ID
       rms   OT_Error      Smajor Sminor Az        Err   mdist  Mdist     Err        Err        Err      Quality

2011/05/20 21:13:02.9     42.2718    2.3132     10.0 f    33    6 046  Ml 2.0  7  Md 2.0  1              js067245    259526

      0.70   +-  0.07       1.4    1.1  174.55 +-  0.0    0.10   2.74   +-0.3      +-                    m i ke

PYRENEES
Sta     Dist  EvAz     Phase      Date       Time     TRes  Azim  AzRes  Slow  SRes Def   SNR       Amp   Per   Mag1   Mag2       ID
MTLF  001.07 356.3 m E Pg      2011/05/20 21:13:22.7  -0.3                          T                                        4697488
MTLF  001.07 356.3 m E P       2011/05/20 21:13:24.0  -0.1                          T                                        4697489
MTLF  001.07 356.3 m E Sg      2011/05/20 21:13:37.1   0.1                          T                5.1  .20 Ml 2.3 Md 2.0  4697498
EPF   001.64 298.2 m E Pg      2011/05/20 21:13:33.7   0.0                          T                                        4697491
EPF   001.64 298.2 m E Sg      2011/05/20 21:13:54.8  -0.1                          T                1.4  .28 Ml 1.8         4697497
LASF  002.13 031.5 m E Pg      2011/05/20 21:13:42.5  -0.1                          T                                        4697492
LASF  002.13 031.5 m E Sg      2011/05/20 21:14:10.0   0.1                          T                 .8  .29 Ml 1.7         4697493
ETSF  002.21 287.4 m E Pg      2011/05/20 21:13:43.7  -0.5                          T                                        4697490
ETSF  002.21 287.4 m E Sg      2011/05/20 21:14:12.7   0.1                          T                 .9  .22 Ml 1.8         4697496
CAF   002.66 356.2 m E Sg      2011/05/20 21:14:26.7   0.2                          T                2.2  .24 Ml 2.3         4697494
SJPF  002.74 289.1 m E Sg      2011/05/20 21:14:29.0  -0.1                          T                 .4  .22 Ml 1.6         4697495

.
EVENT     259532
    Date      Time       Latitude Longitude    Depth    Ndef Nsta Gap    Mag1  N    Mag2  N    Mag3  N   Author         ID
       rms   OT_Error      Smajor Sminor Az        Err   mdist  Mdist     Err        Err        Err      Quality

2011/05/21 01:32:19.0     42.9064   -1.3889      2.0      15    3 117  Ml 0.9  1  Md 1.6  2              js067245    259532

      0.25   +-  0.08       1.4    1.2  112.55 +-  0.0    0.10   1.37   +-         +-0.1                 m i ke

PYRENEES
Sta     Dist  EvAz     Phase      Date       Time     TRes  Azim  AzRes  Slow  SRes Def   SNR       Amp   Per   Mag1   Mag2       ID
SJPF  000.24 030.1 m E Pg      2011/05/21 01:32:23.8   0.0                          T                                        4697503
SJPF  000.24 030.1 m E Sg      2011/05/21 01:32:26.6  -0.5                          T                8.1  .28        Md 1.7  4697504
ETSF  000.61 090.5 m E Pg      2011/05/21 01:32:30.9   0.2                          T                                        4697501
ETSF  000.61 090.5 m E Sg      2011/05/21 01:32:38.9   0.2                          T                 .5  .22        Md 1.5  4697502
EPF   001.28 083.8 m E Pg      2011/05/21 01:32:42.9   0.0                          T                                        4697499
EPF   001.28 083.8 m E Sg      2011/05/21 01:32:59.3  -0.1                          T                 .2  .20 Ml  .9         4697500

.
