EVENT     259790
    Date      Time       Latitude Longitude    Depth    Ndef Nsta Gap    Mag1  N    Mag2  N    Mag3  N   Author         ID
       rms   OT_Error      Smajor Sminor Az        Err   mdist  Mdist     Err        Err        Err      Quality

2011/05/28 21:32:59.8     42.9285   -1.2530      2.0       6    3 273  Ml 0.7  1  Md 1.5  2              js067245    259790

      0.28   +-  0.40       8.8    2.6   46.18 +-  0.0    0.19   1.17   +-         +-0.2                 m i ke

PYRENEES
Sta     Dist  EvAz     Phase      Date       Time     TRes  Azim  AzRes  Slow  SRes Def   SNR       Amp   Per   Mag1   Mag2       ID
SJPF  000.19 006.3 m E Pg      2011/05/28 21:33:03.5  -0.1                          T                                        4702772
SJPF  000.19 006.3 m E Sg      2011/05/28 21:33:05.5  -0.7                          T                7.2  .26        Md 1.7  4702773
ETSF  000.51 093.1 m E Pg      2011/05/28 21:33:09.5  -0.1                          T                                        4702770
ETSF  000.51 093.1 m E Sg      2011/05/28 21:33:16.8   0.4                          T                2.0  .37        Md 1.3  4702771
EPF   001.17 084.5 m E Pg      2011/05/28 21:33:21.7  -0.1                          T                                        4702768
EPF   001.17 084.5 m E Sg      2011/05/28 21:33:37.0   0.0                          T                 .1  .17 Ml  .7         4702769

.
EVENT     259881
    Date      Time       Latitude Longitude    Depth    Ndef Nsta Gap    Mag1  N    Mag2  N    Mag3  N   Author         ID
       rms   OT_Error      Smajor Sminor Az        Err   mdist  Mdist     Err        Err        Err      Quality

2011/05/28 23:06:00.9     42.7860   -1.0118      2.0      24    3 085  Ml 1.1  1  Md 1.5  2              js067245    259881

      0.26   +-  0.05        .9     .9    9.38 +-  0.0    0.13   1.02   +-         +-0.0                 m i ke

PYRENEES
Sta     Dist  EvAz     Phase      Date       Time     TRes  Azim  AzRes  Slow  SRes Def   SNR       Amp   Per   Mag1   Mag2       ID
ETSF  000.35 071.2 m E Pg      2011/05/28 23:06:07.3  -0.5                          T                                        4702777
ETSF  000.35 071.2 m E Sg      2011/05/28 23:06:12.7   0.3                          T                1.8  .22        Md 1.5  4702778
SJPF  000.36 334.5 m E Pg      2011/05/28 23:06:07.6  -0.3                          T                                        4702779
SJPF  000.36 334.5 m E Sg      2011/05/28 23:06:12.3  -0.4                          T                3.5  .24        Md 1.4  4702780
EPF   001.02 075.7 m E Pg      2011/05/28 23:06:20.1   0.0                          T                                        4702775
EPF   001.02 075.7 m E Sg      2011/05/28 23:06:33.4   0.0                          T                 .5  .26 Ml 1.1         4702776

.
EVENT     259791
    Date      Time       Latitude Longitude    Depth    Ndef Nsta Gap    Mag1  N    Mag2  N    Mag3  N   Author         ID
       rms   OT_Error      Smajor Sminor Az        Err   mdist  Mdist     Err        Err        Err      Quality

2011/05/28 23:23:22.1     47.1227    1.5098      2.0      26   13 115  Ml 1.8 13  Md 2.0  2              js067245    259791

      0.22   +-  0.06       1.1     .9    6.19 +-  0.0    0.78   2.23   +-0.2      +-0.0                 m i ke

FRANCE
Sta     Dist  EvAz     Phase      Date       Time     TRes  Azim  AzRes  Slow  SRes Def   SNR       Amp   Per   Mag1   Mag2       ID
HYF   000.78 078.9 m E Pg      2011/05/28 23:23:37.0   0.1                          T                                        4702794
HYF   000.78 078.9 m E Pn      2011/05/28 23:23:38.7   0.1                          T                                        4702802
HYF   000.78 078.9 m E Sg      2011/05/28 23:23:47.0  -0.1                          T                                        4702793
HYF   000.78 078.9 m E Sn      2011/05/28 23:23:50.0  -0.3                          T                                Md 2.0  4702796
TCF   000.96 149.8 m E Pg      2011/05/28 23:23:40.5   0.3                          T                                        4702806
TCF   000.96 149.8 m E Sg      2011/05/28 23:23:52.9   0.1                          T                1.3  .19 Ml 1.7 Md 2.0  4702789
BGF   001.08 121.1 m E Pg      2011/05/28 23:23:42.6   0.3                          T                                        4702804
BGF   001.08 121.1 m E Sg      2011/05/28 23:23:56.4   0.1                          T                4.4  .20 Ml 2.2         4702797
MFF   001.25 246.0 m E Pg      2011/05/28 23:23:45.7   0.3                          T                                        4702801
MFF   001.25 246.0 m E Sg      2011/05/28 23:24:01.5  -0.1                          T                1.2  .25 Ml 1.8         4702799
AVF   001.31 104.1 m E Pg      2011/05/28 23:23:46.2  -0.2                          T                                        4702805
AVF   001.31 104.1 m E Sg      2011/05/28 23:24:03.0  -0.3                          T                2.2  .22 Ml 1.9         4702795
SSF   001.37 091.8 m E Pg      2011/05/28 23:23:47.6   0.0                          T                                        4702807
SSF   001.37 091.8 m E Sg      2011/05/28 23:24:05.4   0.2                          T                1.3  .21 Ml 1.8         4702790
LOR   001.61 083.9 m E Pn      2011/05/28 23:23:50.0   0.2                          T                                        4702808
LOR   001.61 083.9 m E Pg      2011/05/28 23:23:51.9  -0.2                          T                                        4702792
LOR   001.61 083.9 m E Sg      2011/05/28 23:24:13.0   0.1                          T                1.5  .21 Ml 2.0         4702791
SMF   001.67 105.8 m E Pg      2011/05/28 23:23:53.0  -0.2                          T                                        4702788
SMF   001.67 105.8 m E Sg      2011/05/28 23:24:14.8   0.1                          T                 .9  .16 Ml 1.9         4702787
CAF   002.23 169.8 m E Pg      2011/05/28 23:24:03.1  -0.5                          T                                        4702783
CAF   002.23 169.8 m E Sn      2011/05/28 23:24:24.8   0.0                          T                                        4702782
CAF   002.23 169.8 m E Sg      2011/05/28 23:24:32.2  -0.1                          T                1.1  .28 Ml 1.9         4702781
RJF   001.82 179.9 m E Sg      2011/05/28 23:24:19.0  -0.4                          T                1.7  .20 Ml 1.8         4702800
LDF   001.84 323.9 m E Sg      2011/05/28 23:24:19.5  -0.5                          T                 .7  .20 Ml 1.7         4702798
GRR   002.04 309.3 m E Sg      2011/05/28 23:24:26.1  -0.1                          T                 .3  .17 Ml 1.4         4702784
FLN   002.12 321.5 m E Sg      2011/05/28 23:24:28.8   0.1                          T                 .4  .19 Ml 1.4         4702785

.
EVENT     259793
    Date      Time       Latitude Longitude    Depth    Ndef Nsta Gap    Mag1  N    Mag2  N    Mag3  N   Author         ID
       rms   OT_Error      Smajor Sminor Az        Err   mdist  Mdist     Err        Err        Err      Quality

2011/05/29 02:12:50.7     46.4257    2.6657      6.0 f    41   19 039  Ml 2.1 16  Md 2.3  3              js067245    259793

      1.36   +-  0.08       1.7    1.4  132.87 +-  0.0    0.18   3.99   +-0.2      +-0.2                 m i ke

FRANCE
Sta     Dist  EvAz     Phase      Date       Time     TRes  Azim  AzRes  Slow  SRes Def   SNR       Amp   Per   Mag1   Mag2       ID
BGF   000.18 043.3 m E Pg      2011/05/29 02:12:54.7   0.2                          T                                        4702821
BGF   000.18 043.3 m E Sg      2011/05/29 02:12:57.1   0.0                          T   001.0       79.2  .28        Md 2.4  4698071
TCF   000.34 246.6 m E Pg      2011/05/29 02:12:57.5   0.1                          T   001.0                                4698087
TCF   000.34 246.6 m E Sg      2011/05/29 02:13:02.1   0.0                          T   001.0        5.1  .20        Md 2.1  4698088
AVF   000.60 052.1 m E Pg      2011/05/29 02:13:02.1   0.0                          T   001.0                                4698069
AVF   000.60 052.1 m E Sg      2011/05/29 02:13:10.0   0.1                          T   001.0        5.1  .24                4698070
SMF   000.84 074.4 m E Pg      2011/05/29 02:13:06.3  -0.3                          T                                        4702824
SMF   000.84 074.4 m E Pn      2011/05/29 02:13:07.3  -0.1                          T                                        4702825
SMF   000.84 074.4 m E Sg      2011/05/29 02:13:17.3  -0.1                          T   001.0                                4698083
SMF   000.84 074.4 m E Sn      2011/05/29 02:13:19.5   0.1                          T   001.0        7.7  .20                4698084
SSF   000.86 042.0 m E Pg      2011/05/29 02:13:06.9   0.1                          T   001.0                                4698085
SSF   000.86 042.0 m E Sg      2011/05/29 02:13:18.5   0.4                          T   001.0        5.1  .20 Ml 2.2         4698086
HYF   000.84 358.8 m E P       2011/05/29 02:13:08.3   0.1                          T                                        4702822
HYF   000.84 358.8 m E Sn      2011/05/29 02:13:19.9   0.4                          T                                        4702823
LOR   001.18 043.7 m E Pg      2011/05/29 02:13:12.0  -0.7 224.6  0.0               T   001.0                                4698078
LOR   001.18 043.7 m E Sg      2011/05/29 02:13:27.9   0.0 205.6  -19.0             T   001.0        5.1  .22 Ml 2.3         4698079
RJF   001.38 216.0 m E Pn      2011/05/29 02:13:14.9   0.1                          T   001.0                                4698067
RJF   001.38 216.0 m E Pg      2011/05/29 02:13:16.4   0.0                          T                                        4702813
RJF   001.38 216.0 m E Sn      2011/05/29 02:13:32.3   0.0                          T   001.0        2.5  .24 Ml 1.7         4698068
RJF   001.38 216.0 m E Sg      2011/05/29 02:13:34.6   0.3                          T                2.7  .23 Ml 1.7         4702817
CAF   001.56 195.9 m E Pn      2011/05/29 02:13:17.1  -0.2                          T   001.0                                4698072
CAF   001.56 195.9 m E P       2011/05/29 02:13:19.2   0.0                          T                                        4702814
CAF   001.56 195.9 m E Sg      2011/05/29 02:13:39.8  -0.1                          T                3.2  .17 Ml 2.3         4702818
MFF   001.95 276.2 m E P       2011/05/29 02:13:24.9   0.2                          T   001.0                                4698081
MFF   001.95 276.2 m E Pg      2011/05/29 02:13:27.0   0.1                          T                                        4702812
MFF   001.95 276.2 m E Sn      2011/05/29 02:13:46.0   0.1                          T   001.0        2.3  .24 Ml 2.3         4698082
MFF   001.95 276.2 m E Sg      2011/05/29 02:13:52.3   0.3                          T                1.9  .21 Ml 2.3         4702816
LFF   002.01 222.9 m E Pg      2011/05/29 02:13:27.8  -0.2                          T   001.0                                4698076
LFF   002.01 222.9 m E Sg      2011/05/29 02:13:54.1   0.3                          T   001.0        4.9  .64 Ml 1.9         4698077
VIVF  002.11 137.4 m E Pg      2011/05/29 02:13:29.9   0.1                          T                                        4702815
VIVF  002.11 137.4 m E Sg      2011/05/29 02:13:56.9  -0.1                          T   001.0         .9  .20 Ml 1.9         4698093
LASF  002.50 159.9 m E Pg      2011/05/29 02:13:36.7  -0.3                          T   001.0                                4698073
LASF  002.50 159.9 m E Sg      2011/05/29 02:14:08.8  -0.3                          T   001.0        3.1  .76 Ml 1.9         4698074
SGMF  003.99 299.1 m E Pn      2011/05/29 02:13:49.1  -1.3                          T   001.0                                4698092
CABF  002.37 084.3 m E Sg      2011/05/29 02:14:05.2  -0.1                          T   001.0         .9  .32 Ml 1.7         4698089
SFTF  002.40 041.3 m E Sg      2011/05/29 02:14:06.1  -0.1 236.1  13.0              T                1.2  .25 Ml 2.0         4702811
MEZF  002.63 037.1 m E Sg      2011/05/29 02:14:13.2  -0.2 214.7  -4.2              T   001.0        2.7  .44 Ml 2.1         4698090
LDF   002.88 320.0 m E Sg      2011/05/29 02:14:21.7   0.7                          T   001.0        5.8  .92 Ml 2.2         4698075
MTLF  003.10 186.1 m E Sg      2011/05/29 02:14:27.3  -0.7                          T   001.0         .9  .28 Ml 2.0         4698091

.
EVENT     259804
    Date      Time       Latitude Longitude    Depth    Ndef Nsta Gap    Mag1  N    Mag2  N    Mag3  N   Author         ID
       rms   OT_Error      Smajor Sminor Az        Err   mdist  Mdist     Err        Err        Err      Quality

2011/05/29 03:27:37.9     42.8118   -1.0408      2.0      33    3 066  Ml 1.7  1  Md 1.8  2              js067245    259804

      0.27   +-  0.05       1.0     .8   33.81 +-  0.0    0.12   2.15   +-         +-0.1                 m i ke

PYRENEES
Sta     Dist  EvAz     Phase      Date       Time     TRes  Azim  AzRes  Slow  SRes Def   SNR       Amp   Per   Mag1   Mag2       ID
ETSF  000.36 076.1 m E Pg      2011/05/29 03:27:44.5  -0.6                          T                                        4702828
ETSF  000.36 076.1 m E Sg      2011/05/29 03:27:49.7  -0.3                          T                8.6  .23        Md 1.7  4702829
SJPF  000.33 335.9 m E Pg      2011/05/29 03:27:44.6   0.3                          T                                        4702830
SJPF  000.33 335.9 m E Sg      2011/05/29 03:27:49.4   0.5                          T               13.5  .22        Md 1.9  4702831
EPF   001.04 077.4 m E Pg      2011/05/29 03:27:57.0  -0.5                          T                                        4702826
EPF   001.04 077.4 m E Sg      2011/05/29 03:28:10.8  -0.1                          T                1.6  .19 Ml 1.7         4702827

.
EVENT     259805
    Date      Time       Latitude Longitude    Depth    Ndef Nsta Gap    Mag1  N    Mag2  N    Mag3  N   Author         ID
       rms   OT_Error      Smajor Sminor Az        Err   mdist  Mdist     Err        Err        Err      Quality

2011/05/29 03:47:01.6     42.7427   -1.1610      2.0      39    4 082  Ml 1.5  2  Md 1.8  2              js067245    259805

      0.30   +-  0.05       1.1     .8   39.50 +-  0.0    0.01   2.55   +-0.4      +-0.0                 m i ke

PYRENEES
Sta     Dist  EvAz     Phase      Date       Time     TRes  Azim  AzRes  Slow  SRes Def   SNR       Amp   Per   Mag1   Mag2       ID
SJPF  000.37 352.8 m E Pg      2011/05/29 03:47:08.7  -0.1                          T                                        4702837
SJPF  000.37 352.8 m E Sg      2011/05/29 03:47:14.0   0.1                          T                3.6  .25        Md 1.8  4702838
ETSF  000.47 070.4 m E Pg      2011/05/29 03:47:10.9   0.1                          T                                        4702835
ETSF  000.47 070.4 m E Sg      2011/05/29 03:47:17.1   0.2                          T                1.9  .20        Md 1.8  4702836
EPF   001.14 074.9 m E Pg      2011/05/29 03:47:22.9  -0.1                          T                                        4702833
EPF   001.14 074.9 m E Sg      2011/05/29 03:47:37.8   0.0                          T                1.8  .23 Ml 1.8         4702834
MTLF  002.55 075.3 m E Sg      2011/05/29 03:48:21.5  -0.2                          T                 .2  .25 Ml 1.2         4702832

.
EVENT     259814
    Date      Time       Latitude Longitude    Depth    Ndef Nsta Gap    Mag1  N    Mag2  N    Mag3  N   Author         ID
       rms   OT_Error      Smajor Sminor Az        Err   mdist  Mdist     Err        Err        Err      Quality

2011/05/29 05:42:30.8     43.0923    -.5061      2.0       6    3 182             Md 1.2  2              js067245    259814

      0.09   +-  0.06       1.7     .9    5.15 +-  0.0    0.14   0.62              +-0.2                 m i ke

PYRENEES
Sta     Dist  EvAz     Phase      Date       Time     TRes  Azim  AzRes  Slow  SRes Def   SNR       Amp   Per   Mag1   Mag2       ID
ETSF  000.20 191.4 m E Pg      2011/05/29 05:42:34.9   0.0                          T                                        4702841
ETSF  000.20 191.4 m E Sg      2011/05/29 05:42:37.5  -0.1                          T                2.4  .20        Md 1.3  4702842
SJPF  000.53 272.5 m E Pg      2011/05/29 05:42:40.7  -0.1                          T                                        4702839
SJPF  000.53 272.5 m E Sg      2011/05/29 05:42:47.9   0.0                          T                 .9  .24        Md 1.1  4702840
EPF   000.62 095.4 m E Pg      2011/05/29 05:42:42.7   0.0                          T                                        4702844
EPF   000.62 095.4 m E Sg      2011/05/29 05:42:50.8  -0.1                          T                 .4  .21                4702845

.
EVENT     259794
    Date      Time       Latitude Longitude    Depth    Ndef Nsta Gap    Mag1  N    Mag2  N    Mag3  N   Author         ID
       rms   OT_Error      Smajor Sminor Az        Err   mdist  Mdist     Err        Err        Err      Quality

2011/05/29 05:48:42.7     43.5911    7.6287      2.0      11    5 280  Ml 1.8  3  Md 1.6  2              js067245    259794

      0.23   +-  0.30       5.5    2.5  104.07 +-  0.0    0.31   1.83   +-0.4      +-0.1                 m i ke

NEAR SOUTH COAST OF FRANCE
Sta     Dist  EvAz     Phase      Date       Time     TRes  Azim  AzRes  Slow  SRes Def   SNR       Amp   Per   Mag1   Mag2       ID
SBF   000.31 332.8 m E Pg      2011/05/29 05:48:49.0   0.2                          T                                        4702855
SBF   000.31 332.8 m E Sg      2011/05/29 05:48:52.3  -0.5                          T               14.6  .19        Md 1.7  4702856
FRF   000.71 267.9 m E Pg      2011/05/29 05:48:55.8  -0.3                          T                                        4702850
FRF   000.71 267.9 m E Sg      2011/05/29 05:49:05.9   0.3                          T                1.8  .21        Md 1.6  4702851
LMR   000.85 252.9 m E Pg      2011/05/29 05:48:58.8   0.1                          T                                        4702852
LMR   000.85 252.9 m E Pn      2011/05/29 05:49:00.1   0.0                          T                                        4702853
LMR   000.85 252.9 m E Sg      2011/05/29 05:49:11.4   1.5                          T                8.4  .26 Ml 2.3         4702854
SMRF  001.54 285.2 m E Pg      2011/05/29 05:49:11.4   0.0                          T                                        4702848
SMRF  001.54 285.2 m E Sn      2011/05/29 05:49:29.2   0.4                          T                1.1  .21 Ml 1.8         4702849
ORIF  001.83 317.2 m E Pg      2011/05/29 05:49:16.8   0.0                          T                                        4702846
ORIF  001.83 317.2 m E Sg      2011/05/29 05:49:40.4   0.0                          T                 .5  .23 Ml 1.5         4702847

.
