EVENT     262716
    Date      Time       Latitude Longitude    Depth    Ndef Nsta Gap    Mag1  N    Mag2  N    Mag3  N   Author         ID
       rms   OT_Error      Smajor Sminor Az        Err   mdist  Mdist     Err        Err        Err      Quality

2011/08/18 22:33:40.8     45.0115    9.2551     10.0 f    37   20 171  Ml 2.3 15                         js067245    262716

      0.73   +-  0.22       5.4    2.9   76.52 +-  0.0    0.28   5.10   +-0.4                            m i ke

NORTHERN ITALY
Sta     Dist  EvAz     Phase      Date       Time     TRes  Azim  AzRes  Slow  SRes Def   SNR       Amp   Per   Mag1   Mag2       ID
SBF   001.74 229.3 m E Pn      2011/08/18 22:34:09.7   0.3                          T                                        4739332
SBF   001.74 229.3 m E Sn      2011/08/18 22:34:31.6   1.3                          T                9.1  .26 Ml 2.7         4739307
LPL   001.85 286.7 m E Pn      2011/08/18 22:34:10.7  -0.6                          T                                        4739341
LPL   001.85 286.7 m E Sn      2011/08/18 22:34:32.4  -0.9                          T                2.2  .25 Ml 2.1         4739311
LPG   001.83 286.3 m E Pn      2011/08/18 22:34:11.1   0.0                          T                                        4739342
LPG   001.83 286.3 m E Sn      2011/08/18 22:34:31.3  -1.7                          T                3.1  .24 Ml 2.3         4739310
FRF   002.37 233.2 m E Pn      2011/08/18 22:34:18.1   0.1                          T                                        4739330
FRF   002.37 233.2 m E Sn      2011/08/18 22:34:46.5   1.2                          T                  1  .19 Ml 2.0         4739309
ORIF  002.40 269.0 m E Pn      2011/08/18 22:34:18.9   0.4                          T                                        4739340
ORIF  002.40 269.0 m E Sn      2011/08/18 22:34:46.2   0.0                          T                 .8  .20 Ml 1.9         4739312
PGF   002.47 184.4 m E Pn      2011/08/18 22:34:19.3  -0.2                          T                                        4739333
PGF   002.47 184.4 m E Sn      2011/08/18 22:34:46.9  -1.0                          T                                        4739306
LMR   002.59 230.6 m E Pn      2011/08/18 22:34:20.7  -0.3                          T                                        4739331
LMR   002.59 230.6 m E Sn      2011/08/18 22:34:51.4   0.8                          T                1.5  .22 Ml 2.2         4739308
CABF  002.73 307.0 m E Pn      2011/08/18 22:34:22.7  -0.4                          T                                        4739326
HINF  003.26 330.2 m E Pn      2011/08/18 22:34:29.9  -0.2                          T                                        4739325
HINF  003.26 330.2 m E Sn      2011/08/18 22:35:07.8   1.1                          T                1.5  .24 Ml 2.3         4739315
HAU   003.61 327.2 m E Pn      2011/08/18 22:34:34.4  -0.5                          T                                        4739324
HAU   003.61 327.2 m E Sn      2011/08/18 22:35:16.8   1.8                          T                9.9  .27 Ml 2.9         4739316
CDF   003.66 338.9 m E Pn      2011/08/18 22:34:35.3  -0.5                          T                                        4739320
THEF  003.92 326.2 m E Pn      2011/08/18 22:34:39.6   0.4                          T                                        4739323
SMF   004.12 295.3 m E Pn      2011/08/18 22:34:41.4  -0.5                          T                                        4739328
SMF   004.12 295.3 m E Sn      2011/08/18 22:35:26.7  -0.6                          T                1.2  .20 Ml 2.4         4739314
PAGF  004.29 326.9 m E Pn      2011/08/18 22:34:45.1   0.9                          T                                        4739321
SFTF  004.32 319.2 m E Pn      2011/08/18 22:34:45.2   0.6                          T                                        4739322
LOR   004.38 303.0 m E Pn      2011/08/18 22:34:45.2  -0.2                          T                                        4739319
LOR   004.38 303.0 m E Sn      2011/08/18 22:35:34.0   0.6                          T                2.4  .24 Ml 2.7         4739318
AVF   004.49 295.4 m E Pn      2011/08/18 22:34:46.3  -0.5                          T                                        4739327
BGF   004.74 291.3 m E Pn      2011/08/18 22:34:49.9  -0.4                          T                                        4739329
VIVF  003.26 268.9 m E Sn      2011/08/18 22:35:05.4  -1.3                          T                 .7  .21 Ml 2.0         4739313
TCF   005.10 287.0 m E Sn      2011/08/18 22:35:51.5   0.8                          T                1.6  .22 Ml 2.8         4739317

.
EVENT     262799
    Date      Time       Latitude Longitude    Depth    Ndef Nsta Gap    Mag1  N    Mag2  N    Mag3  N   Author         ID
       rms   OT_Error      Smajor Sminor Az        Err   mdist  Mdist     Err        Err        Err      Quality

2011/08/18 23:43:27.3     42.5221   12.9942      2.0      12    6 192  Ml 2.3  3                         js067245    262799

      0.14   +-  0.11       3.6    1.5   52.06 +-  0.0    0.27   7.13   +-0.4                            m i ke

CENTRAL ITALY
Sta     Dist  EvAz     Phase      Date       Time     TRes  Azim  AzRes  Slow  SRes Def   SNR       Amp   Per   Mag1   Mag2       ID
PGF   002.95 271.9 m E P       2011/08/18 23:44:16.3   0.0                          T                                        4748092
PGF   002.95 271.9 m E Sn      2011/08/18 23:44:47.5   0.1                          T                  1  .27 Ml 2.2         4748094
SBF   004.28 290.1 m E Pn      2011/08/18 23:44:32.0   0.6                          T                                        4748090
FRF   004.77 284.7 m E Pn      2011/08/18 23:44:37.8  -0.2                          T                                        4748085
FRF   004.77 284.7 m E Sn      2011/08/18 23:45:30.5   0.0                          T                 .4  .31 Ml 1.9         4748093
LMR   004.83 281.9 m E Pn      2011/08/18 23:44:38.9   0.0                          T                                        4748091
SMRF  005.61 287.5 m E Pn      2011/08/18 23:44:49.8   0.3                          T                                        4748096
CDF   007.13 327.7 m E Pn      2011/08/18 23:45:10.3   0.0                          T                                        4748086
CDF   007.13 327.7 m E Sn      2011/08/18 23:46:27.3   0.1                          T                 .8  .38 Ml 2.7         4748095

.
EVENT     262739
    Date      Time       Latitude Longitude    Depth    Ndef Nsta Gap    Mag1  N    Mag2  N    Mag3  N   Author         ID
       rms   OT_Error      Smajor Sminor Az        Err   mdist  Mdist     Err        Err        Err      Quality

2011/08/19 03:14:17.5     42.5678   12.9978      2.0     112   16 028  Ml 2.7  7                         js067245    262739

      0.73   +-  0.08       2.4    1.7   37.94 +-  0.0    0.05   9.32   +-0.4                            m i ke

CENTRAL ITALY
Sta     Dist  EvAz     Phase      Date       Time     TRes  Azim  AzRes  Slow  SRes Def   SNR       Amp   Per   Mag1   Mag2       ID
PTF   001.98 315.3 m E P       2011/08/19 03:14:52.6   0.1                          T                                        4737432
PGF   002.95 271.0 m E P       2011/08/19 03:15:06.9   0.4                          T                                        4739363
PGF   002.95 271.0 m E Sg      2011/08/19 03:15:49.8  -0.5                          T                6.4  .45 Ml 2.8         4739354
SBF   004.27 289.5 m E P       2011/08/19 03:15:25.1   0.0                          T                                        4739362
FRF   004.76 284.2 m E P       2011/08/19 03:15:31.6  -0.4                          T                                        4739361
LMR   004.82 281.3 m E P       2011/08/19 03:15:32.0  -0.9                          T                                        4739364
LMR   004.82 281.3 m E Sn      2011/08/19 03:16:21.4  -0.7                          T                 .3  .23 Ml 2.0         4739353
LPL   005.39 305.3 m E P       2011/08/19 03:15:40.9  -0.3                          T                                        4739348
LPL   005.39 305.3 m E Sn      2011/08/19 03:16:36.1   0.1                          T                3.4  .37 Ml 2.9         4739349
SMRF  005.60 287.1 m E P       2011/08/19 03:15:44.6   0.7                          T                                        4739360
ORIF  005.67 296.9 m E P       2011/08/19 03:15:45.4   0.4                          T                                        4739359
CABF  006.38 311.7 m E P       2011/08/19 03:15:54.5  -0.4                          T                                        4739356
HINF  006.81 322.5 m E Pn      2011/08/19 03:15:56.3   0.2                          T                                        4739343
HAU   007.18 321.5 m E Pn      2011/08/19 03:16:01.5   0.4                          T                                        4739358
HAU   007.18 321.5 m E Sn      2011/08/19 03:17:18.4   0.0                          T                7.9  .45 Ml 3.3         4739344
CDF   007.09 327.5 m E P       2011/08/19 03:16:05.0  -0.1                          T                                        4739355
CAF   008.26 290.3 m E P       2011/08/19 03:16:20.8  -0.4                          T                                        4739357
LPG   005.37 305.2 m E Sn      2011/08/19 03:16:35.7   0.1                          T                1.0  .26 Ml 2.5         4739350
EPF   009.32 277.1 m E Pg      2011/08/19 03:17:08.1  -1.4                          T                                        4739352
LOR   008.01 309.1 m E Sn      2011/08/19 03:17:38.3   0.1                          T                1.8  .41 Ml 3.1         4739351

.
EVENT     262740
    Date      Time       Latitude Longitude    Depth    Ndef Nsta Gap    Mag1  N    Mag2  N    Mag3  N   Author         ID
       rms   OT_Error      Smajor Sminor Az        Err   mdist  Mdist     Err        Err        Err      Quality

2011/08/19 08:44:49.0     48.3575   -3.0107      5.0 f    13    6 172  Ml 1.6  3  Md 1.8  2              js067245    262740

      0.33   +-  0.06       1.2    1.0  177.63 +-  0.0    0.18   1.94   +-0.3      +-0.1                 m i ke

FRANCE
Sta     Dist  EvAz     Phase      Date       Time     TRes  Azim  AzRes  Slow  SRes Def   SNR       Amp   Per   Mag1   Mag2       ID
ROSF  000.18 263.2 m E Pg      2011/08/19 08:44:52.9   0.1                          T                                        4739374
ROSF  000.18 263.2 m E Sg      2011/08/19 08:44:55.1  -0.2                          T               11.9  .21        Md 1.7  4739375
SGMF  000.32 108.7 m E Pg      2011/08/19 08:44:55.2   0.0                          T                                        4739372
SGMF  000.32 108.7 m E Sg      2011/08/19 08:44:59.6   0.0                          T                 .6  .17        Md 1.8  4739373
QUIF  000.45 193.3 m E Pg      2011/08/19 08:44:57.1  -0.6                          T                                        4739370
QUIF  000.45 193.3 m E Sg      2011/08/19 08:45:03.2  -0.6                          T                  1  .18                4739371
GRR   001.44 088.0 m E Pn      2011/08/19 08:45:14.2   0.2                          T                                        4739366
GRR   001.44 088.0 m E Sg      2011/08/19 08:45:34.4   0.0                          T                1.8  .21 Ml 1.8         4739367
LDF   001.94 081.9 m E Pn      2011/08/19 08:45:20.6  -0.2                          T                                        4739365
LDF   001.94 081.9 m E Sg      2011/08/19 08:45:49.9   0.0                          T                 .3  .20 Ml 1.3         4739368
FLN   001.73 075.5 m E Sg      2011/08/19 08:45:43.7   0.2                          T                1.9  .28 Ml 1.8         4739369

.
EVENT     262737
    Date      Time       Latitude Longitude    Depth    Ndef Nsta Gap    Mag1  N    Mag2  N    Mag3  N   Author         ID
       rms   OT_Error      Smajor Sminor Az        Err   mdist  Mdist     Err        Err        Err      Quality

2011/08/19 08:57:50.7     48.4757    8.1658     10.0      25    8 050  Ml 2.1  5  Md 1.7  2              js067245    262737

      0.32   +-  0.04        .8     .8  105.40 +-  0.0    0.03   3.14   +-0.2      +-0.0                 m i ke

GERMANY
Sta     Dist  EvAz     Phase      Date       Time     TRes  Azim  AzRes  Slow  SRes Def   SNR       Amp   Per   Mag1   Mag2       ID
LANF  000.56 334.8 m E Pg      2011/08/19 08:58:01.5   0.1                          T                                        4748378
LANF  000.56 334.8 m E Sg      2011/08/19 08:58:09.1   0.2                          T                                        4748377
LANF  000.56 334.8 m E Sn      2011/08/19 08:58:11.3  -0.7                          T               14.7  .19        Md 1.7  4739388
CDF   000.60 264.2 m E Pg      2011/08/19 08:58:02.2   0.0                          T                                        4739389
CDF   000.60 264.2 m E Sg      2011/08/19 08:58:10.2   0.1                          T               11.1  .21        Md 1.7  4739390
HINF  001.10 233.6 m E Pg      2011/08/19 08:58:11.3   0.0                          T                                        4739384
HINF  001.10 233.6 m E Sn      2011/08/19 08:58:24.1  -0.8                          T                                        4748375
HINF  001.10 233.6 m E Sg      2011/08/19 08:58:25.7   0.1                          T                4.7  .22 Ml 2.2         4739386
HAU   001.30 249.5 m E Pn      2011/08/19 08:58:12.7  -0.7                          T                                        4739385
HAU   001.30 249.5 m E Pg      2011/08/19 08:58:15.0  -0.1                          T                                        4748376
HAU   001.30 249.5 m E Sg      2011/08/19 08:58:32.1   0.1                          T                5.5  .18 Ml 2.2         4739387
MEZF  002.07 271.9 m E Pn      2011/08/19 08:58:23.4  -0.4                          T                                        4748373
SFTF  002.10 263.8 m E Pn      2011/08/19 08:58:23.8  -0.4                          T                                        4748374
PAGF  001.62 273.7 m E Sg      2011/08/19 08:58:42.1   0.1                          T                1.1  .26 Ml 1.7         4739383
LOR   003.14 249.0 m E Pg      2011/08/19 08:58:48.9   0.0                          T                                        4739380
LOR   003.14 249.0 m E Sg      2011/08/19 08:59:28.9  -0.4                          T                1.4  .26 Ml 2.2         4739381

.
EVENT     262741
    Date      Time       Latitude Longitude    Depth    Ndef Nsta Gap    Mag1  N    Mag2  N    Mag3  N   Author         ID
       rms   OT_Error      Smajor Sminor Az        Err   mdist  Mdist     Err        Err        Err      Quality

2011/08/19 12:46:52.2     46.0318    2.5114       .0 f    23   10 069  Ml 2.0 10  Md 2.0  3              js067245    262741

      0.28   +-  0.06       1.4     .9  142.39 +-  0.0    0.21   1.93   +-0.2      +-0.2                 m i km

FRANCE
Sta     Dist  EvAz     Phase      Date       Time     TRes  Azim  AzRes  Slow  SRes Def   SNR       Amp   Per   Mag1   Mag2       ID
TCF   000.33 320.9 m E Pg      2011/08/19 12:46:58.8   0.0                          T                                        4739415
TCF   000.33 320.9 m E Sg      2011/08/19 12:47:04.6   1.1                          T                4.4  .22        Md 1.8  4739414
BGF   000.58 023.7 m E Pg      2011/08/19 12:47:03.6   0.2                          T                                        4739408
BGF   000.58 023.7 m E Sg      2011/08/19 12:47:10.7  -0.4                          T               10.2  .30        Md 2.1  4739399
AVF   000.96 037.2 m E Pg      2011/08/19 12:47:10.5   0.2                          T                                        4739407
AVF   000.96 037.2 m E Sg      2011/08/19 12:47:23.4   0.4                          T                1.7  .20 Ml 1.7         4739401
RJF   001.01 224.2 m E Pg      2011/08/19 12:47:11.4   0.1                          T                                        4739396
RJF   001.01 224.2 m E Sg      2011/08/19 12:47:25.5   0.9                          T                3.4  .19 Ml 1.7         4739395
SMF   001.11 055.9 m E Pg      2011/08/19 12:47:13.0  -0.2                          T                                        4739406
SMF   001.11 055.9 m E Sg      2011/08/19 12:47:28.0   0.3                          T                2.1  .21 Ml 1.9         4739400
CAF   001.15 196.0 m E Pg      2011/08/19 12:47:13.9  -0.1                          T                                        4739397
CAF   001.15 196.0 m E Sg      2011/08/19 12:47:29.3   0.2                          T                4.7  .21 Ml 2.2         4739394
SSF   001.24 033.3 m E Pg      2011/08/19 12:47:15.4  -0.2                          T                                        4739405
SSF   001.24 033.3 m E Sg      2011/08/19 12:47:32.0   0.3                          T                1.8  .20 Ml 1.9         4739403
LOR   001.55 036.4 m E Pg      2011/08/19 12:47:21.4   0.1                          T                                        4739404
LOR   001.55 036.4 m E Sg      2011/08/19 12:47:41.8   0.4                          T                1.7  .18 Ml 2.0         4739402
MFF   001.93 288.2 m E Pg      2011/08/19 12:47:28.1  -0.1                          T                                        4739393
MFF   001.93 288.2 m E Sg      2011/08/19 12:47:53.6   0.3                          T                1.6  .22 Ml 2.2         4739392
VIVF  001.92 126.9 m E Sg      2011/08/19 12:47:52.7  -0.5                          T                1.5  .25 Ml 2.0         4739391

.
