EVENT     288898
    Date      Time       Latitude Longitude    Depth    Ndef Nsta Gap    Mag1  N    Mag2  N    Mag3  N   Author         ID
       rms   OT_Error      Smajor Sminor Az        Err   mdist  Mdist     Err        Err        Err      Quality

2012/12/22 21:23:57.4     44.0347    7.7605     10.0     106   21 065  Ml 2.8 21  Md 2.9  2              bulletin    288998
                                                                                                         _ldg
      0.62   +-  0.06       1.1    1.0   10.53 +-  0.0    0.04   4.58   +-0.4      +-0.2                 m i ke

NORTHERN ITALY
Sta     Dist  EvAz     Phase      Date       Time     TRes  Azim  AzRes  Slow  SRes Def   SNR       Amp   Per   Mag1   Mag2       ID
SBF   000.29 234.0 m E Pg      2012/12/22 21:24:03.5   0.1                          T                                        5145397
SBF   000.29 234.0 m E Sg      2012/12/22 21:24:07.6   0.2                          T              848.2  .44        Md 3.0  5145396
MBDF  000.99 314.6 m E Pg      2012/12/22 21:24:16.3   0.1                          T                                        5145392
MBDF  000.99 314.6 m E Sg      2012/12/22 21:24:29.2   0.1                          T               80.4  .34 Ml 3.2 Md 2.8  5145386
LMR   001.15 232.8 m E Pg      2012/12/22 21:24:19.2   0.3                          T                                        5145395
LMR   001.15 232.8 m E Sg      2012/12/22 21:24:33.9   0.1                          T              122.0  .32 Ml 3.5         5145385
PGF   001.74 148.2 m E Pn      2012/12/22 21:24:25.8  -0.3                          T                                        5145384
PGF   001.74 148.2 m E Sn      2012/12/22 21:24:46.6  -0.4                          T               20.1  .22 Ml 3.3         5145383
LPG   001.63 334.2 m E Pg      2012/12/22 21:24:26.9  -1.2                          T                                        5145393
LPG   001.63 334.2 m E Sg      2012/12/22 21:24:48.1  -1.1                          T               26.7  .48 Ml 2.8         5145382
SMRF  001.58 268.6 m E Pg      2012/12/22 21:24:26.9   0.0                          T                                        5145394
SMRF  001.58 268.6 m E Sn      2012/12/22 21:24:42.9  -0.2                          T                                        5145390
SMRF  001.58 268.6 m E Sg      2012/12/22 21:24:47.6   0.4                          T               54.7  .34 Ml 3.3         5145391
LPL   001.65 334.1 m E Pg      2012/12/22 21:24:27.4  -1.1                          T                                        5145389
LPL   001.65 334.1 m E Sn      2012/12/22 21:24:44.7  -0.4                          T                                        5145380
LPL   001.65 334.1 m E Sg      2012/12/22 21:24:49.3  -0.6                          T               16.9  .33 Ml 2.8         5145381
ORIF  001.61 303.9 m E Pg      2012/12/22 21:24:27.7   0.2                          T                                        5145388
ORIF  001.61 303.9 m E Sn      2012/12/22 21:24:43.7  -0.2                          T                                        5145379
ORIF  001.61 303.9 m E Sg      2012/12/22 21:24:48.3   0.0                          T               26.9  .28 Ml 3.1         5145387
VIVF  002.36 291.4 m E P       2012/12/22 21:24:37.7   0.7                          T                                        5145366
VIVF  002.36 291.4 m E Sn      2012/12/22 21:25:01.8   0.0                          T                                        5145378
VIVF  002.36 291.4 m E S       2012/12/22 21:25:07.7   1.2                          T                                        5145364
VIVF  002.36 291.4 m E Sg      2012/12/22 21:25:11.7   0.0                          T                8.9  .28 Ml 2.8         5145365
LASF  002.81 272.2 m E P       2012/12/22 21:24:43.2  -0.3                          T                                        5145361
LASF  002.81 272.2 m E S       2012/12/22 21:25:17.0  -1.0                          T                                        5145363
LASF  002.81 272.2 m E Sg      2012/12/22 21:25:25.9   0.1                          T                4.5  .34 Ml 2.5         5145362
CABF  002.83 336.0 m E P       2012/12/22 21:24:44.3   0.5                          T                                        5145346
CABF  002.83 336.0 m E Pg      2012/12/22 21:24:49.7  -0.4                          T                                        5145345
CABF  002.83 336.0 m E Sn      2012/12/22 21:25:12.8  -0.4                          T                                        5145344
CABF  002.83 336.0 m E Sg      2012/12/22 21:25:26.5   0.0                          T                5.6  .38 Ml 2.6         5145343
HINF  003.84 350.8 m E Pn      2012/12/22 21:24:54.0  -0.6                          T                                        5145342
HINF  003.84 350.8 m E Pg      2012/12/22 21:25:08.2  -0.3                          T                                        5145341
HINF  003.84 350.8 m E Sn      2012/12/22 21:25:36.7  -0.4                          T                                        5145340
HINF  003.84 350.8 m E S       2012/12/22 21:25:43.2  -0.8                          T                                        5145339
HINF  003.84 350.8 m E Sg      2012/12/22 21:25:57.5  -0.2                          T                1.5  .30 Ml 2.3         5145338
HAU   004.09 346.6 m E Pn      2012/12/22 21:24:57.9  -0.1                          T                                        5145337
HAU   004.09 346.6 m E P       2012/12/22 21:25:01.4  -0.2                          T                                        5145336
HAU   004.09 346.6 m E Pg      2012/12/22 21:25:12.5  -0.6                          T                                        5145335
HAU   004.09 346.6 m E Sn      2012/12/22 21:25:43.6   0.5                          T                7.4  .30 Ml 2.8         5145333
HAU   004.09 346.6 m E S       2012/12/22 21:25:49.8  -0.6                          T                                        5145334
SMF   003.80 314.7 m E P       2012/12/22 21:24:58.0   0.5                          T                                        5145352
SMF   003.80 314.7 m E S       2012/12/22 21:25:42.8  -0.2                          T                                        5145351
AVF   004.15 313.1 m E Pn      2012/12/22 21:24:58.1  -0.7                          T                                        5145348
AVF   004.15 313.1 m E P       2012/12/22 21:25:03.5   1.0                          T                                        5145349
AVF   004.15 313.1 m E S       2012/12/22 21:25:51.0  -0.8                          T                                        5145350
AVF   004.15 313.1 m E Sg      2012/12/22 21:26:07.3  -0.1                          T                 .9  .29 Ml 2.2         5145347
MTLF  004.08 262.1 m E P       2012/12/22 21:25:00.6  -0.9                          T                                        5145360
MTLF  004.08 262.1 m E Sn      2012/12/22 21:25:42.8   0.0                          T                                        5145359
MTLF  004.08 262.1 m E S       2012/12/22 21:25:49.8  -0.3                          T                                        5145358
MTLF  004.08 262.1 m E Sg      2012/12/22 21:26:05.8   0.5                          T                 .8  .26 Ml 2.1         5145357
CAF   004.17 284.3 m E P       2012/12/22 21:25:02.6  -0.2                          T                                        5145356
LOR   004.24 321.1 m E P       2012/12/22 21:25:03.5  -0.2 140.9  2.6               T                                        5145327
LOR   004.24 321.1 m E Sn      2012/12/22 21:25:46.4  -0.2                          T                                        5145329
LOR   004.24 321.1 m E S       2012/12/22 21:25:52.9  -1.2 139.1  0.7               T                                        5145328
SSF   004.25 316.9 m E P       2012/12/22 21:25:04.0   0.0                          T                                        5145326
SSF   004.25 316.9 m E S       2012/12/22 21:25:53.0  -1.5                          T                                        5145325
SSF   004.25 316.9 m E Sg      2012/12/22 21:26:10.6   0.0                          T                2.8  .43 Ml 2.6         5145324
BGF   004.29 307.8 m E P       2012/12/22 21:25:04.1  -0.3                          T                                        5145355
BGF   004.29 307.8 m E Sn      2012/12/22 21:25:47.8   0.0                          T                                        5145354
BGF   004.29 307.8 m E Sg      2012/12/22 21:26:11.5  -0.3                          T               11.6  .58 Ml 3.0         5145353
SFTF  004.58 336.6 m E Pn      2012/12/22 21:25:04.3  -0.4                          T                                        5145330
SFTF  004.58 336.6 m E Sn      2012/12/22 21:25:54.5  -0.3                          T                                        5145331
SFTF  004.58 336.6 m E S       2012/12/22 21:26:02.4  -0.3                          T                                        5145332
SFTF  004.58 336.6 m E Sg      2012/12/22 21:26:20.6  -0.3                          T                1.2  .27 Ml 2.4         5145323

.
EVENT     288900
    Date      Time       Latitude Longitude    Depth    Ndef Nsta Gap    Mag1  N    Mag2  N    Mag3  N   Author         ID
       rms   OT_Error      Smajor Sminor Az        Err   mdist  Mdist     Err        Err        Err      Quality

2012/12/23 01:42:40.3     44.8272    8.8976     10.0 f    91   22 115  Ml 2.9 26                         bulletin    289000
                                                                                                         _ldg
      0.57   +-  0.06       1.3    1.1   51.41 +-  0.0    0.36   5.04   +-0.3                            m i ke

NORTHERN ITALY
Sta     Dist  EvAz     Phase      Date       Time     TRes  Azim  AzRes  Slow  SRes Def   SNR       Amp   Per   Mag1   Mag2       ID
SBF   001.42 227.9 m E Pn      2012/12/23 01:43:04.9   0.2                          T                                        5145566
SBF   001.42 227.9 m E Sn      2012/12/23 01:43:21.9  -0.4                          T               83.3  .23 Ml 3.6         5145565
MBDF  001.52 267.0 m E Pn      2012/12/23 01:43:05.1  -0.9                          T                                        5145564
MBDF  001.52 267.0 m E Pg      2012/12/23 01:43:07.4  -1.4                          T                                        5145558
MBDF  001.52 267.0 m E Sn      2012/12/23 01:43:23.4  -1.2                          T                                        5145554
MBDF  001.52 267.0 m E Sg      2012/12/23 01:43:26.4  -2.0                          T               28.6  .24 Ml 3.1         5145555
LPG   001.66 294.6 m E Pn      2012/12/23 01:43:07.8  -0.3                          T                                        5145563
LPG   001.66 294.6 m E Sn      2012/12/23 01:43:27.9  -0.3                          T               26.3  .30 Ml 3.1         5145523
LPL   001.68 295.0 m E Pn      2012/12/23 01:43:08.2  -0.2                          T                                        5145562
LPL   001.68 295.0 m E Sn      2012/12/23 01:43:28.4  -0.2                          T               26.8  .35 Ml 3.0         5145524
PGF   002.28 178.1 m E Pn      2012/12/23 01:43:15.4  -0.9                          T                                        5145556
PGF   002.28 178.1 m E Sn      2012/12/23 01:43:42.2  -0.5                          T                2.6  .19 Ml 2.6         5145520
ORIF  002.15 273.5 m E Pn      2012/12/23 01:43:15.7   1.2                          T                                        5145561
ORIF  002.15 273.5 m E Sn      2012/12/23 01:43:40.1   0.5                          T               33.9  .52 Ml 3.1         5145525
LMR   002.28 229.9 m E Pn      2012/12/23 01:43:16.2   0.0                          T                                        5145560
LMR   002.28 229.9 m E Pg      2012/12/23 01:43:22.5   0.0                          T                                        5145519
LMR   002.28 229.9 m E Sn      2012/12/23 01:43:43.3   0.7                          T               29.9  .24 Ml 3.4         5145521
SMRF  002.53 251.5 m E Pn      2012/12/23 01:43:20.5   0.8                          T                                        5145557
SMRF  002.53 251.5 m E Sn      2012/12/23 01:43:48.5  -0.1                          T               18.3  .30 Ml 3.1         5145522
CABF  002.66 313.2 m E Pn      2012/12/23 01:43:21.9   0.4                          T                                        5145546
CABF  002.66 313.2 m E Pg      2012/12/23 01:43:30.1   0.5                          T                                        5145518
CABF  002.66 313.2 m E Sn      2012/12/23 01:43:51.5  -0.3                          T                8.1  .27 Ml 2.8         5145543
VIVF  003.01 272.0 m E Pn      2012/12/23 01:43:26.1   0.0                          T                                        5145559
VIVF  003.01 272.0 m E Sn      2012/12/23 01:43:59.9  -0.1                          T                3.6  .18 Ml 2.7         5145527
HINF  003.31 335.4 m E Pn      2012/12/23 01:43:29.9  -0.3                          T                                        5145545
HINF  003.31 335.4 m E Pg      2012/12/23 01:43:41.6   0.0                          T                                        5145517
HINF  003.31 335.4 m E Sn      2012/12/23 01:44:07.2  -0.1                          T                                        5145542
HINF  003.31 335.4 m E Sg      2012/12/23 01:44:23.9  -0.3                          T                6.7  .40 Ml 2.7         5145541
LASF  003.69 260.0 m E Pn      2012/12/23 01:43:34.7  -0.6                          T                                        5145553
LASF  003.69 260.0 m E Sn      2012/12/23 01:44:16.3   0.0                          T                3.7  .28 Ml 2.7         5145528
HAU   003.64 331.9 m E Pn      2012/12/23 01:43:34.9   0.2                          T                                        5145544
HAU   003.64 331.9 m E Sn      2012/12/23 01:44:14.9  -0.2                          T                7.7  .26 Ml 2.8         5145540
CDF   003.76 343.3 m E Pn      2012/12/23 01:43:36.6   0.2                          T                                        5145537
CDF   003.76 343.3 m E Sn      2012/12/23 01:44:17.9  -0.2                          T                                        5145536
CDF   003.76 343.3 m E Sg      2012/12/23 01:44:38.0  -0.2                          T                5.6  .47 Ml 2.8         5145535
SMF   003.98 299.0 m E Pn      2012/12/23 01:43:39.5   0.1                          T                                        5145550
SMF   003.98 299.0 m E Sn      2012/12/23 01:44:22.9  -0.4                          T                4.8  .24 Ml 2.9         5145548
LOR   004.27 306.6 m E Pn      2012/12/23 01:43:43.4   0.0                          T                                        5145533
LOR   004.27 306.6 m E P       2012/12/23 01:43:46.9  -0.2                          T                                        5145532
LOR   004.27 306.6 m E Sn      2012/12/23 01:44:30.2  -0.1                          T               11.4  .32 Ml 3.3         5145534
SFTF  004.30 323.1 m E Pn      2012/12/23 01:43:43.6  -0.1                          T                                        5145539
SFTF  004.30 323.1 m E Sn      2012/12/23 01:44:30.9  -0.1                          T                2.0  .19 Ml 2.7         5145538
AVF   004.35 298.8 m E Pn      2012/12/23 01:43:44.4   0.1                          T                                        5145549
AVF   004.35 298.8 m E Sn      2012/12/23 01:44:31.8  -0.2                          T                3.5  .45 Ml 2.6         5145547
SSF   004.37 302.6 m E Pn      2012/12/23 01:43:44.8   0.1                          T                                        5145531
SSF   004.37 302.6 m E Sn      2012/12/23 01:44:32.3  -0.4                          T                1.9  .23 Ml 2.7         5145530
BGF   004.58 294.3 m E Pn      2012/12/23 01:43:47.8   0.3                          T                                        5145551
BGF   004.58 294.3 m E Sn      2012/12/23 01:44:37.4  -0.2                          T                8.4  .34 Ml 3.2         5145529
CAF   004.86 273.6 m E Pn      2012/12/23 01:43:51.8   0.4                          T                                        5145516
CAF   004.86 273.6 m E Sn      2012/12/23 01:44:43.9  -0.4                          T                  1  .22 Ml 2.5         5145515
MTLF  005.04 255.2 m E Pn      2012/12/23 01:43:53.7   0.0                          T                                        5145552
MTLF  005.04 255.2 m E Sn      2012/12/23 01:44:48.4  -0.1                          T                 .9  .24 Ml 2.5         5145526

.
EVENT     288901
    Date      Time       Latitude Longitude    Depth    Ndef Nsta Gap    Mag1  N    Mag2  N    Mag3  N   Author         ID
       rms   OT_Error      Smajor Sminor Az        Err   mdist  Mdist     Err        Err        Err      Quality

2012/12/23 06:01:10.1     45.3596    7.2445      4.0 f    26    7 111  Ml 1.3  5  Md 1.5  2              bulletin    289001
                                                                                                         _ldg
      0.20   +-  0.05       1.0     .8   81.81 +-  0.0    0.12   2.09   +-0.2      +-0.1                 m i ke

NORTHERN ITALY
Sta     Dist  EvAz     Phase      Date       Time     TRes  Azim  AzRes  Slow  SRes Def   SNR       Amp   Per   Mag1   Mag2       ID
LPG   000.37 291.9 m E Pg      2012/12/23 06:01:17.8   0.0                          T                                        5145582
LPG   000.37 291.9 m E Sg      2012/12/23 06:01:22.5  -0.2                          T                5.7  .21        Md 1.4  5145581
LPL   000.39 293.7 m E Pg      2012/12/23 06:01:17.9  -0.1                          T                                        5145580
LPL   000.39 293.7 m E Sg      2012/12/23 06:01:23.1  -0.1                          T                1.9  .20        Md 1.5  5145579
MBDF  000.72 208.1 m E Pg      2012/12/23 06:01:23.6  -0.2                          T                                        5145578
MBDF  000.72 208.1 m E Sg      2012/12/23 06:01:33.0  -0.2                          T                1.9  .27                5145577
ORIF  001.06 245.9 m E Pg      2012/12/23 06:01:29.9  -0.2                          T                                        5145592
ORIF  001.06 245.9 m E Sg      2012/12/23 06:01:43.9   0.0                          T                  1  .32 Ml 1.3         5145591
VIVF  001.89 255.5 m E Pn      2012/12/23 06:01:41.1  -0.3                          T                                        5145590
VIVF  001.89 255.5 m E Sn      2012/12/23 06:02:04.1  -0.2                          T                 .7  .32 Ml 1.5         5145589
SMRF  001.83 221.3 m E Pg      2012/12/23 06:01:44.2   0.1                          T                                        5163882
SMRF  001.83 221.3 m E Sg      2012/12/23 06:02:07.7   0.0                          T                 .8  .45 Ml 1.4         5145587
LMR   002.09 194.9 m E Pn      2012/12/23 06:01:44.8   0.6                          T                                        5145584
LMR   002.09 194.9 m E Sn      2012/12/23 06:02:08.6  -0.6                          T                 .2  .18 Ml 1.3         5145583

.
