EVENT     272632
    Date      Time       Latitude Longitude    Depth    Ndef Nsta Gap    Mag1  N    Mag2  N    Mag3  N   Author         ID
       rms   OT_Error      Smajor Sminor Az        Err   mdist  Mdist     Err        Err        Err      Quality

2012/03/28 23:17:03.9     38.5388   14.9954    245.0 f   191   37 023  Ml 3.3  3                         js067245    272652

      0.95   +-  0.09       2.8    2.4   26.38 +-  0.0    0.10  48.80   +-0.2                            m i ke

SICILY, ITALY
Sta     Dist  EvAz     Phase      Date       Time     TRes  Azim  AzRes  Slow  SRes Def   SNR       Amp   Per   Mag1   Mag2       ID
PGF   006.07 313.1 m E P       2012/03/28 23:18:34.2   0.5                          T                                        4898205
PGF   006.07 313.1 m E Sn      2012/03/28 23:19:43.5   0.8                          T               11.8  .96 Ml 3.4         4898314
SBF   007.79 315.4 m E P       2012/03/28 23:18:55.4  -0.1                          T                                        4898204
LMR   008.01 309.4 m E P       2012/03/28 23:18:57.4  -0.7                          T                                        4898203
FRF   008.06 311.1 m E P       2012/03/28 23:18:58.6  -0.1                          T                                        4898202
MBDF  008.72 317.7 m E P       2012/03/28 23:19:08.2   0.8                          T                                        4898197
MBDF  008.72 317.7 m E Sn      2012/03/28 23:20:44.4   0.8                          T                2.2  .56 Ml 3.1         4898312
SMRF  008.93 310.4 m E P       2012/03/28 23:19:10.1   0.2                          T                                        4898201
LPL   009.29 321.3 m E P       2012/03/28 23:19:15.3   0.6                          T                                        4898199
LPL   009.29 321.3 m E Sn      2012/03/28 23:20:57.7   0.8                          T                3.4  .64 Ml 3.3         4898313
ORIF  009.33 316.0 m E P       2012/03/28 23:19:15.4   0.4                          T                                        4898198
LPG   009.27 321.2 m E P       2012/03/28 23:19:15.8   1.3                          T                                        4898200
VIVF  009.97 312.6 m E P       2012/03/28 23:19:23.3   0.2                          T                                        4898196
LASF  010.04 307.0 m E P       2012/03/28 23:19:23.3  -0.6                          T                                        4898195
CABF  010.40 323.7 m E P       2012/03/28 23:19:27.9  -0.6                          T                                        4898179
MTLF  010.79 300.4 m E P       2012/03/28 23:19:32.6  -0.8                          T                                        4898194
HINF  011.01 330.0 m E P       2012/03/28 23:19:34.5  -1.7                          T                                        4898178
CDF   011.34 332.9 m E P       2012/03/28 23:19:39.5  -1.0                          T                                        4898175
HAU   011.36 329.2 m E P       2012/03/28 23:19:39.6  -1.0                          T                                        4898177
SMF   011.53 318.2 m E P       2012/03/28 23:19:42.0  -0.7                          T                                        4898181
CAF   011.57 307.6 m E P       2012/03/28 23:19:43.0  -0.3                          T                                        4898191
AVF   011.88 317.7 m E P       2012/03/28 23:19:46.0  -1.1                          T                                        4898180
EPF   011.98 296.6 m E P       2012/03/28 23:19:47.6  -0.7                          T                                        4898193
LOR   011.94 320.5 m E P       2012/03/28 23:19:48.0   0.2                          T                                        4898213
SSF   011.98 319.0 m E P       2012/03/28 23:19:48.7   0.4                          T                                        4898214
BGF   012.01 315.7 m E P       2012/03/28 23:19:48.8   0.1                          T                                        4898182
SFTF  012.06 326.4 m E P       2012/03/28 23:19:49.0  -0.4 129.9  -9.7              T                                        4898176
RJF   012.09 308.3 m E P       2012/03/28 23:19:49.1  -0.7                          T                                        4898189
MEZF  012.29 327.3 m E P       2012/03/28 23:19:52.6   0.5                          T                                        4898212
LFF   012.41 305.5 m E P       2012/03/28 23:19:53.6  -0.1                          T                                        4898190
ETSF  012.58 295.2 m E P       2012/03/28 23:19:56.0   0.2                          T                                        4898192
SJPF  013.10 295.5 m E P       2012/03/28 23:20:01.6  -0.7                          T                                        4898207
MFF   013.75 310.7 m E P       2012/03/28 23:20:09.8  -0.4                          T                                        4898210
BAIF  013.85 329.7 m E P       2012/03/28 23:20:11.7   0.2                          T                                        4898174
LDF   014.84 317.5 m E P       2012/03/28 23:20:21.8  -1.7                          T                                        4898188
GRR   015.12 315.7 m E P       2012/03/28 23:20:25.9  -0.9                          T                                        4898211
FLN   015.13 317.4 m E P       2012/03/28 23:20:26.6  -0.5 133.5  6.7               T                                        4898187
SGMF  016.00 313.0 m E P       2012/03/28 23:20:35.4  -1.7                          T                                        4898185
QUIF  016.19 311.2 m E P       2012/03/28 23:20:37.5  -1.7                          T                                        4898186
ROSF  016.45 312.4 m E P       2012/03/28 23:20:40.2  -2.1                          T                                        4898184

.
EVENT     272634
    Date      Time       Latitude Longitude    Depth    Ndef Nsta Gap    Mag1  N    Mag2  N    Mag3  N   Author         ID
       rms   OT_Error      Smajor Sminor Az        Err   mdist  Mdist     Err        Err        Err      Quality

2012/03/29 01:23:41.0     50.3292    7.4149     11.0 f    74   17 047  Ml 2.7 18                         js067245    272654

      1.03   +-  0.12       2.3    1.9   55.46 +-  0.0    0.13   5.23   +-0.3                            m i ke

GERMANY
Sta     Dist  EvAz     Phase      Date       Time     TRes  Azim  AzRes  Slow  SRes Def   SNR       Amp   Per   Mag1   Mag2       ID
LANF  001.37 169.2 m E Pg      2012/03/29 01:24:06.0  -0.7                          T                                        4898217
LANF  001.37 169.2 m E Sg      2012/03/29 01:24:24.6   0.0                          T               30.7  .34 Ml 2.9         4898218
GIVF  001.68 263.2 m E Pn      2012/03/29 01:24:09.4   0.7                          T                                        4898219
GIVF  001.68 263.2 m E Pg      2012/03/29 01:24:11.6  -0.7                          T                                        4898249
GIVF  001.68 263.2 m E Sg      2012/03/29 01:24:33.2  -0.9                          T               43.3  .32 Ml 3.2         4898222
CDF   001.92 182.8 m E Pn      2012/03/29 01:24:12.5   0.4                          T                                        4898256
CDF   001.92 182.8 m E Pg      2012/03/29 01:24:15.8  -1.1                          T                                        4898216
CDF   001.92 182.8 m E Sg      2012/03/29 01:24:39.5  -2.2                          T               10.5  .32 Ml 2.8         4898215
BAIF  002.08 263.8 m E Pn      2012/03/29 01:24:14.8   0.7                          T                                        4898220
BAIF  002.08 263.8 m E Pg      2012/03/29 01:24:19.2  -0.5                          T                                        4898316
BAIF  002.08 263.8 m E Sg      2012/03/29 01:24:43.9  -2.5                          T               22.6  .32 Ml 3.1         4898221
THEF  002.30 204.4 m E Pn      2012/03/29 01:24:18.3   1.1                          T                                        4898241
THEF  002.30 204.4 m E Pg      2012/03/29 01:24:21.7  -2.0                          T                                        4898315
THEF  002.30 204.4 m E Sg      2012/03/29 01:24:51.9  -1.5                          T               10.1  .20 Ml 3.0         4898228
PAGF  002.09 212.5 m E Pg      2012/03/29 01:24:19.4  -0.5  28.0  -3.2              T                                        4898239
PAGF  002.09 212.5 m E Sg      2012/03/29 01:24:47.3   0.4                          T                1.3  .22 Ml 2.0         4898234
HAU   002.43 197.2 m E Pn      2012/03/29 01:24:19.5   0.6                          T                                        4898244
HAU   002.43 197.2 m E Sg      2012/03/29 01:24:57.0  -0.5                          T                6.1  .22 Ml 2.5         4898243
MEZF  002.39 221.1 m E Pn      2012/03/29 01:24:19.7   1.3                          T                                        4898254
MEZF  002.39 221.1 m E Pg      2012/03/29 01:24:25.9   0.4  32.6  -6.6              T                                        4898255
MEZF  002.39 221.1 m E Sg      2012/03/29 01:24:57.1   0.8                          T                5.4  .30 Ml 2.6         4898248
HINF  002.54 188.6 m E Pn      2012/03/29 01:24:21.8   1.3                          T                                        4898242
HINF  002.54 188.6 m E Pg      2012/03/29 01:24:27.2  -1.1                          T                                        4898252
HINF  002.54 188.6 m E Sg      2012/03/29 01:24:59.2  -1.7                          T                6.1  .22 Ml 2.8         4898251
SFTF  002.63 217.1 m E Pn      2012/03/29 01:24:22.7   1.0                          T                                        4898240
SFTF  002.63 217.1 m E Pg      2012/03/29 01:24:30.0   0.1  30.7  -4.7              T                                        4898253
SFTF  002.63 217.1 m E Sg      2012/03/29 01:25:04.2   0.4                          T                3.9  .21 Ml 2.6         4898235
CABF  003.82 193.9 m E Pn      2012/03/29 01:24:38.3   0.3                          T                                        4898245
LOR   003.86 218.9 m E Pn      2012/03/29 01:24:38.9   0.5  30.7  -5.5              T                                        4898257
LOR   003.86 218.9 m E Pg      2012/03/29 01:24:52.1  -0.4                          T                                        4898227
LOR   003.86 218.9 m E Sn      2012/03/29 01:25:21.5   0.5                          T                2.7  .25 Ml 2.7         4898250
LOR   003.86 218.9 m E Sg      2012/03/29 01:25:41.9  -0.2                          T                2.6  .26 Ml 2.6         4898238
SMF   004.39 214.2 m E Pn      2012/03/29 01:24:46.1   0.5                          T                                        4898246
SMF   004.39 214.2 m E Sn      2012/03/29 01:25:33.4  -0.1                          T                                        4898233
SMF   004.39 214.2 m E Sg      2012/03/29 01:25:59.3   0.9                          T                1.1  .23 Ml 2.4         4898232
AVF   004.45 218.8 m E Pn      2012/03/29 01:24:46.7   0.3                          T                                        4898247
SSF   004.17 219.9 m E Pg      2012/03/29 01:24:59.3   1.1                          T                                        4898236
SSF   004.17 219.9 m E Sg      2012/03/29 01:25:52.1   0.4                          T                2.1  .30 Ml 2.6         4898237
HYF   004.40 227.7 m E Sg      2012/03/29 01:25:58.7  -0.1                          T                                        4898229
BGF   004.85 220.6 m E Sg      2012/03/29 01:26:13.4   0.6                          T                4.5  .38 Ml 2.9         4898231

.
EVENT     272635
    Date      Time       Latitude Longitude    Depth    Ndef Nsta Gap    Mag1  N    Mag2  N    Mag3  N   Author         ID
       rms   OT_Error      Smajor Sminor Az        Err   mdist  Mdist     Err        Err        Err      Quality

2012/03/29 02:43:51.9     44.5082    6.6864      2.0      33    9 047  Ml 1.6  2  Md 1.7  3              js067245    272655

      0.46   +-  0.06       1.4    1.1   53.92 +-  0.0    0.09   1.48   +-0.1      +-0.1                 m i ke

FRANCE
Sta     Dist  EvAz     Phase      Date       Time     TRes  Azim  AzRes  Slow  SRes Def   SNR       Amp   Per   Mag1   Mag2       ID
MBDF  000.23 015.5 m E Pg      2012/03/29 02:43:57.2   0.5                          T                                        4898334
MBDF  000.23 015.5 m E Sg      2012/03/29 02:44:00.2   0.4                          T                4.3  .34        Md 1.7  4898327
ORIF  000.71 305.8 m E Pg      2012/03/29 02:44:05.0  -0.3                          T                                        4898333
ORIF  000.71 305.8 m E Sg      2012/03/29 02:44:14.2  -0.4                          T                2.0  .30        Md 1.8  4898328
SBF   000.84 139.9 m E Pg      2012/03/29 02:44:07.8   0.0                          T                                        4898323
SBF   000.84 139.9 m E Sg      2012/03/29 02:44:18.7   0.0                          T                1.7  .23        Md 1.5  4898321
FRF   000.95 181.7 m E Pg      2012/03/29 02:44:10.0   0.3                          T                                        4898332
FRF   000.95 181.7 m E Sg      2012/03/29 02:44:22.4   0.4                          T                1.5  .24 Ml 1.6         4898326
FRF   000.95 181.7 m E Sn      2012/03/29 02:44:24.0   0.1                          T                                        4898320
LPL   001.01 001.8 m E Pg      2012/03/29 02:44:10.8  -0.3                          T                                        4898329
SMRF  000.96 236.7 m E Pn      2012/03/29 02:44:10.9   0.1                          T                                        4898330
SMRF  000.96 236.7 m E Sg      2012/03/29 02:44:22.1  -0.4                          T                                        4898324
SMRF  000.96 236.7 m E Sn      2012/03/29 02:44:24.9   0.7                          T                                        4898319
LMR   001.18 186.3 m E Pg      2012/03/29 02:44:14.5   0.5                          T                                        4898331
LMR   001.18 186.3 m E Sg      2012/03/29 02:44:29.7   0.5                          T                 .8  .20 Ml 1.5         4898325
VIVF  001.48 284.3 m E Pg      2012/03/29 02:44:19.8   0.3                          T                                        4898318
LPG   000.99 002.6 m E Sg      2012/03/29 02:44:24.0   0.3                          T                                        4898322

.
EVENT     272636
    Date      Time       Latitude Longitude    Depth    Ndef Nsta Gap    Mag1  N    Mag2  N    Mag3  N   Author         ID
       rms   OT_Error      Smajor Sminor Az        Err   mdist  Mdist     Err        Err        Err      Quality

2012/03/29 03:23:34.8     44.4838    6.6842      2.0      26    8 051  Ml 1.4  5  Md 1.7  2              js067245    272656

      0.76   +-  0.09       2.0    1.6   57.90 +-  0.0    0.09   1.48   +-0.2      +-0.1                 m i ke

FRANCE
Sta     Dist  EvAz     Phase      Date       Time     TRes  Azim  AzRes  Slow  SRes Def   SNR       Amp   Per   Mag1   Mag2       ID
MBDF  000.25 014.3 m E Pg      2012/03/29 03:23:39.7  -0.2                          T                                        4898347
MBDF  000.25 014.3 m E Sg      2012/03/29 03:23:44.0   0.6                          T                3.6  .32        Md 1.6  4898340
ORIF  000.72 307.4 m E Pg      2012/03/29 03:23:48.3  -0.2                          T                                        4898346
ORIF  000.72 307.4 m E Sg      2012/03/29 03:23:57.9   0.0                          T                1.2  .20        Md 1.7  4898341
FRF   000.92 181.7 m E Pg      2012/03/29 03:23:52.5   0.3                          T                                        4898345
FRF   000.92 181.7 m E Sg      2012/03/29 03:24:04.5   0.4                          T                1.3  .24 Ml 1.6         4898343
SMRF  000.95 237.9 m E Pn      2012/03/29 03:23:54.1   0.6                          T                                        4898338
SMRF  000.95 237.9 m E Sn      2012/03/29 03:24:07.2   0.4                          T                 .9  .31 Ml 1.3         4898339
LPG   001.01 002.7 m E Pg      2012/03/29 03:23:54.3   0.1                          T                                        4898337
LPL   001.03 001.9 m E Pg      2012/03/29 03:23:55.0   0.5                          T                                        4899107
LPL   001.03 001.9 m E Sg      2012/03/29 03:24:08.7   0.8                          T                 .5  .26 Ml 1.1         4899106
LMR   001.16 186.3 m E P       2012/03/29 03:23:57.3  -0.7                          T                                        4898344
LMR   001.16 186.3 m E Sg      2012/03/29 03:24:11.5   0.1                          T                1.7  .34 Ml 1.6         4898342
VIVF  001.48 285.2 m E Sg      2012/03/29 03:24:21.1  -0.6                          T                 .4  .25 Ml 1.2         4899105

.
EVENT     272637
    Date      Time       Latitude Longitude    Depth    Ndef Nsta Gap    Mag1  N    Mag2  N    Mag3  N   Author         ID
       rms   OT_Error      Smajor Sminor Az        Err   mdist  Mdist     Err        Err        Err      Quality

2012/03/29 03:25:52.8     44.5028    6.6791      2.0      24    7 073  Ml 1.3  5  Md 1.7  2              js067245    272657

      0.37   +-  0.07       1.7    1.1   73.29 +-  0.0    0.10   1.17   +-0.3      +-0.4                 m i ke

FRANCE
Sta     Dist  EvAz     Phase      Date       Time     TRes  Azim  AzRes  Slow  SRes Def   SNR       Amp   Per   Mag1   Mag2       ID
MBDF  000.23 016.4 m E Pg      2012/03/29 03:25:57.7   0.0                          T                                        4898360
MBDF  000.23 016.4 m E Sg      2012/03/29 03:26:01.0   0.1                          T                2.5  .23        Md 1.4  4898359
ORIF  000.71 306.4 m E Pg      2012/03/29 03:26:06.0  -0.3                          T                                        4898358
ORIF  000.71 306.4 m E Sg      2012/03/29 03:26:15.2  -0.3                          T                1.3  .20                4898351
FRF   000.94 181.4 m E Pg      2012/03/29 03:26:10.6   0.1                          T                                        4898353
FRF   000.94 181.4 m E Sg      2012/03/29 03:26:23.1   0.3                          T                                        4898362
FRF   000.94 181.4 m E Sn      2012/03/29 03:26:25.0   0.3                          T                1.0  .20 Ml 1.5         4898354
SMRF  000.95 236.8 m E Pg      2012/03/29 03:26:11.7   0.9                          T                                        4898352
SMRF  000.95 236.8 m E Sn      2012/03/29 03:26:24.5  -0.5                          T                 .7  .26 Ml 1.2         4898348
LPG   001.00 002.9 m E Pg      2012/03/29 03:26:11.9   0.1                          T                                        4898361
LPG   001.00 002.9 m E Sg      2012/03/29 03:26:25.7   0.9                          T                 .4  .26 Ml 1           4898349
LPL   001.01 002.1 m E Pg      2012/03/29 03:26:12.1   0.0                          T                                        4898357
LPL   001.01 002.1 m E Sg      2012/03/29 03:26:26.0   0.7                          T                 .8  .29 Ml 1.3         4898350
LMR   001.17 186.1 m E Pg      2012/03/29 03:26:15.3   0.5                          T                                        4898356
LMR   001.17 186.1 m E Sg      2012/03/29 03:26:30.4   0.4                          T                2.1  .36 Ml 1.7 Md 1.9  4898355

.
