EVENT     270402
    Date      Time       Latitude Longitude    Depth    Ndef Nsta Gap    Mag1  N    Mag2  N    Mag3  N   Author         ID
       rms   OT_Error      Smajor Sminor Az        Err   mdist  Mdist     Err        Err        Err      Quality

2012/02/19 00:30:39.5     42.3662    1.7826      4.0 f    31   10 062  Ml 2.2 11  Md 2.3  2              js067245    270422

      0.45   +-  0.07       1.4    1.2  155.85 +-  0.0    0.18   4.56   +-0.3      +-0.1                 m i ke

PYRENEES
Sta     Dist  EvAz     Phase      Date       Time     TRes  Azim  AzRes  Slow  SRes Def   SNR       Amp   Per   Mag1   Mag2       ID
EPF   001.25 302.5 m E Pg      2012/02/19 00:31:02.3  -0.7                          T                                        4842621
EPF   001.25 302.5 m E Sg      2012/02/19 00:31:18.2  -1.0                          T                7.7  .28 Ml 2.4 Md 2.4  4842622
ETSF  001.81 287.9 m E Pg      2012/02/19 00:31:13.7   0.5                          T                                        4842625
ETSF  001.81 287.9 m E Sg      2012/02/19 00:31:37.6   1.1                          T                3.9  .22 Ml 2.4 Md 2.2  4842624
LASF  002.28 040.9 m E Pn      2012/02/19 00:31:17.3   1.1                          T                                        4842631
LASF  002.28 040.9 m E Pg      2012/02/19 00:31:22.1   0.2                          T                                        4842632
LASF  002.28 040.9 m E Sg      2012/02/19 00:31:51.9   0.6                          T                1.5  .29 Ml 2.0         4842634
SJPF  002.34 289.6 m E Pg      2012/02/19 00:31:22.9   0.0                          T                                        4842627
SJPF  002.34 289.6 m E Sg      2012/02/19 00:31:53.2   0.2                          T                1.4  .26 Ml 2.0         4842635
CAF   002.57 004.5 m E Pg      2012/02/19 00:31:26.9  -0.2                          T                                        4842630
CAF   002.57 004.5 m E Sn      2012/02/19 00:31:52.4   2.5                          T                                        4842640
CAF   002.57 004.5 m E Sg      2012/02/19 00:31:59.9  -0.3                          T                3.0  .26 Ml 2.4         4842623
LFF   002.68 344.0 m E Pg      2012/02/19 00:31:29.1   0.0                          T                                        4842629
LFF   002.68 344.0 m E Sg      2012/02/19 00:32:03.8   0.1                          T                2.8  .26 Ml 2.2         4842636
RJF   002.94 356.3 m E Pg      2012/02/19 00:31:34.0  -0.1                          T                                        4842628
RJF   002.94 356.3 m E Sg      2012/02/19 00:32:11.6  -0.3                          T                1.2  .21 Ml 1.8         4842637
VIVF  003.26 039.2 m E Sg      2012/02/19 00:32:21.3  -0.3                          T                 .8  .25 Ml 2.0         4842633
BGF   004.26 009.9 m E Sg      2012/02/19 00:32:53.2   0.2                          T                5.2  .47 Ml 2.8         4842626
AVF   004.56 013.7 m E Sg      2012/02/19 00:33:00.7  -1.8                          T                 .3  .24 Ml 1.9         4842639

.
EVENT     270377
    Date      Time       Latitude Longitude    Depth    Ndef Nsta Gap    Mag1  N    Mag2  N    Mag3  N   Author         ID
       rms   OT_Error      Smajor Sminor Az        Err   mdist  Mdist     Err        Err        Err      Quality

2012/02/19 03:13:32.3     42.1576    9.4874      2.0      12    5 339  Ml 2.1  3  Md 2.1  1              js067245    270397

      0.55   +-  0.41       7.1    6.4   95.47 +-  0.0    0.53   3.39   +-0.2      +-                    m i ke

CORSICA, FRANCE
Sta     Dist  EvAz     Phase      Date       Time     TRes  Azim  AzRes  Slow  SRes Def   SNR       Amp   Per   Mag1   Mag2       ID
PGF   000.53 317.3 m E Pg      2012/02/19 03:13:42.5  -0.1                          T                                        4842648
PGF   000.53 317.3 m E Sg      2012/02/19 03:13:49.4  -0.1                          T               41.1  .18        Md 2.1  4842647
SBF   002.27 319.2 m E Pn      2012/02/19 03:14:09.3   0.1                          T                                        4842646
SBF   002.27 319.2 m E Sn      2012/02/19 03:14:35.9  -0.2                          T                3.3  .27 Ml 2.3         4842642
LMR   002.49 299.2 m E Pn      2012/02/19 03:14:12.2   0.2                          T                                        4842645
LMR   002.49 299.2 m E Pg      2012/02/19 03:14:18.8   0.3                          T                                        4842658
LMR   002.49 299.2 m E Sn      2012/02/19 03:14:42.1   1.0                          T                 .9  .19 Ml 2.0         4842643
FRF   002.52 304.8 m E Pn      2012/02/19 03:14:12.5   0.1                          T                                        4842644
FRF   002.52 304.8 m E Sn      2012/02/19 03:14:41.5  -0.3                          T                 .9  .22 Ml 2.0         4842641
SMRF  003.39 303.7 m E P       2012/02/19 03:14:26.9  -0.7                          T                                        4842655

.
EVENT     270378
    Date      Time       Latitude Longitude    Depth    Ndef Nsta Gap    Mag1  N    Mag2  N    Mag3  N   Author         ID
       rms   OT_Error      Smajor Sminor Az        Err   mdist  Mdist     Err        Err        Err      Quality

2012/02/19 07:55:12.0     42.1781    9.4884      2.0      11    5 339  Ml 1.9  3  Md 2.2  1              js067245    270398

      0.41   +-  0.28       4.7    4.4  100.91 +-  0.0    0.52   3.38   +-0.3      +-                    m i ke

CORSICA, FRANCE
Sta     Dist  EvAz     Phase      Date       Time     TRes  Azim  AzRes  Slow  SRes Def   SNR       Amp   Per   Mag1   Mag2       ID
PGF   000.52 315.8 m E Pg      2012/02/19 07:55:21.8  -0.2                          T                                        4842792
PGF   000.52 315.8 m E Sg      2012/02/19 07:55:28.8   0.0                          T               32.1  .20        Md 2.2  4842793
SBF   002.26 318.9 m E Pn      2012/02/19 07:55:48.7   0.1                          T                                        4842787
SBF   002.26 318.9 m E Sn      2012/02/19 07:56:15.3  -0.1                          T                1.2  .18 Ml 2.1         4842786
LMR   002.48 298.8 m E Pn      2012/02/19 07:55:51.5   0.0                          T                                        4842791
LMR   002.48 298.8 m E Sn      2012/02/19 07:56:21.5   0.9                          T                 .4  .21 Ml 1.6         4842790
FRF   002.50 304.4 m E Pn      2012/02/19 07:55:51.9   0.1                          T                                        4842788
FRF   002.50 304.4 m E Sn      2012/02/19 07:56:21.2   0.0                          T                1.0  .22 Ml 2.0         4842789
SMRF  003.38 303.4 m E P       2012/02/19 07:56:06.1  -0.9                          T                                        4844186

.
EVENT     270379
    Date      Time       Latitude Longitude    Depth    Ndef Nsta Gap    Mag1  N    Mag2  N    Mag3  N   Author         ID
       rms   OT_Error      Smajor Sminor Az        Err   mdist  Mdist     Err        Err        Err      Quality

2012/02/19 11:57:17.5     43.9125    7.0894      2.0      10    5 141  Ml 1.4  2  Md 1.4  3              js067245    270399

      0.55   +-  0.23       5.0    4.1    7.15 +-  0.0    0.25   1.33   +-0.0      +-0.5                 m i ke

NEAR SOUTH COAST OF FRANCE
Sta     Dist  EvAz     Phase      Date       Time     TRes  Azim  AzRes  Slow  SRes Def   SNR       Amp   Per   Mag1   Mag2       ID
SBF   000.25 101.0 m E Pg      2012/02/19 11:57:22.3  -0.3                          T                                        4842903
SBF   000.25 101.0 m E Sg      2012/02/19 11:57:27.0   0.9                          T                7.7  .34        Md 1.9  4842902
FRF   000.48 222.5 m E Pg      2012/02/19 11:57:26.0  -0.6                          T                                        4842905
FRF   000.48 222.5 m E Sg      2012/02/19 11:57:33.3   0.4                          T                1.6  .26        Md 1.0  4842901
LMR   000.72 216.3 m E Pg      2012/02/19 11:57:31.4   0.4                          T                                        4842904
LMR   000.72 216.3 m E Sg      2012/02/19 11:57:41.4   1.0                          T                1.6  .23        Md 1.2  4842900
SMRF  001.10 273.8 m E Pg      2012/02/19 11:57:37.5  -0.6                          T                                        4842898
SMRF  001.10 273.8 m E Sg      2012/02/19 11:57:52.6   0.3                          T                 .7  .20 Ml 1.4         4842899
ORIF  001.33 319.7 m E Pg      2012/02/19 11:57:42.8   0.4                          T                                        4842896
ORIF  001.33 319.7 m E Sg      2012/02/19 11:57:59.9   0.3                          T                 .7  .26 Ml 1.4         4842897

.
EVENT     270403
    Date      Time       Latitude Longitude    Depth    Ndef Nsta Gap    Mag1  N    Mag2  N    Mag3  N   Author         ID
       rms   OT_Error      Smajor Sminor Az        Err   mdist  Mdist     Err        Err        Err      Quality

2012/02/19 14:11:06.4     44.5505    9.3924     10.0 f    59   17 061  Ml 2.5 18                         js067245    270423

      0.47   +-  0.06       1.7    1.1   18.44 +-  0.0    0.22   5.02   +-0.2                            m i ke

NORTHERN ITALY
Sta     Dist  EvAz     Phase      Date       Time     TRes  Azim  AzRes  Slow  SRes Def   SNR       Amp   Per   Mag1   Mag2       ID
SBF   001.57 244.7 m E Pn      2012/02/19 14:11:33.7   1.0                          T                                        4843121
SBF   001.57 244.7 m E Pg      2012/02/19 14:11:36.1   0.4                          T                                        4844252
SBF   001.57 244.7 m E Sg      2012/02/19 14:11:55.8  -0.1                          T               16.2  .28 Ml 2.8         4844251
PGF   002.02 188.3 m E Pn      2012/02/19 14:11:39.2   0.3                          T                                        4843112
PGF   002.02 188.3 m E Sn      2012/02/19 14:12:03.3   0.5                          T                3.5  .31 Ml 2.5         4843113
MBDF  001.88 276.3 m E P       2012/02/19 14:11:39.4   0.1                          T                                        4843639
MBDF  001.88 276.3 m E Pg      2012/02/19 14:11:41.5   0.0                          T                                        4843116
MBDF  001.88 276.3 m E Sg      2012/02/19 14:12:05.4  -0.4                          T               13.1  .51 Ml 2.6         4843115
FRF   002.21 244.4 m E Pn      2012/02/19 14:11:41.5   0.1                          T                                        4843119
FRF   002.21 244.4 m E Pg      2012/02/19 14:11:47.7   0.2                          T                                        4844253
FRF   002.21 244.4 m E Sn      2012/02/19 14:12:07.1  -0.1                          T                3.1  .23 Ml 2.4         4843117
FRF   002.21 244.4 m E Sg      2012/02/19 14:12:16.3   0.3                          T                4.2  .25 Ml 2.5         4844250
LMR   002.41 240.7 m E P       2012/02/19 14:11:46.5  -0.2                          T                                        4843120
LMR   002.41 240.7 m E Sn      2012/02/19 14:12:12.2   0.2                          T                2.9  .28 Ml 2.3         4843118
ORIF  002.53 279.6 m E P       2012/02/19 14:11:48.4  -0.1                          T                                        4844254
ORIF  002.53 279.6 m E Pg      2012/02/19 14:11:53.5   0.1                          T                                        4843114
ORIF  002.53 279.6 m E Sn      2012/02/19 14:12:14.7  -0.2                          T                                        4843640
ORIF  002.53 279.6 m E Sg      2012/02/19 14:12:26.3   0.2                          T                6.2  .47 Ml 2.4         4844246
SMRF  002.80 259.5 m E Pn      2012/02/19 14:11:49.7   0.2                          T                                        4843099
SMRF  002.80 259.5 m E P       2012/02/19 14:11:52.5   0.2                          T                                        4843100
SMRF  002.80 259.5 m E Sg      2012/02/19 14:12:34.4  -0.1                          T                1.6  .25 Ml 2.2         4844249
CABF  003.10 312.8 m E P       2012/02/19 14:11:56.8   0.1                          T                                        4844260
CABF  003.10 312.8 m E Sn      2012/02/19 14:12:28.5  -0.1                          T                1.7  .25 Ml 2.3         4844241
VIVF  003.38 276.8 m E P       2012/02/19 14:12:00.3  -0.2                          T                                        4844255
VIVF  003.38 276.8 m E Pg      2012/02/19 14:12:08.8  -0.2                          T                                        4844256
VIVF  003.38 276.8 m E Sn      2012/02/19 14:12:35.4   0.3                          T                1.5  .36 Ml 2.1         4844245
HINF  003.71 332.5 m E P       2012/02/19 14:12:05.2  -0.1                          T                                        4844261
HINF  003.71 332.5 m E Sg      2012/02/19 14:12:43.0 -19.9                          T                1.7  .32 Ml 2.3         4844240
HAU   004.05 329.7 m E P       2012/02/19 14:12:10.1   0.1                          T                                        4844262
HAU   004.05 329.7 m E Sn      2012/02/19 14:12:50.8  -0.3                          T                7.8  .38 Ml 2.8         4844239
CDF   004.13 340.0 m E P       2012/02/19 14:12:11.2  -0.1                          T                                        4844263
CDF   004.13 340.0 m E Sn      2012/02/19 14:12:52.8  -0.3                          T                1.1  .33 Ml 2.3         4844238
LPG   002.10 297.8 m E Sg      2012/02/19 14:12:12.9   0.1                          T                2.3  .19 Ml 2.3         4844248
LPL   002.12 298.1 m E Sg      2012/02/19 14:12:13.3  -0.1                          T                4.1  .28 Ml 2.4         4844247
SMF   004.42 300.2 m E P       2012/02/19 14:12:15.4   0.0                          T                                        4844259
SMF   004.42 300.2 m E Sn      2012/02/19 14:12:59.9  -0.1                          T                1.1  .16 Ml 2.6         4844242
BGF   005.02 295.9 m E P       2012/02/19 14:12:24.1   0.4                          T                                        4844258
BGF   005.02 295.9 m E Sn      2012/02/19 14:13:13.9  -0.3                          T                1.7  .29 Ml 2.6         4844243
LOR   004.72 307.1 m E Sn      2012/02/19 14:13:07.3   0.2                          T                2.6  .27 Ml 2.8         4844237

.
EVENT     270404
    Date      Time       Latitude Longitude    Depth    Ndef Nsta Gap    Mag1  N    Mag2  N    Mag3  N   Author         ID
       rms   OT_Error      Smajor Sminor Az        Err   mdist  Mdist     Err        Err        Err      Quality

2012/02/19 14:50:51.9     41.5963    1.7386      2.0      62   11 083  Ml 2.6 12                         js067245    270424

      0.51   +-  0.08       1.6    1.2  129.28 +-  0.0    0.36   5.87   +-0.4                            m i ke

SPAIN
Sta     Dist  EvAz     Phase      Date       Time     TRes  Azim  AzRes  Slow  SRes Def   SNR       Amp   Per   Mag1   Mag2       ID
EPF   001.77 324.6 m E Pn      2012/02/19 14:51:22.6   0.8                          T                                        4843663
EPF   001.77 324.6 m E Pg      2012/02/19 14:51:23.7  -1.2                          T                                        4843665
EPF   001.77 324.6 m E Sn      2012/02/19 14:51:43.4  -0.3                          T                                        4843650
EPF   001.77 324.6 m E Sg      2012/02/19 14:51:46.4  -1.3                          T               74.9  .28 Ml 3.6         4843660
ETSF  002.15 308.1 m E Pn      2012/02/19 14:51:27.2   0.1                          T                                        4843664
ETSF  002.15 308.1 m E Pg      2012/02/19 14:51:31.0  -0.9                          T                                        4843662
ETSF  002.15 308.1 m E Sg      2012/02/19 14:51:59.3  -0.2                          T                8.6  .22 Ml 2.8         4843661
SJPF  002.67 305.6 m E Pn      2012/02/19 14:51:34.0  -0.1                          T                                        4843658
SJPF  002.67 305.6 m E Pg      2012/02/19 14:51:41.6   0.2                          T                                        4843659
SJPF  002.67 305.6 m E S       2012/02/19 14:52:10.3   0.1                          T                                        4843655
SJPF  002.67 305.6 m E Sg      2012/02/19 14:52:15.4  -0.4                          T                5.7  .30 Ml 2.6         4843656
CAF   003.34 004.0 m E Pn      2012/02/19 14:51:43.8   0.6                          T                                        4843653
CAF   003.34 004.0 m E Pg      2012/02/19 14:51:53.2  -0.6                          T                                        4843657
CAF   003.34 004.0 m E Sn      2012/02/19 14:52:23.1   2.1                          T                                        4843642
CAF   003.34 004.0 m E Sg      2012/02/19 14:52:36.0  -0.6                          T                3.2  .20 Ml 2.7         4843654
LASF  002.93 031.4 m E Sg      2012/02/19 14:52:23.9   0.1                          T                1.7  .26 Ml 2.2         4843651
AVF   005.32 012.0 m E Pg      2012/02/19 14:52:30.6   0.3                          T                                        4843649
AVF   005.32 012.0 m E Sg      2012/02/19 14:53:38.5   0.0                          T                 .7  .28 Ml 2.3         4843648
LFF   003.42 348.0 m E Sg      2012/02/19 14:52:39.2   0.0                          T                7.1  .32 Ml 2.7         4843652
VIVF  003.90 032.4 m E Sg      2012/02/19 14:52:53.0  -1.3                          T                1.2  .28 Ml 2.3         4843641
TCF   004.70 004.0 m E Sg      2012/02/19 14:53:20.0   0.7                          T                1.3  .24 Ml 2.6         4843647
SMF   005.27 016.0 m E Sg      2012/02/19 14:53:36.6  -0.3                          T                 .8  .35 Ml 2.3         4843643
LOR   005.87 014.3 m E Sg      2012/02/19 14:53:56.2   0.5                          T                 .7  .22 Ml 2.6         4843646

.
