EVENT     290001
    Date      Time       Latitude Longitude    Depth    Ndef Nsta Gap    Mag1  N    Mag2  N    Mag3  N   Author         ID
       rms   OT_Error      Smajor Sminor Az        Err   mdist  Mdist     Err        Err        Err      Quality

2013/01/09 21:36:27.0     48.3670    9.0252      9.0 f    83   20 052  Ml 2.3 17  Md 2.5  3              bulletin    290101
                                                                                                         _ldg
      0.87   +-  0.08       1.7    1.4  137.48 +-  0.0    0.16   4.62   +-0.3      +-0.2                 m i ke

GERMANY
Sta     Dist  EvAz     Phase      Date       Time     TRes  Azim  AzRes  Slow  SRes Def   SNR       Amp   Per   Mag1   Mag2       ID
LANF  001.02 307.7 m E Pg      2013/01/09 21:36:47.2   1.1                          T                                        5174590
LANF  001.02 307.7 m E Sg      2013/01/09 21:37:00.1   0.7                          T                                        5163133
CDF   001.17 272.9 m E Pg      2013/01/09 21:36:48.2  -0.7                          T                                        5162911
CDF   001.17 272.9 m E Sg      2013/01/09 21:37:03.6  -0.6                          T               17.7  .20 Ml 2.9 Md 2.3  5162910
HINF  001.56 250.1 m E Pn      2013/01/09 21:36:54.0   0.7                          T                                        5162906
HINF  001.56 250.1 m E Sg      2013/01/09 21:37:15.4  -0.8                          T                6.1  .22 Ml 2.5 Md 2.7  5162907
HAU   001.83 259.6 m E Pn      2013/01/09 21:36:57.6   0.6                          T                                        5163515
HAU   001.83 259.6 m E Pg      2013/01/09 21:37:00.5  -0.5                          T                                        5162909
HAU   001.83 259.6 m E Sg      2013/01/09 21:37:23.7  -1.0                          T               10.8  .32 Ml 2.5 Md 2.5  5162908
PAGF  002.20 276.1 m E Pn      2013/01/09 21:37:02.7   0.6  92.6  -1.0              T                                        5163510
PAGF  002.20 276.1 m E Pg      2013/01/09 21:37:07.7  -0.2  95.6  2.0               T                                        5162956
PAGF  002.20 276.1 m E Sn      2013/01/09 21:37:29.1   1.3 100.3  6.6               T                                        5163511
PAGF  002.20 276.1 m E Sg      2013/01/09 21:37:36.1  -0.2  97.4  3.8               T                5.6  .22 Ml 2.7         5162955
RUP   001.86 316.7 m E Pg      2013/01/09 21:37:03.3   1.6                          T                                        5163164
THEF  002.03 267.2 m E Pg      2013/01/09 21:37:04.4  -0.4                          T                                        5163170
THEF  002.03 267.2 m E Sg      2013/01/09 21:37:31.0   0.1                          T                                        5163171
MEZF  002.65 274.4 m E Pn      2013/01/09 21:37:08.8   0.7                          T                                        5163495
MEZF  002.65 274.4 m E Pg      2013/01/09 21:37:16.3   0.1                          T                                        5163507
MEZF  002.65 274.4 m E Sn      2013/01/09 21:37:39.6   1.2                          T                                        5163508
MEZF  002.65 274.4 m E Sg      2013/01/09 21:37:49.7  -0.6                          T                3.1  .31 Ml 2.3         5163509
CABF  002.66 229.7 m E Pn      2013/01/09 21:37:08.8   0.5                          T                                        5163502
CABF  002.66 229.7 m E Pg      2013/01/09 21:37:16.4   0.0                          T                                        5163503
CABF  002.66 229.7 m E Sn      2013/01/09 21:37:38.9   0.2                          T                                        5163501
CABF  002.66 229.7 m E Sg      2013/01/09 21:37:50.5  -0.1                          T                                        5163500
SFTF  002.67 268.0 m E Pn      2013/01/09 21:37:09.1   0.8                          T                                        5163505
SFTF  002.67 268.0 m E Pg      2013/01/09 21:37:16.2  -0.3  90.8  5.7               T                                        5163506
SFTF  002.67 268.0 m E Sn      2013/01/09 21:37:40.3   1.5                          T                                        5163504
SFTF  002.67 268.0 m E Sg      2013/01/09 21:37:50.9   0.1  88.0  3.0               T                2.4  .17 Ml 2.5         5162961
LPL   003.26 209.7 m E Pn      2013/01/09 21:37:17.1   0.4                          T                                        5163476
LPL   003.26 209.7 m E Pg      2013/01/09 21:37:27.1  -0.5                          T                                        5163477
LPL   003.26 209.7 m E Sn      2013/01/09 21:37:54.0   0.8                          T                                        5163475
LPL   003.26 209.7 m E Sg      2013/01/09 21:38:09.1  -0.3                          T                 .3  .21 Ml 1.7         5163474
GIVF  003.26 303.8 m E Pn      2013/01/09 21:37:17.2   0.9                          T                                        5163493
GIVF  003.26 303.8 m E Pg      2013/01/09 21:37:27.3   0.0                          T                                        5163494
GIVF  003.26 303.8 m E Sn      2013/01/09 21:37:54.0   1.1                          T                                        5163492
GIVF  003.26 303.8 m E Sg      2013/01/09 21:38:09.3   0.2                          T                1.6  .20 Ml 2.4         5163491
LPG   003.27 209.3 m E Pn      2013/01/09 21:37:17.5   0.6                          T                                        5163479
LPG   003.27 209.3 m E Pg      2013/01/09 21:37:27.7  -0.2                          T                                        5163480
LPG   003.27 209.3 m E Sn      2013/01/09 21:37:54.4   0.9                          T                                        5163478
LPG   003.27 209.3 m E Sg      2013/01/09 21:38:09.4  -0.5                          T                 .6  .22 Ml 1.9         5163473
BAIF  003.58 300.0 m E Pn      2013/01/09 21:37:21.2   0.4                          T                                        5163488
BAIF  003.58 300.0 m E Pg      2013/01/09 21:37:33.6   0.3                          T                                        5163487
BAIF  003.58 300.0 m E Sn      2013/01/09 21:38:02.2   1.5                          T                                        5163489
BAIF  003.58 300.0 m E Sg      2013/01/09 21:38:19.7   0.3                          T                1.0  .27 Ml 2.1         5163490
LOR   003.65 254.4 m E Pn      2013/01/09 21:37:22.7   0.9  61.3  -9.2              T                                        5163513
LOR   003.65 254.4 m E Pg      2013/01/09 21:37:33.9  -0.7  75.4  4.8               T                                        5162960
LOR   003.65 254.4 m E Sn      2013/01/09 21:38:02.9   0.5  74.7  4.1               T                                        5163514
LOR   003.65 254.4 m E Sg      2013/01/09 21:38:20.8  -0.7  74.9  4.3               T                1.8  .24 Ml 2.5         5162959
SMF   003.91 245.8 m E Pn      2013/01/09 21:37:25.4   0.1                          T                                        5163496
SMF   003.91 245.8 m E Pg      2013/01/09 21:37:39.1  -0.4                          T                                        5163497
SMF   003.91 245.8 m E Sn      2013/01/09 21:38:09.7   1.1                          T                                        5163484
SMF   003.91 245.8 m E Sg      2013/01/09 21:38:29.5  -0.2                          T                  1  .23 Ml 2.2         5163483
SSF   003.95 252.7 m E Pn      2013/01/09 21:37:26.2   0.4                          T                                        5163512
SSF   003.95 252.7 m E Pg      2013/01/09 21:37:39.8  -0.3                          T                                        5162957
SSF   003.95 252.7 m E Sg      2013/01/09 21:38:30.7   0.0                          T                 .8  .24 Ml 2.2         5162958
AVF   004.15 249.8 m E Pn      2013/01/09 21:37:29.0   0.5                          T                                        5163498
AVF   004.15 249.8 m E Pg      2013/01/09 21:37:43.8   0.0                          T                                        5163499










AVF   004.15 249.8 m E Sn      2013/01/09 21:38:15.4   1.2                          T                                        5163486
AVF   004.15 249.8 m E Sg      2013/01/09 21:38:37.0  -0.1                          T                 .7  .25 Ml 2.1         5163485
BGF   004.56 248.9 m E Pn      2013/01/09 21:37:35.0   0.8                          T                                        5163481
BGF   004.56 248.9 m E Pg      2013/01/09 21:37:51.9   0.4                          T                                        5163482
BGF   004.56 248.9 m E Sn      2013/01/09 21:38:25.4   1.2                          T                                        5163470
BGF   004.56 248.9 m E Sg      2013/01/09 21:38:50.0  -0.1                          T                2.9  .48 Ml 2.6         5163469
VIVF  004.62 222.1 m E Pn      2013/01/09 21:37:36.1   1.2                          T                                        5163472
VIVF  004.62 222.1 m E Sn      2013/01/09 21:38:26.5   1.0                          T                 .6  .24 Ml 2.2         5163471

.
EVENT     290002
    Date      Time       Latitude Longitude    Depth    Ndef Nsta Gap    Mag1  N    Mag2  N    Mag3  N   Author         ID
       rms   OT_Error      Smajor Sminor Az        Err   mdist  Mdist     Err        Err        Err      Quality

2013/01/09 21:59:29.4     44.5681    6.8650      2.0      30    8 058  Ml 1.8  3  Md 1.9  1              bulletin    290102
                                                                                                         _ldg
      0.32   +-  0.05       1.1     .7   64.29 +-  0.0    0.09   1.26   +-0.3      +-                    m i ke

FRANCE
Sta     Dist  EvAz     Phase      Date       Time     TRes  Azim  AzRes  Slow  SRes Def   SNR       Amp   Per   Mag1   Mag2       ID
MBDF  000.17 337.2 m E Pg      2013/01/09 21:59:33.1  -0.1                          T                                        5162973
MBDF  000.17 337.2 m E Sg      2013/01/09 21:59:35.5  -0.1                          T               14.7  .18        Md 1.9  5162972
ORIF  000.78 296.9 m E Pg      2013/01/09 21:59:44.3   0.0                          T                                        5162971
ORIF  000.78 296.9 m E Sg      2013/01/09 21:59:53.8  -0.8                          T                1.8  .24                5162965
SBF   000.82 149.6 m E Pg      2013/01/09 21:59:45.5   0.6                          T                                        5162966
SBF   000.82 149.6 m E Sg      2013/01/09 21:59:56.6   1.1                          T               17.5  .90                5162974
LPG   000.93 355.1 m E Pg      2013/01/09 21:59:47.2  -0.1                          T                                        5162969
LPG   000.93 355.1 m E Sg      2013/01/09 22:00:00.7   1.2                          T                2.9  .63 Ml 1.5         5162963
LPL   000.95 354.4 m E Pg      2013/01/09 21:59:47.7   0.1                          T                                        5162970
LPL   000.95 354.4 m E Sg      2013/01/09 21:59:59.7  -0.3                          T                                        5162964
FRF   001.02 189.0 m E Pg      2013/01/09 21:59:48.6   0.0                          T                                        5162968
FRF   001.02 189.0 m E Sg      2013/01/09 22:00:02.4   0.6                          T                3.1  .22 Ml 2.0         5162962
SMRF  001.10 237.9 m E Pn      2013/01/09 21:59:50.5   0.3                          T                                        5179711
SMRF  001.10 237.9 m E Sg      2013/01/09 22:00:04.3   0.0                          T                                        5179710
LMR   001.26 191.9 m E Pn      2013/01/09 21:59:53.4   1.0                          T                                        5162967
LMR   001.26 191.9 m E Sg      2013/01/09 22:00:09.9   0.6                          T                1.7  .24 Ml 1.8         5162975

.
EVENT     290009
    Date      Time       Latitude Longitude    Depth    Ndef Nsta Gap    Mag1  N    Mag2  N    Mag3  N   Author         ID
       rms   OT_Error      Smajor Sminor Az        Err   mdist  Mdist     Err        Err        Err      Quality

2013/01/09 23:14:00.2     44.3496    7.2984     10.0 f    38    9 108  Ml 1.4  7  Md 1.6  3              bulletin    290109
                                                                                                         _ldg
      0.27   +-  0.04       1.1     .6   50.37 +-  0.0    0.11   1.94   +-0.1      +-0.1                 m i ke

NORTHERN ITALY
Sta     Dist  EvAz     Phase      Date       Time     TRes  Azim  AzRes  Slow  SRes Def   SNR       Amp   Per   Mag1   Mag2       ID
SBF   000.50 168.5 m E Pg      2013/01/09 23:14:10.2   0.4                          T                                        5182127
SBF   000.50 168.5 m E Sg      2013/01/09 23:14:16.8   0.3                          T                2.9  .18        Md 1.6  5182126
MBDF  000.53 315.2 m E Pg      2013/01/09 23:14:10.5  -0.1                          T                                        5182114
MBDF  000.53 315.2 m E Sg      2013/01/09 23:14:17.9   0.2                          T                1.5  .19        Md 1.5  5182116
FRF   000.92 211.1 m E Pg      2013/01/09 23:14:17.4  -0.1                          T                                        5182113
FRF   000.92 211.1 m E Sg      2013/01/09 23:14:29.2  -0.2                          T                1.3  .23 Ml 1.6 Md 1.8  5182112
LMR   001.16 209.6 m E Pg      2013/01/09 23:14:21.8  -0.1                          T                                        5182125
LMR   001.16 209.6 m E Sg      2013/01/09 23:14:36.7  -0.4                          T                 .8  .24 Ml 1.4         5182115
ORIF  001.16 299.8 m E Pg      2013/01/09 23:14:21.9  -0.1                          T                                        5182280
ORIF  001.16 299.8 m E Sg      2013/01/09 23:14:36.2  -0.9                          T                 .8  .23 Ml 1.4         5182279
LPG   001.21 341.5 m E Pn      2013/01/09 23:14:22.1   0.1                          T                                        5182282
LPG   001.21 341.5 m E Sn      2013/01/09 23:14:37.4   0.0                          T                 .4  .21 Ml 1.2         5182281
LPL   001.23 341.2 m E Pn      2013/01/09 23:14:22.3   0.1                          T                                        5182278
LPL   001.23 341.2 m E Sn      2013/01/09 23:14:37.8  -0.1                          T                 .4  .17 Ml 1.3         5182277
SMRF  001.30 253.8 m E Pn      2013/01/09 23:14:22.8   0.0                          T                                        5182283
SMRF  001.30 253.8 m E Sn      2013/01/09 23:14:40.1   1.0                          T                 .8  .21 Ml 1.5         5182110
VIVF  001.94 286.0 m E Pn      2013/01/09 23:14:32.4   0.9                          T                                        5182292
VIVF  001.94 286.0 m E Sn      2013/01/09 23:14:55.2   0.7                          T                 .4  .20 Ml 1.4         5182291

.
