BEGIN GSE2.0
MSG_TYPE DATA
MSG_ID 12-JUL-1114:19:50  FRA_NDC
E-MAIL
DATA_TYPE BULLETIN
Reviewed Bulletin (REB) # P2011-026  from French NDC for regional phases     PERIOD 29 JUN 2011 TO 05 JUL 2011 J-P Santoire
EVENT     260889
    Date      Time       Latitude Longitude    Depth    Ndef Nsta Gap    Mag1  N    Mag2  N    Mag3  N   Author         ID
       rms   OT_Error      Smajor Sminor Az        Err   mdist  Mdist     Err        Err        Err      Quality

2011/06/29 02:00:06.3     46.3995    2.6715      3.0 f    22   10 091  Ml 1.6  5  Md 1.5  3              js067245    260889

      0.96   +-  0.08       2.0    1.2  134.59 +-  0.0    0.20   1.96   +-0.3      +-0.3                 m i ke

FRANCE
Sta     Dist  EvAz     Phase      Date       Time     TRes  Azim  AzRes  Slow  SRes Def   SNR       Amp   Per   Mag1   Mag2       ID
BGF   000.20 037.3 m E Pg      2011/06/29 02:00:10.6   0.2                          T                                        4713871
BGF   000.20 037.3 m E Sg      2011/06/29 02:00:13.0  -0.1                          T               13.9  .28        Md 1.2  4713872
TCF   000.34 251.0 m E Pg      2011/06/29 02:00:13.3   0.4                          T                                        4713854
TCF   000.34 251.0 m E Sg      2011/06/29 02:00:17.3  -0.1                          T                1.8  .16                4713856
TCF   000.34 251.0 m E S       2011/06/29 02:00:25.2  -0.3                          T                                        4713855
AVF   000.61 050.0 m E Pg      2011/06/29 02:00:17.8  -0.1                          T                                        4713865
AVF   000.61 050.0 m E Pn      2011/06/29 02:00:20.3   0.0                          T                                        4713866
AVF   000.61 050.0 m E Sg      2011/06/29 02:00:26.0   0.1                          T                1.4  .23                4713867
AVF   000.61 050.0 m E Sn      2011/06/29 02:00:30.2   0.1                          T                 .5  .19                4713868
SMF   000.84 072.6 m E Pg      2011/06/29 02:00:22.4   0.2                          T                                        4713861
SMF   000.84 072.6 m E Pn      2011/06/29 02:00:23.5   0.0                          T                                        4713862
SMF   000.84 072.6 m E Sg      2011/06/29 02:00:33.5   0.3                          T                                Md 1.8  4713863
SMF   000.84 072.6 m E Sn      2011/06/29 02:00:36.0   0.3                          T                2.6  .18                4713864
HYF   000.87 358.6 m E Pg      2011/06/29 02:00:22.5  -0.2                          T                                        4713876
HYF   000.87 358.6 m E Sg      2011/06/29 02:00:33.8  -0.2                          T                                        4713877
SSF   000.88 040.6 m E Pg      2011/06/29 02:00:22.7  -0.1                          T                                        4713859
SSF   000.88 040.6 m E Sg      2011/06/29 02:00:34.2   0.0                          T                1.4  .20 Ml 1.7         4713860
LOR   001.19 042.7 m E Pg      2011/06/29 02:00:28.5  -0.1 230.4  6.8               T                                        4713857
LOR   001.19 042.7 m E Sg      2011/06/29 02:00:44.0  -0.1 209.1  -14.5             T                1.9  .32 Ml 1.7         4713858
RJF   001.36 216.8 m E Sg      2011/06/29 02:00:49.4   0.1                          T                 .5  .20 Ml 1.1         4713874
CAF   001.53 196.3 m E Sg      2011/06/29 02:00:54.7   0.0                          T                 .8  .17 Ml 1.7         4713873
MFF   001.96 277.0 m E Sg      2011/06/29 02:01:07.9   0.1                          T                 .4  .18 Ml 1.7         4713875

.
EVENT     260904
    Date      Time       Latitude Longitude    Depth    Ndef Nsta Gap    Mag1  N    Mag2  N    Mag3  N   Author         ID
       rms   OT_Error      Smajor Sminor Az        Err   mdist  Mdist     Err        Err        Err      Quality

2011/06/29 11:33:32.3     45.8247   11.7509     10.0 f    49   13 088  Ml 2.8 11  Md 2.8  5              js067245    260904

      0.53   +-  0.10       2.5    1.8  149.75 +-  0.0    0.07   5.90   +-0.2      +-0.2                 m i ke

NORTHERN ITALY
Sta     Dist  EvAz     Phase      Date       Time     TRes  Azim  AzRes  Slow  SRes Def   SNR       Amp   Per   Mag1   Mag2       ID
LPL   003.53 266.8 m E Pn      2011/06/29 11:34:25.5   0.0                          T                                        4713891
LPL   003.53 266.8 m E Sn      2011/06/29 11:35:04.8  -0.1                          T                3.1  .35 Ml 2.5         4713881
MBDF  003.68 254.4 m E Pn      2011/06/29 11:34:27.7   0.1                          T                                        4713896
MBDF  003.68 254.4 m E Sn      2011/06/29 11:35:09.0   0.6                          T                4.1  .36 Ml 2.6 Md 2.6  4713883
SBF   003.64 239.0 m E P       2011/06/29 11:34:30.2   0.0                          T                                        4713895
SBF   003.64 239.0 m E Sn      2011/06/29 11:35:08.1   0.8                          T                6.9  .30 Ml 2.9 Md 2.6  4713878
CDF   004.00 311.9 m E Pn      2011/06/29 11:34:33.6   1.8                          T                                        4713902
CDF   004.00 311.9 m E Pg      2011/06/29 11:34:48.1   1.5                          T                                        4713903
CDF   004.00 311.9 m E Sg      2011/06/29 11:35:38.6   0.7                          T                7.7  .42 Ml 3.0 Md 3.0  4713888
HINF  003.91 302.4 m E P       2011/06/29 11:34:34.0   0.0                          T                                        4713886
HINF  003.91 302.4 m E Sn      2011/06/29 11:35:13.5  -0.1                          T                5.6  .37 Ml 2.8 Md 2.8  4713885
ORIF  004.24 259.7 m E Pn      2011/06/29 11:34:35.0   0.0                          T                                        4713893
ORIF  004.24 259.7 m E P       2011/06/29 11:34:38.6  -0.1                          T                                        4713897
ORIF  004.24 259.7 m E Sn      2011/06/29 11:35:22.4   0.8                          T                7.8  .48 Ml 2.9         4713882
HAU   004.30 302.4 m E Pn      2011/06/29 11:34:37.2   1.5                          T                                        4713901
HAU   004.30 302.4 m E Sn      2011/06/29 11:35:23.6   0.7                          T                5.8  .32 Ml 2.8         4713887
SMRF  004.76 249.4 m E P       2011/06/29 11:34:45.3  -0.8                          T                                        4713894
SMRF  004.76 249.4 m E Sn      2011/06/29 11:35:34.5   0.5                          T                 .6  .19 Ml 2.3         4713880
VIVF  005.08 261.5 m E Pn      2011/06/29 11:34:46.8   0.3                          T                                        4713892
VIVF  005.08 261.5 m E P       2011/06/29 11:34:51.0   0.3                          T                                        4713898
SMF   005.55 281.3 m E Pn      2011/06/29 11:34:53.5   0.8                          T                                        4713900
SMF   005.55 281.3 m E Sn      2011/06/29 11:35:53.4   0.5                          T                3.1  .24 Ml 3.1 Md 3.0  4713884
LOR   005.63 287.7 m E Pn      2011/06/29 11:34:53.9  -0.1                          T                                        4713890
LOR   005.63 287.7 m E Sn      2011/06/29 11:35:55.2   0.4                          T                2.5  .28 Ml 3.0         4713889
AVF   005.90 282.4 m E Pn      2011/06/29 11:34:57.9   0.4                          T                                        4713899
FRF   004.29 239.9 m E Sn      2011/06/29 11:35:23.2   0.5                          T                2.3  .23 Ml 2.8         4713879

.
EVENT     260908
    Date      Time       Latitude Longitude    Depth    Ndef Nsta Gap    Mag1  N    Mag2  N    Mag3  N   Author         ID
       rms   OT_Error      Smajor Sminor Az        Err   mdist  Mdist     Err        Err        Err      Quality

2011/06/29 13:54:05.8     42.5014    2.2280      2.0      19    4 065  Ml 1.8  3  Md 1.9  2              js067245    260908

      0.39   +-  0.08       1.6    1.2    9.15 +-  0.0    0.19   2.43   +-0.1      +-0.1                 m i ke

PYRENEES
Sta     Dist  EvAz     Phase      Date       Time     TRes  Azim  AzRes  Slow  SRes Def   SNR       Amp   Per   Mag1   Mag2       ID
MTLF  000.84 359.5 m E Pg      2011/06/29 13:54:21.5  -0.1                          T                                        4713914
MTLF  000.84 359.5 m E Sg      2011/06/29 13:54:34.3   1.8                          T                1.5  .24        Md 1.8  4713915
EPF   001.49 291.5 m E Pg      2011/06/29 13:54:33.3  -0.3                          T                                        4713912
EPF   001.49 291.5 m E Sg      2011/06/29 13:54:52.5  -0.3                          T                1.4  .26 Ml 1.8 Md 2.0  4713913
LASF  001.97 036.5 m E Sg      2011/06/29 13:55:07.6  -0.3                          T                 .7  .20 Ml 1.7         4713910
CAF   002.43 357.3 m E Sg      2011/06/29 13:55:22.1   0.0                          T                1.1  .26 Ml 1.9         4713911

.
EVENT     260909
    Date      Time       Latitude Longitude    Depth    Ndef Nsta Gap    Mag1  N    Mag2  N    Mag3  N   Author         ID
       rms   OT_Error      Smajor Sminor Az        Err   mdist  Mdist     Err        Err        Err      Quality

2011/06/29 16:10:51.5     43.4838    2.7862       .0 f    20    8 198  Ml 2.3  6  Md 2.3  1              js067245    260909

      0.29   +-  0.09       2.1    1.1  148.55 +-  0.0    0.44   2.52   +-0.2      +-                    m i km

FRANCE
Sta     Dist  EvAz     Phase      Date       Time     TRes  Azim  AzRes  Slow  SRes Def   SNR       Amp   Per   Mag1   Mag2       ID
MTLF  000.44 251.2 m E Pg      2011/06/29 16:10:59.9  -0.3                          T                                        4713934
MTLF  000.44 251.2 m E Sg      2011/06/29 16:11:06.5   0.4                          T                3.6  .21        Md 2.3  4713935
LASF  000.98 052.3 m E Pg      2011/06/29 16:11:10.0  -0.1                          T                                        4713929
LASF  000.98 052.3 m E Pn      2011/06/29 16:11:11.3   0.3                          T                                        4713930
LASF  000.98 052.3 m E Sn      2011/06/29 16:11:24.9   0.0                          T               16.3  .34 Ml 2.5         4713931
CAF   001.53 340.4 m E Pg      2011/06/29 16:11:20.6   0.3                          T                                        4713932
CAF   001.53 340.4 m E Sg      2011/06/29 16:11:40.7   0.3                          T                8.5  .21 Ml 2.7         4713933
VIVF  001.93 044.0 m E Pn      2011/06/29 16:11:23.9  -0.1                          T                                        4713926
VIVF  001.93 044.0 m E Pg      2011/06/29 16:11:27.6  -0.1                          T                                        4713925
VIVF  001.93 044.0 m E Sg      2011/06/29 16:11:52.9   0.1                          T                3.8  .26 Ml 2.4         4713916
RJF   002.04 333.9 m E Pn      2011/06/29 16:11:25.4   0.0                          T                                        4713922
RJF   002.04 333.9 m E Pg      2011/06/29 16:11:29.3  -0.3                          T                                        4713921
RJF   002.04 333.9 m E Sn      2011/06/29 16:11:49.7  -0.5                          T                                        4713920
RJF   002.04 333.9 m E Sg      2011/06/29 16:11:55.9  -0.1                          T                2.4  .18 Ml 2.0         4713919
EPF   001.84 256.6 m E Pg      2011/06/29 16:11:26.6   0.4                          T                                        4713924
EPF   001.84 256.6 m E Sg      2011/06/29 16:11:50.3   0.2                          T                3.8  .23 Ml 2.4         4713917
ETSF  002.52 257.7 m E Pg      2011/06/29 16:11:38.4  -0.1                          T                                        4713923
LFF   002.07 315.4 m E Sg      2011/06/29 16:11:57.4   0.4                          T                2.3  .19 Ml 2.1         4713918

.
EVENT     260934
    Date      Time       Latitude Longitude    Depth    Ndef Nsta Gap    Mag1  N    Mag2  N    Mag3  N   Author         ID
       rms   OT_Error      Smajor Sminor Az        Err   mdist  Mdist     Err        Err        Err      Quality

2011/06/29 18:18:54.6     44.0935    7.1684      2.0       9    5 164  Ml 2.2  2  Md 1.9  4              js067245    260934

      0.60   +-  0.38       7.2    5.1   34.21 +-  0.0    0.30   1.15   +-0.0      +-0.2                 m i ke

NORTHERN ITALY
Sta     Dist  EvAz     Phase      Date       Time     TRes  Azim  AzRes  Slow  SRes Def   SNR       Amp   Per   Mag1   Mag2       ID
SBF   000.30 140.0 m E Pg      2011/06/29 18:19:00.8   0.2                          T                                        4716214
SBF   000.30 140.0 m E Sg      2011/06/29 18:19:05.2   0.6                          T                6.2  .28        Md 2.1  4716210
FRF   000.65 215.5 m E Pg      2011/06/29 18:19:06.4  -0.6                          T                                        4716217
FRF   000.65 215.5 m E Sg      2011/06/29 18:19:15.1  -0.4                          T                5.7  .25        Md 1.7  4716212
LMR   000.90 212.4 m E Pg      2011/06/29 18:19:11.3  -0.2                          T                                        4716216
LMR   000.90 212.4 m E Sg      2011/06/29 18:19:22.9  -0.2                          T                5.6  .24 Ml 2.2 Md 1.7  4716211
MBDF  000.69 335.9 m E Sg      2011/06/29 18:19:15.9  -1.1                          T                2.3  .28                4720178
SMRF  001.15 264.7 m E Pg      2011/06/29 18:19:16.9   0.6                          T                                        4716215
SMRF  001.15 264.7 m E Sg      2011/06/29 18:19:32.3   1.1                          T                4.4  .22 Ml 2.2 Md 1.9  4716213

.
EVENT     260906
    Date      Time       Latitude Longitude    Depth    Ndef Nsta Gap    Mag1  N    Mag2  N    Mag3  N   Author         ID
       rms   OT_Error      Smajor Sminor Az        Err   mdist  Mdist     Err        Err        Err      Quality

2011/06/29 19:23:21.7     44.1191    7.1741      2.0      22   10 151  Ml 2.2  7  Md 1.8  5              js067245    260906

      0.53   +-  0.14       3.3    2.0   71.89 +-  0.0    0.11   2.06   +-0.4      +-0.1                 m i ke

NORTHERN ITALY
Sta     Dist  EvAz     Phase      Date       Time     TRes  Azim  AzRes  Slow  SRes Def   SNR       Amp   Per   Mag1   Mag2       ID
SBF   000.32 143.5 m E Pg      2011/06/29 19:23:28.4   0.4                          T                                        4713942
SBF   000.32 143.5 m E Sg      2011/06/29 19:23:32.6   0.3                          T               23.6  .31        Md 1.8  4713943
FRF   000.68 214.5 m E Pg      2011/06/29 19:23:34.1  -0.4                          T                                        4713938
FRF   000.68 214.5 m E Sg      2011/06/29 19:23:42.8  -0.5                          T               14.4  .22        Md 1.8  4713939
MBDF  000.67 334.7 m E Pg      2011/06/29 19:23:34.5  -0.2                          T                                        4713940
MBDF  000.67 334.7 m E Sg      2011/06/29 19:23:43.2  -0.3                          T                6.3  .30        Md 1.8  4713941
LMR   000.92 211.8 m E Pg      2011/06/29 19:23:38.6  -0.4                          T                                        4713952
LMR   000.92 211.8 m E Sg      2011/06/29 19:23:50.5  -0.5                          T               23.2  .28 Ml 2.7 Md 1.9  4713949
ORIF  001.22 311.2 m E Pn      2011/06/29 19:23:44.1  -0.2                          T                                        4713956
ORIF  001.22 311.2 m E Sg      2011/06/29 19:23:59.8  -0.7                          T                3.5  .30 Ml 2.0         4713945
SMRF  001.16 263.5 m E Pg      2011/06/29 19:23:44.4   0.9                          T                                        4713953
SMRF  001.16 263.5 m E Sg      2011/06/29 19:24:00.4   1.8                          T               19.0  .26 Ml 2.8 Md 1.9  4713948
LPG   001.41 347.8 m E Pg      2011/06/29 19:23:48.5   0.1                          T                                        4713954
LPG   001.41 347.8 m E Sg      2011/06/29 19:24:06.8   0.2                          T                 .9  .19 Ml 1.7         4713947
LPL   001.43 347.5 m E Pg      2011/06/29 19:23:48.8   0.1                          T                                        4713955
LPL   001.43 347.5 m E Sg      2011/06/29 19:24:07.4   0.2                          T                1.8  .30 Ml 1.8         4713946
VIVF  001.94 293.2 m E Sg      2011/06/29 19:23:54.7 -28.0                          T                1.9  .21 Ml 2.1         4713957
VIVF  001.94 293.2 m E Sn      2011/06/29 19:24:17.8   0.4                          T                                        4713944
PGF   002.06 139.1 m E Pn      2011/06/29 19:23:55.7   0.0                          T                                        4713951
PGF   002.06 139.1 m E Sn      2011/06/29 19:24:19.8  -0.7                          T                1.0  .14 Ml 2.3         4713950

.
