EVENT     300449
    Date      Time       Latitude Longitude    Depth    Ndef Nsta Gap    Mag1  N    Mag2  N    Mag3  N   Author         ID
       rms   OT_Error      Smajor Sminor Az        Err   mdist  Mdist     Err        Err        Err      Quality

2013/06/07 10:01:36.4     44.3444    5.9112       .0 f    14    7 097  Ml 1.9  4  Md 1.8  3              bulletin    300549
                                                                                                         _ldg
      0.26   +-  0.09       1.8    1.6   95.35 +-  0.0    0.44   1.50   +-0.4      +-0.1                 m i km

FRANCE
Sta     Dist  EvAz     Phase      Date       Time     TRes  Azim  AzRes  Slow  SRes Def   SNR       Amp   Per   Mag1   Mag2       ID
SMRF  000.44 213.4 m E Pg      2013/06/07 10:01:45.6   0.4                          T                                        5305821
SMRF  000.44 213.4 m E Sg      2013/06/07 10:01:51.2   0.0                          T               18.3  .24        Md 1.9  5305820
ORIF  000.57 357.8 m E Pg      2013/06/07 10:01:47.7   0.0                          T                                        5305835
ORIF  000.57 357.8 m E Sg      2013/06/07 10:01:55.6   0.2                          T                 .6  .21        Md 1.8  5305834
MBDF  000.72 057.8 m E Pg      2013/06/07 10:01:50.5   0.0                          T                                        5305833
MBDF  000.72 057.8 m E Sg      2013/06/07 10:02:00.2   0.1                          T                  1  .21        Md 1.7  5305832
FRF   000.95 145.6 m E Pg      2013/06/07 10:01:54.2  -0.2                          T                                        5305826
FRF   000.95 145.6 m E Sg      2013/06/07 10:02:06.6  -0.4                          T                3.5  .23 Ml 2.0         5305838
LMR   001.10 156.6 m E Pg      2013/06/07 10:01:57.5   0.3                          T                                        5305818
LMR   001.10 156.6 m E Sg      2013/06/07 10:02:11.2  -0.4                          T                6.7  .22 Ml 2.4         5305819
SBF   001.20 113.1 m E Pg      2013/06/07 10:01:59.2   0.1                          T                                        5305837
SBF   001.20 113.1 m E Sg      2013/06/07 10:02:14.8  -0.1                          T                3.5  .30 Ml 2.0         5305836
LASF  001.50 260.4 m E Pn      2013/06/07 10:02:02.7  -0.4                          T                                        5305831
LASF  001.50 260.4 m E Sn      2013/06/07 10:02:22.1  -0.2                          T                 .6  .26 Ml 1.4         5305830

.
EVENT     300443
    Date      Time       Latitude Longitude    Depth    Ndef Nsta Gap    Mag1  N    Mag2  N    Mag3  N   Author         ID
       rms   OT_Error      Smajor Sminor Az        Err   mdist  Mdist     Err        Err        Err      Quality

2013/06/07 10:07:18.3     43.1155    -.5975      6.0 f   209   41 061  Ml 3.8 73  Md 3.6  7              bulletin    300543
                                                                                                         _ldg
      0.87   +-  0.06       1.5    1.1  138.74 +-  0.0    0.08   8.68   +-0.3      +-0.1                 m i ke

PYRENEES
Sta     Dist  EvAz     Phase      Date       Time     TRes  Azim  AzRes  Slow  SRes Def   SNR       Amp   Per   Mag1   Mag2       ID
ETSF  000.22 172.6 m E Pg      2013/06/07 10:07:22.7  -0.2                          T                                        5305498
ETSF  000.22 172.6 m E Sg      2013/06/07 10:07:25.6  -0.4                          T            18414.4  .30        Md 3.5  5305521
SJPF  000.46 269.9 m E Pg      2013/06/07 10:07:26.8  -0.4                          T   001.0                                5305453
SJPF  000.46 269.9 m E Sg      2013/06/07 10:07:33.0  -0.4                          T             2641.7  .20        Md 3.5  5305520
EPF   000.69 096.7 m E Pg      2013/06/07 10:07:31.7   0.2                          T   001.0                        Md 3.5  5305467
EPF   000.69 096.7 m E Sg      2013/06/07 10:07:40.5  -0.1                          T                                        5307905
EPF   000.69 096.7 m E Sn      2013/06/07 10:07:43.1  -0.5                          T             1087.7  .24        Md 3.5  5305522
LFF   002.06 027.4 m E Pn      2013/06/07 10:07:51.9   0.2                          T   001.0                                5305475
LFF   002.06 027.4 m E Pg      2013/06/07 10:07:57.3   0.6                          T                                        5305519
LFF   002.06 027.4 m E Sn      2013/06/07 10:08:17.1   0.9                          T   001.0      144.6  .25 Ml 3.8         5305476
LFF   002.06 027.4 m E Sg      2013/06/07 10:08:24.7   1.5                          T              605.4  .42 Ml 4.2 Md 3.6  5307876
MTLF  002.07 082.8 m E Pn      2013/06/07 10:07:52.1   0.2                          T   001.0                                5305491
MTLF  002.07 082.8 m E Pg      2013/06/07 10:07:56.3  -0.6                          T                                        5305720
MTLF  002.07 082.8 m E Sn      2013/06/07 10:08:16.2  -0.3                          T                                        5307898
MTLF  002.07 082.8 m E Sg      2013/06/07 10:08:23.4   0.0                          T   001.0      288.9  .34 Ml 4.1 Md 3.7  5305492
CAF   002.64 045.8 m E P       2013/06/07 10:07:59.7  -2.6                          T   001.0                                5305464
CAF   002.64 045.8 m E Pg      2013/06/07 10:08:07.8   0.5                          T                                        5307906
CAF   002.64 045.8 m E Sn      2013/06/07 10:08:30.2   0.1                          T   001.0       65.4  .16 Ml 4.0         5305465
CAF   002.64 045.8 m E Sg      2013/06/07 10:08:42.8   1.5                          T              212.7  .28 Ml 4.2         5307875
RJF   002.66 034.1 m E P       2013/06/07 10:08:00.0  -2.7                          T   001.0                                5305458
RJF   002.66 034.1 m E Pg      2013/06/07 10:08:08.2   0.4                          T                                        5305518
RJF   002.66 034.1 m E Sn      2013/06/07 10:08:30.5  -0.2                          T   001.0       63.3  .18 Ml 3.6         5305459
RJF   002.66 034.1 m E Sg      2013/06/07 10:08:43.3   1.3                          T              197.3  .22 Ml 4.0         5307877
LASF  003.38 072.0 m E Pn      2013/06/07 10:08:09.9   0.2                          T   001.0                                5305473
LASF  003.38 072.0 m E Pg      2013/06/07 10:08:19.7  -1.2                          T                                        5305748
LASF  003.38 072.0 m E Sn      2013/06/07 10:08:48.1   0.4                          T   001.0       60.7  .25 Ml 3.9         5305474
LASF  003.38 072.0 m E Sg      2013/06/07 10:09:04.4   0.1                          T              104.9  .37 Ml 4.0         5307874
MFF   003.50 005.1 m E Pn      2013/06/07 10:08:10.5  -0.9                          T   001.0                                5305481
MFF   003.50 005.1 m E Pg      2013/06/07 10:08:21.7  -1.5                          T                                        5305533
MFF   003.50 005.1 m E Sn      2013/06/07 10:08:50.5  -0.2                          T               46.5  .28 Ml 3.9         5305513
MFF   003.50 005.1 m E Sg      2013/06/07 10:09:09.2   1.1                          T              100.3  .24 Ml 4.3         5307878
TCF   003.75 031.3 m E Pn      2013/06/07 10:08:14.7  -0.1                          T   001.0                                5305485
TCF   003.75 031.3 m E P       2013/06/07 10:08:18.1  -0.1                          T                                        5307909
TCF   003.75 031.3 m E Sn      2013/06/07 10:08:56.0  -0.6                          T   001.0       33.0  .22 Ml 3.8         5305486
VIVF  004.18 063.6 m E Pn      2013/06/07 10:08:20.8   0.1                          T   001.0                                5305454
VIVF  004.18 063.6 m E P       2013/06/07 10:08:24.7   0.3                          T                                        5307904
VIVF  004.18 063.6 m E Sn      2013/06/07 10:09:07.2   0.2                          T   001.0       16.9  .22 Ml 3.6         5305455
VIVF  004.18 063.6 m E Sg      2013/06/07 10:09:30.5   1.1                          T               27.3  .34 Ml 3.6         5307873
BGF   004.22 034.2 m E Pn      2013/06/07 10:08:20.9  -0.3                          T   001.0                                5305462
BGF   004.22 034.2 m E Sn      2013/06/07 10:09:07.8  -0.1                          T   001.0      104.0  .36 Ml 4.2         5305463
BGF   004.22 034.2 m E Sg      2013/06/07 10:09:30.1  -0.6                          T              373.0  .34 Ml 4.7         5305517
SMRF  004.57 077.0 m E Pn      2013/06/07 10:08:25.8  -0.2                          T   001.0                                5305457
SMRF  004.57 077.0 m E P       2013/06/07 10:08:29.4  -0.4                          T                                        5307903
SMRF  004.57 077.0 m E Sn      2013/06/07 10:09:15.6  -0.7                          T               28.8  .48 Ml 3.6         5305503
SMRF  004.57 077.0 m E Sg      2013/06/07 10:09:42.9   1.3                          T               32.7  .48 Ml 3.6 Md 3.6  5307870
AVF   004.62 036.0 m E Pn      2013/06/07 10:08:26.6   0.0                          T   001.0                                5305460
AVF   004.62 036.0 m E Sn      2013/06/07 10:09:17.5   0.1                          T               18.3  .38 Ml 3.5         5305514
AVF   004.62 036.0 m E Sg      2013/06/07 10:09:43.1   0.0                          T   001.0       82.3  .36 Ml 4.1         5305461
SMF   004.73 040.3 m E Pn      2013/06/07 10:08:28.0  -0.2                          T   001.0                                5305483
SMF   004.73 040.3 m E P       2013/06/07 10:08:32.3   0.2                          T                                        5307908
SMF   004.73 040.3 m E Sn      2013/06/07 10:09:20.4   0.3                          T                9.3  .22 Ml 3.4         5307895
SMF   004.73 040.3 m E Sg      2013/06/07 10:09:46.0  -0.6                          T               24.8  .28 Ml 3.8         5305515
HYF   004.74 027.7 m E Pn      2013/06/07 10:08:28.4   0.1                          T                                        5305532
HYF   004.74 027.7 m E P       2013/06/07 10:08:32.3   0.1                          T                                        5307907
HYF   004.74 027.7 m E Sn      2013/06/07 10:09:21.0   0.7                          T                                        5307896
HYF   004.74 027.7 m E Sg      2013/06/07 10:09:47.2   0.4                          T                                        5305516
SSF   004.90 034.9 m E Pn      2013/06/07 10:08:29.6  -0.9                          T   001.0                                5305484
SSF   004.90 034.9 m E Sn      2013/06/07 10:09:24.6   0.6                          T               12.8  .24 Ml 3.7         5307892
SSF   004.90 034.9 m E Sg      2013/06/07 10:09:51.4  -0.4                          T               90.2  .58 Ml 4.1         5305526
ORIF  005.01 066.7 m E Pn      2013/06/07 10:08:32.3   0.3                          T   001.0                                5305493
ORIF  005.01 066.7 m E P       2013/06/07 10:08:36.2   0.1                          T                                        5305500
ORIF  005.01 066.7 m E Sn      2013/06/07 10:09:26.2  -0.6                          T   001.0       15.8  .32 Ml 3.6         5305494
QUIF  005.13 340.3 m E Pn      2013/06/07 10:08:33.4  -0.1                          T   001.0                                5305495
QUIF  005.13 340.3 m E Sn      2013/06/07 10:09:27.7  -1.8                          T               27.4  .24 Ml 4.0         5305512
QUIF  005.13 340.3 m E Sg      2013/06/07 10:10:00.4   1.4                          T               30.6  .31 Ml 3.9         5307882
LMR   005.20 085.2 m E Pn      2013/06/07 10:08:34.4   0.0                          T   001.0                                5305477
LMR   005.20 085.2 m E P       2013/06/07 10:08:38.2  -0.5                          T                                        5307901
LMR   005.20 085.2 m E Sn      2013/06/07 10:09:31.0  -0.2                          T   001.0        5.7  .23 Ml 3.3         5305478
LMR   005.20 085.2 m E Sg      2013/06/07 10:10:01.0  -0.1                          T   001.0        6.8  .27 Ml 3.3         5305479
LOR   005.21 035.6 m E Pn      2013/06/07 10:08:34.8   0.1                          T   001.0                                5305480
LOR   005.21 035.6 m E Sn      2013/06/07 10:09:31.5   0.0                          T                9.8  .25 Ml 3.5         5305524
LOR   005.21 035.6 m E Sg      2013/06/07 10:10:02.1   0.6                          T               60.2  .54 Ml 4.0         5305525
GRR   005.28 358.1 m E Pn      2013/06/07 10:08:34.8  -0.8                          T   001.0                                5305471
GRR   005.28 358.1 m E Sn      2013/06/07 10:09:32.7  -0.4                          T   001.0       19.8  .26 Ml 3.7         5305472
GRR   005.28 358.1 m E Sg      2013/06/07 10:10:05.2   1.7                          T               43.0  .41 Ml 3.8         5307879
SGMF  005.32 345.7 m E Pn      2013/06/07 10:08:35.7  -0.4                          T   001.0                                5305497
SGMF  005.32 345.7 m E Sn      2013/06/07 10:09:33.7  -0.4                          T               10.0  .25 Ml 3.5         5305511
SGMF  005.32 345.7 m E Sg      2013/06/07 10:10:06.0   1.2                          T               50.1  .42 Ml 4.0         5307883
FRF   005.30 082.7 m E Pn      2013/06/07 10:08:35.9   0.0                          T   001.0                                5305470
FRF   005.30 082.7 m E P       2013/06/07 10:08:39.5  -0.6                          T                                        5307902
FRF   005.30 082.7 m E Sn      2013/06/07 10:09:33.3  -0.4                          T               13.0  .31 Ml 3.6         5305504
FRF   005.30 082.7 m E Sg      2013/06/07 10:10:04.9   0.5                          T               14.0  .33 Ml 3.6         5307868
LDF   005.49 003.3 m E Pn      2013/06/07 10:08:37.8  -0.6                          T                                        5305534
LDF   005.49 003.3 m E Sn      2013/06/07 10:09:35.8  -2.3                          T                9.9  .22 Ml 3.6         5305509
LDF   005.49 003.3 m E Sg      2013/06/07 10:10:11.7   1.6                          T               60.2  .52 Ml 4.0         5307880
ROSF  005.55 341.2 m E Pn      2013/06/07 10:08:38.9  -0.3                          T   001.0                                5305496
ROSF  005.55 341.2 m E Sn      2013/06/07 10:09:38.2  -1.3                          T               15.9  .20 Ml 3.9         5305510
ROSF  005.55 341.2 m E Sg      2013/06/07 10:10:13.2   1.2                          T               36.1  .38 Ml 4.0         5307884
FLN   005.65 000.8 m E Pn      2013/06/07 10:08:40.4  -0.2 188.8  8.0               T   001.0                                5305468
FLN   005.65 000.8 m E Sn      2013/06/07 10:09:40.5  -1.5                          T   001.0       20.8  .28 Ml 3.7         5305469
FLN   005.65 000.8 m E Sg      2013/06/07 10:10:15.9   0.7                          T               40.3  .38 Ml 3.9         5307881
LPG   005.79 063.2 m E Pn      2013/06/07 10:08:42.5  -0.3                          T                                        5305502
LPG   005.79 063.2 m E Sg      2013/06/07 10:10:21.0   1.2                          T               17.1  .53 Ml 3.6         5307869
MBDF  005.56 070.6 m E P       2013/06/07 10:08:42.8  -1.1                          T   001.0                                5305490
MBDF  005.56 070.6 m E Sn      2013/06/07 10:09:40.3   0.3                          T                9.5  .44 Ml 3.3         5305499
MBDF  005.56 070.6 m E Sg      2013/06/07 10:10:13.6   0.9                          T                7.2  .51 Ml 3.1         5307872
SBF   005.89 080.0 m E Pn      2013/06/07 10:08:44.0   0.0                          T                                        5305507
SBF   005.89 080.0 m E P       2013/06/07 10:08:48.2  -0.3                          T                                        5307900
SBF   005.89 080.0 m E Sn      2013/06/07 10:09:47.9   0.0                          T               16.8  .38 Ml 3.7         5305505
SBF   005.89 080.0 m E Sg      2013/06/07 10:10:21.9  -1.0                          T               24.6  .56 Ml 3.7         5307867
CABF  005.90 051.4 m E Pn      2013/06/07 10:08:44.3   0.2                          T                                        5305536
CABF  005.90 051.4 m E Pg      2013/06/07 10:09:07.8   0.4                          T                                        5305535
CABF  005.90 051.4 m E Sg      2013/06/07 10:10:22.7  -0.3                          T               42.6  .66 Ml 3.9         5305508
LPL   005.78 063.0 m E P       2013/06/07 10:08:47.0  -0.2                          T                                        5305501
LPL   005.78 063.0 m E Sg      2013/06/07 10:10:20.5   0.9                          T               11.3  .43 Ml 3.5         5307871
SFTF  006.44 035.8 m E Pn      2013/06/07 10:08:51.1  -0.3                          T                                        5305538
SFTF  006.44 035.8 m E Sn      2013/06/07 10:10:01.3   0.4                          T                7.3  .19 Ml 3.8         5305530
SFTF  006.44 035.8 m E Sg      2013/06/07 10:10:41.2   1.3                          T               34.6  .41 Ml 4.1         5307887
MEZF  006.68 034.3 m E Pn      2013/06/07 10:08:54.2  -0.4                          T                                        5305537
MEZF  006.68 034.3 m E Sn      2013/06/07 10:10:06.8   0.2                          T                5.7  .32 Ml 3.4         5305529
MEZF  006.68 034.3 m E Sg      2013/06/07 10:10:48.4   1.2                          T               27.2  .43 Ml 4.0         5307888
PAGF  007.00 036.9 m E Pn      2013/06/07 10:08:58.7  -0.4                          T                                        5305539
PAGF  007.00 036.9 m E Sn      2013/06/07 10:10:14.8   0.4                          T                7.3  .37 Ml 3.5         5305528
PAGF  007.00 036.9 m E Sg      2013/06/07 10:10:59.2   1.7                          T               27.0  .50 Ml 4.0         5307889
PGF   007.08 091.3 m E P       2013/06/07 10:09:03.4  -1.9                          T                                        5307899
PGF   007.08 091.3 m E Sn      2013/06/07 10:10:16.1  -0.2                          T               18.4  .38 Ml 4.2         5305506
BAIF  007.69 023.8 m E Pn      2013/06/07 10:09:07.7  -0.7                          T   001.0                                5305488
BAIF  007.69 023.8 m E Sn      2013/06/07 10:10:31.2   0.5                          T                3.8  .31 Ml 3.5         5307894
BAIF  007.69 023.8 m E Sg      2013/06/07 10:11:20.5   1.6                          T               11.1  .56 Ml 3.7         5307890
CDF   007.64 043.4 m E Pn      2013/06/07 10:09:08.4   0.5                          T                                        5305523
CDF   007.64 043.4 m E Sg      2013/06/07 10:11:16.6  -0.8                          T               24.5  .58 Ml 4.1         5305527
GIVF  007.92 026.2 m E Pn      2013/06/07 10:09:11.7   0.2                          T   001.0                                5305489
GIVF  007.92 026.2 m E Sn      2013/06/07 10:10:36.7   0.5                          T                8.3  .28 Ml 3.9         5307893
GIVF  007.92 026.2 m E Sg      2013/06/07 10:11:28.0   1.9                          T               19.6  .47 Ml 4.0         5307891
HAU   006.90 042.5 m E Sg      2013/06/07 10:10:55.7   1.3                          T               19.0  .42 Ml 3.7         5307886
