BEGIN GSE2.0
MSG_TYPE DATA
MSG_ID 07-MAY-1213:10:09  FRA_NDC
E-MAIL
DATA_TYPE BULLETIN
Reviewed Bulletin (REB) # P2012-017  from French NDC for regional phases     PERIOD 25 APR 2012 TO 01 MAY 2012 S M., J-P S
EVENT     274470
    Date      Time       Latitude Longitude    Depth    Ndef Nsta Gap    Mag1  N    Mag2  N    Mag3  N   Author         ID
       rms   OT_Error      Smajor Sminor Az        Err   mdist  Mdist     Err        Err        Err      Quality

2012/04/25 03:18:21.1     36.4069    1.6449     30.0     337   41 034                                    bulletin    274570
                                                                                                         _ldg
                                               +-         0.15  89.24                                    m i ke

NORTHERN ALGERIA
Sta     Dist  EvAz     Phase      Date       Time     TRes  Azim  AzRes  Slow  SRes Def   SNR       Amp   Per   Mag1   Mag2       ID
EPF   006.69 351.8 m E Pn      2012/04/25 03:19:56.1   0.7                          T                                        4923732
EPF   006.69 351.8 m E Sn      2012/04/25 03:21:06.2   0.0                          T              134.2  .27                4923776
ETSF  006.70 346.0 m E Pn      2012/04/25 03:19:56.3   0.7                          T                                        4923731
ETSF  006.70 346.0 m E Sn      2012/04/25 03:21:05.5  -0.9                          T              269.3  .74                4936167
MTLF  006.94 003.5 m E Pn      2012/04/25 03:19:59.2   0.5                          T                                        4923733
MTLF  006.94 003.5 m E Sn      2012/04/25 03:21:06.9  -5.2                          T               55.3  .35                4923777
SJPF  007.05 342.6 m E Pn      2012/04/25 03:20:01.1   0.8                          T                                        4923730
SJPF  007.05 342.6 m E Sn      2012/04/25 03:21:11.5  -3.3                          T              117.9  .38                4923775
LASF  007.84 011.8 m E Pn      2012/04/25 03:20:11.8   0.7                          T                                        4923750
LASF  007.84 011.8 m E Sn      2012/04/25 03:21:30.0  -3.7                          T               88.6  .56                4923760
FRF   008.11 026.7 m E Pn      2012/04/25 03:20:14.4  -0.3                          T                                        4923754
FRF   008.11 026.7 m E P       2012/04/25 03:20:19.0  -0.6                          T                                        4923783
FRF   008.11 026.7 m E Sn      2012/04/25 03:21:37.9  -2.0                          T              174.0  .32                4923779
SMRF  008.14 020.5 m E Pn      2012/04/25 03:20:16.1   1.1                          T                                        4923753
SMRF  008.14 020.5 m E Sn      2012/04/25 03:21:41.6   1.0                          T               28.9  .39                4923778
LMR   007.86 026.9 m E Pn      2012/04/25 03:20:17.0   5.8                          T                                        4923784
LMR   007.86 026.9 m E Sn      2012/04/25 03:21:28.0  -6.1                          T               36.1  .23                4923781
PGF   008.36 040.6 m E Pn      2012/04/25 03:20:17.2  -1.0                          T                                        4923757
PGF   008.36 040.6 m E P       2012/04/25 03:20:23.0  -0.3                          T                                        4923786
PGF   008.36 040.6 m E Sn      2012/04/25 03:21:43.6  -2.5                          T               49.0  .40                4923780
CAF   008.52 002.0 m E Pn      2012/04/25 03:20:20.8   0.6                          T                                        4923729
CAF   008.52 002.0 m E Sn      2012/04/25 03:21:48.7  -1.0                          T               94.5  .54                4923774
LFF   008.55 355.7 m E Pn      2012/04/25 03:20:20.9   0.2                          T                                        4923728
LFF   008.55 355.7 m E Sn      2012/04/25 03:21:51.9   1.4                          T              118.6  .38                4923773
SBF   008.66 029.0 m E Pn      2012/04/25 03:20:22.9   0.6                          T                                        4923756
SBF   008.66 029.0 m E P       2012/04/25 03:20:27.5   0.0                          T                                        4923785
SBF   008.66 029.0 m E Sn      2012/04/25 03:21:52.5  -0.9                          T               96.8  .36                4936174
VIVF  008.75 014.3 m E Pn      2012/04/25 03:20:24.2   0.8                          T                                        4923734
VIVF  008.75 014.3 m E Sn      2012/04/25 03:21:53.5  -1.8                          T               32.9  .47                4923761
RJF   008.89 359.4 m E Pn      2012/04/25 03:20:26.1   0.8                          T                                        4923727
RJF   008.89 359.4 m E Sn      2012/04/25 03:21:54.0  -4.6                          T               74.8  .49                4923772
ORIF  009.09 019.4 m E Pn      2012/04/25 03:20:29.8   1.7                          T                                        4923736
ORIF  009.09 019.4 m E Sn      2012/04/25 03:22:03.4  -0.1                          T               11.3  .33                4923765
MBDF  009.18 023.5 m E Pn      2012/04/25 03:20:31.0   1.6                          T                                        4923735
MBDF  009.18 023.5 m E Sn      2012/04/25 03:22:08.5   2.8                          T               57.1  .61                4923762
TCF   009.88 002.3 m E Pn      2012/04/25 03:20:39.1   0.3                          T                                        4923748
TCF   009.88 002.3 m E Sn      2012/04/25 03:22:21.1  -1.2                          T               43.5  .56                4936168
LPG   000.00 000.0 m E Sn                                                                           56.5  .54                4923763
LPG   009.87 021.4 m E Pn      2012/04/25 03:20:41.4   2.4                          T                                        4923752
LPL   009.88 021.3 m E Pn      2012/04/25 03:20:41.6   2.6                          T                                        4923751
LPL   009.88 021.3 m E Sn      2012/04/25 03:22:22.3  -0.2                          T               63.9  .72                4923764
BGF   010.18 004.7 m E Pn      2012/04/25 03:20:43.8   1.0                          T                                        4923726
MFF   010.27 353.1 m E Pn      2012/04/25 03:20:44.0  -0.1                          T                                        4923737
MFF   010.27 353.1 m E Sn      2012/04/25 03:22:29.8  -1.9                          T               78.0  .48                4923759
SMF   010.36 008.4 m E Pn      2012/04/25 03:20:46.7   1.3                          T                                        4923782
SMF   010.36 008.4 m E Sn      2012/04/25 03:22:33.4  -0.4                          T                 10  .43                4936170
AVF   010.45 006.5 m E Pn      2012/04/25 03:20:47.8   1.2                          T                                        4923725
CABF  010.72 016.7 m E Pn      2012/04/25 03:20:51.3   1.0                          T                                        4923743
SSF   010.74 006.8 m E Pn      2012/04/25 03:20:51.4   1.0                          T                                        4923747
HYF   010.88 003.6 m E Pn      2012/04/25 03:20:53.4   1.1                          T                                        4936175
LOR   010.98 007.9 m E Pn      2012/04/25 03:20:55.7   2.0 192.1  2.6               T                                        4923746
HINF  012.04 017.1 m E Pn      2012/04/25 03:21:08.1  -0.1                          T                                        4923749
HINF  012.04 017.1 m E Sn      2012/04/25 03:23:13.6  -0.2                          T                8.1  .39                4936169
GRR   012.11 352.0 m E Pn      2012/04/25 03:21:08.6  -0.6                          T                                        4923741
GRR   012.11 352.0 m E Sn      2012/04/25 03:23:14.9  -0.7                          T               23.4  .37                4936173
QUIF  012.04 344.3 m E Pn      2012/04/25 03:21:08.6   0.5                          T                                        4923738
QUIF  012.04 344.3 m E Sn      2012/04/25 03:23:13.9   0.1                          T               26.4  .34                4923758
HAU   012.10 015.2 m E Pn      2012/04/25 03:21:09.5   0.5                          T                                        4936176
SFTF  012.05 010.9 m E Pn      2012/04/25 03:21:09.9   1.6 180.0  -13.2             T                                        4923744
LDF   012.25 354.5 m E Pn      2012/04/25 03:21:10.6  -0.4                          T                                        4923742
LDF   012.25 354.5 m E Sn      2012/04/25 03:23:17.2  -1.6                          T               28.4  .48                4936172
SGMF  012.24 346.6 m E Pn      2012/04/25 03:21:11.2   0.4                          T                                        4923739
MEZF  012.34 010.7 m E Pn      2012/04/25 03:21:13.1   0.8 187.1  -5.8              T                                        4936177
FLN   012.45 353.5 m E Pn      2012/04/25 03:21:13.6   0.0                          T                                        4923724
FLN   012.45 353.5 m E Sn      2012/04/25 03:23:22.6  -0.9                          T               49.2  .44                4936171
ROSF  012.46 344.6 m E Pn      2012/04/25 03:21:13.9   0.1                          T                                        4923740
CDF   012.69 017.3 m E Pn      2012/04/25 03:21:16.8  -0.4                          T                                        4923745
PAGF  012.51 012.6 m E P       2012/04/25 03:21:19.6  -0.2                          T                                        4936178
BAIF  013.77 007.0 m E Pn      2012/04/25 03:21:33.3   1.6                          T                                        4936179
LIC   030.66 193.1 m E P       2012/04/25 03:24:34.2  -0.9  23.1  12.5              T                7.8  .46                4936166

.
EVENT     274485
    Date      Time       Latitude Longitude    Depth    Ndef Nsta Gap    Mag1  N    Mag2  N    Mag3  N   Author         ID
       rms   OT_Error      Smajor Sminor Az        Err   mdist  Mdist     Err        Err        Err      Quality

2012/04/25 03:54:38.0     43.0694    -.3500      5.0 f    19    4 166  Ml 1.6  1  Md 1.7  3              bulletin    274585
                                                                                                         _ldg
      0.45   +-  0.11       2.9    1.4    2.24 +-  0.0    0.23   2.02   +-         +-0.0                 m i ke

PYRENEES
Sta     Dist  EvAz     Phase      Date       Time     TRes  Azim  AzRes  Slow  SRes Def   SNR       Amp   Per   Mag1   Mag2       ID
ETSF  000.23 222.0 m E Pg      2012/04/25 03:54:42.2  -0.5                          T                                        4922180
ETSF  000.23 222.0 m E Sg      2012/04/25 03:54:45.3  -0.6                          T                9.2  .28        Md 1.7  4922179
EPF   000.51 094.2 m E Pg      2012/04/25 03:54:47.5  -0.3                          T                                        4922178
EPF   000.51 094.2 m E Sg      2012/04/25 03:54:54.1  -0.4                          T                3.3  .22        Md 1.7  4922177
SJPF  000.64 274.2 m E Pg      2012/04/25 03:54:50.4   0.2                          T                                        4932928
SJPF  000.64 274.2 m E Sg      2012/04/25 03:54:58.4  -0.2                          T                1.6  .22        Md 1.7  4932927
MTLF  001.90 080.9 m E Pn      2012/04/25 03:55:09.1  -0.1                          T                                        4922272
MTLF  001.90 080.9 m E Pg      2012/04/25 03:55:13.3   0.0                          T                                        4934364
MTLF  001.90 080.9 m E Sg      2012/04/25 03:55:37.9   0.2                          T                 .6  .22 Ml 1.6         4932929

.
EVENT     274487
    Date      Time       Latitude Longitude    Depth    Ndef Nsta Gap    Mag1  N    Mag2  N    Mag3  N   Author         ID
       rms   OT_Error      Smajor Sminor Az        Err   mdist  Mdist     Err        Err        Err      Quality

2012/04/25 06:49:38.5     43.7969    7.4071      2.0      55   10 068  Ml 2.1  6  Md 2.3  3              bulletin    274587
                                                                                                         _ldg
      0.77   +-  0.10       2.0    1.7  172.18 +-  0.0    0.04   2.58   +-0.3      +-0.1                 m i ke

NEAR SOUTH COAST OF FRANCE
Sta     Dist  EvAz     Phase      Date       Time     TRes  Azim  AzRes  Slow  SRes Def   SNR       Amp   Per   Mag1   Mag2       ID
SBF   000.07 017.1 m E Pg      2012/04/25 06:49:40.3   0.0                          T                                        4922265
SBF   000.07 017.1 m E Sg      2012/04/25 06:49:41.3  -0.1                          T              344.0  .20        Md 2.4  4922266
FRF   000.60 247.1 m E Pg      2012/04/25 06:49:49.7  -0.2                          T                                        4922264
FRF   000.60 247.1 m E Sg      2012/04/25 06:49:58.2   0.5                          T                8.3  .16        Md 2.3  4922283
MBDF  001.04 334.1 m E Pg      2012/04/25 06:49:58.1  -0.1                          T                                        4922287
MBDF  001.04 334.1 m E Sg      2012/04/25 06:50:12.4   0.8                          T                                Md 2.2  4922286
SMRF  001.34 278.3 m E Pg      2012/04/25 06:50:03.9   0.4                          T                                        4922291
SMRF  001.34 278.3 m E Sg      2012/04/25 06:50:22.1   1.3                          T                9.3  .21 Ml 2.6         4922290
PGF   001.71 136.4 m E Pn      2012/04/25 06:50:06.5  -1.2                          T                                        4932933
PGF   001.71 136.4 m E Sn      2012/04/25 06:50:28.4  -0.4                          T                                        4932932
ORIF  001.57 316.2 m E Pg      2012/04/25 06:50:07.6  -0.2                          T                                        4922289
ORIF  001.57 316.2 m E Sg      2012/04/25 06:50:29.7   1.6                          T                3.0  .29 Ml 2.1         4922288
LPG   001.76 344.8 m E Pn      2012/04/25 06:50:09.0   0.3                          T                                        4932937
LPG   001.76 344.8 m E Sn      2012/04/25 06:50:30.1  -0.3                          T                 .5  .16 Ml 1.6         4932936
LPL   001.79 344.6 m E Pn      2012/04/25 06:50:09.0   0.1                          T                                        4932938
LPL   001.79 344.6 m E Sn      2012/04/25 06:50:30.6  -0.2                          T                1.5  .20 Ml 2.0         4932935
VIVF  002.23 299.3 m E Pn      2012/04/25 06:50:15.0   0.3                          T                                        4922284
VIVF  002.23 299.3 m E Sn      2012/04/25 06:50:41.0  -0.2                          T                 .9  .17 Ml 2.0         4922285
LASF  002.58 277.4 m E Sn      2012/04/25 06:50:49.5  -0.1                          T                  1  .19 Ml 2.0         4932934

.
EVENT     274490
    Date      Time       Latitude Longitude    Depth    Ndef Nsta Gap    Mag1  N    Mag2  N    Mag3  N   Author         ID
       rms   OT_Error      Smajor Sminor Az        Err   mdist  Mdist     Err        Err        Err      Quality

2012/04/25 08:58:53.6     46.2737    3.8094       .0 f    20    7 153  Ml 2.3  4  Md 1.8  2              bulletin    274590
                                                                                                         _ldg
      0.60   +-  0.09       2.1    1.4   75.84 +-  0.0    0.37   1.54   +-0.4      +-0.0                 m i km

FRANCE
Sta     Dist  EvAz     Phase      Date       Time     TRes  Azim  AzRes  Slow  SRes Def   SNR       Amp   Per   Mag1   Mag2       ID
SMF   000.37 003.4 m E Pg      2012/04/25 08:59:00.7  -0.4                          T                                        4922327
SMF   000.37 003.4 m E Sg      2012/04/25 08:59:06.0  -0.2                          T                3.6  .25        Md 1.7  4922332
AVF   000.61 328.8 m E Pg      2012/04/25 08:59:05.0  -0.2                          T                                        4922326
AVF   000.61 328.8 m E Sg      2012/04/25 08:59:13.1  -0.3                          T                2.2  .27                4934370
BGF   000.72 293.4 m E Pg      2012/04/25 08:59:07.5   0.0                          T                                        4922325
BGF   000.72 293.4 m E Pn      2012/04/25 08:59:09.3  -0.3                          T                                        4934368
BGF   000.72 293.4 m E Sg      2012/04/25 08:59:17.0  -0.2                          T               11.6  .35        Md 1.8  4922331
SSF   000.82 345.3 m E Pg      2012/04/25 08:59:09.3   0.1                          T                                        4936250
SSF   000.82 345.3 m E P       2012/04/25 08:59:10.7  -0.1                          T                                        4922323
SSF   000.82 345.3 m E Sg      2012/04/25 08:59:19.9  -0.1                          T                2.1  .18                4922321
LOR   001.00 001.9 m E Pg      2012/04/25 08:59:12.5   0.0                          T                                        4936249
LOR   001.00 001.9 m E Pn      2012/04/25 08:59:13.3  -0.1 176.5  -5.5              T                                        4922324
LOR   001.00 001.9 m E Sn      2012/04/25 08:59:27.5   0.1 185.6  3.6               T               16.7  .22 Ml 2.7         4922322
TCF   001.11 271.3 m E Pg      2012/04/25 08:59:14.8   0.1                          T                                        4934367
TCF   001.11 271.3 m E Sg      2012/04/25 08:59:29.5   0.3                          T                2.2  .19 Ml 2.0         4934366
VIVF  001.54 156.5 m E Pn      2012/04/25 08:59:20.8   0.0                          T                                        4922334
VIVF  001.54 156.5 m E Pg      2012/04/25 08:59:22.6   0.0                          T                                        4936248
VIVF  001.54 156.5 m E Sg      2012/04/25 08:59:42.8   0.1                          T                2.6  .29 Ml 2.0         4934369

.
