EVENT     268807
    Date      Time       Latitude Longitude    Depth    Ndef Nsta Gap    Mag1  N    Mag2  N    Mag3  N   Author         ID
       rms   OT_Error      Smajor Sminor Az        Err   mdist  Mdist     Err        Err        Err      Quality

2012/01/18 18:33:29.4  f  49.6638   -4.9173     10.0 f   197   38 134  Ml 3.9 69  Md 3.8  5              js067245    268827

      1.52   +-  0.00       2.6    1.6   43.93 +-  0.0    0.56  12.64   +-0.2      +-0.1                 m i ke

NORTH ATLANTIC OCEAN
Sta     Dist  EvAz     Phase      Date       Time     TRes  Azim  AzRes  Slow  SRes Def   SNR       Amp   Per   Mag1   Mag2       ID
ROSF  001.71 140.2 m E Pn      2012/01/18 18:33:58.4   0.7                          T   001.0                                4817343
ROSF  001.71 140.2 m E Pg      2012/01/18 18:34:00.8  -0.6                          T                                        4817348
ROSF  001.71 140.2 m E Sn      2012/01/18 18:34:17.4  -0.9                          T   001.0      265.2  .28 Ml 4.1         4817344
ROSF  001.71 140.2 m E Sg      2012/01/18 18:34:21.3  -2.2                          T              251.9  .26 Ml 4.1 Md 3.7  4817349
SGMF  002.10 131.3 m E Pn      2012/01/18 18:34:03.4   0.4                          T   001.0                                4817345
SGMF  002.10 131.3 m E Pg      2012/01/18 18:34:07.4  -1.0                          T                                        4817350
SGMF  002.10 131.3 m E Sg      2012/01/18 18:34:35.1  -0.4                          T              267.4  .46 Ml 4.0 Md 3.7  4817351
QUIF  002.10 145.8 m E Pn      2012/01/18 18:34:03.7   0.8                          T   001.0                                4817340
QUIF  002.10 145.8 m E P       2012/01/18 18:34:05.0  -0.2                          T                                        4817629
QUIF  002.10 145.8 m E Pg      2012/01/18 18:34:07.9  -0.5                          T                                        4817628
QUIF  002.10 145.8 m E Sn      2012/01/18 18:34:26.4  -1.1                          T   001.0                                4817341
QUIF  002.10 145.8 m E Sg      2012/01/18 18:34:34.2  -1.2                          T   001.0      287.8  .32 Ml 4.2 Md 3.7  4817342
GRR   002.96 114.0 m E Pn      2012/01/18 18:34:15.3   0.7                          T   001.0                                4817310
GRR   002.96 114.0 m E Sn      2012/01/18 18:34:46.4  -1.7                          T   001.0      186.3  .28 Ml 4.1         4817311
GRR   002.96 114.0 m E Sg      2012/01/18 18:35:01.2  -1.1                          T              244.0  .36 Ml 4.1         4817352
FLN   003.04 105.5 m E Pn      2012/01/18 18:34:17.1   1.3 287.6  -1.3              T   001.0                                4817309
FLN   003.04 105.5 m E Pg      2012/01/18 18:34:26.2   0.4 292.3  3.4               T                                        4817627
FLN   003.04 105.5 m E Sg      2012/01/18 18:35:03.2  -1.8 299.8  10.9              T              222.9  .44 Ml 4.0 Md 3.8  4817354
LDF   003.33 107.0 m E Pn      2012/01/18 18:34:20.9   1.3                          T   001.0                                4817314
LDF   003.33 107.0 m E P       2012/01/18 18:34:23.6   0.9                          T                                        4817626
LDF   003.33 107.0 m E Pg      2012/01/18 18:34:31.3   0.2                          T                                        4817625
LDF   003.33 107.0 m E Sg      2012/01/18 18:35:12.6  -1.2                          T              139.6  .34 Ml 4.1         4817353
MFF   004.43 132.0 m E Pn      2012/01/18 18:34:35.8   1.2                          T   001.0                                4817320
MFF   004.43 132.0 m E Sn      2012/01/18 18:35:22.1  -1.0                          T   001.0                                4817321
MFF   004.43 132.0 m E Sg      2012/01/18 18:35:46.3  -1.8                          T   001.0       63.5  .48 Ml 4.0         4817322
HYF   005.57 112.6 m E Pn      2012/01/18 18:34:50.9   0.8                          T                                        4817631
HYF   005.57 112.6 m E Sn      2012/01/18 18:35:49.6  -0.8                          T                                        4817615
HYF   005.57 112.6 m E Sg      2012/01/18 18:36:22.2  -1.6                          T                                        4817595
TCF   005.86 122.5 m E Pn      2012/01/18 18:34:54.7   0.6                          T   001.0                                4817325
TCF   005.86 122.5 m E Sn      2012/01/18 18:35:55.6  -1.8                          T               24.9  .20 Ml 4.2         4817609
TCF   005.86 122.5 m E Sg      2012/01/18 18:36:32.8   0.0                          T               39.8  .46 Ml 4.0         4817605
BAIF  005.92 082.7 m E Pn      2012/01/18 18:34:55.5   0.6                          T   001.0                                4817326
BAIF  005.92 082.7 m E Sn      2012/01/18 18:35:58.2  -0.5                          T   001.0       18.4  .36 Ml 3.8         4817327
BAIF  005.92 082.7 m E Sg      2012/01/18 18:36:35.4   0.9                          T               23.8  .39 Ml 3.9         4817603
BGF   006.06 117.9 m E Pn      2012/01/18 18:34:57.0   0.2                          T   001.0                                4817303
BGF   006.06 117.9 m E Sn      2012/01/18 18:36:00.7  -1.4                          T   001.0      107.5  .32 Ml 4.6         4817304
BGF   006.06 117.9 m E Sg      2012/01/18 18:36:38.0  -1.0                          T               93.0  .40 Ml 4.5         4817594
LFF   006.09 138.7 m E Pn      2012/01/18 18:34:58.2   0.9                          T   001.0                                4817315
LFF   006.09 138.7 m E Sn      2012/01/18 18:36:01.7  -1.2                          T   001.0       30.5  .36 Ml 3.9         4817316
LFF   006.09 138.7 m E Sg      2012/01/18 18:36:39.4  -0.7                          T               82.7  .54 Ml 4.1         4817591
RJF   006.17 132.6 m E Pn      2012/01/18 18:34:58.8   0.5                          T   001.0                                4817300
RJF   006.17 132.6 m E Sn      2012/01/18 18:36:01.2  -3.5                          T   001.0       40.5  .40 Ml 3.8         4817301
RJF   006.17 132.6 m E Sg      2012/01/18 18:36:40.4  -2.0                          T               44.1  .36 Ml 3.9         4817592
SSF   006.19 111.7 m E Pn      2012/01/18 18:34:58.8   0.2                          T   001.0                                4817324
SSF   006.19 111.7 m E Sn      2012/01/18 18:36:02.9  -2.3                          T                8.8  .22 Ml 3.8         4817608
SSF   006.19 111.7 m E Sg      2012/01/18 18:36:42.5  -0.5                          T               36.3  .46 Ml 4.1         4817606
AVF   006.23 114.4 m E Pn      2012/01/18 18:34:59.2   0.1                          T   001.0                                4817302
AVF   006.23 114.4 m E Sn      2012/01/18 18:36:03.3  -2.9                          T               21.0  .44 Ml 3.8         4817613
AVF   006.23 114.4 m E Sg      2012/01/18 18:36:44.5   0.2                          T               59.2  .74 Ml 4.0         4817597
LOR   006.31 109.0 m E Pn      2012/01/18 18:35:00.4   0.1 298.0  2.4               T   001.0                                4817317
LOR   006.31 109.0 m E Sn      2012/01/18 18:36:06.2  -2.0                          T   001.0       14.4  .28 Ml 3.9         4817318
LOR   006.31 109.0 m E Sg      2012/01/18 18:36:46.2  -0.7 311.1  15.5              T               39.2  .48 Ml 4.1 Md 3.9  4817607
GIVF  006.31 082.3 m E Pn      2012/01/18 18:35:00.5   0.2                          T   001.0                                4817330
GIVF  006.31 082.3 m E Sn      2012/01/18 18:36:07.7  -0.5                          T   001.0       32.9  .32 Ml 4.2         4817331
GIVF  006.31 082.3 m E Sg      2012/01/18 18:36:48.4   1.5                          T               46.1  .61 Ml 4.0         4817604
SMF   006.59 113.9 m E Pn      2012/01/18 18:35:04.2   0.0                          T   001.0                                4817323
SMF   006.59 113.9 m E Sn      2012/01/18 18:36:11.7  -3.2                          T                9.1  .22 Ml 3.8         4817614
SMF   006.59 113.9 m E Sg      2012/01/18 18:36:56.1   0.4                          T               23.7  .48 Ml 3.9         4817596
MEZF  006.65 096.3 m E Pn      2012/01/18 18:35:05.4   0.5 295.1  11.3              T   001.0                                4817335
MEZF  006.65 096.3 m E Sn      2012/01/18 18:36:15.6  -0.7                          T               12.4  .36 Ml 3.7         4817610
MEZF  006.65 096.3 m E Sg      2012/01/18 18:36:57.8   0.2 285.7  1.9               T   001.0         33  .44 Ml 4.1         4817336
SFTF  006.72 098.8 m E Pn      2012/01/18 18:35:05.8  -0.1 289.3  3.1               T                                        4817632
SFTF  006.72 098.8 m E Sn      2012/01/18 18:36:13.9  -4.0                          T               10.9  .25 Ml 3.8         4817611
SFTF  006.72 098.8 m E Sg      2012/01/18 18:36:59.3  -0.5 296.2  10.0              T               33.9  .51 Ml 4.0         4817601
CAF   006.71 132.3 m E Pn      2012/01/18 18:35:06.0   0.3                          T   001.0                                4817305
CAF   006.71 132.3 m E Sn      2012/01/18 18:36:14.7  -3.0                          T   001.0       26.7  .24 Ml 4.2         4817306
CAF   006.71 132.3 m E Sg      2012/01/18 18:36:59.0  -0.4                          T               47.8  .44 Ml 4.2         4817590
SJPF  007.03 157.3 m E Pn      2012/01/18 18:35:11.0   0.9                          T   001.0                                4817346
SJPF  007.03 157.3 m E Sn      2012/01/18 18:36:21.1  -4.3                          T               16.9  .22 Ml 4.1         4817617
SJPF  007.03 157.3 m E Sg      2012/01/18 18:37:08.1  -1.3                          T               21.3  .68 Ml 3.8         4817589
ETSF  007.41 154.3 m E Pn      2012/01/18 18:35:15.7   0.4                          T   001.0                                4817329
ETSF  007.41 154.3 m E Sn      2012/01/18 18:36:32.0  -2.5                          T               13.1  .30 Ml 4.0         4817618
ETSF  007.41 154.3 m E Sg      2012/01/18 18:37:21.0  -0.3                          T                7.1  .42 Ml 3.6         4817588
EPF   007.56 149.3 m E Pn      2012/01/18 18:35:18.1   0.7                          T   001.0                                4817307
EPF   007.56 149.3 m E Sn      2012/01/18 18:36:35.8  -2.4                          T   001.0       19.6  .28 Ml 4.2         4817308
EPF   007.56 149.3 m E Sg      2012/01/18 18:37:25.3  -0.8                          T               20.5  .54 Ml 3.9         4817587
CABF  007.97 108.4 m E Pn      2012/01/18 18:35:23.7   0.7                          T   001.0                                4817328
CABF  007.97 108.4 m E Sn      2012/01/18 18:36:46.0  -2.0                          T                5.3  .33 Ml 3.6         4817612
CABF  007.97 108.4 m E Sg      2012/01/18 18:37:39.2   0.4                          T               77.1  .80 Ml 4.4         4817598
MTLF  008.01 139.4 m E Pn      2012/01/18 18:35:24.3   0.9                          T   001.0                                4817337
MTLF  008.01 139.4 m E Sn      2012/01/18 18:36:47.2  -1.5                          T   001.0        7.5  .28 Ml 3.9         4817338
MTLF  008.01 139.4 m E Sg      2012/01/18 18:37:39.8  -0.2                          T                7.4  .43 Ml 3.7         4817586
VIVF  008.10 122.8 m E Pn      2012/01/18 18:35:25.2   0.5                          T   001.0                                4817347
VIVF  008.10 122.8 m E Sn      2012/01/18 18:36:48.0  -3.0                          T                5.4  .34 Ml 3.6         4817620
VIVF  008.10 122.8 m E Sg      2012/01/18 18:37:42.7  -0.2                          T               23.4  .68 Ml 4.0         4817584
HINF  008.00 098.9 m E Pn      2012/01/18 18:35:25.6   2.3                          T   001.0                                4817332
HINF  008.00 098.9 m E Sn      2012/01/18 18:36:45.3  -3.3                          T   001.0       10.1  .40 Ml 3.8         4817333
HINF  008.00 098.9 m E Sg      2012/01/18 18:37:39.7   0.0                          T               17.5  .48 Ml 4.0         4817599
LASF  008.21 129.6 m E Pn      2012/01/18 18:35:26.9   0.8                          T   001.0                                4817313
LASF  008.21 129.6 m E Sn      2012/01/18 18:36:51.4  -2.1                          T                6.5  .48 Ml 3.6         4817619
LASF  008.21 129.6 m E Sg      2012/01/18 18:37:46.1   0.0                          T               24.6  .56 Ml 4.1         4817585
ORIF  008.74 118.8 m E Pn      2012/01/18 18:35:34.7   1.2                          T   001.0                                4817339
ORIF  008.74 118.8 m E Sn      2012/01/18 18:37:07.0   0.7                          T                7.1  .62 Ml 3.6         4817621
ORIF  008.74 118.8 m E Sg      2012/01/18 18:38:01.7  -1.0                          T               16.6  .78 Ml 3.9         4817582
LPL   008.90 113.4 m E Pn      2012/01/18 18:35:37.2   1.5                          T                                        4817624
LPL   008.90 113.4 m E Sn      2012/01/18 18:37:09.8  -0.4                          T                5.0  .32 Ml 3.7         4817622
LPL   008.90 113.4 m E Sg      2012/01/18 18:38:07.0  -0.9                          T               19.8  .79 Ml 3.9         4817581
LPG   008.92 113.4 m E Pn      2012/01/18 18:35:37.7   1.6                          T   001.0                                4817319
LPG   008.92 113.4 m E Sn      2012/01/18 18:37:11.3   0.4                          T                7.2  .46 Ml 3.7         4817623
LPG   008.92 113.4 m E Sg      2012/01/18 18:38:08.4  -0.3                          T               15.0  .73 Ml 3.9         4817580
MBDF  009.36 117.4 m E Pn      2012/01/18 18:35:42.1   0.1                          T   001.0                                4817334
MBDF  009.36 117.4 m E Sg      2012/01/18 18:38:20.8  -1.5                          T                8.1  .76 Ml 3.7         4817583
HAU   007.62 098.3 m E Sn      2012/01/18 18:36:37.3  -2.2                          T   001.0       10.8  .28 Ml 3.7         4817312
HAU   007.62 098.3 m E Sg      2012/01/18 18:37:27.2  -0.5                          T               37.1  .52 Ml 4.0         4817600
PAGF  007.07 095.0 m E Sg      2012/01/18 18:37:10.4  -0.4 285.7  2.7               T               13.4  .58 Ml 3.6         4817602
LMR   000.00 000.0 m E Sg                                                                            2.0  .50 Ml 3.4         4817577
FRF   000.00 000.0 m E Sg                                                                            1.6  .37 Ml 3.4         4817578
SMRF  000.00 000.0 m E Sg                                                                            3.4  .28 Ml 3.7         4817579

.
