BEGIN GSE2.0
MSG_TYPE DATA
MSG_ID 02-MAR-1113:24:15  FRA_NDC
E-MAIL
DATA_TYPE BULLETIN
Reviewed Bulletin (REB) # P2011-008  from French NDC for regional phases     PERIOD 23 FEB 2011 TO 01 MAR 2011 C M., J-P S
EVENT     256362
    Date      Time       Latitude Longitude    Depth    Ndef Nsta Gap    Mag1  N    Mag2  N    Mag3  N   Author         ID
       rms   OT_Error      Smajor Sminor Az        Err   mdist  Mdist     Err        Err        Err      Quality

2011/02/23 00:09:24.5     46.0144    7.1572      3.0 f    15    5 122  Ml 1.1  3  Md 1.6  2              js067245    256382

      0.24   +-  0.06       1.3     .8  107.85 +-  0.0    0.18   1.42   +-0.3      +-0.1                 m i ke

SWITZERLAND
Sta     Dist  EvAz     Phase      Date       Time     TRes  Azim  AzRes  Slow  SRes Def   SNR       Amp   Per   Mag1   Mag2       ID
LPG   000.59 208.9 m E Pg      2011/02/23 00:09:35.7  -0.4                          T                                        4655161
LPG   000.59 208.9 m E Sg      2011/02/23 00:09:43.9   0.1                          T                1.5  .23        Md 1.6  4655162
LPL   000.58 211.0 m E Pg      2011/02/23 00:09:35.8   0.0                          T                                        4655159
LPL   000.58 211.0 m E Sg      2011/02/23 00:09:44.0   0.6                          T                 .8  .25        Md 1.6  4655160
CABF  000.95 309.2 m E Pg      2011/02/23 00:09:42.4   0.0                          T                                        4655167
CABF  000.95 309.2 m E Sg      2011/02/23 00:09:54.0  -0.8                          T                 .3  .21 Ml  .9         4655168
MBDF  001.32 192.1 m E Sg      2011/02/23 00:10:06.3   0.1                          T                 .5  .21 Ml 1.3         4655165
ORIF  001.42 219.8 m E Sg      2011/02/23 00:10:09.4   0.0                          T                 .2  .21 Ml  .9         4655166

.
EVENT     256297
    Date      Time       Latitude Longitude    Depth    Ndef Nsta Gap    Mag1  N    Mag2  N    Mag3  N   Author         ID
       rms   OT_Error      Smajor Sminor Az        Err   mdist  Mdist     Err        Err        Err      Quality

2011/02/23 00:54:11.2     46.5523    2.1973      4.0 f    55   23 059  Ml 2.4 21  Md 2.3  3              js067245    256317

      0.46   +-  0.07       1.3    1.1  134.82 +-  0.0    0.26   3.91   +-0.3      +-0.0                 m i ke

FRANCE
Sta     Dist  EvAz     Phase      Date       Time     TRes  Azim  AzRes  Slow  SRes Def   SNR       Amp   Per   Mag1   Mag2       ID
TCF   000.26 178.1 m E Pg      2011/02/23 00:54:16.3  -0.2                          T                                        4653298
TCF   000.26 178.1 m E Sg      2011/02/23 00:54:19.8  -0.3                          T               19.4  .22        Md 2.3  4653301
BGF   000.45 089.1 m E Pg      2011/02/23 00:54:19.7  -0.1                          T                                        4653294
BGF   000.45 089.1 m E Sg      2011/02/23 00:54:25.6  -0.2                          T               39.9  .30        Md 2.3  4653324
HYF   000.78 022.8 m E Pn      2011/02/23 00:54:26.4  -1.0                          T                                        4653311
HYF   000.78 022.8 m E Sg      2011/02/23 00:54:32.3  -3.8                          T                                        4653304
HYF   000.78 022.8 m E Sn      2011/02/23 00:54:38.1  -0.7                          T                                        4655183
AVF   000.83 072.9 m E Pg      2011/02/23 00:54:26.7  -0.1                          T                                        4653295
AVF   000.83 072.9 m E Sg      2011/02/23 00:54:37.6  -0.1                          T               16.9  .22                4653303
AVF   000.83 072.9 m E Sn      2011/02/23 00:54:40.3   0.3                          T               10.1  .19                4655184
SSF   001.03 060.0 m E Pg      2011/02/23 00:54:30.2  -0.3                          T                                        4653297
SSF   001.03 060.0 m E Sg      2011/02/23 00:54:44.4   0.4                          T               26.5  .35 Ml 2.8         4653300
SMF   001.14 084.7 m E Pg      2011/02/23 00:54:32.0  -0.5                          T                                        4653312
SMF   001.14 084.7 m E Sg      2011/02/23 00:54:47.3   0.1                          T               13.8  .22 Ml 2.7         4653302
RJF   001.34 201.1 m E Pn      2011/02/23 00:54:34.9  -0.1                          T                                        4655182
RJF   001.34 201.1 m E Pg      2011/02/23 00:54:36.0  -0.1                          T                                        4653309
RJF   001.34 201.1 m E Sg      2011/02/23 00:54:53.5   0.1                          T               20.4  .26 Ml 2.5         4653306
LOR   001.35 057.2 m E Pg      2011/02/23 00:54:35.9  -0.4                          T                                        4655185
LOR   001.35 057.2 m E P       2011/02/23 00:54:36.3  -0.6                          T                                        4653296
LOR   001.35 057.2 m E Sg      2011/02/23 00:54:53.3  -0.4                          T               19.6  .26 Ml 2.9         4653299
CAF   001.63 183.3 m E Pn      2011/02/23 00:54:39.2   0.2                          T                                        4655181
CAF   001.63 183.3 m E Pg      2011/02/23 00:54:41.5  -0.1                          T                                        4653345
CAF   001.63 183.3 m E Sg      2011/02/23 00:55:03.0   0.4                          T                8.8  .22 Ml 2.7         4653318
MFF   001.62 272.6 m E Pg      2011/02/23 00:54:39.5  -1.8                          T                                        4653308
MFF   001.62 272.6 m E Sg      2011/02/23 00:55:00.5  -1.7                          T                7.6  .28 Ml 2.7         4653319
LFF   001.91 212.8 m E Pg      2011/02/23 00:54:46.1  -0.6                          T                                        4653307
LFF   001.91 212.8 m E Sg      2011/02/23 00:55:10.4  -0.9                          T               12.8  .41 Ml 2.5         4653305
SFTF  002.54 048.4 m E Pn      2011/02/23 00:54:50.5  -0.9                          T                                        4653337
SFTF  002.54 048.4 m E Sg      2011/02/23 00:55:31.2   0.1                          T                5.9  .31 Ml 2.6         4653330
LDF   002.58 323.3 m E Pn      2011/02/23 00:54:52.4   0.5                          T                                        4653342
LDF   002.58 323.3 m E Sg      2011/02/23 00:55:32.8   0.7                          T                1.8  .29 Ml 2.1         4653321
MEZF  002.75 043.7 m E Pn      2011/02/23 00:54:54.3   0.1                          T                                        4653336
MEZF  002.75 043.7 m E Sg      2011/02/23 00:55:37.4   0.0                          T                5.0  .34 Ml 2.5         4653331
GRR   002.77 312.7 m E Pn      2011/02/23 00:54:54.9   0.5                          T                                        4653343
GRR   002.77 312.7 m E Sg      2011/02/23 00:55:38.8   0.6                          T                1.1  .26 Ml 1.9         4653320
VIVF  002.43 133.5 m E Pg      2011/02/23 00:54:55.9  -0.3                          T                                        4653344
VIVF  002.43 133.5 m E Sg      2011/02/23 00:55:26.8  -0.6                          T                2.9  .28 Ml 2.3         4653317
FLN   002.86 321.7 m E Pn      2011/02/23 00:54:56.1   0.4                          T                                        4653341
FLN   002.86 321.7 m E Sg      2011/02/23 00:55:41.6   0.7                          T                2.4  .39 Ml 2.0         4653322
THEF  003.08 055.6 m E Pn      2011/02/23 00:54:59.1   0.5                          T                                        4653338
THEF  003.08 055.6 m E Sg      2011/02/23 00:55:47.7   0.0                          T               10.5  .45 Ml 2.8         4653329
PAGF  003.12 048.7 m E Pn      2011/02/23 00:54:59.4   0.2                          T                                        4653335
PAGF  003.12 048.7 m E Sg      2011/02/23 00:55:49.0   0.0                          T                 .5  .27 Ml 1.7         4653332
HAU   003.18 061.3 m E Pn      2011/02/23 00:55:00.3   0.3                          T                                        4653339
HAU   003.18 061.3 m E Sg      2011/02/23 00:55:50.8  -0.1                          T                3.5  .30 Ml 2.3         4653328
CABF  002.68 087.3 m E Pg      2011/02/23 00:55:00.9  -0.2                          T                                        4653325
CABF  002.68 087.3 m E Sg      2011/02/23 00:55:35.2  -0.4                          T                1.6  .30 Ml 2.1         4653326
HINF  003.42 066.6 m E Pn      2011/02/23 00:55:03.4   0.0                          T                                        4653340
HINF  003.42 066.6 m E Sg      2011/02/23 00:55:58.3  -0.2                          T                3.6  .34 Ml 2.5         4653327
CDF   003.91 059.8 m E Pn      2011/02/23 00:55:10.3   0.2                          T                                        4653334
CDF   003.91 059.8 m E Sg      2011/02/23 00:56:14.0   0.0                          T                1.2  .32 Ml 2.3         4653333

.
EVENT     256298
    Date      Time       Latitude Longitude    Depth    Ndef Nsta Gap    Mag1  N    Mag2  N    Mag3  N   Author         ID
       rms   OT_Error      Smajor Sminor Az        Err   mdist  Mdist     Err        Err        Err      Quality

2011/02/23 01:02:13.5     42.7903    -.5829      4.0 f    11    4 168  Ml 1.1  1  Md 1.1  2              js067245    256318

      0.33   +-  0.15       3.4    1.7   20.61 +-  0.0    0.11   2.35   +-         +-0.0                 m i ke

PYRENEES
Sta     Dist  EvAz     Phase      Date       Time     TRes  Azim  AzRes  Slow  SRes Def   SNR       Amp   Per   Mag1   Mag2       ID
ETSF  000.11 009.2 m E Pg      2011/02/23 01:02:16.3   0.2                          T                                        4653353
ETSF  000.11 009.2 m E Sg      2011/02/23 01:02:17.6  -0.2                          T               13.3  .18        Md 1.1  4653349
SJPF  000.57 304.6 m E Pg      2011/02/23 01:02:24.2  -0.2                          T                                        4653348
SJPF  000.57 304.6 m E Sg      2011/02/23 01:02:31.9   0.0                          T                1.2  .24        Md 1.1  4653351
EPF   000.72 070.2 m E Pg      2011/02/23 01:02:26.8  -0.3                          T                                        4653352
EPF   000.72 070.2 m E Sg      2011/02/23 01:02:35.8  -0.8                          T                  1  .19                4653350
LFF   002.35 023.6 m E Pn      2011/02/23 01:02:51.2   0.2                          T                                        4653347
LFF   002.35 023.6 m E Sn      2011/02/23 01:03:19.0   0.3                          T                 .2  .18 Ml 1.1         4653346

.
EVENT     256299
    Date      Time       Latitude Longitude    Depth    Ndef Nsta Gap    Mag1  N    Mag2  N    Mag3  N   Author         ID
       rms   OT_Error      Smajor Sminor Az        Err   mdist  Mdist     Err        Err        Err      Quality

2011/02/23 01:52:36.6     44.6678    6.7415      2.0      19    9 128  Ml 1.7  4  Md 1.6  2              js067245    256319

      0.22   +-  0.06       1.6    1.0   80.72 +-  0.0    0.06   1.49   +-0.2      +-0.1                 m i ke

FRANCE
Sta     Dist  EvAz     Phase      Date       Time     TRes  Azim  AzRes  Slow  SRes Def   SNR       Amp   Per   Mag1   Mag2       ID
MBDF  000.06 019.8 m E Pg      2011/02/23 01:52:38.0  -0.3                          T                                        4653372
MBDF  000.06 019.8 m E Sg      2011/02/23 01:52:39.1  -0.3                          T               43.6  .16        Md 1.7  4653371
ORIF  000.66 292.5 m E Pg      2011/02/23 01:52:49.0  -0.2                          T                                        4653363
ORIF  000.66 292.5 m E Sg      2011/02/23 01:52:57.7  -0.2                          T                4.6  .32        Md 1.5  4653370
LPL   000.85 359.6 m E Pg      2011/02/23 01:52:52.9   0.1                          T                                        4653362
LPL   000.85 359.6 m E Sg      2011/02/23 01:53:03.8  -0.1                          T                1.9  .32                4653358
LPG   000.83 000.5 m E Pg      2011/02/23 01:52:53.0   0.5                          T                                        4653364
LPG   000.83 000.5 m E Sg      2011/02/23 01:53:03.3  -0.1                          T                1.3  .25                4653359
SBF   000.95 148.0 m E Pg      2011/02/23 01:52:54.3  -0.1                          T                                        4653361
SBF   000.95 148.0 m E Sg      2011/02/23 01:53:06.9   0.2                          T                2.0  .27 Ml 1.7         4653360
FRF   001.11 183.6 m E Pg      2011/02/23 01:52:57.1  -0.2                          T                                        4653366
FRF   001.11 183.6 m E Sg      2011/02/23 01:53:11.8   0.1                          T                1.4  .22 Ml 1.7         4653369
SMRF  001.09 230.8 m E Pg      2011/02/23 01:52:57.3   0.3                          T                                        4653365
LMR   001.34 187.2 m E Pg      2011/02/23 01:53:01.8   0.1                          T                                        4653367
LMR   001.34 187.2 m E Sg      2011/02/23 01:53:18.9  -0.1                          T                1.9  .23 Ml 1.9         4653368
VIVF  001.49 278.0 m E Pn      2011/02/23 01:53:02.5  -0.1                          T                                        4653356
VIVF  001.49 278.0 m E Sn      2011/02/23 01:53:21.5   0.0                          T                 .6  .31 Ml 1.4         4653357

.
EVENT     256300
    Date      Time       Latitude Longitude    Depth    Ndef Nsta Gap    Mag1  N    Mag2  N    Mag3  N   Author         ID
       rms   OT_Error      Smajor Sminor Az        Err   mdist  Mdist     Err        Err        Err      Quality

2011/02/23 03:24:32.7     40.9590    1.7490      2.0      13    3 237  Ml 2.0  4                         js067245    256320

      0.21   +-  0.13       2.3    1.1  143.76 +-  0.0    0.64   2.59   +-0.1                            m i ke

BALEARIC ISLANDS, SPAIN
Sta     Dist  EvAz     Phase      Date       Time     TRes  Azim  AzRes  Slow  SRes Def   SNR       Amp   Per   Mag1   Mag2       ID
EPF   002.32 333.6 m E Pn      2011/02/23 03:25:10.2   0.0                          T                                        4653380
EPF   002.32 333.6 m E Sg      2011/02/23 03:25:45.8   0.1                          T                1.4  .26 Ml 2.0         4653376
MTLF  002.41 008.2 m E Pn      2011/02/23 03:25:11.4   0.1                          T                                        4653379
MTLF  002.41 008.2 m E Sg      2011/02/23 03:25:48.2  -0.1                          T                1.9  .33 Ml 2.1         4653375
ETSF  002.59 319.1 m E Pn      2011/02/23 03:25:13.9  -0.1                          T                                        4653378
ETSF  002.59 319.1 m E Sn      2011/02/23 03:25:44.1   0.0                          T                1.2  .26 Ml 2.0         4653377

.
EVENT     256301
    Date      Time       Latitude Longitude    Depth    Ndef Nsta Gap    Mag1  N    Mag2  N    Mag3  N   Author         ID
       rms   OT_Error      Smajor Sminor Az        Err   mdist  Mdist     Err        Err        Err      Quality

2011/02/23 04:23:06.1     44.6246    7.2587      2.0      20    8 192  Ml 1.6  7  Md 1.5  1              js067245    256321

      0.32   +-  0.13       2.9    1.2   72.10 +-  0.0    0.30   1.40   +-0.1      +-                    m i ke

NORTHERN ITALY
Sta     Dist  EvAz     Phase      Date       Time     TRes  Azim  AzRes  Slow  SRes Def   SNR       Amp   Per   Mag1   Mag2       ID
MBDF  000.36 286.6 m E Pg      2011/02/23 04:23:13.5   0.2                          T                                        4653398
MBDF  000.36 286.6 m E Sg      2011/02/23 04:23:17.8  -0.4                          T               17.6  .24        Md 1.5  4653392
SBF   000.77 170.5 m E Pg      2011/02/23 04:23:21.1   0.3                          T                                        4653383
SBF   000.77 170.5 m E Sg      2011/02/23 04:23:30.8  -0.1                          T                3.2  .33                4653384
LPG   000.94 337.8 m E Pg      2011/02/23 04:23:23.9  -0.3                          T                                        4653395
LPG   000.94 337.8 m E Sg      2011/02/23 04:23:36.3  -0.2                          T                2.0  .36 Ml 1.5         4653389
LPL   000.97 337.5 m E Pg      2011/02/23 04:23:24.6   0.1                          T                                        4653396
LPL   000.97 337.5 m E Sg      2011/02/23 04:23:37.0  -0.1                          T                1.3  .23 Ml 1.6         4653390
ORIF  001.03 287.1 m E Pg      2011/02/23 04:23:25.2  -0.3                          T                                        4653397
ORIF  001.03 287.1 m E Sg      2011/02/23 04:23:38.3  -0.4                          T                1.0  .15 Ml 1.7         4653391
FRF   001.15 202.7 m E Pg      2011/02/23 04:23:27.5  -0.1                          T                                        4653394
FRF   001.15 202.7 m E Sg      2011/02/23 04:23:42.8   0.2                          T                1.3  .27 Ml 1.6         4653388
SMRF  001.37 242.4 m E Pg      2011/02/23 04:23:31.8   0.1                          T                                        4653386
SMRF  001.37 242.4 m E Sg      2011/02/23 04:23:49.3  -0.2                          T                1.2  .27 Ml 1.6         4653387
LMR   001.40 203.0 m E Pg      2011/02/23 04:23:32.7   0.5                          T                                        4653393
LMR   001.40 203.0 m E Sg      2011/02/23 04:23:50.2  -0.1                          T                1.2  .22 Ml 1.8         4653385

.
