EVENT     289139
    Date      Time       Latitude Longitude    Depth    Ndef Nsta Gap    Mag1  N    Mag2  N    Mag3  N   Author         ID
       rms   OT_Error      Smajor Sminor Az        Err   mdist  Mdist     Err        Err        Err      Quality

2012/12/29 19:10:11.4     44.5032    6.9354      9.0 f    30    7 057  Ml 1.6  4  Md 1.7  2              bulletin    289239
                                                                                                         _ldg
      0.41   +-  0.08       1.7    1.2   59.70 +-  0.0    0.12   1.21   +-0.2      +-0.0                 m i ke

FRANCE
Sta     Dist  EvAz     Phase      Date       Time     TRes  Azim  AzRes  Slow  SRes Def   SNR       Amp   Per   Mag1   Mag2       ID
MBDF  000.25 332.4 m E Pg      2012/12/29 19:10:16.5  -0.3                          T                                        5148204
MBDF  000.25 332.4 m E Sg      2012/12/29 19:10:19.9  -0.4                          T               11.9  .26        Md 1.7  5148203
SBF   000.73 150.5 m E Pg      2012/12/29 19:10:25.1  -0.3                          T                                        5148194
SBF   000.73 150.5 m E Sg      2012/12/29 19:10:35.2   0.1                          T                1.7  .17        Md 1.7  5148193
ORIF  000.86 299.2 m E Pg      2012/12/29 19:10:27.6  -0.1                          T                                        5148202
ORIF  000.86 299.2 m E Sg      2012/12/29 19:10:38.9  -0.1                          T                 .9  .18 Ml 1.4         5148201
LPG   001.00 352.6 m E Pg      2012/12/29 19:10:29.0  -1.6                          T                                        5148199
LPG   001.00 352.6 m E Sg      2012/12/29 19:10:42.7  -1.0                          T                                        5148198
LPL   001.02 352.0 m E Pg      2012/12/29 19:10:29.6  -1.3                          T                                        5148200
LPL   001.02 352.0 m E Sg      2012/12/29 19:10:43.3  -0.9                          T                 .9  .25 Ml 1.4         5148197
SMRF  001.11 242.1 m E Pg      2012/12/29 19:10:32.9   0.6                          T                                        5148192
SMRF  001.11 242.1 m E Sg      2012/12/29 19:10:47.2   0.5                          T                1.0  .18 Ml 1.6         5148191
LMR   001.21 194.9 m E Pg      2012/12/29 19:10:34.1   0.1                          T                                        5148196
LMR   001.21 194.9 m E Sg      2012/12/29 19:10:49.7   0.0                          T                1.7  .19 Ml 1.9         5148195

.
EVENT     289140
    Date      Time       Latitude Longitude    Depth    Ndef Nsta Gap    Mag1  N    Mag2  N    Mag3  N   Author         ID
       rms   OT_Error      Smajor Sminor Az        Err   mdist  Mdist     Err        Err        Err      Quality

2012/12/30 01:17:46.7     44.2958    9.9685      9.0 f    71   17 047  Ml 2.5 17                         bulletin    289240
                                                                                                         _ldg
      0.69   +-  0.08       2.3    1.6   35.90 +-  0.0    0.19   5.31   +-0.3                            m i ke

NORTHERN ITALY
Sta     Dist  EvAz     Phase      Date       Time     TRes  Azim  AzRes  Slow  SRes Def   SNR       Amp   Per   Mag1   Mag2       ID
SBF   001.88 257.6 m E Pn      2012/12/30 01:18:17.2  -0.1                          T                                        5148256
SBF   001.88 257.6 m E Sn      2012/12/30 01:18:40.4   0.7                          T               12.8  .24 Ml 2.9         5167829
SBF   001.88 257.6 m E Sg      2012/12/30 01:18:46.5   0.6                          T               21.1  .34 Ml 3.0         5167823
PGF   001.88 202.3 m E Pn      2012/12/30 01:18:17.9   0.5                          T                                        5148255
PGF   001.88 202.3 m E Sn      2012/12/30 01:18:41.6   1.7                          T                4.0  .31 Ml 2.5         5167830
MBDF  002.33 281.8 m E Pn      2012/12/30 01:18:23.7   0.1                          T                                        5148249
MBDF  002.33 281.8 m E Sn      2012/12/30 01:18:50.5   0.0                          T                2.3  .26 Ml 2.2         5148241
MBDF  002.33 281.8 m E Sg      2012/12/30 01:18:59.9  -0.1                          T                7.5  .44 Ml 2.5         5167826
LMR   002.68 250.2 m E Pn      2012/12/30 01:18:27.9  -0.3                          T                                        5148254
LMR   002.68 250.2 m E Sn      2012/12/30 01:18:58.1  -0.7                          T                3.0  .34 Ml 2.3         5148245
LMR   002.68 250.2 m E Sg      2012/12/30 01:19:11.9   1.0                          T                2.0  .26 Ml 2.3         5167824
LPG   002.58 298.9 m E P       2012/12/30 01:18:29.5  -0.4                          T                                        5148252
LPG   002.58 298.9 m E Sn      2012/12/30 01:18:56.0  -0.8                          T                3.3  .39 Ml 2.3         5148244
LPL   002.60 299.1 m E P       2012/12/30 01:18:29.6  -0.5                          T                                        5148251
LPL   002.60 299.1 m E Sn      2012/12/30 01:18:56.7  -0.5                          T                6.5  .42 Ml 2.5         5148243
ORIF  002.99 283.5 m E Pn      2012/12/30 01:18:31.7  -0.8                          T                                        5148250
ORIF  002.99 283.5 m E Sn      2012/12/30 01:19:06.3   0.1                          T                 .8  .25 Ml 1.9         5148242
ORIF  002.99 283.5 m E Sg      2012/12/30 01:19:20.7   0.2                          T                2.3  .39 Ml 2.2         5167825
SMRF  003.18 265.8 m E Pn      2012/12/30 01:18:35.8   0.8                          T                                        5148253
CABF  003.58 311.7 m E P       2012/12/30 01:18:43.8  -0.1                          T                                        5148246
HINF  004.14 329.5 m E Pn      2012/12/30 01:18:49.4   1.4                          T                                        5148247
HINF  004.14 329.5 m E Sn      2012/12/30 01:19:32.9  -0.7                          T                2.2  .30 Ml 2.6         5148236
LASF  004.40 269.3 m E Pn      2012/12/30 01:18:50.7  -0.9                          T                                        5148240
LASF  004.40 269.3 m E Sn      2012/12/30 01:19:40.4   0.4                          T                 .4  .20 Ml 2.0         5148239
CDF   004.52 336.6 m E Pn      2012/12/30 01:18:53.4   0.1                          T                                        5167828
CDF   004.52 336.6 m E Sn      2012/12/30 01:19:42.1  -0.7                          T                2.0  .33 Ml 2.7         5167827
HAU   004.48 327.1 m E Pn      2012/12/30 01:18:53.9   1.2                          T                                        5148248
HAU   004.48 327.1 m E Sn      2012/12/30 01:19:40.7  -1.3                          T                6.7  .28 Ml 2.9         5148235
SMF   004.91 300.7 m E Pn      2012/12/30 01:18:59.0   0.4                          T                                        5148237
LOR   005.21 307.0 m E Pn      2012/12/30 01:19:03.1   0.5 127.3  4.7               T                                        5148233
LOR   005.21 307.0 m E Sn      2012/12/30 01:19:58.7  -0.5                          T                2.1  .28 Ml 2.8         5148234
AVF   005.27 300.5 m E Pn      2012/12/30 01:19:03.8   0.3                          T                                        5148238
SSF   005.31 303.7 m E Pn      2012/12/30 01:19:03.9   0.0                          T                                        5148232
SSF   005.31 303.7 m E Sn      2012/12/30 01:20:01.7   0.2                          T                                        5148231

.
EVENT     289141
    Date      Time       Latitude Longitude    Depth    Ndef Nsta Gap    Mag1  N    Mag2  N    Mag3  N   Author         ID
       rms   OT_Error      Smajor Sminor Az        Err   mdist  Mdist     Err        Err        Err      Quality

2012/12/30 02:01:37.4     43.1109    -.9358      2.0      24    4 083  Ml 2.0  2  Md 2.0  2              bulletin    289241
                                                                                                         _ldg
      0.54   +-  0.09       2.0    1.3    8.21 +-  0.0    0.08   2.84   +-0.0      +-0.1                 m i ke

PYRENEES
Sta     Dist  EvAz     Phase      Date       Time     TRes  Azim  AzRes  Slow  SRes Def   SNR       Amp   Per   Mag1   Mag2       ID
SJPF  000.21 270.7 m E Pg      2012/12/30 02:01:41.6  -0.1                          T                                        5148264
SJPF  000.21 270.7 m E Sg      2012/12/30 02:01:44.7   0.1                          T               18.2  .18        Md 2.0  5148261
ETSF  000.35 127.4 m E Pg      2012/12/30 02:01:43.8  -0.4                          T                                        5148263
ETSF  000.35 127.4 m E Sg      2012/12/30 02:01:48.6  -0.3                          T               21.5  .22        Md 1.9  5148260
EPF   000.94 094.5 m E Pg      2012/12/30 02:01:55.0  -0.1                          T                                        5148262
EPF   000.94 094.5 m E Sg      2012/12/30 02:02:07.1  -0.2                          T                4.0  .27 Ml 2.0         5148259
MTLF  002.32 083.2 m E Pn      2012/12/30 02:02:14.9   0.2                          T                                        5148258
MTLF  002.32 083.2 m E Sn      2012/12/30 02:02:42.2   0.1                          T                1.5  .29 Ml 2.0         5148257

.
EVENT     289160
    Date      Time       Latitude Longitude    Depth    Ndef Nsta Gap    Mag1  N    Mag2  N    Mag3  N   Author         ID
       rms   OT_Error      Smajor Sminor Az        Err   mdist  Mdist     Err        Err        Err      Quality

2012/12/30 05:14:44.6     46.8550    6.6526      2.0      16    6 164  Ml 1.7  5  Md 1.7  2              bulletin    289260
                                                                                                         _ldg
      0.62   +-  0.16       3.1    1.5  128.32 +-  0.0    0.15   2.17   +-0.1      +-0.2                 m i ke

SWITZERLAND
Sta     Dist  EvAz     Phase      Date       Time     TRes  Azim  AzRes  Slow  SRes Def   SNR       Amp   Per   Mag1   Mag2       ID
CABF  000.46 238.1 m E Pg      2012/12/30 05:14:53.1  -0.4                          T                                        5148521
CABF  000.46 238.1 m E Sg      2012/12/30 05:14:59.3  -0.2                          T                1.8  .22        Md 1.5  5148515
HINF  000.97 008.0 m E Pg      2012/12/30 05:15:02.6  -0.2                          T                                        5148524
HINF  000.97 008.0 m E Sg      2012/12/30 05:15:15.6   0.1                          T                2.0  .22 Ml 1.8 Md 1.8  5148523
HAU   001.17 349.9 m E Pg      2012/12/30 05:15:06.2  -0.3                          T                                        5148522
HAU   001.17 349.9 m E Sg      2012/12/30 05:15:21.7   0.0                          T                1.4  .19 Ml 1.5         5148514
CDF   001.61 014.9 m E Pg      2012/12/30 05:15:14.5  -0.3                          T                                        5148508
CDF   001.61 014.9 m E Sn      2012/12/30 05:15:32.4  -0.3                          T                                        5148510
CDF   001.61 014.9 m E Sg      2012/12/30 05:15:35.2  -0.4                          T                1.0  .23 Ml 1.8         5148509
LOR   001.95 283.2 m E Pn      2012/12/30 05:15:16.8  -0.2                          T                                        5148513
LOR   001.95 283.2 m E Pg      2012/12/30 05:15:20.7  -0.3                          T                                        5148512
LOR   001.95 283.2 m E Sg      2012/12/30 05:15:46.1   0.0                          T                 .6  .18 Ml 1.7         5148511
SSF   002.17 276.6 m E Pg      2012/12/30 05:15:25.2   0.4                          T                                        5148506
SSF   002.17 276.6 m E Sg      2012/12/30 05:15:52.1  -0.6                          T                 .3  .19 Ml 1.5         5148507

.
EVENT     289156
    Date      Time       Latitude Longitude    Depth    Ndef Nsta Gap    Mag1  N    Mag2  N    Mag3  N   Author         ID
       rms   OT_Error      Smajor Sminor Az        Err   mdist  Mdist     Err        Err        Err      Quality

2012/12/30 07:54:00.5     45.0395    3.9943      4.0 f    38   13 096  Ml 2.0 14  Md 2.0  1              bulletin    289256
                                                                                                         _ldg
      0.28   +-  0.03        .7     .6   54.92 +-  0.0    0.52   2.23   +-0.3      +-                    m i ke

FRANCE
Sta     Dist  EvAz     Phase      Date       Time     TRes  Azim  AzRes  Slow  SRes Def   SNR       Amp   Per   Mag1   Mag2       ID
VIVF  000.52 110.6 m E Pg      2012/12/30 07:54:10.3  -0.1                          T                                        5148311
VIVF  000.52 110.6 m E Sg      2012/12/30 07:54:17.1  -0.1                          T                7.4  .18        Md 2.0  5148308
LASF  000.97 185.9 m E Pg      2012/12/30 07:54:18.7   0.0                          T                                        5148310
LASF  000.97 185.9 m E Sg      2012/12/30 07:54:31.3   0.0                          T                5.6  .18 Ml 2.3         5148309
CAF   001.37 265.9 m E Pn      2012/12/30 07:54:24.5  -0.4                          T                                        5148314
CAF   001.37 265.9 m E Pg      2012/12/30 07:54:26.4   0.2                          T                                        5148313
CAF   001.37 265.9 m E Sn      2012/12/30 07:54:42.6   0.2                          T                                        5168053
CAF   001.37 265.9 m E Sg      2012/12/30 07:54:44.1   0.1                          T                1.7  .18 Ml 2.0         5148312
ORIF  001.34 094.5 m E Pn      2012/12/30 07:54:24.6   0.1                          T                                        5148335
ORIF  001.34 094.5 m E Sn      2012/12/30 07:54:42.1   0.4                          T                1.4  .22 Ml 1.8         5148334
SMF   001.61 356.2 m E Pn      2012/12/30 07:54:28.2   0.2                          T                                        5148336
SMF   001.61 356.2 m E Pg      2012/12/30 07:54:30.2  -0.3                          T                                        5148337
SMF   001.61 356.2 m E Sn      2012/12/30 07:54:47.9  -0.2                          T                                        5148338
SMF   001.61 356.2 m E Sg      2012/12/30 07:54:51.3   0.0                          T                3.1  .20 Ml 2.3         5148315
RJF   001.77 279.5 m E Pn      2012/12/30 07:54:30.3   0.1                          T                                        5168055
RJF   001.77 279.5 m E Pg      2012/12/30 07:54:33.4  -0.1                          T                                        5168054
RJF   001.77 279.5 m E Sg      2012/12/30 07:54:56.4   0.0                          T                4.0  .21 Ml 2.1         5148317
TCF   001.77 315.6 m E Pn      2012/12/30 07:54:30.5   0.3                          T                                        5148327
TCF   001.77 315.6 m E Pg      2012/12/30 07:54:33.5   0.0                          T                                        5148330
TCF   001.77 315.6 m E Sn      2012/12/30 07:54:51.8   0.0                          T                                        5148328
TCF   001.77 315.6 m E Sg      2012/12/30 07:54:56.1  -0.1                          T                 .8  .17 Ml 1.9         5148329
AVF   001.81 345.9 m E Pn      2012/12/30 07:54:30.7   0.0                          T                                        5148324
AVF   001.81 345.9 m E Pg      2012/12/30 07:54:34.5   0.3                          T                                        5148325
AVF   001.81 345.9 m E Sn      2012/12/30 07:54:52.9   0.1                          T                                        5148326
AVF   001.81 345.9 m E Sg      2012/12/30 07:54:57.5   0.0                          T                1.3  .19 Ml 2.0         5148316
BGF   001.72 332.5 m E Pg      2012/12/30 07:54:32.7   0.2                          T                                        5148319
BGF   001.72 332.5 m E Sg      2012/12/30 07:54:54.8   0.1                          T                3.7  .25 Ml 2.3         5148318
MTLF  002.13 217.6 m E Pn      2012/12/30 07:54:35.1   0.0                          T                                        5148332
MTLF  002.13 217.6 m E Pg      2012/12/30 07:54:40.2   0.1                          T                                        5148333
MTLF  002.13 217.6 m E Sn      2012/12/30 07:55:00.3  -0.1                          T                 .4  .16 Ml 1.7         5148331
MTLF  002.13 217.6 m E Sg      2012/12/30 07:55:07.2  -0.2                          T                 .5  .19 Ml 1.7         5148307
MBDF  002.00 098.0 m E Pg      2012/12/30 07:54:37.7  -0.2                          T                                        5168052
SSF   002.05 350.6 m E Pg      2012/12/30 07:54:38.9   0.2                          T                                        5148322
SSF   002.05 350.6 m E Sg      2012/12/30 07:55:04.8  -0.3                          T                2.2  .21 Ml 2.3         5148320
LOR   002.23 357.6 m E Pg      2012/12/30 07:54:42.1   0.1 179.5  2.0               T                                        5148323
LOR   002.23 357.6 m E Sg      2012/12/30 07:55:10.2  -0.5 177.9  0.3               T                1.3  .20 Ml 2.1         5148321

.
