EVENT     263321
    Date      Time       Latitude Longitude    Depth    Ndef Nsta Gap    Mag1  N    Mag2  N    Mag3  N   Author         ID
       rms   OT_Error      Smajor Sminor Az        Err   mdist  Mdist     Err        Err        Err      Quality

2011/08/28 08:58:25.4     46.0235    6.9136      2.0      40   16 076  Ml 2.3  8  Md 2.3  2              js067245    263321

      0.28   +-  0.05       1.2     .9  113.54 +-  0.0    0.04   3.28   +-0.2      +-0.0                 m i ke

SWITZERLAND
Sta     Dist  EvAz     Phase      Date       Time     TRes  Azim  AzRes  Slow  SRes Def   SNR       Amp   Per   Mag1   Mag2       ID
LPL   000.52 194.1 m E Pg      2011/08/28 08:58:35.3  -0.3                          T                                        4742419
LPL   000.52 194.1 m E Sg      2011/08/28 08:58:42.5   0.0                          T               11.5  .29        Md 2.2  4742416
LPG   000.54 192.2 m E Pg      2011/08/28 08:58:35.6  -0.4                          T                                        4742418
LPG   000.54 192.2 m E Sg      2011/08/28 08:58:43.2   0.1                          T               16.5  .28        Md 2.3  4742417
CABF  000.82 316.0 m E Pg      2011/08/28 08:58:40.7  -0.2                          T                                        4742402
CABF  000.82 316.0 m E Pn      2011/08/28 08:58:42.9   0.4                          T                                        4742403
CABF  000.82 316.0 m E Sg      2011/08/28 08:58:51.9   0.3                          T                5.6  .22                4742409
ORIF  001.32 213.7 m E Pg      2011/08/28 08:58:50.0  -0.2                          T                                        4742415
ORIF  001.32 213.7 m E Sg      2011/08/28 08:59:08.0   0.7                          T                6.7  .34 Ml 2.3         4742412
HINF  001.79 358.7 m E Pn      2011/08/28 08:58:55.9   0.2                          T                                        4742406
HINF  001.79 358.7 m E Pg      2011/08/28 08:58:58.9   0.1                          T                                        4742407
HINF  001.79 358.7 m E Sg      2011/08/28 08:59:21.9  -0.1                          T                3.3  .23 Ml 2.3         4742408
VIVF  001.96 234.3 m E Pg      2011/08/28 08:59:01.9   0.0                          T                                        4742414
VIVF  001.96 234.3 m E Sn      2011/08/28 08:59:21.7   0.0                          T                                        4742391
VIVF  001.96 234.3 m E Sg      2011/08/28 08:59:26.5  -0.7                          T                9.3  .22 Ml 2.8         4742413
HAU   002.02 349.2 m E Pg      2011/08/28 08:59:02.7  -0.3                          T                                        4742396
HAU   002.02 349.2 m E Sg      2011/08/28 08:59:29.4   0.4                          T                5.6  .27 Ml 2.3         4742397
SMF   002.22 287.4 m E Pg      2011/08/28 08:59:06.9   0.3                          T                                        4742411
AVF   002.58 288.6 m E Pn      2011/08/28 08:59:07.0   0.7                          T                                        4742410
AVF   002.58 288.6 m E Pg      2011/08/28 08:59:13.6   0.3                          T                                        4742401
SMRF  002.26 205.4 m E Pg      2011/08/28 08:59:08.0   0.7                          T                                        4742390
CDF   002.40 005.8 m E Pg      2011/08/28 08:59:10.2   0.1                          T                                        4742395
BGF   002.87 282.2 m E Pn      2011/08/28 08:59:10.4   0.2                          T                                        4742399
BGF   002.87 282.2 m E Pg      2011/08/28 08:59:18.7   0.1                          T                                        4742400
FRF   002.47 184.5 m E Pg      2011/08/28 08:59:10.5  -0.7                          T                                        4742389
LOR   002.45 301.7 m E Pg      2011/08/28 08:59:10.7  -0.1                          T                                        4742404
LOR   002.45 301.7 m E Sg      2011/08/28 08:59:41.6  -0.7                          T                1.1  .20 Ml 2.1         4742405
TCF   003.28 276.3 m E Pn      2011/08/28 08:59:16.0   0.1                          T                                        4742393
TCF   003.28 276.3 m E Pg      2011/08/28 08:59:26.3   0.1                          T                                        4742394
SFTF  002.53 330.3 m E Sn      2011/08/28 08:59:35.6   0.4                          T                2.3  .25 Ml 2.3         4742392

.
EVENT     263969
    Date      Time       Latitude Longitude    Depth    Ndef Nsta Gap    Mag1  N    Mag2  N    Mag3  N   Author         ID
       rms   OT_Error      Smajor Sminor Az        Err   mdist  Mdist     Err        Err        Err      Quality

2011/08/28 09:24:02.4     46.0402    6.8597      3.0 f    19    7 067  Ml 1.9  4  Md 1.7  2              js067245    263970

      0.17   +-  0.04       1.0     .6  111.97 +-  0.0    0.04   2.18   +-0.2      +-0.1                 m i ke

SWITZERLAND
Sta     Dist  EvAz     Phase      Date       Time     TRes  Azim  AzRes  Slow  SRes Def   SNR       Amp   Per   Mag1   Mag2       ID
LPL   000.53 189.7 m E Pg      2011/08/28 09:24:12.6  -0.2                          T                                        4754841
LPL   000.53 189.7 m E Sg      2011/08/28 09:24:19.6  -0.3                          T                4.9  .44                4754807
LPG   000.55 188.0 m E Pg      2011/08/28 09:24:13.3   0.0                          T                                        4754808
LPG   000.55 188.0 m E Sg      2011/08/28 09:24:20.4   0.0                          T                2.1  .21        Md 1.8  4754809
CABF  000.78 317.1 m E Pg      2011/08/28 09:24:17.1  -0.2                          T                                        4754803
CABF  000.78 317.1 m E Pn      2011/08/28 09:24:18.9   0.0                          T                                        4754804
CABF  000.78 317.1 m E Sg      2011/08/28 09:24:27.2  -0.3                          T                                        4754805
CABF  000.78 317.1 m E Sn      2011/08/28 09:24:30.3  -0.1                          T                2.9  .36        Md 1.7  4754806
ORIF  001.32 211.9 m E Pg      2011/08/28 09:24:27.1  -0.1                          T                                        4754810
ORIF  001.32 211.9 m E Sg      2011/08/28 09:24:44.2   0.0                          T                1.3  .26 Ml 1.6         4754811
VIVF  001.94 233.2 m E Pg      2011/08/28 09:24:38.6   0.0                          T                                        4754812
VIVF  001.94 233.2 m E Sg      2011/08/28 09:25:03.6  -0.1                          T                1.8  .20 Ml 2.1         4754813
HINF  001.78 359.9 m E Sg      2011/08/28 09:24:58.3  -0.2                          T                 .9  .23 Ml 1.7         4754802
SMF   002.18 287.2 m E Sg      2011/08/28 09:25:10.7  -0.2                          T                1.1  .25 Ml 1.9         4754801

.
EVENT     263277
    Date      Time       Latitude Longitude    Depth    Ndef Nsta Gap    Mag1  N    Mag2  N    Mag3  N   Author         ID
       rms   OT_Error      Smajor Sminor Az        Err   mdist  Mdist     Err        Err        Err      Quality

2011/08/28 12:31:33.4     46.0333    6.8730      2.0      31   11 110  Ml 1.9 10  Md 1.9  2              js067245    263277

      0.27   +-  0.05       1.1     .8  103.48 +-  0.0    0.03   2.85   +-0.2      +-0.1                 m i ke

SWITZERLAND
Sta     Dist  EvAz     Phase      Date       Time     TRes  Azim  AzRes  Slow  SRes Def   SNR       Amp   Per   Mag1   Mag2       ID
LPL   000.53 190.8 m E Pg      2011/08/28 12:31:43.5  -0.2                          T                                        4742335
LPL   000.53 190.8 m E Sg      2011/08/28 12:31:50.6   0.0                          T                3.7  .25        Md 1.9  4742332
LPG   000.54 189.1 m E Pg      2011/08/28 12:31:43.8  -0.3                          T                                        4742334
LPG   000.54 189.1 m E Sg      2011/08/28 12:31:51.1  -0.1                          T                7.9  .30        Md 1.9  4742333
CABF  000.79 317.0 m E Pg      2011/08/28 12:31:48.1  -0.4                          T                                        4754815
CABF  000.79 317.0 m E Pn      2011/08/28 12:31:50.3   0.2                          T                                        4754816
CABF  000.79 317.0 m E Sg      2011/08/28 12:31:58.5  -0.3                          T                                        4754817
CABF  000.79 317.0 m E Sn      2011/08/28 12:32:01.3  -0.6                          T                3.7  .30                4742348
ORIF  001.32 212.4 m E Pg      2011/08/28 12:31:58.2   0.1                          T                                        4742331
ORIF  001.32 212.4 m E Sg      2011/08/28 12:32:15.5   0.4                          T                2.3  .29 Ml 1.9         4742352
HINF  001.78 359.6 m E Pg      2011/08/28 12:32:07.0   0.3                          T                                        4742344
HINF  001.78 359.6 m E Sg      2011/08/28 12:32:29.9   0.3                          T                2.1  .26 Ml 2.1         4742347
VIVF  001.95 233.5 m E Pg      2011/08/28 12:32:10.0   0.4                          T                                        4742330
VIVF  001.95 233.5 m E Sg      2011/08/28 12:32:34.6   0.0                          T                3.7  .23 Ml 2.4         4742329
SMF   002.19 287.3 m E Pg      2011/08/28 12:32:14.9   0.9                          T                                        4742343
SMF   002.19 287.3 m E Sg      2011/08/28 12:32:41.5  -0.7                          T                1.4  .22 Ml 2.1         4742350
LOR   002.42 301.8 m E Pg      2011/08/28 12:32:18.2   0.0                          T                                        4742345
LOR   002.42 301.8 m E Sg      2011/08/28 12:32:49.7   0.4                          T                 .9  .21 Ml 1.9         4742346
AVF   002.55 288.5 m E Pg      2011/08/28 12:32:21.0   0.3                          T                                        4742342
AVF   002.55 288.5 m E Sg      2011/08/28 12:32:53.1  -0.3                          T                 .7  .26 Ml 1.7         4742349
BGF   002.84 282.1 m E Pg      2011/08/28 12:32:25.9  -0.1                          T                                        4742341
HAU   002.01 349.9 m E Sg      2011/08/28 12:32:36.3  -0.2                          T                2.9  .28 Ml 2.0         4754814

.
EVENT     263971
    Date      Time       Latitude Longitude    Depth    Ndef Nsta Gap    Mag1  N    Mag2  N    Mag3  N   Author         ID
       rms   OT_Error      Smajor Sminor Az        Err   mdist  Mdist     Err        Err        Err      Quality

2011/08/28 19:40:21.2     46.0315    6.8597      3.0 f    13    5 084  Ml 1.3  2  Md 1.6  2              js067245    263972

      0.14   +-  0.03       1.2     .6  113.34 +-  0.0    0.04   1.94   +-0.3      +-0.1                 m i ke

SWITZERLAND
Sta     Dist  EvAz     Phase      Date       Time     TRes  Azim  AzRes  Slow  SRes Def   SNR       Amp   Per   Mag1   Mag2       ID
LPL   000.52 189.9 m E Pg      2011/08/28 19:40:31.4   0.0                          T                                        4754835
LPL   000.52 189.9 m E Sg      2011/08/28 19:40:38.3   0.0                          T                 .8  .29        Md 1.5  4754836
LPG   000.54 188.1 m E Pg      2011/08/28 19:40:31.8  -0.1                          T                                        4754833
LPG   000.54 188.1 m E Sg      2011/08/28 19:40:38.8  -0.2                          T                 .8  .23        Md 1.6  4754834
CABF  000.79 317.6 m E Pn      2011/08/28 19:40:37.7   0.0                          T                                        4754839
CABF  000.79 317.6 m E Sn      2011/08/28 19:40:49.6   0.2                          T                 .3  .28                4754840
ORIF  001.31 212.1 m E Pg      2011/08/28 19:40:45.8   0.0                          T                                        4754832
ORIF  001.31 212.1 m E Sg      2011/08/28 19:41:02.4  -0.2                          T                 .4  .28 Ml 1.1         4754837
VIVF  001.94 233.4 m E Sg      2011/08/28 19:41:22.2   0.0                          T                 .4  .19 Ml 1.5         4754838

.
EVENT     263279
    Date      Time       Latitude Longitude    Depth    Ndef Nsta Gap    Mag1  N    Mag2  N    Mag3  N   Author         ID
       rms   OT_Error      Smajor Sminor Az        Err   mdist  Mdist     Err        Err        Err      Quality

2011/08/28 23:17:59.6     42.8352    -.6578      2.0      30    4 141  Ml 0.8  1  Md 1.5  2              js067245    263279

      0.63   +-  0.14       3.3    2.1  146.04 +-  0.0    0.10   2.17   +-         +-0.3                 m i ke

PYRENEES
Sta     Dist  EvAz     Phase      Date       Time     TRes  Azim  AzRes  Slow  SRes Def   SNR       Amp   Per   Mag1   Mag2       ID
ETSF  000.10 048.8 m E Pg      2011/08/28 23:18:01.7  -0.1                          T                                        4742374
ETSF  000.10 048.8 m E Sg      2011/08/28 23:18:03.6   0.3                          T               26.5  .22        Md 1.7  4742373
SJPF  000.50 303.9 m E Pg      2011/08/28 23:18:08.1  -1.0                          T                                        4742370
SJPF  000.50 303.9 m E Sg      2011/08/28 23:18:14.5  -1.3                          T                 .7  .27        Md 1.3  4742372
EPF   000.76 074.8 m E Pg      2011/08/28 23:18:14.0   0.1                          T                                        4742369
EPF   000.76 074.8 m E Sg      2011/08/28 23:18:24.7   0.9                          T                 .3  .17                4742371
MTLF  002.17 075.5 m E Sg      2011/08/28 23:19:08.3   0.6                          T                 .1  .22 Ml  .8         4742368

.
EVENT     263280
    Date      Time       Latitude Longitude    Depth    Ndef Nsta Gap    Mag1  N    Mag2  N    Mag3  N   Author         ID
       rms   OT_Error      Smajor Sminor Az        Err   mdist  Mdist     Err        Err        Err      Quality

2011/08/28 23:25:28.5     43.0283   -1.1510      2.0       6    3 221  Ml 1.3  1  Md 1.1  2              js067245    263280

      0.04   +-  0.06       2.3     .4   32.37 +-  0.0    0.10   1.09   +-         +-0.2                 m i ke

PYRENEES
Sta     Dist  EvAz     Phase      Date       Time     TRes  Azim  AzRes  Slow  SRes Def   SNR       Amp   Per   Mag1   Mag2       ID
SJPF  000.10 327.5 m E Pg      2011/08/28 23:25:30.7   0.0                          T                                        4742379
SJPF  000.10 327.5 m E Sg      2011/08/28 23:25:32.2  -0.1                          T                5.9  .19        Md 1.2  4742380
ETSF  000.45 106.4 m E Pg      2011/08/28 23:25:37.2   0.0                          T                                        4742377
ETSF  000.45 106.4 m E Sg      2011/08/28 23:25:43.2   0.0                          T                 .9  .23        Md  .9  4742378
EPF   001.09 089.4 m E Pg      2011/08/28 23:25:49.0   0.0                          T                                        4742375
EPF   001.09 089.4 m E Sg      2011/08/28 23:26:03.3   0.1                          T                 .6  .26 Ml 1.3         4742376

.
