EVENT     255225
    Date      Time       Latitude Longitude    Depth    Ndef Nsta Gap    Mag1  N    Mag2  N    Mag3  N   Author         ID
       rms   OT_Error      Smajor Sminor Az        Err   mdist  Mdist     Err        Err        Err      Quality

2011/01/26 21:23:47.9     44.6786    7.0642     20.0 f    20    8 176  Ml 1.5  7  Md 1.5  2              js067245    255245

      0.30   +-  0.09       2.1    1.0   71.45 +-  0.0    0.17   1.40   +-0.1      +-0.1                 m i ke

NORTHERN ITALY
Sta     Dist  EvAz     Phase      Date       Time     TRes  Azim  AzRes  Slow  SRes Def   SNR       Amp   Per   Mag1   Mag2       ID
MBDF  000.21 283.1 m E Pg      2011/01/26 21:23:53.2  -0.3                          T                                        4638887
MBDF  000.21 283.1 m E Sg      2011/01/26 21:23:56.2  -1.1                          T               19.2  .34        Md 1.6  4638884
SBF   000.86 161.8 m E Pg      2011/01/26 21:24:04.2  -0.2                          T                                        4638885
SBF   000.86 161.8 m E Sg      2011/01/26 21:24:15.4  -0.4                          T                2.0  .24 Ml 1.7 Md 1.4  4638882
LPG   000.85 345.0 m E Pg      2011/01/26 21:24:04.6   0.1                          T                                        4638873
LPG   000.85 345.0 m E Sg      2011/01/26 21:24:15.6  -0.2                          T                                        4638879
ORIF  000.88 286.3 m E Pg      2011/01/26 21:24:04.8   0.0                          T                                        4638886
ORIF  000.88 286.3 m E Sg      2011/01/26 21:24:15.4  -1.1                          T                1.2  .25 Ml 1.5         4638883
LPL   000.87 344.5 m E Pg      2011/01/26 21:24:04.8   0.0                          T                                        4638872
LPL   000.87 344.5 m E Sg      2011/01/26 21:24:16.1  -0.3                          T                 .8  .19 Ml 1.4         4638880
FRF   001.16 195.2 m E Pg      2011/01/26 21:24:09.8   0.0                          T                                        4638875
FRF   001.16 195.2 m E Sg      2011/01/26 21:24:24.9   0.0                          T                 .8  .22 Ml 1.5         4638877
SMRF  001.28 237.2 m E Pg      2011/01/26 21:24:12.3   0.3                          T                                        4638874
SMRF  001.28 237.2 m E Sg      2011/01/26 21:24:29.0   0.2                          T                 .7  .22 Ml 1.5         4638878
LMR   001.40 196.8 m E Pg      2011/01/26 21:24:14.3   0.1                          T                                        4638876
LMR   001.40 196.8 m E Sg      2011/01/26 21:24:32.4  -0.1                          T                1.1  .35 Ml 1.5         4638881

.
EVENT     255227
    Date      Time       Latitude Longitude    Depth    Ndef Nsta Gap    Mag1  N    Mag2  N    Mag3  N   Author         ID
       rms   OT_Error      Smajor Sminor Az        Err   mdist  Mdist     Err        Err        Err      Quality

2011/01/27 01:24:17.5     47.5865    9.9238     30.0     110   32 018  Ml 3.2 24  Md 3.0  1              js067245    255247

      0.89   +-  0.08       2.1    1.9  158.80 +-  0.0    0.16   7.28   +-0.3      +-                    m i ke

GERMANY
Sta     Dist  EvAz     Phase      Date       Time     TRes  Azim  AzRes  Slow  SRes Def   SNR       Amp   Per   Mag1   Mag2       ID
CDF   001.96 295.9 m E Pn      2011/01/27 01:24:48.8   1.1                          T                                        4638888
CDF   001.96 295.9 m E Sn      2011/01/27 01:25:09.7  -0.2                          T              147.4  .30 Ml 4.0 Md 3.0  4639609
LANF  001.99 315.4 m E Pn      2011/01/27 01:24:49.7   1.8                          T                                        4638956
LANF  001.99 315.4 m E Sn      2011/01/27 01:25:10.8   0.4                          T               56.5  .21 Ml 3.6         4638961
HINF  002.09 277.5 m E Pn      2011/01/27 01:24:49.8   0.5                          T                                        4638950
HINF  002.09 277.5 m E Sn      2011/01/27 01:25:12.9   0.1                          T               83.3  .32 Ml 3.6         4639603
HAU   002.45 281.2 m E Pn      2011/01/27 01:24:55.0   0.8                          T                                        4638951
HAU   002.45 281.2 m E Sn      2011/01/27 01:25:21.6   0.2                          T               67.4  .26 Ml 3.5         4639604
THEF  002.72 285.1 m E Pn      2011/01/27 01:24:59.0   1.2                          T                                        4638952
THEF  002.72 285.1 m E Sn      2011/01/27 01:25:27.8   0.0                          T               38.1  .20 Ml 3.6         4639605
CABF  002.80 251.0 m E Pn      2011/01/27 01:24:59.2   0.2                          T                                        4638949
CABF  002.80 251.0 m E Sn      2011/01/27 01:25:30.0   0.3                          T               34.5  .42 Ml 3.3         4639602
RUP   002.84 319.2 m E P       2011/01/27 01:25:02.0   0.0                          T                                        4638957
RUP   002.84 319.2 m E Sn      2011/01/27 01:25:31.0   0.1                          T                                        4638919
PAGF  002.98 290.5 m E Pn      2011/01/27 01:25:02.7   1.3 106.7  -0.8              T                                        4638955
PAGF  002.98 290.5 m E Sn      2011/01/27 01:25:34.2   0.3                          T                4.8  .21 Ml 2.8         4639608
LPL   003.02 227.9 m E Pn      2011/01/27 01:25:03.1   0.9                          T                                        4638939
LPL   003.02 227.9 m E Sn      2011/01/27 01:25:35.8   0.5                          T               16.0  .38 Ml 3.1         4639598
LPG   003.03 227.5 m E Pn      2011/01/27 01:25:03.7   1.4                          T                                        4638938
LPG   003.03 227.5 m E Sn      2011/01/27 01:25:35.5   0.0                          T               14.3  .26 Ml 3.2         4639597
SFTF  003.34 282.5 m E Pn      2011/01/27 01:25:07.6   1.3 108.9  10.1              T                                        4638953
SFTF  003.34 282.5 m E Sn      2011/01/27 01:25:42.8   0.1                          T               27.5  .34 Ml 3.4         4639606
MEZF  003.39 287.4 m E Pn      2011/01/27 01:25:08.1   1.2 104.1  0.3               T                                        4638954
MEZF  003.39 287.4 m E Sn      2011/01/27 01:25:44.1   0.2                          T               21.6  .39 Ml 3.3         4639607
MBDF  003.60 218.6 m E Pn      2011/01/27 01:25:10.8   0.8                          T                                        4638941
MBDF  003.60 218.6 m E Sn      2011/01/27 01:25:49.7   0.6                          T                9.8  .45 Ml 2.9         4639600
ORIF  003.87 227.9 m E Pn      2011/01/27 01:25:14.4   0.8                          T                                        4638940
ORIF  003.87 227.9 m E Sn      2011/01/27 01:25:55.4   0.0                          T               12.9  .46 Ml 3.1         4639599
SBF   004.11 206.0 m E Pn      2011/01/27 01:25:17.3   0.5                          T                                        4638934
SBF   004.11 206.0 m E Sn      2011/01/27 01:26:01.3   0.3                          T                2.7  .16 Ml 2.9         4638902
LOR   004.13 267.8 m E Pn      2011/01/27 01:25:17.9   0.9  89.4  6.0               T                                        4638890
LOR   004.13 267.8 m E Sn      2011/01/27 01:26:01.5   0.0                          T                7.2  .20 Ml 3.2         4639611
GIVF  004.20 308.7 m E Pn      2011/01/27 01:25:18.2   0.2                          T                                        4638959
GIVF  004.20 308.7 m E Sn      2011/01/27 01:26:03.0  -0.2                          T                6.7  .18 Ml 3.3         4638923
SMF   004.26 259.5 m E Pn      2011/01/27 01:25:18.9   0.2                          T                                        4638947
SSF   004.40 265.5 m E Pn      2011/01/27 01:25:22.2   1.6                          T                                        4638889
SSF   004.40 265.5 m E Sn      2011/01/27 01:26:07.6  -0.2                          T                3.6  .25 Ml 3.0         4639610
VIVF  004.55 235.1 m E Pn      2011/01/27 01:25:22.3  -0.4                          T                                        4638942
VIVF  004.55 235.1 m E Sn      2011/01/27 01:26:10.5  -1.0                          T                4.2  .18 Ml 3.1         4638933
AVF   004.55 262.3 m E Pn      2011/01/27 01:25:23.0   0.3                          T                                        4638948
FRF   004.64 210.9 m E Pn      2011/01/27 01:25:24.9   1.1                          T                                        4638936
FRF   004.64 210.9 m E Sn      2011/01/27 01:26:13.1  -0.4                          T                3.0  .26 Ml 2.9         4638930
BAIF  004.51 305.4 m E P       2011/01/27 01:25:25.1  -0.5                          T                                        4639593
BAIF  004.51 305.4 m E Sn      2011/01/27 01:26:10.5  -0.1                          T                2.3  .24 Ml 2.8         4638920
SMRF  004.72 221.7 m E Pn      2011/01/27 01:25:26.3   1.2                          T                                        4638937
SMRF  004.72 221.7 m E Sn      2011/01/27 01:26:14.6  -0.9                          T                2.0  .36 Ml 2.6         4638900
BGF   004.94 260.6 m E Pn      2011/01/27 01:25:28.2   0.2                          T                                        4638945
BGF   004.94 260.6 m E Sn      2011/01/27 01:26:20.3  -0.5                          T                                        4638931
LMR   004.88 210.7 m E Pn      2011/01/27 01:25:28.3   1.1                          T                                        4638935
LMR   004.88 210.7 m E Sn      2011/01/27 01:26:19.7   0.3                          T                1.9  .21 Ml 2.8         4638901
HYF   004.95 269.0 m E Pn      2011/01/27 01:25:29.7   1.5                          T                                        4638946
TCF   005.44 259.0 m E Pn      2011/01/27 01:25:35.0   0.1                          T                                        4638960
TCF   005.44 259.0 m E Sn      2011/01/27 01:26:32.8   0.1                          T                3.0  .40 Ml 2.9         4638924
LASF  005.50 232.6 m E Pn      2011/01/27 01:25:35.7   0.1                          T                                        4638943
LASF  005.50 232.6 m E Sn      2011/01/27 01:26:32.5  -1.7                          T                7.5  .34 Ml 3.3         4638932
CAF   006.06 246.9 m E Pn      2011/01/27 01:25:43.8   0.5                          T                                        4639596
FLN   007.06 283.4 m E Pn      2011/01/27 01:25:56.4  -0.3 100.0  4.3               T                                        4639594
GRR   007.28 280.3 m E Pn      2011/01/27 01:25:59.4  -0.4                          T                                        4639595

.
EVENT     255226
    Date      Time       Latitude Longitude    Depth    Ndef Nsta Gap    Mag1  N    Mag2  N    Mag3  N   Author         ID
       rms   OT_Error      Smajor Sminor Az        Err   mdist  Mdist     Err        Err        Err      Quality

2011/01/27 01:55:29.9     42.2902    9.5882     15.0      14    6 327  Ml 1.9  5  Md 1.9  1              js067245    255246

      0.49   +-  0.26       4.6    3.9  143.68 +-  0.0    0.51   3.83   +-0.3      +-                    m i ke

CORSICA, FRANCE
Sta     Dist  EvAz     Phase      Date       Time     TRes  Azim  AzRes  Slow  SRes Def   SNR       Amp   Per   Mag1   Mag2       ID
PGF   000.51 300.8 m E Pg      2011/01/27 01:55:40.2   0.2                          T                                        4638981
PGF   000.51 300.8 m E Sg      2011/01/27 01:55:47.1   0.2                          T               39.3  .36        Md 1.9  4638980
SBF   002.23 315.6 m E Pn      2011/01/27 01:56:04.7   0.1                          T                                        4638970
SBF   002.23 315.6 m E Sn      2011/01/27 01:56:30.1  -0.2                          T                1.7  .26 Ml 2.1         4638977
LMR   002.49 295.8 m E Pn      2011/01/27 01:56:07.9  -0.3                          T                                        4638971
LMR   002.49 295.8 m E Sn      2011/01/27 01:56:35.9  -0.7                          T                1.1  .25 Ml 2.0         4638976
FRF   002.51 301.4 m E Pn      2011/01/27 01:56:08.2  -0.2                          T                                        4638972
FRF   002.51 301.4 m E Sn      2011/01/27 01:56:36.3  -0.5                          T                 .3  .22 Ml 1.4         4638975
LPG   003.81 328.4 m E Pn      2011/01/27 01:56:26.6   0.2                          T                                        4638973
LPG   003.81 328.4 m E Sn      2011/01/27 01:57:08.3   0.0                          T                 .6  .26 Ml 2.0         4638979
LPL   003.83 328.4 m E Pn      2011/01/27 01:56:26.7   0.0                          T                                        4638974
LPL   003.83 328.4 m E Sn      2011/01/27 01:57:08.9   0.1                          T                 .9  .39 Ml 2.0         4638978

.
EVENT     255228
    Date      Time       Latitude Longitude    Depth    Ndef Nsta Gap    Mag1  N    Mag2  N    Mag3  N   Author         ID
       rms   OT_Error      Smajor Sminor Az        Err   mdist  Mdist     Err        Err        Err      Quality

2011/01/27 04:19:20.2     43.1768    -.5137      3.0 f    62   15 085  Ml 2.7 16  Md 2.7  3              js067245    255248

      0.79   +-  0.07       1.6    1.2  149.38 +-  0.0    0.14   5.13   +-0.2      +-0.0                 m i ke

PYRENEES
Sta     Dist  EvAz     Phase      Date       Time     TRes  Azim  AzRes  Slow  SRes Def   SNR       Amp   Per   Mag1   Mag2       ID
ETSF  000.28 186.9 m E Pg      2011/01/27 04:19:25.4  -0.5                          T                                        4639028
ETSF  000.28 186.9 m E Sg      2011/01/27 04:19:28.4  -1.2                          T               49.5  .18        Md 2.7  4639025
EPF   000.64 102.9 m E Pg      2011/01/27 04:19:32.0  -0.4                          T                                        4639027
EPF   000.64 102.9 m E Sg      2011/01/27 04:19:40.6  -0.3                          T               28.3  .30        Md 2.7  4639024
LFF   001.98 026.7 m E Pn      2011/01/27 04:19:53.0   0.2                          T                                        4639012
LFF   001.98 026.7 m E Pg      2011/01/27 04:19:58.1   1.1                          T                                        4639005
LFF   001.98 026.7 m E Sg      2011/01/27 04:20:21.9  -0.6                          T               24.1  .36 Ml 2.9 Md 2.7  4639002
MTLF  002.00 084.4 m E Pn      2011/01/27 04:19:53.4   0.2                          T                                        4639009
MTLF  002.00 084.4 m E Pg      2011/01/27 04:19:57.7   0.3                          T                                        4639026
MTLF  002.00 084.4 m E Sg      2011/01/27 04:20:22.4  -0.9                          T               13.5  .51 Ml 2.6         4639023
CAF   002.55 045.9 m E Pn      2011/01/27 04:20:00.6  -0.1                          T                                        4639011
CAF   002.55 045.9 m E Pg      2011/01/27 04:20:08.2   0.6                          T                                        4639006
CAF   002.55 045.9 m E Sg      2011/01/27 04:20:40.2  -0.2                          T                7.0  .16 Ml 3.0         4639007
RJF   002.58 033.7 m E Pn      2011/01/27 04:20:01.1   0.0                          T                                        4639013
RJF   002.58 033.7 m E Pg      2011/01/27 04:20:09.6   1.5                          T                                        4639004
RJF   002.58 033.7 m E Sg      2011/01/27 04:20:40.7  -0.6                          T               11.0  .18 Ml 2.8         4639003
LASF  003.30 072.7 m E Pn      2011/01/27 04:20:11.4   0.6                          T                                        4639010
LASF  003.30 072.7 m E Sg      2011/01/27 04:21:04.0   0.3                          T                3.8  .38 Ml 2.5         4639008
MFF   003.44 004.2 m E Pn      2011/01/27 04:20:12.7   0.0                          T                                        4639014
MFF   003.44 004.2 m E Pg      2011/01/27 04:20:24.6   0.8                          T                                        4639000
MFF   003.44 004.2 m E Sg      2011/01/27 04:21:07.1  -0.8                          T                3.0  .25 Ml 2.8         4639001
BGF   004.14 034.1 m E Pn      2011/01/27 04:20:22.7   0.4                          T                                        4639019
BGF   004.14 034.1 m E Sg      2011/01/27 04:21:29.3  -0.6                          T               11.0  .34 Ml 3.2         4638998
AVF   004.54 035.9 m E Pn      2011/01/27 04:20:27.7   0.1                          T                                        4639015
AVF   004.54 035.9 m E Sg      2011/01/27 04:21:41.7  -0.5                          T                2.7  .40 Ml 2.6         4638995
TCF   003.67 031.0 m E Pg      2011/01/27 04:20:28.2   0.0                          T                                        4639022
TCF   003.67 031.0 m E Sg      2011/01/27 04:21:14.4  -0.8                          T                4.7  .38 Ml 2.7         4638994
HYF   004.66 027.5 m E Pn      2011/01/27 04:20:29.1  -0.3                          T                                        4639017
HYF   004.66 027.5 m E Sg      2011/01/27 04:21:45.5  -0.7                          T                                        4638996
SMF   004.65 040.2 m E Pn      2011/01/27 04:20:29.5   0.3                          T                                        4639016
SMF   004.65 040.2 m E Sg      2011/01/27 04:21:45.4  -0.4                          T                2.4  .28 Ml 2.7         4638997
SSF   004.81 034.8 m E Pn      2011/01/27 04:20:30.8  -0.6                          T                                        4639020
SSF   004.81 034.8 m E Sg      2011/01/27 04:21:50.4  -0.6                          T                3.6  .39 Ml 2.9         4638993
LOR   005.13 035.5 m E Pn      2011/01/27 04:20:35.7   0.0                          T                                        4639021
LOR   005.13 035.5 m E Sg      2011/01/27 04:21:59.8  -0.9                          T                2.1  .39 Ml 2.6         4638992

.
