EVENT     258504
    Date      Time       Latitude Longitude    Depth    Ndef Nsta Gap    Mag1  N    Mag2  N    Mag3  N   Author         ID
       rms   OT_Error      Smajor Sminor Az        Err   mdist  Mdist     Err        Err        Err      Quality

2011/04/21 09:52:36.7     44.5714    6.8842      3.0 f    24   10 147  Ml 2.2  8  Md 2.2  3              js067245    258504

      1.00   +-  0.12       3.2    1.8   68.27 +-  0.0    0.18   2.54   +-0.3      +-0.0                 m i ke

FRANCE
Sta     Dist  EvAz     Phase      Date       Time     TRes  Azim  AzRes  Slow  SRes Def   SNR       Amp   Per   Mag1   Mag2       ID
MBDF  000.18 332.7 m E Pg      2011/04/21 09:52:40.7   0.2                          T                                        4677808
MBDF  000.18 332.7 m E Sg      2011/04/21 09:52:43.3   0.3                          T               41.8  .24        Md 2.1  4677802
ORIF  000.80 296.2 m E Pg      2011/04/21 09:52:51.3  -0.5                          T                                        4677807
ORIF  000.80 296.2 m E Sg      2011/04/21 09:53:00.5  -1.6                          T               12.1  .24        Md 2.2  4677801
SBF   000.81 150.6 m E Pg      2011/04/21 09:52:51.8  -0.2                          T                                        4677803
SBF   000.81 150.6 m E Sg      2011/04/21 09:53:02.5  -0.1                          T               14.8  .23        Md 2.2  4677798
LPG   000.93 354.2 m E Pg      2011/04/21 09:52:54.4  -0.1                          T                                        4677832
LPG   000.93 354.2 m E Sg      2011/04/21 09:53:06.6   0.0                          T                4.2  .22 Ml 2.1         4677836
LPL   000.95 353.6 m E Pg      2011/04/21 09:52:54.6  -0.2                          T                                        4677831
LPL   000.95 353.6 m E Sg      2011/04/21 09:53:07.1  -0.1                          T                5.3  .30 Ml 2.0         4677837
FRF   001.02 189.7 m E Pg      2011/04/21 09:52:55.5  -0.3                          T                                        4677806
FRF   001.02 189.7 m E Sg      2011/04/21 09:53:09.3   0.2                          T               10.0  .22 Ml 2.5         4677800
SMRF  001.11 238.1 m E Pg      2011/04/21 09:52:58.1   0.6                          T                                        4677805
SMRF  001.11 238.1 m E Sg      2011/04/21 09:53:12.0   0.0                          T                6.4  .24 Ml 2.3         4677835
LMR   001.27 192.5 m E Pg      2011/04/21 09:53:00.4   0.1                          T                                        4677804
LMR   001.27 192.5 m E Sg      2011/04/21 09:53:16.2  -0.5                          T                6.9  .23 Ml 2.4         4677799
VIVF  001.60 281.0 m E Pn      2011/04/21 09:53:05.4   1.2                          T                                        4677830
VIVF  001.60 281.0 m E Sn      2011/04/21 09:53:23.8  -0.3                          T                2.2  .44 Ml 1.8         4677829
PGF   002.54 142.0 m E Pn      2011/04/21 09:53:17.0   0.0                          T                                        4677833
PGF   002.54 142.0 m E Sn      2011/04/21 09:53:46.5  -0.1                          T                1.6  .21 Ml 2.4         4677834

.
EVENT     258500
    Date      Time       Latitude Longitude    Depth    Ndef Nsta Gap    Mag1  N    Mag2  N    Mag3  N   Author         ID
       rms   OT_Error      Smajor Sminor Az        Err   mdist  Mdist     Err        Err        Err      Quality

2011/04/21 11:36:39.1     46.7235    8.0369      7.0 f   132   40 031  Ml 3.1 45  Md 3.2  3              js067245    258500

      0.77   +-  0.05       1.1     .9  111.71 +-  0.0    0.09   7.83   +-0.3      +-0.0                 m i ke

SWITZERLAND
Sta     Dist  EvAz     Phase      Date       Time     TRes  Azim  AzRes  Slow  SRes Def   SNR       Amp   Per   Mag1   Mag2       ID
HINF  001.36 324.0 m E Pn      2011/04/21 11:37:03.1   0.2                          T                                        4678180
HINF  001.36 324.0 m E Pg      2011/04/21 11:37:04.3  -0.2                          T                                        4678186
HINF  001.36 324.0 m E Sg      2011/04/21 11:37:20.2  -1.9                          T               62.4  .18 Ml 3.5 Md 3.2  4678172
CABF  001.35 265.9 m E Pn      2011/04/21 11:37:03.5   0.7                          T                                        4678181
CABF  001.35 265.9 m E Pg      2011/04/21 11:37:04.8   0.4                          T                                        4678185
CABF  001.35 265.9 m E Sg      2011/04/21 11:37:21.3  -0.5                          T              117.9  .24 Ml 3.7 Md 3.2  4678171
LPL   001.51 217.4 m E Pg      2011/04/21 11:37:06.5  -1.1                          T                                        4678143
LPL   001.51 217.4 m E Sg      2011/04/21 11:37:26.8  -0.3                          T               15.4  .22 Ml 2.9 Md 3.1  4678123
LPG   001.52 216.6 m E Pg      2011/04/21 11:37:06.8  -1.0                          T                                        4678142
LPG   001.52 216.6 m E Sg      2011/04/21 11:37:27.2  -0.3                          T               37.1  .26 Ml 3.2         4678124
HAU   001.72 318.8 m E Pn      2011/04/21 11:37:08.4   0.5                          T                                        4678179
HAU   001.72 318.8 m E Pg      2011/04/21 11:37:10.3  -0.9                          T                                        4678184
HAU   001.72 318.8 m E Sg      2011/04/21 11:37:32.4  -1.1                          T               60.5  .20 Ml 3.4         4678173
CDF   001.77 343.3 m E Pn      2011/04/21 11:37:08.6   0.0                          T                                        4678164
CDF   001.77 343.3 m E Sg      2011/04/21 11:37:34.5  -0.4                          T               39.0  .24 Ml 3.5         4678097
LANF  002.26 356.1 m E Pn      2011/04/21 11:37:15.5   0.3                          T                                        4678163
LANF  002.26 356.1 m E Sg      2011/04/21 11:37:49.9  -0.4                          T               21.7  .26 Ml 3.2         4678096
ORIF  002.35 220.7 m E Pn      2011/04/21 11:37:16.9   0.4                          T                                        4678130
ORIF  002.35 220.7 m E Pg      2011/04/21 11:37:22.5  -0.5                          T                                        4678144
ORIF  002.35 220.7 m E Sg      2011/04/21 11:37:53.0  -0.2                          T               25.1  .38 Ml 3.1         4678122
MBDF  002.18 204.4 m E P       2011/04/21 11:37:17.2   0.5                          T                                        4678129
MBDF  002.18 204.4 m E Pg      2011/04/21 11:37:19.5  -0.4                          T                                        4678174
MBDF  002.18 204.4 m E Sg      2011/04/21 11:37:47.8  -0.2                          T               45.1  .52 Ml 3.2         4678121
PAGF  002.41 320.4 m E Pn      2011/04/21 11:37:17.6   0.4 141.5  2.8               T                                        4678162
PAGF  002.41 320.4 m E Pg      2011/04/21 11:37:23.6  -0.3 144.6  6.0               T                                        4678136
PAGF  002.41 320.4 m E Sg      2011/04/21 11:37:54.5  -0.3                          T                5.1  .26 Ml 2.6         4678098
SFTF  002.52 307.2 m E Pn      2011/04/21 11:37:19.4   0.8 125.7  0.8               T                                        4678160
SFTF  002.52 307.2 m E Pg      2011/04/21 11:37:25.7  -0.1 128.5  3.5               T                                        4678134
SFTF  002.52 307.2 m E Sg      2011/04/21 11:37:58.0  -0.2 130.1  5.1               T               16.9  .20 Ml 3.2         4678100
MEZF  002.69 312.5 m E Pn      2011/04/21 11:37:22.2   1.2 133.3  3.1               T                                        4678161
MEZF  002.69 312.5 m E Pg      2011/04/21 11:37:28.7  -0.4 131.6  1.3               T                                        4678135
MEZF  002.69 312.5 m E Sg      2011/04/21 11:38:03.5  -0.2                          T               32.2  .40 Ml 3.3         4678099
SBF   002.89 188.7 m E Pn      2011/04/21 11:37:24.2   0.4                          T                                        4678138
SBF   002.89 188.7 m E Sn      2011/04/21 11:37:57.4   0.6                          T               22.6  .46 Ml 3.1         4678128
SMF   002.89 270.0 m E Pn      2011/04/21 11:37:24.4   0.7                          T                                        4678182
SMF   002.89 270.0 m E Pg      2011/04/21 11:37:32.9   0.2                          T                                        4678183
SMF   002.89 270.0 m E Sg      2011/04/21 11:38:09.6  -0.3                          T               30.9  .22 Ml 3.5         4678102
LOR   002.91 282.3 m E Pn      2011/04/21 11:37:24.8   0.8 107.9  8.7               T                                        4678178
LOR   002.91 282.3 m E Pg      2011/04/21 11:37:32.4  -0.7 106.3  7.0               T                                        4678170
LOR   002.91 282.3 m E Sg      2011/04/21 11:38:10.4  -0.2 116.6  17.3              T               19.3  .22 Ml 3.4         4678090
VIVF  003.00 232.8 m E Pn      2011/04/21 11:37:25.6   0.3                          T                                        4678145
VIVF  003.00 232.8 m E Pg      2011/04/21 11:37:34.5  -0.4                          T                                        4678132
VIVF  003.00 232.8 m E Sg      2011/04/21 11:38:13.0  -0.5                          T               22.8  .30 Ml 3.3         4678120
RUP   003.05 348.0 m E Pn      2011/04/21 11:37:26.2   0.2                          T                                        4678165
RUP   003.05 348.0 m E Sg      2011/04/21 11:38:14.6  -0.3                          T                                        4678095
SSF   003.13 277.9 m E Pn      2011/04/21 11:37:27.8   0.8                          T                                        4678177
SSF   003.13 277.9 m E Pg      2011/04/21 11:37:36.6  -0.4                          T                                        4678169
SSF   003.13 277.9 m E Sg      2011/04/21 11:38:17.0  -0.2                          T               15.4  .28 Ml 3.3         4678091
AVF   003.22 272.9 m E Pn      2011/04/21 11:37:28.8   0.6                          T                                        4678159
AVF   003.22 272.9 m E Sg      2011/04/21 11:38:19.9  -0.3                          T                6.8  .22 Ml 3.0         4678101
FRF   003.31 197.8 m E Pn      2011/04/21 11:37:30.2   0.8                          T                                        4678140
FRF   003.31 197.8 m E Sn      2011/04/21 11:38:07.4   0.7                          T                5.5  .27 Ml 2.8         4678126
SMRF  003.25 213.2 m E Pn      2011/04/21 11:37:30.3   1.6                          T                                        4678141
SMRF  003.25 213.2 m E Pg      2011/04/21 11:37:39.3  -0.1                          T                                        4678131
SMRF  003.25 213.2 m E Sn      2011/04/21 11:38:05.9   0.6                          T                3.4  .27 Ml 2.6         4678125
LMR   003.56 198.3 m E Pn      2011/04/21 11:37:33.2   0.4                          T                                        4678139
LMR   003.56 198.3 m E Sn      2011/04/21 11:38:13.2   0.6                          T               12.5  .54 Ml 2.9         4678127
BGF   003.58 269.2 m E Pn      2011/04/21 11:37:33.7   0.6                          T                                        4678176
BGF   003.58 269.2 m E Sg      2011/04/21 11:38:31.2  -0.1                          T               27.3  .30 Ml 3.5         4678104
HYF   003.73 280.4 m E Pn      2011/04/21 11:37:35.5   0.3                          T                                        4678158
HYF   003.73 280.4 m E Pg      2011/04/21 11:37:48.0  -0.2                          T                                        4678133
HYF   003.73 280.4 m E Sg      2011/04/21 11:38:36.0  -0.2                          T                                        4678103
LASF  003.96 229.5 m E Pn      2011/04/21 11:37:38.7   0.4                          T                                        4678146
LASF  003.96 229.5 m E Pg      2011/04/21 11:37:52.1  -0.4                          T                                        4678118
LASF  003.96 229.5 m E Sn      2011/04/21 11:38:22.8   0.6                          T                                        4678117
LASF  003.96 229.5 m E Sg      2011/04/21 11:38:42.9  -0.4                          T               14.1  .53 Ml 3.1         4678119
GIVF  004.00 328.8 m E Pn      2011/04/21 11:37:39.2   0.4                          T                                        4678167
GIVF  004.00 328.8 m E Sg      2011/04/21 11:38:44.3  -0.3                          T               10.5  .38 Ml 3.1         4678093
TCF   004.05 265.9 m E Pn      2011/04/21 11:37:39.9   0.4                          T                                        4678168
TCF   004.05 265.9 m E Sg      2011/04/21 11:38:45.8  -0.2                          T                6.3  .22 Ml 3.2         4678092
BAIF  004.20 324.0 m E Pn      2011/04/21 11:37:41.8   0.2                          T                                        4678166
BAIF  004.20 324.0 m E Sg      2011/04/21 11:38:50.3  -0.4                          T                6.0  .34 Ml 2.9         4678094
PGF   004.23 170.3 m E Pn      2011/04/21 11:37:42.4   0.3                          T                                        4678137
PGF   004.23 170.3 m E Sn      2011/04/21 11:38:29.5   0.7                          T                1.7  .28 Ml 2.7         4678089
CAF   004.55 248.9 m E Pn      2011/04/21 11:37:46.9   0.6                          T                                        4678148
CAF   004.55 248.9 m E Sg      2011/04/21 11:39:01.4  -0.2                          T                8.7  .46 Ml 3.0         4678115
RJF   004.76 255.0 m E Pn      2011/04/21 11:37:49.5   0.3                          T                                        4678150
RJF   004.76 255.0 m E Sg      2011/04/21 11:39:08.1  -0.1                          T                9.5  .50 Ml 2.8         4678113
MTLF  005.33 232.7 m E Pn      2011/04/21 11:37:57.4   0.4                          T                                        4678147
MTLF  005.33 232.7 m E Sg      2011/04/21 11:39:25.7  -0.4                          T                2.6  .26 Ml 3.0         4678116
LFF   005.40 253.4 m E Pn      2011/04/21 11:37:58.1   0.2                          T                                        4678149
LFF   005.40 253.4 m E Sg      2011/04/21 11:39:28.0  -0.2                          T                9.2  .45 Ml 3.1         4678114
MFF   005.63 271.7 m E Pn      2011/04/21 11:38:02.2   1.2                          T                                        4678151
MFF   005.63 271.7 m E Sg      2011/04/21 11:39:35.4  -0.1                          T                2.2  .25 Ml 3.1         4678112
LDF   005.82 291.7 m E Pn      2011/04/21 11:38:04.0   0.4                          T                                        4678153
LDF   005.82 291.7 m E Sg      2011/04/21 11:39:41.2  -0.1                          T                2.6  .29 Ml 3.0         4678110
FLN   006.10 292.6 m E Pn      2011/04/21 11:38:07.6   0.2 109.8  3.4               T                                        4678154
FLN   006.10 292.6 m E Sg      2011/04/21 11:39:49.6  -0.3                          T                4.8  .41 Ml 3.0         4678109
GRR   006.25 288.7 m E Pn      2011/04/21 11:38:09.8   0.4                          T                                        4678152
GRR   006.25 288.7 m E Sg      2011/04/21 11:39:54.4  -0.3                          T                2.4  .37 Ml 2.8         4678111
SGMF  007.34 285.9 m E Pn      2011/04/21 11:38:24.6   0.3                          T                                        4678156
SGMF  007.34 285.9 m E Sn      2011/04/21 11:39:43.5   0.5                          T                1.4  .33 Ml 3.0         4678107
QUIF  007.71 283.0 m E Pn      2011/04/21 11:38:29.4   0.1                          T                                        4678155
QUIF  007.71 283.0 m E Sn      2011/04/21 11:39:52.4   0.7                          T                1.7  .23 Ml 3.2         4678108
ROSF  007.83 286.0 m E Pn      2011/04/21 11:38:31.2   0.3                          T                                        4678157
ROSF  007.83 286.0 m E Sn      2011/04/21 11:39:55.3   0.7                          T                 .5  .26 Ml 2.7         4678106

.
EVENT     258521
    Date      Time       Latitude Longitude    Depth    Ndef Nsta Gap    Mag1  N    Mag2  N    Mag3  N   Author         ID
       rms   OT_Error      Smajor Sminor Az        Err   mdist  Mdist     Err        Err        Err      Quality

2011/04/21 12:43:58.0     43.0900    -.4270      2.0      26    5 104  Ml 2.0  2  Md 1.8  3              js067245    258521

      0.56   +-  0.14       3.1    1.8  174.58 +-  0.0    0.20   2.03   +-0.2      +-0.2                 m i ke

PYRENEES
Sta     Dist  EvAz     Phase      Date       Time     TRes  Azim  AzRes  Slow  SRes Def   SNR       Amp   Per   Mag1   Mag2       ID
ETSF  000.21 206.9 m E Pg      2011/04/21 12:44:02.0  -0.3                          T                                        4680456
ETSF  000.21 206.9 m E Sg      2011/04/21 12:44:05.3   0.0                          T               14.6  .29        Md 2.0  4680457
EPF   000.57 095.8 m E Pg      2011/04/21 12:44:09.2   0.5                          T                                        4680454
EPF   000.57 095.8 m E Sg      2011/04/21 12:44:16.2   0.0                          T                2.5  .20        Md 1.7  4680455
SJPF  000.58 272.6 m E Pg      2011/04/21 12:44:09.4   0.4                          T                                        4680452
SJPF  000.58 272.6 m E Sg      2011/04/21 12:44:16.8   0.1                          T                1.6  .20        Md 1.7  4680453
MTLF  001.95 081.7 m E Sg      2011/04/21 12:44:59.3   0.0                          T                1.0  .24 Ml 1.8         4680459
LFF   002.03 024.1 m E Sg      2011/04/21 12:45:01.8   0.0                          T                2.0  .18 Ml 2.1         4680458

.
