EVENT     277642
    Date      Time       Latitude Longitude    Depth    Ndef Nsta Gap    Mag1  N    Mag2  N    Mag3  N   Author         ID
       rms   OT_Error      Smajor Sminor Az        Err   mdist  Mdist     Err        Err        Err      Quality

2012/06/07 05:40:12.1     44.9144   11.1222      2.0      41   17 083  Ml 3.3 10                         bulletin    277751
                                                                                                         _ldg
      0.69   +-  0.19       4.3    3.3   92.13 +-  0.0    0.16   6.02   +-0.3                            m i ke

NORTHERN ITALY
Sta     Dist  EvAz     Phase      Date       Time     TRes  Azim  AzRes  Slow  SRes Def   SNR       Amp   Per   Mag1   Mag2       ID
PGF   002.82 213.8 m E Pn      2012/06/07 05:40:56.2  -0.2                          T                                        4989247
PGF   002.82 213.8 m E Sn      2012/06/07 05:41:29.0   0.0                          T               15.8  .28 Ml 3.4         4989246
SBF   002.84 249.6 m E Pn      2012/06/07 05:40:56.4  -0.3                          T                                        4989245
SBF   002.84 249.6 m E Sn      2012/06/07 05:41:31.2   1.7                          T               34.5  .34 Ml 3.4         4989244
MBDF  003.10 268.1 m E Pn      2012/06/07 05:40:59.3  -1.0                          T                                        4989238
LPL   003.16 282.5 m E Pn      2012/06/07 05:41:01.6   0.4                          T                                        4989239
FRF   003.49 248.7 m E Pn      2012/06/07 05:41:05.3  -0.1                          T                                        4989241
FRF   003.49 248.7 m E Sn      2012/06/07 05:41:45.3   0.5                          T               10.4  .26 Ml 3.2         4989240
LMR   003.68 246.2 m E Pn      2012/06/07 05:41:07.7  -0.2                          T                                        4989243
LMR   003.68 246.2 m E Sn      2012/06/07 05:41:48.8  -0.5                          T               18.5  .38 Ml 3.3         4989242
ORIF  003.72 271.9 m E Pn      2012/06/07 05:41:08.5  -0.1                          T                                        4989237
SMRF  004.08 258.7 m E Pn      2012/06/07 05:41:14.0   0.5                          T                                        4989224
HINF  004.14 316.0 m E Pn      2012/06/07 05:41:14.2  -0.1                          T                                        4989230
HINF  004.14 316.0 m E Sn      2012/06/07 05:42:02.3   1.8                          T                9.0  .34 Ml 3.1         4989229
HAU   004.52 314.8 m E Pn      2012/06/07 05:41:18.0  -1.4                          T                                        4989228
HAU   004.52 314.8 m E Sn      2012/06/07 05:42:08.3  -1.2                          T               17.6  .26 Ml 3.4         4989227
CDF   004.39 324.3 m E Pn      2012/06/07 05:41:18.9   1.2                          T                                        4989226
CDF   004.39 324.3 m E Sn      2012/06/07 05:42:07.2   0.8                          T                6.3  .34 Ml 3.1         4989225
VIVF  004.58 271.5 m E Pn      2012/06/07 05:41:20.0  -0.3                          T                                        4989236
VIVF  004.58 271.5 m E Sn      2012/06/07 05:42:09.6  -1.4                          T                2.8  .28 Ml 2.8         4989235
SMF   005.38 291.3 m E Pn      2012/06/07 05:41:31.5   0.4                          T                                        4989233
SMF   005.38 291.3 m E Sn      2012/06/07 05:42:30.1   0.1                          T              101.5 1.84 Ml 3.7         4989232
LOR   005.57 297.6 m E Pn      2012/06/07 05:41:33.4  -0.3                          T                                        4989222
LOR   005.57 297.6 m E Sn      2012/06/07 05:42:34.8   0.1                          T                                        4989221
SSF   005.73 294.7 m E Pn      2012/06/07 05:41:36.1   0.3                          T                                        4989220
AVF   005.74 291.8 m E Pn      2012/06/07 05:41:36.8   0.8                          T                                        4989231
AVF   005.74 291.8 m E Sn      2012/06/07 05:42:42.1   3.5                          T               51.0 1.78 Ml 3.5         4989223
BGF   006.02 288.8 m E Pn      2012/06/07 05:41:40.8   1.0                          T                                        4989234

.
EVENT     277643
    Date      Time       Latitude Longitude    Depth    Ndef Nsta Gap    Mag1  N    Mag2  N    Mag3  N   Author         ID
       rms   OT_Error      Smajor Sminor Az        Err   mdist  Mdist     Err        Err        Err      Quality

2012/06/07 06:21:32.5     44.5049    6.6749      2.0      39   11 055  Ml 2.0  8  Md 2.0  2              bulletin    277752
                                                                                                         _ldg
      0.34   +-  0.05       1.0     .8   51.00 +-  0.0    0.10   2.59   +-0.3      +-0.0                 m i ke

FRANCE
Sta     Dist  EvAz     Phase      Date       Time     TRes  Azim  AzRes  Slow  SRes Def   SNR       Amp   Per   Mag1   Mag2       ID
MBDF  000.23 017.2 m E Pg      2012/06/07 06:21:37.3   0.0                          T                                        4989259
MBDF  000.23 017.2 m E Sg      2012/06/07 06:21:40.8   0.3                          T               35.3  .42        Md 2.0  4989252
ORIF  000.70 306.4 m E Pg      2012/06/07 06:21:45.7  -0.2                          T                                        4989258
ORIF  000.70 306.4 m E Sg      2012/06/07 06:21:54.8  -0.3                          T               10.5  .24        Md 2.0  4989254
SBF   000.84 139.3 m E Pg      2012/06/07 06:21:49.0   0.5                          T                                        4989256
SBF   000.84 139.3 m E Sg      2012/06/07 06:22:00.6   1.2                          T               15.3  .52                4989248
FRF   000.94 181.2 m E Pg      2012/06/07 06:21:50.4   0.1                          T                                        4992876
FRF   000.94 181.2 m E Sg      2012/06/07 06:22:02.5   0.0                          T                9.0  .20 Ml 2.5         4992875
SMRF  000.95 236.6 m E Pg      2012/06/07 06:21:50.6   0.1                          T                                        4989249
SMRF  000.95 236.6 m E Sg      2012/06/07 06:22:03.0   0.2                          T                2.0  .22 Ml 1.8         4992874
LPG   000.99 003.1 m E Pg      2012/06/07 06:21:51.5   0.0                          T                                        4992873
LPG   000.99 003.1 m E Sg      2012/06/07 06:22:04.4   0.0                          T                2.6  .24 Ml 1.8         4992872
LPL   001.01 002.3 m E Pg      2012/06/07 06:21:51.9   0.1                          T                                        4989253
LPL   001.01 002.3 m E Sg      2012/06/07 06:22:04.9   0.0                          T                3.3  .30 Ml 1.9         4992871
LMR   001.18 185.9 m E Pg      2012/06/07 06:21:55.4   0.9                          T                                        4989257
LMR   001.18 185.9 m E Sg      2012/06/07 06:22:12.0   2.3                          T               10.2  .38 Ml 2.3         4989250
VIVF  001.47 284.5 m E Pg      2012/06/07 06:21:58.9  -1.0                          T                                        4989255
VIVF  001.47 284.5 m E Sg      2012/06/07 06:22:19.0   0.0                          T                2.2  .26 Ml 1.9         4989251
LASF  002.07 259.0 m E Pn      2012/06/07 06:22:06.6   0.1                          T                                        4992870
LASF  002.07 259.0 m E Sn      2012/06/07 06:22:30.8  -0.6                          T                                        4992869
PGF   002.59 138.4 m E Pn      2012/06/07 06:22:14.0   0.3                          T                                        4992878
PGF   002.59 138.4 m E Sn      2012/06/07 06:22:43.1  -0.7                          T                 .6  .17 Ml 2.1         4992877

.
EVENT     277659
    Date      Time       Latitude Longitude    Depth    Ndef Nsta Gap    Mag1  N    Mag2  N    Mag3  N   Author         ID
       rms   OT_Error      Smajor Sminor Az        Err   mdist  Mdist     Err        Err        Err      Quality

2012/06/07 07:39:24.3     47.1775    6.0481       .0 f    15    8 137  Ml 2.7  5  Md 2.5  7              bulletin    277768
                                                                                                         _ldg
      1.10   +-  0.22       4.6    3.3  108.57 +-  0.0    0.57   1.49   +-0.2      +-0.3                 m i km

FRANCE
Sta     Dist  EvAz     Phase      Date       Time     TRes  Azim  AzRes  Slow  SRes Def   SNR       Amp   Per   Mag1   Mag2       ID
CABF  000.57 177.3 m E Pg      2012/06/07 07:39:36.1   0.6                          T                                Md 2.3  4989743
CABF  000.57 177.3 m E Sg      2012/06/07 07:39:42.3  -0.8                          T               48.8  .68                4989739
HINF  000.84 040.2 m E Pg      2012/06/07 07:39:40.1  -0.3                          T                                Md 2.4  4989745
HINF  000.84 040.2 m E Sg      2012/06/07 07:39:53.0   1.4                          T               19.8  .38                4989741
HAU   000.85 013.7 m E Pg      2012/06/07 07:39:40.4  -0.3                          T                                Md 2.4  4989744
HAU   000.85 013.7 m E Sg      2012/06/07 07:39:53.4   1.4                          T               19.9  .32                4989740
THEF  001.05 358.0 m E Pg      2012/06/07 07:39:43.8  -0.5                          T                                Md 2.8  4989742
THEF  001.05 358.0 m E Sg      2012/06/07 07:39:59.4   1.3                          T               28.7  .56 Ml 2.5         4989764
CDF   001.49 033.4 m E Pg      2012/06/07 07:39:52.0  -0.4                          T                                Md 2.5  4989768
CDF   001.49 033.4 m E Sg      2012/06/07 07:40:11.0  -0.8                          T               10.5  .56 Ml 2.4         4989767
MEZF  001.49 333.5 m E Pg      2012/06/07 07:39:52.5   0.3                          T                                Md 3.0  4989763
MEZF  001.49 333.5 m E Sg      2012/06/07 07:40:11.7   0.1 148.4  -4.4              T               25.2  .38 Ml 2.9         4989766
LOR   001.49 274.3 m E Pg      2012/06/07 07:39:52.7   0.3 101.1  8.5               T                                Md 2.4  4989738
LOR   001.49 274.3 m E Sg      2012/06/07 07:40:10.7  -1.2  91.5  -1.2              T               26.6  .48 Ml 2.8         4989737
SFTF  001.23 326.8 m E Sg      2012/06/07 07:40:03.6  -0.2                          T               23.5  .40 Ml 2.7         4989765

.
EVENT     277663
    Date      Time       Latitude Longitude    Depth    Ndef Nsta Gap    Mag1  N    Mag2  N    Mag3  N   Author         ID
       rms   OT_Error      Smajor Sminor Az        Err   mdist  Mdist     Err        Err        Err      Quality

2012/06/07 09:29:50.4     48.0117    6.6696       .0 f    10    6 110  Ml 2.1  3  Md 2.0  4              bulletin    277772
                                                                                                         _ldg
      0.36   +-  0.14       2.7    2.4    7.89 +-  0.0    0.22   1.46   +-0.4      +-0.3                 m i km

FRANCE
Sta     Dist  EvAz     Phase      Date       Time     TRes  Azim  AzRes  Slow  SRes Def   SNR       Amp   Per   Mag1   Mag2       ID
HAU   000.22 268.5 m E Pg      2012/06/07 09:29:54.5  -0.5                          T                                        4989962
HAU   000.22 268.5 m E Sg      2012/06/07 09:29:57.6  -0.5                          T              235.9  .62        Md 1.7  4989960
HINF  000.23 147.6 m E Pg      2012/06/07 09:29:55.4   0.1                          T                                        4989961
HINF  000.23 147.6 m E Sg      2012/06/07 09:29:58.8   0.2                          T               73.2  .92        Md 1.9  4989959
CDF   000.57 045.1 m E Pg      2012/06/07 09:30:01.4  -0.2                          T                                        4989958
CDF   000.57 045.1 m E Sg      2012/06/07 09:30:09.5   0.3                          T               21.3  .93        Md 2.1  4989957
SFTF  001.11 280.6 m E Pg      2012/06/07 09:30:12.1   0.6                          T                                        4989956
SFTF  001.11 280.6 m E Sg      2012/06/07 09:30:26.8   0.8                          T                3.4  .23 Ml 2.0 Md 2.4  4989955
MEZF  001.19 295.0 m E Sg      2012/06/07 09:30:28.3  -0.1                          T               11.6  .28 Ml 2.5         5017056
CABF  001.46 196.0 m E Sg      2012/06/07 09:30:36.6  -0.3                          T                1.2  .29 Ml 1.6         5017057

.
EVENT     277666
    Date      Time       Latitude Longitude    Depth    Ndef Nsta Gap    Mag1  N    Mag2  N    Mag3  N   Author         ID
       rms   OT_Error      Smajor Sminor Az        Err   mdist  Mdist     Err        Err        Err      Quality

2012/06/07 10:17:14.7     41.3270   20.9571      1.1     169   20 015  Ml 4.7 33                         bulletin    277775
                                                                                                         _ldg
      1.15   +-  0.09       3.4    2.0   36.75 +-  0.0    0.25  73.00   +-0.2                            m i ke

ALBANIA
Sta     Dist  EvAz     Phase      Date       Time     TRes  Azim  AzRes  Slow  SRes Def   SNR       Amp   Per   Mag1   Mag2       ID
PGF   009.00 281.8 m E Pn      2012/06/07 10:19:25.6   2.3                          T              143.2 1.10 Ml 4.9         4990008
SBF   010.29 288.8 m E Pn      2012/06/07 10:19:42.5   1.7                          T               34.6  .40 Ml 4.7         4990009
SBF   010.29 288.8 m E Sn      2012/06/07 10:21:28.7  -1.5                          T               71.2  .92 Ml 4.7         5017060
MBDF  010.93 292.8 m E Pn      2012/06/07 10:19:49.9   0.2                          T               33.9  .56 Ml 4.7         4990015
MBDF  010.93 292.8 m E Sn      2012/06/07 10:21:45.4  -0.2                          T               32.2  .60 Ml 4.6         5017059
LMR   010.89 285.4 m E Pn      2012/06/07 10:19:50.2   1.3                          T               31.8  .92 Ml 4.4         4990010
LMR   010.89 285.4 m E Sn      2012/06/07 10:21:44.0  -0.3                          T               25.0  .92 Ml 4.3         4990007
FRF   010.81 286.7 m E Pn      2012/06/07 10:19:50.2   2.4                          T               29.0  .48 Ml 4.7         4990011
FRF   010.81 286.7 m E Sn      2012/06/07 10:21:42.6   0.0                          T               37.1  .90 Ml 4.5         4990006
LPL   011.16 296.8 m E Pn      2012/06/07 10:19:52.6  -0.3                          T               48.3  .46 Ml 4.9         4990013
LPL   011.16 296.8 m E Sn      2012/06/07 10:21:49.3  -2.0                          T               43.4  .42 Ml 4.9         4989998
LPG   011.14 296.7 m E Pn      2012/06/07 10:19:53.2   0.5                          T               70.5  .46 Ml 5.1         4990012
LPG   011.14 296.7 m E Sn      2012/06/07 10:21:47.5  -3.3                          T               94.6  .84 Ml 4.9         4989996
ORIF  011.59 293.1 m E Pn      2012/06/07 10:19:59.3   0.7                          T               46.8  .76 Ml 4.7         4990014
ORIF  011.59 293.1 m E Sn      2012/06/07 10:22:01.0  -0.3                          T               40.7  .72 Ml 4.7         4989997
CABF  011.94 301.2 m E Pn      2012/06/07 10:20:03.7   0.4                          T               50.1  .48 Ml 5.0         4990021
HINF  011.96 307.6 m E Pn      2012/06/07 10:20:04.6   1.0                          T               32.4  .62 Ml 4.7         4990022
HINF  011.96 307.6 m E Sn      2012/06/07 10:22:09.3  -0.9                          T               37.8  .82 Ml 4.6         4990003
CDF   012.01 310.7 m E Pn      2012/06/07 10:20:04.8   0.5                          T               34.0  .72 Ml 4.8         4990025
VIVF  012.42 291.9 m E Pn      2012/06/07 10:20:09.9   0.1                          T               53.0 1.40 Ml 4.6         4990005
VIVF  012.42 291.9 m E Sn      2012/06/07 10:22:19.7  -1.3                          T                9.0  .69 Ml 4.2         5017058
HAU   012.35 307.6 m E Pn      2012/06/07 10:20:10.5   1.7                          T               54.2  .52 Ml 4.8         4990023
HAU   012.35 307.6 m E Sn      2012/06/07 10:22:19.4   0.0                          T               40.7  .60 Ml 4.6         4990002
SFTF  013.22 306.7 m E Pn      2012/06/07 10:20:22.2   1.5                          T               25.6  .56 Ml 4.7         4990024
SMF   013.41 299.1 m E Pn      2012/06/07 10:20:22.6  -0.7                          T               16.6  .44 Ml 4.6         4990017
SMF   013.41 299.1 m E Sn      2012/06/07 10:22:42.8  -2.0                          T               47.2  .86 Ml 4.8         4990000
LOR   013.60 301.6 m E Pn      2012/06/07 10:20:25.2  -0.6                          T               46.7  .66 Ml 4.9         4990026
LOR   013.60 301.6 m E Sn      2012/06/07 10:22:49.5   0.2                          T                                        4990004
SSF   013.76 300.5 m E Pn      2012/06/07 10:20:27.8  -0.2                          T               24.8  .70 Ml 4.7         4990020
SSF   013.76 300.5 m E Sn      2012/06/07 10:22:54.1   1.0                          T               18.6  .64 Ml 4.6         4990001
AVF   013.78 299.2 m E Pn      2012/06/07 10:20:28.7   0.5                          T                9.8  .40 Ml 4.4         4990018
BGF   014.05 297.9 m E Pn      2012/06/07 10:20:32.3   0.3                          T               13.1  .26 Ml 4.8         4990016
BGF   014.05 297.9 m E Sn      2012/06/07 10:22:58.4  -1.6                          T               27.8  .64 Ml 4.7         4989999
TCF   014.41 296.4 m E Pn      2012/06/07 10:20:37.1   0.2                          T               30.4 1.08 Ml 4.5         4990019

.
EVENT     277667
    Date      Time       Latitude Longitude    Depth    Ndef Nsta Gap    Mag1  N    Mag2  N    Mag3  N   Author         ID
       rms   OT_Error      Smajor Sminor Az        Err   mdist  Mdist     Err        Err        Err      Quality

2012/06/07 10:27:31.4     37.3543   -1.9709      2.0      74    3 149                                    bulletin    277776
                                                                                                         _ldg
      1.61   +-  0.31       6.5    4.3  145.12 +-  0.0    0.43   6.43                                    m i ke

SPAIN
Sta     Dist  EvAz     Phase      Date       Time     TRes  Azim  AzRes  Slow  SRes Def   SNR       Amp   Per   Mag1   Mag2       ID
ETSF  005.64 010.6 m E P       2012/06/07 10:28:57.4  -1.1                          T                5.8  .48                4990054
ETSF  005.64 010.6 m E S       2012/06/07 10:30:02.6  -2.3                          T                                        4990051
SJPF  005.78 005.4 m E P       2012/06/07 10:28:59.8  -0.5                          T               19.0  .66                4990055
SJPF  005.78 005.4 m E S       2012/06/07 10:30:07.4  -0.9                          T                                        4990050
EPF   005.94 016.6 m E P       2012/06/07 10:29:01.8  -0.9                          T                3.3  .20                4990053
EPF   005.94 016.6 m E S       2012/06/07 10:30:10.4  -1.9                          T                                        4990052

.
