EVENT     289306
    Date      Time       Latitude Longitude    Depth    Ndef Nsta Gap    Mag1  N    Mag2  N    Mag3  N   Author         ID
       rms   OT_Error      Smajor Sminor Az        Err   mdist  Mdist     Err        Err        Err      Quality

2013/01/01 06:17:00.8     43.0643    -.2128      2.0      54   10 080  Ml 2.4  8  Md 2.4  2              bulletin    289406
                                                                                                         _ldg
      0.52   +-  0.06       1.3    1.1  171.82 +-  0.0    0.13   4.12   +-0.2      +-0.0                 m i ke

PYRENEES
Sta     Dist  EvAz     Phase      Date       Time     TRes  Azim  AzRes  Slow  SRes Def   SNR       Amp   Per   Mag1   Mag2       ID
ETSF  000.30 237.0 m E Pg      2013/01/01 06:17:06.2  -0.6                          T                                        5152173
ETSF  000.30 237.0 m E Sg      2013/01/01 06:17:10.0  -0.9                          T              112.0  .22        Md 2.4  5152172
EPF   000.41 094.6 m E Pg      2013/01/01 06:17:08.2  -0.5                          T                                        5152171
EPF   000.41 094.6 m E Sg      2013/01/01 06:17:13.9  -0.2                          T               34.6  .30        Md 2.5  5152170
SJPF  000.74 274.1 m E Pg      2013/01/01 06:17:14.6  -0.2                          T                                        5152169
SJPF  000.74 274.1 m E Sg      2013/01/01 06:17:24.3  -0.2                          T               16.2  .30                5152168
MTLF  001.80 080.3 m E Pn      2013/01/01 06:17:31.0   0.0                          T                                        5152162
MTLF  001.80 080.3 m E Pg      2013/01/01 06:17:34.2  -0.1                          T                                        5152164
MTLF  001.80 080.3 m E Sn      2013/01/01 06:17:53.0  -0.1                          T                                        5152161
MTLF  001.80 080.3 m E Sg      2013/01/01 06:17:57.6   0.2                          T                2.9  .24 Ml 2.2         5152163
LFF   002.00 019.8 m E Pn      2013/01/01 06:17:34.0   0.2                          T                                        5152166
LFF   002.00 019.8 m E Pg      2013/01/01 06:17:37.0   0.1                          T                                        5152167
LFF   002.00 019.8 m E Sn      2013/01/01 06:17:58.5   0.6                          T                                        5152148
LFF   002.00 019.8 m E Sg      2013/01/01 06:18:04.6   1.0                          T               14.2  .34 Ml 2.7         5152165
CAF   002.48 040.7 m E Pn      2013/01/01 06:17:40.4  -0.1                          T                                        5152160
CAF   002.48 040.7 m E Pg      2013/01/01 06:17:46.7  -0.2                          T                                        5152159
CAF   002.48 040.7 m E Sn      2013/01/01 06:18:09.3  -0.2                          T                                        5152158
CAF   002.48 040.7 m E Sg      2013/01/01 06:18:19.3   0.5                          T                2.6  .20 Ml 2.4         5152157
RJF   002.56 028.5 m E Pn      2013/01/01 06:17:41.6   0.1                          T                                        5152156
RJF   002.56 028.5 m E Pg      2013/01/01 06:17:48.5   0.1                          T                                        5152155
RJF   002.56 028.5 m E Sn      2013/01/01 06:18:11.9   0.6                          T                                        5152154
RJF   002.56 028.5 m E Sg      2013/01/01 06:18:21.8   0.5                          T                4.3  .23 Ml 2.3         5152153
LASF  003.13 069.7 m E Pn      2013/01/01 06:17:49.1  -0.1                          T                                        5152147
LASF  003.13 069.7 m E Pg      2013/01/01 06:17:59.0   0.3                          T                                        5152146
LASF  003.13 069.7 m E Sn      2013/01/01 06:18:25.3   0.4                          T                                        5152145
LASF  003.13 069.7 m E Sg      2013/01/01 06:18:39.0   0.2                          T                1.2  .20 Ml 2.2         5152144
MFF   003.54 000.7 m E Pn      2013/01/01 06:17:54.7   0.0                          T                                        5168462
MFF   003.54 000.7 m E Pg      2013/01/01 06:18:06.3   0.0                          T                                        5168461
MFF   003.54 000.7 m E Sn      2013/01/01 06:18:34.3  -0.4                          T                1.2  .23 Ml 2.4         5168460
BGF   004.12 030.9 m E Pn      2013/01/01 06:18:02.6   0.0                          T                                        5152151
BGF   004.12 030.9 m E Pg      2013/01/01 06:18:16.7  -0.2                          T                                        5152152
BGF   004.12 030.9 m E Sn      2013/01/01 06:18:49.3   0.8                          T                                        5152150
BGF   004.12 030.9 m E Sg      2013/01/01 06:19:10.3   0.5                          T                1.2  .19 Ml 2.5         5152149

.
EVENT     289308
    Date      Time       Latitude Longitude    Depth    Ndef Nsta Gap    Mag1  N    Mag2  N    Mag3  N   Author         ID
       rms   OT_Error      Smajor Sminor Az        Err   mdist  Mdist     Err        Err        Err      Quality

2013/01/01 06:25:02.4     43.0372    -.2200      2.0      13    6 150  Ml 1.6  3  Md 1.6  2              bulletin    289408
                                                                                                         _ldg
      0.64   +-  0.08       2.5    1.2  165.79 +-  0.0    0.28   2.51   +-0.3      +-0.1                 m i ke

PYRENEES
Sta     Dist  EvAz     Phase      Date       Time     TRes  Azim  AzRes  Slow  SRes Def   SNR       Amp   Per   Mag1   Mag2       ID
ETSF  000.28 241.0 m E Pg      2013/01/01 06:25:08.1   0.0                          T                                        5152193
ETSF  000.28 241.0 m E Sg      2013/01/01 06:25:12.1   0.2                          T               18.0  .24        Md 1.5  5152192
EPF   000.41 090.8 m E Pg      2013/01/01 06:25:10.2  -0.1                          T                                        5152191
EPF   000.41 090.8 m E Sg      2013/01/01 06:25:16.4   0.5                          T                4.7  .18        Md 1.7  5152190
SJPF  000.74 276.2 m E Pg      2013/01/01 06:25:16.3  -0.1                          T                                        5152184
SJPF  000.74 276.2 m E Sg      2013/01/01 06:25:26.2   0.1                          T                 .8  .25                5152189
MTLF  001.81 079.5 m E Pg      2013/01/01 06:25:36.2   0.1                          T                                        5152186
MTLF  001.81 079.5 m E Sg      2013/01/01 06:25:59.3   0.0                          T                 .2  .17 Ml 1.2         5152188
LFF   002.02 019.7 m E Pg      2013/01/01 06:25:40.0   0.0                          T                                        5152182
LFF   002.02 019.7 m E Sg      2013/01/01 06:26:06.0   0.0                          T                1.1  .24 Ml 1.7         5152180
CAF   002.51 040.3 m E Sg      2013/01/01 06:26:20.9  -0.3                          T                 .9  .26 Ml 1.9         5174295

.
EVENT     289311
    Date      Time       Latitude Longitude    Depth    Ndef Nsta Gap    Mag1  N    Mag2  N    Mag3  N   Author         ID
       rms   OT_Error      Smajor Sminor Az        Err   mdist  Mdist     Err        Err        Err      Quality

2013/01/01 06:29:05.6     43.0777    -.2270      2.0      34    7 101  Ml 2.0  5  Md 1.9  2              bulletin    289411
                                                                                                         _ldg
      0.72   +-  0.11       1.9    1.7  161.98 +-  0.0    0.30   2.72   +-0.3      +-0.2                 m i ke

PYRENEES
Sta     Dist  EvAz     Phase      Date       Time     TRes  Azim  AzRes  Slow  SRes Def   SNR       Amp   Per   Mag1   Mag2       ID
ETSF  000.30 233.8 m E Pg      2013/01/01 06:29:10.9  -0.6                          T                                        5152223
ETSF  000.30 233.8 m E Sg      2013/01/01 06:29:14.7  -0.9                          T               34.3  .28        Md 2.1  5152222
EPF   000.42 096.3 m E Pg      2013/01/01 06:29:13.1  -0.6                          T                                        5152221
EPF   000.42 096.3 m E Sg      2013/01/01 06:29:18.8  -0.4                          T               13.0  .20        Md 1.8  5152220
SJPF  000.73 273.1 m E Pg      2013/01/01 06:29:19.4   0.0                          T                                        5152218
SJPF  000.73 273.1 m E Sg      2013/01/01 06:29:29.1   0.2                          T                4.2  .22                5152219
MTLF  001.81 080.8 m E Pg      2013/01/01 06:29:39.1  -0.1                          T                                        5152216
MTLF  001.81 080.8 m E Sg      2013/01/01 06:30:02.1  -0.4                          T                1.3  .25 Ml 1.9         5152217
LFF   001.99 020.2 m E Pg      2013/01/01 06:29:42.9   0.4                          T                                        5152215
LFF   001.99 020.2 m E Sn      2013/01/01 06:30:02.8   0.4                          T                                        5152214
LFF   001.99 020.2 m E Sg      2013/01/01 06:30:08.6   0.5                          T               10.2  .39 Ml 2.4         5152213
CAF   002.48 041.0 m E Pn      2013/01/01 06:29:45.2   0.0                          T                                        5152211
CAF   002.48 041.0 m E Pg      2013/01/01 06:29:51.6   0.0                          T                                        5152210
CAF   002.48 041.0 m E Sn      2013/01/01 06:30:13.8  -0.5                          T                                        5152209
CAF   002.48 041.0 m E Sg      2013/01/01 06:30:24.0   0.5                          T                1.5  .17 Ml 2.3         5152208
RJF   002.56 028.8 m E Pg      2013/01/01 06:29:52.7  -0.3                          T                                        5152206
RJF   002.56 028.8 m E Sn      2013/01/01 06:30:15.6  -0.4                          T                                        5152207
RJF   002.56 028.8 m E Sg      2013/01/01 06:30:25.9   0.0                          T                1.7  .24 Ml 1.9         5152204

.
