EVENT     259529
    Date      Time       Latitude Longitude    Depth    Ndef Nsta Gap    Mag1  N    Mag2  N    Mag3  N   Author         ID
       rms   OT_Error      Smajor Sminor Az        Err   mdist  Mdist     Err        Err        Err      Quality

2011/05/21 03:37:07.3     45.1735    8.9805      2.0      71   24 090  Ml 2.8 17                         js067245    259529

      1.09   +-  0.15       3.7    2.4  108.39 +-  0.0    0.52   7.48   +-0.3                            m i ke

NORTHERN ITALY
Sta     Dist  EvAz     Phase      Date       Time     TRes  Azim  AzRes  Slow  SRes Def   SNR       Amp   Per   Mag1   Mag2       ID
MBDF  001.63 254.9 m E Pn      2011/05/21 03:37:34.4  -1.1                          T   001.0                                4694727
MBDF  001.63 254.9 m E Sn      2011/05/21 03:37:55.5  -0.3                          T   001.0       15.3  .20 Ml 3.0         4694728
LPG   001.61 282.4 m E Pn      2011/05/21 03:37:34.9  -0.4                          T   001.0                                4694709
LPG   001.61 282.4 m E Sg      2011/05/21 03:37:58.3   0.0                          T   001.0       15.5  .28 Ml 2.8         4694710
LPL   001.62 283.0 m E Pn      2011/05/21 03:37:35.4   0.0                          T   001.0                                4694711
LPL   001.62 283.0 m E Sn      2011/05/21 03:37:55.7   0.0                          T   001.0       23.2  .32 Ml 3.0         4694712
SBF   001.71 220.7 m E Pn      2011/05/21 03:37:36.4  -0.1                          T   001.0                                4694715
SBF   001.71 220.7 m E Sn      2011/05/21 03:37:58.0   1.3                          T   001.0       59.9  .32 Ml 3.4         4694716
ORIF  002.21 264.5 m E Pn      2011/05/21 03:37:44.4   1.1                          T   001.0                                4694730
ORIF  002.21 264.5 m E Sg      2011/05/21 03:38:16.0  -1.0                          T               15.9  .47 Ml 2.8         4697508
FRF   002.32 226.9 m E Pn      2011/05/21 03:37:44.5  -0.2                          T                                        4697510
FRF   002.32 226.9 m E Pg      2011/05/21 03:37:50.4   0.0                          T                                        4697509
FRF   002.32 226.9 m E Sn      2011/05/21 03:38:12.0  -0.2                          T   001.0       17.7  .44 Ml 2.9         4694697
LMR   002.56 224.9 m E Pn      2011/05/21 03:37:46.4  -1.4                          T   001.0                                4694703
LMR   002.56 224.9 m E Pg      2011/05/21 03:37:54.0  -0.7                          T   001.0                                4694704
LMR   002.56 224.9 m E Sn      2011/05/21 03:38:18.5   0.8                          T   001.0        9.1  .28 Ml 2.9         4694705
CABF  002.48 306.5 m E Pn      2011/05/21 03:37:46.9   0.0                          T   001.0                                4694723
PGF   002.62 179.7 m E Pn      2011/05/21 03:37:47.9  -1.0                          T   001.0                                4694713
PGF   002.62 179.7 m E Sn      2011/05/21 03:38:19.0   0.5                          T   001.0        5.7  .20 Ml 3.0         4694714
SMRF  002.71 245.0 m E Pn      2011/05/21 03:37:52.4   2.4                          T   001.0                                4694732
SMRF  002.71 245.0 m E Sn      2011/05/21 03:38:22.0   0.5                          T   001.0          5  .32 Ml 2.6         4694733
VIVF  003.07 265.6 m E Pn      2011/05/21 03:37:54.5  -0.4                          T   001.0                                4694731
HINF  003.02 331.7 m E Pn      2011/05/21 03:37:54.5   0.2                          T   001.0                                4694724
HINF  003.02 331.7 m E Sn      2011/05/21 03:38:28.6  -0.4                          T   001.0                                4694725
HINF  003.02 331.7 m E Sg      2011/05/21 03:38:41.1  -1.1                          T   001.0        4.3  .24 Ml 2.7         4694726
CDF   003.44 340.7 m E Pn      2011/05/21 03:37:58.0  -1.1                          T   001.0                                4694695
CDF   003.44 340.7 m E Sn      2011/05/21 03:38:37.6  -1.5                          T   001.0        3.7  .32 Ml 2.7         4694696
HAU   003.36 328.3 m E Pn      2011/05/21 03:37:59.5   0.6                          T   001.0                                4694699
HAU   003.36 328.3 m E Sn      2011/05/21 03:38:37.6   0.5                          T   001.0       13.7  .32 Ml 2.9         4694700
LASF  003.82 255.1 m E Pn      2011/05/21 03:38:04.0  -0.1                          T   001.0                                4694701
LASF  003.82 255.1 m E Sn      2011/05/21 03:38:48.6   0.7                          T   001.0        1.3  .28 Ml 2.3         4694702
SMF   003.88 294.1 m E Pn      2011/05/21 03:38:06.0   0.1                          T   001.0                                4694717
SMF   003.88 294.1 m E Sn      2011/05/21 03:38:51.1   1.8                          T   001.0                                4694718
SMF   003.88 294.1 m E Sg      2011/05/21 03:39:09.7   0.9                          T   001.0        3.6  .28 Ml 2.7         4694719
LOR   004.13 302.3 m E Pn      2011/05/21 03:38:10.0   0.7                          T   001.0                                4694706
LOR   004.13 302.3 m E Sn      2011/05/21 03:38:55.7   0.4                          T   001.0                                4694707
LOR   004.13 302.3 m E Sg      2011/05/21 03:39:17.7   1.1                          T   001.0        3.1  .44 Ml 2.5         4694708
AVF   004.24 294.4 m E Pn      2011/05/21 03:38:10.5  -0.3                          T   001.0                                4694692
SSF   004.25 298.3 m E Pn      2011/05/21 03:38:11.4   0.5                          T   001.0                                4694720
BGF   004.50 290.1 m E Pn      2011/05/21 03:38:16.0   1.6                          T   001.0                                4694693
TCF   004.87 285.6 m E Pn      2011/05/21 03:38:19.5   0.1                          T   001.0                                4694721
TCF   004.87 285.6 m E Sn      2011/05/21 03:39:13.7   0.7                          T   001.0          2  .32 Ml 2.7         4694722
CAF   004.91 269.6 m E Pn      2011/05/21 03:38:21.5   1.6                          T   001.0                                4694694
GRR   007.48 299.0 m E Pn      2011/05/21 03:38:55.7   0.8                          T   001.0                                4694698
MTLF  005.19 251.7 m E Sn      2011/05/21 03:39:23.8   3.1                          T   001.0         .6  .32 Ml 2.2         4694729

.
EVENT     259530
    Date      Time       Latitude Longitude    Depth    Ndef Nsta Gap    Mag1  N    Mag2  N    Mag3  N   Author         ID
       rms   OT_Error      Smajor Sminor Az        Err   mdist  Mdist     Err        Err        Err      Quality

2011/05/21 05:22:33.0     44.0667    6.9172      2.0       8    4 213  Ml 1.8  1  Md 1.8  2              js067245    259530

      0.37   +-  0.27       5.8    3.2    5.91 +-  0.0    0.43   0.97   +-         +-0.0                 m i ke

FRANCE
Sta     Dist  EvAz     Phase      Date       Time     TRes  Azim  AzRes  Slow  SRes Def   SNR       Amp   Per   Mag1   Mag2       ID
SBF   000.43 118.4 m E Pg      2011/05/21 05:22:41.4   0.2                          T                                        4697545
SBF   000.43 118.4 m E Sg      2011/05/21 05:22:46.6  -0.3                          T                2.3  .20        Md 1.8  4697546
FRF   000.54 201.2 m E Pg      2011/05/21 05:22:43.1  -0.2                          T                                        4697549
FRF   000.54 201.2 m E Sg      2011/05/21 05:22:50.2  -0.3                          T                2.8  .24        Md 1.8  4697550
LMR   000.79 202.1 m E Pg      2011/05/21 05:22:47.5  -0.4                          T                                        4697547
LMR   000.79 202.1 m E Sg      2011/05/21 05:22:58.9   0.7                          T                2.0  .23                4697548
SMRF  000.97 265.1 m E Pg      2011/05/21 05:22:51.1  -0.2                          T                                        4697551
SMRF  000.97 265.1 m E Sg      2011/05/21 05:23:04.6   0.7                          T                2.7  .27 Ml 1.8         4697552

.
EVENT     259533
    Date      Time       Latitude Longitude    Depth    Ndef Nsta Gap    Mag1  N    Mag2  N    Mag3  N   Author         ID
       rms   OT_Error      Smajor Sminor Az        Err   mdist  Mdist     Err        Err        Err      Quality

2011/05/21 16:10:14.5     43.1585    -.7106     10.0      28    7 106  Ml 1.7  4  Md 2.3  2              js067245    259533

      0.39   +-  0.06       1.5    1.0    2.53 +-  0.0    0.07   3.44   +-0.2      +-0.2                 m i ke

PYRENEES
Sta     Dist  EvAz     Phase      Date       Time     TRes  Azim  AzRes  Slow  SRes Def   SNR       Amp   Per   Mag1   Mag2       ID
ETSF  000.28 156.8 m E Pg      2011/05/21 16:10:20.4   0.0                          T                                        4698458
ETSF  000.28 156.8 m E Sg      2011/05/21 16:10:23.6  -0.7                          T               69.1  .18        Md 2.4  4698459
SJPF  000.38 263.3 m E Pg      2011/05/21 16:10:22.3   0.3                          T                                        4698460
SJPF  000.38 263.3 m E Sg      2011/05/21 16:10:27.3   0.1                          T               26.2  .24        Md 2.2  4698461
EPF   000.78 099.1 m E Pg      2011/05/21 16:10:30.6   1.2                          T                                        4698456
EPF   000.78 099.1 m E Sg      2011/05/21 16:10:39.9   0.3                          T                4.1  .24                4698457
MTLF  002.15 084.1 m E Pn      2011/05/21 16:10:48.6  -0.1                          T                                        4698471
MTLF  002.15 084.1 m E Pg      2011/05/21 16:10:54.5   0.1                          T                                        4698470
MTLF  002.15 084.1 m E Sg      2011/05/21 16:11:22.3   0.2                          T                 .3  .18 Ml 1.5         4698472
LFF   002.07 029.9 m E Pg      2011/05/21 16:10:53.1   0.1                          T                                        4698465
LFF   002.07 029.9 m E Sg      2011/05/21 16:11:19.9   0.3                          T                2.2  .33 Ml 1.9         4698466
CAF   002.67 047.6 m E Pg      2011/05/21 16:11:03.8  -0.4                          T                                        4698467
CAF   002.67 047.6 m E Sg      2011/05/21 16:11:38.2  -0.3                          T                1.3  .33 Ml 2.0         4698468
LASF  003.44 073.0 m E Sg      2011/05/21 16:12:02.7   0.2                          T                 .4  .27 Ml 1.7         4698469

.
EVENT     259531
    Date      Time       Latitude Longitude    Depth    Ndef Nsta Gap    Mag1  N    Mag2  N    Mag3  N   Author         ID
       rms   OT_Error      Smajor Sminor Az        Err   mdist  Mdist     Err        Err        Err      Quality

2011/05/21 19:17:57.5     42.3620   13.4349     20.0 f    38   12 047  Ml 3.0  6                         js067245    259531

      1.65   +-  0.23       7.3    4.9   52.19 +-  0.0    0.03   7.54   +-0.5                            m i ke

CENTRAL ITALY
Sta     Dist  EvAz     Phase      Date       Time     TRes  Azim  AzRes  Slow  SRes Def   SNR       Amp   Per   Mag1   Mag2       ID
PGF   003.29 274.7 m E P       2011/05/21 19:18:52.4   3.1                          T                                        4698485
SBF   004.64 290.9 m E P       2011/05/21 19:19:11.1   2.5                          T                                        4698486
SBF   004.64 290.9 m E Sn      2011/05/21 19:19:52.2  -2.4                          T                3.1  .40 Ml 2.7         4698484
MBDF  005.39 298.3 m E Pn      2011/05/21 19:19:13.6  -1.2                          T                                        4698492
MBDF  005.39 298.3 m E Sn      2011/05/21 19:20:11.3  -1.2                          T                1.5  .38 Ml 2.6         4698482
FRF   005.12 285.8 m E P       2011/05/21 19:19:16.8   1.5                          T                                        4698488
FRF   005.12 285.8 m E Sn      2011/05/21 19:20:04.5  -1.5                          T                1.1  .35 Ml 2.4         4698483
LMR   005.18 283.1 m E P       2011/05/21 19:19:17.5   1.4                          T                                        4698487
LPL   005.78 305.4 m E P       2011/05/21 19:19:24.1  -0.6                          T                                        4698491
LPG   005.75 305.3 m E P       2011/05/21 19:19:26.7   2.2                          T                                        4698489
ORIF  006.05 297.5 m E P       2011/05/21 19:19:29.1   0.7                          T                                        4698490
CABF  006.76 311.5 m E P       2011/05/21 19:19:38.2  -0.1                          T                                        4698493
HINF  007.17 321.8 m E P       2011/05/21 19:19:43.8  -0.4                          T                                        4698495
HINF  007.17 321.8 m E Sn      2011/05/21 19:20:51.3  -3.7                          T                6.9  .52 Ml 3.4         4698481
CDF   007.44 326.5 m E P       2011/05/21 19:19:47.8  -0.2                          T                                        4698496
CDF   007.44 326.5 m E Sn      2011/05/21 19:21:00.4  -1.1                          T                3.7  .44 Ml 3.4         4698479
HAU   007.54 320.9 m E P       2011/05/21 19:19:49.0  -0.3                          T                                        4698494
HAU   007.54 320.9 m E Sn      2011/05/21 19:21:02.1  -1.7                          T               12.4  .52 Ml 3.5         4698480

.
EVENT     259570
    Date      Time       Latitude Longitude    Depth    Ndef Nsta Gap    Mag1  N    Mag2  N    Mag3  N   Author         ID
       rms   OT_Error      Smajor Sminor Az        Err   mdist  Mdist     Err        Err        Err      Quality

2011/05/21 22:23:32.2     48.0351    7.9918     15.5       6    4 088  Ml 1.4  2  Md 1.5  1              js067245    259570

      0.25   +-  0.07       1.1    1.0   11.29 +-  0.7    0.09   1.60   +-0.1      +-                    m i ke

FRANCE
Sta     Dist  EvAz     Phase      Date       Time     TRes  Azim  AzRes  Slow  SRes Def   SNR       Amp   Per   Mag1   Mag2       ID
CDF   000.61 308.5 m E Pg      2011/05/21 22:23:44.0  -0.1                          T                                        4698510
CDF   000.61 308.5 m E Sg      2011/05/21 22:23:52.5   0.2                          T                1.1  .16        Md 1.5  4698511
HINF  000.80 254.5 m E P       2011/05/21 22:23:47.5  -0.9                          T                                        4698513
HINF  000.80 254.5 m E Sg      2011/05/21 22:23:57.3  -0.7                          T                2.5  .35                4698508
HAU   001.10 269.1 m E Sg      2011/05/21 22:24:07.5   0.1                          T                1.8  .27 Ml 1.5         4698509
PAGF  001.60 289.8 m E Sg      2011/05/21 22:24:22.8  -0.1                          T                 .7  .40 Ml 1.3         4698512

.
EVENT     259534
    Date      Time       Latitude Longitude    Depth    Ndef Nsta Gap    Mag1  N    Mag2  N    Mag3  N   Author         ID
       rms   OT_Error      Smajor Sminor Az        Err   mdist  Mdist     Err        Err        Err      Quality

2011/05/22 00:44:41.0     41.8575    2.9750     10.0      19    3 233  Ml 1.4  2                         js067245    259534

      0.25   +-  0.14       2.2    1.2  131.61 +-  0.0    0.06   2.82   +-0.2                            m i ke

SPAIN
Sta     Dist  EvAz     Phase      Date       Time     TRes  Azim  AzRes  Slow  SRes Def   SNR       Amp   Per   Mag1   Mag2       ID
MTLF  001.58 339.6 m E Pg      2011/05/22 00:45:10.2  -0.4                          T                                        4698516
MTLF  001.58 339.6 m E Sg      2011/05/22 00:45:30.8  -0.3                          T                 .5  .34 Ml 1.3         4698517
EPF   002.28 301.9 m E Pg      2011/05/22 00:45:23.4   0.1                          T                                        4698519
EPF   002.28 301.9 m E Sn      2011/05/22 00:45:43.2  -0.2                          T                                        4698515
EPF   002.28 301.9 m E Sg      2011/05/22 00:45:52.9   0.3                          T                 .4  .20 Ml 1.6         4698514
ETSF  002.82 292.8 m E Pg      2011/05/22 00:45:33.3  -0.1                          T                                        4698518

.
