EVENT     253326
    Date      Time       Latitude Longitude    Depth    Ndef Nsta Gap    Mag1  N    Mag2  N    Mag3  N   Author         ID
       rms   OT_Error      Smajor Sminor Az        Err   mdist  Mdist     Err        Err        Err      Quality

2011/01/03 15:35:38.2     44.2946   11.4997     16.2      68   22 109  Ml 3.0 26                         js067245    253346

      0.57   +-  0.08       1.9    1.4   84.39 +-  0.6    0.08   6.87   +-0.3                            m i ke

NORTHERN ITALY
Sta     Dist  EvAz     Phase      Date       Time     TRes  Azim  AzRes  Slow  SRes Def   SNR       Amp   Per   Mag1   Mag2       ID
PGF   002.52 227.1 m E Pn      2011/01/03 15:36:17.3   0.4                          T                                        4576725
PGF   002.52 227.1 m E Sn      2011/01/03 15:36:45.6   0.2                          T               41.5  .50 Ml 3.5         4576703
SBF   002.96 263.0 m E Pn      2011/01/03 15:36:23.2   0.4                          T                                        4576724
SBF   002.96 263.0 m E Sn      2011/01/03 15:36:55.9   0.1                          T               16.5  .27 Ml 3.2         4576702
MBDF  003.41 278.9 m E Pn      2011/01/03 15:36:29.1   0.1                          T                                        4576710
MBDF  003.41 278.9 m E Sn      2011/01/03 15:37:06.7   0.0                          T               18.2  .72 Ml 2.9         4576695
FRF   003.58 259.9 m E Pn      2011/01/03 15:36:31.3   0.1                          T                                        4576705
FRF   003.58 259.9 m E Sn      2011/01/03 15:37:10.7   0.1                          T               15.4  .28 Ml 3.3         4576700
LPG   003.58 291.3 m E Pn      2011/01/03 15:36:31.4  -0.2                          T                                        4576707
LPG   003.58 291.3 m E Sn      2011/01/03 15:37:10.9  -0.1                          T                6.8  .46 Ml 2.7         4576698
LPL   003.60 291.5 m E Pn      2011/01/03 15:36:31.6  -0.1                          T                                        4576708
LPL   003.60 291.5 m E Sn      2011/01/03 15:37:11.2  -0.1                          T                5.9  .42 Ml 2.7         4576697
LMR   003.74 256.8 m E Pn      2011/01/03 15:36:33.4   0.1                          T                                        4576704
LMR   003.74 256.8 m E Sn      2011/01/03 15:37:14.5   0.2                          T               14.9  .42 Ml 3.2         4576701
ORIF  004.06 280.8 m E Pn      2011/01/03 15:36:38.0   0.2                          T                                        4576709
ORIF  004.06 280.8 m E Sn      2011/01/03 15:37:22.1  -0.1                          T                6.5  .39 Ml 2.9         4576696
SMRF  004.28 267.8 m E Pn      2011/01/03 15:36:40.6  -0.1                          T                                        4576706
SMRF  004.28 267.8 m E Sn      2011/01/03 15:37:27.3   0.0                          T                5.8  .63 Ml 2.7         4576699
CABF  004.46 303.2 m E Pn      2011/01/03 15:36:43.8   0.6                          T                                        4576719
CABF  004.46 303.2 m E Sn      2011/01/03 15:37:31.5  -0.1                          T                1.8  .37 Ml 2.4         4576687
VIVF  004.91 278.9 m E Pn      2011/01/03 15:36:49.3   0.0                          T                                        4576711
VIVF  004.91 278.9 m E Sn      2011/01/03 15:37:42.3   0.0                          T                1.8  .35 Ml 2.6         4576694
CDF   005.05 326.1 m E Pn      2011/01/03 15:36:51.4   0.1                          T                                        4576723
CDF   005.05 326.1 m E Sn      2011/01/03 15:37:45.7  -0.1                          T                2.3  .31 Ml 2.9         4576691
HAU   005.16 317.9 m E Pn      2011/01/03 15:36:52.5  -0.1                          T                                        4576720
HAU   005.16 317.9 m E Sn      2011/01/03 15:37:48.1  -0.1                          T               11.3  .40 Ml 3.1         4576688
THEF  005.48 317.8 m E Pn      2011/01/03 15:36:57.1   0.0                          T                                        4576717
THEF  005.48 317.8 m E Sn      2011/01/03 15:37:55.7  -0.3                          T                8.5  .58 Ml 3.1         4576689
SMF   005.88 296.3 m E Pn      2011/01/03 15:37:02.5   0.0                          T                                        4576715
SMF   005.88 296.3 m E Sn      2011/01/03 15:38:05.4  -0.1                          T                4.6  .24 Ml 3.3         4576685
SFTF  005.95 313.4 m E Pn      2011/01/03 15:37:03.4   0.0 139.7  10.9              T                                        4576716
SFTF  005.95 313.4 m E Sn      2011/01/03 15:38:07.0  -0.1                          T                3.5  .34 Ml 3.1         4576690
LOR   006.11 301.8 m E Pn      2011/01/03 15:37:06.2   0.5 119.0  2.7               T                                        4576721
LOR   006.11 301.8 m E Sn      2011/01/03 15:38:11.1  -0.1                          T                6.1  .40 Ml 3.3         4576693
AVF   006.24 296.4 m E Pn      2011/01/03 15:37:07.3  -0.1                          T                                        4576718
AVF   006.24 296.4 m E Sn      2011/01/03 15:38:13.9  -0.2                          T                1.3  .37 Ml 2.7         4576686
SSF   006.25 299.1 m E Pn      2011/01/03 15:37:07.8   0.3                          T                                        4576722
SSF   006.25 299.1 m E Sn      2011/01/03 15:38:14.1  -0.1                          T                3.3  .36 Ml 3.2         4576692
BGF   006.50 293.4 m E Pn      2011/01/03 15:37:10.9   0.0                          T                                        4576713
BGF   006.50 293.4 m E Sn      2011/01/03 15:38:20.3   0.1                          T                4.1  .40 Ml 3.2         4576684
MTLF  006.78 265.1 m E Pn      2011/01/03 15:37:14.6  -0.1                          T                                        4576682
MTLF  006.78 265.1 m E Sn      2011/01/03 15:38:27.0  -0.1                          T                  1  .34 Ml 2.7         4576681
HYF   006.87 298.7 m E Pn      2011/01/03 15:37:16.0   0.0                          T                                        4576712
HYF   006.87 298.7 m E Sn      2011/01/03 15:38:29.2   0.0                          T                                        4576680

.
EVENT     253327
    Date      Time       Latitude Longitude    Depth    Ndef Nsta Gap    Mag1  N    Mag2  N    Mag3  N   Author         ID
       rms   OT_Error      Smajor Sminor Az        Err   mdist  Mdist     Err        Err        Err      Quality

2011/01/03 16:55:13.4     44.7862    7.4304      2.0      16    7 213  Ml 1.7  7  Md 1.7  3              js067245    253347

      0.28   +-  0.15       3.0    1.3   74.50 +-  0.0    0.47   1.60   +-0.2      +-0.0                 m i ke

NORTHERN ITALY
Sta     Dist  EvAz     Phase      Date       Time     TRes  Azim  AzRes  Slow  SRes Def   SNR       Amp   Per   Mag1   Mag2       ID
MBDF  000.47 263.0 m E Pg      2011/01/03 16:55:23.3   0.7                          T                                        4576741
MBDF  000.47 263.0 m E Sg      2011/01/03 16:55:29.1   0.2                          T                4.0  .20        Md 1.7  4576737
LPG   000.86 326.2 m E Pg      2011/01/03 16:55:30.0   0.1                          T                                        4576740
LPG   000.86 326.2 m E Sg      2011/01/03 16:55:40.7  -0.4                          T                2.0  .26 Ml 1.6 Md 1.7  4576734
LPL   000.88 326.2 m E Pg      2011/01/03 16:55:30.4   0.1                          T                                        4576739
LPL   000.88 326.2 m E Sg      2011/01/03 16:55:41.1  -0.6                          T                2.7  .35 Ml 1.6 Md 1.6  4576735
SBF   000.92 179.8 m E Pg      2011/01/03 16:55:30.5  -0.3                          T                                        4576728
SBF   000.92 179.8 m E Sg      2011/01/03 16:55:42.9   0.1                          T                2.2  .23 Ml 1.8         4576731
ORIF  001.11 277.4 m E Pg      2011/01/03 16:55:34.5   0.2                          T                                        4576738
ORIF  001.11 277.4 m E Sg      2011/01/03 16:55:48.1  -0.7                          T                1.6  .35 Ml 1.5         4576736
FRF   001.35 205.0 m E Pg      2011/01/03 16:55:38.6   0.1                          T                                        4576730
FRF   001.35 205.0 m E Sg      2011/01/03 16:55:56.1   0.0                          T                3.4  .29 Ml 2.1         4576733
LMR   001.60 204.9 m E Pg      2011/01/03 16:55:43.1  -0.1                          T                                        4576729
LMR   001.60 204.9 m E Sg      2011/01/03 16:56:03.9   0.2                          T                1.1  .29 Ml 1.7         4576732

.
EVENT     253328
    Date      Time       Latitude Longitude    Depth    Ndef Nsta Gap    Mag1  N    Mag2  N    Mag3  N   Author         ID
       rms   OT_Error      Smajor Sminor Az        Err   mdist  Mdist     Err        Err        Err      Quality

2011/01/03 17:00:23.7     44.9681    6.5634      2.0      12    5 134  Ml 1.5  1  Md 1.5  3              js067245    253348

      0.14   +-  0.04        .9     .8  133.77 +-  0.0    0.28   1.35   +-         +-0.0                 m i ke

FRANCE
Sta     Dist  EvAz     Phase      Date       Time     TRes  Azim  AzRes  Slow  SRes Def   SNR       Amp   Per   Mag1   Mag2       ID
MBDF  000.28 148.4 m E Pg      2011/01/03 17:00:29.4   0.0                          T                                        4576753
MBDF  000.28 148.4 m E Sg      2011/01/03 17:00:33.3   0.0                          T                5.2  .22        Md 1.6  4576749
ORIF  000.49 264.4 m E Pg      2011/01/03 17:00:33.2   0.1                          T                                        4576752
ORIF  000.49 264.4 m E Sg      2011/01/03 17:00:39.1  -0.5                          T                3.6  .22        Md 1.5  4576748
LPG   000.55 014.0 m E Pg      2011/01/03 17:00:34.4   0.0                          T                                        4576750
LPG   000.55 014.0 m E Sg      2011/01/03 17:00:41.6   0.0                          T                 .7  .21        Md 1.5  4576746
LPL   000.56 012.2 m E Pg      2011/01/03 17:00:34.6   0.0                          T                                        4576751
LPL   000.56 012.2 m E Sg      2011/01/03 17:00:42.1   0.0                          T                 .9  .22                4576747
VIVF  001.35 265.9 m E Pg      2011/01/03 17:00:49.9   1.0                          T                                        4576745
VIVF  001.35 265.9 m E Sg      2011/01/03 17:01:06.4   0.1                          T                1.3  .37 Ml 1.5         4576744

.
