EVENT     268226
    Date      Time       Latitude Longitude    Depth    Ndef Nsta Gap    Mag1  N    Mag2  N    Mag3  N   Author         ID
       rms   OT_Error      Smajor Sminor Az        Err   mdist  Mdist     Err        Err        Err      Quality

2012/01/05 13:06:30.5     45.7117    7.0820      2.0      31    6 078  Ml 1.6  3  Md 1.6  2              js067245    268246

      0.38   +-  0.04        .9     .7  112.53 +-  0.0    0.08   1.90   +-0.1      +-0.0                 m i ke

NORTHERN ITALY
Sta     Dist  EvAz     Phase      Date       Time     TRes  Azim  AzRes  Slow  SRes Def   SNR       Amp   Per   Mag1   Mag2       ID
LPL   000.31 231.6 m E Pg      2012/01/05 13:06:36.7  -0.2                          T                                        4811875
LPL   000.31 231.6 m E Sg      2012/01/05 13:06:40.8  -0.3                          T                7.4  .28        Md 1.6  4811883
LPG   000.32 227.4 m E Pg      2012/01/05 13:06:36.8  -0.2                          T                                        4811874
LPG   000.32 227.4 m E Sg      2012/01/05 13:06:40.9  -0.3                          T                7.9  .20        Md 1.6  4811884
MBDF  001.01 192.7 m E Pg      2012/01/05 13:06:50.0   0.4                          T                                        4811878
MBDF  001.01 192.7 m E Sg      2012/01/05 13:07:02.9   0.2                          T                2.2  .29 Ml 1.7         4811879
ORIF  001.16 227.3 m E Pg      2012/01/05 13:06:52.5   0.1                          T                                        4811881
ORIF  001.16 227.3 m E Sg      2012/01/05 13:07:06.9  -0.4                          T                1.4  .30 Ml 1.6         4811880
VIVF  001.90 244.2 m E Pg      2012/01/05 13:07:06.1   0.2                          T                                        4811882
CABF  001.13 322.8 m E S       2012/01/05 13:07:09.8  -0.1                          T                                        4811885

.
EVENT     268194
    Date      Time       Latitude Longitude    Depth    Ndef Nsta Gap    Mag1  N    Mag2  N    Mag3  N   Author         ID
       rms   OT_Error      Smajor Sminor Az        Err   mdist  Mdist     Err        Err        Err      Quality

2012/01/05 19:00:55.7     44.9294    7.3096     16.0 f    39    8 135  Ml 2.0  6  Md 2.1  3              js067245    268214

      0.60   +-  0.10       2.1    1.3   82.52 +-  0.0    0.09   1.88   +-0.3      +-0.1                 m i ke

NORTHERN ITALY
Sta     Dist  EvAz     Phase      Date       Time     TRes  Azim  AzRes  Slow  SRes Def   SNR       Amp   Per   Mag1   Mag2       ID
MBDF  000.43 242.3 m E Pg      2012/01/05 19:01:05.0   0.4                          T                                        4811950
MBDF  000.43 242.3 m E Sg      2012/01/05 19:01:10.2  -0.3                          T               38.5  .24        Md 1.9  4811949
LPG   000.69 325.4 m E Pg      2012/01/05 19:01:09.2  -0.2                          T                                        4811942
LPG   000.69 325.4 m E Sg      2012/01/05 19:01:17.8  -0.8                          T                6.6  .22                4813032
LPL   000.71 325.4 m E Pg      2012/01/05 19:01:09.6  -0.1                          T                                        4811944
LPL   000.71 325.4 m E Sg      2012/01/05 19:01:18.3  -0.9                          T               10.4  .34        Md 2.1  4811947
ORIF  001.02 269.9 m E Pg      2012/01/05 19:01:15.2   0.2                          T                                        4811943
ORIF  001.02 269.9 m E Sg      2012/01/05 19:01:28.0  -0.3                          T                8.0  .23 Ml 2.4 Md 2.1  4811948
FRF   001.45 199.4 m E Pg      2012/01/05 19:01:22.9   0.1                          T                                        4811945
FRF   001.45 199.4 m E Sg      2012/01/05 19:01:41.6   0.0                          T                3.3  .25 Ml 2.2         4811946
SMRF  001.57 233.1 m E Pg      2012/01/05 19:01:25.1   0.1                          T                                        4813030
SMRF  001.57 233.1 m E Sg      2012/01/05 19:01:45.3   0.0                          T                1.4  .29 Ml 1.7         4813031
LMR   001.70 200.1 m E Pg      2012/01/05 19:01:27.2  -0.1                          T                                        4811940
LMR   001.70 200.1 m E Sg      2012/01/05 19:01:49.4   0.1                          T                1.1  .18 Ml 1.9         4811941
VIVF  001.88 268.7 m E Sg      2012/01/05 19:01:55.0   0.1                          T                 .8  .24 Ml 1.7         4813033

.
EVENT     268196
    Date      Time       Latitude Longitude    Depth    Ndef Nsta Gap    Mag1  N    Mag2  N    Mag3  N   Author         ID
       rms   OT_Error      Smajor Sminor Az        Err   mdist  Mdist     Err        Err        Err      Quality

2012/01/06 01:35:00.9     42.9235    -.1506      2.0      48   19 157  Ml 2.9 16  Md 2.8  2              js067245    268216

      0.83   +-  0.15       2.6    1.9   11.83 +-  0.0    0.21   5.84   +-0.2      +-0.1                 m i ke

PYRENEES
Sta     Dist  EvAz     Phase      Date       Time     TRes  Azim  AzRes  Slow  SRes Def   SNR       Amp   Per   Mag1   Mag2       ID
ETSF  000.30 265.4 m E Pg      2012/01/06 01:35:06.6  -0.3                          T   001.0                                4809062
ETSF  000.30 265.4 m E Sg      2012/01/06 01:35:10.4  -0.5                          T              826.7  .36        Md 2.7  4811958
EPF   000.38 073.3 m E Pg      2012/01/06 01:35:08.2  -0.1                          T   001.0                                4809051
EPF   000.38 073.3 m E Sg      2012/01/06 01:35:13.3   0.0                          T   001.0      227.8  .30        Md 2.9  4809052
MTLF  001.78 075.7 m E Pg      2012/01/06 01:35:33.9  -0.2                          T   001.0                                4809063
MTLF  001.78 075.7 m E Sn      2012/01/06 01:35:52.8  -0.1                          T   001.0                                4809064
MTLF  001.78 075.7 m E Sg      2012/01/06 01:35:56.9  -0.2                          T   001.0       24.4  .22 Ml 3.2         4809065
LFF   002.12 017.4 m E Pg      2012/01/06 01:35:40.0  -0.2                          T                                        4811957
LFF   002.12 017.4 m E Sg      2012/01/06 01:36:07.7   0.3                          T   001.0       20.8  .29 Ml 2.9         4809056
CAF   002.56 037.9 m E Pn      2012/01/06 01:35:41.7   0.0                          T   001.0                                4809048
CAF   002.56 037.9 m E Pg      2012/01/06 01:35:48.7   0.2                          T                                        4812004
CAF   002.56 037.9 m E Sn      2012/01/06 01:36:13.3   1.7                          T   001.0                                4809049
CAF   002.56 037.9 m E Sg      2012/01/06 01:36:21.7   0.2                          T   001.0        8.0  .18 Ml 3.0         4809050
RJF   002.67 026.2 m E Pn      2012/01/06 01:35:43.0   0.0                          T                                        4811956
RJF   002.67 026.2 m E Pg      2012/01/06 01:35:50.2  -0.2                          T                                        4813044
RJF   002.67 026.2 m E Sg      2012/01/06 01:36:24.2  -0.4                          T   001.0       11.5  .18 Ml 2.8         4809044
LASF  003.14 067.1 m E Pn      2012/01/06 01:35:49.8   0.3                          T   001.0                                4809053
LASF  003.14 067.1 m E Pg      2012/01/06 01:35:59.5   0.4                          T                                        4812002
LASF  003.14 067.1 m E Sg      2012/01/06 01:36:39.4   0.0                          T   001.0        4.1  .21 Ml 2.7         4809054
MFF   003.68 000.1 m E Pn      2012/01/06 01:35:57.3   0.5                          T                                        4811955
MFF   003.68 000.1 m E Sn      2012/01/06 01:36:39.5   1.3                          T   001.0                                4809058
MFF   003.68 000.1 m E Sg      2012/01/06 01:36:56.7   0.4                          T   001.0        4.4  .32 Ml 2.9         4809059
TCF   003.76 025.8 m E Pn      2012/01/06 01:35:57.4  -0.7                          T                                        4813054
TCF   003.76 025.8 m E Pg      2012/01/06 01:36:10.5  -0.2                          T                                        4813053
TCF   003.76 025.8 m E Sg      2012/01/06 01:36:58.4  -0.5                          T                5.9  .32 Ml 2.9         4812006
BGF   004.21 029.4 m E Pn      2012/01/06 01:36:05.0   0.9                          T                                        4811993
BGF   004.21 029.4 m E P       2012/01/06 01:36:08.1   0.4                          T                                        4811992
BGF   004.21 029.4 m E Sg      2012/01/06 01:37:13.7   0.7                          T   001.0       23.4  .38 Ml 3.5         4809047
AVF   004.60 031.6 m E Pn      2012/01/06 01:36:09.9   0.6                          T   001.0                                4809045
AVF   004.60 031.6 m E Sg      2012/01/06 01:37:24.2  -0.8                          T   001.0        4.6  .38 Ml 2.9         4809046
SMF   004.68 036.0 m E P       2012/01/06 01:36:14.0  -0.4                          T                                        4811991
SMF   004.68 036.0 m E Sg      2012/01/06 01:37:26.2  -1.4                          T   001.0        2.6  .30 Ml 2.7         4809060
VIVF  003.99 059.4 m E Pg      2012/01/06 01:36:14.2  -0.5                          T                                        4812003
VIVF  003.99 059.4 m E Sg      2012/01/06 01:37:04.3  -1.5                          T   001.0        3.6  .24 Ml 2.8         4809068
QUIF  005.43 338.0 m E Pn      2012/01/06 01:36:20.3  -0.3                          T   001.0                                4809066
QUIF  005.43 338.0 m E Sn      2012/01/06 01:37:20.7   0.8                          T   001.0                                4809067
LDF   005.67 000.2 m E Pn      2012/01/06 01:36:23.4  -0.5                          T   001.0                                4809055
LDF   005.67 000.2 m E Sn      2012/01/06 01:37:25.3  -0.5                          T                                        4811996
GRR   005.49 355.1 m E Pn      2012/01/06 01:36:23.6   2.1                          T                                        4811954
GRR   005.49 355.1 m E Sn      2012/01/06 01:37:21.3  -0.1                          T                                        4811953
SSF   004.88 030.8 m E Sg      2012/01/06 01:37:31.7  -2.1                          T   001.0        1.9  .27 Ml 2.8         4809061
LOR   005.19 031.8 m E Sg      2012/01/06 01:37:43.8   0.4                          T   001.0        2.1  .28 Ml 2.8         4809057
FLN   005.84 357.8 m E Sg      2012/01/06 01:38:03.6  -0.3                          T                                        4811995

.
EVENT     268223
    Date      Time       Latitude Longitude    Depth    Ndef Nsta Gap    Mag1  N    Mag2  N    Mag3  N   Author         ID
       rms   OT_Error      Smajor Sminor Az        Err   mdist  Mdist     Err        Err        Err      Quality

2012/01/06 09:45:17.9     42.6480    2.1074      2.0      60   18 055  Ml 2.9 15  Md 2.8  3              js067245    268243

      1.11   +-  0.10       2.1    1.4  123.56 +-  0.0    0.20   5.10   +-0.2      +-0.1                 m i ke

PYRENEES
Sta     Dist  EvAz     Phase      Date       Time     TRes  Azim  AzRes  Slow  SRes Def   SNR       Amp   Per   Mag1   Mag2       ID
MTLF  000.70 006.6 m E Pg      2012/01/06 09:45:30.7  -0.4                          T   001.0                                4809151
MTLF  000.70 006.6 m E Pn      2012/01/06 09:45:32.7  -0.4                          T                                        4812084
MTLF  000.70 006.6 m E Sg      2012/01/06 09:45:40.2   0.0                          T   001.0       79.1  .22        Md 2.8  4809152
EPF   001.35 287.0 m E Pn      2012/01/06 09:45:41.9  -0.3                          T                                        4812088
EPF   001.35 287.0 m E Sg      2012/01/06 09:46:00.5  -0.3                          T   001.0       20.6  .22 Ml 2.9 Md 2.8  4809138
LASF  001.91 041.2 m E Pn      2012/01/06 09:45:49.6  -0.1                          T   001.0                                4809139
LASF  001.91 041.2 m E Pg      2012/01/06 09:45:53.2  -0.3                          T                                        4812085
LASF  001.91 041.2 m E Sg      2012/01/06 09:46:18.4   0.2                          T   001.0       16.6  .24 Ml 3.0 Md 2.9  4809141
ETSF  001.98 278.2 m E Pg      2012/01/06 09:45:54.8   0.1                          T   001.0                                4809149
ETSF  001.98 278.2 m E Sg      2012/01/06 09:46:19.0  -1.3                          T   001.0       18.3  .25 Ml 3.1         4809150
CAF   002.28 359.2 m E Pg      2012/01/06 09:45:59.6  -0.6                          T   001.0                                4809135
CAF   002.28 359.2 m E Sn      2012/01/06 09:46:21.4  -0.3                          T   001.0                                4809136
CAF   002.28 359.2 m E Sg      2012/01/06 09:46:28.6  -0.9                          T   001.0       14.4  .20 Ml 3.1         4809137
SMRF  002.86 061.1 m E Pn      2012/01/06 09:46:02.5  -0.1                          T                                        4812139
SMRF  002.86 061.1 m E Pg      2012/01/06 09:46:11.9   1.0                          T                                        4812138
LFF   002.50 337.1 m E Pg      2012/01/06 09:46:04.9   0.8                          T   001.0                                4809142
LFF   002.50 337.1 m E Sn      2012/01/06 09:46:25.7  -1.2                          T   001.0                                4809143
LFF   002.50 337.1 m E Sg      2012/01/06 09:46:36.0  -0.3                          T   001.0       19.0  .28 Ml 3.0         4809144
RJF   002.69 351.1 m E Pg      2012/01/06 09:46:07.9   0.1                          T                                        4812137
RJF   002.69 351.1 m E Sg      2012/01/06 09:46:43.0   0.7                          T   001.0        8.4  .24 Ml 2.6         4809132
VIVF  002.89 039.2 m E Pg      2012/01/06 09:46:10.9  -0.5                          T                                        4812086
VIVF  002.89 039.2 m E Sg      2012/01/06 09:46:49.8   1.3                          T   001.0        8.0  .23 Ml 2.9         4809153
TCF   003.64 001.1 m E Pg      2012/01/06 09:46:25.3   0.0                          T                                        4812082
TCF   003.64 001.1 m E Sg      2012/01/06 09:47:11.6  -0.4                          T   001.0        5.9  .26 Ml 3.0         4809148
BGF   003.94 007.4 m E Pg      2012/01/06 09:46:32.2   1.3                          T                                        4812134
BGF   003.94 007.4 m E Sg      2012/01/06 09:47:21.7   0.2                          T   001.0       18.6  .36 Ml 3.4         4809134
SBF   004.08 070.9 m E Sg      2012/01/06 09:47:25.8   0.1                          T   001.0        4.1  .21 Ml 3.0         4809145
SMF   004.18 016.6 m E Sg      2012/01/06 09:47:28.6  -0.3                          T   001.0        4.6  .35 Ml 2.8         4809146
AVF   004.24 011.7 m E Sg      2012/01/06 09:47:31.2   0.7                          T   001.0        3.5  .27 Ml 2.8         4809133
MFF   004.27 338.6 m E Sg      2012/01/06 09:47:31.3  -0.3                          T                                        4812136
SSF   004.52 012.2 m E Sg      2012/01/06 09:47:40.1   0.6                          T   001.0        2.8  .36 Ml 2.7         4809147
LOR   004.78 014.5 m E Sg      2012/01/06 09:47:48.9   1.2                          T                3.4  .31 Ml 2.9         4812081
CABF  004.87 034.3 m E Sg      2012/01/06 09:47:51.3   0.7                          T                                        4812135

.
