EVENT     288784
    Date      Time       Latitude Longitude    Depth    Ndef Nsta Gap    Mag1  N    Mag2  N    Mag3  N   Author         ID
       rms   OT_Error      Smajor Sminor Az        Err   mdist  Mdist     Err        Err        Err      Quality

2012/12/19 17:35:05.8     43.9312    7.6904      4.0 f    37    8 075  Ml 1.6  7  Md 1.7  2              bulletin    288884
                                                                                                         _ldg
      0.18   +-  0.04        .7     .7  134.80 +-  0.0    0.08   1.73   +-0.3      +-0.0                 m i ke

NEAR SOUTH COAST OF FRANCE
Sta     Dist  EvAz     Phase      Date       Time     TRes  Azim  AzRes  Slow  SRes Def   SNR       Amp   Per   Mag1   Mag2       ID
SBF   000.20 249.8 m E Pg      2012/12/19 17:35:09.8  -0.1                          T                                        5143412
SBF   000.20 249.8 m E Sg      2012/12/19 17:35:12.8   0.1                          T               12.2  .22        Md 1.8  5143411
FRF   000.84 244.3 m E Pg      2012/12/19 17:35:21.7   0.0                          T                                        5143408
FRF   000.84 244.3 m E Sg      2012/12/19 17:35:32.8   0.1                          T                2.7  .21                5143407
MBDF  001.03 320.7 m E Pg      2012/12/19 17:35:25.2  -0.2                          T                                        5143443
MBDF  001.03 320.7 m E Sg      2012/12/19 17:35:38.6  -0.2                          T                 .5  .18 Ml 1.3 Md 1.7  5143442
LMR   001.05 235.6 m E Pg      2012/12/19 17:35:25.5   0.1                          T                                        5143410
LMR   001.05 235.6 m E Sg      2012/12/19 17:35:39.1   0.2                          T                2.9  .26 Ml 1.9         5143409
SMRF  001.53 272.4 m E Pn      2012/12/19 17:35:32.5   0.2                          T                                        5143452
SMRF  001.53 272.4 m E Pg      2012/12/19 17:35:34.4   0.0                          T                                        5143451
SMRF  001.53 272.4 m E Sn      2012/12/19 17:35:51.3  -0.2                          T                                        5143450
SMRF  001.53 272.4 m E Sg      2012/12/19 17:35:54.2   0.1                          T                5.1  .45 Ml 2.1         5143449
ORIF  001.63 307.9 m E Pn      2012/12/19 17:35:33.7   0.0                          T                                        5143441
ORIF  001.63 307.9 m E Sn      2012/12/19 17:35:54.1   0.2                          T                                        5143440
ORIF  001.63 307.9 m E Sg      2012/12/19 17:35:57.4   0.0                          T                 .8  .24 Ml 1.6         5160534
LPG   001.70 337.2 m E Pn      2012/12/19 17:35:34.8  -0.2                          T                                        5143448
LPG   001.70 337.2 m E Pg      2012/12/19 17:35:37.7  -0.2                          T                                        5160536
LPG   001.70 337.2 m E Sn      2012/12/19 17:35:55.9   0.0                          T                                        5160537
LPG   001.70 337.2 m E Sg      2012/12/19 17:35:59.7  -0.2                          T                 .4  .25 Ml 1.3         5143447
LPL   001.73 337.0 m E Pn      2012/12/19 17:35:35.0  -0.2                          T                                        5143446
LPL   001.73 337.0 m E Pg      2012/12/19 17:35:38.1  -0.2                          T                                        5143445
LPL   001.73 337.0 m E Sn      2012/12/19 17:35:56.2  -0.2                          T                                        5143444
LPL   001.73 337.0 m E Sg      2012/12/19 17:36:00.5   0.0                          T                1.2  .24 Ml 1.8         5160535

.
EVENT     288785
    Date      Time       Latitude Longitude    Depth    Ndef Nsta Gap    Mag1  N    Mag2  N    Mag3  N   Author         ID
       rms   OT_Error      Smajor Sminor Az        Err   mdist  Mdist     Err        Err        Err      Quality

2012/12/19 18:59:32.4     43.3368    -.6102      2.0      21    6 147  Ml 1.7  4  Md 1.7  3              bulletin    288885
                                                                                                         _ldg
      0.52   +-  0.07       1.6    1.1  147.73 +-  0.0    0.44   2.49   +-0.1      +-0.1                 m i ke

PYRENEES
Sta     Dist  EvAz     Phase      Date       Time     TRes  Azim  AzRes  Slow  SRes Def   SNR       Amp   Per   Mag1   Mag2       ID
ETSF  000.44 175.1 m E Pg      2012/12/19 18:59:41.1   0.1                          T                                        5143418
ETSF  000.44 175.1 m E Sg      2012/12/19 18:59:46.5  -0.2                          T                1.7  .19        Md 1.6  5143417
SJPF  000.50 243.8 m E Pg      2012/12/19 18:59:41.6  -0.4                          T                                        5143416
SJPF  000.50 243.8 m E Pn      2012/12/19 18:59:43.7   0.0                          T                                        5160544
SJPF  000.50 243.8 m E Sg      2012/12/19 18:59:48.6   0.0                          T                1.8  .20        Md 1.8  5143415
EPF   000.76 113.5 m E Pg      2012/12/19 18:59:46.3  -0.5                          T                                        5143414
EPF   000.76 113.5 m E Sg      2012/12/19 18:59:56.8   0.1                          T                2.7  .25        Md 1.8  5143413
LFF   001.87 030.8 m E Pn      2012/12/19 19:00:03.5  -0.2                          T                                        5143425
LFF   001.87 030.8 m E Pg      2012/12/19 19:00:07.2  -0.1                          T                                        5160543
LFF   001.87 030.8 m E Sn      2012/12/19 19:00:26.5  -0.1                          T                                        5143424
LFF   001.87 030.8 m E Sg      2012/12/19 19:00:31.4   0.0                          T                  1  .18 Ml 1.7         5160542
MTLF  002.06 088.9 m E Pn      2012/12/19 19:00:06.4   0.1                          T                                        5143421
MTLF  002.06 088.9 m E Pg      2012/12/19 19:00:11.0   0.3                          T                                        5143420
MTLF  002.06 088.9 m E Sn      2012/12/19 19:00:31.1   0.0                          T                                        5160545
MTLF  002.06 088.9 m E Sg      2012/12/19 19:00:37.2  -0.1                          T                 .6  .28 Ml 1.6         5143419
RJF   002.49 037.1 m E Pn      2012/12/19 19:00:12.3   0.2                          T                                        5143423
RJF   002.49 037.1 m E Sn      2012/12/19 19:00:40.7  -0.6                          T                 .8  .20 Ml 1.6         5143422

.
EVENT     288786
    Date      Time       Latitude Longitude    Depth    Ndef Nsta Gap    Mag1  N    Mag2  N    Mag3  N   Author         ID
       rms   OT_Error      Smajor Sminor Az        Err   mdist  Mdist     Err        Err        Err      Quality

2012/12/19 19:51:18.3     47.4169    -.7137      3.0 f    25    8 130  Ml 1.8 10  Md 1.9  3              bulletin    288886
                                                                                                         _ldg
      0.22   +-  0.05       1.4     .7   67.06 +-  0.0    0.90   2.68   +-0.2      +-0.1                 m i ke

FRANCE
Sta     Dist  EvAz     Phase      Date       Time     TRes  Azim  AzRes  Slow  SRes Def   SNR       Amp   Per   Mag1   Mag2       ID
MFF   000.90 154.3 m E Pg      2012/12/19 19:51:35.0  -0.2                          T                                        5143433
MFF   000.90 154.3 m E Sg      2012/12/19 19:51:46.8  -0.2                          T                1.8  .18 Ml 1.9 Md 1.8  5143432
GRR   000.98 354.3 m E Pg      2012/12/19 19:51:36.6   0.0                          T                                        5143431
GRR   000.98 354.3 m E Pn      2012/12/19 19:51:37.4   0.1                          T                                        5160555
GRR   000.98 354.3 m E Sg      2012/12/19 19:51:49.3   0.0                          T                3.1  .19 Ml 1.9 Md 1.9  5143430
LDF   001.24 018.4 m E Pg      2012/12/19 19:51:41.3  -0.2                          T                                        5143429
LDF   001.24 018.4 m E Sg      2012/12/19 19:51:57.4  -0.2                          T                2.4  .20 Ml 2.0         5143428
FLN   001.36 006.5 m E Pn      2012/12/19 19:51:42.5   0.1                          T                                        5143427
FLN   001.36 006.5 m E Pg      2012/12/19 19:51:43.6   0.0                          T                                        5160553
FLN   001.36 006.5 m E Sn      2012/12/19 19:52:00.0   0.1                          T                2.0  .21 Ml 1.8         5143426
FLN   001.36 006.5 m E Sg      2012/12/19 19:52:01.2   0.1                          T                                        5160554
SGMF  001.50 304.7 m E Pn      2012/12/19 19:51:44.4   0.1                          T                                        5160551
SGMF  001.50 304.7 m E Pg      2012/12/19 19:51:46.3   0.1                          T                                        5143437
SGMF  001.50 304.7 m E Sg      2012/12/19 19:52:05.5  -0.1                          T                 .5  .17 Ml 1.5         5143436
QUIF  001.73 287.7 m E Pg      2012/12/19 19:51:50.4  -0.1                          T                                        5143435
QUIF  001.73 287.7 m E Sn      2012/12/19 19:52:08.9   0.0                          T                                        5160552
QUIF  001.73 287.7 m E Sg      2012/12/19 19:52:12.2  -0.6                          T                 .7  .18 Ml 1.7         5143434
RJF   002.62 143.0 m E Pn      2012/12/19 19:52:00.3   0.7                          T                                        5160550
RJF   002.62 143.0 m E Sn      2012/12/19 19:52:29.7  -0.3                          T                 .4  .22 Ml 1.3         5160549
RJF   002.62 143.0 m E Sg      2012/12/19 19:52:40.5   0.0                          T                1.2  .27 Ml 1.7         5162437
LFF   002.68 157.3 m E Pn      2012/12/19 19:52:01.0   0.6                          T                                        5160548
LFF   002.68 157.3 m E Sn      2012/12/19 19:52:31.7   0.3                          T                                        5160547
LFF   002.68 157.3 m E Sg      2012/12/19 19:52:42.3   0.0                          T                1.7  .32 Ml 1.9         5160546

.
EVENT     288791
    Date      Time       Latitude Longitude    Depth    Ndef Nsta Gap    Mag1  N    Mag2  N    Mag3  N   Author         ID
       rms   OT_Error      Smajor Sminor Az        Err   mdist  Mdist     Err        Err        Err      Quality

2012/12/19 20:26:36.6     36.3993    1.6477     18.0 f    39    9 246  Ml 2.9  8                         bulletin    288891
                                                                                                         _ldg
      0.71   +-  0.34       6.9    3.6  153.98 +-  0.0    2.63   8.75   +-0.2                            m i ke

NORTHERN ALGERIA
Sta     Dist  EvAz     Phase      Date       Time     TRes  Azim  AzRes  Slow  SRes Def   SNR       Amp   Per   Mag1   Mag2       ID
EPF   006.70 351.8 m E Pn      2012/12/19 20:28:11.2  -0.7                          T                                        5160562
EPF   006.70 351.8 m E Sn      2012/12/19 20:29:23.1  -0.1                          T                1.6  .31 Ml 2.9         5160561
ETSF  006.71 346.0 m E Pn      2012/12/19 20:28:11.8  -0.3                          T                                        5160563
ETSF  006.71 346.0 m E Sn      2012/12/19 20:29:22.7  -0.9                          T                 .8  .25 Ml 2.7         5160560
SJPF  007.06 342.6 m E Pn      2012/12/19 20:28:16.2  -0.6                          T                                        5160564
SJPF  007.06 342.6 m E Sn      2012/12/19 20:29:30.8  -1.1                          T                 .6  .25 Ml 2.7         5160559
LMR   007.87 026.9 m E Pn      2012/12/19 20:28:28.1   0.3                          T                                        5160572
LMR   007.87 026.9 m E Sn      2012/12/19 20:29:51.1   0.0                          T                1.5  .39 Ml 3.0         5160565
FRF   008.12 026.7 m E Pn      2012/12/19 20:28:31.2   0.1                          T                                        5160571
FRF   008.12 026.7 m E Sn      2012/12/19 20:29:56.9  -0.1                          T                 .9  .30 Ml 3.0         5160566
SMRF  008.14 020.4 m E Pn      2012/12/19 20:28:31.3  -0.2                          T                                        5160570
SMRF  008.14 020.4 m E Sn      2012/12/19 20:29:57.5  -0.2                          T                 .5  .27 Ml 2.7         5160567
CAF   008.52 002.0 m E Pn      2012/12/19 20:28:36.5  -0.2                          T                                        5160558
LFF   008.56 355.7 m E Pn      2012/12/19 20:28:36.6  -0.6                          T                                        5160557
LFF   008.56 355.7 m E Sn      2012/12/19 20:30:06.8  -0.8                          T                1.8  .34 Ml 3.1         5160556
VIVF  008.75 014.3 m E Pn      2012/12/19 20:28:39.3  -0.6                          T                                        5160569
VIVF  008.75 014.3 m E Sn      2012/12/19 20:30:11.9  -0.4                          T                1.3  .33 Ml 3.1         5160568

.
EVENT     288787
    Date      Time       Latitude Longitude    Depth    Ndef Nsta Gap    Mag1  N    Mag2  N    Mag3  N   Author         ID
       rms   OT_Error      Smajor Sminor Az        Err   mdist  Mdist     Err        Err        Err      Quality

2012/12/19 20:30:16.2     42.8709    -.9946      3.0      10    4 240  Ml 1.1  3  Md 1.2  2              bulletin    288887
                                                                                                         _ldg
      0.50   +-  0.31       8.7    1.8   22.41 +-  1.2    0.30   2.40   +-0.2      +-0.1                 m i ke

PYRENEES
Sta     Dist  EvAz     Phase      Date       Time     TRes  Azim  AzRes  Slow  SRes Def   SNR       Amp   Per   Mag1   Mag2       ID
SJPF  000.30 325.2 m E Pg      2012/12/19 20:30:22.2   0.1                          T                                        5143456
SJPF  000.30 325.2 m E Sg      2012/12/19 20:30:25.6  -0.4                          T                3.9  .22        Md 1.3  5143455
ETSF  000.32 084.9 m E Pg      2012/12/19 20:30:22.7   0.1                          T                                        5143454
ETSF  000.32 084.9 m E Sg      2012/12/19 20:30:27.0   0.0                          T                2.9  .18        Md 1.1  5143453
EPF   000.99 080.3 m E Pg      2012/12/19 20:30:34.9  -0.1                          T                                        5143462
EPF   000.99 080.3 m E Sg      2012/12/19 20:30:47.6  -0.3                          T                 .2  .19 Ml  .9         5143461
MTLF  002.40 077.6 m E Pn      2012/12/19 20:30:54.6   0.0                          T                                        5143460
MTLF  002.40 077.6 m E Sn      2012/12/19 20:31:23.0   0.3                          T                 .2  .23 Ml 1.3         5143459

.
EVENT     288788
    Date      Time       Latitude Longitude    Depth    Ndef Nsta Gap    Mag1  N    Mag2  N    Mag3  N   Author         ID
       rms   OT_Error      Smajor Sminor Az        Err   mdist  Mdist     Err        Err        Err      Quality

2012/12/20 00:09:46.3     46.8117    6.7002      3.0 f    17    8 231  Ml 1.8  6  Md 1.7  1              bulletin    288888
                                                                                                         _ldg
      0.47   +-  0.13       2.4    1.0  136.30 +-  0.0    0.47   2.20   +-0.1      +-                    m i ke

SWITZERLAND
Sta     Dist  EvAz     Phase      Date       Time     TRes  Azim  AzRes  Slow  SRes Def   SNR       Amp   Per   Mag1   Mag2       ID
CABF  000.47 244.8 m E Pg      2012/12/20 00:09:55.5   0.1                          T                                        5143467
CABF  000.47 244.8 m E Sg      2012/12/20 00:10:01.6   0.1                          T                3.8  .23        Md 1.7  5143468
HINF  001.01 005.9 m E Pg      2012/12/20 00:10:05.2  -0.2                          T                                        5143463
HINF  001.01 005.9 m E Sg      2012/12/20 00:10:18.2  -0.2                          T                                        5162443
HINF  001.01 005.9 m E Sn      2012/12/20 00:10:19.8   0.1                          T                1.0  .18 Ml 1.6         5143464
HAU   001.22 348.8 m E Pg      2012/12/20 00:10:09.2   0.0                          T                                        5143466
HAU   001.22 348.8 m E P       2012/12/20 00:10:10.1  -0.2                          T                                        5162442
HAU   001.22 348.8 m E Sg      2012/12/20 00:10:24.7  -0.2                          T                3.2  .24 Ml 1.8         5143465
CDF   001.65 013.5 m E Pg      2012/12/20 00:10:17.1   0.0                          T                                        5162441
CDF   001.65 013.5 m E Sg      2012/12/20 00:10:38.7   0.3                          T                1.3  .27 Ml 1.9         5160582
LOR   002.00 284.3 m E Pg      2012/12/20 00:10:23.4   0.0 106.3  4.1               T                                        5160579
LOR   002.00 284.3 m E Sg      2012/12/20 00:10:48.9  -0.3 104.7  2.5               T                                        5160583
SSF   002.20 277.7 m E Pg      2012/12/20 00:10:27.2   0.0                          T                                        5162439
SSF   002.20 277.7 m E Sg      2012/12/20 00:10:56.0   0.4                          T                 .9  .29 Ml 1.8         5162440
SFTF  001.79 321.7 m E Sg      2012/12/20 00:10:42.7  -0.1                          T                  1  .22 Ml 1.8         5162444
SMF   001.97 266.2 m E Sg      2012/12/20 00:10:48.3  -0.1                          T                  1  .23 Ml 1.8         5162438

.
