EVENT     269206
    Date      Time       Latitude Longitude    Depth    Ndef Nsta Gap    Mag1  N    Mag2  N    Mag3  N   Author         ID
       rms   OT_Error      Smajor Sminor Az        Err   mdist  Mdist     Err        Err        Err      Quality

2012/01/27 06:31:36.5     46.2464    2.6220      8.0 f    15    8 107  Ml 1.6  5  Md 1.6  4              js067245    269226

      0.11   +-  0.03        .7     .4  127.46 +-  0.0    0.17   1.38   +-0.3      +-0.2                 m i ke

FRANCE
Sta     Dist  EvAz     Phase      Date       Time     TRes  Azim  AzRes  Slow  SRes Def   SNR       Amp   Per   Mag1   Mag2       ID
TCF   000.29 278.5 m E Pg      2012/01/27 06:31:42.3   0.0                          T                                        4826439
TCF   000.29 278.5 m E Sg      2012/01/27 06:31:46.2  -0.1                          T                1.2  .18        Md 1.4  4826438
BGF   000.35 026.4 m E Pg      2012/01/27 06:31:43.4   0.1                          T                                        4826440
BGF   000.35 026.4 m E Sg      2012/01/27 06:31:48.2   0.2                          T               12.7  .38        Md 1.5  4826441
AVF   000.74 042.6 m E Pg      2012/01/27 06:31:50.4  -0.1                          T                                        4826433
AVF   000.74 042.6 m E Sg      2012/01/27 06:32:00.0  -0.2                          T                1.5  .23        Md 1.7  4826434
SMF   000.93 064.2 m E Pg      2012/01/27 06:31:54.8   0.8                          T                                        4826427
SMF   000.93 064.2 m E Sg      2012/01/27 06:32:06.3   0.1                          T                  1  .18 Ml 1.5         4826432
RJF   001.22 219.8 m E Pg      2012/01/27 06:31:59.2   0.0                          T                                        4826429
RJF   001.22 219.8 m E Sg      2012/01/27 06:32:15.2   0.1                          T                 .8  .19 Ml 1.2         4826428
LOR   001.33 039.3 m E Pg      2012/01/27 06:32:01.4   0.1                          T                                        4826435
LOR   001.33 039.3 m E Sg      2012/01/27 06:32:18.3  -0.2                          T                1.1  .26 Ml 1.6         4826436
CAF   001.38 196.7 m E Pg      2012/01/27 06:32:02.2   0.0                          T                                        4826430
CAF   001.38 196.7 m E Sg      2012/01/27 06:32:20.2   0.2                          T                1.4  .17 Ml 1.9         4826431
SSF   001.02 036.4 m E Sg      2012/01/27 06:32:09.0   0.2                          T                1.4  .22 Ml 1.7         4826437

.
EVENT     269207
    Date      Time       Latitude Longitude    Depth    Ndef Nsta Gap    Mag1  N    Mag2  N    Mag3  N   Author         ID
       rms   OT_Error      Smajor Sminor Az        Err   mdist  Mdist     Err        Err        Err      Quality

2012/01/27 08:08:21.2     45.9153    2.7688      3.0 f    21   11 082  Ml 2.1  9  Md 1.8  4              js067245    269227

      0.87   +-  0.09       2.5    1.3  120.43 +-  0.0    0.20   1.99   +-0.3      +-0.1                 m i ke

FRANCE
Sta     Dist  EvAz     Phase      Date       Time     TRes  Azim  AzRes  Slow  SRes Def   SNR       Amp   Per   Mag1   Mag2       ID
TCF   000.54 314.0 m E Pg      2012/01/27 08:08:31.4   0.0                          T                                        4826485
TCF   000.54 314.0 m E Sg      2012/01/27 08:08:37.7  -0.9                          T                1.9  .25        Md 1.7  4826484
BGF   000.64 004.8 m E Pg      2012/01/27 08:08:33.4   0.0                          T                                        4826483
BGF   000.64 004.8 m E Pn      2012/01/27 08:08:35.5  -0.1                          T                                        4826453
BGF   000.64 004.8 m E Sg      2012/01/27 08:08:42.1   0.2                          T                8.4  .29        Md 1.8  4826454
AVF   000.96 024.6 m E Pg      2012/01/27 08:08:39.1  -0.2                          T                                        4826449
AVF   000.96 024.6 m E Sg      2012/01/27 08:08:51.5  -0.2                          T                2.8  .19 Ml 2.0 Md 1.9  4826450
SMF   001.04 045.1 m E Pg      2012/01/27 08:08:40.8   0.1                          T                                        4826452
SMF   001.04 045.1 m E Sg      2012/01/27 08:08:54.6   0.4                          T                2.8  .16 Ml 2.1         4826451
CAF   001.11 206.9 m E Pg      2012/01/27 08:08:41.7  -0.2                          T                                        4826446
CAF   001.11 206.9 m E Sg      2012/01/27 08:08:55.9  -0.4                          T                3.7  .18 Ml 2.2         4826457
RJF   001.07 235.7 m E Pg      2012/01/27 08:08:41.7   0.5                          T                                        4826445
RJF   001.07 235.7 m E Sg      2012/01/27 08:08:55.1   0.0                          T                2.8  .25 Ml 1.6         4826444
SSF   001.25 023.7 m E Pg      2012/01/27 08:08:45.0   0.4                          T                                        4826487
SSF   001.25 023.7 m E Sg      2012/01/27 08:09:00.6  -0.2                          T                5.7  .22 Ml 2.4         4826448
LOR   001.55 028.7 m E Pg      2012/01/27 08:08:49.9  -0.1 217.0  7.5               T                                        4826486
LOR   001.55 028.7 m E Sg      2012/01/27 08:09:09.5  -0.5 198.8  -10.7             T                2.4  .18 Ml 2.2         4826447
LFF   001.73 236.4 m E Pg      2012/01/27 08:08:53.3   0.0                          T                                        4826482
LFF   001.73 236.4 m E Sg      2012/01/27 08:09:15.3  -0.3                          T                5.9  .29 Ml 2.3         4826481
VIVF  001.71 127.6 m E Sg      2012/01/27 08:09:14.8  -0.2                          T                1.9  .29 Ml 1.9         4826479
LASF  001.99 156.8 m E Sg      2012/01/27 08:09:23.3  -0.7                          T                 .9  .23 Ml 1.8         4826480

.
EVENT     269208
    Date      Time       Latitude Longitude    Depth    Ndef Nsta Gap    Mag1  N    Mag2  N    Mag3  N   Author         ID
       rms   OT_Error      Smajor Sminor Az        Err   mdist  Mdist     Err        Err        Err      Quality

2012/01/27 08:40:01.1     45.0557    7.3803     10.0 f    36    7 128  Ml 2.2  4  Md 2.2  2              js067245    269228

      0.54   +-  0.11       2.4    1.5   96.10 +-  0.0    0.13   1.68   +-0.2      +-0.0                 m i ke

NORTHERN ITALY
Sta     Dist  EvAz     Phase      Date       Time     TRes  Azim  AzRes  Slow  SRes Def   SNR       Amp   Per   Mag1   Mag2       ID
MBDF  000.54 233.0 m E Pg      2012/01/27 08:40:12.3   0.5                          T                                        4826493
MBDF  000.54 233.0 m E Sg      2012/01/27 08:40:18.6  -0.3                          T               38.3  .26        Md 2.1  4826488
LPG   000.63 315.1 m E Pg      2012/01/27 08:40:13.2  -0.2                          T                                        4826491
LPG   000.63 315.1 m E Sg      2012/01/27 08:40:20.9  -0.8                          T               22.6  .22                4826489
LPL   000.65 315.4 m E Pg      2012/01/27 08:40:13.6  -0.1                          T                                        4826492
LPL   000.65 315.4 m E Sg      2012/01/27 08:40:21.5  -0.8                          T               19.0  .20        Md 2.2  4826490
ORIF  001.07 263.2 m E Pg      2012/01/27 08:40:21.5   0.1                          T                                        4826674
ORIF  001.07 263.2 m E Sg      2012/01/27 08:40:34.8  -0.5                          T                7.4  .24 Ml 2.3         4826673
SBF   001.19 178.1 m E Pn      2012/01/27 08:40:23.4   1.1                          T                                        4826670
FRF   001.58 199.7 m E Pg      2012/01/27 08:40:31.0   0.3                          T                                        4826669
FRF   001.58 199.7 m E Sg      2012/01/27 08:40:51.1   0.0                          T                4.6  .24 Ml 2.4         4826672
SMRF  001.68 230.7 m E Sg      2012/01/27 08:40:55.4   1.2                          T                2.1  .36 Ml 1.9         4826671

.
EVENT     269216
    Date      Time       Latitude Longitude    Depth    Ndef Nsta Gap    Mag1  N    Mag2  N    Mag3  N   Author         ID
       rms   OT_Error      Smajor Sminor Az        Err   mdist  Mdist     Err        Err        Err      Quality

2012/01/27 12:20:59.4     47.0486    4.9522     11.0 f    19   10 120  Ml 1.7  9  Md 1.7  2              js067245    269236

      1.15   +-  0.14       3.5    2.1  161.88 +-  0.0    0.78   1.76   +-0.2      +-0.1                 m i ke

FRANCE
Sta     Dist  EvAz     Phase      Date       Time     TRes  Azim  AzRes  Slow  SRes Def   SNR       Amp   Per   Mag1   Mag2       ID
LOR   000.78 286.8 m E Pg      2012/01/27 12:21:14.6   0.4 110.0  4.0               T                                        4826782
LOR   000.78 286.8 m E Sg      2012/01/27 12:21:22.9  -1.4                          T                                        4827235
LOR   000.78 286.8 m E Sn      2012/01/27 12:21:24.3  -1.4 120.5  14.5              T               10.3  .20        Md 1.6  4826781
CABF  000.89 118.9 m E Pg      2012/01/27 12:21:16.1  -0.3                          T                                        4826776
CABF  000.89 118.9 m E Sg      2012/01/27 12:21:27.9  -0.1                          T                2.6  .22 Ml 1.8         4826777
CABF  000.89 118.9 m E Sn      2012/01/27 12:21:29.6   1.0                          T                                        4826783
SMF   000.86 242.5 m E Pg      2012/01/27 12:21:16.1   0.4                          T                                        4826779
SMF   000.86 242.5 m E Sg      2012/01/27 12:21:27.2   0.2                          T                4.0  .20 Ml 2.1 Md 1.7  4826778
SSF   000.99 271.3 m E Pg      2012/01/27 12:21:18.1   0.1                          T                                        4826775
SSF   000.99 271.3 m E Sg      2012/01/27 12:21:30.7  -0.2                          T                1.8  .21 Ml 1.8         4826780
AVF   001.13 257.3 m E Pg      2012/01/27 12:21:20.3  -0.2                          T                                        4826774
AVF   001.13 257.3 m E Sg      2012/01/27 12:21:34.1  -1.0                          T                 .7  .19 Ml 1.5         4826773
SFTF  001.16 002.9 m E Pg      2012/01/27 12:21:21.6   0.5 179.0  -3.9              T                                        4826770
SFTF  001.16 002.9 m E Sg      2012/01/27 12:21:36.6   0.4                          T                1.3  .24 Ml 1.6         4826772
HINF  001.50 058.5 m E Pg      2012/01/27 12:21:27.4  -0.1                          T                                        4826788
HINF  001.50 058.5 m E Sg      2012/01/27 12:21:46.4  -0.5                          T                1.2  .27 Ml 1.7         4826787
HAU   001.35 044.1 m E Sg      2012/01/27 12:21:41.6  -0.5                          T                1.0  .19 Ml 1.5         4826786
THEF  001.37 030.5 m E Sg      2012/01/27 12:21:41.7  -1.2                          T                 .6  .16 Ml 1.5         4826785
BGF   001.53 252.0 m E Sg      2012/01/27 12:21:46.9  -0.7                          T                2.1  .27 Ml 1.9         4826784

.
