EVENT     256421
    Date      Time       Latitude Longitude    Depth    Ndef Nsta Gap    Mag1  N    Mag2  N    Mag3  N   Author         ID
       rms   OT_Error      Smajor Sminor Az        Err   mdist  Mdist     Err        Err        Err      Quality

2011/02/26 03:10:47.4     47.1799   -1.7733      2.0      45   17 167  Ml 2.3 20  Md 2.4  3              js067245    256441

      0.96   +-  0.08       1.9     .9   38.42 +-  0.0    1.20   3.89   +-0.2      +-0.0                 m i ke

FRANCE
Sta     Dist  EvAz     Phase      Date       Time     TRes  Azim  AzRes  Slow  SRes Def   SNR       Amp   Per   Mag1   Mag2       ID
SGMF  001.20 334.1 m E Pn      2011/02/26 03:11:09.2  -0.3                          T                                        4654648
SGMF  001.20 334.1 m E Pg      2011/02/26 03:11:09.9   0.1                          T                                        4655678
SGMF  001.20 334.1 m E Sg      2011/02/26 03:11:25.0  -0.3                          T                9.1  .27 Ml 2.4 Md 2.4  4654652
QUIF  001.20 308.5 m E Pn      2011/02/26 03:11:09.4  -0.1                          T                                        4654649
QUIF  001.20 308.5 m E Pg      2011/02/26 03:11:09.8   0.1                          T                                        4655679
QUIF  001.20 308.5 m E Sg      2011/02/26 03:11:25.7   0.5                          T               11.3  .30 Ml 2.5 Md 2.4  4654650
MFF   001.26 116.8 m E Pn      2011/02/26 03:11:10.6   0.4                          T                                        4654645
MFF   001.26 116.8 m E Pg      2011/02/26 03:11:11.3   0.4                          T                                        4655681
MFF   001.26 116.8 m E Sg      2011/02/26 03:11:27.0  -0.1                          T                5.4  .18 Ml 2.6 Md 2.3  4654676
GRR   001.36 026.7 m E Pg      2011/02/26 03:11:13.1   0.4                          T                                        4654646
GRR   001.36 026.7 m E Sg      2011/02/26 03:11:30.3   0.1                          T                3.7  .24 Ml 2.0         4654677
ROSF  001.54 319.4 m E Pg      2011/02/26 03:11:16.0  -0.1                          T                                        4654647
ROSF  001.54 319.4 m E Sg      2011/02/26 03:11:35.8  -0.1                          T                5.4  .27 Ml 2.4         4654651
LDF   001.80 037.5 m E Pn      2011/02/26 03:11:18.0   0.3                          T                                        4654644
LDF   001.80 037.5 m E Pg      2011/02/26 03:11:20.7  -0.1                          T                                        4655680
LDF   001.80 037.5 m E Sg      2011/02/26 03:11:44.2   0.1                          T                1.6  .21 Ml 2.0         4654678
FLN   001.81 028.2 m E Pg      2011/02/26 03:11:20.6  -0.3 209.2  0.0               T                                        4654661
FLN   001.81 028.2 m E Sg      2011/02/26 03:11:44.3   0.0                          T                5.1  .27 Ml 2.3         4654679
LFF   002.84 141.1 m E Pg      2011/02/26 03:11:40.2   0.1                          T                                        4654663
LFF   002.84 141.1 m E Sg      2011/02/26 03:12:16.4  -0.2                          T                4.5  .43 Ml 2.2         4654674
TCF   002.88 106.6 m E Pg      2011/02/26 03:11:40.3  -0.5                          T                                        4654655
TCF   002.88 106.6 m E Sg      2011/02/26 03:12:17.8  -0.1                          T                1.8  .26 Ml 2.3         4654666
RJF   002.95 128.2 m E Pg      2011/02/26 03:11:42.0  -0.2                          T                                        4654662
RJF   002.95 128.2 m E Sg      2011/02/26 03:12:20.1  -0.1                          T                1.5  .29 Ml 1.8         4654675
HYF   003.01 086.7 m E Pg      2011/02/26 03:11:43.0  -0.1                          T                                        4654658
HYF   003.01 086.7 m E Sg      2011/02/26 03:12:21.9   0.1                          T                                        4654670
BGF   003.23 099.4 m E Pg      2011/02/26 03:11:47.2  -0.1                          T                                        4654659
BGF   003.23 099.4 m E Sg      2011/02/26 03:12:28.8   0.0                          T                8.2  .38 Ml 2.8         4654671
CAF   003.50 128.8 m E Pg      2011/02/26 03:11:51.9  -0.2                          T                                        4654664
CAF   003.50 128.8 m E Sg      2011/02/26 03:12:37.0   0.0                          T                 .8  .28 Ml 2.0         4654673
AVF   003.53 094.5 m E Pg      2011/02/26 03:11:52.8   0.1                          T                                        4654656
AVF   003.53 094.5 m E Sg      2011/02/26 03:12:38.1   0.1                          T                1.3  .23 Ml 2.3         4654668
SSF   003.61 090.0 m E Pg      2011/02/26 03:11:53.9  -0.2                          T                                        4654654
SSF   003.61 090.0 m E Sg      2011/02/26 03:12:40.4  -0.1                          T                1.2  .30 Ml 2.2         4654665
LOR   003.84 086.6 m E Pg      2011/02/26 03:11:58.3  -0.2 264.3  -6.5              T                                        4654653
LOR   003.84 086.6 m E Sg      2011/02/26 03:12:47.7  -0.1 256.2  -14.6             T                1.3  .25 Ml 2.3         4654667
SMF   003.89 095.9 m E Pg      2011/02/26 03:11:59.3   0.0                          T                                        4654657
SMF   003.89 095.9 m E Sg      2011/02/26 03:12:49.0  -0.2                          T                 .8  .21 Ml 2.2         4654669

.
EVENT     256424
    Date      Time       Latitude Longitude    Depth    Ndef Nsta Gap    Mag1  N    Mag2  N    Mag3  N   Author         ID
       rms   OT_Error      Smajor Sminor Az        Err   mdist  Mdist     Err        Err        Err      Quality

2011/02/26 04:51:46.2     44.2990   11.5943     16.8      56   22 126  Ml 2.9 22                         js067245    256444

      0.63   +-  0.09       2.5    1.7   89.16 +-  0.7    0.12   6.56   +-0.3                            m i ke

NORTHERN ITALY
Sta     Dist  EvAz     Phase      Date       Time     TRes  Azim  AzRes  Slow  SRes Def   SNR       Amp   Per   Mag1   Mag2       ID
PGF   002.58 228.1 m E Pn      2011/02/26 04:52:25.8   0.2                          T                                        4654703
PGF   002.58 228.1 m E Sn      2011/02/26 04:52:54.4  -0.3                          T               38.8  .61 Ml 3.4         4654701
SBF   003.03 263.2 m E Pn      2011/02/26 04:52:32.0   0.3                          T                                        4654700
SBF   003.03 263.2 m E Sn      2011/02/26 04:53:05.6   0.2                          T                8.5  .22 Ml 3.0         4654716
MBDF  003.48 278.7 m E Pn      2011/02/26 04:52:38.2   0.3                          T                                        4654694
MBDF  003.48 278.7 m E Sn      2011/02/26 04:53:16.5   0.3                          T               12.3  .71 Ml 2.8         4654723
FRF   003.65 260.1 m E Pn      2011/02/26 04:52:40.1   0.0                          T                                        4654702
FRF   003.65 260.1 m E Sn      2011/02/26 04:53:20.4   0.2                          T                9.1  .29 Ml 3.1         4654718
LPL   003.66 291.1 m E Pn      2011/02/26 04:52:40.3  -0.2                          T                                        4654696
LPL   003.66 291.1 m E Sn      2011/02/26 04:53:20.7   0.0                          T                4.4  .43 Ml 2.6         4654721
LPG   003.64 290.9 m E Pn      2011/02/26 04:52:40.5   0.1                          T                                        4654697
LPG   003.64 290.9 m E Sn      2011/02/26 04:53:20.5   0.2                          T                4.0  .47 Ml 2.5         4654720
LMR   003.80 257.1 m E Pn      2011/02/26 04:52:42.2   0.0                          T                                        4654699
LMR   003.80 257.1 m E Sn      2011/02/26 04:53:24.1   0.3                          T               17.7  .60 Ml 3.1         4654717
ORIF  004.13 280.6 m E Pn      2011/02/26 04:52:46.7   0.0                          T                                        4654695
ORIF  004.13 280.6 m E Sn      2011/02/26 04:53:31.9   0.2                          T                8.8  .55 Ml 2.9         4654722
SMRF  004.34 267.8 m E Pn      2011/02/26 04:52:49.8   0.2                          T                                        4654698
SMRF  004.34 267.8 m E Sn      2011/02/26 04:53:37.1   0.2                          T                4.0  .39 Ml 2.7         4654719
CABF  004.51 302.8 m E Pn      2011/02/26 04:52:51.9  -0.1                          T                                        4654691
CABF  004.51 302.8 m E Sn      2011/02/26 04:53:40.7  -0.2                          T                 .7  .30 Ml 2.1         4654710
HINF  004.82 318.5 m E Pn      2011/02/26 04:52:56.0  -0.2                          T                                        4654690
HINF  004.82 318.5 m E Sn      2011/02/26 04:53:47.8  -0.4                          T                3.7  .40 Ml 2.8         4654725
VIVF  004.98 278.8 m E Pn      2011/02/26 04:52:58.1  -0.1                          T                                        4654693
VIVF  004.98 278.8 m E Sn      2011/02/26 04:53:52.1   0.2                          T                1.9  .43 Ml 2.5         4654715
CDF   005.08 325.5 m E Pn      2011/02/26 04:52:59.4  -0.3                          T                                        4654688
HAU   005.20 317.3 m E Pn      2011/02/26 04:53:01.1  -0.1                          T                                        4654689
HAU   005.20 317.3 m E Sn      2011/02/26 04:53:57.0  -0.2                          T                6.1  .36 Ml 2.9         4654726
PAGF  005.88 318.5 m E Pn      2011/02/26 04:53:10.2  -0.3                          T                                        4654729
SMF   005.94 296.0 m E Pn      2011/02/26 04:53:11.6   0.3                          T                                        4654692
SMF   005.94 296.0 m E Sn      2011/02/26 04:54:14.7   0.0                          T               10.7  .66 Ml 3.3         4654724
SFTF  005.99 313.0 m E Pn      2011/02/26 04:53:11.9  -0.1 134.7  6.4               T                                        4654731
MEZF  006.17 315.2 m E Pn      2011/02/26 04:53:14.4  -0.1 128.6  -1.9              T                                        4654730
LOR   006.17 301.5 m E Pn      2011/02/26 04:53:14.4  -0.1 122.3  6.4               T                                        4654687
LOR   006.17 301.5 m E Sn      2011/02/26 04:54:20.3  -0.1                          T                4.9  .37 Ml 3.3         4654728
AVF   006.30 296.2 m E Pn      2011/02/26 04:53:16.2   0.0                          T                                        4654732
AVF   006.30 296.2 m E Sn      2011/02/26 04:54:23.5   0.0                          T                 .5  .39 Ml 2.3         4654711
SSF   006.30 298.8 m E Pn      2011/02/26 04:53:16.4   0.2                          T                                        4654686
SSF   006.30 298.8 m E Sn      2011/02/26 04:54:23.6   0.0                          T                3.2  .47 Ml 3.1         4654727
BGF   006.56 293.2 m E Pn      2011/02/26 04:53:19.7   0.0                          T                                        4654733
BGF   006.56 293.2 m E Sn      2011/02/26 04:54:29.8   0.1                          T                2.7  .37 Ml 3.1         4654714

.
EVENT     256425
    Date      Time       Latitude Longitude    Depth    Ndef Nsta Gap    Mag1  N    Mag2  N    Mag3  N   Author         ID
       rms   OT_Error      Smajor Sminor Az        Err   mdist  Mdist     Err        Err        Err      Quality

2011/02/26 17:47:04.5     44.1432    6.9599      2.0      24   10 135  Ml 1.8  9  Md 1.8  3              js067245    256445

      0.21   +-  0.04       1.2     .7   67.10 +-  0.0    0.44   2.18   +-0.3      +-0.1                 m i ke

FRANCE
Sta     Dist  EvAz     Phase      Date       Time     TRes  Azim  AzRes  Slow  SRes Def   SNR       Amp   Per   Mag1   Mag2       ID
SBF   000.44 129.1 m E Pg      2011/02/26 17:47:13.4   0.3                          T                                        4654750
SBF   000.44 129.1 m E Sg      2011/02/26 17:47:19.0   0.0                          T               15.3  .51        Md 1.9  4654749
MBDF  000.60 347.0 m E Pg      2011/02/26 17:47:15.9  -0.2                          T                1.7  .23                4654744
MBDF  000.60 347.0 m E Sg      2011/02/26 17:47:23.8  -0.1                          T               14.1 1.06        Md 1.8  4654745
FRF   000.62 201.4 m E Pg      2011/02/26 17:47:16.3   0.0                          T                                        4654753
FRF   000.62 201.4 m E Sg      2011/02/26 17:47:24.6   0.0                          T                8.4  .28        Md 1.7  4654747
LMR   000.87 202.1 m E Pg      2011/02/26 17:47:20.6  -0.3                          T                                        4654752
LMR   000.87 202.1 m E Sg      2011/02/26 17:47:31.5  -0.8                          T                6.1  .35 Ml 2.0         4654748
SMRF  001.01 261.0 m E Pg      2011/02/26 17:47:23.7   0.2                          T                                        4654751
SMRF  001.01 261.0 m E Sg      2011/02/26 17:47:37.0   0.3                          T                9.0  .34 Ml 2.2         4654746
ORIF  001.09 315.5 m E Pg      2011/02/26 17:47:25.2   0.0                          T                                        4654743
ORIF  001.09 315.5 m E Sg      2011/02/26 17:47:39.4   0.1                          T                  1  .23 Ml 1.5         4654737
LPG   001.36 353.8 m E Pg      2011/02/26 17:47:30.3   0.0                          T                                        4654741
LPG   001.36 353.8 m E Sg      2011/02/26 17:47:47.8  -0.1                          T                 .6  .26 Ml 1.3         4654735
LPL   001.38 353.4 m E Pg      2011/02/26 17:47:30.4  -0.2                          T                                        4654742
LPL   001.38 353.4 m E Sg      2011/02/26 17:47:48.3  -0.1                          T                1.4  .23 Ml 1.8         4654736
VIVF  001.79 294.3 m E Pn      2011/02/26 17:47:34.7   0.0                          T                                        4654739
VIVF  001.79 294.3 m E Sn      2011/02/26 17:47:56.7   0.1                          T                1.3  .27 Ml 1.8         4654738
PGF   002.18 136.3 m E Pn      2011/02/26 17:47:40.2   0.0                          T                                        4654740
PGF   002.18 136.3 m E Sn      2011/02/26 17:48:06.2   0.0                          T                 .8  .19 Ml 2.1         4654734

.
EVENT     256534
    Date      Time       Latitude Longitude    Depth    Ndef Nsta Gap    Mag1  N    Mag2  N    Mag3  N   Author         ID
       rms   OT_Error      Smajor Sminor Az        Err   mdist  Mdist     Err        Err        Err      Quality

2011/02/26 19:19:34.8     42.8658   -1.2840      2.0      23    2 077  Ml 1.5  1  Md 1.5  2              js067245    256554

      0.36   +-  0.08       1.7    1.4   27.92 +-  0.0    0.08   1.20   +-         +-0.1                 m i ke

PYRENEES
Sta     Dist  EvAz     Phase      Date       Time     TRes  Azim  AzRes  Slow  SRes Def   SNR       Amp   Per   Mag1   Mag2       ID
SJPF  000.25 009.9 m E Pg      2011/02/26 19:19:39.9   0.1                          T                                        4655682
SJPF  000.25 009.9 m E Sg      2011/02/26 19:19:42.7  -0.5                          T                9.0  .24        Md 1.4  4655683
EPF   001.20 081.6 m E Pg      2011/02/26 19:19:57.3   0.0                          T                                        4655684
EPF   001.20 081.6 m E Sg      2011/02/26 19:20:12.8  -0.2                          T                 .9  .20 Ml 1.5 Md 1.5  4655685

.
EVENT     256423
    Date      Time       Latitude Longitude    Depth    Ndef Nsta Gap    Mag1  N    Mag2  N    Mag3  N   Author         ID
       rms   OT_Error      Smajor Sminor Az        Err   mdist  Mdist     Err        Err        Err      Quality

2011/02/26 23:34:28.4     42.8557   -1.2170      2.0       8    2 148  Ml 0.8  1  Md 0.9  2              js067245    256443

      0.32   +-  0.18       4.4    2.3   19.73 +-  0.0    0.02   1.16   +-         +-0.1                 m i ke

PYRENEES
Sta     Dist  EvAz     Phase      Date       Time     TRes  Azim  AzRes  Slow  SRes Def   SNR       Amp   Per   Mag1   Mag2       ID
SJPF  000.26 358.7 m E Pg      2011/02/26 23:34:33.2  -0.4                          T                                        4654761
SJPF  000.26 358.7 m E Sg      2011/02/26 23:34:35.8  -1.3                          T                2.6  .18        Md 1.0  4654760
EPF   001.16 080.8 m E Pg      2011/02/26 23:34:50.2   0.1                          T                                        4654758
EPF   001.16 080.8 m E Sg      2011/02/26 23:35:05.6   0.5                          T                 .2  .23 Ml  .8 Md  .9  4654759

.
