EVENT     292494
    Date      Time       Latitude Longitude    Depth    Ndef Nsta Gap    Mag1  N    Mag2  N    Mag3  N   Author         ID
       rms   OT_Error      Smajor Sminor Az        Err   mdist  Mdist     Err        Err        Err      Quality

2013/02/21 20:55:04.2     44.7141    7.2075     10.0 f    86   21 068  Ml 2.4 20  Md 2.5  2              bulletin    292594
                                                                                                         _ldg
      1.10   +-  0.11       2.8    1.9   70.90 +-  0.0    0.13   4.08   +-0.3      +-0.2                 m i ke

NORTHERN ITALY
Sta     Dist  EvAz     Phase      Date       Time     TRes  Azim  AzRes  Slow  SRes Def   SNR       Amp   Per   Mag1   Mag2       ID
MBDF  000.31 272.5 m E Pg      2013/02/21 20:55:09.6  -1.1                          T   001.0                                5204193
MBDF  000.31 272.5 m E Sg      2013/02/21 20:55:13.4  -1.5                          T              130.3  .24        Md 2.4  5204202
LPG   000.85 337.8 m E Pg      2013/02/21 20:55:19.0  -1.6                          T                                        5204204
LPG   000.85 337.8 m E Sg      2013/02/21 20:55:30.4  -1.2                          T               21.7  .20                5204200
LPL   000.87 337.4 m E Pg      2013/02/21 20:55:19.4  -1.5                          T                                        5204205
LPL   000.87 337.4 m E Sg      2013/02/21 20:55:29.8  -2.4                          T               40.4  .28 Ml 2.9         5204201
SBF   000.87 169.0 m E Pg      2013/02/21 20:55:21.1   0.5                          T                                        5204203
SBF   000.87 169.0 m E Sg      2013/02/21 20:55:32.4   0.5                          T   001.0       32.6  .34 Ml 2.7         5204187
ORIF  000.97 282.7 m E Pg      2013/02/21 20:55:21.4  -1.1                          T   001.0                                5204194
ORIF  000.97 282.7 m E Sg      2013/02/21 20:55:33.1  -2.0                          T   001.0       21.9  .34 Ml 2.6         5204195
FRF   001.22 199.5 m E Pg      2013/02/21 20:55:27.2   0.2                          T   001.0                                5204182
FRF   001.22 199.5 m E Sn      2013/02/21 20:55:43.0   1.7                          T   001.0       16.6  .22 Ml 2.8         5204183
SMRF  001.38 238.4 m E Pg      2013/02/21 20:55:30.0  -0.1                          T   001.0                                5204199
SMRF  001.38 238.4 m E Sn      2013/02/21 20:55:47.0   1.8                          T                9.7  .31 Ml 2.5         5204236
LMR   001.47 200.3 m E Pg      2013/02/21 20:55:31.6   0.1                          T   001.0                                5204176
LMR   001.47 200.3 m E Sg      2013/02/21 20:55:50.5  -0.1                          T   001.0       17.4  .28 Ml 2.8         5204177
VIVF  001.81 275.4 m E Pn      2013/02/21 20:55:34.9   1.2                          T   001.0                                5204196
VIVF  001.81 275.4 m E Pg      2013/02/21 20:55:37.8  -0.1                          T   001.0                                5204197
VIVF  001.81 275.4 m E Sn      2013/02/21 20:55:56.8   1.4                          T   001.0        3.2  .29 Ml 2.2         5204198
CABF  002.05 337.9 m E Pn      2013/02/21 20:55:38.5   1.4                          T   001.0                                5204191
CABF  002.05 337.9 m E Pg      2013/02/21 20:55:42.4   0.0                          T                                        5204295
CABF  002.05 337.9 m E Sn      2013/02/21 20:56:03.1   1.8                          T   001.0        3.8  .48 Ml 2.1         5204192
CABF  002.05 337.9 m E Sg      2013/02/21 20:56:08.8  -0.2                          T                2.0  .31 Ml 2.0         5204294
LASF  002.49 256.3 m E Pn      2013/02/21 20:55:44.3   1.3                          T   001.0                                5204185
LASF  002.49 256.3 m E Pg      2013/02/21 20:55:50.1  -0.2                          T                                        5204290
LASF  002.49 256.3 m E Sn      2013/02/21 20:56:12.9   1.4                          T                 .9  .22 Ml 1.9         5204235
PGF   002.53 148.4 m E Pn      2013/02/21 20:55:44.4   0.8                          T                                        5204289
PGF   002.53 148.4 m E Sn      2013/02/21 20:56:14.0   1.4                          T                 .9  .20 Ml 2.2         5204288
SMF   003.05 310.5 m E Pn      2013/02/21 20:55:51.4   0.8                          T   001.0                                5204188
HINF  003.11 355.6 m E Pn      2013/02/21 20:55:53.1   1.6                          T                                        5204237
HINF  003.11 355.6 m E Sn      2013/02/21 20:56:28.0   1.4                          T                 .6  .17 Ml 2.0         5204292
HAU   003.35 350.1 m E Pn      2013/02/21 20:55:56.2   1.5                          T   001.0                                5204184
HAU   003.35 350.1 m E Sn      2013/02/21 20:56:33.8   1.7                          T                1.1  .19 Ml 2.1         5204293
AVF   003.40 308.9 m E Pn      2013/02/21 20:55:57.5   2.1                          T   001.0                                5204179
AVF   003.40 308.9 m E Sn      2013/02/21 20:56:36.1   2.7                          T                 .6  .19 Ml 2.0         5204234
LOR   003.46 318.8 m E Pn      2013/02/21 20:55:57.6   1.4 139.5  3.1               T   001.0                                5204178
LOR   003.46 318.8 m E Sn      2013/02/21 20:56:36.4   1.6                          T   001.0        1.8  .31 Ml 2.3         5204186
SSF   003.49 313.6 m E Pn      2013/02/21 20:55:57.9   1.3                          T   001.0                                5204189
SSF   003.49 313.6 m E Sn      2013/02/21 20:56:37.0   1.5                          T                2.3  .38 Ml 2.4         5204238
BGF   003.57 302.6 m E Pn      2013/02/21 20:56:00.4   2.7                          T   001.0                                5204180
BGF   003.57 302.6 m E Sn      2013/02/21 20:56:38.9   1.4                          T   001.0        2.9  .23 Ml 2.7         5204181
TCF   003.85 295.9 m E Pn      2013/02/21 20:56:02.3   0.7                          T   001.0                                5204190
TCF   003.85 295.9 m E Pg      2013/02/21 20:56:15.1  -0.3                          T                                        5204291
RJF   004.08 280.3 m E Sg      2013/02/21 20:57:09.8  -2.2                          T   001.0                                5204175

.
EVENT     292495
    Date      Time       Latitude Longitude    Depth    Ndef Nsta Gap    Mag1  N    Mag2  N    Mag3  N   Author         ID
       rms   OT_Error      Smajor Sminor Az        Err   mdist  Mdist     Err        Err        Err      Quality

2013/02/21 20:57:39.7     44.7688    7.1495      2.0      28   10 169  Ml 1.4  9  Md 1.7  3              bulletin    292595
                                                                                                         _ldg
      0.39   +-  0.07       1.5     .9   58.95 +-  0.0    0.27   2.59   +-0.3      +-0.0                 m i ke

NORTHERN ITALY
Sta     Dist  EvAz     Phase      Date       Time     TRes  Azim  AzRes  Slow  SRes Def   SNR       Amp   Per   Mag1   Mag2       ID
MBDF  000.27 261.3 m E Pg      2013/02/21 20:57:45.3   0.0                          T                                        5204270
MBDF  000.27 261.3 m E Sg      2013/02/21 20:57:48.8  -0.2                          T                3.4  .20        Md 1.8  5204269
LPG   000.78 339.0 m E Pg      2013/02/21 20:57:54.8  -0.1                          T                                        5204264
LPG   000.78 339.0 m E Sg      2013/02/21 20:58:05.0   0.0                          T                 .9  .24        Md 1.7  5204263
LPL   000.80 338.6 m E Pg      2013/02/21 20:57:55.2   0.1                          T                                        5204266
LPL   000.80 338.6 m E Sg      2013/02/21 20:58:05.5  -0.1                          T                1.3  .20        Md 1.7  5204265
ORIF  000.92 279.8 m E Pg      2013/02/21 20:57:56.9  -0.1                          T                                        5204268
ORIF  000.92 279.8 m E Sg      2013/02/21 20:58:08.5  -0.5                          T                 .8  .22 Ml 1.3         5204267
SBF   000.93 167.1 m E Pg      2013/02/21 20:57:57.4   0.2                          T                                        5204274
SBF   000.93 167.1 m E Sg      2013/02/21 20:58:09.3   0.0                          T                  1  .20 Ml 1.5         5204273
SMRF  001.38 235.5 m E Pn      2013/02/21 20:58:04.3  -0.1                          T                                        5204276
SMRF  001.38 235.5 m E Pg      2013/02/21 20:58:05.7   0.2                          T                                        5204262
SMRF  001.38 235.5 m E Sn      2013/02/21 20:58:22.0  -0.1                          T                 .2  .16 Ml 1           5204275
SMRF  001.38 235.5 m E Sg      2013/02/21 20:58:23.2  -0.2                          T                                        5204261
LMR   001.51 198.1 m E Pn      2013/02/21 20:58:06.3   0.3                          T                                        5204278
LMR   001.51 198.1 m E Pg      2013/02/21 20:58:08.0   0.2                          T                                        5204280
LMR   001.51 198.1 m E Sn      2013/02/21 20:58:25.3   0.2                          T                                        5204277
LMR   001.51 198.1 m E Sg      2013/02/21 20:58:27.1  -0.1                          T                 .2  .23 Ml 1.1         5204279
VIVF  001.76 273.7 m E Pn      2013/02/21 20:58:10.0   0.4                          T                                        5204283
VIVF  001.76 273.7 m E Pg      2013/02/21 20:58:12.5  -0.1                          T                                        5204282
VIVF  001.76 273.7 m E Sg      2013/02/21 20:58:35.1  -0.3                          T                 .5  .20 Ml 1.6         5204281
FRF   001.26 196.8 m E Sn      2013/02/21 20:58:18.6  -0.6                          T                 .3  .16 Ml 1.2         5204271
PGF   002.59 148.2 m E Pn      2013/02/21 20:58:20.8  -0.2                          T                                        5204303
PGF   002.59 148.2 m E Sn      2013/02/21 20:58:50.9  -0.3                          T                 .5  .19 Ml 2.0         5204302

.
EVENT     292497
    Date      Time       Latitude Longitude    Depth    Ndef Nsta Gap    Mag1  N    Mag2  N    Mag3  N   Author         ID
       rms   OT_Error      Smajor Sminor Az        Err   mdist  Mdist     Err        Err        Err      Quality

2013/02/21 21:42:32.2     42.7220   -1.7403      2.0      21    4 156  Ml 1.2  3  Md 1.4  1              bulletin    292597
                                                                                                         _ldg
      0.54   +-  0.18       3.4    2.4   14.00 +-  0.0    0.13   2.97   +-0.1      +-                    m i ke

PYRENEES
Sta     Dist  EvAz     Phase      Date       Time     TRes  Azim  AzRes  Slow  SRes Def   SNR       Amp   Per   Mag1   Mag2       ID
SJPF  000.54 043.9 m E Pg      2013/02/21 21:42:42.8   0.3                          T                                        5204348
SJPF  000.54 043.9 m E Sg      2013/02/21 21:42:49.5  -0.3                          T                1.2  .22        Md 1.4  5204347
ETSF  000.89 078.1 m E Pg      2013/02/21 21:42:49.2   0.2                          T                                        5204346
ETSF  000.89 078.1 m E Sg      2013/02/21 21:43:00.3  -0.2                          T                 .5  .22 Ml 1.1         5204345
EPF   001.56 077.9 m E Pn      2013/02/21 21:42:59.0  -0.3                          T                                        5204344
EPF   001.56 077.9 m E Pg      2013/02/21 21:43:00.9  -0.4                          T                                        5204343
EPF   001.56 077.9 m E Sn      2013/02/21 21:43:18.5  -0.4                          T                                        5204342
EPF   001.56 077.9 m E Sg      2013/02/21 21:43:21.2  -0.2                          T                 .2  .18 Ml 1.2         5204341
MTLF  002.97 076.6 m E Sn      2013/02/21 21:43:52.2  -0.2                          T                 .2  .21 Ml 1.4         5204349

.
EVENT     292499
    Date      Time       Latitude Longitude    Depth    Ndef Nsta Gap    Mag1  N    Mag2  N    Mag3  N   Author         ID
       rms   OT_Error      Smajor Sminor Az        Err   mdist  Mdist     Err        Err        Err      Quality

2013/02/22 02:15:33.0     42.7292   -1.7460      2.0      17    3 105  Ml 1.1  2  Md 1.4  1              bulletin    292599
                                                                                                         _ldg
      0.72   +-  0.25       4.9    3.5    2.89 +-  0.0    0.13   1.92   +-0.4      +-                    m i ke

PYRENEES
Sta     Dist  EvAz     Phase      Date       Time     TRes  Azim  AzRes  Slow  SRes Def   SNR       Amp   Per   Mag1   Mag2       ID
SJPF  000.54 044.7 m E Pg      2013/02/22 02:15:42.9  -0.5                          T                                        5204369
SJPF  000.54 044.7 m E Sg      2013/02/22 02:15:49.8  -0.7                          T                 .8  .20        Md 1.4  5204368
ETSF  000.89 078.6 m E Pg      2013/02/22 02:15:49.7  -0.1                          T                                        5204367
ETSF  000.89 078.6 m E Sg      2013/02/22 02:16:00.2  -1.2                          T                 .3  .22 Ml  .8         5204366
EPF   001.56 078.2 m E Pn      2013/02/22 02:16:00.2   0.0                          T                                        5204365
EPF   001.56 078.2 m E Pg      2013/02/22 02:16:02.4   0.2                          T                                        5204364
EPF   001.56 078.2 m E Sn      2013/02/22 02:16:19.6  -0.2                          T                 .4  .19 Ml 1.4         5204363

.
EVENT     292498
    Date      Time       Latitude Longitude    Depth    Ndef Nsta Gap    Mag1  N    Mag2  N    Mag3  N   Author         ID
       rms   OT_Error      Smajor Sminor Az        Err   mdist  Mdist     Err        Err        Err      Quality

2013/02/22 03:50:02.9     42.7371   -1.7080      2.0      23    4 154  Ml 1.4  4  Md 1.5  1              bulletin    292598
                                                                                                         _ldg
      0.59   +-  0.19       3.5    2.8   18.69 +-  0.0    0.10   2.94   +-0.3      +-                    m i ke

PYRENEES
Sta     Dist  EvAz     Phase      Date       Time     TRes  Azim  AzRes  Slow  SRes Def   SNR       Amp   Per   Mag1   Mag2       ID
SJPF  000.52 043.2 m E Pg      2013/02/22 03:50:12.6  -0.2                          T                                        5204375
SJPF  000.52 043.2 m E Sg      2013/02/22 03:50:20.0   0.4                          T                2.3  .20        Md 1.5  5204374
ETSF  000.86 078.8 m E Pg      2013/02/22 03:50:19.0  -0.2                          T                                        5204373
ETSF  000.86 078.8 m E Sg      2013/02/22 03:50:31.0   0.6                          T                1.1  .18 Ml 1.5         5204372
EPF   001.53 078.3 m E Pn      2013/02/22 03:50:29.4  -0.2                          T                                        5204376
EPF   001.53 078.3 m E Pg      2013/02/22 03:50:31.8   0.2                          T                                        5204371
EPF   001.53 078.3 m E Sg      2013/02/22 03:50:52.4   1.1                          T                 .6  .18 Ml 1.6         5204370
MTLF  002.94 076.8 m E Pn      2013/02/22 03:50:48.6  -0.1                          T                                        5204378
MTLF  002.94 076.8 m E Sn      2013/02/22 03:51:23.0   0.4                          T                 .2  .19 Ml 1.4         5204377

.
EVENT     292516
    Date      Time       Latitude Longitude    Depth    Ndef Nsta Gap    Mag1  N    Mag2  N    Mag3  N   Author         ID
       rms   OT_Error      Smajor Sminor Az        Err   mdist  Mdist     Err        Err        Err      Quality

2013/02/22 06:12:22.4     44.7576    6.6928      2.0      16    7 115  Ml 1.5  3  Md 1.4  2              bulletin    292616
                                                                                                         _ldg
      0.14   +-  0.02        .5     .4   72.94 +-  0.0    0.06   1.43   +-0.2      +-0.0                 m i ke

FRANCE
Sta     Dist  EvAz     Phase      Date       Time     TRes  Azim  AzRes  Slow  SRes Def   SNR       Amp   Per   Mag1   Mag2       ID
MBDF  000.06 118.7 m E Pg      2013/02/22 06:12:24.1  -0.2                          T                                        5204404
MBDF  000.06 118.7 m E Sg      2013/02/22 06:12:25.3   0.0                          T               27.5  .22        Md 1.5  5204403
ORIF  000.60 285.8 m E Pg      2013/02/22 06:12:33.9  -0.1                          T                                        5204402
ORIF  000.60 285.8 m E Sg      2013/02/22 06:12:41.9   0.1                          T                1.4  .20        Md 1.4  5204401
LPG   000.74 003.2 m E Pg      2013/02/22 06:12:36.7  -0.1                          T                                        5204408
LPG   000.74 003.2 m E Sg      2013/02/22 06:12:46.4  -0.1                          T                 .4  .20                5204407
LPL   000.76 002.1 m E Pg      2013/02/22 06:12:37.1   0.0                          T                                        5204410
LPL   000.76 002.1 m E Sg      2013/02/22 06:12:46.9   0.0                          T                 .2  .19                5204409
SBF   001.04 148.9 m E Pg      2013/02/22 06:12:42.0  -0.1                          T                                        5204406
SBF   001.04 148.9 m E Sg      2013/02/22 06:12:55.4  -0.1                          T                1.9  .27 Ml 1.7         5204405
SMRF  001.12 226.1 m E Pg      2013/02/22 06:12:43.4   0.0                          T                                        5204399
SMRF  001.12 226.1 m E Sg      2013/02/22 06:12:58.0   0.1                          T                 .8  .24 Ml 1.4         5204413
LMR   001.43 185.4 m E Pn      2013/02/22 06:12:47.8   0.2                          T                                        5204412
LMR   001.43 185.4 m E Sn      2013/02/22 06:13:05.9  -0.1                          T                 .4  .17 Ml 1.5         5204411

.
