EVENT     280221
    Date      Time       Latitude Longitude    Depth    Ndef Nsta Gap    Mag1  N    Mag2  N    Mag3  N   Author         ID
       rms   OT_Error      Smajor Sminor Az        Err   mdist  Mdist     Err        Err        Err      Quality

2012/07/28 01:30:57.3     44.7699    7.2234      3.0 f    34   16 169  Ml 2.0  9  Md 2.0  3              bulletin    280321
                                                                                                         _ldg
      0.73   +-  0.11       2.5    1.2   79.36 +-  0.0    0.32   3.84   +-0.3      +-0.1                 m i ke

NORTHERN ITALY
Sta     Dist  EvAz     Phase      Date       Time     TRes  Azim  AzRes  Slow  SRes Def   SNR       Amp   Per   Mag1   Mag2       ID
MBDF  000.32 262.6 m E Pg      2012/07/28 01:31:04.1   0.3                          T                                        5034281
MBDF  000.32 262.6 m E Sg      2012/07/28 01:31:08.0  -0.2                          T               14.7  .16        Md 2.0  5034274
LPG   000.80 335.5 m E Pg      2012/07/28 01:31:13.0   0.2                          T                                        5034278
LPG   000.80 335.5 m E Sg      2012/07/28 01:31:23.2   0.0                          T                5.3  .28                5034271
LPL   000.82 335.2 m E Pg      2012/07/28 01:31:13.4   0.3                          T                                        5034279
LPL   000.82 335.2 m E Sg      2012/07/28 01:31:24.1   0.3                          T                5.2  .24        Md 1.9  5034272
SBF   000.92 170.4 m E Pg      2012/07/28 01:31:14.7   0.1                          T                                        5034275
SBF   000.92 170.4 m E Sg      2012/07/28 01:31:26.7   0.1                          T                3.2  .20 Ml 2.0 Md 2.1  5034266
ORIF  000.97 279.3 m E Pg      2012/07/28 01:31:15.7   0.1                          T                                        5034280
ORIF  000.97 279.3 m E Sg      2012/07/28 01:31:28.0  -0.1                          T                5.1  .22 Ml 2.2         5034273
FRF   001.28 199.1 m E Pn      2012/07/28 01:31:20.5   0.1                          T                                        5034277
FRF   001.28 199.1 m E Pg      2012/07/28 01:31:21.2   0.0                          T                                        5041573
FRF   001.28 199.1 m E Sn      2012/07/28 01:31:37.1   0.1                          T                2.6  .18 Ml 2.1         5034268
SMRF  001.42 236.7 m E Pn      2012/07/28 01:31:22.6   0.1                          T                                        5034269
SMRF  001.42 236.7 m E P       2012/07/28 01:31:24.4   0.1                          T                                        5041574
SMRF  001.42 236.7 m E Sn      2012/07/28 01:31:40.6   0.0                          T                                        5034270
LMR   001.53 200.0 m E Pn      2012/07/28 01:31:23.9   0.2                          T                                        5034276
LMR   001.53 200.0 m E Pg      2012/07/28 01:31:25.3  -0.4                          T                                        5041572
LMR   001.53 200.0 m E Sn      2012/07/28 01:31:43.1   0.2                          T                                        5034267
LMR   001.53 200.0 m E Sg      2012/07/28 01:31:45.5   0.1                          T                3.9  .24 Ml 2.3         5041571
VIVF  001.82 273.6 m E Pn      2012/07/28 01:31:28.0   0.2                          T                                        5034264
VIVF  001.82 273.6 m E Sn      2012/07/28 01:31:50.2   0.2                          T                 .6  .29 Ml 1.5         5034265
CABF  002.01 337.0 m E Pg      2012/07/28 01:31:35.3   0.5                          T                                        5041563
CABF  002.01 337.0 m E Sg      2012/07/28 01:32:00.3  -0.3                          T                 .5  .25 Ml 1.5         5041564
SMF   003.02 309.6 m E P       2012/07/28 01:31:46.8  -0.3                          T                                        5041569
SMF   003.02 309.6 m E Sg      2012/07/28 01:32:32.4   0.2                          T                 .6  .28 Ml 1.8         5041562
AVF   003.38 308.1 m E P       2012/07/28 01:31:52.0  -0.2                          T                                        5041568
SSF   003.46 312.8 m E P       2012/07/28 01:31:52.5  -0.8                          T                                        5041566
BGF   003.55 301.8 m E P       2012/07/28 01:31:54.2  -0.5                          T                                        5041570
BGF   003.55 301.8 m E Sg      2012/07/28 01:32:48.7   0.0                          T                4.0  .41 Ml 2.5         5041561
CDF   003.64 000.6 m E P       2012/07/28 01:31:55.8  -0.3                          T                                        5041565
TCF   003.84 295.1 m E P       2012/07/28 01:31:58.7   0.0                          T                                        5041567

.
EVENT     280339
    Date      Time       Latitude Longitude    Depth    Ndef Nsta Gap    Mag1  N    Mag2  N    Mag3  N   Author         ID
       rms   OT_Error      Smajor Sminor Az        Err   mdist  Mdist     Err        Err        Err      Quality

2012/07/28 02:04:39.9     40.8080   11.6097      2.0      12    7 340  Ml 2.6  5                         bulletin    280439
                                                                                                         _ldg
      0.58   +-  0.45      18.5    8.6   37.03 +-  0.0    2.62  12.73   +-0.2                            m i ke

TYRRHENIAN SEA
Sta     Dist  EvAz     Phase      Date       Time     TRes  Azim  AzRes  Slow  SRes Def   SNR       Amp   Per   Mag1   Mag2       ID
PGF   002.62 312.5 m E Pn      2012/07/28 02:05:21.5   0.1                          T                                        5035791
PGF   002.62 312.5 m E Sn      2012/07/28 02:05:51.9   0.0                          T                3.5  .16 Ml 2.9         5035790
LMR   004.56 305.3 m E Pn      2012/07/28 02:05:48.2   0.5                          T                                        5035792
LMR   004.56 305.3 m E Sn      2012/07/28 02:06:38.4   0.3                          T                1.4  .28 Ml 2.5         5035793
FRF   004.60 308.4 m E P       2012/07/28 02:05:52.1   0.0                          T                                        5041495
FRF   004.60 308.4 m E Sn      2012/07/28 02:06:39.6   0.4                          T                 .6  .24 Ml 2.2         5041496
MBDF  005.29 319.3 m E P       2012/07/28 02:06:02.4   0.3                          T                                        5041493
LPL   005.90 324.5 m E P       2012/07/28 02:06:10.7  -0.1                          T                                        5041494
SBF   004.35 316.0 m E Sn      2012/07/28 02:06:32.6  -0.5                          T                1.9  .26 Ml 2.6         5041497
QUIF  012.73 308.9 m E P       2012/07/28 02:07:44.2  -0.5                          T                                        5041492

.
EVENT     280340
    Date      Time       Latitude Longitude    Depth    Ndef Nsta Gap    Mag1  N    Mag2  N    Mag3  N   Author         ID
       rms   OT_Error      Smajor Sminor Az        Err   mdist  Mdist     Err        Err        Err      Quality

2012/07/28 03:36:48.5     44.4830    6.7272      2.0      14    6 176  Ml 1.4  4  Md 1.4  1              bulletin    280440
                                                                                                         _ldg
      0.21   +-  0.07       2.3    1.0   89.26 +-  0.0    0.25   1.16   +-0.2      +-                    m i ke

FRANCE
Sta     Dist  EvAz     Phase      Date       Time     TRes  Azim  AzRes  Slow  SRes Def   SNR       Amp   Per   Mag1   Mag2       ID
MBDF  000.25 007.4 m E Pg      2012/07/28 03:36:53.5   0.0                          T                                        5041542
MBDF  000.25 007.4 m E Sg      2012/07/28 03:36:57.6   0.7                          T                2.5  .24        Md 1.4  5041543
ORIF  000.74 306.1 m E Pg      2012/07/28 03:37:02.7   0.1                          T                                        5041541
ORIF  000.74 306.1 m E Pn      2012/07/28 03:37:04.3  -0.2                          T                                        5041593
ORIF  000.74 306.1 m E Sg      2012/07/28 03:37:12.1  -0.3                          T                1.2  .33                5041531
FRF   000.92 183.6 m E Pg      2012/07/28 03:37:05.7  -0.1                          T                                        5041539
FRF   000.92 183.6 m E Pn      2012/07/28 03:37:06.7  -0.1                          T                                        5041592
FRF   000.92 183.6 m E Sg      2012/07/28 03:37:17.8   0.0                          T                1.8  .31 Ml 1.6         5041540
SMRF  000.97 238.9 m E Pn      2012/07/28 03:37:07.7   0.2                          T                                        5041537
SMRF  000.97 238.9 m E Sn      2012/07/28 03:37:21.4   0.3                          T                 .5  .22 Ml 1.2         5041533
LPL   001.03 000.2 m E Pg      2012/07/28 03:37:07.9  -0.2                          T                                        5041538
LPL   001.03 000.2 m E Sn      2012/07/28 03:37:23.1   0.3                          T                1.1  .35 Ml 1.3         5041532
LMR   001.16 187.9 m E Pg      2012/07/28 03:37:10.2   0.1                          T                                        5041536
LMR   001.16 187.9 m E Sg      2012/07/28 03:37:25.2   0.1                          T                 .6  .20 Ml 1.4         5041534

.
EVENT     280342
    Date      Time       Latitude Longitude    Depth    Ndef Nsta Gap    Mag1  N    Mag2  N    Mag3  N   Author         ID
       rms   OT_Error      Smajor Sminor Az        Err   mdist  Mdist     Err        Err        Err      Quality

2012/07/28 05:35:19.5     42.0836    8.7620      2.6       6    2 287  Ml 1.6  1  Md 1.8  1              bulletin    280442
                                                                                                         _ldg
      0.86   +-  0.65      11.0    7.5   26.85 +-  5.1    0.50   2.08   +-         +-                    m i ke

CORSICA, FRANCE
Sta     Dist  EvAz     Phase      Date       Time     TRes  Azim  AzRes  Slow  SRes Def   SNR       Amp   Per   Mag1   Mag2       ID
PGF   000.50 020.7 m E Pg      2012/07/28 05:35:29.0  -0.1                          T                                        5035821
PGF   000.50 020.7 m E Sg      2012/07/28 05:35:35.8   0.2                          T               14.5  .20        Md 1.8  5035820
LMR   002.08 307.7 m E Pn      2012/07/28 05:35:53.7   0.2                          T                                        5041551
LMR   002.08 307.7 m E Sn      2012/07/28 05:36:17.8  -0.5                          T                 .6  .27 Ml 1.6         5041552

.
EVENT     280343
    Date      Time       Latitude Longitude    Depth    Ndef Nsta Gap    Mag1  N    Mag2  N    Mag3  N   Author         ID
       rms   OT_Error      Smajor Sminor Az        Err   mdist  Mdist     Err        Err        Err      Quality

2012/07/28 06:54:00.4     44.7744    6.5668      2.0       6    2 181             Md 1.4  2              bulletin    280443
                                                                                                         _ldg
      0.52   +-  0.16       7.6    2.4   17.37 +-  0.0    0.15   0.51              +-0.0                 m i ke

FRANCE
Sta     Dist  EvAz     Phase      Date       Time     TRes  Azim  AzRes  Slow  SRes Def   SNR       Amp   Per   Mag1   Mag2       ID
MBDF  000.15 108.0 m E Pg      2012/07/28 06:54:03.7  -0.1                          T                                        5041559
MBDF  000.15 108.0 m E Sg      2012/07/28 06:54:05.9  -0.1                          T                5.8  .21        Md 1.4  5041560
ORIF  000.51 286.7 m E Pg      2012/07/28 06:54:10.4   0.1                          T                                        5041557
ORIF  000.51 286.7 m E Sg      2012/07/28 06:54:16.9  -0.1                          T                3.0  .28        Md 1.4  5041558

.
