EVENT     279998
    Date      Time       Latitude Longitude    Depth    Ndef Nsta Gap    Mag1  N    Mag2  N    Mag3  N   Author         ID
       rms   OT_Error      Smajor Sminor Az        Err   mdist  Mdist     Err        Err        Err      Quality

2012/07/20 20:51:35.1     44.2993   15.4446      2.0      44   10 110  Ml 3.1  8                         bulletin    280098
                                                                                                         _ldg
      0.47   +-  0.10       3.3    2.2    4.50 +-  0.0    1.21   7.71   +-0.2                            m i ke

NORTHWESTERN BALKAN PEN.
Sta     Dist  EvAz     Phase      Date       Time     TRes  Azim  AzRes  Slow  SRes Def   SNR       Amp   Per   Mag1   Mag2       ID
PGF   005.01 251.8 m E Pn      2012/07/20 20:52:49.2  -0.1                          T                                        5036100
SBF   005.79 268.5 m E Pn      2012/07/20 20:52:59.7  -0.1                          T                                        5031987
SBF   005.79 268.5 m E Sn      2012/07/20 20:54:02.6  -0.3                          T               10.2  .59 Ml 3.3         5031986
MBDF  006.22 277.0 m E Pn      2012/07/20 20:53:05.4  -0.4                          T                                        5031983
MBDF  006.22 277.0 m E Sn      2012/07/20 20:54:12.9  -0.3                          T                7.3  .65 Ml 3.2         5031985
LPG   006.29 284.0 m E Pn      2012/07/20 20:53:07.5   0.6                          T                                        5036099
LPG   006.29 284.0 m E Sn      2012/07/20 20:54:15.3   0.2                          T               16.0  .92 Ml 3.4         5036095
FRF   006.40 266.4 m E Pn      2012/07/20 20:53:07.6  -0.4                          T                                        5031989
FRF   006.40 266.4 m E Sn      2012/07/20 20:54:17.8   0.4                          T                                        5036732
LPL   006.31 284.2 m E Pn      2012/07/20 20:53:07.7   0.6                          T                                        5031981
LPL   006.31 284.2 m E Sn      2012/07/20 20:54:16.2   0.7                          T                4.6  .53 Ml 3.1         5031982
LMR   006.54 264.6 m E Pn      2012/07/20 20:53:09.5  -0.4                          T                                        5031988
LMR   006.54 264.6 m E Sn      2012/07/20 20:54:20.9   0.2                          T                1.2  .33 Ml 2.8         5036731
ORIF  006.86 278.5 m E Pn      2012/07/20 20:53:14.9   0.5                          T                                        5031984
ORIF  006.86 278.5 m E Sn      2012/07/20 20:54:28.3  -0.1                          T                2.0  .39 Ml 2.9         5036096
SMRF  007.11 270.8 m E Pn      2012/07/20 20:53:18.1   0.3                          T                                        5036101
VIVF  007.71 277.9 m E Pn      2012/07/20 20:53:25.8  -0.2                          T                                        5036102
VIVF  007.71 277.9 m E Sn      2012/07/20 20:54:48.6  -0.2                          T                 .7  .29 Ml 2.8         5036094

.
EVENT     279995
    Date      Time       Latitude Longitude    Depth    Ndef Nsta Gap    Mag1  N    Mag2  N    Mag3  N   Author         ID
       rms   OT_Error      Smajor Sminor Az        Err   mdist  Mdist     Err        Err        Err      Quality

2012/07/20 21:24:16.4     40.1888    -.9235      2.0      83    5 060  Ml 2.4  5  Md 2.7  2              bulletin    280095
                                                                                                         _ldg
      0.70   +-  0.07       1.9    1.1  126.33 +-  0.0    0.39   5.22   +-0.2      +-0.0                 m i ke

SPAIN
Sta     Dist  EvAz     Phase      Date       Time     TRes  Azim  AzRes  Slow  SRes Def   SNR       Amp   Per   Mag1   Mag2       ID
ETSF  002.72 005.6 m E Pn      2012/07/20 21:24:59.7   0.3                          T                                        5036835
ETSF  002.72 005.6 m E Pg      2012/07/20 21:25:07.3   0.3                          T                                        5036834
ETSF  002.72 005.6 m E Sn      2012/07/20 21:25:29.6  -1.3                          T                                        5036836
ETSF  002.72 005.6 m E Sg      2012/07/20 21:25:41.9  -0.1                          T                2.1  .25 Ml 2.3 Md 2.6  5036837
EPF   002.99 018.0 m E Pn      2012/07/20 21:25:03.6   0.6                          T                                        5036833
SJPF  002.93 355.7 m E Pn      2012/07/20 21:25:03.6   1.5                          T                                        5036840
SJPF  002.93 355.7 m E Pg      2012/07/20 21:25:10.4  -0.3                          T                                        5036839
EPF   002.99 018.0 m E Pg      2012/07/20 21:25:11.0  -1.0                          T                                        5036832
SJPF  002.93 355.7 m E Sn      2012/07/20 21:25:36.1   0.3                          T                                        5036838
EPF   002.99 018.0 m E Sn      2012/07/20 21:25:37.5   0.1                          T                                        5036831
SJPF  002.93 355.7 m E Sg      2012/07/20 21:25:48.0  -0.5                          T                1.9  .29 Ml 2.2         5036830
EPF   002.99 018.0 m E Sg      2012/07/20 21:25:48.5  -1.9                          T                4.2  .24 Ml 2.7 Md 2.7  5036829
MTLF  003.93 035.7 m E Pn      2012/07/20 21:25:16.6   0.9                          T                                        5036827
MTLF  003.93 035.7 m E Pg      2012/07/20 21:25:29.0  -0.1                          T                                        5036826
MTLF  003.93 035.7 m E Sg      2012/07/20 21:26:20.3   0.7                          T                2.5  .44 Ml 2.4         5036828
CAF   005.22 024.0 m E Pn      2012/07/20 21:25:33.2  -0.2                          T                                        5036822
CAF   005.22 024.0 m E Pg      2012/07/20 21:25:52.5  -0.5                          T                                        5036821

.
EVENT     279858
    Date      Time       Latitude Longitude    Depth    Ndef Nsta Gap    Mag1  N    Mag2  N    Mag3  N   Author         ID
       rms   OT_Error      Smajor Sminor Az        Err   mdist  Mdist     Err        Err        Err      Quality

2012/07/20 21:29:26.2     43.8443    8.6133     10.0 f    54   11 090  Ml 2.7 11  Md 2.8  2              bulletin    279958
                                                                                                         _ldg
      0.75   +-  0.14       2.8    2.2  177.54 +-  0.0    0.39   3.44   +-0.2      +-0.3                 m i ke

CORSICA, FRANCE
Sta     Dist  EvAz     Phase      Date       Time     TRes  Azim  AzRes  Slow  SRes Def   SNR       Amp   Per   Mag1   Mag2       ID
SBF   000.85 271.7 m E Pg      2012/07/20 21:29:42.5   0.1                          T                                        5030785
SBF   000.85 271.7 m E Sg      2012/07/20 21:29:53.6   0.1                          T              186.7  .20        Md 3.0  5030782
PGF   001.33 167.6 m E Pn      2012/07/20 21:29:48.6  -0.8                          T                                        5030865
PGF   001.33 167.6 m E Sn      2012/07/20 21:30:05.7  -0.3                          T                5.4  .22 Ml 2.6 Md 2.6  5030860
FRF   001.45 259.4 m E Pn      2012/07/20 21:29:50.5  -0.5                          T                                        5036877
FRF   001.45 259.4 m E Sn      2012/07/20 21:30:07.8  -1.1                          T                                        5036111
FRF   001.45 259.4 m E Sg      2012/07/20 21:30:12.1  -0.1                          T               15.6  .34 Ml 2.7         5036878
LMR   001.61 252.3 m E Pn      2012/07/20 21:29:52.4  -0.7                          T                                        5036876
LMR   001.61 252.3 m E Pg      2012/07/20 21:29:56.5   0.2                          T                                        5036875
LMR   001.61 252.3 m E Sn      2012/07/20 21:30:11.9  -0.8                          T               12.8  .44 Ml 2.6         5030859
MBDF  001.59 304.3 m E Pn      2012/07/20 21:29:53.6   0.6                          T                                        5030780
MBDF  001.59 304.3 m E Pg      2012/07/20 21:29:55.9  -0.1                          T                                        5036882
MBDF  001.59 304.3 m E Sg      2012/07/20 21:30:16.2  -0.5                          T               33.6  .38 Ml 3.0         5036881
SMRF  002.20 274.5 m E Pn      2012/07/20 21:30:03.0   1.9                          T                                        5036885
SMRF  002.20 274.5 m E Pg      2012/07/20 21:30:08.1   0.9                          T                                        5036884
SMRF  002.20 274.5 m E Sg      2012/07/20 21:30:36.4   0.9                          T               28.9  .38 Ml 3.1         5036110
LPG   002.12 321.9 m E Pg      2012/07/20 21:30:05.1  -1.0                          T                                        5036108
LPG   002.12 321.9 m E Sg      2012/07/20 21:30:32.6  -0.7                          T                7.5  .42 Ml 2.5         5036879
LPL   002.14 321.9 m E Pg      2012/07/20 21:30:05.2  -1.2                          T                                        5036109
LPL   002.14 321.9 m E Sg      2012/07/20 21:30:34.0   0.0                          T                7.3  .34 Ml 2.6         5036880
ORIF  002.23 299.7 m E Pg      2012/07/20 21:30:07.6  -0.3                          T                                        5036883
ORIF  002.23 299.7 m E Sg      2012/07/20 21:30:37.9   1.2                          T               14.7  .58 Ml 2.7         5036874
VIVF  003.00 291.1 m E Pn      2012/07/20 21:30:14.1   2.0                          T                                        5030864
VIVF  003.00 291.1 m E Sn      2012/07/20 21:30:48.4   2.4                          T                                        5036107
VIVF  003.00 291.1 m E Sg      2012/07/20 21:31:00.9   0.4                          T                3.7  .54 Ml 2.3         5036105
LASF  003.44 275.5 m E Pn      2012/07/20 21:30:18.1   0.1                          T                                        5030863

.
EVENT     279996
    Date      Time       Latitude Longitude    Depth    Ndef Nsta Gap    Mag1  N    Mag2  N    Mag3  N   Author         ID
       rms   OT_Error      Smajor Sminor Az        Err   mdist  Mdist     Err        Err        Err      Quality

2012/07/20 21:47:24.9     43.8841    8.6217     10.0 f    22    5 192  Ml 1.6  4  Md 1.9  3              bulletin    280096
                                                                                                         _ldg
      0.53   +-  0.18       4.3    2.3   58.04 +-  0.0    0.36   1.63   +-0.4      +-0.1                 m i ke

CORSICA, FRANCE
Sta     Dist  EvAz     Phase      Date       Time     TRes  Azim  AzRes  Slow  SRes Def   SNR       Amp   Per   Mag1   Mag2       ID
SBF   000.86 269.0 m E Pg      2012/07/20 21:47:40.4  -0.8                          T                                        5036133
SBF   000.86 269.0 m E Sg      2012/07/20 21:47:51.7  -0.7                          T                6.1  .21 Ml 2.2 Md 1.8  5036134
PGF   001.36 168.2 m E Pn      2012/07/20 21:47:48.4   0.0                          T                                        5036130
PGF   001.36 168.2 m E Sn      2012/07/20 21:48:05.0  -0.5                          T                 .3  .17 Ml 1.5 Md 1.9  5036129
FRF   001.47 258.0 m E Pn      2012/07/20 21:47:50.0   0.2                          T                                        5036132
FRF   001.47 258.0 m E Sn      2012/07/20 21:48:08.8   0.9                          T                                Md 2.0  5036131
MBDF  001.57 303.0 m E Pn      2012/07/20 21:47:51.9   0.6                          T                                        5036126
MBDF  001.57 303.0 m E Sn      2012/07/20 21:48:12.0   1.4                          T                 .6  .26 Ml 1.4         5036125
LMR   001.63 251.0 m E Pn      2012/07/20 21:47:52.3   0.4                          T                                        5036128
LMR   001.63 251.0 m E Sn      2012/07/20 21:48:12.0   0.3                          T                 .3  .20 Ml 1.2         5036127

.
EVENT     279997
    Date      Time       Latitude Longitude    Depth    Ndef Nsta Gap    Mag1  N    Mag2  N    Mag3  N   Author         ID
       rms   OT_Error      Smajor Sminor Az        Err   mdist  Mdist     Err        Err        Err      Quality

2012/07/20 23:05:47.3     44.0777    6.6979      2.0      25   11 107  Ml 1.4  5  Md 1.7  3              bulletin    280097
                                                                                                         _ldg
      0.27   +-  0.03        .9     .6   73.58 +-  0.0    0.52   2.27   +-0.3      +-0.1                 m i ke

FRANCE
Sta     Dist  EvAz     Phase      Date       Time     TRes  Azim  AzRes  Slow  SRes Def   SNR       Amp   Per   Mag1   Mag2       ID
FRF   000.52 184.1 m E Pg      2012/07/20 23:05:56.9  -0.3                          T                                        5036155
FRF   000.52 184.1 m E Sg      2012/07/20 23:06:04.0  -0.1                          T                3.4  .31        Md 1.7  5036150
FRF   000.52 184.1 m E Sn      2012/07/20 23:06:08.1   0.2                          T                                        5036158
SBF   000.57 111.7 m E Pg      2012/07/20 23:05:58.4   0.1                          T                                        5036153
SBF   000.57 111.7 m E Sg      2012/07/20 23:06:06.1   0.2                          T                1.9  .19        Md 1.6  5036146
MBDF  000.65 004.6 m E Pg      2012/07/20 23:05:59.8   0.0                          T                                        5036151
MBDF  000.65 004.6 m E Pn      2012/07/20 23:06:02.5   0.3                          T                                        5036156
MBDF  000.65 004.6 m E Sg      2012/07/20 23:06:08.2  -0.2                          T                1.2  .22                5036147
LMR   000.76 190.5 m E Pg      2012/07/20 23:06:00.9  -0.7                          T                                        5036154
LMR   000.76 190.5 m E Pn      2012/07/20 23:06:03.4   0.0                          T                                        5036157
LMR   000.76 190.5 m E Sg      2012/07/20 23:06:11.5   0.1                          T                1.5  .18        Md 1.8  5036149
SMRF  000.82 263.2 m E Pg      2012/07/20 23:06:03.0   0.3                          T                                        5036152
SMRF  000.82 263.2 m E Sg      2012/07/20 23:06:13.5   0.1                          T                1.6  .24                5036148
ORIF  001.02 325.4 m E Pn      2012/07/20 23:06:07.2   0.0                          T                                        5036144
ORIF  001.02 325.4 m E Sg      2012/07/20 23:06:19.9  -0.1                          T                1.2  .30 Ml 1.4         5036888
LPG   001.42 001.5 m E Pn      2012/07/20 23:06:12.8   0.0                          T                                        5036140
LPG   001.42 001.5 m E Sn      2012/07/20 23:06:31.0   0.0                          T                 .4  .21 Ml 1.3         5036139
LPL   001.44 001.0 m E Pn      2012/07/20 23:06:13.0   0.0                          T                                        5036145
LPL   001.44 001.0 m E Sn      2012/07/20 23:06:31.2  -0.1                          T                 .5  .26 Ml 1.3         5036138
VIVF  001.65 298.9 m E Pn      2012/07/20 23:06:15.6   0.0                          T                                        5036143
LASF  002.05 270.9 m E Pn      2012/07/20 23:06:21.0  -0.1                          T                                        5036137
PGF   002.27 131.5 m E Pn      2012/07/20 23:06:24.1  -0.1                          T                                        5036142
PGF   002.27 131.5 m E Sn      2012/07/20 23:06:51.2   0.1                          T                 .5  .22 Ml 1.9         5036141

.
EVENT     280062
    Date      Time       Latitude Longitude    Depth    Ndef Nsta Gap    Mag1  N    Mag2  N    Mag3  N   Author         ID
       rms   OT_Error      Smajor Sminor Az        Err   mdist  Mdist     Err        Err        Err      Quality

2012/07/21 00:56:59.4     43.0502    -.6825      2.0       6    3 171             Md 1.3  3              bulletin    280162
                                                                                                         _ldg
      0.13   +-  0.06       2.3    1.0   16.20 +-  0.0    0.18   0.75              +-0.1                 m i ke

PYRENEES
Sta     Dist  EvAz     Phase      Date       Time     TRes  Azim  AzRes  Slow  SRes Def   SNR       Amp   Per   Mag1   Mag2       ID
ETSF  000.18 149.1 m E Pg      2012/07/21 00:57:03.0  -0.1                          T                                        5032583
ETSF  000.18 149.1 m E Sg      2012/07/21 00:57:05.5  -0.1                          T               15.3  .26        Md 1.3  5032584
SJPF  000.40 279.2 m E Pg      2012/07/21 00:57:06.9  -0.2                          T                                        5032582
SJPF  000.40 279.2 m E Sg      2012/07/21 00:57:12.6   0.1                          T                2.5  .26        Md 1.2  5032581
EPF   000.75 091.2 m E Pg      2012/07/21 00:57:13.6   0.0                          T                                        5032579
EPF   000.75 091.2 m E Sg      2012/07/21 00:57:23.2  -0.2                          T                1.0  .30        Md 1.2  5032580

.
