EVENT     274604
    Date      Time       Latitude Longitude    Depth    Ndef Nsta Gap    Mag1  N    Mag2  N    Mag3  N   Author         ID
       rms   OT_Error      Smajor Sminor Az        Err   mdist  Mdist     Err        Err        Err      Quality

2012/04/27 01:45:46.0     43.0638    -.8773      2.0      16    3 151  Ml 1.3  1  Md 1.3  2              bulletin    274704
                                                                                                         _ldg
      0.28   +-  0.08       2.3    1.0    2.76 +-  0.0    0.13   1.37   +-         +-0.2                 m i ke

PYRENEES
Sta     Dist  EvAz     Phase      Date       Time     TRes  Azim  AzRes  Slow  SRes Def   SNR       Amp   Per   Mag1   Mag2       ID
SJPF  000.26 281.1 m E Pg      2012/04/27 01:45:51.4   0.3                          T                                        4924501
SJPF  000.26 281.1 m E Sg      2012/04/27 01:45:54.8   0.2                          T                5.0  .16        Md 1.4  4924499
ETSF  000.29 125.2 m E Pg      2012/04/27 01:45:51.6  -0.1                          T                                        4924502
ETSF  000.29 125.2 m E Sg      2012/04/27 01:45:55.8   0.2                          T               13.7  .24        Md 1.2  4924500
EPF   000.89 091.7 m E Pg      2012/04/27 01:46:02.9   0.1                          T                                        4924498
EPF   000.89 091.7 m E Sg      2012/04/27 01:46:14.2  -0.2                          T                1.0  .28 Ml 1.3         4924497

.
EVENT     275081
    Date      Time       Latitude Longitude    Depth    Ndef Nsta Gap    Mag1  N    Mag2  N    Mag3  N   Author         ID
       rms   OT_Error      Smajor Sminor Az        Err   mdist  Mdist     Err        Err        Err      Quality

2012/04/27 01:57:53.8     45.7743    7.5520      2.0      16    3 087  Ml 1.8  1  Md 1.7  3              bulletin    275181
                                                                                                         _ldg
      0.21   +-  0.04        .9     .7  132.75 +-  0.0    0.17   1.18   +-         +-0.1                 m i ke

NORTHERN ITALY
Sta     Dist  EvAz     Phase      Date       Time     TRes  Azim  AzRes  Slow  SRes Def   SNR       Amp   Per   Mag1   Mag2       ID
LPG   000.63 244.1 m E Pg      2012/04/27 01:58:05.7  -0.3                          T                                        4932548
LPG   000.63 244.1 m E Sg      2012/04/27 01:58:14.1  -0.2                          T                 .8  .14        Md 1.7  4932549
LPL   000.63 246.1 m E Pg      2012/04/27 01:58:05.9  -0.1                          T                                        4932551
LPL   000.63 246.1 m E Sg      2012/04/27 01:58:14.0  -0.3                          T                1.4  .30        Md 1.7  4932550
MBDF  001.18 208.0 m E Pg      2012/04/27 01:58:16.2   0.1                          T                                        4932546
MBDF  001.18 208.0 m E Sg      2012/04/27 01:58:31.4  -0.1                          T                3.6  .47 Ml 1.8 Md 1.8  4932547

.
EVENT     274603
    Date      Time       Latitude Longitude    Depth    Ndef Nsta Gap    Mag1  N    Mag2  N    Mag3  N   Author         ID
       rms   OT_Error      Smajor Sminor Az        Err   mdist  Mdist     Err        Err        Err      Quality

2012/04/27 02:09:20.8     47.0072   10.0413      2.0      40   10 097  Ml 2.5  7  Md 2.8  4              bulletin    274703
                                                                                                         _ldg
      0.99   +-  0.22       5.8    3.6   42.76 +-  0.0    0.25   4.23   +-0.3      +-0.0                 m i ke

AUSTRIA
Sta     Dist  EvAz     Phase      Date       Time     TRes  Azim  AzRes  Slow  SRes Def   SNR       Amp   Per   Mag1   Mag2       ID
HINF  002.31 291.7 m E Pn      2012/04/27 02:09:58.2   0.0                          T                                        4934820
HINF  002.31 291.7 m E Pg      2012/04/27 02:10:03.5  -0.3                          T                                        4924508
HINF  002.31 291.7 m E Sn      2012/04/27 02:10:25.3  -0.2                          T                                        4934819
HINF  002.31 291.7 m E Sg      2012/04/27 02:10:33.3  -0.2                          T                7.1  .28 Ml 2.7 Md 2.8  4924503
CDF   002.34 308.0 m E Pn      2012/04/27 02:09:58.8   0.3                          T                                        4924510
CDF   002.34 308.0 m E Pg      2012/04/27 02:10:04.4   0.0                          T                                        4924506
CDF   002.34 308.0 m E Sg      2012/04/27 02:10:34.5   0.1                          T               15.1  .38 Ml 3.0 Md 2.8  4924505
HAU   002.70 293.1 m E Pn      2012/04/27 02:10:03.8   0.5                          T                                        4924509
HAU   002.70 293.1 m E Pg      2012/04/27 02:10:10.9   0.0                          T                                        4925093
HAU   002.70 293.1 m E Sg      2012/04/27 02:10:45.3  -0.2                          T               11.7  .32 Ml 2.7 Md 2.8  4924504
LPL   002.74 238.2 m E Pg      2012/04/27 02:10:11.2  -0.6                          T                                        4925091
CABF  002.74 263.1 m E Pg      2012/04/27 02:10:11.6  -0.2                          T                                        4924507
CABF  002.74 263.1 m E Sg      2012/04/27 02:10:47.5   0.4                          T                1.3  .18 Ml 2.2 Md 2.7  4925092
LPG   002.74 237.7 m E Pg      2012/04/27 02:10:11.8  -0.2                          T                                        4925090
PAGF  003.30 299.6 m E Pn      2012/04/27 02:10:12.0   0.5                          T                                        4925096
PAGF  003.30 299.6 m E Sg      2012/04/27 02:11:04.3   0.0                          T                 .8  .23 Ml 2.0         4925097
SFTF  003.59 291.3 m E Pn      2012/04/27 02:10:15.9   0.3                          T                                        4925094
SFTF  003.59 291.3 m E Sg      2012/04/27 02:11:13.7   0.3                          T                1.9  .29 Ml 2.4         4925095
LOR   004.23 275.8 m E Pg      2012/04/27 02:10:38.8  -0.2                          T                                        4925087
LOR   004.23 275.8 m E Sg      2012/04/27 02:11:33.4   0.1                          T                1.8  .21 Ml 2.6         4925089
MEZF  003.68 295.8 m E Sg      2012/04/27 02:11:16.6   0.3                          T                                        4934818

.
EVENT     274605
    Date      Time       Latitude Longitude    Depth    Ndef Nsta Gap    Mag1  N    Mag2  N    Mag3  N   Author         ID
       rms   OT_Error      Smajor Sminor Az        Err   mdist  Mdist     Err        Err        Err      Quality

2012/04/27 03:49:44.2     47.4643   -3.6817      8.0 f    11    3 333  Ml 1.9  2  Md 1.8  1              bulletin    274705
                                                                                                         _ldg
      0.84   +-  0.58      11.1    9.5  114.79 +-  0.0    0.57   1.09   +-0.2      +-                    m i ke

FRANCE
Sta     Dist  EvAz     Phase      Date       Time     TRes  Azim  AzRes  Slow  SRes Def   SNR       Amp   Per   Mag1   Mag2       ID
QUIF  000.57 037.4 m E Pg      2012/04/27 03:49:55.3   0.1                          T                                        4937410
QUIF  000.57 037.4 m E Pn      2012/04/27 03:49:57.0  -0.2                          T                                        4924516
QUIF  000.57 037.4 m E Sg      2012/04/27 03:50:03.0   0.3                          T               11.4  .20        Md 1.8  4924513
ROSF  000.91 017.3 m E Pg      2012/04/27 03:50:01.0  -0.5                          T                                        4924514
ROSF  000.91 017.3 m E Pn      2012/04/27 03:50:02.5   0.7                          T                                        4934823
ROSF  000.91 017.3 m E Sg      2012/04/27 03:50:13.3  -0.1                          T                3.3  .21 Ml 2.0         4924511
SGMF  001.09 043.4 m E Pn      2012/04/27 03:50:03.7  -0.5                          T                                        4924515
SGMF  001.09 043.4 m E Pg      2012/04/27 03:50:05.3   0.6                          T                                        4937409
SGMF  001.09 043.4 m E Sg      2012/04/27 03:50:19.5   0.6                          T                1.7  .21 Ml 1.8         4924512

.
EVENT     274610
    Date      Time       Latitude Longitude    Depth    Ndef Nsta Gap    Mag1  N    Mag2  N    Mag3  N   Author         ID
       rms   OT_Error      Smajor Sminor Az        Err   mdist  Mdist     Err        Err        Err      Quality

2012/04/27 04:18:05.0     45.4174    6.2708      2.0      10    4 223             Md 1.5  2              bulletin    274710
                                                                                                         _ldg
      0.95   +-  0.28       6.8    2.7  141.53 +-  0.0    0.34   0.78              +-0.3                 m i ke

FRANCE
Sta     Dist  EvAz     Phase      Date       Time     TRes  Azim  AzRes  Slow  SRes Def   SNR       Amp   Per   Mag1   Mag2       ID
LPL   000.34 072.9 m E Pg      2012/04/27 04:18:12.0   0.1                          T                                        4924694
LPL   000.34 072.9 m E Sg      2012/04/27 04:18:15.9  -0.5                          T                1.5  .23        Md 1.3  4924641
LPG   000.35 076.5 m E Pg      2012/04/27 04:18:12.2   0.1                          T                                        4924643
LPG   000.35 076.5 m E Sg      2012/04/27 04:18:15.9  -0.9                          T                1.7  .19        Md 1.7  4924642
ORIF  000.57 209.1 m E Pg      2012/04/27 04:18:16.0   0.0                          T                                        4924640
ORIF  000.57 209.1 m E Sg      2012/04/27 04:18:22.7  -0.8                          T                4.2  .28                4924639
MBDF  000.78 152.6 m E Pg      2012/04/27 04:18:20.2   0.4                          T                                        4924637
MBDF  000.78 152.6 m E Sg      2012/04/27 04:18:29.3  -0.7                          T                 .9  .21                4924638

.
EVENT     274633
    Date      Time       Latitude Longitude    Depth    Ndef Nsta Gap    Mag1  N    Mag2  N    Mag3  N   Author         ID
       rms   OT_Error      Smajor Sminor Az        Err   mdist  Mdist     Err        Err        Err      Quality

2012/04/27 08:25:58.3     44.0532    7.0983      2.0      24    5 067  Ml 1.7  1  Md 1.4  2              bulletin    274733
                                                                                                         _ldg
      0.44   +-  0.09       1.7    1.5   96.49 +-  0.0    0.13   1.35   +-         +-0.1                 m i ke

NORTHERN ITALY
Sta     Dist  EvAz     Phase      Date       Time     TRes  Azim  AzRes  Slow  SRes Def   SNR       Amp   Per   Mag1   Mag2       ID
SBF   000.31 127.9 m E Pg      2012/04/27 08:26:04.3  -0.1                          T                                        4934990
SBF   000.31 127.9 m E Sg      2012/04/27 08:26:08.7   0.2                          T               39.4  .64        Md 1.5  4925008
FRF   000.59 213.7 m E Pg      2012/04/27 08:26:09.2  -0.3                          T                                        4925002
FRF   000.59 213.7 m E Sg      2012/04/27 08:26:16.5  -0.8                          T                6.0  .31        Md 1.3  4934989
MBDF  000.71 340.9 m E Pg      2012/04/27 08:26:11.7  -0.2                          T                                        4925005
MBDF  000.71 340.9 m E Sg      2012/04/27 08:26:20.4  -0.9                          T                3.0  .25                4925004
LMR   000.84 210.9 m E Pg      2012/04/27 08:26:13.3  -0.7                          T                                        4925011
LMR   000.84 210.9 m E Sg      2012/04/27 08:26:23.9  -1.0                          T                2.5  .28                4925010
SMRF  001.10 266.5 m E Pg      2012/04/27 08:26:19.1   0.1                          T                                        4925007
SMRF  001.10 266.5 m E Sg      2012/04/27 08:26:34.3   1.1                          T                1.5  .20 Ml 1.7         4925006

.
EVENT     274628
    Date      Time       Latitude Longitude    Depth    Ndef Nsta Gap    Mag1  N    Mag2  N    Mag3  N   Author         ID
       rms   OT_Error      Smajor Sminor Az        Err   mdist  Mdist     Err        Err        Err      Quality

2012/04/27 08:29:31.7     48.6257   -2.8607       .0 f    13    6 220  Ml 2.2  3  Md 2.0  3              bulletin    274728
                                                                                                         _ldg
      0.27   +-  0.14       3.1    1.4  159.58 +-  0.0    0.40   1.82   +-0.2      +-0.1                 m i km

FRANCE
Sta     Dist  EvAz     Phase      Date       Time     TRes  Azim  AzRes  Slow  SRes Def   SNR       Amp   Per   Mag1   Mag2       ID
ROSF  000.40 223.7 m E Pg      2012/04/27 08:29:39.4  -0.2                          T                                Md 2.0  4924972
ROSF  000.40 223.7 m E Sg      2012/04/27 08:29:44.9  -0.1                          T                5.7  .23                4924969
SGMF  000.42 151.3 m E Pg      2012/04/27 08:29:39.9  -0.1                          T                                Md 2.1  4924971
SGMF  000.42 151.3 m E Sg      2012/04/27 08:29:45.2  -0.6                          T                5.3  .22                4924968
QUIF  000.74 196.1 m E Pg      2012/04/27 08:29:46.2   0.4                          T                                Md 2.1  4924970
QUIF  000.74 196.1 m E Pn      2012/04/27 08:29:48.1   0.2                          T                                        4934992
QUIF  000.74 196.1 m E Sg      2012/04/27 08:29:55.7   0.0                          T                3.6  .27                4924967
FLN   001.58 084.1 m E Pg      2012/04/27 08:30:01.1  -0.2                          T                                        4935034
FLN   001.58 084.1 m E Sg      2012/04/27 08:30:22.3   0.3                          T                3.6  .22 Ml 2.1         4935035
GRR   001.35 099.4 m E Sg      2012/04/27 08:30:14.8   0.0                          T                5.3  .31 Ml 2.1         4924965
LDF   001.82 090.0 m E Sg      2012/04/27 08:30:29.8   0.5                          T                6.7  .38 Ml 2.4         4934991

.
EVENT     275074
    Date      Time       Latitude Longitude    Depth    Ndef Nsta Gap    Mag1  N    Mag2  N    Mag3  N   Author         ID
       rms   OT_Error      Smajor Sminor Az        Err   mdist  Mdist     Err        Err        Err      Quality

2012/04/27 09:12:00.0     47.1728    3.7574       .0 f    12    5 158  Ml 1.8  1  Md 1.1  2              bulletin    275174
                                                                                                         _ldg
      1.49   +-  0.12       1.8    1.2   35.66 +-  0.0    0.12   0.88   +-         +-0.1                 m i km

FRANCE
Sta     Dist  EvAz     Phase      Date       Time     TRes  Azim  AzRes  Slow  SRes Def   SNR       Amp   Per   Mag1   Mag2       ID
LOR   000.12 035.9 m E Pg      2012/04/27 09:12:02.7  -0.1 219.5  3.6               T                                        4932467
LOR   000.12 035.9 m E Sg      2012/04/27 09:12:04.8   0.0 204.3  -11.6             T              126.4  .62        Md 1.1  4932466
SSF   000.20 237.1 m E Pg      2012/04/27 09:12:04.3  -0.1                          T                                        4932465
SSF   000.20 237.1 m E Sg      2012/04/27 09:12:07.7   0.3                          T              122.3  .54        Md 1.2  4932464
AVF   000.47 216.1 m E Pg      2012/04/27 09:12:09.5   0.2                          T                                        4932472
AVF   000.47 216.1 m E Sg      2012/04/27 09:12:15.5  -0.3                          T               45.2 1.32                4932468
SMF   000.53 173.8 m E Pg      2012/04/27 09:12:10.4   0.0                          T                                        4932471
SMF   000.53 173.8 m E Sg      2012/04/27 09:12:17.3  -0.3                          T                                        4932469
BGF   000.88 225.8 m E Pg      2012/04/27 09:12:16.8   0.0                          T                                        4932470
BGF   000.88 225.8 m E Sn      2012/04/27 09:12:31.1   0.0                          T                3.2  .26 Ml 1.8         4937435

.
