EVENT     282810
    Date      Time       Latitude Longitude    Depth    Ndef Nsta Gap    Mag1  N    Mag2  N    Mag3  N   Author         ID
       rms   OT_Error      Smajor Sminor Az        Err   mdist  Mdist     Err        Err        Err      Quality

2012/09/07 16:57:32.5     44.4271    7.3954     12.0 f    35    8 132  Ml 1.5  7  Md 1.5  2              bulletin    282910
                                                                                                         _ldg
      0.23   +-  0.04       1.0     .6   62.81 +-  0.0    0.13   1.38   +-0.1      +-0.1                 m i ke

NORTHERN ITALY
Sta     Dist  EvAz     Phase      Date       Time     TRes  Azim  AzRes  Slow  SRes Def   SNR       Amp   Per   Mag1   Mag2       ID
MBDF  000.54 304.1 m E Pg      2012/09/07 16:57:43.0  -0.1                          T                                        5065338
MBDF  000.54 304.1 m E Sg      2012/09/07 16:57:50.3   0.1                          T                4.4  .34        Md 1.5  5065337
SBF   000.56 177.1 m E Pg      2012/09/07 16:57:43.4  -0.1                          T                                        5065340
SBF   000.56 177.1 m E Sg      2012/09/07 16:57:50.9  -0.1                          T                5.4  .20        Md 1.6  5065339
FRF   001.02 212.2 m E Pg      2012/09/07 16:57:51.9   0.2                          T                                        5065334
FRF   001.02 212.2 m E Sg      2012/09/07 16:58:05.4   0.4                          T                1.3  .21 Ml 1.6         5065333
LPG   001.16 337.1 m E Pg      2012/09/07 16:57:54.8   0.1                          T                                        5065330
LPG   001.16 337.1 m E Sg      2012/09/07 16:58:10.0   0.2                          T                1.2  .20 Ml 1.7         5065329
ORIF  001.19 295.0 m E Pg      2012/09/07 16:57:54.8  -0.1                          T                                        5068687
ORIF  001.19 295.0 m E Sg      2012/09/07 16:58:10.6   0.3                          T                1.2  .29 Ml 1.5         5065325
LPL   001.19 336.9 m E Pg      2012/09/07 16:57:54.9  -0.1                          T                                        5065328
LPL   001.19 336.9 m E Sg      2012/09/07 16:58:10.4  -0.1                          T                  1  .30 Ml 1.4         5065327
LMR   001.27 210.7 m E Pg      2012/09/07 16:57:56.1   0.0                          T                                        5068689
LMR   001.27 210.7 m E Sg      2012/09/07 16:58:12.4  -0.3                          T                 .7  .18 Ml 1.6         5065335
SMRF  001.38 251.6 m E Pg      2012/09/07 16:57:58.6   0.2                          T                                        5068688
SMRF  001.38 251.6 m E Sg      2012/09/07 16:58:16.9   0.5                          T                 .7  .28 Ml 1.4         5065331

.
EVENT     282840
    Date      Time       Latitude Longitude    Depth    Ndef Nsta Gap    Mag1  N    Mag2  N    Mag3  N   Author         ID
       rms   OT_Error      Smajor Sminor Az        Err   mdist  Mdist     Err        Err        Err      Quality

2012/09/07 18:10:53.1     36.8357   -3.7144      2.0      51    3 170  Ml 3.5  3                         bulletin    282940
                                                                                                         _ldg
      0.98   +-  0.27       6.6    3.1  173.16 +-  0.0    0.43   6.93   +-0.5                            m i ke

STRAIT OF GIBRALTAR
Sta     Dist  EvAz     Phase      Date       Time     TRes  Azim  AzRes  Slow  SRes Def   SNR       Amp   Per   Mag1   Mag2       ID
ETSF  006.52 020.9 m E Pn      2012/09/07 18:12:28.6   0.7                          T                                        5067087
ETSF  006.52 020.9 m E P       2012/09/07 18:12:32.1  -0.6                          T                                        5067091
ETSF  006.52 020.9 m E Sn      2012/09/07 18:13:38.6   0.1                          T               50.3 1.76 Ml 3.6         5067093
SJPF  006.55 016.2 m E Pn      2012/09/07 18:12:29.5   1.3                          T                                        5067090
SJPF  006.55 016.2 m E P       2012/09/07 18:12:33.2   0.2                          T                                        5067086
SJPF  006.55 016.2 m E Sn      2012/09/07 18:13:39.2   0.1                          T               96.0 1.94 Ml 3.9         5067094
EPF   006.93 025.5 m E Pn      2012/09/07 18:12:34.2   0.8                          T                                        5067085
EPF   006.93 025.5 m E P       2012/09/07 18:12:37.4  -0.9                          T                                        5067084
EPF   006.93 025.5 m E Sn      2012/09/07 18:13:48.1   0.0                          T                1.9  .34 Ml 3.0         5067092

.
EVENT     282805
    Date      Time       Latitude Longitude    Depth    Ndef Nsta Gap    Mag1  N    Mag2  N    Mag3  N   Author         ID
       rms   OT_Error      Smajor Sminor Az        Err   mdist  Mdist     Err        Err        Err      Quality

2012/09/07 23:43:07.6     45.9489    2.7340      7.0 f    51   21 055  Ml 2.3 20  Md 2.3  6              bulletin    282905
                                                                                                         _ldg
      0.79   +-  0.06       1.4    1.0  113.68 +-  0.0    0.50   4.74   +-0.3      +-0.2                 m i ke

FRANCE
Sta     Dist  EvAz     Phase      Date       Time     TRes  Azim  AzRes  Slow  SRes Def   SNR       Amp   Per   Mag1   Mag2       ID
TCF   000.50 313.1 m E Pg      2012/09/07 23:43:17.3   0.1                          T                                        5064999
TCF   000.50 313.1 m E Sg      2012/09/07 23:43:23.6  -0.2                          T                9.8  .22        Md 2.3  5064991
BGF   000.61 007.3 m E Pg      2012/09/07 23:43:19.6   0.3                          T                                        5068701
BGF   000.61 007.3 m E P       2012/09/07 23:43:21.2   0.6                          T                                        5064998
BGF   000.61 007.3 m E Sg      2012/09/07 23:43:27.2  -0.2                          T               39.6  .36        Md 2.3  5064990
AVF   000.94 026.7 m E Pg      2012/09/07 23:43:25.5   0.2                          T                                        5064997
AVF   000.94 026.7 m E Sg      2012/09/07 23:43:37.5  -0.1                          T   001.0       11.7  .18 Ml 2.6 Md 2.2  5065002
AVF   000.94 026.7 m E Sn      2012/09/07 23:43:37.7  -0.9                          T                                        5064989
SMF   001.04 047.4 m E Pg      2012/09/07 23:43:27.3   0.2                          T                                        5064996
SMF   001.04 047.4 m E Sn      2012/09/07 23:43:41.1   0.3                          T   001.0        9.8  .22 Ml 2.5 Md 2.2  5065013
RJF   001.07 233.4 m E Pn      2012/09/07 23:43:27.4   0.0                          T                                        5064995
RJF   001.07 233.4 m E Pg      2012/09/07 23:43:28.0   0.4                          T   001.0                                5065000
RJF   001.07 233.4 m E Sg      2012/09/07 23:43:41.3  -0.2                          T   001.0       10.7  .24 Ml 2.2 Md 2.6  5065001
CAF   001.13 205.0 m E Pn      2012/09/07 23:43:27.9  -0.3                          T                                        5064994
CAF   001.13 205.0 m E Pg      2012/09/07 23:43:29.1   0.4                          T   001.0                                5065003
CAF   001.13 205.0 m E Sg      2012/09/07 23:43:43.0  -0.3                          T   001.0       12.6  .16 Ml 2.8         5065004
HYF   001.32 357.2 m E Pn      2012/09/07 23:43:30.6  -0.2                          T                                        5065022
HYF   001.32 357.2 m E Pg      2012/09/07 23:43:32.3   0.0                          T                                        5068706
HYF   001.32 357.2 m E Sg      2012/09/07 23:43:49.7   0.3                          T                                        5065021
SSF   001.23 025.3 m E Pg      2012/09/07 23:43:30.7   0.1                          T                                        5068709
SSF   001.23 025.3 m E Sn      2012/09/07 23:43:45.8   0.2                          T                8.1  .26 Ml 2.5         5064992
LOR   001.53 030.0 m E Pg      2012/09/07 23:43:36.0  -0.2 214.2  3.3               T                                        5068710
LOR   001.53 030.0 m E Sg      2012/09/07 23:43:55.5  -0.4 198.5  -12.3             T   001.0       10.8  .22 Ml 2.8 Md 2.2  5065011
VIVF  001.75 128.0 m E Pn      2012/09/07 23:43:36.8   0.1                          T   001.0                                5065019
VIVF  001.75 128.0 m E Pg      2012/09/07 23:43:39.5  -0.7                          T                                        5068696
VIVF  001.75 128.0 m E Sg      2012/09/07 23:44:02.6  -0.2                          T   001.0        2.8  .22 Ml 2.3         5065020
LFF   001.73 235.0 m E Pn      2012/09/07 23:43:36.9   0.6                          T                                        5064988
LFF   001.73 235.0 m E Pg      2012/09/07 23:43:39.9   0.1                          T                                        5068699
LFF   001.73 235.0 m E Sg      2012/09/07 23:44:02.2   0.1                          T   001.0        6.7  .32 Ml 2.3         5065008
MFF   002.10 289.1 m E Pn      2012/09/07 23:43:40.9  -0.6                          T                                        5064987
MFF   002.10 289.1 m E Pg      2012/09/07 23:43:46.1  -0.6                          T                                        5068700
MFF   002.10 289.1 m E Sn      2012/09/07 23:44:05.8  -0.4                          T                                        5068705
MFF   002.10 289.1 m E Sg      2012/09/07 23:44:13.3  -0.4                          T   001.0        2.5  .18 Ml 2.5         5065012
LASF  002.04 156.6 m E Pg      2012/09/07 23:43:45.2  -0.2                          T                                        5068697
LASF  002.04 156.6 m E Sg      2012/09/07 23:44:11.9   0.3                          T   001.0        1.7  .34 Ml 1.9         5065007
MTLF  002.63 188.2 m E Pn      2012/09/07 23:43:49.2   0.6                          T                                        5068695
MTLF  002.63 188.2 m E Pg      2012/09/07 23:43:55.7  -0.8                          T                                        5068694
MTLF  002.63 188.2 m E Sg      2012/09/07 23:44:30.7   0.3                          T                1.9  .26 Ml 2.2         5068698
CABF  002.42 072.9 m E Sg      2012/09/07 23:44:24.1   0.4                          T   001.0         .8  .30 Ml 1.7         5065015
SFTF  002.75 034.1 m E Sg      2012/09/07 23:44:33.9  -0.1 217.1  1.4               T                1.2  .21 Ml 2.1         5068708
MEZF  003.00 030.9 m E Sg      2012/09/07 23:44:42.2   0.4 211.6  -1.0              T   001.0        3.4  .39 Ml 2.4         5065017
HINF  003.39 055.0 m E Sg      2012/09/07 23:44:54.0   0.1                          T                1.5  .26 Ml 2.3         5068707
EPF   003.38 211.3 m E Sg      2012/09/07 23:44:54.7   0.9                          T   001.0          1  .22 Ml 2.2         5065005
ETSF  003.86 218.9 m E Sg      2012/09/07 23:45:08.9   0.3                          T   001.0         .7  .30 Ml 2.0         5065016
ROSF  004.74 302.4 m E Sn      2012/09/07 23:45:09.8   0.4                          T   001.0        4.2  .68 Ml 2.6         5065018

.
EVENT     283189
    Date      Time       Latitude Longitude    Depth    Ndef Nsta Gap    Mag1  N    Mag2  N    Mag3  N   Author         ID
       rms   OT_Error      Smajor Sminor Az        Err   mdist  Mdist     Err        Err        Err      Quality

2012/09/08 00:08:14.3     44.8596   11.5516     10.0      31   13 190  Ml 2.4 10                         bulletin    283289
                                                                                                         _ldg
      0.28   +-  0.11       2.3    1.5   77.87 +-  0.0    0.24   5.68   +-0.2                            m i ke

NORTHERN ITALY
Sta     Dist  EvAz     Phase      Date       Time     TRes  Azim  AzRes  Slow  SRes Def   SNR       Amp   Per   Mag1   Mag2       ID
PGF   002.96 219.6 m E Pn      2012/09/08 00:08:59.6  -0.1                          T                                        5068741
SBF   003.12 252.8 m E Pn      2012/09/08 00:09:01.6  -0.1                          T                                        5068742
SBF   003.12 252.8 m E Sn      2012/09/08 00:09:37.2   0.4                          T                3.5  .33 Ml 2.5         5068731
MBDF  003.41 269.4 m E Pn      2012/09/08 00:09:05.8   0.0                          T                                        5068748
MBDF  003.41 269.4 m E Sg      2012/09/08 00:10:02.1   0.7                          T                1.7  .39 Ml 2.2         5068737
LPL   003.47 282.6 m E P       2012/09/08 00:09:08.8  -1.2                          T                                        5068746
LPL   003.47 282.6 m E Sg      2012/09/08 00:10:03.4  -0.1                          T                2.3  .48 Ml 2.2         5068735
LPG   003.45 282.3 m E P       2012/09/08 00:09:09.2  -0.7                          T                                        5068745
LPG   003.45 282.3 m E Sg      2012/09/08 00:10:03.2   0.2                          T                2.8  .48 Ml 2.3         5068734
FRF   003.76 251.5 m E Pn      2012/09/08 00:09:10.7   0.3                          T                                        5068744
FRF   003.76 251.5 m E Sn      2012/09/08 00:09:52.1   0.1                          T                1.4  .34 Ml 2.3         5068733
LMR   003.94 249.0 m E Pn      2012/09/08 00:09:12.6  -0.2                          T                                        5068743
LMR   003.94 249.0 m E Sn      2012/09/08 00:09:56.2  -0.2                          T                 .7  .24 Ml 2.1         5068732
ORIF  004.03 272.8 m E Pn      2012/09/08 00:09:14.6   0.4                          T                                        5068747
ORIF  004.03 272.8 m E Sn      2012/09/08 00:09:58.3  -0.4                          T                2.9  .46 Ml 2.5         5068736
CABF  004.21 296.5 m E Pn      2012/09/08 00:09:16.6   0.0                          T                                        5068750
HINF  004.40 313.9 m E Pn      2012/09/08 00:09:19.2   0.1                          T                                        5068751
HINF  004.40 313.9 m E Sn      2012/09/08 00:10:07.1  -0.2                          T                3.0  .42 Ml 2.6         5068738
CDF   004.61 321.9 m E Pn      2012/09/08 00:09:22.5   0.3                          T                                        5068753
CDF   004.61 321.9 m E Sn      2012/09/08 00:10:12.7   0.0                          T                1.3  .24 Ml 2.6         5068740
HAU   004.78 313.0 m E Pn      2012/09/08 00:09:24.4   0.0                          T                                        5068752
HAU   004.78 313.0 m E Sn      2012/09/08 00:10:16.0  -0.5                          T                1.9  .29 Ml 2.4         5068739
SMF   005.68 291.0 m E Pn      2012/09/08 00:09:36.5  -0.2                          T                                        5068749

.
