EVENT     288350
    Date      Time       Latitude Longitude    Depth    Ndef Nsta Gap    Mag1  N    Mag2  N    Mag3  N   Author         ID
       rms   OT_Error      Smajor Sminor Az        Err   mdist  Mdist     Err        Err        Err      Quality

2012/12/12 07:55:47.2     45.2430    5.9447      4.0 f   190   40 020  Ml 3.2 41  Md 3.3  8              bulletin    288450
                                                                                                         _ldg
      0.70   +-  0.04        .8     .7   42.26 +-  0.0    0.33   7.04   +-0.3      +-0.1                 m i ke

FRANCE
Sta     Dist  EvAz     Phase      Date       Time     TRes  Azim  AzRes  Slow  SRes Def   SNR       Amp   Per   Mag1   Mag2       ID
ORIF  000.33 188.1 m E Pg      2012/12/12 07:55:53.2  -0.5                          T                                        5136956
ORIF  000.33 188.1 m E Sg      2012/12/12 07:55:57.8  -0.4                          T              882.4  .20        Md 3.2  5136943
LPL   000.62 063.5 m E Pg      2012/12/12 07:55:58.9  -0.3                          T                                        5136955
LPL   000.62 063.5 m E Sg      2012/12/12 07:56:06.8  -0.6                          T               93.1  .28        Md 3.1  5136942
LPG   000.62 065.6 m E Pg      2012/12/12 07:55:59.1  -0.3                          T                                        5136954
LPG   000.62 065.6 m E Sg      2012/12/12 07:56:07.1  -0.5                          T              155.4  .30        Md 3.3  5136941
MBDF  000.78 131.0 m E Pg      2012/12/12 07:56:02.1   0.0                          T                                        5136949
MBDF  000.78 131.0 m E P       2012/12/12 07:56:03.5  -0.2                          T                                        5137407
MBDF  000.78 131.0 m E Sg      2012/12/12 07:56:12.0  -0.3                          T              412.1  .26        Md 3.1  5136944
VIVF  000.98 247.2 m E Pn      2012/12/12 07:56:06.0  -0.2                          T                                        5136948
VIVF  000.98 247.2 m E P       2012/12/12 07:56:07.4  -0.2                          T                                        5137408
VIVF  000.98 247.2 m E Sg      2012/12/12 07:56:18.4   0.0                          T              203.1  .20 Ml 3.8 Md 3.4  5136945
SMRF  001.29 191.9 m E P       2012/12/12 07:56:11.9  -0.3                          T                                        5137406
SMRF  001.29 191.9 m E Sg      2012/12/12 07:56:27.7  -0.5                          T               50.5  .36 Ml 3.1 Md 3.2  5136940
CABF  001.37 004.1 m E Pg      2012/12/12 07:56:12.6  -0.4                          T                                        5136921
CABF  001.37 004.1 m E Sg      2012/12/12 07:56:30.3  -0.4                          T               69.5  .21 Ml 3.5 Md 3.3  5136920
FRF   001.76 163.1 m E P       2012/12/12 07:56:18.4  -0.3                          T                                        5137405
FRF   001.76 163.1 m E Pg      2012/12/12 07:56:20.6   0.7                          T                                        5136952
FRF   001.76 163.1 m E Sg      2012/12/12 07:56:41.8  -0.7                          T               56.2  .22 Ml 3.6         5136939
SBF   001.74 141.8 m E P       2012/12/12 07:56:18.6  -0.1                          T                                        5137403
SBF   001.74 141.8 m E Pg      2012/12/12 07:56:20.4   0.6                          T                                        5136950
SBF   001.74 141.8 m E Sg      2012/12/12 07:56:41.9  -0.4                          T              108.8  .34 Ml 3.6         5136937
LASF  001.89 232.7 m E P       2012/12/12 07:56:20.1  -0.7                          T                                        5137409
LASF  001.89 232.7 m E Pg      2012/12/12 07:56:22.9   0.5                          T                                        5136947
LASF  001.89 232.7 m E Sn      2012/12/12 07:56:40.3  -1.2                          T                                        5137401
LASF  001.89 232.7 m E Sg      2012/12/12 07:56:46.8   0.0                          T               90.0  .44 Ml 3.5         5136946
LMR   001.95 167.8 m E P       2012/12/12 07:56:20.8  -0.8                          T                                        5137404
LMR   001.95 167.8 m E Pg      2012/12/12 07:56:23.6   0.1                          T                                        5136951
LMR   001.95 167.8 m E Sn      2012/12/12 07:56:42.7  -0.2                          T                                        5137259
LMR   001.95 167.8 m E Sg      2012/12/12 07:56:48.2  -0.4                          T               27.6  .28 Ml 3.2         5136938
SMF   002.03 314.4 m E Pn      2012/12/12 07:56:21.3   0.9                          T                                        5136993
SMF   002.03 314.4 m E Pg      2012/12/12 07:56:25.4   0.4                          T                                        5136994
SMF   002.03 314.4 m E Sn      2012/12/12 07:56:44.6  -0.1                          T                                        5137272
SMF   002.03 314.4 m E Sg      2012/12/12 07:56:50.8  -0.4                          T               48.3  .20 Ml 3.6         5136963
AVF   002.38 311.5 m E Pn      2012/12/12 07:56:25.0  -0.2                          T                                        5136992
AVF   002.38 311.5 m E P       2012/12/12 07:56:27.2  -0.4                          T                                        5137414
AVF   002.38 311.5 m E Pg      2012/12/12 07:56:31.2  -0.2                          T                                        5136959
AVF   002.38 311.5 m E Sg      2012/12/12 07:57:01.4  -0.6                          T               26.4  .19 Ml 3.4         5136966
SSF   002.49 317.9 m E Pn      2012/12/12 07:56:27.3   0.6                          T                                        5136935
SSF   002.49 317.9 m E P       2012/12/12 07:56:28.8  -0.4                          T                                        5137420
SSF   002.49 317.9 m E Pg      2012/12/12 07:56:33.2  -0.2                          T                                        5136927
SSF   002.49 317.9 m E Sn      2012/12/12 07:56:55.6   0.0                          T                                        5137260
SSF   002.49 317.9 m E Sg      2012/12/12 07:57:05.2  -0.1                          T               34.0  .34 Ml 3.4         5136914
LOR   002.49 325.2 m E Pn      2012/12/12 07:56:27.5   0.7 145.6  1.9               T                                        5136934
LOR   002.49 325.2 m E P       2012/12/12 07:56:29.1  -0.2                          T                                        5137421
LOR   002.49 325.2 m E Pg      2012/12/12 07:56:33.9   0.4 141.9  -1.8              T                                        5136926
LOR   002.49 325.2 m E Sn      2012/12/12 07:56:55.8   0.0 147.8  4.1               T                                        5137261
LOR   002.49 325.2 m E Sg      2012/12/12 07:57:04.5  -1.0 147.4  3.7               T               44.3  .34 Ml 3.4 Md 3.4  5136913
BGF   002.53 302.4 m E Pn      2012/12/12 07:56:28.0   0.7                          T                                        5136957
BGF   002.53 302.4 m E Pg      2012/12/12 07:56:34.3   0.1                          T                                        5137000
BGF   002.53 302.4 m E Sg      2012/12/12 07:57:06.5  -0.3                          T               87.9  .37 Ml 3.7         5136962
HINF  002.65 013.4 m E Pn      2012/12/12 07:56:29.0   0.0                          T                                        5136930
HINF  002.65 013.4 m E Pg      2012/12/12 07:56:35.9  -0.5                          T                                        5136922
HINF  002.65 013.4 m E Sn      2012/12/12 07:56:59.5  -0.1                          T                                        5137271
HINF  002.65 013.4 m E Sg      2012/12/12 07:57:10.0  -0.5                          T               41.6  .27 Ml 3.5         5136919
HAU   002.78 005.6 m E Pn      2012/12/12 07:56:31.1   0.4                          T                                        5136936
HAU   002.78 005.6 m E Pg      2012/12/12 07:56:38.7  -0.1                          T                                        5136928
HAU   002.78 005.6 m E Sg      2012/12/12 07:57:14.2  -0.2                          T               55.7  .22 Ml 3.6         5136912
TCF   002.82 293.1 m E Pn      2012/12/12 07:56:31.3   0.2                          T                                        5137002
TCF   002.82 293.1 m E P       2012/12/12 07:56:34.0   0.1                          T                                        5137419
TCF   002.82 293.1 m E Pg      2012/12/12 07:56:39.3  -0.1                          T                                        5137262
TCF   002.82 293.1 m E Sn      2012/12/12 07:57:03.6   0.0                          T                                        5137263
TCF   002.82 293.1 m E Sg      2012/12/12 07:57:15.7   0.0                          T               13.3  .29 Ml 3.1         5136965
CAF   002.77 264.8 m E Pn      2012/12/12 07:56:31.8   1.3                          T                                        5136958
CAF   002.77 264.8 m E Pg      2012/12/12 07:56:39.5   0.9                          T                                        5137009
CAF   002.77 264.8 m E Sn      2012/12/12 07:57:01.9  -0.5                          T                                        5137033
CAF   002.77 264.8 m E Sg      2012/12/12 07:57:13.4  -0.7                          T               16.4  .22 Ml 3.2         5137032
SFTF  003.03 348.4 m E Pn      2012/12/12 07:56:33.9  -0.2 171.2  3.4               T                                        5136929
SFTF  003.03 348.4 m E P       2012/12/12 07:56:36.7  -0.2                          T                                        5137415
SFTF  003.03 348.4 m E Pg      2012/12/12 07:56:42.8  -0.5                          T                                        5136923
SFTF  003.03 348.4 m E Sg      2012/12/12 07:57:22.0  -0.2                          T               55.9  .43 Ml 3.6         5136918
HYF   003.06 312.6 m E Pn      2012/12/12 07:56:34.2  -0.3                          T                                        5137275
HYF   003.06 312.6 m E P       2012/12/12 07:56:37.2  -0.3                          T                                        5137413
HYF   003.06 312.6 m E Pg      2012/12/12 07:56:43.8  -0.2                          T                                        5137273
HYF   003.06 312.6 m E Sn      2012/12/12 07:57:09.1  -0.3                          T                                        5137274
HYF   003.06 312.6 m E Sg      2012/12/12 07:57:22.8  -0.4                          T                                        5136964
RJF   003.13 272.7 m E Pn      2012/12/12 07:56:34.8  -0.5                          T                                        5137001
RJF   003.13 272.7 m E P       2012/12/12 07:56:38.2  -0.1                          T                                        5137412
RJF   003.13 272.7 m E Pg      2012/12/12 07:56:45.2   0.0                          T                                        5136999
RJF   003.13 272.7 m E Sg      2012/12/12 07:57:24.3  -1.0                          T               29.6  .40 Ml 3.0         5136961
CDF   003.30 015.6 m E Pn      2012/12/12 07:56:37.7  -0.2                          T                                        5136933
CDF   003.30 015.6 m E P       2012/12/12 07:56:40.6  -0.3                          T                                        5137418
CDF   003.30 015.6 m E Pg      2012/12/12 07:56:48.0  -0.4                          T                                        5136925
CDF   003.30 015.6 m E Sg      2012/12/12 07:57:30.5  -0.3                          T               10.7  .30 Ml 3.2         5136915
PAGF  003.32 357.5 m E Pn      2012/12/12 07:56:37.7  -0.3 176.1  -1.2              T                                        5136931
PAGF  003.32 357.5 m E P       2012/12/12 07:56:40.7  -0.4                          T                                        5137417
PAGF  003.32 357.5 m E Pg      2012/12/12 07:56:48.2  -0.4 176.4  -0.9              T                                        5136924
PAGF  003.32 357.5 m E Sn      2012/12/12 07:57:15.4  -0.1 169.3  -8.0              T                                        5137270
PAGF  003.32 357.5 m E Sg      2012/12/12 07:57:30.6  -0.6 170.8  -6.5              T               10.4  .25 Ml 3.1         5136916
MTLF  003.28 235.9 m E Pn      2012/12/12 07:56:38.4   0.9                          T                                        5136997
MTLF  003.28 235.9 m E Pg      2012/12/12 07:56:48.6   0.6                          T                                        5136998
MTLF  003.28 235.9 m E Sn      2012/12/12 07:57:14.7   0.0                          T                6.7  .23 Ml 2.9         5136996
MTLF  003.28 235.9 m E Sg      2012/12/12 07:57:29.1  -1.1                          T               10.7  .27 Ml 3.1         5136995
MEZF  003.32 349.7 m E P       2012/12/12 07:56:40.8  -0.3                          T                                        5137416
MEZF  003.32 349.7 m E Pg      2012/12/12 07:56:48.1  -0.5 168.8  -0.2              T                                        5136932
MEZF  003.32 349.7 m E Sn      2012/12/12 07:57:15.0  -0.5                          T                                        5137399
MEZF  003.32 349.7 m E Sg      2012/12/12 07:57:31.0  -0.3 170.5  1.5               T               24.0  .36 Ml 3.3         5136917
PGF   003.48 139.6 m E P       2012/12/12 07:56:43.0  -0.6                          T                                        5137402
PGF   003.48 139.6 m E Sn      2012/12/12 07:57:19.7   0.1                          T                4.0  .21 Ml 3.1         5137022
LFF   003.70 267.1 m E Pn      2012/12/12 07:56:43.1   0.0                          T                                        5137256
LFF   003.70 267.1 m E P       2012/12/12 07:56:46.2  -0.3                          T                                        5137411
LFF   003.70 267.1 m E Pg      2012/12/12 07:56:55.5  -0.1                          T                                        5137255
LFF   003.70 267.1 m E Sg      2012/12/12 07:57:42.6  -0.5                          T               22.0  .36 Ml 3.2         5136960
MFF   004.46 289.9 m E Pn      2012/12/12 07:56:53.4  -0.1                          T                                        5137287
MFF   004.46 289.9 m E Pg      2012/12/12 07:57:09.3  -0.4                          T                                        5137286
MFF   004.46 289.9 m E Sn      2012/12/12 07:57:42.4  -0.4                          T                                        5137285
MFF   004.46 289.9 m E Sg      2012/12/12 07:58:06.2  -0.8                          T                4.9  .30 Ml 3.1         5137284
EPF   004.60 243.2 m E Pn      2012/12/12 07:56:56.3   0.7                          T                                        5137005
EPF   004.60 243.2 m E Pg      2012/12/12 07:57:12.4   0.0                          T                                        5137288
EPF   004.60 243.2 m E Sg      2012/12/12 07:58:11.1  -0.2                          T               12.2  .39 Ml 3.3         5137004
GIVF  004.92 351.6 m E Pn      2012/12/12 07:56:59.7  -0.1                          T                                        5136974
GIVF  004.92 351.6 m E Pg      2012/12/12 07:57:17.5  -0.7                          T                                        5137264
GIVF  004.92 351.6 m E Sn      2012/12/12 07:57:53.5  -0.3                          T                                        5137398
GIVF  004.92 351.6 m E Sg      2012/12/12 07:58:20.9  -0.4                          T                4.3  .22 Ml 3.2         5137265
BAIF  004.96 346.9 m E Pn      2012/12/12 07:57:01.4   1.1                          T                                        5137269
BAIF  004.96 346.9 m E Pg      2012/12/12 07:57:18.4  -0.5                          T                                        5137268
BAIF  004.96 346.9 m E Sn      2012/12/12 07:57:53.9  -0.8                          T                                        5137267
BAIF  004.96 346.9 m E Sg      2012/12/12 07:58:21.6  -0.9                          T                4.5  .45 Ml 2.9         5137266
LDF   005.34 311.0 m E Pn      2012/12/12 07:57:06.1   0.6                          T                                        5137039
LDF   005.34 311.0 m E Sn      2012/12/12 07:58:03.4  -0.4                          T                                        5137038
LDF   005.34 311.0 m E Sg      2012/12/12 07:58:33.7  -0.6                          T                2.2  .24 Ml 2.9         5137037
ETSF  005.24 245.7 m E P       2012/12/12 07:57:07.5  -1.0                          T                                        5137410
ETSF  005.24 245.7 m E Sn      2012/12/12 07:58:01.2  -0.3                          T                                        5137007
ETSF  005.24 245.7 m E Sg      2012/12/12 07:58:31.1  -0.2                          T                3.6  .32 Ml 3.0         5137006
SJPF  005.58 250.1 m E Pn      2012/12/12 07:57:08.5  -0.3                          T                                        5137031
SJPF  005.58 250.1 m E Sn      2012/12/12 07:58:09.3  -0.2                          T                                        5137030
SJPF  005.58 250.1 m E Sg      2012/12/12 07:58:41.7  -0.2                          T                2.8  .38 Ml 2.9         5137029
FLN   005.63 311.0 m E Pn      2012/12/12 07:57:10.4   0.9 129.7  3.4               T                                        5137283
FLN   005.63 311.0 m E Pg      2012/12/12 07:57:31.0  -0.2                          T                                        5137282
FLN   005.63 311.0 m E Sn      2012/12/12 07:58:09.4  -1.4                          T                                        5137281
FLN   005.63 311.0 m E Sg      2012/12/12 07:58:42.7  -0.8                          T                3.5  .26 Ml 3.0         5137280
GRR   005.63 306.4 m E Pn      2012/12/12 07:57:11.0   1.6                          T                                        5137036
GRR   005.63 306.4 m E Sn      2012/12/12 07:58:10.7   0.0                          T                                        5137035
GRR   005.63 306.4 m E Sg      2012/12/12 07:58:43.1  -0.3                          T                3.4  .23 Ml 3.0         5137034
ROSF  007.04 299.3 m E Pn      2012/12/12 07:57:27.0  -1.7                          T                                        5137279
ROSF  007.04 299.3 m E Pg      2012/12/12 07:57:57.0  -0.4                          T                                        5137278
ROSF  007.04 299.3 m E Sn      2012/12/12 07:58:44.7   0.2                          T                 .8  .13 Ml 3.1         5137277
ROSF  007.04 299.3 m E Sg      2012/12/12 07:59:27.3  -0.3                          T                1.9  .18 Ml 3.3         5137276
SGMF  006.57 300.3 m E Sg      2012/12/12 07:59:12.9   0.1                          T                 .6  .18 Ml 2.7         5137400

.
