EVENT     266489
    Date      Time       Latitude Longitude    Depth    Ndef Nsta Gap    Mag1  N    Mag2  N    Mag3  N   Author         ID
       rms   OT_Error      Smajor Sminor Az        Err   mdist  Mdist     Err        Err        Err      Quality

2011/11/21 05:08:25.1     45.3741    6.0969      2.0      18    7 120  Ml 1.8  2  Md 1.8  3              js067245    266509

      0.57   +-  0.07       1.7    1.0  134.18 +-  0.0    0.47   2.02   +-0.3      +-0.2                 m i ke

FRANCE
Sta     Dist  EvAz     Phase      Date       Time     TRes  Azim  AzRes  Slow  SRes Def   SNR       Amp   Per   Mag1   Mag2       ID
ORIF  000.48 198.7 m E Pg      2011/11/21 05:08:34.2  -0.2                          T                                        4789611
ORIF  000.48 198.7 m E Pn      2011/11/21 05:08:35.6   0.0                          T                                        4789614
ORIF  000.48 198.7 m E Sg      2011/11/21 05:08:40.3  -0.5                          T                2.5  .25        Md 1.7  4789610
LPL   000.47 072.1 m E Pg      2011/11/21 05:08:34.6   0.2                          T                                        4789608
LPL   000.47 072.1 m E Pn      2011/11/21 05:08:35.3   0.1                          T                                        4789615
LPL   000.47 072.1 m E Sg      2011/11/21 05:08:40.8   0.2                          T                2.1  .21        Md 1.6  4789609
LPG   000.48 074.8 m E Pg      2011/11/21 05:08:34.8   0.2                          T                                        4789607
LPG   000.48 074.8 m E Pn      2011/11/21 05:08:36.0   0.3                          T                                        4789613
LPG   000.48 074.8 m E Sg      2011/11/21 05:08:41.3   0.4                          T                1.0  .17                4789606
VIVF  001.13 243.3 m E Pg      2011/11/21 05:08:46.7   0.3                          T                                        4789604
VIVF  001.13 243.3 m E Sg      2011/11/21 05:09:01.3   0.3                          T                3.7  .28 Ml 2.0 Md 2.0  4789605
CABF  001.24 359.7 m E Pg      2011/11/21 05:08:48.3   0.0                          T                                        4789603
CABF  001.24 359.7 m E Sg      2011/11/21 05:09:04.1  -0.3                          T                1.2  .23 Ml 1.6         4789612
SMRF  001.45 195.1 m E Pg      2011/11/21 05:08:52.1   0.0                          T                                        4789620
SMF   002.02 309.8 m E Sg      2011/11/21 05:09:28.1  -0.7                          T                                        4789619

.
EVENT     266517
    Date      Time       Latitude Longitude    Depth    Ndef Nsta Gap    Mag1  N    Mag2  N    Mag3  N   Author         ID
       rms   OT_Error      Smajor Sminor Az        Err   mdist  Mdist     Err        Err        Err      Quality

2011/11/21 13:08:18.3     47.5337    6.1144       .0 f    20    9 120  Ml 2.2  8  Md 2.0  4              js067245    266537

      0.85   +-  0.08       2.1    1.2  139.42 +-  0.0    0.50   1.84   +-0.3      +-0.2                 m i km

FRANCE
Sta     Dist  EvAz     Phase      Date       Time     TRes  Azim  AzRes  Slow  SRes Def   SNR       Amp   Per   Mag1   Mag2       ID
HAU   000.50 018.4 m E Pg      2011/11/21 13:08:28.0  -0.2                          T                                        4789737
HAU   000.50 018.4 m E Sg      2011/11/21 13:08:35.1   0.2                          T                                        4789736
HINF  000.57 060.2 m E Pg      2011/11/21 13:08:29.6   0.1                          T                                        4789729
HINF  000.57 060.2 m E Sg      2011/11/21 13:08:37.4   0.2                          T                2.7  .23        Md 1.8  4789735
CABF  000.92 181.1 m E Pg      2011/11/21 13:08:36.2   0.2                          T                                        4789738
CABF  000.92 181.1 m E Sg      2011/11/21 13:08:48.4   0.2                          T                4.8  .28 Ml 2.0 Md 1.9  4789739
PAGF  001.05 345.8 m E Pn      2011/11/21 13:08:39.1   0.2 161.3  -4.2              T                                        4789734
PAGF  001.05 345.8 m E Sg      2011/11/21 13:08:52.3   0.1                          T                1.6  .28 Ml 1.6 Md 2.3  4789725
CDF   001.18 041.2 m E Pg      2011/11/21 13:08:40.6  -0.1                          T                                        4789733
CDF   001.18 041.2 m E Sg      2011/11/21 13:08:56.0  -0.1                          T                5.9  .38 Ml 2.2 Md 2.1  4789732
LOR   001.56 261.0 m E Pn      2011/11/21 13:08:45.4  -0.3                          T                                        4789731
LOR   001.56 261.0 m E Pg      2011/11/21 13:08:47.3  -0.3  83.5  4.2               T                                        4789741
LOR   001.56 261.0 m E Sg      2011/11/21 13:09:08.0   0.1  91.1  11.8              T                3.9  .26 Ml 2.3         4789740
SMF   001.79 241.1 m E Pg      2011/11/21 13:08:52.1   0.2                          T                                        4789728
SMF   001.79 241.1 m E Sg      2011/11/21 13:09:15.2   0.0                          T                4.6  .43 Ml 2.2         4789727
MEZF  001.20 324.0 m E Sg      2011/11/21 13:08:57.1   0.3                          T               14.6  .41 Ml 2.5         4789730
SSF   001.84 256.1 m E Sg      2011/11/21 13:09:16.9   0.3                          T                4.3  .36 Ml 2.3         4789726

.
EVENT     266575
    Date      Time       Latitude Longitude    Depth    Ndef Nsta Gap    Mag1  N    Mag2  N    Mag3  N   Author         ID
       rms   OT_Error      Smajor Sminor Az        Err   mdist  Mdist     Err        Err        Err      Quality

2011/11/21 15:24:28.4     47.8693    6.5684 f     .0 f    17    9 089  Ml 2.0  5  Md 1.8  2              js067245    266595

      0.45   +-  0.08    9999.9 9999.9   99.90 +-  0.0    0.20   1.93   +-0.3      +-0.1                 m i km

FRANCE
Sta     Dist  EvAz     Phase      Date       Time     TRes  Azim  AzRes  Slow  SRes Def   SNR       Amp   Per   Mag1   Mag2       ID
HINF  000.20 105.2 m E Pg      2011/11/21 15:24:32.3  -0.5                          T                                        4789768
HINF  000.20 105.2 m E Sg      2011/11/21 15:24:35.1  -0.6                          T               20.9  .44        Md 1.7  4789767
HAU   000.20 312.7 m E Pg      2011/11/21 15:24:32.3  -0.4                          T                                        4789769
HAU   000.20 312.7 m E Sg      2011/11/21 15:24:35.3  -0.4                          T               57.1  .34        Md 1.8  4789766
THEF  000.53 313.2 m E Pg      2011/11/21 15:24:39.2   0.5                          T                                        4790457
THEF  000.53 313.2 m E Sg      2011/11/21 15:24:46.1   0.2                          T               12.0  .23                4790456
CDF   000.72 040.8 m E Pg      2011/11/21 15:24:42.7   0.2                          T                                        4789764
CDF   000.72 040.8 m E Sn      2011/11/21 15:24:55.0  -0.8                          T               29.5  .28                4789761
PAGF  000.89 320.9 m E Pg      2011/11/21 15:24:46.0   0.7                          T                                        4789762
PAGF  000.89 320.9 m E Sn      2011/11/21 15:24:59.7   0.0 143.2  3.0               T                2.0  .29 Ml 1.6         4790459
SFTF  001.08 288.7 m E Pn      2011/11/21 15:24:49.6   0.2 117.4  9.9               T                                        4789763
SFTF  001.08 288.7 m E Sg      2011/11/21 15:25:03.4   0.3                          T                8.6  .27 Ml 2.4         4789760
CABF  001.30 194.8 m E Pg      2011/11/21 15:24:53.1   0.0                          T                                        4789765
CABF  001.30 194.8 m E Sg      2011/11/21 15:25:10.4   0.3                          T                1.7  .29 Ml 1.7         4790455
LOR   001.93 252.9 m E Pg      2011/11/21 15:25:04.8   0.2  68.8  -2.1              T                                        4790460
LOR   001.93 252.9 m E Sg      2011/11/21 15:25:29.9   0.2                          T                1.6  .19 Ml 2.1         4789759
MEZF  001.20 302.5 m E Sg      2011/11/21 15:25:06.5  -0.2 120.7  -0.7              T                5.9  .36 Ml 2.1         4790458

.
EVENT     266650
    Date      Time       Latitude Longitude    Depth    Ndef Nsta Gap    Mag1  N    Mag2  N    Mag3  N   Author         ID
       rms   OT_Error      Smajor Sminor Az        Err   mdist  Mdist     Err        Err        Err      Quality

2011/11/21 15:30:32.3     43.3506    2.3354      2.0       7    4 202  Ml 1.5  3  Md 1.4  1              js067245    266670

      0.32   +-  0.14       2.2     .7   86.96 +-  0.0    0.09   1.59   +-0.2      +-                    m i ke

FRANCE
Sta     Dist  EvAz     Phase      Date       Time     TRes  Azim  AzRes  Slow  SRes Def   SNR       Amp   Per   Mag1   Mag2       ID
MTLF  000.09 263.8 m E Pg      2011/11/21 15:30:34.2  -0.1                          T                                        4789590
MTLF  000.09 263.8 m E Sg      2011/11/21 15:30:35.5  -0.2                          T                5.6  .39        Md 1.4  4789591
LASF  001.32 056.2 m E Sg      2011/11/21 15:31:14.1   0.0                          T                 .5  .20 Ml 1.3         4789589
EPF   001.49 258.3 m E Sg      2011/11/21 15:31:20.2   0.7                          T                1.1  .29 Ml 1.6         4789588
CAF   001.59 353.0 m E Sg      2011/11/21 15:31:22.7   0.3                          T                 .5  .16 Ml 1.6         4789587

.
EVENT     266593
    Date      Time       Latitude Longitude    Depth    Ndef Nsta Gap    Mag1  N    Mag2  N    Mag3  N   Author         ID
       rms   OT_Error      Smajor Sminor Az        Err   mdist  Mdist     Err        Err        Err      Quality

2011/11/21 18:01:38.0     46.1700    7.0700 f    6.0 f    15    5 071  Ml 1.3  2  Md 1.4  1              js067245    266613

      0.15   +-  0.11    9999.9 9999.9   99.90 +-  0.0    0.07   1.51   +-0.2      +-                    m i ke

SWITZERLAND
Sta     Dist  EvAz     Phase      Date       Time     TRes  Azim  AzRes  Slow  SRes Def   SNR       Amp   Per   Mag1   Mag2       ID
LPL   000.70 200.0 m E Pg      2011/11/21 18:01:51.5   0.0                          T                                        4790467
LPL   000.70 200.0 m E Sg      2011/11/21 18:02:00.5   0.0                          T                 .5  .22        Md 1.4  4790468
LPG   000.71 198.4 m E Pg      2011/11/21 18:01:51.7   0.0                          T                                        4790465
LPG   000.71 198.4 m E Sg      2011/11/21 18:02:01.1   0.0                          T                 .2  .18                4790466
CABF  000.81 303.3 m E Pn      2011/11/21 18:01:54.5   0.0                          T                                        4790461
CABF  000.81 303.3 m E Sn      2011/11/21 18:02:06.1   0.0                          T                 .6  .23                4790462
MBDF  001.46 188.4 m E Sg      2011/11/21 18:02:24.2   0.0                          T                 .2  .15 Ml 1.2         4790464
ORIF  001.51 214.2 m E Sg      2011/11/21 18:02:25.7   0.1                          T                 .8  .32 Ml 1.4         4790463

.
EVENT     266583
    Date      Time       Latitude Longitude    Depth    Ndef Nsta Gap    Mag1  N    Mag2  N    Mag3  N   Author         ID
       rms   OT_Error      Smajor Sminor Az        Err   mdist  Mdist     Err        Err        Err      Quality

2011/11/21 19:52:47.9     42.8292     .0887      2.0       5    3 236  Ml 1.2  1  Md 1.0  2              js067245    266603

      0.20   +-  0.33      11.5    1.9  163.32 +-  0.0    0.27   1.01   +-         +-0.2                 m i ke

PYRENEES
Sta     Dist  EvAz     Phase      Date       Time     TRes  Azim  AzRes  Slow  SRes Def   SNR       Amp   Per   Mag1   Mag2       ID
EPF   000.27 042.5 m E Pg      2011/11/21 19:52:53.3  -0.1                          T                                        4789868
EPF   000.27 042.5 m E Sg      2011/11/21 19:52:56.7  -0.3                          T                5.5  .22        Md 1.2  4789865
ETSF  000.48 278.5 m E Pg      2011/11/21 19:52:57.2   0.0                          T                                        4789867
ETSF  000.48 278.5 m E Sg      2011/11/21 19:53:03.2  -0.3                          T                2.3  .24        Md  .8  4789866
SJPF  001.01 286.9 m E Sg      2011/11/21 19:53:20.1   0.3                          T                 .5  .21 Ml 1.2         4789869

.
EVENT     266584
    Date      Time       Latitude Longitude    Depth    Ndef Nsta Gap    Mag1  N    Mag2  N    Mag3  N   Author         ID
       rms   OT_Error      Smajor Sminor Az        Err   mdist  Mdist     Err        Err        Err      Quality

2011/11/21 22:28:10.3     42.8878     .0786     15.0       7    4 198  Ml 1.3  2  Md 1.2  2              js067245    266604

      0.13   +-  0.09       5.2     .9  170.85 +-  0.0    0.24   1.63   +-0.4      +-0.0                 m i ke

PYRENEES
Sta     Dist  EvAz     Phase      Date       Time     TRes  Azim  AzRes  Slow  SRes Def   SNR       Amp   Per   Mag1   Mag2       ID
EPF   000.24 053.3 m E Pg      2011/11/21 22:28:15.8   0.0                          T                                        4789879
EPF   000.24 053.3 m E Sg      2011/11/21 22:28:19.3  -0.1                          T                5.5  .22        Md 1.2  4789876
ETSF  000.47 271.5 m E Pg      2011/11/21 22:28:19.8   0.1                          T                                        4789878
ETSF  000.47 271.5 m E Sg      2011/11/21 22:28:25.8  -0.4                          T                2.3  .25        Md 1.2  4789877
MTLF  001.63 073.1 m E Pn      2011/11/21 22:28:36.9   0.0                          T                                        4789883
MTLF  001.63 073.1 m E Sn      2011/11/21 22:28:56.2  -0.1                          T                 .7  .26 Ml 1.5         4789882
SJPF  000.98 283.7 m E Sg      2011/11/21 22:28:41.9   0.0                          T                 .3  .16 Ml 1.0         4790469

.
