EVENT     257996
    Date      Time       Latitude Longitude    Depth    Ndef Nsta Gap    Mag1  N    Mag2  N    Mag3  N   Author         ID
       rms   OT_Error      Smajor Sminor Az        Err   mdist  Mdist     Err        Err        Err      Quality

2011/04/06 21:06:37.2     42.8609     .2919      2.0      39    8 062  Ml 1.6  7  Md 1.9  2              js067245    257996

      0.70   +-  0.06       1.4    1.1   18.83 +-  0.0    0.17   2.87   +-0.1      +-0.1                 m i ke

PYRENEES
Sta     Dist  EvAz     Phase      Date       Time     TRes  Azim  AzRes  Slow  SRes Def   SNR       Amp   Per   Mag1   Mag2       ID
EPF   000.17 011.8 m E Pg      2011/04/06 21:06:41.2   0.3                          T                                        4670590
EPF   000.17 011.8 m E Sg      2011/04/06 21:06:43.6   0.3                          T               58.5  .22        Md 2.0  4670591
ETSF  000.63 273.7 m E Pg      2011/04/06 21:06:48.4  -0.8                          T                                        4670588
ETSF  000.63 273.7 m E Sg      2011/04/06 21:06:56.4  -1.0                          T                7.1  .30        Md 1.8  4670589
SJPF  001.14 283.3 m E Pg      2011/04/06 21:06:59.0   0.4                          T                                        4670586
SJPF  001.14 283.3 m E Sg      2011/04/06 21:07:13.3  -0.1                          T                1.4  .23 Ml 1.7         4670587
MTLF  001.49 070.6 m E Pn      2011/04/06 21:07:03.3  -0.1                          T                                        4670579
MTLF  001.49 070.6 m E Pg      2011/04/06 21:07:05.1   0.1                          T                                        4670578
MTLF  001.49 070.6 m E Sg      2011/04/06 21:07:24.3   0.0                          T                 .7  .20 Ml 1.6         4670582
LFF   002.10 008.7 m E Pg      2011/04/06 21:07:16.2   0.0                          T                                        4670576
LFF   002.10 008.7 m E Sg      2011/04/06 21:07:43.3   0.0                          T                 .8  .27 Ml 1.5         4670584
CAF   002.43 031.2 m E Pg      2011/04/06 21:07:22.2  -0.2                          T                                        4670577
CAF   002.43 031.2 m E Sg      2011/04/06 21:07:53.5  -0.1                          T                 .6  .22 Ml 1.7         4670583
RJF   002.60 019.4 m E Pg      2011/04/06 21:07:25.3  -0.1                          T                                        4670575
RJF   002.60 019.4 m E Sg      2011/04/06 21:07:58.7  -0.1                          T                 .6  .20 Ml 1.5         4670585
LASF  002.87 063.7 m E Pg      2011/04/06 21:07:30.3  -0.1                          T                                        4670580
LASF  002.87 063.7 m E Sg      2011/04/06 21:08:07.1  -0.1                          T                 .3  .23 Ml 1.5         4670581

.
EVENT     257997
    Date      Time       Latitude Longitude    Depth    Ndef Nsta Gap    Mag1  N    Mag2  N    Mag3  N   Author         ID
       rms   OT_Error      Smajor Sminor Az        Err   mdist  Mdist     Err        Err        Err      Quality

2011/04/06 21:40:02.8     42.8964    -.5069      2.0      37    8 060  Ml 2.1  6  Md 2.3  3              js067245    257997

      0.48   +-  0.07       1.5    1.1   15.12 +-  0.0    0.04   3.39   +-0.2      +-0.0                 m i ke

PYRENEES
Sta     Dist  EvAz     Phase      Date       Time     TRes  Azim  AzRes  Slow  SRes Def   SNR       Amp   Per   Mag1   Mag2       ID
ETSF  000.04 273.3 m E Pg      2011/04/06 21:40:03.6  -0.5                          T                                        4670628
ETSF  000.04 273.3 m E Sg      2011/04/06 21:40:04.8  -0.1                          T              321.5  .22        Md 2.3  4670629
SJPF  000.57 292.6 m E Pg      2011/04/06 21:40:13.1  -0.5                          T                                        4670624
SJPF  000.57 292.6 m E Sg      2011/04/06 21:40:21.1   0.0                          T               17.9  .30        Md 2.3  4670625
EPF   000.64 077.6 m E Pg      2011/04/06 21:40:14.5  -0.4                          T                                        4670626
EPF   000.64 077.6 m E Sg      2011/04/06 21:40:23.6   0.3                          T                9.8  .18        Md 2.4  4670627
LFF   002.23 023.4 m E Pn      2011/04/06 21:40:38.9  -0.1                          T                                        4670617
LFF   002.23 023.4 m E Pg      2011/04/06 21:40:44.4   0.2                          T                                        4670616
LFF   002.23 023.4 m E Sg      2011/04/06 21:41:13.0   0.0                          T                4.3  .30 Ml 2.2         4670621
MTLF  002.04 076.5 m E Pg      2011/04/06 21:40:40.7  -0.1                          T                                        4670613
MTLF  002.04 076.5 m E Sg      2011/04/06 21:41:07.1   0.0                          T                2.1  .28 Ml 2.1         4670623
CAF   002.75 041.6 m E Pn      2011/04/06 21:40:45.9  -0.3                          T                                        4670615
CAF   002.75 041.6 m E Pg      2011/04/06 21:40:53.7  -0.1                          T                                        4670614
CAF   002.75 041.6 m E Sg      2011/04/06 21:41:29.5   0.3                          T                1.3  .20 Ml 2.2         4670622
RJF   002.81 030.5 m E Pn      2011/04/06 21:40:46.7  -0.2                          T                                        4670619
RJF   002.81 030.5 m E Pg      2011/04/06 21:40:54.7  -0.3                          T                                        4670618
RJF   002.81 030.5 m E Sg      2011/04/06 21:41:30.9  -0.3                          T                1.6  .28 Ml 1.8         4670620
LASF  003.39 068.1 m E Sg      2011/04/06 21:41:49.3   0.2                          T                 .9  .29 Ml 2.0         4670612

.
EVENT     258095
    Date      Time       Latitude Longitude    Depth    Ndef Nsta Gap    Mag1  N    Mag2  N    Mag3  N   Author         ID
       rms   OT_Error      Smajor Sminor Az        Err   mdist  Mdist     Err        Err        Err      Quality

2011/04/06 21:43:26.1     42.5310    2.8067      2.0      14    3 103  Ml 1.1  3                         js067245    258095

      0.19   +-  0.05       1.1     .8   55.59 +-  0.0    0.07   1.88   +-0.2                            m i ke

PYRENEES
Sta     Dist  EvAz     Phase      Date       Time     TRes  Azim  AzRes  Slow  SRes Def   SNR       Amp   Per   Mag1   Mag2       ID
MTLF  000.92 332.1 m E Pg      2011/04/06 21:43:43.3   0.0                          T                                        4670634
MTLF  000.92 332.1 m E Sg      2011/04/06 21:43:55.7   0.5                          T                 .3  .26 Ml  .8         4670635
LASF  001.72 026.0 m E Pg      2011/04/06 21:43:58.2   0.0                          T                                        4670630
LASF  001.72 026.0 m E Sg      2011/04/06 21:44:20.2  -0.2                          T                 .3  .25 Ml 1.3         4670631
EPF   001.88 286.2 m E Pg      2011/04/06 21:44:01.0  -0.2                          T                                        4670632
EPF   001.88 286.2 m E Sg      2011/04/06 21:44:25.5   0.1                          T                 .2  .20 Ml 1.2         4670633

.
EVENT     258046
    Date      Time       Latitude Longitude    Depth    Ndef Nsta Gap    Mag1  N    Mag2  N    Mag3  N   Author         ID
       rms   OT_Error      Smajor Sminor Az        Err   mdist  Mdist     Err        Err        Err      Quality

2011/04/07 05:52:12.7     42.9066    -.9242      2.0      21    3 128  Ml 1.3  1  Md 1.2  2              js067245    258046

      0.16   +-  0.04        .9     .7  169.95 +-  0.0    0.24   0.94   +-         +-0.0                 m i ke

PYRENEES
Sta     Dist  EvAz     Phase      Date       Time     TRes  Azim  AzRes  Slow  SRes Def   SNR       Amp   Per   Mag1   Mag2       ID
ETSF  000.27 091.6 m E Pg      2011/04/07 05:52:18.2   0.1                          T                                        4670649
ETSF  000.27 091.6 m E Sg      2011/04/07 05:52:21.7  -0.1                          T                1.9  .20        Md 1.2  4670650
SJPF  000.30 313.2 m E Pg      2011/04/07 05:52:18.6  -0.1                          T                                        4670651
SJPF  000.30 313.2 m E Sg      2011/04/07 05:52:22.6  -0.1                          T                5.7  .26        Md 1.2  4670652
EPF   000.94 082.0 m E Pg      2011/04/07 05:52:30.3  -0.1                          T                                        4670647
EPF   000.94 082.0 m E Sg      2011/04/07 05:52:42.7   0.2                          T                 .9  .24 Ml 1.3         4670648

.
EVENT     258047
    Date      Time       Latitude Longitude    Depth    Ndef Nsta Gap    Mag1  N    Mag2  N    Mag3  N   Author         ID
       rms   OT_Error      Smajor Sminor Az        Err   mdist  Mdist     Err        Err        Err      Quality

2011/04/07 06:35:40.8     43.3664   -1.2581       .0 f    16    3 258  Ml 1.7  1  Md 1.3  2              js067245    258047

      0.39   +-  0.10    9999.9 9999.9   99.90 +-  0.0    0.25   1.22   +-         +-0.3                 m i km

PYRENEES
Sta     Dist  EvAz     Phase      Date       Time     TRes  Azim  AzRes  Slow  SRes Def   SNR       Amp   Per   Mag1   Mag2       ID
SJPF  000.25 174.5 m E Pg      2011/04/07 06:35:46.4   0.3                          T                                        4670657
SJPF  000.25 174.5 m E Sg      2011/04/07 06:35:49.6   0.0                          T                6.7  .20        Md 1.5  4670658
ETSF  000.69 132.2 m E Pg      2011/04/07 06:35:54.5   0.3                          T                                        4670655
ETSF  000.69 132.2 m E Sg      2011/04/07 06:36:04.0   0.5                          T                1.7  .27        Md 1.2  4670656
EPF   001.22 105.5 m E Pg      2011/04/07 06:36:03.9   0.1                          T                                        4670653
EPF   001.22 105.5 m E Sg      2011/04/07 06:36:19.6  -0.2                          T                1.3  .23 Ml 1.7         4670654

.
EVENT     258048
    Date      Time       Latitude Longitude    Depth    Ndef Nsta Gap    Mag1  N    Mag2  N    Mag3  N   Author         ID
       rms   OT_Error      Smajor Sminor Az        Err   mdist  Mdist     Err        Err        Err      Quality

2011/04/07 06:37:52.2     43.3325   -1.2234       .0 f    18    3 252  Ml 1.4  1  Md 1.5  2              js067245    258048

      0.29   +-  0.23       3.9    1.9  151.70 +-  0.0    0.22   1.18   +-         +-0.2                 m i km

PYRENEES
Sta     Dist  EvAz     Phase      Date       Time     TRes  Azim  AzRes  Slow  SRes Def   SNR       Amp   Per   Mag1   Mag2       ID
SJPF  000.22 180.3 m E Pg      2011/04/07 06:37:57.0   0.2                          T                                        4670663
SJPF  000.22 180.3 m E Sg      2011/04/07 06:38:00.4   0.4                          T                4.9  .18        Md 1.6  4670664
ETSF  000.65 131.5 m E Pg      2011/04/07 06:38:04.9   0.0                          T                                        4670661
ETSF  000.65 131.5 m E Sg      2011/04/07 06:38:13.9   0.3                          T                1.3  .31        Md 1.3  4670662
EPF   001.18 104.3 m E Pg      2011/04/07 06:38:14.3  -0.3                          T                                        4670659
EPF   001.18 104.3 m E Sg      2011/04/07 06:38:29.9  -0.2                          T                 .8  .24 Ml 1.4         4670660

.
EVENT     258049
    Date      Time       Latitude Longitude    Depth    Ndef Nsta Gap    Mag1  N    Mag2  N    Mag3  N   Author         ID
       rms   OT_Error      Smajor Sminor Az        Err   mdist  Mdist     Err        Err        Err      Quality

2011/04/07 14:59:52.8     47.5337    6.1266       .0 f    16   11 121  Ml 2.2  8  Md 2.0  2              js067245    258049

      0.44   +-  0.09       1.8    1.2  125.20 +-  0.0    0.50   1.85   +-0.2      +-0.0                 m i km

FRANCE
Sta     Dist  EvAz     Phase      Date       Time     TRes  Azim  AzRes  Slow  SRes Def   SNR       Amp   Per   Mag1   Mag2       ID
HAU   000.50 017.5 m E Pg      2011/04/07 15:00:02.3  -0.2                          T                                        4670681
HAU   000.50 017.5 m E Sg      2011/04/07 15:00:09.3   0.0                          T               20.5  .50        Md 2.0  4670682
HINF  000.57 059.8 m E Pg      2011/04/07 15:00:03.7  -0.1                          T                                        4670667
HINF  000.57 059.8 m E Sg      2011/04/07 15:00:11.1  -0.4                          T               40.3  .96                4670675
THEF  000.70 352.7 m E Pg      2011/04/07 15:00:06.4   0.1                          T                                        4670679
THEF  000.70 352.7 m E Sg      2011/04/07 15:00:16.0   0.3                          T               10.8  .30        Md 2.0  4670680
CABF  000.92 181.7 m E Pg      2011/04/07 15:00:10.8   0.4                          T                                        4670673
CABF  000.92 181.7 m E Sg      2011/04/07 15:00:22.9   0.2                          T               17.4  .60 Ml 2.2         4670674
LOR   001.56 261.1 m E Pg      2011/04/07 15:00:22.0  -0.1                          T                                        4670669
LOR   001.56 261.1 m E Sg      2011/04/07 15:00:42.7   0.1  83.1  3.7               T                3.2  .22 Ml 2.2         4670670
SFTF  000.99 312.9 m E Sn      2011/04/07 15:00:26.8   0.2                          T                5.2  .20 Ml 2.2         4670676
PAGF  001.06 345.4 m E Sg      2011/04/07 15:00:27.2   0.5 167.5  2.4               T                2.2  .36 Ml 1.6         4670677
CDF   001.17 040.9 m E Sg      2011/04/07 15:00:30.2  -0.2                          T                6.6  .35 Ml 2.3         4670678
MEZF  001.21 323.7 m E Sg      2011/04/07 15:00:31.6   0.2                          T                5.5  .25 Ml 2.3         4670671
SMF   001.80 241.2 m E Sg      2011/04/07 15:00:48.9  -1.0                          T                4.1  .37 Ml 2.2         4670672
SSF   001.85 256.1 m E Sg      2011/04/07 15:00:51.1  -0.2                          T                2.6  .34 Ml 2.2         4670668

.
EVENT     258051
    Date      Time       Latitude Longitude    Depth    Ndef Nsta Gap    Mag1  N    Mag2  N    Mag3  N   Author         ID
       rms   OT_Error      Smajor Sminor Az        Err   mdist  Mdist     Err        Err        Err      Quality

2011/04/07 15:53:45.5     37.4832   -2.4535      2.0     184   13 049  Ml 3.6 11                         js067245    258051

      1.10   +-  0.11       2.5    1.4  141.72 +-  0.0    0.35  10.86   +-0.3                            m i ke

SPAIN
Sta     Dist  EvAz     Phase      Date       Time     TRes  Azim  AzRes  Slow  SRes Def   SNR       Amp   Per   Mag1   Mag2       ID
ETSF  005.60 014.4 m E Pn      2011/04/07 15:55:09.0   1.4                          T                                        4670709
ETSF  005.60 014.4 m E Sn      2011/04/07 15:56:08.1  -0.6                          T                                        4670697
ETSF  005.60 014.4 m E Sg      2011/04/07 15:56:40.6  -0.3                          T                6.6  .28 Ml 3.4         4670703
SJPF  005.70 009.1 m E Pn      2011/04/07 15:55:10.5   1.6                          T                                        4670710
SJPF  005.70 009.1 m E Sn      2011/04/07 15:56:10.9  -0.2                          T                                        4670696
SJPF  005.70 009.1 m E Sg      2011/04/07 15:56:43.9   0.0                          T               19.0  .41 Ml 3.7         4670704
EPF   005.94 020.2 m E Pn      2011/04/07 15:55:13.6   1.4                          T                                        4670708
EPF   005.94 020.2 m E Sn      2011/04/07 15:56:16.1  -0.7                          T                                        4670698
EPF   005.94 020.2 m E Sg      2011/04/07 15:56:50.5  -0.8                          T               39.2  .70 Ml 3.8         4670702
MTLF  006.85 029.9 m E Pn      2011/04/07 15:55:24.9   0.3                          T                                        4670707
MTLF  006.85 029.9 m E Sn      2011/04/07 15:56:37.3  -1.2                          T                                        4670699
MTLF  006.85 029.9 m E Sg      2011/04/07 15:57:19.6  -0.2                          T                8.2  .55 Ml 3.4         4670701
CAF   008.18 023.2 m E Pn      2011/04/07 15:55:42.8   0.2                          T                                        4670711
CAF   008.18 023.2 m E Sn      2011/04/07 15:57:09.7  -0.6                          T                                        4670694
CAF   008.18 023.2 m E Sg      2011/04/07 15:58:01.2   0.0                          T               10.1  .74 Ml 3.6         4670695
LASF  008.14 034.0 m E Pn      2011/04/07 15:55:42.9   0.8                          T                                        4670706
LASF  008.14 034.0 m E Sg      2011/04/07 15:58:00.2   0.1                          T                5.1  .64 Ml 3.3         4670700
RJF   008.36 019.6 m E Pn      2011/04/07 15:55:44.5  -0.6                          T                                        4670693
RJF   008.36 019.6 m E Sn      2011/04/07 15:57:14.4  -0.2                          T                4.3  .45 Ml 3.1         4670691
MFF   009.27 009.9 m E Pn      2011/04/07 15:55:57.1  -0.4                          T                                        4670692
PGF   010.13 056.5 m E Pn      2011/04/07 15:56:09.6   0.2                          T                                        4670705
QUIF  010.44 357.4 m E Pn      2011/04/07 15:56:13.3  -0.1                          T                                        4670712
QUIF  010.44 357.4 m E Sn      2011/04/07 15:58:03.7  -0.5                          T                3.8  .40 Ml 3.8         4670689
SGMF  010.77 359.6 m E Pn      2011/04/07 15:56:17.6  -0.2                          T                                        4670713
SGMF  010.77 359.6 m E Sn      2011/04/07 15:58:11.4  -0.6                          T                3.7  .36 Ml 3.9         4670688
ROSF  010.86 357.1 m E Pn      2011/04/07 15:56:19.1  -0.1                          T                                        4670714
ROSF  010.86 357.1 m E Sn      2011/04/07 15:58:13.9  -0.6                          T                2.2  .20 Ml 3.9         4670687
LFF   007.83 016.9 m E Sn      2011/04/07 15:57:01.3  -0.5                          T               10.7  .51 Ml 3.5         4670690

.
