BEGIN GSE2.0
MSG_TYPE DATA
MSG_ID 19-JUL-1115:11:50  FRA_NDC
E-MAIL
DATA_TYPE BULLETIN
Reviewed Bulletin (REB) # P2011-027  from French NDC for regional phases     PERIOD 06 JUL 2011 TO 12 JUL 2011 N P., J-P S.
EVENT     261107
    Date      Time       Latitude Longitude    Depth    Ndef Nsta Gap    Mag1  N    Mag2  N    Mag3  N   Author         ID
       rms   OT_Error      Smajor Sminor Az        Err   mdist  Mdist     Err        Err        Err      Quality

2011/07/06 00:27:45.1     42.2973    1.7482      5.0 f    24    4 072  Ml 1.7  4  Md 2.2  2              js067245    261107

      0.30   +-  0.05       1.1     .7    3.61 +-  0.0    0.21   2.64   +-0.1      +-0.0                 m i ke

PYRENEES
Sta     Dist  EvAz     Phase      Date       Time     TRes  Azim  AzRes  Slow  SRes Def   SNR       Amp   Per   Mag1   Mag2       ID
MTLF  001.10 018.2 m E Pg      2011/07/06 00:28:05.7   0.1                          T                                        4715921
MTLF  001.10 018.2 m E Sg      2011/07/06 00:28:19.8  -0.1                          T                 .9  .16 Ml 1.6 Md 2.2  4715919
EPF   001.27 305.7 m E Pg      2011/07/06 00:28:08.9   0.0                          T                                        4715920
EPF   001.27 305.7 m E Sg      2011/07/06 00:28:25.7   0.4                          T                1.1  .20 Ml 1.7 Md 2.2  4715918
ETSF  001.81 290.2 m E Pg      2011/07/06 00:28:18.7  -0.1                          T                                        4715916
ETSF  001.81 290.2 m E Sg      2011/07/06 00:28:42.3   0.2                          T                 .6  .17 Ml 1.7         4715917
CAF   002.64 004.9 m E Pn      2011/07/06 00:28:26.7   0.2                          T                                        4720680
CAF   002.64 004.9 m E Sg      2011/07/06 00:29:08.1   0.1                          T                 .7  .24 Ml 1.8         4720681

.
EVENT     261108
    Date      Time       Latitude Longitude    Depth    Ndef Nsta Gap    Mag1  N    Mag2  N    Mag3  N   Author         ID
       rms   OT_Error      Smajor Sminor Az        Err   mdist  Mdist     Err        Err        Err      Quality

2011/07/06 01:06:57.1     42.2015    1.5064      5.0 f    32    4 078  Ml 2.1  4  Md 2.2  2              js067245    261108

      0.61   +-  0.10       2.3    1.5  179.56 +-  0.0    0.14   2.21   +-0.1      +-0.0                 m i ke

PYRENEES
Sta     Dist  EvAz     Phase      Date       Time     TRes  Azim  AzRes  Slow  SRes Def   SNR       Amp   Per   Mag1   Mag2       ID
EPF   001.19 314.3 m E Pg      2011/07/06 01:07:20.2   0.7                          T                                        4715928
EPF   001.19 314.3 m E Sg      2011/07/06 01:07:35.2   0.2                          T                4.3  .20 Ml 2.2 Md 2.2  4715925
MTLF  001.25 024.4 m E Pg      2011/07/06 01:07:21.1   0.6                          T                                        4715927
MTLF  001.25 024.4 m E Sg      2011/07/06 01:07:37.7   0.9                          T                3.7  .30 Ml 2.0 Md 2.2  4715924
ETSF  001.68 295.2 m E Pg      2011/07/06 01:07:29.1   0.7                          T                                        4715929
ETSF  001.68 295.2 m E Sg      2011/07/06 01:07:50.3   0.2                          T                2.1  .30 Ml 2.0         4715926
SJPF  002.21 295.3 m E Pg      2011/07/06 01:07:39.6   1.4                          T                                        4715923
SJPF  002.21 295.3 m E Sg      2011/07/06 01:08:06.8   0.2                          T                1.6  .27 Ml 2.0         4715922

.
EVENT     261104
    Date      Time       Latitude Longitude    Depth    Ndef Nsta Gap    Mag1  N    Mag2  N    Mag3  N   Author         ID
       rms   OT_Error      Smajor Sminor Az        Err   mdist  Mdist     Err        Err        Err      Quality

2011/07/06 03:08:23.9     44.8663   15.3425     10.0 f    40   11 196  Ml 3.0  6                         js067245    261104

      0.75   +-  0.30       7.7    3.6  113.35 +-  0.0    0.64   8.24   +-0.2                            m i ke

NORTHWESTERN BALKAN PEN.
Sta     Dist  EvAz     Phase      Date       Time     TRes  Azim  AzRes  Slow  SRes Def   SNR       Amp   Per   Mag1   Mag2       ID
PGF   005.15 245.5 m E Pn      2011/07/06 03:09:39.1   0.0                          T                                        4720724
MBDF  006.10 271.7 m E Pn      2011/07/06 03:09:52.0  -0.1                          T                                        4720719
MBDF  006.10 271.7 m E Sn      2011/07/06 03:10:57.9   0.1                          T                1.2  .21 Ml 2.9         4720713
FRF   006.38 261.3 m E Pn      2011/07/06 03:09:55.7   0.0                          T                                        4720722
LPL   006.12 279.1 m E P       2011/07/06 03:09:57.4   0.4                          T                                        4720721
LPL   006.12 279.1 m E Sn      2011/07/06 03:10:58.3  -0.1                          T                2.8  .46 Ml 2.9         4720711
LMR   006.54 259.6 m E Pn      2011/07/06 03:09:57.7  -0.2                          T                                        4720723
ORIF  006.72 273.8 m E Pn      2011/07/06 03:10:00.4   0.0                          T                                        4720720
ORIF  006.72 273.8 m E Sn      2011/07/06 03:11:12.4  -0.2                          T                4.5  .51 Ml 3.1         4720712
HAU   006.96 300.0 m E Pn      2011/07/06 03:10:03.8   0.1                          T                                        4720716
HAU   006.96 300.0 m E Sn      2011/07/06 03:11:18.7   0.4                          T                3.7  .37 Ml 3.0         4720714
VIVF  007.58 273.7 m E Pn      2011/07/06 03:10:11.6  -0.5                          T                                        4720718
SMF   008.24 286.5 m E Pn      2011/07/06 03:10:20.9  -0.1                          T                                        4720717
SBF   005.76 262.7 m E Sn      2011/07/06 03:10:49.2  -0.3                          T                  1  .16 Ml 2.8         4720710
HINF  006.58 299.7 m E Sn      2011/07/06 03:11:09.5   0.5                          T                4.8  .47 Ml 3.2         4720715

.
EVENT     261125
    Date      Time       Latitude Longitude    Depth    Ndef Nsta Gap    Mag1  N    Mag2  N    Mag3  N   Author         ID
       rms   OT_Error      Smajor Sminor Az        Err   mdist  Mdist     Err        Err        Err      Quality

2011/07/06 09:32:09.9     47.8024    5.8805       .0 f    19   10 084  Ml 2.4  4  Md 2.1  2              js067245    261125

      0.79   +-  0.06       1.4    1.1  150.98 +-  0.0    0.37   1.81   +-0.1      +-0.1                 m i km

FRANCE
Sta     Dist  EvAz     Phase      Date       Time     TRes  Azim  AzRes  Slow  SRes Def   SNR       Amp   Per   Mag1   Mag2       ID
HAU   000.37 057.0 m E Pg      2011/07/06 09:32:17.2  -0.2                          T                                        4720764
HAU   000.37 057.0 m E Sg      2011/07/06 09:32:22.5  -0.1                          T               59.4  .70        Md 2.1  4720765
THEF  000.43 010.1 m E Pg      2011/07/06 09:32:18.7   0.2                          T                                        4720762
THEF  000.43 010.1 m E Sg      2011/07/06 09:32:24.4   0.0                          T               84.1  .65        Md 2.2  4720763
HINF  000.66 088.4 m E Pg      2011/07/06 09:32:22.7   0.1                          T                                        4720752
HINF  000.66 088.4 m E Pn      2011/07/06 09:32:25.0  -0.1                          T                                        4720753
HINF  000.66 088.4 m E Sg      2011/07/06 09:32:31.2  -0.2                          T               13.1  .28                4720760
SFTF  000.69 305.8 m E Pg      2011/07/06 09:32:23.1  -0.1 128.3  3.1               T                                        4720754
SFTF  000.69 305.8 m E Sg      2011/07/06 09:32:32.4  -0.1 121.6  -3.5              T               17.9  .44                4720755
PAGF  000.76 352.2 m E Pg      2011/07/06 09:32:24.4  -0.1                          T                                        4720749
MEZF  000.89 321.9 m E Pg      2011/07/06 09:32:26.8  -0.1                          T                                        4720751
CDF   001.12 056.4 m E Pg      2011/07/06 09:32:31.2   0.0                          T                                        4720750
CDF   001.12 056.4 m E Sg      2011/07/06 09:32:46.2   0.4                          T                7.9  .30 Ml 2.4         4720761
CABF  001.20 173.2 m E Pg      2011/07/06 09:32:32.7   0.0                          T                                        4720758
CABF  001.20 173.2 m E Sn      2011/07/06 09:32:48.8   0.1                          T                7.3  .27 Ml 2.3         4720759
LOR   001.47 249.4 m E Pg      2011/07/06 09:32:37.7   0.1  74.9  6.9               T                                        4720747
LOR   001.47 249.4 m E Sg      2011/07/06 09:32:56.8   0.1  75.5  7.5               T                6.5  .26 Ml 2.4         4720748
SMF   001.81 231.0 m E Pg      2011/07/06 09:32:43.8   0.0                          T                                        4720756
SMF   001.81 231.0 m E Sg      2011/07/06 09:33:07.5   0.1                          T                8.1  .41 Ml 2.5         4720757

.
EVENT     261130
    Date      Time       Latitude Longitude    Depth    Ndef Nsta Gap    Mag1  N    Mag2  N    Mag3  N   Author         ID
       rms   OT_Error      Smajor Sminor Az        Err   mdist  Mdist     Err        Err        Err      Quality

2011/07/06 14:40:37.8     47.5365    7.5119     10.0      46   19 044  Ml 2.7 17  Md 2.6  3              js067245    261130

      0.77   +-  0.06       1.3     .9  151.39 +-  0.0    0.24   5.69   +-0.3      +-0.1                 m i ke

SWITZERLAND
Sta     Dist  EvAz     Phase      Date       Time     TRes  Azim  AzRes  Slow  SRes Def   SNR       Amp   Per   Mag1   Mag2       ID
HINF  000.53 302.4 m E Pg      2011/07/06 14:40:48.0   0.0                          T   001.0                                4715638
HINF  000.53 302.4 m E Sg      2011/07/06 14:40:54.8  -0.2                          T   001.0       36.1  .25        Md 2.6  4715639
CDF   000.89 349.8 m E Pg      2011/07/06 14:40:54.7   0.0                          T   001.0                                4715626
CDF   000.89 349.8 m E Sg      2011/07/06 14:41:06.5   0.1                          T   001.0       55.6  .26 Ml 3.2         4715627
HAU   000.91 301.3 m E Pg      2011/07/06 14:40:55.1   0.0                          T   001.0                                4715630
HAU   000.91 301.3 m E Sg      2011/07/06 14:41:06.7  -0.3                          T   001.0       31.5  .30 Ml 2.6 Md 2.5  4715631
CABF  001.34 227.0 m E Pn      2011/07/06 14:41:01.1  -0.1                          T   001.0                                4715636
CABF  001.34 227.0 m E Pg      2011/07/06 14:41:02.8  -0.2                          T                                        4720773
CABF  001.34 227.0 m E Sg      2011/07/06 14:41:20.3  -0.2                          T   001.0       15.0  .23 Ml 2.8         4715637
THEF  001.23 304.7 m E Pg      2011/07/06 14:41:01.2   0.2                          T                                        4715932
THEF  001.23 304.7 m E Sg      2011/07/06 14:41:17.1   0.1                          T               23.3  .21 Ml 3.0 Md 2.7  4715931
LANF  001.46 007.6 m E Pg      2011/07/06 14:41:05.1   0.0                          T                                        4720779
LANF  001.46 007.6 m E Sg      2011/07/06 14:41:23.4  -0.5                          T               18.9  .31 Ml 2.8         4720780
SFTF  001.79 292.8 m E Pn      2011/07/06 14:41:07.2   0.0 105.9  -5.1              T                                        4720776
SFTF  001.79 292.8 m E Pg      2011/07/06 14:41:11.3   0.0                          T                                        4720775
SFTF  001.79 292.8 m E Sg      2011/07/06 14:41:34.4   0.0                          T                8.7  .22 Ml 2.7         4720778
MEZF  001.91 301.2 m E Pg      2011/07/06 14:41:13.5   0.1                          T                                        4720774
MEZF  001.91 301.2 m E Sg      2011/07/06 14:41:38.1   0.0                          T                5.1  .20 Ml 2.6         4720777
RUP   002.19 352.3 m E Pg      2011/07/06 14:41:18.4  -0.1                          T                                        4720781
RUP   002.19 352.3 m E Sg      2011/07/06 14:41:46.8   0.1                          T                                        4720782
SMF   002.66 251.8 m E Pn      2011/07/06 14:41:19.0   0.0                          T                                        4720770
SMF   002.66 251.8 m E P       2011/07/06 14:41:21.5  -0.2                          T   001.0                                4715634
SMF   002.66 251.8 m E Pg      2011/07/06 14:41:27.1  -0.1                          T                                        4720769
SMF   002.66 251.8 m E Sg      2011/07/06 14:42:00.4  -1.0                          T   001.0        5.6  .22 Ml 2.8         4715635
LOR   002.50 265.2 m E Pg      2011/07/06 14:41:23.4  -0.8  88.3  5.8               T   001.0                                4715632
LOR   002.50 265.2 m E Sg      2011/07/06 14:41:55.5  -0.8 101.3  18.8              T   001.0       16.3  .24 Ml 3.2         4715633
AVF   002.93 256.8 m E Pn      2011/07/06 14:41:23.8   1.2                          T   001.0                                4715621
AVF   002.93 256.8 m E P       2011/07/06 14:41:26.1   0.6                          T                                        4720772
AVF   002.93 256.8 m E Pg      2011/07/06 14:41:32.3   0.1                          T                                        4720771
AVF   002.93 256.8 m E Sn      2011/07/06 14:41:55.7  -0.1                          T   001.0                                4715622
AVF   002.93 256.8 m E Sg      2011/07/06 14:42:10.0   0.0                          T   001.0        1.5  .22 Ml 2.2         4715623
BGF   003.34 254.7 m E P       2011/07/06 14:41:31.3   0.0                          T                                        4720768
BGF   003.34 254.7 m E Sn      2011/07/06 14:42:05.5   0.0                          T   001.0        5.7  .28 Ml 2.8         4715624
LPL   002.09 195.2 m E Sg      2011/07/06 14:41:44.7   0.8                          T                4.6  .30 Ml 2.4         4720766
SSF   002.77 261.6 m E Sg      2011/07/06 14:42:04.1  -0.6                          T                5.7  .38 Ml 2.6         4720783
ORIF  002.85 204.0 m E Sg      2011/07/06 14:42:07.5   0.0                          T   001.0        2.5  .26 Ml 2.4         4715640
VIVF  003.33 217.4 m E Sg      2011/07/06 14:42:22.3   0.1                          T                4.0  .22 Ml 2.8         4720767
CAF   004.59 237.4 m E Sg      2011/07/06 14:43:01.8   0.0                          T   001.0        2.5  .52 Ml 2.5         4715625
GRR   005.69 281.7 m E Sg      2011/07/06 14:43:34.4  -1.4                          T   001.0        5.9  .60 Ml 2.9         4715628

.
EVENT     261133
    Date      Time       Latitude Longitude    Depth    Ndef Nsta Gap    Mag1  N    Mag2  N    Mag3  N   Author         ID
       rms   OT_Error      Smajor Sminor Az        Err   mdist  Mdist     Err        Err        Err      Quality

2011/07/06 18:05:29.2     44.0884    7.0028      2.0      18   10 132  Ml 1.8  4  Md 1.8  3              js067245    261133

      0.46   +-  0.13       2.9    2.1   81.08 +-  0.0    0.38   2.27   +-0.2      +-0.1                 m i ke

NORTHERN ITALY
Sta     Dist  EvAz     Phase      Date       Time     TRes  Azim  AzRes  Slow  SRes Def   SNR       Amp   Per   Mag1   Mag2       ID
SBF   000.38 125.7 m E Pg      2011/07/06 18:05:37.2   0.4                          T                                        4715942
SBF   000.38 125.7 m E Sg      2011/07/06 18:05:42.1   0.2                          T               12.6  .36        Md 1.9  4715933
FRF   000.59 206.2 m E Pg      2011/07/06 18:05:39.9  -0.4                          T                                        4715944
FRF   000.59 206.2 m E Sg      2011/07/06 18:05:48.5   0.4                          T                5.1  .26        Md 1.9  4715935
MBDF  000.66 345.5 m E Pg      2011/07/06 18:05:41.6  -0.3                          T                                        4715945
MBDF  000.66 345.5 m E Sg      2011/07/06 18:05:49.2  -1.3                          T                4.2  .32        Md 1.7  4715938
LMR   000.83 205.6 m E Pg      2011/07/06 18:05:44.4  -0.5                          T                                        4715943
LMR   000.83 205.6 m E Sg      2011/07/06 18:05:55.7   0.0                          T                4.9  .21                4715934
SMRF  001.04 264.3 m E Pg      2011/07/06 18:05:49.5   0.8                          T                                        4715947
SMRF  001.04 264.3 m E Sg      2011/07/06 18:06:02.5   0.4                          T                4.6  .26 Ml 2.1         4715936
ORIF  001.15 316.3 m E Pg      2011/07/06 18:05:50.1  -0.8                          T                                        4715946
ORIF  001.15 316.3 m E Sg      2011/07/06 18:06:07.0   1.0                          T                2.1  .29 Ml 1.7         4715937
LPL   001.44 352.4 m E Pg      2011/07/06 18:05:56.3  -0.1                          T                                        4718848
LPG   001.42 352.8 m E Pg      2011/07/06 18:05:56.3   0.2                          T                                        4718847
VIVF  001.84 295.5 m E Pn      2011/07/06 18:06:00.3   0.2                          T                                        4718846
VIVF  001.84 295.5 m E Sn      2011/07/06 18:06:22.4  -0.1                          T                1.5  .43 Ml 1.7         4715939
LASF  002.27 270.8 m E Pg      2011/07/06 18:06:11.5   0.1                          T                                        4715941
LASF  002.27 270.8 m E Sg      2011/07/06 18:06:41.0   0.5                          T                 .7  .26 Ml 1.7         4715940

.
