BEGIN GSE2.0
MSG_TYPE DATA
MSG_ID 13-MAR-1312:21:34  FRA_NDC
E-MAIL
DATA_TYPE BULLETIN
Reviewed Bulletin (REB) # P2013-010  from French NDC for regional phases     PERIOD 06 MAR 2013 TO 12 MAR 2013 Cenalt JP S
EVENT     293199
    Date      Time       Latitude Longitude    Depth    Ndef Nsta Gap    Mag1  N    Mag2  N    Mag3  N   Author         ID
       rms   OT_Error      Smajor Sminor Az        Err   mdist  Mdist     Err        Err        Err      Quality

2013/03/06 01:58:22.0     42.7278   -1.7417      2.0       5    3 325  Ml 1.3  1  Md 1.2  2              bulletin    293299
                                                                                                         _ldg
      0.16   +-  0.46       8.7    6.2   70.23 +-  0.0    0.54   1.56   +-         +-0.0                 m i ke

PYRENEES
Sta     Dist  EvAz     Phase      Date       Time     TRes  Azim  AzRes  Slow  SRes Def   SNR       Amp   Per   Mag1   Mag2       ID
SJPF  000.54 044.4 m E Pg      2013/03/06 01:58:32.4   0.1                          T                                        5217607
SJPF  000.54 044.4 m E Sg      2013/03/06 01:58:39.1  -0.3                          T                1.9  .21        Md 1.3  5217606
ETSF  000.89 078.5 m E Pg      2013/03/06 01:58:38.7  -0.1                          T                                        5217605
ETSF  000.89 078.5 m E Sg      2013/03/06 01:58:50.5   0.3                          T                 .6  .17 Ml 1.3 Md 1.2  5217604
EPF   001.56 078.1 m E Pg      2013/03/06 01:58:51.0  -0.1                          T                                        5217603

.
EVENT     293200
    Date      Time       Latitude Longitude    Depth    Ndef Nsta Gap    Mag1  N    Mag2  N    Mag3  N   Author         ID
       rms   OT_Error      Smajor Sminor Az        Err   mdist  Mdist     Err        Err        Err      Quality

2013/03/06 02:12:43.5     44.0473   11.5174      7.0 f    84   25 133  Ml 3.2 25  Md 3.1  2              bulletin    293300
                                                                                                         _ldg
      1.03   +-  0.16       4.1    2.8   53.52 +-  0.0    0.12   7.00   +-0.4      +-0.0                 m i ke

NORTHERN ITALY
Sta     Dist  EvAz     Phase      Date       Time     TRes  Azim  AzRes  Slow  SRes Def   SNR       Amp   Per   Mag1   Mag2       ID
PGF   002.37 231.7 m E Pn      2013/03/06 02:13:20.9  -0.2                          T                                        5217646
PGF   002.37 231.7 m E Sn      2013/03/06 02:13:49.4   0.7                          T               11.4  .30 Ml 3.1 Md 3.1  5217643
SBF   002.95 267.8 m E Pn      2013/03/06 02:13:28.6  -0.4                          T                                        5217645
SBF   002.95 267.8 m E Sn      2013/03/06 02:14:02.6   0.0                          T               41.9  .45 Ml 3.4 Md 3.1  5217644
MBDF  003.47 282.9 m E P       2013/03/06 02:13:38.7  -0.6                          T                                        5217647
MBDF  003.47 282.9 m E Sn      2013/03/06 02:14:15.0  -0.1                          T               64.3 1.00 Ml 3.3         5217635
FRF   003.56 263.8 m E P       2013/03/06 02:13:38.8  -1.6                          T                                        5217651
FRF   003.56 263.8 m E Sn      2013/03/06 02:14:17.1   0.1                          T               17.8  .44 Ml 3.2         5217641
LPG   003.69 294.8 m E P       2013/03/06 02:13:41.9  -0.8                          T                                        5217650
LPG   003.69 294.8 m E Sn      2013/03/06 02:14:20.1  -0.4                          T               12.3  .45 Ml 3.0         5217638
LPL   003.71 295.0 m E P       2013/03/06 02:13:42.0  -0.8                          T                                        5217649
LPL   003.71 295.0 m E Sn      2013/03/06 02:14:20.5  -0.3                          T               10.6  .40 Ml 3.0         5217637
ORIF  004.13 284.1 m E P       2013/03/06 02:13:47.8  -0.8                          T                                        5217648
ORIF  004.13 284.1 m E Sn      2013/03/06 02:14:30.5  -0.1                          T               17.3  .68 Ml 3.1         5217636
SMRF  004.29 271.1 m E P       2013/03/06 02:13:49.5  -1.3                          T                                        5217640
SMRF  004.29 271.1 m E Sn      2013/03/06 02:14:33.5  -0.9                          T                2.9  .35 Ml 2.6         5217639
CABF  004.61 305.7 m E P       2013/03/06 02:13:54.8  -0.7                          T                                        5217655
CABF  004.61 305.7 m E Sn      2013/03/06 02:14:41.6  -0.6                          T               23.4  .90 Ml 3.2         5217625
HINF  004.98 320.8 m E P       2013/03/06 02:13:59.5  -1.1                          T                                        5217656
HINF  004.98 320.8 m E Sn      2013/03/06 02:14:50.0  -1.0                          T               10.0  .32 Ml 3.4         5217624
HINF  004.98 320.8 m E S       2013/03/06 02:14:57.5  -1.9                          T                                        5217623
VIVF  004.97 281.7 m E P       2013/03/06 02:14:00.1  -0.3                          T                                        5217634
VIVF  004.97 281.7 m E Sn      2013/03/06 02:14:50.4  -0.2                          T                 .7  .24 Ml 2.4         5217633
CDF   005.26 327.5 m E P       2013/03/06 02:14:02.6  -2.1                          T                                        5217662
CDF   005.26 327.5 m E Sn      2013/03/06 02:14:57.3  -0.5                          T                9.9  .33 Ml 3.5         5217661
HAU   005.35 319.5 m E P       2013/03/06 02:14:04.1  -1.7                          T                                        5217657
HAU   005.35 319.5 m E Sn      2013/03/06 02:14:58.7  -1.1                          T                                        5217621
HAU   005.35 319.5 m E S       2013/03/06 02:15:05.8  -2.9                          T               21.2  .47                5217622
LASF  005.52 273.0 m E P       2013/03/06 02:14:08.7   0.5                          T                                        5217632
LASF  005.52 273.0 m E Sn      2013/03/06 02:15:04.5   0.7                          T                1.5  .30 Ml 2.7         5217631
SMF   006.00 298.3 m E P       2013/03/06 02:14:14.0  -1.0                          T                                        5217653
SMF   006.00 298.3 m E Sn      2013/03/06 02:15:14.8  -0.6                          T                8.1  .50 Ml 3.3         5217628
PAGF  006.03 320.4 m E P       2013/03/06 02:14:14.7  -0.8 139.6  3.4               T                                        5217658
PAGF  006.03 320.4 m E Sn      2013/03/06 02:15:16.2   0.1                          T              156.0 1.29 Ml 4.2         5217618
SFTF  006.13 315.0 m E P       2013/03/06 02:14:15.4  -1.4 128.7  -1.6              T                                        5217660
SFTF  006.13 315.0 m E Sn      2013/03/06 02:15:17.2  -1.1                          T                5.6  .43 Ml 3.2         5217620
LOR   006.26 303.6 m E P       2013/03/06 02:14:17.2  -1.5 122.5  4.3               T                                        5217616
LOR   006.26 303.6 m E Sn      2013/03/06 02:15:20.9  -0.6                          T               12.1  .48 Ml 3.6         5217617
MEZF  006.32 317.1 m E P       2013/03/06 02:14:18.6  -0.9 136.6  4.2               T                                        5217659
MEZF  006.32 317.1 m E Sn      2013/03/06 02:15:21.9  -0.9                          T                7.6  .56 Ml 3.3         5217619
SSF   006.38 301.0 m E P       2013/03/06 02:14:19.0  -1.4                          T                                        5217615
SSF   006.38 301.0 m E Sn      2013/03/06 02:15:24.1  -0.3                          T                3.2  .33 Ml 3.3         5217614
AVF   006.37 298.4 m E P       2013/03/06 02:14:19.4  -0.7                          T                                        5217654
AVF   006.37 298.4 m E Sn      2013/03/06 02:15:24.2   0.1                          T                 .8  .31 Ml 2.6         5217626
LMR   003.70 260.6 m E Sn      2013/03/06 02:14:20.2  -0.1                          T                6.0  .40 Ml 2.8         5217642
BGF   006.61 295.3 m E P       2013/03/06 02:14:22.6  -1.0                          T                                        5217652
BGF   006.61 295.3 m E Sn      2013/03/06 02:15:30.9   1.0                          T                9.3  .57 Ml 3.4         5217627
MTLF  006.78 267.2 m E P       2013/03/06 02:14:22.9  -3.1                          T                                        5217630
HYF   007.00 300.5 m E Pn      2013/03/06 02:14:22.9  -1.2                          T                                        5217629

.
EVENT     293201
    Date      Time       Latitude Longitude    Depth    Ndef Nsta Gap    Mag1  N    Mag2  N    Mag3  N   Author         ID
       rms   OT_Error      Smajor Sminor Az        Err   mdist  Mdist     Err        Err        Err      Quality

2013/03/06 02:47:02.5     46.9488     .6915      2.0      34   15 093  Ml 2.0 14  Md 2.0  2              bulletin    293301
                                                                                                         _ldg
      0.35   +-  0.04       1.1     .7   20.60 +-  0.0    0.67   2.79   +-0.2      +-0.1                 m i ke

FRANCE
Sta     Dist  EvAz     Phase      Date       Time     TRes  Azim  AzRes  Slow  SRes Def   SNR       Amp   Per   Mag1   Mag2       ID
MFF   000.67 239.2 m E Pg      2013/03/06 02:47:15.2   0.0                          T                                        5217696
MFF   000.67 239.2 m E Sg      2013/03/06 02:47:23.6  -0.3                          T                3.4  .16        Md 2.0  5217682
TCF   001.24 121.7 m E Pg      2013/03/06 02:47:25.8   0.1                          T                                        5217695
TCF   001.24 121.7 m E Sg      2013/03/06 02:47:41.4  -0.2                          T                3.1  .24 Ml 2.1 Md 1.9  5217681
HYF   001.37 075.8 m E Pg      2013/03/06 02:47:28.3   0.2                          T                                        5217676
HYF   001.37 075.8 m E Sg      2013/03/06 02:47:46.0   0.3                          T                                        5217677
BGF   001.53 104.0 m E Pg      2013/03/06 02:47:31.2   0.2                          T                                        5217693
BGF   001.53 104.0 m E Sg      2013/03/06 02:47:50.9   0.1                          T                9.7  .39 Ml 2.4         5217675
LDF   001.73 341.9 m E Pg      2013/03/06 02:47:34.5  -0.2                          T                                        5217691
LDF   001.73 341.9 m E Sg      2013/03/06 02:47:57.3   0.2                          T                2.0  .21 Ml 2.1         5217684
RJF   001.74 160.5 m E Pg      2013/03/06 02:47:34.9   0.0                          T                                        5217673
RJF   001.74 160.5 m E Sg      2013/03/06 02:47:57.2  -0.1                          T                3.1  .20 Ml 2.0         5217674
GRR   001.78 324.5 m E Pg      2013/03/06 02:47:35.5  -0.1                          T                                        5217692
GRR   001.78 324.5 m E Sg      2013/03/06 02:47:58.6   0.1                          T                1.5  .24 Ml 1.8         5217683
AVF   001.83 094.0 m E Pg      2013/03/06 02:47:36.8   0.2                          T                                        5217694
AVF   001.83 094.0 m E Sg      2013/03/06 02:47:59.6  -0.5                          T                 .9  .18 Ml 1.9         5217680
SSF   001.93 085.6 m E Pg      2013/03/06 02:47:38.7   0.4                          T                                        5217690
SSF   001.93 085.6 m E Sg      2013/03/06 02:48:02.2  -1.0                          T                1.2  .21 Ml 2.0         5217687
FLN   001.98 336.9 m E Pg      2013/03/06 02:47:38.9  -0.3 156.4  0.4               T                                        5217685
FLN   001.98 336.9 m E Sg      2013/03/06 02:48:04.7   0.0 154.6  -1.5              T                2.3  .21 Ml 2.1         5217686
LFF   002.01 179.0 m E Pg      2013/03/06 02:47:39.8   0.0                          T                                        5217671
LFF   002.01 179.0 m E Sg      2013/03/06 02:48:05.7   0.0                          T                3.2  .29 Ml 2.1         5217672
LOR   002.19 080.4 m E Pg      2013/03/06 02:47:43.1   0.0                          T                                        5217689
LOR   002.19 080.4 m E Sg      2013/03/06 02:48:10.2  -1.1                          T                                        5217688
SMF   002.18 096.8 m E Pg      2013/03/06 02:47:43.3   0.2                          T                                        5217678
SMF   002.18 096.8 m E Sg      2013/03/06 02:48:10.8  -0.4                          T                 .6  .20 Ml 1.8         5217679
SGMF  002.56 301.9 m E Pg      2013/03/06 02:47:50.0   0.1                          T                                        5217667
SGMF  002.56 301.9 m E Sg      2013/03/06 02:48:22.7   0.0                          T                 .5  .18 Ml 1.8         5217668
QUIF  002.79 291.7 m E Pg      2013/03/06 02:47:54.5   0.3                          T                                        5217670
QUIF  002.79 291.7 m E Sg      2013/03/06 02:48:29.9  -0.1                          T                1.3  .20 Ml 2.2         5217669

.
EVENT     293202
    Date      Time       Latitude Longitude    Depth    Ndef Nsta Gap    Mag1  N    Mag2  N    Mag3  N   Author         ID
       rms   OT_Error      Smajor Sminor Az        Err   mdist  Mdist     Err        Err        Err      Quality

2013/03/06 03:01:03.5     42.7187   -1.7391      2.0      17    3 105  Ml 1.4  2  Md 1.4  2              bulletin    293302
                                                                                                         _ldg
      0.57   +-  0.17       3.3    2.4  150.85 +-  0.0    0.13   1.91   +-0.4      +-0.0                 m i ke

PYRENEES
Sta     Dist  EvAz     Phase      Date       Time     TRes  Azim  AzRes  Slow  SRes Def   SNR       Amp   Per   Mag1   Mag2       ID
SJPF  000.55 043.6 m E Pg      2013/03/06 03:01:14.1   0.2                          T                                        5217718
SJPF  000.55 043.6 m E Sg      2013/03/06 03:01:21.3   0.3                          T                1.1  .17        Md 1.4  5217717
ETSF  000.89 077.9 m E Pg      2013/03/06 03:01:20.3   0.0                          T                                        5217716
ETSF  000.89 077.9 m E Sg      2013/03/06 03:01:31.9   0.1                          T                 .4  .19 Ml 1.1 Md 1.3  5217715
EPF   001.56 077.8 m E Pg      2013/03/06 03:01:32.6   0.0                          T                                        5217714
EPF   001.56 077.8 m E Sg      2013/03/06 03:01:52.8   0.1                          T                 .8  .23 Ml 1.6         5217713

.
EVENT     293203
    Date      Time       Latitude Longitude    Depth    Ndef Nsta Gap    Mag1  N    Mag2  N    Mag3  N   Author         ID
       rms   OT_Error      Smajor Sminor Az        Err   mdist  Mdist     Err        Err        Err      Quality

2013/03/06 03:26:48.8     46.0319    6.8797      2.0      14    5 135  Ml 1.4  3  Md 1.4  2              bulletin    293303
                                                                                                         _ldg
      0.20   +-  0.07       2.5    1.0  112.52 +-  0.0    0.13   1.95   +-0.3      +-0.0                 m i ke

SWITZERLAND
Sta     Dist  EvAz     Phase      Date       Time     TRes  Azim  AzRes  Slow  SRes Def   SNR       Amp   Per   Mag1   Mag2       ID
LPL   000.53 191.4 m E Pg      2013/03/06 03:26:58.9  -0.2                          T                                        5217727
LPL   000.53 191.4 m E Sg      2013/03/06 03:27:06.0   0.0                          T                 .6  .20        Md 1.4  5217724
LPG   000.54 189.6 m E Pg      2013/03/06 03:26:59.2  -0.2                          T                                        5217726
LPG   000.54 189.6 m E Sg      2013/03/06 03:27:06.5  -0.1                          T                 .4  .16        Md 1.4  5217725
MBDF  001.31 183.4 m E Pg      2013/03/06 03:27:13.7   0.3                          T                                        5217722
MBDF  001.31 183.4 m E Sg      2013/03/06 03:27:30.0  -0.3                          T                 .5  .16 Ml 1.4         5217721
ORIF  001.32 212.6 m E Pg      2013/03/06 03:27:13.7   0.3                          T                                        5217723
ORIF  001.32 212.6 m E Sg      2013/03/06 03:27:30.2  -0.4                          T                 .2  .17 Ml 1.1         5217720
VIVF  001.95 233.7 m E Sg      2013/03/06 03:27:50.2   0.1                          T                 .8  .23 Ml 1.7         5217719

.
EVENT     293247
    Date      Time       Latitude Longitude    Depth    Ndef Nsta Gap    Mag1  N    Mag2  N    Mag3  N   Author         ID
       rms   OT_Error      Smajor Sminor Az        Err   mdist  Mdist     Err        Err        Err      Quality

2013/03/06 07:37:46.4     37.6325   -1.3888      6.0 f    54    3 168  Ml 2.4  2                         bulletin    293347
                                                                                                         _ldg
      0.87   +-  0.17       3.6    1.8  142.06 +-  0.0    0.24   6.33   +-0.2                            m i ke

SPAIN
Sta     Dist  EvAz     Phase      Date       Time     TRes  Azim  AzRes  Slow  SRes Def   SNR       Amp   Per   Mag1   Mag2       ID
ETSF  005.30 006.6 m E Pn      2013/03/06 07:39:04.2   0.2                          T                                        5217871
ETSF  005.30 006.6 m E Sn      2013/03/06 07:40:02.3   0.6                          T                1.2  .29 Ml 2.6         5217868
SJPF  005.48 001.3 m E Pn      2013/03/06 07:39:06.8   0.5                          T                                        5217872
SJPF  005.48 001.3 m E Sn      2013/03/06 07:40:05.5  -0.4                          T                 .4  .20 Ml 2.3         5217869
EPF   005.55 013.2 m E Pn      2013/03/06 07:39:08.1   0.7                          T                                        5217870

.
