EVENT     288841
    Date      Time       Latitude Longitude    Depth    Ndef Nsta Gap    Mag1  N    Mag2  N    Mag3  N   Author         ID
       rms   OT_Error      Smajor Sminor Az        Err   mdist  Mdist     Err        Err        Err      Quality

2012/12/21 00:23:10.7     36.9137   -4.1238     10.0      91    5 087  Ml 3.5  5                         bulletin    288941
                                                                                                         _ldg
      1.14   +-  0.16       3.9    2.7  161.14 +-  0.0    0.62   8.82   +-0.2                            m i ke

STRAIT OF GIBRALTAR
Sta     Dist  EvAz     Phase      Date       Time     TRes  Azim  AzRes  Slow  SRes Def   SNR       Amp   Per   Mag1   Mag2       ID
ETSF  006.57 023.5 m E Pn      2012/12/21 00:24:45.0  -0.2                          T                                        5144425
ETSF  006.57 023.5 m E Sn      2012/12/21 00:25:53.3  -2.6                          T                                        5144416
ETSF  006.57 023.5 m E Sg      2012/12/21 00:26:38.0   1.4                          T                6.3  .34 Ml 3.5         5144420
SJPF  006.58 018.9 m E Pn      2012/12/21 00:24:45.2  -0.1                          T                                        5144424
SJPF  006.58 018.9 m E Pg      2012/12/21 00:25:12.4   0.1                          T                                        5144415
SJPF  006.58 018.9 m E Sn      2012/12/21 00:25:53.8  -2.1                          T                                        5144422
SJPF  006.58 018.9 m E Sg      2012/12/21 00:26:38.0   1.4                          T                6.8  .28 Ml 3.6         5144419
EPF   007.00 027.9 m E Pn      2012/12/21 00:24:50.0  -1.0                          T                                        5144423
EPF   007.00 027.9 m E Pg      2012/12/21 00:25:20.8   0.7                          T                                        5144417
EPF   007.00 027.9 m E Sn      2012/12/21 00:26:04.2  -1.9                          T                                        5144421
EPF   007.00 027.9 m E Sg      2012/12/21 00:26:51.3   1.4                          T                9.3  .33 Ml 3.7         5144418
MTLF  008.05 035.1 m E Pn      2012/12/21 00:25:03.9  -1.3                          T                                        5144411
MTLF  008.05 035.1 m E Sg      2012/12/21 00:27:23.6   1.2                          T                2.9  .37 Ml 3.3         5144410
LFF   008.82 023.1 m E Pn      2012/12/21 00:25:14.0  -1.7                          T                                        5144414
LFF   008.82 023.1 m E Pg      2012/12/21 00:25:54.5   1.0                          T                                        5144413
LFF   008.82 023.1 m E Sn      2012/12/21 00:26:47.4  -2.0                          T                3.0  .29 Ml 3.4         5144412

.
EVENT     288842
    Date      Time       Latitude Longitude    Depth    Ndef Nsta Gap    Mag1  N    Mag2  N    Mag3  N   Author         ID
       rms   OT_Error      Smajor Sminor Az        Err   mdist  Mdist     Err        Err        Err      Quality

2012/12/21 00:57:09.8     48.3796    8.9987     10.0 f    20    3 051  Ml 1.9  3  Md 1.9  2              bulletin    288942
                                                                                                         _ldg
      0.49   +-  0.08       1.5    1.3  151.60 +-  0.0    0.25   1.81   +-0.1      +-0.2                 m i ke

GERMANY
Sta     Dist  EvAz     Phase      Date       Time     TRes  Azim  AzRes  Slow  SRes Def   SNR       Amp   Per   Mag1   Mag2       ID
CDF   001.15 272.3 m E Pg      2012/12/21 00:57:31.2  -0.2                          T                                        5144446
CDF   001.15 272.3 m E Pn      2012/12/21 00:57:31.7   1.2                          T                                        5144438
CDF   001.15 272.3 m E Sg      2012/12/21 00:57:45.0  -1.4                          T                2.1  .23 Ml 1.9 Md 1.8  5144445
HINF  001.54 249.4 m E Pn      2012/12/21 00:57:38.0   2.2                          T                                        5144441
HINF  001.54 249.4 m E Sn      2012/12/21 00:57:56.2   1.5                          T                                        5144442
HINF  001.54 249.4 m E Sg      2012/12/21 00:57:58.4  -0.2                          T                1.4  .24 Ml 1.8 Md 2.1  5144439
HAU   001.81 259.1 m E Pn      2012/12/21 00:57:41.4   1.9                          T                                        5144440
HAU   001.81 259.1 m E Pg      2012/12/21 00:57:43.7   0.1                          T                                        5144444
HAU   001.81 259.1 m E Sg      2012/12/21 00:58:06.4  -0.6                          T                3.4  .35 Ml 1.9         5144443

.
EVENT     288843
    Date      Time       Latitude Longitude    Depth    Ndef Nsta Gap    Mag1  N    Mag2  N    Mag3  N   Author         ID
       rms   OT_Error      Smajor Sminor Az        Err   mdist  Mdist     Err        Err        Err      Quality

2012/12/21 02:56:39.9     43.6809    7.2216      2.0      13    8 196  Ml 1.4  2  Md 1.5  2              bulletin    288943
                                                                                                         _ldg
      0.17   +-  0.11       2.8    1.1  134.53 +-  0.0    0.24   1.87   +-0.2      +-0.0                 m i ke

NEAR SOUTH COAST OF FRANCE
Sta     Dist  EvAz     Phase      Date       Time     TRes  Azim  AzRes  Slow  SRes Def   SNR       Amp   Per   Mag1   Mag2       ID
SBF   000.24 040.3 m E Pg      2012/12/21 02:56:44.5  -0.2                          T                                        5144459
SBF   000.24 040.3 m E Sg      2012/12/21 02:56:48.1   0.1                          T               22.1  .22        Md 1.5  5144458
FRF   000.43 254.1 m E Pg      2012/12/21 02:56:47.9  -0.3                          T                                        5144456
FRF   000.43 254.1 m E Sg      2012/12/21 02:56:53.8  -0.2                          T                5.1  .24        Md 1.5  5144455
LMR   000.62 236.5 m E Pg      2012/12/21 02:56:51.8   0.2                          T                                        5144457
LMR   000.62 236.5 m E Sg      2012/12/21 02:57:00.1   0.2                          T                1.4  .21                5144454
MBDF  001.09 343.0 m E Pg      2012/12/21 02:57:00.6   0.0                          T                                        5144448
MBDF  001.09 343.0 m E Sg      2012/12/21 02:57:14.5  -0.3                          T                 .5  .18 Ml 1.3         5144447
SMRF  001.23 284.5 m E Pn      2012/12/21 02:57:02.5   0.0                          T                                        5144453
SMRF  001.23 284.5 m E Sn      2012/12/21 02:57:18.8   0.1                          T                 .7  .17 Ml 1.6         5144452
ORIF  001.57 322.6 m E Pn      2012/12/21 02:57:07.2   0.1                          T                                        5144449
LPG   001.85 349.7 m E Pn      2012/12/21 02:57:11.3   0.1                          T                                        5144451
LPL   001.87 349.4 m E Pn      2012/12/21 02:57:11.4   0.0                          T                                        5144450

.
EVENT     288846
    Date      Time       Latitude Longitude    Depth    Ndef Nsta Gap    Mag1  N    Mag2  N    Mag3  N   Author         ID
       rms   OT_Error      Smajor Sminor Az        Err   mdist  Mdist     Err        Err        Err      Quality

2012/12/21 06:58:30.6     43.1465   10.9893      9.0 f    35    7 040  Ml 2.4  7                         bulletin    288946
                                                                                                         _ldg
      0.39   +-  0.06       1.4    1.3  161.82 +-  0.0    0.07   4.09   +-0.3                            m i ke

CENTRAL ITALY
Sta     Dist  EvAz     Phase      Date       Time     TRes  Azim  AzRes  Slow  SRes Def   SNR       Amp   Per   Mag1   Mag2       ID
PGF   001.58 248.5 m E Pn      2012/12/21 06:58:57.7   0.5                          T                                        5144511
PGF   001.58 248.5 m E Sn      2012/12/21 06:59:14.3  -2.3                          T               13.4  .34 Ml 2.9         5144510
SBF   002.68 286.7 m E Pn      2012/12/21 06:59:12.5   0.3                          T                                        5144509
SBF   002.68 286.7 m E Sn      2012/12/21 06:59:42.3  -0.6                          T                4.4  .42 Ml 2.4         5144545
FRF   003.19 278.9 m E Pn      2012/12/21 06:59:19.1   0.0                          T                                        5144543
FRF   003.19 278.9 m E Sn      2012/12/21 06:59:55.1   0.1                          T                1.1  .27 Ml 2.1         5144542
LMR   003.28 274.8 m E Pn      2012/12/21 06:59:20.4   0.2                          T                                        5144508
LMR   003.28 274.8 m E Sn      2012/12/21 06:59:56.4  -0.6                          T                1.6  .23 Ml 2.3         5144544
MBDF  003.43 298.9 m E Pn      2012/12/21 06:59:22.8   0.3                          T                                        5144538
MBDF  003.43 298.9 m E Sn      2012/12/21 06:59:59.9  -1.0                          T                1.6  .40 Ml 2.1         5144537
SMRF  004.02 283.7 m E Pn      2012/12/21 06:59:30.5   0.1                          T                                        5144539
ORIF  004.09 297.4 m E Pn      2012/12/21 06:59:30.8  -0.6                          T                                        5144536
ORIF  004.09 297.4 m E Sn      2012/12/21 07:00:15.7  -0.8                          T                2.4  .45 Ml 2.4         5144535

.
EVENT     288870
    Date      Time       Latitude Longitude    Depth    Ndef Nsta Gap    Mag1  N    Mag2  N    Mag3  N   Author         ID
       rms   OT_Error      Smajor Sminor Az        Err   mdist  Mdist     Err        Err        Err      Quality

2012/12/21 09:43:48.0     43.1717    -.4654      2.0       6    3 198             Md 1.6  2              bulletin    288970
                                                                                                         _ldg
      0.60   +-  0.40      11.5    5.6  179.81 +-  0.0    0.28   0.61              +-0.0                 m i ke

PYRENEES
Sta     Dist  EvAz     Phase      Date       Time     TRes  Azim  AzRes  Slow  SRes Def   SNR       Amp   Per   Mag1   Mag2       ID
ETSF  000.28 194.2 m E Pg      2012/12/21 09:43:53.8   0.2                          T                                        5162698
ETSF  000.28 194.2 m E Sg      2012/12/21 09:43:56.2  -1.2                          T               27.3  .32        Md 1.6  5162699
SJPF  000.56 264.3 m E Pg      2012/12/21 09:43:58.8   0.1                          T                                        5162696
SJPF  000.56 264.3 m E Sg      2012/12/21 09:44:05.0  -1.0                          T                8.5  .24        Md 1.6  5162697
EPF   000.61 103.2 m E Pg      2012/12/21 09:43:59.1  -0.5                          T                                        5162694
EPF   000.61 103.2 m E Sg      2012/12/21 09:44:08.0   0.5                          T                5.8  .29                5162695

.
EVENT     288891
    Date      Time       Latitude Longitude    Depth    Ndef Nsta Gap    Mag1  N    Mag2  N    Mag3  N   Author         ID
       rms   OT_Error      Smajor Sminor Az        Err   mdist  Mdist     Err        Err        Err      Quality

2012/12/21 15:17:19.9     47.5404    3.5875       .0 f    21    9 157  Ml 2.1  5  Md 2.3  2              bulletin    288991
                                                                                                         _ldg
      0.96   +-  0.11       2.2    1.4  143.52 +-  0.0    0.33   1.57   +-0.2      +-0.1                 m i km

FRANCE
Sta     Dist  EvAz     Phase      Date       Time     TRes  Azim  AzRes  Slow  SRes Def   SNR       Amp   Per   Mag1   Mag2       ID
LOR   000.33 145.8 m E Pg      2012/12/21 15:17:26.5  -0.1 326.6  0.6               T                                        5145002
LOR   000.33 145.8 m E Sg      2012/12/21 15:17:30.9  -0.2 333.4  7.4               T               57.4  .90        Md 2.2  5144996
SSF   000.48 186.6 m E Pg      2012/12/21 15:17:29.3  -0.1                          T                                        5145001
SSF   000.48 186.6 m E Sg      2012/12/21 15:17:35.4  -0.5                          T               29.3  .88        Md 2.3  5144997
HYF   000.70 247.4 m E Pg      2012/12/21 15:17:32.9  -0.4                          T                                        5145006
HYF   000.70 247.4 m E Sg      2012/12/21 15:17:42.9   0.2                          T                                        5145005
AVF   000.77 192.1 m E Pg      2012/12/21 15:17:34.6   0.0                          T                                        5162731
AVF   000.77 192.1 m E Pn      2012/12/21 15:17:36.6   0.1                          T                                        5144999
AVF   000.77 192.1 m E Sn      2012/12/21 15:17:48.2  -0.1                          T                3.3  .26                5144995
SMF   000.91 169.0 m E Pg      2012/12/21 15:17:37.6   0.3                          T                                        5144998
SMF   000.91 169.0 m E Sn      2012/12/21 15:17:51.8   0.0                          T               11.3  .58 Ml 2.1         5144994
BGF   001.11 207.5 m E Pg      2012/12/21 15:17:41.3   0.4                          T                                        5145000
BGF   001.11 207.5 m E Sg      2012/12/21 15:17:55.4   0.0                          T               19.6  .54 Ml 2.4         5144993
SFTF  001.18 055.2 m E Pg      2012/12/21 15:17:42.3   0.1                          T                                        5162732
SFTF  001.18 055.2 m E Sg      2012/12/21 15:17:58.0   0.2 244.8  8.5               T                3.2  .21 Ml 2.1         5162733
TCF   001.57 217.5 m E Pn      2012/12/21 15:17:47.5   0.0                          T                                        5145004
TCF   001.57 217.5 m E Pg      2012/12/21 15:17:49.4  -0.1                          T                                        5162735
TCF   001.57 217.5 m E Sg      2012/12/21 15:18:09.7  -0.2                          T                  1  .21 Ml 1.8         5145003
MEZF  001.38 045.1 m E Sn      2012/12/21 15:18:02.7  -0.1 213.5  -12.6             T                4.7  .40 Ml 2.0         5162734

.
EVENT     288893
    Date      Time       Latitude Longitude    Depth    Ndef Nsta Gap    Mag1  N    Mag2  N    Mag3  N   Author         ID
       rms   OT_Error      Smajor Sminor Az        Err   mdist  Mdist     Err        Err        Err      Quality

2012/12/21 16:10:06.2     41.6697   20.0818     10.0 f    75    7 040  Ml 3.3  3                         bulletin    288993
                                                                                                         _ldg
      1.30   +-  0.17       5.1    3.6   29.41 +-  0.0    0.27  13.67   +-0.1                            m i ke

ALBANIA
Sta     Dist  EvAz     Phase      Date       Time     TRes  Azim  AzRes  Slow  SRes Def   SNR       Amp   Per   Mag1   Mag2       ID
PGF   008.29 279.8 m E Pn      2012/12/21 16:12:04.1   0.1                          T                                        5145023
SBF   009.56 287.5 m E Pn      2012/12/21 16:12:21.2  -0.1                          T                                        5145022
SBF   009.56 287.5 m E Sn      2012/12/21 16:14:03.1   0.5                          T                2.3  .41 Ml 3.4         5162752
MBDF  010.19 291.9 m E Pn      2012/12/21 16:12:32.2   2.2                          T                                        5145021
MBDF  010.19 291.9 m E Sn      2012/12/21 16:14:17.8   0.0                          T                 .7  .27 Ml 3.2         5162753
LPL   010.42 296.1 m E Pn      2012/12/21 16:12:35.3   2.1                          T                                        5145024
LPG   010.40 296.1 m E Pn      2012/12/21 16:12:35.8   2.7                          T                                        5145025
LPG   010.40 296.1 m E Sn      2012/12/21 16:14:23.6   0.6                          T                1.6  .45 Ml 3.3         5162754
VIVF  011.68 291.0 m E P       2012/12/21 16:12:59.9   3.8                          T                                        5145020
TCF   013.67 295.8 m E P       2012/12/21 16:13:24.7   2.0                          T                                        5145019

.
EVENT     288896
    Date      Time       Latitude Longitude    Depth    Ndef Nsta Gap    Mag1  N    Mag2  N    Mag3  N   Author         ID
       rms   OT_Error      Smajor Sminor Az        Err   mdist  Mdist     Err        Err        Err      Quality

2012/12/21 16:26:52.6     42.3354    2.2642      7.0 f    33    6 052  Ml 1.6  7  Md 1.8  1              bulletin    288996
                                                                                                         _ldg
      0.30   +-  0.04       1.0     .8    4.56 +-  0.0    0.08   2.69   +-0.2      +-                    m i ke

PYRENEES
Sta     Dist  EvAz     Phase      Date       Time     TRes  Azim  AzRes  Slow  SRes Def   SNR       Amp   Per   Mag1   Mag2       ID
MTLF  001.01 358.1 m E Pg      2012/12/21 16:27:11.4  -0.2                          T                                        5145257
MTLF  001.01 358.1 m E Sg      2012/12/21 16:27:24.5  -0.1                          T                1.7  .16 Ml 1.9 Md 1.8  5145256
EPF   001.58 296.7 m E Pn      2012/12/21 16:27:20.0   0.6                          T                                        5145248
EPF   001.58 296.7 m E Pg      2012/12/21 16:27:21.9  -0.2                          T                                        5145255
EPF   001.58 296.7 m E Sg      2012/12/21 16:27:42.4  -0.1                          T                 .5  .18 Ml 1.5         5145254
LASF  002.09 033.3 m E Pn      2012/12/21 16:27:26.8   0.4                          T                                        5145259
LASF  002.09 033.3 m E Sn      2012/12/21 16:27:51.4   0.2                          T                 .5  .27 Ml 1.5         5145258
ETSF  002.16 286.1 m E Pg      2012/12/21 16:27:32.9   0.1                          T                                        5145253
ETSF  002.16 286.1 m E Sg      2012/12/21 16:28:00.6   0.0                          T                 .7  .29 Ml 1.6         5145252
CAF   002.59 356.9 m E Pn      2012/12/21 16:27:34.0   0.8                          T                                        5145262
CAF   002.59 356.9 m E Sn      2012/12/21 16:28:03.8   0.7                          T                                        5145261
CAF   002.59 356.9 m E Sg      2012/12/21 16:28:13.9  -0.3                          T                 .6  .19 Ml 1.8         5145260
SJPF  002.69 288.0 m E Pn      2012/12/21 16:27:35.0   0.5                          T                                        5145249
SJPF  002.69 288.0 m E Pg      2012/12/21 16:27:42.5   0.0                          T                                        5145251
SJPF  002.69 288.0 m E Sn      2012/12/21 16:28:05.4   0.1                          T                 .2  .20 Ml 1.3         5145250

.
