EVENT     258927
    Date      Time       Latitude Longitude    Depth    Ndef Nsta Gap    Mag1  N    Mag2  N    Mag3  N   Author         ID
       rms   OT_Error      Smajor Sminor Az        Err   mdist  Mdist     Err        Err        Err      Quality

2011/05/04 19:46:37.5     43.7848   12.7844     30.0      96   29 115  Ml 3.2 26                         js067245    258927

      0.66   +-  0.08       2.0    1.5  146.71 +-  0.0    0.09   7.93   +-0.4                            m i ke

CENTRAL ITALY
Sta     Dist  EvAz     Phase      Date       Time     TRes  Azim  AzRes  Slow  SRes Def   SNR       Amp   Per   Mag1   Mag2       ID
PGF   003.03 247.2 m E Pn      2011/05/04 19:47:22.9   0.7                          T                                        4684416
PGF   003.03 247.2 m E Sn      2011/05/04 19:47:55.8   0.4                          T                                        4684367
SBF   003.87 273.0 m E Pn      2011/05/04 19:47:33.4  -0.2                          T                                        4684411
SBF   003.87 273.0 m E Sn      2011/05/04 19:48:15.4   0.1                          T               23.2  .60 Ml 3.2         4684368
MBDF  004.42 284.4 m E Pn      2011/05/04 19:47:41.5   0.4                          T                                        4684414
MBDF  004.42 284.4 m E Sn      2011/05/04 19:48:28.5  -0.1                          T                3.7  .37 Ml 2.7         4684374
FRF   004.46 269.2 m E Pn      2011/05/04 19:47:41.6   0.1                          T                                        4684412
FRF   004.46 269.2 m E Sn      2011/05/04 19:48:29.5   0.2                          T                6.3  .37 Ml 3.0         4684370
LMR   004.58 266.5 m E Pn      2011/05/04 19:47:43.2   0.1                          T                                        4684395
LMR   004.58 266.5 m E Sn      2011/05/04 19:48:32.3   0.1                          T                3.1  .33 Ml 2.8         4684369
LPL   004.65 293.9 m E Pn      2011/05/04 19:47:44.3   0.0                          T                                        4684415
LPL   004.65 293.9 m E Sn      2011/05/04 19:48:34.3   0.1                          T                7.7  .38 Ml 3.1         4684372
LPG   004.63 293.8 m E Pn      2011/05/04 19:47:44.7   0.6                          T                                        4684413
LPG   004.63 293.8 m E Sn      2011/05/04 19:48:33.8   0.0                          T                5.1  .36 Ml 2.9         4684371
ORIF  005.08 285.3 m E Pn      2011/05/04 19:47:50.1   0.1                          T                                        4684409
ORIF  005.08 285.3 m E Sn      2011/05/04 19:48:44.3   0.1                          T               12.6  .72 Ml 3.1         4684373
SMRF  005.21 274.6 m E Pn      2011/05/04 19:47:52.1   0.3                          T                                        4684410
CABF  005.51 303.2 m E Pn      2011/05/04 19:47:56.8   0.9                          T                                        4684420
CABF  005.51 303.2 m E Sn      2011/05/04 19:48:54.5   0.0                          T                9.1  .52 Ml 3.2         4684380
HINF  005.78 316.3 m E Pn      2011/05/04 19:48:00.0   0.5                          T                                        4684419
HINF  005.78 316.3 m E Sn      2011/05/04 19:49:01.0   0.0                          T               21.8  .34 Ml 3.9         4684381
VIVF  005.92 283.2 m E Pn      2011/05/04 19:48:01.5   0.1                          T                                        4684394
VIVF  005.92 283.2 m E Sn      2011/05/04 19:49:04.1   0.0                          T                3.1  .56 Ml 2.8         4684366
CDF   006.01 322.3 m E Pn      2011/05/04 19:48:02.9   0.3                          T                                        4684408
CDF   006.01 322.3 m E Sn      2011/05/04 19:49:06.4   0.1                          T               16.0  .38 Ml 3.8         4684387
LANF  006.23 328.2 m E Pn      2011/05/04 19:48:05.4  -0.2                          T                                        4684404
LANF  006.23 328.2 m E Sn      2011/05/04 19:49:11.6  -0.1                          T               13.8  .48 Ml 3.6         4684388
HAU   006.16 315.5 m E Pn      2011/05/04 19:48:05.5   0.8                          T                                        4684418
HAU   006.16 315.5 m E Sn      2011/05/04 19:49:09.9  -0.1                          T               76.6  .54 Ml 4.1         4684382
LASF  006.45 275.7 m E Pn      2011/05/04 19:48:08.8   0.2                          T                                        4684392
THEF  006.49 315.6 m E Pn      2011/05/04 19:48:09.1   0.0                          T                                        4684417
THEF  006.49 315.6 m E Sn      2011/05/04 19:49:17.6  -0.1                          T               10.6  .37 Ml 3.6         4684383
PAGF  006.84 316.7 m E Pn      2011/05/04 19:48:14.0   0.2                          T                                        4684403
PAGF  006.84 316.7 m E Sn      2011/05/04 19:49:26.0  -0.1 137.6  6.0               T                3.2  .48 Ml 3.0         4684386
SMF   006.93 297.5 m E Pn      2011/05/04 19:48:15.2   0.0                          T                                        4684399
SMF   006.93 297.5 m E Sn      2011/05/04 19:49:28.5   0.2                          T                8.7  .54 Ml 3.4         4684378
SFTF  006.97 312.0 m E Pn      2011/05/04 19:48:15.7   0.1 134.0  7.5               T                                        4684401
SFTF  006.97 312.0 m E Sn      2011/05/04 19:49:29.4   0.1                          T                6.3  .41 Ml 3.4         4684384
MEZF  007.15 314.0 m E Pn      2011/05/04 19:48:17.9  -0.1 132.0  3.6               T                                        4684402
MEZF  007.15 314.0 m E Sn      2011/05/04 19:49:33.4   0.0                          T               11.9  .63 Ml 3.6         4684385
LOR   007.17 302.2 m E Pn      2011/05/04 19:48:18.2  -0.1 128.0  12.2              T                                        4684407
LOR   007.17 302.2 m E Sn      2011/05/04 19:49:34.1   0.0 120.3  4.5               T                4.4  .26 Ml 3.5         4684406
SSF   007.30 299.9 m E Pn      2011/05/04 19:48:20.0  -0.1                          T                                        4684405
SSF   007.30 299.9 m E Sn      2011/05/04 19:49:37.1  -0.1                          T                2.4  .48 Ml 3.1         4684390
AVF   007.30 297.6 m E Pn      2011/05/04 19:48:20.1   0.1                          T                                        4684400
AVF   007.30 297.6 m E Sn      2011/05/04 19:49:37.1   0.1                          T                1.7  .42 Ml 2.9         4684379
BGF   007.55 295.0 m E Pn      2011/05/04 19:48:23.5   0.0                          T                                        4684398
BGF   007.55 295.0 m E Sn      2011/05/04 19:49:43.1   0.0                          T                3.5  .31 Ml 3.4         4684377
MTLF  007.69 270.3 m E Pn      2011/05/04 19:48:25.5   0.1                          T                                        4684393
TCF   007.90 292.1 m E Pn      2011/05/04 19:48:28.2  -0.1                          T                                        4684391
HYF   007.93 299.6 m E Pn      2011/05/04 19:48:28.6  -0.1                          T                                        4684396
HYF   007.93 299.6 m E Sn      2011/05/04 19:49:52.2   0.0                          T                                        4684376
RUP   007.10 328.4 m E Sn      2011/05/04 19:49:32.6   0.1                          T                                        4684389

.
EVENT     258929
    Date      Time       Latitude Longitude    Depth    Ndef Nsta Gap    Mag1  N    Mag2  N    Mag3  N   Author         ID
       rms   OT_Error      Smajor Sminor Az        Err   mdist  Mdist     Err        Err        Err      Quality

2011/05/04 22:19:33.7     48.0490    7.3766     10.0      42   16 033  Ml 2.0 13  Md 2.0  2              js067245    258929

      0.38   +-  0.04        .9     .8  154.49 +-  0.0    0.18   3.01   +-0.4      +-0.0                 m i ke

FRANCE
Sta     Dist  EvAz     Phase      Date       Time     TRes  Azim  AzRes  Slow  SRes Def   SNR       Amp   Per   Mag1   Mag2       ID
CDF   000.37 349.6 m E Pg      2011/05/04 22:19:41.2   0.1                          T                                        4684433
CDF   000.37 349.6 m E Sg      2011/05/04 22:19:45.3  -0.8                          T                8.0  .34        Md 2.0  4684427
HINF  000.42 236.8 m E Pg      2011/05/04 22:19:41.6  -0.3                          T                                        4684431
HINF  000.42 236.8 m E Sg      2011/05/04 22:19:47.2  -0.4                          T                8.2  .18        Md 2.0  4684423
HAU   000.69 266.8 m E Pg      2011/05/04 22:19:46.8  -0.1                          T                                        4684432
HAU   000.69 266.8 m E Sg      2011/05/04 22:19:56.1   0.1                          T               18.8  .38                4684424
LANF  000.97 016.8 m E Pg      2011/05/04 22:19:51.8  -0.2                          T                                        4684460
LANF  000.97 016.8 m E Sg      2011/05/04 22:20:04.7  -0.1                          T                3.9  .21 Ml 2.1         4684459
THEF  000.94 281.5 m E Pg      2011/05/04 22:19:52.4   1.0                          T                                        4684430
THEF  000.94 281.5 m E Sg      2011/05/04 22:20:04.4   0.6                          T               10.2  .19 Ml 2.5         4684425
PAGF  001.21 295.3 m E Pg      2011/05/04 22:19:56.3  -0.1                          T                                        4684461
PAGF  001.21 295.3 m E Sg      2011/05/04 22:20:12.7   0.6                          T                1.3  .24 Ml 1.6         4684426
SFTF  001.57 276.6 m E Pg      2011/05/04 22:20:02.9  -0.2                          T                                        4684462
SFTF  001.57 276.6 m E Sg      2011/05/04 22:20:23.7   0.3                          T                6.1  .33 Ml 2.3         4684465
MEZF  001.62 287.1 m E Pg      2011/05/04 22:20:03.9   0.1                          T                                        4684463
MEZF  001.62 287.1 m E Sg      2011/05/04 22:20:25.0   0.3                          T                2.6  .23 Ml 2.1         4684464
CABF  001.68 211.8 m E Pg      2011/05/04 22:20:04.8  -0.4                          T                                        4684449
CABF  001.68 211.8 m E Sg      2011/05/04 22:20:26.4  -0.6                          T                1.9  .39 Ml 1.8         4684454
RUP   001.67 352.9 m E Pg      2011/05/04 22:20:04.8   0.0                          T                                        4684457
RUP   001.67 352.9 m E Sg      2011/05/04 22:20:26.5   0.2                          T                                        4684458
LPL   002.57 190.1 m E Pn      2011/05/04 22:20:14.5   0.6                          T                                        4684448
LPL   002.57 190.1 m E Sn      2011/05/04 22:20:44.3   0.9                          T                 .4  .28 Ml 1.4         4684446
LPG   002.59 189.8 m E Pn      2011/05/04 22:20:14.6   0.4                          T                                        4684447
LPG   002.59 189.8 m E Sn      2011/05/04 22:20:44.6   0.8                          T                 .2  .20 Ml 1.3         4684445
LOR   002.50 253.1 m E Pg      2011/05/04 22:20:18.7  -1.5                          T                                        4684429
LOR   002.50 253.1 m E Sg      2011/05/04 22:20:51.9  -0.5                          T                2.0  .24 Ml 2.2         4684428
SMF   002.78 241.0 m E Pg      2011/05/04 22:20:25.1  -0.2                          T                                        4684450
SMF   002.78 241.0 m E Sg      2011/05/04 22:21:00.9  -0.2                          T                1.4  .27 Ml 2.1         4684453
SSF   002.80 250.8 m E Pg      2011/05/04 22:20:25.3  -0.3                          T                                        4684456
SSF   002.80 250.8 m E Sg      2011/05/04 22:21:01.4  -0.3                          T                1.0  .35 Ml 1.9         4684455
AVF   003.01 246.7 m E Pg      2011/05/04 22:20:29.4  -0.1                          T                                        4684451
AVF   003.01 246.7 m E Sg      2011/05/04 22:21:08.1   0.0                          T                 .5  .23 Ml 1.7         4684452

.
EVENT     258931
    Date      Time       Latitude Longitude    Depth    Ndef Nsta Gap    Mag1  N    Mag2  N    Mag3  N   Author         ID
       rms   OT_Error      Smajor Sminor Az        Err   mdist  Mdist     Err        Err        Err      Quality

2011/05/04 23:45:03.5     42.7750    -.3000      2.0       6    3 235             Md 1.6  2              js067245    258931

      0.22   +-  0.44      14.8    2.2    1.13 +-  0.0    0.23   0.76              +-0.0                 m i ke

PYRENEES
Sta     Dist  EvAz     Phase      Date       Time     TRes  Azim  AzRes  Slow  SRes Def   SNR       Amp   Per   Mag1   Mag2       ID
ETSF  000.23 303.0 m E Pg      2011/05/04 23:45:08.3   0.2                          T                                        4684474
ETSF  000.23 303.0 m E Sg      2011/05/04 23:45:11.4   0.1                          T                6.4  .40        Md 1.6  4684471
EPF   000.54 061.3 m E Pg      2011/05/04 23:45:13.7  -0.1                          T                                        4684473
EPF   000.54 061.3 m E Sg      2011/05/04 23:45:20.9   0.1                          T                2.3  .25        Md 1.6  4684472
SJPF  000.76 296.8 m E Pg      2011/05/04 23:45:17.8  -0.1                          T                                        4684469
SJPF  000.76 296.8 m E Sg      2011/05/04 23:45:27.2  -0.5                          T                 .8  .25                4684470

.
EVENT     258932
    Date      Time       Latitude Longitude    Depth    Ndef Nsta Gap    Mag1  N    Mag2  N    Mag3  N   Author         ID
       rms   OT_Error      Smajor Sminor Az        Err   mdist  Mdist     Err        Err        Err      Quality

2011/05/05 00:02:42.3     44.6060    7.2387      2.0      27    9 146  Ml 1.7  8  Md 1.8  2              js067245    258932

      0.22   +-  0.06       1.2     .7   67.18 +-  0.0    0.33   2.42   +-0.3      +-0.0                 m i ke

NORTHERN ITALY
Sta     Dist  EvAz     Phase      Date       Time     TRes  Azim  AzRes  Slow  SRes Def   SNR       Amp   Per   Mag1   Mag2       ID
MBDF  000.35 290.1 m E Pg      2011/05/05 00:02:49.8   0.4                          T                                        4684486
MBDF  000.35 290.1 m E Sg      2011/05/05 00:02:54.2   0.1                          T               11.8  .22        Md 1.8  4684480
SBF   000.76 169.2 m E Pg      2011/05/05 00:02:56.7   0.0                          T                                        4684527
SBF   000.76 169.2 m E Sg      2011/05/05 00:03:06.6   0.1                          T                2.2  .24        Md 1.8  4684526
LPG   000.96 339.0 m E Pg      2011/05/05 00:03:00.7   0.0                          T                                        4684484
LPG   000.96 339.0 m E Sg      2011/05/05 00:03:12.5  -0.5                          T                2.0  .28 Ml 1.7         4684477
LPL   000.98 338.7 m E Pg      2011/05/05 00:03:00.9   0.0                          T                                        4684483
LPL   000.98 338.7 m E Sg      2011/05/05 00:03:13.3  -0.3                          T                1.4  .28 Ml 1.5         4684478
ORIF  001.02 288.4 m E Pg      2011/05/05 00:03:01.4  -0.1                          T                                        4684482
ORIF  001.02 288.4 m E Sg      2011/05/05 00:03:14.1  -0.6                          T                1.0  .21 Ml 1.5         4684479
FRF   001.13 202.4 m E Pg      2011/05/05 00:03:04.0   0.5                          T                                        4684485
FRF   001.13 202.4 m E Sg      2011/05/05 00:03:18.2   0.2                          T                3.6  .28 Ml 2.0         4684476
SMRF  001.35 242.8 m E Pg      2011/05/05 00:03:07.6   0.0                          T                                        4684524
SMRF  001.35 242.8 m E Sg      2011/05/05 00:03:25.1   0.1                          T                1.0  .32 Ml 1.5         4684525
LMR   001.38 202.8 m E Pg      2011/05/05 00:03:07.6  -0.4                          T                                        4684481
LMR   001.38 202.8 m E Sg      2011/05/05 00:03:25.4  -0.3                          T                3.2  .29 Ml 2.0         4684475
PGF   002.42 147.5 m E Pn      2011/05/05 00:03:21.2   0.0                          T                                        4684523
PGF   002.42 147.5 m E Sn      2011/05/05 00:03:49.7   0.0                          T                 .6  .21 Ml 2.0         4684522

.
