EVENT     290543
    Date      Time       Latitude Longitude    Depth    Ndef Nsta Gap    Mag1  N    Mag2  N    Mag3  N   Author         ID
       rms   OT_Error      Smajor Sminor Az        Err   mdist  Mdist     Err        Err        Err      Quality

2013/01/18 15:48:58.9     47.0023    7.1816       .0 f    30    7 070  Ml 2.0  7  Md 2.0  2              bulletin    290643
                                                                                                         _ldg
      1.05   +-  0.09       1.9    1.6    5.32 +-  0.0    0.39   2.51   +-0.2      +-0.2                 m i km

SWITZERLAND
Sta     Dist  EvAz     Phase      Date       Time     TRes  Azim  AzRes  Slow  SRes Def   SNR       Amp   Per   Mag1   Mag2       ID
CABF  000.85 242.9 m E Pg      2013/01/18 15:49:15.1  -0.2                          T                                        5172918
CABF  000.85 242.9 m E Sg      2013/01/18 15:49:26.3  -0.1                          T                1.2  .19        Md 1.8  5172921
HINF  000.84 344.8 m E Pg      2013/01/18 15:49:15.2   0.0                          T                                        5172917
HINF  000.84 344.8 m E Sg      2013/01/18 15:49:26.6   0.3                          T                 .8  .18        Md 2.1  5172920
HINF  000.84 344.8 m E Sn      2013/01/18 15:49:29.0  -0.3                          T                4.7  .17                5172919
HAU   001.15 330.9 m E Pn      2013/01/18 15:49:20.8   0.0                          T                                        5172916
HAU   001.15 330.9 m E Sn      2013/01/18 15:49:36.4  -0.2                          T                4.8  .22 Ml 2.0         5172929
CDF   001.41 002.6 m E Pn      2013/01/18 15:49:24.1  -0.4                          T                                        5172928
CDF   001.41 002.6 m E Pg      2013/01/18 15:49:25.5  -0.1                          T                                        5172915
CDF   001.41 002.6 m E Sn      2013/01/18 15:49:42.1  -0.7                          T                 .5  .21 Ml 1.5         5172926
CDF   001.41 002.6 m E Sg      2013/01/18 15:49:43.9  -0.2                          T                2.1  .22 Ml 2.1         5172927
SFTF  001.88 310.5 m E Pn      2013/01/18 15:49:30.5  -0.3 136.9  8.0               T                                        5172933
SFTF  001.88 310.5 m E Pg      2013/01/18 15:49:34.5   0.3                          T                                        5172932
SFTF  001.88 310.5 m E Sn      2013/01/18 15:49:53.9  -0.1                          T                1.1  .18 Ml 2.0         5172930
SFTF  001.88 310.5 m E Sg      2013/01/18 15:49:59.5   0.8                          T                2.6  .24 Ml 2.2         5172931
LOR   002.28 277.9 m E Pn      2013/01/18 15:49:36.0  -0.2 103.4  7.9               T                                        5172925
LOR   002.28 277.9 m E Pg      2013/01/18 15:49:41.9   0.3                          T                                        5172924
LOR   002.28 277.9 m E Sn      2013/01/18 15:50:03.5  -0.1                          T                                        5172922
LOR   002.28 277.9 m E Sg      2013/01/18 15:50:10.9  -0.3                          T                1.3  .20 Ml 2.1         5172923
SSF   002.51 272.7 m E Pn      2013/01/18 15:49:39.5   0.1                          T                                        5172936
SSF   002.51 272.7 m E Pg      2013/01/18 15:49:45.7  -0.2                          T                                        5172935
SSF   002.51 272.7 m E Sn      2013/01/18 15:50:08.7  -0.4                          T                 .8  .25 Ml 1.9         5172934

.
EVENT     290544
    Date      Time       Latitude Longitude    Depth    Ndef Nsta Gap    Mag1  N    Mag2  N    Mag3  N   Author         ID
       rms   OT_Error      Smajor Sminor Az        Err   mdist  Mdist     Err        Err        Err      Quality

2013/01/18 17:39:12.6     44.1229    7.8961     10.0      57    9 066  Ml 2.1 10  Md 2.2  2              bulletin    290644
                                                                                                         _ldg
      0.39   +-  0.04        .7     .7  152.98 +-  0.0    0.10   1.77   +-0.4      +-0.1                 m i ke

NORTHERN ITALY
Sta     Dist  EvAz     Phase      Date       Time     TRes  Azim  AzRes  Slow  SRes Def   SNR       Amp   Per   Mag1   Mag2       ID
SBF   000.42 232.2 m E Pg      2013/01/18 17:39:21.0   0.1                          T                                        5172948
SBF   000.42 232.2 m E Sg      2013/01/18 17:39:26.8   0.1                          T               19.3  .23        Md 2.3  5172947
MBDF  001.01 307.2 m E Pn      2013/01/18 17:39:31.2  -0.2                          T                                        5172942
MBDF  001.01 307.2 m E Sg      2013/01/18 17:39:44.9   0.0                          T                3.8  .31 Ml 1.9 Md 2.1  5172943
FRF   001.06 238.6 m E Pn      2013/01/18 17:39:32.4   0.4                          T                                        5172941
FRF   001.06 238.6 m E Sg      2013/01/18 17:39:46.5   0.1                          T               20.0  .24 Ml 2.8         5172945
LMR   001.28 232.4 m E Pn      2013/01/18 17:39:35.5   0.6                          T                                        5172937
LMR   001.28 232.4 m E Pg      2013/01/18 17:39:36.3  -0.2                          T                                        5172949
LMR   001.28 232.4 m E Sn      2013/01/18 17:39:51.0   0.0                          T                                        5172946
LMR   001.28 232.4 m E Sg      2013/01/18 17:39:53.1   0.1                          T               11.3  .22 Ml 2.7         5172950
LPG   001.60 329.7 m E Pn      2013/01/18 17:39:40.0   0.4                          T                                        5172960
LPG   001.60 329.7 m E Sn      2013/01/18 17:39:59.2   0.2                          T                 .9  .28 Ml 1.6         5172959
LPG   001.60 329.7 m E Sg      2013/01/18 17:40:03.5   0.1                          T                1.0  .25 Ml 1.7         5172958
ORIF  001.65 299.6 m E Pn      2013/01/18 17:39:40.1   0.1                          T                                        5172954
ORIF  001.65 299.6 m E Sn      2013/01/18 17:40:00.0   0.0                          T                                        5172953
ORIF  001.65 299.6 m E Sg      2013/01/18 17:40:05.0   0.4                          T                1.1  .25 Ml 1.7         5172952
LPL   001.62 329.7 m E Pn      2013/01/18 17:39:40.2   0.4                          T                                        5172961
LPL   001.62 329.7 m E Pg      2013/01/18 17:39:42.7  -0.4                          T                                        5172957
LPL   001.62 329.7 m E Sn      2013/01/18 17:39:59.5   0.0                          T                                        5172956
LPL   001.62 329.7 m E Sg      2013/01/18 17:40:04.0   0.0                          T                 .9  .23 Ml 1.7         5172955
SMRF  001.68 265.8 m E Pn      2013/01/18 17:39:40.7   0.3                          T                                        5172938
SMRF  001.68 265.8 m E Pg      2013/01/18 17:39:44.0   0.1                          T                                        5172964
SMRF  001.68 265.8 m E Sn      2013/01/18 17:40:00.7   0.0                          T                                        5172951
SMRF  001.68 265.8 m E Sg      2013/01/18 17:40:05.6  -0.1                          T                5.8  .36 Ml 2.3         5172944
PGF   001.77 152.5 m E Pn      2013/01/18 17:39:40.8  -0.9                          T                                        5172962
PGF   001.77 152.5 m E Sn      2013/01/18 17:40:02.7  -0.2                          T                2.6  .21 Ml 2.5         5172963

.
EVENT     290545
    Date      Time       Latitude Longitude    Depth    Ndef Nsta Gap    Mag1  N    Mag2  N    Mag3  N   Author         ID
       rms   OT_Error      Smajor Sminor Az        Err   mdist  Mdist     Err        Err        Err      Quality

2013/01/18 18:01:37.8     44.3336   11.2526     20.0 f    20    4 284  Ml 2.3  4                         bulletin    290645
                                                                                                         _ldg
      1.31   +-  1.05      20.6   11.7   54.35 +-  0.0    0.19   3.57   +-0.1                            m i ke

NORTHERN ITALY
Sta     Dist  EvAz     Phase      Date       Time     TRes  Azim  AzRes  Slow  SRes Def   SNR       Amp   Per   Mag1   Mag2       ID
PGF   002.42 223.4 m E Pn      2013/01/18 18:02:16.1   1.4                          T                                        5173026
PGF   002.42 223.4 m E Sn      2013/01/18 18:02:43.0   1.1                          T                1.1  .23 Ml 2.2         5173025
SBF   002.79 261.6 m E Pn      2013/01/18 18:02:20.9   1.3                          T                                        5173028
SBF   002.79 261.6 m E Sn      2013/01/18 18:02:51.3   0.7                          T                2.2  .20 Ml 2.4         5173027
FRF   003.41 258.5 m E Pn      2013/01/18 18:02:29.1   1.0                          T                                        5172968
FRF   003.41 258.5 m E Sn      2013/01/18 18:03:06.1   0.6                          T                1.0  .21 Ml 2.3         5172967
LMR   003.57 255.4 m E Pn      2013/01/18 18:02:31.4   1.2                          T                                        5172966
LMR   003.57 255.4 m E Sn      2013/01/18 18:03:09.7   0.4                          T                 .9  .19 Ml 2.2         5172965

.
EVENT     290547
    Date      Time       Latitude Longitude    Depth    Ndef Nsta Gap    Mag1  N    Mag2  N    Mag3  N   Author         ID
       rms   OT_Error      Smajor Sminor Az        Err   mdist  Mdist     Err        Err        Err      Quality

2013/01/18 20:51:47.5     43.0456    -.2223     10.0      34    8 098  Ml 2.0  5  Md 1.9  2              bulletin    290647
                                                                                                         _ldg
      0.33   +-  0.05       1.2     .9  171.40 +-  0.0    0.22   3.14   +-0.2      +-0.0                 m i ke

PYRENEES
Sta     Dist  EvAz     Phase      Date       Time     TRes  Azim  AzRes  Slow  SRes Def   SNR       Amp   Per   Mag1   Mag2       ID
ETSF  000.29 239.4 m E Pg      2013/01/18 20:51:53.3  -0.1                          T                                        5173053
ETSF  000.29 239.4 m E Sg      2013/01/18 20:51:57.3  -0.2                          T               17.6  .18        Md 1.9  5173051
EPF   000.41 091.9 m E Pg      2013/01/18 20:51:55.5  -0.1                          T                                        5173052
EPF   000.41 091.9 m E Sg      2013/01/18 20:52:01.5   0.3                          T                6.6  .18        Md 1.9  5173050
SJPF  000.74 275.6 m E Pg      2013/01/18 20:52:01.7   0.1                          T                                        5173060
SJPF  000.74 275.6 m E Sg      2013/01/18 20:52:11.6   0.3                          T                2.6  .19                5173049
MTLF  001.81 079.8 m E Pn      2013/01/18 20:52:16.2  -0.9                          T                                        5173070
MTLF  001.81 079.8 m E Pg      2013/01/18 20:52:21.2   0.0                          T                                        5173071
MTLF  001.81 079.8 m E Sn      2013/01/18 20:52:37.9  -0.8                          T                                        5173069
MTLF  001.81 079.8 m E Sg      2013/01/18 20:52:44.8   0.3                          T                1.3  .26 Ml 1.9         5173048
LFF   002.02 019.8 m E Pn      2013/01/18 20:52:19.5  -0.4                          T                                        5173057
LFF   002.02 019.8 m E Pg      2013/01/18 20:52:25.1   0.1                          T                                        5173056
LFF   002.02 019.8 m E Sn      2013/01/18 20:52:43.5  -0.1                          T                2.4  .28 Ml 2.0         5173064
LFF   002.02 019.8 m E Sg      2013/01/18 20:52:51.1   0.1                          T                7.6  .34 Ml 2.4         5173047
RJF   002.58 028.4 m E Pn      2013/01/18 20:52:27.4  -0.2                          T                                        5173055
RJF   002.58 028.4 m E Pg      2013/01/18 20:52:35.9   0.5                          T                                        5173054
RJF   002.58 028.4 m E Sn      2013/01/18 20:52:56.8  -0.3                          T                                        5173063
RJF   002.58 028.4 m E Sg      2013/01/18 20:53:09.1   0.5                          T                1.5  .20 Ml 1.9         5173062
CAF   002.50 040.5 m E Pg      2013/01/18 20:52:33.9  -0.1                          T                                        5173058
CAF   002.50 040.5 m E Sn      2013/01/18 20:52:54.9  -0.3                          T                                        5173061
CAF   002.50 040.5 m E Sg      2013/01/18 20:53:06.7   0.5                          T                 .8  .17 Ml 2.0         5173046
LASF  003.14 069.5 m E Pn      2013/01/18 20:52:35.1  -0.1                          T                                        5173068
LASF  003.14 069.5 m E Pg      2013/01/18 20:52:46.0   0.2                          T                                        5173067
LASF  003.14 069.5 m E Sn      2013/01/18 20:53:10.3  -0.2                          T                                        5173066
LASF  003.14 069.5 m E Sg      2013/01/18 20:53:26.6   0.5                          T                                        5173065

.
EVENT     290548
    Date      Time       Latitude Longitude    Depth    Ndef Nsta Gap    Mag1  N    Mag2  N    Mag3  N   Author         ID
       rms   OT_Error      Smajor Sminor Az        Err   mdist  Mdist     Err        Err        Err      Quality

2013/01/19 00:15:01.5     43.0571    -.2270      2.0      32    9 080  Ml 1.9  4  Md 1.9  3              bulletin    290648
                                                                                                         _ldg
      0.39   +-  0.06       1.2    1.0  178.74 +-  0.0    0.22   3.55   +-0.3      +-0.2                 m i ke

PYRENEES
Sta     Dist  EvAz     Phase      Date       Time     TRes  Azim  AzRes  Slow  SRes Def   SNR       Amp   Per   Mag1   Mag2       ID
ETSF  000.29 237.1 m E Pg      2013/01/19 00:15:07.1  -0.2                          T                                        5173093
ETSF  000.29 237.1 m E Sg      2013/01/19 00:15:11.0  -0.3                          T               14.7  .17        Md 1.7  5173088
EPF   000.42 093.5 m E Pg      2013/01/19 00:15:09.4  -0.2                          T                                        5173092
EPF   000.42 093.5 m E Sg      2013/01/19 00:15:15.5   0.4                          T                8.4  .29        Md 2.0  5173087
SJPF  000.73 274.7 m E Pg      2013/01/19 00:15:15.4   0.0                          T                                        5184921
SJPF  000.73 274.7 m E Sg      2013/01/19 00:15:25.1   0.2                          T                3.8  .24        Md 2.1  5173089
MTLF  001.81 080.1 m E Pg      2013/01/19 00:15:35.3   0.1                          T                                        5184929
MTLF  001.81 080.1 m E Sg      2013/01/19 00:15:57.7  -0.8                          T                 .5  .18 Ml 1.6         5184930
LFF   002.01 020.0 m E Pg      2013/01/19 00:15:39.3   0.5                          T                                        5173091
LFF   002.01 020.0 m E Sg      2013/01/19 00:16:04.9   0.2                          T                5.8  .31 Ml 2.3         5173090
CAF   002.49 040.7 m E Pg      2013/01/19 00:15:47.5  -0.4                          T                                        5184931
CAF   002.49 040.7 m E Sg      2013/01/19 00:16:20.7   0.7                          T                                        5184932
RJF   002.57 028.6 m E Pg      2013/01/19 00:15:49.7   0.4                          T                                        5184925
RJF   002.57 028.6 m E Sg      2013/01/19 00:16:21.9  -0.4                          T                1.1  .16 Ml 1.8         5184926
LASF  003.14 069.7 m E Pg      2013/01/19 00:15:59.8   0.1                          T                                        5184933
LASF  003.14 069.7 m E Sg      2013/01/19 00:16:40.3   0.3                          T                                        5184934
MFF   003.55 000.9 m E Pg      2013/01/19 00:16:06.7  -0.5                          T                                        5184927
MFF   003.55 000.9 m E Sg      2013/01/19 00:16:53.2   0.5                          T                 .4  .19 Ml 2.0         5184928

.
EVENT     290549
    Date      Time       Latitude Longitude    Depth    Ndef Nsta Gap    Mag1  N    Mag2  N    Mag3  N   Author         ID
       rms   OT_Error      Smajor Sminor Az        Err   mdist  Mdist     Err        Err        Err      Quality

2013/01/19 00:43:05.9     46.9859    7.1927      2.0      16    8 241  Ml 1.8  5  Md 2.0  2              bulletin    290649
                                                                                                         _ldg
      0.24   +-  0.15       2.9    1.4  119.39 +-  0.0    0.85   2.33   +-0.1      +-0.0                 m i ke

SWITZERLAND
Sta     Dist  EvAz     Phase      Date       Time     TRes  Azim  AzRes  Slow  SRes Def   SNR       Amp   Per   Mag1   Mag2       ID
CABF  000.85 244.1 m E Pg      2013/01/19 00:43:22.0   0.0                          T                                        5188145
CABF  000.85 244.1 m E P       2013/01/19 00:43:24.0   0.1                          T                                        5173095
CABF  000.85 244.1 m E Sg      2013/01/19 00:43:33.0   0.0                          T                 .9  .24        Md 2.0  5173094
HINF  000.86 344.6 m E Pg      2013/01/19 00:43:22.3   0.0                          T                                        5188151
HINF  000.86 344.6 m E P       2013/01/19 00:43:24.3   0.1                          T                                        5173121
HINF  000.86 344.6 m E Sg      2013/01/19 00:43:33.8   0.3                          T                3.0  .20 Ml 1.9 Md 2.0  5173098
HAU   001.17 331.0 m E Pn      2013/01/19 00:43:27.7   0.0                          T                                        5173096
HAU   001.17 331.0 m E Sg      2013/01/19 00:43:43.2   0.1                          T                2.4  .24 Ml 1.7         5173097
CDF   001.43 002.2 m E Pg      2013/01/19 00:43:32.3  -0.4                          T                                        5184944
CDF   001.43 002.2 m E Sg      2013/01/19 00:43:51.3   0.1                          T                1.3  .25 Ml 1.8         5184945
LOR   002.29 278.3 m E Pn      2013/01/19 00:43:43.2   0.2                          T                                        5184946
LOR   002.29 278.3 m E Pg      2013/01/19 00:43:48.5   0.0                          T                                        5188148
LOR   002.29 278.3 m E Sg      2013/01/19 00:44:17.3  -0.7                          T                 .7  .19 Ml 1.8         5184947
PAGF  001.86 328.3 m E Sg      2013/01/19 00:44:04.4   0.0                          T                                        5188152
SFTF  001.90 310.7 m E Sg      2013/01/19 00:44:06.0   0.2                          T                 .7  .20 Ml 1.7         5188147
SMF   002.33 262.8 m E Sg      2013/01/19 00:44:18.9  -0.2                          T                                        5188146

.
