EVENT     285819
    Date      Time       Latitude Longitude    Depth    Ndef Nsta Gap    Mag1  N    Mag2  N    Mag3  N   Author         ID
       rms   OT_Error      Smajor Sminor Az        Err   mdist  Mdist     Err        Err        Err      Quality

2012/10/25 01:10:58.2     46.0272    6.9328      2.0     219   40 029  Ml 3.9 41  Md 3.6  7              js067245    285919

      1.11   +-  0.06       1.5    1.1  137.22 +-  0.0    0.12   7.33   +-0.3      +-0.1                 m i ke

SWITZERLAND
Sta     Dist  EvAz     Phase      Date       Time     TRes  Azim  AzRes  Slow  SRes Def   SNR       Amp   Per   Mag1   Mag2       ID
LPL   000.53 195.4 m E Pg      2012/10/25 01:11:07.8  -0.7                          T   001.0                                5104031
LPL   000.53 195.4 m E Sg      2012/10/25 01:11:14.8  -0.7                          T              428.2  .34        Md 3.6  5104100
LPG   000.54 193.6 m E Pg      2012/10/25 01:11:07.9  -1.0                          T   001.0                                5104029
LPG   000.54 193.6 m E Sg      2012/10/25 01:11:15.0  -1.0                          T   001.0      532.7  .34        Md 3.6  5104030
CABF  000.83 315.2 m E Pg      2012/10/25 01:11:13.0  -0.9                          T   001.0                                5104047
CABF  000.83 315.2 m E Pn      2012/10/25 01:11:15.3   0.0                          T                                        5104126
CABF  000.83 315.2 m E Sg      2012/10/25 01:11:23.5  -1.2                          T   001.0     1193.7  .28        Md 3.6  5104048
CABF  000.83 315.2 m E Sn      2012/10/25 01:11:25.8  -1.7                          T                                        5104321
ORIF  001.33 214.1 m E Pn      2012/10/25 01:11:21.7  -0.5                          T   001.0                                5104060
ORIF  001.33 214.1 m E Sg      2012/10/25 01:11:42.2   1.7                          T              640.0  .38 Ml 4.2 Md 3.6  5104131
MBDF  001.31 185.1 m E Pn      2012/10/25 01:11:21.8  -0.1                          T   001.0                                5104053
MBDF  001.31 185.1 m E Sn      2012/10/25 01:11:38.7  -0.3                          T                                        5104300
MBDF  001.31 185.1 m E Sg      2012/10/25 01:11:43.5   3.9                          T   001.0      437.0  .50 Ml 3.9 Md 3.6  5104055
HINF  001.79 358.3 m E Pn      2012/10/25 01:11:28.1  -0.4                          T   001.0                                5104051
HINF  001.79 358.3 m E Pg      2012/10/25 01:11:31.1  -0.5                          T                                        5104309
HINF  001.79 358.3 m E Sn      2012/10/25 01:11:49.6  -0.8                          T                                        5104091
HINF  001.79 358.3 m E Sg      2012/10/25 01:11:54.4  -0.3                          T              325.1  .24 Ml 4.3         5104308
VIVF  001.98 234.5 m E Pn      2012/10/25 01:11:31.1   0.1                          T   001.0                                5104067
VIVF  001.98 234.5 m E Pg      2012/10/25 01:11:34.6  -0.4                          T                                        5104101
VIVF  001.98 234.5 m E Sn      2012/10/25 01:11:55.1   0.3                          T                                        5104319
VIVF  001.98 234.5 m E Sg      2012/10/25 01:11:58.9  -1.5                          T   001.0      484.2  .34 Ml 4.4         5104068
SMF   002.23 287.2 m E Pn      2012/10/25 01:11:34.5   0.1                          T   001.0                                5104039
SMF   002.23 287.2 m E Pg      2012/10/25 01:11:38.3  -1.3                          T                                        5104320
SMF   002.23 287.2 m E Sg      2012/10/25 01:12:08.2  -0.1                          T              153.1  .34 Ml 3.9         5104087
SBF   002.19 170.5 m E Pn      2012/10/25 01:11:36.1   2.2                          T   001.0                                5104037
SBF   002.19 170.5 m E Pg      2012/10/25 01:11:39.7   0.7                          T                                        5104136
SBF   002.19 170.5 m E Sg      2012/10/25 01:12:07.6   0.4                          T              471.3  .56 Ml 4.2         5104318
SMRF  002.27 205.6 m E Pn      2012/10/25 01:11:36.2   1.3                          T   001.0                                5104069
SMRF  002.27 205.6 m E Pg      2012/10/25 01:11:40.7   0.4                          T                                        5104133
SMRF  002.27 205.6 m E Sn      2012/10/25 01:12:04.8   3.1                          T   001.0                                5104070
CDF   002.40 005.5 m E Pn      2012/10/25 01:11:36.2  -0.6                          T   001.0                                5104007
CDF   002.40 005.5 m E Pg      2012/10/25 01:11:42.2  -0.7                          T   001.0                                5104008
CDF   002.40 005.5 m E Sn      2012/10/25 01:12:04.3  -0.7                          T   001.0                                5104009
CDF   002.40 005.5 m E Sg      2012/10/25 01:12:12.8  -0.9                          T   001.0      142.6  .34 Ml 4.0         5104010
LOR   002.45 301.5 m E Pn      2012/10/25 01:11:37.7   0.3                          T   001.0                                5104027
LOR   002.45 301.5 m E Pg      2012/10/25 01:11:42.9  -0.8 124.1  4.8               T                                        5104094
LOR   002.45 301.5 m E Sg      2012/10/25 01:12:14.9  -0.4                          T              191.3  .46 Ml 3.9 Md 3.7  5104123
FRF   002.47 184.8 m E Pn      2012/10/25 01:11:39.1   1.4                          T   001.0                                5104015
FRF   002.47 184.8 m E Pg      2012/10/25 01:11:43.8  -0.3                          T                                        5104138
FRF   002.47 184.8 m E Sn      2012/10/25 01:12:09.0   2.3                          T   001.0                                5104016
FRF   002.47 184.8 m E Sg      2012/10/25 01:12:16.9   0.9                          T              181.8  .52 Ml 3.9         5104134
SSF   002.58 294.9 m E Pn      2012/10/25 01:11:39.1   0.0                          T   001.0                                5104041
SSF   002.58 294.9 m E Pg      2012/10/25 01:11:45.4  -0.6                          T                                        5104316
SSF   002.58 294.9 m E Sn      2012/10/25 01:12:09.1  -0.2                          T                                        5104099
SSF   002.58 294.9 m E Sg      2012/10/25 01:12:18.7  -0.5                          T   001.0       78.7  .40 Ml 3.7         5104042
SFTF  002.53 330.0 m E Pn      2012/10/25 01:11:39.2   0.7 140.3  -8.3              T                                        5104093
SFTF  002.53 330.0 m E Pg      2012/10/25 01:11:46.9   1.7                          T                                        5104310
SFTF  002.53 330.0 m E Sn      2012/10/25 01:12:09.2   1.1                          T                                        5104125
SFTF  002.53 330.0 m E Sg      2012/10/25 01:12:17.4  -0.4                          T              288.2  .42 Ml 4.2         5104092
AVF   002.59 288.4 m E Pn      2012/10/25 01:11:39.3   0.0                          T   001.0                                5104074
AVF   002.59 288.4 m E Pg      2012/10/25 01:11:46.4   0.2                          T                                        5104089
AVF   002.59 288.4 m E Sg      2012/10/25 01:12:18.3  -1.3                          T   001.0       59.5  .36 Ml 3.6         5104075
PAGF  002.66 342.4 m E Pn      2012/10/25 01:11:41.0   0.8 152.6  -9.0              T                                        5104097
PAGF  002.66 342.4 m E Pg      2012/10/25 01:11:49.5   2.0                          T                                        5104312
PAGF  002.66 342.4 m E Sn      2012/10/25 01:12:10.9  -0.3                          T                                        5104096
PAGF  002.66 342.4 m E Sg      2012/10/25 01:12:21.6  -0.1                          T              432.7  .68 Ml 4.2         5104311
LMR   002.71 186.6 m E Pn      2012/10/25 01:11:41.9   1.1                          T   001.0                                5104024
LMR   002.71 186.6 m E Pg      2012/10/25 01:11:48.4   0.0                          T                                        5104137
LMR   002.71 186.6 m E Sg      2012/10/25 01:12:23.4   0.2                          T   001.0       45.4  .32 Ml 3.5         5104026
MEZF  002.79 333.3 m E Pn      2012/10/25 01:11:43.5   1.5 150.6  -1.4              T   001.0                                5104056
MEZF  002.79 333.3 m E Pg      2012/10/25 01:11:49.9   0.1                          T                                        5104323
MEZF  002.79 333.3 m E Sn      2012/10/25 01:12:15.5   1.4                          T                                        5104124
MEZF  002.79 333.3 m E Sg      2012/10/25 01:12:25.8   0.1                          T   001.0      543.2  .54 Ml 4.4         5104057
BGF   002.88 282.1 m E Pn      2012/10/25 01:11:43.5   0.2                          T   001.0                                5104076
BGF   002.88 282.1 m E Pg      2012/10/25 01:11:51.7   0.0                          T                                        5104083
BGF   002.88 282.1 m E Sg      2012/10/25 01:12:28.3  -0.4                          T   001.0      146.7  .38 Ml 4.0         5104077
LASF  002.93 229.3 m E Pn      2012/10/25 01:11:44.5   0.6                          T   001.0                                5104019
LASF  002.93 229.3 m E Pg      2012/10/25 01:11:52.0  -0.4                          T                                        5104302
LASF  002.93 229.3 m E Sn      2012/10/25 01:12:10.9  -6.6                          T                                        5104301
LASF  002.93 229.3 m E Sg      2012/10/25 01:12:27.2  -2.8                          T              220.0  .56 Ml 4.0         5104103
HYF   003.21 294.3 m E Pn      2012/10/25 01:11:48.4   0.7                          T                                        5104086
HYF   003.21 294.3 m E Sn      2012/10/25 01:12:26.5   2.3                          T                                        5104085
HYF   003.21 294.3 m E Sg      2012/10/25 01:12:39.2   0.4                          T                                        5104307
TCF   003.29 276.2 m E Pn      2012/10/25 01:11:49.1   0.2                          T   001.0                                5104043
TCF   003.29 276.2 m E Pg      2012/10/25 01:11:58.9  -0.3                          T                                        5104090
TCF   003.29 276.2 m E Sn      2012/10/25 01:12:26.3   0.0                          T   001.0       24.5  .31 Ml 3.4         5104044
TCF   003.29 276.2 m E Sg      2012/10/25 01:12:41.0  -0.5                          T   001.0       69.5  .47 Ml 3.7         5104045
CAF   003.60 253.9 m E Pn      2012/10/25 01:11:53.5   0.5                          T   001.0                                5104078
CAF   003.60 253.9 m E Pg      2012/10/25 01:12:05.5   0.7                          T                                        5104305
CAF   003.60 253.9 m E Sn      2012/10/25 01:12:32.7  -0.8                          T   001.0                                5104079
CAF   003.60 253.9 m E Sg      2012/10/25 01:12:50.8  -0.3                          T              147.5  .70 Ml 3.9         5104080
RJF   003.87 261.2 m E Pn      2012/10/25 01:11:57.5   0.9                          T   001.0                                5104071
RJF   003.87 261.2 m E Sg      2012/10/25 01:12:58.8  -0.6                          T   001.0       88.3  .50 Ml 3.5         5104073
PGF   003.78 156.2 m E Pn      2012/10/25 01:11:58.4   2.8                          T   001.0                                5104035
PGF   003.78 156.2 m E Sn      2012/10/25 01:12:42.1   4.0                          T   001.0       24.4  .54 Ml 3.5         5104036
MTLF  004.30 233.1 m E Pn      2012/10/25 01:12:03.8   1.2                          T   001.0                                5104058
MTLF  004.30 233.1 m E Pg      2012/10/25 01:12:18.9   1.1                          T                                        5104104
MTLF  004.30 233.1 m E Sn      2012/10/25 01:12:49.7  -0.7                          T   001.0                                5104059
MTLF  004.30 233.1 m E Sg      2012/10/25 01:13:12.1  -0.9                          T               83.2  .62 Ml 3.8         5104102
GIVF  004.32 341.6 m E Pn      2012/10/25 01:12:04.1   1.4                          T   001.0                                5104049
GIVF  004.32 341.6 m E Pg      2012/10/25 01:12:21.6   3.6                          T                                        5104315
GIVF  004.32 341.6 m E Sn      2012/10/25 01:12:51.9   1.2                          T   001.0                                5104050
GIVF  004.32 341.6 m E Sg      2012/10/25 01:13:13.3  -0.1                          T               87.5  .55 Ml 3.9         5104314
BAIF  004.43 336.6 m E Pn      2012/10/25 01:12:05.4   1.2                          T   001.0                                5104046
BAIF  004.43 336.6 m E Sn      2012/10/25 01:12:53.6   0.3                          T               13.7  .35 Ml 3.3         5104098
BAIF  004.43 336.6 m E Sg      2012/10/25 01:13:16.6  -0.4                          T               57.2  .66 Ml 3.7         5104313
LFF   004.49 258.2 m E Pn      2012/10/25 01:12:06.2   1.1                          T   001.0                                5104022
LFF   004.49 258.2 m E Pg      2012/10/25 01:12:18.0  -3.2                          T                                        5104082
LFF   004.49 258.2 m E Sn      2012/10/25 01:12:55.8   1.0                          T                                        5104081
LFF   004.49 258.2 m E Sg      2012/10/25 01:13:18.6  -0.1                          T   001.0       93.7  .48 Ml 3.9         5104023
MFF   004.94 279.2 m E Pn      2012/10/25 01:12:11.9   0.7                          T   001.0                                5104032
MFF   004.94 279.2 m E Pg      2012/10/25 01:12:31.2   1.7                          T                                        5104317
MFF   004.94 279.2 m E Sn      2012/10/25 01:13:05.5  -0.1                          T   001.0                                5104033
MFF   004.94 279.2 m E Sg      2012/10/25 01:13:32.9   0.1                          T   001.0       24.3  .56 Ml 3.7         5104034
LDF   005.44 300.7 m E Pn      2012/10/25 01:12:18.3   0.2                          T   001.0                                5104020
LDF   005.44 300.7 m E Sn      2012/10/25 01:13:17.9   0.3                          T   001.0                                5104021
LDF   005.44 300.7 m E Sg      2012/10/25 01:13:48.2  -0.3                          T               45.1  .60 Ml 3.8         5104306
EPF   005.58 239.9 m E Pn      2012/10/25 01:12:20.2   0.1                          T                                        5104106
EPF   005.58 239.9 m E Pg      2012/10/25 01:12:43.2   1.8                          T                                        5104105
EPF   005.58 239.9 m E Sg      2012/10/25 01:13:53.0  -0.1                          T   001.0       49.2  .54 Ml 4.0         5104011
FLN   005.73 301.2 m E Pn      2012/10/25 01:12:22.5   0.5 120.8  5.1               T   001.0                                5104012
FLN   005.73 301.2 m E Sn      2012/10/25 01:13:25.2   0.7                          T   001.0                                5104013
FLN   005.73 301.2 m E Sg      2012/10/25 01:13:55.7  -1.8                          T   001.0       22.8  .36 Ml 3.7         5104014
GRR   005.81 296.8 m E Pn      2012/10/25 01:12:23.6   0.5                          T   001.0                                5104017
GRR   005.81 296.8 m E Sn      2012/10/25 01:13:26.4   0.1                          T   001.0       44.1  .46 Ml 3.9         5104018
GRR   005.81 296.8 m E Sg      2012/10/25 01:14:00.6   0.6                          T               11.0  .39 Ml 3.4         5116527
ETSF  006.21 242.4 m E Pn      2012/10/25 01:12:29.7   1.1                          T                                        5104108
ETSF  006.21 242.4 m E Sn      2012/10/25 01:13:36.2   0.2                          T                                        5104107
ETSF  006.21 242.4 m E Sg      2012/10/25 01:14:08.6  -3.9                          T               32.0  .64 Ml 3.8         5104303
SJPF  006.51 246.3 m E Pn      2012/10/25 01:12:32.3  -0.4                          T                                        5104130
SJPF  006.51 246.3 m E Pg      2012/10/25 01:13:02.3   3.7                          T                                        5104129
SJPF  006.51 246.3 m E Sn      2012/10/25 01:13:42.4  -0.8                          T                                        5104304
SJPF  006.51 246.3 m E Sg      2012/10/25 01:14:22.8   0.8                          T               31.8  .72 Ml 3.8         5104128
SGMF  006.85 292.4 m E Pn      2012/10/25 01:12:37.3   0.1                          T   001.0                                5104065
SGMF  006.85 292.4 m E Sn      2012/10/25 01:13:49.8  -1.3                          T   001.0        6.4  .27 Ml 3.6         5104066
QUIF  007.16 288.9 m E Pn      2012/10/25 01:12:41.1  -0.4                          T   001.0                                5104062
QUIF  007.16 288.9 m E Sn      2012/10/25 01:13:57.6  -1.1                          T   001.0                                5104063
ROSF  007.33 292.0 m E Pn      2012/10/25 01:12:43.9   0.1                          T   001.0                                5104064
ROSF  007.33 292.0 m E Sn      2012/10/25 01:14:03.1   0.5                          T               13.1  .48 Ml 3.7         5104127

.
