EVENT     288024
    Date      Time       Latitude Longitude    Depth    Ndef Nsta Gap    Mag1  N    Mag2  N    Mag3  N   Author         ID
       rms   OT_Error      Smajor Sminor Az        Err   mdist  Mdist     Err        Err        Err      Quality

2012/12/06 16:15:56.9     47.6279    6.2793       .0 f    26   11 123  Ml 1.7  9  Md 2.0  2              bulletin    288124
                                                                                                         _ldg
      0.57   +-  0.07       1.5    1.0  132.54 +-  0.0    0.38   2.16   +-0.2      +-0.0                 m i km

FRANCE
Sta     Dist  EvAz     Phase      Date       Time     TRes  Azim  AzRes  Slow  SRes Def   SNR       Amp   Per   Mag1   Mag2       ID
HAU   000.38 007.0 m E Pg      2012/12/06 16:16:04.3  -0.2                          T                                        5132627
HAU   000.38 007.0 m E Sg      2012/12/06 16:16:09.7   0.0                          T               10.2  .28        Md 2.0  5132626
HINF  000.43 063.8 m E Pg      2012/12/06 16:16:05.4  -0.1                          T                                        5132634
HINF  000.43 063.8 m E Sg      2012/12/06 16:16:11.5   0.1                          T               33.5 1.06        Md 2.0  5132625
SFTF  001.02 305.1 m E Pg      2012/12/06 16:16:15.7  -0.5                          T                                        5132632
SFTF  001.02 305.1 m E Sg      2012/12/06 16:16:29.6   0.1 126.6  2.4               T                 .9  .17 Ml 1.5         5132633
PAGF  001.00 338.4 m E Pg      2012/12/06 16:16:16.0   0.1 162.7  4.7               T                                        5132630
PAGF  001.00 338.4 m E Pn      2012/12/06 16:16:16.7   0.0                          T                                        5137926
PAGF  001.00 338.4 m E Sg      2012/12/06 16:16:29.5   0.5 157.2  -0.7              T                 .5  .14 Ml 1.4         5132631
CABF  001.03 187.4 m E Pg      2012/12/06 16:16:16.4  -0.1                          T                                        5132629
CABF  001.03 187.4 m E Sg      2012/12/06 16:16:29.9  -0.1                          T                2.6  .31 Ml 1.8         5132628
CDF   001.03 040.1 m E Pg      2012/12/06 16:16:16.5  -0.1                          T                                        5132623
CDF   001.03 040.1 m E Sg      2012/12/06 16:16:30.3   0.1                          T                4.3  .37 Ml 2.0         5132622
MEZF  001.20 317.2 m E Pn      2012/12/06 16:16:19.6   0.2                          T                                        5137928
MEZF  001.20 317.2 m E Sg      2012/12/06 16:16:35.3   0.0 143.6  7.3               T                 .8  .20 Ml 1.5         5137927
LOR   001.68 258.5 m E Pn      2012/12/06 16:16:27.3   1.3                          T                                        5137923
LOR   001.68 258.5 m E Sg      2012/12/06 16:16:50.1  -0.2  76.0  -0.8              T                2.4  .38 Ml 1.9         5137922
SMF   001.93 240.3 m E Pn      2012/12/06 16:16:29.4   0.0                          T                                        5137918
SMF   001.93 240.3 m E Pg      2012/12/06 16:16:33.0  -0.1                          T                                        5137917
SMF   001.93 240.3 m E Sn      2012/12/06 16:16:53.2   0.1                          T                                        5137916
SMF   001.93 240.3 m E Sg      2012/12/06 16:16:58.0  -0.2                          T                1.4  .29 Ml 1.9         5137915
AVF   002.16 248.3 m E Pn      2012/12/06 16:16:32.7   0.2                          T                                        5137921
AVF   002.16 248.3 m E Sn      2012/12/06 16:16:58.5  -0.1                          T                                        5137920
AVF   002.16 248.3 m E Sg      2012/12/06 16:17:05.3  -0.1                          T                 .8  .27 Ml 1.7         5137919
SSF   001.97 254.3 m E Pg      2012/12/06 16:16:34.3   0.6                          T                                        5137925
SSF   001.97 254.3 m E Sg      2012/12/06 16:16:59.0  -0.3                          T                 .9  .29 Ml 1.8         5137924

.
EVENT     288217
    Date      Time       Latitude Longitude    Depth    Ndef Nsta Gap    Mag1  N    Mag2  N    Mag3  N   Author         ID
       rms   OT_Error      Smajor Sminor Az        Err   mdist  Mdist     Err        Err        Err      Quality

2012/12/06 18:41:43.4     42.4210    1.7841      4.0 f    23    2 062  Ml 1.4  3  Md 1.6  1              bulletin    288317
                                                                                                         _ldg
      0.36   +-  0.05       1.1     .8    3.11 +-  0.0    0.15   1.23   +-0.1      +-                    m i ke

PYRENEES
Sta     Dist  EvAz     Phase      Date       Time     TRes  Azim  AzRes  Slow  SRes Def   SNR       Amp   Per   Mag1   Mag2       ID
MTLF  000.97 019.0 m E Pg      2012/12/06 18:42:01.5  -0.2                          T                                        5137935
MTLF  000.97 019.0 m E Sg      2012/12/06 18:42:14.4   0.1                          T                 .8  .16 Ml 1.5 Md 1.6  5137934
EPF   001.23 300.3 m E Pn      2012/12/06 18:42:06.0   0.2                          T                                        5137933
EPF   001.23 300.3 m E Sg      2012/12/06 18:42:21.9  -0.4                          T                 .4  .17 Ml 1.3         5137932

.
EVENT     288025
    Date      Time       Latitude Longitude    Depth    Ndef Nsta Gap    Mag1  N    Mag2  N    Mag3  N   Author         ID
       rms   OT_Error      Smajor Sminor Az        Err   mdist  Mdist     Err        Err        Err      Quality

2012/12/06 19:21:59.8     47.2552   11.1900      2.0     138   26 026  Ml 3.1 24                         bulletin    288125
                                                                                                         _ldg
      1.27   +-  0.11       2.6    2.1   11.19 +-  0.0    0.04   7.79   +-0.3                            m i ke

AUSTRIA
Sta     Dist  EvAz     Phase      Date       Time     TRes  Azim  AzRes  Slow  SRes Def   SNR       Amp   Per   Mag1   Mag2       ID
CDF   002.88 295.1 m E Pn      2012/12/06 19:22:46.2   1.2                          T                                        5132655
CDF   002.88 295.1 m E Pg      2012/12/06 19:22:53.8   0.4                          T                                        5132654
CDF   002.88 295.1 m E Sn      2012/12/06 19:23:18.4   0.2                          T                                        5137982
CDF   002.88 295.1 m E Sg      2012/12/06 19:23:30.8   0.4                          T               24.7  .27 Ml 3.5         5132653
HINF  002.99 282.4 m E Pn      2012/12/06 19:22:47.7   1.3                          T                                        5132649
HINF  002.99 282.4 m E Pg      2012/12/06 19:22:55.7   0.4                          T                                        5137968
HINF  002.99 282.4 m E Sn      2012/12/06 19:23:21.3   0.6                          T                                        5132687
HINF  002.99 282.4 m E Sg      2012/12/06 19:23:33.0  -0.8                          T               37.3  .30 Ml 3.5         5132686
HAU   003.36 284.7 m E Pn      2012/12/06 19:22:53.2   1.8                          T                                        5132657
HAU   003.36 284.7 m E Sn      2012/12/06 19:23:29.2  -0.4                          T                                        5132679
HAU   003.36 284.7 m E Sg      2012/12/06 19:23:45.1  -0.1                          T               26.9  .26 Ml 3.3         5132680
LPG   003.54 241.8 m E Pn      2012/12/06 19:22:54.7   0.4                          T                                        5132637
LPG   003.54 241.8 m E Sn      2012/12/06 19:23:34.1  -0.1                          T                                        5137952
LPG   003.54 241.8 m E Sg      2012/12/06 19:23:50.8  -0.4                          T               13.4  .45 Ml 3.0         5137953
LPL   003.54 242.2 m E Pn      2012/12/06 19:22:55.6   1.4                          T                                        5132638
LPL   003.54 242.2 m E Pg      2012/12/06 19:23:05.6  -0.1                          T                                        5137956
LPL   003.54 242.2 m E Sn      2012/12/06 19:23:34.0  -0.1                          T                                        5137955
LPL   003.54 242.2 m E Sg      2012/12/06 19:23:51.1  -0.1                          T                5.6  .40 Ml 2.7         5137954
CABF  003.56 261.4 m E Pn      2012/12/06 19:22:56.1   1.9                          T                                        5132648
CABF  003.56 261.4 m E Pg      2012/12/06 19:23:06.3   0.5                          T                                        5137967
CABF  003.56 261.4 m E Sn      2012/12/06 19:23:34.7   0.4                          T                                        5137966
CABF  003.56 261.4 m E Sg      2012/12/06 19:23:51.1  -0.3                          T               10.3  .36 Ml 3.0         5132685
MBDF  003.98 232.2 m E Pn      2012/12/06 19:23:00.7   0.6                          T                                        5132640
MBDF  003.98 232.2 m E Sn      2012/12/06 19:23:44.3  -0.4                          T               11.8  .53 Ml 3.0         5137957
PAGF  003.90 291.5 m E Pn      2012/12/06 19:23:01.3   2.5 149.3  41.8              T                                        5132651
PAGF  003.90 291.5 m E Pg      2012/12/06 19:23:11.8  -0.2                          T                                        5137972
PAGF  003.90 291.5 m E Sn      2012/12/06 19:23:43.0   0.6                          T                                        5137971
PAGF  003.90 291.5 m E Sg      2012/12/06 19:24:02.7   0.7 110.9  3.5               T               18.1  .29 Ml 3.4         5132652
SFTF  004.26 285.1 m E Pn      2012/12/06 19:23:04.1   0.5                          T                                        5132650
SFTF  004.26 285.1 m E Sn      2012/12/06 19:23:51.3   0.3                          T                                        5132688
SFTF  004.26 285.1 m E Sg      2012/12/06 19:24:13.5   0.2                          T               10.6  .30 Ml 3.2         5132689
MEZF  004.31 289.1 m E Pn      2012/12/06 19:23:04.5   0.2                          T                                        5137970
MEZF  004.31 289.1 m E Sn      2012/12/06 19:23:52.6   0.3                          T                                        5137969
MEZF  004.31 289.1 m E Sg      2012/12/06 19:24:15.3   0.3                          T               10.8  .36 Ml 3.2         5132690
SBF   004.30 219.2 m E Pn      2012/12/06 19:23:04.7   0.4                          T                                        5137951
SBF   004.30 219.2 m E Sn      2012/12/06 19:23:51.9   0.0                          T                7.6  .34 Ml 3.1         5137950
ORIF  004.37 239.6 m E Pn      2012/12/06 19:23:06.5   1.2                          T                                        5132639
ORIF  004.37 239.6 m E Sn      2012/12/06 19:23:53.8   0.0                          T                3.1  .30 Ml 2.8         5137980
FRF   004.89 222.5 m E Pn      2012/12/06 19:23:13.8   1.6                          T                                        5132635
FRF   004.89 222.5 m E Sn      2012/12/06 19:24:06.5   0.5                          T                3.9  .40 Ml 2.9         5143208
LOR   004.99 272.8 m E Pn      2012/12/06 19:23:13.9   0.3 107.1  19.6              T                                        5137979
LOR   004.99 272.8 m E Sn      2012/12/06 19:24:08.0  -0.5  95.6  8.1               T                                        5137978
LOR   004.99 272.8 m E Sg      2012/12/06 19:24:35.0  -1.2  97.1  9.6               T                8.4  .30 Ml 3.3         5132691
VIVF  005.13 244.5 m E Pn      2012/12/06 19:23:15.9   0.4                          T                                        5132641
VIVF  005.13 244.5 m E Sn      2012/12/06 19:24:11.9   0.0                          T                1.7  .22 Ml 2.8         5137958
SMF   005.07 265.8 m E Pn      2012/12/06 19:23:16.4   1.7                          T                                        5132645
SMF   005.07 265.8 m E Pg      2012/12/06 19:23:33.8   0.2                          T                                        5137963
SMF   005.07 265.8 m E Sn      2012/12/06 19:24:10.7   0.3                          T                                        5132683
SMF   005.07 265.8 m E Sg      2012/12/06 19:24:38.2  -0.5                          T                4.9  .29 Ml 3.1         5132684
SMRF  005.12 232.3 m E Pn      2012/12/06 19:23:17.8   2.3                          T                                        5132636
SSF   005.25 270.7 m E Pn      2012/12/06 19:23:17.9   0.8                          T                                        5132656
SSF   005.25 270.7 m E Pg      2012/12/06 19:23:37.2   0.4                          T                                        5137976
SSF   005.25 270.7 m E Sn      2012/12/06 19:24:14.4  -0.2                          T                                        5137977
SSF   005.25 270.7 m E Sg      2012/12/06 19:24:44.7   0.6                          T                2.9  .25 Ml 3.1         5132692
AVF   005.38 267.9 m E Pn      2012/12/06 19:23:20.5   1.6                          T                                        5132646
AVF   005.38 267.9 m E Sn      2012/12/06 19:24:17.8   0.0                          T                                        5137965
AVF   005.38 267.9 m E Sg      2012/12/06 19:24:48.1  -0.1                          T                3.0  .42 Ml 2.8         5137964
BAIF  005.41 303.8 m E Pn      2012/12/06 19:23:21.9   2.6                          T                                        5137981
HYF   005.82 273.3 m E Pn      2012/12/06 19:23:24.8  -0.1                          T                                        5137962
HYF   005.82 273.3 m E Sn      2012/12/06 19:24:29.0   0.6                          T                                        5137960
HYF   005.82 273.3 m E Sg      2012/12/06 19:25:02.0   0.0                          T                                        5137961
BGF   005.76 266.1 m E Pn      2012/12/06 19:23:25.6   1.5                          T                                        5132644
BGF   005.76 266.1 m E Sn      2012/12/06 19:24:27.0   0.2                          T                                        5132682
BGF   005.76 266.1 m E Sg      2012/12/06 19:25:00.8   0.6                          T                8.0  .41 Ml 3.3         5132681
LASF  006.04 240.9 m E Pn      2012/12/06 19:23:29.2   1.2                          T                                        5132642
LASF  006.04 240.9 m E Sn      2012/12/06 19:24:33.9   0.3                          T                3.3  .27 Ml 3.2         5137959
TCF   006.24 264.4 m E Pn      2012/12/06 19:23:31.3   0.5                          T                                        5132647
GIVF  005.09 306.4 m E Pg      2012/12/06 19:23:34.2   0.3                          T                                        5137973
GIVF  005.09 306.4 m E Sn      2012/12/06 19:24:11.5   0.7                          T                                        5137974
GIVF  005.09 306.4 m E Sg      2012/12/06 19:24:39.9   0.7                          T                3.2  .24 Ml 3.0         5137975
CAF   006.76 253.2 m E Pn      2012/12/06 19:23:38.7   1.0                          T                                        5132643
CAF   006.76 253.2 m E Sn      2012/12/06 19:24:50.6  -0.2                          T                 .7  .28 Ml 2.6         5143207

.
EVENT     288039
    Date      Time       Latitude Longitude    Depth    Ndef Nsta Gap    Mag1  N    Mag2  N    Mag3  N   Author         ID
       rms   OT_Error      Smajor Sminor Az        Err   mdist  Mdist     Err        Err        Err      Quality

2012/12/06 23:30:59.4     41.6772    2.6690      4.0 f    24    2 214  Ml 1.6  3                         bulletin    288139
                                                                                                         _ldg
      0.29   +-  0.13       2.2    1.1  152.35 +-  0.0    0.19   2.19   +-0.2                            m i ke

SPAIN
Sta     Dist  EvAz     Phase      Date       Time     TRes  Azim  AzRes  Slow  SRes Def   SNR       Amp   Per   Mag1   Mag2       ID
MTLF  001.70 348.8 m E Pn      2012/12/06 23:31:28.5   0.5                          T                                        5133582
MTLF  001.70 348.8 m E Pg      2012/12/06 23:31:30.7  -0.2                          T                                        5133588
MTLF  001.70 348.8 m E Sn      2012/12/06 23:31:49.4   0.5                          T                                        5133581
MTLF  001.70 348.8 m E Sg      2012/12/06 23:31:52.8  -0.1                          T                 .7  .24 Ml 1.6         5133587
EPF   002.19 308.8 m E Pn      2012/12/06 23:31:35.3   0.4                          T                                        5133586
EPF   002.19 308.8 m E Pg      2012/12/06 23:31:40.1  -0.1                          T                                        5133585
EPF   002.19 308.8 m E Sn      2012/12/06 23:32:01.0   0.1                          T                                        5133584
EPF   002.19 308.8 m E Sg      2012/12/06 23:32:08.4   0.0                          T                 .7  .20 Ml 1.8         5133583

.
