EVENT     271847
    Date      Time       Latitude Longitude    Depth    Ndef Nsta Gap    Mag1  N    Mag2  N    Mag3  N   Author         ID
       rms   OT_Error      Smajor Sminor Az        Err   mdist  Mdist     Err        Err        Err      Quality

2012/03/14 07:25:37.7     44.5232    6.7174      2.0      27    7 067  Ml 1.6  4  Md 1.6  1              js067245    271867

      0.50   +-  0.10       2.2    1.6   59.29 +-  0.0    0.08   1.20   +-0.3      +-                    m i ke

FRANCE
Sta     Dist  EvAz     Phase      Date       Time     TRes  Azim  AzRes  Slow  SRes Def   SNR       Amp   Per   Mag1   Mag2       ID
MBDF  000.21 010.7 m E Pg      2012/03/14 07:25:42.5   0.5                          T                                        4878195
MBDF  000.21 010.7 m E Sg      2012/03/14 07:25:45.7   0.8                          T                2.5  .19        Md 1.6  4878196
ORIF  000.72 303.8 m E Pg      2012/03/14 07:25:51.0  -0.3                          T                                        4878194
ORIF  000.72 303.8 m E Sg      2012/03/14 07:26:00.7   0.1                          T                2.2  .33                4878193
LPL   000.99 000.6 m E Pg      2012/03/14 07:25:56.9   0.3                          T                                        4878192
SMRF  000.99 236.7 m E Pn      2012/03/14 07:25:57.2   0.2                          T                                        4881719
SMRF  000.99 236.7 m E Sn      2012/03/14 07:26:10.3  -0.4                          T                1.2  .35 Ml 1.3         4881715
LMR   001.20 187.3 m E Pg      2012/03/14 07:26:00.3   0.3                          T                                        4881718
LMR   001.20 187.3 m E Sg      2012/03/14 07:26:16.3   0.7                          T                2.4  .25 Ml 1.9         4881717
FRF   000.96 183.1 m E Sg      2012/03/14 07:26:09.0   0.7                          T                3.3  .28 Ml 1.9         4881716
LPG   000.97 001.4 m E Sg      2012/03/14 07:26:09.8   0.8                          T                 .7  .22 Ml 1.3         4881714

.
EVENT     271848
    Date      Time       Latitude Longitude    Depth    Ndef Nsta Gap    Mag1  N    Mag2  N    Mag3  N   Author         ID
       rms   OT_Error      Smajor Sminor Az        Err   mdist  Mdist     Err        Err        Err      Quality

2012/03/14 07:26:03.5     44.5337    6.7352      8.0 f    31    9 048  Ml 1.5  6  Md 1.6  1              js067245    271868

      0.73   +-  0.09       2.1    1.4   59.10 +-  0.0    0.08   1.51   +-0.3      +-                    m i ke

FRANCE
Sta     Dist  EvAz     Phase      Date       Time     TRes  Azim  AzRes  Slow  SRes Def   SNR       Amp   Per   Mag1   Mag2       ID
MBDF  000.19 007.6 m E Pg      2012/03/14 07:26:08.4   0.6                          T                                        4878205
MBDF  000.19 007.6 m E Sg      2012/03/14 07:26:11.6   1.0                          T                7.9  .38        Md 1.6  4878203
ORIF  000.72 302.5 m E Pg      2012/03/14 07:26:17.0  -0.2                          T                                        4878204
ORIF  000.72 302.5 m E Sg      2012/03/14 07:26:26.0  -0.7                          T                3.3  .36                4878202
SBF   000.84 142.9 m E Pg      2012/03/14 07:26:19.9   0.5                          T                                        4878201
SBF   000.84 142.9 m E Sg      2012/03/14 07:26:31.2   0.8                          T                3.3  .29                4878206
LPL   000.98 359.9 m E Pg      2012/03/14 07:26:22.6   0.4                          T                                        4881728
LPL   000.98 359.9 m E Sg      2012/03/14 07:26:34.9  -0.1                          T                 .5  .25 Ml 1.1         4881729
SMRF  001.00 236.6 m E Pn      2012/03/14 07:26:23.0   0.7                          T                                        4881727
SMRF  001.00 236.6 m E Sn      2012/03/14 07:26:35.7  -0.1                          T                 .7  .19 Ml 1.4         4881723
LMR   001.21 187.8 m E Pg      2012/03/14 07:26:26.3   0.2                          T                                        4881726
LMR   001.21 187.8 m E Sg      2012/03/14 07:26:42.3   0.5                          T                2.2  .28 Ml 1.8         4881725
LPG   000.96 000.7 m E Sg      2012/03/14 07:26:34.7   0.2                          T                1.1  .30 Ml 1.4         4881722
FRF   000.97 183.8 m E Sg      2012/03/14 07:26:34.8   0.3                          T                3.9  .30 Ml 2.0         4881724
VIVF  001.51 283.1 m E Sg      2012/03/14 07:26:50.9  -0.2                          T                 .5  .23 Ml 1.4         4881721

.
EVENT     271856
    Date      Time       Latitude Longitude    Depth    Ndef Nsta Gap    Mag1  N    Mag2  N    Mag3  N   Author         ID
       rms   OT_Error      Smajor Sminor Az        Err   mdist  Mdist     Err        Err        Err      Quality

2012/03/14 08:01:40.6     44.5030    6.6943      7.0 f    92   21 038  Ml 2.7 17  Md 2.6  2              js067245    271876

      0.68   +-  0.05       1.2     .9   53.72 +-  0.0    0.09   4.11   +-0.2      +-0.1                 m i ke

FRANCE
Sta     Dist  EvAz     Phase      Date       Time     TRes  Azim  AzRes  Slow  SRes Def   SNR       Amp   Per   Mag1   Mag2       ID
MBDF  000.23 013.8 m E Pg      2012/03/14 08:01:45.5   0.0                          T   001.0                                4871004
MBDF  000.23 013.8 m E Sg      2012/03/14 08:01:48.7  -0.1                          T              143.1  .26        Md 2.5  4878983
ORIF  000.71 305.9 m E Pg      2012/03/14 08:01:54.0  -0.3                          T   001.0                                4871005
ORIF  000.71 305.9 m E Sg      2012/03/14 08:02:03.4  -0.2                          T               84.2  .28                4878982
SBF   000.83 139.9 m E Pg      2012/03/14 08:01:56.6   0.2                          T                                        4883284
SBF   000.83 139.9 m E P       2012/03/14 08:01:57.9   0.0                          T   001.0                                4870998
SBF   000.83 139.9 m E Sg      2012/03/14 08:02:07.1  -0.1                          T   001.0       56.8  .26        Md 2.6  4870999
FRF   000.94 182.1 m E Pg      2012/03/14 08:01:58.4   0.0                          T                                        4883286
FRF   000.94 182.1 m E Pn      2012/03/14 08:01:58.7   0.1                          T   001.0                                4870985
FRF   000.94 182.1 m E P       2012/03/14 08:02:00.0   0.1                          T                                        4883287
FRF   000.94 182.1 m E Sg      2012/03/14 08:02:10.3  -0.3                          T   001.0       50.9  .22 Ml 3.2         4870986
SMRF  000.96 237.2 m E Pn      2012/03/14 08:01:59.5   0.5                          T   001.0                                4871010
SMRF  000.96 237.2 m E Sn      2012/03/14 08:02:11.9  -0.2                          T   001.0       19.7  .30 Ml 2.6         4871011
LPG   001.00 002.3 m E Pg      2012/03/14 08:01:59.5  -0.1                          T   001.0                                4870992
LPG   001.00 002.3 m E Sg      2012/03/14 08:02:13.2   0.6                          T   001.0       33.3  .46 Ml 2.7         4870993
LPL   001.01 001.5 m E Pg      2012/03/14 08:02:00.0   0.0                          T   001.0                                4870994
LPL   001.01 001.5 m E Sg      2012/03/14 08:02:13.4   0.3                          T               14.8  .28 Ml 2.5         4878981
LMR   001.18 186.6 m E Pg      2012/03/14 08:02:02.6   0.0                          T                                        4881732
LMR   001.18 186.6 m E P       2012/03/14 08:02:03.4  -0.1                          T   001.0                                4870988
LMR   001.18 186.6 m E Sg      2012/03/14 08:02:17.6  -0.3                          T   001.0       56.4  .24 Ml 3.3         4870989
VIVF  001.48 284.5 m E Pn      2012/03/14 08:02:06.1   0.0                          T   001.0                                4871008
VIVF  001.48 284.5 m E Pg      2012/03/14 08:02:08.0  -0.3                          T                                        4883285
VIVF  001.48 284.5 m E Sg      2012/03/14 08:02:27.2  -0.3                          T   001.0       17.2  .30 Ml 2.8         4871009
LASF  002.08 259.2 m E P       2012/03/14 08:02:15.9  -0.6                          T   001.0                                4870987
LASF  002.08 259.2 m E Pg      2012/03/14 08:02:18.7  -0.6                          T                                        4881733
LASF  002.08 259.2 m E Sn      2012/03/14 08:02:38.9   0.0                          T                5.5  .40 Ml 2.4         4878980
CABF  002.15 348.8 m E P       2012/03/14 08:02:18.5   0.9                          T   001.0                                4871001
CABF  002.15 348.8 m E Sg      2012/03/14 08:02:47.8  -0.6                          T   001.0        6.7  .38 Ml 2.5         4871003
PGF   002.57 138.6 m E Pn      2012/03/14 08:02:21.4   0.4                          T                                        4881731
PGF   002.57 138.6 m E P       2012/03/14 08:02:23.2  -0.5                          T   001.0                                4870995
PGF   002.57 138.6 m E Sn      2012/03/14 08:02:51.4   0.7                          T   001.0        3.4  .20 Ml 2.8         4870996
AVF   003.28 315.5 m E P       2012/03/14 08:02:33.1  -0.4                          T                                        4878977
AVF   003.28 315.5 m E Sg      2012/03/14 08:03:24.0   0.7                          T   001.0        7.0  .48 Ml 2.7         4870982
BGF   003.40 308.6 m E P       2012/03/14 08:02:35.1  -0.2                          T   001.0                                4870983
BGF   003.40 308.6 m E Sg      2012/03/14 08:03:26.4  -0.8                          T                8.7  .40 Ml 2.9         4878976
SSF   003.39 320.0 m E P       2012/03/14 08:02:35.1  -0.1                          T                                        4881735
SSF   003.39 320.0 m E Sg      2012/03/14 08:03:27.8   0.7                          T                                        4878984
LOR   003.40 325.4 m E P       2012/03/14 08:02:35.2  -0.2 138.9  -4.5              T                                        4878979
LOR   003.40 325.4 m E Sn      2012/03/14 08:03:10.6   0.2 136.1  -7.3              T   001.0        4.0  .36 Ml 2.6         4870990
LOR   003.40 325.4 m E Sg      2012/03/14 08:03:28.3   1.0 154.1  10.7              T   001.0        3.4  .30 Ml 2.6         4870991
HAU   003.51 356.2 m E P       2012/03/14 08:02:36.6  -0.3                          T                                        4878210
HAU   003.51 356.2 m E Sg      2012/03/14 08:03:31.1   0.3                          T                3.7  .30 Ml 2.4         4881730
TCF   003.63 301.0 m E P       2012/03/14 08:02:38.1  -0.5                          T                                        4878985
TCF   003.63 301.0 m E Sn      2012/03/14 08:03:15.6  -0.2                          T                                        4878986
CDF   003.93 005.7 m E P       2012/03/14 08:02:42.0  -1.0                          T   001.0                                4870984
PAGF  004.11 351.0 m E P       2012/03/14 08:02:45.1  -0.3 173.1  2.8               T                                        4881734
SMF   002.93 317.9 m E Sg      2012/03/14 08:03:13.2   0.5                          T                                        4878987

.
EVENT     271857
    Date      Time       Latitude Longitude    Depth    Ndef Nsta Gap    Mag1  N    Mag2  N    Mag3  N   Author         ID
       rms   OT_Error      Smajor Sminor Az        Err   mdist  Mdist     Err        Err        Err      Quality

2012/03/14 08:08:23.4     44.5051    6.7125     10.0      21    6 067  Ml 1.7  3  Md 1.8  1              js067245    271877

      0.27   +-  0.06       1.4    1.0   45.53 +-  0.0    0.08   1.18   +-0.2      +-                    m i ke

FRANCE
Sta     Dist  EvAz     Phase      Date       Time     TRes  Azim  AzRes  Slow  SRes Def   SNR       Amp   Per   Mag1   Mag2       ID
MBDF  000.23 010.7 m E Pg      2012/03/14 08:08:28.4   0.1                          T                                        4878999
MBDF  000.23 010.7 m E Sg      2012/03/14 08:08:31.5  -0.1                          T                4.3  .30        Md 1.8  4878996
ORIF  000.72 305.1 m E Pg      2012/03/14 08:08:37.0  -0.2                          T                                        4878998
ORIF  000.72 305.1 m E Sg      2012/03/14 08:08:46.4  -0.3                          T                2.2  .24                4878997
LMR   001.18 187.2 m E Pg      2012/03/14 08:08:45.8   0.3                          T                                        4878993
LMR   001.18 187.2 m E Sg      2012/03/14 08:09:00.6  -0.2                          T                2.2  .25 Ml 1.9         4878994
SBF   000.83 140.7 m E Sg      2012/03/14 08:08:50.4   0.5                          T                                        4879022
FRF   000.95 182.9 m E Sg      2012/03/14 08:08:53.0  -0.5                          T                4.4  .38 Ml 1.9         4878995
SMRF  000.97 237.5 m E Sn      2012/03/14 08:08:54.9   0.3                          T                1.6  .37 Ml 1.5         4881736

.
EVENT     271858
    Date      Time       Latitude Longitude    Depth    Ndef Nsta Gap    Mag1  N    Mag2  N    Mag3  N   Author         ID
       rms   OT_Error      Smajor Sminor Az        Err   mdist  Mdist     Err        Err        Err      Quality

2012/03/14 08:30:36.0     44.5294    6.7142      2.0      54   12 041  Ml 2.2  8  Md 2.2  3              js067245    271878

      0.70   +-  0.06       1.4    1.0   67.24 +-  0.0    0.09   3.63   +-0.4      +-0.1                 m i ke

FRANCE
Sta     Dist  EvAz     Phase      Date       Time     TRes  Azim  AzRes  Slow  SRes Def   SNR       Amp   Per   Mag1   Mag2       ID
MBDF  000.20 011.7 m E Pg      2012/03/14 08:30:40.6   0.3                          T                                        4879105
MBDF  000.20 011.7 m E Sg      2012/03/14 08:30:43.5   0.4                          T               32.5  .26        Md 2.3  4879098
ORIF  000.71 303.5 m E Pg      2012/03/14 08:30:49.1  -0.5                          T                                        4879104
ORIF  000.71 303.5 m E Sg      2012/03/14 08:30:58.7  -0.2                          T               15.5  .22                4879097
SBF   000.84 141.9 m E Pg      2012/03/14 08:30:52.4   0.4                          T                                        4879099
SBF   000.84 141.9 m E Sg      2012/03/14 08:31:03.2   0.2                          T               13.9  .26        Md 2.1  4879088
FRF   000.97 182.9 m E Pg      2012/03/14 08:30:54.0  -0.3                          T                                        4879101
FRF   000.97 182.9 m E Sg      2012/03/14 08:31:07.2   0.4                          T                                        4879090
FRF   000.97 182.9 m E Sn      2012/03/14 08:31:08.7   0.1                          T               17.1  .22 Ml 2.7         4879096
LPG   000.97 001.5 m E Pg      2012/03/14 08:30:54.5  -0.1                          T                                        4879091
LPG   000.97 001.5 m E Sg      2012/03/14 08:31:07.3   0.2                          T                3.2  .24 Ml 1.9         4879092
LPL   000.99 000.7 m E Pg      2012/03/14 08:30:55.1   0.2                          T                                        4879103
LPL   000.99 000.7 m E Sg      2012/03/14 08:31:07.3  -0.3                          T                3.3  .24 Ml 1.9 Md 2.2  4879094
SMRF  000.99 236.3 m E Pg      2012/03/14 08:30:55.3   0.6                          T                                        4879102
SMRF  000.99 236.3 m E Sg      2012/03/14 08:31:07.8   0.3                          T                4.4  .28 Ml 2.0         4879095
LMR   001.20 187.1 m E Pg      2012/03/14 08:30:58.7   0.2                          T                                        4879100
LMR   001.20 187.1 m E Sg      2012/03/14 08:31:14.2   0.1                          T               17.3  .26 Ml 2.7         4879089
VIVF  001.49 283.4 m E Pg      2012/03/14 08:31:04.1   0.2                          T                                        4879086
VIVF  001.49 283.4 m E Sg      2012/03/14 08:31:22.6  -0.6                          T                4.9  .38 Ml 2.1         4879085
LASF  002.10 258.5 m E Sn      2012/03/14 08:31:36.2   0.5                          T                 .8  .24 Ml 1.8         4879084
PGF   002.59 139.2 m E Sn      2012/03/14 08:31:48.3   1.0                          T                                        4879087
TCF   003.63 300.6 m E Sn      2012/03/14 08:32:11.7  -0.4                          T                                        4879083

.
EVENT     271866
    Date      Time       Latitude Longitude    Depth    Ndef Nsta Gap    Mag1  N    Mag2  N    Mag3  N   Author         ID
       rms   OT_Error      Smajor Sminor Az        Err   mdist  Mdist     Err        Err        Err      Quality

2012/03/14 09:32:58.0     43.9113    7.1973       .0 f    21    6 115  Ml 2.1  2  Md 1.8  2              js067245    271886

      0.76   +-  0.16       3.4    3.1  141.66 +-  0.0    0.18   1.55   +-0.4      +-0.0                 m i km

NEAR SOUTH COAST OF FRANCE
Sta     Dist  EvAz     Phase      Date       Time     TRes  Azim  AzRes  Slow  SRes Def   SNR       Amp   Per   Mag1   Mag2       ID
SBF   000.18 105.6 m E Pg      2012/03/14 09:33:01.2  -0.7                          T                                        4879114
SBF   000.18 105.6 m E Sg      2012/03/14 09:33:04.0  -0.6                          T               39.1  .36        Md 1.9  4879110
FRF   000.53 228.9 m E Pg      2012/03/14 09:33:07.8  -0.6                          T                                        4879141
FRF   000.53 228.9 m E Sg      2012/03/14 09:33:15.6   0.0                          T                5.8  .22                4879140
LMR   000.76 221.1 m E Pg      2012/03/14 09:33:12.2  -0.4                          T                                        4879113
LMR   000.76 221.1 m E Sg      2012/03/14 09:33:22.9   0.1                          T                                        4879142
MBDF  000.87 339.6 m E Pn      2012/03/14 09:33:16.0  -0.2                          T                                        4879138
MBDF  000.87 339.6 m E Sg      2012/03/14 09:33:26.0  -0.3                          T                2.8  .24 Ml 1.8 Md 1.8  4879137
SMRF  001.17 273.7 m E Pg      2012/03/14 09:33:20.6   0.3                          T                                        4879112
SMRF  001.17 273.7 m E Sg      2012/03/14 09:33:36.3   0.7                          T               11.6  .42 Ml 2.3         4879111
ORIF  001.38 317.3 m E Pg      2012/03/14 09:33:25.0   0.9                          T                                        4879139

.
