EVENT     258922
    Date      Time       Latitude Longitude    Depth    Ndef Nsta Gap    Mag1  N    Mag2  N    Mag3  N   Author         ID
       rms   OT_Error      Smajor Sminor Az        Err   mdist  Mdist     Err        Err        Err      Quality

2011/04/30 10:08:21.3     44.2021    8.5310     10.0 f    18    8 211  Ml 2.1  8  Md 1.9  1              js067245    258922

      0.30   +-  0.23       3.9    2.6   74.88 +-  0.0    0.86   2.14   +-0.3      +-                    m i ke

NORTHERN ITALY
Sta     Dist  EvAz     Phase      Date       Time     TRes  Azim  AzRes  Slow  SRes Def   SNR       Amp   Per   Mag1   Mag2       ID
SBF   000.86 247.2 m E Pn      2011/04/30 10:08:38.2   0.2                          T                                        4684036
SBF   000.86 247.2 m E Sg      2011/04/30 10:08:49.5   0.6                          T               17.3  .29 Ml 2.5 Md 1.9  4684035
MBDF  001.36 293.2 m E Pn      2011/04/30 10:08:45.3   0.3                          T                                        4684031
MBDF  001.36 293.2 m E Pg      2011/04/30 10:08:47.1   0.2                          T                                        4684030
MBDF  001.36 293.2 m E Sg      2011/04/30 10:09:04.2  -0.4                          T                5.0  .32 Ml 2.2         4684020
FRF   001.51 245.4 m E Pn      2011/04/30 10:08:46.2  -0.5                          T                                        4684033
FRF   001.51 245.4 m E Pg      2011/04/30 10:08:49.3  -0.1                          T                                        4684027
FRF   001.51 245.4 m E Sg      2011/04/30 10:09:08.8  -0.1                          T                1.9  .19 Ml 2.1         4684024
LMR   001.70 240.1 m E Pn      2011/04/30 10:08:48.4  -0.9                          T                                        4684034
LMR   001.70 240.1 m E Sg      2011/04/30 10:09:15.4   0.4                          T                1.4  .22 Ml 2.0         4684025
SMRF  002.14 265.0 m E Pn      2011/04/30 10:08:55.5   0.1                          T                                        4684032
SMRF  002.14 265.0 m E Pg      2011/04/30 10:09:00.9  -0.2                          T                                        4684028
SMRF  002.14 265.0 m E Sg      2011/04/30 10:09:28.4  -0.3                          T                2.5  .32 Ml 2.1         4684023
ORIF  002.03 291.6 m E Pg      2011/04/30 10:08:59.0   0.0                          T                                        4684029
ORIF  002.03 291.6 m E Sn      2011/04/30 10:09:17.8   0.1                          T                  1  .30 Ml 1.7         4684021
PGF   001.69 168.2 m E Sn      2011/04/30 10:09:09.4  -0.3                          T                2.5  .17 Ml 2.5         4684026
LPL   001.83 316.4 m E Sg      2011/04/30 10:09:18.8  -0.6                          T                 .8  .22 Ml 1.7         4684022

.
EVENT     258797
    Date      Time       Latitude Longitude    Depth    Ndef Nsta Gap    Mag1  N    Mag2  N    Mag3  N   Author         ID
       rms   OT_Error      Smajor Sminor Az        Err   mdist  Mdist     Err        Err        Err      Quality

2011/04/30 10:38:43.5     44.3775    7.1719      2.0      20    9 174  Ml 2.2  8  Md 2.1  3              js067245    258797

      0.70   +-  0.09       1.9     .9   78.93 +-  0.0    0.45   1.85   +-0.3      +-0.0                 m i ke

NORTHERN ITALY
Sta     Dist  EvAz     Phase      Date       Time     TRes  Azim  AzRes  Slow  SRes Def   SNR       Amp   Per   Mag1   Mag2       ID
MBDF  000.45 320.8 m E Pg      2011/04/30 10:38:52.4   0.1                          T                                        4682698
MBDF  000.45 320.8 m E Sg      2011/04/30 10:38:58.4   0.0                          T               23.2  .26        Md 2.1  4682692
SBF   000.55 159.7 m E Pg      2011/04/30 10:38:54.2   0.2                          T                                        4682693
SBF   000.55 159.7 m E Sg      2011/04/30 10:39:00.6  -0.7                          T               18.0  .28        Md 2.1  4682691
FRF   000.90 205.1 m E Pg      2011/04/30 10:39:00.5   0.1                          T                                        4682696
FRF   000.90 205.1 m E Sg      2011/04/30 10:39:12.5   0.4                          T               11.3  .22 Ml 2.5 Md 2.1  4682690
ORIF  001.07 300.8 m E Pg      2011/04/30 10:39:03.5  -0.2                          T                                        4682697
ORIF  001.07 300.8 m E Sg      2011/04/30 10:39:17.5   0.0                          T                5.7  .30 Ml 2.1         4682689
LMR   001.15 204.9 m E Pg      2011/04/30 10:39:04.8  -0.1                          T                                        4682694
LMR   001.15 204.9 m E Sg      2011/04/30 10:39:19.8   0.0                          T               21.2  .50 Ml 2.5         4682685
LPG   001.16 345.2 m E Pg      2011/04/30 10:39:05.4  -0.1                          T                                        4682684
LPG   001.16 345.2 m E Sg      2011/04/30 10:39:20.5  -0.1                          T                1.8  .23 Ml 1.8         4682687
LPL   001.18 344.8 m E Pg      2011/04/30 10:39:06.0   0.1                          T                                        4682683
LPL   001.18 344.8 m E Sg      2011/04/30 10:39:21.2   0.0                          T                  1  .15 Ml 1.7         4682688
SMRF  001.22 251.3 m E Pg      2011/04/30 10:39:06.4   0.1                          T                                        4682695
SMRF  001.22 251.3 m E Sg      2011/04/30 10:39:22.1   0.1                          T               13.8  .36 Ml 2.5         4682686
VIVF  001.85 285.9 m E Pn      2011/04/30 10:39:14.5   0.0                          T                                        4682682
VIVF  001.85 285.9 m E Sn      2011/04/30 10:39:37.3   0.2                          T                2.9  .33 Ml 2.1         4682681

.
EVENT     258798
    Date      Time       Latitude Longitude    Depth    Ndef Nsta Gap    Mag1  N    Mag2  N    Mag3  N   Author         ID
       rms   OT_Error      Smajor Sminor Az        Err   mdist  Mdist     Err        Err        Err      Quality

2011/04/30 15:40:08.2     51.5564   16.1682      1.0 f    82   19 038  Ml 3.7 20                         js067245    258798

      0.92   +-  0.11       3.1    1.7  177.98 +-  0.0    0.72  59.83   +-0.4                            m i sr

POLAND
Sta     Dist  EvAz     Phase      Date       Time     TRes  Azim  AzRes  Slow  SRes Def   SNR       Amp   Per   Mag1   Mag2       ID
LANF  005.95 247.6 m E Pn      2011/04/30 15:41:34.7  -0.5                          T                                        4682739
LANF  005.95 247.6 m E Sg      2011/04/30 15:43:14.4   0.0                          T              123.1 1.05 Ml 4.2         4682708
RUP   006.09 255.8 m E Pn      2011/04/30 15:41:37.5   0.4                          T                                        4682740
RUP   006.09 255.8 m E Sg      2011/04/30 15:43:18.9   0.1                          T                                        4682735
CDF   006.54 244.7 m E Pn      2011/04/30 15:41:43.4   0.1                          T                                        4682738
CDF   006.54 244.7 m E Sg      2011/04/30 15:43:32.6  -0.4                          T               65.6  .88 Ml 4.2         4682709
HINF  007.11 241.9 m E Pn      2011/04/30 15:41:51.3   0.3                          T                                        4682730
HINF  007.11 241.9 m E Sg      2011/04/30 15:43:50.8   0.2                          T               21.1  .63 Ml 3.8         4682715
HAU   007.28 244.6 m E Pn      2011/04/30 15:41:53.9   0.6                          T                                        4682731
HAU   007.28 244.6 m E Sg      2011/04/30 15:43:56.0  -0.1                          T               29.0  .70 Ml 3.7         4682714
PAGF  007.36 250.0 m E Pn      2011/04/30 15:41:54.2  -0.1  63.7  1.7               T                                        4682737
PAGF  007.36 250.0 m E Sg      2011/04/30 15:43:58.9   0.3                          T               20.1 1.16 Ml 3.6         4682710
GIVF  007.33 263.0 m E Pn      2011/04/30 15:41:54.6   0.6                          T                                        4682734
GIVF  007.33 263.0 m E Sg      2011/04/30 15:43:57.7   0.1                          T               29.5  .74 Ml 3.9         4682707
THEF  007.37 247.1 m E Pn      2011/04/30 15:41:55.1   0.6                          T                                        4682732
THEF  007.37 247.1 m E Sg      2011/04/30 15:43:58.8   0.1                          T               55.3 1.23 Ml 4.0         4682713
MEZF  007.78 251.2 m E Pn      2011/04/30 15:42:00.0   0.0  70.7  8.0               T                                        4682704
MEZF  007.78 251.2 m E Sg      2011/04/30 15:44:11.6   0.0                          T               40.2 1.06 Ml 4.0         4682711
SFTF  007.93 249.3 m E Pn      2011/04/30 15:42:02.2   0.0                          T                                        4682703
SFTF  007.93 249.3 m E Sg      2011/04/30 15:44:16.3   0.0                          T               22.0  .80 Ml 3.8         4682712
CABF  008.26 237.1 m E Pn      2011/04/30 15:42:06.8   0.1                          T                                        4682716
CABF  008.26 237.1 m E Sg      2011/04/30 15:44:26.8   0.2                          T              110.5 1.36 Ml 4.4         4682717
LPL   008.70 229.7 m E Pn      2011/04/30 15:42:12.8   0.0                          T                                        4682727
LPL   008.70 229.7 m E Sn      2011/04/30 15:43:46.0   0.2                          T                1.7  .57 Ml 3.0         4682725
LPG   008.70 229.5 m E Pn      2011/04/30 15:42:13.0   0.0                          T                                        4682726
LPG   008.70 229.5 m E Sn      2011/04/30 15:43:46.1   0.0                          T                1.5  .52 Ml 3.0         4682724
LOR   009.10 246.7 m E Pn      2011/04/30 15:42:18.3   0.3  68.6  11.3              T                                        4682736
LOR   009.10 246.7 m E Sg      2011/04/30 15:44:53.2   0.5                          T               25.9 1.14 Ml 3.9         4682706
MBDF  009.28 226.2 m E Pn      2011/04/30 15:42:20.9   0.2                          T                                        4682720
MBDF  009.28 226.2 m E Sn      2011/04/30 15:43:59.5  -0.1                          T                5.3  .75 Ml 3.5         4682723
SSF   009.41 246.4 m E Pn      2011/04/30 15:42:22.8   0.5                          T                                        4682733
SSF   009.41 246.4 m E Sg      2011/04/30 15:45:02.5   0.1                          T               13.8  .92 Ml 3.9         4682705
SMF   009.46 243.5 m E Pn      2011/04/30 15:42:23.3   0.3                          T                                        4682728
SMF   009.46 243.5 m E Sg      2011/04/30 15:45:04.2   0.2                          T               37.5 1.20 Ml 4.1         4682719
ORIF  009.55 229.9 m E Pn      2011/04/30 15:42:24.3   0.1                          T                                        4682721
ORIF  009.55 229.9 m E Sn      2011/04/30 15:44:06.1   0.1                          T                1.4  .43 Ml 3.2         4682722
AVF   009.65 245.4 m E Pn      2011/04/30 15:42:25.6   0.1                          T                                        4682729
AVF   009.65 245.4 m E Sg      2011/04/30 15:45:10.1   0.2                          T               22.2 1.16 Ml 4.0         4682718

.
EVENT     258799
    Date      Time       Latitude Longitude    Depth    Ndef Nsta Gap    Mag1  N    Mag2  N    Mag3  N   Author         ID
       rms   OT_Error      Smajor Sminor Az        Err   mdist  Mdist     Err        Err        Err      Quality

2011/04/30 17:37:35.6     45.1441    6.6398      2.0      12    5 154  Ml 1.2  1  Md 1.4  3              js067245    258799

      0.58   +-  0.10       2.5    1.4  107.38 +-  0.0    0.36   1.52   +-         +-0.0                 m i ke

FRANCE
Sta     Dist  EvAz     Phase      Date       Time     TRes  Azim  AzRes  Slow  SRes Def   SNR       Amp   Per   Mag1   Mag2       ID
LPG   000.36 012.5 m E Pg      2011/04/30 17:37:43.0   0.0                          T                                        4682745
LPG   000.36 012.5 m E Sg      2011/04/30 17:37:47.8   0.0                          T                3.1  .28        Md 1.4  4682741
LPL   000.38 009.9 m E Pg      2011/04/30 17:37:43.2   0.0                          T                                        4682746
LPL   000.38 009.9 m E Sg      2011/04/30 17:37:48.2  -0.1                          T                2.8  .34        Md 1.4  4682742
MBDF  000.43 167.3 m E Pg      2011/04/30 17:37:43.8  -0.2                          T                                        4682748
MBDF  000.43 167.3 m E Sg      2011/04/30 17:37:49.6  -0.1                          T                1.9  .31        Md 1.3  4682743
ORIF  000.58 247.5 m E Pg      2011/04/30 17:37:47.1   0.2                          T                                        4682747
ORIF  000.58 247.5 m E Sg      2011/04/30 17:37:53.9  -0.6                          T                2.3  .32                4682744
CABF  001.52 345.5 m E Pg      2011/04/30 17:38:04.1   0.1                          T                                        4682752
CABF  001.52 345.5 m E Sg      2011/04/30 17:38:23.6   0.1                          T                 .6  .47 Ml 1.2         4682751

.
EVENT     258800
    Date      Time       Latitude Longitude    Depth    Ndef Nsta Gap    Mag1  N    Mag2  N    Mag3  N   Author         ID
       rms   OT_Error      Smajor Sminor Az        Err   mdist  Mdist     Err        Err        Err      Quality

2011/05/01 00:19:03.5     44.1291    8.5220     10.0      64   16 074  Ml 2.6 12  Md 2.5  3              js067245    258800

      0.45   +-  0.07       1.2    1.1  150.86 +-  0.0    0.15   4.68   +-0.3      +-0.1                 m i ke

NORTHERN ITALY
Sta     Dist  EvAz     Phase      Date       Time     TRes  Azim  AzRes  Slow  SRes Def   SNR       Amp   Per   Mag1   Mag2       ID
SBF   000.83 251.6 m E Pg      2011/05/01 00:19:19.3   0.0                          T                                        4682861
SBF   000.83 251.6 m E Sn      2011/05/01 00:19:31.4   0.1                          T              293.5  .36        Md 2.5  4682849
MBDF  001.39 296.1 m E Pn      2011/05/01 00:19:27.6   0.1                          T                                        4682855
MBDF  001.39 296.1 m E P       2011/05/01 00:19:29.3  -0.2                          T                                        4682858
MBDF  001.39 296.1 m E Sg      2011/05/01 00:19:46.0  -1.6                          T               32.5  .38 Ml 2.9 Md 2.5  4682850
FRF   001.47 247.9 m E Pn      2011/05/01 00:19:28.6   0.1                          T                                        4682853
FRF   001.47 247.9 m E Pg      2011/05/01 00:19:30.9  -0.1                          T                                        4682860
FRF   001.47 247.9 m E Sg      2011/05/01 00:19:50.0   0.0                          T               20.0  .20 Ml 3.1 Md 2.6  4682847
PGF   001.62 167.4 m E Pn      2011/05/01 00:19:30.3  -0.3                          T                                        4682851
PGF   001.62 167.4 m E Sn      2011/05/01 00:19:49.2  -1.1                          T                3.5  .33 Ml 2.3         4682840
LMR   001.66 242.1 m E Pn      2011/05/01 00:19:31.2   0.1                          T                                        4682852
LMR   001.66 242.1 m E Pg      2011/05/01 00:19:34.1  -0.4                          T                                        4682859
LMR   001.66 242.1 m E Sg      2011/05/01 00:19:55.8  -0.2                          T                8.9  .22 Ml 2.7         4682846
LPG   001.86 318.0 m E Pn      2011/05/01 00:19:34.3   0.1                          T                                        4682854
LPG   001.86 318.0 m E Pg      2011/05/01 00:19:38.5  -0.1                          T                                        4682856
LPG   001.86 318.0 m E Sg      2011/05/01 00:20:02.5   0.0                          T               11.8  .48 Ml 2.6         4682848
LPL   001.88 318.1 m E Pn      2011/05/01 00:19:34.4   0.1                          T                                        4682844
LPL   001.88 318.1 m E Pg      2011/05/01 00:19:38.7  -0.2                          T                                        4682845
LPL   001.88 318.1 m E Sg      2011/05/01 00:20:03.2   0.1                          T                7.7  .30 Ml 2.6         4682838
SMRF  002.13 266.9 m E Pn      2011/05/01 00:19:37.4  -0.1                          T                                        4682841
SMRF  002.13 266.9 m E Pg      2011/05/01 00:19:43.1  -0.1                          T                                        4682842
SMRF  002.13 266.9 m E Sg      2011/05/01 00:20:10.4  -0.3                          T               16.8  .36 Ml 2.9         4682839
ORIF  002.05 293.6 m E P       2011/05/01 00:19:38.8   0.0                          T                                        4682843
ORIF  002.05 293.6 m E Pg      2011/05/01 00:19:41.7   0.0                          T                                        4682857
ORIF  002.05 293.6 m E Sg      2011/05/01 00:20:08.1   0.0                          T                8.3  .30 Ml 2.7         4682837
VIVF  002.85 286.1 m E Pn      2011/05/01 00:19:47.8   0.5                          T                                        4682835
VIVF  002.85 286.1 m E Pg      2011/05/01 00:19:55.5  -1.0                          T                                        4682834
VIVF  002.85 286.1 m E Sn      2011/05/01 00:20:19.7   0.1                          T                                        4684040
VIVF  002.85 286.1 m E Sg      2011/05/01 00:20:32.8  -0.3                          T                2.0  .39 Ml 2.1         4682836
CABF  003.02 326.2 m E Pn      2011/05/01 00:19:49.7   0.0                          T                                        4684048
CABF  003.02 326.2 m E Pg      2011/05/01 00:19:58.8  -0.8                          T                                        4684047
LASF  003.36 270.7 m E Pn      2011/05/01 00:19:54.2  -0.1                          T                                        4684043
LASF  003.36 270.7 m E P       2011/05/01 00:19:57.2  -0.2                          T                                        4684042
LASF  003.36 270.7 m E Pg      2011/05/01 00:20:05.9   0.1                          T                                        4684041
LASF  003.36 270.7 m E Sn      2011/05/01 00:20:31.8   0.0                          T                 .5  .18 Ml 1.9         4684039
CDF   004.37 349.0 m E Pn      2011/05/01 00:20:09.0   0.9                          T                                        4684049
AVF   004.51 308.0 m E Pn      2011/05/01 00:20:09.7  -0.1                          T                                        4684046
AVF   004.51 308.0 m E P       2011/05/01 00:20:13.8   0.2                          T                                        4684045
LOR   004.53 315.5 m E Pn      2011/05/01 00:20:11.0   0.8                          T                                        4684050
BGF   004.68 303.2 m E Pn      2011/05/01 00:20:13.6   1.4                          T                                        4684044

.
