EVENT     267037
    Date      Time       Latitude Longitude    Depth    Ndef Nsta Gap    Mag1  N    Mag2  N    Mag3  N   Author         ID
       rms   OT_Error      Smajor Sminor Az        Err   mdist  Mdist     Err        Err        Err      Quality

2011/12/04 18:15:44.0     42.9491     .1444      2.0       9    4 189  Ml 1.3  2  Md 1.4  2              js067245    267057

      0.21   +-  0.15       9.2    1.3  170.31 +-  0.0    0.16   1.57   +-0.2      +-0.0                 m i ke

PYRENEES
Sta     Dist  EvAz     Phase      Date       Time     TRes  Azim  AzRes  Slow  SRes Def   SNR       Amp   Per   Mag1   Mag2       ID
EPF   000.16 060.5 m E Pg      2011/12/04 18:15:47.5   0.1                          T                                        4794471
EPF   000.16 060.5 m E Sg      2011/12/04 18:15:49.7  -0.1                          T               12.5  .18        Md 1.4  4794470
ETSF  000.52 264.7 m E Pg      2011/12/04 18:15:54.2   0.1                          T                                        4794468
ETSF  000.52 264.7 m E Sg      2011/12/04 18:16:01.0   0.1                          T                5.2  .34        Md 1.4  4794469
SJPF  001.02 279.7 m E Pg      2011/12/04 18:16:02.9  -0.2                          T                                        4794473
SJPF  001.02 279.7 m E Sg      2011/12/04 18:16:16.3   0.0                          T                 .4  .20 Ml 1.2         4794474
MTLF  001.57 074.8 m E Pg      2011/12/04 18:16:12.9  -0.3                          T                                        4794475
MTLF  001.57 074.8 m E Sn      2011/12/04 18:16:31.3   0.4                          T                                        4794472
MTLF  001.57 074.8 m E Sg      2011/12/04 18:16:33.7   0.3                          T                 .6  .25 Ml 1.5         4794476

.
EVENT     267031
    Date      Time       Latitude Longitude    Depth    Ndef Nsta Gap    Mag1  N    Mag2  N    Mag3  N   Author         ID
       rms   OT_Error      Smajor Sminor Az        Err   mdist  Mdist     Err        Err        Err      Quality

2011/12/04 22:29:26.8     46.2773   -1.4042      2.0      54   22 146  Ml 2.7 24  Md 2.6  6              js067245    267051

      1.20   +-  0.16       3.1    2.1   51.87 +-  0.0    0.71   4.50   +-0.3      +-0.1                 m i ke

FRANCE
Sta     Dist  EvAz     Phase      Date       Time     TRes  Azim  AzRes  Slow  SRes Def   SNR       Amp   Per   Mag1   Mag2       ID
MFF   000.93 069.1 m E Pg      2011/12/04 22:29:44.7   0.4                          T   001.0                                4794297
MFF   000.93 069.1 m E Sg      2011/12/04 22:29:57.2   0.9                          T   001.0       14.0  .18 Ml 2.8 Md 2.4  4794298
GRR   002.14 009.8 m E Pn      2011/12/04 22:30:01.6  -0.2                          T                                        4794484
GRR   002.14 009.8 m E Pg      2011/12/04 22:30:06.5  -0.2                          T                                        4794483
GRR   002.14 009.8 m E Sg      2011/12/04 22:30:33.4  -0.9                          T   001.0        8.3  .19 Ml 2.7 Md 2.6  4794291
LFF   002.01 130.9 m E Pg      2011/12/04 22:30:03.4  -0.8                          T   001.0                                4794295
LFF   002.01 130.9 m E Sn      2011/12/04 22:30:23.4  -0.9                          T   001.0       21.7  .32 Ml 2.9         4794296
LFF   002.01 130.9 m E Sg      2011/12/04 22:30:31.9   1.7                          T               18.2  .29 Ml 2.8         4794488
QUIF  002.03 324.4 m E Pg      2011/12/04 22:30:05.0   0.4                          T   001.0                                4794304
QUIF  002.03 324.4 m E Sg      2011/12/04 22:30:31.0   0.2                          T   001.0        9.1  .18 Ml 2.9 Md 2.7  4794305
TCF   002.51 088.5 m E Pn      2011/12/04 22:30:05.5  -1.3                          T                                        4794494
TCF   002.51 088.5 m E Pg      2011/12/04 22:30:13.1  -0.2                          T   001.0                                4794299
TCF   002.51 088.5 m E Sg      2011/12/04 22:30:44.1  -1.5                          T   001.0        5.6  .17 Ml 2.9         4794300
SGMF  002.13 338.8 m E Pg      2011/12/04 22:30:06.6   0.3                          T   001.0                                4794308
SGMF  002.13 338.8 m E Sg      2011/12/04 22:30:33.8   0.0                          T   001.0        7.0  .24 Ml 2.7 Md 2.6  4794309
LDF   002.48 020.1 m E Pn      2011/12/04 22:30:07.0   0.7                          T   001.0                                4794293
LDF   002.48 020.1 m E Sg      2011/12/04 22:30:43.4  -1.2                          T   001.0        6.9  .28 Ml 2.7         4794294
ROSF  002.42 329.0 m E Pg      2011/12/04 22:30:11.8   0.1                          T   001.0                                4794306
ROSF  002.42 329.0 m E Sg      2011/12/04 22:30:42.8  -0.1                          T   001.0        4.3  .28 Ml 2.5 Md 2.7  4794307
AVF   003.32 079.4 m E Pn      2011/12/04 22:30:17.9   0.0                          T   001.0                                4794283
AVF   003.32 079.4 m E Pg      2011/12/04 22:30:28.2  -0.2                          T                                        4794490
AVF   003.32 079.4 m E Sn      2011/12/04 22:30:53.5  -2.1                          T   001.0                                4794284
AVF   003.32 079.4 m E Sg      2011/12/04 22:31:09.1  -2.0                          T   001.0        2.7  .25 Ml 2.5         4794285
CAF   002.78 117.8 m E Pg      2011/12/04 22:30:18.7   0.2                          T                                        4794499
CAF   002.78 117.8 m E Sg      2011/12/04 22:30:54.9   0.5                          T   001.0       11.2  .24 Ml 3.0         4794287
BGF   002.95 083.0 m E Pg      2011/12/04 22:30:21.6   0.0                          T                                        4794498
BGF   002.95 083.0 m E Sg      2011/12/04 22:30:57.6  -2.0                          T               17.2  .25 Ml 3.3         4794492
SJPF  003.17 177.6 m E Pg      2011/12/04 22:30:24.8  -0.7                          T                                        4794487
SJPF  003.17 177.6 m E Sn      2011/12/04 22:30:50.8  -1.1                          T   001.0                                4794310
SJPF  003.17 177.6 m E Sg      2011/12/04 22:31:08.2   2.0                          T   001.0        1.1  .22 Ml 2.2         4794311
MTLF  003.91 137.4 m E Pn      2011/12/04 22:30:26.9   1.1                          T   001.0                                4794301
MTLF  003.91 137.4 m E Sn      2011/12/04 22:31:10.3   0.7                          T                                        4794480
MTLF  003.91 137.4 m E Sg      2011/12/04 22:31:30.1   0.8                          T   001.0        1.7  .29 Ml 2.4         4794302
ETSF  003.43 169.6 m E Pg      2011/12/04 22:30:30.3  -0.2                          T                                        4794485
ETSF  003.43 169.6 m E Sn      2011/12/04 22:30:55.7  -2.6                          T                                        4794479
SSF   003.47 075.2 m E Pg      2011/12/04 22:30:30.4  -0.7                          T                                        4794496
LASF  004.32 118.7 m E Pn      2011/12/04 22:30:30.5  -1.0                          T   001.0                                4794292
EPF   003.48 158.4 m E Pg      2011/12/04 22:30:31.1  -0.1                          T                                        4794486
EPF   003.48 158.4 m E Sn      2011/12/04 22:30:59.1  -0.3                          T   001.0        2.3  .20 Ml 2.6         4794288
SMF   003.64 082.3 m E Pg      2011/12/04 22:30:34.1  -0.2                          T                                        4794497
SMF   003.64 082.3 m E Sg      2011/12/04 22:31:20.3  -0.8                          T                2.5  .22 Ml 2.6         4794481
LOR   003.75 072.8 m E Pg      2011/12/04 22:30:36.4   0.1 253.7  -2.9              T                                        4794495
LOR   003.75 072.8 m E Sg      2011/12/04 22:31:23.3  -1.2                          T                2.8  .26 Ml 2.6         4794493
RJF   002.26 114.4 m E Sg      2011/12/04 22:30:36.8  -1.2                          T               17.0  .20 Ml 2.9         4794489
FLN   002.56 013.8 m E Sn      2011/12/04 22:30:38.5   1.0                          T   001.0                                4794289
FLN   002.56 013.8 m E Sg      2011/12/04 22:30:46.0  -1.4                          T   001.0        4.4  .23 Ml 2.5         4794290
VIVF  004.50 106.2 m E Sg      2011/12/04 22:31:48.2   0.4                          T   001.0        2.8  .32 Ml 2.7         4794312

.
EVENT     267038
    Date      Time       Latitude Longitude    Depth    Ndef Nsta Gap    Mag1  N    Mag2  N    Mag3  N   Author         ID
       rms   OT_Error      Smajor Sminor Az        Err   mdist  Mdist     Err        Err        Err      Quality

2011/12/05 01:24:08.7     42.8980   -1.7394     18.0 f    20    3 102  Ml 1.8  2  Md 2.0  3              js067245    267058

      0.32   +-  0.10       2.2    1.7    7.12 +-  0.0    0.17   2.18   +-0.3      +-0.1                 m i ke

PYRENEES
Sta     Dist  EvAz     Phase      Date       Time     TRes  Azim  AzRes  Slow  SRes Def   SNR       Amp   Per   Mag1   Mag2       ID
SJPF  000.43 060.1 m E Pg      2011/12/05 01:24:17.3  -0.2                          T                                        4794420
SJPF  000.43 060.1 m E P       2011/12/05 01:24:18.8   0.0                          T                                        4794421
SJPF  000.43 060.1 m E Sg      2011/12/05 01:24:23.8   0.2                          T                6.2  .20        Md 2.0  4794422
ETSF  000.87 089.6 m E Pg      2011/12/05 01:24:25.2  -0.2                          T                                        4794419
ETSF  000.87 089.6 m E Sg      2011/12/05 01:24:36.9   0.1                          T                1.9  .24 Ml 1.7 Md 2.0  4794423
EPF   001.53 084.3 m E Pg      2011/12/05 01:24:37.7   0.3                          T                                        4794418
EPF   001.53 084.3 m E Sg      2011/12/05 01:24:57.6   0.3                          T                2.3  .24 Ml 2.0 Md 2.2  4794417

.
EVENT     267039
    Date      Time       Latitude Longitude    Depth    Ndef Nsta Gap    Mag1  N    Mag2  N    Mag3  N   Author         ID
       rms   OT_Error      Smajor Sminor Az        Err   mdist  Mdist     Err        Err        Err      Quality

2011/12/05 02:26:04.0     47.9378    8.2517     10.0      23    8 059  Ml 2.1  6  Md 2.1  4              js067245    267059

      0.27   +-  0.04        .8     .6  145.11 +-  0.0    0.18   3.05   +-0.3      +-0.2                 m i ke

SWITZERLAND
Sta     Dist  EvAz     Phase      Date       Time     TRes  Azim  AzRes  Slow  SRes Def   SNR       Amp   Per   Mag1   Mag2       ID
CDF   000.81 306.4 m E Pg      2011/12/05 02:26:19.4   0.0                          T                                        4794416
CDF   000.81 306.4 m E Sg      2011/12/05 02:26:30.2   0.2                          T                2.6  .18        Md 2.0  4794415
HINF  000.95 263.2 m E Pg      2011/12/05 02:26:21.7  -0.2                          T                                        4794413
HINF  000.95 263.2 m E Sg      2011/12/05 02:26:34.2  -0.2                          T               10.4  .34 Ml 2.3 Md 1.9  4794412
LANF  001.09 344.3 m E Pg      2011/12/05 02:26:24.4   0.0                          T                                        4794406
LANF  001.09 344.3 m E Sg      2011/12/05 02:26:38.4  -0.1                          T                2.7  .21 Ml 2.0 Md 2.3  4794405
HAU   001.28 273.7 m E Pg      2011/12/05 02:26:28.0   0.0                          T                                        4794414
HAU   001.28 273.7 m E Sn      2011/12/05 02:26:42.2  -0.4                          T                                        4794411
HAU   001.28 273.7 m E Sg      2011/12/05 02:26:44.8   0.1                          T                3.8  .18 Ml 2.0 Md 2.2  4794410
PAGF  001.80 291.0 m E Pg      2011/12/05 02:26:37.4  -0.1                          T                                        4794407
PAGF  001.80 291.0 m E Sg      2011/12/05 02:27:00.4  -0.3                          T                 .7  .23 Ml 1.7         4794408
RUP   001.93 336.4 m E Pg      2011/12/05 02:26:39.9  -0.1                          T                                        4794403
RUP   001.93 336.4 m E Sg      2011/12/05 02:27:05.2   0.2                          T                                        4794404
THEF  001.54 281.7 m E Sg      2011/12/05 02:26:52.4  -0.3                          T                7.3  .30 Ml 2.4         4794409
LOR   003.05 258.9 m E Pg      2011/12/05 02:27:00.5   0.0  78.7  3.0               T                                        4794401
LOR   003.05 258.9 m E Sg      2011/12/05 02:27:39.5  -0.2                          T                 .8  .20 Ml 2.1         4794402

.
EVENT     267128
    Date      Time       Latitude Longitude    Depth    Ndef Nsta Gap    Mag1  N    Mag2  N    Mag3  N   Author         ID
       rms   OT_Error      Smajor Sminor Az        Err   mdist  Mdist     Err        Err        Err      Quality

2011/12/05 10:52:39.3     41.3338    1.9698     25.0      13    3 214  Ml 2.3  3  Md 2.2  2              js067245    267148

      1.04   +-  0.64      10.5    5.8  151.23 +-  0.0    0.55   2.45   +-0.2      +-0.1                 m i ke

SPAIN
Sta     Dist  EvAz     Phase      Date       Time     TRes  Azim  AzRes  Slow  SRes Def   SNR       Amp   Per   Mag1   Mag2       ID
MTLF  002.01 005.1 m E Pg      2011/12/05 10:53:15.5  -1.5                          T                                        4795240
MTLF  002.01 005.1 m E Sn      2011/12/05 10:53:31.2  -1.5                          T                                        4795235
MTLF  002.01 005.1 m E Sg      2011/12/05 10:53:42.3  -0.8                          T                6.9  .52 Ml 2.3 Md 2.3  4795239
EPF   002.08 325.0 m E Pg      2011/12/05 10:53:18.2  -0.1                          T                                        4795237
EPF   002.08 325.0 m E Sg      2011/12/05 10:53:43.5  -1.8                          T                8.9  .50 Ml 2.5 Md 2.2  4795238
ETSF  002.45 310.6 m E Sn      2011/12/05 10:53:43.2   0.1                          T                                        4795234
ETSF  002.45 310.6 m E Sg      2011/12/05 10:53:58.5   1.9                          T                2.5  .35 Ml 2.2         4795236

.
EVENT     267137
    Date      Time       Latitude Longitude    Depth    Ndef Nsta Gap    Mag1  N    Mag2  N    Mag3  N   Author         ID
       rms   OT_Error      Smajor Sminor Az        Err   mdist  Mdist     Err        Err        Err      Quality

2011/12/05 15:51:44.5     48.7926    6.0455       .0 f    12    7 227  Ml 2.3  3  Md 2.1  1              js067245    267157

      1.94   +-  0.98      15.5    7.2   24.91 +-  0.0    0.32   2.12   +-0.5      +-                    m i km

FRANCE
Sta     Dist  EvAz     Phase      Date       Time     TRes  Azim  AzRes  Slow  SRes Def   SNR       Amp   Per   Mag1   Mag2       ID
PAGF  000.32 221.9 m E Pg      2011/12/05 15:51:52.8   1.8  50.8  9.2               T                                        4795784
PAGF  000.32 221.9 m E Sg      2011/12/05 15:51:57.8   2.4  37.9  -3.8              T              111.6  .84                4795785
THEF  000.57 183.5 m E Pg      2011/12/05 15:51:56.4   0.9                          T                                        4795777
THEF  000.57 183.5 m E Sg      2011/12/05 15:52:03.8   0.6                          T              130.1 1.16                4795778
MEZF  000.72 246.5 m E Pg      2011/12/05 15:51:57.4  -0.9  69.2  3.4               T                                        4795782
MEZF  000.72 246.5 m E Sg      2011/12/05 15:52:07.0  -0.9  67.6  1.8               T              110.3  .88                4795783
HAU   000.81 165.5 m E Pg      2011/12/05 15:52:00.0  -0.1                          T                                        4795779
HAU   000.81 165.5 m E Sg      2011/12/05 15:52:09.9  -1.0                          T                3.5  .30                4795780
SFTF  000.89 229.1 m E Pg      2011/12/05 15:52:00.2  -1.3                          T                                        4795776
SFTF  000.89 229.1 m E Sg      2011/12/05 15:52:11.1  -2.2  40.0  -8.3              T              129.7 1.17 Ml 2.8         4795781
CDF   000.90 114.5 m E Sg      2011/12/05 15:52:13.3  -0.4                          T                4.3  .41                4795774
LOR   002.12 224.7 m E Sg      2011/12/05 15:52:40.4 -11.2  52.9  9.8               T                2.5  .27                4795775

.
