BEGIN GSE2.0
MSG_TYPE DATA
MSG_ID 19-JUL-1209:19:23  FRA_NDC
E-MAIL
DATA_TYPE BULLETIN
Reviewed Bulletin (REB) # P2012-028  from French NDC for regional phases     PERIOD 11 JUL 2012 TO 17 JUL 2012 Cenalt JP S
EVENT     279374
    Date      Time       Latitude Longitude    Depth    Ndef Nsta Gap    Mag1  N    Mag2  N    Mag3  N   Author         ID
       rms   OT_Error      Smajor Sminor Az        Err   mdist  Mdist     Err        Err        Err      Quality

2012/07/11 07:38:38.7     43.5281    6.5645       .0 f    18    7 099  Ml 1.7  3  Md 2.0  2              bulletin    279475
                                                                                                         _ldg
      0.46   +-  0.23       4.4    3.4   12.56 +-  0.0    0.07   2.04   +-0.3      +-0.0                 m i km

NEAR SOUTH COAST OF FRANCE
Sta     Dist  EvAz     Phase      Date       Time     TRes  Azim  AzRes  Slow  SRes Def   SNR       Amp   Per   Mag1   Mag2       ID
FRF   000.07 061.4 m E Pg      2012/07/11 07:38:39.7  -0.7                          T                                        5023665
FRF   000.07 061.4 m E Sg      2012/07/11 07:38:40.7  -0.9                          T              205.0  .18        Md 2.0  5023664
LMR   000.20 191.7 m E Pg      2012/07/11 07:38:42.6  -0.3                          T                                        5023663
LMR   000.20 191.7 m E Sg      2012/07/11 07:38:45.7  -0.1                          T               94.8  .50        Md 2.0  5023662
SBF   000.71 061.8 m E Pg      2012/07/11 07:38:52.8   0.2                          T                                        5023661
SBF   000.71 061.8 m E Sg      2012/07/11 07:39:02.6   0.5                          T               25.1  .25                5023660
SMRF  000.85 302.3 m E Pg      2012/07/11 07:38:56.4   1.4                          T                                        5023659
SMRF  000.85 302.3 m E Sg      2012/07/11 07:39:06.1   0.0                          T                3.3  .22                5023668
MBDF  001.21 007.0 m E Pg      2012/07/11 07:39:01.7   0.0                          T                                        5023690
MBDF  001.21 007.0 m E Sg      2012/07/11 07:39:17.6   0.0                          T                1.0  .22 Ml 1.6         5023689
VIVF  001.90 314.9 m E Pn      2012/07/11 07:39:11.0   0.2                          T                                        5023688
VIVF  001.90 314.9 m E Sn      2012/07/11 07:39:34.2   0.0                          T                 .4  .19 Ml 1.5         5023687
PGF   002.04 117.9 m E Sn      2012/07/11 07:39:37.9   0.4                          T                  1  .26 Ml 2.0         5023686

.
EVENT     279396
    Date      Time       Latitude Longitude    Depth    Ndef Nsta Gap    Mag1  N    Mag2  N    Mag3  N   Author         ID
       rms   OT_Error      Smajor Sminor Az        Err   mdist  Mdist     Err        Err        Err      Quality

2012/07/11 10:22:23.4     47.8136    5.8910       .0 f    28   12 084  Ml 2.3  8  Md 2.2  3              bulletin    279497
                                                                                                         _ldg
      0.26   +-  0.04        .9     .6  148.13 +-  0.0    0.36   2.51   +-0.5      +-0.1                 m i km

FRANCE
Sta     Dist  EvAz     Phase      Date       Time     TRes  Azim  AzRes  Slow  SRes Def   SNR       Amp   Per   Mag1   Mag2       ID
HAU   000.36 057.8 m E Pg      2012/07/11 10:22:30.6  -0.1                          T                                        5023908
HAU   000.36 057.8 m E Sg      2012/07/11 10:22:35.6  -0.1                          T               39.1  .55        Md 2.1  5023907
THEF  000.42 009.4 m E Pg      2012/07/11 10:22:32.0   0.2                          T                                        5023906
THEF  000.42 009.4 m E Sg      2012/07/11 10:22:37.3  -0.1                          T               56.1  .53        Md 2.3  5023905
HINF  000.65 089.4 m E Pg      2012/07/11 10:22:35.8  -0.1                          T                                        5023904
HINF  000.65 089.4 m E Sg      2012/07/11 10:22:44.2  -0.4                          T                9.2  .39        Md 2.2  5023903
SFTF  000.69 304.7 m E Pg      2012/07/11 10:22:36.8   0.0 125.6  1.5               T                                        5023902
SFTF  000.69 304.7 m E Sg      2012/07/11 10:22:45.5  -0.5                          T               21.1  .47                5023899
MEZF  000.89 321.1 m E Pg      2012/07/11 10:22:41.7   1.4 141.6  1.1               T                                        5023900
MEZF  000.89 321.1 m E Sg      2012/07/11 10:22:51.6  -0.4                          T               16.2  .42 Ml 2.4         5023901
CDF   001.10 056.7 m E Pg      2012/07/11 10:22:44.4   0.0                          T                                        5023887
CDF   001.10 056.7 m E Sg      2012/07/11 10:22:59.1   0.2                          T               15.2  .54 Ml 2.4         5023888
CABF  001.21 173.6 m E Pg      2012/07/11 10:22:46.4   0.0                          T                                        5023898
CABF  001.21 173.6 m E Sg      2012/07/11 10:23:02.6   0.3                          T               17.5  .52 Ml 2.4         5023897
LOR   001.48 249.1 m E Pn      2012/07/11 10:22:50.0   0.2  69.1  1.4               T                                        5023886
LOR   001.48 249.1 m E Sn      2012/07/11 10:23:08.7  -0.1                          T                                        5023885
LOR   001.48 249.1 m E Sg      2012/07/11 10:23:10.5  -0.1                          T               13.2  .58 Ml 2.4         5023884
SSF   001.79 246.0 m E Pn      2012/07/11 10:22:53.9   0.0                          T                                        5023894
SSF   001.79 246.0 m E P       2012/07/11 10:22:56.8   1.1                          T                                        5023893
SSF   001.79 246.0 m E Sn      2012/07/11 10:23:15.6  -0.5                          T                                        5023896
SSF   001.79 246.0 m E Sg      2012/07/11 10:23:20.1   0.0                          T               12.1  .48 Ml 2.6         5023895
SMF   001.82 230.8 m E Pn      2012/07/11 10:22:54.4   0.0                          T                                        5023891
SMF   001.82 230.8 m E Sg      2012/07/11 10:23:21.2   0.0                          T               18.9  .44 Ml 2.8         5023892
AVF   002.01 240.3 m E Pg      2012/07/11 10:23:00.9   0.0                          T                                        5023890
AVF   002.01 240.3 m E Sn      2012/07/11 10:23:21.3   0.0                          T                 .2  .18 Ml 1.2         5023889
BAIF  002.51 334.3 m E Pn      2012/07/11 10:23:03.8   0.1                          T                                        5023883

.
EVENT     279399
    Date      Time       Latitude Longitude    Depth    Ndef Nsta Gap    Mag1  N    Mag2  N    Mag3  N   Author         ID
       rms   OT_Error      Smajor Sminor Az        Err   mdist  Mdist     Err        Err        Err      Quality

2012/07/11 10:32:04.3     48.5727   -2.7903       .0 f    35   22 195  Ml 2.5  6  Md 2.5  3              bulletin    279500
                                                                                                         _ldg
      0.92   +-  0.15       3.5    2.1  150.15 +-  0.0    0.35   6.29   +-0.4      +-0.1                 m i km

FRANCE
Sta     Dist  EvAz     Phase      Date       Time     TRes  Azim  AzRes  Slow  SRes Def   SNR       Amp   Per   Mag1   Mag2       ID
SGMF  000.35 153.9 m E Pg      2012/07/11 10:32:11.7   0.3                          T                                        5023847
SGMF  000.35 153.9 m E Sg      2012/07/11 10:32:15.4  -0.9                          T               77.9 1.00        Md 2.6  5023864
ROSF  000.40 233.9 m E P       2012/07/11 10:32:12.7  -0.1                          T                                        5023846
ROSF  000.40 233.9 m E Sg      2012/07/11 10:32:16.9  -0.8                          T              147.0  .64        Md 2.3  5023854
QUIF  000.70 201.1 m E P       2012/07/11 10:32:18.9  -0.2                          T                                        5023845
QUIF  000.70 201.1 m E Sg      2012/07/11 10:32:26.2  -0.9                          T               11.6  .26        Md 2.5  5023858
GRR   001.30 097.4 m E Pn      2012/07/11 10:32:28.4   0.2                          T                                        5028757
GRR   001.30 097.4 m E Pg      2012/07/11 10:32:29.0   0.2                          T                                        5023840
GRR   001.30 097.4 m E Sn      2012/07/11 10:32:45.7   0.3                          T               23.6  .19 Ml 2.9         5023839
FLN   001.54 082.1 m E Pn      2012/07/11 10:32:30.8  -0.6 262.2  -1.6              T                                        5028756
FLN   001.54 082.1 m E Pg      2012/07/11 10:32:32.2  -1.1 260.2  -3.6              T                                        5023844
FLN   001.54 082.1 m E Sn      2012/07/11 10:32:51.8   0.6 248.4  -15.4             T                7.3  .21 Ml 2.4         5023843
LDF   001.77 088.3 m E Pn      2012/07/11 10:32:34.7   0.1                          T                                        5028769
LDF   001.77 088.3 m E P       2012/07/11 10:32:36.4  -0.1                          T                                        5023842
LDF   001.77 088.3 m E Sn      2012/07/11 10:32:57.7   1.1                          T               11.0  .25 Ml 2.8         5023841
TCF   004.09 122.1 m E Pn      2012/07/11 10:33:06.5   0.2                          T                                        5023866
TCF   004.09 122.1 m E Sn      2012/07/11 10:33:51.4  -0.8                          T                 .7  .21 Ml 2.2         5023865
BGF   004.32 115.7 m E Pn      2012/07/11 10:33:09.4   0.1                          T                                        5028761
LFF   004.37 145.0 m E Pn      2012/07/11 10:33:10.4   0.4                          T                                        5023869
RJF   004.40 136.3 m E Pn      2012/07/11 10:33:10.5   0.1                          T                                        5023871
RJF   004.40 136.3 m E Sn      2012/07/11 10:33:59.9   0.3                          T                 .7  .22 Ml 1.9         5023870
SSF   004.50 107.3 m E Pn      2012/07/11 10:33:11.5  -0.3                          T                                        5028766
AVF   004.52 111.0 m E Pn      2012/07/11 10:33:12.0   0.0                          T                                        5028763
LOR   004.66 103.8 m E Pn      2012/07/11 10:33:13.9   0.0 282.9  -5.8              T                                        5028767
BAIF  004.81 069.4 m E Pn      2012/07/11 10:33:15.7  -0.3                          T                                        5028765
SMF   004.88 110.8 m E Pn      2012/07/11 10:33:16.8  -0.1                          T                                        5028762
CAF   004.94 135.8 m E Pn      2012/07/11 10:33:17.9   0.0                          T                                        5023868
GIVF  005.21 070.1 m E Pn      2012/07/11 10:33:21.4   0.0                          T                                        5028764
SJPF  005.57 168.1 m E Pn      2012/07/11 10:33:26.8   0.4                          T                                        5023867
MFF   002.66 136.8 m E Sg      2012/07/11 10:33:27.4  -1.0                          T                2.2  .21 Ml 2.6         5028768
ETSF  005.89 163.8 m E Pn      2012/07/11 10:33:30.6  -0.2                          T                                        5028760
EPF   005.96 157.3 m E Pn      2012/07/11 10:33:32.5   0.8                          T                                        5028759
MTLF  006.29 144.4 m E Pn      2012/07/11 10:33:36.5   0.4                          T                                        5028758

.
EVENT     279404
    Date      Time       Latitude Longitude    Depth    Ndef Nsta Gap    Mag1  N    Mag2  N    Mag3  N   Author         ID
       rms   OT_Error      Smajor Sminor Az        Err   mdist  Mdist     Err        Err        Err      Quality

2012/07/11 11:06:29.7     47.7348    5.9938       .0 f    24   12 095  Ml 2.0  6  Md 2.1  2              bulletin    279505
                                                                                                         _ldg
      0.26   +-  0.06       1.1    1.0   15.11 +-  0.0    0.36   2.61   +-0.2      +-0.2                 m i km

FRANCE
Sta     Dist  EvAz     Phase      Date       Time     TRes  Azim  AzRes  Slow  SRes Def   SNR       Amp   Per   Mag1   Mag2       ID
HAU   000.36 041.2 m E Pg      2012/07/11 11:06:36.6  -0.4                          T                                        5023932
HAU   000.36 041.2 m E Sg      2012/07/11 11:06:41.9  -0.1                          T               34.8  .86        Md 2.2  5023928
THEF  000.49 000.0 m E Pg      2012/07/11 11:06:39.4  -0.1                          T                                        5023931
THEF  000.49 000.0 m E Sg      2012/07/11 11:06:47.0   0.9                          T              128.3 1.59        Md 1.9  5023923
HINF  000.59 081.6 m E Pg      2012/07/11 11:06:41.4   0.2                          T                                        5023930
HINF  000.59 081.6 m E Sg      2012/07/11 11:06:48.9  -0.1                          T                5.3  .20                5023929
SFTF  000.80 306.6 m E Pg      2012/07/11 11:06:45.1   0.1 127.7  1.8               T                                        5023925
SFTF  000.80 306.6 m E Sg      2012/07/11 11:06:55.6   0.1                          T                5.4  .22                5023924
PAGF  000.84 347.7 m E Pn      2012/07/11 11:06:47.3  -0.1 167.9  0.4               T                                        5023914
PAGF  000.84 347.7 m E Sn      2012/07/11 11:06:59.8   0.0                          T                2.7  .17                5023913
MEZF  000.99 320.9 m E Pg      2012/07/11 11:06:48.5  -0.1                          T                                        5023922
MEZF  000.99 320.9 m E Sg      2012/07/11 11:07:01.8   0.0                          T                5.3  .26 Ml 2.1         5023921
CDF   001.10 051.3 m E Pn      2012/07/11 11:06:50.8  -0.2                          T                                        5023927
CDF   001.10 051.3 m E Sn      2012/07/11 11:07:06.1   0.0                          T                2.6  .21 Ml 2.1         5023920
CABF  001.13 176.7 m E Pg      2012/07/11 11:06:51.4   0.2                          T                                        5023926
CABF  001.13 176.7 m E Sg      2012/07/11 11:07:06.0   0.0                          T                1.3  .17 Ml 1.8         5023919
LOR   001.52 252.9 m E Pn      2012/07/11 11:06:56.5  -0.2                          T                                        5023911
LOR   001.52 252.9 m E Sn      2012/07/11 11:07:16.0  -0.2                          T                                        5023912
LANF  001.74 043.4 m E Pn      2012/07/11 11:06:59.7   0.1                          T                                        5023910
LANF  001.74 043.4 m E Sn      2012/07/11 11:07:21.5   0.2                          T                1.7  .19 Ml 2.1         5023909
GIVF  002.49 342.4 m E Pn      2012/07/11 11:07:10.2   0.3                          T                                        5023916
GIVF  002.49 342.4 m E Sn      2012/07/11 11:07:39.5   0.1                          T                2.5  .20 Ml 2.4         5023915
BAIF  002.61 333.8 m E Pn      2012/07/11 11:07:11.4   0.0                          T                                        5023918
BAIF  002.61 333.8 m E Sn      2012/07/11 11:07:42.1   0.0                          T                 .5  .19 Ml 1.8         5023917

.
EVENT     279600
    Date      Time       Latitude Longitude    Depth    Ndef Nsta Gap    Mag1  N    Mag2  N    Mag3  N   Author         ID
       rms   OT_Error      Smajor Sminor Az        Err   mdist  Mdist     Err        Err        Err      Quality

2012/07/11 14:56:13.6     42.9222     .6809       .0 f    12    3 122  Ml 1.4  2  Md 1.5  2              bulletin    279700
                                                                                                         _ldg
      0.20   +-  0.05       1.3     .8   24.57 +-  0.0    0.24   1.20   +-0.0      +-0.0                 m i km

PYRENEES
Sta     Dist  EvAz     Phase      Date       Time     TRes  Azim  AzRes  Slow  SRes Def   SNR       Amp   Per   Mag1   Mag2       ID
EPF   000.27 293.5 m E Pg      2012/07/11 14:56:19.2  -0.1                          T                                        5027317
EPF   000.27 293.5 m E Sg      2012/07/11 14:56:22.9  -0.2                          T               21.4  .28        Md 1.5  5027316
ETSF  000.91 268.9 m E Pg      2012/07/11 14:56:31.1   0.0                          T                                        5027314
ETSF  000.91 268.9 m E Sg      2012/07/11 14:56:42.8  -0.2                          T                  1  .27 Ml 1.3 Md 1.5  5027315
MTLF  001.20 069.1 m E Pg      2012/07/11 14:56:36.3   0.0                          T                                        5028770
MTLF  001.20 069.1 m E Sn      2012/07/11 14:56:52.4   0.1                          T                1.0  .33 Ml 1.4         5028771

.
EVENT     279601
    Date      Time       Latitude Longitude    Depth    Ndef Nsta Gap    Mag1  N    Mag2  N    Mag3  N   Author         ID
       rms   OT_Error      Smajor Sminor Az        Err   mdist  Mdist     Err        Err        Err      Quality

2012/07/11 15:03:18.9     42.5267    1.6501      8.0 f    25    3 073  Ml 1.5  3  Md 1.8  1              bulletin    279701
                                                                                                         _ldg
      0.39   +-  0.06       1.6    1.0   17.91 +-  0.0    0.11   1.67   +-0.2      +-                    m i ke

PYRENEES
Sta     Dist  EvAz     Phase      Date       Time     TRes  Azim  AzRes  Slow  SRes Def   SNR       Amp   Per   Mag1   Mag2       ID
MTLF  000.91 026.9 m E Pg      2012/07/11 15:03:36.2   0.0                          T                                        5028772
MTLF  000.91 026.9 m E P       2012/07/11 15:03:37.8   0.1                          T                                        5027324
MTLF  000.91 026.9 m E Sg      2012/07/11 15:03:48.1   0.0                          T                3.1  .40 Ml 1.7 Md 1.8  5027321
EPF   001.09 298.0 m E Pg      2012/07/11 15:03:39.7   0.3                          T                                        5027323
EPF   001.09 298.0 m E Sg      2012/07/11 15:03:53.4  -0.1                          T                1.2  .24 Ml 1.5         5027322
ETSF  001.67 283.6 m E Pn      2012/07/11 15:03:46.5  -0.4                          T                                        5028774
ETSF  001.67 283.6 m E Pg      2012/07/11 15:03:50.2   0.0                          T                                        5028773
ETSF  001.67 283.6 m E Sg      2012/07/11 15:04:11.7   0.0                          T                 .4  .26 Ml 1.3         5028775

.
