EVENT     260971
    Date      Time       Latitude Longitude    Depth    Ndef Nsta Gap    Mag1  N    Mag2  N    Mag3  N   Author         ID
       rms   OT_Error      Smajor Sminor Az        Err   mdist  Mdist     Err        Err        Err      Quality

2011/07/02 07:00:18.4     47.1468    -.9375      2.0      13    8 161  Ml 1.8  7  Md 2.1  1              js067245    260971

      0.46   +-  0.16       4.0    1.8   60.61 +-  0.0    0.77   2.51   +-0.2      +-                    m i ke

FRANCE
Sta     Dist  EvAz     Phase      Date       Time     TRes  Azim  AzRes  Slow  SRes Def   SNR       Amp   Per   Mag1   Mag2       ID
MFF   000.77 134.8 m E Pg      2011/07/02 07:00:32.9   0.0                          T                                        4716317
MFF   000.77 134.8 m E Sg      2011/07/02 07:00:42.5  -0.5                          T                4.2  .33        Md 2.1  4716314
GRR   001.24 002.4 m E Pg      2011/07/02 07:00:42.1   0.5                          T                                        4716316
GRR   001.24 002.4 m E Sg      2011/07/02 07:00:57.9   0.2                          T                3.5  .21 Ml 2.0         4716315
LDF   001.55 020.5 m E Pg      2011/07/02 07:00:46.9  -0.3                          T                                        4718921
LDF   001.55 020.5 m E Sg      2011/07/02 07:01:06.5  -0.7                          T                3.2  .29 Ml 2.1         4716313
SGMF  001.56 316.0 m E Sg      2011/07/02 07:01:07.7   0.1                          T                 .8  .25 Ml 1.5         4716310
FLN   001.65 010.6 m E Sg      2011/07/02 07:01:09.3  -0.9                          T                1.7  .26 Ml 1.8         4716312
QUIF  001.69 297.8 m E Sg      2011/07/02 07:01:11.4  -0.4                          T                 .9  .18 Ml 1.8         4716311
ROSF  001.98 307.9 m E Sg      2011/07/02 07:01:20.0  -0.6                          T                 .8  .30 Ml 1.6         4718923
RJF   002.51 136.4 m E Sg      2011/07/02 07:01:36.9  -0.4                          T                1.6  .18 Ml 1.9         4718922

.
EVENT     260972
    Date      Time       Latitude Longitude    Depth    Ndef Nsta Gap    Mag1  N    Mag2  N    Mag3  N   Author         ID
       rms   OT_Error      Smajor Sminor Az        Err   mdist  Mdist     Err        Err        Err      Quality

2011/07/02 07:36:14.1     46.8649    6.9596      2.0      26   14 067  Ml 2.3 13  Md 2.3  6              js067245    260972

      0.37   +-  0.08       1.7    1.2   92.65 +-  0.0    0.09   2.57   +-0.4      +-0.3                 m i ke

SWITZERLAND
Sta     Dist  EvAz     Phase      Date       Time     TRes  Azim  AzRes  Slow  SRes Def   SNR       Amp   Per   Mag1   Mag2       ID
CABF  000.65 247.4 m E Pg      2011/07/02 07:36:27.0   0.4                          T                                        4716328
CABF  000.65 247.4 m E Sg      2011/07/02 07:36:35.3   0.2                          T                5.9  .29        Md 2.2  4716321
HINF  000.96 355.7 m E Pg      2011/07/02 07:36:32.9   0.8                          T                                        4715419
HINF  000.96 355.7 m E Sn      2011/07/02 07:36:46.2  -0.2                          T               37.2  .23 Ml 3.0 Md 1.9  4715418
HAU   001.21 340.2 m E Pg      2011/07/02 07:36:36.8   0.0                          T                                        4716331
HAU   001.21 340.2 m E Sg      2011/07/02 07:36:53.3   0.7                          T               20.0  .26 Ml 2.6 Md 2.1  4716322
LPG   001.38 186.1 m E Pg      2011/07/02 07:36:39.8  -0.4                          T                                        4716325
LPG   001.38 186.1 m E Sg      2011/07/02 07:36:58.0   0.1                          T               10.3  .50 Ml 2.3         4716318
LPL   001.36 186.8 m E Pg      2011/07/02 07:36:39.8   0.0                          T                                        4716326
LPL   001.36 186.8 m E Sg      2011/07/02 07:36:57.6   0.3                          T                6.0  .44 Ml 2.1         4716319
THEF  001.51 334.7 m E Pg      2011/07/02 07:36:42.4   0.0                          T                                        4716330
THEF  001.51 334.7 m E Sg      2011/07/02 07:37:02.4   0.5                          T               15.9  .29 Ml 2.8 Md 2.9  4716323
CDF   001.56 007.8 m E Pg      2011/07/02 07:36:43.7   0.3                          T                                        4716329
CDF   001.56 007.8 m E Sg      2011/07/02 07:37:02.8  -0.7                          T                4.2  .21 Ml 2.5 Md 2.3  4716324
LOR   002.16 281.9 m E Pg      2011/07/02 07:36:53.8  -0.4                          T                                        4718930
LOR   002.16 281.9 m E Sg      2011/07/02 07:37:21.1  -0.9                          T                3.6  .22 Ml 2.5         4718931
SMF   002.16 265.3 m E Pg      2011/07/02 07:36:54.4   0.2                          T                                        4716327
SMF   002.16 265.3 m E Sg      2011/07/02 07:37:22.4   0.4                          T                4.9  .29 Ml 2.5 Md 2.4  4716320
VIVF  002.57 219.3 m E Pg      2011/07/02 07:37:01.7  -0.1                          T                                        4718924
VIVF  002.57 219.3 m E Sg      2011/07/02 07:37:35.2   0.3                          T                5.4  .46 Ml 2.4         4718926
SFTF  001.87 316.5 m E Sg      2011/07/02 07:37:12.7  -0.3                          T                2.3  .23 Ml 2.2         4718928
PAGF  001.89 334.2 m E Sg      2011/07/02 07:37:13.0  -0.5                          T                 .6  .20 Ml 1.6         4718929
ORIF  002.09 201.6 m E Sg      2011/07/02 07:37:20.1   0.2                          T                1.8  .25 Ml 2.1         4718925
AVF   002.48 269.6 m E Sg      2011/07/02 07:37:31.9   0.0                          T                1.0  .25 Ml 1.9         4718927

.
EVENT     260973
    Date      Time       Latitude Longitude    Depth    Ndef Nsta Gap    Mag1  N    Mag2  N    Mag3  N   Author         ID
       rms   OT_Error      Smajor Sminor Az        Err   mdist  Mdist     Err        Err        Err      Quality

2011/07/02 07:41:34.1     42.8828     .1481      2.0       6    4 199  Ml 1.2  2  Md 1.1  2              js067245    260973

      0.30   +-  0.37      14.3    2.7  164.25 +-  0.0    0.20   1.58   +-0.1      +-0.2                 m i ke

PYRENEES
Sta     Dist  EvAz     Phase      Date       Time     TRes  Azim  AzRes  Slow  SRes Def   SNR       Amp   Per   Mag1   Mag2       ID
EPF   000.20 043.6 m E Pg      2011/07/02 07:41:38.5   0.2                          T                                        4718937
EPF   000.20 043.6 m E Sg      2011/07/02 07:41:40.5  -0.5                          T                2.0  .30        Md 1.3  4718938
ETSF  000.52 272.0 m E Pg      2011/07/02 07:41:43.9  -0.2                          T                                        4718941
ETSF  000.52 272.0 m E Sg      2011/07/02 07:41:51.3   0.4                          T                1.5  .29        Md 1.0  4718942
SJPF  001.03 283.3 m E Sg      2011/07/02 07:42:06.7  -0.1                          T                 .4  .23 Ml 1.1         4718940
MTLF  001.58 072.5 m E Sg      2011/07/02 07:42:23.9  -0.2                          T                 .5  .32 Ml 1.2         4718939

.
EVENT     260974
    Date      Time       Latitude Longitude    Depth    Ndef Nsta Gap    Mag1  N    Mag2  N    Mag3  N   Author         ID
       rms   OT_Error      Smajor Sminor Az        Err   mdist  Mdist     Err        Err        Err      Quality

2011/07/02 09:38:15.9     43.7189    6.1371      2.0      19   10 157  Ml 2.3  6  Md 2.1  6              js067245    260974

      0.54   +-  0.16       3.6    2.1   51.64 +-  0.0    0.40   2.40   +-0.4      +-0.1                 m i ke

NEAR SOUTH COAST OF FRANCE
Sta     Dist  EvAz     Phase      Date       Time     TRes  Azim  AzRes  Slow  SRes Def   SNR       Amp   Per   Mag1   Mag2       ID
FRF   000.40 113.0 m E Pg      2011/07/02 09:38:23.3  -0.4                          T                                        4715429
FRF   000.40 113.0 m E Sg      2011/07/02 09:38:29.1   0.1                          T               53.0  .29        Md 2.2  4715428
SMRF  000.48 302.5 m E Pg      2011/07/02 09:38:24.9  -0.2                          T                                        4718948
SMRF  000.48 302.5 m E Sg      2011/07/02 09:38:32.8   1.3                          T               11.8  .28                4716335
LMR   000.47 144.8 m E Pg      2011/07/02 09:38:25.1   0.3                          T                                        4715427
LMR   000.47 144.8 m E Sg      2011/07/02 09:38:32.3   1.2                          T               35.6  .22        Md 2.2  4715426
SBF   000.95 080.8 m E Pg      2011/07/02 09:38:33.7  -0.1                          T                                        4715422
SBF   000.95 080.8 m E Sg      2011/07/02 09:38:46.8   0.6                          T               15.9  .17 Ml 2.8 Md 2.1  4716334
MBDF  001.11 024.1 m E Pg      2011/07/02 09:38:36.8   0.0                          T                                        4715425
MBDF  001.11 024.1 m E Sg      2011/07/02 09:38:52.3   1.1                          T                5.9  .18 Ml 2.4 Md 2.1  4715424
ORIF  001.21 351.3 m E Pg      2011/07/02 09:38:38.9   0.2                          T                                        4715423
ORIF  001.21 351.3 m E Sg      2011/07/02 09:38:55.2   0.8                          T               11.1  .27 Ml 2.5 Md 2.1  4716333
VIVF  001.55 317.7 m E Pn      2011/07/02 09:38:42.6  -0.3                          T                                        4716336
VIVF  001.55 317.7 m E Sn      2011/07/02 09:39:01.4  -0.9                          T                1.8  .13 Ml 2.2 Md 2.1  4716332
LPL   001.85 013.1 m E Pg      2011/07/02 09:38:50.1  -0.4                          T                                        4718944
LPL   001.85 013.1 m E Sg      2011/07/02 09:39:14.2  -0.1                          T                1.1  .27 Ml 1.8         4718945
LPG   001.83 013.6 m E Pg      2011/07/02 09:38:50.4   0.1                          T                                        4718943
LPG   001.83 013.6 m E Sg      2011/07/02 09:39:14.0   0.0                          T                1.8  .28 Ml 2.0         4718946
PGF   002.40 118.2 m E Pn      2011/07/02 09:38:53.8  -0.7                          T                                        4718947

.
EVENT     260975
    Date      Time       Latitude Longitude    Depth    Ndef Nsta Gap    Mag1  N    Mag2  N    Mag3  N   Author         ID
       rms   OT_Error      Smajor Sminor Az        Err   mdist  Mdist     Err        Err        Err      Quality

2011/07/02 11:37:33.8     43.1665    -.4706      2.0      21    7 111  Ml 2.1  3  Md 2.0  4              js067245    260975

      0.52   +-  0.11       2.6    1.8  159.39 +-  0.0    0.28   2.57   +-0.1      +-0.2                 m i ke

PYRENEES
Sta     Dist  EvAz     Phase      Date       Time     TRes  Azim  AzRes  Slow  SRes Def   SNR       Amp   Per   Mag1   Mag2       ID
ETSF  000.28 193.7 m E Pg      2011/07/02 11:37:39.0  -0.3                          T                                        4715431
ETSF  000.28 193.7 m E Sg      2011/07/02 11:37:42.8  -0.2                          T                                Md 1.8  4715430
SJPF  000.55 264.8 m E Pg      2011/07/02 11:37:44.3  -0.1                          T                                        4716342
SJPF  000.55 264.8 m E Sg      2011/07/02 11:37:51.6  -0.1                          T                                Md 2.0  4716339
EPF   000.61 102.6 m E Pg      2011/07/02 11:37:45.8   0.4                          T                                        4716341
EPF   000.61 102.6 m E Sg      2011/07/02 11:37:53.8   0.4                          T                                Md 2.1  4716338
MTLF  001.97 084.0 m E Pg      2011/07/02 11:38:10.4  -0.1                          T                                        4716340
MTLF  001.97 084.0 m E Sg      2011/07/02 11:38:35.0  -0.9                          T                                Md 2.4  4716337
LFF   001.98 025.8 m E Pg      2011/07/02 11:38:10.6   0.0                          T                                        4718950
LFF   001.98 025.8 m E Sg      2011/07/02 11:38:36.0   0.1                          T                3.4  .30 Ml 2.1         4718951
RJF   002.57 033.1 m E Pg      2011/07/02 11:38:21.5   0.0                          T                                        4718949
RJF   002.57 033.1 m E Sg      2011/07/02 11:38:54.7   0.1                          T                1.6  .20 Ml 1.9         4718952
CAF   002.54 045.2 m E Sg      2011/07/02 11:38:53.4  -0.2                          T                1.1  .15 Ml 2.2         4718953

.
EVENT     260976
    Date      Time       Latitude Longitude    Depth    Ndef Nsta Gap    Mag1  N    Mag2  N    Mag3  N   Author         ID
       rms   OT_Error      Smajor Sminor Az        Err   mdist  Mdist     Err        Err        Err      Quality

2011/07/02 11:50:38.6     43.1485   -1.2009     15.0       6    3 248  Ml 1.3  1  Md 1.3  2              js067245    260976

      0.25   +-  0.26      13.1    4.0    2.67 +-  0.0    0.04   1.14   +-         +-0.2                 m i ke

PYRENEES
Sta     Dist  EvAz     Phase      Date       Time     TRes  Azim  AzRes  Slow  SRes Def   SNR       Amp   Per   Mag1   Mag2       ID
SJPF  000.04 206.6 m E Pg      2011/07/02 11:50:41.3  -0.2                          T                                        4718958
SJPF  000.04 206.6 m E Sg      2011/07/02 11:50:44.1   0.5                          T                4.0  .22        Md 1.5  4718959
ETSF  000.53 117.7 m E Pg      2011/07/02 11:50:49.3   0.1                          T                                        4718956
ETSF  000.53 117.7 m E Sg      2011/07/02 11:50:56.0  -0.3                          T                 .9  .26        Md 1.2  4718957
EPF   001.14 095.4 m E Pg      2011/07/02 11:51:00.1   0.1                          T                                        4718954
EPF   001.14 095.4 m E Sg      2011/07/02 11:51:14.6  -0.2                          T                 .6  .22 Ml 1.3         4718955

.
EVENT     260977
    Date      Time       Latitude Longitude    Depth    Ndef Nsta Gap    Mag1  N    Mag2  N    Mag3  N   Author         ID
       rms   OT_Error      Smajor Sminor Az        Err   mdist  Mdist     Err        Err        Err      Quality

2011/07/02 12:54:52.6     42.8714     .3816      2.0       6    4 202  Ml 1.3  2  Md 1.5  2              js067245    260977

      0.11   +-  0.07       1.5     .7  157.92 +-  0.0    0.16   1.42   +-0.2      +-0.3                 m i ke

PYRENEES
Sta     Dist  EvAz     Phase      Date       Time     TRes  Azim  AzRes  Slow  SRes Def   SNR       Amp   Per   Mag1   Mag2       ID
EPF   000.16 349.1 m E Pg      2011/07/02 12:54:55.9  -0.1                          T                                        4715457
EPF   000.16 349.1 m E Sg      2011/07/02 12:54:58.1  -0.1                          T               31.9  .21        Md 1.7  4715456
ETSF  000.69 272.6 m E Pg      2011/07/02 12:55:05.7   0.0                          T                                        4716345
ETSF  000.69 272.6 m E Sg      2011/07/02 12:55:14.5  -0.2                          T                2.2  .18        Md 1.2  4716344
SJPF  001.20 282.1 m E Sg      2011/07/02 12:55:30.5  -0.1                          T                 .4  .22 Ml 1.2         4718960
MTLF  001.42 070.1 m E Sg      2011/07/02 12:55:37.4  -0.1                          T                 .7  .26 Ml 1.4         4716343

.
