EVENT     289356
    Date      Time       Latitude Longitude    Depth    Ndef Nsta Gap    Mag1  N    Mag2  N    Mag3  N   Author         ID
       rms   OT_Error      Smajor Sminor Az        Err   mdist  Mdist     Err        Err        Err      Quality

2013/01/02 02:53:44.0     43.0535    -.2108      2.0      11    6 145  Ml 1.5  3  Md 1.5  2              bulletin    289456
                                                                                                         _ldg
      0.29   +-  0.11       3.9    1.7  162.77 +-  0.0    0.30   2.49   +-0.1      +-0.2                 m i ke

PYRENEES
Sta     Dist  EvAz     Phase      Date       Time     TRes  Azim  AzRes  Slow  SRes Def   SNR       Amp   Per   Mag1   Mag2       ID
ETSF  000.30 238.9 m E Pg      2013/01/02 02:53:49.5  -0.4                          T                                        5152992
ETSF  000.30 238.9 m E Sg      2013/01/02 02:53:53.7  -0.3                          T               11.8  .25        Md 1.6  5152991
EPF   000.40 093.1 m E Pg      2013/01/02 02:53:51.8   0.0                          T                                        5152990
EPF   000.40 093.1 m E Sg      2013/01/02 02:53:57.4   0.2                          T                2.1  .23        Md 1.3  5152989
SJPF  000.75 274.9 m E Pg      2013/01/02 02:53:58.5   0.5                          T                                        5169903
SJPF  000.75 274.9 m E Sg      2013/01/02 02:54:07.8   0.1                          T                1.4  .38                5169902
MTLF  001.80 080.0 m E Pg      2013/01/02 02:54:17.7   0.3                          T                                        5169899
MTLF  001.80 080.0 m E Sg      2013/01/02 02:54:40.4  -0.2                          T                 .3  .21 Ml 1.4         5169898
CAF   002.49 040.5 m E Pg      2013/01/02 02:54:30.0  -0.2                          T                                        5169901
CAF   002.49 040.5 m E Sg      2013/01/02 02:55:02.1  -0.1                          T                 .3  .21 Ml 1.5         5169900
LFF   002.01 019.7 m E Sg      2013/01/02 02:54:46.8  -0.3                          T                 .8  .23 Ml 1.6         5175904

.
EVENT     289357
    Date      Time       Latitude Longitude    Depth    Ndef Nsta Gap    Mag1  N    Mag2  N    Mag3  N   Author         ID
       rms   OT_Error      Smajor Sminor Az        Err   mdist  Mdist     Err        Err        Err      Quality

2013/01/02 03:36:04.9     43.0682    -.2219      2.0      27    7 094  Ml 2.5  5  Md 2.4  3              bulletin    289457
                                                                                                         _ldg
      0.90   +-  0.11       2.5    1.6    6.92 +-  0.0    0.13   2.56   +-0.2      +-0.1                 m i ke

PYRENEES
Sta     Dist  EvAz     Phase      Date       Time     TRes  Azim  AzRes  Slow  SRes Def   SNR       Amp   Per   Mag1   Mag2       ID
ETSF  000.30 235.7 m E Pg      2013/01/02 03:36:10.5  -0.4                          T                                        5153006
ETSF  000.30 235.7 m E Sg      2013/01/02 03:36:14.6  -0.3                          T                                Md 2.3  5153000
EPF   000.41 095.1 m E Pg      2013/01/02 03:36:12.7  -0.3                          T                                        5153005
EPF   000.41 095.1 m E Sg      2013/01/02 03:36:18.9   0.5                          T               22.6  .18        Md 2.4  5152997
SJPF  000.74 273.9 m E Pg      2013/01/02 03:36:19.1   0.2                          T                                        5153004
SJPF  000.74 273.9 m E Sg      2013/01/02 03:36:28.8   0.4                          T               14.7  .27        Md 2.4  5152999
MTLF  001.80 080.5 m E Pg      2013/01/02 03:36:38.7   0.2                          T                                        5153001
MTLF  001.80 080.5 m E Sg      2013/01/02 03:37:01.7  -0.1                          T                4.8  .30 Ml 2.4         5152998
LFF   002.00 020.0 m E Pg      2013/01/02 03:36:41.9   0.0                          T                                        5153003
LFF   002.00 020.0 m E Sg      2013/01/02 03:37:07.9   0.2                          T               19.8  .33 Ml 2.8         5152996
CAF   002.48 040.8 m E Pg      2013/01/02 03:36:51.1   0.1                          T                                        5152994
CAF   002.48 040.8 m E Sg      2013/01/02 03:37:22.9  -0.1                          T                2.3  .20 Ml 2.4         5152993
RJF   002.56 028.6 m E Pg      2013/01/02 03:36:52.0  -0.5                          T                                        5153002
RJF   002.56 028.6 m E Sg      2013/01/02 03:37:25.6   0.3                          T                4.1  .18 Ml 2.4         5152995

.
EVENT     289376
    Date      Time       Latitude Longitude    Depth    Ndef Nsta Gap    Mag1  N    Mag2  N    Mag3  N   Author         ID
       rms   OT_Error      Smajor Sminor Az        Err   mdist  Mdist     Err        Err        Err      Quality

2013/01/02 04:37:18.9     47.3710   -2.2027      2.0      48   15 171  Ml 2.2 15  Md 2.3  2              bulletin    289476
                                                                                                         _ldg
      0.54   +-  0.08       1.8     .9   44.87 +-  0.0    0.85   4.12   +-0.2      +-0.0                 m i ke

FRANCE
Sta     Dist  EvAz     Phase      Date       Time     TRes  Azim  AzRes  Slow  SRes Def   SNR       Amp   Per   Mag1   Mag2       ID
QUIF  000.85 310.3 m E Pg      2013/01/02 04:37:34.6  -0.3                          T                                        5153362
QUIF  000.85 310.3 m E Sg      2013/01/02 04:37:45.8  -0.2                          T                7.2  .24        Md 2.3  5153357
SGMF  000.92 345.0 m E Pg      2013/01/02 04:37:36.6   0.5                          T                                        5153361
SGMF  000.92 345.0 m E Sg      2013/01/02 04:37:48.0   0.1                          T                3.7  .24 Ml 2.0 Md 2.3  5153356
ROSF  001.21 323.7 m E Pg      2013/01/02 04:37:41.5   0.1                          T                                        5153360
ROSF  001.21 323.7 m E Sg      2013/01/02 04:37:56.8  -0.2                          T                3.6  .20 Ml 2.2         5153355
GRR   001.36 041.1 m E Pn      2013/01/02 04:37:43.1  -0.1                          T                                        5153359
GRR   001.36 041.1 m E Pg      2013/01/02 04:37:44.6   0.3                          T                                        5175905
GRR   001.36 041.1 m E Sg      2013/01/02 04:38:02.3   0.4                          T                2.3  .13 Ml 2.1         5153354
MFF   001.60 117.9 m E Pg      2013/01/02 04:37:48.7  -0.1                          T                                        5153352
MFF   001.60 117.9 m E Sg      2013/01/02 04:38:09.0  -0.5                          T                4.2  .19 Ml 2.6         5153351
FLN   001.81 039.0 m E Pn      2013/01/02 04:37:48.9  -0.5 217.0  -3.3              T                                        5153346
FLN   001.81 039.0 m E Pg      2013/01/02 04:37:52.4  -0.1 216.5  -3.8              T                                        5153347
FLN   001.81 039.0 m E Sn      2013/01/02 04:38:11.9   0.4 215.8  -4.5              T                                        5153345
FLN   001.81 039.0 m E Sg      2013/01/02 04:38:15.8  -0.1 213.6  -6.7              T                4.1  .22 Ml 2.3         5153344
LDF   001.86 048.0 m E Pg      2013/01/02 04:37:53.1  -0.4                          T                                        5153358
LDF   001.86 048.0 m E Sg      2013/01/02 04:38:17.4   0.0                          T                3.3  .29 Ml 2.2         5153353
LFF   003.18 138.9 m E Pn      2013/01/02 04:38:08.1   0.2                          T                                        5153324
LFF   003.18 138.9 m E Pg      2013/01/02 04:38:17.9   0.2                          T                                        5153323
LFF   003.18 138.9 m E Sn      2013/01/02 04:38:44.5   0.3                          T                                        5153322
LFF   003.18 138.9 m E Sg      2013/01/02 04:38:58.5  -0.1                          T                2.3  .28 Ml 2.2         5153321
TCF   003.22 108.1 m E Pn      2013/01/02 04:38:08.9   0.4                          T                                        5153350
TCF   003.22 108.1 m E Sn      2013/01/02 04:38:45.2   0.0                          T                                        5153349
TCF   003.22 108.1 m E Sg      2013/01/02 04:38:59.8  -0.1                          T                1.0  .19 Ml 2.3         5153348
RJF   003.30 127.4 m E Pn      2013/01/02 04:38:09.6  -0.1                          T                                        5153327
RJF   003.30 127.4 m E Pg      2013/01/02 04:38:19.8  -0.3                          T                                        5153326
RJF   003.30 127.4 m E Sg      2013/01/02 04:39:02.9   0.3                          T                2.9  .31 Ml 2.1         5153325
BGF   003.55 101.4 m E Pn      2013/01/02 04:38:12.8  -0.2                          T                                        5153328
BGF   003.55 101.4 m E Pg      2013/01/02 04:38:24.4  -0.3                          T                                        5153329
BGF   003.55 101.4 m E Sn      2013/01/02 04:38:52.9  -0.3                          T                                        5153330
BGF   003.55 101.4 m E Sg      2013/01/02 04:39:10.3   0.0                          T                4.3  .31 Ml 2.7         5153331
CAF   003.84 128.0 m E Pn      2013/01/02 04:38:17.0  -0.1                          T                                        5153320
CAF   003.84 128.0 m E Sn      2013/01/02 04:39:00.7   0.6                          T                                        5153319
CAF   003.84 128.0 m E Sg      2013/01/02 04:39:19.1  -0.3                          T                 .8  .23 Ml 2.2         5153318
AVF   003.84 096.7 m E Pn      2013/01/02 04:38:17.1   0.1                          T                                        5153335
AVF   003.84 096.7 m E Pg      2013/01/02 04:38:29.6  -0.4                          T                                        5153334
AVF   003.84 096.7 m E Sn      2013/01/02 04:38:59.2  -0.8                          T                                        5153333
AVF   003.84 096.7 m E Sg      2013/01/02 04:39:19.6   0.3                          T                 .3  .20 Ml 1.8         5153332
SSF   003.90 092.5 m E Pn      2013/01/02 04:38:18.3   0.4                          T                                        5153339
SSF   003.90 092.5 m E Pg      2013/01/02 04:38:31.6   0.5                          T                                        5153338
SSF   003.90 092.5 m E Sn      2013/01/02 04:39:01.0  -0.5                          T                                        5153337
SSF   003.90 092.5 m E Sg      2013/01/02 04:39:21.1  -0.2                          T                 .5  .22 Ml 2.1         5153336
LOR   004.12 089.2 m E Pn      2013/01/02 04:38:21.1   0.2 273.2  -0.5              T                                        5153343
LOR   004.12 089.2 m E Pg      2013/01/02 04:38:35.7   0.4                          T                                        5153342
LOR   004.12 089.2 m E Sn      2013/01/02 04:39:06.5  -0.3                          T                                        5153341
LOR   004.12 089.2 m E Sg      2013/01/02 04:39:28.1   0.0                          T                 .4  .22 Ml 2.0         5153340

.
EVENT     289378
    Date      Time       Latitude Longitude    Depth    Ndef Nsta Gap    Mag1  N    Mag2  N    Mag3  N   Author         ID
       rms   OT_Error      Smajor Sminor Az        Err   mdist  Mdist     Err        Err        Err      Quality

2013/01/02 05:45:09.4     43.0192    -.2100      2.0 f     7    4 161  Ml 1.1  1  Md 1.3  2              bulletin    289478
                                                                                                         _ldg
      0.24   +-  0.10       6.8    1.6  173.67 +-  0.0    0.28   1.80   +-         +-0.1                 m i ke

PYRENEES
Sta     Dist  EvAz     Phase      Date       Time     TRes  Azim  AzRes  Slow  SRes Def   SNR       Amp   Per   Mag1   Mag2       ID
ETSF  000.28 244.9 m E Pg      2013/01/02 05:45:14.9  -0.1                          T                                        5153372
ETSF  000.28 244.9 m E Sg      2013/01/02 05:45:19.0   0.1                          T               10.5  .22        Md 1.4  5153371
EPF   000.40 088.2 m E Pg      2013/01/02 05:45:17.1  -0.1                          T                                        5153370
EPF   000.40 088.2 m E Sg      2013/01/02 05:45:23.2   0.6                          T                1.0  .16        Md 1.3  5153369
SJPF  000.75 277.6 m E Pg      2013/01/02 05:45:23.6   0.0                          T                                        5153367
SJPF  000.75 277.6 m E Sg      2013/01/02 05:45:33.5   0.1                          T                1.7  .30                5153368
MTLF  001.80 078.9 m E Sg      2013/01/02 05:46:05.9  -0.3                          T                 .1  .13 Ml 1.1         5175906

.
EVENT     289379
    Date      Time       Latitude Longitude    Depth    Ndef Nsta Gap    Mag1  N    Mag2  N    Mag3  N   Author         ID
       rms   OT_Error      Smajor Sminor Az        Err   mdist  Mdist     Err        Err        Err      Quality

2013/01/02 06:13:41.7     43.0547    -.2398      2.0      30    7 099  Ml 2.2  5  Md 2.1  2              bulletin    289479
                                                                                                         _ldg
      0.66   +-  0.08       1.7    1.4    2.85 +-  0.0    0.11   2.58   +-0.2      +-0.0                 m i ke

PYRENEES
Sta     Dist  EvAz     Phase      Date       Time     TRes  Azim  AzRes  Slow  SRes Def   SNR       Amp   Per   Mag1   Mag2       ID
ETSF  000.28 236.5 m E Pg      2013/01/02 06:13:47.2  -0.1                          T                                        5153394
ETSF  000.28 236.5 m E Sg      2013/01/02 06:13:51.2   0.1                          T               73.2  .22        Md 2.1  5153393
EPF   000.43 093.1 m E Pg      2013/01/02 06:13:49.3  -0.6                          T                                        5153392
EPF   000.43 093.1 m E Sg      2013/01/02 06:13:55.1  -0.5                          T               13.2  .22        Md 2.1  5153391
SJPF  000.72 275.0 m E Pg      2013/01/02 06:13:55.2  -0.1                          T                                        5153386
SJPF  000.72 275.0 m E Sg      2013/01/02 06:14:05.5   0.6                          T                8.9  .28                5153390
MTLF  001.82 080.1 m E Pn      2013/01/02 06:14:12.9   0.6                          T                                        5153388
MTLF  001.82 080.1 m E Pg      2013/01/02 06:14:15.5   0.0                          T                                        5153389
MTLF  001.82 080.1 m E Sg      2013/01/02 06:14:39.0   0.0                          T                2.6  .31 Ml 2.1         5153387
LFF   002.01 020.2 m E Pn      2013/01/02 06:14:15.1   0.2                          T                                        5153385
LFF   002.01 020.2 m E Pg      2013/01/02 06:14:19.1   0.1                          T                                        5153384
LFF   002.01 020.2 m E Sg      2013/01/02 06:14:44.8  -0.2                          T                6.1  .24 Ml 2.4         5153383
CAF   002.50 040.8 m E Pn      2013/01/02 06:14:21.8   0.2                          T                                        5153376
CAF   002.50 040.8 m E Pg      2013/01/02 06:14:27.7  -0.4                          T                                        5153382
CAF   002.50 040.8 m E Sn      2013/01/02 06:14:50.5  -0.4                          T                                        5153375
CAF   002.50 040.8 m E Sg      2013/01/02 06:15:00.9   0.5                          T                2.3  .23 Ml 2.3         5153381
RJF   002.58 028.7 m E Pn      2013/01/02 06:14:22.7   0.1                          T                                        5153377
RJF   002.58 028.7 m E Pg      2013/01/02 06:14:29.5   0.0                          T                                        5153379
RJF   002.58 028.7 m E Sn      2013/01/02 06:14:52.9   0.2                          T                                        5153378
RJF   002.58 028.7 m E Sg      2013/01/02 06:15:02.6  -0.1                          T                2.1  .25 Ml 1.9         5153380

.
