EVENT     271960
    Date      Time       Latitude Longitude    Depth    Ndef Nsta Gap    Mag1  N    Mag2  N    Mag3  N   Author         ID
       rms   OT_Error      Smajor Sminor Az        Err   mdist  Mdist     Err        Err        Err      Quality

2012/03/15 10:37:20.1     48.0264    6.6485       .0 f    12    7 099  Ml 2.2  3  Md 2.0  2              js067245    271980

      0.78   +-  0.08       1.7    1.4  167.20 +-  0.0    0.20   2.03   +-0.0      +-0.1                 m i km

FRANCE
Sta     Dist  EvAz     Phase      Date       Time     TRes  Azim  AzRes  Slow  SRes Def   SNR       Amp   Per   Mag1   Mag2       ID
HAU   000.20 264.2 m E Pg      2012/03/15 10:37:24.8   0.3                          T                                        4883033
HAU   000.20 264.2 m E Sg      2012/03/15 10:37:27.3  -0.1                          T              252.6  .58        Md 1.9  4883036
HINF  000.25 146.7 m E Pg      2012/03/15 10:37:25.5   0.1                          T                                        4883038
HINF  000.25 146.7 m E Sg      2012/03/15 10:37:29.0   0.1                          T               29.0  .40        Md 2.0  4883039
CDF   000.57 047.2 m E Pg      2012/03/15 10:37:31.1  -0.2                          T                                        4883035
CDF   000.57 047.2 m E Pn      2012/03/15 10:37:34.3   0.1                          T                                        4883034
CDF   000.57 047.2 m E Sg      2012/03/15 10:37:39.2   0.2                          T                9.5  .31                4883037
SFTF  001.09 280.0 m E P       2012/03/15 10:37:42.5  -0.2 101.7  2.9               T                                        4883040
SFTF  001.09 280.0 m E Sn      2012/03/15 10:37:56.2  -0.1 104.6  5.8               T                5.2  .22 Ml 2.2         4883043
PAGF  000.81 311.0 m E Sg      2012/03/15 10:37:46.4  -0.1 123.6  -6.7              T                1.9  .30                4883042
CABF  001.47 195.3 m E Sg      2012/03/15 10:38:06.7  -0.3                          T                4.2  .31 Ml 2.2         4883044
LOR   002.03 249.1 m E Sg      2012/03/15 10:38:24.4  -0.2  69.7  2.7               T                1.5  .19 Ml 2.1         4883041

.
EVENT     271958
    Date      Time       Latitude Longitude    Depth    Ndef Nsta Gap    Mag1  N    Mag2  N    Mag3  N   Author         ID
       rms   OT_Error      Smajor Sminor Az        Err   mdist  Mdist     Err        Err        Err      Quality

2012/03/15 12:50:48.1     37.2834    5.0311      2.0      23    7 257  Ml 3.1  3                         js067245    271978

      0.71   +-  0.48       9.6    5.5  172.27 +-  0.0    3.03   7.06   +-0.3                            m i ke

WESTERN MEDITERRANEAN SEA
Sta     Dist  EvAz     Phase      Date       Time     TRes  Azim  AzRes  Slow  SRes Def   SNR       Amp   Per   Mag1   Mag2       ID
PGF   006.08 028.9 m E Pn      2012/03/15 12:52:16.9   0.1                          T                                        4883045
PGF   006.08 028.9 m E Sn      2012/03/15 12:53:22.2  -0.6                          T                3.0  .26 Ml 3.4         4883047
LMR   006.15 010.1 m E Pn      2012/03/15 12:52:17.0  -0.6                          T                                        4883046
LMR   006.15 010.1 m E Sn      2012/03/15 12:53:23.2  -1.2                          T                5.8  .62 Ml 3.1         4883048
FRF   006.39 010.6 m E Pn      2012/03/15 12:52:20.6  -0.3                          T                                        4883050
MTLF  006.42 341.3 m E P       2012/03/15 12:52:25.5  -0.6                          T                                        4883052
ETSF  007.06 324.4 m E Pn      2012/03/15 12:52:29.2  -0.9                          T                                        4883054
EPF   006.77 329.4 m E P       2012/03/15 12:52:30.6  -0.5                          T                                        4883053
SMRF  006.70 003.4 m E Sn      2012/03/15 12:53:38.0   0.4                          T                2.1  .46 Ml 2.9         4883051

.
EVENT     271962
    Date      Time       Latitude Longitude    Depth    Ndef Nsta Gap    Mag1  N    Mag2  N    Mag3  N   Author         ID
       rms   OT_Error      Smajor Sminor Az        Err   mdist  Mdist     Err        Err        Err      Quality

2012/03/15 16:55:18.2     44.6029    7.2345     10.0 f    38    8 127  Ml 1.9  7  Md 1.8  1              js067245    271982

      0.75   +-  0.10       2.5    1.3   69.42 +-  0.0    0.10   1.37   +-0.3      +-                    m i ke

NORTHERN ITALY
Sta     Dist  EvAz     Phase      Date       Time     TRes  Azim  AzRes  Slow  SRes Def   SNR       Amp   Per   Mag1   Mag2       ID
MBDF  000.35 290.7 m E Pg      2012/03/15 16:55:25.7   0.3                          T                                        4883055
MBDF  000.35 290.7 m E Sg      2012/03/15 16:55:30.4   0.2                          T               13.3  .18        Md 1.8  4883060
SBF   000.75 168.9 m E Pg      2012/03/15 16:55:33.5   0.9                          T                                        4883059
SBF   000.75 168.9 m E Sg      2012/03/15 16:55:42.3  -0.2                          T                4.1  .18                4883142
LPL   000.98 338.9 m E Pg      2012/03/15 16:55:36.9   0.0                          T                                        4883057
LPL   000.98 338.9 m E Sg      2012/03/15 16:55:49.6  -0.1                          T                3.7  .26 Ml 2.0         4883147
ORIF  001.02 288.6 m E Pg      2012/03/15 16:55:37.5   0.0                          T                                        4883056
ORIF  001.02 288.6 m E Sg      2012/03/15 16:55:49.9  -0.8                          T                1.8  .24 Ml 1.7         4883148
FRF   001.12 202.3 m E Pg      2012/03/15 16:55:39.7   0.4                          T                                        4883058
FRF   001.12 202.3 m E Sg      2012/03/15 16:55:53.9   0.0                          T                4.1  .20 Ml 2.2         4883144
LMR   001.37 202.7 m E Pg      2012/03/15 16:55:43.7  -0.2                          T                                        4883150
LMR   001.37 202.7 m E Sg      2012/03/15 16:56:01.4  -0.2                          T                3.1  .24 Ml 2.1         4883143
SMRF  001.35 242.8 m E Pg      2012/03/15 16:55:43.7   0.2                          T                                        4883149
SMRF  001.35 242.8 m E Sg      2012/03/15 16:56:01.3   0.4                          T                1.4  .38 Ml 1.5         4883145
LPG   000.96 339.2 m E Sg      2012/03/15 16:55:49.0  -0.1                          T                2.7  .31 Ml 1.7         4883146

.
EVENT     271963
    Date      Time       Latitude Longitude    Depth    Ndef Nsta Gap    Mag1  N    Mag2  N    Mag3  N   Author         ID
       rms   OT_Error      Smajor Sminor Az        Err   mdist  Mdist     Err        Err        Err      Quality

2012/03/15 17:14:36.7     44.4934    6.6822      2.0      37    9 058  Ml 1.6  6  Md 1.8  1              js067245    271983

      0.49   +-  0.06       1.2     .9   63.73 +-  0.0    0.09   1.48   +-0.2      +-                    m i ke

FRANCE
Sta     Dist  EvAz     Phase      Date       Time     TRes  Azim  AzRes  Slow  SRes Def   SNR       Amp   Per   Mag1   Mag2       ID
MBDF  000.24 015.2 m E Pg      2012/03/15 17:14:41.7   0.0                          T                                        4883247
MBDF  000.24 015.2 m E Sg      2012/03/15 17:14:44.9  -0.1                          T                9.2  .30        Md 1.8  4883248
ORIF  000.71 306.9 m E Pg      2012/03/15 17:14:50.3   0.0                          T                                        4883249
ORIF  000.71 306.9 m E Sg      2012/03/15 17:14:59.7   0.1                          T                2.9  .28                4883239
SBF   000.83 139.0 m E Pg      2012/03/15 17:14:53.0   0.6                          T                                        4883241
SBF   000.83 139.0 m E Sg      2012/03/15 17:15:03.4   0.2                          T                1.9  .22                4883233
FRF   000.93 181.6 m E Pg      2012/03/15 17:14:54.4   0.2                          T                                        4883243
FRF   000.93 181.6 m E Sg      2012/03/15 17:15:06.5   0.1                          T                1.3  .22 Ml 1.6         4883235
LPG   001.01 002.8 m E Pg      2012/03/15 17:14:55.7  -0.2                          T                                        4883244
LPG   001.01 002.8 m E Sg      2012/03/15 17:15:09.5   0.5                          T                1.4  .29 Ml 1.5         4883237
LPL   001.02 002.0 m E Pg      2012/03/15 17:14:56.2   0.1                          T                                        4883245
LPL   001.02 002.0 m E Sg      2012/03/15 17:15:09.8   0.4                          T                  1  .27 Ml 1.4         4883238
LMR   001.17 186.2 m E P       2012/03/15 17:14:59.7  -0.3                          T                                        4883242
LMR   001.17 186.2 m E Sg      2012/03/15 17:15:13.9   0.3                          T                1.8  .21 Ml 1.8         4883234
VIVF  001.48 284.9 m E Pg      2012/03/15 17:15:04.1  -0.2                          T                                        4883246
VIVF  001.48 284.9 m E Sg      2012/03/15 17:15:23.5   0.1                          T                 .7  .29 Ml 1.4         4883240
SMRF  000.95 237.4 m E Sn      2012/03/15 17:15:08.2  -0.6                          T                2.0  .28 Ml 1.7         4883236

.
EVENT     271964
    Date      Time       Latitude Longitude    Depth    Ndef Nsta Gap    Mag1  N    Mag2  N    Mag3  N   Author         ID
       rms   OT_Error      Smajor Sminor Az        Err   mdist  Mdist     Err        Err        Err      Quality

2012/03/15 19:27:54.9     44.4989    6.6650      2.0      40    9 056  Ml 1.9  5  Md 2.1  1              js067245    271984

      0.31   +-  0.05       1.1     .7   59.87 +-  0.0    0.11   3.31   +-0.4      +-                    m i ke

FRANCE
Sta     Dist  EvAz     Phase      Date       Time     TRes  Azim  AzRes  Slow  SRes Def   SNR       Amp   Per   Mag1   Mag2       ID
MBDF  000.24 018.4 m E Pg      2012/03/15 19:27:59.7  -0.1                          T                                        4883281
MBDF  000.24 018.4 m E Sg      2012/03/15 19:28:02.9  -0.2                          T               14.0  .26        Md 2.1  4883282
ORIF  000.70 307.1 m E Pg      2012/03/15 19:28:08.2   0.0                          T                                        4883283
ORIF  000.70 307.1 m E Sg      2012/03/15 19:28:17.5   0.2                          T                7.6  .26                4883267
SBF   000.84 138.7 m E Pg      2012/03/15 19:28:10.9   0.1                          T                                        4883274
SBF   000.84 138.7 m E Sg      2012/03/15 19:28:21.3  -0.5                          T                4.0  .22                4883273
FRF   000.94 180.8 m E Pg      2012/03/15 19:28:12.3  -0.2                          T                                        4883276
FRF   000.94 180.8 m E Sg      2012/03/15 19:28:24.5  -0.2                          T                7.7  .22 Ml 2.4         4883271
LPG   001.00 003.5 m E Pg      2012/03/15 19:28:13.7  -0.3                          T                                        4883278
LPG   001.00 003.5 m E Sg      2012/03/15 19:28:27.3   0.4                          T                                        4883269
SMRF  000.94 236.7 m E Pn      2012/03/15 19:28:13.7   0.2                          T                                        4883277
SMRF  000.94 236.7 m E Sn      2012/03/15 19:28:26.1  -0.7                          T                1.4  .22 Ml 1.6         4883270
LPL   001.02 002.7 m E Pg      2012/03/15 19:28:14.1  -0.1                          T                                        4883279
LPL   001.02 002.7 m E Sg      2012/03/15 19:28:27.5   0.1                          T                1.2  .20 Ml 1.6         4883268
LMR   001.17 185.6 m E P       2012/03/15 19:28:17.6  -0.6                          T                                        4883275
LMR   001.17 185.6 m E Sg      2012/03/15 19:28:31.8  -0.1                          T                5.4  .22 Ml 2.3         4883272
VIVF  001.47 284.8 m E Pg      2012/03/15 19:28:22.0  -0.2                          T                                        4883280
VIVF  001.47 284.8 m E Sg      2012/03/15 19:28:41.5   0.4                          T                1.6  .26 Ml 1.8         4883266

.
EVENT     271965
    Date      Time       Latitude Longitude    Depth    Ndef Nsta Gap    Mag1  N    Mag2  N    Mag3  N   Author         ID
       rms   OT_Error      Smajor Sminor Az        Err   mdist  Mdist     Err        Err        Err      Quality

2012/03/15 21:25:57.8     44.4947    6.6491      2.0      26    9 055  Ml 1.5  6  Md 1.7  1              js067245    271985

      0.65   +-  0.11       2.6    1.9   62.71 +-  0.0    0.10   3.32   +-0.4      +-                    m i ke

FRANCE
Sta     Dist  EvAz     Phase      Date       Time     TRes  Azim  AzRes  Slow  SRes Def   SNR       Amp   Per   Mag1   Mag2       ID
MBDF  000.25 020.6 m E Pg      2012/03/15 21:26:02.8  -0.1                          T                                        4883321
MBDF  000.25 020.6 m E Sg      2012/03/15 21:26:05.9  -0.4                          T                6.0  .28        Md 1.7  4883322
ORIF  000.69 307.9 m E Pg      2012/03/15 21:26:11.2   0.2                          T                                        4883323
ORIF  000.69 307.9 m E Sg      2012/03/15 21:26:20.4   0.3                          T                2.5  .20                4883307
SBF   000.85 137.9 m E Pg      2012/03/15 21:26:13.8  -0.1                          T                                        4883314
SBF   000.85 137.9 m E Sg      2012/03/15 21:26:24.3  -0.6                          T                1.7  .26                4883313
FRF   000.93 180.1 m E Pn      2012/03/15 21:26:15.9  -0.5                          T                                        4883316
FRF   000.93 180.1 m E Sg      2012/03/15 21:26:27.8   0.3                          T                2.2  .16 Ml 2.0         4883311
SMRF  000.93 236.5 m E Pn      2012/03/15 21:26:16.7   0.3                          T                                        4883317
SMRF  000.93 236.5 m E Sn      2012/03/15 21:26:29.2  -0.3                          T                 .6  .29 Ml 1.1         4883310
LPG   001.01 004.1 m E Pg      2012/03/15 21:26:16.7  -0.4                          T                                        4883318
LPG   001.01 004.1 m E Sg      2012/03/15 21:26:30.4   0.3                          T                 .6  .25 Ml 1.2         4883309
LPL   001.02 003.3 m E Pg      2012/03/15 21:26:17.3   0.0                          T                                        4883319
LPL   001.02 003.3 m E Sg      2012/03/15 21:26:30.6   0.0                          T                 .3  .17 Ml 1.1         4883308
LMR   001.16 185.0 m E P       2012/03/15 21:26:20.6  -0.6                          T                                        4883315
LMR   001.16 185.0 m E Sg      2012/03/15 21:26:34.9   0.2                          T                3.2  .24 Ml 2.0         4883312
VIVF  001.46 285.1 m E Pg      2012/03/15 21:26:25.2   0.2                          T                                        4883320
VIVF  001.46 285.1 m E Sg      2012/03/15 21:26:44.5   0.7                          T                1.3  .34 Ml 1.6         4883306

.
