EVENT     281313
    Date      Time       Latitude Longitude    Depth    Ndef Nsta Gap    Mag1  N    Mag2  N    Mag3  N   Author         ID
       rms   OT_Error      Smajor Sminor Az        Err   mdist  Mdist     Err        Err        Err      Quality

2012/08/17 23:55:34.2     45.0264    5.5676      2.0      49   20 053  Ml 1.8 14  Md 2.1  4              bulletin    281413
                                                                                                         _ldg
      0.38   +-  0.05       1.0     .9   19.96 +-  0.0    0.25   3.59   +-0.3      +-0.1                 m i ke

FRANCE
Sta     Dist  EvAz     Phase      Date       Time     TRes  Azim  AzRes  Slow  SRes Def   SNR       Amp   Per   Mag1   Mag2       ID
ORIF  000.25 115.9 m E Pg      2012/08/17 23:55:38.7  -0.5                          T                                        5047820
ORIF  000.25 115.9 m E Sg      2012/08/17 23:55:42.8   0.2                          T               38.7  .34        Md 2.1  5047824
VIVF  000.66 255.3 m E Pg      2012/08/17 23:55:46.1  -0.6                          T                                        5047819
VIVF  000.66 255.3 m E Sg      2012/08/17 23:55:56.0   0.6                          T                3.5  .32        Md 2.2  5047843
MBDF  000.91 108.9 m E Pg      2012/08/17 23:55:51.7   0.2                          T                                        5047816
MBDF  000.91 108.9 m E Sg      2012/08/17 23:56:03.1  -0.2                          T                                        5055513
MBDF  000.91 108.9 m E Sn      2012/08/17 23:56:05.3  -0.1                          T                3.9  .41 Ml 1.8 Md 2.1  5047839
LPL   000.96 058.8 m E Pg      2012/08/17 23:55:52.6   0.2                          T                                        5047818
LPL   000.96 058.8 m E Sg      2012/08/17 23:56:04.6  -0.3                          T                3.0  .38 Ml 1.7         5047823
LPG   000.96 060.2 m E Pn      2012/08/17 23:55:53.7   0.2                          T                                        5047817
LPG   000.96 060.2 m E Sg      2012/08/17 23:56:05.0  -0.1                          T                                        5055511
LPG   000.96 060.2 m E Sn      2012/08/17 23:56:06.6  -0.3                          T                3.1  .38 Ml 1.7         5047822
SMRF  001.05 179.7 m E Pg      2012/08/17 23:55:55.4   1.5                          T                                        5047826
SMRF  001.05 179.7 m E Sg      2012/08/17 23:56:07.3  -0.2                          T                2.6  .39 Ml 1.7         5047821
LASF  001.55 232.8 m E Pn      2012/08/17 23:56:01.0  -0.1                          T                                        5047838
LASF  001.55 232.8 m E Pg      2012/08/17 23:56:03.5   0.4                          T                                        5047815
LASF  001.55 232.8 m E Sg      2012/08/17 23:56:22.8  -0.2                          T                2.2  .31 Ml 1.9         5047837
CABF  001.63 012.7 m E Pn      2012/08/17 23:56:02.4   0.1                          T                                        5047832
CABF  001.63 012.7 m E Pg      2012/08/17 23:56:04.8   0.1                          T                                        5047831
FRF   001.66 151.8 m E Pg      2012/08/17 23:56:03.6  -1.5                          T                                        5047827
FRF   001.66 151.8 m E Sn      2012/08/17 23:56:23.6   0.4                          T                1.2  .31 Ml 1.7         5047841
LMR   001.82 157.9 m E Pn      2012/08/17 23:56:05.1   0.3                          T                                        5047825
LMR   001.82 157.9 m E Sn      2012/08/17 23:56:27.5   0.4                          T                                        5047842
LMR   001.82 157.9 m E Sg      2012/08/17 23:56:31.9   0.3                          T                1.4  .29 Ml 1.9         5055512
SMF   002.02 323.9 m E Pn      2012/08/17 23:56:07.3  -0.2                          T                                        5047834
SMF   002.02 323.9 m E Sg      2012/08/17 23:56:37.7  -0.1                          T                2.3  .32 Ml 2.1         5055517
AVF   002.35 319.6 m E Pn      2012/08/17 23:56:12.0   0.1                          T                                        5047833
BGF   002.44 309.8 m E Pn      2012/08/17 23:56:13.6   0.3                          T                                        5047836
BGF   002.44 309.8 m E Sn      2012/08/17 23:56:42.6   0.6                          T                                        5047835
BGF   002.44 309.8 m E Sg      2012/08/17 23:56:50.9  -0.1                          T                7.3  .44 Ml 2.5         5055516
CAF   002.49 268.9 m E Pn      2012/08/17 23:56:13.7  -0.3                          T                                        5055509
CAF   002.49 268.9 m E Pg      2012/08/17 23:56:20.5   0.1                          T                                        5055510
CAF   002.49 268.9 m E Sg      2012/08/17 23:56:52.6   0.1                          T                 .4  .24 Ml 1.6         5055514
LOR   002.54 332.7 m E Pn      2012/08/17 23:56:14.8   0.2 147.1  -4.4              T                                        5047830
LOR   002.54 332.7 m E Pg      2012/08/17 23:56:21.0  -0.3                          T                                        5047829
LOR   002.54 332.7 m E Sn      2012/08/17 23:56:44.8   0.5                          T                                        5047840
LOR   002.54 332.7 m E Sg      2012/08/17 23:56:53.5  -0.5                          T                1.4  .28 Ml 2.0         5047828
RJF   002.88 277.0 m E Pn      2012/08/17 23:56:19.2  -0.1                          T                                        5055507
RJF   002.88 277.0 m E Pg      2012/08/17 23:56:27.4  -0.2                          T                                        5055508
RJF   002.88 277.0 m E Sg      2012/08/17 23:57:04.6   0.0                          T                1.1  .39 Ml 1.5         5055515
HAU   003.03 010.0 m E Pn      2012/08/17 23:56:21.5   0.2                          T                                        5055506
CDF   003.59 018.5 m E Pn      2012/08/17 23:56:28.0  -1.0                          T                                        5055505
SSF   002.49 325.5 m E Sg      2012/08/17 23:56:52.5   0.1                          T                 .7  .21 Ml 2.0         5055519
HINF  002.93 017.2 m E Sg      2012/08/17 23:57:06.3   0.1                          T                 .7  .20 Ml 1.9         5055518

.
EVENT     281315
    Date      Time       Latitude Longitude    Depth    Ndef Nsta Gap    Mag1  N    Mag2  N    Mag3  N   Author         ID
       rms   OT_Error      Smajor Sminor Az        Err   mdist  Mdist     Err        Err        Err      Quality

2012/08/18 00:06:19.7     44.9468    6.7570      3.0 f    22    8 090  Ml 1.3  4  Md 1.7  4              bulletin    281415
                                                                                                         _ldg
      0.14   +-  0.03        .7     .5  113.96 +-  0.0    0.03   1.62   +-0.1      +-0.1                 m i ke

FRANCE
Sta     Dist  EvAz     Phase      Date       Time     TRes  Azim  AzRes  Slow  SRes Def   SNR       Amp   Per   Mag1   Mag2       ID
MBDF  000.22 177.3 m E Pg      2012/08/18 00:06:24.3   0.0                          T                                        5047852
MBDF  000.22 177.3 m E Sg      2012/08/18 00:06:27.2  -0.2                          T                3.7  .20        Md 1.7  5047853
LPG   000.55 359.6 m E Pg      2012/08/18 00:06:30.8   0.2                          T                                        5047849
LPG   000.55 359.6 m E Sg      2012/08/18 00:06:37.6  -0.2                          T                 .5  .16        Md 1.7  5047854
LPL   000.57 358.3 m E Pg      2012/08/18 00:06:30.9   0.1                          T                                        5047850
LPL   000.57 358.3 m E Sg      2012/08/18 00:06:38.1  -0.2                          T                 .7  .20        Md 1.6  5047855
ORIF  000.62 267.7 m E Pg      2012/08/18 00:06:31.7   0.0                          T                                        5047851
ORIF  000.62 267.7 m E Sg      2012/08/18 00:06:39.6  -0.2                          T                 .8  .17        Md 1.7  5047856
SMRF  001.29 221.5 m E Sg      2012/08/18 00:07:00.4  -0.1                          T                 .4  .25 Ml 1.2         5055520
FRF   001.39 183.3 m E Sg      2012/08/18 00:07:03.6   0.1                          T                 .6  .27 Ml 1.4         5055522
VIVF  001.48 267.2 m E Sg      2012/08/18 00:07:06.6   0.0                          T                 .5  .27 Ml 1.3         5055523
LMR   001.62 186.4 m E Sg      2012/08/18 00:07:10.7  -0.1                          T                 .5  .24 Ml 1.5         5055521

.
EVENT     281330
    Date      Time       Latitude Longitude    Depth    Ndef Nsta Gap    Mag1  N    Mag2  N    Mag3  N   Author         ID
       rms   OT_Error      Smajor Sminor Az        Err   mdist  Mdist     Err        Err        Err      Quality

2012/08/18 00:08:25.9     44.9497    6.7166      2.0       8    4 167             Md 1.2  3              bulletin    281430
                                                                                                         _ldg
      0.45   +-  0.18       5.4    3.0   93.66 +-  0.0    0.23   0.60              +-0.2                 m i ke

FRANCE
Sta     Dist  EvAz     Phase      Date       Time     TRes  Azim  AzRes  Slow  SRes Def   SNR       Amp   Per   Mag1   Mag2       ID
MBDF  000.23 170.1 m E Pg      2012/08/18 00:08:30.3  -0.3                          T                                        5047862
MBDF  000.23 170.1 m E Sg      2012/08/18 00:08:33.5  -0.3                          T                1.1  .18        Md 1.4  5047861
LPG   000.55 002.6 m E Pg      2012/08/18 00:08:36.9   0.2                          T                                        5047859
LPG   000.55 002.6 m E Sg      2012/08/18 00:08:42.8  -1.1                          T                 .3  .20                5047860
LPL   000.57 001.1 m E Pg      2012/08/18 00:08:37.1   0.1                          T                                        5047858
LPL   000.57 001.1 m E Sg      2012/08/18 00:08:44.2  -0.2                          T                 .4  .20        Md 1.1  5047863
ORIF  000.60 267.3 m E Pg      2012/08/18 00:08:37.6   0.3                          T                                        5047857
ORIF  000.60 267.3 m E Sg      2012/08/18 00:08:44.3  -0.8                          T                 .6  .26        Md  .9  5047864

.
EVENT     281334
    Date      Time       Latitude Longitude    Depth    Ndef Nsta Gap    Mag1  N    Mag2  N    Mag3  N   Author         ID
       rms   OT_Error      Smajor Sminor Az        Err   mdist  Mdist     Err        Err        Err      Quality

2012/08/18 01:57:07.1     43.2826    4.4102      2.0       7    4 193  Ml 1.2  4  Md 1.6  1              bulletin    281434
                                                                                                         _ldg
      0.20   +-  0.19       4.5    1.8    9.63 +-  0.0    0.89   1.65   +-0.1      +-                    m i ke

NEAR SOUTH COAST OF FRANCE
Sta     Dist  EvAz     Phase      Date       Time     TRes  Azim  AzRes  Slow  SRes Def   SNR       Amp   Per   Mag1   Mag2       ID
LASF  000.89 333.4 m E Pg      2012/08/18 01:57:23.9   0.1                          T                                        5049085
LASF  000.89 333.4 m E Sg      2012/08/18 01:57:35.3  -0.1                          T                1.0  .27 Ml 1.3 Md 1.6  5049086
SMRF  001.09 050.3 m E Pg      2012/08/18 01:57:27.5  -0.1                          T                                        5047868
SMRF  001.09 050.3 m E Sg      2012/08/18 01:57:42.1   0.3                          T                 .8  .26 Ml 1.3         5047866
FRF   001.65 079.6 m E Pg      2012/08/18 01:57:38.0   0.2                          T                                        5047867
FRF   001.65 079.6 m E Sg      2012/08/18 01:57:58.8  -0.4                          T                 .3  .22 Ml 1.2         5047872
MTLF  001.60 272.8 m E Sg      2012/08/18 01:57:57.5  -0.1                          T                 .2  .28 Ml 1.0         5049084

.
EVENT     281347
    Date      Time       Latitude Longitude    Depth    Ndef Nsta Gap    Mag1  N    Mag2  N    Mag3  N   Author         ID
       rms   OT_Error      Smajor Sminor Az        Err   mdist  Mdist     Err        Err        Err      Quality

2012/08/18 02:42:23.5     46.3160    7.5034      2.0      48   15 054  Ml 1.8 15  Md 2.0  2              bulletin    281447
                                                                                                         _ldg
      0.32   +-  0.05        .9     .8  105.29 +-  0.0    0.11   2.82   +-0.2      +-0.1                 m i ke

SWITZERLAND
Sta     Dist  EvAz     Phase      Date       Time     TRes  Azim  AzRes  Slow  SRes Def   SNR       Amp   Per   Mag1   Mag2       ID
LPL   000.96 214.2 m E Pg      2012/08/18 02:42:41.4  -0.4                          T                                        5055527
LPL   000.96 214.2 m E Sg      2012/08/18 02:42:54.8   0.4                          T                2.7  .53 Ml 1.5 Md 2.1  5055528
LPG   000.97 213.0 m E Pg      2012/08/18 02:42:42.1   0.0                          T                                        5055525
LPG   000.97 213.0 m E Sg      2012/08/18 02:42:54.6  -0.2                          T                2.3  .34 Ml 1.6         5055526
CABF  001.02 287.3 m E Pn      2012/08/18 02:42:43.5   0.1                          T                                        5047876
CABF  001.02 287.3 m E Sg      2012/08/18 02:42:56.1   0.1                          T                1.8  .25 Ml 1.7 Md 2.0  5047875
HINF  001.57 343.7 m E Pn      2012/08/18 02:42:50.0  -0.6                          T                                        5047877
HINF  001.57 343.7 m E Pg      2012/08/18 02:42:52.3  -0.4                          T                                        5055537
HINF  001.57 343.7 m E Sn      2012/08/18 02:43:07.9  -2.5                          T                                        5047874
HINF  001.57 343.7 m E Sg      2012/08/18 02:43:13.3   0.4                          T                2.0  .26 Ml 1.9         5047878
HAU   001.87 335.4 m E Pn      2012/08/18 02:42:54.0  -0.8                          T                                        5047879
HAU   001.87 335.4 m E Sg      2012/08/18 02:43:22.1  -0.2                          T                2.4  .25 Ml 1.9         5047873
MBDF  001.67 198.2 m E Pg      2012/08/18 02:42:54.8   0.0                          T                                        5055531
MBDF  001.67 198.2 m E Sg      2012/08/18 02:43:16.7   0.3                          T                 .9  .29 Ml 1.6         5055532
ORIF  001.80 219.8 m E Pg      2012/08/18 02:42:57.2   0.0                          T                                        5055529
ORIF  001.80 219.8 m E Sg      2012/08/18 02:43:20.0  -0.4                          T                1.1  .33 Ml 1.7         5055530
MEZF  002.75 323.6 m E P       2012/08/18 02:43:09.4  -0.1                          T                                        5055536
MEZF  002.75 323.6 m E Sg      2012/08/18 02:43:49.8   0.0                          T                1.3  .37 Ml 1.9         5055540
CDF   002.10 355.9 m E Sg      2012/08/18 02:43:29.8   0.0                          T                1.4  .40 Ml 1.9         5055539
THEF  002.17 332.3 m E Sg      2012/08/18 02:43:31.8   0.0                          T                1.7  .25 Ml 2.1         5055542
SMF   002.55 278.7 m E Sn      2012/08/18 02:43:33.5  -0.3                          T                                        5055535
SMF   002.55 278.7 m E Sg      2012/08/18 02:43:43.5  -0.2                          T                 .9  .25 Ml 1.9         5055534
VIVF  002.47 234.7 m E Sg      2012/08/18 02:43:41.0   0.0                          T                 .7  .27 Ml 1.7         5055533
SFTF  002.53 319.3 m E Sg      2012/08/18 02:43:43.4   0.4                          T                3.6  .38 Ml 2.3         5055541
LOR   002.68 292.1 m E Sg      2012/08/18 02:43:47.7   0.0                          T                 .3  .21 Ml 1.6         5055538
FRF   002.82 192.8 m E Sg      2012/08/18 02:43:52.1   0.0                          T                 .3  .23 Ml 1.5         5055524

.
EVENT     281348
    Date      Time       Latitude Longitude    Depth    Ndef Nsta Gap    Mag1  N    Mag2  N    Mag3  N   Author         ID
       rms   OT_Error      Smajor Sminor Az        Err   mdist  Mdist     Err        Err        Err      Quality

2012/08/18 03:15:25.7     44.5183    6.5346      2.0       9    5 136  Ml 1.1  3  Md 1.4  2              bulletin    281448
                                                                                                         _ldg
      0.22   +-  0.08       2.2    1.4   93.12 +-  0.0    0.27   1.18   +-0.1      +-0.1                 m i ke

FRANCE
Sta     Dist  EvAz     Phase      Date       Time     TRes  Azim  AzRes  Slow  SRes Def   SNR       Amp   Per   Mag1   Mag2       ID
MBDF  000.27 039.0 m E Pg      2012/08/18 03:15:31.4   0.2                          T                                        5047883
MBDF  000.27 039.0 m E Sg      2012/08/18 03:15:34.3  -0.5                          T                2.6  .26        Md 1.4  5047880
ORIF  000.61 310.8 m E Pg      2012/08/18 03:15:37.4  -0.1                          T                                        5055545
ORIF  000.61 310.8 m E Sg      2012/08/18 03:15:45.7   0.2                          T                 .1  .19        Md 1.3  5047892
FRF   000.96 175.1 m E Pg      2012/08/18 03:15:43.5  -0.2                          T                                        5047888
FRF   000.96 175.1 m E Sn      2012/08/18 03:15:58.3   0.3                          T                 .6  .35 Ml 1.0         5055543
LMR   001.18 180.9 m E Pg      2012/08/18 03:15:47.7  -0.1                          T                                        5047885
LMR   001.18 180.9 m E Sg      2012/08/18 03:16:03.5   0.4                          T                 .2  .16 Ml 1.0         5047884
SMRF  000.88 232.1 m E Sg      2012/08/18 03:15:53.6   0.0                          T                 .8  .31 Ml 1.2         5055544

.
