EVENT     257913
    Date      Time       Latitude Longitude    Depth    Ndef Nsta Gap    Mag1  N    Mag2  N    Mag3  N   Author         ID
       rms   OT_Error      Smajor Sminor Az        Err   mdist  Mdist     Err        Err        Err      Quality

2011/04/03 17:32:48.1     45.9057    3.2242      7.3      23   10 190  Ml 1.9  7  Md 1.9  3              js067245    257913

      0.43   +-  0.08       1.6     .7  124.80 +-  0.8    0.37   2.44   +-0.3      +-0.2                 m i ke

FRANCE
Sta     Dist  EvAz     Phase      Date       Time     TRes  Azim  AzRes  Slow  SRes Def   SNR       Amp   Per   Mag1   Mag2       ID
BGF   000.70 338.2 m E Pg      2011/04/03 17:33:01.4   0.0                          T                                        4669657
BGF   000.70 338.2 m E Pn      2011/04/03 17:33:02.9   0.0                          T                                        4669658
BGF   000.70 338.2 m E Sg      2011/04/03 17:33:10.5  -0.1                          T                6.7  .32        Md 2.1  4669659
TCF   000.80 298.8 m E Pg      2011/04/03 17:33:03.5   0.3                          T                                        4669662
TCF   000.80 298.8 m E Sg      2011/04/03 17:33:14.0   0.3                          T                2.6  .18        Md 1.7  4669663
SMF   000.85 029.8 m E Pg      2011/04/03 17:33:04.1  -0.1                          T                                        4669678
SMF   000.85 029.8 m E Sg      2011/04/03 17:33:15.7   0.3                          T                3.8  .22 Ml 2.0         4669680
AVF   000.89 005.7 m E Pg      2011/04/03 17:33:05.0   0.2                          T                                        4669677
AVF   000.89 005.7 m E Sg      2011/04/03 17:33:16.4   0.0                          T                3.5  .18 Ml 2.1         4669681
SSF   001.17 009.5 m E Pn      2011/04/03 17:33:09.1  -0.1                          T                                        4669664
SSF   001.17 009.5 m E Pg      2011/04/03 17:33:09.9  -0.1                          T                                        4669676
SSF   001.17 009.5 m E Sg      2011/04/03 17:33:25.3   0.1                          T                2.2  .18 Ml 2.1         4669667
CAF   001.28 220.2 m E Pn      2011/04/03 17:33:10.7   0.0                          T                                        4669675
CAF   001.28 220.2 m E Pg      2011/04/03 17:33:11.9  -0.1                          T                                        4669674
CAF   001.28 220.2 m E Sg      2011/04/03 17:33:28.5   0.0                          T                 .8  .14 Ml 1.7         4669671
RJF   001.34 244.0 m E Pn      2011/04/03 17:33:11.6   0.1                          T                                        4669673
RJF   001.34 244.0 m E Pg      2011/04/03 17:33:13.2   0.1                          T                                        4669672
RJF   001.34 244.0 m E Sg      2011/04/03 17:33:30.4  -0.1                          T                1.3  .22 Ml 1.4         4669670
HYF   001.42 343.7 m E Pg      2011/04/03 17:33:14.6   0.0                          T                                        4669679
HYF   001.42 343.7 m E Sg      2011/04/03 17:33:33.1   0.1                          T                                        4669668
LOR   001.43 017.6 m E Pg      2011/04/03 17:33:14.8  -0.1 201.8  3.8               T                                        4669665
LOR   001.43 017.6 m E Sg      2011/04/03 17:33:33.4   0.1 191.9  -6.2              T                3.5  .20 Ml 2.3         4669666
MFF   002.44 287.8 m E Sg      2011/04/03 17:34:04.6  -0.1                          T                1.1  .24 Ml 2.2         4669669

.
EVENT     257928
    Date      Time       Latitude Longitude    Depth    Ndef Nsta Gap    Mag1  N    Mag2  N    Mag3  N   Author         ID
       rms   OT_Error      Smajor Sminor Az        Err   mdist  Mdist     Err        Err        Err      Quality

2011/04/04 01:41:23.6     47.1229    1.5461      2.0      24   10 192  Ml 2.2 10  Md 2.1  2              js067245    257928

      0.93   +-  0.17       3.7    2.1  159.80 +-  0.0    0.76   2.25   +-0.2      +-0.1                 m i ke

FRANCE
Sta     Dist  EvAz     Phase      Date       Time     TRes  Azim  AzRes  Slow  SRes Def   SNR       Amp   Per   Mag1   Mag2       ID
HYF   000.76 078.5 m E Pg      2011/04/04 01:41:38.0   0.0                          T                                        4669713
HYF   000.76 078.5 m E Sg      2011/04/04 01:41:47.9   0.1                          T                                Md 2.1  4669714
TCF   000.95 151.1 m E Pg      2011/04/04 01:41:41.7   0.2                          T                                        4669722
TCF   000.95 151.1 m E Sg      2011/04/04 01:41:54.1   0.2                          T                6.4  .22 Ml 2.3 Md 2.0  4669698
BGF   001.06 121.9 m E Pg      2011/04/04 01:41:43.4   0.0                          T                                        4669712
BGF   001.06 121.9 m E Sg      2011/04/04 01:41:57.4   0.3                          T               13.7  .28 Ml 2.5         4669701
MFF   001.27 246.5 m E Pn      2011/04/04 01:41:46.7   0.0                          T                                        4669709
MFF   001.27 246.5 m E Pg      2011/04/04 01:41:47.9   0.6                          T                                        4669708
MFF   001.27 246.5 m E Sg      2011/04/04 01:42:03.7  -0.2                          T                5.4  .22 Ml 2.5         4669703
AVF   001.28 104.4 m E Pn      2011/04/04 01:41:46.8   0.0                          T                                        4669717
AVF   001.28 104.4 m E Pg      2011/04/04 01:41:47.3  -0.3                          T                                        4669716
AVF   001.28 104.4 m E Sg      2011/04/04 01:42:03.9  -0.2                          T                2.9  .26 Ml 2.0         4669699
SSF   001.34 091.9 m E Pg      2011/04/04 01:41:47.6  -1.0                          T                                        4669720
SSF   001.34 091.9 m E Pn      2011/04/04 01:41:48.4   0.7                          T                                        4669721
SSF   001.34 091.9 m E Sg      2011/04/04 01:42:06.4   0.5                          T                1.7  .17 Ml 2.1         4669697
LOR   001.58 083.9 m E Pn      2011/04/04 01:41:51.0   0.0 260.3  -5.2              T                                        4669719
LOR   001.58 083.9 m E Pg      2011/04/04 01:41:52.6  -0.5 261.9  -3.7              T                                        4669718
LOR   001.58 083.9 m E Sg      2011/04/04 01:42:13.4  -0.2 251.2  -14.4             T                3.1  .22 Ml 2.2         4669696
RJF   001.82 180.7 m E Pn      2011/04/04 01:41:53.3  -0.9                          T                                        4669707
RJF   001.82 180.7 m E Pg      2011/04/04 01:41:56.8  -0.6                          T                                        4669706
RJF   001.82 180.7 m E Sg      2011/04/04 01:42:20.0  -0.9                          T                2.6  .20 Ml 1.9         4669705
SMF   001.65 106.0 m E Pg      2011/04/04 01:41:54.0  -0.3                          T                                        4669715
SMF   001.65 106.0 m E Sg      2011/04/04 01:42:15.3  -0.2                          T                2.5  .20 Ml 2.2         4669700
LFF   002.25 194.7 m E Sg      2011/04/04 01:42:33.8  -0.6                          T                 .9  .19 Ml 1.8         4669704

.
EVENT     257929
    Date      Time       Latitude Longitude    Depth    Ndef Nsta Gap    Mag1  N    Mag2  N    Mag3  N   Author         ID
       rms   OT_Error      Smajor Sminor Az        Err   mdist  Mdist     Err        Err        Err      Quality

2011/04/04 02:33:33.9     43.3793    7.0108     20.0 f    16    7 144  Ml 1.8  4  Md 2.1  2              js067245    257929

      2.89   +-  0.33       8.2    5.7   28.13 +-  0.0    0.32   1.74   +-0.2      +-0.2                 m i ke

NEAR SOUTH COAST OF FRANCE
Sta     Dist  EvAz     Phase      Date       Time     TRes  Azim  AzRes  Slow  SRes Def   SNR       Amp   Per   Mag1   Mag2       ID
FRF   000.32 304.5 m E Pg      2011/04/04 02:33:40.6  -0.3                          T                                        4669757
FRF   000.32 304.5 m E Sg      2011/04/04 02:33:45.1  -0.7                          T               25.0  .18        Md 1.9  4669758
LMR   000.37 263.1 m E Pg      2011/04/04 02:33:41.8   0.1                          T                                        4669755
LMR   000.37 263.1 m E Sg      2011/04/04 02:33:47.1   0.0                          T                8.6  .21        Md 2.2  4669756
SBF   000.57 032.4 m E Pg      2011/04/04 02:33:45.3   0.0                          T                                        4669753
SBF   000.57 032.4 m E Sg      2011/04/04 02:33:53.6   0.4                          T               13.6  .24                4669754
SMRF  001.20 300.3 m E Pg      2011/04/04 02:33:56.1  -0.5                          T                                        4669751
SMRF  001.20 300.3 m E Sg      2011/04/04 02:34:12.8   0.5                          T                4.7  .31 Ml 2.1         4669752
MBDF  001.36 352.8 m E Pn      2011/04/04 02:33:56.6   0.2                          T                                        4669749
MBDF  001.36 352.8 m E Pg      2011/04/04 02:33:59.9   0.3                          T                                        4669748
MBDF  001.36 352.8 m E Sg      2011/04/04 02:34:17.5   0.1                          T                1.8  .27 Ml 1.8         4669750
PGF   001.68 119.0 m E Pn      2011/04/04 02:34:00.4  -0.2                          T                                        4669746
PGF   001.68 119.0 m E Sn      2011/04/04 02:34:20.3   0.0                          T                 .6  .23 Ml 1.8         4669747
ORIF  001.74 332.5 m E Sg      2011/04/04 02:34:29.4   0.3                          T                 .8  .27 Ml 1.6         4669759

.
EVENT     257930
    Date      Time       Latitude Longitude    Depth    Ndef Nsta Gap    Mag1  N    Mag2  N    Mag3  N   Author         ID
       rms   OT_Error      Smajor Sminor Az        Err   mdist  Mdist     Err        Err        Err      Quality

2011/04/04 05:48:26.6     42.6983   -1.2774      2.0      26    2 130  Ml 1.9  1  Md 1.6  2              js067245    257930

      0.29   +-  0.07       1.7     .9   51.50 +-  0.0    0.08   1.23   +-         +-0.1                 m i ke

PYRENEES
Sta     Dist  EvAz     Phase      Date       Time     TRes  Azim  AzRes  Slow  SRes Def   SNR       Amp   Per   Mag1   Mag2       ID
SJPF  000.42 005.3 m E Pg      2011/04/04 05:48:34.9   0.2                          T                                        4669760
SJPF  000.42 005.3 m E Sg      2011/04/04 05:48:40.2   0.0                          T                3.6  .27        Md 1.6  4669761
EPF   001.23 073.9 m E P       2011/04/04 05:48:49.6  -1.4                          T                                        4669762
EPF   001.23 073.9 m E Sg      2011/04/04 05:49:05.7   0.0                          T                3.0  .32 Ml 1.9 Md 1.5  4669763

.
EVENT     257931
    Date      Time       Latitude Longitude    Depth    Ndef Nsta Gap    Mag1  N    Mag2  N    Mag3  N   Author         ID
       rms   OT_Error      Smajor Sminor Az        Err   mdist  Mdist     Err        Err        Err      Quality

2011/04/04 07:01:47.2     46.1903    6.9050      4.0 f    16    5 097  Ml 1.6  2  Md 1.7  2              js067245    257931

      0.10   +-  0.02        .6     .4  116.04 +-  0.0    0.07   1.47   +-0.2      +-0.1                 m i ke

SWITZERLAND
Sta     Dist  EvAz     Phase      Date       Time     TRes  Azim  AzRes  Slow  SRes Def   SNR       Amp   Per   Mag1   Mag2       ID
LPL   000.68 190.2 m E Pg      2011/04/04 07:02:00.4  -0.1                          T                                        4669770
LPL   000.68 190.2 m E Sg      2011/04/04 07:02:09.2  -0.2                          T                 .9  .20        Md 1.6  4669771
CABF  000.71 306.9 m E Pg      2011/04/04 07:02:00.8   0.1                          T                                        4669764
CABF  000.71 306.9 m E Sg      2011/04/04 07:02:09.8  -0.1                          T                1.5  .32                4669765
LPG   000.70 188.9 m E Pg      2011/04/04 07:02:00.9   0.0                          T                                        4669772
LPG   000.70 188.9 m E Sg      2011/04/04 07:02:09.8  -0.3                          T                1.7  .23        Md 1.8  4669773
ORIF  001.46 209.9 m E Pg      2011/04/04 07:02:14.6   0.0                          T                                        4669768
ORIF  001.46 209.9 m E Sg      2011/04/04 07:02:33.5   0.0                          T                2.0  .37 Ml 1.8         4669769
MBDF  001.47 183.7 m E Pg      2011/04/04 07:02:14.9   0.1                          T                                        4669766
MBDF  001.47 183.7 m E Sg      2011/04/04 07:02:33.7   0.0                          T                 .7  .24 Ml 1.5         4669767

.
EVENT     257934
    Date      Time       Latitude Longitude    Depth    Ndef Nsta Gap    Mag1  N    Mag2  N    Mag3  N   Author         ID
       rms   OT_Error      Smajor Sminor Az        Err   mdist  Mdist     Err        Err        Err      Quality

2011/04/04 09:44:22.6     46.7467    -.1714       .0 f    14    8 171  Ml 2.1  8  Md 2.2  1              js067245    257934

      1.24   +-  0.12       1.9    1.5  172.12 +-  0.0    0.15   2.40   +-0.2      +-                    m i km

FRANCE
Sta     Dist  EvAz     Phase      Date       Time     TRes  Azim  AzRes  Slow  SRes Def   SNR       Amp   Per   Mag1   Mag2       ID
MFF   000.15 173.0 m E Pg      2011/04/04 09:44:24.9  -1.0                          T                                        4669792
MFF   000.15 173.0 m E Sg      2011/04/04 09:44:26.1  -2.0                          T              231.4  .30        Md 2.2  4669793
TCF   001.71 104.7 m E Pg      2011/04/04 09:44:54.7   0.0                          T                                        4669787
TCF   001.71 104.7 m E Sg      2011/04/04 09:45:16.2  -0.7                          T                3.0  .31 Ml 2.2         4669788
BGF   002.09 094.1 m E Pn      2011/04/04 09:44:56.6  -0.6                          T                                        4669797
BGF   002.09 094.1 m E Pg      2011/04/04 09:45:01.1  -0.5                          T                                        4669796
BGF   002.09 094.1 m E Sg      2011/04/04 09:45:28.2  -0.6                          T                5.8  .36 Ml 2.4         4669798
GRR   001.71 344.4 m E Sg      2011/04/04 09:45:18.3   1.5                          T                1.4  .21 Ml 1.8         4669790
RJF   001.86 140.2 m E Sg      2011/04/04 09:45:20.2  -1.5                          T                7.3  .30 Ml 2.2         4669791
LDF   001.85 001.0 m E Sg      2011/04/04 09:45:22.8   1.6                          T                  1  .16 Ml 1.9         4669789
FLN   002.03 354.2 m E Sg      2011/04/04 09:45:28.3   1.4                          T                2.0  .23 Ml 2.0         4669795
CAF   002.40 138.6 m E Sg      2011/04/04 09:45:37.7  -0.8                          T                3.6  .27 Ml 2.4         4669794

.
EVENT     257967
    Date      Time       Latitude Longitude    Depth    Ndef Nsta Gap    Mag1  N    Mag2  N    Mag3  N   Author         ID
       rms   OT_Error      Smajor Sminor Az        Err   mdist  Mdist     Err        Err        Err      Quality

2011/04/05 07:06:39.1     42.5907     .9143      5.0 f    37    2 095  Ml 1.8  1  Md 1.9  2              js067245    257967

      0.52   +-  0.08       2.0    1.1   12.81 +-  0.0    0.25   1.89   +-         +-0.2                 m i ke

PYRENEES
Sta     Dist  EvAz     Phase      Date       Time     TRes  Azim  AzRes  Slow  SRes Def   SNR       Amp   Per   Mag1   Mag2       ID
EPF   000.61 316.3 m E Pg      2011/04/05 07:06:49.8  -1.0                          T                                        4669801
EPF   000.61 316.3 m E Sg      2011/04/05 07:06:57.7  -1.1                          T                8.5  .22        Md 2.0  4669802
MTLF  001.22 051.5 m E Pg      2011/04/05 07:07:01.8  -0.1                          T                                        4669799
MTLF  001.22 051.5 m E Sg      2011/04/05 07:07:18.1   0.5                          T                2.4  .28 Ml 1.8 Md 1.7  4669800

.
