EVENT     264382
    Date      Time       Latitude Longitude    Depth    Ndef Nsta Gap    Mag1  N    Mag2  N    Mag3  N   Author         ID
       rms   OT_Error      Smajor Sminor Az        Err   mdist  Mdist     Err        Err        Err      Quality

2011/09/24 14:44:06.6     48.3332    6.6728     10.0      27   14 080  Ml 2.0  8  Md 1.9  4              js067245    264402

      0.25   +-  0.05        .9     .7  171.41 +-  0.0    0.34   2.73   +-0.3      +-0.3                 m i ke

FRANCE
Sta     Dist  EvAz     Phase      Date       Time     TRes  Azim  AzRes  Slow  SRes Def   SNR       Amp   Per   Mag1   Mag2       ID
HAU   000.39 213.7 m E Pg      2011/09/24 14:44:14.2  -0.1                          T                                        4761032
HAU   000.39 213.7 m E Sg      2011/09/24 14:44:19.1  -0.6                          T                8.1  .18        Md 1.7  4761031
CDF   000.41 078.7 m E Pg      2011/09/24 14:44:14.6  -0.2                          T                                        4761019
CDF   000.41 078.7 m E Sg      2011/09/24 14:44:20.2  -0.1                          T                6.7  .24                4761020
THEF  000.47 257.2 m E Pg      2011/09/24 14:44:15.2  -0.4                          T                                        4761028
THEF  000.47 257.2 m E Sg      2011/09/24 14:44:21.5  -0.4                          T               14.6  .20        Md 1.9  4761029
HINF  000.53 166.8 m E Pg      2011/09/24 14:44:16.8  -0.1                          T                                        4761027
HINF  000.53 166.8 m E Sg      2011/09/24 14:44:23.7  -0.2                          T                                        4761030
HINF  000.53 166.8 m E Sn      2011/09/24 14:44:26.7  -0.6                          T                5.7  .16        Md 1.7  4761132
PAGF  000.67 289.7 m E Pg      2011/09/24 14:44:19.6   0.3                          T                                        4761021
PAGF  000.67 289.7 m E Sg      2011/09/24 14:44:28.4   0.3                          T                 .8  .15                4761022
LANF  000.99 048.8 m E Pg      2011/09/24 14:44:25.0  -0.2                          T                                        4761127
LANF  000.99 048.8 m E Sg      2011/09/24 14:44:38.2   0.0                          T                2.3  .25 Ml 1.8 Md 2.3  4761135
SFTF  001.10 263.9 m E Pn      2011/09/24 14:44:26.7   0.2                          T                                        4761024
SFTF  001.10 263.9 m E Pg      2011/09/24 14:44:27.3   0.1                          T                                        4768395
SFTF  001.10 263.9 m E Sg      2011/09/24 14:44:42.0   0.4                          T                4.8  .20 Ml 2.2         4761025
MEZF  001.09 279.5 m E Pg      2011/09/24 14:44:27.1   0.0                          T                                        4768393
MEZF  001.09 279.5 m E Sg      2011/09/24 14:44:41.4   0.1                          T                3.2  .24 Ml 2.0         4768394
RUP   001.39 010.4 m E Pg      2011/09/24 14:44:32.7   0.0                          T                                        4761130
RUP   001.39 010.4 m E Sg      2011/09/24 14:44:50.8   0.0                          T                                        4761129
CABF  001.77 193.2 m E Pg      2011/09/24 14:44:39.9   0.2                          T                                        4761140
CABF  001.77 193.2 m E Sg      2011/09/24 14:45:02.4  -0.1                          T                 .6  .23 Ml 1.5         4768391
LOR   002.18 241.7 m E Pg      2011/09/24 14:44:46.8  -0.3                          T                                        4761138
LOR   002.18 241.7 m E Sg      2011/09/24 14:45:15.2   0.1                          T                2.9  .25 Ml 2.3         4761018
SSF   002.49 240.4 m E Sg      2011/09/24 14:45:25.0   0.2                          T                1.3  .28 Ml 2.1         4768392
SMF   002.56 229.7 m E Sg      2011/09/24 14:45:26.9  -0.1                          T                3.4  .30 Ml 2.4         4768390
AVF   002.73 236.8 m E Sg      2011/09/24 14:45:32.3   0.1                          T                1.1  .28 Ml 2.0         4761139

.
EVENT     264383
    Date      Time       Latitude Longitude    Depth    Ndef Nsta Gap    Mag1  N    Mag2  N    Mag3  N   Author         ID
       rms   OT_Error      Smajor Sminor Az        Err   mdist  Mdist     Err        Err        Err      Quality

2011/09/24 18:42:57.3     41.4751   12.9386     20.0 f    39    9 139  Ml 2.5  4                         js067245    264403

      0.35   +-  0.09       2.4    1.3   10.99 +-  0.0    0.25   7.17   +-0.2                            m i ke

SOUTHERN ITALY
Sta     Dist  EvAz     Phase      Date       Time     TRes  Azim  AzRes  Slow  SRes Def   SNR       Amp   Per   Mag1   Mag2       ID
PGF   003.13 291.4 m E P       2011/09/24 18:43:47.1   0.1                          T                                        4761051
PGF   003.13 291.4 m E Sn      2011/09/24 18:44:18.4   0.1                          T                5.7  .42 Ml 2.8         4761313
SBF   004.71 302.3 m E Pn      2011/09/24 18:44:04.8  -0.5                          T                                        4768414
SBF   004.71 302.3 m E P       2011/09/24 18:44:08.6  -0.7                          T                                        4761053
SBF   004.71 302.3 m E Sn      2011/09/24 18:44:55.8  -0.2                          T                1.1  .28 Ml 2.4         4768412
LMR   005.11 293.5 m E Pn      2011/09/24 18:44:09.9  -0.8                          T                                        4768415
LMR   005.11 293.5 m E Sn      2011/09/24 18:45:05.1  -0.4                          T                1.4  .40 Ml 2.5         4768413
FRF   005.10 296.2 m E Pn      2011/09/24 18:44:10.7   0.2                          T                                        4761310
FRF   005.10 296.2 m E P       2011/09/24 18:44:14.3  -0.4                          T                                        4761052
MBDF  005.56 307.8 m E P       2011/09/24 18:44:21.7   0.1                          T                                        4761315
MBDF  005.56 307.8 m E Sn      2011/09/24 18:45:16.2  -0.3                          T                 .8  .32 Ml 2.4         4768411
LPL   006.06 313.9 m E Pn      2011/09/24 18:44:23.7  -0.2                          T                                        4768416
LPL   006.06 313.9 m E P       2011/09/24 18:44:29.2   0.6                          T                                        4761312
SMRF  005.97 297.2 m E P       2011/09/24 18:44:27.1  -0.1                          T                                        4761050
ORIF  006.20 306.1 m E P       2011/09/24 18:44:30.4   0.0                          T                                        4761311
LASF  007.17 294.3 m E Pn      2011/09/24 18:44:38.3  -0.5                          T                                        4768417

.
EVENT     264384
    Date      Time       Latitude Longitude    Depth    Ndef Nsta Gap    Mag1  N    Mag2  N    Mag3  N   Author         ID
       rms   OT_Error      Smajor Sminor Az        Err   mdist  Mdist     Err        Err        Err      Quality

2011/09/24 20:48:26.6     43.0972    -.4246      2.0      22    7 104  Ml 1.8  4  Md 1.9  3              js067245    264404

      0.27   +-  0.06       1.5     .9  167.29 +-  0.0    0.20   2.61   +-0.2      +-0.1                 m i ke

PYRENEES
Sta     Dist  EvAz     Phase      Date       Time     TRes  Azim  AzRes  Slow  SRes Def   SNR       Amp   Per   Mag1   Mag2       ID
ETSF  000.22 206.5 m E Pg      2011/09/24 20:48:30.8  -0.3                          T                                        4761058
ETSF  000.22 206.5 m E Sg      2011/09/24 20:48:34.0  -0.2                          T               14.0  .21        Md 1.9  4761413
EPF   000.56 096.5 m E Pg      2011/09/24 20:48:37.5   0.1                          T                                        4761057
EPF   000.56 096.5 m E Sg      2011/09/24 20:48:45.1   0.2                          T                4.7  .28        Md 2.0  4761412
SJPF  000.59 271.8 m E Pg      2011/09/24 20:48:37.8   0.0                          T                                        4761056
SJPF  000.59 271.8 m E Sg      2011/09/24 20:48:45.4  -0.1                          T                2.2  .22        Md 1.9  4761405
MTLF  001.95 081.9 m E Pg      2011/09/24 20:49:02.8   0.0                          T                                        4761409
MTLF  001.95 081.9 m E Sg      2011/09/24 20:49:28.3   0.4                          T                1.1  .30 Ml 1.8         4761411
LFF   002.02 024.1 m E Pg      2011/09/24 20:49:04.4   0.1                          T                                        4761404
LFF   002.02 024.1 m E Sg      2011/09/24 20:49:30.6   0.3                          T                1.2  .21 Ml 1.8         4761406
RJF   002.61 031.6 m E Pg      2011/09/24 20:49:14.9  -0.2                          T                                        4761407
RJF   002.61 031.6 m E Sg      2011/09/24 20:49:48.8   0.1                          T                  1  .20 Ml 1.7         4761408
CAF   002.56 043.6 m E Sg      2011/09/24 20:49:46.7  -0.5                          T                1.2  .21 Ml 2.1         4761410

.
EVENT     264385
    Date      Time       Latitude Longitude    Depth    Ndef Nsta Gap    Mag1  N    Mag2  N    Mag3  N   Author         ID
       rms   OT_Error      Smajor Sminor Az        Err   mdist  Mdist     Err        Err        Err      Quality

2011/09/24 23:38:41.7     48.3338    6.6464     10.0      64   26 044  Ml 2.8 16  Md 3.0  7              js067245    264405

      0.93   +-  0.06       1.4     .9  175.22 +-  0.0    0.36   5.30   +-0.2      +-0.2                 m i ke

FRANCE
Sta     Dist  EvAz     Phase      Date       Time     TRes  Azim  AzRes  Slow  SRes Def   SNR       Amp   Per   Mag1   Mag2       ID
HAU   000.38 211.4 m E Pg      2011/09/24 23:38:49.2   0.0                          T   001.0                                4758478
HAU   000.38 211.4 m E Sg      2011/09/24 23:38:54.2  -0.3                          T               61.0  .18        Md 3.1  4761123
CDF   000.43 079.2 m E Pg      2011/09/24 23:38:49.7  -0.5                          T   001.0                                4758475
CDF   000.43 079.2 m E Sg      2011/09/24 23:38:55.4  -0.5                          T   001.0       40.2  .20        Md 3.2  4758476
THEF  000.45 256.6 m E Pg      2011/09/24 23:38:50.3  -0.1                          T                                        4761818
THEF  000.45 256.6 m E Sg      2011/09/24 23:38:57.1   0.7                          T                                        4761817
HINF  000.54 164.9 m E Pg      2011/09/24 23:38:51.8  -0.2                          T   001.0                                4758498
HINF  000.54 164.9 m E Sg      2011/09/24 23:38:58.5  -0.6                          T   001.0       83.4  .20                4758499
HINF  000.54 164.9 m E Sn      2011/09/24 23:39:01.7  -0.7                          T               27.1  .16        Md 3.1  4761550
PAGF  000.65 290.2 m E Pg      2011/09/24 23:38:54.7   0.6 114.5  5.0               T                                        4761124
PAGF  000.65 290.2 m E Sg      2011/09/24 23:39:03.5   0.8 117.1  7.6               T                4.0  .19        Md 3.1  4761473
MEZF  001.08 279.6 m E Pn      2011/09/24 23:39:00.9  -0.2 105.8  7.4               T   001.0                                4758500
MEZF  001.08 279.6 m E Pg      2011/09/24 23:39:02.0   0.2                          T                                        4768426
MEZF  001.08 279.6 m E Sg      2011/09/24 23:39:16.8   1.0  95.1  -3.3              T   001.0       34.0  .30 Ml 2.9         4758503
SFTF  001.08 263.8 m E Pn      2011/09/24 23:39:01.7   0.4  92.9  10.3              T                                        4761126
SFTF  001.08 263.8 m E Pg      2011/09/24 23:39:02.4   0.4                          T                                        4768427
SFTF  001.08 263.8 m E Sg      2011/09/24 23:39:16.8   0.7  99.1  16.6              T               23.6  .20 Ml 2.9         4761549
CABF  001.76 192.6 m E Pn      2011/09/24 23:39:11.1   0.3                          T                                        4761559
CABF  001.76 192.6 m E Pg      2011/09/24 23:39:14.9   0.2                          T   001.0                                4758495
CABF  001.76 192.6 m E Sg      2011/09/24 23:39:37.6   0.1                          T   001.0       13.1  .38 Ml 2.7 Md 2.9  4758496
LOR   002.16 241.5 m E Pn      2011/09/24 23:39:15.9  -0.2  66.6  7.2               T                                        4761480
LOR   002.16 241.5 m E P       2011/09/24 23:39:18.6   0.2  62.0  2.6               T                                        4761479
LOR   002.16 241.5 m E Pg      2011/09/24 23:39:22.5   0.7  62.8  3.4               T                                        4761478
LOR   002.16 241.5 m E Sg      2011/09/24 23:39:50.3   0.6  65.2  5.8               T               15.3  .22 Ml 3.1 Md 2.7  4761477
SSF   002.47 240.2 m E Pn      2011/09/24 23:39:20.2  -0.1                          T                                        4761541
SSF   002.47 240.2 m E Pg      2011/09/24 23:39:27.6   0.0                          T                                        4761476
SSF   002.47 240.2 m E Sg      2011/09/24 23:40:00.9   1.5                          T               12.9  .34 Ml 3.0 Md 2.8  4761542
GIVF  002.14 326.7 m E Pg      2011/09/24 23:39:21.4   0.0                          T                                        4768428
GIVF  002.14 326.7 m E Sg      2011/09/24 23:39:47.7  -1.2                          T                9.5  .26 Ml 2.8         4761543
AVF   002.71 236.5 m E Pn      2011/09/24 23:39:23.3  -0.2                          T                                        4761523
AVF   002.71 236.5 m E P       2011/09/24 23:39:26.1  -0.1                          T                                        4761527
AVF   002.71 236.5 m E Pg      2011/09/24 23:39:31.5  -0.5                          T                                        4761472
AVF   002.71 236.5 m E Sn      2011/09/24 23:39:55.3   0.9                          T                                        4761528
AVF   002.71 236.5 m E Sg      2011/09/24 23:40:07.1   0.3                          T                4.1  .22 Ml 2.6         4761471
BAIF  002.35 318.1 m E Pg      2011/09/24 23:39:24.8  -0.5                          T                                        4761545
BAIF  002.35 318.1 m E Sg      2011/09/24 23:39:54.4  -1.3                          T                2.9  .28 Ml 2.3         4761544
BGF   003.13 236.8 m E Pn      2011/09/24 23:39:28.9  -0.3                          T                                        4761554
BGF   003.13 236.8 m E P       2011/09/24 23:39:31.8  -0.5                          T                                        4761524
BGF   003.13 236.8 m E Pg      2011/09/24 23:39:39.1  -0.6                          T                                        4761555
BGF   003.13 236.8 m E Sn      2011/09/24 23:40:05.4   1.0                          T                                        4761553
BGF   003.13 236.8 m E Sg      2011/09/24 23:40:20.0   0.1                          T               20.7  .48 Ml 3.1         4761552
SMF   002.54 229.4 m E Pg      2011/09/24 23:39:29.1   0.2                          T   001.0                                4758487
SMF   002.54 229.4 m E Sg      2011/09/24 23:40:01.9   0.3                          T   001.0       28.2  .31 Ml 3.3         4758488
LPL   002.82 178.8 m E Pg      2011/09/24 23:39:34.3   0.1                          T                                        4761539
LPG   002.84 178.5 m E Pg      2011/09/24 23:39:34.6  -0.1                          T                                        4761540
HYF   002.90 250.0 m E Pg      2011/09/24 23:39:35.2  -0.3                          T                                        4761557
HYF   002.90 250.0 m E Sn      2011/09/24 23:39:59.9   1.0                          T                                        4761525
HYF   002.90 250.0 m E Sg      2011/09/24 23:40:12.5  -0.4                          T                                        4761526
TCF   003.65 237.5 m E Pn      2011/09/24 23:39:36.0  -0.2                          T                                        4761474
TCF   003.65 237.5 m E Pg      2011/09/24 23:39:49.3   0.1                          T                                        4761521
TCF   003.65 237.5 m E Sg      2011/09/24 23:40:34.9  -1.2                          T                4.4  .30 Ml 2.8         4761475
ORIF  003.46 189.1 m E Pg      2011/09/24 23:39:45.8  -0.1                          T                                        4761538
ORIF  003.46 189.1 m E Sg      2011/09/24 23:40:31.5   1.3                          T                2.1  .24 Ml 2.5         4761537
MBDF  003.61 178.6 m E Pg      2011/09/24 23:39:48.6  -0.1                          T                                        4761534
VIVF  003.74 202.1 m E Pg      2011/09/24 23:39:50.7  -0.1                          T                                        4761535
VIVF  003.74 202.1 m E Sg      2011/09/24 23:40:38.8  -0.1                          T                3.3  .24 Ml 2.7         4761536
LDF   004.51 275.8 m E Pg      2011/09/24 23:40:04.3  -0.8                          T                                        4761530
LDF   004.51 275.8 m E Sg      2011/09/24 23:41:02.2  -0.8                          T                                        4761529
RJF   004.65 231.2 m E Sg      2011/09/24 23:41:06.8  -0.4                          T                                        4761531
CAF   004.65 224.5 m E Sg      2011/09/24 23:41:07.8   0.5                          T                1.7  .23 Ml 2.7         4761533
LFF   005.30 232.3 m E Sg      2011/09/24 23:41:28.1   0.6                          T                5.4  .44 Ml 2.9         4761532

.
