EVENT     293938
    Date      Time       Latitude Longitude    Depth    Ndef Nsta Gap    Mag1  N    Mag2  N    Mag3  N   Author         ID
       rms   OT_Error      Smajor Sminor Az        Err   mdist  Mdist     Err        Err        Err      Quality

2013/03/14 10:45:36.7     47.5572    8.1755       .0 f    24    6 045  Ml 2.2  7  Md 2.0  2              bulletin    294038
                                                                                                         _ldg
      0.22   +-  0.06       1.4    1.1  127.34 +-  0.0    0.05   4.15   +-0.4      +-0.0                 m i km

SWITZERLAND
Sta     Dist  EvAz     Phase      Date       Time     TRes  Azim  AzRes  Slow  SRes Def   SNR       Amp   Per   Mag1   Mag2       ID
HINF  000.93 286.7 m E Pg      2013/03/14 10:45:54.6   0.0                          T                                        5225417
HINF  000.93 286.7 m E Pn      2013/03/14 10:45:55.8   0.2                          T                                        5225116
HINF  000.93 286.7 m E Sg      2013/03/14 10:46:06.7  -0.1                          T                2.2  .16 Ml 1.9         5225115
HINF  000.93 286.7 m E Sn      2013/03/14 10:46:09.0  -0.1                          T                5.6  .18 Ml 2.3 Md 1.9  5225121
CDF   001.05 325.1 m E Pg      2013/03/14 10:45:56.7   0.0                          T                                        5225420
CDF   001.05 325.1 m E Pn      2013/03/14 10:45:57.5   0.2                          T                                        5225120
CDF   001.05 325.1 m E Sn      2013/03/14 10:46:12.3   0.3                          T                6.3  .29 Ml 2.3 Md 2.0  5225119
HAU   001.31 290.7 m E Pn      2013/03/14 10:46:00.4  -0.4                          T                                        5225118
HAU   001.31 290.7 m E Pg      2013/03/14 10:46:01.7   0.1                          T                                        5225418
HAU   001.31 290.7 m E Sn      2013/03/14 10:46:18.0  -0.2                          T                2.1  .25 Ml 1.7         5225117
CABF  001.71 237.2 m E Pn      2013/03/14 10:46:06.3  -0.1                          T                                        5225114
CABF  001.71 237.2 m E Pg      2013/03/14 10:46:09.2   0.2                          T                                        5225416
CABF  001.71 237.2 m E Sg      2013/03/14 10:46:31.2   0.0                          T                1.4  .20 Ml 2.0         5225113
SFTF  002.21 288.2 m E Pn      2013/03/14 10:46:13.4   0.4                          T                                        5225123
SFTF  002.21 288.2 m E Sn      2013/03/14 10:46:39.4  -0.2                          T                3.6  .36 Ml 2.2         5225122
PAGF  001.92 302.2 m E Sg      2013/03/14 10:46:37.8   0.0                          T               23.9  .46 Ml 2.9         5225419

.
EVENT     293911
    Date      Time       Latitude Longitude    Depth    Ndef Nsta Gap    Mag1  N    Mag2  N    Mag3  N   Author         ID
       rms   OT_Error      Smajor Sminor Az        Err   mdist  Mdist     Err        Err        Err      Quality

2013/03/14 16:59:12.8     40.7713   -1.9536      2.0      66   10 088  Ml 2.8 10                         bulletin    294011
                                                                                                         _ldg
      0.72   +-  0.12       2.6    1.8  174.99 +-  0.0    0.09   7.61   +-0.2                            m i ke

SPAIN
Sta     Dist  EvAz     Phase      Date       Time     TRes  Azim  AzRes  Slow  SRes Def   SNR       Amp   Per   Mag1   Mag2       ID
ETSF  002.37 025.7 m E Pn      2013/03/14 16:59:50.8  -0.1                          T                                        5224680
ETSF  002.37 025.7 m E Pg      2013/03/14 16:59:56.6  -0.3                          T                                        5224953
ETSF  002.37 025.7 m E Sn      2013/03/14 17:00:18.7  -0.2                          T                5.3  .17 Ml 2.8         5224682
ETSF  002.37 025.7 m E Sg      2013/03/14 17:00:27.9   0.6                          T               18.2  .30 Ml 3.1         5224956
SJPF  002.40 012.8 m E Pn      2013/03/14 16:59:51.5   0.1                          T                                        5224679
SJPF  002.40 012.8 m E Pg      2013/03/14 16:59:57.5   0.1                          T                                        5224954
SJPF  002.40 012.8 m E Sn      2013/03/14 17:00:19.2  -0.4                          T                6.7  .24 Ml 2.7         5224681
SJPF  002.40 012.8 m E Sg      2013/03/14 17:00:27.5  -0.8                          T                9.9  .20 Ml 3.0         5224955
EPF   002.83 036.4 m E Pn      2013/03/14 16:59:57.3   0.0                          T                                        5224678
EPF   002.83 036.4 m E Pg      2013/03/14 17:00:04.9  -0.5                          T                                        5224677
EPF   002.83 036.4 m E Sn      2013/03/14 17:00:29.5  -0.5                          T                8.6  .23 Ml 3.0         5224686
EPF   002.83 036.4 m E Sg      2013/03/14 17:00:41.1  -0.7                          T                8.7  .20 Ml 3.0         5224687
MTLF  004.03 049.0 m E Pn      2013/03/14 17:00:14.0   0.5                          T                                        5224676
MTLF  004.03 049.0 m E Pg      2013/03/14 17:00:27.5   0.1                          T                                        5224675
MTLF  004.03 049.0 m E Sn      2013/03/14 17:00:58.4   0.0                          T                1.2  .23 Ml 2.4         5224962
MTLF  004.03 049.0 m E Sg      2013/03/14 17:01:18.9  -0.2                          T                5.4  .36 Ml 2.8         5224683
CAF   005.09 034.1 m E Pn      2013/03/14 17:00:28.2   0.2                          T                                        5224685
LASF  005.42 050.6 m E Pn      2013/03/14 17:00:32.3  -0.1                          T                                        5224957
LASF  005.42 050.6 m E Pg      2013/03/14 17:00:50.7  -2.3                          T                                        5224961
LASF  005.42 050.6 m E Sn      2013/03/14 17:01:31.8   0.0                          T                  1  .24 Ml 2.6         5224960
LASF  005.42 050.6 m E Sg      2013/03/14 17:02:02.2  -0.3                          T                                        5224959
LMR   006.80 065.1 m E Pn      2013/03/14 17:00:50.9  -0.3                          T                                        5224931
LMR   006.80 065.1 m E Sn      2013/03/14 17:02:04.7   0.1                          T                 .6  .23 Ml 2.6         5224964
FRF   006.97 063.6 m E Pn      2013/03/14 17:00:53.5   0.0                          T                                        5224930
FRF   006.97 063.6 m E Sn      2013/03/14 17:02:07.9  -0.8                          T                                        5224963
QUIF  007.20 353.5 m E Pn      2013/03/14 17:00:55.9  -0.7                          T                                        5224966
QUIF  007.20 353.5 m E Pg      2013/03/14 17:01:25.0  -0.7                          T                                        5224965
SBF   007.61 063.0 m E Pn      2013/03/14 17:01:02.8   0.4                          T                                        5224958

.
EVENT     293912
    Date      Time       Latitude Longitude    Depth    Ndef Nsta Gap    Mag1  N    Mag2  N    Mag3  N   Author         ID
       rms   OT_Error      Smajor Sminor Az        Err   mdist  Mdist     Err        Err        Err      Quality

2013/03/14 17:54:05.9     48.1995   -3.1234       .0 f    18    7 138  Ml 2.3  4  Md 2.5  1              bulletin    294012
                                                                                                         _ldg
      0.73   +-  0.11       2.1    1.8    1.83 +-  0.0    0.17   2.58   +-0.1      +-                    m i km

FRANCE
Sta     Dist  EvAz     Phase      Date       Time     TRes  Azim  AzRes  Slow  SRes Def   SNR       Amp   Per   Mag1   Mag2       ID
ROSF  000.17 323.8 m E Pg      2013/03/14 17:54:09.7   0.1                          T                                        5224697
ROSF  000.17 323.8 m E Sg      2013/03/14 17:54:11.8  -0.3                          T               42.8  .18        Md 2.5  5225128
QUIF  000.28 185.7 m E Pg      2013/03/14 17:54:12.0   0.3                          T                                        5224695
QUIF  000.28 185.7 m E Sg      2013/03/14 17:54:16.3   0.6                          T              187.3  .96                5225129
SGMF  000.38 081.6 m E Pg      2013/03/14 17:54:13.1  -0.4                          T                                        5224696
SGMF  000.38 081.6 m E Sg      2013/03/14 17:54:18.6  -0.2                          T               14.2  .17                5224688
GRR   001.52 082.0 m E Pg      2013/03/14 17:54:34.8   0.3                          T                                        5224694
GRR   001.52 082.0 m E Sg      2013/03/14 17:54:54.7   0.3                          T                6.0  .19 Ml 2.4         5224689
FLN   001.85 071.2 m E Pg      2013/03/14 17:54:40.0  -0.5                          T                                        5224692
FLN   001.85 071.2 m E Sg      2013/03/14 17:55:04.7   0.3                          T                3.3  .21 Ml 2.2         5224691
LDF   002.04 077.7 m E Pg      2013/03/14 17:54:43.8  -0.3                          T                                        5224693
LDF   002.04 077.7 m E Sg      2013/03/14 17:55:09.9  -0.5                          T                3.1  .20 Ml 2.4         5224690
MFF   002.58 127.2 m E Pn      2013/03/14 17:54:47.4   0.2                          T                                        5225127
MFF   002.58 127.2 m E Pg      2013/03/14 17:54:54.1   0.1                          T                                        5225126
MFF   002.58 127.2 m E Sn      2013/03/14 17:55:17.6   0.0                          T                                        5225125
MFF   002.58 127.2 m E Sg      2013/03/14 17:55:26.9  -0.4                          T                1.7  .22 Ml 2.4         5225124

.
EVENT     293913
    Date      Time       Latitude Longitude    Depth    Ndef Nsta Gap    Mag1  N    Mag2  N    Mag3  N   Author         ID
       rms   OT_Error      Smajor Sminor Az        Err   mdist  Mdist     Err        Err        Err      Quality

2013/03/14 18:48:54.9     44.5067    6.6893      2.0      23    9 075  Ml 1.7  6  Md 1.5  2              bulletin    294013
                                                                                                         _ldg
      0.22   +-  0.05       1.2     .9   73.66 +-  0.0    0.09   1.48   +-0.2      +-0.0                 m i ke

FRANCE
Sta     Dist  EvAz     Phase      Date       Time     TRes  Azim  AzRes  Slow  SRes Def   SNR       Amp   Per   Mag1   Mag2       ID
MBDF  000.23 014.9 m E Pg      2013/03/14 18:48:59.6  -0.1                          T                                        5224703
MBDF  000.23 014.9 m E Sg      2013/03/14 18:49:03.0   0.1                          T                7.4  .29        Md 1.5  5224698
ORIF  000.71 305.8 m E Pg      2013/03/14 18:49:08.2  -0.2                          T                                        5224702
ORIF  000.71 305.8 m E Sg      2013/03/14 18:49:17.5  -0.2                          T                4.2  .23                5224699
SBF   000.84 139.9 m E Pg      2013/03/14 18:49:10.7  -0.1                          T                                        5224707
SBF   000.84 139.9 m E Sg      2013/03/14 18:49:21.9   0.2                          T                4.4  .34        Md 1.6  5224708
FRF   000.95 181.9 m E Pg      2013/03/14 18:49:12.4  -0.3                          T                                        5224701
FRF   000.95 181.9 m E Sn      2013/03/14 18:49:27.2   0.3                          T                2.0  .19 Ml 1.9         5224700
SMRF  000.96 236.9 m E Pg      2013/03/14 18:49:13.0   0.0                          T                                        5224704
SMRF  000.96 236.9 m E Sg      2013/03/14 18:49:25.5   0.0                          T                4.0  .23 Ml 2.0         5224705
LPG   000.99 002.5 m E Pg      2013/03/14 18:49:13.7  -0.2                          T                                        5225450
LPG   000.99 002.5 m E Sg      2013/03/14 18:49:26.7  -0.1                          T                1.3  .30 Ml 1.4         5225451
LMR   001.18 186.4 m E Pg      2013/03/14 18:49:17.0   0.0                          T                                        5224710
LMR   001.18 186.4 m E Sg      2013/03/14 18:49:32.7   0.4                          T                1.1  .21 Ml 1.6         5224709
VIVF  001.48 284.4 m E Pn      2013/03/14 18:49:20.9   0.0                          T                                        5225449
VIVF  001.48 284.4 m E Sg      2013/03/14 18:49:41.5  -0.2                          T                 .9  .25 Ml 1.6         5225448
LPL   001.01 001.7 m E Sg      2013/03/14 18:49:27.2  -0.1                          T                1.4  .30 Ml 1.5         5224706

.
