EVENT     253806
    Date      Time       Latitude Longitude    Depth    Ndef Nsta Gap    Mag1  N    Mag2  N    Mag3  N   Author         ID
       rms   OT_Error      Smajor Sminor Az        Err   mdist  Mdist     Err        Err        Err      Quality

2011/01/15 13:15:56.2     44.1713    8.6945     25.0      38   11 217  Ml 2.6 13  Md 2.3  3              js067245    253826

      0.46   +-  0.10       1.9    1.3   60.22 +-  0.0    0.93   3.48   +-0.5      +-0.1                 m i ke

NORTHERN ITALY
Sta     Dist  EvAz     Phase      Date       Time     TRes  Azim  AzRes  Slow  SRes Def   SNR       Amp   Per   Mag1   Mag2       ID
SBF   000.96 251.7 m E P       2011/01/15 13:16:13.8  -0.4                          T                                        4583196
SBF   000.96 251.7 m E Sn      2011/01/15 13:16:24.3  -0.1                          T                                        4583686
SBF   000.96 251.7 m E Sg      2011/01/15 13:16:27.5   0.0                          T              144.9  .22 Ml 3.6 Md 2.3  4583191
MBDF  001.49 292.6 m E Pn      2011/01/15 13:16:19.9   0.1                          T                                        4583197
MBDF  001.49 292.6 m E Pg      2011/01/15 13:16:24.1  -0.2                          T                                        4583195
MBDF  001.49 292.6 m E Sg      2011/01/15 13:16:43.1  -0.6                          T               12.1  .22 Ml 2.8 Md 2.2  4583190
FRF   001.60 248.3 m E Pn      2011/01/15 13:16:21.4   0.2                          T                                        4583183
FRF   001.60 248.3 m E P       2011/01/15 13:16:23.4   0.0                          T                                        4583193
FRF   001.60 248.3 m E Sn      2011/01/15 13:16:39.7   0.1                          T               25.1  .28 Ml 3.1 Md 2.4  4583185
PGF   001.64 172.1 m E Pn      2011/01/15 13:16:21.8  -0.1                          T                                        4583181
PGF   001.64 172.1 m E Sn      2011/01/15 13:16:40.3  -0.4                          T                2.6  .20 Ml 2.5         4583176
LMR   001.79 242.9 m E Pn      2011/01/15 13:16:24.0   0.2                          T                                        4583182
LMR   001.79 242.9 m E P       2011/01/15 13:16:26.0  -0.1                          T                                        4583685
LMR   001.79 242.9 m E Sn      2011/01/15 13:16:44.5   0.3                          T               13.4  .22 Ml 3.0         4583184
LPG   001.92 314.5 m E Pn      2011/01/15 13:16:26.2   0.3                          T                                        4583178
LPG   001.92 314.5 m E Pg      2011/01/15 13:16:32.5   0.1                          T                                        4583174
LPG   001.92 314.5 m E Sg      2011/01/15 13:16:57.2  -0.1                          T                3.8  .32 Ml 2.3         4583187
LPL   001.94 314.6 m E Pn      2011/01/15 13:16:26.3   0.2                          T                                        4583179
LPL   001.94 314.6 m E Pg      2011/01/15 13:16:32.6  -0.1                          T                                        4583175
LPL   001.94 314.6 m E Sg      2011/01/15 13:16:57.8  -0.1                          T                2.7  .22 Ml 2.3         4583188
ORIF  002.15 291.3 m E Pn      2011/01/15 13:16:28.7   0.0                          T                                        4583180
ORIF  002.15 291.3 m E Pg      2011/01/15 13:16:36.5   0.1                          T                                        4583192
ORIF  002.15 291.3 m E Sg      2011/01/15 13:17:03.7  -0.5                          T                4.8  .29 Ml 2.4         4583189
SMRF  002.26 266.1 m E Pn      2011/01/15 13:16:30.2   0.0                          T                                        4583177
SMRF  002.26 266.1 m E Pg      2011/01/15 13:16:37.9  -0.4                          T                                        4583194
SMRF  002.26 266.1 m E Sg      2011/01/15 13:17:07.4  -0.1                          T               21.5  .30 Ml 3.1         4583186
VIVF  002.96 284.8 m E Pn      2011/01/15 13:16:39.5  -0.3                          T                                        4583683
VIVF  002.96 284.8 m E Pg      2011/01/15 13:16:50.7  -0.5                          T                                        4583682
VIVF  002.96 284.8 m E Sg      2011/01/15 13:17:29.1  -0.2                          T                2.0  .28 Ml 2.3         4583684
LASF  003.48 270.1 m E P       2011/01/15 13:16:50.4   0.1                          T                                        4583680
LASF  003.48 270.1 m E Sn      2011/01/15 13:17:24.6  -0.1                          T                 .7  .27 Ml 1.9         4583681

.
EVENT     253807
    Date      Time       Latitude Longitude    Depth    Ndef Nsta Gap    Mag1  N    Mag2  N    Mag3  N   Author         ID
       rms   OT_Error      Smajor Sminor Az        Err   mdist  Mdist     Err        Err        Err      Quality

2011/01/15 18:23:25.9     44.5043    7.2418      2.0      20    9 186  Ml 1.9  8  Md 1.9  3              js067245    253827

      0.21   +-  0.08       1.8     .8   77.15 +-  0.0    0.40   1.87   +-0.3      +-0.1                 m i ke

NORTHERN ITALY
Sta     Dist  EvAz     Phase      Date       Time     TRes  Azim  AzRes  Slow  SRes Def   SNR       Amp   Per   Mag1   Mag2       ID
MBDF  000.40 303.7 m E Pg      2011/01/15 18:23:34.1   0.3                          T                                        4583217
MBDF  000.40 303.7 m E Sg      2011/01/15 18:23:39.2   0.0                          T               12.8  .20        Md 1.8  4583213
SBF   000.66 167.7 m E Pg      2011/01/15 18:23:38.3  -0.1                          T                                        4583203
SBF   000.66 167.7 m E Sg      2011/01/15 18:23:46.9  -0.1                          T                6.0  .33        Md 1.9  4583204
FRF   001.04 204.7 m E Pg      2011/01/15 18:23:45.3   0.0                          T                                        4583214
FRF   001.04 204.7 m E Sg      2011/01/15 18:23:58.7  -0.1                          T                5.2  .31 Ml 2.1 Md 1.9  4583211
ORIF  001.06 293.6 m E Pg      2011/01/15 18:23:45.6  -0.2                          T                                        4583215
ORIF  001.06 293.6 m E Sg      2011/01/15 18:23:58.8  -0.7                          T                2.3  .26 Ml 1.8         4583212
LPG   001.05 340.9 m E Pg      2011/01/15 18:23:46.0   0.0                          T                                        4583209
LPG   001.05 340.9 m E Sg      2011/01/15 18:23:59.7   0.0                          T                1.7  .24 Ml 1.7         4583206
LPL   001.07 340.5 m E Pg      2011/01/15 18:23:46.3   0.0                          T                                        4583208
LPL   001.07 340.5 m E Sg      2011/01/15 18:23:59.9  -0.4                          T                1.5  .30 Ml 1.5         4583207
LMR   001.28 204.6 m E Pg      2011/01/15 18:23:49.9   0.0                          T                                        4583202
LMR   001.28 204.6 m E Sg      2011/01/15 18:24:06.4   0.0                          T                5.7  .27 Ml 2.3         4583205
SMRF  001.31 246.8 m E Pg      2011/01/15 18:23:50.5   0.1                          T                                        4583216
SMRF  001.31 246.8 m E Sg      2011/01/15 18:24:07.6   0.3                          T                4.1  .31 Ml 2.1         4583210
VIVF  001.87 281.8 m E Pn      2011/01/15 18:23:57.1  -0.1                          T                                        4583201
VIVF  001.87 281.8 m E Sn      2011/01/15 18:24:20.1   0.1                          T                1.4  .49 Ml 1.6         4583200

.
EVENT     253808
    Date      Time       Latitude Longitude    Depth    Ndef Nsta Gap    Mag1  N    Mag2  N    Mag3  N   Author         ID
       rms   OT_Error      Smajor Sminor Az        Err   mdist  Mdist     Err        Err        Err      Quality

2011/01/15 20:32:46.4     44.4070    7.0929      2.0      22   10 154  Ml 2.6  9  Md 2.5  3              js067245    253828

      0.16   +-  0.04       1.1     .6   70.23 +-  0.0    0.39   2.32   +-0.4      +-0.0                 m i ke

NORTHERN ITALY
Sta     Dist  EvAz     Phase      Date       Time     TRes  Azim  AzRes  Slow  SRes Def   SNR       Amp   Per   Mag1   Mag2       ID
MBDF  000.39 324.4 m E Pg      2011/01/15 20:32:54.1  -0.1                          T                                        4583239
MBDF  000.39 324.4 m E Sg      2011/01/15 20:32:59.7   0.3                          T               79.8  .24        Md 2.5  4583232
SBF   000.60 155.5 m E Pg      2011/01/15 20:32:58.0   0.2                          T                                        4583233
SBF   000.60 155.5 m E Sg      2011/01/15 20:33:05.6  -0.1                          T               28.3  .22        Md 2.5  4583224
FRF   000.91 201.0 m E Pg      2011/01/15 20:33:03.4   0.0                          T                                        4583234
FRF   000.91 201.0 m E Sg      2011/01/15 20:33:15.0  -0.2                          T               55.0  .20 Ml 3.3 Md 2.5  4583231
ORIF  001.01 301.0 m E Pg      2011/01/15 20:33:05.3  -0.1                          T                                        4583238
ORIF  001.01 301.0 m E Sg      2011/01/15 20:33:18.2  -0.2                          T               15.2  .26 Ml 2.6         4583230
LPG   001.12 347.6 m E Pg      2011/01/15 20:33:07.6  -0.1                          T                                        4583236
LPG   001.12 347.6 m E Sg      2011/01/15 20:33:22.1  -0.1                          T                9.9  .30 Ml 2.4         4583228
LMR   001.15 201.7 m E Pg      2011/01/15 20:33:07.9   0.0                          T                                        4583225
LMR   001.15 201.7 m E Sg      2011/01/15 20:33:22.4  -0.5                          T               33.2  .20 Ml 3.1         4583226
LPL   001.14 347.1 m E Pg      2011/01/15 20:33:08.1   0.1                          T                                        4583237
LPL   001.14 347.1 m E Sg      2011/01/15 20:33:22.7  -0.1                          T                7.2  .26 Ml 2.3         4583229
SMRF  001.17 249.0 m E Pg      2011/01/15 20:33:09.1   0.7                          T                                        4583235
SMRF  001.17 249.0 m E Sg      2011/01/15 20:33:24.0   0.4                          T                9.7  .24 Ml 2.5         4583227
VIVF  001.79 285.4 m E Pn      2011/01/15 20:33:16.7   0.1                          T                                        4583221
VIVF  001.79 285.4 m E Sn      2011/01/15 20:33:38.8   0.2                          T                3.0  .28 Ml 2.2         4583220
PGF   002.32 142.6 m E Pn      2011/01/15 20:33:23.9   0.0                          T                                        4583222
PGF   002.32 142.6 m E Sn      2011/01/15 20:33:51.3   0.0                          T                2.7  .21 Ml 2.6         4583223

.
EVENT     253809
    Date      Time       Latitude Longitude    Depth    Ndef Nsta Gap    Mag1  N    Mag2  N    Mag3  N   Author         ID
       rms   OT_Error      Smajor Sminor Az        Err   mdist  Mdist     Err        Err        Err      Quality

2011/01/15 22:02:08.9     46.1149    8.0149      7.0 f    18    4 144  Ml 2.2  5  Md 2.4  3              js067245    253829

      0.15   +-  0.05       1.2     .6  124.43 +-  0.0    0.07   1.92   +-0.1      +-0.0                 m i ke

SWITZERLAND
Sta     Dist  EvAz     Phase      Date       Time     TRes  Azim  AzRes  Slow  SRes Def   SNR       Amp   Per   Mag1   Mag2       ID
LPL   001.08 236.7 m E Pg      2011/01/15 22:02:29.2  -0.2                          T                                        4583247
LPL   001.08 236.7 m E Sg      2011/01/15 22:02:43.4   0.0                          T                4.7  .28 Ml 2.1 Md 2.4  4583242
LPG   001.08 235.5 m E Pg      2011/01/15 22:02:29.3  -0.3                          T                                        4583246
LPG   001.08 235.5 m E Sg      2011/01/15 22:02:43.5   0.0                          T                5.2  .25 Ml 2.2 Md 2.4  4583241
MBDF  001.64 212.7 m E Pg      2011/01/15 22:02:39.1  -0.6                          T                                        4583245
MBDF  001.64 212.7 m E Sg      2011/01/15 22:03:01.2   0.3                          T                3.9  .28 Ml 2.2 Md 2.3  4583243
ORIF  001.92 232.2 m E Pg      2011/01/15 22:02:44.7  -0.1                          T                                        4583244
ORIF  001.92 232.2 m E Sg      2011/01/15 22:03:09.6   0.1                          T                2.3  .30 Ml 2.1         4583240

.
EVENT     253803
    Date      Time       Latitude Longitude    Depth    Ndef Nsta Gap    Mag1  N    Mag2  N    Mag3  N   Author         ID
       rms   OT_Error      Smajor Sminor Az        Err   mdist  Mdist     Err        Err        Err      Quality

2011/01/15 22:30:51.6     42.9892   -1.3809      2.0      53    7 059  Ml 2.2  6  Md 2.4  3              js067245    253823

      0.68   +-  0.08       1.5    1.4  119.61 +-  0.0    0.17   4.10   +-0.2      +-0.1                 m i ke

PYRENEES
Sta     Dist  EvAz     Phase      Date       Time     TRes  Azim  AzRes  Slow  SRes Def   SNR       Amp   Per   Mag1   Mag2       ID
SJPF  000.17 042.6 m E Pg      2011/01/15 22:30:55.0  -0.1                          T                                        4583269
SJPF  000.17 042.6 m E Sg      2011/01/15 22:30:57.4   0.0                          T              130.9  .22        Md 2.5  4583256
ETSF  000.61 098.3 m E Pg      2011/01/15 22:31:02.6  -0.6                          T                                        4583268
ETSF  000.61 098.3 m E Sg      2011/01/15 22:31:11.1  -0.1                          T                9.1  .22        Md 2.4  4583257
EPF   001.26 087.6 m E Pg      2011/01/15 22:31:14.2  -1.1                          T                                        4583267
EPF   001.26 087.6 m E Sg      2011/01/15 22:31:31.7   0.1                          T                6.7  .27 Ml 2.3 Md 2.4  4583258
LFF   002.48 037.4 m E Pn      2011/01/15 22:31:31.3   0.2                          T                                        4583261
LFF   002.48 037.4 m E Pg      2011/01/15 22:31:37.8   0.2                          T                                        4583266
LFF   002.48 037.4 m E Sn      2011/01/15 22:32:00.2   0.0                          T                2.3  .24 Ml 2.1         4583254
MTLF  002.66 081.2 m E Pn      2011/01/15 22:31:33.5  -0.1                          T                                        4583263
MTLF  002.66 081.2 m E Pg      2011/01/15 22:31:40.8   0.0                          T                                        4583264
MTLF  002.66 081.2 m E Sg      2011/01/15 22:32:15.0   0.0                          T                1.2  .32 Ml 1.9         4583259
RJF   003.12 041.0 m E Pn      2011/01/15 22:31:39.8   0.0                          T                                        4583262
RJF   003.12 041.0 m E Sn      2011/01/15 22:32:15.4   0.0                          T                3.1  .31 Ml 2.1         4583253
CAF   003.15 050.9 m E Pn      2011/01/15 22:31:40.3  -0.1                          T                                        4583260
CAF   003.15 050.9 m E Pg      2011/01/15 22:31:49.9  -0.1                          T                                        4583265
CAF   003.15 050.9 m E Sn      2011/01/15 22:32:16.2  -0.1                          T                4.1  .32 Ml 2.6         4583255

.
EVENT     253822
    Date      Time       Latitude Longitude    Depth    Ndef Nsta Gap    Mag1  N    Mag2  N    Mag3  N   Author         ID
       rms   OT_Error      Smajor Sminor Az        Err   mdist  Mdist     Err        Err        Err      Quality

2011/01/16 01:40:23.3     47.5415    7.9148     18.0 f    12    6 120  Ml 1.4  5  Md 1.7  3              js067245    253842

      0.22   +-  0.06       1.1     .9  144.11 +-  0.0    0.14   1.56   +-0.4      +-0.0                 m i ke

SWITZERLAND
Sta     Dist  EvAz     Phase      Date       Time     TRes  Azim  AzRes  Slow  SRes Def   SNR       Amp   Per   Mag1   Mag2       ID
HINF  000.77 291.4 m E Pg      2011/01/16 01:40:38.2   0.1                          T                                        4583281
HINF  000.77 291.4 m E Sg      2011/01/16 01:40:48.0  -0.4                          T                 .7  .31        Md 1.8  4583272
CDF   000.97 334.0 m E Pg      2011/01/16 01:40:42.1   0.2                          T                                        4583280
CDF   000.97 334.0 m E Sg      2011/01/16 01:40:54.4  -0.3                          T                 .5  .33 Ml 1.1 Md 1.8  4583275
HAU   001.15 294.3 m E Pg      2011/01/16 01:40:45.2   0.1                          T                                        4583279
HAU   001.15 294.3 m E Sg      2011/01/16 01:41:00.0  -0.2                          T                1.0  .28 Ml 1.2 Md 1.7  4583273
LANF  001.44 357.1 m E Pg      2011/01/16 01:40:50.7   0.3                          T                                        4583277
LANF  001.44 357.1 m E Sg      2011/01/16 01:41:09.3   0.2                          T                2.4  .30 Ml 1.9         4583276
THEF  001.46 298.7 m E Pg      2011/01/16 01:40:50.9   0.1                          T                                        4583278
THEF  001.46 298.7 m E Sg      2011/01/16 01:41:09.6  -0.2                          T                1.7  .28 Ml 1.8         4583274
CABF  001.56 234.0 m E Pg      2011/01/16 01:40:53.0   0.4                          T                                        4583270
CABF  001.56 234.0 m E Sg      2011/01/16 01:41:13.1   0.3                          T                 .2  .32 Ml 1           4583271

.
