EVENT     273350
    Date      Time       Latitude Longitude    Depth    Ndef Nsta Gap    Mag1  N    Mag2  N    Mag3  N   Author         ID
       rms   OT_Error      Smajor Sminor Az        Err   mdist  Mdist     Err        Err        Err      Quality

2012/04/11 09:53:39.0     43.5066    6.5916       .0 f     7    4 139  Ml 1.4  1  Md 1.7  2              js067245    273370

      0.80   +-  0.41      13.8    7.2  127.10 +-  0.0    0.07   0.87   +-         +-0.1                 m i km

NEAR SOUTH COAST OF FRANCE
Sta     Dist  EvAz     Phase      Date       Time     TRes  Azim  AzRes  Slow  SRes Def   SNR       Amp   Per   Mag1   Mag2       ID
FRF   000.07 036.5 m E Pg      2012/04/11 09:53:39.8  -0.9                          T                                        4910606
FRF   000.07 036.5 m E Sg      2012/04/11 09:53:40.8  -1.0                          T              316.5  .46        Md 1.6  4910605
LMR   000.18 199.2 m E Pg      2012/04/11 09:53:42.7  -0.2                          T                                        4910604
LMR   000.18 199.2 m E Sg      2012/04/11 09:53:46.0   0.4                          T               52.2  .54        Md 1.8  4910603
SBF   000.71 059.5 m E Pg      2012/04/11 09:53:53.5   0.8                          T                                        4912434
SBF   000.71 059.5 m E Sg      2012/04/11 09:54:03.3   1.1                          T                4.8  .19                4912435
SMRF  000.87 302.9 m E Sg      2012/04/11 09:54:08.2   1.0                          T                  1  .22 Ml 1.4         4912433

.
EVENT     273351
    Date      Time       Latitude Longitude    Depth    Ndef Nsta Gap    Mag1  N    Mag2  N    Mag3  N   Author         ID
       rms   OT_Error      Smajor Sminor Az        Err   mdist  Mdist     Err        Err        Err      Quality

2012/04/11 09:55:45.7     40.9295   -2.9821       .0 f    10    4 334  Ml 2.6  4                         js067245    273371

      0.16   +-  0.33       8.4    6.1  139.95 +-  0.0    2.54   4.56   +-0.2                            m i km

SPAIN
Sta     Dist  EvAz     Phase      Date       Time     TRes  Azim  AzRes  Slow  SRes Def   SNR       Amp   Per   Mag1   Mag2       ID
SJPF  002.54 030.4 m E Pn      2012/04/11 09:56:26.4  -0.2                          T                                        4910744
SJPF  002.54 030.4 m E Pg      2012/04/11 09:56:33.2   0.1                          T                                        4912436
SJPF  002.54 030.4 m E Sn      2012/04/11 09:56:56.4  -0.2                          T                6.2  .26 Ml 2.7         4910747
ETSF  002.67 041.8 m E Pn      2012/04/11 09:56:28.3  -0.1                          T                                        4910746
ETSF  002.67 041.8 m E Pg      2012/04/11 09:56:35.9   0.2                          T                                        4912440
ETSF  002.67 041.8 m E Sn      2012/04/11 09:56:58.5  -1.2                          T                2.8  .19 Ml 2.5         4910745
EPF   003.25 048.6 m E Pn      2012/04/11 09:56:36.3   0.1                          T                                        4910743
EPF   003.25 048.6 m E Pg      2012/04/11 09:56:46.8   0.7                          T                                        4912437
EPF   003.25 048.6 m E Sn      2012/04/11 09:57:13.2  -0.2                          T                6.3  .28 Ml 2.8         4912439
MTLF  004.56 056.4 m E Sn      2012/04/11 09:57:44.4  -0.2                          T                 .8  .21 Ml 2.4         4912438

.
EVENT     273352
    Date      Time       Latitude Longitude    Depth    Ndef Nsta Gap    Mag1  N    Mag2  N    Mag3  N   Author         ID
       rms   OT_Error      Smajor Sminor Az        Err   mdist  Mdist     Err        Err        Err      Quality

2012/04/11 10:03:53.6     47.1798    4.8934       .0 f    13    7 131  Ml 2.6  4  Md 2.1  2              js067245    273372

      0.26   +-  0.09       2.9    1.4  167.51 +-  0.0    0.71   1.47   +-0.2      +-0.2                 m i km

FRANCE
Sta     Dist  EvAz     Phase      Date       Time     TRes  Azim  AzRes  Slow  SRes Def   SNR       Amp   Per   Mag1   Mag2       ID
LOR   000.71 277.5 m E Pg      2012/04/11 10:04:07.0  -0.3                          T                                        4910733
LOR   000.71 277.5 m E Sg      2012/04/11 10:04:17.1   0.3                          T               10.3  .48        Md 1.9  4911449
SMF   000.90 233.8 m E Pg      2012/04/11 10:04:10.8   0.1                          T                                        4911447
SMF   000.90 233.8 m E Sg      2012/04/11 10:04:22.7   0.1                          T               38.8  .52 Ml 2.6         4911448
SSF   000.95 263.4 m E Pg      2012/04/11 10:04:12.2   0.4                          T                                        4910730
SSF   000.95 263.4 m E Sg      2012/04/11 10:04:24.6   0.2                          T               35.9  .42 Ml 2.8 Md 2.2  4910731
CABF  001.00 124.4 m E Pg      2012/04/11 10:04:12.6   0.0                          T                                        4910727
CABF  001.00 124.4 m E Sg      2012/04/11 10:04:25.9   0.1                          T                                        4910726
AVF   001.12 250.3 m E Pg      2012/04/11 10:04:14.5  -0.4                          T                                        4910729
AVF   001.12 250.3 m E Sg      2012/04/11 10:04:29.6  -0.1                          T                                        4910728
HAU   001.29 049.5 m E Pg      2012/04/11 10:04:18.0   0.1                          T                                        4911445
HAU   001.29 049.5 m E Sg      2012/04/11 10:04:35.0   0.3                          T               15.8  .48 Ml 2.2         4911446
HINF  001.47 063.7 m E Sg      2012/04/11 10:04:40.2  -0.4                          T                8.3  .26 Ml 2.5         4912441

.
EVENT     273582
    Date      Time       Latitude Longitude    Depth    Ndef Nsta Gap    Mag1  N    Mag2  N    Mag3  N   Author         ID
       rms   OT_Error      Smajor Sminor Az        Err   mdist  Mdist     Err        Err        Err      Quality

2012/04/11 10:05:56.1     45.7590    3.2633       .0 f    12    6 201  Ml 2.6  1  Md 2.2  3              bulletin    273602
                                                                                                         _ldg
      0.77   +-  0.39       7.9    4.2  121.48 +-  0.0    0.49   1.31   +-         +-0.3                 m i km

FRANCE
Sta     Dist  EvAz     Phase      Date       Time     TRes  Azim  AzRes  Slow  SRes Def   SNR       Amp   Per   Mag1   Mag2       ID
BGF   000.85 340.2 m E Pg      2012/04/11 10:06:12.5   0.1                          T                                        4910749
BGF   000.85 340.2 m E Sg      2012/04/11 10:06:24.9   1.3                          T                                Md 1.9  4910748
TCF   000.90 306.2 m E Pg      2012/04/11 10:06:13.3  -0.1                          T                                        4910757
TCF   000.90 306.2 m E Sg      2012/04/11 10:06:26.3   1.0                          T                                        4910756
SMF   000.97 024.1 m E Pg      2012/04/11 10:06:14.4  -0.2                          T                                        4910752
SMF   000.97 024.1 m E Sg      2012/04/11 10:06:28.5   1.1                          T                                Md 2.0  4910750
AVF   001.03 003.4 m E Pg      2012/04/11 10:06:15.5  -0.2                          T                                        4910753
AVF   001.03 003.4 m E Sg      2012/04/11 10:06:30.6   1.4                          T                                        4910751
CAF   001.19 225.8 m E Pg      2012/04/11 10:06:18.8   0.2                          T                                        4912444
CAF   001.19 225.8 m E Sg      2012/04/11 10:06:35.2   1.1                          T               33.1  .72 Ml 2.6         4912445
SSF   001.31 007.3 m E Pg      2012/04/11 10:06:20.2  -0.6                          T                                        4910755
SSF   001.31 007.3 m E Sg      2012/04/11 10:06:39.2   1.2                          T                                        4910754

.
EVENT     273355
    Date      Time       Latitude Longitude    Depth    Ndef Nsta Gap    Mag1  N    Mag2  N    Mag3  N   Author         ID
       rms   OT_Error      Smajor Sminor Az        Err   mdist  Mdist     Err        Err        Err      Quality

2012/04/11 10:08:50.9     48.3243    -.2232       .0 f     7    4 254  Ml 2.2  1  Md 1.9  2              js067245    273375

      0.43   +-  0.25       4.7    1.5  147.00 +-  0.0    0.28   1.56   +-         +-0.1                 m i ke

FRANCE
Sta     Dist  EvAz     Phase      Date       Time     TRes  Azim  AzRes  Slow  SRes Def   SNR       Amp   Per   Mag1   Mag2       ID
LDF   000.28 014.0 m E Pg      2012/04/11 10:08:56.7   0.2                          T                                        4910763
LDF   000.28 014.0 m E Sg      2012/04/11 10:09:00.3  -0.2                          T              138.9  .90        Md 2.0  4910762
GRR   000.43 278.8 m E Pg      2012/04/11 10:08:59.2  -0.1                          T                                        4910759
GRR   000.43 278.8 m E Sg      2012/04/11 10:09:05.3   0.1                          T              134.2 1.38        Md 1.8  4910758
FLN   000.47 338.7 m E Pg      2012/04/11 10:09:00.2   0.1 156.9  -1.6              T                                        4910761
FLN   000.47 338.7 m E Sg      2012/04/11 10:09:06.4  -0.2 155.1  -3.4              T               87.1  .72                4910760
SGMF  001.56 268.3 m E Sg      2012/04/11 10:09:40.4  -0.1                          T                2.9  .23 Ml 2.2         4912448

.
EVENT     273356
    Date      Time       Latitude Longitude    Depth    Ndef Nsta Gap    Mag1  N    Mag2  N    Mag3  N   Author         ID
       rms   OT_Error      Smajor Sminor Az        Err   mdist  Mdist     Err        Err        Err      Quality

2012/04/11 10:10:17.3     43.4659    6.7794       .0 f     7    4 186  Ml 1.5  1  Md 1.3  2              js067245    273376

      0.66   +-  0.36       8.9    5.4  151.34 +-  0.0    0.14   1.01   +-         +-0.2                 m i km

NEAR SOUTH COAST OF FRANCE
Sta     Dist  EvAz     Phase      Date       Time     TRes  Azim  AzRes  Slow  SRes Def   SNR       Amp   Per   Mag1   Mag2       ID
FRF   000.14 314.5 m E Pg      2012/04/11 10:10:20.0  -0.4                          T                                        4910767
FRF   000.14 314.5 m E Sg      2012/04/11 10:10:22.0  -0.5                          T               52.3  .24        Md 1.4  4910766
LMR   000.24 236.3 m E Pg      2012/04/11 10:10:22.3   0.0                          T                                        4910765
LMR   000.24 236.3 m E Sg      2012/04/11 10:10:25.9   0.2                          T                8.3  .21        Md 1.2  4910764
SBF   000.62 049.9 m E Pg      2012/04/11 10:10:29.1  -0.3                          T                                        4912449
SBF   000.62 049.9 m E Sg      2012/04/11 10:10:39.0   1.3                          T                4.3  .22                4912450
SMRF  001.01 300.7 m E Sg      2012/04/11 10:10:51.3   1.4                          T                1.2  .25 Ml 1.5         4912451

.
EVENT     273337
    Date      Time       Latitude Longitude    Depth    Ndef Nsta Gap    Mag1  N    Mag2  N    Mag3  N   Author         ID
       rms   OT_Error      Smajor Sminor Az        Err   mdist  Mdist     Err        Err        Err      Quality

2012/04/11 10:19:53.7     44.7297    6.7667      4.0 f    27    6 099  Ml 1.9  1  Md 1.6  2              js067245    273357

      0.22   +-  0.04        .9     .7   50.80 +-  0.0    0.00   1.41   +-         +-0.1                 m i ke

FRANCE
Sta     Dist  EvAz     Phase      Date       Time     TRes  Azim  AzRes  Slow  SRes Def   SNR       Amp   Per   Mag1   Mag2       ID
MBDF  000.00 129.8 m E Pg      2012/04/11 10:19:55.0   0.1                          T                                        4910334
MBDF  000.00 129.8 m E Sg      2012/04/11 10:19:56.0   0.5                          T               49.7  .18        Md 1.7  4910333
ORIF  000.66 287.0 m E Pg      2012/04/11 10:20:06.3   0.0                          T                                        4910332
ORIF  000.66 287.0 m E P       2012/04/11 10:20:07.8   0.0                          T                                        4910336
ORIF  000.66 287.0 m E Sg      2012/04/11 10:20:14.3  -0.7                          T                2.8  .27        Md 1.5  4910331
LPL   000.79 358.2 m E Pg      2012/04/11 10:20:08.8  -0.1                          T                                        4910335
LPG   000.77 359.2 m E Pn      2012/04/11 10:20:10.4   0.3                          T                                        4910329
LPG   000.77 359.2 m E Sg      2012/04/11 10:20:18.4  -0.2                          T                3.3  .27                4910330
FRF   001.17 184.3 m E Pg      2012/04/11 10:20:16.9   1.3                          T                                        4910328
LMR   001.41 187.7 m E Sg      2012/04/11 10:20:38.5   0.4                          T                1.7  .23 Ml 1.9         4910327

.
EVENT     273338
    Date      Time       Latitude Longitude    Depth    Ndef Nsta Gap    Mag1  N    Mag2  N    Mag3  N   Author         ID
       rms   OT_Error      Smajor Sminor Az        Err   mdist  Mdist     Err        Err        Err      Quality

2012/04/11 10:43:56.9     49.0381    5.3523       .0 f    16   10 133  Ml 2.2  8  Md 2.3  2              js067245    273358

      0.42   +-  0.08       2.2    1.1   67.15 +-  0.0    0.54   2.03   +-0.1      +-0.0                 m i km

FRANCE
Sta     Dist  EvAz     Phase      Date       Time     TRes  Azim  AzRes  Slow  SRes Def   SNR       Amp   Per   Mag1   Mag2       ID
MEZF  000.57 200.4 m E Pg      2012/04/11 10:44:07.9  -0.2                          T                                        4912471
MEZF  000.57 200.4 m E Sg      2012/04/11 10:44:15.7  -0.1  23.6  3.4               T               76.5 1.14        Md 2.3  4912472
PAGF  000.54 152.8 m E P       2012/04/11 10:44:08.1  -0.3                          T                                        4912474
PAGF  000.54 152.8 m E Sn      2012/04/11 10:44:30.9  -0.5                          T               14.4  .81        Md 2.2  4912473
SFTF  000.86 194.1 m E Pg      2012/04/11 10:44:13.3  -0.1                          T                                        4912476
SFTF  000.86 194.1 m E Sg      2012/04/11 10:44:24.7  -0.1                          T                7.8  .31 Ml 2.2         4912477
THEF  000.92 152.1 m E Pg      2012/04/11 10:44:14.8   0.4                          T                                        4912481
THEF  000.92 152.1 m E Sg      2012/04/11 10:44:26.5   0.0                          T               18.8  .55 Ml 2.3         4912482
GIVF  001.12 342.3 m E Pg      2012/04/11 10:44:18.4   0.3                          T                                        4912468
GIVF  001.12 342.3 m E Sg      2012/04/11 10:44:33.3   0.5                          T                5.9  .26 Ml 2.2         4912469
HAU   001.23 147.0 m E Pg      2012/04/11 10:44:19.8  -0.3                          T                                        4912479
HAU   001.23 147.0 m E Sg      2012/04/11 10:44:36.4   0.1                          T                8.6  .24 Ml 2.2         4912480
BAIF  001.27 324.3 m E Sg      2012/04/11 10:44:37.5   0.2                          T                4.4  .43 Ml 1.9         4912467
CDF   001.42 115.5 m E Sn      2012/04/11 10:44:40.3  -0.7                          T                5.0  .30 Ml 2.3         4912475
HINF  001.58 140.2 m E Sg      2012/04/11 10:44:47.2  -0.1                          T                3.2  .26 Ml 2.2         4912478
LOR   002.03 210.0 m E Sg      2012/04/11 10:45:01.6   0.2  26.2  -2.7              T                5.0  .42 Ml 2.3         4912470

.
EVENT     273357
    Date      Time       Latitude Longitude    Depth    Ndef Nsta Gap    Mag1  N    Mag2  N    Mag3  N   Author         ID
       rms   OT_Error      Smajor Sminor Az        Err   mdist  Mdist     Err        Err        Err      Quality

2012/04/11 10:45:53.6     48.0926   -1.0452       .0 f     9    5 213  Ml 2.6  2  Md 1.8  1              js067245    273377

      0.44   +-  0.39      11.9    2.8  155.18 +-  0.0    0.32   1.51   +-0.3      +-                    m i km

FRANCE
Sta     Dist  EvAz     Phase      Date       Time     TRes  Azim  AzRes  Slow  SRes Def   SNR       Amp   Per   Mag1   Mag2       ID
GRR   000.32 022.8 m E Pg      2012/04/11 10:45:59.8  -0.3                          T                                        4910778
GRR   000.32 022.8 m E Sg      2012/04/11 10:46:04.3  -0.3                          T               27.2  .33        Md 1.8  4910777
LDF   000.79 050.5 m E Pg      2012/04/11 10:46:08.9   0.1                          T                                        4910776
LDF   000.79 050.5 m E Sg      2012/04/11 10:46:20.3   1.0                          T               10.8  .26                4910775
SGMF  001.02 279.6 m E Pg      2012/04/11 10:46:13.8   0.8                          T                                        4910770
SGMF  001.02 279.6 m E Sg      2012/04/11 10:46:27.4   0.8                          T               24.1  .28 Ml 2.8         4910769
QUIF  001.43 263.7 m E Pg      2012/04/11 10:46:20.4  -0.2                          T                                        4910772
QUIF  001.43 263.7 m E Sg      2012/04/11 10:46:39.9   0.6                          T                6.0  .26 Ml 2.4         4910771
ROSF  001.51 280.1 m E Pg      2012/04/11 10:46:21.9  -0.1                          T                                        4910768

.
EVENT     273359
    Date      Time       Latitude Longitude    Depth    Ndef Nsta Gap    Mag1  N    Mag2  N    Mag3  N   Author         ID
       rms   OT_Error      Smajor Sminor Az        Err   mdist  Mdist     Err        Err        Err      Quality

2012/04/11 11:27:00.6     42.1873    2.6416       .0 f    11    3 302  Ml 2.1  4  Md 2.1  1              js067245    273379

      0.88   +-  0.37       6.4    4.1  140.09 +-  0.0    1.19   2.47   +-0.1      +-                    m i ke

PYRENEES
Sta     Dist  EvAz     Phase      Date       Time     TRes  Azim  AzRes  Slow  SRes Def   SNR       Amp   Per   Mag1   Mag2       ID
MTLF  001.19 345.0 m E Pn      2012/04/11 11:27:23.1   0.1                          T                                        4910787
MTLF  001.19 345.0 m E Pg      2012/04/11 11:27:23.3   0.1                          T                                        4910779
MTLF  001.19 345.0 m E Sg      2012/04/11 11:27:38.3  -0.5                          T                2.8  .23 Ml 2.0 Md 2.1  4910786
EPF   001.90 297.1 m E Pn      2012/04/11 11:27:32.9   0.2                          T                                        4910785
EPF   001.90 297.1 m E Sn      2012/04/11 11:27:55.9  -0.1                          T                1.5  .14 Ml 2.2         4910784
EPF   001.90 297.1 m E Sg      2012/04/11 11:28:00.4  -0.4                          T                                        4910783
ETSF  002.47 287.8 m E Pn      2012/04/11 11:27:40.4  -0.1                          T                                        4910782
ETSF  002.47 287.8 m E Sn      2012/04/11 11:28:09.7   0.0                          T                1.4  .24 Ml 2.1         4910781
ETSF  002.47 287.8 m E Sg      2012/04/11 11:28:18.4  -0.3                          T                                        4910780

.
