EVENT     257896
    Date      Time       Latitude Longitude    Depth    Ndef Nsta Gap    Mag1  N    Mag2  N    Mag3  N   Author         ID
       rms   OT_Error      Smajor Sminor Az        Err   mdist  Mdist     Err        Err        Err      Quality

2011/04/02 05:46:21.8     46.2244    7.0496      2.0      18    7 129  Ml 1.8  4  Md 1.8  2              js067245    257896

      0.14   +-  0.04       1.0     .5  101.52 +-  0.0    0.05   2.16   +-0.1      +-0.1                 m i ke

SWITZERLAND
Sta     Dist  EvAz     Phase      Date       Time     TRes  Azim  AzRes  Slow  SRes Def   SNR       Amp   Per   Mag1   Mag2       ID
LPL   000.74 197.5 m E Pg      2011/04/02 05:46:36.0  -0.1                          T                                        4669209
LPL   000.74 197.5 m E Sg      2011/04/02 05:46:45.7   0.0                          T                1.1  .27        Md 1.9  4669210
CABF  000.77 300.5 m E Pg      2011/04/02 05:46:36.3  -0.1                          T                                        4669205
CABF  000.77 300.5 m E Sg      2011/04/02 05:46:46.4  -0.1                          T                  1  .32                4669206
LPG   000.76 196.1 m E Pg      2011/04/02 05:46:36.5   0.1                          T                                        4669207
LPG   000.76 196.1 m E Sg      2011/04/02 05:46:46.7   0.4                          T                1.3  .22        Md 1.8  4669208
MBDF  001.51 187.5 m E Pg      2011/04/02 05:46:49.9  -0.2                          T                                        4669211
MBDF  001.51 187.5 m E Sg      2011/04/02 05:47:09.6   0.0                          T                 .9  .25 Ml 1.6         4669215
ORIF  001.54 212.6 m E Pg      2011/04/02 05:46:50.7   0.0                          T                                        4669212
ORIF  001.54 212.6 m E Sg      2011/04/02 05:47:10.6   0.0                          T                1.3  .23 Ml 1.8         4669213
HINF  001.60 355.2 m E Pg      2011/04/02 05:46:51.4  -0.2                          T                                        4669203
HINF  001.60 355.2 m E Sg      2011/04/02 05:47:12.2  -0.1                          T                1.9  .28 Ml 1.9         4669204
VIVF  002.16 231.5 m E Sg      2011/04/02 05:47:29.8   0.1                          T                 .8  .19 Ml 1.8         4669214

.
EVENT     257900
    Date      Time       Latitude Longitude    Depth    Ndef Nsta Gap    Mag1  N    Mag2  N    Mag3  N   Author         ID
       rms   OT_Error      Smajor Sminor Az        Err   mdist  Mdist     Err        Err        Err      Quality

2011/04/02 08:59:39.5     45.6160    7.7572      2.0      47   20 149  Ml 2.6 13  Md 2.5  3              js067245    257900

      0.27   +-  0.06       1.4     .8   98.66 +-  0.0    0.10   5.05   +-0.2      +-0.1                 m i ke

NORTHERN ITALY
Sta     Dist  EvAz     Phase      Date       Time     TRes  Azim  AzRes  Slow  SRes Def   SNR       Amp   Per   Mag1   Mag2       ID
LPG   000.72 260.9 m E Pg      2011/04/02 08:59:52.9  -0.5                          T                                        4669246
LPG   000.72 260.9 m E Sg      2011/04/02 09:00:02.9   0.1                          T               30.3  .22        Md 2.6  4669234
LPL   000.73 262.5 m E Pg      2011/04/02 08:59:53.0  -0.5                          T                                        4669247
LPL   000.73 262.5 m E Sg      2011/04/02 09:00:03.0   0.0                          T               37.6  .32        Md 2.6  4669233
MBDF  001.13 218.5 m E Pg      2011/04/02 09:00:00.9   0.0                          T                                        4669249
MBDF  001.13 218.5 m E Sg      2011/04/02 09:00:15.7   0.2                          T               17.1  .20 Ml 2.8 Md 2.4  4669231
ORIF  001.50 242.9 m E Pg      2011/04/02 09:00:07.8   0.3                          T                                        4669248
ORIF  001.50 242.9 m E Sg      2011/04/02 09:00:27.1   0.2                          T               19.6  .35 Ml 2.8         4669232
CABF  001.53 311.2 m E Pg      2011/04/02 09:00:08.8   0.6                          T                                        4669262
CABF  001.53 311.2 m E Sg      2011/04/02 09:00:28.3   0.4                          T                8.6  .30 Ml 2.5         4669228
SBF   001.77 187.6 m E Pn      2011/04/02 09:00:09.6   0.1                          T                                        4669240
SBF   001.77 187.6 m E Pg      2011/04/02 09:00:12.9   0.4                          T                                        4669239
SBF   001.77 187.6 m E Sg      2011/04/02 09:00:34.7  -0.6                          T               20.0  .30 Ml 3.0         4669238
FRF   002.20 201.5 m E P       2011/04/02 09:00:17.6  -0.1                          T                                        4669244
FRF   002.20 201.5 m E Pg      2011/04/02 09:00:20.6   0.1                          T                                        4669243
FRF   002.20 201.5 m E Sg      2011/04/02 09:00:48.6  -0.1                          T                5.0  .24 Ml 2.6         4669236
LMR   002.45 201.8 m E Pn      2011/04/02 09:00:18.4  -0.3                          T                                        4669242
LMR   002.45 201.8 m E Pg      2011/04/02 09:00:25.0   0.0                          T                                        4669241
LMR   002.45 201.8 m E Sg      2011/04/02 09:00:55.8  -0.7                          T                3.3  .28 Ml 2.4         4669237
SMRF  002.26 224.2 m E Pg      2011/04/02 09:00:21.1  -0.4                          T                                        4669245
SMRF  002.26 224.2 m E Sg      2011/04/02 09:00:50.6   0.0                          T                5.4  .40 Ml 2.4         4669235
HINF  002.29 344.5 m E Pg      2011/04/02 09:00:21.9  -0.2                          T                                        4669261
HINF  002.29 344.5 m E Sg      2011/04/02 09:00:51.9   0.4                          T                6.8  .32 Ml 2.6         4669227
VIVF  002.31 251.9 m E Pg      2011/04/02 09:00:22.6   0.1                          T                                        4669250
VIVF  002.31 251.9 m E Sg      2011/04/02 09:00:52.3   0.2                          T                2.1  .30 Ml 2.1         4669230
HAU   002.58 338.5 m E P       2011/04/02 09:00:23.5   0.4                          T                                        4669260
HAU   002.58 338.5 m E Pg      2011/04/02 09:00:28.0   0.6                          T                                        4669259
HAU   002.58 338.5 m E Sg      2011/04/02 09:01:00.7   0.2                          T                5.1  .26 Ml 2.4         4669226
CDF   002.82 353.5 m E P       2011/04/02 09:00:26.4  -0.2                          T                                        4669258
LOR   003.16 302.9 m E P       2011/04/02 09:00:31.1  -0.2                          T                                        4669256
LOR   003.16 302.9 m E Pg      2011/04/02 09:00:37.9  -0.2                          T                                        4669255
LOR   003.16 302.9 m E Sg      2011/04/02 09:01:18.9   0.2                          T                1.9  .21 Ml 2.4         4669224
AVF   003.28 292.6 m E P       2011/04/02 09:00:33.2   0.2                          T                                        4669254
SMF   002.91 292.1 m E Pg      2011/04/02 09:00:33.6   0.1                          T                                        4669252
SMF   002.91 292.1 m E Sg      2011/04/02 09:01:11.2   0.3                          T                4.0  .27 Ml 2.6         4669229
HYF   003.91 296.9 m E P       2011/04/02 09:00:42.4   0.4                          T                                        4669253
CAF   004.08 262.3 m E P       2011/04/02 09:00:44.4   0.0                          T                                        4669251
BAIF  005.05 333.0 m E P       2011/04/02 09:00:58.0  -0.1                          T                                        4669257
SFTF  003.19 325.2 m E Sg      2011/04/02 09:01:19.7   0.1                          T                7.4  .32 Ml 2.8         4669225

.
EVENT     257901
    Date      Time       Latitude Longitude    Depth    Ndef Nsta Gap    Mag1  N    Mag2  N    Mag3  N   Author         ID
       rms   OT_Error      Smajor Sminor Az        Err   mdist  Mdist     Err        Err        Err      Quality

2011/04/02 09:02:10.3     38.4002   12.3911     25.0      13    7 212  Ml 3.2  4                         js067245    257901

      2.10   +-  1.37      86.2   14.5   39.29 +-  0.0    1.35   8.13   +-0.4                            m i ke

SICILY, ITALY
Sta     Dist  EvAz     Phase      Date       Time     TRes  Azim  AzRes  Slow  SRes Def   SNR       Amp   Per   Mag1   Mag2       ID
PGF   004.88 329.1 m E Pn      2011/04/02 09:03:20.8   0.7                          T                                        4669277
PGF   004.88 329.1 m E Sn      2011/04/02 09:04:10.4  -1.9                          T               15.5  .56 Ml 3.5         4669270
LMR   006.64 319.7 m E Pn      2011/04/02 09:03:42.7  -1.2                          T                                        4669272
SBF   006.62 327.2 m E Pn      2011/04/02 09:03:43.5  -0.2                          T                                        4669271
SBF   006.62 327.2 m E Sn      2011/04/02 09:04:49.7  -4.0                          T               19.5  .68 Ml 3.6         4669269
FRF   006.74 321.7 m E Pn      2011/04/02 09:03:44.5  -0.8                          T                                        4669273
FRF   006.74 321.7 m E Sn      2011/04/02 09:04:53.2  -3.4                          T                2.0  .40 Ml 2.9         4669268
SMRF  007.58 319.5 m E Pn      2011/04/02 09:03:55.9  -0.8                          T                                        4669274
MBDF  007.59 328.1 m E Pn      2011/04/02 09:03:58.9   1.8                          T                                        4669276
MBDF  007.59 328.1 m E Sn      2011/04/02 09:05:17.1   0.0                          T                 .6  .23 Ml 2.8         4669265
ORIF  008.13 325.3 m E Pn      2011/04/02 09:04:05.5   1.1                          T                                        4669275

.
EVENT     257902
    Date      Time       Latitude Longitude    Depth    Ndef Nsta Gap    Mag1  N    Mag2  N    Mag3  N   Author         ID
       rms   OT_Error      Smajor Sminor Az        Err   mdist  Mdist     Err        Err        Err      Quality

2011/04/02 15:41:11.2     45.0552    7.5395      2.0      19    9 234  Ml 1.9  6  Md 1.9  3              js067245    257902

      0.22   +-  0.15       2.8    1.3   64.26 +-  0.0    0.64   2.05   +-0.3      +-0.0                 m i ke

NORTHERN ITALY
Sta     Dist  EvAz     Phase      Date       Time     TRes  Azim  AzRes  Slow  SRes Def   SNR       Amp   Per   Mag1   Mag2       ID
MBDF  000.64 239.3 m E Pg      2011/04/02 15:41:23.4   0.0                          T                                        4669296
MBDF  000.64 239.3 m E Sg      2011/04/02 15:41:31.4  -0.5                          T                3.8  .24        Md 1.9  4669297
LPG   000.71 308.8 m E Pg      2011/04/02 15:41:24.8  -0.2                          T                                        4669291
LPG   000.71 308.8 m E Pn      2011/04/02 15:41:26.5  -0.5                          T                                        4669292
LPG   000.71 308.8 m E Sg      2011/04/02 15:41:34.2  -0.1                          T                5.6  .24        Md 2.0  4669293
LPL   000.73 309.3 m E Pg      2011/04/02 15:41:26.0   0.7                          T                                        4669294
LPL   000.73 309.3 m E Sg      2011/04/02 15:41:34.8  -0.1                          T                6.1  .24        Md 1.9  4669295
SBF   001.19 183.6 m E Pg      2011/04/02 15:41:33.6   0.0                          T                                        4669283
SBF   001.19 183.6 m E Sg      2011/04/02 15:41:49.3   0.2                          T                6.0  .30 Ml 2.2         4669284
ORIF  001.19 264.0 m E Pg      2011/04/02 15:41:33.9   0.3                          T                                        4669289
ORIF  001.19 264.0 m E Sg      2011/04/02 15:41:49.4   0.5                          T                7.0  .36 Ml 2.2         4669290
FRF   001.63 203.5 m E Pn      2011/04/02 15:41:39.3   0.1                          T                                        4669282
FRF   001.63 203.5 m E Pg      2011/04/02 15:41:41.5   0.0                          T                                        4669281
FRF   001.63 203.5 m E Sn      2011/04/02 15:41:59.0  -0.4                          T                1.8  .26 Ml 2.0         4669286
SMRF  001.77 233.2 m E Pn      2011/04/02 15:41:41.1  -0.1                          T                                        4669280
SMRF  001.77 233.2 m E Sg      2011/04/02 15:42:06.7  -0.3                          T                 .7  .27 Ml 1.6         4669279
VIVF  002.05 265.4 m E Pn      2011/04/02 15:41:45.0   0.1                          T                                        4669287
VIVF  002.05 265.4 m E Sn      2011/04/02 15:42:09.5   0.0                          T                 .6  .27 Ml 1.5         4669288
LMR   001.87 203.7 m E Sn      2011/04/02 15:42:05.3  -0.1                          T                 .9  .21 Ml 1.8         4669285

.
EVENT     257892
    Date      Time       Latitude Longitude    Depth    Ndef Nsta Gap    Mag1  N    Mag2  N    Mag3  N   Author         ID
       rms   OT_Error      Smajor Sminor Az        Err   mdist  Mdist     Err        Err        Err      Quality

2011/04/02 16:55:37.9     42.6806   -1.3066      2.0      36    3 142  Ml 2.1  1  Md 1.6  2              js067245    257892

      0.41   +-  0.10       2.1    1.2   45.22 +-  0.0    0.09   1.26   +-         +-0.2                 m i ke

PYRENEES
Sta     Dist  EvAz     Phase      Date       Time     TRes  Azim  AzRes  Slow  SRes Def   SNR       Amp   Per   Mag1   Mag2       ID
SJPF  000.44 007.9 m E Pg      2011/04/02 16:55:46.7   0.4                          T                                        4669298
SJPF  000.44 007.9 m E Sg      2011/04/02 16:55:52.7   0.6                          T               15.3  .33        Md 1.7  4669299
ETSF  000.59 068.1 m E Pg      2011/04/02 16:55:49.3   0.0                          T                                        4669300
ETSF  000.59 068.1 m E Sg      2011/04/02 16:55:57.1   0.1                          T                2.7  .26        Md 1.5  4669301
EPF   001.26 073.3 m E Pg      2011/04/02 16:56:01.5   0.0                          T                                        4669302
EPF   001.26 073.3 m E Sg      2011/04/02 16:56:17.9   0.1                          T                5.2  .36 Ml 2.1         4669303

.
EVENT     257903
    Date      Time       Latitude Longitude    Depth    Ndef Nsta Gap    Mag1  N    Mag2  N    Mag3  N   Author         ID
       rms   OT_Error      Smajor Sminor Az        Err   mdist  Mdist     Err        Err        Err      Quality

2011/04/02 20:04:09.8     50.0617    8.2298      7.0 f    19   10 099  Ml 2.0  9  Md 2.3  1              js067245    257903

      0.30   +-  0.06       1.0     .7   79.69 +-  0.0    0.21   2.80   +-0.3      +-                    m i ke

GERMANY
Sta     Dist  EvAz     Phase      Date       Time     TRes  Azim  AzRes  Slow  SRes Def   SNR       Amp   Per   Mag1   Mag2       ID
RUP   000.84 245.0 m E Pg      2011/04/02 20:04:25.5  -0.2                          T                                        4669317
RUP   000.84 245.0 m E Sg      2011/04/02 20:04:36.7   0.1                          T                                Md 2.3  4669318
LANF  001.12 194.5 m E Pg      2011/04/02 20:04:30.8   0.0                          T                                        4669314
LANF  001.12 194.5 m E Sg      2011/04/02 20:04:45.1  -0.1                          T                3.1  .12 Ml 2.3         4669315
CDF   001.77 201.1 m E Pg      2011/04/02 20:04:43.0   0.2                          T                                        4669312
CDF   001.77 201.1 m E Sg      2011/04/02 20:05:05.6   0.0                          T                1.6  .25 Ml 2.1         4669313
PAGF  002.23 228.3 m E Pg      2011/04/02 20:04:51.1  -0.1                          T                                        4669304
PAGF  002.23 228.3 m E Sg      2011/04/02 20:05:19.9   0.0                          T                 .2  .19 Ml 1.3         4669306
HAU   002.40 211.7 m E Pg      2011/04/02 20:04:54.4   0.0                          T                                        4669305
HAU   002.40 211.7 m E Sg      2011/04/02 20:05:25.4   0.0                          T                1.8  .27 Ml 1.9         4669310
THEF  002.35 219.5 m E Sg      2011/04/02 20:05:23.8   0.0                          T                3.6  .29 Ml 2.4         4669309
HINF  002.42 202.5 m E Sg      2011/04/02 20:05:26.2   0.1                          T                1.9  .24 Ml 2.2         4669311
BAIF  002.59 271.5 m E Sg      2011/04/02 20:05:29.7  -1.5                          T                1.7  .28 Ml 2.1         4669316
MEZF  002.60 234.3 m E Sg      2011/04/02 20:05:31.6   0.1                          T                  1  .23 Ml 2.0         4669307
SFTF  002.80 229.7 m E Sg      2011/04/02 20:05:37.9   0.1                          T                1.2  .23 Ml 2.1         4669308

.
