EVENT     278476
    Date      Time       Latitude Longitude    Depth    Ndef Nsta Gap    Mag1  N    Mag2  N    Mag3  N   Author         ID
       rms   OT_Error      Smajor Sminor Az        Err   mdist  Mdist     Err        Err        Err      Quality

2012/06/20 15:22:34.2     45.2684    6.5274      2.0      21    5 157  Ml 1.6  1  Md 1.5  2              bulletin    278576
                                                                                                         _ldg
      0.29   +-  0.07       1.5    1.0  123.95 +-  0.0    0.28   1.71   +-         +-0.0                 m i ke

FRANCE
Sta     Dist  EvAz     Phase      Date       Time     TRes  Azim  AzRes  Slow  SRes Def   SNR       Amp   Per   Mag1   Mag2       ID
LPG   000.28 034.5 m E Pg      2012/06/20 15:22:39.9  -0.1                          T                                        5008682
LPG   000.28 034.5 m E Sg      2012/06/20 15:22:44.0   0.2                          T                6.2  .28        Md 1.5  5008679
LPL   000.29 030.1 m E Pg      2012/06/20 15:22:40.1   0.0                          T                                        5008683
LPL   000.29 030.1 m E Sg      2012/06/20 15:22:44.6   0.6                          T                7.0  .23        Md 1.4  5008680
MBDF  000.57 162.2 m E Pg      2012/06/20 15:22:45.3   0.0                          T                                        5008678
MBDF  000.57 162.2 m E Sg      2012/06/20 15:22:52.8   0.1                          T                2.1  .22                5008677
ORIF  000.58 232.9 m E Pg      2012/06/20 15:22:45.4   0.0                          T                                        5008684
ORIF  000.58 232.9 m E Sg      2012/06/20 15:22:52.4  -0.5                          T                5.8  .26                5008681
FRF   001.71 177.1 m E Sg      2012/06/20 15:23:28.1   0.0                          T                 .6  .21 Ml 1.6         5022074

.
EVENT     278470
    Date      Time       Latitude Longitude    Depth    Ndef Nsta Gap    Mag1  N    Mag2  N    Mag3  N   Author         ID
       rms   OT_Error      Smajor Sminor Az        Err   mdist  Mdist     Err        Err        Err      Quality

2012/06/20 16:41:07.2     47.6415    6.2307       .0 f    13    9 118  Ml 2.0  5  Md 2.0  2              bulletin    278570
                                                                                                         _ldg
      0.36   +-  0.12       2.4    1.9  106.82 +-  0.0    0.37   1.70   +-0.1      +-0.2                 m i km

FRANCE
Sta     Dist  EvAz     Phase      Date       Time     TRes  Azim  AzRes  Slow  SRes Def   SNR       Amp   Per   Mag1   Mag2       ID
HAU   000.37 012.2 m E Pg      2012/06/20 16:41:13.9  -0.8                          T                                Md 1.9  5007975
HAU   000.37 012.2 m E Sg      2012/06/20 16:41:19.2  -0.7                          T               33.6  .76        Md 2.2  5007971
THEF  000.61 344.9 m E Pg      2012/06/20 16:41:18.9  -0.1                          T                                        5022079
THEF  000.61 344.9 m E Sg      2012/06/20 16:41:27.3   0.1                          T               30.1  .93                5007978
HINF  000.46 067.1 m E Sg      2012/06/20 16:41:21.7  -0.7                          T               15.6  .74                5007970
CABF  001.04 185.5 m E Pg      2012/06/20 16:41:27.2   0.2                          T                                        5022075
CABF  001.04 185.5 m E Sg      2012/06/20 16:41:39.9  -0.7                          T               13.4  .72 Ml 2.1         5007984
CDF   001.04 041.9 m E Pg      2012/06/20 16:41:27.4   0.3                          T                                        5007974
CDF   001.04 041.9 m E Sg      2012/06/20 16:41:41.0   0.1                          T                4.9  .32 Ml 2.1         5007972
LANF  001.70 037.5 m E Pn      2012/06/20 16:41:36.8   0.1                          T                                        5007983
SFTF  000.98 305.6 m E Sg      2012/06/20 16:41:39.1   0.3                          T                9.7  .40 Ml 2.2         5022076
MEZF  001.17 317.9 m E Sg      2012/06/20 16:41:44.7   0.0                          T                4.2  .37 Ml 1.9         5022077
LOR   001.65 257.8 m E Sg      2012/06/20 16:41:59.4  -0.4                          T                2.3  .42 Ml 1.8         5022078

.
EVENT     278471
    Date      Time       Latitude Longitude    Depth    Ndef Nsta Gap    Mag1  N    Mag2  N    Mag3  N   Author         ID
       rms   OT_Error      Smajor Sminor Az        Err   mdist  Mdist     Err        Err        Err      Quality

2012/06/20 17:53:45.8     44.5019    6.6975     10.0      39   10 055  Ml 1.9  7  Md 2.0  2              bulletin    278571
                                                                                                         _ldg
      0.38   +-  0.06       1.4    1.1   46.75 +-  0.0    0.09   2.08   +-0.2      +-0.2                 m i ke

FRANCE
Sta     Dist  EvAz     Phase      Date       Time     TRes  Azim  AzRes  Slow  SRes Def   SNR       Amp   Per   Mag1   Mag2       ID
MBDF  000.23 013.2 m E Pg      2012/06/20 17:53:51.0   0.1                          T                                        5008110
MBDF  000.23 013.2 m E Sg      2012/06/20 17:53:54.0  -0.3                          T               17.1  .34        Md 2.2  5008107
ORIF  000.72 305.8 m E Pg      2012/06/20 17:53:59.4  -0.2                          T                                        5008109
ORIF  000.72 305.8 m E Sg      2012/06/20 17:54:08.5  -0.5                          T               15.3  .48        Md 1.9  5008108
SBF   000.83 140.0 m E Pn      2012/06/20 17:54:02.0  -0.1                          T                                        5008104
SBF   000.83 140.0 m E Sn      2012/06/20 17:54:13.1  -0.5                          T               11.9  .44                5008093
FRF   000.94 182.2 m E Pn      2012/06/20 17:54:03.7   0.1                          T                                        5008106
FRF   000.94 182.2 m E Sn      2012/06/20 17:54:16.1  -0.1                          T                3.6  .17 Ml 2.2         5008095
LPG   001.00 002.2 m E Pn      2012/06/20 17:54:04.5  -0.2                          T                                        5008103
LPG   001.00 002.2 m E Sg      2012/06/20 17:54:17.6  -0.3                          T                2.7  .36 Ml 1.7         5008097
LPL   001.01 001.4 m E Pn      2012/06/20 17:54:04.5  -0.4                          T                                        5008101
LPL   001.01 001.4 m E Sg      2012/06/20 17:54:18.0  -0.4                          T                2.3  .26 Ml 1.8         5008102
SMRF  000.96 237.3 m E Pn      2012/06/20 17:54:04.7   0.8                          T                                        5008100
SMRF  000.96 237.3 m E Sn      2012/06/20 17:54:16.8   0.0                          T               12.5  .70 Ml 2.0         5008096
LMR   001.18 186.7 m E Pn      2012/06/20 17:54:08.4   1.7                          T                                        5008105
LMR   001.18 186.7 m E Sn      2012/06/20 17:54:23.1   1.3                          T                3.3  .25 Ml 2.0         5008094
VIVF  001.49 284.5 m E Pn      2012/06/20 17:54:10.6  -0.4                          T                                        5008099
VIVF  001.49 284.5 m E Sn      2012/06/20 17:54:29.1  -0.2                          T                2.1  .26 Ml 1.9         5008098
LASF  002.08 259.2 m E Sn      2012/06/20 17:54:43.5  -0.1                          T                1.8  .38 Ml 1.9         5022250

.
EVENT     278478
    Date      Time       Latitude Longitude    Depth    Ndef Nsta Gap    Mag1  N    Mag2  N    Mag3  N   Author         ID
       rms   OT_Error      Smajor Sminor Az        Err   mdist  Mdist     Err        Err        Err      Quality

2012/06/20 18:16:58.9     38.7045   14.8602    306.0 f    67   30 050                                    bulletin    278578
                                                                                                         _ldg
      0.88   +-  0.09       3.8    2.3   53.86 +-  0.0    0.27  15.81                                    m i ke

SICILY, ITALY
Sta     Dist  EvAz     Phase      Date       Time     TRes  Azim  AzRes  Slow  SRes Def   SNR       Amp   Per   Mag1   Mag2       ID
PGF   005.88 312.6 m E P       2012/06/20 18:18:27.6  -0.2                          T                                        5008243
SBF   007.60 315.0 m E P       2012/06/20 18:18:49.4   0.8                          T                                        5008675
LMR   007.82 308.9 m E P       2012/06/20 18:18:50.7  -0.5                          T                                        5022251
FRF   007.87 310.7 m E P       2012/06/20 18:18:50.9  -0.9                          T                                        5022252
MBDF  008.53 317.4 m E P       2012/06/20 18:19:00.5   0.4                          T                                        5008248
SMRF  008.74 310.0 m E P       2012/06/20 18:19:02.7   0.1                          T                                        5008261
LPG   009.07 321.0 m E P       2012/06/20 18:19:07.4   0.5                          T                                        5008245
LPL   009.10 321.0 m E P       2012/06/20 18:19:07.6   0.5                          T                                        5008246
ORIF  009.13 315.7 m E P       2012/06/20 18:19:07.9   0.5                          T                                        5008247
VIVF  009.78 312.2 m E P       2012/06/20 18:19:15.0  -0.2                          T                                        5008242
CABF  010.20 323.6 m E P       2012/06/20 18:19:19.7  -0.8                          T                                        5008238
HINF  010.81 330.0 m E P       2012/06/20 18:19:26.4  -1.6                          T                                        5008237
HAU   011.16 329.1 m E P       2012/06/20 18:19:30.4  -1.9                          T                                        5008254
CDF   011.15 332.9 m E P       2012/06/20 18:19:32.4   0.3                          T                                        5008236
SMF   011.34 317.9 m E P       2012/06/20 18:19:32.9  -1.5                          T                                        5008240
THEF  011.49 328.8 m E P       2012/06/20 18:19:36.6   0.4                          T                                        5008672
AVF   011.69 317.4 m E P       2012/06/20 18:19:37.9  -0.8                          T                                        5008239
LOR   011.74 320.3 m E P       2012/06/20 18:19:38.5  -0.9 123.6  -9.3              T                                        5008235
PAGF  011.85 329.1 m E P       2012/06/20 18:19:39.5  -1.2 152.0  9.2               T                                        5008259
SSF   011.78 318.8 m E P       2012/06/20 18:19:40.3   0.5                          T                                        5008256
SFTF  011.87 326.3 m E P       2012/06/20 18:19:40.4  -0.4                          T                                        5008674
BGF   011.82 315.5 m E P       2012/06/20 18:19:40.6   0.4                          T                                        5008241
RJF   011.91 307.9 m E P       2012/06/20 18:19:42.1   0.7                          T                                        5008260
MEZF  012.09 327.3 m E P       2012/06/20 18:19:44.1   0.5                          T                                        5008673
ETSF  012.41 294.6 m E P       2012/06/20 18:19:48.1   0.5                          T                                        5008250
SJPF  012.94 295.0 m E P       2012/06/20 18:19:54.2   0.3                          T                                        5008671
BAIF  013.65 329.7 m E P       2012/06/20 18:20:00.9  -1.5                          T                                        5022255
LDF   014.65 317.3 m E P       2012/06/20 18:20:12.9  -1.1                          T                                        5008253
FLN   014.94 317.2 m E P       2012/06/20 18:20:16.1  -1.3                          T                                        5022254
SGMF  015.81 312.8 m E P       2012/06/20 18:20:25.8  -1.2                          T                                        5022253

.
EVENT     278538
    Date      Time       Latitude Longitude    Depth    Ndef Nsta Gap    Mag1  N    Mag2  N    Mag3  N   Author         ID
       rms   OT_Error      Smajor Sminor Az        Err   mdist  Mdist     Err        Err        Err      Quality

2012/06/20 20:54:47.1     47.3513    7.8051      7.0 f    11    4 188  Ml 1.6  3  Md 1.8  2              bulletin    278638
                                                                                                         _ldg
      0.29   +-  0.11       2.4    1.5  149.67 +-  0.0    0.08   1.39   +-0.2      +-0.1                 m i ke

SWITZERLAND
Sta     Dist  EvAz     Phase      Date       Time     TRes  Azim  AzRes  Slow  SRes Def   SNR       Amp   Per   Mag1   Mag2       ID
HINF  000.80 306.2 m E Pg      2012/06/20 20:55:02.2   0.0                          T                                        5022258
HINF  000.80 306.2 m E Sg      2012/06/20 20:55:12.9   0.3                          T                2.9  .48        Md 1.8  5022259
CDF   001.12 341.7 m E Pn      2012/06/20 20:55:07.7   0.0                          T                                        5022256
CDF   001.12 341.7 m E Pg      2012/06/20 20:55:08.3   0.1                          T                                        5022262
CDF   001.12 341.7 m E Sg      2012/06/20 20:55:22.9   0.2                          T                1.4  .43 Ml 1.5 Md 1.7  5022257
HAU   001.18 304.2 m E Pg      2012/06/20 20:55:09.4   0.1                          T                                        5022260
HAU   001.18 304.2 m E Sg      2012/06/20 20:55:24.8   0.2                          T                2.6  .22 Ml 1.7         5022261
CABF  001.39 238.4 m E Pg      2012/06/20 20:55:13.5   0.3                          T                                        5022263
CABF  001.39 238.4 m E Sg      2012/06/20 20:55:31.7   0.5                          T                 .8  .27 Ml 1.4         5022264

.
EVENT     278480
    Date      Time       Latitude Longitude    Depth    Ndef Nsta Gap    Mag1  N    Mag2  N    Mag3  N   Author         ID
       rms   OT_Error      Smajor Sminor Az        Err   mdist  Mdist     Err        Err        Err      Quality

2012/06/20 21:47:14.6     43.0475    -.6334      2.0       6    3 172             Md 1.3  3              bulletin    278580
                                                                                                         _ldg
      0.20   +-  0.11       3.6    1.9   15.08 +-  0.0    0.16   0.71              +-0.2                 m i ke

PYRENEES
Sta     Dist  EvAz     Phase      Date       Time     TRes  Azim  AzRes  Slow  SRes Def   SNR       Amp   Per   Mag1   Mag2       ID
ETSF  000.16 159.9 m E Pg      2012/06/20 21:47:18.0   0.0                          T                                        5022269
ETSF  000.16 159.9 m E Sg      2012/06/20 21:47:20.1  -0.1                          T                9.4  .17        Md 1.5  5022270
SJPF  000.44 278.8 m E Pg      2012/06/20 21:47:23.0  -0.1                          T                                        5022267
SJPF  000.44 278.8 m E Sg      2012/06/20 21:47:29.2   0.3                          T                1.0  .22        Md 1.2  5022268
EPF   000.71 091.0 m E Pg      2012/06/20 21:47:28.0  -0.1                          T                                        5022265
EPF   000.71 091.0 m E Sg      2012/06/20 21:47:38.0   0.5                          T                 .5  .17        Md 1.1  5022266

.
