EVENT     287389
    Date      Time       Latitude Longitude    Depth    Ndef Nsta Gap    Mag1  N    Mag2  N    Mag3  N   Author         ID
       rms   OT_Error      Smajor Sminor Az        Err   mdist  Mdist     Err        Err        Err      Quality

2012/11/24 05:57:17.6     43.0199    -.2154      3.0 f    49   11 094  Ml 2.2  9  Md 2.3  3              bulletin    287489
                                                                                                         _ldg
      0.58   +-  0.07       1.3    1.1   36.58 +-  0.0    0.15   4.15   +-0.3      +-0.0                 m i ke

PYRENEES
Sta     Dist  EvAz     Phase      Date       Time     TRes  Azim  AzRes  Slow  SRes Def   SNR       Amp   Per   Mag1   Mag2       ID
ETSF  000.28 244.5 m E Pg      2012/11/24 05:57:23.4   0.2                          T                                        5124130
ETSF  000.28 244.5 m E Sg      2012/11/24 05:57:27.2   0.2                          T               37.5  .24        Md 2.3  5124129
EPF   000.41 088.3 m E Pg      2012/11/24 05:57:25.1  -0.4                          T                                        5124128
EPF   000.41 088.3 m E Sg      2012/11/24 05:57:30.7  -0.2                          T               31.7  .19        Md 2.3  5124127
SJPF  000.75 277.5 m E Pg      2012/11/24 05:57:31.9   0.2                          T                                        5124126
SJPF  000.75 277.5 m E Sg      2012/11/24 05:57:41.8   0.4                          T                9.2  .25        Md 2.4  5124125
MTLF  001.81 078.9 m E Pn      2012/11/24 05:57:47.9   0.0                          T                                        5124122
MTLF  001.81 078.9 m E Pg      2012/11/24 05:57:51.1  -0.2                          T                                        5137209
MTLF  001.81 078.9 m E Sn      2012/11/24 05:58:10.5   0.5                          T                                        5137202
MTLF  001.81 078.9 m E Sg      2012/11/24 05:58:15.0   0.5                          T                1.5  .19 Ml 2.1         5124121
LFF   002.04 019.4 m E Pn      2012/11/24 05:57:51.0   0.0                          T                                        5124124
LFF   002.04 019.4 m E Pg      2012/11/24 05:57:55.2  -0.2                          T                                        5137211
LFF   002.04 019.4 m E Sn      2012/11/24 05:58:15.3  -0.2                          T                                        5137204
LFF   002.04 019.4 m E Sg      2012/11/24 05:58:22.1   0.4                          T                6.2  .24 Ml 2.4         5124123
RJF   002.60 028.0 m E Pn      2012/11/24 05:57:59.0   0.3                          T                                        5124120
RJF   002.60 028.0 m E Pg      2012/11/24 05:58:05.8  -0.1                          T                                        5137207
RJF   002.60 028.0 m E Sn      2012/11/24 05:58:28.9  -0.1                          T                                        5137206
RJF   002.60 028.0 m E Sg      2012/11/24 05:58:39.4   0.1                          T                1.6  .25 Ml 1.8         5124119
CAF   002.52 040.0 m E Pg      2012/11/24 05:58:04.1  -0.2                          T                                        5137212
CAF   002.52 040.0 m E Sn      2012/11/24 05:58:27.2   0.2                          T                                        5137203
CAF   002.52 040.0 m E Sg      2012/11/24 05:58:37.1   0.4                          T                1.0  .17 Ml 2.1         5124133
LASF  003.14 069.0 m E Pn      2012/11/24 05:58:06.2   0.1                          T                                        5137200
LASF  003.14 069.0 m E Pg      2012/11/24 05:58:16.1   0.2                          T                                        5137199
LASF  003.14 069.0 m E Sg      2012/11/24 05:58:56.6   0.4                          T                1.4  .29 Ml 2.1         5137201
MFF   003.58 000.8 m E Pn      2012/11/24 05:58:12.1   0.1                          T                                        5137210
MFF   003.58 000.8 m E Pg      2012/11/24 05:58:23.8  -0.2                          T                                        5137198
MFF   003.58 000.8 m E Sg      2012/11/24 05:59:10.0   0.1                          T                 .8  .26 Ml 2.2         5137205
TCF   003.70 027.1 m E Pg      2012/11/24 05:58:26.1   0.0                          T                                        5137195
TCF   003.70 027.1 m E Sg      2012/11/24 05:59:13.6   0.1                          T                 .7  .20 Ml 2.1         5137196
BGF   004.15 030.6 m E Sg      2012/11/24 05:59:28.1   0.3                          T                4.2  .35 Ml 2.8         5137197

.
EVENT     287390
    Date      Time       Latitude Longitude    Depth    Ndef Nsta Gap    Mag1  N    Mag2  N    Mag3  N   Author         ID
       rms   OT_Error      Smajor Sminor Az        Err   mdist  Mdist     Err        Err        Err      Quality

2012/11/24 08:48:36.3     43.6883    7.7115     10.0      34    7 108  Ml 1.8  6  Md 1.7  2              bulletin    287490
                                                                                                         _ldg
      0.23   +-  0.05       1.0     .9   74.24 +-  0.0    0.16   1.96   +-0.4      +-0.1                 m i ke

NEAR SOUTH COAST OF FRANCE
Sta     Dist  EvAz     Phase      Date       Time     TRes  Azim  AzRes  Slow  SRes Def   SNR       Amp   Per   Mag1   Mag2       ID
SBF   000.27 311.2 m E Pg      2012/11/24 08:48:41.9   0.1                          T                                        5124142
SBF   000.27 311.2 m E Sg      2012/11/24 08:48:45.6   0.0                          T               25.9  .20        Md 1.8  5124141
FRF   000.78 261.0 m E Pg      2012/11/24 08:48:51.4   0.2                          T                                        5124139
FRF   000.78 261.0 m E Sg      2012/11/24 08:49:01.9   0.5                          T                7.8  .26        Md 1.7  5124138
LMR   000.94 248.4 m E Pg      2012/11/24 08:48:53.7  -0.4                          T                                        5124140
LMR   000.94 248.4 m E Sg      2012/11/24 08:49:05.8  -0.6                          T                4.3  .21 Ml 2.1         5124137
MBDF  001.24 327.3 m E Pg      2012/11/24 08:48:59.6  -0.1                          T                                        5124158
MBDF  001.24 327.3 m E Sg      2012/11/24 08:49:15.4  -0.4                          T                2.2  .26 Ml 1.9         5124157
PGF   001.48 139.9 m E Pn      2012/11/24 08:49:01.4  -0.1                          T                                        5124173
PGF   001.48 139.9 m E Sn      2012/11/24 08:49:19.7   0.0                          T                 .4  .17 Ml 1.6         5124172
SMRF  001.57 281.3 m E Pg      2012/11/24 08:49:05.9   0.1                          T                                        5124176
SMRF  001.57 281.3 m E Sg      2012/11/24 08:49:26.1   0.1                          T                4.0  .26 Ml 2.3         5124159
LPL   001.96 339.4 m E Pg      2012/11/24 08:49:12.7  -0.4                          T                                        5124175
LPL   001.96 339.4 m E Sn      2012/11/24 08:49:31.0  -0.3                          T                 .4  .25 Ml 1.4         5124174

.
EVENT     287391
    Date      Time       Latitude Longitude    Depth    Ndef Nsta Gap    Mag1  N    Mag2  N    Mag3  N   Author         ID
       rms   OT_Error      Smajor Sminor Az        Err   mdist  Mdist     Err        Err        Err      Quality

2012/11/24 09:08:09.1     47.4695    9.1859      6.0 f    21    6 110  Ml 1.8  5  Md 2.4  1              bulletin    287491
                                                                                                         _ldg
      0.48   +-  0.12       2.1    1.7  161.15 +-  0.0    0.20   2.89   +-0.4      +-                    m i ke

GERMANY
Sta     Dist  EvAz     Phase      Date       Time     TRes  Azim  AzRes  Slow  SRes Def   SNR       Amp   Per   Mag1   Mag2       ID
CDF   001.59 307.0 m E Pn      2012/11/24 09:08:36.3   0.1                          T                                        5124211
CDF   001.59 307.0 m E Pg      2012/11/24 09:08:37.7  -1.2                          T                                        5124198
CDF   001.59 307.0 m E Sn      2012/11/24 09:08:56.1   0.1                          T                                        5124210
CDF   001.59 307.0 m E Sg      2012/11/24 09:08:59.2  -0.3                          T                1.5  .21 Ml 2.1 Md 2.4  5124197
HAU   001.99 286.7 m E Pn      2012/11/24 09:08:41.7   0.2                          T                                        5124208
HAU   001.99 286.7 m E Pg      2012/11/24 09:08:46.1   0.0                          T                                        5124207
HAU   001.99 286.7 m E Sn      2012/11/24 09:09:05.4   0.1                          T                                        5124206
HAU   001.99 286.7 m E Sg      2012/11/24 09:09:11.6  -0.1                          T                2.7  .29 Ml 2.0         5124205
CABF  002.29 249.1 m E Pn      2012/11/24 09:08:45.8   0.1                          T                                        5124196
CABF  002.29 249.1 m E Sn      2012/11/24 09:09:13.2   0.7                          T                 .3  .27 Ml 1.3         5124209
PAGF  002.56 296.3 m E Pn      2012/11/24 09:08:49.3  -0.1 100.0  -13.8             T                                        5124204
PAGF  002.56 296.3 m E Pg      2012/11/24 09:08:55.9  -0.8                          T                                        5124203
LPL   002.59 221.8 m E Pn      2012/11/24 09:08:49.9  -0.1                          T                                        5124200
LPL   002.59 221.8 m E Sn      2012/11/24 09:09:20.5   0.7                          T                 .5  .29 Ml 1.6         5124199
SFTF  002.89 286.3 m E Pn      2012/11/24 09:08:53.5  -0.3                          T                                        5124202
SFTF  002.89 286.3 m E Sn      2012/11/24 09:09:27.6   0.8                          T                1.8  .26 Ml 2.2         5124201

.
EVENT     287392
    Date      Time       Latitude Longitude    Depth    Ndef Nsta Gap    Mag1  N    Mag2  N    Mag3  N   Author         ID
       rms   OT_Error      Smajor Sminor Az        Err   mdist  Mdist     Err        Err        Err      Quality

2012/11/24 09:28:34.5     47.5060    7.7437       .0 f    18    8 251  Ml 2.0  8  Md 2.2  1              bulletin    287492
                                                                                                         _ldg
      0.18   +-  0.13       2.2    1.5  103.80 +-  0.0    0.96   2.92   +-0.2      +-                    m i km

SWITZERLAND
Sta     Dist  EvAz     Phase      Date       Time     TRes  Azim  AzRes  Slow  SRes Def   SNR       Amp   Per   Mag1   Mag2       ID
CDF   000.96 341.1 m E Pg      2012/11/24 09:28:52.8   0.0                          T                                        5124227
CDF   000.96 341.1 m E Sg      2012/11/24 09:29:05.5   0.0                          T                5.2  .36 Ml 2.1 Md 2.2  5124226
HAU   001.07 298.5 m E Pg      2012/11/24 09:28:55.0   0.3                          T                                        5124225
HAU   001.07 298.5 m E Sg      2012/11/24 09:29:08.8   0.1                          T                5.5  .28 Ml 1.9         5124224
CABF  001.44 232.3 m E Pn      2012/11/24 09:29:00.5   0.0                          T                                        5124223
CABF  001.44 232.3 m E Sg      2012/11/24 09:29:20.7   0.1                          T                1.4  .26 Ml 1.7         5124222
PAGF  001.71 308.5 m E Pn      2012/11/24 09:29:03.7  -0.3                          T                                        5124217
PAGF  001.71 308.5 m E Pg      2012/11/24 09:29:06.8   0.1                          T                                        5124216
PAGF  001.71 308.5 m E Sn      2012/11/24 09:29:25.3  -0.2                          T                                        5124215
PAGF  001.71 308.5 m E Sg      2012/11/24 09:29:28.9  -0.1                          T                2.8  .39 Ml 2.0         5124214
SFTF  001.95 292.0 m E Pn      2012/11/24 09:29:07.2  -0.1                          T                                        5124221
SFTF  001.95 292.0 m E Sn      2012/11/24 09:29:30.9  -0.3                          T                  1  .24 Ml 1.8         5124220
MEZF  002.06 299.9 m E Pn      2012/11/24 09:29:09.0   0.2                          T                                        5124219
MEZF  002.06 299.9 m E Sg      2012/11/24 09:29:40.0   0.2                          T                3.1  .28 Ml 2.3         5124218
LOR   002.65 266.3 m E Sg      2012/11/24 09:29:57.8  -0.4                          T                1.0  .34 Ml 1.8         5137504
SSF   002.92 262.8 m E Sg      2012/11/24 09:30:06.7   0.1                          T                1.4  .36 Ml 2.1         5137503

.
EVENT     287393
    Date      Time       Latitude Longitude    Depth    Ndef Nsta Gap    Mag1  N    Mag2  N    Mag3  N   Author         ID
       rms   OT_Error      Smajor Sminor Az        Err   mdist  Mdist     Err        Err        Err      Quality

2012/11/24 10:13:30.6     46.3759    6.8683      2.0      20    9 174  Ml 1.7  8  Md 1.8  2              bulletin    287493
                                                                                                         _ldg
      0.17   +-  0.05       1.5     .7   83.02 +-  0.0    0.59   2.46   +-0.3      +-0.2                 m i ke

SWITZERLAND
Sta     Dist  EvAz     Phase      Date       Time     TRes  Azim  AzRes  Slow  SRes Def   SNR       Amp   Per   Mag1   Mag2       ID
CABF  000.59 293.8 m E Pg      2012/11/24 10:13:42.3   0.5                          T                                        5124233
CABF  000.59 293.8 m E Sg      2012/11/24 10:13:49.4  -0.2                          T                1.6  .23        Md 2.0  5124232
LPL   000.86 186.3 m E Pg      2012/11/24 10:13:47.1   0.0                          T                                        5124235
LPL   000.86 186.3 m E Sg      2012/11/24 10:13:58.5   0.1                          T                1.0  .30 Ml 1.3 Md 1.7  5124231
LPG   000.88 185.4 m E Pg      2012/11/24 10:13:47.7   0.1                          T                                        5124234
LPG   000.88 185.4 m E Sg      2012/11/24 10:13:58.8  -0.2                          T                1.5  .22 Ml 1.6         5124230
HAU   001.67 347.9 m E Pn      2012/11/24 10:13:59.1   0.0                          T                                        5124239
HAU   001.67 347.9 m E Pg      2012/11/24 10:14:01.7   0.0                          T                                        5124228
HAU   001.67 347.9 m E Sg      2012/11/24 10:14:23.5   0.3                          T                3.4  .32 Ml 1.9         5124229
MBDF  001.65 182.4 m E Pg      2012/11/24 10:14:01.4  -0.2                          T                                        5137505
MBDF  001.65 182.4 m E Sn      2012/11/24 10:14:19.7   0.1                          T                 .3  .20 Ml 1.3         5124236
CDF   002.06 007.6 m E Pn      2012/11/24 10:14:04.5   0.0                          T                                        5124244
CDF   002.06 007.6 m E Pg      2012/11/24 10:14:08.8  -0.1                          T                                        5137507
CDF   002.06 007.6 m E Sg      2012/11/24 10:14:35.3  -0.1                          T                 .6  .25 Ml 1.7         5137508
LOR   002.25 294.5 m E Pn      2012/11/24 10:14:06.9  -0.2                          T                                        5124242
LOR   002.25 294.5 m E Pg      2012/11/24 10:14:12.3  -0.1                          T                                        5124241
LOR   002.25 294.5 m E Sg      2012/11/24 10:14:41.3  -0.1                          T                 .4  .16 Ml 1.6         5124240
MEZF  002.46 330.6 m E Pn      2012/11/24 10:14:09.9   0.1                          T                                        5137510
MEZF  002.46 330.6 m E Sg      2012/11/24 10:14:47.6  -0.2                          T                1.7  .22 Ml 2.2         5137509
SMF   002.11 278.4 m E Sg      2012/11/24 10:14:36.6  -0.3                          T                1.8  .28 Ml 2.0         5137506

.
