EVENT     297170
    Date      Time       Latitude Longitude    Depth    Ndef Nsta Gap    Mag1  N    Mag2  N    Mag3  N   Author         ID
       rms   OT_Error      Smajor Sminor Az        Err   mdist  Mdist     Err        Err        Err      Quality

2013/04/27 00:57:18.1     50.9485    5.5313     10.0      58    9 159  Ml 2.1 12  Md 2.0  2              bulletin    297270
                                                                                                         _ldg
      0.39   +-  0.05       1.0     .6  158.39 +-  0.0    0.18   4.11   +-0.1      +-0.1                 m i ke

BELGIUM
Sta     Dist  EvAz     Phase      Date       Time     TRes  Azim  AzRes  Slow  SRes Def   SNR       Amp   Per   Mag1   Mag2       ID
GIVF  000.96 208.3 m E Pg      2013/04/27 00:57:36.2   0.0                          T                                        5271426
GIVF  000.96 208.3 m E Sg      2013/04/27 00:57:49.1   0.4                          T                6.4  .22 Ml 2.3 Md 2.1  5271425
BAIF  001.23 224.0 m E Pn      2013/04/27 00:57:39.6  -0.1                          T                                        5271396
BAIF  001.23 224.0 m E Pg      2013/04/27 00:57:41.0  -0.1                          T                                        5271423
BAIF  001.23 224.0 m E Sn      2013/04/27 00:57:55.3   0.0                          T                                        5271397
BAIF  001.23 224.0 m E Sg      2013/04/27 00:57:56.9  -0.1                          T                2.0  .23 Ml 1.9 Md 2.0  5271424
PAGF  002.40 176.9 m E Pn      2013/04/27 00:57:55.6   0.0                          T                                        5271402
PAGF  002.40 176.9 m E Pg      2013/04/27 00:58:02.5  -0.1                          T                                        5271404
PAGF  002.40 176.9 m E Sn      2013/04/27 00:58:23.3   0.0 352.1  -4.9              T                                        5271403
PAGF  002.40 176.9 m E Sg      2013/04/27 00:58:33.6   0.1 352.3  -4.7              T                1.1  .23 Ml 2.0         5271405
SFTF  002.77 186.9 m E Pn      2013/04/27 00:58:00.6   0.0                          T                                        5271409
SFTF  002.77 186.9 m E Pg      2013/04/27 00:58:09.4   0.0                          T                                        5271410
SFTF  002.77 186.9 m E Sn      2013/04/27 00:58:32.6   0.6   9.6  3.1               T                                        5271411
SFTF  002.77 186.9 m E Sg      2013/04/27 00:58:45.0   0.0                          T                1.3  .21 Ml 2.2         5271412
CDF   002.78 155.3 m E Pn      2013/04/27 00:58:01.1   0.2                          T                                        5271415
CDF   002.78 155.3 m E Pg      2013/04/27 00:58:09.8   0.0                          T                                        5271416
CDF   002.78 155.3 m E Sn      2013/04/27 00:58:32.5   0.0                          T                                        5271418
CDF   002.78 155.3 m E Sg      2013/04/27 00:58:45.5   0.0                          T                 .3  .16 Ml 1.8         5271417
HAU   002.99 169.4 m E Pg      2013/04/27 00:58:13.6   0.0                          T                                        5271406
HAU   002.99 169.4 m E Sn      2013/04/27 00:58:37.7   0.1                          T                                        5271407
HAU   002.99 169.4 m E Sg      2013/04/27 00:58:52.1   0.0                          T                1.8  .25 Ml 2.1         5271408
LOR   003.84 197.2 m E Pn      2013/04/27 00:58:15.5   0.2                          T                                        5271419
LOR   003.84 197.2 m E Sn      2013/04/27 00:58:57.8   0.0  14.0  -2.0              T                 .7  .30 Ml 2.0         5271420
LOR   003.84 197.2 m E Sg      2013/04/27 00:59:19.0   0.4  16.9  1.0               T                 .6  .28 Ml 2.0         5271401
SSF   004.11 199.7 m E Pn      2013/04/27 00:58:19.2   0.2                          T                                        5271422
SSF   004.11 199.7 m E Sn      2013/04/27 00:59:04.0  -0.3                          T                 .5  .21 Ml 2.1         5271421
MEZF  002.47 187.4 m E Sn      2013/04/27 00:58:25.2   0.2                          T                                        5271413
MEZF  002.47 187.4 m E Sg      2013/04/27 00:58:35.7   0.0   4.3  -2.8              T                3.7  .40 Ml 2.3         5271414

.
EVENT     297096
    Date      Time       Latitude Longitude    Depth    Ndef Nsta Gap    Mag1  N    Mag2  N    Mag3  N   Author         ID
       rms   OT_Error      Smajor Sminor Az        Err   mdist  Mdist     Err        Err        Err      Quality

2013/04/27 04:32:11.5     42.7430   -1.7161      2.0     115   29 057  Ml 3.2 17  Md 3.2  2              bulletin    297196
                                                                                                         _ldg
      0.87   +-  0.07       1.8    1.4  144.09 +-  0.0    0.10   8.38   +-0.2      +-0.0                 m i ke

PYRENEES
Sta     Dist  EvAz     Phase      Date       Time     TRes  Azim  AzRes  Slow  SRes Def   SNR       Amp   Per   Mag1   Mag2       ID
SJPF  000.52 044.1 m E Pg      2013/04/27 04:32:20.6  -0.7                          T   001.0                                5270081
SJPF  000.52 044.1 m E Sg      2013/04/27 04:32:28.3   0.1                          T              188.0  .26        Md 3.2  5270189
ETSF  000.87 079.3 m E Pg      2013/04/27 04:32:27.4  -0.4                          T   001.0                                5270071
ETSF  000.87 079.3 m E Sg      2013/04/27 04:32:39.9   0.8                          T   001.0      105.7  .33 Ml 3.3 Md 3.2  5270072
EPF   001.54 078.5 m E Pn      2013/04/27 04:32:39.4   1.1                          T   001.0                                5270089
EPF   001.54 078.5 m E Sg      2013/04/27 04:33:00.2   0.1                          T   001.0      130.9  .43 Ml 3.5         5270090
LFF   002.82 038.1 m E Pn      2013/04/27 04:32:57.4   1.7                          T   001.0                                5270097
LFF   002.82 038.1 m E Sn      2013/04/27 04:33:28.0   0.7                          T   001.0       15.2  .26 Ml 3.0         5270098
MTLF  002.94 077.0 m E Pn      2013/04/27 04:32:58.7   1.3                          T   001.0                                5270073
MTLF  002.94 077.0 m E Sn      2013/04/27 04:33:32.9   1.6                          T   001.0       20.8  .50 Ml 3.0         5270074
RJF   003.46 041.2 m E Pn      2013/04/27 04:33:04.9   0.4                          T   001.0                                5270083
RJF   003.46 041.2 m E Sn      2013/04/27 04:33:43.9   0.3                          T               21.1  .37 Ml 3.0         5270195
CAF   003.50 050.1 m E Pn      2013/04/27 04:33:05.9   0.9                          T   001.0                                5270087
CAF   003.50 050.1 m E Sn      2013/04/27 04:33:44.6   0.1                          T   001.0       21.0  .42 Ml 3.2         5270088
MFF   004.02 015.6 m E Pn      2013/04/27 04:33:11.7  -0.3                          T   001.0                                5270103
MFF   004.02 015.6 m E Sn      2013/04/27 04:33:57.1   0.2                          T                                        5270192
LASF  004.27 069.9 m E Pn      2013/04/27 04:33:16.3   0.8                          T   001.0                                5270093
LASF  004.27 069.9 m E Sn      2013/04/27 04:34:01.1  -1.9                          T   001.0       29.1  .48 Ml 3.5         5270094
TCF   004.52 037.0 m E Pn      2013/04/27 04:33:18.7  -0.2                          T   001.0                                5270068
TCF   004.52 037.0 m E Sn      2013/04/27 04:34:08.6  -0.3                          T   001.0       11.6  .48 Ml 3.2         5270069
BGF   005.01 038.9 m E Pn      2013/04/27 04:33:25.0   0.4                          T   001.0                                5270086
BGF   005.01 038.9 m E Sn      2013/04/27 04:34:21.7   1.0                          T               36.9  .56 Ml 3.7         5270194
VIVF  005.08 063.3 m E Pn      2013/04/27 04:33:27.4   0.8                          T   001.0                                5270082
QUIF  005.27 349.3 m E Pn      2013/04/27 04:33:28.8  -0.3                          T   001.0                                5270076
QUIF  005.27 349.3 m E Sn      2013/04/27 04:34:25.7  -1.1                          T   001.0        9.7  .36 Ml 3.4         5270077
AVF   005.42 040.0 m E Pn      2013/04/27 04:33:30.8  -0.3                          T   001.0                                5270084
AVF   005.42 040.0 m E Sn      2013/04/27 04:34:30.7   0.3                          T   001.0        6.2  .60 Ml 3.0         5270085
SMRF  005.46 074.5 m E Pn      2013/04/27 04:33:32.3   0.7                          T   001.0                                5270066
SGMF  005.54 354.2 m E Pn      2013/04/27 04:33:32.8   0.1                          T   001.0                                5270080
SMF   005.56 043.5 m E Pn      2013/04/27 04:33:33.5   0.5                          T   001.0                                5270104
SMF   005.56 043.5 m E Sn      2013/04/27 04:34:34.2   0.5                          T   001.0       11.4  .64 Ml 3.2         5270105
SSF   005.69 038.9 m E Pn      2013/04/27 04:33:33.7  -1.1                          T   001.0                                5270106
SSF   005.69 038.9 m E Sn      2013/04/27 04:34:34.7  -2.2                          T   001.0        5.7  .42 Ml 3.2         5270067
ROSF  005.70 349.5 m E Pn      2013/04/27 04:33:35.0   0.1                          T   001.0                                5270078
ROSF  005.70 349.5 m E Sn      2013/04/27 04:34:35.2  -1.8                          T   001.0       20.7  .80 Ml 3.4         5270079
LDF   005.96 010.2 m E Pn      2013/04/27 04:33:37.5  -0.9                          T   001.0                                5270095
LDF   005.96 010.2 m E Sn      2013/04/27 04:34:43.3   0.1                          T   001.0        4.4  .48 Ml 3.0         5270096
LOR   006.01 039.2 m E Pn      2013/04/27 04:33:38.9  -0.2                          T   001.0                                5270099
LOR   006.01 039.2 m E Sn      2013/04/27 04:34:41.8  -2.6                          T   001.0        3.3  .28 Ml 3.2         5270100
FLN   006.08 007.7 m E Pn      2013/04/27 04:33:39.4  -0.7                          T   001.0                                5270091
FLN   006.08 007.7 m E Sn      2013/04/27 04:34:46.3   0.1                          T   001.0        6.5  .56 Ml 3.0         5270092
ORIF  005.91 065.8 m E Pn      2013/04/27 04:33:39.8   1.9                          T   001.0                                5270075
LPL   006.68 062.6 m E Pn      2013/04/27 04:33:48.4  -0.1                          T   001.0                                5270102
LPG   006.69 062.8 m E Pn      2013/04/27 04:33:48.8   0.1                          T   001.0                                5270101
MBDF  006.46 069.2 m E Pn      2013/04/27 04:33:49.7   4.2                          T                                        5270190
BAIF  008.38 027.2 m E Pn      2013/04/27 04:34:11.7   0.3                          T   001.0                                5270070
HYF   005.48 032.8 m E Sn      2013/04/27 04:34:31.6  -0.2                          T                                        5270193
GRR   005.68 005.8 m E Sn      2013/04/27 04:34:35.9  -0.6                          T                                        5270191

.
EVENT     297097
    Date      Time       Latitude Longitude    Depth    Ndef Nsta Gap    Mag1  N    Mag2  N    Mag3  N   Author         ID
       rms   OT_Error      Smajor Sminor Az        Err   mdist  Mdist     Err        Err        Err      Quality

2013/04/27 07:39:41.9     47.2761    6.0386      5.0 f    21   10 131  Ml 1.8  7  Md 1.6  3              bulletin    297197
                                                                                                         _ldg
      0.39   +-  0.08       1.7    1.1  140.15 +-  0.0    0.67   1.90   +-0.2      +-0.1                 m i ke

FRANCE
Sta     Dist  EvAz     Phase      Date       Time     TRes  Azim  AzRes  Slow  SRes Def   SNR       Amp   Per   Mag1   Mag2       ID
CABF  000.67 177.1 m E Pg      2013/04/27 07:39:55.0   0.4                          T                                        5270200
CABF  000.67 177.1 m E Sg      2013/04/27 07:40:02.6  -0.8                          T                6.2  .20        Md 1.6  5281949
HAU   000.76 015.9 m E Pg      2013/04/27 07:39:56.0  -0.2                          T                                        5270198
HAU   000.76 015.9 m E Sg      2013/04/27 07:40:06.2   0.0                          T                6.7  .20        Md 1.7  5270199
HINF  000.77 045.3 m E Pg      2013/04/27 07:39:56.5   0.0                          T                                        5281948
HINF  000.77 045.3 m E Sg      2013/04/27 07:40:06.3  -0.3                          T               11.6  .22        Md 1.6  5270202
SFTF  001.15 324.4 m E Pg      2013/04/27 07:40:03.5   0.1                          T                                        5281965
SFTF  001.15 324.4 m E Sg      2013/04/27 07:40:18.8   0.5                          T                3.0  .24 Ml 2.0         5270207
CDF   001.41 035.8 m E Pn      2013/04/27 07:40:06.8   0.2                          T                                        5270210
CDF   001.41 035.8 m E Pg      2013/04/27 07:40:08.3   0.0                          T                                        5281947
CDF   001.41 035.8 m E Sg      2013/04/27 07:40:26.2  -0.3                          T                2.7  .32 Ml 2.0         5270211
LOR   001.48 270.5 m E Pn      2013/04/27 07:40:07.5  -0.1  85.5  -3.4              T                                        5270204
LOR   001.48 270.5 m E Pg      2013/04/27 07:40:09.5   0.0                          T                                        5281968
LOR   001.48 270.5 m E Sg      2013/04/27 07:40:28.7   0.0                          T                1.4  .19 Ml 1.9         5270205
SMF   001.63 248.1 m E Pg      2013/04/27 07:40:11.7  -0.6                          T                                        5281962
SMF   001.63 248.1 m E Sg      2013/04/27 07:40:32.9  -0.5                          T                1.7  .25 Ml 1.9         5270208
SSF   001.74 263.8 m E Pg      2013/04/27 07:40:14.5   0.2                          T                                        5281967
SSF   001.74 263.8 m E Sg      2013/04/27 07:40:36.8   0.0                          T                 .8  .25 Ml 1.7         5270206
AVF   001.90 256.2 m E Pg      2013/04/27 07:40:17.1  -0.1                          T                                        5281963
AVF   001.90 256.2 m E Sg      2013/04/27 07:40:41.1  -0.6                          T                 .7  .29 Ml 1.6         5281964
MEZF  001.39 331.9 m E Sg      2013/04/27 07:40:26.2   0.2                          T                1.5  .25 Ml 1.8         5281966

.
EVENT     297098
    Date      Time       Latitude Longitude    Depth    Ndef Nsta Gap    Mag1  N    Mag2  N    Mag3  N   Author         ID
       rms   OT_Error      Smajor Sminor Az        Err   mdist  Mdist     Err        Err        Err      Quality

2013/04/27 10:00:21.9     42.7508   -1.8095      2.0      17    4 157  Ml 1.8  2  Md 1.5  2              bulletin    297198
                                                                                                         _ldg
      0.96   +-  0.42       9.2    5.1   12.11 +-  0.0    0.17   2.86   +-0.2      +-0.2                 m i ke

PYRENEES
Sta     Dist  EvAz     Phase      Date       Time     TRes  Azim  AzRes  Slow  SRes Def   SNR       Amp   Per   Mag1   Mag2       ID
SJPF  000.56 049.6 m E Pg      2013/04/27 10:00:32.7   0.1                          T                                        5270218
SJPF  000.56 049.6 m E Sg      2013/04/27 10:00:39.4  -0.6                          T                6.2  .29        Md 1.6  5270217
ETSF  000.93 080.5 m E Pg      2013/04/27 10:00:39.1  -0.4                          T                                        5270216
ETSF  000.93 080.5 m E Sg      2013/04/27 10:00:51.5  -0.1                          T                2.0  .23 Ml 1.7 Md 1.4  5270215
EPF   001.60 079.2 m E Pn      2013/04/27 10:00:50.7   1.1                          T                                        5270214
EPF   001.60 079.2 m E Sg      2013/04/27 10:01:13.3   0.7                          T                1.4  .19 Ml 1.9         5270233
LFF   002.86 039.3 m E Pn      2013/04/27 10:01:05.4  -1.3                          T                                        5270232
LFF   002.86 039.3 m E Sn      2013/04/27 10:01:37.8  -1.8                          T                                        5270220

.
EVENT     297099
    Date      Time       Latitude Longitude    Depth    Ndef Nsta Gap    Mag1  N    Mag2  N    Mag3  N   Author         ID
       rms   OT_Error      Smajor Sminor Az        Err   mdist  Mdist     Err        Err        Err      Quality

2013/04/27 11:09:43.5     38.3080   -8.0157      2.0     108    9 059  Ml 3.5  3                         bulletin    297199
                                                                                                         _ldg
      0.69   +-  0.08       1.6    1.2   75.53 +-  0.0    0.30  10.99   +-0.0                            m i ke

PORTUGAL
Sta     Dist  EvAz     Phase      Date       Time     TRes  Azim  AzRes  Slow  SRes Def   SNR       Amp   Per   Mag1   Mag2       ID
SJPF  007.04 044.9 m E Pn      2013/04/27 11:11:25.9   0.7                          T                                        5270368
SJPF  007.04 044.9 m E Sn      2013/04/27 11:12:41.3   0.1                          T                5.9  .34 Ml 3.5         5270370
ETSF  007.29 048.7 m E Pn      2013/04/27 11:11:29.6   0.9                          T                                        5270367
ETSF  007.29 048.7 m E Sn      2013/04/27 11:12:46.9  -0.3                          T                6.5  .37 Ml 3.5         5270369
EPF   007.91 050.8 m E Pn      2013/04/27 11:11:38.2   1.1                          T                                        5270366
EPF   007.91 050.8 m E Sn      2013/04/27 11:13:00.8  -1.1                          T                4.1  .27 Ml 3.6         5270359
LFF   009.32 041.9 m E Pn      2013/04/27 11:11:55.9  -0.3                          T                                        5270364
RJF   009.97 042.5 m E Pn      2013/04/27 11:12:05.4   0.4                          T                                        5270365
MFF   010.12 032.5 m E Pn      2013/04/27 11:12:06.9  -0.1                          T                                        5270362
QUIF  010.23 018.7 m E Pn      2013/04/27 11:12:08.4  -0.3                          T                                        5270361
SGMF  010.70 020.0 m E Pn      2013/04/27 11:12:14.5  -0.5                          T                                        5270360
TCF   010.99 040.2 m E Pn      2013/04/27 11:12:17.6  -1.4                          T                                        5270363

.
