EVENT     256932
    Date      Time       Latitude Longitude    Depth    Ndef Nsta Gap    Mag1  N    Mag2  N    Mag3  N   Author         ID
       rms   OT_Error      Smajor Sminor Az        Err   mdist  Mdist     Err        Err        Err      Quality

2011/03/10 08:42:21.3     47.5384    9.7453      2.0      28    8 141  Ml 2.5  8  Md 2.6  3              js067245    256932

      1.23   +-  0.22       4.7    3.3    3.54 +-  0.0    0.28   4.01   +-0.2      +-0.4                 m i ke

GERMANY
Sta     Dist  EvAz     Phase      Date       Time     TRes  Azim  AzRes  Slow  SRes Def   SNR       Amp   Per   Mag1   Mag2       ID
CDF   001.88 298.7 m E Pg      2011/03/10 08:42:56.2  -0.1                          T                                        4658516
CDF   001.88 298.7 m E Sg      2011/03/10 08:43:20.5   0.0                          T                7.9  .20 Ml 2.9 Md 2.4  4658512
LANF  001.94 318.8 m E Pg      2011/03/10 08:42:57.3  -0.1                          T                                        4658509
LANF  001.94 318.8 m E Sg      2011/03/10 08:43:22.1  -0.3                          T                6.4  .25 Ml 2.6 Md 3.1  4658504
HINF  001.97 279.2 m E Pg      2011/03/10 08:42:58.0   0.0                          T                                        4658514
HINF  001.97 279.2 m E Sg      2011/03/10 08:43:23.5   0.0                          T                6.0  .30 Ml 2.5 Md 2.4  4658513
HAU   002.34 282.8 m E Pg      2011/03/10 08:43:04.7   0.0                          T                                        4658515
HAU   002.34 282.8 m E Sg      2011/03/10 08:43:34.9   0.0                          T                5.6  .26 Ml 2.4         4658506
THEF  002.62 286.7 m E Pg      2011/03/10 08:43:10.0   0.1                          T                                        4658511
THEF  002.62 286.7 m E Sg      2011/03/10 08:43:43.6   0.0                          T                7.0  .31 Ml 2.7         4658505
CABF  002.67 251.0 m E Pg      2011/03/10 08:43:11.2   0.3                          T                                        4658510
CABF  002.67 251.0 m E Sg      2011/03/10 08:43:45.5   0.3                          T                1.8  .20 Ml 2.3         4658507
RUP   002.80 321.5 m E Pg      2011/03/10 08:43:13.4   0.0                          T                                        4658508
RUP   002.80 321.5 m E Sg      2011/03/10 08:43:49.0  -0.4                          T                                        4658503
LOR   004.01 268.3 m E Pn      2011/03/10 08:43:21.7   0.0                          T                                        4658502
LOR   004.01 268.3 m E Sn      2011/03/10 08:44:06.6   0.2                          T                1.8  .33 Ml 2.4         4658501

.
EVENT     256944
    Date      Time       Latitude Longitude    Depth    Ndef Nsta Gap    Mag1  N    Mag2  N    Mag3  N   Author         ID
       rms   OT_Error      Smajor Sminor Az        Err   mdist  Mdist     Err        Err        Err      Quality

2011/03/10 10:26:13.4     50.7616    7.0880      2.0      22   10 286  Ml 2.4 11                         cm165940    256944

      0.14   +-  0.11       2.1    1.5   24.61 +-  0.0    1.59   4.39   +-0.3                            m i ke

GERMANY
Sta     Dist  EvAz     Phase      Date       Time     TRes  Azim  AzRes  Slow  SRes Def   SNR       Amp   Per   Mag1   Mag2       ID
GIVF  001.59 246.4 m E Pn      2011/03/10 10:26:40.8   0.0                          T                                        4658558
GIVF  001.59 246.4 m E Sg      2011/03/10 10:27:03.7   0.1                          T               13.1  .25 Ml 2.8         4658537
BAIF  001.97 250.2 m E Pn      2011/03/10 10:26:46.1   0.1                          T                                        4658557
BAIF  001.97 250.2 m E Sg      2011/03/10 10:27:15.6   0.1                          T                3.6  .25 Ml 2.4         4658536
CDF   002.36 176.9 m E Pn      2011/03/10 10:26:51.5   0.1                          T                                        4658534
CDF   002.36 176.9 m E Sn      2011/03/10 10:27:19.2   0.0                          T                2.9  .40 Ml 2.3         4658526
PAGF  002.38 202.4 m E Pn      2011/03/10 10:26:51.7   0.1                          T                                        4658555
PAGF  002.38 202.4 m E Sn      2011/03/10 10:27:19.7   0.1                          T                2.2  .48 Ml 2.0         4658554
MEZF  002.62 211.1 m E Pn      2011/03/10 10:26:54.8  -0.1                          T                                        4658533
MEZF  002.62 211.1 m E Sn      2011/03/10 10:27:25.2  -0.1                          T               10.0  .33 Ml 2.8         4658525
HAU   002.80 190.2 m E Pn      2011/03/10 10:26:57.2  -0.2                          T                                        4658531
HAU   002.80 190.2 m E Sn      2011/03/10 10:27:29.6  -0.1                          T                1.0  .19 Ml 1.9         4658523
SFTF  002.89 208.4 m E Pn      2011/03/10 10:26:58.3  -0.2                          T                                        4658532
SFTF  002.89 208.4 m E Sn      2011/03/10 10:27:31.7  -0.1                          T               10.2  .55 Ml 2.7         4658524
HINF  002.95 183.1 m E Pn      2011/03/10 10:26:59.6   0.2                          T                                        4658530
HINF  002.95 183.1 m E Sn      2011/03/10 10:27:33.4   0.0                          T                1.4  .23 Ml 2.2         4658522
LOR   004.09 212.5 m E Pn      2011/03/10 10:27:14.7  -0.2                          T                                        4658535
LOR   004.09 212.5 m E Sn      2011/03/10 10:28:00.5  -0.1                          T                1.8  .40 Ml 2.3         4658528
SSF   004.39 213.9 m E Pn      2011/03/10 10:27:18.2  -0.8                          T                                        4658529
SSF   004.39 213.9 m E Sn      2011/03/10 10:28:07.7   0.0                          T                2.4  .29 Ml 2.7         4658527

.
EVENT     256945
    Date      Time       Latitude Longitude    Depth    Ndef Nsta Gap    Mag1  N    Mag2  N    Mag3  N   Author         ID
       rms   OT_Error      Smajor Sminor Az        Err   mdist  Mdist     Err        Err        Err      Quality

2011/03/10 10:36:43.7     50.6283    6.9435      2.0      22   10 281  Ml 2.4 11                         cm165940    256945

      0.16   +-  0.14       2.7    1.7   27.44 +-  0.0    1.46   4.23   +-0.3                            m i ke

GERMANY
Sta     Dist  EvAz     Phase      Date       Time     TRes  Azim  AzRes  Slow  SRes Def   SNR       Amp   Per   Mag1   Mag2       ID
GIVF  001.46 249.6 m E Pn      2011/03/10 10:37:09.3  -0.1                          T                                        4658584
GIVF  001.46 249.6 m E Sg      2011/03/10 10:37:29.8   0.1                          T               10.4  .22 Ml 2.7         4658585
BAIF  001.84 253.0 m E Pn      2011/03/10 10:37:14.6   0.0                          T                                        4658583
BAIF  001.84 253.0 m E Sg      2011/03/10 10:37:41.6  -0.1                          T                5.3  .31 Ml 2.4         4658586
CDF   002.23 174.3 m E Pn      2011/03/10 10:37:19.9  -0.1                          T                                        4658582
CDF   002.23 174.3 m E Sn      2011/03/10 10:37:46.5   0.0                          T                3.0  .43 Ml 2.2         4658572
PAGF  002.22 201.4 m E Pn      2011/03/10 10:37:20.1   0.4                          T                                        4658581
PAGF  002.22 201.4 m E Sn      2011/03/10 10:37:46.2   0.0                          T                3.9  .53 Ml 2.1         4658571
MEZF  002.46 210.8 m E Pn      2011/03/10 10:37:23.1   0.1                          T                                        4658580
MEZF  002.46 210.8 m E Sn      2011/03/10 10:37:51.9   0.0                          T                6.5  .22 Ml 2.8         4658570
HAU   002.65 188.7 m E Pn      2011/03/10 10:37:25.6  -0.1                          T                                        4658578
HAU   002.65 188.7 m E Sn      2011/03/10 10:37:56.5  -0.1                          T                2.3  .22 Ml 2.1         4658568
SFTF  002.73 207.9 m E Pn      2011/03/10 10:37:26.6   0.0                          T                                        4658579
SFTF  002.73 207.9 m E Sn      2011/03/10 10:37:56.2  -2.1                          T                5.8  .34 Ml 2.6         4658569
HINF  002.81 181.2 m E Pn      2011/03/10 10:37:28.0   0.1                          T                                        4658577
HINF  002.81 181.2 m E Sn      2011/03/10 10:38:00.3  -0.1                          T                1.6  .29 Ml 2.1         4658567
LOR   003.93 212.3 m E Pn      2011/03/10 10:37:43.2   0.1                          T                                        4658576
LOR   003.93 212.3 m E Sn      2011/03/10 10:38:27.0   0.0                          T                  1  .18 Ml 2.4         4658574
SSF   004.23 213.8 m E Pn      2011/03/10 10:37:46.7  -0.4                          T                                        4658575
SSF   004.23 213.8 m E Sn      2011/03/10 10:38:34.1  -0.1                          T                1.7  .23 Ml 2.7         4658573

.
EVENT     256974
    Date      Time       Latitude Longitude    Depth    Ndef Nsta Gap    Mag1  N    Mag2  N    Mag3  N   Author         ID
       rms   OT_Error      Smajor Sminor Az        Err   mdist  Mdist     Err        Err        Err      Quality

2011/03/10 17:53:47.1     44.6090    7.2278      2.0      20    9 189  Ml 1.8  8  Md 2.0  3              js067245    256974

      0.12   +-  0.06       1.2     .6   75.81 +-  0.0    0.35   1.84   +-0.2      +-0.1                 m i ke

NORTHERN ITALY
Sta     Dist  EvAz     Phase      Date       Time     TRes  Azim  AzRes  Slow  SRes Def   SNR       Amp   Per   Mag1   Mag2       ID
MBDF  000.35 290.1 m E Pg      2011/03/10 17:53:54.3   0.3                          T                                        4658877
MBDF  000.35 290.1 m E Sg      2011/03/10 17:53:58.7   0.0                          T               14.7  .22        Md 2.0  4658872
SBF   000.76 168.6 m E Pg      2011/03/10 17:54:01.5  -0.1                          T                                        4658868
SBF   000.76 168.6 m E Sg      2011/03/10 17:54:11.6   0.1                          T                4.0  .28        Md 2.1  4658867
LPG   000.95 339.4 m E Pg      2011/03/10 17:54:05.2  -0.1                          T                                        4658875
LPG   000.95 339.4 m E Sg      2011/03/10 17:54:17.6   0.0                          T                1.3  .19 Ml 1.6 Md 2.0  4658863
LPL   000.97 339.0 m E Pg      2011/03/10 17:54:05.7   0.1                          T                                        4658870
LPL   000.97 339.0 m E Sg      2011/03/10 17:54:18.2  -0.1                          T                2.7  .25 Ml 1.8         4658862
ORIF  001.01 288.3 m E Pg      2011/03/10 17:54:05.9  -0.2                          T                                        4658876
ORIF  001.01 288.3 m E Sg      2011/03/10 17:54:19.1  -0.2                          T                2.2  .22 Ml 1.8         4658871
FRF   001.13 202.0 m E Pg      2011/03/10 17:54:08.3   0.1                          T                                        4658874
FRF   001.13 202.0 m E Sg      2011/03/10 17:54:22.8   0.0                          T                1.8  .23 Ml 1.8         4658865
SMRF  001.34 242.5 m E Pg      2011/03/10 17:54:12.2  -0.1                          T                                        4658869
SMRF  001.34 242.5 m E Sg      2011/03/10 17:54:29.7   0.0                          T                1.8  .23 Ml 1.8         4658864
LMR   001.38 202.4 m E Pg      2011/03/10 17:54:12.7  -0.1                          T                                        4658873
LMR   001.38 202.4 m E Sg      2011/03/10 17:54:30.5  -0.1                          T                2.9  .20 Ml 2.2         4658866
VIVF  001.84 278.6 m E Pn      2011/03/10 17:54:18.1   0.1                          T                                        4658861
VIVF  001.84 278.6 m E Sn      2011/03/10 17:54:40.4  -0.1                          T                 .6  .32 Ml 1.5         4658860

.
EVENT     256979
    Date      Time       Latitude Longitude    Depth    Ndef Nsta Gap    Mag1  N    Mag2  N    Mag3  N   Author         ID
       rms   OT_Error      Smajor Sminor Az        Err   mdist  Mdist     Err        Err        Err      Quality

2011/03/10 21:47:27.7     43.0846   -1.4610      2.0      17    4 132  Ml 1.6  4  Md 1.4  3              js067245    256979

      0.25   +-  0.08       1.5    1.1   57.94 +-  0.0    0.09   2.70   +-0.2      +-0.1                 m i ke

PYRENEES
Sta     Dist  EvAz     Phase      Date       Time     TRes  Azim  AzRes  Slow  SRes Def   SNR       Amp   Per   Mag1   Mag2       ID
SJPF  000.18 080.5 m E Pg      2011/03/10 21:47:31.3   0.0                          T                                        4658923
SJPF  000.18 080.5 m E Sg      2011/03/10 21:47:33.7  -0.1                          T               17.5  .24        Md 1.4  4658922
EPF   001.32 091.7 m E Pg      2011/03/10 21:47:52.3  -0.1                          T                                        4658920
EPF   001.32 091.7 m E Sg      2011/03/10 21:48:09.6   0.1                          T                1.5  .30 Ml 1.7 Md 1.4  4658921
LFF   002.44 039.8 m E Pg      2011/03/10 21:48:13.1   0.1                          T                                        4658919
LFF   002.44 039.8 m E Sg      2011/03/10 21:48:44.5   0.1                          T                 .8  .24 Ml 1.6 Md 1.5  4658916
MTLF  002.70 083.3 m E Pg      2011/03/10 21:48:18.0   0.2                          T                                        4658918
MTLF  002.70 083.3 m E Sg      2011/03/10 21:48:52.7   0.2                          T                 .6  .21 Ml 1.8         4658917

.
EVENT     256975
    Date      Time       Latitude Longitude    Depth    Ndef Nsta Gap    Mag1  N    Mag2  N    Mag3  N   Author         ID
       rms   OT_Error      Smajor Sminor Az        Err   mdist  Mdist     Err        Err        Err      Quality

2011/03/10 22:09:20.5     44.5898    7.2396      2.0      20    9 189  Ml 1.5  8  Md 1.7  3              js067245    256975

      0.18   +-  0.08       1.7     .8   74.92 +-  0.0    0.36   1.85   +-0.3      +-0.0                 m i ke

NORTHERN ITALY
Sta     Dist  EvAz     Phase      Date       Time     TRes  Azim  AzRes  Slow  SRes Def   SNR       Amp   Per   Mag1   Mag2       ID
MBDF  000.36 292.5 m E Pg      2011/03/10 22:09:27.9   0.3                          T                                        4658952
MBDF  000.36 292.5 m E Sg      2011/03/10 22:09:32.5   0.0                          T                7.4  .18        Md 1.7  4658944
SBF   000.74 169.0 m E Pg      2011/03/10 22:09:34.8   0.3                          T                                        4658945
SBF   000.74 169.0 m E Sg      2011/03/10 22:09:43.9  -0.3                          T                1.7  .22        Md 1.8  4658937
LPG   000.97 339.3 m E Pg      2011/03/10 22:09:38.9  -0.2                          T                                        4658949
LPG   000.97 339.3 m E Sg      2011/03/10 22:09:51.6  -0.1                          T                 .7  .20 Ml 1.4 Md 1.7  4658941
LPL   000.99 339.0 m E Pg      2011/03/10 22:09:39.5   0.1                          T                                        4658950
LPL   000.99 339.0 m E Sg      2011/03/10 22:09:52.2  -0.1                          T                1.1  .31 Ml 1.4         4658942
ORIF  001.02 289.2 m E Pg      2011/03/10 22:09:39.6  -0.2                          T                                        4658951
ORIF  001.02 289.2 m E Sg      2011/03/10 22:09:53.0  -0.1                          T                 .5  .25 Ml 1.1         4658943
FRF   001.11 202.8 m E Pg      2011/03/10 22:09:41.2  -0.1                          T                                        4658947
FRF   001.11 202.8 m E Sg      2011/03/10 22:09:55.5  -0.3                          T                1.8  .25 Ml 1.8         4658939
LMR   001.36 203.0 m E Pg      2011/03/10 22:09:45.6  -0.2                          T                                        4658946
LMR   001.36 203.0 m E Sg      2011/03/10 22:10:03.6   0.1                          T                1.8  .23 Ml 1.9         4658938
SMRF  001.34 243.4 m E Pg      2011/03/10 22:09:45.8   0.2                          T                                        4658948
SMRF  001.34 243.4 m E Sg      2011/03/10 22:10:03.0   0.0                          T                1.4  .34 Ml 1.6         4658940
VIVF  001.85 279.2 m E Pg      2011/03/10 22:09:54.9   0.0                          T                                        4658935
VIVF  001.85 279.2 m E Sg      2011/03/10 22:10:18.6  -0.1                          T                 .7  .34 Ml 1.5         4658936

.
