BEGIN GSE2.0
MSG_TYPE DATA
MSG_ID 19-JAN-1114:38:14  FRA_NDC
E-MAIL
DATA_TYPE BULLETIN
Reviewed Bulletin (REB) # P2011-002  from French NDC for regional phases     PERIOD 12 JAN 2011 TO 18 JAN 2011 C M., J-P S
EVENT     253660
    Date      Time       Latitude Longitude    Depth    Ndef Nsta Gap    Mag1  N    Mag2  N    Mag3  N   Author         ID
       rms   OT_Error      Smajor Sminor Az        Err   mdist  Mdist     Err        Err        Err      Quality

2011/01/12 11:02:35.2     37.0136   -4.8136      2.0      57    5 070  Ml 3.4  4                         js067245    253680

      0.80   +-  0.12       2.9    1.8    7.15 +-  0.0    0.45   8.30   +-0.2                            m i ke

SPAIN
Sta     Dist  EvAz     Phase      Date       Time     TRes  Azim  AzRes  Slow  SRes Def   SNR       Amp   Per   Mag1   Mag2       ID
EVOP  003.03 301.0 m E Pn      2011/01/12 11:03:22.0  -0.2                          T                                        4581759
EVOP  003.03 301.0 m E Pg      2011/01/12 11:03:30.6  -0.6                          T                                        4581758
EVOP  003.03 301.0 m E Sn      2011/01/12 11:03:56.6  -0.3                          T                                        4581756
EVOP  003.03 301.0 m E Sg      2011/01/12 11:04:10.1   0.0                          T               48.2  .42 Ml 3.5         4581757
SJPF  006.68 023.2 m E Pn      2011/01/12 11:04:12.1   0.1                          T                                        4581766
SJPF  006.68 023.2 m E Sg      2011/01/12 11:06:04.4   0.1                          T                7.6  .61 Ml 3.3         4581762
ETSF  006.72 027.7 m E Pn      2011/01/12 11:04:12.7   0.1                          T                                        4581765
ETSF  006.72 027.7 m E Sg      2011/01/12 11:06:05.6   0.0                          T                6.2  .70 Ml 3.2         4581761
EPF   007.19 031.7 m E Pn      2011/01/12 11:04:19.1   0.1                          T                                        4581764
EPF   007.19 031.7 m E Sg      2011/01/12 11:06:20.2   0.0                          T               16.4  .84 Ml 3.6         4581760
MTLF  008.30 038.2 m E Pn      2011/01/12 11:04:33.9  -0.1                          T                                        4581763

.
EVENT     253661
    Date      Time       Latitude Longitude    Depth    Ndef Nsta Gap    Mag1  N    Mag2  N    Mag3  N   Author         ID
       rms   OT_Error      Smajor Sminor Az        Err   mdist  Mdist     Err        Err        Err      Quality

2011/01/12 11:07:37.5     37.0038   -4.8021      2.0      48    6 099  Ml 3.1  4                         js067245    253681

      0.85   +-  0.14       3.7    2.1    1.66 +-  0.0    0.44   9.56   +-0.2                            m i ke

SPAIN
Sta     Dist  EvAz     Phase      Date       Time     TRes  Azim  AzRes  Slow  SRes Def   SNR       Amp   Per   Mag1   Mag2       ID
EVOP  003.04 301.0 m E Pn      2011/01/12 11:08:24.1  -0.5                          T                                        4581778
EVOP  003.04 301.0 m E Pg      2011/01/12 11:08:33.1  -0.7                          T                                        4581779
EVOP  003.04 301.0 m E Sg      2011/01/12 11:09:12.6  -0.3                          T               34.6  .46 Ml 3.3         4581777
SJPF  006.69 023.1 m E Pn      2011/01/12 11:09:14.3  -0.1                          T                                        4581776
SJPF  006.69 023.1 m E Sg      2011/01/12 11:11:06.7  -0.1                          T                4.5  .57 Ml 3.1         4581773
ETSF  006.73 027.6 m E Pn      2011/01/12 11:09:14.9  -0.1                          T                                        4581775
ETSF  006.73 027.6 m E Sg      2011/01/12 11:11:08.1   0.0                          T                2.8  .62 Ml 2.9         4581771
EPF   007.20 031.6 m E Pn      2011/01/12 11:09:21.1  -0.2                          T                                        4581774
EPF   007.20 031.6 m E Sg      2011/01/12 11:11:22.6  -0.1                          T                3.4  .53 Ml 3.1         4581772
LFF   008.96 026.1 m E Pn      2011/01/12 11:09:45.3   0.0                          T                                        4581770
RJF   009.56 027.9 m E Pn      2011/01/12 11:09:53.5   0.0                          T                                        4581769

.
EVENT     253664
    Date      Time       Latitude Longitude    Depth    Ndef Nsta Gap    Mag1  N    Mag2  N    Mag3  N   Author         ID
       rms   OT_Error      Smajor Sminor Az        Err   mdist  Mdist     Err        Err        Err      Quality

2011/01/12 18:57:14.3     46.4535   -3.1128     10.0 f    49   16 199  Ml 2.2 17  Md 2.1  3              js067245    253684

      0.85   +-  0.16       3.2    1.7   58.52 +-  0.0    1.46   4.90   +-0.2      +-0.1                 m i ke

BAY OF BISCAY
Sta     Dist  EvAz     Phase      Date       Time     TRes  Azim  AzRes  Slow  SRes Def   SNR       Amp   Per   Mag1   Mag2       ID
QUIF  001.46 358.6 m E Pn      2011/01/12 18:57:39.1   0.0                          T                                        4581812
QUIF  001.46 358.6 m E Pg      2011/01/12 18:57:41.3  -0.3                          T                                        4581787
QUIF  001.46 358.6 m E Sg      2011/01/12 18:58:00.2  -0.3                          T                4.2  .18 Ml 2.4 Md 2.3  4581781
SGMF  001.84 011.6 m E Pn      2011/01/12 18:57:44.2   0.0                          T                                        4581811
SGMF  001.84 011.6 m E Pg      2011/01/12 18:57:48.3  -0.2                          T                                        4581785
SGMF  001.84 011.6 m E Sg      2011/01/12 18:58:12.0  -0.3                          T                2.0  .28 Ml 2.0 Md 2.1  4581782
ROSF  001.89 356.7 m E Pn      2011/01/12 18:57:45.1   0.2                          T                                        4581810
ROSF  001.89 356.7 m E Pg      2011/01/12 18:57:48.8  -0.6                          T                                        4581784
ROSF  001.89 356.7 m E Sg      2011/01/12 18:58:13.4  -0.3                          T                2.4  .23 Ml 2.2 Md 2.1  4581783
MFF   002.05 084.8 m E Pn      2011/01/12 18:57:47.2   0.1                          T                                        4581809
MFF   002.05 084.8 m E Pg      2011/01/12 18:57:52.0  -0.4                          T                                        4581786
MFF   002.05 084.8 m E Sg      2011/01/12 18:58:19.0   0.1                          T                2.9  .22 Ml 2.5         4581780
GRR   002.47 037.5 m E Pn      2011/01/12 18:57:53.2   0.5                          T                                        4581808
GRR   002.47 037.5 m E Pg      2011/01/12 18:57:59.9  -0.2                          T                                        4581817
GRR   002.47 037.5 m E Sn      2011/01/12 18:58:22.4   1.2                          T                                        4581792
GRR   002.47 037.5 m E Sg      2011/01/12 18:58:31.7  -0.2                          T                1.7  .24 Ml 2.0         4581793
FLN   002.92 036.7 m E Pn      2011/01/12 18:57:59.5   0.6                          T                                        4581796
FLN   002.92 036.7 m E Pg      2011/01/12 18:58:08.1  -0.3 220.4  1.8               T                                        4581794
FLN   002.92 036.7 m E Sn      2011/01/12 18:58:34.6   2.7                          T                                        4582536
FLN   002.92 036.7 m E Sg      2011/01/12 18:58:45.6  -0.2                          T                1.9  .25 Ml 2.1         4581797
LDF   002.95 042.3 m E Pn      2011/01/12 18:57:59.9   0.5                          T                                        4581795
LDF   002.95 042.3 m E Pg      2011/01/12 18:58:08.6  -0.4                          T                                        4581816
LDF   002.95 042.3 m E Sn      2011/01/12 18:58:35.1   2.5                          T                                        4582537
LDF   002.95 042.3 m E Sg      2011/01/12 18:58:46.7  -0.2                          T                2.1  .36 Ml 2.2         4581798
LFF   003.10 117.9 m E Pn      2011/01/12 18:58:01.4   0.1                          T                                        4581806
LFF   003.10 117.9 m E Sg      2011/01/12 18:58:51.0  -0.4                          T                2.7  .21 Ml 2.4         4581790
RJF   003.43 107.9 m E Pn      2011/01/12 18:58:06.1   0.2                          T                                        4581807
RJF   003.43 107.9 m E Sg      2011/01/12 18:59:01.6  -0.3                          T                1.7  .23 Ml 2.1         4581791
TCF   003.69 090.6 m E Pn      2011/01/12 18:58:08.6  -0.8                          T                                        4581820
TCF   003.69 090.6 m E Sn      2011/01/12 18:58:50.7   0.3                          T                                        4581819
TCF   003.69 090.6 m E Sg      2011/01/12 18:59:09.8  -0.2                          T                 .7  .18 Ml 2.2         4581818
SJPF  003.60 157.4 m E Pn      2011/01/12 18:58:08.7   0.5                          T                                        4581804
SJPF  003.60 157.4 m E Sg      2011/01/12 18:59:06.6  -0.6                          T                1.1  .33 Ml 2.1         4581788
CAF   003.94 111.0 m E Pn      2011/01/12 18:58:12.6  -0.2                          T                                        4581805
CAF   003.94 111.0 m E Sn      2011/01/12 18:58:59.0   2.7                          T                                        4582535
CAF   003.94 111.0 m E Sg      2011/01/12 18:59:17.4  -0.3                          T                1.2  .21 Ml 2.4         4581789
HYF   004.03 076.2 m E Pn      2011/01/12 18:58:14.6   0.5                          T                                        4581815
HYF   004.03 076.2 m E Sg      2011/01/12 18:59:20.4  -0.2                          T                                        4581801
BGF   004.12 086.4 m E Pn      2011/01/12 18:58:15.9   0.6                          T                                        4581814
BGF   004.12 086.4 m E Sg      2011/01/12 18:59:23.0  -0.3                          T                1.7  .25 Ml 2.5         4581800
AVF   004.47 083.3 m E Pn      2011/01/12 18:58:20.0   0.0                          T                                        4581803
AVF   004.47 083.3 m E Sn      2011/01/12 18:59:09.4   0.5                          T                 .5  .21 Ml 2.1         4581802
MTLF  004.90 127.5 m E Pn      2011/01/12 18:58:25.0  -0.9                          T                                        4582534

.
EVENT     253665
    Date      Time       Latitude Longitude    Depth    Ndef Nsta Gap    Mag1  N    Mag2  N    Mag3  N   Author         ID
       rms   OT_Error      Smajor Sminor Az        Err   mdist  Mdist     Err        Err        Err      Quality

2011/01/12 19:43:54.3     37.0281   -4.7987      2.0      56    4 070  Ml 2.8  4                         js067245    253685

      0.77   +-  0.11       2.5    1.7    1.41 +-  0.0    0.46   7.17   +-0.4                            m i ke

SPAIN
Sta     Dist  EvAz     Phase      Date       Time     TRes  Azim  AzRes  Slow  SRes Def   SNR       Amp   Per   Mag1   Mag2       ID
EVOP  003.03 300.6 m E Pn      2011/01/12 19:44:41.4   0.0                          T                                        4581852
EVOP  003.03 300.6 m E Pg      2011/01/12 19:44:50.0  -0.5                          T                                        4581851
EVOP  003.03 300.6 m E Sn      2011/01/12 19:45:15.7  -0.3                          T                                        4581850
EVOP  003.03 300.6 m E Sg      2011/01/12 19:45:29.3  -0.1                          T               31.2  .38 Ml 3.3         4581849
SJPF  006.67 023.2 m E Pn      2011/01/12 19:45:31.0   0.1                          T                                        4581848
SJPF  006.67 023.2 m E Sn      2011/01/12 19:46:42.0  -1.0                          T                 .7  .36 Ml 2.5         4581845
ETSF  006.71 027.7 m E Pn      2011/01/12 19:45:32.0   0.5                          T                                        4581847
ETSF  006.71 027.7 m E Sn      2011/01/12 19:46:43.5  -0.5                          T                 .4  .26 Ml 2.4         4581844
EPF   007.17 031.7 m E Pn      2011/01/12 19:45:38.4   0.6                          T                                        4581846
EPF   007.17 031.7 m E Sn      2011/01/12 19:46:52.0  -3.2                          T                1.9  .49 Ml 2.9         4581843

.
EVENT     253666
    Date      Time       Latitude Longitude    Depth    Ndef Nsta Gap    Mag1  N    Mag2  N    Mag3  N   Author         ID
       rms   OT_Error      Smajor Sminor Az        Err   mdist  Mdist     Err        Err        Err      Quality

2011/01/12 21:36:27.6     43.0803    -.5813      3.0 f     7    4 167  Ml 1.3  1  Md 1.3  3              js067245    253686

      0.29   +-  0.11       3.6    1.6    4.54 +-  0.0    0.09   2.06   +-         +-0.1                 m i ke

PYRENEES
Sta     Dist  EvAz     Phase      Date       Time     TRes  Azim  AzRes  Slow  SRes Def   SNR       Amp   Per   Mag1   Mag2       ID
ETSF  000.18 174.9 m E Pg      2011/01/12 21:36:31.3  -0.1                          T                                        4581858
ETSF  000.18 174.9 m E Sg      2011/01/12 21:36:34.1   0.2                          T               13.2  .24        Md 1.3  4581853
SJPF  000.47 274.2 m E Pg      2011/01/12 21:36:37.0   0.4                          T                                        4581857
SJPF  000.47 274.2 m E Sg      2011/01/12 21:36:42.7  -0.2                          T                2.4  .38        Md 1.2  4581854
EPF   000.68 093.9 m E Pg      2011/01/12 21:36:40.2  -0.2                          T                                        4581856
EPF   000.68 093.9 m E Sg      2011/01/12 21:36:49.4   0.1                          T                1.6  .34        Md 1.3  4581855
MTLF  002.06 081.8 m E Sn      2011/01/12 21:37:25.9  -0.1                          T                 .3  .23 Ml 1.3         4582538

.
EVENT     253669
    Date      Time       Latitude Longitude    Depth    Ndef Nsta Gap    Mag1  N    Mag2  N    Mag3  N   Author         ID
       rms   OT_Error      Smajor Sminor Az        Err   mdist  Mdist     Err        Err        Err      Quality

2011/01/13 01:27:39.3     45.5904    6.9577      2.0      14    6 302  Ml 2.0  5  Md 2.0  3              js067245    253689

      0.23   +-  0.20       3.3    2.4   23.89 +-  0.0    0.17   2.68   +-0.1      +-0.0                 m i ke

FRANCE
Sta     Dist  EvAz     Phase      Date       Time     TRes  Azim  AzRes  Slow  SRes Def   SNR       Amp   Per   Mag1   Mag2       ID
LPL   000.17 245.0 m E Pg      2011/01/13 01:27:42.8  -0.4                          T                                        4581879
LPL   000.17 245.0 m E Sg      2011/01/13 01:27:44.8  -0.8                          T               38.9  .24        Md 2.0  4581873
LPG   000.17 237.5 m E Pg      2011/01/13 01:27:43.0  -0.2                          T                                        4581878
LPG   000.17 237.5 m E Sg      2011/01/13 01:27:45.2  -0.3                          T               45.9  .14        Md 2.0  4581872
MBDF  000.87 188.7 m E Pg      2011/01/13 01:27:55.8  -0.1                          T                                        4581877
MBDF  000.87 188.7 m E Sg      2011/01/13 01:28:07.3   0.1                          T                6.8  .36 Ml 2.0 Md 2.0  4581875
ORIF  001.02 228.9 m E Pg      2011/01/13 01:27:58.5   0.0                          T                                        4581876
ORIF  001.02 228.9 m E Sg      2011/01/13 01:28:11.7   0.1                          T                3.6  .24 Ml 2.0         4581874
VIVF  001.77 246.4 m E Pg      2011/01/13 01:28:12.3   0.0                          T                                        4581885
VIVF  001.77 246.4 m E Sg      2011/01/13 01:28:35.2   0.0                          T                1.2  .20 Ml 1.9         4581871
LASF  002.68 236.6 m E Pn      2011/01/13 01:28:21.6   0.1                          T                                        4581889
LASF  002.68 236.6 m E Sn      2011/01/13 01:28:52.7   0.1                          T                1.4  .24 Ml 2.1         4581888

.
EVENT     253668
    Date      Time       Latitude Longitude    Depth    Ndef Nsta Gap    Mag1  N    Mag2  N    Mag3  N   Author         ID
       rms   OT_Error      Smajor Sminor Az        Err   mdist  Mdist     Err        Err        Err      Quality

2011/01/13 02:01:41.7     36.9796   -4.8057      2.0      72    4 078  Ml 3.4  4                         js067245    253688

      0.87   +-  0.12       2.7    1.9     .64 +-  0.0    0.42   7.22   +-0.2                            m i ke

STRAIT OF GIBRALTAR
Sta     Dist  EvAz     Phase      Date       Time     TRes  Azim  AzRes  Slow  SRes Def   SNR       Amp   Per   Mag1   Mag2       ID
EVOP  003.05 301.5 m E Pn      2011/01/13 02:02:28.7  -0.3                          T                                        4581907
EVOP  003.05 301.5 m E Pg      2011/01/13 02:02:37.6  -0.6                          T                                        4581906
EVOP  003.05 301.5 m E Sn      2011/01/13 02:03:03.9  -0.1                          T                                        4581905
EVOP  003.05 301.5 m E Sg      2011/01/13 02:03:17.4   0.0                          T              101.7  .56 Ml 3.7         4581904
SJPF  006.71 023.0 m E Pn      2011/01/13 02:03:19.1   0.1                          T                                        4581900
SJPF  006.71 023.0 m E Sn      2011/01/13 02:04:31.5   0.0                          T                                        4581897
SJPF  006.71 023.0 m E Sg      2011/01/13 02:05:11.9   0.1                          T                7.3  .56 Ml 3.3         4581903
ETSF  006.75 027.6 m E Pn      2011/01/13 02:03:19.8   0.2                          T                                        4581899
ETSF  006.75 027.6 m E Sn      2011/01/13 02:04:32.4  -0.2                          T                                        4581896
ETSF  006.75 027.6 m E Sg      2011/01/13 02:05:13.2   0.1                          T                5.5  .62 Ml 3.2         4581901
EPF   007.22 031.6 m E Pn      2011/01/13 02:03:26.1   0.2                          T                                        4581898
EPF   007.22 031.6 m E Sn      2011/01/13 02:04:43.7   0.0                          T                                        4581895
EPF   007.22 031.6 m E Sg      2011/01/13 02:05:27.7   0.1                          T               13.7  .80 Ml 3.5         4581902

.
