EVENT     281127
    Date      Time       Latitude Longitude    Depth    Ndef Nsta Gap    Mag1  N    Mag2  N    Mag3  N   Author         ID
       rms   OT_Error      Smajor Sminor Az        Err   mdist  Mdist     Err        Err        Err      Quality

2012/08/11 00:04:01.8     44.5157    6.7176      2.0      29    9 056  Ml 1.6  5  Md 1.7  3              bulletin    281227
                                                                                                         _ldg
      0.34   +-  0.06       1.3    1.0   71.06 +-  0.0    0.08   1.50   +-0.2      +-0.0                 m i ke

FRANCE
Sta     Dist  EvAz     Phase      Date       Time     TRes  Azim  AzRes  Slow  SRes Def   SNR       Amp   Per   Mag1   Mag2       ID
MBDF  000.21 010.3 m E Pg      2012/08/11 00:04:06.4   0.1                          T                                        5044322
MBDF  000.21 010.3 m E Sg      2012/08/11 00:04:09.0  -0.3                          T                2.3  .20        Md 1.7  5044321
ORIF  000.72 304.3 m E Pg      2012/08/11 00:04:14.8  -0.8                          T                                        5044320
ORIF  000.72 304.3 m E Sg      2012/08/11 00:04:24.2  -0.7                          T                 .9  .18        Md 1.7  5044319
SBF   000.83 141.4 m E Pg      2012/08/11 00:04:17.4  -0.1                          T                                        5044314
SBF   000.83 141.4 m E Sg      2012/08/11 00:04:28.6   0.2                          T                1.2  .23        Md 1.7  5044324
FRF   000.96 183.1 m E Pg      2012/08/11 00:04:20.0   0.3                          T                                        5044316
FRF   000.96 183.1 m E Sg      2012/08/11 00:04:32.4   0.3                          T                2.9  .25 Ml 1.9         5044326
LPG   000.98 001.4 m E Pg      2012/08/11 00:04:20.5  -0.1                          T                                        5044318
LPG   000.98 001.4 m E Sg      2012/08/11 00:04:32.9  -0.5                          T                1.1  .30 Ml 1.4         5044328
SMRF  000.98 237.1 m E Pg      2012/08/11 00:04:20.5   0.2                          T                                        5044317
SMRF  000.98 237.1 m E Sg      2012/08/11 00:04:32.6  -0.5                          T                  1  .23 Ml 1.4         5044327
LPL   001.00 000.6 m E Pg      2012/08/11 00:04:20.9   0.0                          T                                        5044323
LPL   001.00 000.6 m E Sg      2012/08/11 00:04:33.8   0.0                          T                1.5  .32 Ml 1.5         5046919
LMR   001.19 187.3 m E Pg      2012/08/11 00:04:24.2   0.1                          T                                        5044315
LMR   001.19 187.3 m E Sg      2012/08/11 00:04:39.8   0.3                          T                1.1  .19 Ml 1.7         5044325
VIVF  001.50 283.9 m E Pn      2012/08/11 00:04:28.2   0.1                          T                                        5046918

.
EVENT     281128
    Date      Time       Latitude Longitude    Depth    Ndef Nsta Gap    Mag1  N    Mag2  N    Mag3  N   Author         ID
       rms   OT_Error      Smajor Sminor Az        Err   mdist  Mdist     Err        Err        Err      Quality

2012/08/11 00:54:45.1     45.3176    6.6071      2.0      12    5 139  Ml 1.4  1  Md 1.6  4              bulletin    281228
                                                                                                         _ldg
      0.20   +-  0.06       2.0     .9  124.04 +-  0.0    0.21   1.45   +-         +-0.1                 m i ke

FRANCE
Sta     Dist  EvAz     Phase      Date       Time     TRes  Azim  AzRes  Slow  SRes Def   SNR       Amp   Per   Mag1   Mag2       ID
LPL   000.22 023.9 m E Pg      2012/08/11 00:54:49.6  -0.1                          T                                        5044334
LPL   000.22 023.9 m E Sg      2012/08/11 00:54:53.1   0.4                          T                2.4  .18        Md 1.5  5044333
LPG   000.21 029.4 m E Pg      2012/08/11 00:54:49.7   0.1                          T                                        5044332
LPG   000.21 029.4 m E Sg      2012/08/11 00:54:51.8  -0.6                          T                1.7  .24        Md 1.6  5044331
MBDF  000.60 168.8 m E Pg      2012/08/11 00:54:56.6  -0.1                          T                                        5044338
MBDF  000.60 168.8 m E Sg      2012/08/11 00:55:04.7   0.1                          T                 .3  .18        Md 1.7  5044337
ORIF  000.65 232.5 m E Pg      2012/08/11 00:54:57.6   0.1                          T                                        5044330
ORIF  000.65 232.5 m E Sg      2012/08/11 00:55:05.9  -0.1                          T                  1  .19        Md 1.6  5044329
VIVF  001.45 252.1 m E Pn      2012/08/11 00:55:10.7   0.1                          T                                        5044336
VIVF  001.45 252.1 m E Sn      2012/08/11 00:55:29.1   0.0                          T                 .8  .32 Ml 1.4         5044335

.
EVENT     281213
    Date      Time       Latitude Longitude    Depth    Ndef Nsta Gap    Mag1  N    Mag2  N    Mag3  N   Author         ID
       rms   OT_Error      Smajor Sminor Az        Err   mdist  Mdist     Err        Err        Err      Quality

2012/08/11 00:55:49.3     43.9205    7.3806      2.0       6    3 269  Ml 1.0  1  Md 1.1  2              bulletin    281313
                                                                                                         _ldg
      0.16   +-  0.45      10.3    4.0    4.32 +-  0.0    0.07   0.86   +-         +-0.3                 m i ke

NEAR SOUTH COAST OF FRANCE
Sta     Dist  EvAz     Phase      Date       Time     TRes  Azim  AzRes  Slow  SRes Def   SNR       Amp   Per   Mag1   Mag2       ID
SBF   000.07 145.4 m E Pg      2012/08/11 00:55:51.0  -0.2                          T                                Md 1.4  5046927
SBF   000.07 145.4 m E Sg      2012/08/11 00:55:52.2  -0.1                          T                6.5  .22                5046926
FRF   000.64 236.2 m E Pg      2012/08/11 00:56:01.4  -0.1                          T                                        5046925
FRF   000.64 236.2 m E Sg      2012/08/11 00:56:09.6  -0.3                          T                 .3  .17        Md  .9  5046924
LMR   000.86 227.5 m E Pg      2012/08/11 00:56:05.7   0.1                          T                                        5046923
LMR   000.86 227.5 m E Sg      2012/08/11 00:56:16.9   0.1                          T                 .4  .23 Ml 1.0         5046922

.
EVENT     281129
    Date      Time       Latitude Longitude    Depth    Ndef Nsta Gap    Mag1  N    Mag2  N    Mag3  N   Author         ID
       rms   OT_Error      Smajor Sminor Az        Err   mdist  Mdist     Err        Err        Err      Quality

2012/08/11 01:57:26.2     44.9825    6.7756      2.0      20   10 158  Ml 1.2  4  Md 1.6  4              bulletin    281229
                                                                                                         _ldg
      0.15   +-  0.03        .9     .5   81.44 +-  0.0    0.26   2.28   +-0.0      +-0.0                 m i ke

FRANCE
Sta     Dist  EvAz     Phase      Date       Time     TRes  Azim  AzRes  Slow  SRes Def   SNR       Amp   Per   Mag1   Mag2       ID
MBDF  000.26 180.7 m E Pg      2012/08/11 01:57:31.5   0.1                          T                                        5044346
MBDF  000.26 180.7 m E Sg      2012/08/11 01:57:35.0   0.0                          T                 .9  .18        Md 1.6  5044345
LPG   000.52 358.1 m E Pg      2012/08/11 01:57:36.4   0.0                          T                                        5044341
LPG   000.52 358.1 m E Sg      2012/08/11 01:57:43.3   0.1                          T                 .4  .20        Md 1.5  5044339
LPL   000.53 356.7 m E Pg      2012/08/11 01:57:36.6  -0.1                          T                                        5044342
LPL   000.53 356.7 m E Sg      2012/08/11 01:57:43.7   0.0                          T                 .3  .22        Md 1.6  5044340
ORIF  000.64 264.6 m E Pg      2012/08/11 01:57:38.3  -0.1                          T                                        5044344
ORIF  000.64 264.6 m E Sg      2012/08/11 01:57:46.5  -0.3                          T                 .2  .15        Md 1.5  5044343
SBF   001.21 156.9 m E Pg      2012/08/11 01:57:48.8  -0.2                          T                                        5044354
SBF   001.21 156.9 m E Sg      2012/08/11 01:58:04.9   0.2                          T                 .4  .19 Ml 1.2         5044353
SMRF  001.32 220.9 m E Pn      2012/08/11 01:57:50.2   0.1                          T                                        5044351
SMRF  001.32 220.9 m E Sn      2012/08/11 01:58:07.1  -0.1                          T                 .6  .30 Ml 1.2         5044350
FRF   001.42 183.8 m E Pn      2012/08/11 01:57:51.5   0.1                          T                                        5046935
FRF   001.42 183.8 m E Sn      2012/08/11 01:58:09.6   0.0                          T                 .4  .31 Ml 1.2         5046934
VIVF  001.50 265.9 m E Pn      2012/08/11 01:57:52.7   0.2                          T                                        5044352
LMR   001.66 186.7 m E Pn      2012/08/11 01:57:54.6   0.0                          T                                        5044348
LMR   001.66 186.7 m E Sn      2012/08/11 01:58:15.3   0.0                          T                 .4  .36 Ml 1.1         5044347
LASF  002.28 247.6 m E Pn      2012/08/11 01:58:03.1   0.1                          T                                        5044349

.
EVENT     281214
    Date      Time       Latitude Longitude    Depth    Ndef Nsta Gap    Mag1  N    Mag2  N    Mag3  N   Author         ID
       rms   OT_Error      Smajor Sminor Az        Err   mdist  Mdist     Err        Err        Err      Quality

2012/08/11 01:57:35.2     42.7949    -.4738     15.0       4    2 260             Md 1.0  2              bulletin    281314
                                                                                                         _ldg
      0.14   +-  0.35      13.4    2.5    8.36 +-  0.0    0.12   0.64              +-0.1                 m i ke

PYRENEES
Sta     Dist  EvAz     Phase      Date       Time     TRes  Azim  AzRes  Slow  SRes Def   SNR       Amp   Per   Mag1   Mag2       ID
ETSF  000.12 328.8 m E Pg      2012/08/11 01:57:38.8  -0.2                          T                                        5046931
ETSF  000.12 328.8 m E Sg      2012/08/11 01:57:41.5   0.0                          T                 .6  .22        Md 1.1  5046930
EPF   000.64 068.2 m E Pg      2012/08/11 01:57:47.7   0.0                          T                                        5046928
EPF   000.64 068.2 m E Sg      2012/08/11 01:57:56.0  -0.3                          T                 .4  .21        Md 1.0  5046929

.
EVENT     281131
    Date      Time       Latitude Longitude    Depth    Ndef Nsta Gap    Mag1  N    Mag2  N    Mag3  N   Author         ID
       rms   OT_Error      Smajor Sminor Az        Err   mdist  Mdist     Err        Err        Err      Quality

2012/08/11 06:39:19.1     47.9332   -2.3237      2.0      23    7 137  Ml 2.6  5  Md 2.3  3              bulletin    281231
                                                                                                         _ldg
      0.29   +-  0.06       1.5     .8   10.56 +-  0.0    0.36   1.99   +-0.1      +-0.1                 m i ke

FRANCE
Sta     Dist  EvAz     Phase      Date       Time     TRes  Azim  AzRes  Slow  SRes Def   SNR       Amp   Per   Mag1   Mag2       ID
SGMF  000.36 334.1 m E Pg      2012/08/11 06:39:25.9  -0.1                          T                                        5044386
SGMF  000.36 334.1 m E Sg      2012/08/11 06:39:30.4  -0.4                          T               14.9  .15        Md 2.4  5044378
QUIF  000.57 268.6 m E Pg      2012/08/11 06:39:30.1   0.2                          T                                        5044383
QUIF  000.57 268.6 m E Sg      2012/08/11 06:39:37.1  -0.2                          T               10.6  .18        Md 2.3  5044379
QUIF  000.57 268.6 m E Sn      2012/08/11 06:39:41.4  -0.6                          T                8.2  .20                5046941
ROSF  000.75 302.7 m E Pg      2012/08/11 06:39:33.4   0.0                          T                                        5044385
ROSF  000.75 302.7 m E Pn      2012/08/11 06:39:35.0  -0.2                          T                                        5046942
ROSF  000.75 302.7 m E Sg      2012/08/11 06:39:43.2   0.1                          T               23.4  .24        Md 2.3  5044377
GRR   001.08 064.6 m E Pg      2012/08/11 06:39:39.7   0.3                          T                                        5044384
GRR   001.08 064.6 m E Sg      2012/08/11 06:39:53.1  -0.3                          T               15.6  .24 Ml 2.5         5044376
FLN   001.48 055.3 m E Pg      2012/08/11 06:39:46.7   0.0 235.9  -0.7              T                                        5044382
FLN   001.48 055.3 m E Sg      2012/08/11 06:40:05.7  -0.2                          T               15.0  .24 Ml 2.7         5044374
LDF   001.61 065.0 m E Pn      2012/08/11 06:39:47.9   1.0                          T                                        5046943
LDF   001.61 065.0 m E Pg      2012/08/11 06:39:49.1   0.0                          T                                        5052784
LDF   001.61 065.0 m E Sg      2012/08/11 06:40:09.7  -0.2                          T                7.6  .20 Ml 2.6         5044375
MFF   001.99 131.1 m E P       2012/08/11 06:39:54.6   0.3                          T                                        5044381
MFF   001.99 131.1 m E Pg      2012/08/11 06:39:57.2   1.0                          T                                        5052785
MFF   001.99 131.1 m E Sg      2012/08/11 06:40:21.3  -0.5                          T                3.5  .20 Ml 2.6         5044380

.
