EVENT     288472
    Date      Time       Latitude Longitude    Depth    Ndef Nsta Gap    Mag1  N    Mag2  N    Mag3  N   Author         ID
       rms   OT_Error      Smajor Sminor Az        Err   mdist  Mdist     Err        Err        Err      Quality

2012/11/30 02:47:20.2     43.9869   11.6346      7.0 f    27   11 150  Ml 3.2  9                         bulletin    288572
                                                                                                         _ldg
      0.50   +-  0.12       4.5    1.8   42.51 +-  0.0    0.17   6.48   +-0.3                            m i ke

CENTRAL ITALY
Sta     Dist  EvAz     Phase      Date       Time     TRes  Azim  AzRes  Slow  SRes Def   SNR       Amp   Per   Mag1   Mag2       ID
PGF   002.40 234.1 m E P       2012/11/30 02:48:00.8   0.0                          T                                        5138956
PGF   002.40 234.1 m E Sn      2012/11/30 02:48:26.9   0.7                          T               12.2  .37 Ml 3.1         5138955
MBDF  003.57 283.7 m E P       2012/11/30 02:48:16.9  -0.5                          T                                        5138958
MBDF  003.57 283.7 m E Sn      2012/11/30 02:48:54.0   0.0                          T               29.3  .85 Ml 3.1         5138951
FRF   003.64 265.0 m E P       2012/11/30 02:48:17.7  -0.6                          T                                        5138957
FRF   003.64 265.0 m E Sn      2012/11/30 02:48:56.0   0.5                          T                6.0  .37 Ml 2.8         5138953
LPL   003.81 295.4 m E P       2012/11/30 02:48:20.7  -0.3                          T                                        5138959
LPL   003.81 295.4 m E Sn      2012/11/30 02:49:00.0   0.0                          T               14.0  .66 Ml 2.9         5138952
CABF  004.71 305.8 m E P       2012/11/30 02:48:32.5  -1.1                          T                                        5138960
HINF  005.08 320.6 m E Pn      2012/11/30 02:48:34.4  -0.2                          T                                        5138961
HINF  005.08 320.6 m E Sn      2012/11/30 02:49:30.1   0.0                          T               10.9  .48 Ml 3.2         5138950
CDF   005.36 327.2 m E Pn      2012/11/30 02:48:39.2   0.7                          T                                        5138963
CDF   005.36 327.2 m E Sn      2012/11/30 02:49:36.6  -0.2                          T               16.0  .58 Ml 3.5         5138948
HAU   005.45 319.4 m E Pn      2012/11/30 02:48:40.5   0.8                          T                                        5138962
HAU   005.45 319.4 m E Sn      2012/11/30 02:49:38.4  -0.5                          T               20.2  .44 Ml 3.4         5138949
SBF   003.04 269.1 m E Sn      2012/11/30 02:48:41.8   0.6                          T               37.7  .58 Ml 3.2         5138954
LOR   006.36 303.8 m E Pn      2012/11/30 02:48:53.2   1.2                          T                                        5138965
LOR   006.36 303.8 m E Sn      2012/11/30 02:50:00.5  -0.2                          T               13.7  .58 Ml 3.5         5138947
SSF   006.48 301.1 m E Pn      2012/11/30 02:48:55.0   1.3                          T                                        5138964

.
EVENT     287679
    Date      Time       Latitude Longitude    Depth    Ndef Nsta Gap    Mag1  N    Mag2  N    Mag3  N   Author         ID
       rms   OT_Error      Smajor Sminor Az        Err   mdist  Mdist     Err        Err        Err      Quality

2012/11/30 03:28:48.4     43.9710   11.7919      7.0 f    22    9 164  Ml 3.1  3                         bulletin    287779
                                                                                                         _ldg
      1.12   +-  0.29      12.2    4.3   50.21 +-  0.0    0.08   6.59   +-0.1                            m i ke

CENTRAL ITALY
Sta     Dist  EvAz     Phase      Date       Time     TRes  Azim  AzRes  Slow  SRes Def   SNR       Amp   Per   Mag1   Mag2       ID
FRF   003.75 265.5 m E Pn      2012/11/30 03:29:46.3   1.7                          T                                        5128064
LPG   003.90 294.8 m E Pn      2012/11/30 03:29:49.5   2.4                          T                                        5128066
LPL   003.92 295.0 m E Pn      2012/11/30 03:29:50.1   2.8                          T                                        5128065
CABF  004.81 305.2 m E Pn      2012/11/30 03:30:00.1   0.8                          T                                        5128067
HINF  005.16 319.9 m E Pn      2012/11/30 03:30:03.3  -0.7                          T                                        5128072
HINF  005.16 319.9 m E Sn      2012/11/30 03:31:01.8   1.6                          T                5.4  .41 Ml 3.0         5128073
CDF   005.44 326.4 m E Pn      2012/11/30 03:30:07.0  -0.8                          T                                        5128068
CDF   005.44 326.4 m E Sn      2012/11/30 03:31:07.7   0.8                          T                                        5128061
HAU   005.54 318.7 m E Pn      2012/11/30 03:30:08.7  -0.4                          T                                        5128071
HAU   005.54 318.7 m E Sn      2012/11/30 03:31:11.8   2.7                          T                9.4  .48 Ml 3.1         5128063
LOR   006.47 303.4 m E Pn      2012/11/30 03:30:22.1   0.4 113.8  -4.0              T                                        5128070
LOR   006.47 303.4 m E Sn      2012/11/30 03:31:33.1   1.7                          T                6.4  .49 Ml 3.3         5128062
SSF   006.59 300.9 m E Pn      2012/11/30 03:30:23.2  -0.1                          T                                        5128069

.
EVENT     287705
    Date      Time       Latitude Longitude    Depth    Ndef Nsta Gap    Mag1  N    Mag2  N    Mag3  N   Author         ID
       rms   OT_Error      Smajor Sminor Az        Err   mdist  Mdist     Err        Err        Err      Quality

2012/11/30 12:08:28.4     43.1231    -.6103      2.0      29    6 109  Ml 1.8  3  Md 2.1  3              bulletin    287805
                                                                                                         _ldg
      0.47   +-  0.09       2.0    1.3  174.94 +-  0.0    0.08   2.64   +-0.1      +-0.1                 m i ke

PYRENEES
Sta     Dist  EvAz     Phase      Date       Time     TRes  Azim  AzRes  Slow  SRes Def   SNR       Amp   Per   Mag1   Mag2       ID
ETSF  000.23 170.5 m E Pg      2012/11/30 12:08:32.9  -0.1                          T                                        5128254
ETSF  000.23 170.5 m E Sg      2012/11/30 12:08:36.0  -0.2                          T              222.3  .20        Md 2.1  5128253
SJPF  000.45 269.0 m E Pg      2012/11/30 12:08:37.1   0.0                          T                                        5128252
SJPF  000.45 269.0 m E Sg      2012/11/30 12:08:43.4   0.4                          T               15.6  .24        Md 2.1  5128251
EPF   000.70 097.3 m E Pg      2012/11/30 12:08:42.0   0.3                          T                                        5128250
EPF   000.70 097.3 m E Sg      2012/11/30 12:08:51.4   0.5                          T                3.3  .17        Md 2.0  5128249
LFF   002.06 027.7 m E Pn      2012/11/30 12:09:02.5   0.3                          T                                        5128257
LFF   002.06 027.7 m E Sn      2012/11/30 12:09:27.1   0.1                          T                                        5128256
LFF   002.06 027.7 m E Sg      2012/11/30 12:09:33.4   0.2                          T                1.0  .20 Ml 1.8         5128255
MTLF  002.08 083.0 m E Pn      2012/11/30 12:09:02.9   0.4                          T                                        5128262
MTLF  002.08 083.0 m E Sn      2012/11/30 12:09:27.5   0.0                          T                                        5128261
MTLF  002.08 083.0 m E Sg      2012/11/30 12:09:33.9   0.1                          T                1.2  .26 Ml 1.9         5128260
CAF   002.64 046.0 m E Pn      2012/11/30 12:09:10.2   0.0                          T                                        5128259
CAF   002.64 046.0 m E Sn      2012/11/30 12:09:41.2   0.3                          T                 .5  .19 Ml 1.8         5128258

.
EVENT     287716
    Date      Time       Latitude Longitude    Depth    Ndef Nsta Gap    Mag1  N    Mag2  N    Mag3  N   Author         ID
       rms   OT_Error      Smajor Sminor Az        Err   mdist  Mdist     Err        Err        Err      Quality

2012/11/30 15:07:05.5     42.0325    7.6559     25.0      38   11 203  Ml 2.6 12  Md 2.7  1              bulletin    287816
                                                                                                         _ldg
      0.67   +-  0.22       5.2    2.6   13.43 +-  0.0    1.12   4.22   +-0.4      +-                    m i ke

WESTERN MEDITERRANEAN SEA
Sta     Dist  EvAz     Phase      Date       Time     TRes  Azim  AzRes  Slow  SRes Def   SNR       Amp   Per   Mag1   Mag2       ID
PGF   001.12 062.2 m E Pn      2012/11/30 15:07:24.2   0.1                          T                                        5128552
PGF   001.12 062.2 m E Sn      2012/11/30 15:07:37.8   0.1                          T               13.9  .16 Ml 3.0 Md 2.7  5128562
LMR   001.55 327.4 m E Pn      2012/11/30 15:07:29.4  -0.5                          T                                        5128550
LMR   001.55 327.4 m E Sn      2012/11/30 15:07:46.7  -1.1                          T               21.5  .21 Ml 3.1         5128565
FRF   001.70 334.4 m E Pn      2012/11/30 15:07:31.6  -0.3                          T                                        5128549
FRF   001.70 334.4 m E Sn      2012/11/30 15:07:50.5  -0.8                          T                7.5  .16 Ml 2.9         5128564
SBF   001.84 355.0 m E Pn      2012/11/30 15:07:33.6  -0.2                          T                                        5128551
SBF   001.84 355.0 m E Sn      2012/11/30 15:07:54.0  -0.7                          T                7.4  .17 Ml 2.8         5128563
SMRF  002.47 322.5 m E Pn      2012/11/30 15:07:42.6   0.2                          T                                        5128570
SMRF  002.47 322.5 m E Sn      2012/11/30 15:08:10.0   0.1                          T                3.3  .21 Ml 2.5         5128569
MBDF  002.77 346.8 m E Pn      2012/11/30 15:07:47.5   0.8                          T                                        5128574
MBDF  002.77 346.8 m E Sn      2012/11/30 15:08:18.1   1.0                          T                1.7  .22 Ml 2.3         5128567
ORIF  003.16 336.5 m E Pn      2012/11/30 15:07:52.0   0.1                          T                                        5128572
ORIF  003.16 336.5 m E Sn      2012/11/30 15:08:26.6   0.2                          T                 .9  .23 Ml 2.0         5138972
LASF  003.45 307.5 m E Pn      2012/11/30 15:07:56.3   0.5                          T                                        5128573
LASF  003.45 307.5 m E Sn      2012/11/30 15:08:33.4   0.2                          T                3.0  .18 Ml 2.7         5128568
VIVF  003.56 323.4 m E Pn      2012/11/30 15:07:57.0  -0.3                          T                                        5138975
VIVF  003.56 323.4 m E P       2012/11/30 15:08:00.2  -0.6                          T                                        5138974
LPL   003.55 349.4 m E P       2012/11/30 15:08:00.3  -0.5                          T                                        5138973
LPL   003.55 349.4 m E Sn      2012/11/30 15:08:35.8   0.1                          T                 .6  .26 Ml 1.9         5138971
MTLF  004.22 289.9 m E Sn      2012/11/30 15:08:51.8   0.3                          T                2.0  .22 Ml 2.7         5128566

.
EVENT     287719
    Date      Time       Latitude Longitude    Depth    Ndef Nsta Gap    Mag1  N    Mag2  N    Mag3  N   Author         ID
       rms   OT_Error      Smajor Sminor Az        Err   mdist  Mdist     Err        Err        Err      Quality

2012/12/01 01:44:40.0     50.6599    6.8012     10.0      52    9 074  Ml 2.3  8                         bulletin    287819
                                                                                                         _ldg
      0.40   +-  0.06       1.3     .9    4.98 +-  0.0    0.07   3.91   +-0.3                            m i ke

GERMANY
Sta     Dist  EvAz     Phase      Date       Time     TRes  Azim  AzRes  Slow  SRes Def   SNR       Amp   Per   Mag1   Mag2       ID
GIVF  001.38 247.0 m E Pn      2012/12/01 01:45:04.6   0.8                          T                                        5128609
GIVF  001.38 247.0 m E Pg      2012/12/01 01:45:05.8  -0.1                          T                                        5138989
GIVF  001.38 247.0 m E Sg      2012/12/01 01:45:24.0   0.2                          T               16.0  .20 Ml 2.9         5128604
BAIF  001.77 251.1 m E P       2012/12/01 01:45:10.9  -0.2                          T                                        5128608
BAIF  001.77 251.1 m E Pg      2012/12/01 01:45:13.6   0.7                          T                                        5138985
BAIF  001.77 251.1 m E Sn      2012/12/01 01:45:30.6   0.5                          T                6.2  .28 Ml 2.5         5128605
PAGF  002.22 198.8 m E Pn      2012/12/01 01:45:15.4   0.3                          T                                        5128607
PAGF  002.22 198.8 m E Pg      2012/12/01 01:45:21.4   0.1                          T                                        5138982
PAGF  002.22 198.8 m E Sg      2012/12/01 01:45:49.9   0.1  21.8  3.8               T                2.3  .23 Ml 2.3         5128602
CDF   002.27 172.0 m E Pn      2012/12/01 01:45:16.0   0.0                          T                                        5138984
CDF   002.27 172.0 m E Pg      2012/12/01 01:45:22.3   0.0                          T                                        5138983
CDF   002.27 172.0 m E Sg      2012/12/01 01:45:51.3  -0.2                          T                 .8  .21 Ml 2.0         5128603
HAU   002.67 186.5 m E Pn      2012/12/01 01:45:21.6   0.3                          T                                        5128610
HAU   002.67 186.5 m E Pg      2012/12/01 01:45:29.6  -0.1                          T                                        5138976
HAU   002.67 186.5 m E Sg      2012/12/01 01:46:04.0   0.0                          T                2.3  .22 Ml 2.1         5128611
SFTF  002.71 205.8 m E Pn      2012/12/01 01:45:22.1   0.3                          T                                        5128606
SFTF  002.71 205.8 m E Pg      2012/12/01 01:45:29.8  -0.5                          T                                        5138980
SFTF  002.71 205.8 m E Sg      2012/12/01 01:46:05.9   0.6                          T                2.7  .34 Ml 2.3         5138979
MEZF  002.44 208.5 m E Pg      2012/12/01 01:45:25.4   0.0                          T                                        5138981
MEZF  002.44 208.5 m E Sg      2012/12/01 01:45:57.0   0.2                          T                2.2  .27 Ml 2.2         5128613
HINF  002.85 179.3 m E Pg      2012/12/01 01:45:32.7  -0.1                          T                                        5138977
HINF  002.85 179.3 m E Sg      2012/12/01 01:46:09.0  -0.4                          T                                        5138978
LOR   003.91 210.9 m E Pn      2012/12/01 01:45:38.5   0.4  29.4  0.8               T                                        5138986
LOR   003.91 210.9 m E Sn      2012/12/01 01:46:21.2  -0.1                          T                                        5138988
LOR   003.91 210.9 m E Sg      2012/12/01 01:46:42.6   0.0  27.0  -1.7              T                 .6  .26 Ml 2.0         5138987

.
EVENT     287720
    Date      Time       Latitude Longitude    Depth    Ndef Nsta Gap    Mag1  N    Mag2  N    Mag3  N   Author         ID
       rms   OT_Error      Smajor Sminor Az        Err   mdist  Mdist     Err        Err        Err      Quality

2012/12/01 01:50:13.3     43.3070    2.6246      2.0      15    6 118  Ml 2.0  3  Md 2.0  1              bulletin    287820
                                                                                                         _ldg
      1.45   +-  0.19       3.5    2.9   83.87 +-  0.0    0.30   2.37   +-0.2      +-                    m i ke

FRANCE
Sta     Dist  EvAz     Phase      Date       Time     TRes  Azim  AzRes  Slow  SRes Def   SNR       Amp   Per   Mag1   Mag2       ID
MTLF  000.30 276.7 m E Pg      2012/12/01 01:50:18.7  -0.5                          T                                        5128624
MTLF  000.30 276.7 m E Sg      2012/12/01 01:50:23.2   0.0                          T                4.0  .26        Md 2.0  5128623
LASF  001.18 048.9 m E Pg      2012/12/01 01:50:35.0  -0.4                          T                                        5128621
LASF  001.18 048.9 m E Sg      2012/12/01 01:50:51.2   0.5                          T                5.2  .21 Ml 2.3         5128616
EPF   001.69 261.4 m E Pg      2012/12/01 01:50:44.5  -0.4                          T                                        5128622
EPF   001.69 261.4 m E Sg      2012/12/01 01:51:07.3   0.4                          T                1.3  .20 Ml 1.9         5128617
CAF   001.67 346.2 m E Pg      2012/12/01 01:50:44.8   0.3                          T                                        5128619
CAF   001.67 346.2 m E Sg      2012/12/01 01:51:05.4  -0.5                          T                 .9  .18 Ml 1.8         5128618
ETSF  002.37 261.2 m E Pg      2012/12/01 01:50:57.0  -0.3                          T                                        5128620
ETSF  002.37 261.2 m E Sg      2012/12/01 01:51:25.1  -2.7                          T                                        5128614
LFF   002.12 320.9 m E Sg      2012/12/01 01:51:19.3  -0.8                          T                                        5128615

.
EVENT     287946
    Date      Time       Latitude Longitude    Depth    Ndef Nsta Gap    Mag1  N    Mag2  N    Mag3  N   Author         ID
       rms   OT_Error      Smajor Sminor Az        Err   mdist  Mdist     Err        Err        Err      Quality

2012/12/01 02:39:42.6     42.4535     .9067      4.0 f    14    3 074  Ml 1.2  2  Md 1.5  1              bulletin    288046
                                                                                                         _ldg
      0.16   +-  0.03        .7     .6   34.35 +-  0.0    0.16   1.34   +-0.1      +-                    m i ke

PYRENEES
Sta     Dist  EvAz     Phase      Date       Time     TRes  Azim  AzRes  Slow  SRes Def   SNR       Amp   Per   Mag1   Mag2       ID
EPF   000.71 324.3 m E Pg      2012/12/01 02:39:56.0  -0.1                          T                                        5140281
EPF   000.71 324.3 m E Sg      2012/12/01 02:40:05.3  -0.2                          T                 .8  .23        Md 1.5  5140282
ETSF  001.17 292.9 m E P       2012/12/01 02:40:05.8  -0.1                          T                                        5140277
ETSF  001.17 292.9 m E Sg      2012/12/01 02:40:19.8   0.1                          T                 .5  .29 Ml 1.1         5140280
MTLF  001.31 046.9 m E Pg      2012/12/01 02:40:07.1   0.0                          T                                        5140278
MTLF  001.31 046.9 m E Sg      2012/12/01 02:40:24.2   0.2                          T                 .5  .23 Ml 1.3         5140279

.
