EVENT     294382
    Date      Time       Latitude Longitude    Depth    Ndef Nsta Gap    Mag1  N    Mag2  N    Mag3  N   Author         ID
       rms   OT_Error      Smajor Sminor Az        Err   mdist  Mdist     Err        Err        Err      Quality

2013/03/20 23:28:40.4     42.8718    -.1611      2.0       6    4 201  Ml 0.7  1  Md 1.3  2              bulletin    294482
                                                                                                         _ldg
      0.12   +-  0.12       6.8     .8  173.73 +-  0.0    0.29   1.80   +-         +-0.2                 m i ke

PYRENEES
Sta     Dist  EvAz     Phase      Date       Time     TRes  Azim  AzRes  Slow  SRes Def   SNR       Amp   Per   Mag1   Mag2       ID
ETSF  000.29 275.4 m E Pg      2013/03/20 23:28:46.2   0.0                          T                                        5231152
ETSF  000.29 275.4 m E Sg      2013/03/20 23:28:50.0  -0.2                          T                1.3  .17        Md 1.4  5231151
EPF   000.40 066.5 m E Pg      2013/03/20 23:28:48.0  -0.1                          T                                        5231150
EPF   000.40 066.5 m E Sg      2013/03/20 23:28:53.6   0.1                          T                2.3  .25        Md 1.1  5231149
SJPF  000.82 287.5 m E Sg      2013/03/20 23:29:06.3  -0.1                          T                 .1  .15                5237829
MTLF  001.80 074.1 m E Sg      2013/03/20 23:29:37.1  -0.1                          T                     .13 Ml  .7         5237828

.
EVENT     294385
    Date      Time       Latitude Longitude    Depth    Ndef Nsta Gap    Mag1  N    Mag2  N    Mag3  N   Author         ID
       rms   OT_Error      Smajor Sminor Az        Err   mdist  Mdist     Err        Err        Err      Quality

2013/03/21 00:17:21.9     46.6827    1.9761      2.0      21    8 157  Ml 1.3  8  Md 1.5  3              bulletin    294485
                                                                                                         _ldg
      0.48   +-  0.08       2.0    1.2  167.48 +-  0.0    0.43   1.46   +-0.2      +-0.1                 m i ke

FRANCE
Sta     Dist  EvAz     Phase      Date       Time     TRes  Azim  AzRes  Slow  SRes Def   SNR       Amp   Per   Mag1   Mag2       ID
TCF   000.43 157.6 m E Pg      2013/03/21 00:17:29.7  -0.4                          T                                        5231162
TCF   000.43 157.6 m E Sg      2013/03/21 00:17:35.2  -0.5                          T                 .8  .16        Md 1.6  5231161
BGF   000.61 101.4 m E Pg      2013/03/21 00:17:34.0   0.5                          T                                        5231160
BGF   000.61 101.4 m E Sg      2013/03/21 00:17:41.0  -0.6                          T                1.9  .21        Md 1.5  5231159
AVF   000.95 083.0 m E Pg      2013/03/21 00:17:40.1   0.4                          T                                        5231170
AVF   000.95 083.0 m E Sg      2013/03/21 00:17:51.4  -0.7                          T                 .4  .18 Ml 1.1 Md 1.3  5231158
SSF   001.12 069.6 m E Pg      2013/03/21 00:17:42.4  -0.3                          T                                        5231167
SSF   001.12 069.6 m E Sg      2013/03/21 00:17:56.7  -0.5                          T                 .3  .22 Ml 1.1         5231166
SMF   001.29 091.0 m E Pg      2013/03/21 00:17:46.4   0.5                          T                                        5231172
SMF   001.29 091.0 m E Sg      2013/03/21 00:18:02.3  -0.2                          T                 .5  .23 Ml 1.3         5231171
RJF   001.42 193.3 m E Pn      2013/03/21 00:17:46.9   0.0                          T                                        5231169
RJF   001.42 193.3 m E Sg      2013/03/21 00:18:06.4  -0.2                          T                 .3  .15 Ml 1           5231168
LOR   001.42 064.9 m E Pn      2013/03/21 00:17:47.1   0.1 246.5  0.3               T                                        5231165
LOR   001.42 064.9 m E Sn      2013/03/21 00:18:04.9  -0.2 240.1  -6.1              T                                        5231163
LOR   001.42 064.9 m E Sg      2013/03/21 00:18:06.5  -0.1                          T                 .4  .18 Ml 1.4         5231164
MFF   001.46 267.6 m E Pg      2013/03/21 00:17:49.0  -0.2                          T                                        5231173
MFF   001.46 267.6 m E Sg      2013/03/21 00:18:07.9  -0.2                          T                 .6  .24 Ml 1.6         5231157

.
EVENT     294386
    Date      Time       Latitude Longitude    Depth    Ndef Nsta Gap    Mag1  N    Mag2  N    Mag3  N   Author         ID
       rms   OT_Error      Smajor Sminor Az        Err   mdist  Mdist     Err        Err        Err      Quality

2013/03/21 00:36:15.1     45.8341    6.3105      2.0      54   20 126  Ml 1.5 19  Md 1.7  2              bulletin    294486
                                                                                                         _ldg
      0.87   +-  0.06       1.9    1.0   72.90 +-  0.0    0.43   2.80   +-0.3      +-0.0                 m i ke

FRANCE
Sta     Dist  EvAz     Phase      Date       Time     TRes  Azim  AzRes  Slow  SRes Def   SNR       Amp   Per   Mag1   Mag2       ID
LPL   000.43 136.9 m E Pg      2013/03/21 00:36:23.7   0.0                          T                                        5231191
LPL   000.43 136.9 m E Sg      2013/03/21 00:36:29.7   0.3                          T                3.5  .29        Md 1.7  5231190
LPG   000.46 137.3 m E Pg      2013/03/21 00:36:24.2   0.0                          T                                        5231189
LPG   000.46 137.3 m E Sg      2013/03/21 00:36:30.6   0.4                          T                1.8  .20        Md 1.7  5231188
CABF  000.79 348.8 m E Pg      2013/03/21 00:36:30.5   0.4                          T                                        5231227
CABF  000.79 348.8 m E Sg      2013/03/21 00:36:40.5   0.0                          T                2.0  .25                5231226
ORIF  000.96 198.5 m E Pg      2013/03/21 00:36:33.5   0.2                          T                                        5231187
ORIF  000.96 198.5 m E Sg      2013/03/21 00:36:45.6  -0.3                          T                 .8  .16 Ml 1.5         5231186
MBDF  001.15 163.5 m E Pg      2013/03/21 00:36:37.0   0.2                          T                                        5231204
MBDF  001.15 163.5 m E Sg      2013/03/21 00:36:51.4  -0.5                          T                 .3  .31 Ml  .9         5231203
VIVF  001.51 230.3 m E Pg      2013/03/21 00:36:43.4   0.1                          T                                        5231185
VIVF  001.51 230.3 m E Sn      2013/03/21 00:37:00.9   0.2                          T                1.2  .17 Ml 1.9         5231184
SMRF  001.93 196.0 m E Pn      2013/03/21 00:36:46.7  -0.5                          T                                        5231199
SMRF  001.93 196.0 m E Sn      2013/03/21 00:37:10.7   0.1                          T                 .1  .19 Ml 1           5231198
SMF   001.90 296.2 m E Pn      2013/03/21 00:36:46.8   0.1                          T                                        5231232
SMF   001.90 296.2 m E Sn      2013/03/21 00:37:09.6  -0.2                          T                                        5231231
SMF   001.90 296.2 m E Sg      2013/03/21 00:37:14.6  -0.2                          T                1.3  .24 Ml 1.9         5231230
HINF  002.02 010.4 m E Pn      2013/03/21 00:36:48.1  -0.4                          T                                        5231225
HINF  002.02 010.4 m E Sg      2013/03/21 00:37:18.6  -0.1                          T                 .7  .25 Ml 1.7         5231224
SBF   002.13 157.5 m E Pn      2013/03/21 00:36:50.0   0.0                          T                                        5231193
SBF   002.13 157.5 m E Sg      2013/03/21 00:37:22.0   0.0                          T                 .4  .22 Ml 1.5         5231192
HAU   002.17 000.7 m E Pn      2013/03/21 00:36:50.5   0.0                          T                                        5231223
HAU   002.17 000.7 m E Sg      2013/03/21 00:37:24.0   0.6                          T                1.0  .22 Ml 1.7         5231222
LOR   002.22 311.2 m E Pn      2013/03/21 00:36:51.6   0.4 139.7  10.3              T                                        5231211
LOR   002.22 311.2 m E Pg      2013/03/21 00:36:56.2  -0.1                          T                                        5231210
LOR   002.22 311.2 m E Sn      2013/03/21 00:37:17.4  -0.1                          T                                        5231209
LOR   002.22 311.2 m E Sg      2013/03/21 00:37:24.2  -0.6                          T                 .6  .20 Ml 1.7         5231208
FRF   002.29 173.9 m E Pn      2013/03/21 00:36:51.6  -0.4                          T                                        5231197
FRF   002.29 173.9 m E Sn      2013/03/21 00:37:18.3  -0.7                          T                 .3  .21 Ml 1.4         5231196
AVF   002.26 296.1 m E Pn      2013/03/21 00:36:51.8   0.1                          T                                        5231229
AVF   002.26 296.1 m E Sg      2013/03/21 00:37:26.4   0.2                          T                 .2  .16 Ml 1.3         5231228
SSF   002.29 303.3 m E Pn      2013/03/21 00:36:52.2   0.0                          T                                        5231207
SSF   002.29 303.3 m E Pg      2013/03/21 00:36:57.5  -0.2                          T                                        5231206
SSF   002.29 303.3 m E Sg      2013/03/21 00:37:27.0  -0.2                          T                 .1  .13 Ml 1.1         5231205
SFTF  002.53 340.3 m E Pn      2013/03/21 00:36:54.8  -0.5                          T                                        5231221
SFTF  002.53 340.3 m E Pg      2013/03/21 00:37:02.0   0.0                          T                                        5231220
SFTF  002.53 340.3 m E Sn      2013/03/21 00:37:24.6  -0.3                          T                                        5231219
SFTF  002.53 340.3 m E Sg      2013/03/21 00:37:34.2  -0.2                          T                 .6  .22 Ml 1.7         5231218
LMR   002.50 176.7 m E Pn      2013/03/21 00:36:55.2   0.2                          T                                        5231195
LMR   002.50 176.7 m E Sn      2013/03/21 00:37:24.5   0.2                          T                 .1  .16 Ml  .9         5231194
LASF  002.47 225.6 m E Pn      2013/03/21 00:36:55.4   0.8                          T                                        5231202
LASF  002.47 225.6 m E Pg      2013/03/21 00:37:00.9  -0.2                          T                                        5231201
LASF  002.47 225.6 m E Sn      2013/03/21 00:37:23.3  -0.4                          T                 .8  .30 Ml 1.8         5231200
PAGF  002.75 351.9 m E Pn      2013/03/21 00:36:58.0  -0.4                          T                                        5231213
PAGF  002.75 351.9 m E Sn      2013/03/21 00:37:29.8  -0.5                          T                 .6  .27 Ml 1.7         5231212
MEZF  002.80 342.6 m E Pn      2013/03/21 00:36:59.7   0.7                          T                                        5231217
MEZF  002.80 342.6 m E Pg      2013/03/21 00:37:07.0  -0.1                          T                                        5231216
MEZF  002.80 342.6 m E Sn      2013/03/21 00:37:31.3  -0.1                          T                                        5231215
MEZF  002.80 342.6 m E Sg      2013/03/21 00:37:43.3   0.2                          T                 .2  .12 Ml 1.6         5231214

.
EVENT     294387
    Date      Time       Latitude Longitude    Depth    Ndef Nsta Gap    Mag1  N    Mag2  N    Mag3  N   Author         ID
       rms   OT_Error      Smajor Sminor Az        Err   mdist  Mdist     Err        Err        Err      Quality

2013/03/21 00:56:43.7     45.9170    6.2636      2.0      32   14 150  Ml 1.5 11  Md 1.4  4              bulletin    294487
                                                                                                         _ldg
      1.08   +-  0.10       2.6    1.3   61.81 +-  0.0    0.52   2.59   +-0.3      +-0.0                 m i ke

FRANCE
Sta     Dist  EvAz     Phase      Date       Time     TRes  Azim  AzRes  Slow  SRes Def   SNR       Amp   Per   Mag1   Mag2       ID
LPL   000.52 140.5 m E Pg      2013/03/21 00:56:54.0   0.1                          T                                        5231257
LPL   000.52 140.5 m E Sg      2013/03/21 00:57:00.4  -0.3                          T                 .5  .26        Md 1.4  5231256
LPG   000.54 140.6 m E Pg      2013/03/21 00:56:54.6   0.2                          T                                        5231259
LPG   000.54 140.6 m E Sg      2013/03/21 00:57:01.3  -0.2                          T                 .1  .12        Md 1.5  5231258
CABF  000.70 350.1 m E Pg      2013/03/21 00:56:57.1  -0.1                          T                                        5231245
CABF  000.70 350.1 m E Sg      2013/03/21 00:57:05.5  -0.9                          T                1.1  .28        Md 1.5  5231246
ORIF  001.03 195.3 m E Pg      2013/03/21 00:57:03.4   0.1                          T                                        5231262
ORIF  001.03 195.3 m E Sg      2013/03/21 00:57:15.8  -0.9                          T                4.3  .24 Ml 2.1 Md 1.4  5231261
MBDF  001.24 163.1 m E Pg      2013/03/21 00:57:06.9  -0.3                          T                                        5231255
MBDF  001.24 163.1 m E Sg      2013/03/21 00:57:22.8  -0.4                          T                 .2  .24 Ml  .8         5231254
VIVF  001.54 227.1 m E Pn      2013/03/21 00:57:10.7   0.1                          T                                        5231238
VIVF  001.54 227.1 m E Sn      2013/03/21 00:57:29.3  -0.7                          T                1.4  .19 Ml 1.9         5231260
SMF   001.83 294.3 m E Pn      2013/03/21 00:57:14.9   0.5                          T                                        5231248
SMF   001.83 294.3 m E Sn      2013/03/21 00:57:36.1  -0.8                          T                                        5231247
SMRF  002.00 194.4 m E Pn      2013/03/21 00:57:17.1   0.2                          T                                        5231253
SMRF  002.00 194.4 m E Sn      2013/03/21 00:57:40.8  -0.1                          T                 .3  .28 Ml 1.2         5231252
LOR   002.14 310.0 m E Pn      2013/03/21 00:57:18.5  -0.2 124.6  -3.7              T                                        5231244
LOR   002.14 310.0 m E Sn      2013/03/21 00:57:44.2   0.0 132.9  4.6               T                 .5  .21 Ml 1.6         5231243
SSF   002.22 302.0 m E Pn      2013/03/21 00:57:19.5  -0.3                          T                                        5231242
SSF   002.22 302.0 m E Sn      2013/03/21 00:57:46.1  -0.2                          T                 .2  .18 Ml 1.3         5231241
AVF   002.20 294.5 m E Pn      2013/03/21 00:57:19.9   0.4                          T                                        5231240
AVF   002.20 294.5 m E Sn      2013/03/21 00:57:45.3  -0.3                          T                 .7  .36 Ml 1.5         5231239
SBF   002.22 157.5 m E Pn      2013/03/21 00:57:19.9   0.1                          T                                        5231269
SBF   002.22 157.5 m E Sn      2013/03/21 00:57:46.6   0.4                          T                 .7  .25 Ml 1.7         5231268
LASF  002.51 223.7 m E Pn      2013/03/21 00:57:23.9   0.2                          T                                        5231251
LASF  002.51 223.7 m E Pg      2013/03/21 00:57:30.3   0.0                          T                                        5231250
LASF  002.51 223.7 m E Sn      2013/03/21 00:57:53.0  -0.1                          T                 .2  .19 Ml 1.4         5231249
LMR   002.59 176.0 m E Pn      2013/03/21 00:57:24.6  -0.2                          T                                        5231267

.
EVENT     294390
    Date      Time       Latitude Longitude    Depth    Ndef Nsta Gap    Mag1  N    Mag2  N    Mag3  N   Author         ID
       rms   OT_Error      Smajor Sminor Az        Err   mdist  Mdist     Err        Err        Err      Quality

2013/03/21 02:12:40.1     47.7583   -5.4571      5.0 f    26    8 281  Ml 2.0  7                         bulletin    294490
                                                                                                         _ldg
      0.96   +-  0.26       5.2    3.4  137.73 +-  0.0    1.55   5.52   +-0.2                            m i ke

NORTH ATLANTIC OCEAN
Sta     Dist  EvAz     Phase      Date       Time     TRes  Azim  AzRes  Slow  SRes Def   SNR       Amp   Per   Mag1   Mag2       ID
QUIF  001.55 083.3 m E Pn      2013/03/21 02:13:06.6   0.0                          T                                        5231316
QUIF  001.55 083.3 m E Pg      2013/03/21 02:13:08.7  -0.3                          T                                        5231299
QUIF  001.55 083.3 m E Sn      2013/03/21 02:13:26.0   0.0                          T                                        5231315
QUIF  001.55 083.3 m E Sg      2013/03/21 02:13:29.0  -0.1                          T                3.2  .17 Ml 2.3         5231298
ROSF  001.58 067.6 m E Pg      2013/03/21 02:13:08.8  -0.6                          T                                        5231303
ROSF  001.58 067.6 m E Sn      2013/03/21 02:13:25.8  -0.7                          T                                        5231314
ROSF  001.58 067.6 m E Sg      2013/03/21 02:13:30.9   1.2                          T                2.4  .27 Ml 2.0         5231302
SGMF  002.01 074.6 m E Pn      2013/03/21 02:13:12.7  -0.3                          T                                        5231317
SGMF  002.01 074.6 m E Pg      2013/03/21 02:13:16.7  -0.7                          T                                        5231301
SGMF  002.01 074.6 m E Sn      2013/03/21 02:13:36.9  -0.1                          T                                        5231304
SGMF  002.01 074.6 m E Sg      2013/03/21 02:13:42.9  -0.4                          T                1.1  .17 Ml 2.0         5231300
GRR   003.15 076.7 m E Pn      2013/03/21 02:13:28.7   0.3                          T                                        5231313
GRR   003.15 076.7 m E Sg      2013/03/21 02:14:18.9   0.1                          T                                        5231318
FLN   003.47 071.3 m E Pn      2013/03/21 02:13:32.8   0.0                          T                                        5231310
FLN   003.47 071.3 m E Sg      2013/03/21 02:14:29.0   0.0 248.4  -6.6              T                 .5  .21 Ml 1.7         5231309
LDF   003.67 074.9 m E Pn      2013/03/21 02:13:35.9   0.4                          T                                        5231312
LDF   003.67 074.9 m E Sg      2013/03/21 02:14:34.8  -0.2                          T                 .6  .21 Ml 2.0         5231311
MFF   003.80 105.8 m E Pn      2013/03/21 02:13:37.6   0.3                          T                                        5231308
MFF   003.80 105.8 m E Pg      2013/03/21 02:13:50.1  -0.4                          T                                        5231307
MFF   003.80 105.8 m E Sn      2013/03/21 02:14:20.5   0.7                          T                                        5231306
MFF   003.80 105.8 m E Sg      2013/03/21 02:14:39.2  -0.1                          T                 .4  .23 Ml 2.0         5231305
SJPF  005.52 145.8 m E P       2013/03/21 02:14:05.0   0.0                          T                                        5237832

.
