EVENT     291291
    Date      Time       Latitude Longitude    Depth    Ndef Nsta Gap    Mag1  N    Mag2  N    Mag3  N   Author         ID
       rms   OT_Error      Smajor Sminor Az        Err   mdist  Mdist     Err        Err        Err      Quality

2013/01/31 22:45:03.1     44.5477    6.4196      2.0      11    5 172  Ml 1.4  1  Md 1.5  2              bulletin    291391
                                                                                                         _ldg
      0.27   +-  0.12       2.6    1.7  140.29 +-  0.0    0.31   0.99   +-         +-0.0                 m i ke

FRANCE
Sta     Dist  EvAz     Phase      Date       Time     TRes  Azim  AzRes  Slow  SRes Def   SNR       Amp   Per   Mag1   Mag2       ID
MBDF  000.31 054.4 m E Pg      2013/01/31 22:45:09.0  -0.3                          T                                        5184828
MBDF  000.31 054.4 m E Sg      2013/01/31 22:45:13.3  -0.1                          T                4.9  .18        Md 1.5  5184827
ORIF  000.53 314.1 m E Pg      2013/01/31 22:45:13.4   0.1                          T                                        5184826
ORIF  000.53 314.1 m E Sg      2013/01/31 22:45:20.0  -0.4                          T                2.4  .20        Md 1.5  5184825
SMRF  000.83 227.0 m E Pg      2013/01/31 22:45:18.9   0.1                          T                                        5193794
SMRF  000.83 227.0 m E Sg      2013/01/31 22:45:28.9  -0.8                          T                 .5  .22                5193793
LPL   000.99 012.8 m E Pg      2013/01/31 22:45:21.9  -0.1                          T                                        5184829
LPL   000.99 012.8 m E Sg      2013/01/31 22:45:34.9   0.0                          T                 .8  .21 Ml 1.4         5184830
LPG   000.98 013.8 m E Pg      2013/01/31 22:45:22.0   0.2                          T                                        5193797

.
EVENT     291292
    Date      Time       Latitude Longitude    Depth    Ndef Nsta Gap    Mag1  N    Mag2  N    Mag3  N   Author         ID
       rms   OT_Error      Smajor Sminor Az        Err   mdist  Mdist     Err        Err        Err      Quality

2013/01/31 23:39:23.6     44.7735    7.1959     12.0 f    26    8 123  Ml 2.2  6  Md 2.2  3              bulletin    291392
                                                                                                         _ldg
      0.20   +-  0.05       1.1     .6   81.61 +-  0.0    0.08   1.52   +-0.2      +-0.0                 m i ke

NORTHERN ITALY
Sta     Dist  EvAz     Phase      Date       Time     TRes  Azim  AzRes  Slow  SRes Def   SNR       Amp   Per   Mag1   Mag2       ID
MBDF  000.31 261.4 m E Pg      2013/01/31 23:39:30.1   0.1                          T                                        5184837
MBDF  000.31 261.4 m E Sg      2013/01/31 23:39:34.3  -0.1                          T               54.3  .24        Md 2.2  5184836
LPG   000.79 336.7 m E Pg      2013/01/31 23:39:38.8  -0.2                          T                                        5184833
LPG   000.79 336.7 m E Sg      2013/01/31 23:39:49.2  -0.1                          T                6.9  .20        Md 2.2  5184842
LPL   000.81 336.3 m E Pg      2013/01/31 23:39:39.2  -0.1                          T                                        5184834
LPL   000.81 336.3 m E Sg      2013/01/31 23:39:49.9  -0.1                          T               10.8  .39        Md 2.2  5184843
SBF   000.93 169.2 m E Pg      2013/01/31 23:39:41.2   0.1                          T                                        5184839
SBF   000.93 169.2 m E Sg      2013/01/31 23:39:53.7   0.4                          T                7.6  .33 Ml 2.1         5184838
ORIF  000.95 279.3 m E Pg      2013/01/31 23:39:41.6   0.0                          T                                        5184835
ORIF  000.95 279.3 m E Sg      2013/01/31 23:39:53.7  -0.2                          T                5.0  .22 Ml 2.1         5184844
FRF   001.28 198.2 m E Pg      2013/01/31 23:39:47.5   0.0                          T                                        5184832
FRF   001.28 198.2 m E Sg      2013/01/31 23:40:03.9  -0.1                          T                5.7  .22 Ml 2.4         5184841
SMRF  001.41 236.1 m E Pg      2013/01/31 23:39:50.2   0.2                          T                                        5193798
SMRF  001.41 236.1 m E Sg      2013/01/31 23:40:08.5   0.2                          T                2.5  .26 Ml 2.0         5193799
LMR   001.52 199.2 m E Pg      2013/01/31 23:39:52.2   0.2                          T                                        5184831
LMR   001.52 199.2 m E Sg      2013/01/31 23:40:11.4  -0.3                          T                4.7  .22 Ml 2.4         5184840

.
EVENT     291331
    Date      Time       Latitude Longitude    Depth    Ndef Nsta Gap    Mag1  N    Mag2  N    Mag3  N   Author         ID
       rms   OT_Error      Smajor Sminor Az        Err   mdist  Mdist     Err        Err        Err      Quality

2013/02/01 15:12:11.2     44.6120    6.7608      2.0       4    2 292             Md 1.6  2              bulletin    291431
                                                                                                         _ldg
      0.27   +-  0.56      13.0    4.6  151.21 +-  0.0    0.12   0.70              +-0.1                 m i ke

FRANCE
Sta     Dist  EvAz     Phase      Date       Time     TRes  Azim  AzRes  Slow  SRes Def   SNR       Amp   Per   Mag1   Mag2       ID
MBDF  000.12 003.7 m E Pg      2013/02/01 15:12:13.7  -0.1                          T                                        5185226
MBDF  000.12 003.7 m E Sg      2013/02/01 15:12:15.7   0.2                          T               10.4  .26        Md 1.6  5185225
ORIF  000.70 296.3 m E Pg      2013/02/01 15:12:24.3  -0.1                          T                                        5185224
ORIF  000.70 296.3 m E Sg      2013/02/01 15:12:33.0  -0.6                          T                1.1  .21        Md 1.7  5185223

.
EVENT     291449
    Date      Time       Latitude Longitude    Depth    Ndef Nsta Gap    Mag1  N    Mag2  N    Mag3  N   Author         ID
       rms   OT_Error      Smajor Sminor Az        Err   mdist  Mdist     Err        Err        Err      Quality

2013/02/01 15:52:03.3     40.4129    -.1435      5.0 f    49    4 083  Ml 2.3  5                         bulletin    291549
                                                                                                         _ldg
      0.96   +-  0.16       4.1    2.2  135.36 +-  0.0    0.26   4.11   +-0.2                            m i ke

SPAIN
Sta     Dist  EvAz     Phase      Date       Time     TRes  Azim  AzRes  Slow  SRes Def   SNR       Amp   Per   Mag1   Mag2       ID
ETSF  002.50 353.0 m E Pn      2013/02/01 15:52:43.0   0.1                          T                                        5187895
ETSF  002.50 353.0 m E Pg      2013/02/01 15:52:49.4  -0.4                          T                                        5187894
ETSF  002.50 353.0 m E Sn      2013/02/01 15:53:12.6   0.6                          T                                        5187893
ETSF  002.50 353.0 m E Sg      2013/02/01 15:53:21.5  -0.5                          T                1.8  .21 Ml 2.3         5187892
EPF   002.64 007.7 m E Pn      2013/02/01 15:52:44.7  -0.1                          T                                        5187891
EPF   002.64 007.7 m E Pg      2013/02/01 15:52:51.9  -0.4                          T                                        5187890
EPF   002.64 007.7 m E Sn      2013/02/01 15:53:15.9   0.6                          T                                        5187888
EPF   002.64 007.7 m E Sg      2013/02/01 15:53:25.9  -0.4                          T                3.0  .22 Ml 2.5         5187889
SJPF  002.82 343.7 m E Pn      2013/02/01 15:52:47.1   0.0                          T                                        5187887
SJPF  002.82 343.7 m E Sn      2013/02/01 15:53:20.3   0.9                          T                                        5187886
SJPF  002.82 343.7 m E Sg      2013/02/01 15:53:31.0  -0.7                          T                1.2  .22 Ml 2.1         5187885
MTLF  003.42 030.3 m E Pn      2013/02/01 15:52:55.0  -0.2                          T                                        5187884
MTLF  003.42 030.3 m E Pg      2013/02/01 15:53:05.9  -0.7                          T                                        5187883
MTLF  003.42 030.3 m E Sn      2013/02/01 15:53:34.1   0.4                          T                                        5187882
MTLF  003.42 030.3 m E Sg      2013/02/01 15:53:49.9  -0.5                          T                1.7  .31 Ml 2.3         5187881

.
EVENT     291390
    Date      Time       Latitude Longitude    Depth    Ndef Nsta Gap    Mag1  N    Mag2  N    Mag3  N   Author         ID
       rms   OT_Error      Smajor Sminor Az        Err   mdist  Mdist     Err        Err        Err      Quality

2013/02/01 20:12:01.9     46.5253    1.8590      5.0 f    21   11 121  Ml 1.8  8  Md 1.8  2              bulletin    291490
                                                                                                         _ldg
      0.23   +-  0.07       1.5    1.0  146.41 +-  0.0    0.34   1.77   +-0.3      +-0.1                 m i ke

FRANCE
Sta     Dist  EvAz     Phase      Date       Time     TRes  Azim  AzRes  Slow  SRes Def   SNR       Amp   Per   Mag1   Mag2       ID
TCF   000.34 134.2 m E Pg      2013/02/01 20:12:08.4  -0.2                          T                                        5187913
TCF   000.34 134.2 m E Sg      2013/02/01 20:12:13.1  -0.1                          T                2.0  .18        Md 1.9  5187915
BGF   000.68 086.9 m E Pg      2013/02/01 20:12:14.9   0.0                          T                                        5187924
BGF   000.68 086.9 m E Sg      2013/02/01 20:12:23.8   0.0                          T                6.3  .25        Md 1.7  5187921
HYF   000.92 035.5 m E Pg      2013/02/01 20:12:19.8   0.7                          T                                        5187926
HYF   000.92 035.5 m E Sg      2013/02/01 20:12:31.2   0.1                          T                                        5187925
AVF   001.06 075.0 m E Pg      2013/02/01 20:12:22.1   0.3                          T                                        5187912
AVF   001.06 075.0 m E Sg      2013/02/01 20:12:35.7   0.1                          T                3.9  .23 Ml 2.1         5187910
SSF   001.25 064.0 m E Pn      2013/02/01 20:12:24.4   0.0                          T                                        5187920
SSF   001.25 064.0 m E Pg      2013/02/01 20:12:25.0  -0.4                          T                                        5187919
SSF   001.25 064.0 m E Sg      2013/02/01 20:12:41.7   0.2                          T                 .8  .20 Ml 1.6         5187918
RJF   001.24 191.2 m E Pg      2013/02/01 20:12:25.4   0.2                          T                                        5187923
RJF   001.24 191.2 m E Sg      2013/02/01 20:12:41.5   0.2                          T                1.6  .17 Ml 1.6         5187922
MFF   001.39 273.9 m E Pg      2013/02/01 20:12:27.8   0.0                          T                                        5187914
MFF   001.39 273.9 m E Sg      2013/02/01 20:12:45.7   0.0                          T                2.9  .20 Ml 2.3         5187908
SMF   001.37 084.3 m E Pg      2013/02/01 20:12:27.9   0.4                          T                                        5187911
SMF   001.37 084.3 m E Sg      2013/02/01 20:12:45.2  -0.1                          T                1.1  .18 Ml 1.8         5187909
LOR   001.56 060.8 m E Pg      2013/02/01 20:12:30.8  -0.2                          T                                        5187917
LOR   001.56 060.8 m E Sg      2013/02/01 20:12:51.0  -0.2                          T                 .7  .20 Ml 1.6         5187916
CAF   001.61 174.8 m E Sg      2013/02/01 20:12:52.1  -0.5                          T                 .9  .20 Ml 1.8         5195846
LFF   001.77 206.7 m E Sg      2013/02/01 20:12:57.3  -0.3                          T                 .4  .18 Ml 1.3         5195847

.
EVENT     291333
    Date      Time       Latitude Longitude    Depth    Ndef Nsta Gap    Mag1  N    Mag2  N    Mag3  N   Author         ID
       rms   OT_Error      Smajor Sminor Az        Err   mdist  Mdist     Err        Err        Err      Quality

2013/02/01 22:34:16.4     42.9033   -2.0670      2.0       8    3 341  Ml 2.3  2  Md 2.3  1              bulletin    291433
                                                                                                         _ldg
      0.15   +-  0.20       6.8    3.3  171.05 +-  0.0    0.65   1.77   +-0.2      +-                    m i ke

SPAIN
Sta     Dist  EvAz     Phase      Date       Time     TRes  Azim  AzRes  Slow  SRes Def   SNR       Amp   Per   Mag1   Mag2       ID
SJPF  000.65 070.9 m E Pg      2013/02/01 22:34:28.6  -0.2                          T                                        5185250
SJPF  000.65 070.9 m E Sg      2013/02/01 22:34:37.5   0.2                          T               17.3  .32        Md 2.3  5185249
ETSF  001.11 089.7 m E Pg      2013/02/01 22:34:37.2  -0.1                          T                                        5185248
ETSF  001.11 089.7 m E Sg      2013/02/01 22:34:51.4  -0.3                          T                9.5  .40 Ml 2.2         5185247
EPF   001.77 085.1 m E Pn      2013/02/01 22:34:46.4   0.0                          T                                        5185245
EPF   001.77 085.1 m E Pg      2013/02/01 22:34:49.5   0.0                          T                                        5187927
EPF   001.77 085.1 m E Sn      2013/02/01 22:35:08.1  -0.1                          T                                        5185246
EPF   001.77 085.1 m E Sg      2013/02/01 22:35:12.1  -0.2                          T                6.2  .31 Ml 2.5         5185251

.
EVENT     291334
    Date      Time       Latitude Longitude    Depth    Ndef Nsta Gap    Mag1  N    Mag2  N    Mag3  N   Author         ID
       rms   OT_Error      Smajor Sminor Az        Err   mdist  Mdist     Err        Err        Err      Quality

2013/02/02 00:57:59.8     44.1340    6.9891      2.0      19    7 073  Ml 1.5  3  Md 1.4  2              bulletin    291434
                                                                                                         _ldg
      0.25   +-  0.05       1.1     .9  100.97 +-  0.0    0.07   1.81   +-0.2      +-0.0                 m i ke

FRANCE
Sta     Dist  EvAz     Phase      Date       Time     TRes  Azim  AzRes  Slow  SRes Def   SNR       Amp   Per   Mag1   Mag2       ID
SBF   000.42 129.9 m E Pg      2013/02/02 00:58:08.0   0.1                          T                                        5185271
SBF   000.42 129.9 m E Sg      2013/02/02 00:58:13.8   0.3                          T                3.8  .30        Md 1.4  5185269
FRF   000.62 203.5 m E Pg      2013/02/02 00:58:11.4  -0.2                          T                                        5185263
FRF   000.62 203.5 m E Sg      2013/02/02 00:58:20.0   0.3                          T                4.8  .22                5185261
MBDF  000.61 345.3 m E Pg      2013/02/02 00:58:11.4  -0.1                          T                                        5185266
MBDF  000.61 345.3 m E Sg      2013/02/02 00:58:20.4   0.8                          T                1.6  .25        Md 1.4  5185267
LMR   000.87 203.7 m E Pg      2013/02/02 00:58:16.0  -0.2                          T                                        5185262
LMR   000.87 203.7 m E Sg      2013/02/02 00:58:27.5   0.1                          T                1.2  .19 Ml 1.6         5185268
SMRF  001.03 261.7 m E Pg      2013/02/02 00:58:19.2   0.1                          T                                        5185265
SMRF  001.03 261.7 m E Sg      2013/02/02 00:58:32.9   0.4                          T                1.8  .27 Ml 1.7         5185264
VIVF  001.81 294.3 m E Pn      2013/02/02 00:58:30.4   0.2                          T                                        5185270
ORIF  001.12 315.1 m E Sg      2013/02/02 00:58:35.1  -0.1                          T                 .5  .26 Ml 1.2         5195362

.
