EVENT     253711
    Date      Time       Latitude Longitude    Depth    Ndef Nsta Gap    Mag1  N    Mag2  N    Mag3  N   Author         ID
       rms   OT_Error      Smajor Sminor Az        Err   mdist  Mdist     Err        Err        Err      Quality

2011/01/13 04:11:27.7     41.8353    2.6710       .0 f    11    4 226  Ml 1.5  3                         js067245    253731

      0.35   +-  0.20       3.7    2.0  142.72 +-  0.0    0.19   2.79   +-0.2                            m i km

SPAIN
Sta     Dist  EvAz     Phase      Date       Time     TRes  Azim  AzRes  Slow  SRes Def   SNR       Amp   Per   Mag1   Mag2       ID
MTLF  001.54 347.6 m E Pn      2011/01/13 04:11:54.7  -0.2                          T                                        4582542
MTLF  001.54 347.6 m E Pg      2011/01/13 04:11:56.4  -0.3                          T                                        4582541
MTLF  001.54 347.6 m E Sg      2011/01/13 04:12:17.2   0.3                          T                 .3  .21 Ml 1.2         4582543
EPF   002.10 305.5 m E Pn      2011/01/13 04:12:02.6   0.0                          T                                        4582545
EPF   002.10 305.5 m E Pg      2011/01/13 04:12:07.2   0.1                          T                                        4582544
EPF   002.10 305.5 m E Sg      2011/01/13 04:12:34.2  -0.1                          T                 .6  .20 Ml 1.7         4582546
LASF  002.40 020.8 m E Pn      2011/01/13 04:12:06.3  -0.4                          T                                        4582540
ETSF  002.62 295.0 m E Sg      2011/01/13 04:12:49.6  -0.9                          T                 .3  .19 Ml 1.6         4582539

.
EVENT     253712
    Date      Time       Latitude Longitude    Depth    Ndef Nsta Gap    Mag1  N    Mag2  N    Mag3  N   Author         ID
       rms   OT_Error      Smajor Sminor Az        Err   mdist  Mdist     Err        Err        Err      Quality

2011/01/13 17:42:55.6     37.0135   -4.8262      2.0     129    4 071  Ml 3.7  4                         js067245    253732

      0.97   +-  0.12       2.3    1.7     .94 +-  0.0    0.45   8.05   +-0.1                            m i ke

SPAIN
Sta     Dist  EvAz     Phase      Date       Time     TRes  Azim  AzRes  Slow  SRes Def   SNR       Amp   Per   Mag1   Mag2       ID
EVOP  003.02 301.1 m E Pn      2011/01/13 17:43:42.5   0.0                          T                                        4582259
EVOP  003.02 301.1 m E Pg      2011/01/13 17:43:51.2  -0.3                          T                                        4582260
EVOP  003.02 301.1 m E Sn      2011/01/13 17:44:17.1   0.0                          T                                        4582270
EVOP  003.02 301.1 m E Sg      2011/01/13 17:44:30.3   0.0                          T              142.3  .50 Ml 3.9         4582258
ETSF  006.73 027.8 m E Pn      2011/01/13 17:44:33.1  -0.1                          T                                        4582268
ETSF  006.73 027.8 m E Sn      2011/01/13 17:45:45.9   0.0                          T                                        4582265
ETSF  006.73 027.8 m E Sg      2011/01/13 17:46:26.3   0.0                          T               27.2  .90 Ml 3.7         4582262
SJPF  006.69 023.3 m E Pn      2011/01/13 17:44:33.4   0.8                          T                                        4582269
SJPF  006.69 023.3 m E Sn      2011/01/13 17:45:45.0   0.2                          T                                        4582266
SJPF  006.69 023.3 m E Sg      2011/01/13 17:46:25.0   0.1                          T               15.8  .59 Ml 3.6         4582263
EPF   007.20 031.8 m E Pn      2011/01/13 17:44:39.6   0.1                          T                                        4582267
EPF   007.20 031.8 m E Sn      2011/01/13 17:45:57.0  -0.1                          T                                        4582264
EPF   007.20 031.8 m E Sg      2011/01/13 17:46:40.7  -0.1                          T               17.9  .62 Ml 3.7         4582261

.
EVENT     253713
    Date      Time       Latitude Longitude    Depth    Ndef Nsta Gap    Mag1  N    Mag2  N    Mag3  N   Author         ID
       rms   OT_Error      Smajor Sminor Az        Err   mdist  Mdist     Err        Err        Err      Quality

2011/01/13 18:55:19.2     42.0366   13.2430     10.0 f    95   12 049  Ml 3.1  5                         js067245    253733

      1.12   +-  0.12       3.7    2.7   26.37 +-  0.0    0.21   7.64   +-0.1                            m i ke

CENTRAL ITALY
Sta     Dist  EvAz     Phase      Date       Time     TRes  Azim  AzRes  Slow  SRes Def   SNR       Amp   Per   Mag1   Mag2       ID
PGF   003.19 280.6 m E Pn      2011/01/13 18:56:09.9   2.3                          T                                        4582289
PGF   003.19 280.6 m E Sn      2011/01/13 18:56:44.5   1.0                          T                6.9  .33 Ml 3.0         4582276
SBF   004.64 295.1 m E Pn      2011/01/13 18:56:29.6   2.3                          T                                        4582288
FRF   005.09 289.6 m E Pn      2011/01/13 18:56:34.0   0.6                          T                                        4582286
LMR   005.13 286.9 m E Pn      2011/01/13 18:56:34.4   0.5                          T                                        4582287
MBDF  005.43 301.9 m E Pn      2011/01/13 18:56:39.4   1.2                          T                                        4582285
LPL   005.86 308.6 m E Pn      2011/01/13 18:56:45.3   1.1                          T                                        4582282
LPL   005.86 308.6 m E Sn      2011/01/13 18:57:48.5   1.1                          T                7.7  .70 Ml 3.1         4582275
LPG   005.84 308.5 m E Pn      2011/01/13 18:56:46.6   2.7                          T                                        4582283
LPG   005.84 308.5 m E Sn      2011/01/13 18:57:47.8   0.9                          T               10.0  .76 Ml 3.2         4582274
ORIF  006.08 300.7 m E Pn      2011/01/13 18:56:47.6   0.6                          T                                        4582281
SMRF  005.95 291.6 m E Pn      2011/01/13 18:56:48.5   3.4                          T                                        4582284
VIVF  006.84 297.2 m E Pn      2011/01/13 18:56:59.3   2.0                          T                                        4582280
LASF  007.17 289.7 m E Pn      2011/01/13 18:57:02.2   0.4                          T                                        4582279
CDF   007.64 328.6 m E Pn      2011/01/13 18:57:08.9   0.7                          T                                        4582278
CDF   007.64 328.6 m E Sn      2011/01/13 18:58:30.7   1.0                          T                2.7  .41 Ml 3.3         4582277

.
EVENT     253714
    Date      Time       Latitude Longitude    Depth    Ndef Nsta Gap    Mag1  N    Mag2  N    Mag3  N   Author         ID
       rms   OT_Error      Smajor Sminor Az        Err   mdist  Mdist     Err        Err        Err      Quality

2011/01/13 19:51:38.9     44.3819    7.1711      2.0      24   10 158  Ml 1.9 10  Md 1.9  2              js067245    253734

      0.17   +-  0.02        .6     .3   66.05 +-  0.0    0.45   2.27   +-0.3      +-0.2                 m i ke

NORTHERN ITALY
Sta     Dist  EvAz     Phase      Date       Time     TRes  Azim  AzRes  Slow  SRes Def   SNR       Amp   Per   Mag1   Mag2       ID
MBDF  000.45 320.5 m E Pg      2011/01/13 19:51:47.6  -0.1                          T                                        4582295
MBDF  000.45 320.5 m E Sg      2011/01/13 19:51:53.8   0.2                          T               24.8  .36        Md 2.0  4582290
SBF   000.55 159.8 m E Pg      2011/01/13 19:51:49.5   0.0                          T                                        4582292
SBF   000.55 159.8 m E Sg      2011/01/13 19:51:56.7   0.0                          T               12.1  .30        Md 1.8  4582329
FRF   000.90 204.9 m E Pg      2011/01/13 19:51:55.7  -0.1                          T                                        4582294
FRF   000.90 204.9 m E Sg      2011/01/13 19:52:07.6   0.0                          T                8.5  .22 Ml 2.4         4582331
ORIF  001.07 300.7 m E Pg      2011/01/13 19:51:59.0   0.1                          T                                        4582324
ORIF  001.07 300.7 m E Sg      2011/01/13 19:52:12.8   0.0                          T                3.1  .22 Ml 2.0         4582325
LMR   001.15 204.8 m E Pg      2011/01/13 19:52:00.5   0.1                          T                                        4582293
LMR   001.15 204.8 m E Sg      2011/01/13 19:52:15.3   0.0                          T                6.9  .25 Ml 2.3         4582330
LPG   001.15 345.2 m E Pg      2011/01/13 19:52:00.9   0.1                          T                                        4582322
LPG   001.15 345.2 m E Sg      2011/01/13 19:52:15.6  -0.2                          T                1.5  .29 Ml 1.6         4582327
LPL   001.18 344.8 m E Pg      2011/01/13 19:52:01.2   0.0                          T                                        4582323
LPL   001.18 344.8 m E Sg      2011/01/13 19:52:16.3   0.0                          T                2.3  .38 Ml 1.7         4582326
SMRF  001.22 251.1 m E Pg      2011/01/13 19:52:01.6   0.0                          T                                        4582291
SMRF  001.22 251.1 m E Sg      2011/01/13 19:52:17.4  -0.1                          T                2.9  .32 Ml 1.9         4582328
VIVF  001.85 285.8 m E Pn      2011/01/13 19:52:09.8   0.0                          T                                        4582321
VIVF  001.85 285.8 m E Sn      2011/01/13 19:52:32.5   0.1                          T                1.5  .37 Ml 1.8         4582320
PGF   002.27 143.4 m E Pn      2011/01/13 19:52:15.6   0.0                          T                                        4582319
PGF   002.27 143.4 m E Sn      2011/01/13 19:52:42.4  -0.1                          T                  1  .26 Ml 2.1         4582318

.
EVENT     253715
    Date      Time       Latitude Longitude    Depth    Ndef Nsta Gap    Mag1  N    Mag2  N    Mag3  N   Author         ID
       rms   OT_Error      Smajor Sminor Az        Err   mdist  Mdist     Err        Err        Err      Quality

2011/01/13 19:56:37.8     43.1011    -.0148      2.0       9    4 169  Ml 1.3  2  Md 1.4  2              js067245    253735

      0.06   +-  0.03       1.6     .4  173.62 +-  0.0    0.27   1.65   +-0.3      +-0.0                 m i ke

PYRENEES
Sta     Dist  EvAz     Phase      Date       Time     TRes  Azim  AzRes  Slow  SRes Def   SNR       Amp   Per   Mag1   Mag2       ID
EPF   000.27 105.1 m E Pg      2011/01/13 19:56:43.2   0.0                          T                                        4582341
EPF   000.27 105.1 m E Sg      2011/01/13 19:56:46.8   0.0                          T                5.0  .27        Md 1.4  4582338
ETSF  000.45 243.3 m E Pg      2011/01/13 19:56:46.5   0.0                          T                                        4582340
ETSF  000.45 243.3 m E Sg      2011/01/13 19:56:52.2  -0.2                          T                5.7  .27        Md 1.4  4582339
SJPF  000.89 271.2 m E Pg      2011/01/13 19:56:54.5   0.0                          T                                        4582335
SJPF  000.89 271.2 m E Sg      2011/01/13 19:57:06.1   0.0                          T                 .6  .27 Ml 1.1         4582336
MTLF  001.65 080.9 m E Pg      2011/01/13 19:57:08.5  -0.1                          T                                        4582334
MTLF  001.65 080.9 m E Sg      2011/01/13 19:57:29.8  -0.1                          T                 .4  .17 Ml 1.5         4582337

.
EVENT     253787
    Date      Time       Latitude Longitude    Depth    Ndef Nsta Gap    Mag1  N    Mag2  N    Mag3  N   Author         ID
       rms   OT_Error      Smajor Sminor Az        Err   mdist  Mdist     Err        Err        Err      Quality

2011/01/14 09:44:06.8     47.9788    6.3994       .0 f     9    5 166  Ml 2.0  1  Md 1.4  2              js067245    253807

      0.22   +-  0.08       2.5    1.2   24.83 +-  0.0    0.04   0.94   +-         +-0.2                 m i km

FRANCE
Sta     Dist  EvAz     Phase      Date       Time     TRes  Azim  AzRes  Slow  SRes Def   SNR       Amp   Per   Mag1   Mag2       ID
HAU   000.04 308.0 m E Pg      2011/01/14 09:44:07.9   0.0                          T                                        4582549
HAU   000.04 308.0 m E Sg      2011/01/14 09:44:09.3   0.6                          T              103.7  .72        Md 1.5  4582525
HINF  000.35 117.8 m E Pg      2011/01/14 09:44:13.7  -0.1                          T                                        4582557
HINF  000.35 117.8 m E Sg      2011/01/14 09:44:18.9   0.3                          T               26.6  .90        Md 1.3  4582548
PAGF  000.73 322.3 m E Pg      2011/01/14 09:44:20.7  -0.1                          T                                        4582554
PAGF  000.73 322.3 m E Sg      2011/01/14 09:44:30.7   0.1 142.5  0.8               T                1.4  .47                4582555
CDF   000.73 053.2 m E Pg      2011/01/14 09:44:20.9  -0.1                          T                                        4582556
CDF   000.73 053.2 m E Sg      2011/01/14 09:44:30.9   0.3                          T                1.8  .24                4582547
SFTF  000.94 284.4 m E Sn      2011/01/14 09:44:39.4   0.1                          T                4.7  .32 Ml 2.0         4582553

.
EVENT     253795
    Date      Time       Latitude Longitude    Depth    Ndef Nsta Gap    Mag1  N    Mag2  N    Mag3  N   Author         ID
       rms   OT_Error      Smajor Sminor Az        Err   mdist  Mdist     Err        Err        Err      Quality

2011/01/14 10:32:01.6     44.9417    3.0365       .0 f    40   13 075  Ml 2.4 15  Md 2.3  3              js067245    253815

      0.24   +-  0.03        .8     .5  107.56 +-  0.0    0.69   2.73   +-0.2      +-0.0                 m i km

FRANCE
Sta     Dist  EvAz     Phase      Date       Time     TRes  Azim  AzRes  Slow  SRes Def   SNR       Amp   Per   Mag1   Mag2       ID
CAF   000.69 269.0 m E Pg      2011/01/14 10:32:15.0   0.0                          T                                        4582689
CAF   000.69 269.0 m E Pn      2011/01/14 10:32:17.3   0.1                          T                                        4582694
CAF   000.69 269.0 m E Sg      2011/01/14 10:32:24.1  -0.1                          T                5.2  .18        Md 2.3  4582818
LASF  001.05 145.6 m E Pg      2011/01/14 10:32:21.5   0.1                          T                                        4582688
LASF  001.05 145.6 m E Sg      2011/01/14 10:32:35.2   0.0                          T               27.3  .31 Ml 2.8 Md 2.3  4582682
RJF   001.14 289.2 m E Pg      2011/01/14 10:32:23.4   0.3                          T                                        4582690
RJF   001.14 289.2 m E Sg      2011/01/14 10:32:37.8  -0.2                          T               13.3  .20 Ml 2.4 Md 2.3  4582683
VIVF  001.17 093.6 m E Pg      2011/01/14 10:32:23.9   0.2                          T                                        4582691
VIVF  001.17 093.6 m E Sg      2011/01/14 10:32:39.4   0.4                          T               15.5  .44 Ml 2.4         4582809
TCF   001.47 337.0 m E Pn      2011/01/14 10:32:27.7  -0.1                          T                                        4582698
TCF   001.47 337.0 m E Pg      2011/01/14 10:32:29.3   0.1                          T                                        4582684
TCF   001.47 337.0 m E Sg      2011/01/14 10:32:48.3   0.0                          T                3.3  .19 Ml 2.3         4582815
BGF   001.62 355.4 m E Pn      2011/01/14 10:32:29.7  -0.2                          T                                        4582695
BGF   001.62 355.4 m E Pg      2011/01/14 10:32:32.0   0.0                          T                                        4582686
BGF   001.62 355.4 m E Sg      2011/01/14 10:32:53.8   0.6                          T               16.4  .37 Ml 2.7         4582812
MTLF  001.71 200.5 m E Pn      2011/01/14 10:32:30.8  -0.2                          T                                        4582693
MTLF  001.71 200.5 m E Pg      2011/01/14 10:32:33.4  -0.1                          T                                        4582692
MTLF  001.71 200.5 m E Sg      2011/01/14 10:32:55.8   0.1                          T                8.3  .34 Ml 2.5         4582810
LFF   001.63 270.7 m E Pg      2011/01/14 10:32:32.3   0.1                          T                                        4582704
SMF   001.79 018.0 m E Pn      2011/01/14 10:32:32.3   0.0                          T                                        4582696
SMF   001.79 018.0 m E Pg      2011/01/14 10:32:35.3   0.0                          T                                        4582685
LFF   001.63 270.7 m E Sg      2011/01/14 10:32:53.7   0.3                          T                9.9  .31 Ml 2.4         4582819
SMF   001.79 018.0 m E Sg      2011/01/14 10:32:58.0  -0.6                          T                4.4  .21 Ml 2.5         4582813
AVF   001.86 006.7 m E Pn      2011/01/14 10:32:32.9  -0.2                          T                                        4582697
AVF   001.86 006.7 m E Pg      2011/01/14 10:32:36.3  -0.1                          T                                        4582703
AVF   001.86 006.7 m E Sg      2011/01/14 10:33:00.7   0.1                          T                2.4  .20 Ml 2.2         4582814
SSF   002.15 008.6 m E Pn      2011/01/14 10:32:37.2   0.2                          T                                        4582699
SSF   002.15 008.6 m E Pg      2011/01/14 10:32:41.4  -0.2                          T                                        4582702
SSF   002.15 008.6 m E Sg      2011/01/14 10:33:09.5   0.0                          T                1.0  .18 Ml 2.1         4582816
LOR   002.40 013.5 m E Pn      2011/01/14 10:32:40.7   0.2                          T                                        4582700
LOR   002.40 013.5 m E Pg      2011/01/14 10:32:46.2  -0.1 194.2  0.1               T                                        4582701
LOR   002.40 013.5 m E Sg      2011/01/14 10:33:17.3   0.0 191.8  -2.3              T                2.7  .23 Ml 2.4         4582817
EPF   002.73 226.5 m E Pg      2011/01/14 10:32:52.5   0.0                          T                                        4582807
EPF   002.73 226.5 m E Sg      2011/01/14 10:33:27.6  -0.1                          T                6.9  .42 Ml 2.6         4582808

.
