EVENT     285398
    Date      Time       Latitude Longitude    Depth    Ndef Nsta Gap    Mag1  N    Mag2  N    Mag3  N   Author         ID
       rms   OT_Error      Smajor Sminor Az        Err   mdist  Mdist     Err        Err        Err      Quality

2012/10/18 14:17:37.6     44.6145    7.2373     13.0 f    29    8 125  Ml 1.9  5  Md 1.8  2              bulletin    285498
                                                                                                         _ldg
      0.26   +-  0.05       1.3     .7   68.99 +-  0.0    0.11   1.38   +-0.2      +-0.0                 m i ke

NORTHERN ITALY
Sta     Dist  EvAz     Phase      Date       Time     TRes  Azim  AzRes  Slow  SRes Def   SNR       Amp   Per   Mag1   Mag2       ID
MBDF  000.35 288.8 m E Pg      2012/10/18 14:17:45.0   0.0                          T                                        5101051
MBDF  000.35 288.8 m E Sg      2012/10/18 14:17:49.9   0.1                          T                8.0  .20        Md 1.8  5101062
SBF   000.76 169.2 m E Pg      2012/10/18 14:17:52.4   0.1                          T                                        5109276
SBF   000.76 169.2 m E Sg      2012/10/18 14:18:02.2  -0.2                          T                2.4  .19        Md 1.8  5109275
LPG   000.95 338.9 m E Pg      2012/10/18 14:17:56.1   0.2                          T                                        5109278
LPG   000.95 338.9 m E Sg      2012/10/18 14:18:08.4   0.1                          T                1.6  .18 Ml 1.7         5109277
LPL   000.97 338.5 m E Pg      2012/10/18 14:17:56.5   0.3                          T                                        5101064
LPL   000.97 338.5 m E Sg      2012/10/18 14:18:09.0   0.1                          T                3.9  .25 Ml 2.0         5101063
ORIF  001.01 287.9 m E Pg      2012/10/18 14:17:56.9   0.0                          T                                        5109280
ORIF  001.01 287.9 m E Sg      2012/10/18 14:18:10.1   0.0                          T                1.5  .20 Ml 1.7         5109279
FRF   001.14 202.2 m E Pg      2012/10/18 14:17:57.4  -1.6                          T                                        5101108
FRF   001.14 202.2 m E Sg      2012/10/18 14:18:13.7   0.0                          T                1.8  .19 Ml 1.9         5101109
SMRF  001.35 242.4 m E Pn      2012/10/18 14:18:02.7   2.0                          T                                        5109272
LMR   001.38 202.6 m E Pn      2012/10/18 14:18:02.8   1.8                          T                                        5109274
LMR   001.38 202.6 m E Sn      2012/10/18 14:18:20.7   2.6                          T                3.5  .24 Ml 2.2         5109273

.
EVENT     285409
    Date      Time       Latitude Longitude    Depth    Ndef Nsta Gap    Mag1  N    Mag2  N    Mag3  N   Author         ID
       rms   OT_Error      Smajor Sminor Az        Err   mdist  Mdist     Err        Err        Err      Quality

2012/10/19 00:48:15.2     44.5515    7.1673      5.0 f    21    7 116  Ml 1.3  6  Md 1.3  2              bulletin    285509
                                                                                                         _ldg
      0.31   +-  0.09       2.0    1.1   70.78 +-  0.0    0.07   1.80   +-0.3      +-0.0                 m i ke

NORTHERN ITALY
Sta     Dist  EvAz     Phase      Date       Time     TRes  Azim  AzRes  Slow  SRes Def   SNR       Amp   Per   Mag1   Mag2       ID
MBDF  000.33 302.0 m E Pg      2012/10/19 00:48:21.9   0.0                          T                                        5101074
MBDF  000.33 302.0 m E Sg      2012/10/19 00:48:26.3  -0.1                          T                2.3  .22        Md 1.3  5101073
SBF   000.71 164.3 m E Pg      2012/10/19 00:48:28.7  -0.1                          T                                        5109286
SBF   000.71 164.3 m E Sg      2012/10/19 00:48:38.0  -0.1                          T                1.4  .21        Md 1.3  5109285
ORIF  000.99 292.2 m E Pg      2012/10/19 00:48:33.8  -0.1                          T                                        5101078
ORIF  000.99 292.2 m E Sg      2012/10/19 00:48:46.6  -0.2                          T                 .2  .14 Ml 1           5101077
LPL   001.01 342.4 m E Pg      2012/10/19 00:48:34.6   0.1                          T                                        5109284
LPL   001.01 342.4 m E Sg      2012/10/19 00:48:47.7   0.1                          T                 .4  .21 Ml 1.1         5101079
FRF   001.06 200.9 m E Pg      2012/10/19 00:48:35.2   0.1                          T                                        5101072
FRF   001.06 200.9 m E Sg      2012/10/19 00:48:48.8  -0.1                          T                 .8  .23 Ml 1.4         5101071
LMR   001.31 201.6 m E Pn      2012/10/19 00:48:38.7   0.3                          T                                        5101076
LMR   001.31 201.6 m E Sn      2012/10/19 00:48:56.2   1.0                          T                 .5  .19 Ml 1.4         5101075
VIVF  001.80 280.6 m E Pn      2012/10/19 00:48:45.9   0.6                          T                                        5101110
VIVF  001.80 280.6 m E Sn      2012/10/19 00:49:07.8   0.6                          T                                        5109281
VIVF  001.80 280.6 m E Sg      2012/10/19 00:49:11.6  -0.5                          T                1.0  .26 Ml 1.8         5101107

.
EVENT     285410
    Date      Time       Latitude Longitude    Depth    Ndef Nsta Gap    Mag1  N    Mag2  N    Mag3  N   Author         ID
       rms   OT_Error      Smajor Sminor Az        Err   mdist  Mdist     Err        Err        Err      Quality

2012/10/19 03:43:27.7     42.6974     .7183     12.0 f    35    4 078  Ml 1.9  4  Md 1.9  1              bulletin    285510
                                                                                                         _ldg
      0.47   +-  0.07       1.6    1.1   25.89 +-  0.0    0.07   1.76   +-0.3      +-                    m i ke

PYRENEES
Sta     Dist  EvAz     Phase      Date       Time     TRes  Azim  AzRes  Slow  SRes Def   SNR       Amp   Per   Mag1   Mag2       ID
EPF   000.43 320.2 m E Pg      2012/10/19 03:43:36.3   0.0                          T                                        5100650
EPF   000.43 320.2 m E Sg      2012/10/19 03:43:42.0  -0.3                          T                9.0  .17        Md 1.9  5100646
ETSF  000.96 282.5 m E Pg      2012/10/19 03:43:45.7  -0.3                          T                                        5100648
ETSF  000.96 282.5 m E Sg      2012/10/19 03:43:58.5  -0.1                          T                1.7  .19 Ml 1.8         5100647
MTLF  001.27 059.2 m E Pg      2012/10/19 03:43:52.2   0.6                          T                                        5100649
MTLF  001.27 059.2 m E Sg      2012/10/19 03:44:08.6   0.4                          T                2.2  .17 Ml 2.0         5100645
SJPF  001.49 286.9 m E Pg      2012/10/19 03:43:55.8   0.3                          T                                        5100643
SJPF  001.49 286.9 m E Sg      2012/10/19 03:44:14.9   0.1                          T                 .8  .22 Ml 1.6         5100644

.
EVENT     285411
    Date      Time       Latitude Longitude    Depth    Ndef Nsta Gap    Mag1  N    Mag2  N    Mag3  N   Author         ID
       rms   OT_Error      Smajor Sminor Az        Err   mdist  Mdist     Err        Err        Err      Quality

2012/10/19 04:54:17.4     47.7700    -.3249      2.0      62   16 101  Ml 2.4 17  Md 2.4  3              bulletin    285511
                                                                                                         _ldg
      0.38   +-  0.04       1.0     .6   30.92 +-  0.0    0.71   3.05   +-0.3      +-0.2                 m i ke

FRANCE
Sta     Dist  EvAz     Phase      Date       Time     TRes  Azim  AzRes  Slow  SRes Def   SNR       Amp   Per   Mag1   Mag2       ID
GRR   000.71 330.2 m E Pg      2012/10/19 04:54:30.9   0.0                          T                                        5101085
GRR   000.71 330.2 m E Sg      2012/10/19 04:54:40.3   0.1                          T                6.7  .14        Md 2.5  5101087
LDF   000.84 009.3 m E Pg      2012/10/19 04:54:33.4   0.3                          T                                        5101084
LDF   000.84 009.3 m E Sg      2012/10/19 04:54:43.9  -0.1                          T                                        5115649
LDF   000.84 009.3 m E Sn      2012/10/19 04:54:48.0   1.2                          T               17.0  .18        Md 2.6  5101088
FLN   001.00 354.0 m E Pg      2012/10/19 04:54:36.2   0.1 172.0  -1.9              T                                        5101083
FLN   001.00 354.0 m E Sg      2012/10/19 04:54:48.8  -0.2                          T                                        5115650
FLN   001.00 354.0 m E Sn      2012/10/19 04:54:51.9   1.3                          T               37.1  .26 Ml 2.8 Md 2.2  5101089
MFF   001.17 174.0 m E Pg      2012/10/19 04:54:39.6   0.2                          T                                        5101080
MFF   001.17 174.0 m E Sg      2012/10/19 04:54:54.3  -0.3                          T                                        5115648
MFF   001.17 174.0 m E Sn      2012/10/19 04:54:55.8   1.0                          T                7.5  .17 Ml 2.7         5101086
SGMF  001.58 288.7 m E Pg      2012/10/19 04:54:46.7  -0.1                          T                                        5101082
SGMF  001.58 288.7 m E Sn      2012/10/19 04:55:04.4   0.0                          T                                        5109303
SGMF  001.58 288.7 m E Sg      2012/10/19 04:55:07.1   0.0                          T                5.8  .18 Ml 2.6         5101093
QUIF  001.92 275.4 m E Pn      2012/10/19 04:54:49.3   0.0                          T                                        5109301
QUIF  001.92 275.4 m E Pg      2012/10/19 04:54:53.0   0.0                          T                                        5101081
QUIF  001.92 275.4 m E Sn      2012/10/19 04:55:12.7   0.1                          T                                        5109302
QUIF  001.92 275.4 m E Sg      2012/10/19 04:55:17.7  -0.1                          T                2.9  .15 Ml 2.5         5101092
HYF   002.07 102.9 m E Pn      2012/10/19 04:54:51.5   0.0                          T                                        5109296
HYF   002.07 102.9 m E Pg      2012/10/19 04:54:55.8  -0.1                          T                                        5101117
HYF   002.07 102.9 m E Sg      2012/10/19 04:55:22.8   0.2                          T                                        5101118
ROSF  002.06 287.1 m E Pn      2012/10/19 04:54:51.5   0.3                          T                                        5109304
ROSF  002.06 287.1 m E Pg      2012/10/19 04:54:55.3  -0.4                          T                                        5101127
ROSF  002.06 287.1 m E Sn      2012/10/19 04:55:15.7  -0.3                          T                                        5109305
ROSF  002.06 287.1 m E Sg      2012/10/19 04:55:21.6  -0.5                          T                3.4  .22 Ml 2.4         5101128
TCF   002.28 129.6 m E Pn      2012/10/19 04:54:54.4   0.1                          T                                        5101126
TCF   002.28 129.6 m E Pg      2012/10/19 04:54:59.3  -0.5                          T                                        5101123
TCF   002.28 129.6 m E Sn      2012/10/19 04:55:21.2  -0.1                          T                 .9  .18 Ml 2.0         5101124
TCF   002.28 129.6 m E Sg      2012/10/19 04:55:28.9  -0.2                          T                1.2  .18 Ml 2.1         5101125
BGF   002.48 118.1 m E Pn      2012/10/19 04:54:57.0   0.0                          T                                        5109295
BGF   002.48 118.1 m E Pg      2012/10/19 04:55:03.6   0.1                          T                                        5101115
BGF   002.48 118.1 m E Sn      2012/10/19 04:55:25.4  -0.7                          T                                        5109294
BGF   002.48 118.1 m E Sg      2012/10/19 04:55:35.6   0.2                          T               15.9  .33 Ml 3.0         5101116
SSF   002.70 103.8 m E Pn      2012/10/19 04:54:59.7  -0.3                          T                                        5109289
SSF   002.70 103.8 m E Pg      2012/10/19 04:55:07.6   0.1                          T                                        5101091
SSF   002.70 103.8 m E Sn      2012/10/19 04:55:31.2  -0.1                          T                 .8  .20 Ml 2.1         5101130
SSF   002.70 103.8 m E Sg      2012/10/19 04:55:41.2  -0.9                          T                1.8  .19 Ml 2.4         5101090
AVF   002.69 110.0 m E Pn      2012/10/19 04:54:59.9   0.1                          T                                        5101122
AVF   002.69 110.0 m E Pg      2012/10/19 04:55:07.6   0.3                          T                                        5101119
AVF   002.69 110.0 m E Sn      2012/10/19 04:55:31.2   0.2                          T                 .5  .21 Ml 1.7         5101121
AVF   002.69 110.0 m E Sg      2012/10/19 04:55:41.2  -0.7                          T                2.8  .28 Ml 2.4         5101120
RJF   002.77 152.1 m E Pn      2012/10/19 04:55:01.1   0.1                          T                                        5109293
RJF   002.77 152.1 m E Pg      2012/10/19 04:55:08.4  -0.5                          T                                        5101113
RJF   002.77 152.1 m E Sg      2012/10/19 04:55:44.9   0.4                          T                3.0  .19 Ml 2.3         5101114
LOR   002.88 098.5 m E Pn      2012/10/19 04:55:02.7   0.2                          T                                        5109290
LOR   002.88 098.5 m E Pg      2012/10/19 04:55:10.8   0.0 279.6  -1.9              T                                        5101095
LOR   002.88 098.5 m E Sn      2012/10/19 04:55:36.1   0.5                          T                1.1  .24 Ml 2.1         5101129
LOR   002.88 098.5 m E Sg      2012/10/19 04:55:48.2   0.4                          T                1.6  .18 Ml 2.4         5101094
LFF   002.93 165.0 m E Pn      2012/10/19 04:55:03.3   0.3                          T                                        5109291
LFF   002.93 165.0 m E Pg      2012/10/19 04:55:11.7   0.0                          T                                        5101111
LFF   002.93 165.0 m E Sn      2012/10/19 04:55:36.9   0.2                          T                                        5109292
LFF   002.93 165.0 m E Sg      2012/10/19 04:55:49.4   0.2                          T                3.3  .29 Ml 2.3         5101112
SMF   003.05 110.1 m E Pn      2012/10/19 04:55:04.8  -0.1                          T                                        5109300
SMF   003.05 110.1 m E Pg      2012/10/19 04:55:14.0   0.0                          T                                        5109299
SMF   003.05 110.1 m E Sn      2012/10/19 04:55:40.0   0.2                          T                                        5109298
SMF   003.05 110.1 m E Sg      2012/10/19 04:55:52.9  -0.4                          T                2.8  .23 Ml 2.5         5109297

.
EVENT     286382
    Date      Time       Latitude Longitude    Depth    Ndef Nsta Gap    Mag1  N    Mag2  N    Mag3  N   Author         ID
       rms   OT_Error      Smajor Sminor Az        Err   mdist  Mdist     Err        Err        Err      Quality

2012/10/19 09:05:47.3     47.6501    6.2328       .0 f    12    6 117  Ml 2.2  5  Md 2.2  1              bulletin    286482
                                                                                                         _ldg
      0.98   +-  0.11       2.4    1.9  161.91 +-  0.0    0.45   1.66   +-0.2      +-                    m i km

FRANCE
Sta     Dist  EvAz     Phase      Date       Time     TRes  Azim  AzRes  Slow  SRes Def   SNR       Amp   Per   Mag1   Mag2       ID
HINF  000.45 068.1 m E Pg      2012/10/19 09:05:56.0  -0.2                          T                                        5115655
HINF  000.45 068.1 m E Sg      2012/10/19 09:06:02.4   0.0                          T               55.6  .82        Md 2.2  5115656
SFTF  000.98 305.1 m E Pg      2012/10/19 09:06:05.9   0.0 130.6  6.4               T                                        5115657
SFTF  000.98 305.1 m E Sg      2012/10/19 09:06:18.8   0.1 129.0  4.8               T                4.4  .24 Ml 2.1         5115660
CDF   001.04 042.2 m E Pg      2012/10/19 09:06:07.0  -0.1                          T                                        5115651
CDF   001.04 042.2 m E Sn      2012/10/19 09:06:22.5   0.2                          T               24.2  .70 Ml 2.5         5115652
CABF  001.04 185.5 m E Pg      2012/10/19 09:06:07.6   0.4                          T                                        5115653
CABF  001.04 185.5 m E Sn      2012/10/19 09:06:22.2  -0.3                          T               18.5  .60 Ml 2.3         5115654
MEZF  001.16 317.5 m E Pg      2012/10/19 09:06:09.5   0.2                          T                                        5115658
MEZF  001.16 317.5 m E Sn      2012/10/19 09:06:25.1   0.0 144.7  8.1               T                4.1  .15 Ml 2.3         5115659
LOR   001.66 257.5 m E Pg      2012/10/19 09:06:18.2  -0.2                          T                                        5115661
LOR   001.66 257.5 m E Sg      2012/10/19 09:06:39.9  -0.1  74.7  -1.0              T                1.9  .33 Ml 1.9         5115662

.
