EVENT     276151
    Date      Time       Latitude Longitude    Depth    Ndef Nsta Gap    Mag1  N    Mag2  N    Mag3  N   Author         ID
       rms   OT_Error      Smajor Sminor Az        Err   mdist  Mdist     Err        Err        Err      Quality

2012/05/16 20:04:00.9     45.6288    2.9244      2.0      79   29 043  Ml 2.5 30  Md 2.6  7              bulletin    276251
                                                                                                         _ldg
      0.54   +-  0.04        .9     .7  123.56 +-  0.0    0.14   4.77   +-0.3      +-0.1                 m i ke

FRANCE
Sta     Dist  EvAz     Phase      Date       Time     TRes  Azim  AzRes  Slow  SRes Def   SNR       Amp   Per   Mag1   Mag2       ID
TCF   000.83 323.2 m E Pg      2012/05/16 20:04:16.4  -0.2                          T                                        4947692
TCF   000.83 323.2 m E Sg      2012/05/16 20:04:27.4   0.1                          T               24.1  .22        Md 2.7  4947691
CAF   000.93 221.1 m E Pg      2012/05/16 20:04:18.1  -0.3                          T                                        4947682
CAF   000.93 221.1 m E Sg      2012/05/16 20:04:30.2  -0.3                          T               16.0  .17 Ml 2.8 Md 2.7  4947681
BGF   000.93 356.7 m E Pg      2012/05/16 20:04:18.8   0.4                          T                                        4947686
BGF   000.93 356.7 m E Sg      2012/05/16 20:04:30.7   0.2                          T               36.6  .28 Ml 2.9 Md 2.6  4947685
RJF   001.04 252.4 m E Pg      2012/05/16 20:04:20.4  -0.1                          T                                        4947684
RJF   001.04 252.4 m E Sg      2012/05/16 20:04:34.3   0.3                          T               40.8  .32 Ml 2.6 Md 2.5  4947683
SMF   001.20 031.8 m E Pg      2012/05/16 20:04:23.1  -0.3                          T                                        4947688
SMF   001.20 031.8 m E Sg      2012/05/16 20:04:39.2   0.3                          T               22.7  .30 Ml 2.8 Md 2.6  4947687
AVF   001.20 014.2 m E Pg      2012/05/16 20:04:23.2  -0.1                          T                                        4947690
AVF   001.20 014.2 m E Sg      2012/05/16 20:04:38.7  -0.2                          T               18.6  .24 Ml 2.8 Md 2.6  4947689
VIVF  001.46 121.4 m E Pg      2012/05/16 20:04:28.3   0.2                          T                                        4947650
VIVF  001.46 121.4 m E Sg      2012/05/16 20:04:46.3  -0.7                          T               10.3  .22 Ml 2.7         4947649
SSF   001.49 015.5 m E Pg      2012/05/16 20:04:28.8   0.1                          T                                        4947663
SSF   001.49 015.5 m E Sn      2012/05/16 20:04:45.7  -0.1                          T                                        4965421
SSF   001.49 015.5 m E Sg      2012/05/16 20:04:48.1   0.2                          T                9.2  .22 Ml 2.7         4947664
HYF   001.65 353.3 m E Pg      2012/05/16 20:04:31.0  -0.7                          T                                        4947654
HYF   001.65 353.3 m E Sg      2012/05/16 20:04:53.2   0.2                          T                                        4947655
LFF   001.69 246.7 m E Pg      2012/05/16 20:04:32.4   0.1                          T                                        4947651
LFF   001.69 246.7 m E Sn      2012/05/16 20:04:50.7   0.0                          T                                        4947652
LFF   001.69 246.7 m E Sg      2012/05/16 20:04:54.3   0.2                          T               15.8  .25 Ml 2.8         4947653
LASF  001.69 156.5 m E Pg      2012/05/16 20:04:32.6   0.3                          T                                        4965426
LASF  001.69 156.5 m E Sg      2012/05/16 20:04:54.3   0.1                          T               15.2  .32 Ml 2.8         4965427
LOR   001.76 021.2 m E Pg      2012/05/16 20:04:34.0   0.2 204.4  2.6               T                                        4947694
LOR   001.76 021.2 m E Sn      2012/05/16 20:04:52.4   0.0                          T                                        4947693
LOR   001.76 021.2 m E Sg      2012/05/16 20:04:56.6   0.1                          T                9.3  .19 Ml 2.8         4947679
MTLF  002.34 192.7 m E Pn      2012/05/16 20:04:38.5  -0.1                          T                                        4947641
MTLF  002.34 192.7 m E Pg      2012/05/16 20:04:44.8   0.4                          T                                        4947640
MTLF  002.34 192.7 m E Sg      2012/05/16 20:05:14.4  -0.2                          T                2.2  .21 Ml 2.3         4947642
MFF   002.35 295.6 m E Pn      2012/05/16 20:04:39.1   0.5                          T                                        4947662
MFF   002.35 295.6 m E P       2012/05/16 20:04:40.7  -0.4                          T                                        4965424
MFF   002.35 295.6 m E Pg      2012/05/16 20:04:44.2  -0.3                          T                                        4947661
MFF   002.35 295.6 m E Sn      2012/05/16 20:05:06.2  -0.2                          T                6.8  .24 Ml 2.9         4947660
ORIF  002.20 107.7 m E Pg      2012/05/16 20:04:41.6  -0.3                          T                                        4947643
ORIF  002.20 107.7 m E Sg      2012/05/16 20:05:09.7  -0.7                          T                3.0  .30 Ml 2.3         4947644
LPG   002.69 091.4 m E Pn      2012/05/16 20:04:43.5  -0.3                          T                                        4947648
LPG   002.69 091.4 m E Pg      2012/05/16 20:04:52.0   0.8                          T                                        4965425
LPG   002.69 091.4 m E Sg      2012/05/16 20:05:25.2  -0.6                          T                1.1  .24 Ml 2.0         4947647
CABF  002.41 064.8 m E Pg      2012/05/16 20:04:45.6  -0.2                          T                                        4947668
CABF  002.41 064.8 m E Sg      2012/05/16 20:05:16.3  -0.4                          T                2.1  .22 Ml 2.3         4947667
SFTF  002.96 028.6 m E Pn      2012/05/16 20:04:46.6  -0.4 197.0  -13.2             T                                        4947675
SFTF  002.96 028.6 m E Pg      2012/05/16 20:04:55.6  -0.1                          T                                        4947676
SFTF  002.96 028.6 m E Sn      2012/05/16 20:05:21.5   0.5                          T                                        4947678
SFTF  002.96 028.6 m E Sg      2012/05/16 20:05:34.2   0.5                          T                2.2  .22 Ml 2.4         4947677
MEZF  003.22 026.1 m E Pn      2012/05/16 20:04:50.5  -0.1 209.1  1.5               T                                        4947672
MEZF  003.22 026.1 m E Sn      2012/05/16 20:05:26.4  -0.8                          T                                        4947674
MEZF  003.22 026.1 m E Sg      2012/05/16 20:05:41.8  -0.2                          T                4.4  .35 Ml 2.6         4947673
LPL   002.68 091.0 m E Pg      2012/05/16 20:04:50.9   0.0                          T                                        4947645
LPL   002.68 091.0 m E Sg      2012/05/16 20:05:25.3   0.0                          T                1.4  .27 Ml 2.1         4947646
THEF  003.34 037.9 m E Pn      2012/05/16 20:04:52.2  -0.1                          T                                        4947669
THEF  003.34 037.9 m E Sn      2012/05/16 20:05:30.2  -0.1                          T                                        4947670
THEF  003.34 037.9 m E Sg      2012/05/16 20:05:46.4   0.6                          T                3.6  .25 Ml 2.7         4947671
HINF  003.48 049.6 m E Pn      2012/05/16 20:04:54.1  -0.1                          T                                        4947635
HINF  003.48 049.6 m E Sg      2012/05/16 20:05:49.3  -0.7                          T                2.2  .26 Ml 2.5         4947636
FLN   003.90 324.7 m E Pn      2012/05/16 20:04:59.7  -0.2 137.2  -5.0              T                                        4947666
FLN   003.90 324.7 m E Sn      2012/05/16 20:05:43.7   0.2                          T                1.4  .25 Ml 2.2         4947665
EPF   003.19 216.4 m E Pg      2012/05/16 20:05:00.1   0.0                          T                                        4947639
EPF   003.19 216.4 m E Sg      2012/05/16 20:05:40.9  -0.2                          T                1.3  .19 Ml 2.3         4947638
SGMF  004.58 306.9 m E Pn      2012/05/16 20:05:09.7   0.6                          T                                        4947659
SGMF  004.58 306.9 m E Sn      2012/05/16 20:05:59.5  -0.3                          T                 .3  .17 Ml 2.0         4947658
QUIF  004.77 300.9 m E Pn      2012/05/16 20:05:12.2   0.5                          T                                        4947656
QUIF  004.77 300.9 m E Sn      2012/05/16 20:06:03.2  -1.0                          T                 .6  .18 Ml 2.4         4947657
HAU   003.34 043.4 m E Sg      2012/05/16 20:05:44.9  -0.9                          T                4.0  .34 Ml 2.4         4965423
PAGF  003.50 032.2 m E Sg      2012/05/16 20:05:51.0   0.5                          T                 .8  .30 Ml 2.0         4965422
ETSF  003.70 223.7 m E Sg      2012/05/16 20:05:56.5  -0.6                          T                 .5  .19 Ml 2.0         4947637

.
EVENT     276152
    Date      Time       Latitude Longitude    Depth    Ndef Nsta Gap    Mag1  N    Mag2  N    Mag3  N   Author         ID
       rms   OT_Error      Smajor Sminor Az        Err   mdist  Mdist     Err        Err        Err      Quality

2012/05/16 20:27:31.0     44.8001    7.2771     16.0 f    41    9 146  Ml 1.8  7  Md 1.9  1              bulletin    276252
                                                                                                         _ldg
      0.30   +-  0.06       1.4     .8   76.27 +-  0.0    0.04   1.85   +-0.2      +-                    m i ke

NORTHERN ITALY
Sta     Dist  EvAz     Phase      Date       Time     TRes  Azim  AzRes  Slow  SRes Def   SNR       Amp   Per   Mag1   Mag2       ID
MBDF  000.37 258.7 m E Pg      2012/05/16 20:27:39.0   0.2                          T                                        4947715
MBDF  000.37 258.7 m E Sg      2012/05/16 20:27:43.7  -0.3                          T                8.5  .16        Md 1.9  4947714
LPG   000.79 332.1 m E Pg      2012/05/16 20:27:46.3  -0.1                          T                                        4947709
LPG   000.79 332.1 m E Sg      2012/05/16 20:27:56.2  -0.7                          T                1.6  .17                4947708
LPL   000.81 331.9 m E Pg      2012/05/16 20:27:46.7   0.0                          T                                        4947711
LPL   000.81 331.9 m E Sg      2012/05/16 20:27:56.3  -1.2                          T                3.5  .32                4947710
SBF   000.94 173.0 m E Pg      2012/05/16 20:27:49.4   0.4                          T                                        4947702
SBF   000.94 173.0 m E Sg      2012/05/16 20:28:01.3   0.0                          T                1.2  .19 Ml 1.6         4947701
ORIF  001.00 277.3 m E Pg      2012/05/16 20:27:50.2   0.2                          T                                        4947713
ORIF  001.00 277.3 m E Sg      2012/05/16 20:28:02.8  -0.3                          T                4.2  .24 Ml 2.1         4947712
FRF   001.32 200.3 m E Pg      2012/05/16 20:27:55.8   0.0                          T                                        4947707
FRF   001.32 200.3 m E Sn      2012/05/16 20:28:09.6   0.2                          T                                        4947706
FRF   001.32 200.3 m E Sg      2012/05/16 20:28:13.3   0.4                          T                1.1  .17 Ml 1.8         4947705
SMRF  001.47 236.6 m E Pn      2012/05/16 20:27:55.9   0.6                          T                                        4947700
SMRF  001.47 236.6 m E Sn      2012/05/16 20:28:13.0  -0.1                          T                  1  .22 Ml 1.7         4947699
LMR   001.57 201.0 m E Pn      2012/05/16 20:27:56.9   0.4                          T                                        4947703
LMR   001.57 201.0 m E Pg      2012/05/16 20:28:00.4   0.2                          T                                        4965430
LMR   001.57 201.0 m E Sn      2012/05/16 20:28:15.1  -0.2                          T                  1  .20 Ml 1.8         4947704
LMR   001.57 201.0 m E Sg      2012/05/16 20:28:20.2  -0.4                          T                                        4965431
VIVF  001.85 272.6 m E Pn      2012/05/16 20:28:00.5   0.0                          T                                        4947698
VIVF  001.85 272.6 m E Sn      2012/05/16 20:28:22.3   0.2                          T                 .4  .19 Ml 1.5         4947697

.
EVENT     276153
    Date      Time       Latitude Longitude    Depth    Ndef Nsta Gap    Mag1  N    Mag2  N    Mag3  N   Author         ID
       rms   OT_Error      Smajor Sminor Az        Err   mdist  Mdist     Err        Err        Err      Quality

2012/05/16 21:26:51.1     43.8128    7.4135      2.0      42    9 083  Ml 2.1  7  Md 2.1  3              bulletin    276253
                                                                                                         _ldg
      0.32   +-  0.05       1.0     .8  150.82 +-  0.0    0.03   1.77   +-0.4      +-0.2                 m i ke

NEAR SOUTH COAST OF FRANCE
Sta     Dist  EvAz     Phase      Date       Time     TRes  Azim  AzRes  Slow  SRes Def   SNR       Amp   Per   Mag1   Mag2       ID
SBF   000.05 017.3 m E Pg      2012/05/16 21:26:52.4  -0.2                          T                                        4947741
SBF   000.05 017.3 m E Sg      2012/05/16 21:26:53.8   0.2                          T              232.1  .15        Md 1.9  4947735
FRF   000.61 245.9 m E Pg      2012/05/16 21:27:02.5  -0.2                          T                                        4947739
FRF   000.61 245.9 m E Sg      2012/05/16 21:27:10.7   0.0                          T                6.4  .18        Md 2.2  4947734
LMR   000.81 234.2 m E Pg      2012/05/16 21:27:06.4   0.0                          T                                        4947740
LMR   000.81 234.2 m E Sg      2012/05/16 21:27:17.1   0.1                          T               12.9  .18        Md 2.2  4947736
MBDF  001.02 333.4 m E Pg      2012/05/16 21:27:10.4  -0.1                          T                                        4947737
MBDF  001.02 333.4 m E Sg      2012/05/16 21:27:24.0   0.2                          T                4.9  .28 Ml 2.1         4947726
SMRF  001.34 277.6 m E Pg      2012/05/16 21:27:16.5   0.3                          T                                        4947738
SMRF  001.34 277.6 m E Sg      2012/05/16 21:27:33.7   0.2                          T                8.1  .21 Ml 2.5         4947733
PGF   001.72 136.9 m E Pn      2012/05/16 21:27:18.8  -1.6                          T                                        4947720
PGF   001.72 136.9 m E Sn      2012/05/16 21:27:39.0  -2.6                          T                1.6  .16 Ml 2.4         4947721
ORIF  001.56 315.7 m E Pg      2012/05/16 21:27:20.5   0.2                          T                                        4947728
ORIF  001.56 315.7 m E Sg      2012/05/16 21:27:41.2   0.7                          T                5.3  .29 Ml 2.3         4947727
LPG   001.75 344.6 m E Pn      2012/05/16 21:27:21.1  -0.1                          T                                        4947732
LPG   001.75 344.6 m E Sn      2012/05/16 21:27:42.8   0.1                          T                 .4  .23 Ml 1.4         4947731
LPL   001.77 344.3 m E Pn      2012/05/16 21:27:21.2  -0.2                          T                                        4947730
LPL   001.77 344.3 m E Sn      2012/05/16 21:27:43.3   0.2                          T                 .7  .26 Ml 1.6         4947729

.
EVENT     276154
    Date      Time       Latitude Longitude    Depth    Ndef Nsta Gap    Mag1  N    Mag2  N    Mag3  N   Author         ID
       rms   OT_Error      Smajor Sminor Az        Err   mdist  Mdist     Err        Err        Err      Quality

2012/05/16 21:35:35.2     44.4742    6.7298      2.0      30    9 053  Ml 1.4  6  Md 1.5  2              bulletin    276254
                                                                                                         _ldg
      0.29   +-  0.05       1.1     .9   78.21 +-  0.0    0.06   1.52   +-0.2      +-0.2                 m i ke

FRANCE
Sta     Dist  EvAz     Phase      Date       Time     TRes  Azim  AzRes  Slow  SRes Def   SNR       Amp   Per   Mag1   Mag2       ID
MBDF  000.25 006.7 m E Pg      2012/05/16 21:35:40.5   0.1                          T                4.1  .20                4947904
MBDF  000.25 006.7 m E Sg      2012/05/16 21:35:43.6  -0.2                          T               20.0  .62        Md 1.4  4947903
ORIF  000.75 306.5 m E Pg      2012/05/16 21:35:48.2  -1.2                          T                                        4947901
ORIF  000.75 306.5 m E Sg      2012/05/16 21:35:58.4  -0.9                          T                1.8  .25        Md 1.7  4947902
SBF   000.79 140.0 m E Pg      2012/05/16 21:35:50.2   0.0                          T                                        4958744
SBF   000.79 140.0 m E Sg      2012/05/16 21:36:00.6   0.0                          T                2.1  .21                4958743
FRF   000.92 183.8 m E Pg      2012/05/16 21:35:52.1  -0.2                          T                                        4947900
FRF   000.92 183.8 m E Sg      2012/05/16 21:36:04.5   0.3                          T                1.4  .17 Ml 1.7         4947899
SMRF  000.97 239.4 m E Pg      2012/05/16 21:35:53.6   0.3                          T                                        4947897
SMRF  000.97 239.4 m E Sg      2012/05/16 21:36:06.4   0.4                          T                 .6  .24 Ml 1.2         4947898
LPG   001.02 000.9 m E Pg      2012/05/16 21:35:54.8   0.0                          T                                        4947896
LPG   001.02 000.9 m E Sg      2012/05/16 21:36:08.0   0.0                          T                 .5  .23 Ml 1.2         4947895
LPL   001.04 000.1 m E Pg      2012/05/16 21:35:54.9   0.0                          T                                        4947921
LPL   001.04 000.1 m E Sg      2012/05/16 21:36:08.2  -0.3                          T                 .4  .24 Ml 1.1         4947922
LMR   001.15 188.0 m E Pg      2012/05/16 21:35:57.0   0.3                          T                                        4947893
LMR   001.15 188.0 m E Sg      2012/05/16 21:36:12.2   0.6                          T                 .7  .19 Ml 1.5         4947894
VIVF  001.52 285.3 m E Pn      2012/05/16 21:36:01.4  -0.2                          T                                        4958742
VIVF  001.52 285.3 m E Sn      2012/05/16 21:36:20.9   0.0                          T                 .5  .21 Ml 1.4         4958741

.
