BEGIN GSE2.0
MSG_TYPE DATA
MSG_ID 05-APR-1115:58:42  FRA_NDC
E-MAIL
DATA_TYPE BULLETIN
Reviewed Bulletin (REB) # P2011-012  from French NDC for regional phases     PERIOD 23 MAR 2011 TO 29 MAR 2011 C M., J-P S
EVENT     257481
    Date      Time       Latitude Longitude    Depth    Ndef Nsta Gap    Mag1  N    Mag2  N    Mag3  N   Author         ID
       rms   OT_Error      Smajor Sminor Az        Err   mdist  Mdist     Err        Err        Err      Quality

2011/03/23 08:34:40.9     45.4167    6.6680      3.0 f    14    6 137  Ml 1.6  2  Md 1.7  3              js067245    257481

      0.15   +-  0.05       1.5     .7  119.19 +-  0.0    0.10   1.52   +-0.0      +-0.0                 m i ke

FRANCE
Sta     Dist  EvAz     Phase      Date       Time     TRes  Azim  AzRes  Slow  SRes Def   SNR       Amp   Per   Mag1   Mag2       ID
LPG   000.10 035.9 m E Pg      2011/03/23 08:34:43.2  -0.4                          T                                        4663136
LPG   000.10 035.9 m E Sg      2011/03/23 08:34:45.2   0.1                          T                7.2  .24        Md 1.7  4663130
LPL   000.11 024.4 m E Pg      2011/03/23 08:34:43.8   0.1                          T                                        4663135
LPL   000.11 024.4 m E Sg      2011/03/23 08:34:45.6   0.3                          T                5.6  .30        Md 1.6  4663134
MBDF  000.69 173.9 m E Pg      2011/03/23 08:34:54.3   0.1                          T                                        4663131
MBDF  000.69 173.9 m E Sg      2011/03/23 08:35:03.3   0.0                          T                2.4  .39        Md 1.6  4663133
ORIF  000.75 228.5 m E Pg      2011/03/23 08:34:55.2   0.1                          T                                        4663128
ORIF  000.75 228.5 m E Sg      2011/03/23 08:35:04.9   0.0                          T                1.4  .30                4663127
CABF  001.26 341.5 m E Pg      2011/03/23 08:35:04.6   0.0                          T                                        4663125
CABF  001.26 341.5 m E Sg      2011/03/23 08:35:21.0   0.0                          T                1.5  .30 Ml 1.6         4663126
VIVF  001.52 249.1 m E Pg      2011/03/23 08:35:09.3   0.0                          T                                        4663129
VIVF  001.52 249.1 m E Sg      2011/03/23 08:35:29.0   0.1                          T                2.2  .59 Ml 1.6         4663132

.
EVENT     257499
    Date      Time       Latitude Longitude    Depth    Ndef Nsta Gap    Mag1  N    Mag2  N    Mag3  N   Author         ID
       rms   OT_Error      Smajor Sminor Az        Err   mdist  Mdist     Err        Err        Err      Quality

2011/03/23 10:25:56.1     37.9491    -.4107      2.0      84    7 183  Ml 3.1  5                         js067245    257499

      1.05   +-  0.21       5.0    2.6  147.57 +-  0.0    0.67   7.75   +-0.3                            m i ke

SPAIN
Sta     Dist  EvAz     Phase      Date       Time     TRes  Azim  AzRes  Slow  SRes Def   SNR       Amp   Per   Mag1   Mag2       ID
ETSF  004.95 358.7 m E Pn      2011/03/23 10:27:11.0   1.7                          T                                        4663207
ETSF  004.95 358.7 m E Sn      2011/03/23 10:28:02.4  -1.4                          T               24.6  .79 Ml 3.3         4663201
EPF   005.11 006.2 m E Pn      2011/03/23 10:27:13.2   1.7                          T                                        4663208
EPF   005.11 006.2 m E Sn      2011/03/23 10:28:06.2  -1.4                          T               21.7  .70 Ml 3.4         4663200
SJPF  005.20 353.4 m E Pn      2011/03/23 10:27:13.9   1.3                          T                                        4663209
SJPF  005.20 353.4 m E Sn      2011/03/23 10:28:08.5  -1.1                          T               10.9  .51 Ml 3.2         4663202
MTLF  005.74 019.5 m E Pn      2011/03/23 10:27:18.9  -1.3                          T                                        4663206
MTLF  005.74 019.5 m E Sn      2011/03/23 10:28:21.6  -1.1                          T                4.6  .60 Ml 2.9         4663199
LMR   007.52 042.2 m E Pn      2011/03/23 10:27:43.4  -0.9                          T                                        4663203
SMRF  007.53 035.1 m E Pn      2011/03/23 10:27:43.7  -0.8                          T                                        4663205
FRF   007.75 041.5 m E Pn      2011/03/23 10:27:46.2  -1.2                          T                                        4663204

.
EVENT     257500
    Date      Time       Latitude Longitude    Depth    Ndef Nsta Gap    Mag1  N    Mag2  N    Mag3  N   Author         ID
       rms   OT_Error      Smajor Sminor Az        Err   mdist  Mdist     Err        Err        Err      Quality

2011/03/23 14:47:41.6     42.8305    -.0052     15.0       6    3 228  Ml 1.5  1  Md 1.6  3              js067245    257500

      0.22   +-  0.39      15.2    2.2  169.04 +-  0.0    0.32   0.94   +-         +-0.0                 m i ke

PYRENEES
Sta     Dist  EvAz     Phase      Date       Time     TRes  Azim  AzRes  Slow  SRes Def   SNR       Amp   Per   Mag1   Mag2       ID
EPF   000.32 051.7 m E Pg      2011/03/23 14:47:48.6   0.1                          T                                        4663215
EPF   000.32 051.7 m E Sg      2011/03/23 14:47:52.7  -0.4                          T                5.2  .30        Md 1.6  4663212
ETSF  000.41 279.7 m E Pg      2011/03/23 14:47:49.0   0.0                          T                                        4663214
ETSF  000.41 279.7 m E Sg      2011/03/23 14:47:55.7  -0.1                          T                2.3  .26        Md 1.6  4663213
SJPF  000.94 287.9 m E Pg      2011/03/23 14:47:59.3  -0.2                          T                                        4663210
SJPF  000.94 287.9 m E Sg      2011/03/23 14:48:12.1   0.4                          T                1.5  .29 Ml 1.5 Md 1.6  4663211

.
EVENT     257501
    Date      Time       Latitude Longitude    Depth    Ndef Nsta Gap    Mag1  N    Mag2  N    Mag3  N   Author         ID
       rms   OT_Error      Smajor Sminor Az        Err   mdist  Mdist     Err        Err        Err      Quality

2011/03/23 15:22:40.6     45.4624    6.9806      3.0 f    10    4 264  Ml 1.8  2  Md 1.6  3              js067245    257501

      0.08   +-  0.09       1.5     .7   62.88 +-  0.0    0.17   0.95   +-0.0      +-0.0                 m i ke

FRANCE
Sta     Dist  EvAz     Phase      Date       Time     TRes  Azim  AzRes  Slow  SRes Def   SNR       Amp   Per   Mag1   Mag2       ID
LPG   000.17 282.4 m E Pg      2011/03/23 15:22:44.4  -0.1                          T                                        4663327
LPG   000.17 282.4 m E Sg      2011/03/23 15:22:46.8   0.1                          T                9.0  .18        Md 1.7  4663322
LPL   000.18 287.3 m E Pg      2011/03/23 15:22:44.7   0.0                          T                                        4663326
LPL   000.18 287.3 m E Sg      2011/03/23 15:22:47.2  -0.1                          T                5.3  .22        Md 1.6  4663323
MBDF  000.75 191.5 m E Pg      2011/03/23 15:22:55.0   0.0                          T                                        4663325
MBDF  000.75 191.5 m E Sg      2011/03/23 15:23:04.7   0.0                          T                2.9  .24        Md 1.6  4663324
ORIF  000.95 235.4 m E Pg      2011/03/23 15:22:58.5  -0.1                          T                                        4663320
ORIF  000.95 235.4 m E Sg      2011/03/23 15:23:10.7  -0.2                          T                2.5  .24 Ml 1.8         4663321

.
EVENT     257527
    Date      Time       Latitude Longitude    Depth    Ndef Nsta Gap    Mag1  N    Mag2  N    Mag3  N   Author         ID
       rms   OT_Error      Smajor Sminor Az        Err   mdist  Mdist     Err        Err        Err      Quality

2011/03/23 18:26:07.3     44.4892    6.7530      2.0      14    6 138  Ml 1.5  3  Md 1.6  3              cm165940    257527

      0.16   +-  0.05       1.3     .8   69.78 +-  0.0    0.24   1.17   +-0.2      +-0.0                 m i ke

FRANCE
Sta     Dist  EvAz     Phase      Date       Time     TRes  Azim  AzRes  Slow  SRes Def   SNR       Amp   Per   Mag1   Mag2       ID
MBDF  000.24 003.2 m E Pg      2011/03/23 18:26:11.9  -0.2                          T                                        4663361
MBDF  000.24 003.2 m E Sg      2011/03/23 18:26:15.3  -0.1                          T                  1  .22        Md 1.6  4663360
ORIF  000.76 304.9 m E Pg      2011/03/23 18:26:21.8   0.1                          T                                        4663362
ORIF  000.76 304.9 m E Sg      2011/03/23 18:26:31.7   0.2                          T                 .4  .23        Md 1.6  4663363
SBF   000.80 141.7 m E Pg      2011/03/23 18:26:22.4   0.0                          T                                        4663365
SBF   000.80 141.7 m E Sg      2011/03/23 18:26:32.7   0.0                          T                1.4  .32        Md 1.6  4663364
FRF   000.93 184.8 m E Pg      2011/03/23 18:26:24.8   0.1                          T                                        4663366
FRF   000.93 184.8 m E Sg      2011/03/23 18:26:36.6  -0.3                          T                1.5  .25 Ml 1.6         4663358
SMRF  000.99 239.2 m E Pg      2011/03/23 18:26:25.7  -0.2                          T                                        4663356
SMRF  000.99 239.2 m E Sg      2011/03/23 18:26:38.3  -0.4                          T                1.1  .42 Ml 1.2         4663357
LMR   001.17 188.8 m E Pg      2011/03/23 18:26:29.2   0.1                          T                                        4663355
LMR   001.17 188.8 m E Sg      2011/03/23 18:26:44.2   0.0                          T                1.9  .42 Ml 1.6         4663359

.
EVENT     257512
    Date      Time       Latitude Longitude    Depth    Ndef Nsta Gap    Mag1  N    Mag2  N    Mag3  N   Author         ID
       rms   OT_Error      Smajor Sminor Az        Err   mdist  Mdist     Err        Err        Err      Quality

2011/03/23 21:16:02.5     42.7405    -.5062      2.0       6    3 240             Md 1.6  3              js067245    257512

      0.26   +-  0.35       9.3    3.0    8.12 +-  0.0    0.16   0.69              +-0.0                 m i ke

PYRENEES
Sta     Dist  EvAz     Phase      Date       Time     TRes  Azim  AzRes  Slow  SRes Def   SNR       Amp   Per   Mag1   Mag2       ID
ETSF  000.16 346.2 m E Pg      2011/03/23 21:16:07.0   1.0                          T                                        4663380
ETSF  000.16 346.2 m E Sg      2011/03/23 21:16:08.0  -0.3                          T               51.5  .25        Md 1.6  4663379
SJPF  000.65 305.5 m E Pg      2011/03/23 21:16:14.8   0.0                          T                                        4663375
SJPF  000.65 305.5 m E Sg      2011/03/23 21:16:23.5   0.3                          T                1.6  .31        Md 1.6  4663378
EPF   000.69 064.7 m E Pg      2011/03/23 21:16:15.4  -0.1                          T                                        4663376
EPF   000.69 064.7 m E Sg      2011/03/23 21:16:25.1   0.5                          T                1.2  .26        Md 1.5  4663377

.
EVENT     257513
    Date      Time       Latitude Longitude    Depth    Ndef Nsta Gap    Mag1  N    Mag2  N    Mag3  N   Author         ID
       rms   OT_Error      Smajor Sminor Az        Err   mdist  Mdist     Err        Err        Err      Quality

2011/03/23 22:24:22.9     42.3762     .0582      2.0      20    4 081  Ml 1.9  3  Md 2.0  3              js067245    257513

      0.56   +-  0.11       2.4    1.5   22.18 +-  0.0    0.69   1.87   +-0.1      +-0.0                 m i ke

PYRENEES
Sta     Dist  EvAz     Phase      Date       Time     TRes  Azim  AzRes  Slow  SRes Def   SNR       Amp   Per   Mag1   Mag2       ID
EPF   000.69 017.5 m E Pg      2011/03/23 22:24:35.6  -0.3                          T                                        4663407
EPF   000.69 017.5 m E Sg      2011/03/23 22:24:44.9  -0.1                          T                1.7  .26        Md 1.9  4663406
ETSF  000.69 319.1 m E Pg      2011/03/23 22:24:35.8  -0.3                          T                                        4663408
ETSF  000.69 319.1 m E Sg      2011/03/23 22:24:45.0  -0.2                          T                2.4  .34        Md 2.0  4663405
SJPF  001.20 308.4 m E Pg      2011/03/23 22:24:45.0  -0.3                          T                                        4663403
SJPF  001.20 308.4 m E Sg      2011/03/23 22:25:00.7  -0.2                          T                2.5  .28 Ml 1.8 Md 2.0  4663404
MTLF  001.86 058.0 m E Pg      2011/03/23 22:24:57.6   0.1                          T                                        4663401
MTLF  001.86 058.0 m E Sg      2011/03/23 22:25:21.5   0.1                          T                1.7  .39 Ml 1.8         4663402

.
EVENT     257503
    Date      Time       Latitude Longitude    Depth    Ndef Nsta Gap    Mag1  N    Mag2  N    Mag3  N   Author         ID
       rms   OT_Error      Smajor Sminor Az        Err   mdist  Mdist     Err        Err        Err      Quality

2011/03/23 22:25:54.1     42.3328    9.4452      5.0 f    14    6 334  Ml 1.8  5  Md 2.3  1              js067245    257503

      0.91   +-  0.44       7.4    6.1  128.27 +-  0.0    0.39   3.27   +-0.4      +-                    m i ke

CORSICA, FRANCE
Sta     Dist  EvAz     Phase      Date       Time     TRes  Azim  AzRes  Slow  SRes Def   SNR       Amp   Per   Mag1   Mag2       ID
PGF   000.39 303.3 m E Pg      2011/03/23 22:26:02.0   0.1                          T                                        4663419
PGF   000.39 303.3 m E Sg      2011/03/23 22:26:06.8  -0.3                          T               16.1  .20        Md 2.3  4663418
SBF   002.12 316.8 m E Pn      2011/03/23 22:26:28.5  -0.1                          T                                        4663415
SBF   002.12 316.8 m E Sn      2011/03/23 22:26:53.6  -0.1                          T                6.7  .56 Ml 2.3         4663413
FRF   002.39 301.8 m E Pn      2011/03/23 22:26:31.6  -0.5                          T                                        4663417
FRF   002.39 301.8 m E Sn      2011/03/23 22:27:00.3   0.2                          T                 .6  .22 Ml 1.7         4663411
LMR   002.38 295.8 m E Pn      2011/03/23 22:26:31.9  -0.1                          T                                        4663416
LMR   002.38 295.8 m E Sn      2011/03/23 22:27:00.4   0.6                          T                1.6  .35 Ml 2.0         4663412
MBDF  003.08 321.8 m E Pn      2011/03/23 22:26:41.5  -0.3                          T                                        4663424
MBDF  003.08 321.8 m E Sn      2011/03/23 22:27:16.6  -0.3                          T                 .1  .19 Ml 1.3         4663423
SMRF  003.27 301.4 m E Pn      2011/03/23 22:26:45.0   0.8                          T                                        4663414
SMRF  003.27 301.4 m E Sn      2011/03/23 22:27:21.5   0.3                          T                 .6  .30 Ml 1.8         4663422

.
EVENT     257504
    Date      Time       Latitude Longitude    Depth    Ndef Nsta Gap    Mag1  N    Mag2  N    Mag3  N   Author         ID
       rms   OT_Error      Smajor Sminor Az        Err   mdist  Mdist     Err        Err        Err      Quality

2011/03/23 22:41:32.2     44.3085    7.2514      2.0      24   10 159  Ml 1.5 10  Md 1.8  3              js067245    257504

      0.10   +-  0.02        .6     .3   66.11 +-  0.0    0.46   2.17   +-0.4      +-0.1                 m i ke

NORTHERN ITALY
Sta     Dist  EvAz     Phase      Date       Time     TRes  Azim  AzRes  Slow  SRes Def   SNR       Amp   Per   Mag1   Mag2       ID
SBF   000.46 163.4 m E Pg      2011/03/23 22:41:41.1   0.0                          T                                        4663450
SBF   000.46 163.4 m E Sg      2011/03/23 22:41:47.0  -0.3                          T                7.2  .20        Md 1.9  4663444
MBDF  000.54 320.8 m E Pg      2011/03/23 22:41:42.7   0.0                          T                                        4663449
MBDF  000.54 320.8 m E Sg      2011/03/23 22:41:49.7  -0.2                          T                2.0  .22        Md 1.7  4663446
FRF   000.87 210.5 m E Pg      2011/03/23 22:41:48.4   0.0                          T                                        4663448
FRF   000.87 210.5 m E Sg      2011/03/23 22:41:59.6  -0.1                          T                3.4  .22 Ml 2.0 Md 1.8  4663445
LMR   001.11 209.1 m E Pg      2011/03/23 22:41:53.1   0.1                          T                                        4663447
LMR   001.11 209.1 m E Sg      2011/03/23 22:42:07.3  -0.1                          T                2.2  .18 Ml 2.0         4663443
ORIF  001.15 302.4 m E Pg      2011/03/23 22:41:53.9   0.0                          T                                        4663436
ORIF  001.15 302.4 m E Sg      2011/03/23 22:42:08.8  -0.1                          T                 .7  .27 Ml 1.3         4663439
LPG   001.24 343.5 m E Pg      2011/03/23 22:41:55.7  -0.1                          T                                        4663434
LPG   001.24 343.5 m E Sg      2011/03/23 22:42:11.8   0.0                          T                 .3  .27 Ml 1.0         4663441
SMRF  001.25 255.2 m E Pg      2011/03/23 22:41:55.7   0.1                          T                                        4663433
SMRF  001.25 255.2 m E Sg      2011/03/23 22:42:11.7  -0.2                          T                2.5  .36 Ml 1.8         4663442
LPL   001.26 343.2 m E Pg      2011/03/23 22:41:56.0   0.0                          T                                        4663435
LPL   001.26 343.2 m E Sg      2011/03/23 22:42:12.5   0.1                          T                 .8  .31 Ml 1.4         4663440
VIVF  001.92 287.4 m E Pn      2011/03/23 22:42:04.2   0.0                          T                                        4663437
VIVF  001.92 287.4 m E Sn      2011/03/23 22:42:27.5  -0.1                          T                1.1  .44 Ml 1.6         4663438
PGF   002.17 143.5 m E Pn      2011/03/23 22:42:07.5  -0.2                          T                                        4663432
PGF   002.17 143.5 m E Sn      2011/03/23 22:42:33.5  -0.1                          T                 .7  .30 Ml 1.8         4663431

.
