BEGIN GSE2.0
MSG_TYPE DATA
MSG_ID 08-DEC-1110:17:47  FRA_NDC
E-MAIL
DATA_TYPE BULLETIN
Reviewed Bulletin (REB) # P2011-048  from French NDC for regional phases     PERIOD 30 NOV 2011 TO 06 DEC 2011 S M., J-P S.
EVENT     266904
    Date      Time       Latitude Longitude    Depth    Ndef Nsta Gap    Mag1  N    Mag2  N    Mag3  N   Author         ID
       rms   OT_Error      Smajor Sminor Az        Err   mdist  Mdist     Err        Err        Err      Quality

2011/11/30 00:57:21.4     46.7446    7.2133      2.0      25   11 086  Ml 2.2  7  Md 2.1  3              js067245    266924

      1.12   +-  0.12       2.1    1.5   99.64 +-  0.0    0.06   2.59   +-0.1      +-0.2                 m i ke

SWITZERLAND
Sta     Dist  EvAz     Phase      Date       Time     TRes  Azim  AzRes  Slow  SRes Def   SNR       Amp   Per   Mag1   Mag2       ID
CABF  000.79 260.6 m E Pg      2011/11/30 00:57:36.0  -0.4                          T                                        4793561
CABF  000.79 260.6 m E Sg      2011/11/30 00:57:47.6   1.0                          T                2.1  .23        Md 1.9  4793564
CABF  000.79 260.6 m E Sn      2011/11/30 00:57:50.1   0.4                          T                                        4793550
HINF  001.10 347.3 m E Pg      2011/11/30 00:57:42.3   0.2                          T                                        4793568
HINF  001.10 347.3 m E Sg      2011/11/30 00:57:57.3   0.9                          T                4.5  .20 Ml 2.2 Md 2.1  4793567
HAU   001.39 335.3 m E Pn      2011/11/30 00:57:46.1  -0.1                          T                                        4793549
HAU   001.39 335.3 m E Pg      2011/11/30 00:57:47.1  -0.4                          T                                        4793566
HAU   001.39 335.3 m E Sg      2011/11/30 00:58:05.3  -0.1                          T                6.3  .22 Ml 2.2 Md 2.3  4793565
THEF  001.70 331.3 m E Pg      2011/11/30 00:57:53.1   0.0                          T                                        4793559
THEF  001.70 331.3 m E Sg      2011/11/30 00:58:15.5   0.5                          T                1.8  .13 Ml 2.3         4793563
LPL   001.27 195.4 m E Sg      2011/11/30 00:58:01.9   0.0                          T                                        4793555
LPG   001.29 194.6 m E Sg      2011/11/30 00:58:02.7   0.2                          T                                        4793556
VIVF  002.59 224.2 m E Pg      2011/11/30 00:58:09.4  -0.2                          T                                        4793554
VIVF  002.59 224.2 m E Sg      2011/11/30 00:58:43.0   0.0                          T                                        4793557
CDF   001.67 001.4 m E Sg      2011/11/30 00:58:13.9  -0.2                          T                1.7  .26 Ml 2.1         4793562
ORIF  002.05 207.5 m E Sg      2011/11/30 00:58:26.3   0.3                          T                                        4793558
LOR   002.35 284.1 m E Sg      2011/11/30 00:58:34.6  -0.9 121.8  20.1              T                1.3  .20 Ml 2.1         4793560
SMF   002.32 268.8 m E Sg      2011/11/30 00:58:35.0   0.5                          T                1.4  .24 Ml 2.0         4793553

.
EVENT     266905
    Date      Time       Latitude Longitude    Depth    Ndef Nsta Gap    Mag1  N    Mag2  N    Mag3  N   Author         ID
       rms   OT_Error      Smajor Sminor Az        Err   mdist  Mdist     Err        Err        Err      Quality

2011/11/30 02:11:00.9     46.1781    2.5532      3.0 f    32   12 068  Ml 1.5  9  Md 1.5  3              js067245    266925

      0.69   +-  0.05       1.1     .9  140.98 +-  0.0    0.17   1.99   +-0.3      +-0.1                 m i ke

FRANCE
Sta     Dist  EvAz     Phase      Date       Time     TRes  Azim  AzRes  Slow  SRes Def   SNR       Amp   Per   Mag1   Mag2       ID
TCF   000.26 294.9 m E Pg      2011/11/30 02:11:06.4   0.2                          T                                        4793578
TCF   000.26 294.9 m E Sg      2011/11/30 02:11:10.2   0.4                          T                1.6  .17        Md 1.4  4793577
BGF   000.43 028.0 m E Pg      2011/11/30 02:11:09.5   0.2                          T                                        4793574
BGF   000.43 028.0 m E Sg      2011/11/30 02:11:15.0   0.1                          T                4.5  .28        Md 1.5  4793572
BGF   000.43 028.0 m E Sn      2011/11/30 02:11:15.6  -0.1                          T                                        4793676
AVF   000.82 041.7 m E Pg      2011/11/30 02:11:16.3  -0.2                          T                                        4793575
AVF   000.82 041.7 m E Sg      2011/11/30 02:11:27.2   0.0                          T                1.5  .22                4793576
AVF   000.82 041.7 m E Sn      2011/11/30 02:11:29.1  -0.7                          T                                        4793671
SMF   001.01 061.9 m E Pg      2011/11/30 02:11:19.3  -0.5                          T                                        4793679
SMF   001.01 061.9 m E Sg      2011/11/30 02:11:32.9   0.0                          T                1.2  .20 Ml 1.6         4793680
SSF   001.10 036.3 m E Pg      2011/11/30 02:11:21.7   0.2                          T                                        4793667
SSF   001.10 036.3 m E Sg      2011/11/30 02:11:35.5  -0.3                          T                 .9  .20 Ml 1.6         4793666
HYF   001.09 003.1 m E Pg      2011/11/30 02:11:21.7   0.3                          T                                        4793677
HYF   001.09 003.1 m E Sg      2011/11/30 02:11:35.3  -0.2                          T                                        4793678
RJF   001.14 220.1 m E Pg      2011/11/30 02:11:22.2   0.0                          T                                        4793675
RJF   001.14 220.1 m E Sg      2011/11/30 02:11:36.9   0.0                          T                1.3  .21 Ml 1.3         4793571
CAF   001.30 195.5 m E Pg      2011/11/30 02:11:25.1  -0.1                          T                                        4793569
CAF   001.30 195.5 m E Sg      2011/11/30 02:11:42.3   0.2                          T                 .5  .18 Ml 1.4         4793570
LOR   001.41 039.0 m E Pg      2011/11/30 02:11:27.3   0.0 220.9  0.9               T                                        4793668
LOR   001.41 039.0 m E Sn      2011/11/30 02:11:44.3   0.4                          T                                        4793670
LOR   001.41 039.0 m E Sg      2011/11/30 02:11:45.9   0.3 218.9  -1.1              T                1.1  .22 Ml 1.7         4793669
MFF   001.92 283.8 m E Pg      2011/11/30 02:11:36.4  -0.2                          T                                        4793672
MFF   001.92 283.8 m E Sg      2011/11/30 02:12:00.6  -0.7                          T                 .5  .25 Ml 1.7         4793673
VIVF  001.99 130.8 m E Pg      2011/11/30 02:11:38.2   0.2                          T                                        4793683
VIVF  001.99 130.8 m E Sn      2011/11/30 02:11:57.4  -0.3                          T                                        4793682
VIVF  001.99 130.8 m E Sg      2011/11/30 02:12:03.7   0.1                          T                 .7  .25 Ml 1.7         4793681
LFF   001.78 226.4 m E Sg      2011/11/30 02:11:57.5   0.6                          T                 .3  .25 Ml 1           4793674

.
EVENT     266906
    Date      Time       Latitude Longitude    Depth    Ndef Nsta Gap    Mag1  N    Mag2  N    Mag3  N   Author         ID
       rms   OT_Error      Smajor Sminor Az        Err   mdist  Mdist     Err        Err        Err      Quality

2011/11/30 03:39:08.7     43.1799     .1209      2.0       5    3 226  Ml 0.7  1  Md 1.4  2              js067245    266926

      0.46   +-  1.09      33.6    6.0    9.61 +-  0.0    0.22   0.99   +-         +-0.1                 m i ke

FRANCE
Sta     Dist  EvAz     Phase      Date       Time     TRes  Azim  AzRes  Slow  SRes Def   SNR       Amp   Per   Mag1   Mag2       ID
EPF   000.22 132.9 m E Pg      2011/11/30 03:39:13.4   0.3                          T                                        4793687
EPF   000.22 132.9 m E Sg      2011/11/30 03:39:15.4  -0.7                          T                4.9  .16        Md 1.5  4793686
ETSF  000.57 240.8 m E Pg      2011/11/30 03:39:19.3  -0.4                          T                                        4793684
ETSF  000.57 240.8 m E Sg      2011/11/30 03:39:27.9   0.7                          T                1.5  .32        Md 1.3  4793685
SJPF  000.99 266.6 m E Sg      2011/11/30 03:39:40.1   0.0                          T                 .2  .20 Ml  .7         4794542

.
EVENT     266901
    Date      Time       Latitude Longitude    Depth    Ndef Nsta Gap    Mag1  N    Mag2  N    Mag3  N   Author         ID
       rms   OT_Error      Smajor Sminor Az        Err   mdist  Mdist     Err        Err        Err      Quality

2011/11/30 04:10:46.5     43.1683   11.0283      2.0      37   10 063  Ml 2.1  5  Md 2.3  1              js067245    266921

      0.86   +-  0.08       2.3    1.6  173.25 +-  0.0    0.36   5.28   +-0.3      +-                    m i ke

CENTRAL ITALY
Sta     Dist  EvAz     Phase      Date       Time     TRes  Azim  AzRes  Slow  SRes Def   SNR       Amp   Per   Mag1   Mag2       ID
PGF   001.62 248.1 m E Pn      2011/11/30 04:11:13.9  -0.5                          T                                        4793723
PGF   001.62 248.1 m E Sn      2011/11/30 04:11:34.2  -0.3                          T                5.1  .29 Ml 2.6 Md 2.3  4793705
SBF   002.70 286.1 m E Pn      2011/11/30 04:11:28.5  -0.7                          T                                        4793721
SBF   002.70 286.1 m E Sn      2011/11/30 04:12:01.0   0.5                          T                1.6  .29 Ml 2.1         4793714
FRF   003.22 278.5 m E Pn      2011/11/30 04:11:35.4  -0.7                          T                                        4793720
FRF   003.22 278.5 m E Sn      2011/11/30 04:12:12.8   0.0                          T                 .9  .35 Ml 1.9         4793712
LMR   003.31 274.4 m E Pn      2011/11/30 04:11:36.8  -0.4                          T                                        4793722
LMR   003.31 274.4 m E Sn      2011/11/30 04:12:15.3   0.5                          T                 .4  .18 Ml 1.9         4793706
MBDF  003.45 298.3 m E Pn      2011/11/30 04:11:39.6   0.2                          T                                        4793717
MBDF  003.45 298.3 m E P       2011/11/30 04:11:42.6   0.0                          T                                        4793710
LPG   003.85 308.7 m E Pn      2011/11/30 04:11:45.0  -0.1                          T                                        4793713
LPG   003.85 308.7 m E P       2011/11/30 04:11:48.5   0.0                          T                                        4793709
SMRF  004.04 283.4 m E Pn      2011/11/30 04:11:48.3   0.9                          T                                        4793719
SMRF  004.04 283.4 m E Sn      2011/11/30 04:12:33.1   0.6                          T                                        4793707
ORIF  004.10 297.0 m E Pn      2011/11/30 04:11:49.1   0.8                          T                                        4793716
ORIF  004.10 297.0 m E P       2011/11/30 04:11:51.9   0.1                          T                                        4793729
LPL   003.87 308.8 m E P       2011/11/30 04:11:49.4   0.7                          T                                        4793708
LASF  005.28 282.3 m E Pn      2011/11/30 04:12:03.9  -0.4                          T                                        4793711

.
EVENT     266909
    Date      Time       Latitude Longitude    Depth    Ndef Nsta Gap    Mag1  N    Mag2  N    Mag3  N   Author         ID
       rms   OT_Error      Smajor Sminor Az        Err   mdist  Mdist     Err        Err        Err      Quality

2011/11/30 09:27:11.2     43.0369    -.3406      2.0      26    5 090  Ml 2.0  2  Md 2.1  3              js067245    266929

      0.34   +-  0.05       1.7     .8    5.45 +-  0.0    0.05   2.56   +-0.0      +-0.1                 m i ke

PYRENEES
Sta     Dist  EvAz     Phase      Date       Time     TRes  Azim  AzRes  Slow  SRes Def   SNR       Amp   Per   Mag1   Mag2       ID
ETSF  000.21 229.3 m E Pg      2011/11/30 09:27:15.5   0.0                          T                                        4793764
ETSF  000.21 229.3 m E P       2011/11/30 09:27:16.0   0.0                          T                                        4793752
ETSF  000.21 229.3 m E Sg      2011/11/30 09:27:18.4   0.0                          T               66.0  .22        Md 2.3  4793763
EPF   000.50 090.5 m E Pg      2011/11/30 09:27:20.7  -0.1                          T                                        4793761
EPF   000.50 090.5 m E Sg      2011/11/30 09:27:27.8   0.5                          T               14.9  .26        Md 2.0  4793762
EPF   000.50 090.5 m E Sn      2011/11/30 09:27:30.2   0.0                          T                                        4793758
SJPF  000.65 277.0 m E Pg      2011/11/30 09:27:23.4  -0.1                          T                                        4793760
SJPF  000.65 277.0 m E Sg      2011/11/30 09:27:32.0   0.0                          T                5.5  .18        Md 2.1  4793759
MTLF  001.90 079.9 m E Pn      2011/11/30 09:27:42.7  -0.1                          T                                        4793755
MTLF  001.90 079.9 m E Pg      2011/11/30 09:27:46.4   0.0                          T                                        4793754
MTLF  001.90 079.9 m E Sg      2011/11/30 09:28:11.0   0.1                          T                1.8  .24 Ml 2.0         4793753
CAF   002.56 041.8 m E Pg      2011/11/30 09:27:59.0   0.2                          T                                        4793756
CAF   002.56 041.8 m E Sg      2011/11/30 09:28:31.3  -0.5                          T                1.2  .22 Ml 2.1         4793757

.
EVENT     266911
    Date      Time       Latitude Longitude    Depth    Ndef Nsta Gap    Mag1  N    Mag2  N    Mag3  N   Author         ID
       rms   OT_Error      Smajor Sminor Az        Err   mdist  Mdist     Err        Err        Err      Quality

2011/11/30 11:13:25.3     43.8717    3.7399       .0 f    28   10 140  Ml 2.2  8  Md 2.3  4              js067245    266931

      1.26   +-  0.13       3.4    2.1  168.87 +-  0.0    0.22   3.40   +-0.2      +-0.1                 m i km

NEAR SOUTH COAST OF FRANCE
Sta     Dist  EvAz     Phase      Date       Time     TRes  Azim  AzRes  Slow  SRes Def   SNR       Amp   Per   Mag1   Mag2       ID
LASF  000.22 022.4 m E Pg      2011/11/30 11:13:29.7  -0.2                          T                                        4793810
LASF  000.22 022.4 m E Sg      2011/11/30 11:13:33.5   0.3                          T               20.7  .29        Md 2.1  4793834
VIVF  001.19 033.9 m E Pg      2011/11/30 11:13:47.9   0.1                          T                                        4793808
VIVF  001.19 033.9 m E Sg      2011/11/30 11:14:04.0   0.6                          T                5.0  .28 Ml 2.1 Md 2.2  4793806
MTLF  001.23 244.9 m E Pg      2011/11/30 11:13:48.0  -0.5                          T                                        4793809
MTLF  001.23 244.9 m E Sg      2011/11/30 11:14:04.4  -0.1                          T                3.8  .20 Ml 2.2 Md 2.3  4793807
SMRF  001.33 084.9 m E Pg      2011/11/30 11:13:51.1   0.6                          T                                        4793805
CAF   001.60 311.8 m E Pg      2011/11/30 11:13:55.5   0.2                          T                                        4793804
CAF   001.60 311.8 m E Sg      2011/11/30 11:14:16.4   0.3                          T                4.9  .22 Ml 2.4 Md 2.4  4793803
ORIF  001.86 055.0 m E Pn      2011/11/30 11:13:56.2  -0.7                          T                                        4793823
ORIF  001.86 055.0 m E Pg      2011/11/30 11:13:59.6  -0.6                          T                                        4793822
ORIF  001.86 055.0 m E Sn      2011/11/30 11:14:19.9   0.1                          T                                        4793824
LMR   002.08 104.0 m E Pn      2011/11/30 11:13:59.6  -0.2                          T                                        4793826
LMR   002.08 104.0 m E Pg      2011/11/30 11:14:04.3   0.1                          T                                        4793825
LMR   002.08 104.0 m E Sg      2011/11/30 11:14:31.2   0.0                          T                4.9  .52 Ml 2.2         4793830
FRF   002.13 097.4 m E Pn      2011/11/30 11:14:00.5   0.1                          T                                        4793827
FRF   002.13 097.4 m E Pg      2011/11/30 11:14:05.4   0.3                          T                                        4793828
FRF   002.13 097.4 m E Sg      2011/11/30 11:14:33.9   1.2                          T                2.2  .34 Ml 2.1         4793829
RJF   002.14 312.8 m E Pg      2011/11/30 11:14:04.9  -0.4                          T                                        4793832
RJF   002.14 312.8 m E Sg      2011/11/30 11:14:33.6   0.6                          T                3.0  .27 Ml 2.0         4793833
EPF   002.61 252.4 m E Pg      2011/11/30 11:14:15.4   1.3                          T                                        4793802
EPF   002.61 252.4 m E Sg      2011/11/30 11:14:47.4  -0.5                          T                2.8  .27 Ml 2.4         4793831

.
