EVENT     263162
    Date      Time       Latitude Longitude    Depth    Ndef Nsta Gap    Mag1  N    Mag2  N    Mag3  N   Author         ID
       rms   OT_Error      Smajor Sminor Az        Err   mdist  Mdist     Err        Err        Err      Quality

2011/08/25 20:50:27.5     50.2026   12.3612     10.0      28    9 100  Ml 2.7  6                         js067245    263162

      0.73   +-  0.16       3.5    2.6  128.16 +-  0.0    0.04   7.07   +-0.1                            m i ke

GERMANY
Sta     Dist  EvAz     Phase      Date       Time     TRes  Azim  AzRes  Slow  SRes Def   SNR       Amp   Per   Mag1   Mag2       ID
RUP   003.46 263.7 m E Pn      2011/08/25 20:51:18.2  -1.4                          T                                        4741958
RUP   003.46 263.7 m E Sg      2011/08/25 20:52:15.5  -0.6                          T                                        4741957
HINF  004.34 238.7 m E Pg      2011/08/25 20:51:46.0  -1.9                          T                                        4741950
HINF  004.34 238.7 m E Sg      2011/08/25 20:52:43.2  -0.3                          T                4.1  .35 Ml 2.8         4741951
HAU   004.52 243.2 m E Pg      2011/08/25 20:51:49.2  -2.0                          T                                        4741949
HAU   004.52 243.2 m E Sg      2011/08/25 20:52:48.5  -0.6                          T                2.5  .29 Ml 2.5         4741952
PAGF  004.64 251.7 m E Pg      2011/08/25 20:51:51.3  -2.0                          T                                        4741948
CDF   003.78 243.6 m E Sg      2011/08/25 20:52:25.1  -1.0                          T                3.4  .30 Ml 2.8         4741954
HYF   007.07 249.2 m E Pg      2011/08/25 20:52:35.7  -2.3                          T                                        4741959
THEF  004.62 247.1 m E Sg      2011/08/25 20:52:51.7  -0.4                          T                2.6  .26 Ml 2.8         4741955
LOR   006.34 245.7 m E Sg      2011/08/25 20:53:45.0  -1.0                          T                 .8  .32 Ml 2.6         4741956
SSF   006.66 245.2 m E Sg      2011/08/25 20:53:54.9  -0.9                          T                 .6  .27 Ml 2.7         4741953

.
EVENT     263106
    Date      Time       Latitude Longitude    Depth    Ndef Nsta Gap    Mag1  N    Mag2  N    Mag3  N   Author         ID
       rms   OT_Error      Smajor Sminor Az        Err   mdist  Mdist     Err        Err        Err      Quality

2011/08/25 23:05:43.1     50.2628   12.3605     10.0 f    92   22 031  Ml 3.5 17                         js067245    263106

      1.01   +-  0.11       3.0    2.0  143.03 +-  0.0    0.03   8.01   +-0.2                            m i ke

GERMANY
Sta     Dist  EvAz     Phase      Date       Time     TRes  Azim  AzRes  Slow  SRes Def   SNR       Amp   Per   Mag1   Mag2       ID
RUP   003.47 262.7 m E Pn      2011/08/25 23:06:37.5   2.2                          T                                        4741548
RUP   003.47 262.7 m E Pg      2011/08/25 23:06:47.5   0.1                          T                                        4741549
RUP   003.47 262.7 m E Sg      2011/08/25 23:07:31.1  -0.8                          T                                        4741557
CDF   003.81 242.8 m E Pn      2011/08/25 23:06:41.0   1.1                          T                                        4741341
CDF   003.81 242.8 m E Pg      2011/08/25 23:06:53.5  -0.2                          T                                        4741338
CDF   003.81 242.8 m E Sg      2011/08/25 23:07:41.2  -1.4                          T               38.8  .45 Ml 3.7         4741556
HINF  004.37 238.1 m E Pn      2011/08/25 23:06:47.9   0.3                          T                                        4741573
HINF  004.37 238.1 m E Pg      2011/08/25 23:07:03.0  -1.1                          T                                        4741339
HINF  004.37 238.1 m E Sn      2011/08/25 23:07:35.7   0.2                          T                                        4741337
HINF  004.37 238.1 m E Sg      2011/08/25 23:07:59.6  -0.6                          T               31.6  .43 Ml 3.6         4741336
HAU   004.55 242.5 m E Pn      2011/08/25 23:06:50.6   0.6                          T                                        4741589
HAU   004.55 242.5 m E Pg      2011/08/25 23:07:06.9  -0.4                          T                                        4741340
HAU   004.55 242.5 m E Sg      2011/08/25 23:08:04.6  -1.0                          T                                        4741580
PAGF  004.66 251.0 m E Pn      2011/08/25 23:06:52.2   0.7  67.6  1.6               T                                        4741585
PAGF  004.66 251.0 m E Pg      2011/08/25 23:07:10.5   1.2                          T                                        4741584
PAGF  004.66 251.0 m E Sg      2011/08/25 23:08:07.6  -1.4                          T               14.1  .73 Ml 3.1         4741545
MEZF  005.09 252.5 m E Pn      2011/08/25 23:06:57.6   0.3                          T                                        4741586
MEZF  005.09 252.5 m E Pg      2011/08/25 23:07:16.7  -0.5                          T                                        4741583
MEZF  005.09 252.5 m E Sg      2011/08/25 23:08:21.6  -0.9                          T               27.6  .56 Ml 3.6         4741550
SFTF  005.22 249.6 m E Pn      2011/08/25 23:06:59.2   0.1                          T                                        4741587
SFTF  005.22 249.6 m E Pg      2011/08/25 23:07:19.0  -0.6  73.0  9.0               T                                        4741582
SFTF  005.22 249.6 m E Sn      2011/08/25 23:07:55.7  -0.1                          T                                        4741544
SFTF  005.22 249.6 m E Sg      2011/08/25 23:08:26.4  -0.2                          T               28.6  .53 Ml 3.7         4741566
THEF  004.64 246.4 m E Pg      2011/08/25 23:07:08.0  -1.0                          T                                        4741588
THEF  004.64 246.4 m E Sg      2011/08/25 23:08:08.3  -0.2                          T               29.7  .46 Ml 3.6         4741579
LOR   006.37 245.2 m E Pn      2011/08/25 23:07:15.3   0.5  69.1  10.3              T                                        4741561
LOR   006.37 245.2 m E Pg      2011/08/25 23:07:40.8   0.0  61.5  2.7               T                                        4741560
LOR   006.37 245.2 m E Sg      2011/08/25 23:09:03.9   1.5  56.5  -2.3              T               11.3  .48 Ml 3.5         4741562
SSF   006.68 244.7 m E Pn      2011/08/25 23:07:19.5   0.5                          T                                        4741558
SSF   006.68 244.7 m E Pg      2011/08/25 23:07:46.0  -0.6                          T                                        4741559
SSF   006.68 244.7 m E Sg      2011/08/25 23:09:11.8  -0.4                          T                                        4741563
CABF  005.55 231.2 m E Pg      2011/08/25 23:07:26.4   0.7                          T                                        4741581
CABF  005.55 231.2 m E Sg      2011/08/25 23:08:38.4   1.5                          T               21.9  .63 Ml 3.5         4741578
LPL   006.07 220.7 m E Pg      2011/08/25 23:07:35.1  -0.5                          T                                        4741577
LPG   006.08 220.5 m E Pg      2011/08/25 23:07:35.2  -0.6                          T                                        4741576
LPG   006.08 220.5 m E Sn      2011/08/25 23:08:16.5  -0.1                          T                                        4741571
LPG   006.08 220.5 m E Sg      2011/08/25 23:08:52.4  -1.3                          T                5.7  .58 Ml 3.1         4741570
SMF   006.72 240.7 m E Pg      2011/08/25 23:07:47.8   0.5                          T                                        4741575
SMF   006.72 240.7 m E Sg      2011/08/25 23:09:13.9   0.4                          T               10.9  .44 Ml 3.6         4741568
ORIF  006.91 221.8 m E Pg      2011/08/25 23:07:51.0   0.1                          T                                        4741554
AVF   006.92 243.3 m E Pg      2011/08/25 23:07:51.6   0.7                          T                                        4741574
AVF   006.92 243.3 m E Sg      2011/08/25 23:09:19.8   0.3                          T               13.3  .66 Ml 3.5         4741567
BGF   007.34 243.3 m E Pg      2011/08/25 23:07:59.4   0.8                          T                                        4741572
BGF   007.34 243.3 m E Sn      2011/08/25 23:08:46.8   0.5                          T                                        4741555
BGF   007.34 243.3 m E Sg      2011/08/25 23:09:33.7   1.1                          T                5.3  .44 Ml 3.4         4741569
TCF   007.85 243.5 m E Pg      2011/08/25 23:08:09.6   1.4                          T                                        4741591
TCF   007.85 243.5 m E Sg      2011/08/25 23:09:48.9   0.2                          T                5.4  .49 Ml 3.5         4741590
GIVF  004.85 271.0 m E Sg      2011/08/25 23:08:14.4  -0.5                          T               17.4  .36 Ml 3.5         4741564
BAIF  005.25 270.9 m E Sg      2011/08/25 23:08:27.0  -0.3                          T               16.7  .62 Ml 3.4         4741565
LMR   008.01 212.3 m E Sn      2011/08/25 23:09:02.9   0.5                          T                                        4741553
HYF   007.09 248.7 m E Sg      2011/08/25 23:09:24.1  -0.8                          T                                        4741546

.
EVENT     263107
    Date      Time       Latitude Longitude    Depth    Ndef Nsta Gap    Mag1  N    Mag2  N    Mag3  N   Author         ID
       rms   OT_Error      Smajor Sminor Az        Err   mdist  Mdist     Err        Err        Err      Quality

2011/08/25 23:33:22.1     50.2346   12.4921     10.0     120   28 034  Ml 3.9 27                         js067245    263107

      0.95   +-  0.10       2.5    1.9  162.87 +-  0.0    0.03  10.04   +-0.3                            m i ke

GERMANY
Sta     Dist  EvAz     Phase      Date       Time     TRes  Azim  AzRes  Slow  SRes Def   SNR       Amp   Per   Mag1   Mag2       ID
RUP   003.55 263.4 m E Pn      2011/08/25 23:34:17.8   2.5                          T                                        4741664
RUP   003.55 263.4 m E Pg      2011/08/25 23:34:28.2   0.3                          T                                        4741650
RUP   003.55 263.4 m E Sg      2011/08/25 23:35:12.9  -0.5                          T                                        4741614
CDF   003.87 243.9 m E Pn      2011/08/25 23:34:21.3   1.5                          T                                        4741663
CDF   003.87 243.9 m E Pg      2011/08/25 23:34:35.8   2.0                          T                                        4741649
CDF   003.87 243.9 m E Sg      2011/08/25 23:35:23.9   0.4                          T               48.0  .30 Ml 3.9         4741628
HINF  004.43 239.0 m E Pn      2011/08/25 23:34:27.1  -0.3                          T                                        4741657
HINF  004.43 239.0 m E Pg      2011/08/25 23:34:44.2   0.1                          T                                        4741643
HINF  004.43 239.0 m E Sg      2011/08/25 23:35:41.4   0.5                          T               85.6  .34 Ml 4.1         4741622
HAU   004.61 243.4 m E Pn      2011/08/25 23:34:29.9   0.2                          T                                        4741658
HAU   004.61 243.4 m E Pg      2011/08/25 23:34:48.5   1.1                          T                                        4741644
HAU   004.61 243.4 m E Sg      2011/08/25 23:35:46.9   0.3                          T               88.6  .35 Ml 4.0         4741623
THEF  004.71 247.2 m E Pn      2011/08/25 23:34:32.4   1.3                          T                                        4741659
THEF  004.71 247.2 m E Pg      2011/08/25 23:34:49.6   0.4                          T                                        4741645
THEF  004.71 247.2 m E Sg      2011/08/25 23:35:49.5  -0.1                          T               62.6  .36 Ml 4.0         4741624
PAGF  004.73 251.8 m E Pn      2011/08/25 23:34:33.2   1.8  76.7  10.1              T                                        4741662
PAGF  004.73 251.8 m E Pg      2011/08/25 23:34:49.3  -0.2  68.2  1.6               T                                        4741648
PAGF  004.73 251.8 m E Sg      2011/08/25 23:35:51.7   1.6                          T                7.4  .36 Ml 3.1         4741627
MEZF  005.16 253.2 m E Pn      2011/08/25 23:34:37.3   0.1                          T                                        4741661
MEZF  005.16 253.2 m E Pg      2011/08/25 23:34:57.4  -0.1  72.5  4.9               T                                        4741647
MEZF  005.16 253.2 m E Sg      2011/08/25 23:36:04.0   0.4                          T               87.8  .65 Ml 4.0         4741626
SFTF  005.29 250.3 m E Pn      2011/08/25 23:34:39.2   0.2  66.3  1.7               T                                        4741660
SFTF  005.29 250.3 m E Pg      2011/08/25 23:35:00.2   0.3                          T                                        4741646
SFTF  005.29 250.3 m E Sg      2011/08/25 23:36:07.5  -0.2                          T               57.0  .48 Ml 4.0         4741625
CABF  005.60 232.1 m E Pn      2011/08/25 23:34:42.7  -0.6                          T                                        4741656
CABF  005.60 232.1 m E Pg      2011/08/25 23:35:06.8   1.1                          T                                        4741642
CABF  005.60 232.1 m E Sg      2011/08/25 23:36:18.8   1.4                          T               83.9  .73 Ml 4.1         4741621
BAIF  005.33 271.3 m E P       2011/08/25 23:34:43.3  -0.5                          T                                        4741665
BAIF  005.33 271.3 m E Sg      2011/08/25 23:36:07.5  -1.5                          T               25.2  .38 Ml 3.8         4741629
LPL   006.11 221.6 m E Pn      2011/08/25 23:34:51.0   0.6                          T                                        4741654
LPL   006.11 221.6 m E Pg      2011/08/25 23:35:14.8  -0.4                          T                                        4741635
LPL   006.11 221.6 m E Sg      2011/08/25 23:36:34.3   0.9                          T               37.7  .82 Ml 3.8         4741608
LPG   006.11 221.4 m E Pn      2011/08/25 23:34:51.1   0.5                          T                                        4741653
LPG   006.11 221.4 m E Pg      2011/08/25 23:35:16.1   0.7                          T                                        4741634
LPG   006.11 221.4 m E Sg      2011/08/25 23:36:34.5   0.8                          T               22.9  .58 Ml 3.7         4741615
LOR   006.43 245.8 m E Pn      2011/08/25 23:34:55.2   0.6  67.6  8.3               T                                        4741667
LOR   006.43 245.8 m E Pg      2011/08/25 23:35:20.8  -0.1  62.8  3.5               T                                        4741652
LOR   006.43 245.8 m E Sg      2011/08/25 23:36:44.2   0.8  62.3  2.9               T               23.0  .36 Ml 4.0         4741633
SSF   006.75 245.4 m E Pn      2011/08/25 23:34:59.7   0.8                          T                                        4741666
SSF   006.75 245.4 m E Pg      2011/08/25 23:35:26.9   0.2                          T                                        4741651
SSF   006.75 245.4 m E Sg      2011/08/25 23:36:53.3   0.1                          T               18.7  .44 Ml 3.9         4741632
AVF   006.98 243.9 m E Pn      2011/08/25 23:35:02.5   0.5                          T                                        4741655
AVF   006.98 243.9 m E Pg      2011/08/25 23:35:32.1   1.1                          T                                        4741641
AVF   006.98 243.9 m E Sg      2011/08/25 23:37:00.3  -0.1                          T               29.6  .58 Ml 4.0         4741620
HYF   007.16 249.3 m E Pn      2011/08/25 23:35:04.9   0.4                          T                                        4741613
HYF   007.16 249.3 m E Sg      2011/08/25 23:37:07.3   1.3                          T                                        4741618
VIVF  007.54 227.5 m E Pn      2011/08/25 23:35:09.3  -0.4                          T                                        4741610
VIVF  007.54 227.5 m E Pg      2011/08/25 23:35:42.2   0.7                          T                                        4741636
VIVF  007.54 227.5 m E Sg      2011/08/25 23:37:19.8   1.7                          T                4.9  .38 Ml 3.5         4741609
TCF   007.92 244.0 m E Pn      2011/08/25 23:35:15.3   0.5                          T                                        4741599
TCF   007.92 244.0 m E Pg      2011/08/25 23:35:49.2   0.9                          T                                        4741600
TCF   007.92 244.0 m E Sg      2011/08/25 23:37:31.4   1.8                          T               21.3  .62 Ml 4.0         4741631
FLN   008.58 265.1 m E Pn      2011/08/25 23:35:23.4  -0.3                          T                                        4741611
FLN   008.58 265.1 m E Sg      2011/08/25 23:37:51.1   0.9                          T                7.5  .48 Ml 3.6         4741603
SMF   006.78 241.3 m E Pg      2011/08/25 23:35:28.4   1.0                          T                                        4741640
SMF   006.78 241.3 m E Sg      2011/08/25 23:36:54.7   0.4                          T               28.6  .35 Ml 4.1         4741619
ORIF  006.95 222.6 m E Pg      2011/08/25 23:35:32.4   1.9                          T                                        4741637
BGF   007.40 243.9 m E Pg      2011/08/25 23:35:38.6  -0.1                          T                                        4741639
BGF   007.40 243.9 m E Sg      2011/08/25 23:37:14.3   0.7                          T               66.3  .57 Ml 4.4         4741617
SGMF  010.04 264.4 m E Pn      2011/08/25 23:35:43.6  -0.1                          T                                        4741602
SGMF  010.04 264.4 m E Pg      2011/08/25 23:36:26.8  -0.6                          T                                        4741601
GIVF  004.93 271.4 m E Sg      2011/08/25 23:35:55.2  -1.3                          T               44.6  .36 Ml 3.9         4741630
SMRF  007.84 219.6 m E Sn      2011/08/25 23:36:37.1  -0.2                          T                4.6  .54 Ml 3.3         4741607
LMR   008.03 213.0 m E Sn      2011/08/25 23:36:41.7  -0.1                          T               14.1  .96 Ml 3.6         4741606
RJF   008.88 240.5 m E Sg      2011/08/25 23:37:59.8  -0.1                          T                9.8  .59 Ml 3.4         4741604
LFF   009.54 240.8 m E Sg      2011/08/25 23:38:20.4   0.1                          T               39.3  .79 Ml 4.2         4741605

.
