EVENT     266150
    Date      Time       Latitude Longitude    Depth    Ndef Nsta Gap    Mag1  N    Mag2  N    Mag3  N   Author         ID
       rms   OT_Error      Smajor Sminor Az        Err   mdist  Mdist     Err        Err        Err      Quality

2011/11/09 17:24:56.2     43.8059    7.8899      5.0 f    11    6 187  Ml 1.9  5  Md 1.8  3              js067245    266170

      0.26   +-  0.13       2.8    1.8   34.77 +-  0.0    0.33   1.68   +-0.2      +-0.2                 m i ke

NEAR SOUTH COAST OF FRANCE
Sta     Dist  EvAz     Phase      Date       Time     TRes  Azim  AzRes  Slow  SRes Def   SNR       Amp   Per   Mag1   Mag2       ID
SBF   000.33 280.0 m E Pg      2011/11/09 17:25:02.8   0.0                          T                                        4784897
SBF   000.33 280.0 m E Sg      2011/11/09 17:25:07.2  -0.1                          T               31.1  .26        Md 1.6  4784898
FRF   000.93 255.2 m E Pg      2011/11/09 17:25:14.0   0.3                          T                                        4784896
FRF   000.93 255.2 m E Sg      2011/11/09 17:25:25.5  -0.4                          T                3.7  .27 Ml 2.0 Md 2.0  4784895
LMR   001.11 245.3 m E Pg      2011/11/09 17:25:16.8  -0.1                          T                                        4784901
LMR   001.11 245.3 m E Sg      2011/11/09 17:25:30.8  -0.5                          T                1.9  .19 Ml 1.9         4784902
MBDF  001.22 319.3 m E Pg      2011/11/09 17:25:19.1  -0.1                          T                                        4784899
MBDF  001.22 319.3 m E Sg      2011/11/09 17:25:34.9  -0.1                          T                1.4  .21 Ml 1.7 Md 1.9  4784900
PGF   001.50 146.8 m E Pn      2011/11/09 17:25:22.1   0.0                          T                                        4784893
PGF   001.50 146.8 m E Sn      2011/11/09 17:25:40.9   0.1                          T                 .6  .22 Ml 1.7         4784892
SMRF  001.68 276.6 m E Sg      2011/11/09 17:25:49.9   0.6                          T                3.2  .26 Ml 2.2         4784894

.
EVENT     266149
    Date      Time       Latitude Longitude    Depth    Ndef Nsta Gap    Mag1  N    Mag2  N    Mag3  N   Author         ID
       rms   OT_Error      Smajor Sminor Az        Err   mdist  Mdist     Err        Err        Err      Quality

2011/11/10 00:31:42.9     50.2101    7.8101      2.0      67   22 049  Ml 3.1  9  Md 3.0  3              js067245    266169

      0.70   +-  0.07       1.4    1.1   60.08 +-  0.0    0.19   7.57   +-0.2      +-0.1                 m i ke

GERMANY
Sta     Dist  EvAz     Phase      Date       Time     TRes  Azim  AzRes  Slow  SRes Def   SNR       Amp   Per   Mag1   Mag2       ID
RUP   000.70 223.9 m E Pg      2011/11/10 00:31:55.9  -0.4                          T                                        4784575
RUP   000.70 223.9 m E Sg      2011/11/10 00:32:05.5   0.1                          T                                Md 2.9  4784574
LANF  001.23 180.1 m E Pn      2011/11/10 00:32:06.1   0.6                          T                                        4784573
LANF  001.23 180.1 m E Sn      2011/11/10 00:32:22.0   0.3                          T               80.1  .30 Ml 3.3         4784572
CDF   001.83 191.2 m E Pn      2011/11/10 00:32:14.0   0.2                          T                                        4784571
CDF   001.83 191.2 m E P       2011/11/10 00:32:16.1   0.2                          T                                        4784947
CDF   001.83 191.2 m E Pg      2011/11/10 00:32:16.9  -0.2                          T                                        4784946
CDF   001.83 191.2 m E Sg      2011/11/10 00:32:39.8  -1.0                          T               14.8  .20 Ml 3.1 Md 2.9  4784570
GIVF  001.92 267.9 m E Pn      2011/11/10 00:32:15.6   0.7                          T                                        4784568
GIVF  001.92 267.9 m E P       2011/11/10 00:32:16.8  -0.2                          T                                        4784943
GIVF  001.92 267.9 m E Pg      2011/11/10 00:32:18.8   0.1                          T                                        4784944
GIVF  001.92 267.9 m E Sn      2011/11/10 00:32:38.4   0.1                          T                                        4784567
GIVF  001.92 267.9 m E Sg      2011/11/10 00:32:43.6   0.1                          T               36.2  .30 Ml 3.3 Md 3.0  4784953
PAGF  002.14 220.2 m E Pn      2011/11/10 00:32:17.7  -0.2                          T                                        4784566
PAGF  002.14 220.2 m E Pg      2011/11/10 00:32:22.9   0.1  32.6  -6.0              T                                        4784961
BAIF  002.32 267.7 m E Pn      2011/11/10 00:32:20.1  -0.2                          T                                        4784569
BAIF  002.32 267.7 m E Pg      2011/11/10 00:32:25.9  -0.1                          T                                        4784945
BAIF  002.32 267.7 m E Sg      2011/11/10 00:32:55.5  -0.4                          T               14.3  .22 Ml 3.1         4784954
THEF  002.31 211.7 m E Pn      2011/11/10 00:32:20.8   0.5                          T                                        4784563
THEF  002.31 211.7 m E Pg      2011/11/10 00:32:25.7  -0.2                          T                                        4784958
THEF  002.31 211.7 m E Sg      2011/11/10 00:32:55.6   0.0                          T               13.6  .20 Ml 3.1         4784955
HAU   002.41 204.1 m E Pn      2011/11/10 00:32:21.9   0.4                          T                                        4784562
HAU   002.41 204.1 m E Pg      2011/11/10 00:32:27.5  -0.1                          T                                        4784957
HAU   002.41 204.1 m E Sg      2011/11/10 00:32:59.5   0.9                          T               18.0  .33 Ml 2.8         4784956
HINF  002.48 195.1 m E Pn      2011/11/10 00:32:22.8   0.3                          T                                        4784561
HINF  002.48 195.1 m E Pg      2011/11/10 00:32:28.2  -0.7                          T                                        4784948
HINF  002.48 195.1 m E Sg      2011/11/10 00:33:00.1  -0.7                          T               14.1  .26 Ml 3.0         4784949
MEZF  002.48 227.6 m E Pg      2011/11/10 00:32:28.9  -0.1  48.1  2.6               T                                        4784565
MEZF  002.48 227.6 m E Sg      2011/11/10 00:33:00.9  -0.1  38.7  -6.8              T               14.3  .38 Ml 2.9         4784959
SFTF  002.71 223.2 m E Pg      2011/11/10 00:32:32.9  -0.2                          T                                        4784564
SFTF  002.71 223.2 m E Sg      2011/11/10 00:33:08.0   0.1  36.3  -4.8              T                                        4784960
CABF  003.78 198.3 m E Pn      2011/11/10 00:32:40.0  -0.3                          T                                        4784942
LOR   003.94 223.1 m E Pn      2011/11/10 00:32:41.3  -1.1  41.6  1.4               T                                        4784560
LOR   003.94 223.1 m E Pg      2011/11/10 00:32:55.7  -0.1  41.7  1.5               T                                        4784952
LOR   003.94 223.1 m E Sn      2011/11/10 00:33:25.4  -1.0                          T                2.9  .18 Ml 2.8         4784559
SSF   004.25 223.8 m E Pn      2011/11/10 00:32:45.2  -1.4                          T                                        4784558
SMF   004.44 218.0 m E Pn      2011/11/10 00:32:48.6  -0.5                          T                                        4784951
SMF   004.44 218.0 m E Sn      2011/11/10 00:33:38.5   0.1                          T                                        4784950
AVF   004.53 222.6 m E Pn      2011/11/10 00:32:50.2  -0.1                          T                                        4784941
TCF   005.42 225.8 m E Pn      2011/11/10 00:33:02.0  -0.6                          T                                        4784936
LDF   005.43 255.7 m E Pn      2011/11/10 00:33:03.4   0.9                          T                                        4784940
MFF   006.41 238.8 m E Pn      2011/11/10 00:33:16.1   0.2                          T                                        4784939
MFF   006.41 238.8 m E Sn      2011/11/10 00:34:25.1  -0.3                          T                                        4784977
RJF   006.49 223.2 m E Pn      2011/11/10 00:33:17.0   0.0                          T                                        4784938
SGMF  007.07 257.9 m E Pn      2011/11/10 00:33:25.4   0.5                          T                                        4784978
QUIF  007.57 256.6 m E Pn      2011/11/10 00:33:32.1   0.4                          T                                        4784937

.
EVENT     266153
    Date      Time       Latitude Longitude    Depth    Ndef Nsta Gap    Mag1  N    Mag2  N    Mag3  N   Author         ID
       rms   OT_Error      Smajor Sminor Az        Err   mdist  Mdist     Err        Err        Err      Quality

2011/11/10 08:02:32.7     42.9030     .1794      2.0      10    6 196  Ml 2.0  4  Md 2.1  2              js067245    266173

      0.22   +-  0.11       3.3    1.2  163.98 +-  0.0    0.17   2.59   +-0.2      +-0.2                 m i ke

PYRENEES
Sta     Dist  EvAz     Phase      Date       Time     TRes  Azim  AzRes  Slow  SRes Def   SNR       Amp   Per   Mag1   Mag2       ID
EPF   000.17 042.8 m E Pg      2011/11/10 08:02:36.5   0.2                          T                                        4785089
EPF   000.17 042.8 m E Sg      2011/11/10 08:02:38.8   0.1                          T               62.0  .26        Md 2.2  4785088
ETSF  000.54 269.8 m E Pg      2011/11/10 08:02:43.1  -0.1                          T                                        4785087
ETSF  000.54 269.8 m E Sg      2011/11/10 08:02:50.0  -0.2                          T                8.9  .34        Md 1.9  4785086
MTLF  001.56 073.0 m E Pg      2011/11/10 08:03:01.7   0.0                          T                                        4785225
MTLF  001.56 073.0 m E Sn      2011/11/10 08:03:19.5   0.3                          T                                        4785221
MTLF  001.56 073.0 m E Sg      2011/11/10 08:03:21.2  -0.6                          T                1.5  .17 Ml 2.0         4785226
SJPF  001.05 282.0 m E Sg      2011/11/10 08:03:06.2   0.1                          T                2.1  .24 Ml 1.8         4785222
CAF   002.44 033.3 m E Sg      2011/11/10 08:03:49.2  -0.2                          T                2.0  .20 Ml 2.3         4785223
RJF   002.59 021.4 m E Sg      2011/11/10 08:03:53.8  -0.2                          T                2.3  .19 Ml 2.1         4785224

.
EVENT     266154
    Date      Time       Latitude Longitude    Depth    Ndef Nsta Gap    Mag1  N    Mag2  N    Mag3  N   Author         ID
       rms   OT_Error      Smajor Sminor Az        Err   mdist  Mdist     Err        Err        Err      Quality

2011/11/10 08:03:40.1     42.8799     .1885      2.0       7    4 200  Ml 1.4  2  Md 1.6  2              js067245    266174

      0.16   +-  0.12       4.6    1.3  165.02 +-  0.0    0.19   1.56   +-0.3      +-0.1                 m i ke

PYRENEES
Sta     Dist  EvAz     Phase      Date       Time     TRes  Azim  AzRes  Slow  SRes Def   SNR       Amp   Per   Mag1   Mag2       ID
EPF   000.19 036.4 m E Pg      2011/11/10 08:03:44.1   0.1                          T                                        4785279
EPF   000.19 036.4 m E Sg      2011/11/10 08:03:46.5  -0.1                          T               14.4  .24        Md 1.5  4785278
ETSF  000.55 272.2 m E Pg      2011/11/10 08:03:50.7   0.0                          T                                        4785277
ETSF  000.55 272.2 m E Sg      2011/11/10 08:03:57.7  -0.3                          T                2.0  .26        Md 1.6  4785276
MTLF  001.56 072.1 m E Pg      2011/11/10 08:04:09.2   0.0                          T                                        4785624
MTLF  001.56 072.1 m E Sg      2011/11/10 08:04:28.9  -0.4                          T                 .9  .25 Ml 1.6         4785275
SJPF  001.06 283.2 m E Pn      2011/11/10 08:04:13.7  13.3                          T                 .5  .22 Ml 1.2         4785625

.
EVENT     266155
    Date      Time       Latitude Longitude    Depth    Ndef Nsta Gap    Mag1  N    Mag2  N    Mag3  N   Author         ID
       rms   OT_Error      Smajor Sminor Az        Err   mdist  Mdist     Err        Err        Err      Quality

2011/11/10 08:27:58.3     42.8716     .1908      2.0       7    4 201  Ml 1.4  2  Md 1.3  2              js067245    266175

      0.20   +-  0.13       4.7    1.3  167.57 +-  0.0    0.19   1.56   +-0.4      +-0.2                 m i ke

PYRENEES
Sta     Dist  EvAz     Phase      Date       Time     TRes  Azim  AzRes  Slow  SRes Def   SNR       Amp   Per   Mag1   Mag2       ID
EPF   000.19 034.6 m E Pg      2011/11/10 08:28:02.3   0.0                          T                                        4785295
EPF   000.19 034.6 m E Sg      2011/11/10 08:28:04.7  -0.2                          T               16.5  .24        Md 1.4  4785294
ETSF  000.55 273.1 m E Pg      2011/11/10 08:28:08.9   0.0                          T                                        4785292
ETSF  000.55 273.1 m E Sg      2011/11/10 08:28:15.8  -0.4                          T                2.2  .23        Md 1.2  4785293
MTLF  001.56 071.8 m E Pg      2011/11/10 08:28:27.4   0.1                          T                                        4785626
MTLF  001.56 071.8 m E Sg      2011/11/10 08:28:47.0  -0.4                          T                1.1  .28 Ml 1.6         4785296
SJPF  001.07 283.6 m E Sg      2011/11/10 08:28:32.0  -0.1                          T                 .3  .19 Ml 1.1         4785627

.
EVENT     266163
    Date      Time       Latitude Longitude    Depth    Ndef Nsta Gap    Mag1  N    Mag2  N    Mag3  N   Author         ID
       rms   OT_Error      Smajor Sminor Az        Err   mdist  Mdist     Err        Err        Err      Quality

2011/11/10 10:02:44.4     47.9951    6.6346       .0 f    12    7 132  Ml 2.0  2  Md 1.9  3              js067245    266183

      0.17   +-  0.06       1.5     .9   17.83 +-  0.0    0.19   1.17   +-0.0      +-0.1                 m i km

FRANCE
Sta     Dist  EvAz     Phase      Date       Time     TRes  Azim  AzRes  Slow  SRes Def   SNR       Amp   Per   Mag1   Mag2       ID
HAU   000.19 273.2 m E Pg      2011/11/10 10:02:48.5  -0.1                          T                                        4785507
HAU   000.19 273.2 m E Sg      2011/11/10 10:02:51.4   0.0                          T              266.3  .62        Md 1.9  4785505
HINF  000.23 140.4 m E Pg      2011/11/10 10:02:49.4   0.1                          T                                        4785506
HINF  000.23 140.4 m E Sg      2011/11/10 10:02:52.6  -0.1                          T               51.1  .63        Md 1.9  4785504
THEF  000.49 298.8 m E Pg      2011/11/10 10:02:53.8  -0.2                          T                                        4785525
THEF  000.49 298.8 m E Sg      2011/11/10 10:03:00.8   0.2                          T                8.9  .21        Md 2.0  4785526
CDF   000.60 045.6 m E Pg      2011/11/10 10:02:56.1   0.0                          T                                        4785628
CDF   000.60 045.6 m E Sg      2011/11/10 10:03:04.3   0.1                          T               24.8  .93                4785527
PAGF  000.83 313.0 m E Sg      2011/11/10 10:03:11.1  -0.1                          T                 .8  .27                4785523
SFTF  001.09 281.7 m E Sg      2011/11/10 10:03:19.5   0.0                          T                3.1  .21 Ml 2.0         4785528
SFTF  001.09 281.7 m E Sn      2011/11/10 10:03:20.8   0.3                          T                                        4785522
MEZF  001.17 296.2 m E Sg      2011/11/10 10:03:22.4   0.4                          T                4.5  .36 Ml 2.0         4785524

.
EVENT     266165
    Date      Time       Latitude Longitude    Depth    Ndef Nsta Gap    Mag1  N    Mag2  N    Mag3  N   Author         ID
       rms   OT_Error      Smajor Sminor Az        Err   mdist  Mdist     Err        Err        Err      Quality

2011/11/10 12:04:38.5     38.4246   11.7682      2.0      28    7 167  Ml 3.3  5  Md 3.4  2              js067245    266185

      0.90   +-  0.23      14.4    3.0   41.52 +-  0.0    0.94   7.84   +-0.2      +-0.0                 m i ke

SICILY, ITALY
Sta     Dist  EvAz     Phase      Date       Time     TRes  Azim  AzRes  Slow  SRes Def   SNR       Amp   Per   Mag1   Mag2       ID
PGF   004.63 333.7 m E Pn      2011/11/10 12:05:49.9   2.5                          T                                        4785549
PGF   004.63 333.7 m E Sn      2011/11/10 12:06:39.8   1.3                          T                9.1  .30 Ml 3.5 Md 3.4  4785545
LMR   006.32 322.6 m E Pn      2011/11/10 12:06:10.8   0.5                          T                                        4785548
LMR   006.32 322.6 m E Sn      2011/11/10 12:07:17.1  -1.7                          T                3.6  .30 Ml 3.3         4785542
SBF   006.34 330.3 m E Pn      2011/11/10 12:06:11.5   0.9                          T                                        4785539
SBF   006.34 330.3 m E Sn      2011/11/10 12:07:19.7   0.3                          T                4.7  .29 Ml 3.4 Md 3.4  4785540
FRF   006.43 324.6 m E Pn      2011/11/10 12:06:11.9   0.1                          T                                        4785547
FRF   006.43 324.6 m E Sn      2011/11/10 12:07:20.6  -0.8                          T                1.7  .25 Ml 3.0         4785541
SMRF  007.25 321.9 m E Pn      2011/11/10 12:06:23.4   0.4                          T                                        4785546
MBDF  007.33 330.9 m E Pn      2011/11/10 12:06:24.6   0.4                          T                                        4785544
MBDF  007.33 330.9 m E P       2011/11/10 12:06:28.6  -0.8                          T                                        4785552
MBDF  007.33 330.9 m E Sn      2011/11/10 12:07:45.0   1.9                          T                4.2  .45 Ml 3.3         4785543
ORIF  007.84 327.7 m E Pn      2011/11/10 12:06:31.2   0.1                          T                                        4785553

.
