EVENT     279217
    Date      Time       Latitude Longitude    Depth    Ndef Nsta Gap    Mag1  N    Mag2  N    Mag3  N   Author         ID
       rms   OT_Error      Smajor Sminor Az        Err   mdist  Mdist     Err        Err        Err      Quality

2012/07/07 06:41:28.1     44.1194    6.9271      2.0      47   10 036  Ml 2.7  7  Md 2.8  2              bulletin    279318
                                                                                                         _ldg
      0.34   +-  0.05       1.0     .9   44.34 +-  0.0    0.11   2.66   +-0.2      +-0.1                 m i ke

FRANCE
Sta     Dist  EvAz     Phase      Date       Time     TRes  Azim  AzRes  Slow  SRes Def   SNR       Amp   Per   Mag1   Mag2       ID
SBF   000.45 124.8 m E Pg      2012/07/07 06:41:36.9   0.1                          T                                        5021128
SBF   000.45 124.8 m E Sg      2012/07/07 06:41:43.3   0.6                          T              116.2  .34        Md 2.7  5021121
FRF   000.59 200.1 m E Pg      2012/07/07 06:41:39.2  -0.2                          T                                        5021129
FRF   000.59 200.1 m E Sg      2012/07/07 06:41:47.3   0.1                          T               53.9  .18        Md 2.9  5021119
MBDF  000.62 349.6 m E Pg      2012/07/07 06:41:39.9  -0.2                          T                                        5021130
MBDF  000.62 349.6 m E Sg      2012/07/07 06:41:47.9  -0.2                          T               31.1  .37                5021114
LMR   000.84 201.2 m E Pg      2012/07/07 06:41:43.6  -0.3                          T                                        5021127
LMR   000.84 201.2 m E Sg      2012/07/07 06:41:54.9   0.0                          T               64.3  .24                5021120
SMRF  000.99 262.1 m E Pg      2012/07/07 06:41:47.3   0.7                          T                                        5021126
SMRF  000.99 262.1 m E Sg      2012/07/07 06:41:59.3  -0.2                          T               37.2  .26 Ml 3.0         5021118
ORIF  001.10 317.2 m E Pg      2012/07/07 06:41:48.9   0.2                          T                                        5021125
ORIF  001.10 317.2 m E Sg      2012/07/07 06:42:02.7  -0.3                          T               70.1  .66 Ml 2.9         5021115
LPG   001.38 354.9 m E Pn      2012/07/07 06:41:53.4   0.3                          T                                        5021124
LPG   001.38 354.9 m E Sn      2012/07/07 06:42:11.0   0.1                          T               33.3  .62 Ml 2.7         5021117
LPL   001.40 354.4 m E Pn      2012/07/07 06:41:53.6   0.3                          T                                        5021123
LPL   001.40 354.4 m E Sn      2012/07/07 06:42:11.3   0.0                          T               10.6  .48 Ml 2.3         5021116
VIVF  001.77 295.3 m E Pn      2012/07/07 06:41:58.7   0.6                          T                                        5021122
VIVF  001.77 295.3 m E Sn      2012/07/07 06:42:19.5  -0.5                          T                9.9  .44 Ml 2.5         5021113
LASF  002.21 269.9 m E Pn      2012/07/07 06:42:04.1   0.0                          T                                        5021111
LASF  002.21 269.9 m E Sn      2012/07/07 06:42:30.2  -0.2                          T                6.7  .44 Ml 2.4         5021112

.
EVENT     279418
    Date      Time       Latitude Longitude    Depth    Ndef Nsta Gap    Mag1  N    Mag2  N    Mag3  N   Author         ID
       rms   OT_Error      Smajor Sminor Az        Err   mdist  Mdist     Err        Err        Err      Quality

2012/07/07 07:54:46.1     42.5068     .6847      8.0 f    19    4 118  Ml 1.4  3  Md 1.7  1              bulletin    279518
                                                                                                         _ldg
      0.22   +-  0.04        .9     .7   41.18 +-  0.0    0.19   1.53   +-0.3      +-                    m i ke

PYRENEES
Sta     Dist  EvAz     Phase      Date       Time     TRes  Azim  AzRes  Slow  SRes Def   SNR       Amp   Per   Mag1   Mag2       ID
EPF   000.58 334.2 m E Pg      2012/07/07 07:54:57.3   0.0                          T                                        5027957
EPF   000.58 334.2 m E Sg      2012/07/07 07:55:05.1   0.1                          T                3.2  .25        Md 1.7  5027958
ETSF  001.00 293.5 m E Pg      2012/07/07 07:55:04.9   0.0                          T                                        5027953
ETSF  001.00 293.5 m E Sg      2012/07/07 07:55:17.9  -0.1                          T                 .4  .23 Ml 1.1         5027954
MTLF  001.40 053.0 m E Pg      2012/07/07 07:55:12.2  -0.1                          T                                        5027955
MTLF  001.40 053.0 m E Sg      2012/07/07 07:55:30.5   0.1                          T                 .9  .28 Ml 1.5         5027956
SJPF  001.53 294.0 m E Sg      2012/07/07 07:55:34.5   0.0                          T                 .7  .22 Ml 1.6         5027952

.
EVENT     279219
    Date      Time       Latitude Longitude    Depth    Ndef Nsta Gap    Mag1  N    Mag2  N    Mag3  N   Author         ID
       rms   OT_Error      Smajor Sminor Az        Err   mdist  Mdist     Err        Err        Err      Quality

2012/07/07 08:59:19.4     48.2095    8.7663       .0 f    10    5 292  Ml 2.2  5  Md 2.0  1              bulletin    279320
                                                                                                         _ldg
      0.13   +-  0.16       3.1    2.3   73.97 +-  0.0    1.00   1.85   +-0.0      +-                    m i km

GERMANY
Sta     Dist  EvAz     Phase      Date       Time     TRes  Azim  AzRes  Slow  SRes Def   SNR       Amp   Per   Mag1   Mag2       ID
CDF   001.02 282.1 m E Pn      2012/07/07 08:59:39.7   0.1                          T                                        5021172
CDF   001.02 282.1 m E Sg      2012/07/07 08:59:52.5   0.3                          T                6.0  .32 Ml 2.2 Md 2.0  5021170
HINF  001.34 253.7 m E Pn      2012/07/07 08:59:43.9  -0.1                          T                                        5021171
HINF  001.34 253.7 m E Pg      2012/07/07 08:59:44.8   0.0                          T                                        5027966
HINF  001.34 253.7 m E Sn      2012/07/07 09:00:01.6   0.0                          T                6.3  .42 Ml 2.1         5021169
HAU   001.63 263.7 m E Pn      2012/07/07 08:59:48.0   0.1                          T                                        5021168
HAU   001.63 263.7 m E Sn      2012/07/07 09:00:08.2  -0.3                          T               10.4  .58 Ml 2.1         5021166
THEF  001.85 271.6 m E Pn      2012/07/07 08:59:50.9   0.0                          T                                        5021167
THEF  001.85 271.6 m E Sn      2012/07/07 09:00:13.8   0.0                          T                2.4  .24 Ml 2.2         5021165
LANF  001.00 320.8 m E Sg      2012/07/07 08:59:51.5  -0.2                          T                8.7  .42 Ml 2.1         5027965

.
EVENT     279241
    Date      Time       Latitude Longitude    Depth    Ndef Nsta Gap    Mag1  N    Mag2  N    Mag3  N   Author         ID
       rms   OT_Error      Smajor Sminor Az        Err   mdist  Mdist     Err        Err        Err      Quality

2012/07/07 12:44:57.7     46.2666    7.2169      2.0      20    6 090  Ml 1.9  5  Md 2.1  1              bulletin    279342
                                                                                                         _ldg
      0.23   +-  0.05       1.0     .9  158.32 +-  0.0    0.08   2.52   +-0.2      +-                    m i ke

SWITZERLAND
Sta     Dist  EvAz     Phase      Date       Time     TRes  Azim  AzRes  Slow  SRes Def   SNR       Amp   Per   Mag1   Mag2       ID
CABF  000.85 294.2 m E Pg      2012/07/07 12:45:13.8   0.0                          T                                        5022018
CABF  000.85 294.2 m E Sg      2012/07/07 12:45:24.9  -0.1                          T                1.9  .23        Md 2.1  5022017
HINF  001.57 351.0 m E Pg      2012/07/07 12:45:26.7  -0.3                          T                                        5022016
HINF  001.57 351.0 m E Sg      2012/07/07 12:45:47.5   0.2                          T                2.0  .22 Ml 2.0         5022015
HAU   001.84 341.5 m E Pn      2012/07/07 12:45:28.4  -0.1                          T                                        5022014
HAU   001.84 341.5 m E Sn      2012/07/07 12:45:50.9  -0.1                          T                1.6  .26 Ml 1.7         5022013
SFTF  002.44 323.4 m E Pn      2012/07/07 12:45:36.8   0.1                          T                                        5022008
SFTF  002.44 323.4 m E Sn      2012/07/07 12:46:05.5   0.1                          T                1.8  .34 Ml 2.0         5022007
LOR   002.52 294.7 m E Pn      2012/07/07 12:45:37.5  -0.3                          T                                        5022012
LOR   002.52 294.7 m E Sg      2012/07/07 12:46:16.5  -0.2                          T                 .3  .17 Ml 1.6         5022011
CDF   002.15 001.1 m E Pg      2012/07/07 12:45:37.8   0.2                          T                                        5022010
CDF   002.15 001.1 m E Sg      2012/07/07 12:46:05.3   0.0                          T                1.1  .26 Ml 2.0         5022009

.
EVENT     279234
    Date      Time       Latitude Longitude    Depth    Ndef Nsta Gap    Mag1  N    Mag2  N    Mag3  N   Author         ID
       rms   OT_Error      Smajor Sminor Az        Err   mdist  Mdist     Err        Err        Err      Quality

2012/07/07 12:59:09.1     41.3195   20.9054      2.0     163   15 023  Ml 4.5  7                         bulletin    279335
                                                                                                         _ldg
      1.21   +-  0.09       3.1    2.1   47.21 +-  0.0    0.22  13.57   +-0.1                            m i ke

ALBANIA
Sta     Dist  EvAz     Phase      Date       Time     TRes  Azim  AzRes  Slow  SRes Def   SNR       Amp   Per   Mag1   Mag2       ID
PGF   008.96 281.8 m E P       2012/07/07 13:01:20.3  -2.3                          T                                        5027974
SBF   010.25 288.8 m E P       2012/07/07 13:01:37.5  -3.0                          T                                        5027975
SBF   010.25 288.8 m E Sn      2012/07/07 13:03:23.3  -0.2                          T               64.2 1.10 Ml 4.5         5027973
LMR   010.85 285.5 m E Pn      2012/07/07 13:01:41.4  -1.2                          T                                        5027976
MBDF  010.89 292.9 m E Pn      2012/07/07 13:01:44.1   0.7                          T                                        5027981
MBDF  010.89 292.9 m E Sn      2012/07/07 13:03:39.0   0.1                          T               23.9  .70 Ml 4.4         5027971
FRF   010.78 286.7 m E P       2012/07/07 13:01:45.8  -1.7                          T                                        5027977
LPL   011.13 296.9 m E Pn      2012/07/07 13:01:47.6   1.0                          T                                        5027978
LPL   011.13 296.9 m E Sn      2012/07/07 13:03:44.2  -0.4                          T               27.0  .46 Ml 4.7         5027972
LPG   011.11 296.8 m E Pn      2012/07/07 13:01:48.6   2.1                          T                                        5027979
ORIF  011.56 293.1 m E Pn      2012/07/07 13:01:54.1   1.7                          T                                        5027980
CABF  011.91 301.3 m E Pn      2012/07/07 13:01:58.4   1.2                          T                                        5027984
HINF  011.93 307.7 m E Pn      2012/07/07 13:01:59.2   1.8                          T                                        5027985
HINF  011.93 307.7 m E Sn      2012/07/07 13:04:04.2   0.6                          T               28.9  .82 Ml 4.5         5027969
CDF   011.98 310.9 m E Pn      2012/07/07 13:01:59.3   1.2                          T                                        5027987
VIVF  012.38 292.0 m E Pn      2012/07/07 13:02:03.8   0.3                          T                                        5027982
HAU   012.32 307.7 m E Pn      2012/07/07 13:02:04.4   1.7                          T                                        5027986
HAU   012.32 307.7 m E Sn      2012/07/07 13:04:13.5   0.6                          T               23.7  .62 Ml 4.4         5027968
SMF   013.38 299.1 m E Pn      2012/07/07 13:02:16.5  -0.6                          T                                        5027983
SMF   013.38 299.1 m E Sn      2012/07/07 13:04:37.6  -0.7                          T               25.6  .80 Ml 4.6         5027970
LOR   013.57 301.7 m E Pn      2012/07/07 13:02:19.2  -0.4 109.8  0.0               T                                        5027988
LOR   013.57 301.7 m E Sn      2012/07/07 13:04:42.6  -0.1 124.3  14.6              T               14.0  .57 Ml 4.4         5027967

.
EVENT     279221
    Date      Time       Latitude Longitude    Depth    Ndef Nsta Gap    Mag1  N    Mag2  N    Mag3  N   Author         ID
       rms   OT_Error      Smajor Sminor Az        Err   mdist  Mdist     Err        Err        Err      Quality

2012/07/07 16:08:42.0     40.2653     .6477     11.0 f    36    3 240  Ml 2.0  3                         bulletin    279322
                                                                                                         _ldg
      0.69   +-  0.32       5.3    4.0  172.96 +-  0.0    0.53   3.29   +-0.1                            m i ke

SPAIN
Sta     Dist  EvAz     Phase      Date       Time     TRes  Azim  AzRes  Slow  SRes Def   SNR       Amp   Per   Mag1   Mag2       ID
EPF   002.77 355.3 m E Pn      2012/07/07 16:09:24.9   0.3                          T                                        5021258
EPF   002.77 355.3 m E Pg      2012/07/07 16:09:33.9   0.4                          T                                        5021259
EPF   002.77 355.3 m E Sn      2012/07/07 16:09:56.7   0.6                          T                                        5021257
EPF   002.77 355.3 m E Sg      2012/07/07 16:10:09.4   0.3                          T                1.0  .20 Ml 2.1         5021264
ETSF  002.78 341.4 m E Pn      2012/07/07 16:09:25.3   0.5                          T                                        5021267
ETSF  002.78 341.4 m E Pg      2012/07/07 16:09:33.1  -0.5                          T                                        5021266
ETSF  002.78 341.4 m E Sn      2012/07/07 16:09:57.9   1.6                          T                                        5021261
ETSF  002.78 341.4 m E Sg      2012/07/07 16:10:10.0   0.5                          T                1.2  .26 Ml 2.0         5021265
SJPF  003.17 334.4 m E Pn      2012/07/07 16:09:30.8   0.8                          T                                        5021262
SJPF  003.17 334.4 m E Pg      2012/07/07 16:09:40.4  -0.4                          T                                        5021268
SJPF  003.17 334.4 m E Sg      2012/07/07 16:10:22.1   0.5                          T                 .4  .16 Ml 1.8         5021263

.
EVENT     279220
    Date      Time       Latitude Longitude    Depth    Ndef Nsta Gap    Mag1  N    Mag2  N    Mag3  N   Author         ID
       rms   OT_Error      Smajor Sminor Az        Err   mdist  Mdist     Err        Err        Err      Quality

2012/07/07 17:08:30.2     44.5666    7.2824      4.0 f    50    9 092  Ml 2.2 10  Md 2.2  3              bulletin    279321
                                                                                                         _ldg
      0.51   +-  0.05       1.2     .7   58.34 +-  0.0    0.14   2.37   +-0.4      +-0.2                 m i ke

NORTHERN ITALY
Sta     Dist  EvAz     Phase      Date       Time     TRes  Azim  AzRes  Slow  SRes Def   SNR       Amp   Per   Mag1   Mag2       ID
MBDF  000.40 293.9 m E Pg      2012/07/07 17:08:38.2   0.1                          T                                Md 2.1  5021243
MBDF  000.40 293.9 m E Sg      2012/07/07 17:08:43.3  -0.1                          T               73.8  .44        Md 2.2  5021236
SBF   000.71 171.1 m E Pg      2012/07/07 17:08:43.6  -0.2                          T                                        5021237
SBF   000.71 171.1 m E Sg      2012/07/07 17:08:53.1   0.0                          T               15.5  .20        Md 2.4  5021223
LPG   001.00 338.2 m E Pg      2012/07/07 17:08:49.4   0.0                          T                                        5021240
LPG   001.00 338.2 m E Sg      2012/07/07 17:09:03.0   0.6                          T                6.7  .22 Ml 2.3         5021233
LPL   001.03 337.9 m E Pg      2012/07/07 17:08:49.8   0.1                          T                                        5021241
LPL   001.03 337.9 m E Sg      2012/07/07 17:09:02.5  -0.6                          T               11.3  .24 Ml 2.5         5021234
ORIF  001.06 289.9 m E Pg      2012/07/07 17:08:50.1  -0.1                          T                                        5021242
ORIF  001.06 289.9 m E Sg      2012/07/07 17:09:04.1   0.1                          T                5.1  .27 Ml 2.1         5021235
FRF   001.11 204.7 m E Pg      2012/07/07 17:08:50.5  -0.4                          T                                        5021238
FRF   001.11 204.7 m E Sg      2012/07/07 17:09:04.9  -0.4                          T                2.6  .16 Ml 2.1         5021225
FRF   001.11 204.7 m E Sn      2012/07/07 17:09:06.2   0.6                          T                3.0  .12 Ml 2.3         5021224
LMR   001.35 204.6 m E Pn      2012/07/07 17:08:54.4   0.3                          T                                        5021228
LMR   001.35 204.6 m E Pg      2012/07/07 17:08:55.7   0.3                          T                                        5021227
LMR   001.35 204.6 m E Sn      2012/07/07 17:09:12.0   0.4                          T                5.8  .22 Ml 2.4         5021226
SMRF  001.36 244.9 m E Pg      2012/07/07 17:08:55.7   0.1                          T                                        5021239
SMRF  001.36 244.9 m E Sg      2012/07/07 17:09:13.6   0.3                          T               25.5  .36 Ml 2.8         5028053
VIVF  001.88 279.8 m E Pn      2012/07/07 17:09:01.6   0.2                          T                                        5021232
VIVF  001.88 279.8 m E Pg      2012/07/07 17:09:05.4   0.1                          T                                        5021231
VIVF  001.88 279.8 m E Sn      2012/07/07 17:09:25.1   0.8                          T                 .4  .17 Ml 1.6         5021230
VIVF  001.88 279.8 m E Sg      2012/07/07 17:09:29.4  -0.1                          T                 .7  .24 Ml 1.6         5021229

.
