BEGIN GSE2.0
MSG_TYPE DATA
MSG_ID 07-OCT-1114:21:00  FRA_NDC
E-MAIL
DATA_TYPE BULLETIN
Reviewed Bulletin (REB) # P2011-037  from French NDC for regional phases     PERIOD 14 SEP 2011 TO 20 SEP 2011 S M., J-P S.
EVENT     263958
    Date      Time       Latitude Longitude    Depth    Ndef Nsta Gap    Mag1  N    Mag2  N    Mag3  N   Author         ID
       rms   OT_Error      Smajor Sminor Az        Err   mdist  Mdist     Err        Err        Err      Quality

2011/09/14 02:56:50.6     49.7205   -1.6911      2.0      25    8 279  Ml 2.3  8  Md 2.3  4              js067245    263959

      1.92   +-  0.36       6.2    2.9  176.93 +-  0.0    1.24   4.32   +-0.3      +-0.1                 m i ke

FRANCE
Sta     Dist  EvAz     Phase      Date       Time     TRes  Azim  AzRes  Slow  SRes Def   SNR       Amp   Per   Mag1   Mag2       ID
FLN   001.24 140.0 m E Pg      2011/09/14 02:57:13.9   0.1 318.9  -1.9              T                                        4757178
FLN   001.24 140.0 m E Sg      2011/09/14 02:57:30.3   0.4 356.0  35.1              T               15.6  .25 Ml 2.6 Md 2.2  4757173
GRR   001.44 157.3 m E Pn      2011/09/14 02:57:16.0   0.0                          T                                        4757176
GRR   001.44 157.3 m E Pg      2011/09/14 02:57:17.4  -0.1                          T                                        4757166
GRR   001.44 157.3 m E Sn      2011/09/14 02:57:34.7   0.3                          T                1.7  .18 Ml 1.9 Md 2.5  4757170
GRR   001.44 157.3 m E Sg      2011/09/14 02:57:36.3   0.3                          T               14.5  .19 Ml 2.7 Md 2.2  4757165
LDF   001.53 137.0 m E Pn      2011/09/14 02:57:17.3   0.1                          T                                        4757161
LDF   001.53 137.0 m E Pg      2011/09/14 02:57:18.6  -0.4                          T                                        4757177
LDF   001.53 137.0 m E Sn      2011/09/14 02:57:36.6   0.2                          T                                        4757163
LDF   001.53 137.0 m E Sg      2011/09/14 02:57:38.8   0.0                          T                6.1  .25 Ml 2.4 Md 2.3  4757169
SGMF  001.57 201.6 m E Pn      2011/09/14 02:57:17.8   0.0                          T                                        4757171
SGMF  001.57 201.6 m E Pg      2011/09/14 02:57:20.0   0.2                          T                                        4757174
SGMF  001.57 201.6 m E Sg      2011/09/14 02:57:40.0  -0.2                          T                3.4  .22 Ml 2.2         4757172
ROSF  001.73 217.5 m E Pg      2011/09/14 02:57:22.9   0.1                          T                                        4757175
ROSF  001.73 217.5 m E Sg      2011/09/14 02:57:45.2   0.1                          T                2.9  .24 Ml 2.2         4757168
QUIF  002.05 208.9 m E Pn      2011/09/14 02:57:24.3   0.1                          T                                        4757167
QUIF  002.05 208.9 m E Pg      2011/09/14 02:57:28.5  -0.2                          T                                        4757164
QUIF  002.05 208.9 m E Sg      2011/09/14 02:57:54.4  -0.6                          T                1.7  .23 Ml 2.1         4757162
MFF   003.29 161.1 m E Pg      2011/09/14 02:57:51.7   0.2                          T                                        4757160
MFF   003.29 161.1 m E Sn      2011/09/14 02:58:18.4  -0.1                          T                                        4764052
MFF   003.29 161.1 m E Sg      2011/09/14 02:58:33.7   0.0                          T                2.1  .27 Ml 2.6         4757159
TCF   004.32 141.2 m E Pn      2011/09/14 02:57:55.2   0.0                          T                                        4764054
TCF   004.32 141.2 m E Sn      2011/09/14 02:58:42.9  -0.3                          T                                        4764053

.
EVENT     263959
    Date      Time       Latitude Longitude    Depth    Ndef Nsta Gap    Mag1  N    Mag2  N    Mag3  N   Author         ID
       rms   OT_Error      Smajor Sminor Az        Err   mdist  Mdist     Err        Err        Err      Quality

2011/09/14 04:51:13.2     42.8421   -1.1471      2.0      33    3 065  Ml 1.2  1  Md 1.6  2              js067245    263960

      0.47   +-  0.08       1.6    1.4   34.26 +-  0.0    0.07   1.11   +-         +-0.2                 m i ke

PYRENEES
Sta     Dist  EvAz     Phase      Date       Time     TRes  Azim  AzRes  Slow  SRes Def   SNR       Amp   Per   Mag1   Mag2       ID
SJPF  000.28 348.1 m E Pg      2011/09/14 04:51:18.6   0.0                          T                                        4757196
SJPF  000.28 348.1 m E Sg      2011/09/14 04:51:23.0   0.7                          T                2.8  .17        Md 1.7  4757194
ETSF  000.44 082.4 m E Pg      2011/09/14 04:51:21.5  -0.1                          T                                        4757195
ETSF  000.44 082.4 m E Sg      2011/09/14 04:51:27.8   0.4                          T                1.6  .28        Md 1.5  4757193
EPF   001.11 079.7 m E Pg      2011/09/14 04:51:33.8  -0.2                          T                                        4764080
EPF   001.11 079.7 m E Sg      2011/09/14 04:51:48.3   0.0                          T                 .6  .25 Ml 1.2         4764081

.
EVENT     263988
    Date      Time       Latitude Longitude    Depth    Ndef Nsta Gap    Mag1  N    Mag2  N    Mag3  N   Author         ID
       rms   OT_Error      Smajor Sminor Az        Err   mdist  Mdist     Err        Err        Err      Quality

2011/09/14 11:38:17.0     42.8405   -1.1502      2.0      30    3 091  Ml 1.3  1  Md 1.2  2              js067245    263989

      0.37   +-  0.07       1.5    1.2   43.01 +-  0.0    0.06   1.11   +-         +-0.4                 m i ke

PYRENEES
Sta     Dist  EvAz     Phase      Date       Time     TRes  Azim  AzRes  Slow  SRes Def   SNR       Amp   Per   Mag1   Mag2       ID
SJPF  000.28 348.6 m E Pg      2011/09/14 11:38:22.7   0.2                          T                                        4757232
SJPF  000.28 348.6 m E Sg      2011/09/14 11:38:26.6   0.4                          T                  1  .21        Md 1.5  4757233
ETSF  000.44 082.2 m E Pg      2011/09/14 11:38:25.6   0.1                          T                                        4764084
ETSF  000.44 082.2 m E Sg      2011/09/14 11:38:31.3   0.0                          T                 .4  .21        Md  .9  4764085
EPF   001.11 079.7 m E Pg      2011/09/14 11:38:37.9   0.0                          T                                        4764082
EPF   001.11 079.7 m E Sg      2011/09/14 11:38:52.3   0.0                          T                 .5  .20 Ml 1.3         4764083

.
EVENT     263983
    Date      Time       Latitude Longitude    Depth    Ndef Nsta Gap    Mag1  N    Mag2  N    Mag3  N   Author         ID
       rms   OT_Error      Smajor Sminor Az        Err   mdist  Mdist     Err        Err        Err      Quality

2011/09/14 13:05:31.5     44.6543   10.2796      2.0      26    8 108  Ml 2.6  5                         js067245    263984

      0.41   +-  0.10       2.2    1.7   61.85 +-  0.0    0.11   4.32   +-0.2                            m i ke

NORTHERN ITALY
Sta     Dist  EvAz     Phase      Date       Time     TRes  Azim  AzRes  Slow  SRes Def   SNR       Amp   Per   Mag1   Mag2       ID
SBF   002.19 249.8 m E Pn      2011/09/14 13:06:07.1  -0.2                          T                                        4757252
SBF   002.19 249.8 m E Sn      2011/09/14 13:06:33.1  -0.2                          T                9.5  .29 Ml 2.8         4757253
PGF   002.30 204.3 m E Pn      2011/09/14 13:06:08.8   0.1                          T                                        4757255
PGF   002.30 204.3 m E Sn      2011/09/14 13:06:35.2  -0.8                          T                2.2  .24 Ml 2.5         4757254
MBDF  002.50 272.9 m E Pn      2011/09/14 13:06:11.6   0.1                          T                                        4757257
MBDF  002.50 272.9 m E P       2011/09/14 13:06:14.3   0.2                          T                                        4757251
MBDF  002.50 272.9 m E Sn      2011/09/14 13:06:40.4  -0.5                          T                7.9  .66 Ml 2.4         4764134
FRF   002.84 248.6 m E Pn      2011/09/14 13:06:16.3   0.4                          T                                        4757258
FRF   002.84 248.6 m E Sn      2011/09/14 13:06:49.1   0.5                          T                6.8  .36 Ml 2.7         4757256
LMR   003.02 245.4 m E Pn      2011/09/14 13:06:18.0  -0.4                          T                                        4757260
LMR   003.02 245.4 m E Sn      2011/09/14 13:06:53.2   0.1                          T                6.5  .40 Ml 2.7         4757259
ORIF  003.14 276.4 m E P       2011/09/14 13:06:23.4   0.2                          T                                        4764135
HINF  003.96 324.3 m E Pn      2011/09/14 13:06:31.1  -0.2                          T                                        4764136
HAU   004.32 322.3 m E Pn      2011/09/14 13:06:36.5   0.4                          T                                        4764137

.
EVENT     263989
    Date      Time       Latitude Longitude    Depth    Ndef Nsta Gap    Mag1  N    Mag2  N    Mag3  N   Author         ID
       rms   OT_Error      Smajor Sminor Az        Err   mdist  Mdist     Err        Err        Err      Quality

2011/09/14 18:43:23.0     43.1213    -.4388      2.0      35    7 107  Ml 1.7  4  Md 1.7  2              js067245    263990

      0.49   +-  0.10       2.3    1.2  165.97 +-  0.0    0.06   2.60   +-0.2      +-0.2                 m i ke

PYRENEES
Sta     Dist  EvAz     Phase      Date       Time     TRes  Azim  AzRes  Slow  SRes Def   SNR       Amp   Per   Mag1   Mag2       ID
ETSF  000.24 201.7 m E Pg      2011/09/14 18:43:26.9  -0.9                          T                                        4757285
ETSF  000.24 201.7 m E Sg      2011/09/14 18:43:30.2  -0.9                          T               11.8  .21        Md 1.9  4757284
EPF   000.58 098.8 m E Pg      2011/09/14 18:43:33.8  -0.2                          T                                        4757282
EPF   000.58 098.8 m E Sg      2011/09/14 18:43:41.8   0.2                          T                2.9  .20        Md 1.5  4757283
SJPF  000.58 269.5 m E Pg      2011/09/14 18:43:33.9   0.0                          T                                        4757281
SJPF  000.58 269.5 m E Sg      2011/09/14 18:43:41.3  -0.2                          T                1.2  .22                4757280
MTLF  001.95 082.6 m E Pg      2011/09/14 18:43:59.2  -0.1                          T                                        4764143
MTLF  001.95 082.6 m E Sg      2011/09/14 18:44:24.3  -0.2                          T                 .4  .22 Ml 1.4         4764144
LFF   002.01 024.7 m E Sg      2011/09/14 18:44:25.8  -0.2                          T                2.9  .31 Ml 2.0         4764147
CAF   002.55 044.2 m E Sg      2011/09/14 18:44:43.8   0.6                          T                 .6  .22 Ml 1.8         4764146
RJF   002.60 032.1 m E Sg      2011/09/14 18:44:44.4  -0.1                          T                 .8  .24 Ml 1.6         4764145

.
EVENT     263991
    Date      Time       Latitude Longitude    Depth    Ndef Nsta Gap    Mag1  N    Mag2  N    Mag3  N   Author         ID
       rms   OT_Error      Smajor Sminor Az        Err   mdist  Mdist     Err        Err        Err      Quality

2011/09/14 20:11:37.0     42.1456   -2.5370     10.0 f    35    5 081  Ml 2.3  4  Md 2.4  3              js067245    263992

      0.85   +-  0.16       3.8    2.6  160.92 +-  0.0    0.95   4.35   +-0.1      +-0.2                 m i ke

SPAIN
Sta     Dist  EvAz     Phase      Date       Time     TRes  Azim  AzRes  Slow  SRes Def   SNR       Amp   Per   Mag1   Mag2       ID
SJPF  001.37 044.6 m E Pn      2011/09/14 20:12:01.1   0.5                          T                                        4757308
SJPF  001.37 044.6 m E Pg      2011/09/14 20:12:02.4  -0.3                          T                                        4757307
SJPF  001.37 044.6 m E Sn      2011/09/14 20:12:18.8   1.1                          T                                Md 2.3  4757304
SJPF  001.37 044.6 m E Sg      2011/09/14 20:12:20.4   0.1                          T                4.1  .19 Ml 2.3         4757299
ETSF  001.64 062.1 m E Pn      2011/09/14 20:12:05.4   1.0                          T                                        4757306
ETSF  001.64 062.1 m E P       2011/09/14 20:12:06.6   0.2                          T                                        4757305
ETSF  001.64 062.1 m E Sg      2011/09/14 20:12:28.5  -0.5                          T                4.0  .28 Ml 2.3 Md 2.4  4757298
EPF   002.30 066.4 m E Pn      2011/09/14 20:12:15.0   1.7                          T                                        4757301
EPF   002.30 066.4 m E Pg      2011/09/14 20:12:19.4  -0.5                          T                                        4757300
EPF   002.30 066.4 m E Sn      2011/09/14 20:12:41.1   1.1                          T                2.4  .33 Ml 2.1         4757303
EPF   002.30 066.4 m E Sg      2011/09/14 20:12:48.2  -1.3                          T                4.6  .30 Ml 2.5 Md 2.6  4757302
MTLF  003.70 069.6 m E Pn      2011/09/14 20:12:33.2   0.9                          T                                        4764157
CAF   004.35 048.7 m E Pn      2011/09/14 20:12:41.8   0.6                          T                                        4764158

.
EVENT     263984
    Date      Time       Latitude Longitude    Depth    Ndef Nsta Gap    Mag1  N    Mag2  N    Mag3  N   Author         ID
       rms   OT_Error      Smajor Sminor Az        Err   mdist  Mdist     Err        Err        Err      Quality

2011/09/14 20:41:03.3     44.3732    6.7868      2.0      25    9 120  Ml 1.9  5  Md 2.3  2              js067245    263985

      0.46   +-  0.08       2.0    1.2   69.31 +-  0.0    0.11   1.59   +-0.3      +-0.1                 m i ke

FRANCE
Sta     Dist  EvAz     Phase      Date       Time     TRes  Azim  AzRes  Slow  SRes Def   SNR       Amp   Per   Mag1   Mag2       ID
MBDF  000.35 358.2 m E Pg      2011/09/14 20:41:10.3   0.0                          T                                        4764166
MBDF  000.35 358.2 m E Sg      2011/09/14 20:41:15.8   0.6                          T               15.7  .20        Md 2.3  4764167
SBF   000.69 137.3 m E Pg      2011/09/14 20:41:16.6   0.2                          T                                        4764163
SBF   000.69 137.3 m E Sg      2011/09/14 20:41:26.2   0.7                          T                9.4  .30        Md 2.4  4764164
ORIF  000.85 310.4 m E Pg      2011/09/14 20:41:18.4  -0.9                          T                                        4764165
ORIF  000.85 310.4 m E Sg      2011/09/14 20:41:31.0   0.6                          T                1.7  .19                4764815
FRF   000.82 187.1 m E Pg      2011/09/14 20:41:18.5  -0.3                          T                                        4764823
FRF   000.82 187.1 m E Sg      2011/09/14 20:41:29.6   0.2                          T                3.5  .22                4764820
SMRF  000.96 245.9 m E Pg      2011/09/14 20:41:22.7   1.4                          T                                        4764824
SMRF  000.96 245.9 m E P       2011/09/14 20:41:23.5   0.0                          T                                        4764810
SMRF  000.96 245.9 m E Sn      2011/09/14 20:41:35.6   0.0                          T                4.3  .24 Ml 2.0         4764819
SMRF  000.96 245.9 m E S       2011/09/14 20:41:38.2   0.0                          T                                        4764811
LMR   001.06 191.0 m E Pg      2011/09/14 20:41:23.1   0.0                          T                                        4764822
LMR   001.06 191.0 m E Sg      2011/09/14 20:41:38.0   1.1                          T                8.1  .30 Ml 2.3         4764821
LPL   001.14 358.1 m E Pg      2011/09/14 20:41:24.7  -0.3                          T                                        4764825
LPL   001.14 358.1 m E Sg      2011/09/14 20:41:39.9   0.1                          T                2.3  .37 Ml 1.7         4764816
VIVF  001.59 288.5 m E Pg      2011/09/14 20:41:32.7  -0.2                          T                                        4764817
VIVF  001.59 288.5 m E Sg      2011/09/14 20:41:53.7   0.4                          T                1.1  .27 Ml 1.7         4764814
LPG   001.12 358.7 m E Sg      2011/09/14 20:41:40.1   0.7                          T                1.3  .20 Ml 1.7         4764818

.
EVENT     263985
    Date      Time       Latitude Longitude    Depth    Ndef Nsta Gap    Mag1  N    Mag2  N    Mag3  N   Author         ID
       rms   OT_Error      Smajor Sminor Az        Err   mdist  Mdist     Err        Err        Err      Quality

2011/09/14 21:02:00.9     45.0073    6.9345      2.0      22    8 104  Ml 1.6  4  Md 1.7  3              js067245    263986

      0.35   +-  0.09       1.9    1.4   97.69 +-  0.0    0.14   1.70   +-0.3      +-0.0                 m i ke

FRANCE
Sta     Dist  EvAz     Phase      Date       Time     TRes  Azim  AzRes  Slow  SRes Def   SNR       Amp   Per   Mag1   Mag2       ID
MBDF  000.30 202.5 m E Pg      2011/09/14 21:02:06.6  -0.4                          T                                        4757365
MBDF  000.30 202.5 m E Sg      2011/09/14 21:02:10.3  -0.8                          T                6.4  .19        Md 1.7  4757364
LPG   000.51 345.3 m E Pg      2011/09/14 21:02:11.0   0.1                          T                                        4757361
LPG   000.51 345.3 m E Sg      2011/09/14 21:02:17.9   0.2                          T                6.1  .26        Md 1.7  4757360
LPL   000.53 344.4 m E Pg      2011/09/14 21:02:11.5   0.3                          T                                        4757362
LPL   000.53 344.4 m E Sg      2011/09/14 21:02:18.2   0.0                          T                2.7  .20        Md 1.7  4757363
ORIF  000.75 263.6 m E Pg      2011/09/14 21:02:14.9  -0.3                          T                                        4757358
ORIF  000.75 263.6 m E Sg      2011/09/14 21:02:25.2   0.2                          T                1.1  .24                4757359
SBF   001.20 162.4 m E Pg      2011/09/14 21:02:23.3  -0.1                          T                                        4764986
SBF   001.20 162.4 m E Sg      2011/09/14 21:02:39.5   0.5                          T                2.6  .29 Ml 1.8         4764987
FRF   001.46 188.2 m E Pg      2011/09/14 21:02:29.1   1.0                          T                                        4764829
FRF   001.46 188.2 m E Sg      2011/09/14 21:02:47.2   0.2                          T                 .7  .20 Ml 1.6         4764830
LMR   001.70 190.5 m E Pn      2011/09/14 21:02:30.1   0.3                          T                                        4764827
LMR   001.70 190.5 m E Pg      2011/09/14 21:02:33.1   0.6                          T                                        4764826
LMR   001.70 190.5 m E Sg      2011/09/14 21:02:54.8   0.4                          T                1.0  .28 Ml 1.7         4764828
VIVF  001.61 265.4 m E Sg      2011/09/14 21:02:51.7  -0.1                          T                 .4  .27 Ml 1.3         4764988

.
