EVENT     258121
    Date      Time       Latitude Longitude    Depth    Ndef Nsta Gap    Mag1  N    Mag2  N    Mag3  N   Author         ID
       rms   OT_Error      Smajor Sminor Az        Err   mdist  Mdist     Err        Err        Err      Quality

2011/04/10 13:10:52.9     45.3573    3.5544      2.0      33   14 095  Ml 1.6 15  Md 1.8  3              js067245    258121

      0.38   +-  0.05       1.2     .9   59.70 +-  0.0    0.25   2.23   +-0.2      +-0.0                 m i ke

FRANCE
Sta     Dist  EvAz     Phase      Date       Time     TRes  Azim  AzRes  Slow  SRes Def   SNR       Amp   Per   Mag1   Mag2       ID
VIVF  000.94 121.9 m E Pg      2011/04/10 13:11:10.6   0.1                          T                                        4671992
VIVF  000.94 121.9 m E Pn      2011/04/10 13:11:11.4  -0.1                          T                                        4671811
VIVF  000.94 121.9 m E Sg      2011/04/10 13:11:23.0   0.3                          T                1.7  .20 Ml 1.7 Md 1.8  4671803
CAF   001.14 248.3 m E Pg      2011/04/10 13:11:14.2   0.0                          T                                        4671812
CAF   001.14 248.3 m E Sg      2011/04/10 13:11:29.0   0.0                          T                1.2  .16 Ml 1.8 Md 1.8  4671805
LASF  001.30 170.3 m E Pg      2011/04/10 13:11:16.8  -0.4                          T                                        4671827
LASF  001.30 170.3 m E Sg      2011/04/10 13:11:33.6  -0.4                          T                 .7  .16 Ml 1.6         4671804
BGF   001.30 337.9 m E Pg      2011/04/10 13:11:17.0  -0.1                          T                                        4671826
BGF   001.30 337.9 m E Sg      2011/04/10 13:11:34.0   0.0                          T                                        4671825
SMF   001.30 008.7 m E Pg      2011/04/10 13:11:17.5   0.2                          T                                        4671836
SMF   001.30 008.7 m E Sg      2011/04/10 13:11:33.9  -0.2                          T                1.7  .22 Ml 1.8         4671808
TCF   001.32 315.2 m E Pg      2011/04/10 13:11:17.8   0.2                          T                                        4671829
TCF   001.32 315.2 m E Sg      2011/04/10 13:11:34.9   0.2                          T                1.1  .28 Ml 1.6         4671830
RJF   001.44 268.6 m E Pg      2011/04/10 13:11:19.7  -0.1                          T                                        4671828
RJF   001.44 268.6 m E Sg      2011/04/10 13:11:38.2  -0.2                          T                2.2  .24 Ml 1.6         4671806
AVF   001.44 354.5 m E Pg      2011/04/10 13:11:19.9   0.2                          T                                        4671835
AVF   001.44 354.5 m E Sg      2011/04/10 13:11:37.7  -0.6                          T                 .8  .27 Ml 1.5         4671807
SSF   001.70 358.9 m E Pg      2011/04/10 13:11:24.4  -0.2                          T                                        4671833
SSF   001.70 358.9 m E Sg      2011/04/10 13:11:45.8  -0.8                          T                1.4  .36 Ml 1.8         4671834
ORIF  001.70 104.1 m E Pg      2011/04/10 13:11:24.9   0.1                          T                                        4671822
ORIF  001.70 104.1 m E Sg      2011/04/10 13:11:46.9   0.2                          T                 .4  .25 Ml 1.3         4671821
LOR   001.92 006.2 m E Pg      2011/04/10 13:11:28.4  -0.3                          T                                        4671832
LOR   001.92 006.2 m E Sg      2011/04/10 13:11:53.2  -0.2                          T                  1  .27 Ml 1.8         4671831
MTLF  002.23 205.9 m E Pn      2011/04/10 13:11:29.2   0.1                          T                                        4671814
MTLF  002.23 205.9 m E Sn      2011/04/10 13:11:55.6   0.0                          T                 .3  .18 Ml 1.5         4671813
SMRF  002.00 133.1 m E Pg      2011/04/10 13:11:30.2   0.1                          T                                        4671819
SMRF  002.00 133.1 m E Sg      2011/04/10 13:11:56.0   0.2                          T                 .2  .19 Ml 1.3         4671820
LFF   002.03 259.1 m E Pg      2011/04/10 13:11:30.6  -0.1                          T                                        4671823
LFF   002.03 259.1 m E Sg      2011/04/10 13:11:56.6  -0.2                          T                1.3  .27 Ml 1.7         4671824

.
EVENT     258111
    Date      Time       Latitude Longitude    Depth    Ndef Nsta Gap    Mag1  N    Mag2  N    Mag3  N   Author         ID
       rms   OT_Error      Smajor Sminor Az        Err   mdist  Mdist     Err        Err        Err      Quality

2011/04/10 21:46:33.4     43.0996   -1.3523     15.0      14    2 124  Ml 1.0  1  Md 1.1  2              js067245    258111

      0.25   +-  0.07       1.7    1.4   27.16 +-  0.0    0.09   1.24   +-         +-0.3                 m i ke

PYRENEES
Sta     Dist  EvAz     Phase      Date       Time     TRes  Azim  AzRes  Slow  SRes Def   SNR       Amp   Per   Mag1   Mag2       ID
SJPF  000.09 081.6 m E Pg      2011/04/10 21:46:36.9   0.2                          T                                        4671840
SJPF  000.09 081.6 m E Sg      2011/04/10 21:46:39.1   0.1                          T                2.9  .23        Md 1.3  4671838
EPF   001.24 092.6 m E Pg      2011/04/10 21:46:56.6  -0.2                          T                                        4672007
EPF   001.24 092.6 m E Sg      2011/04/10 21:47:13.0   0.0                          T                 .3  .22 Ml 1.0 Md  .9  4672008

.
EVENT     258216
    Date      Time       Latitude Longitude    Depth    Ndef Nsta Gap    Mag1  N    Mag2  N    Mag3  N   Author         ID
       rms   OT_Error      Smajor Sminor Az        Err   mdist  Mdist     Err        Err        Err      Quality

2011/04/10 22:11:48.0     46.0275    6.8758      2.0      18    8 070  Ml 1.7  4  Md 1.5  2              js067245    258216

      0.22   +-  0.05       1.4     .8   99.94 +-  0.0    0.13   2.19   +-0.1      +-0.1                 m i ke

SWITZERLAND
Sta     Dist  EvAz     Phase      Date       Time     TRes  Azim  AzRes  Slow  SRes Def   SNR       Amp   Per   Mag1   Mag2       ID
LPL   000.52 191.2 m E Pg      2011/04/10 22:11:58.1  -0.1                          T                                        4672815
LPL   000.52 191.2 m E Sg      2011/04/10 22:12:05.0   0.0                          T                1.1  .23        Md 1.6  4672812
LPG   000.54 189.4 m E Pg      2011/04/10 22:11:58.4  -0.1                          T                                        4672814
LPG   000.54 189.4 m E Sg      2011/04/10 22:12:05.5  -0.1                          T                1.9  .23        Md 1.5  4672813
CABF  000.80 317.2 m E Pg      2011/04/10 22:12:03.0  -0.2                          T                                        4672820
CABF  000.80 317.2 m E Sg      2011/04/10 22:12:13.7   0.1                          T                 .6  .20                4672809
MBDF  001.30 183.3 m E Pg      2011/04/10 22:12:12.5   0.0                          T                                        4672817
MBDF  001.30 183.3 m E Sg      2011/04/10 22:12:29.0  -0.3                          T                 .6  .18 Ml 1.5         4672811
ORIF  001.31 212.6 m E Pg      2011/04/10 22:12:12.6   0.0                          T                                        4672816
HINF  001.79 359.5 m E Pg      2011/04/10 22:12:21.7   0.4                          T                                        4672819
HINF  001.79 359.5 m E Sg      2011/04/10 22:12:44.4  -0.1                          T                1.4  .33 Ml 1.8         4672808
SMF   002.19 287.5 m E Pg      2011/04/10 22:12:29.1   0.4                          T                                        4672818
SMF   002.19 287.5 m E Sg      2011/04/10 22:12:56.5  -0.4                          T                 .7  .27 Ml 1.7         4672807
VIVF  001.94 233.7 m E Sg      2011/04/10 22:12:49.3   0.1                          T                  1  .25 Ml 1.8         4672810

.
EVENT     258112
    Date      Time       Latitude Longitude    Depth    Ndef Nsta Gap    Mag1  N    Mag2  N    Mag3  N   Author         ID
       rms   OT_Error      Smajor Sminor Az        Err   mdist  Mdist     Err        Err        Err      Quality

2011/04/11 03:03:04.9     44.3928   11.6324     10.0      50   19 184  Ml 2.6 22                         js067245    258112

      0.49   +-  0.12       2.7    1.7   75.70 +-  0.0    0.12   6.28   +-0.3                            m i ke

NORTHERN ITALY
Sta     Dist  EvAz     Phase      Date       Time     TRes  Azim  AzRes  Slow  SRes Def   SNR       Amp   Per   Mag1   Mag2       ID
PGF   002.66 227.0 m E Pn      2011/04/11 03:03:46.5   0.3                          T                                        4671863
PGF   002.66 227.0 m E Sn      2011/04/11 03:04:17.5   0.9                          T               25.0  .62 Ml 3.2         4671858
MBDF  003.49 277.2 m E Pn      2011/04/11 03:03:57.5   0.0                          T                                        4671853
MBDF  003.49 277.2 m E Sn      2011/04/11 03:04:36.6   0.2                          T               12.1  .81 Ml 2.7         4671875
LPG   003.64 289.4 m E Pn      2011/04/11 03:03:59.8   0.0                          T                                        4671860
LPG   003.64 289.4 m E Sn      2011/04/11 03:04:40.4   0.2                          T                4.1  .50 Ml 2.5         4671885
LPL   003.66 289.6 m E Pn      2011/04/11 03:03:59.9   0.0                          T                                        4671855
LPL   003.66 289.6 m E Sn      2011/04/11 03:04:40.6   0.1                          T                2.9  .44 Ml 2.4         4671873
FRF   003.69 258.7 m E Pn      2011/04/11 03:04:00.3   0.2                          T                                        4671861
FRF   003.69 258.7 m E Sn      2011/04/11 03:04:41.4   0.3                          T                5.1  .29 Ml 2.9         4671857
LMR   003.85 255.8 m E Pn      2011/04/11 03:04:02.5   0.2                          T                                        4671862
LMR   003.85 255.8 m E Sn      2011/04/11 03:04:44.5  -0.5                          T                2.3  .32 Ml 2.5         4671856
ORIF  004.14 279.3 m E Pn      2011/04/11 03:04:06.4   0.1                          T                                        4671854
ORIF  004.14 279.3 m E Sn      2011/04/11 03:04:52.2   0.3                          T                4.6  .56 Ml 2.6         4671874
SMRF  004.38 266.6 m E Pn      2011/04/11 03:04:09.5   0.0                          T                                        4671859
SMRF  004.38 266.6 m E Sn      2011/04/11 03:04:57.8   0.3                          T                 .7  .38 Ml 2.0         4671886
CABF  004.48 301.6 m E Pn      2011/04/11 03:04:10.9  -0.1                          T                                        4671851
CABF  004.48 301.6 m E Sn      2011/04/11 03:05:00.3   0.1                          T                1.6  .55 Ml 2.2         4671879
HINF  004.77 317.5 m E Pn      2011/04/11 03:04:14.9   0.0                          T                                        4671848
HINF  004.77 317.5 m E Sn      2011/04/11 03:05:07.3   0.3                          T                2.2  .44 Ml 2.5         4671880
VIVF  004.99 277.8 m E Pn      2011/04/11 03:04:17.9   0.1                          T                                        4671852
VIVF  004.99 277.8 m E Sn      2011/04/11 03:05:12.5   0.3                          T                 .7  .27 Ml 2.3         4671876
CDF   005.02 324.7 m E Pn      2011/04/11 03:04:18.3  -0.1                          T                                        4671845
CDF   005.02 324.7 m E Sn      2011/04/11 03:05:13.3   0.2                          T                1.5  .40 Ml 2.6         4671882
HAU   005.15 316.4 m E Pn      2011/04/11 03:04:20.2   0.2                          T                                        4671847
HAU   005.15 316.4 m E Sn      2011/04/11 03:05:16.2   0.3                          T                3.7  .38 Ml 2.7         4671881
LANF  005.29 331.5 m E Pn      2011/04/11 03:04:22.1   0.2                          T                                        4671872
LANF  005.29 331.5 m E Sn      2011/04/11 03:05:19.6   0.3                          T                1.3  .22 Ml 2.7         4671871
THEF  005.47 316.5 m E Pn      2011/04/11 03:04:24.6   0.2                          T                                        4671846
THEF  005.47 316.5 m E Sn      2011/04/11 03:05:23.9   0.2                          T                4.8  .51 Ml 3.0         4671870
SMF   005.92 295.1 m E Pn      2011/04/11 03:04:30.1  -0.4                          T                                        4671850
SMF   005.92 295.1 m E Sn      2011/04/11 03:05:34.3   0.0                          T                4.2  .58 Ml 2.9         4671877
LOR   006.15 300.6 m E Pn      2011/04/11 03:04:33.4  -0.1 116.2  1.1               T                                        4671844
LOR   006.15 300.6 m E Sn      2011/04/11 03:05:39.9   0.1 115.0  -0.1              T                2.8  .40 Ml 3.0         4671884
SSF   006.28 298.0 m E Pn      2011/04/11 03:04:35.4   0.0                          T                                        4671843
SSF   006.28 298.0 m E Sn      2011/04/11 03:05:43.1   0.1                          T                2.0  .37 Ml 3.0         4671883
AVF   006.28 295.3 m E Pn      2011/04/11 03:04:35.6   0.2                          T                                        4671849
AVF   006.28 295.3 m E Sn      2011/04/11 03:05:43.1   0.0                          T                 .5  .35 Ml 2.3         4671878

.
EVENT     258161
    Date      Time       Latitude Longitude    Depth    Ndef Nsta Gap    Mag1  N    Mag2  N    Mag3  N   Author         ID
       rms   OT_Error      Smajor Sminor Az        Err   mdist  Mdist     Err        Err        Err      Quality

2011/04/11 08:00:45.6     43.9826    3.2020       .0 f    37   13 139  Ml 2.1 14  Md 2.3  3              js067245    258161

      0.29   +-  0.04        .8     .7  160.80 +-  0.0    0.48   2.81   +-0.3      +-0.0                 m i km

NEAR SOUTH COAST OF FRANCE
Sta     Dist  EvAz     Phase      Date       Time     TRes  Azim  AzRes  Slow  SRes Def   SNR       Amp   Per   Mag1   Mag2       ID
LASF  000.48 078.6 m E Pg      2011/04/11 08:00:54.8  -0.3                          T                                        4671926
LASF  000.48 078.6 m E Sg      2011/04/11 08:01:01.8   0.2                          T                7.1  .22        Md 2.3  4671904
MTLF  000.96 228.4 m E Pg      2011/04/11 08:01:03.9   0.1                          T                                        4671924
MTLF  000.96 228.4 m E Sg      2011/04/11 08:01:16.5   0.0                          T                3.2  .25 Ml 1.9 Md 2.2  4671905
CAF   001.25 319.6 m E Pg      2011/04/11 08:01:09.2   0.0                          T                                        4671925
CAF   001.25 319.6 m E Sg      2011/04/11 08:01:25.6   0.1                          T                6.8  .24 Ml 2.4 Md 2.2  4671907
VIVF  001.37 049.8 m E Pn      2011/04/11 08:01:10.5   0.0                          T                                        4671891
VIVF  001.37 049.8 m E Pg      2011/04/11 08:01:11.6   0.1                          T                                        4671923
VIVF  001.37 049.8 m E Sg      2011/04/11 08:01:29.5   0.2                          T                3.4  .27 Ml 2.1         4671903
SMRF  001.71 089.4 m E Pn      2011/04/11 08:01:15.1  -0.1                          T                                        4671889
SMRF  001.71 089.4 m E Pg      2011/04/11 08:01:17.9   0.1                          T                                        4671902
SMRF  001.71 089.4 m E Sg      2011/04/11 08:01:40.1   0.0                          T                 .7  .27 Ml 1.6         4671899
RJF   001.79 318.3 m E Pn      2011/04/11 08:01:16.6   0.5                          T                                        4671894
RJF   001.79 318.3 m E Pg      2011/04/11 08:01:19.0  -0.1                          T                                        4671922
RJF   001.79 318.3 m E Sg      2011/04/11 08:01:42.2  -0.1                          T                5.3  .22 Ml 2.2         4671909
LFF   002.01 299.3 m E Pn      2011/04/11 08:01:19.9   0.8                          T                                        4671893
LFF   002.01 299.3 m E Pg      2011/04/11 08:01:23.0  -0.1                          T                                        4671921
LFF   002.01 299.3 m E Sg      2011/04/11 08:01:49.2   0.0                          T               29.9  .64 Ml 2.7         4671908
ORIF  002.13 063.1 m E Pn      2011/04/11 08:01:20.8  -0.1                          T                                        4671890
ORIF  002.13 063.1 m E Pg      2011/04/11 08:01:25.4  -0.2                          T                                        4671901
ORIF  002.13 063.1 m E Sg      2011/04/11 08:01:53.4   0.2                          T                1.5  .27 Ml 2.0         4671900
EPF   002.29 246.4 m E Pn      2011/04/11 08:01:22.8  -0.2                          T                                        4671892
EPF   002.29 246.4 m E Pg      2011/04/11 08:01:28.3  -0.1                          T                                        4671920
EPF   002.29 246.4 m E Sg      2011/04/11 08:01:58.0  -0.1                          T                2.1  .27 Ml 2.1         4671906
BGF   002.59 354.6 m E Pn      2011/04/11 08:01:27.2   0.1                          T                                        4671896
BGF   002.59 354.6 m E Pg      2011/04/11 08:01:33.8  -0.1                          T                                        4671918
BGF   002.59 354.6 m E Sg      2011/04/11 08:02:07.1  -0.2                          T                4.7  .38 Ml 2.4         4671911
SMF   002.70 009.4 m E Pn      2011/04/11 08:01:28.7   0.1                          T                                        4671897
SMF   002.70 009.4 m E Pg      2011/04/11 08:01:35.8  -0.1                          T                                        4671917
SMF   002.70 009.4 m E Sg      2011/04/11 08:02:10.3  -0.6                          T                1.9  .24 Ml 2.3         4671912
AVF   002.81 002.1 m E Pn      2011/04/11 08:01:30.3   0.3                          T                                        4671898
AVF   002.81 002.1 m E Pg      2011/04/11 08:01:38.2   0.2                          T                                        4671916
AVF   002.81 002.1 m E Sg      2011/04/11 08:02:13.9  -0.4                          T                1.0  .24 Ml 2.0         4671913
TCF   002.41 343.4 m E Pg      2011/04/11 08:01:30.8   0.2                          T                                        4671915
TCF   002.41 343.4 m E Sg      2011/04/11 08:02:01.8   0.0                          T                1.7  .29 Ml 2.1         4671914

.
