EVENT     257886
    Date      Time       Latitude Longitude    Depth    Ndef Nsta Gap    Mag1  N    Mag2  N    Mag3  N   Author         ID
       rms   OT_Error      Smajor Sminor Az        Err   mdist  Mdist     Err        Err        Err      Quality

2011/04/01 22:40:42.4     47.9150    7.4344     10.0      44   15 033  Ml 2.2 10  Md 2.6  2              js067245    257886

      0.51   +-  0.03        .7     .6  160.95 +-  0.0    0.21   3.41   +-0.3      +-0.1                 m i ke

SWITZERLAND
Sta     Dist  EvAz     Phase      Date       Time     TRes  Azim  AzRes  Slow  SRes Def   SNR       Amp   Per   Mag1   Mag2       ID
HINF  000.40 256.1 m E Pg      2011/04/01 22:40:50.0  -0.4                          T                                        4669058
HINF  000.40 256.1 m E Sg      2011/04/01 22:40:55.3  -0.6                          T               10.1  .34        Md 2.6  4669059
CDF   000.51 348.0 m E Pg      2011/04/01 22:40:52.3  -0.1                          T                                        4669062
CDF   000.51 348.0 m E Sg      2011/04/01 22:40:59.2   0.1                          T                9.4  .58        Md 2.7  4669063
HAU   000.74 277.5 m E Pg      2011/04/01 22:40:56.4   0.0                          T                                        4669088
HAU   000.74 277.5 m E Sg      2011/04/01 22:41:06.1   0.0                          T               17.4  .20                4669079
THEF  001.02 288.5 m E Pg      2011/04/01 22:41:01.5   0.1                          T                                        4669089
THEF  001.02 288.5 m E Sg      2011/04/01 22:41:14.8   0.1                          T               22.6  .31 Ml 2.7         4669078
LANF  001.09 012.9 m E Pg      2011/04/01 22:41:03.0   0.1                          T                                        4669094
LANF  001.09 012.9 m E Sg      2011/04/01 22:41:17.2   0.0                          T                4.5  .19 Ml 2.2         4669072
PAGF  001.31 299.9 m E Pg      2011/04/01 22:41:06.9   0.0                          T                                        4669093
PAGF  001.31 299.9 m E Sg      2011/04/01 22:41:23.9   0.0 108.5  -10.2             T                2.1  .23 Ml 1.9         4669073
CABF  001.59 215.6 m E Pn      2011/04/01 22:41:09.2   0.1                          T                                        4669087
CABF  001.59 215.6 m E Pg      2011/04/01 22:41:12.0  -0.2                          T                                        4669086
CABF  001.59 215.6 m E Sg      2011/04/01 22:41:32.6  -0.3                          T                3.6  .30 Ml 2.2         4669080
SFTF  001.63 281.1 m E Pn      2011/04/01 22:41:09.6   0.0 107.2  7.9               T                                        4669091
SFTF  001.63 281.1 m E Pg      2011/04/01 22:41:13.0   0.1                          T                                        4669090
SFTF  001.63 281.1 m E Sn      2011/04/01 22:41:29.3  -0.1                          T                                        4669077
SFTF  001.63 281.1 m E Sg      2011/04/01 22:41:34.1   0.1                          T                5.6  .26 Ml 2.4         4669076
MEZF  001.70 291.1 m E Pg      2011/04/01 22:41:13.9  -0.1                          T                                        4669092
MEZF  001.70 291.1 m E Sn      2011/04/01 22:41:30.7  -0.1                          T                                        4669075
MEZF  001.70 291.1 m E Sg      2011/04/01 22:41:35.9  -0.1                          T                4.1  .28 Ml 2.3         4669074
RUP   001.81 352.3 m E Pg      2011/04/01 22:41:16.0   0.0                          T                                        4669095
RUP   001.81 352.3 m E Sg      2011/04/01 22:41:39.3  -0.1                          T                                        4669071
LOR   002.50 256.4 m E Pg      2011/04/01 22:41:29.2   0.3  72.9  -0.8              T                                        4669097
LOR   002.50 256.4 m E Sg      2011/04/01 22:42:01.0  -0.2  76.0  2.2               T                1.9  .18 Ml 2.4         4669069
SMF   002.76 243.9 m E Pg      2011/04/01 22:41:33.6   0.1                          T                                        4669084
SMF   002.76 243.9 m E Sg      2011/04/01 22:42:09.0   0.0                          T                 .7  .17 Ml 2.0         4669082
SSF   002.80 253.7 m E Pg      2011/04/01 22:41:34.5   0.2                          T                                        4669096
SSF   002.80 253.7 m E Sg      2011/04/01 22:42:10.2  -0.1                          T                 .8  .24 Ml 2.0         4669070
AVF   002.99 249.4 m E Pg      2011/04/01 22:41:38.0   0.1                          T                                        4669085
AVF   002.99 249.4 m E Sg      2011/04/01 22:42:16.0  -0.3                          T                 .3  .21 Ml 1.6         4669081
BGF   003.41 248.2 m E Pg      2011/04/01 22:41:45.4  -0.1                          T                                        4669083

.
EVENT     257887
    Date      Time       Latitude Longitude    Depth    Ndef Nsta Gap    Mag1  N    Mag2  N    Mag3  N   Author         ID
       rms   OT_Error      Smajor Sminor Az        Err   mdist  Mdist     Err        Err        Err      Quality

2011/04/01 23:08:10.2     48.2722    7.6402     10.0      18    7 043  Ml 1.5  4  Md 1.6  2              js067245    257887

      0.31   +-  0.05       1.0     .8   15.87 +-  0.0    0.12   2.30   +-0.2      +-0.0                 m i ke

FRANCE
Sta     Dist  EvAz     Phase      Date       Time     TRes  Azim  AzRes  Slow  SRes Def   SNR       Amp   Per   Mag1   Mag2       ID
CDF   000.28 300.1 m E Pg      2011/04/01 23:08:16.0  -0.1                          T                                        4669103
CDF   000.28 300.1 m E Sg      2011/04/01 23:08:19.7  -0.3                          T                2.5  .16        Md 1.6  4669104
HINF  000.70 229.5 m E Pg      2011/04/01 23:08:23.4  -0.2                          T                                        4669101
HINF  000.70 229.5 m E Sg      2011/04/01 23:08:32.4  -0.3                          T                2.6  .22        Md 1.6  4669102
LANF  000.72 008.7 m E Pg      2011/04/01 23:08:23.8  -0.1                          T                                        4669110
LANF  000.72 008.7 m E Sg      2011/04/01 23:08:33.2  -0.1                          T                 .9  .12                4669111
HAU   000.91 253.3 m E Pg      2011/04/01 23:08:27.3   0.0                          T                                        4669105
HAU   000.91 253.3 m E Sg      2011/04/01 23:08:39.0  -0.1                          T                1.9  .27 Ml 1.4         4669106
THEF  001.10 268.3 m E Pg      2011/04/01 23:08:31.0   0.1                          T                                        4669108
THEF  001.10 268.3 m E Sg      2011/04/01 23:08:45.2   0.0                          T                1.4  .23 Ml 1.6         4669109
PAGF  001.31 283.2 m E Sn      2011/04/01 23:08:49.3  -0.1                          T                                        4669113
PAGF  001.31 283.2 m E Sg      2011/04/01 23:08:51.8   0.2                          T                 .5  .24 Ml 1.3         4669112
SFTF  001.74 268.8 m E Sg      2011/04/01 23:09:05.1  -0.1                          T                 .8  .20 Ml 1.7         4669107

.
EVENT     257888
    Date      Time       Latitude Longitude    Depth    Ndef Nsta Gap    Mag1  N    Mag2  N    Mag3  N   Author         ID
       rms   OT_Error      Smajor Sminor Az        Err   mdist  Mdist     Err        Err        Err      Quality

2011/04/01 23:08:36.4     49.9936    7.4659      7.0 f    19   10 045  Ml 1.7  6  Md 2.0  1              js067245    257888

      0.40   +-  0.08       1.7    1.3  139.22 +-  0.0    0.12   3.94   +-0.3      +-                    m i ke

GERMANY
Sta     Dist  EvAz     Phase      Date       Time     TRes  Azim  AzRes  Slow  SRes Def   SNR       Amp   Per   Mag1   Mag2       ID
RUP   000.39 222.1 m E Pg      2011/04/01 23:08:43.6  -0.5                          T                                        4669134
RUP   000.39 222.1 m E Sg      2011/04/01 23:08:47.8  -1.6                          T                                Md 2.0  4669135
CDF   001.59 184.6 m E P       2011/04/01 23:09:05.1  -0.2                          T                                        4669132
CDF   001.59 184.6 m E Sn      2011/04/01 23:09:23.0   0.1                          T                                        4669118
CDF   001.59 184.6 m E Sg      2011/04/01 23:09:26.4  -0.2                          T                2.1  .35 Ml 2.0         4669133
GIVF  001.71 274.7 m E Pg      2011/04/01 23:09:08.0  -0.1                          T                                        4669130
PAGF  001.84 219.0 m E Pg      2011/04/01 23:09:10.5   0.0                          T                                        4669119
PAGF  001.84 219.0 m E Sg      2011/04/01 23:09:33.9  -0.3                          T                 .4  .31 Ml 1.2         4669128
THEF  002.01 209.3 m E Pg      2011/04/01 23:09:13.7  -0.2                          T                                        4669122
HAU   002.12 200.7 m E Pg      2011/04/01 23:09:15.8   0.0                          T                                        4669123
HAU   002.12 200.7 m E Sg      2011/04/01 23:09:43.1  -0.1                          T                 .7  .18 Ml 1.6         4669124
MEZF  002.18 227.6 m E Pg      2011/04/01 23:09:16.7  -0.1                          T                                        4669120
MEZF  002.18 227.6 m E Sg      2011/04/01 23:09:44.7  -0.1                          T                1.3  .31 Ml 1.9         4669127
SFTF  002.40 222.6 m E Pg      2011/04/01 23:09:20.7  -0.2                          T                                        4669121
SFTF  002.40 222.6 m E Sn      2011/04/01 23:09:41.8  -0.4                          T                                        4669126
SFTF  002.40 222.6 m E Sg      2011/04/01 23:09:51.4  -0.4                          T                1.1  .22 Ml 2.0         4669125
SSF   003.94 223.4 m E Pn      2011/04/01 23:09:36.0   0.7                          T                                        4669131
BAIF  002.10 273.0 m E Sg      2011/04/01 23:09:41.6  -0.9                          T                1.4  .35 Ml 1.8         4669129

.
EVENT     257889
    Date      Time       Latitude Longitude    Depth    Ndef Nsta Gap    Mag1  N    Mag2  N    Mag3  N   Author         ID
       rms   OT_Error      Smajor Sminor Az        Err   mdist  Mdist     Err        Err        Err      Quality

2011/04/01 23:41:05.1     43.8937    7.9525      2.0      24   11 177  Ml 2.3 11  Md 2.3  2              js067245    257889

      0.86   +-  0.15       3.0    2.1   55.12 +-  0.0    0.38   2.96   +-0.4      +-0.3                 m i ke

NEAR SOUTH COAST OF FRANCE
Sta     Dist  EvAz     Phase      Date       Time     TRes  Azim  AzRes  Slow  SRes Def   SNR       Amp   Per   Mag1   Mag2       ID
SBF   000.38 265.5 m E Pg      2011/04/01 23:41:12.9   0.5                          T                                        4669146
SBF   000.38 265.5 m E Sg      2011/04/01 23:41:17.4   0.0                          T              149.6  .38        Md 2.5  4669147
FRF   001.00 251.1 m E Pg      2011/04/01 23:41:24.3   0.4                          T                                        4669139
FRF   001.00 251.1 m E Sg      2011/04/01 23:41:36.9   0.0                          T               27.2  .24 Ml 2.9 Md 2.1  4669144
LMR   001.19 242.4 m E Pg      2011/04/01 23:41:26.8  -0.4                          T                                        4669140
LMR   001.19 242.4 m E Sg      2011/04/01 23:41:41.6  -1.1                          T               11.6  .18 Ml 2.7         4669145
MBDF  001.19 314.9 m E Pg      2011/04/01 23:41:27.6   0.1                          T                                        4669160
MBDF  001.19 314.9 m E Sg      2011/04/01 23:41:43.0   0.1                          T                6.6  .29 Ml 2.3         4669156
PGF   001.55 150.0 m E Pn      2011/04/01 23:41:32.7   0.6                          T                                        4669141
PGF   001.55 150.0 m E Sn      2011/04/01 23:41:51.0  -0.6                          T                2.1  .20 Ml 2.3         4669142
SMRF  001.72 273.6 m E Pg      2011/04/01 23:41:36.4  -0.7                          T                                        4669138
SMRF  001.72 273.6 m E Sg      2011/04/01 23:42:00.2   1.0                          T               13.1  .28 Ml 2.8         4669143
ORIF  001.80 305.3 m E Pg      2011/04/01 23:41:38.9   0.1                          T                                        4669161
LPG   001.82 332.3 m E Pg      2011/04/01 23:41:38.9  -0.4                          T                                        4669163
ORIF  001.80 305.3 m E Sg      2011/04/01 23:42:02.0   0.0                          T                4.2  .35 Ml 2.2         4669155
LPG   001.82 332.3 m E Sg      2011/04/01 23:42:02.5  -0.2                          T                1.4  .28 Ml 1.8         4669153
LPL   001.84 332.2 m E Pg      2011/04/01 23:41:39.5  -0.1                          T                                        4669162
LPL   001.84 332.2 m E Sg      2011/04/01 23:42:02.9  -0.4                          T                1.7  .30 Ml 1.9         4669154
VIVF  002.54 293.4 m E Pg      2011/04/01 23:41:52.1  -0.2                          T                                        4669159
VIVF  002.54 293.4 m E Sn      2011/04/01 23:42:15.5   0.3                          T                 .5  .19 Ml 1.7         4669157
LASF  002.96 274.9 m E Sn      2011/04/01 23:42:25.2   0.0                          T                1.0  .22 Ml 2.1         4669158

.
EVENT     257894
    Date      Time       Latitude Longitude    Depth    Ndef Nsta Gap    Mag1  N    Mag2  N    Mag3  N   Author         ID
       rms   OT_Error      Smajor Sminor Az        Err   mdist  Mdist     Err        Err        Err      Quality

2011/04/02 02:02:35.4     43.9217    7.4852      2.0       8    4 298  Ml 1.2  2  Md 1.4  1              js067245    257894

      0.36   +-  0.49       8.9    5.5   47.55 +-  0.0    0.07   1.38   +-0.1      +-                    m i ke

NEAR SOUTH COAST OF FRANCE
Sta     Dist  EvAz     Phase      Date       Time     TRes  Azim  AzRes  Slow  SRes Def   SNR       Amp   Per   Mag1   Mag2       ID
SBF   000.07 211.7 m E Pg      2011/04/02 02:02:37.0  -0.2                          T                                        4669177
SBF   000.07 211.7 m E Sg      2011/04/02 02:02:37.8  -0.6                          T               24.7  .26        Md 1.4  4669178
FRF   000.71 239.6 m E Pg      2011/04/02 02:02:48.8   0.1                          T                                        4669172
FRF   000.71 239.6 m E Sg      2011/04/02 02:02:57.2  -0.8                          T                1.2  .30                4669174
LMR   000.92 230.7 m E Pg      2011/04/02 02:02:52.8   0.1                          T                                        4669175
LMR   000.92 230.7 m E Sn      2011/04/02 02:03:06.9   0.1                          T                 .7  .24 Ml 1.3         4669176
SMRF  001.38 272.9 m E Pg      2011/04/02 02:03:01.0  -0.3                          T                                        4669171
SMRF  001.38 272.9 m E Sg      2011/04/02 02:03:19.6   0.6                          T                 .5  .28 Ml 1.2         4669173

.
EVENT     257890
    Date      Time       Latitude Longitude    Depth    Ndef Nsta Gap    Mag1  N    Mag2  N    Mag3  N   Author         ID
       rms   OT_Error      Smajor Sminor Az        Err   mdist  Mdist     Err        Err        Err      Quality

2011/04/02 03:08:01.4     41.8080    2.8161      7.0 f    16    3 219  Ml 1.3  3                         js067245    257890

      0.28   +-  0.14       2.3    1.1  151.60 +-  0.0    0.10   2.39   +-0.0                            m i ke

SPAIN
Sta     Dist  EvAz     Phase      Date       Time     TRes  Azim  AzRes  Slow  SRes Def   SNR       Amp   Per   Mag1   Mag2       ID
MTLF  001.59 344.1 m E Pg      2011/04/02 03:08:31.1   0.0                          T                                        4669190
MTLF  001.59 344.1 m E Sg      2011/04/02 03:08:51.6  -0.1                          T                 .5  .31 Ml 1.2         4669191
EPF   002.20 304.5 m E Pg      2011/04/02 03:08:42.3  -0.1                          T                                        4669188
EPF   002.20 304.5 m E Sg      2011/04/02 03:09:10.9   0.1                          T                 .1  .10 Ml 1.3         4669189
LASF  002.39 018.3 m E Sg      2011/04/02 03:09:16.6  -0.1                          T                 .2  .25 Ml 1.2         4669187

.
EVENT     257891
    Date      Time       Latitude Longitude    Depth    Ndef Nsta Gap    Mag1  N    Mag2  N    Mag3  N   Author         ID
       rms   OT_Error      Smajor Sminor Az        Err   mdist  Mdist     Err        Err        Err      Quality

2011/04/02 04:52:04.7     42.9323    -.8415      2.0      22    3 090  Ml 1.7  1  Md 1.7  2              js067245    257891

      0.45   +-  0.09       1.9    1.4  148.97 +-  0.0    0.15   0.87   +-         +-0.0                 m i ke

PYRENEES
Sta     Dist  EvAz     Phase      Date       Time     TRes  Azim  AzRes  Slow  SRes Def   SNR       Amp   Per   Mag1   Mag2       ID
ETSF  000.21 099.1 m E Pg      2011/04/02 04:52:08.3  -0.6                          T                                        4669197
ETSF  000.21 099.1 m E Sg      2011/04/02 04:52:11.2  -0.6                          T               18.0  .24        Md 1.6  4669198
SJPF  000.33 302.9 m E Pg      2011/04/02 04:52:10.4  -0.8                          T                                        4669195
SJPF  000.33 302.9 m E Sg      2011/04/02 04:52:16.1   0.5                          T                6.5  .28        Md 1.7  4669196
EPF   000.87 083.2 m E Pg      2011/04/02 04:52:20.0  -1.1                          T                                        4669193
EPF   000.87 083.2 m E Sg      2011/04/02 04:52:33.2   0.7                          T                2.7  .29 Ml 1.7         4669194

.
