EVENT     282296
    Date      Time       Latitude Longitude    Depth    Ndef Nsta Gap    Mag1  N    Mag2  N    Mag3  N   Author         ID
       rms   OT_Error      Smajor Sminor Az        Err   mdist  Mdist     Err        Err        Err      Quality

2012/08/31 01:02:01.5     42.9824   -1.3891      3.0 f    18    3 107  Ml 1.9  1  Md 1.9  2              bulletin    282396
                                                                                                         _ldg
      0.26   +-  0.08       1.7    1.4   51.16 +-  0.0    0.11   1.96   +-         +-0.0                 m i ke

PYRENEES
Sta     Dist  EvAz     Phase      Date       Time     TRes  Azim  AzRes  Slow  SRes Def   SNR       Amp   Per   Mag1   Mag2       ID
SJPF  000.18 042.5 m E Pg      2012/08/31 01:02:05.4   0.1                          T                                        5058269
SJPF  000.18 042.5 m E Sg      2012/08/31 01:02:07.6  -0.1                          T               16.7  .22        Md 1.8  5058266
ETSF  000.62 097.5 m E Pg      2012/08/31 01:02:13.0  -0.3                          T                                        5058268
ETSF  000.62 097.5 m E Sg      2012/08/31 01:02:21.1  -0.3                          T                1.6  .15        Md 1.9  5058264
EPF   001.27 087.2 m E Pg      2012/08/31 01:02:25.0  -0.3                          T                                        5062702
EPF   001.27 087.2 m E Sg      2012/08/31 01:02:42.0   0.3                          T                2.0  .21 Ml 1.9         5058265

.
EVENT     282321
    Date      Time       Latitude Longitude    Depth    Ndef Nsta Gap    Mag1  N    Mag2  N    Mag3  N   Author         ID
       rms   OT_Error      Smajor Sminor Az        Err   mdist  Mdist     Err        Err        Err      Quality

2012/08/31 05:35:13.8     44.3618    2.0784       .0 f    12    6 127  Ml 2.1  4  Md 2.0  4              bulletin    282421
                                                                                                         _ldg
      0.21   +-  0.08       2.1    1.3   73.24 +-  0.0    0.56   2.26   +-0.3      +-0.1                 m i km

FRANCE
Sta     Dist  EvAz     Phase      Date       Time     TRes  Azim  AzRes  Slow  SRes Def   SNR       Amp   Per   Mag1   Mag2       ID
CAF   000.56 359.0 m E Pg      2012/08/31 05:35:24.3  -0.6                          T                                        5058429
CAF   000.56 359.0 m E Sg      2012/08/31 05:35:32.3  -0.1                          T               28.8 1.06        Md 2.1  5058430
RJF   001.02 337.2 m E Pg      2012/08/31 05:35:33.4   0.2                          T                                        5058432
RJF   001.02 337.2 m E Sg      2012/08/31 05:35:46.7   0.0                          T               13.1  .54 Ml 1.9 Md 1.9  5058426
MTLF  001.03 174.3 m E Pg      2012/08/31 05:35:33.5   0.2                          T                                        5058428
MTLF  001.03 174.3 m E Sg      2012/08/31 05:35:46.7  -0.1                          T                                Md 2.0  5058425
LFF   001.12 301.6 m E Pg      2012/08/31 05:35:34.7  -0.2                          T                                        5058431
LFF   001.12 301.6 m E Sg      2012/08/31 05:35:49.5   0.0                          T               14.5  .51 Ml 2.1 Md 2.1  5058427
LASF  001.31 102.0 m E Pn      2012/08/31 05:35:38.8   0.9                          T                                        5058467
LASF  001.31 102.0 m E Sg      2012/08/31 05:35:55.2  -0.5                          T                1.8  .22 Ml 1.9         5058468
BGF   002.26 013.6 m E Pg      2012/08/31 05:35:56.1   0.0                          T                                        5058434
BGF   002.26 013.6 m E Sg      2012/08/31 05:36:25.6   0.3                          T                8.7  .52 Ml 2.5         5058433

.
EVENT     282380
    Date      Time       Latitude Longitude    Depth    Ndef Nsta Gap    Mag1  N    Mag2  N    Mag3  N   Author         ID
       rms   OT_Error      Smajor Sminor Az        Err   mdist  Mdist     Err        Err        Err      Quality

2012/08/31 19:30:14.6     42.3282     .6218      4.0 f    49    7 057  Ml 2.6  6  Md 2.7  2              bulletin    282480
                                                                                                         _ldg
      0.78   +-  0.10       2.0    1.7   12.99 +-  0.0    0.11   3.04   +-0.2      +-0.0                 m i ke

PYRENEES
Sta     Dist  EvAz     Phase      Date       Time     TRes  Azim  AzRes  Slow  SRes Def   SNR       Amp   Per   Mag1   Mag2       ID
EPF   000.73 343.6 m E Pg      2012/08/31 19:30:27.6  -1.0                          T                                        5058988
EPF   000.73 343.6 m E Sg      2012/08/31 19:30:36.3  -1.8                          T               23.2  .20        Md 2.7  5058983
ETSF  001.04 303.6 m E Pg      2012/08/31 19:30:33.6  -0.7                          T                                        5058987
ETSF  001.04 303.6 m E Sg      2012/08/31 19:30:47.5  -0.3                          T               19.6  .30 Ml 2.6 Md 2.7  5059026
MTLF  001.55 048.7 m E Pn      2012/08/31 19:30:43.0   1.7                          T                                        5058986
MTLF  001.55 048.7 m E Sn      2012/08/31 19:31:01.6   0.9                          T                4.8  .24 Ml 2.4         5059024
SJPF  001.57 300.6 m E Pn      2012/08/31 19:30:43.1   1.5                          T                                        5058985
SJPF  001.57 300.6 m E Sn      2012/08/31 19:31:01.3   0.1                          T                9.9  .22 Ml 2.7         5059023
CAF   002.80 021.5 m E Pn      2012/08/31 19:30:59.4   1.0                          T                                        5058984
CAF   002.80 021.5 m E Sn      2012/08/31 19:31:32.0   1.4                          T                6.1  .32 Ml 2.7         5059025
LFF   002.61 001.8 m E Sn      2012/08/31 19:31:26.8   0.8                          T               11.8  .32 Ml 2.7         5059028
RJF   003.04 012.0 m E Sn      2012/08/31 19:31:36.1  -0.3                          T                4.1  .24 Ml 2.3         5059027

.
EVENT     282417
    Date      Time       Latitude Longitude    Depth    Ndef Nsta Gap    Mag1  N    Mag2  N    Mag3  N   Author         ID
       rms   OT_Error      Smajor Sminor Az        Err   mdist  Mdist     Err        Err        Err      Quality

2012/08/31 19:31:52.8     42.0813    2.5876      4.0 f    34    5 069  Ml 1.8  6  Md 2.1  2              bulletin    282517
                                                                                                         _ldg
      0.33   +-  0.06       1.1     .9  147.78 +-  0.0    0.19   2.87   +-0.3      +-0.3                 m i ke

PYRENEES
Sta     Dist  EvAz     Phase      Date       Time     TRes  Azim  AzRes  Slow  SRes Def   SNR       Amp   Per   Mag1   Mag2       ID
MTLF  001.29 347.9 m E Pn      2012/08/31 19:32:15.9   0.0                          T                                        5059750
MTLF  001.29 347.9 m E Pg      2012/08/31 19:32:17.0   0.1                          T                                        5059749
MTLF  001.29 347.9 m E Sn      2012/08/31 19:32:32.9   0.3                          T                 .7  .19 Ml 1.5 Md 1.9  5059748
EPF   001.91 300.5 m E Pn      2012/08/31 19:32:24.5   0.0                          T                                        5059745
EPF   001.91 300.5 m E Sn      2012/08/31 19:32:48.0   0.4                          T                1.6  .23 Ml 2.0         5059744
LASF  002.20 024.6 m E Pn      2012/08/31 19:32:28.4   0.1                          T                                        5059747
LASF  002.20 024.6 m E Sn      2012/08/31 19:32:54.5   0.2                          T                 .3  .20 Ml 1.5 Md 2.2  5059746
ETSF  002.47 290.4 m E Pn      2012/08/31 19:32:32.1   0.1                          T                                        5059743
ETSF  002.47 290.4 m E Pg      2012/08/31 19:32:38.8   0.1                          T                                        5059742
ETSF  002.47 290.4 m E Sn      2012/08/31 19:33:01.3   0.4                          T                1.3  .28 Ml 2.0         5059741
CAF   002.87 352.6 m E Pn      2012/08/31 19:32:37.2  -0.2                          T                                        5059740
CAF   002.87 352.6 m E Sn      2012/08/31 19:33:10.5   0.1                          T                 .2  .15 Ml 1.5         5059739

.
EVENT     282381
    Date      Time       Latitude Longitude    Depth    Ndef Nsta Gap    Mag1  N    Mag2  N    Mag3  N   Author         ID
       rms   OT_Error      Smajor Sminor Az        Err   mdist  Mdist     Err        Err        Err      Quality

2012/08/31 20:32:34.1     42.9162    -.6005      2.0      31    6 086  Ml 1.9  4  Md 2.1  3              bulletin    282481
                                                                                                         _ldg
      0.37   +-  0.06       1.5    1.0   13.08 +-  0.0    0.04   2.78   +-0.2      +-0.0                 m i ke

PYRENEES
Sta     Dist  EvAz     Phase      Date       Time     TRes  Azim  AzRes  Slow  SRes Def   SNR       Amp   Per   Mag1   Mag2       ID
ETSF  000.04 120.1 m E Pg      2012/08/31 20:32:35.2  -0.1                          T                                        5059038
ETSF  000.04 120.1 m E Sg      2012/08/31 20:32:35.9  -0.2                          T              738.1  .22        Md 2.1  5059037
SJPF  000.50 293.5 m E Pg      2012/08/31 20:32:43.6   0.1                          T                                        5059034
SJPF  000.50 293.5 m E Sg      2012/08/31 20:32:50.4   0.2                          T               10.7  .28        Md 2.1  5059033
EPF   000.70 080.3 m E Pg      2012/08/31 20:32:47.1  -0.2                          T                                        5059036
EPF   000.70 080.3 m E Sg      2012/08/31 20:32:56.3  -0.2                          T                4.2  .19        Md 2.0  5059035
MTLF  002.11 077.4 m E Pn      2012/08/31 20:33:08.4  -0.1                          T                                        5059160
MTLF  002.11 077.4 m E Pg      2012/08/31 20:33:13.5   0.3                          T                                        5059159
MTLF  002.11 077.4 m E Sn      2012/08/31 20:33:33.6  -0.2                          T                                        5059158
MTLF  002.11 077.4 m E Sg      2012/08/31 20:33:40.3  -0.1                          T                1.2  .21 Ml 2.0         5059157
LFF   002.24 025.1 m E Pn      2012/08/31 20:33:10.6   0.2                          T                                        5059164
LFF   002.24 025.1 m E Pg      2012/08/31 20:33:15.8   0.1                          T                                        5059163
LFF   002.24 025.1 m E Sn      2012/08/31 20:33:36.9  -0.1                          T                                        5059162
LFF   002.24 025.1 m E Sg      2012/08/31 20:33:44.4  -0.2                          T                1.1  .28 Ml 1.7         5059161
CAF   002.78 042.9 m E Pn      2012/08/31 20:33:18.1   0.3                          T                                        5059167
CAF   002.78 042.9 m E Sn      2012/08/31 20:33:49.5  -0.4                          T                                        5059166
CAF   002.78 042.9 m E Sg      2012/08/31 20:34:01.5   0.0                          T                 .5  .18 Ml 1.8         5059165

.
EVENT     282642
    Date      Time       Latitude Longitude    Depth    Ndef Nsta Gap    Mag1  N    Mag2  N    Mag3  N   Author         ID
       rms   OT_Error      Smajor Sminor Az        Err   mdist  Mdist     Err        Err        Err      Quality

2012/08/31 21:27:41.7     42.0020    2.5720      2.0      12    2 087  Ml 1.6  2                         bulletin    282742
                                                                                                         _ldg
      0.37   +-  0.10       1.9    1.8  152.49 +-  0.0    0.26   1.94   +-0.3                            m i ke

PYRENEES
Sta     Dist  EvAz     Phase      Date       Time     TRes  Azim  AzRes  Slow  SRes Def   SNR       Amp   Per   Mag1   Mag2       ID
MTLF  001.36 349.1 m E Pg      2012/08/31 21:28:07.4   0.2                          T                                        5063354
MTLF  001.36 349.1 m E Sg      2012/08/31 21:28:24.5  -0.4                          T                 .5  .20 Ml 1.4         5063355
EPF   001.94 302.7 m E Pg      2012/08/31 21:28:18.1   0.1                          T                                        5063352
EPF   001.94 302.7 m E Sg      2012/08/31 21:28:42.6  -0.4                          T                1.2  .29 Ml 1.8         5063353

.
EVENT     282382
    Date      Time       Latitude Longitude    Depth    Ndef Nsta Gap    Mag1  N    Mag2  N    Mag3  N   Author         ID
       rms   OT_Error      Smajor Sminor Az        Err   mdist  Mdist     Err        Err        Err      Quality

2012/08/31 22:30:19.2     43.7145   12.0032      2.0      34   10 099  Ml 3.3  9                         bulletin    282482
                                                                                                         _ldg
      0.96   +-  0.18       6.1    2.9   36.84 +-  0.0    0.18   5.83   +-0.2                            m i ke

CENTRAL ITALY
Sta     Dist  EvAz     Phase      Date       Time     TRes  Azim  AzRes  Slow  SRes Def   SNR       Amp   Per   Mag1   Mag2       ID
SBF   003.31 274.1 m E Pn      2012/08/31 22:31:09.4  -0.8                          T                                        5059049
SBF   003.31 274.1 m E Sn      2012/08/31 22:31:47.0  -0.8                          T               35.3  .50 Ml 3.3         5059048
FRF   003.89 269.6 m E Pn      2012/08/31 22:31:17.5  -0.6                          T                                        5059047
FRF   003.89 269.6 m E Sn      2012/08/31 22:31:59.6  -2.0                          T               24.7  .74 Ml 3.2         5059046
MBDF  003.89 286.9 m E Pn      2012/08/31 22:31:18.4   0.1                          T                                        5059041
MBDF  003.89 286.9 m E Sn      2012/08/31 22:32:01.9   0.0                          T               13.7  .46 Ml 3.1         5059040
LMR   004.01 266.5 m E Pn      2012/08/31 22:31:18.7  -1.0                          T                                        5059045
LMR   004.01 266.5 m E Sn      2012/08/31 22:32:03.6  -0.9                          T               88.9 1.44 Ml 3.5         5059044
LPL   004.17 297.4 m E Pn      2012/08/31 22:31:23.5   1.4                          T                                        5059043
LPL   004.17 297.4 m E Sn      2012/08/31 22:32:11.1   2.5                          T                9.5  .44 Ml 3.0         5059042
SMRF  004.66 275.4 m E Pn      2012/08/31 22:31:29.1   0.6                          T                                        5059074
SMRF  004.66 275.4 m E Sn      2012/08/31 22:32:21.4   1.5                          T               96.1 1.46 Ml 3.6         5059073
ORIF  004.56 287.4 m E Pn      2012/08/31 22:31:29.3   2.2                          T                                        5059039
HINF  005.46 320.5 m E Pn      2012/08/31 22:31:39.8   0.4                          T                                        5059051
HINF  005.46 320.5 m E Sn      2012/08/31 22:32:40.7   1.6                          T                8.5  .48 Ml 3.2         5059050
CDF   005.73 326.7 m E Pn      2012/08/31 22:31:43.7   0.5                          T                                        5059055
CDF   005.73 326.7 m E Sn      2012/08/31 22:32:46.2   0.4                          T               17.9  .74 Ml 3.5         5059054
HAU   005.83 319.4 m E Pn      2012/08/31 22:31:45.2   0.8                          T                                        5059053
HAU   005.83 319.4 m E Sn      2012/08/31 22:32:48.5   0.6                          T                9.9  .34 Ml 3.3         5059052

.
EVENT     282384
    Date      Time       Latitude Longitude    Depth    Ndef Nsta Gap    Mag1  N    Mag2  N    Mag3  N   Author         ID
       rms   OT_Error      Smajor Sminor Az        Err   mdist  Mdist     Err        Err        Err      Quality

2012/09/01 00:46:56.4     42.4527     .7096      2.0      38    7 055  Ml 2.2  5  Md 2.1  3              bulletin    282484
                                                                                                         _ldg
      0.44   +-  0.07       1.5    1.2   35.00 +-  0.0    0.14   2.81   +-0.2      +-0.2                 m i ke

PYRENEES
Sta     Dist  EvAz     Phase      Date       Time     TRes  Azim  AzRes  Slow  SRes Def   SNR       Amp   Per   Mag1   Mag2       ID
EPF   000.64 334.9 m E Pg      2012/09/01 00:47:08.5   0.0                          T                                        5059082
EPF   000.64 334.9 m E Sg      2012/09/01 00:47:16.8  -0.1                          T               24.1  .22        Md 1.9  5059077
ETSF  001.04 295.9 m E Pg      2012/09/01 00:47:15.6  -0.3                          T                                        5059081
ETSF  001.04 295.9 m E Sg      2012/09/01 00:47:29.8   0.5                          T                8.0  .22 Ml 2.4 Md 2.1  5059076
MTLF  001.42 050.8 m E Pn      2012/09/01 00:47:21.7   0.2                          T                                        5059080
MTLF  001.42 050.8 m E Pg      2012/09/01 00:47:22.9   0.1                          T                                        5059169
MTLF  001.42 050.8 m E Sn      2012/09/01 00:47:39.4  -0.2                          T                2.5  .26 Ml 2.0 Md 2.2  5059078
SJPF  001.57 295.5 m E Pn      2012/09/01 00:47:23.8   0.3                          T                                        5059079
SJPF  001.57 295.5 m E Pg      2012/09/01 00:47:26.4   0.7                          T                                        5059176
SJPF  001.57 295.5 m E Sn      2012/09/01 00:47:43.6   0.3                          T                4.5  .32 Ml 2.2         5059075
LFF   002.49 000.5 m E Pn      2012/09/01 00:47:35.9  -0.1                          T                                        5059172
LFF   002.49 000.5 m E Pg      2012/09/01 00:47:42.5   0.0                          T                                        5059171
LFF   002.49 000.5 m E Sn      2012/09/01 00:48:04.9  -0.2                          T                3.0  .26 Ml 2.2         5059170
CAF   002.66 021.2 m E Pn      2012/09/01 00:47:38.5   0.1                          T                                        5059175
CAF   002.66 021.2 m E Pg      2012/09/01 00:47:46.1   0.3                          T                                        5059174
CAF   002.66 021.2 m E Sn      2012/09/01 00:48:08.9  -0.4                          T                 .9  .21 Ml 2.0         5059173
LASF  002.81 053.7 m E Pn      2012/09/01 00:47:40.7   0.1                          T                                        5059168

.
