EVENT     260530
    Date      Time       Latitude Longitude    Depth    Ndef Nsta Gap    Mag1  N    Mag2  N    Mag3  N   Author         ID
       rms   OT_Error      Smajor Sminor Az        Err   mdist  Mdist     Err        Err        Err      Quality

2011/06/19 04:28:16.7     43.0034    -.2204      2.0      53    7 096  Ml 2.3  4  Md 2.3  2              js067245    260530

      0.64   +-  0.08       1.8    1.3    3.66 +-  0.0    0.16   2.64   +-0.1      +-0.1                 m i ke

PYRENEES
Sta     Dist  EvAz     Phase      Date       Time     TRes  Azim  AzRes  Slow  SRes Def   SNR       Amp   Per   Mag1   Mag2       ID
ETSF  000.27 247.3 m E Pg      2011/06/19 04:28:22.0  -0.2                          T                                        4710356
ETSF  000.27 247.3 m E Sg      2011/06/19 04:28:24.3  -1.5                          T               58.5  .32        Md 2.3  4710357
EPF   000.41 086.1 m E Pg      2011/06/19 04:28:24.3  -0.4                          T                                        4710354
EPF   000.41 086.1 m E Sg      2011/06/19 04:28:30.3   0.1                          T               28.8  .27        Md 2.2  4710355
SJPF  000.74 278.8 m E Pg      2011/06/19 04:28:30.7  -0.1                          T                                        4710352
SJPF  000.74 278.8 m E Sg      2011/06/19 04:28:41.7   1.2                          T                7.2  .31                4710353
MTLF  001.82 078.5 m E Pn      2011/06/19 04:28:50.5   3.2                          T                                        4710350
MTLF  001.82 078.5 m E Pg      2011/06/19 04:28:51.0   0.4                          T                                        4710349
MTLF  001.82 078.5 m E Sg      2011/06/19 04:29:14.6   0.7                          T                3.2  .25 Ml 2.3         4710351
LFF   002.06 019.4 m E Pg      2011/06/19 04:28:55.1   0.2                          T                                        4710343
LFF   002.06 019.4 m E Sg      2011/06/19 04:29:22.2   0.7                          T                7.9  .34 Ml 2.4         4710347
RJF   002.62 027.9 m E Pn      2011/06/19 04:28:58.6   0.4                          T                                        4710345
RJF   002.62 027.9 m E Pg      2011/06/19 04:29:04.6  -0.7                          T                                        4710344
RJF   002.62 027.9 m E Sg      2011/06/19 04:29:39.0   0.0                          T                1.9  .17 Ml 2.1         4710346
CAF   002.53 039.9 m E Pg      2011/06/19 04:29:02.4  -1.3                          T                                        4710342
CAF   002.53 039.9 m E Sg      2011/06/19 04:29:35.9  -0.5                          T                2.3  .23 Ml 2.3         4710348

.
EVENT     260509
    Date      Time       Latitude Longitude    Depth    Ndef Nsta Gap    Mag1  N    Mag2  N    Mag3  N   Author         ID
       rms   OT_Error      Smajor Sminor Az        Err   mdist  Mdist     Err        Err        Err      Quality

2011/06/19 06:42:46.9     43.8704    7.7958      2.0      27   10 170  Ml 2.5 10  Md 2.1  2              js067245    260509

      1.70   +-  0.22       4.6    3.4   54.27 +-  0.0    0.26   2.45   +-0.4      +-0.1                 m i ke

NEAR SOUTH COAST OF FRANCE
Sta     Dist  EvAz     Phase      Date       Time     TRes  Azim  AzRes  Slow  SRes Def   SNR       Amp   Per   Mag1   Mag2       ID
SBF   000.26 268.5 m E Pg      2011/06/19 06:42:51.5  -0.6                          T                                        4710374
SBF   000.26 268.5 m E Sg      2011/06/19 06:42:55.6  -0.1                          T              139.3  .24        Md 2.0  4710375
FRF   000.89 250.0 m E Pg      2011/06/19 06:43:03.4  -0.2                          T                                        4710363
FRF   000.89 250.0 m E Sg      2011/06/19 06:43:15.1  -0.1                          T               25.6  .20 Ml 2.9         4710369
MBDF  001.13 319.7 m E Pg      2011/06/19 06:43:06.6  -1.6                          T                                        4710372
MBDF  001.13 319.7 m E Sg      2011/06/19 06:43:21.5  -1.4                          T               11.7  .26 Ml 2.5 Md 2.1  4710373
LMR   001.08 240.6 m E Pg      2011/06/19 06:43:07.0   0.0                          T                                        4710362
LMR   001.08 240.6 m E Sg      2011/06/19 06:43:21.3   0.2                          T               22.3  .24 Ml 2.8         4710368
PGF   001.59 145.9 m E Pn      2011/06/19 06:43:14.7   0.3                          T                                        4710366
PGF   001.59 145.9 m E Sn      2011/06/19 06:43:34.1  -0.2                          T                2.4  .25 Ml 2.3         4710367
SMRF  001.61 274.5 m E Pn      2011/06/19 06:43:15.6   0.9                          T                                        4710365
SMRF  001.61 274.5 m E Pg      2011/06/19 06:43:16.8  -0.2                          T                                        4710364
SMRF  001.61 274.5 m E Sg      2011/06/19 06:43:37.7   0.0                          T               43.0  .40 Ml 3.1         4710370
LPG   001.79 335.8 m E Pn      2011/06/19 06:43:17.4   0.0                          T                                        4710380
LPG   001.79 335.8 m E Pg      2011/06/19 06:43:20.5  -0.1                          T                                        4710379
LPG   001.79 335.8 m E Sg      2011/06/19 06:43:43.8   0.2                          T                2.5  .26 Ml 2.1         4710381
ORIF  001.73 308.0 m E P       2011/06/19 06:43:18.3  -0.1                          T                                        4710377
ORIF  001.73 308.0 m E Sg      2011/06/19 06:43:41.6   0.1                          T                3.6  .27 Ml 2.3         4710371
LPL   001.81 335.6 m E P       2011/06/19 06:43:19.6  -0.2                          T                                        4710378
LPL   001.81 335.6 m E Sg      2011/06/19 06:43:44.2  -0.1                          T                2.5  .31 Ml 2.1         4710382
VIVF  002.45 294.8 m E Pn      2011/06/19 06:43:26.3   0.2                          T                                        4710376
VIVF  002.45 294.8 m E Sn      2011/06/19 06:43:54.7  -0.1                          T                                        4710384
VIVF  002.45 294.8 m E Sg      2011/06/19 06:44:03.3  -0.6                          T                3.9  .36 Ml 2.3         4710383

.
EVENT     260560
    Date      Time       Latitude Longitude    Depth    Ndef Nsta Gap    Mag1  N    Mag2  N    Mag3  N   Author         ID
       rms   OT_Error      Smajor Sminor Az        Err   mdist  Mdist     Err        Err        Err      Quality

2011/06/19 12:18:16.1     42.8972   -1.2904      2.0      29    3 070  Ml 1.0  1  Md 1.1  2              js067245    260560

      0.44   +-  0.09       2.0    1.4   57.75 +-  0.0    0.01   1.20   +-         +-0.1                 m i ke

PYRENEES
Sta     Dist  EvAz     Phase      Date       Time     TRes  Azim  AzRes  Slow  SRes Def   SNR       Amp   Per   Mag1   Mag2       ID
SJPF  000.22 012.5 m E Pg      2011/06/19 12:18:20.6   0.0                          T                                        4710389
SJPF  000.22 012.5 m E Sg      2011/06/19 12:18:23.8   0.2                          T                2.0  .27        Md 1.2  4710390
ETSF  000.54 089.6 m E Pg      2011/06/19 12:18:26.5   0.0                          T                                        4710387
ETSF  000.54 089.6 m E Sg      2011/06/19 12:18:33.4  -0.1                          T                 .7  .30        Md 1.0  4710388
EPF   001.20 083.1 m E Pg      2011/06/19 12:18:38.6  -0.1                          T                                        4710385
EPF   001.20 083.1 m E Sg      2011/06/19 12:18:54.2   0.0                          T                 .3  .24 Ml 1           4710386

.
EVENT     260507
    Date      Time       Latitude Longitude    Depth    Ndef Nsta Gap    Mag1  N    Mag2  N    Mag3  N   Author         ID
       rms   OT_Error      Smajor Sminor Az        Err   mdist  Mdist     Err        Err        Err      Quality

2011/06/19 14:35:35.8     44.1449   11.0134     15.0 f   146   33 038  Ml 3.6 25                         js067245    260507

      1.11   +-  0.10       3.0    2.3    8.38 +-  0.0    0.08  23.87   +-0.3                            m i ke

NORTHERN ITALY
Sta     Dist  EvAz     Phase      Date       Time     TRes  Azim  AzRes  Slow  SRes Def   SNR       Amp   Per   Mag1   Mag2       ID
PGF   002.17 223.3 m E Pn      2011/06/19 14:36:08.8  -1.0                          T   001.0                                4708812
PGF   002.17 223.3 m E Sn      2011/06/19 14:36:34.8   0.0                          T               38.5  .26 Ml 3.7         4710405
SBF   002.60 265.0 m E Pn      2011/06/19 14:36:13.2  -2.4                          T                                        4710406
SBF   002.60 265.0 m E P       2011/06/19 14:36:17.7  -0.6                          T   001.0                                4708813
SBF   002.60 265.0 m E Sn      2011/06/19 14:36:43.9  -1.0                          T   001.0      190.5  .36 Ml 4.1         4708814
FRF   003.21 261.0 m E Pn      2011/06/19 14:36:21.6  -2.3                          T                                        4710408
FRF   003.21 261.0 m E P       2011/06/19 14:36:26.4  -0.6                          T   001.0                                4708804
FRF   003.21 261.0 m E Sn      2011/06/19 14:36:58.6  -1.0                          T               76.6  .36 Ml 3.8         4710403
MBDF  003.09 282.3 m E Pn      2011/06/19 14:36:22.5   0.1                          T   001.0                                4708824
MBDF  003.09 282.3 m E Sn      2011/06/19 14:36:57.1   0.2                          T              177.8  .78 Ml 3.8         4710399
LMR   003.36 257.6 m E Pn      2011/06/19 14:36:24.3  -1.6                          T                                        4710407
LMR   003.36 257.6 m E P       2011/06/19 14:36:28.5  -0.6                          T   001.0                                4708807
LMR   003.36 257.6 m E Sn      2011/06/19 14:37:02.0  -1.2                          T              111.3  .38 Ml 4.0         4710404
LPG   003.32 295.5 m E Pn      2011/06/19 14:36:25.4  -0.3                          T   001.0                                4708810
LPG   003.32 295.5 m E Sn      2011/06/19 14:37:02.9   0.3                          T              111.8  .72 Ml 3.7         4710402
LPL   003.34 295.7 m E Pn      2011/06/19 14:36:25.9   0.0                          T   001.0                                4708811
LPL   003.34 295.7 m E Sn      2011/06/19 14:37:03.2   0.3                          T               61.7  .46 Ml 3.6         4710401
ORIF  003.75 283.7 m E Pn      2011/06/19 14:36:32.2   0.9                          T   001.0                                4708829
ORIF  003.75 283.7 m E Sn      2011/06/19 14:37:12.9   0.3                          T               50.7  .48 Ml 3.6         4710400
SMRF  003.92 269.4 m E Pn      2011/06/19 14:36:33.9   0.3                          T   001.0                                4708832
SMRF  003.92 269.4 m E Sn      2011/06/19 14:37:16.1  -0.5                          T   001.0       24.9  .40 Ml 3.4         4708833
CABF  004.26 307.1 m E Pn      2011/06/19 14:36:39.0   0.8                          T   001.0                                4708820
CABF  004.26 307.1 m E Sn      2011/06/19 14:37:25.1   0.4                          T   001.0       48.2  .64 Ml 3.6         4708821
VIVF  004.59 281.1 m E Pn      2011/06/19 14:36:42.3  -0.4                          T   001.0                                4708830
VIVF  004.59 281.1 m E Sn      2011/06/19 14:37:33.0   0.5                          T   001.0       16.6  .52 Ml 3.3         4708831
HINF  004.68 323.2 m E Pn      2011/06/19 14:36:43.9   0.0                          T   001.0                                4708822
HINF  004.68 323.2 m E Sn      2011/06/19 14:37:35.7   1.0                          T   001.0       69.2  .48 Ml 4.0         4708823
CDF   004.99 330.1 m E Pn      2011/06/19 14:36:48.2  -0.1                          T   001.0                                4708802
CDF   004.99 330.1 m E Sn      2011/06/19 14:37:42.4   0.1                          T   001.0       29.9  .40 Ml 3.9         4708803
HAU   005.04 321.6 m E Pn      2011/06/19 14:36:49.0   0.1                          T   001.0                                4708805
HAU   005.04 321.6 m E Sn      2011/06/19 14:37:44.3   0.9                          T              139.8  .42 Ml 4.2         4710396
LASF  005.15 271.7 m E Pn      2011/06/19 14:36:49.6  -0.7                          T   001.0                                4708806
LASF  005.15 271.7 m E Sn      2011/06/19 14:37:44.5  -1.5                          T                4.6  .35 Ml 3.0         4710398
LANF  005.32 336.6 m E Pn      2011/06/19 14:36:53.2   0.7                          T                                        4710416
SMF   005.64 298.8 m E Pn      2011/06/19 14:36:57.0   0.1                          T   001.0                                4708815
SMF   005.64 298.8 m E Sn      2011/06/19 14:37:56.7  -0.8                          T   001.0       21.3  .48 Ml 3.7         4708816
PAGF  005.73 322.2 m E Pn      2011/06/19 14:36:58.4   0.2                          T                                        4710415
PAGF  005.73 322.2 m E Sn      2011/06/19 14:37:59.7  -0.1                          T                6.7  .50 Ml 3.2         4710395
SFTF  005.80 316.5 m E Pn      2011/06/19 14:36:59.6   0.4 132.8  0.6               T                                        4710414
LOR   005.90 304.4 m E Pn      2011/06/19 14:37:00.6   0.1 117.5  -1.8              T   001.0                                4708808
LOR   005.90 304.4 m E Sn      2011/06/19 14:38:05.0   1.1                          T   001.0       25.2  .32 Ml 4.0         4708809
AVF   006.00 298.8 m E Pn      2011/06/19 14:37:01.5  -0.3                          T   001.0                                4708798
AVF   006.00 298.8 m E Sn      2011/06/19 14:38:05.8  -0.4                          T                8.7  .43 Ml 3.4         4710397
SSF   006.02 301.6 m E Pn      2011/06/19 14:37:02.1   0.0                          T                                        4710419
SSF   006.02 301.6 m E Sn      2011/06/19 14:38:07.3   0.6                          T   001.0       13.8  .48 Ml 3.6         4708817
MEZF  006.00 318.6 m E Pn      2011/06/19 14:37:02.5   0.6 138.3  3.9               T   001.0                                4708825
MEZF  006.00 318.6 m E Sn      2011/06/19 14:38:06.7   0.5                          T   001.0       20.3  .48 Ml 3.7         4708826
RUP   006.18 335.4 m E Pn      2011/06/19 14:37:05.1   0.7                          T                                        4710417
BGF   006.24 295.6 m E Pn      2011/06/19 14:37:05.5   0.4                          T   001.0                                4708799
BGF   006.24 295.6 m E Sn      2011/06/19 14:38:12.1   0.2                          T   001.0       24.5  .40 Ml 3.9         4708800
MTLF  006.42 265.9 m E Pn      2011/06/19 14:37:06.6  -1.0                          T   001.0                                4708827
MTLF  006.42 265.9 m E Sn      2011/06/19 14:38:16.3   0.0                          T   001.0        4.7  .48 Ml 3.2         4708828
CAF   006.44 280.1 m E Pn      2011/06/19 14:37:08.4   0.4                          T   001.0                                4708801
TCF   006.58 292.1 m E Pn      2011/06/19 14:37:10.2   0.5                          T                                        4710418
TCF   006.58 292.1 m E Sn      2011/06/19 14:38:20.5   0.5                          T                9.2  .57 Ml 3.4         4710394
RJF   006.86 283.0 m E Pn      2011/06/19 14:37:14.4   0.8                          T                                        4710411
BAIF  007.52 324.3 m E Pn      2011/06/19 14:37:21.6  -0.9                          T   001.0                                4708818
BAIF  007.52 324.3 m E Sn      2011/06/19 14:38:44.9   2.4                          T   001.0       10.6  .72 Ml 3.5         4708819
EPF   007.83 265.5 m E Pn      2011/06/19 14:37:27.5   0.7                          T                                        4710409
MFF   008.23 291.3 m E Pn      2011/06/19 14:37:32.8   0.6                          T                                        4710412
ETSF  008.50 265.6 m E P       2011/06/19 14:37:41.6   0.0                          T                                        4710410

.
EVENT     260559
    Date      Time       Latitude Longitude    Depth    Ndef Nsta Gap    Mag1  N    Mag2  N    Mag3  N   Author         ID
       rms   OT_Error      Smajor Sminor Az        Err   mdist  Mdist     Err        Err        Err      Quality

2011/06/19 16:48:28.4     42.8439   -1.1551      2.0      30    3 090  Ml 1.4  1  Md 1.5  2              js067245    260559

      0.38   +-  0.08       1.5    1.2   34.36 +-  0.0    0.06   1.11   +-         +-0.1                 m i ke

PYRENEES
Sta     Dist  EvAz     Phase      Date       Time     TRes  Azim  AzRes  Slow  SRes Def   SNR       Amp   Per   Mag1   Mag2       ID
SJPF  000.27 349.2 m E Pg      2011/06/19 16:48:34.1   0.2                          T                                        4710424
SJPF  000.27 349.2 m E Sg      2011/06/19 16:48:37.0  -0.5                          T                4.1  .33        Md 1.5  4710425
ETSF  000.44 082.7 m E Pg      2011/06/19 16:48:36.8  -0.2                          T                                        4710422
ETSF  000.44 082.7 m E Sg      2011/06/19 16:48:42.6  -0.2                          T                1.5  .27        Md 1.4  4710423
EPF   001.11 079.9 m E Pg      2011/06/19 16:48:49.3  -0.1                          T                                        4710420
EPF   001.11 079.9 m E Sg      2011/06/19 16:49:03.7  -0.1                          T                 .6  .19 Ml 1.4         4710421

.
