EVENT     282401
    Date      Time       Latitude Longitude    Depth    Ndef Nsta Gap    Mag1  N    Mag2  N    Mag3  N   Author         ID
       rms   OT_Error      Smajor Sminor Az        Err   mdist  Mdist     Err        Err        Err      Quality

2012/09/03 04:55:30.9     47.1149   -4.2518      3.0 f    26    7 289  Ml 2.1  8  Md 2.2  2              bulletin    282501
                                                                                                         _ldg
      0.20   +-  0.12       2.0    1.6   81.08 +-  0.0    1.09   3.15   +-0.2      +-0.1                 m i ke

FRANCE
Sta     Dist  EvAz     Phase      Date       Time     TRes  Azim  AzRes  Slow  SRes Def   SNR       Amp   Per   Mag1   Mag2       ID
QUIF  001.09 042.1 m E Pn      2012/09/03 04:55:51.2  -0.1                          T                                        5059916
QUIF  001.09 042.1 m E Pg      2012/09/03 04:55:51.5   0.3                          T                                        5059705
QUIF  001.09 042.1 m E Sg      2012/09/03 04:56:05.4   0.1                          T                7.5  .20 Ml 2.4 Md 2.2  5059704
ROSF  001.39 028.0 m E Pn      2012/09/03 04:55:55.6   0.1                          T                                        5059698
ROSF  001.39 028.0 m E Pg      2012/09/03 04:55:56.8   0.0                          T                                        5059701
ROSF  001.39 028.0 m E Sn      2012/09/03 04:56:13.2  -0.1                          T                                        5059699
ROSF  001.39 028.0 m E Sg      2012/09/03 04:56:14.9   0.1                          T                3.7  .19 Ml 2.3 Md 2.1  5059700
SGMF  001.62 044.5 m E Pn      2012/09/03 04:55:58.7   0.2                          T                                        5059914
SGMF  001.62 044.5 m E Pg      2012/09/03 04:56:00.6  -0.4                          T                                        5059703
SGMF  001.62 044.5 m E Sn      2012/09/03 04:56:18.2  -0.4                          T                                        5059915
SGMF  001.62 044.5 m E Sg      2012/09/03 04:56:22.0   0.2                          T                1.5  .19 Ml 2.0         5059702
GRR   002.62 059.7 m E Pn      2012/09/03 04:56:12.1  -0.1                          T                                        5059694
GRR   002.62 059.7 m E Pg      2012/09/03 04:56:19.5   0.0                          T                                        5059693
GRR   002.62 059.7 m E Sn      2012/09/03 04:56:43.0   0.3                          T                                        5059692
GRR   002.62 059.7 m E Sg      2012/09/03 04:56:53.3   0.1                          T                 .9  .20 Ml 1.9         5059691
MFF   002.86 098.8 m E Pn      2012/09/03 04:56:15.6   0.0                          T                                        5059697
MFF   002.86 098.8 m E Sn      2012/09/03 04:56:48.4  -0.1                          T                                        5059696
MFF   002.86 098.8 m E Sg      2012/09/03 04:57:00.5  -0.3                          T                 .9  .23 Ml 2.2         5059695
FLN   003.02 055.6 m E Pn      2012/09/03 04:56:17.8   0.0                          T                                        5059688
FLN   003.02 055.6 m E Sn      2012/09/03 04:56:52.5   0.2                          T                                        5059687
FLN   003.02 055.6 m E Sg      2012/09/03 04:57:05.9   0.2                          T                1.3  .21 Ml 2.1         5059913
LDF   003.15 060.5 m E Pn      2012/09/03 04:56:19.6   0.1                          T                                        5059686
LDF   003.15 060.5 m E Sn      2012/09/03 04:56:55.2  -0.1                          T                                        5059685
LDF   003.15 060.5 m E Sg      2012/09/03 04:57:09.8   0.1                          T                1.3  .29 Ml 2.1         5059684

.
EVENT     282402
    Date      Time       Latitude Longitude    Depth    Ndef Nsta Gap    Mag1  N    Mag2  N    Mag3  N   Author         ID
       rms   OT_Error      Smajor Sminor Az        Err   mdist  Mdist     Err        Err        Err      Quality

2012/09/03 05:29:33.7     42.8985    -.9251      2.0       6    3 224  Ml 1.6  1  Md 1.5  2              bulletin    282502
                                                                                                         _ldg
      0.10   +-  0.13       5.1     .7   19.61 +-  0.0    0.27   0.94   +-         +-0.0                 m i ke

PYRENEES
Sta     Dist  EvAz     Phase      Date       Time     TRes  Azim  AzRes  Slow  SRes Def   SNR       Amp   Per   Mag1   Mag2       ID
ETSF  000.27 089.9 m E Pg      2012/09/03 05:29:38.9  -0.1                          T                                        5059719
ETSF  000.27 089.9 m E Sg      2012/09/03 05:29:42.7   0.0                          T               13.9  .46        Md 1.5  5059718
SJPF  000.31 314.4 m E Pg      2012/09/03 05:29:39.6  -0.1                          T                                        5059721
SJPF  000.31 314.4 m E Sg      2012/09/03 05:29:43.6  -0.2                          T               10.8  .28        Md 1.6  5059720
EPF   000.94 081.5 m E Pg      2012/09/03 05:29:51.3   0.0                          T                                        5059717
EPF   000.94 081.5 m E Sg      2012/09/03 05:30:03.4  -0.1                          T                2.3  .38 Ml 1.6         5059716

.
EVENT     282728
    Date      Time       Latitude Longitude    Depth    Ndef Nsta Gap    Mag1  N    Mag2  N    Mag3  N   Author         ID
       rms   OT_Error      Smajor Sminor Az        Err   mdist  Mdist     Err        Err        Err      Quality

2012/09/03 08:59:03.3     47.6781    5.9961       .0 f    20    9 100  Ml 2.3  6  Md 2.3  2              bulletin    282828
                                                                                                         _ldg
      0.56   +-  0.10       2.0    1.6  142.39 +-  0.0    0.40   1.51   +-0.1      +-0.0                 m i km

FRANCE
Sta     Dist  EvAz     Phase      Date       Time     TRes  Azim  AzRes  Slow  SRes Def   SNR       Amp   Per   Mag1   Mag2       ID
HAU   000.40 035.8 m E Pg      2012/09/03 08:59:10.7  -0.6                          T                                        5059962
HAU   000.40 035.8 m E Sg      2012/09/03 08:59:16.5  -0.5                          T               46.9  .74        Md 2.3  5059956
THEF  000.55 359.8 m E Pg      2012/09/03 08:59:13.6  -0.5                          T                                        5063524
THEF  000.55 359.8 m E Sg      2012/09/03 08:59:21.4  -0.1                          T              132.7  .93        Md 2.3  5063525
HINF  000.59 076.2 m E Pg      2012/09/03 08:59:15.3   0.4                          T                                        5059961
HINF  000.59 076.2 m E Sg      2012/09/03 08:59:23.7   0.8                          T                7.0  .20                5059955
SFTF  000.83 309.7 m E Pg      2012/09/03 08:59:19.3   0.1 129.7  0.8               T                                        5059959
SFTF  000.83 309.7 m E Sg      2012/09/03 08:59:30.3   0.0                          T                8.0  .19                5059957
PAGF  000.90 348.4 m E Pg      2012/09/03 08:59:20.7   0.3 163.6  -4.6              T                                        5059958
PAGF  000.90 348.4 m E Sg      2012/09/03 08:59:32.5   0.3                          T               17.3  .40 Ml 2.4         5059951
MEZF  001.04 322.8 m E Pg      2012/09/03 08:59:23.4   0.4                          T                                        5059950
MEZF  001.04 322.8 m E Sg      2012/09/03 08:59:37.0   0.3                          T               25.6  .56 Ml 2.5         5059949
CABF  001.07 176.6 m E Pg      2012/09/03 08:59:23.6  -0.1                          T                                        5059960
CABF  001.07 176.6 m E Sg      2012/09/03 08:59:38.1   0.3                          T                7.0  .25 Ml 2.3         5059954
CDF   001.13 049.0 m E Pg      2012/09/03 08:59:24.6  -0.2                          T                                        5059953
CDF   001.13 049.0 m E Sg      2012/09/03 08:59:40.3   0.7                          T                5.8  .33 Ml 2.2         5059952
LOR   001.51 255.0 m E Pn      2012/09/03 08:59:30.3   0.2  75.8  2.4               T                                        5059948
LOR   001.51 255.0 m E Sg      2012/09/03 08:59:50.9  -0.5                          T                6.4  .40 Ml 2.3         5059947

.
EVENT     282479
    Date      Time       Latitude Longitude    Depth    Ndef Nsta Gap    Mag1  N    Mag2  N    Mag3  N   Author         ID
       rms   OT_Error      Smajor Sminor Az        Err   mdist  Mdist     Err        Err        Err      Quality

2012/09/03 11:01:22.7     46.2266   13.5297      2.0      75    9 059  Ml 2.8  8                         bulletin    282579
                                                                                                         _ldg
      0.80   +-  0.09       2.7    1.6   15.71 +-  0.0    0.02   7.05   +-0.2                            m i ke

AUSTRIA
Sta     Dist  EvAz     Phase      Date       Time     TRes  Azim  AzRes  Slow  SRes Def   SNR       Amp   Per   Mag1   Mag2       ID
CDF   004.78 299.5 m E Pn      2012/09/03 11:02:33.8   0.1                          T                                        5060025
CDF   004.78 299.5 m E Sn      2012/09/03 11:03:27.3   0.9                          T                2.0  .34 Ml 2.7         5060013
LPG   004.79 263.7 m E Pn      2012/09/03 11:02:34.5   0.4                          T                                        5060024
LPG   004.79 263.7 m E Pg      2012/09/03 11:02:52.3   0.7                          T                                        5060023
LPG   004.79 263.7 m E Sn      2012/09/03 11:03:26.2  -0.7                          T                1.7  .20 Ml 2.7         5060022
LPL   004.80 263.9 m E Pn      2012/09/03 11:02:34.7   0.5                          T                                        5060021
LPL   004.80 263.9 m E Pg      2012/09/03 11:02:52.3   0.5                          T                                        5060020
LPL   004.80 263.9 m E Sn      2012/09/03 11:03:28.0   1.0                          T                1.1  .23 Ml 2.5         5060019
SBF   004.92 243.5 m E Pn      2012/09/03 11:02:36.2   0.6                          T                                        5060007
SBF   004.92 243.5 m E Sn      2012/09/03 11:03:30.4   0.7                          T                7.0  .41 Ml 3.1         5060006
MBDF  004.98 254.9 m E Pn      2012/09/03 11:02:36.8   0.2                          T                                        5060018
MBDF  004.98 254.9 m E Sn      2012/09/03 11:03:32.7   1.4                          T                1.5  .21 Ml 2.7         5060017
ORIF  005.53 259.1 m E Pn      2012/09/03 11:02:44.1   0.3                          T                                        5060012
ORIF  005.53 259.1 m E Sn      2012/09/03 11:03:45.0   0.8                          T                3.4  .46 Ml 2.9         5060011
FRF   005.57 243.9 m E Pn      2012/09/03 11:02:44.5   0.2                          T                                        5060009
FRF   005.57 243.9 m E Sn      2012/09/03 11:03:46.2   1.1                          T                3.2  .30 Ml 3.1         5060008
SFTF  006.11 292.0 m E Pn      2012/09/03 11:02:52.1   0.3                          T                                        5060014
AVF   007.05 278.3 m E Pn      2012/09/03 11:03:05.1   0.7                          T                                        5060016
AVF   007.05 278.3 m E Sn      2012/09/03 11:04:21.0   0.6                          T                1.3  .52 Ml 2.7         5060015

.
EVENT     282481
    Date      Time       Latitude Longitude    Depth    Ndef Nsta Gap    Mag1  N    Mag2  N    Mag3  N   Author         ID
       rms   OT_Error      Smajor Sminor Az        Err   mdist  Mdist     Err        Err        Err      Quality

2012/09/03 14:20:42.2     47.5317    6.1274       .0 f    11    6 122  Ml 2.1  5  Md 2.2  2              bulletin    282581
                                                                                                         _ldg
      2.20   +-  0.22       5.9    3.6  125.87 +-  0.0    0.50   1.56   +-0.2      +-0.1                 m i km

FRANCE
Sta     Dist  EvAz     Phase      Date       Time     TRes  Azim  AzRes  Slow  SRes Def   SNR       Amp   Per   Mag1   Mag2       ID
HAU   000.50 017.4 m E Pg      2012/09/03 14:20:52.1   0.1                          T                                        5060248
HAU   000.50 017.4 m E Sg      2012/09/03 14:20:58.3  -0.4                          T               31.4  .98        Md 2.2  5060247
HINF  000.57 059.6 m E Pg      2012/09/03 14:20:53.5   0.2                          T                                        5060265
HINF  000.57 059.6 m E Sg      2012/09/03 14:21:00.5  -0.4                          T               23.5  .88                5060264
CABF  000.92 181.7 m E Pg      2012/09/03 14:21:00.0   0.1                          T                                        5060249
CABF  000.92 181.7 m E Sg      2012/09/03 14:21:12.4   0.4                          T               13.2  .64 Ml 2.1 Md 2.1  5060246
CDF   001.17 040.8 m E Pn      2012/09/03 14:21:04.5   0.0                          T                                        5060263
CDF   001.17 040.8 m E Sg      2012/09/03 14:21:19.1  -0.7                          T                4.8  .36 Ml 2.1         5060262
LOR   001.56 261.1 m E Pg      2012/09/03 14:21:11.4  -0.2  89.7  10.3              T                3.0  .48 Ml 1.9         5060245
LOR   001.56 261.1 m E Sg      2012/09/03 14:21:31.9  -0.1 103.2  23.7              T                5.2  .30 Ml 2.3         5060244
PAGF  001.06 345.4 m E Sg      2012/09/03 14:21:16.6   0.4                          T               16.4  .53 Ml 2.3         5063681

.
EVENT     282483
    Date      Time       Latitude Longitude    Depth    Ndef Nsta Gap    Mag1  N    Mag2  N    Mag3  N   Author         ID
       rms   OT_Error      Smajor Sminor Az        Err   mdist  Mdist     Err        Err        Err      Quality

2012/09/03 16:12:04.1     48.1711   -2.6019       .0 f    16    7 103  Ml 2.4  4  Md 2.5  3              bulletin    282583
                                                                                                         _ldg
      2.91   +-  0.28       6.9    4.3  175.10 +-  0.0    0.09   2.29   +-0.2      +-0.1                 m i km

FRANCE
Sta     Dist  EvAz     Phase      Date       Time     TRes  Azim  AzRes  Slow  SRes Def   SNR       Amp   Per   Mag1   Mag2       ID
SGMF  000.09 019.9 m E Pg      2012/09/03 16:12:06.3   0.1                          T                                Md 2.4  5060290
SGMF  000.09 019.9 m E Sg      2012/09/03 16:12:07.9   0.1                          T               60.4  .18                5060291
ROSF  000.48 290.5 m E Pg      2012/09/03 16:12:13.2  -0.2                          T                                        5060289
ROSF  000.48 290.5 m E Sg      2012/09/03 16:12:19.7  -0.3                          T                9.7  .20        Md 2.4  5060282
QUIF  000.46 236.3 m E Pg      2012/09/03 16:12:13.8   0.8                          T                                        5060288
QUIF  000.46 236.3 m E Sg      2012/09/03 16:12:20.0   0.7                          T               12.8  .18        Md 2.5  5060283
GRR   001.18 078.8 m E Pg      2012/09/03 16:12:26.4   0.0                          T                                        5060287
GRR   001.18 078.8 m E Sg      2012/09/03 16:12:41.9  -0.1                          T               11.7  .16 Ml 2.6         5060281
FLN   001.53 066.5 m E Pg      2012/09/03 16:12:32.4  -0.5 263.4  15.4              T                                        5060285
FLN   001.53 066.5 m E Sn      2012/09/03 16:12:50.4  -0.3                          T                5.0  .21 Ml 2.3         5060284
LDF   001.71 074.7 m E Pg      2012/09/03 16:12:36.1   0.0                          T                                        5060286
LDF   001.71 074.7 m E Sg      2012/09/03 16:12:57.3  -1.0                          T                5.5  .21 Ml 2.5         5060280
MFF   002.29 132.3 m E Pg      2012/09/03 16:12:47.2   0.4                          T                                        5060293
MFF   002.29 132.3 m E Sg      2012/09/03 16:13:16.8   0.3                          T                1.3  .18 Ml 2.3         5060292

.
EVENT     282485
    Date      Time       Latitude Longitude    Depth    Ndef Nsta Gap    Mag1  N    Mag2  N    Mag3  N   Author         ID
       rms   OT_Error      Smajor Sminor Az        Err   mdist  Mdist     Err        Err        Err      Quality

2012/09/03 21:41:30.1     43.0835   -1.2786      2.0      12    3 122  Ml 0.7  1  Md 1.3  2              bulletin    282585
                                                                                                         _ldg
      0.40   +-  0.13       3.2    2.3   17.72 +-  0.0    0.05   1.19   +-         +-0.0                 m i ke

PYRENEES
Sta     Dist  EvAz     Phase      Date       Time     TRes  Azim  AzRes  Slow  SRes Def   SNR       Amp   Per   Mag1   Mag2       ID
SJPF  000.05 052.8 m E Pg      2012/09/03 21:41:31.8   0.4                          T                                        5060325
SJPF  000.05 052.8 m E Sg      2012/09/03 21:41:33.3   0.9                          T                5.8  .14        Md 1.4  5060324
ETSF  000.56 109.0 m E Pg      2012/09/03 21:41:40.1  -0.7                          T                                        5060323
ETSF  000.56 109.0 m E Sg      2012/09/03 21:41:47.4  -0.8                          T                 .5  .16        Md 1.3  5060322
EPF   001.19 092.0 m E Pg      2012/09/03 21:41:51.9  -0.4                          T                                        5060327
EPF   001.19 092.0 m E Sg      2012/09/03 21:42:07.6  -0.1                          T                 .1  .20 Ml  .7         5060326

.
