EVENT     256141
    Date      Time       Latitude Longitude    Depth    Ndef Nsta Gap    Mag1  N    Mag2  N    Mag3  N   Author         ID
       rms   OT_Error      Smajor Sminor Az        Err   mdist  Mdist     Err        Err        Err      Quality

2011/02/18 12:00:25.4     44.5158    5.1888      3.0 f    48   20 093  Ml 2.2 19  Md 1.9  4              js067245    256161

      0.21   +-  0.03        .6     .4   19.40 +-  0.0    0.50   3.20   +-0.2      +-0.1                 m i ke

FRANCE
Sta     Dist  EvAz     Phase      Date       Time     TRes  Azim  AzRes  Slow  SRes Def   SNR       Amp   Per   Mag1   Mag2       ID
VIVF  000.50 312.9 m E Pg      2011/02/18 12:00:35.1   0.1                          T                                        4653874
VIVF  000.50 312.9 m E Pn      2011/02/18 12:00:36.6  -0.2                          T                                        4653876
VIVF  000.50 312.9 m E Sg      2011/02/18 12:00:41.5  -0.1                          T                                        4651364
VIVF  000.50 312.9 m E Sn      2011/02/18 12:00:44.5  -0.2                          T               21.9  .32        Md 1.9  4651359
ORIF  000.64 050.5 m E Pg      2011/02/18 12:00:37.6   0.0                          T                                        4651362
ORIF  000.64 050.5 m E Sg      2011/02/18 12:00:45.8   0.0                          T                7.4  .26        Md 1.8  4651358
SMRF  000.61 152.6 m E P       2011/02/18 12:00:38.3   0.1                          T                                        4653875
SMRF  000.61 152.6 m E Pn      2011/02/18 12:00:39.4   0.0                          T                                        4651361
SMRF  000.61 152.6 m E Sg      2011/02/18 12:00:45.0   0.1                          T                9.9  .55        Md 1.8  4651357
LASF  001.05 245.8 m E Pg      2011/02/18 12:00:45.2   0.1                          T                                        4651363
LASF  001.05 245.8 m E Sg      2011/02/18 12:00:58.9   0.1                          T                7.1  .39 Ml 2.1 Md 2.0  4651355
MBDF  001.15 078.9 m E Pg      2011/02/18 12:00:47.0   0.0                          T                                        4651377
MBDF  001.15 078.9 m E Sg      2011/02/18 12:01:02.1   0.1                          T                6.6  .50 Ml 2.0         4651369
LPL   001.48 047.0 m E Pg      2011/02/18 12:00:53.3   0.0                          T                                        4651376
LPL   001.48 047.0 m E Sg      2011/02/18 12:01:12.5   0.1                          T                1.8  .31 Ml 1.8         4651370
LPG   001.48 047.9 m E Pg      2011/02/18 12:00:53.4   0.1                          T                                        4651375
LPG   001.48 047.9 m E Sg      2011/02/18 12:01:12.5   0.0                          T                3.5  .43 Ml 1.9         4651371
LMR   001.52 140.6 m E Pg      2011/02/18 12:00:53.4  -0.2                          T                                        4651360
LMR   001.52 140.6 m E Sg      2011/02/18 12:01:13.3   0.0                          T                5.0  .38 Ml 2.2         4651356
SBF   001.74 111.2 m E Pg      2011/02/18 12:00:57.9   0.0                          T                                        4651374
SBF   001.74 111.2 m E Sg      2011/02/18 12:01:20.4   0.1                          T                9.2  .32 Ml 2.6         4651373
CABF  002.19 016.4 m E Pn      2011/02/18 12:01:00.6  -0.3                          T                                        4651393
CABF  002.19 016.4 m E Sg      2011/02/18 12:01:34.2  -0.1                          T                1.4  .25 Ml 2.0         4651386
CAF   002.26 281.5 m E Pn      2011/02/18 12:01:02.2   0.3                          T                                        4651353
CAF   002.26 281.5 m E Pg      2011/02/18 12:01:07.4  -0.1                          T                                        4651378
CAF   002.26 281.5 m E Sg      2011/02/18 12:01:36.4  -0.3                          T                6.1  .53 Ml 2.3         4651354
SMF   002.33 336.5 m E Pn      2011/02/18 12:01:02.8   0.0                          T                                        4651395
SMF   002.33 336.5 m E Sg      2011/02/18 12:01:38.5  -0.1                          T                4.6  .48 Ml 2.3         4651384
AVF   002.61 331.1 m E Pn      2011/02/18 12:01:06.8   0.2                          T                                        4651394
AVF   002.61 331.1 m E Sg      2011/02/18 12:01:47.1  -0.3                          T                2.9  .48 Ml 2.1         4651385
BGF   002.62 322.0 m E Pn      2011/02/18 12:01:06.9   0.1                          T                                        4651396
BGF   002.62 322.0 m E Sg      2011/02/18 12:01:47.4  -0.3                          T               12.8  .60 Ml 2.7         4651383
TCF   002.75 311.2 m E Pn      2011/02/18 12:01:08.1  -0.4                          T                                        4651390
TCF   002.75 311.2 m E Sn      2011/02/18 12:01:40.2   0.0                          T                  1  .34 Ml 1.9         4651387
RJF   002.73 288.1 m E Pn      2011/02/18 12:01:08.2   0.1                          T                                        4651379
RJF   002.73 288.1 m E Pg      2011/02/18 12:01:15.8  -0.1                          T                                        4651352
RJF   002.73 288.1 m E Sg      2011/02/18 12:01:50.4  -0.5                          T                2.2  .37 Ml 1.8         4651351
SSF   002.81 335.8 m E Pn      2011/02/18 12:01:09.2   0.0                          T                                        4651392
SSF   002.81 335.8 m E Sn      2011/02/18 12:01:41.6   0.0                          T                2.5  .46 Ml 2.2         4651388
FRF   001.42 131.7 m E Sg      2011/02/18 12:01:10.3   0.1                          T                3.9  .31 Ml 2.1         4651372
LOR   002.91 341.8 m E Pn      2011/02/18 12:01:10.5  -0.1                          T                                        4651391
LOR   002.91 341.8 m E Sn      2011/02/18 12:01:44.0   0.0                          T                1.6  .27 Ml 2.2         4651389
LFF   003.20 279.2 m E Pn      2011/02/18 12:01:14.7   0.1                          T                                        4651380
LFF   003.20 279.2 m E Sg      2011/02/18 12:02:05.5  -0.2                          T                4.1  .49 Ml 2.2         4651381

.
EVENT     256159
    Date      Time       Latitude Longitude    Depth    Ndef Nsta Gap    Mag1  N    Mag2  N    Mag3  N   Author         ID
       rms   OT_Error      Smajor Sminor Az        Err   mdist  Mdist     Err        Err        Err      Quality

2011/02/18 15:43:42.6     43.4302    6.8305       .0 f    10    5 202  Ml 1.4  2  Md 1.4  2              js067245    256179

      0.24   +-  0.14       2.9    1.8  147.52 +-  0.0    0.19   1.30   +-0.4      +-0.0                 m i km

NEAR SOUTH COAST OF FRANCE
Sta     Dist  EvAz     Phase      Date       Time     TRes  Azim  AzRes  Slow  SRes Def   SNR       Amp   Per   Mag1   Mag2       ID
FRF   000.19 314.4 m E Pg      2011/02/18 15:43:46.8   0.2                          T                                        4651471
FRF   000.19 314.4 m E Sg      2011/02/18 15:43:49.2  -0.2                          T               10.6  .26        Md 1.5  4651466
LMR   000.25 247.8 m E Pg      2011/02/18 15:43:47.6  -0.3                          T                                        4651470
LMR   000.25 247.8 m E Sg      2011/02/18 15:43:52.1   0.6                          T                8.1  .26        Md 1.4  4651467
SBF   000.62 045.2 m E Pn      2011/02/18 15:43:57.4   0.1                          T                                        4653885
SBF   000.62 045.2 m E Sn      2011/02/18 15:44:09.0  -0.3                          T                7.0  .24                4651469
SMRF  001.06 301.4 m E Pg      2011/02/18 15:44:02.9   0.0                          T                                        4653884
SMRF  001.06 301.4 m E Sg      2011/02/18 15:44:16.4  -0.4                          T                 .6  .26 Ml 1.2         4651481
MBDF  001.30 358.1 m E Pg      2011/02/18 15:44:07.4   0.1                          T                                        4653883
MBDF  001.30 358.1 m E Sg      2011/02/18 15:44:24.2  -0.1                          T                1.0  .19 Ml 1.7         4651480

.
EVENT     256160
    Date      Time       Latitude Longitude    Depth    Ndef Nsta Gap    Mag1  N    Mag2  N    Mag3  N   Author         ID
       rms   OT_Error      Smajor Sminor Az        Err   mdist  Mdist     Err        Err        Err      Quality

2011/02/18 19:33:27.4     40.0297    -.0230       .0 f    17    3 189  Ml 1.8  3                         js067245    256180

      0.49   +-  0.18       4.1    2.4  128.58 +-  0.0    0.48   3.71   +-0.2                            m i km

SPAIN
Sta     Dist  EvAz     Phase      Date       Time     TRes  Azim  AzRes  Slow  SRes Def   SNR       Amp   Per   Mag1   Mag2       ID
ETSF  002.89 352.2 m E Pn      2011/02/18 19:34:13.2   0.0                          T                                        4651551
ETSF  002.89 352.2 m E Sn      2011/02/18 19:34:46.7  -0.1                          T                 .7  .32 Ml 1.8         4651548
EPF   003.01 005.1 m E Pn      2011/02/18 19:34:14.6  -0.1                          T                                        4651550
EPF   003.01 005.1 m E Sn      2011/02/18 19:34:49.4  -0.1                          T                 .4  .25 Ml 1.6         4651547
MTLF  003.71 026.2 m E Pn      2011/02/18 19:34:23.9  -0.3                          T                                        4651549
MTLF  003.71 026.2 m E Sn      2011/02/18 19:35:05.9  -0.2                          T                 .9  .36 Ml 2.0         4651546

.
EVENT     256164
    Date      Time       Latitude Longitude    Depth    Ndef Nsta Gap    Mag1  N    Mag2  N    Mag3  N   Author         ID
       rms   OT_Error      Smajor Sminor Az        Err   mdist  Mdist     Err        Err        Err      Quality

2011/02/19 02:20:51.7     46.7721    4.0116      3.0 f    18    7 234  Ml 1.5  2  Md 1.2  3              js067245    256184

      0.34   +-  0.14       2.5    1.2  110.90 +-  0.0    0.17   1.33   +-0.1      +-0.1                 m i ke

FRANCE
Sta     Dist  EvAz     Phase      Date       Time     TRes  Azim  AzRes  Slow  SRes Def   SNR       Amp   Per   Mag1   Mag2       ID
SMF   000.17 222.8 m E Pg      2011/02/19 02:20:55.1  -0.2                          T                                        4651491
SMF   000.17 222.8 m E Sg      2011/02/19 02:20:57.4  -0.3                          T                8.9  .19        Md 1.3  4651486
SSF   000.45 310.1 m E Pg      2011/02/19 02:21:00.4   0.0                          T                                        4651487
SSF   000.45 310.1 m E Sg      2011/02/19 02:21:06.5   0.1                          T                3.2  .26        Md 1.1  4651484
AVF   000.45 272.6 m E Pg      2011/02/19 02:21:00.7   0.3                          T                                        4653889
AVF   000.45 272.6 m E P       2011/02/19 02:21:02.4   0.9                          T                                        4651490
AVF   000.45 272.6 m E Sg      2011/02/19 02:21:05.9  -0.5                          T                2.1  .30        Md 1.2  4651482
LOR   000.51 348.2 m E Pg      2011/02/19 02:21:01.5   0.1 169.3  1.2               T                                        4651488
LOR   000.51 348.2 m E Sg      2011/02/19 02:21:08.4   0.3 171.8  3.7               T                5.2  .22                4651483
BGF   000.83 255.5 m E Pg      2011/02/19 02:21:08.0   0.7                          T                                        4653888
BGF   000.83 255.5 m E Pn      2011/02/19 02:21:08.6  -0.1                          T                                        4651489
BGF   000.83 255.5 m E Sg      2011/02/19 02:21:18.1  -0.1                          T                3.6  .29                4651485
HYF   001.06 298.4 m E Pg      2011/02/19 02:21:11.7   0.1                          T                                        4651498
HYF   001.06 298.4 m E Sg      2011/02/19 02:21:25.6   0.2                          T                                        4651499
TCF   001.33 249.4 m E Pg      2011/02/19 02:21:16.4  -0.2                          T                                        4651497
TCF   001.33 249.4 m E Sg      2011/02/19 02:21:34.0   0.1                          T                 .6  .18 Ml 1.5         4651496

.
EVENT     256166
    Date      Time       Latitude Longitude    Depth    Ndef Nsta Gap    Mag1  N    Mag2  N    Mag3  N   Author         ID
       rms   OT_Error      Smajor Sminor Az        Err   mdist  Mdist     Err        Err        Err      Quality

2011/02/19 03:04:15.7     45.1524    5.6848      2.0      16    7 122  Ml 1.3  3  Md 1.3  2              js067245    256186

      0.85   +-  0.10       2.1    1.5  145.14 +-  0.0    0.27   1.69   +-0.1      +-0.1                 m i ke

FRANCE
Sta     Dist  EvAz     Phase      Date       Time     TRes  Azim  AzRes  Slow  SRes Def   SNR       Amp   Per   Mag1   Mag2       ID
ORIF  000.27 149.3 m E Pg      2011/02/19 03:04:21.2   0.0                          T                                        4651515
ORIF  000.27 149.3 m E Sg      2011/02/19 03:04:25.0   0.1                          T                4.5  .16        Md 1.3  4651512
VIVF  000.78 247.9 m E Pg      2011/02/19 03:04:30.6   0.2                          T                                        4651514
VIVF  000.78 247.9 m E Sg      2011/02/19 03:04:39.9  -0.7                          T                2.4  .18        Md 1.2  4651511
LPL   000.82 063.4 m E Pg      2011/02/19 03:04:31.6   0.0                          T                                        4651504
LPL   000.82 063.4 m E Sg      2011/02/19 03:04:42.6   0.3                          T                1.6  .41                4651508
LPG   000.83 065.0 m E Pg      2011/02/19 03:04:31.7   0.0                          T                                        4651513
LPG   000.83 065.0 m E Sg      2011/02/19 03:04:42.8   0.3                          T                 .4  .24                4651509
MBDF  000.88 118.5 m E Pg      2011/02/19 03:04:32.3  -0.1                          T                                        4651503
MBDF  000.88 118.5 m E Sg      2011/02/19 03:04:43.9  -0.1                          T                 .9  .33 Ml 1.2         4651502
CABF  001.49 010.8 m E Pg      2011/02/19 03:04:43.6   0.1                          T                                        4651506
CABF  001.49 010.8 m E Sg      2011/02/19 03:05:02.8   0.1                          T                 .2  .13 Ml 1.2         4651505
LASF  001.69 231.1 m E Pg      2011/02/19 03:04:46.9  -0.3                          T                                        4651507
LASF  001.69 231.1 m E Sg      2011/02/19 03:05:08.7  -0.3                          T                 .4  .21 Ml 1.4         4651510

.
EVENT     256167
    Date      Time       Latitude Longitude    Depth    Ndef Nsta Gap    Mag1  N    Mag2  N    Mag3  N   Author         ID
       rms   OT_Error      Smajor Sminor Az        Err   mdist  Mdist     Err        Err        Err      Quality

2011/02/19 05:58:48.7     44.3354    7.2325      2.0      20    9 178  Ml 1.7  8  Md 1.8  3              js067245    256187

      0.13   +-  0.05       1.1     .5   79.40 +-  0.0    0.49   1.90   +-0.3      +-0.1                 m i ke

NORTHERN ITALY
Sta     Dist  EvAz     Phase      Date       Time     TRes  Azim  AzRes  Slow  SRes Def   SNR       Amp   Per   Mag1   Mag2       ID
SBF   000.49 162.7 m E Pg      2011/02/19 05:58:58.3   0.0                          T                                        4651533
SBF   000.49 162.7 m E Sg      2011/02/19 05:59:04.6  -0.2                          T                6.8  .24        Md 1.9  4651530
MBDF  000.51 320.1 m E Pg      2011/02/19 05:58:58.5  -0.2                          T                                        4651535
MBDF  000.51 320.1 m E Sg      2011/02/19 05:59:05.2  -0.2                          T               11.5  .30        Md 1.8  4651532
FRF   000.88 208.8 m E Pg      2011/02/19 05:59:05.4   0.1                          T                                        4651534
FRF   000.88 208.8 m E Sg      2011/02/19 05:59:16.4  -0.4                          T                6.6  .24 Ml 2.2 Md 1.9  4651531
LMR   001.13 207.9 m E Pg      2011/02/19 05:59:09.9   0.0                          T                                        4651520
LMR   001.13 207.9 m E Sg      2011/02/19 05:59:24.5   0.0                          T                4.4  .26 Ml 2.1         4651529
ORIF  001.13 301.6 m E Pg      2011/02/19 05:59:10.0   0.1                          T                                        4651524
ORIF  001.13 301.6 m E Sg      2011/02/19 05:59:24.5  -0.1                          T                 .9  .26 Ml 1.4         4651525
LPG   001.21 343.8 m E Pg      2011/02/19 05:59:11.7   0.0                          T                                        4651522
LPG   001.21 343.8 m E Sg      2011/02/19 05:59:27.4   0.0                          T                 .8  .24 Ml 1.4         4651527
SMRF  001.25 253.8 m E Pg      2011/02/19 05:59:12.1   0.0                          T                                        4651521
SMRF  001.25 253.8 m E Sg      2011/02/19 05:59:28.2   0.0                          T                2.8  .24 Ml 2.0         4651528
LPL   001.23 343.4 m E Pg      2011/02/19 05:59:12.1   0.1                          T                                        4651523
LPL   001.23 343.4 m E Sg      2011/02/19 05:59:28.0  -0.1                          T                 .8  .30 Ml 1.4         4651526
VIVF  001.90 286.8 m E Pn      2011/02/19 05:59:20.7   0.2                          T                                        4651519
VIVF  001.90 286.8 m E Sn      2011/02/19 05:59:43.6   0.0                          T                 .6  .26 Ml 1.5         4651518

.
