EVENT     289126
    Date      Time       Latitude Longitude    Depth    Ndef Nsta Gap    Mag1  N    Mag2  N    Mag3  N   Author         ID
       rms   OT_Error      Smajor Sminor Az        Err   mdist  Mdist     Err        Err        Err      Quality

2012/12/29 02:48:49.9     45.7431    3.0021      8.0 f    36   14 093  Ml 2.0 13  Md 2.1  2              bulletin    289226
                                                                                                         _ldg
      0.30   +-  0.03        .7     .5   92.55 +-  0.0    0.01   2.47   +-0.3      +-0.0                 m i ke

FRANCE
Sta     Dist  EvAz     Phase      Date       Time     TRes  Azim  AzRes  Slow  SRes Def   SNR       Amp   Per   Mag1   Mag2       ID
TCF   000.78 314.9 m E Pg      2012/12/29 02:49:04.7   0.0                          T                                        5147782
TCF   000.78 314.9 m E Sg      2012/12/29 02:49:14.8   0.0                          T                2.9  .21        Md 2.0  5147777
BGF   000.82 352.5 m E Pg      2012/12/29 02:49:05.5   0.1                          T                                        5147781
BGF   000.82 352.5 m E Sg      2012/12/29 02:49:16.1  -0.1                          T               15.0  .38                5147768
SMF   001.07 032.6 m E Pn      2012/12/29 02:49:09.5  -0.2                          T                                        5147780
SMF   001.07 032.6 m E Pg      2012/12/29 02:49:10.3   0.2                          T                                        5164379
SMF   001.07 032.6 m E Sn      2012/12/29 02:49:23.6  -0.3                          T                5.0  .27 Ml 2.1         5147769
CAF   001.05 219.3 m E Pg      2012/12/29 02:49:09.7   0.0                          T                                        5147778
CAF   001.05 219.3 m E Sg      2012/12/29 02:49:23.2  -0.2                          T                2.9  .17 Ml 2.1         5147766
AVF   001.08 012.9 m E Pg      2012/12/29 02:49:10.0  -0.1                          T                                        5147776
AVF   001.08 012.9 m E Sn      2012/12/29 02:49:23.7  -0.2                          T                9.1  .24 Ml 2.4         5147770
RJF   001.13 247.7 m E Pg      2012/12/29 02:49:11.2   0.1                          T                                        5164376
RJF   001.13 247.7 m E Sg      2012/12/29 02:49:25.9   0.0                          T                1.4  .18 Ml 1.5         5147767
SSF   001.36 014.6 m E Pg      2012/12/29 02:49:15.3  -0.1                          T                                        5164380
SSF   001.36 014.6 m E Sn      2012/12/29 02:49:30.6  -0.2                          T                4.4  .31 Ml 2.2         5147773
SSF   001.36 014.6 m E Sg      2012/12/29 02:49:33.5   0.4                          T                2.0  .20 Ml 2.1         5164368
VIVF  001.48 126.4 m E Pn      2012/12/29 02:49:15.4   0.2                          T                                        5147764
VIVF  001.48 126.4 m E Pg      2012/12/29 02:49:17.6   0.1                          T                                        5164373
VIVF  001.48 126.4 m E Sn      2012/12/29 02:49:33.5   0.0                          T                1.4  .22 Ml 1.8         5147763
VIVF  001.48 126.4 m E Sg      2012/12/29 02:49:37.0   0.4                          T                1.5  .21 Ml 1.9         5164372
LOR   001.64 020.9 m E Pn      2012/12/29 02:49:17.9   0.5 200.8  -0.8              T                                        5147774
LOR   001.64 020.9 m E Pg      2012/12/29 02:49:20.2  -0.3 209.7  8.2               T                                        5164381
LOR   001.64 020.9 m E Sg      2012/12/29 02:49:41.4  -0.2 195.6  -5.9              T                2.3  .16 Ml 2.3         5164367
HYF   001.55 350.8 m E Pg      2012/12/29 02:49:18.7  -0.1                          T                                        5164378
LASF  001.77 159.7 m E Pn      2012/12/29 02:49:19.0  -0.2                          T                                        5147765
LASF  001.77 159.7 m E Pg      2012/12/29 02:49:22.8  -0.2                          T                                        5164374
LASF  001.77 159.7 m E Sn      2012/12/29 02:49:40.7   0.1                          T                                        5147762
LASF  001.77 159.7 m E Sg      2012/12/29 02:49:45.9   0.0                          T                 .9  .26 Ml 1.7         5164371
LFF   001.79 244.1 m E Pg      2012/12/29 02:49:23.3   0.1                          T                                        5164375
MFF   002.35 292.6 m E Pg      2012/12/29 02:49:33.6   0.0                          T                                        5164377
MFF   002.35 292.6 m E Sg      2012/12/29 02:50:03.5  -0.3                          T                1.2  .20 Ml 2.2         5164369
MTLF  002.47 193.4 m E Sg      2012/12/29 02:50:07.5   0.1                          T                 .4  .25 Ml 1.5         5164370

.
EVENT     289136
    Date      Time       Latitude Longitude    Depth    Ndef Nsta Gap    Mag1  N    Mag2  N    Mag3  N   Author         ID
       rms   OT_Error      Smajor Sminor Az        Err   mdist  Mdist     Err        Err        Err      Quality

2012/12/29 06:50:55.1     38.0379   -3.2956      2.0      68    4 044  Ml 2.9  6                         bulletin    289236
                                                                                                         _ldg
      1.06   +-  0.13       2.7    2.3  146.97 +-  0.0    0.29   9.98   +-0.2                            m i ke

SPAIN
Sta     Dist  EvAz     Phase      Date       Time     TRes  Azim  AzRes  Slow  SRes Def   SNR       Amp   Per   Mag1   Mag2       ID
SJPF  005.31 016.6 m E Pn      2012/12/29 06:52:13.1  -0.1                          T                                        5147850
SJPF  005.31 016.6 m E Pg      2012/12/29 06:52:33.2  -0.1                          T                                        5147849
SJPF  005.31 016.6 m E Sn      2012/12/29 06:53:10.0  -1.4                          T                1.1  .19 Ml 2.7         5147851
SJPF  005.31 016.6 m E Sg      2012/12/29 06:53:39.8  -1.6                          T                3.0  .26 Ml 3.0         5147852
ETSF  005.28 022.4 m E Pn      2012/12/29 06:52:14.0   1.0                          T                                        5147844
ETSF  005.28 022.4 m E Sn      2012/12/29 06:53:09.8  -1.0                          T                                        5147847
ETSF  005.28 022.4 m E Sg      2012/12/29 06:53:40.4  -0.3                          T                1.6  .24 Ml 2.8         5147853
EPF   005.70 027.9 m E Pn      2012/12/29 06:52:18.5  -0.2                          T                                        5147843
EPF   005.70 027.9 m E Pg      2012/12/29 06:52:40.3  -0.3                          T                                        5148130
EPF   005.70 027.9 m E Sn      2012/12/29 06:53:19.8  -1.1                          T                1.7  .30 Ml 2.8         5147848
EPF   005.70 027.9 m E Sg      2012/12/29 06:53:52.4  -1.4                          T                1.4  .34 Ml 2.7         5147854
SBF   009.98 051.0 m E Pn      2012/12/29 06:53:15.7  -1.3                          T                                        5147846
SBF   009.98 051.0 m E Sn      2012/12/29 06:55:01.8  -1.3                          T                 .7  .19 Ml 3.3         5147845

.
EVENT     289137
    Date      Time       Latitude Longitude    Depth    Ndef Nsta Gap    Mag1  N    Mag2  N    Mag3  N   Author         ID
       rms   OT_Error      Smajor Sminor Az        Err   mdist  Mdist     Err        Err        Err      Quality

2012/12/29 06:54:56.0     38.0304   -3.2857      2.0      47    4 046  Ml 2.9  7                         bulletin    289237
                                                                                                         _ldg
      0.68   +-  0.10       2.2    1.8  130.03 +-  0.0    0.28   9.98   +-0.2                            m i ke

SPAIN
Sta     Dist  EvAz     Phase      Date       Time     TRes  Azim  AzRes  Slow  SRes Def   SNR       Amp   Per   Mag1   Mag2       ID
SJPF  005.31 016.5 m E Pn      2012/12/29 06:56:13.8  -0.3                          T                                        5147866
SJPF  005.31 016.5 m E Pg      2012/12/29 06:56:34.5   0.3                          T                                        5147862
SJPF  005.31 016.5 m E Sn      2012/12/29 06:57:12.6   0.3                          T                1.7  .22 Ml 2.8         5147858
SJPF  005.31 016.5 m E Sg      2012/12/29 06:57:39.6  -2.8                          T                3.1  .31 Ml 2.9         5147861
ETSF  005.29 022.3 m E Pn      2012/12/29 06:56:15.1   1.2                          T                                        5147857
ETSF  005.29 022.3 m E Pg      2012/12/29 06:56:34.0   0.1                          T                                        5147864
ETSF  005.29 022.3 m E Sn      2012/12/29 06:57:11.6  -0.2                          T                2.2  .33 Ml 2.8         5147865
ETSF  005.29 022.3 m E Sg      2012/12/29 06:57:41.6   0.0                          T                1.8  .25 Ml 2.8         5147867
EPF   005.71 027.8 m E Pn      2012/12/29 06:56:19.9   0.3                          T                                        5147860
EPF   005.71 027.8 m E Pg      2012/12/29 06:56:41.7   0.1                          T                                        5147859
EPF   005.71 027.8 m E Sn      2012/12/29 06:57:22.2   0.4                          T                2.6  .33 Ml 2.9         5147855
EPF   005.71 027.8 m E Sg      2012/12/29 06:57:54.4  -0.3                          T                1.7  .29 Ml 2.8         5147868
SBF   009.98 050.9 m E Pn      2012/12/29 06:57:19.0   1.2                          T                                        5147863
SBF   009.98 050.9 m E Sn      2012/12/29 06:59:03.5  -0.4                          T                 .6  .18 Ml 3.3         5147869

.
EVENT     289138
    Date      Time       Latitude Longitude    Depth    Ndef Nsta Gap    Mag1  N    Mag2  N    Mag3  N   Author         ID
       rms   OT_Error      Smajor Sminor Az        Err   mdist  Mdist     Err        Err        Err      Quality

2012/12/29 06:57:27.5     38.0257   -3.3120      2.0     101    6 043  Ml 3.2  8                         bulletin    289238
                                                                                                         _ldg
      1.02   +-  0.10       2.1    1.7  145.54 +-  0.0    0.29   7.99   +-0.2                            m i ke

SPAIN
Sta     Dist  EvAz     Phase      Date       Time     TRes  Azim  AzRes  Slow  SRes Def   SNR       Amp   Per   Mag1   Mag2       ID
SJPF  005.32 016.7 m E Pn      2012/12/29 06:58:46.0   0.2                          T                                        5147876
SJPF  005.32 016.7 m E Pg      2012/12/29 06:59:05.4  -0.5                          T                                        5147875
SJPF  005.32 016.7 m E Sn      2012/12/29 06:59:44.0  -0.1                          T                3.4  .22 Ml 3.1         5147877
SJPF  005.32 016.7 m E Sg      2012/12/29 07:00:14.3   0.1                          T                4.0  .19 Ml 3.3         5147880
ETSF  005.30 022.5 m E Pn      2012/12/29 06:58:46.0   0.5                          T                                        5147872
ETSF  005.30 022.5 m E Pg      2012/12/29 06:59:05.8   0.3                          T                                        5148128
ETSF  005.30 022.5 m E Sn      2012/12/29 06:59:43.9   0.4                          T                7.6  .30 Ml 3.3         5147873
ETSF  005.30 022.5 m E Sg      2012/12/29 07:00:13.5   0.0                          T               15.1  .34 Ml 3.6         5147874
EPF   005.72 027.9 m E Pn      2012/12/29 06:58:51.8   0.6                          T                                        5147871
EPF   005.72 027.9 m E Pg      2012/12/29 06:59:15.6   2.4                          T                                        5148127
EPF   005.72 027.9 m E Sn      2012/12/29 06:59:53.1  -0.5                          T                2.5  .20 Ml 3.1         5147870
EPF   005.72 027.9 m E Sg      2012/12/29 07:00:26.1  -0.4                          T                4.6  .21 Ml 3.4         5147881
MTLF  006.77 036.6 m E Pn      2012/12/29 06:59:04.8  -0.6                          T                                        5147884
MTLF  006.77 036.6 m E Pg      2012/12/29 06:59:31.9  -0.6                          T                                        5148129
MTLF  006.77 036.6 m E Sn      2012/12/29 07:00:18.3  -0.3                          T                1.2  .22 Ml 2.9         5147883
MTLF  006.77 036.6 m E Sg      2012/12/29 07:00:55.3  -4.0                          T                1.8  .30 Ml 3.0         5147882
LFF   007.55 022.5 m E Pn      2012/12/29 06:59:16.0   0.1                          T                                        5147878
CAF   007.99 028.6 m E Pn      2012/12/29 06:59:21.6  -0.4                          T                                        5147879

.
EVENT     289538
    Date      Time       Latitude Longitude    Depth    Ndef Nsta Gap    Mag1  N    Mag2  N    Mag3  N   Author         ID
       rms   OT_Error      Smajor Sminor Az        Err   mdist  Mdist     Err        Err        Err      Quality

2012/12/29 07:34:47.9     44.4187    7.1160      2.0      19    7 083  Ml 1.2  5  Md 1.3  1              bulletin    289638
                                                                                                         _ldg
      0.19   +-  0.03        .9     .5   72.94 +-  0.0    0.09   1.19   +-0.3      +-                    m i ke

NORTHERN ITALY
Sta     Dist  EvAz     Phase      Date       Time     TRes  Azim  AzRes  Slow  SRes Def   SNR       Amp   Per   Mag1   Mag2       ID
MBDF  000.39 321.5 m E Pg      2012/12/29 07:34:55.2  -0.4                          T                                        5164386
MBDF  000.39 321.5 m E Sg      2012/12/29 07:35:01.2   0.3                          T                1.3  .21        Md 1.3  5164387
SBF   000.60 157.4 m E Pg      2012/12/29 07:34:59.3  -0.1                          T                                        5164479
SBF   000.60 157.4 m E Sg      2012/12/29 07:35:07.1  -0.1                          T                 .3  .15                5164477
LPG   001.11 346.6 m E Pg      2012/12/29 07:35:08.9  -0.1                          T                                        5164480
LPG   001.11 346.6 m E Sg      2012/12/29 07:35:23.2  -0.2                          T                 .2  .18 Ml  .9         5164474
LMR   001.17 202.2 m E Pg      2012/12/29 07:35:09.7   0.0                          T                                        5164478
LMR   001.17 202.2 m E Sg      2012/12/29 07:35:25.2   0.3                          T                2.3  .35 Ml 1.7         5164476
ORIF  001.01 300.0 m E Sg      2012/12/29 07:35:20.3   0.2                          T                 .7  .25 Ml 1.2         5164472
LPL   001.13 346.2 m E Sg      2012/12/29 07:35:23.9   0.0                          T                 .8  .28 Ml 1.3         5164473
SMRF  001.19 248.8 m E Sg      2012/12/29 07:35:25.9   0.2                          T                 .3  .34 Ml  .9         5164475

.
EVENT     289539
    Date      Time       Latitude Longitude    Depth    Ndef Nsta Gap    Mag1  N    Mag2  N    Mag3  N   Author         ID
       rms   OT_Error      Smajor Sminor Az        Err   mdist  Mdist     Err        Err        Err      Quality

2012/12/29 08:37:29.3     49.2218    5.4360       .0 f     9    5 283  Ml 2.0  3  Md 2.1  1              bulletin    289639
                                                                                                         _ldg
      1.40   +-  0.97      15.1    7.8  158.87 +-  0.0    0.69   1.46   +-0.2      +-                    m i km

FRANCE
Sta     Dist  EvAz     Phase      Date       Time     TRes  Azim  AzRes  Slow  SRes Def   SNR       Amp   Per   Mag1   Mag2       ID
PAGF  000.69 163.9 m E Pg      2012/12/29 08:37:43.0   0.3                          T                                        5164482
PAGF  000.69 163.9 m E Sg      2012/12/29 08:37:52.7   0.7 339.9  -4.2              T               24.6  .77        Md 2.1  5164483
SFTF  001.05 194.7 m E Pg      2012/12/29 08:37:49.9   0.7   5.8  -8.6              T                                        5164484
SFTF  001.05 194.7 m E Sg      2012/12/29 08:38:01.5  -1.6                          T                4.0  .32 Ml 1.9         5164485
MEZF  000.76 199.5 m E Sg      2012/12/29 08:37:53.1  -1.1  23.6  4.4               T                6.6  .48                5164481
HAU   001.36 153.2 m E Pg      2012/12/29 08:37:54.6  -0.4                          T                                        5164486
HAU   001.36 153.2 m E Sg      2012/12/29 08:38:11.9  -0.9                          T                3.4  .25 Ml 1.9         5164487
CDF   001.46 123.0 m E Pg      2012/12/29 08:37:56.4  -0.5                          T                                        5164488
CDF   001.46 123.0 m E Sg      2012/12/29 08:38:17.0   1.0                          T                4.2  .34 Ml 2.2         5164489

.
EVENT     289540
    Date      Time       Latitude Longitude    Depth    Ndef Nsta Gap    Mag1  N    Mag2  N    Mag3  N   Author         ID
       rms   OT_Error      Smajor Sminor Az        Err   mdist  Mdist     Err        Err        Err      Quality

2012/12/29 10:16:32.0     43.8950    7.8536     13.9      26    4 180  Ml 1.8  3  Md 1.7  1              bulletin    289640
                                                                                                         _ldg
      0.19   +-  0.08       1.3     .9  134.93 +-  0.6    0.03   1.65   +-0.3      +-                    m i ke

NEAR SOUTH COAST OF FRANCE
Sta     Dist  EvAz     Phase      Date       Time     TRes  Azim  AzRes  Slow  SRes Def   SNR       Amp   Per   Mag1   Mag2       ID
SBF   000.30 264.1 m E Pg      2012/12/29 10:16:38.5   0.1                          T                                        5164496
SBF   000.30 264.1 m E Sg      2012/12/29 10:16:43.0   0.2                          T                9.4  .20        Md 1.7  5164497
LMR   001.13 240.6 m E Pn      2012/12/29 10:16:51.5  -0.2                          T                                        5164494
LMR   001.13 240.6 m E Sg      2012/12/29 10:17:07.8   0.0                          T                3.1  .33 Ml 1.9         5164495
MBDF  001.14 317.3 m E Pg      2012/12/29 10:16:53.4  -0.2                          T                                        5164491
MBDF  001.14 317.3 m E Sg      2012/12/29 10:17:08.3  -0.1                          T                 .8  .23 Ml 1.4         5164492
SMRF  001.65 273.6 m E Pg      2012/12/29 10:17:02.9   0.1                          T                                        5164490
SMRF  001.65 273.6 m E Sg      2012/12/29 10:17:23.9  -0.2                          T                2.0  .25 Ml 2.0         5164493

.
