EVENT     271129
    Date      Time       Latitude Longitude    Depth    Ndef Nsta Gap    Mag1  N    Mag2  N    Mag3  N   Author         ID
       rms   OT_Error      Smajor Sminor Az        Err   mdist  Mdist     Err        Err        Err      Quality

2012/03/01 17:18:08.1     44.5027    6.6977      2.0      39    9 047  Ml 1.6  6  Md 1.9  4              js067245    271150

      0.49   +-  0.07       1.5    1.1   47.33 +-  0.0    0.09   1.49   +-0.4      +-0.2                 m i ke

FRANCE
Sta     Dist  EvAz     Phase      Date       Time     TRes  Azim  AzRes  Slow  SRes Def   SNR       Amp   Per   Mag1   Mag2       ID
MBDF  000.23 013.2 m E Pg      2012/03/01 17:18:12.9   0.0                          T                                        4864361
MBDF  000.23 013.2 m E Sg      2012/03/01 17:18:16.5   0.5                          T                4.6  .30        Md 1.9  4864358
ORIF  000.72 305.8 m E Pg      2012/03/01 17:18:21.5  -0.2                          T                                        4864362
ORIF  000.72 305.8 m E Sg      2012/03/01 17:18:30.2  -0.9                          T                3.0  .21        Md 1.7  4864365
SBF   000.83 140.1 m E Pg      2012/03/01 17:18:23.6  -0.2                          T                                        4866729
SBF   000.83 140.1 m E Sg      2012/03/01 17:18:34.9   0.3                          T                1.4  .21                4864378
FRF   000.94 182.2 m E Pg      2012/03/01 17:18:26.3   0.5                          T                                        4866730
FRF   000.94 182.2 m E Sg      2012/03/01 17:18:37.6  -0.4                          T                4.9  .22 Ml 2.2 Md 2.0  4864385
SMRF  000.96 237.3 m E Pn      2012/03/01 17:18:27.7   0.6                          T                                        4866731
SMRF  000.96 237.3 m E Sn      2012/03/01 17:18:40.4  -0.1                          T                1.1  .31 Ml 1.3         4866728
LPL   001.01 001.4 m E Pg      2012/03/01 17:18:27.7   0.3                          T                                        4866732
LPL   001.01 001.4 m E Sg      2012/03/01 17:18:40.9   0.3                          T                 .8  .23 Ml 1.4         4866727
LMR   001.18 186.7 m E Pg      2012/03/01 17:18:30.9   0.9                          T                                        4864382
LMR   001.18 186.7 m E Sg      2012/03/01 17:18:45.1  -0.1                          T                2.1  .20 Ml 1.9 Md 2.1  4864383
VIVF  001.49 284.5 m E Pg      2012/03/01 17:18:36.4   0.6                          T                                        4866733
VIVF  001.49 284.5 m E Sg      2012/03/01 17:18:54.4  -0.6                          T                1.3  .41 Ml 1.5         4866726
LPG   001.00 002.2 m E Sg      2012/03/01 17:18:39.7  -0.3                          T                 .7  .20 Ml 1.3         4864381

.
EVENT     271130
    Date      Time       Latitude Longitude    Depth    Ndef Nsta Gap    Mag1  N    Mag2  N    Mag3  N   Author         ID
       rms   OT_Error      Smajor Sminor Az        Err   mdist  Mdist     Err        Err        Err      Quality

2012/03/01 17:44:49.9     44.5170    6.7215      2.0      61   11 041  Ml 2.3  9  Md 2.4  3              js067245    271151

      0.75   +-  0.07       1.6    1.3   53.27 +-  0.0    0.07   2.90   +-0.3      +-0.1                 m i ke

FRANCE
Sta     Dist  EvAz     Phase      Date       Time     TRes  Azim  AzRes  Slow  SRes Def   SNR       Amp   Per   Mag1   Mag2       ID
MBDF  000.21 009.6 m E Pg      2012/03/01 17:44:54.7   0.3                          T                                        4864388
MBDF  000.21 009.6 m E Sg      2012/03/01 17:44:58.0   0.6                          T               26.7  .23        Md 2.4  4864431
ORIF  000.72 304.1 m E Pg      2012/03/01 17:45:03.2  -0.5                          T                                        4864395
ORIF  000.72 304.1 m E Sg      2012/03/01 17:45:12.9  -0.2                          T               16.8  .26        Md 2.3  4864432
SBF   000.83 141.6 m E Pg      2012/03/01 17:45:05.6   0.0                          T                                        4864389
SBF   000.83 141.6 m E Sg      2012/03/01 17:45:16.7   0.2                          T               10.5  .24        Md 2.4  4864425
FRF   000.96 183.2 m E Pg      2012/03/01 17:45:07.7  -0.2                          T                                        4864391
FRF   000.96 183.2 m E P       2012/03/01 17:45:09.8  -0.2                          T                                        4864420
FRF   000.96 183.2 m E Sg      2012/03/01 17:45:19.9  -0.4                          T               13.5  .20 Ml 2.7         4864428
LPG   000.98 001.2 m E Pg      2012/03/01 17:45:08.7   0.0                          T                                        4864393
LPG   000.98 001.2 m E Pn      2012/03/01 17:45:09.5   0.1                          T                                        4864421
LPG   000.98 001.2 m E Sg      2012/03/01 17:45:21.6   0.2                          T               11.1  .32 Ml 2.3         4864430
LPL   001.00 000.4 m E Pg      2012/03/01 17:45:09.1   0.2                          T                                        4864394
LPL   001.00 000.4 m E Pn      2012/03/01 17:45:09.6  -0.1                          T                                        4864422
LPL   001.00 000.4 m E Sg      2012/03/01 17:45:22.3   0.3                          T                7.0  .30 Ml 2.2         4866754
SMRF  000.99 237.1 m E Pn      2012/03/01 17:45:09.1  -0.1                          T                                        4864392
SMRF  000.99 237.1 m E Sg      2012/03/01 17:45:21.2  -0.1                          T               11.2  .28 Ml 2.4         4864427
LMR   001.19 187.5 m E Pg      2012/03/01 17:45:12.1  -0.1                          T                                        4864390
LMR   001.19 187.5 m E Sg      2012/03/01 17:45:27.3  -0.4                          T               15.1  .24 Ml 2.7         4864429
VIVF  001.50 283.8 m E Pn      2012/03/01 17:45:16.1  -0.1                          T                                        4864387
VIVF  001.50 283.8 m E Pg      2012/03/01 17:45:18.1   0.2                          T                                        4866751
VIVF  001.50 283.8 m E Sn      2012/03/01 17:45:34.7  -0.5                          T                                        4864423
VIVF  001.50 283.8 m E Sg      2012/03/01 17:45:37.2  -0.1                          T                5.4  .32 Ml 2.3         4864426
LASF  002.10 258.9 m E P       2012/03/01 17:45:26.6  -0.1                          T                                        4866753
LASF  002.10 258.9 m E Sn      2012/03/01 17:45:49.4  -0.2                          T                1.5  .34 Ml 1.9         4866752
PGF   002.57 139.1 m E Pn      2012/03/01 17:45:30.7  -0.1                          T                                        4864418
PGF   002.57 139.1 m E Sn      2012/03/01 17:46:02.1   1.2                          T                1.8  .21 Ml 2.5         4864424

.
EVENT     271131
    Date      Time       Latitude Longitude    Depth    Ndef Nsta Gap    Mag1  N    Mag2  N    Mag3  N   Author         ID
       rms   OT_Error      Smajor Sminor Az        Err   mdist  Mdist     Err        Err        Err      Quality

2012/03/01 19:12:41.8     44.5132    6.7055      2.0      33    8 047  Ml 1.8  5  Md 2.0  3              js067245    271152

      0.57   +-  0.08       1.8    1.4   49.95 +-  0.0    0.08   1.49   +-0.4      +-0.1                 m i ke

FRANCE
Sta     Dist  EvAz     Phase      Date       Time     TRes  Azim  AzRes  Slow  SRes Def   SNR       Amp   Per   Mag1   Mag2       ID
MBDF  000.22 012.4 m E Pg      2012/03/01 19:12:47.3   0.9                          T                                        4864482
MBDF  000.22 012.4 m E Sg      2012/03/01 19:12:50.2   0.7                          T                5.1  .22        Md 1.9  4864489
ORIF  000.71 304.8 m E Pg      2012/03/01 19:12:55.0  -0.4                          T                                        4864486
ORIF  000.71 304.8 m E Sg      2012/03/01 19:13:03.9  -0.9                          T                5.4  .28        Md 1.9  4864481
SBF   000.84 140.8 m E Pg      2012/03/01 19:12:58.1   0.5                          T                                        4864483
SBF   000.84 140.8 m E Sn      2012/03/01 19:13:10.9  -0.4                          T                2.1  .28                4864493
FRF   000.95 182.6 m E Pg      2012/03/01 19:12:59.6  -0.1                          T                                        4864478
FRF   000.95 182.6 m E Sg      2012/03/01 19:13:12.3   0.2                          T                6.5  .22 Ml 2.3 Md 2.1  4864491
LPG   000.99 001.9 m E Pg      2012/03/01 19:13:01.3   0.6                          T                                        4864492
LPG   000.99 001.9 m E Sg      2012/03/01 19:13:13.4   0.0                          T                1.0  .22 Ml 1.5         4864490
SMRF  000.97 236.9 m E Pn      2012/03/01 19:13:01.4   0.5                          T                                        4864485
SMRF  000.97 236.9 m E Sn      2012/03/01 19:13:14.5   0.0                          T                1.3  .25 Ml 1.5         4864480
LMR   001.19 186.9 m E Pg      2012/03/01 19:13:04.6   0.6                          T                                        4864484
LMR   001.19 186.9 m E Sg      2012/03/01 19:13:18.9  -0.5                          T                2.9  .20 Ml 2.1         4864479
VIVF  001.49 284.0 m E Sg      2012/03/01 19:13:29.3   0.4                          T                2.0  .39 Ml 1.7         4866755

.
EVENT     271143
    Date      Time       Latitude Longitude    Depth    Ndef Nsta Gap    Mag1  N    Mag2  N    Mag3  N   Author         ID
       rms   OT_Error      Smajor Sminor Az        Err   mdist  Mdist     Err        Err        Err      Quality

2012/03/02 01:09:30.1     43.4676    3.9242      4.0 f    21   10 168  Ml 1.7 10  Md 1.9  3              js067245    271164

      0.66   +-  0.12       2.7    1.5     .09 +-  0.0    0.61   2.72   +-0.3      +-0.1                 m i ke

NEAR SOUTH COAST OF FRANCE
Sta     Dist  EvAz     Phase      Date       Time     TRes  Azim  AzRes  Slow  SRes Def   SNR       Amp   Per   Mag1   Mag2       ID
LASF  000.61 355.4 m E Pg      2012/03/02 01:09:41.7  -0.1                          T                                        4864766
LASF  000.61 355.4 m E Sg      2012/03/02 01:09:49.6  -0.2                          T                2.1  .20        Md 1.7  4864767
MTLF  001.25 264.8 m E Pg      2012/03/02 01:09:53.7   0.2                          T                                        4864762
MTLF  001.25 264.8 m E Sg      2012/03/02 01:10:09.9   0.2                          T                1.5  .24 Ml 1.7 Md 1.8  4864763
SMRF  001.30 066.4 m E Pg      2012/03/02 01:09:54.3  -0.2                          T                                        4866763
SMRF  001.30 066.4 m E P       2012/03/02 01:09:55.8   0.5                          T                                        4864761
SMRF  001.30 066.4 m E Sg      2012/03/02 01:10:11.8   0.4                          T                 .5  .27 Ml 1.2         4864775
VIVF  001.49 021.0 m E Pg      2012/03/02 01:09:58.1   0.2                          T                                        4864764
VIVF  001.49 021.0 m E Sg      2012/03/02 01:10:16.9  -0.3                          T                2.8  .20 Ml 2.2 Md 2.0  4864765
LMR   001.89 093.2 m E Pg      2012/03/02 01:10:04.9  -0.3                          T                                        4866757
LMR   001.89 093.2 m E Sg      2012/03/02 01:10:29.7   0.1                          T                 .7  .21 Ml 1.7         4864771
CAF   001.98 318.1 m E Pg      2012/03/02 01:10:06.8  -0.2                          T                                        4866756
CAF   001.98 318.1 m E Sg      2012/03/02 01:10:32.1  -0.3                          T                 .6  .25 Ml 1.6         4864770
FRF   001.98 086.4 m E Pg      2012/03/02 01:10:06.8  -0.2                          T                                        4866758
FRF   001.98 086.4 m E Sg      2012/03/02 01:10:32.7   0.2                          T                 .9  .23 Ml 1.8         4864772
EPF   002.65 261.8 m E Pg      2012/03/02 01:10:18.2  -1.2                          T                                        4866762
EPF   002.65 261.8 m E Sg      2012/03/02 01:10:52.2  -1.4                          T                 .6  .29 Ml 1.7         4866761
RJF   002.52 317.6 m E Sg      2012/03/02 01:10:48.9  -0.4                          T                 .6  .25 Ml 1.4         4864768
LFF   002.72 303.8 m E Sg      2012/03/02 01:10:56.1   0.5                          T                 .6  .18 Ml 1.7         4864769

.
EVENT     271144
    Date      Time       Latitude Longitude    Depth    Ndef Nsta Gap    Mag1  N    Mag2  N    Mag3  N   Author         ID
       rms   OT_Error      Smajor Sminor Az        Err   mdist  Mdist     Err        Err        Err      Quality

2012/03/02 01:10:06.8     43.4565    3.9185      4.0 f    24   10 169  Ml 2.0 10  Md 2.1  3              js067245    271165

      0.50   +-  0.10       2.4    1.3  179.35 +-  0.0    0.62   2.72   +-0.3      +-0.1                 m i ke

NEAR SOUTH COAST OF FRANCE
Sta     Dist  EvAz     Phase      Date       Time     TRes  Azim  AzRes  Slow  SRes Def   SNR       Amp   Per   Mag1   Mag2       ID
LASF  000.62 355.9 m E Pg      2012/03/02 01:10:18.6   0.0                          T                                        4864624
LASF  000.62 355.9 m E Sg      2012/03/02 01:10:26.6  -0.2                          T                4.4  .20        Md 2.2  4864623
MTLF  001.25 265.3 m E Pg      2012/03/02 01:10:29.9  -0.2                          T                                        4866760
MTLF  001.25 265.3 m E P       2012/03/02 01:10:30.6  -0.5                          T                                        4864692
MTLF  001.25 265.3 m E Sg      2012/03/02 01:10:46.6   0.4                          T                2.5  .24 Ml 1.9 Md 2.2  4864622
SMRF  001.31 066.1 m E Pg      2012/03/02 01:10:31.2  -0.1                          T                                        4866759
SMRF  001.31 066.1 m E P       2012/03/02 01:10:32.5   0.5                          T                                        4864620
SMRF  001.31 066.1 m E Sg      2012/03/02 01:10:48.5   0.2                          T                1.5  .41 Ml 1.5         4864687
VIVF  001.50 020.9 m E Pg      2012/03/02 01:10:35.0   0.2                          T                                        4864686
VIVF  001.50 020.9 m E Sg      2012/03/02 01:10:53.8  -0.4                          T                6.2  .20 Ml 2.5 Md 2.1  4864641
LMR   001.89 092.8 m E Pg      2012/03/02 01:10:41.8  -0.2                          T                                        4864739
LMR   001.89 092.8 m E Sn      2012/03/02 01:11:00.8  -0.2                          T                                        4864683
LMR   001.89 092.8 m E Sg      2012/03/02 01:11:06.6   0.2                          T                1.3  .24 Ml 1.9         4864688
CAF   001.98 318.4 m E Pg      2012/03/02 01:10:43.7  -0.1                          T                                        4864736
CAF   001.98 318.4 m E Sg      2012/03/02 01:11:09.0  -0.3                          T                1.6  .24 Ml 2.0         4864640
FRF   001.99 086.1 m E Pg      2012/03/02 01:10:43.7  -0.1                          T                                        4864685
FRF   001.99 086.1 m E Sn      2012/03/02 01:11:03.3   0.0                          T                                        4864684
FRF   001.99 086.1 m E Sg      2012/03/02 01:11:09.5   0.1                          T                2.0  .32 Ml 2.0         4864689
EPF   002.65 262.0 m E Pg      2012/03/02 01:10:54.6  -1.4                          T                                        4864691
EPF   002.65 262.0 m E Sg      2012/03/02 01:11:29.1  -1.0                          T                1.3  .26 Ml 2.0         4864690
RJF   002.53 317.8 m E Sg      2012/03/02 01:11:26.0  -0.2                          T                  1  .18 Ml 1.7         4864639
LFF   002.72 304.1 m E Sg      2012/03/02 01:11:33.4   1.0                          T                3.7  .48 Ml 2.1         4864638

.
EVENT     271132
    Date      Time       Latitude Longitude    Depth    Ndef Nsta Gap    Mag1  N    Mag2  N    Mag3  N   Author         ID
       rms   OT_Error      Smajor Sminor Az        Err   mdist  Mdist     Err        Err        Err      Quality

2012/03/02 01:21:24.2     44.1224    7.1746      4.0 f    31    5 062  Ml 2.1  2  Md 2.1  2              js067245    271153

      0.53   +-  0.09       1.7    1.6   19.97 +-  0.0    0.11   1.23   +-0.1      +-0.1                 m i ke

NORTHERN ITALY
Sta     Dist  EvAz     Phase      Date       Time     TRes  Azim  AzRes  Slow  SRes Def   SNR       Amp   Per   Mag1   Mag2       ID
SBF   000.32 143.9 m E Pg      2012/03/02 01:21:30.8   0.3                          T                                        4864787
SBF   000.32 143.9 m E Sg      2012/03/02 01:21:35.1   0.2                          T                4.7  .24        Md 2.2  4864791
FRF   000.68 214.4 m E Pg      2012/03/02 01:21:36.6  -0.5                          T                                        4864788
FRF   000.68 214.4 m E Sg      2012/03/02 01:21:45.1  -0.8                          T                3.3  .21        Md 2.1  4864794
MBDF  000.67 334.6 m E Pg      2012/03/02 01:21:36.9  -0.2                          T                                        4864796
MBDF  000.67 334.6 m E Sg      2012/03/02 01:21:45.9   0.0                          T                2.1  .30                4864797
LMR   000.92 211.7 m E Pg      2012/03/02 01:21:41.4  -0.1                          T                                        4864792
LMR   000.92 211.7 m E Sg      2012/03/02 01:21:53.0  -0.5                          T                5.0  .22 Ml 2.2         4864793
SMRF  001.16 263.3 m E Pg      2012/03/02 01:21:46.5   0.5                          T                                        4864789
SMRF  001.16 263.3 m E Sg      2012/03/02 01:22:02.5   1.4                          T                7.1  .58 Ml 2.0         4864790

.
