EVENT     287378
    Date      Time       Latitude Longitude    Depth    Ndef Nsta Gap    Mag1  N    Mag2  N    Mag3  N   Author         ID
       rms   OT_Error      Smajor Sminor Az        Err   mdist  Mdist     Err        Err        Err      Quality

2012/11/23 03:03:58.6     49.1429    8.1276     10.0      18    4 059  Ml 1.6  4  Md 2.0  1              bulletin    287478
                                                                                                         _ldg
      0.37   +-  0.07       1.6    1.2  124.74 +-  0.0    0.18   3.42   +-0.1      +-                    m i ke

GERMANY
Sta     Dist  EvAz     Phase      Date       Time     TRes  Azim  AzRes  Slow  SRes Def   SNR       Amp   Per   Mag1   Mag2       ID
CDF   000.92 217.9 m E Pg      2012/11/23 03:04:15.9  -0.3                          T                                        5137003
CDF   000.92 217.9 m E Pn      2012/11/23 03:04:17.6   1.4                          T                                        5123892
CDF   000.92 217.9 m E Sg      2012/11/23 03:04:27.7  -0.5                          T                1.9  .26 Ml 1.7 Md 2.0  5123891
HINF  001.57 213.1 m E Pn      2012/11/23 03:04:25.0   0.0                          T                                        5123920
HINF  001.57 213.1 m E Sn      2012/11/23 03:04:44.4   0.2                          T                                        5123919
HINF  001.57 213.1 m E Sg      2012/11/23 03:04:48.5   0.1                          T                 .9  .24 Ml 1.6         5123918
HAU   001.64 226.7 m E Pn      2012/11/23 03:04:26.1   0.2                          T                                        5123923
HAU   001.64 226.7 m E Pg      2012/11/23 03:04:29.2   0.0                          T                                        5123922
HAU   001.64 226.7 m E Sn      2012/11/23 03:04:45.9   0.1                          T                 .5  .16 Ml 1.4         5123921
LOR   003.42 238.3 m E Pn      2012/11/23 03:04:50.2   0.2                          T                                        5123925
LOR   003.42 238.3 m E Sn      2012/11/23 03:05:28.5   0.4                          T                 .2  .22 Ml 1.6         5123924

.
EVENT     287356
    Date      Time       Latitude Longitude    Depth    Ndef Nsta Gap    Mag1  N    Mag2  N    Mag3  N   Author         ID
       rms   OT_Error      Smajor Sminor Az        Err   mdist  Mdist     Err        Err        Err      Quality

2012/11/23 06:04:28.9     43.0272    -.6891      2.0       6    3 166             Md 1.3  2              bulletin    287456
                                                                                                         _ldg
      0.10   +-  0.05       2.3     .9   17.43 +-  0.0    0.16   0.75              +-0.1                 m i ke

PYRENEES
Sta     Dist  EvAz     Phase      Date       Time     TRes  Azim  AzRes  Slow  SRes Def   SNR       Amp   Per   Mag1   Mag2       ID
ETSF  000.16 143.4 m E Pg      2012/11/23 06:04:32.2  -0.1                          T                                        5123288
ETSF  000.16 143.4 m E Sg      2012/11/23 06:04:34.7   0.2                          T                5.2  .18        Md 1.2  5123286
SJPF  000.40 282.5 m E Pg      2012/11/23 06:04:36.6  -0.1                          T                                        5123287
SJPF  000.40 282.5 m E Sg      2012/11/23 06:04:42.1   0.1                          T                3.0  .23        Md 1.4  5123285
EPF   000.75 089.4 m E Pg      2012/11/23 06:04:43.2   0.0                          T                                        5123284
EPF   000.75 089.4 m E Sg      2012/11/23 06:04:52.9  -0.1                          T                1.4  .24                5123283

.
EVENT     287368
    Date      Time       Latitude Longitude    Depth    Ndef Nsta Gap    Mag1  N    Mag2  N    Mag3  N   Author         ID
       rms   OT_Error      Smajor Sminor Az        Err   mdist  Mdist     Err        Err        Err      Quality

2012/11/23 09:55:54.0     43.9779    7.5668      5.0 f    18    4 084  Ml 1.5  2  Md 1.5  1              bulletin    287468
                                                                                                         _ldg
      0.12   +-  0.03        .5     .5  144.37 +-  0.0    0.15   1.00   +-0.4      +-                    m i ke

NEAR SOUTH COAST OF FRANCE
Sta     Dist  EvAz     Phase      Date       Time     TRes  Azim  AzRes  Slow  SRes Def   SNR       Amp   Per   Mag1   Mag2       ID
SBF   000.15 219.7 m E Pg      2012/11/23 09:55:57.4   0.0                          T                                        5123464
SBF   000.15 219.7 m E Sg      2012/11/23 09:55:59.7   0.1                          T               29.2  .20        Md 1.5  5123463
FRF   000.79 238.3 m E Pg      2012/11/23 09:56:08.8  -0.1                          T                                        5123462
FRF   000.79 238.3 m E Sg      2012/11/23 09:56:19.3   0.2                          T                3.2  .20                5123461
MBDF  000.94 323.0 m E Pg      2012/11/23 09:56:11.9   0.0                          T                                        5123457
MBDF  000.94 323.0 m E Sg      2012/11/23 09:56:24.2   0.1                          T                 .6  .18 Ml 1.3         5123458
LMR   001.00 230.4 m E Pg      2012/11/23 09:56:12.9   0.1                          T                                        5123460
LMR   001.00 230.4 m E Sg      2012/11/23 09:56:25.4  -0.4                          T                2.6  .28 Ml 1.8         5123459

.
EVENT     287372
    Date      Time       Latitude Longitude    Depth    Ndef Nsta Gap    Mag1  N    Mag2  N    Mag3  N   Author         ID
       rms   OT_Error      Smajor Sminor Az        Err   mdist  Mdist     Err        Err        Err      Quality

2012/11/23 12:40:40.9     43.9552    7.6682      4.0 f    35    8 067  Ml 1.8  6  Md 1.8  1              bulletin    287472
                                                                                                         _ldg
      0.26   +-  0.05        .8     .8   41.77 +-  0.0    0.09   1.71   +-0.2      +-                    m i ke

NEAR SOUTH COAST OF FRANCE
Sta     Dist  EvAz     Phase      Date       Time     TRes  Azim  AzRes  Slow  SRes Def   SNR       Amp   Per   Mag1   Mag2       ID
SBF   000.19 241.4 m E Pg      2012/11/23 12:40:45.0   0.0                          T                                        5123635
SBF   000.19 241.4 m E Sg      2012/11/23 12:40:47.7   0.0                          T               30.9  .19        Md 1.8  5123634
FRF   000.84 242.3 m E Pg      2012/11/23 12:40:56.6  -0.1                          T                                        5123631
FRF   000.84 242.3 m E Sg      2012/11/23 12:41:07.7   0.1                          T                4.7  .27                5123630
MBDF  001.00 320.5 m E Pg      2012/11/23 12:40:59.9  -0.1                          T                                        5123641
MBDF  001.00 320.5 m E Sg      2012/11/23 12:41:13.1   0.0                          T                1.0  .21 Ml 1.5         5123640
LMR   001.05 234.0 m E Pg      2012/11/23 12:41:00.3  -0.2                          T                                        5123633
LMR   001.05 234.0 m E Sg      2012/11/23 12:41:14.4   0.4                          T                2.7  .18 Ml 2.0         5123632
PGF   001.71 144.9 m E Pn      2012/11/23 12:41:08.5  -1.4                          T                                        5123639
PGF   001.71 144.9 m E Sn      2012/11/23 12:41:30.0  -0.9                          T                 .8  .23 Ml 1.9         5123638
ORIF  001.60 307.6 m E Pn      2012/11/23 12:41:08.6   0.2                          T                                        5123637
ORIF  001.60 307.6 m E Pg      2012/11/23 12:41:11.0   0.1                          T                                        5137013
ORIF  001.60 307.6 m E Sg      2012/11/23 12:41:31.6   0.0                          T                3.0  .49 Ml 1.9         5123636
SMRF  001.51 271.5 m E Pg      2012/11/23 12:41:09.3   0.2                          T                                        5123629
SMRF  001.51 271.5 m E Sg      2012/11/23 12:41:28.5  -0.2                          T                2.1  .21 Ml 2.0         5123628
LPL   001.70 337.2 m E Pg      2012/11/23 12:41:13.0   0.2                          T                                        5137012
LPL   001.70 337.2 m E Sg      2012/11/23 12:41:34.3  -0.4                          T                  1  .25 Ml 1.7         5137014

.
EVENT     287374
    Date      Time       Latitude Longitude    Depth    Ndef Nsta Gap    Mag1  N    Mag2  N    Mag3  N   Author         ID
       rms   OT_Error      Smajor Sminor Az        Err   mdist  Mdist     Err        Err        Err      Quality

2012/11/23 13:17:53.5     43.9564    7.6686      4.0 f    22    6 082  Ml 1.5  5  Md 1.5  1              bulletin    287474
                                                                                                         _ldg
      0.17   +-  0.04        .8     .7   56.12 +-  0.0    0.09   1.60   +-0.2      +-                    m i ke

NEAR SOUTH COAST OF FRANCE
Sta     Dist  EvAz     Phase      Date       Time     TRes  Azim  AzRes  Slow  SRes Def   SNR       Amp   Per   Mag1   Mag2       ID
SBF   000.19 241.1 m E Pg      2012/11/23 13:17:57.5  -0.1                          T                                        5123679
SBF   000.19 241.1 m E Sg      2012/11/23 13:18:00.3   0.0                          T               16.1  .28        Md 1.5  5123678
FRF   000.84 242.2 m E Pg      2012/11/23 13:18:09.2   0.0                          T                                        5123675
FRF   000.84 242.2 m E Sg      2012/11/23 13:18:20.3   0.1                          T                2.9  .30                5123674
MBDF  001.00 320.4 m E Pg      2012/11/23 13:18:12.5   0.0                          T                                        5123673
MBDF  001.00 320.4 m E Sg      2012/11/23 13:18:25.5   0.0                          T                 .6  .21 Ml 1.3         5123672
LMR   001.05 233.9 m E Pg      2012/11/23 13:18:13.1   0.0                          T                                        5123677
LMR   001.05 233.9 m E Sg      2012/11/23 13:18:27.3   0.7                          T                 .9  .25 Ml 1.4         5123676
SMRF  001.51 271.5 m E Pg      2012/11/23 13:18:22.0   0.2                          T                                        5137010
SMRF  001.51 271.5 m E Sg      2012/11/23 13:18:41.2  -0.1                          T                1.5  .24 Ml 1.8         5137011
ORIF  001.60 307.5 m E Pg      2012/11/23 13:18:23.5   0.1                          T                                        5137015
ORIF  001.60 307.5 m E Sg      2012/11/23 13:18:44.1  -0.1                          T                1.7  .35 Ml 1.8         5123670

.
EVENT     287377
    Date      Time       Latitude Longitude    Depth    Ndef Nsta Gap    Mag1  N    Mag2  N    Mag3  N   Author         ID
       rms   OT_Error      Smajor Sminor Az        Err   mdist  Mdist     Err        Err        Err      Quality

2012/11/23 13:56:39.0     43.9550    7.6638      5.0 f    29    7 068  Ml 2.0  5  Md 2.0  1              bulletin    287477
                                                                                                         _ldg
      0.22   +-  0.04        .8     .7   64.66 +-  0.0    0.08   1.71   +-0.3      +-                    m i ke

NEAR SOUTH COAST OF FRANCE
Sta     Dist  EvAz     Phase      Date       Time     TRes  Azim  AzRes  Slow  SRes Def   SNR       Amp   Per   Mag1   Mag2       ID
SBF   000.19 241.0 m E Pg      2012/11/23 13:56:42.9  -0.1                          T                                        5123789
SBF   000.19 241.0 m E Sg      2012/11/23 13:56:45.5  -0.2                          T               38.5  .18        Md 2.0  5123788
FRF   000.84 242.2 m E Pg      2012/11/23 13:56:54.7   0.0                          T                                        5123785
FRF   000.84 242.2 m E Sg      2012/11/23 13:57:05.7   0.1                          T                3.9  .22                5123784
MBDF  001.00 320.6 m E Pg      2012/11/23 13:56:57.9  -0.1                          T                                        5123781
MBDF  001.00 320.6 m E Sg      2012/11/23 13:57:11.0   0.0                          T                1.0  .20 Ml 1.5         5123780
LMR   001.04 233.9 m E Pg      2012/11/23 13:56:58.4  -0.1                          T                                        5123787
LMR   001.04 233.9 m E Sg      2012/11/23 13:57:12.7   0.6                          T                2.9  .18 Ml 2.1         5123786
SMRF  001.51 271.5 m E Pg      2012/11/23 13:57:07.6   0.5                          T                                        5123783
SMRF  001.51 271.5 m E Sg      2012/11/23 13:57:26.6   0.0                          T                4.4  .23 Ml 2.3         5123782
LPL   001.70 337.3 m E Pg      2012/11/23 13:57:11.1   0.2                          T                                        5123779
LPL   001.70 337.3 m E Sg      2012/11/23 13:57:32.5  -0.3                          T                2.9  .28 Ml 2.1         5137025
PGF   001.71 144.8 m E Sn      2012/11/23 13:57:28.4  -0.5                          T                 .9  .22 Ml 2.0         5137024

.
EVENT     287376
    Date      Time       Latitude Longitude    Depth    Ndef Nsta Gap    Mag1  N    Mag2  N    Mag3  N   Author         ID
       rms   OT_Error      Smajor Sminor Az        Err   mdist  Mdist     Err        Err        Err      Quality

2012/11/23 14:02:57.8     47.4396    6.3705       .0 f    10    6 161  Ml 2.0  4  Md 2.0  1              bulletin    287476
                                                                                                         _ldg
      1.07   +-  0.20       4.4    2.9  101.21 +-  0.0    0.57   1.72   +-0.1      +-                    m i ke

FRANCE
Sta     Dist  EvAz     Phase      Date       Time     TRes  Azim  AzRes  Slow  SRes Def   SNR       Amp   Per   Mag1   Mag2       ID
HAU   000.57 358.5 m E Pg      2012/11/23 14:03:08.4  -0.5                          T                                        5123933
HAU   000.57 358.5 m E Sg      2012/11/23 14:03:16.1  -0.4                          T                7.0  .26        Md 2.0  5123932
CABF  000.85 193.2 m E Pg      2012/11/23 14:03:13.9  -0.3                          T                                        5123929
CABF  000.85 193.2 m E Sg      2012/11/23 14:03:26.2   0.7                          T                4.8  .47                5123928
CDF   001.15 031.7 m E Pg      2012/11/23 14:03:19.6  -0.1                          T                                        5123930
CDF   001.15 031.7 m E Sn      2012/11/23 14:03:37.1   1.6                          T                3.4  .27 Ml 2.1         5123931
SFTF  001.18 311.0 m E Pg      2012/11/23 14:03:20.5   0.3 130.8  0.8               T                                        5137028
SFTF  001.18 311.0 m E Sg      2012/11/23 14:03:35.7   0.0 136.1  6.1               T                7.6  .49 Ml 2.1         5123934
MEZF  001.38 320.7 m E Sg      2012/11/23 14:03:41.9  -0.1 144.7  5.0               T                6.8  .47 Ml 2.1         5137040
LOR   001.72 265.2 m E Sg      2012/11/23 14:03:52.6   0.2  91.1  7.7               T                1.7  .33 Ml 1.9         5137041

.
EVENT     287380
    Date      Time       Latitude Longitude    Depth    Ndef Nsta Gap    Mag1  N    Mag2  N    Mag3  N   Author         ID
       rms   OT_Error      Smajor Sminor Az        Err   mdist  Mdist     Err        Err        Err      Quality

2012/11/23 16:00:55.9     44.3650    7.9146       .0 f    26    6 201  Ml 1.6  6  Md 1.8  1              bulletin    287480
                                                                                                         _ldg
      0.26   +-  0.12       2.2    1.1   62.68 +-  0.0    0.13   1.73   +-0.3      +-                    m i km

NORTHERN ITALY
Sta     Dist  EvAz     Phase      Date       Time     TRes  Azim  AzRes  Slow  SRes Def   SNR       Amp   Per   Mag1   Mag2       ID
SBF   000.61 214.7 m E Pg      2012/11/23 16:01:07.9   0.1                          T                                        5123973
SBF   000.61 214.7 m E Sg      2012/11/23 16:01:15.8  -0.2                          T                4.6  .29        Md 1.8  5123972
MBDF  000.89 294.3 m E Pg      2012/11/23 16:01:13.1   0.0                          T                                        5123971
MBDF  000.89 294.3 m E Sg      2012/11/23 16:01:25.2   0.2                          T                4.6  .42 Ml 1.8         5123970
FRF   001.22 229.1 m E Pg      2012/11/23 16:01:19.6   0.7                          T                                        5123967
FRF   001.22 229.1 m E Sg      2012/11/23 16:01:34.9   0.1                          T                1.6  .32 Ml 1.7         5123966
LMR   001.45 225.1 m E Pn      2012/11/23 16:01:21.8   0.0                          T                                        5123974
LMR   001.45 225.1 m E Pg      2012/11/23 16:01:23.6   0.5                          T                                        5123969
LMR   001.45 225.1 m E Sg      2012/11/23 16:01:41.9  -0.2                          T                2.1  .28 Ml 1.9         5123968
ORIF  001.55 291.6 m E Pn      2012/11/23 16:01:23.3  -0.1                          T                                        5123980
ORIF  001.55 291.6 m E Sn      2012/11/23 16:01:42.9  -0.3                          T                1.0  .38 Ml 1.5         5123979
SMRF  001.73 257.8 m E Pn      2012/11/23 16:01:25.7   0.1                          T                                        5123978
SMRF  001.73 257.8 m E Pg      2012/11/23 16:01:28.7   0.4                          T                                        5123977
SMRF  001.73 257.8 m E Sn      2012/11/23 16:01:47.2   0.0                          T                                        5123976
SMRF  001.73 257.8 m E Sg      2012/11/23 16:01:51.2   0.4                          T                 .2  .14 Ml 1.4         5123975

.
