EVENT     297796
    Date      Time       Latitude Longitude    Depth    Ndef Nsta Gap    Mag1  N    Mag2  N    Mag3  N   Author         ID
       rms   OT_Error      Smajor Sminor Az        Err   mdist  Mdist     Err        Err        Err      Quality

2013/05/10 06:33:43.8     45.6254    6.9212      8.0 f    75   17 038  Ml 2.1 17  Md 1.8  2              bulletin    297896
                                                                                                         _ldg
      0.33   +-  0.03        .6     .6   45.81 +-  0.0    0.17   3.35   +-0.3      +-0.0                 m i ke

FRANCE
Sta     Dist  EvAz     Phase      Date       Time     TRes  Azim  AzRes  Slow  SRes Def   SNR       Amp   Per   Mag1   Mag2       ID
LPL   000.17 230.7 m E Pg      2013/05/10 06:33:47.7  -0.1                          T                                Md 1.8  5278551
LPL   000.17 230.7 m E Sg      2013/05/10 06:33:50.2  -0.2                          T               75.5  .30                5278552
LPG   000.17 223.1 m E Pg      2013/05/10 06:33:47.8  -0.2                          T                                Md 1.8  5278550
LPG   000.17 223.1 m E Sg      2013/05/10 06:33:50.3  -0.2                          T               83.3  .24                5278553
MBDF  000.90 186.8 m E Pg      2013/05/10 06:34:01.1   0.0                          T                                        5278549
MBDF  000.90 186.8 m E Sg      2013/05/10 06:34:12.6  -0.3                          T                9.0  .20 Ml 2.4         5278548
ORIF  001.02 226.5 m E Pg      2013/05/10 06:34:04.0   0.9                          T                                        5278543
ORIF  001.02 226.5 m E Sg      2013/05/10 06:34:16.8   0.4                          T                6.9  .27 Ml 2.2         5278547
CABF  001.14 329.8 m E Pn      2013/05/10 06:34:05.0   0.4                          T                                        5282415
CABF  001.14 329.8 m E Sn      2013/05/10 06:34:19.7   0.1                          T                5.6  .28 Ml 2.2         5282408
VIVF  001.76 245.0 m E Pn      2013/05/10 06:34:13.2   0.1                          T                                        5282433
VIVF  001.76 245.0 m E Pg      2013/05/10 06:34:16.7   0.0                          T                                        5282432
VIVF  001.76 245.0 m E Sg      2013/05/10 06:34:39.2  -0.3                          T                4.7  .38 Ml 2.2         5278544
SBF   001.80 168.1 m E Pn      2013/05/10 06:34:13.6   0.1                          T                                        5283228
SBF   001.80 168.1 m E Sn      2013/05/10 06:34:34.6  -0.6                          T                                        5283227
SBF   001.80 168.1 m E Sg      2013/05/10 06:34:41.0   0.4                          T                3.9  .17 Ml 2.5         5283226
SMRF  001.91 210.6 m E Pn      2013/05/10 06:34:15.0   0.0                          T                                        5283231
SMRF  001.91 210.6 m E Sn      2013/05/10 06:34:37.8   0.1                          T                 .4  .22 Ml 1.5         5283230
FRF   002.07 185.5 m E Pn      2013/05/10 06:34:16.9  -0.3                          T                                        5283229
FRF   002.07 185.5 m E Pg      2013/05/10 06:34:22.9   0.6                          T                                        5278545
FRF   002.07 185.5 m E Sg      2013/05/10 06:34:48.6  -0.4                          T                2.3  .28 Ml 2.2         5278546
HINF  002.19 358.8 m E Pn      2013/05/10 06:34:18.8  -0.1                          T                                        5282414
HINF  002.19 358.8 m E Sn      2013/05/10 06:34:44.2  -0.4                          T                 .6  .22 Ml 1.7         5282413
SMF   002.37 296.6 m E Pn      2013/05/10 06:34:21.2  -0.1                          T                                        5282425
SMF   002.37 296.6 m E Pg      2013/05/10 06:34:28.1   0.3                          T                                        5282424
SMF   002.37 296.6 m E Sn      2013/05/10 06:34:48.5  -0.4                          T                                        5282426
SMF   002.37 296.6 m E Sg      2013/05/10 06:34:58.3  -0.1                          T                3.1  .16 Ml 2.6         5282427
HAU   002.41 350.8 m E Pn      2013/05/10 06:34:21.2  -0.7                          T                                        5282412
HAU   002.41 350.8 m E Pg      2013/05/10 06:34:29.1   0.5                          T                                        5282409
HAU   002.41 350.8 m E Sn      2013/05/10 06:34:49.4  -0.4                          T                                        5282410
HAU   002.41 350.8 m E Sg      2013/05/10 06:34:59.7   0.0                          T                2.0  .26 Ml 2.0         5282411
AVF   002.74 296.5 m E Pn      2013/05/10 06:34:25.0  -1.2                          T                                        5282423
AVF   002.74 296.5 m E Pg      2013/05/10 06:34:34.7   0.1                          T                                        5282420
AVF   002.74 296.5 m E Sn      2013/05/10 06:34:57.5  -0.1                          T                                        5282422
AVF   002.74 296.5 m E Sg      2013/05/10 06:35:09.5  -0.3                          T                 .8  .19 Ml 2.0         5282421
LOR   002.68 308.9 m E Pn      2013/05/10 06:34:25.1  -0.3                          T                                        5282441
LOR   002.68 308.9 m E Pg      2013/05/10 06:34:33.8   0.2 128.1  1.4               T                                        5282438
LOR   002.68 308.9 m E Sn      2013/05/10 06:34:56.0  -0.2                          T                                        5282440
LOR   002.68 308.9 m E Sg      2013/05/10 06:35:07.2  -0.9 131.4  4.7               T                1.2  .18 Ml 2.2         5282439
SSF   002.77 302.5 m E Pn      2013/05/10 06:34:26.7   0.1                          T                                        5282437
SSF   002.77 302.5 m E Pg      2013/05/10 06:34:35.5   0.3                          T                                        5282434
SSF   002.77 302.5 m E Sn      2013/05/10 06:34:58.1  -0.1                          T                                        5282436
SSF   002.77 302.5 m E Sg      2013/05/10 06:35:10.6  -0.1                          T                 .9  .24 Ml 2.0         5282435
BGF   002.98 289.7 m E Pn      2013/05/10 06:34:29.6   0.0                          T                                        5282431
BGF   002.98 289.7 m E Pg      2013/05/10 06:34:39.3   0.1                          T                                        5282428
BGF   002.98 289.7 m E Sn      2013/05/10 06:35:03.1  -0.4                          T                                        5282429
BGF   002.98 289.7 m E Sg      2013/05/10 06:35:17.1  -0.4                          T                2.8  .24 Ml 2.5         5282430
TCF   003.35 283.1 m E Pn      2013/05/10 06:34:34.9   0.2                          T                                        5282419
TCF   003.35 283.1 m E Pg      2013/05/10 06:34:46.1   0.1                          T                                        5282416
TCF   003.35 283.1 m E Sn      2013/05/10 06:35:12.4   0.1                          T                                        5282417
TCF   003.35 283.1 m E Sg      2013/05/10 06:35:28.9  -0.2                          T                 .2  .18 Ml 1.7         5282418

.
EVENT     297797
    Date      Time       Latitude Longitude    Depth    Ndef Nsta Gap    Mag1  N    Mag2  N    Mag3  N   Author         ID
       rms   OT_Error      Smajor Sminor Az        Err   mdist  Mdist     Err        Err        Err      Quality

2013/05/10 07:32:14.3     45.2611    6.5452      3.0 f    64   17 044  Ml 2.0 13  Md 1.9  4              bulletin    297897
                                                                                                         _ldg
      0.31   +-  0.03        .7     .6   67.61 +-  0.0    0.23   5.05   +-0.2      +-0.1                 m i ke

FRANCE
Sta     Dist  EvAz     Phase      Date       Time     TRes  Azim  AzRes  Slow  SRes Def   SNR       Amp   Per   Mag1   Mag2       ID
LPG   000.28 031.5 m E Pg      2013/05/10 07:32:19.9  -0.2                          T                                Md 1.8  5278563
LPG   000.28 031.5 m E Sg      2013/05/10 07:32:24.2   0.3                          T                                        5278558
LPL   000.29 027.3 m E Pg      2013/05/10 07:32:20.0  -0.2                          T                                Md 2.0  5278564
LPL   000.29 027.3 m E Sg      2013/05/10 07:32:24.4   0.3                          T                                        5278557
ORIF  000.58 234.2 m E Pg      2013/05/10 07:32:25.3  -0.2                          T                                        5278562
ORIF  000.58 234.2 m E Sg      2013/05/10 07:32:32.0  -1.1                          T                                Md 1.9  5278556
MBDF  000.56 163.2 m E Pg      2013/05/10 07:32:25.6   0.5                          T                                Md 1.8  5278561
MBDF  000.56 163.2 m E Sg      2013/05/10 07:32:32.9   0.4                          T                                        5278555
CABF  001.39 346.9 m E Pn      2013/05/10 07:32:39.3   0.3                          T                                        5282347
CABF  001.39 346.9 m E Sn      2013/05/10 07:32:56.9   0.2                          T                2.3  .18 Ml 2.1         5282346
SMRF  001.46 208.7 m E Pn      2013/05/10 07:32:40.1   0.2                          T                                        5282334
SMRF  001.46 208.7 m E Pg      2013/05/10 07:32:42.0   0.4                          T                                        5282333
SMRF  001.46 208.7 m E Sn      2013/05/10 07:32:58.8   0.4                          T                  1  .26 Ml 1.6         5282332
VIVF  001.39 253.7 m E Pg      2013/05/10 07:32:40.7   0.4                          T                                        5278560
VIVF  001.39 253.7 m E Sg      2013/05/10 07:32:58.4   0.2                          T                6.2  .32 Ml 2.3         5278554
SBF   001.54 155.2 m E Pn      2013/05/10 07:32:40.9   0.0                          T                                        5282329
SBF   001.54 155.2 m E Sg      2013/05/10 07:33:02.2  -0.7                          T                                        5282328
FRF   001.70 177.5 m E Pn      2013/05/10 07:32:43.2   0.1                          T                                        5282331
FRF   001.70 177.5 m E Pg      2013/05/10 07:32:46.1   0.1                          T                                        5278559
FRF   001.70 177.5 m E Sg      2013/05/10 07:33:08.3   0.4                          T                  1  .18 Ml 1.9         5278567
LMR   001.93 180.8 m E Pn      2013/05/10 07:32:46.3   0.0                          T                                        5282330
LMR   001.93 180.8 m E Sg      2013/05/10 07:33:14.8  -0.2                          T                1.2  .23 Ml 1.9         5278566
LASF  002.25 239.2 m E Pn      2013/05/10 07:32:50.8   0.0                          T                                        5282337
LASF  002.25 239.2 m E Pg      2013/05/10 07:32:55.9  -0.3                          T                                        5282336
LASF  002.25 239.2 m E Sg      2013/05/10 07:33:25.0  -0.2                          T                 .5  .20 Ml 1.7         5282335
SMF   002.34 307.2 m E Pn      2013/05/10 07:32:52.1   0.2                          T                                        5282343
SMF   002.34 307.2 m E Pg      2013/05/10 07:32:58.0   0.2                          T                                        5282342
SMF   002.34 307.2 m E Sg      2013/05/10 07:33:28.0   0.1                          T                1.5  .22 Ml 2.1         5282341
AVF   002.70 305.7 m E Pn      2013/05/10 07:32:56.3  -0.4                          T                                        5282345
AVF   002.70 305.7 m E Pg      2013/05/10 07:33:04.4   0.1                          T                                        5282359
AVF   002.70 305.7 m E Sg      2013/05/10 07:33:38.5  -0.5                          T                 .8  .21 Ml 1.9         5282344
LOR   002.74 318.1 m E Pn      2013/05/10 07:32:57.2  -0.1                          T                                        5282353
LOR   002.74 318.1 m E Pg      2013/05/10 07:33:05.1   0.0                          T                                        5282352
LOR   002.74 318.1 m E Sg      2013/05/10 07:33:40.3   0.0                          T                 .6  .16 Ml 2.0         5282351
SSF   002.78 311.5 m E Pn      2013/05/10 07:32:57.5  -0.3                          T                                        5282350
SSF   002.78 311.5 m E Sn      2013/05/10 07:33:29.4  -0.4                          T                                        5282349
SSF   002.78 311.5 m E Sg      2013/05/10 07:33:41.5   0.1                          T                 .7  .20 Ml 2.0         5282348
BGF   002.89 298.0 m E Pn      2013/05/10 07:32:59.7   0.3                          T                                        5282340
BGF   002.89 298.0 m E Pg      2013/05/10 07:33:07.7  -0.1                          T                                        5282339
BGF   002.89 298.0 m E Sg      2013/05/10 07:33:44.6  -0.4                          T                2.9  .32 Ml 2.4         5282338
BAIF  005.05 342.6 m E Pn      2013/05/10 07:33:29.2   0.4                          T                                        5283234
BAIF  005.05 342.6 m E Pg      2013/05/10 07:33:47.5  -0.2                          T                                        5283233
BAIF  005.05 342.6 m E Sn      2013/05/10 07:34:24.6   0.3                          T                 .4  .23 Ml 2.1         5283232

.
EVENT     297803
    Date      Time       Latitude Longitude    Depth    Ndef Nsta Gap    Mag1  N    Mag2  N    Mag3  N   Author         ID
       rms   OT_Error      Smajor Sminor Az        Err   mdist  Mdist     Err        Err        Err      Quality

2013/05/10 11:42:19.9     46.6409    1.3846      5.0 f    27   11 144  Ml 2.4 11  Md 2.2  4              bulletin    297903
                                                                                                         _ldg
      0.96   +-  0.15       3.5    2.3  160.32 +-  0.0    0.67   1.81   +-0.3      +-0.1                 m i ke

FRANCE
Sta     Dist  EvAz     Phase      Date       Time     TRes  Azim  AzRes  Slow  SRes Def   SNR       Amp   Per   Mag1   Mag2       ID
TCF   000.67 121.4 m E Pg      2013/05/10 11:42:33.7   1.1                          T                                        5278620
TCF   000.67 121.4 m E Sg      2013/05/10 11:42:42.3   0.8                          T               13.7  .22        Md 2.3  5278610
HYF   001.06 053.4 m E Pn      2013/05/10 11:42:39.8  -0.1                          T                                        5290004
HYF   001.06 053.4 m E P       2013/05/10 11:42:41.7   0.3                          T                                        5278617
HYF   001.06 053.4 m E Sg      2013/05/10 11:42:52.9  -0.7                          T                                        5278621
BGF   001.01 094.2 m E Pg      2013/05/10 11:42:39.8   0.9                          T                                        5278616
BGF   001.01 094.2 m E Sg      2013/05/10 11:42:52.1   0.1                          T               32.5  .30 Ml 2.9 Md 2.1  5278613
MFF   001.06 268.5 m E Pg      2013/05/10 11:42:39.9   0.2                          T                                        5278619
MFF   001.06 268.5 m E Sg      2013/05/10 11:42:53.4   0.0                          T               13.1  .22 Ml 2.8 Md 2.2  5278609
RJF   001.34 176.0 m E Pg      2013/05/10 11:42:44.4  -0.5                          T                                        5278615
RJF   001.34 176.0 m E Sg      2013/05/10 11:43:01.4  -0.9                          T                8.4  .18 Ml 2.3         5278614
AVF   001.36 083.0 m E Pg      2013/05/10 11:42:45.0  -0.3                          T                                        5278618
AVF   001.36 083.0 m E Sg      2013/05/10 11:43:03.0   0.0                          T                5.4  .28 Ml 2.3         5278611
SSF   001.52 073.1 m E Pg      2013/05/10 11:42:47.1  -1.0                          T                                        5290006
SSF   001.52 073.1 m E Sg      2013/05/10 11:43:08.0   0.3                          T                1.8  .20 Ml 2.1         5289999
SMF   001.69 089.0 m E Pn      2013/05/10 11:42:47.8  -0.6                          T                                        5290005
SMF   001.69 089.0 m E Pg      2013/05/10 11:42:50.9  -0.5                          T                                        5278625
SMF   001.69 089.0 m E Sg      2013/05/10 11:43:12.9  -0.4                          T                3.2  .20 Ml 2.3         5278612
LFF   001.76 195.1 m E Pn      2013/05/10 11:42:48.4  -0.9                          T                                        5290002
LFF   001.76 195.1 m E Sg      2013/05/10 11:43:15.0  -0.3                          T               10.4  .34 Ml 2.5         5278622
CAF   001.78 164.3 m E Pn      2013/05/10 11:42:50.0   0.4                          T                                        5278624
CAF   001.78 164.3 m E Pg      2013/05/10 11:42:53.0  -0.1                          T                                        5290001
CAF   001.78 164.3 m E Sg      2013/05/10 11:43:16.2   0.2                          T                4.7  .24 Ml 2.5         5278623
LOR   001.81 068.8 m E Pg      2013/05/10 11:42:53.7   0.2 249.4  -1.2              T                                        5290007
LOR   001.81 068.8 m E Sg      2013/05/10 11:43:15.7  -1.2 251.1  0.5               T                1.7  .23 Ml 2.0         5289998

.
