EVENT     294982
    Date      Time       Latitude Longitude    Depth    Ndef Nsta Gap    Mag1  N    Mag2  N    Mag3  N   Author         ID
       rms   OT_Error      Smajor Sminor Az        Err   mdist  Mdist     Err        Err        Err      Quality

2013/03/29 13:03:42.8     42.6374   -1.7021      2.0      16    4 220  Ml 1.6  3  Md 1.8  1              bulletin    295082
                                                                                                         _ldg
      0.35   +-  0.19       3.9    1.9    3.20 +-  0.0    0.16   2.96   +-0.1      +-                    m i ke

PYRENEES
Sta     Dist  EvAz     Phase      Date       Time     TRes  Azim  AzRes  Slow  SRes Def   SNR       Amp   Per   Mag1   Mag2       ID
SJPF  000.59 036.2 m E Pg      2013/03/29 13:03:53.7  -0.3                          T                                        5239354
SJPF  000.59 036.2 m E Sg      2013/03/29 13:04:02.0   0.2                          T                5.9  .32        Md 1.8  5239359
ETSF  000.88 072.4 m E Pg      2013/03/29 13:03:59.2  -0.3                          T                                        5239358
ETSF  000.88 072.4 m E Sg      2013/03/29 13:04:11.1   0.1                          T                1.4  .23 Ml 1.5         5239357
EPF   001.55 074.7 m E Pg      2013/03/29 13:04:12.0   0.2                          T                                        5239356
EPF   001.55 074.7 m E Sg      2013/03/29 13:04:31.5  -0.4                          T                1.1  .28 Ml 1.6         5239355
MTLF  002.96 074.9 m E Pn      2013/03/29 13:04:28.9   0.0                          T                                        5239861
MTLF  002.96 074.9 m E Sg      2013/03/29 13:05:16.4   0.7                          T                 .4  .22 Ml 1.7         5239860

.
EVENT     294981
    Date      Time       Latitude Longitude    Depth    Ndef Nsta Gap    Mag1  N    Mag2  N    Mag3  N   Author         ID
       rms   OT_Error      Smajor Sminor Az        Err   mdist  Mdist     Err        Err        Err      Quality

2013/03/29 13:50:35.0     46.3800    7.4726      7.0 f    68   16 083  Ml 2.3 14  Md 2.1  1              bulletin    295081
                                                                                                         _ldg
      1.06   +-  0.12       2.4    2.0   53.51 +-  0.0    0.11   2.88   +-0.2      +-                    m i ke

SWITZERLAND
Sta     Dist  EvAz     Phase      Date       Time     TRes  Azim  AzRes  Slow  SRes Def   SNR       Amp   Per   Mag1   Mag2       ID
CABF  000.98 284.1 m E Pg      2013/03/29 13:50:53.7   0.1                          T                                        5239365
CABF  000.98 284.1 m E Sg      2013/03/29 13:51:06.2  -0.2                          T                8.1  .28 Ml 2.3 Md 2.1  5239364
LPL   001.01 211.1 m E Pg      2013/03/29 13:50:54.6   0.4                          T                                        5239369
LPL   001.01 211.1 m E Sg      2013/03/29 13:51:07.6   0.3                          T               11.1  .50 Ml 2.2         5239368
LPG   001.02 210.0 m E Pg      2013/03/29 13:50:54.7   0.3                          T                                        5239367
LPG   001.02 210.0 m E Sg      2013/03/29 13:51:08.0   0.4                          T                6.2  .20 Ml 2.3         5239366
HINF  001.50 343.8 m E Pn      2013/03/29 13:51:00.8   0.1                          T                                        5239362
HINF  001.50 343.8 m E Pg      2013/03/29 13:51:02.4  -0.6                          T                                        5239750
HINF  001.50 343.8 m E Sg      2013/03/29 13:51:21.1  -1.3                          T                4.4  .24 Ml 2.3         5239363
MBDF  001.73 196.8 m E Pn      2013/03/29 13:51:05.6   1.7                          T                                        5239742
MBDF  001.73 196.8 m E Pg      2013/03/29 13:51:08.3   1.0                          T                                        5239379
MBDF  001.73 196.8 m E Sn      2013/03/29 13:51:27.1   2.2                          T                                        5239744
MBDF  001.73 196.8 m E Sg      2013/03/29 13:51:30.4   0.8                          T               15.1  .78 Ml 2.4         5239743
ORIF  001.84 218.0 m E Pn      2013/03/29 13:51:06.8   1.4                          T                                        5239360
ORIF  001.84 218.0 m E Pg      2013/03/29 13:51:09.6   0.3                          T                                        5239740
ORIF  001.84 218.0 m E Sn      2013/03/29 13:51:29.4   1.8                          T                                        5239741
ORIF  001.84 218.0 m E Sg      2013/03/29 13:51:33.1   0.0                          T                5.2  .28 Ml 2.4         5239370
CDF   002.04 356.3 m E Pn      2013/03/29 13:51:07.7  -0.4                          T                                        5239374
CDF   002.04 356.3 m E Sn      2013/03/29 13:51:32.4   0.1                          T                                        5239748
CDF   002.04 356.3 m E Sg      2013/03/29 13:51:37.8  -1.4                          T                2.0  .33 Ml 2.1         5239749
SFTF  002.47 318.7 m E Pn      2013/03/29 13:51:13.0  -0.8                          T                                        5239375
VIVF  002.49 233.2 m E Pn      2013/03/29 13:51:14.8   0.7                          T                                        5239378
VIVF  002.49 233.2 m E Pg      2013/03/29 13:51:21.0  -0.2                          T                                        5239739
VIVF  002.49 233.2 m E Sg      2013/03/29 13:51:53.5   0.3                          T                2.3  .27 Ml 2.2         5239865
SBF   002.52 180.6 m E Pn      2013/03/29 13:51:15.7   1.1                          T                                        5239864
SBF   002.52 180.6 m E Sg      2013/03/29 13:51:56.0   1.9                          T                3.2  .19 Ml 2.5         5239863
SMF   002.52 277.4 m E Pn      2013/03/29 13:51:15.9   1.4                          T                                        5239361
SMF   002.52 277.4 m E Sg      2013/03/29 13:51:53.8  -0.4                          T                2.9  .18 Ml 2.5         5239371
LOR   002.64 291.0 m E Pn      2013/03/29 13:51:16.8   0.6 114.6  6.2               T                                        5239373
LOR   002.64 291.0 m E Pg      2013/03/29 13:51:24.1   0.2                          T                                        5239870
LOR   002.64 291.0 m E Sn      2013/03/29 13:51:47.3   0.8  91.4  -16.9             T                                        5239869
LOR   002.64 291.0 m E Sg      2013/03/29 13:51:57.2  -0.6 116.7  8.3               T                                        5239372
SSF   002.81 285.5 m E Pn      2013/03/29 13:51:17.7  -0.8                          T                                        5239868
SSF   002.81 285.5 m E Sn      2013/03/29 13:51:51.6   0.9                          T                                        5239867
SSF   002.81 285.5 m E Sg      2013/03/29 13:52:01.9  -1.4                          T                1.7  .24 Ml 2.3         5239866
SMRF  002.75 209.8 m E Pn      2013/03/29 13:51:18.4   0.6                          T                                        5239377
AVF   002.87 279.7 m E Pn      2013/03/29 13:51:19.7   0.4                          T                                        5239376
AVF   002.87 279.7 m E Pg      2013/03/29 13:51:28.4   0.2                          T                                        5239747
AVF   002.87 279.7 m E Sn      2013/03/29 13:51:52.6   0.6                          T                                        5239746
AVF   002.87 279.7 m E Sg      2013/03/29 13:52:05.2   0.1                          T                1.2  .27 Ml 2.0         5239745
FRF   002.88 192.0 m E Sn      2013/03/29 13:51:53.6   1.3                          T                2.5  .29 Ml 2.4         5239862

.
EVENT     295160
    Date      Time       Latitude Longitude    Depth    Ndef Nsta Gap    Mag1  N    Mag2  N    Mag3  N   Author         ID
       rms   OT_Error      Smajor Sminor Az        Err   mdist  Mdist     Err        Err        Err      Quality

2013/03/29 16:05:29.2     48.2070    7.4088     10.0      22    7 051  Ml 1.7  3  Md 1.7  2              bulletin    295260
                                                                                                         _ldg
      0.50   +-  0.08       1.7    1.4   15.55 +-  0.0    0.17   2.57   +-0.2      +-0.1                 m i ke

FRANCE
Sta     Dist  EvAz     Phase      Date       Time     TRes  Azim  AzRes  Slow  SRes Def   SNR       Amp   Per   Mag1   Mag2       ID
CDF   000.22 336.7 m E Pg      2013/03/29 16:05:34.0  -0.1                          T                                        5243415
CDF   000.22 336.7 m E Sg      2013/03/29 16:05:37.2  -0.1                          T                2.8  .26        Md 1.7  5243414
HINF  000.54 223.9 m E Pg      2013/03/29 16:05:39.6   0.0                          T                                        5243421
HINF  000.54 223.9 m E Sg      2013/03/29 16:05:47.0   0.2                          T                1.1  .16                5243420
HINF  000.54 223.9 m E Sn      2013/03/29 16:05:49.9  -0.1                          T                 .8  .12        Md 1.6  5243419
HAU   000.74 254.6 m E Pg      2013/03/29 16:05:43.4   0.1                          T                                        5243418
HAU   000.74 254.6 m E Pn      2013/03/29 16:05:44.2   0.1                          T                                        5243417
HAU   000.74 254.6 m E Sn      2013/03/29 16:05:53.2  -1.6                          T                1.3  .20                5243416
PAGF  001.18 287.9 m E Pn      2013/03/29 16:05:50.1   0.0 106.7  0.1               T                                        5243413
PAGF  001.18 287.9 m E Sn      2013/03/29 16:06:04.7  -0.4                          T                3.7  .40 Ml 1.9         5243412
CABF  001.83 209.8 m E Pn      2013/03/29 16:05:59.4   0.3                          T                                        5243511
CABF  001.83 209.8 m E Sn      2013/03/29 16:06:21.2   0.2                          T                 .6  .24 Ml 1.5         5243510
LOR   002.57 249.9 m E Pn      2013/03/29 16:06:08.8  -0.3                          T                                        5243507
SFTF  001.59 270.8 m E Sg      2013/03/29 16:06:19.2  -0.1                          T                 .8  .18 Ml 1.7         5249219

.
EVENT     294996
    Date      Time       Latitude Longitude    Depth    Ndef Nsta Gap    Mag1  N    Mag2  N    Mag3  N   Author         ID
       rms   OT_Error      Smajor Sminor Az        Err   mdist  Mdist     Err        Err        Err      Quality

2013/03/29 16:50:13.3     42.7438   -1.7134      2.0      16    3 154  Ml 1.6  2  Md 1.6  2              bulletin    295096
                                                                                                         _ldg
      0.62   +-  0.23       4.5    3.3   14.35 +-  0.0    0.10   1.54   +-0.2      +-0.0                 m i ke

PYRENEES
Sta     Dist  EvAz     Phase      Date       Time     TRes  Azim  AzRes  Slow  SRes Def   SNR       Amp   Per   Mag1   Mag2       ID
SJPF  000.51 044.0 m E Pg      2013/03/29 16:50:23.2   0.1                          T                                        5239685
SJPF  000.51 044.0 m E Sg      2013/03/29 16:50:30.3   0.4                          T                5.3  .31        Md 1.6  5239683
ETSF  000.86 079.3 m E Pg      2013/03/29 16:50:29.8   0.2                          T                                        5239684
ETSF  000.86 079.3 m E Sg      2013/03/29 16:50:40.9   0.1                          T                 .8  .17 Ml 1.4 Md 1.5  5239682
EPF   001.54 078.6 m E Pg      2013/03/29 16:50:41.8  -0.1                          T                                        5239681
EPF   001.54 078.6 m E Sg      2013/03/29 16:51:01.8   0.0                          T                1.1  .22 Ml 1.7         5239680

.
EVENT     294984
    Date      Time       Latitude Longitude    Depth    Ndef Nsta Gap    Mag1  N    Mag2  N    Mag3  N   Author         ID
       rms   OT_Error      Smajor Sminor Az        Err   mdist  Mdist     Err        Err        Err      Quality

2013/03/29 17:15:14.8     42.7214   -1.7487      2.0      65   19 071  Ml 2.7 21  Md 2.8  2              bulletin    295084
                                                                                                         _ldg
      0.86   +-  0.15       2.7    2.2   55.49 +-  0.0    0.13   6.04   +-0.2      +-0.1                 m i ke

PYRENEES
Sta     Dist  EvAz     Phase      Date       Time     TRes  Azim  AzRes  Slow  SRes Def   SNR       Amp   Per   Mag1   Mag2       ID
SJPF  000.55 044.3 m E Pg      2013/03/29 17:15:25.0  -0.3                          T                                        5239444
SJPF  000.55 044.3 m E Sg      2013/03/29 17:15:31.9  -0.5                          T              186.3  .46        Md 2.7  5239442
ETSF  000.89 078.2 m E Pg      2013/03/29 17:15:30.7  -0.9                          T                                        5239443
ETSF  000.89 078.2 m E Sg      2013/03/29 17:15:44.1   0.9                          T   001.0       33.5  .34 Ml 2.8 Md 2.8  5239436
EPF   001.57 077.9 m E Pn      2013/03/29 17:15:42.6   0.6                          T                                        5239793
EPF   001.57 077.9 m E Pg      2013/03/29 17:15:43.6  -0.4                          T   001.0                                5239427
EPF   001.57 077.9 m E Sn      2013/03/29 17:16:01.3  -0.4                          T   001.0                                5239428
EPF   001.57 077.9 m E Sg      2013/03/29 17:16:04.0  -0.2                          T               21.0  .29 Ml 2.9         5239792
LFF   002.86 038.2 m E Pn      2013/03/29 17:16:00.2   0.8                          T                                        5239445
LFF   002.86 038.2 m E Sn      2013/03/29 17:16:31.8  -0.6                          T                4.6  .23 Ml 2.5         5239794
MTLF  002.97 076.6 m E Pn      2013/03/29 17:16:01.9   0.9                          T   001.0                                5239437
MTLF  002.97 076.6 m E Sn      2013/03/29 17:16:40.3   5.1                          T   001.0        7.5  .48 Ml 2.6         5239438
RJF   003.49 041.3 m E Pn      2013/03/29 17:16:08.8   0.6                          T   001.0                                5239419
CAF   003.53 050.1 m E Pn      2013/03/29 17:16:08.8   0.1                          T   001.0                                5239425
RJF   003.49 041.3 m E Sn      2013/03/29 17:16:47.9   0.2                          T   001.0        9.2  .29 Ml 2.7         5239420
CAF   003.53 050.1 m E Sn      2013/03/29 17:16:48.9   0.3                          T   001.0        4.6  .23 Ml 2.8         5239426
MFF   004.05 015.9 m E Pn      2013/03/29 17:16:16.2   0.6                          T                                        5239796
MFF   004.05 015.9 m E Sn      2013/03/29 17:17:01.0   0.2                          T                2.1  .31 Ml 2.7         5239795
LASF  004.30 069.8 m E Pn      2013/03/29 17:16:19.8   0.6                          T   001.0                                5239430
LASF  004.30 069.8 m E Sn      2013/03/29 17:17:07.7   0.7                          T   001.0        5.9  .47 Ml 2.8         5239431
TCF   004.55 037.1 m E Pn      2013/03/29 17:16:22.3  -0.3                          T   001.0                                5239433
TCF   004.55 037.1 m E Sn      2013/03/29 17:17:12.5  -0.5                          T   001.0        2.1  .27 Ml 2.7         5239434
BGF   005.05 038.9 m E Pn      2013/03/29 17:16:29.3   0.0                          T   001.0                                5239423
BGF   005.05 038.9 m E Sn      2013/03/29 17:17:24.2  -0.5                          T   001.0       10.7  .31 Ml 3.4         5239424
VIVF  005.11 063.2 m E Pn      2013/03/29 17:16:30.9   0.7                          T                                        5239446
VIVF  005.11 063.2 m E Sn      2013/03/29 17:17:26.5   0.1                          T                 .7  .18 Ml 2.5         5239791
QUIF  005.29 349.6 m E Pn      2013/03/29 17:16:32.9   0.3                          T   001.0                                5239441
QUIF  005.29 349.6 m E Sn      2013/03/29 17:17:29.3  -1.2                          T                1.4  .23 Ml 2.7         5239797
AVF   005.45 040.0 m E Pn      2013/03/29 17:16:34.9   0.1                          T   001.0                                5239421
AVF   005.45 040.0 m E Sn      2013/03/29 17:17:34.1  -0.4                          T   001.0         .9  .26 Ml 2.5         5239422
SSF   005.72 038.9 m E Pn      2013/03/29 17:16:38.3  -0.2                          T                                        5239802
SSF   005.72 038.9 m E Sn      2013/03/29 17:17:40.1  -0.8                          T   001.0        1.7  .28 Ml 2.9         5239432
ROSF  005.72 349.7 m E Pn      2013/03/29 17:16:38.4   0.0                          T                                        5239799
ROSF  005.72 349.7 m E Sn      2013/03/29 17:17:41.0   0.3                          T                1.3  .19 Ml 2.9         5239798
LOR   006.04 039.2 m E Pn      2013/03/29 17:16:42.6  -0.2                          T                                        5239804
LOR   006.04 039.2 m E Sn      2013/03/29 17:17:49.1   0.6                          T                1.1  .23 Ml 2.8         5239803
LDF   005.98 010.4 m E Pn      2013/03/29 17:16:42.8   0.8                          T                                        5239801
LDF   005.98 010.4 m E Sn      2013/03/29 17:17:46.8  -0.3                          T                 .6  .26 Ml 2.4         5239800
GRR   005.70 006.0 m E Sn      2013/03/29 17:17:37.6  -2.8                          T   001.0       12.2  .96 Ml 3.0         5239429

.
