EVENT     286183
    Date      Time       Latitude Longitude    Depth    Ndef Nsta Gap    Mag1  N    Mag2  N    Mag3  N   Author         ID
       rms   OT_Error      Smajor Sminor Az        Err   mdist  Mdist     Err        Err        Err      Quality

2012/11/02 18:22:41.1     44.4307    6.7605      2.0      99   30 030  Ml 3.1 26  Md 2.6  7              bulletin    286283
                                                                                                         _ldg
      1.06   +-  0.10       2.4    2.1   58.01 +-  0.0    0.06   6.59   +-0.3      +-0.1                 m i ke

FRANCE
Sta     Dist  EvAz     Phase      Date       Time     TRes  Azim  AzRes  Slow  SRes Def   SNR       Amp   Per   Mag1   Mag2       ID
MBDF  000.30 001.5 m E Pg      2012/11/02 18:22:44.9  -2.1                          T                                        5107692
MBDF  000.30 001.5 m E Sg      2012/11/02 18:22:49.1  -2.0                          T              396.3  .24        Md 2.4  5107691
SBF   000.75 139.2 m E Pg      2012/11/02 18:22:54.4  -0.9                          T                                        5107684
SBF   000.75 139.2 m E Sg      2012/11/02 18:23:04.4  -0.6                          T   001.0      322.0  .34        Md 2.4  5107721
FRF   000.87 185.4 m E Pg      2012/11/02 18:22:56.5  -1.0                          T                                        5107686
FRF   000.87 185.4 m E Sg      2012/11/02 18:23:08.3  -0.6                          T              200.3  .20 Ml 3.8 Md 2.5  5107770
SMRF  000.97 242.3 m E Pg      2012/11/02 18:22:58.5  -0.8                          T                                        5107687
SMRF  000.97 242.3 m E Sg      2012/11/02 18:23:12.0   0.2                          T   001.0      118.6  .24 Ml 3.5 Md 2.7  5107722
LPG   001.07 359.7 m E Pg      2012/11/02 18:22:59.1  -2.3                          T                                        5107688
LPG   001.07 359.7 m E Sg      2012/11/02 18:23:13.0  -2.2                          T   001.0      103.5  .38 Ml 3.3 Md 2.7  5107762
LPL   001.09 359.0 m E Pg      2012/11/02 18:22:59.4  -2.3                          T                                        5107689
LPL   001.09 359.0 m E Sg      2012/11/02 18:23:13.5  -2.3                          T               78.7  .30 Ml 3.3 Md 2.6  5107769
LMR   001.11 189.5 m E Pg      2012/11/02 18:23:01.8  -0.1                          T                                        5107685
LMR   001.11 189.5 m E Sg      2012/11/02 18:23:16.3   0.1                          T   001.0      122.8  .24 Ml 3.6 Md 2.6  5107758
VIVF  001.55 286.7 m E Pn      2012/11/02 18:23:07.3  -0.7                          T   001.0                                5107746
VIVF  001.55 286.7 m E Sn      2012/11/02 18:23:27.2  -0.3                          T   001.0       46.0  .28 Ml 3.3         5107719
LASF  002.12 261.4 m E Pn      2012/11/02 18:23:14.9  -0.8                          T   001.0                                5107754
LASF  002.12 261.4 m E Sn      2012/11/02 18:23:40.9  -0.2                          T               18.3  .44 Ml 2.9         5107768
CABF  002.23 348.0 m E Pn      2012/11/02 18:23:18.3   0.9                          T   001.0                                5107733
CABF  002.23 348.0 m E Sn      2012/11/02 18:23:43.4  -0.5                          T   001.0       40.0  .86 Ml 2.9         5107734
CABF  002.23 348.0 m E Sg      2012/11/02 18:23:50.9  -0.4                          T               20.6  .32 Ml 3.1         5107775
PGF   002.49 138.3 m E Pn      2012/11/02 18:23:20.9   0.0                          T   001.0                                5107764
PGF   002.49 138.3 m E Sn      2012/11/02 18:23:50.1   0.0                          T   001.0       46.4  .70 Ml 3.4         5107765
SMF   003.02 318.2 m E Pn      2012/11/02 18:23:28.2   0.2                          T   001.0                                5107727
SMF   003.02 318.2 m E Sn      2012/11/02 18:24:01.1  -1.5                          T   001.0        7.9  .28 Ml 2.9         5107728
HINF  003.39 001.1 m E Pn      2012/11/02 18:23:32.6  -0.4                          T   001.0                                5107736
HINF  003.39 001.1 m E Sn      2012/11/02 18:24:11.4  -0.1                          T   001.0        4.9  .34 Ml 2.7         5107737
HINF  003.39 001.1 m E Sg      2012/11/02 18:24:26.8  -0.6                          T   001.0       10.3  .46 Ml 2.9         5107738
CAF   003.39 280.0 m E Pn      2012/11/02 18:23:33.0   0.0                          T   001.0                                5107745
CAF   003.39 280.0 m E Sn      2012/11/02 18:24:11.7   0.3                          T   001.0                                5107747
AVF   003.36 315.8 m E Pn      2012/11/02 18:23:33.2   0.6                          T   001.0                                5107726
AVF   003.36 315.8 m E Sg      2012/11/02 18:24:26.6   0.1                          T               19.0  .47 Ml 3.1         5107774
MTLF  003.46 253.2 m E Pn      2012/11/02 18:23:34.0   0.0                          T   001.0                                5107741
MTLF  003.46 253.2 m E Sn      2012/11/02 18:24:12.5  -0.7                          T   001.0        4.5  .24 Ml 2.8         5107742
MTLF  003.46 253.2 m E Sg      2012/11/02 18:24:31.2   1.6                          T   001.0        4.9  .34 Ml 2.7         5107743
LOR   003.49 325.5 m E Pn      2012/11/02 18:23:34.7   0.3 150.0  6.6               T   001.0                                5107759
LOR   003.49 325.5 m E Sn      2012/11/02 18:24:13.8   0.0                          T   001.0       15.5  .34 Ml 3.2         5107760
LOR   003.49 325.5 m E Sg      2012/11/02 18:24:30.4  -0.1                          T   001.0       10.9  .34 Ml 3.1         5107761
BGF   003.48 309.1 m E Pn      2012/11/02 18:23:34.8   0.5                          T   001.0                                5107744
BGF   003.48 309.1 m E Sn      2012/11/02 18:24:13.8   0.2                          T               11.1  .33 Ml 3.1         5107773
BGF   003.48 309.1 m E Sg      2012/11/02 18:24:30.0  -0.2                          T               37.9  .46 Ml 3.4         5107772
SSF   003.48 320.3 m E Pn      2012/11/02 18:23:34.9   0.6                          T   001.0                                5107729
SSF   003.48 320.3 m E Sg      2012/11/02 18:24:29.6  -0.7                          T                8.0  .32 Ml 3.0         5107776
TCF   003.71 301.7 m E Pn      2012/11/02 18:23:37.0  -0.4                          T   001.0                                5107730
RJF   003.83 285.0 m E Pn      2012/11/02 18:23:39.0  -0.1                          T   001.0                                5107724
RJF   003.83 285.0 m E Sn      2012/11/02 18:24:21.4  -0.6                          T   001.0        5.5  .32 Ml 2.5         5107725
SFTF  003.96 343.1 m E Pn      2012/11/02 18:23:40.0  -0.8                          T                                        5107767
CDF   004.00 004.9 m E Pn      2012/11/02 18:23:41.0  -0.5                          T   001.0                                5107749
PAGF  004.19 350.5 m E Pn      2012/11/02 18:23:43.0  -0.9 163.6  -6.2              T                                        5107766
ETSF  005.53 256.5 m E Pn      2012/11/02 18:24:01.6  -0.6                          T   001.0                                5107735
BAIF  005.89 343.8 m E Pn      2012/11/02 18:24:08.6   1.5                          T   001.0                                5107731
BAIF  005.89 343.8 m E Sn      2012/11/02 18:25:12.8   1.6                          T   001.0        3.5  .48 Ml 2.9         5107732
LDF   006.32 313.7 m E Pn      2012/11/02 18:24:14.1   1.2                          T   001.0                                5107755
GRR   006.59 309.6 m E Pn      2012/11/02 18:24:17.0   0.5                          T   001.0                                5107753
MEZF  004.24 344.4 m E Sn      2012/11/02 18:24:32.5   0.8                          T   001.0       11.4  .36 Ml 3.2         5107739
MEZF  004.24 344.4 m E Sg      2012/11/02 18:24:53.0  -0.9                          T   001.0       19.0  .48 Ml 3.3         5107740
EPF   004.86 255.5 m E Sg      2012/11/02 18:25:13.8   0.5                          T   001.0        5.9  .52 Ml 2.9         5107750

.
EVENT     286184
    Date      Time       Latitude Longitude    Depth    Ndef Nsta Gap    Mag1  N    Mag2  N    Mag3  N   Author         ID
       rms   OT_Error      Smajor Sminor Az        Err   mdist  Mdist     Err        Err        Err      Quality

2012/11/02 19:07:19.5     43.0947    -.5575      2.0      55   10 084  Ml 2.5  8  Md 2.5  3              bulletin    286284
                                                                                                         _ldg
      0.47   +-  0.05       1.2    1.0  148.37 +-  0.0    0.11   4.23   +-0.3      +-0.0                 m i ke

PYRENEES
Sta     Dist  EvAz     Phase      Date       Time     TRes  Azim  AzRes  Slow  SRes Def   SNR       Amp   Per   Mag1   Mag2       ID
ETSF  000.20 180.4 m E Pg      2012/11/02 19:07:22.6  -0.9                          T                                        5107811
ETSF  000.20 180.4 m E Sg      2012/11/02 19:07:24.9  -1.3                          T              394.2  .22        Md 2.5  5107810
SJPF  000.49 272.4 m E Pg      2012/11/02 19:07:28.8   0.0                          T                                        5107809
SJPF  000.49 272.4 m E Sg      2012/11/02 19:07:35.3   0.0                          T               16.7  .20        Md 2.5  5107817
EPF   000.66 095.3 m E Pg      2012/11/02 19:07:32.0   0.0                          T                                        5107808
EPF   000.66 095.3 m E Pn      2012/11/02 19:07:34.2  -0.1                          T                                        5107838
EPF   000.66 095.3 m E Sg      2012/11/02 19:07:40.6  -0.1                          T               10.5  .22        Md 2.5  5107805
MTLF  002.04 082.1 m E Pn      2012/11/02 19:07:52.7  -0.3                          T                                        5107807
MTLF  002.04 082.1 m E Pg      2012/11/02 19:07:57.2  -0.2                          T                                        5107840
MTLF  002.04 082.1 m E Sn      2012/11/02 19:08:17.5  -0.1                          T                                        5107839
MTLF  002.04 082.1 m E Sg      2012/11/02 19:08:23.8   0.0                          T                4.5  .22 Ml 2.5         5107804
LFF   002.07 026.5 m E Pn      2012/11/02 19:07:52.8  -0.6                          T                                        5107806
LFF   002.07 026.5 m E Pg      2012/11/02 19:07:58.1   0.2                          T                                        5107836
LFF   002.07 026.5 m E Sn      2012/11/02 19:08:18.2   0.0                          T                                        5107812
LFF   002.07 026.5 m E Sg      2012/11/02 19:08:24.6   0.1                          T               13.6  .41 Ml 2.6         5107835
CAF   002.63 045.0 m E Pn      2012/11/02 19:08:00.9  -0.2                          T                                        5107816
CAF   002.63 045.0 m E Sn      2012/11/02 19:08:32.1   0.3                          T                                        5107815
CAF   002.63 045.0 m E Sg      2012/11/02 19:08:42.1   0.0                          T                3.2  .22 Ml 2.5         5107837
RJF   002.67 033.3 m E Pn      2012/11/02 19:08:01.4  -0.2                          T                                        5107814
RJF   002.67 033.3 m E Pg      2012/11/02 19:08:08.8  -0.1                          T                                        5107834
RJF   002.67 033.3 m E Sn      2012/11/02 19:08:32.8   0.3                          T                                        5107833
RJF   002.67 033.3 m E Sg      2012/11/02 19:08:43.1  -0.1                          T                4.9  .27 Ml 2.3         5107832
MFF   003.52 004.6 m E Pn      2012/11/02 19:08:13.2   0.0                          T                                        5107813
MFF   003.52 004.6 m E Pg      2012/11/02 19:08:24.5  -0.1                          T                                        5107821
MFF   003.52 004.6 m E Sn      2012/11/02 19:08:53.0   0.1                          T                                        5107822
MFF   003.52 004.6 m E Sg      2012/11/02 19:09:09.8   0.0                          T                2.2  .31 Ml 2.6         5107823
TCF   003.75 030.8 m E Pn      2012/11/02 19:08:16.7   0.3                          T                                        5107827
TCF   003.75 030.8 m E Pg      2012/11/02 19:08:29.3   0.3                          T                                        5107826
TCF   003.75 030.8 m E Sn      2012/11/02 19:08:58.2  -0.4                          T                                        5107825
TCF   003.75 030.8 m E Sg      2012/11/02 19:09:17.5   0.4                          T                1.5  .20 Ml 2.5         5107824
BGF   004.23 033.8 m E Pn      2012/11/02 19:08:22.9   0.1                          T                                        5107831
BGF   004.23 033.8 m E Pg      2012/11/02 19:08:38.0   0.4                          T                                        5107830
BGF   004.23 033.8 m E Sn      2012/11/02 19:09:09.8   0.0                          T                                        5107829
BGF   004.23 033.8 m E Sg      2012/11/02 19:09:31.9   0.1                          T               10.2  .39 Ml 3.1         5107828

.
EVENT     286192
    Date      Time       Latitude Longitude    Depth    Ndef Nsta Gap    Mag1  N    Mag2  N    Mag3  N   Author         ID
       rms   OT_Error      Smajor Sminor Az        Err   mdist  Mdist     Err        Err        Err      Quality

2012/11/03 02:44:02.4     41.8290   15.9178     10.0     128   10 028  Ml 3.3  5                         bulletin    286292
                                                                                                         _ldg
      1.14   +-  0.12       3.7    2.8   48.02 +-  0.0    0.12  10.18   +-0.2                            m i ke

SOUTHERN ITALY
Sta     Dist  EvAz     Phase      Date       Time     TRes  Azim  AzRes  Slow  SRes Def   SNR       Amp   Per   Mag1   Mag2       ID
MBDF  007.28 296.5 m E Pn      2012/11/03 02:45:47.0   0.4                          T                                        5108348
LPL   007.61 302.1 m E Pn      2012/11/03 02:45:50.8  -0.4                          T                                        5108346
LPL   007.61 302.1 m E Sn      2012/11/03 02:47:12.3  -0.2                          T                3.6  .31 Ml 3.4         5108343
SMRF  007.89 289.2 m E Pn      2012/11/03 02:45:55.3   0.5                          T                                        5108347
CABF  008.52 307.4 m E Pn      2012/11/03 02:46:03.4  -0.1                          T                                        5108349
CABF  008.52 307.4 m E Sn      2012/11/03 02:47:33.9  -0.2                          T                1.6  .30 Ml 3.2         5108340
VIVF  008.74 294.0 m E Pn      2012/11/03 02:46:06.6   0.3                          T                                        5108345
HINF  008.79 316.0 m E Pn      2012/11/03 02:46:07.6   0.5                          T                                        5108350
HINF  008.79 316.0 m E Sn      2012/11/03 02:47:38.2  -2.2                          T                2.5  .21 Ml 3.6         5108341
CDF   008.98 320.1 m E Pn      2012/11/03 02:46:10.1   0.4                          T                                        5108352
CDF   008.98 320.1 m E Sn      2012/11/03 02:47:44.7  -0.3                          T                 .9  .24 Ml 3.2         5108354
LASF  009.13 288.3 m E Pn      2012/11/03 02:46:11.7   0.1                          T                                        5108344
LOR   010.18 306.4 m E Pn      2012/11/03 02:46:26.4   0.5 119.6  1.6               T                                        5108351
LPG   007.59 302.0 m E Sn      2012/11/03 02:47:12.0  -0.1                          T                 .9  .20 Ml 3.0         5108342

.
EVENT     286196
    Date      Time       Latitude Longitude    Depth    Ndef Nsta Gap    Mag1  N    Mag2  N    Mag3  N   Author         ID
       rms   OT_Error      Smajor Sminor Az        Err   mdist  Mdist     Err        Err        Err      Quality

2012/11/03 05:57:28.4     37.0795  -13.1336     20.0 f    57    3 299  Ml 3.4  3                         bulletin    286296
                                                                                                         _ldg
      1.06   +-  0.46       8.7    7.0   59.96 +-  0.0    3.44  11.91   +-0.1                            m i ke

NORTH ATLANTIC OCEAN
Sta     Dist  EvAz     Phase      Date       Time     TRes  Azim  AzRes  Slow  SRes Def   SNR       Amp   Per   Mag1   Mag2       ID
SJPF  010.93 052.9 m E Pn      2012/11/03 06:00:01.1   0.1                          T                                        5108528
SJPF  010.93 052.9 m E Sn      2012/11/03 06:01:55.2  -0.4                          T                 .8  .29 Ml 3.3         5108522
ETSF  011.26 055.0 m E Pn      2012/11/03 06:00:06.4   0.9                          T                                        5108527
ETSF  011.26 055.0 m E Sn      2012/11/03 06:02:01.8  -1.7                          T                 .8  .31 Ml 3.3         5108521
EPF   011.91 055.9 m E Pn      2012/11/03 06:00:15.5   1.1                          T                                        5108526
EPF   011.91 055.9 m E Sn      2012/11/03 06:02:18.3  -0.8                          T                 .9  .31 Ml 3.4         5120286

.
EVENT     286197
    Date      Time       Latitude Longitude    Depth    Ndef Nsta Gap    Mag1  N    Mag2  N    Mag3  N   Author         ID
       rms   OT_Error      Smajor Sminor Az        Err   mdist  Mdist     Err        Err        Err      Quality

2012/11/03 06:03:33.5     37.2012  -12.9734     20.0 f    55    3 296  Ml 3.2  3                         bulletin    286297
                                                                                                         _ldg
      0.83   +-  0.40       7.8    5.9   56.29 +-  0.0    3.31  11.73   +-0.2                            m i ke

NORTH ATLANTIC OCEAN
Sta     Dist  EvAz     Phase      Date       Time     TRes  Azim  AzRes  Slow  SRes Def   SNR       Amp   Per   Mag1   Mag2       ID
SJPF  010.75 053.1 m E Pn      2012/11/03 06:06:04.5   0.8                          T                                        5108564
SJPF  010.75 053.1 m E Sn      2012/11/03 06:07:56.4  -0.2                          T                1.7  .46 Ml 3.4         5120290
ETSF  011.08 055.3 m E Pn      2012/11/03 06:06:08.9   0.7                          T                                        5108563
ETSF  011.08 055.3 m E Sn      2012/11/03 06:08:03.7  -0.8                          T                 .2  .15 Ml 3.0         5120289
EPF   011.73 056.1 m E Pn      2012/11/03 06:06:17.6   0.5                          T                                        5108562
EPF   011.73 056.1 m E Sn      2012/11/03 06:08:19.8  -0.3                          T                 .4  .23 Ml 3.2         5120288

.
