EVENT     271133
    Date      Time       Latitude Longitude    Depth    Ndef Nsta Gap    Mag1  N    Mag2  N    Mag3  N   Author         ID
       rms   OT_Error      Smajor Sminor Az        Err   mdist  Mdist     Err        Err        Err      Quality

2012/03/02 02:00:58.5     44.4883    6.6942      2.0      28    7 098  Ml 1.2  5  Md 1.5  1              js067245    271154

      1.05   +-  0.11       2.4    1.7   49.05 +-  0.0    0.09   1.49   +-0.2      +-                    m i ke

FRANCE
Sta     Dist  EvAz     Phase      Date       Time     TRes  Azim  AzRes  Slow  SRes Def   SNR       Amp   Per   Mag1   Mag2       ID
MBDF  000.24 013.0 m E Pg      2012/03/02 02:01:03.6   0.1                          T                                        4864828
MBDF  000.24 013.0 m E Sg      2012/03/02 02:01:06.8  -0.1                          T                1.1  .19        Md 1.5  4864817
ORIF  000.72 306.8 m E Pg      2012/03/02 02:01:12.2   0.0                          T                                        4864821
ORIF  000.72 306.8 m E Sg      2012/03/02 02:01:21.4  -0.2                          T                 .7  .23                4864818
FRF   000.93 182.1 m E P       2012/03/02 02:01:18.0   0.0                          T                                        4864820
FRF   000.93 182.1 m E Sg      2012/03/02 02:01:28.5   0.5                          T                 .8  .23 Ml 1.3         4864824
LMR   001.16 186.7 m E P       2012/03/02 02:01:21.3  -0.4                          T                                        4864830
LMR   001.16 186.7 m E Sg      2012/03/02 02:01:37.4   2.1                          T                 .7  .21 Ml 1.4         4864819
VIVF  001.49 285.0 m E Pg      2012/03/02 02:01:26.5   0.2                          T                                        4864826
VIVF  001.49 285.0 m E Sg      2012/03/02 02:01:45.6   0.1                          T                 .6  .33 Ml 1.3         4864827
LPG   001.01 002.3 m E Sg      2012/03/02 02:01:31.2   0.3                          T                 .3  .20 Ml 1.1         4864829
LPL   001.03 001.5 m E Sg      2012/03/02 02:01:31.7   0.3                          T                 .5  .27 Ml 1.1         4864825

.
EVENT     271159
    Date      Time       Latitude Longitude    Depth    Ndef Nsta Gap    Mag1  N    Mag2  N    Mag3  N   Author         ID
       rms   OT_Error      Smajor Sminor Az        Err   mdist  Mdist     Err        Err        Err      Quality

2012/03/02 02:14:27.9     46.7229    7.2258      2.0      22   11 100  Ml 1.9  5  Md 1.9  2              js067245    271180

      0.23   +-  0.06       1.2     .8   86.56 +-  0.0    0.08   2.66   +-0.2      +-0.2                 m i ke

SWITZERLAND
Sta     Dist  EvAz     Phase      Date       Time     TRes  Azim  AzRes  Slow  SRes Def   SNR       Amp   Per   Mag1   Mag2       ID
CABF  000.79 262.3 m E P       2012/03/02 02:14:44.7   0.0                          T                                        4864844
CABF  000.79 262.3 m E Sg      2012/03/02 02:14:53.4   0.2                          T                2.0  .18        Md 1.8  4864846
CABF  000.79 262.3 m E Sn      2012/03/02 02:14:56.3   0.0                          T                                        4864845
HINF  001.12 347.1 m E Pg      2012/03/02 02:14:49.0   0.1                          T                                        4864836
HINF  001.12 347.1 m E Sg      2012/03/02 02:15:03.5   0.0                          T                1.9  .26 Ml 1.7 Md 2.0  4864832
LPL   001.25 196.1 m E Pn      2012/03/02 02:14:51.0  -0.1                          T                                        4864833
LPL   001.25 196.1 m E P       2012/03/02 02:14:53.0   0.2                          T                                        4864834
LPL   001.25 196.1 m E Sg      2012/03/02 02:15:07.5  -0.3                          T                                        4864838
LPG   001.27 195.2 m E P       2012/03/02 02:14:53.0   0.0                          T                                        4864835
LPG   001.27 195.2 m E Sg      2012/03/02 02:15:08.5   0.1                          T                                        4864837
HAU   001.42 335.4 m E Pg      2012/03/02 02:14:54.3   0.0                          T                                        4864841
HAU   001.42 335.4 m E Sg      2012/03/02 02:15:12.8   0.2                          T                2.9  .28 Ml 1.8         4864843
CDF   001.69 001.1 m E Pg      2012/03/02 02:14:59.6   0.2                          T                                        4864848
CDF   001.69 001.1 m E Sg      2012/03/02 02:15:21.0  -0.3                          T                 .7  .24 Ml 1.7         4864847
THEF  001.72 331.4 m E Sg      2012/03/02 02:15:22.2   0.0                          T                1.3  .19 Ml 2.0         4864842
MEZF  002.31 321.2 m E Sg      2012/03/02 02:15:39.3  -1.1                          T                                        4864849
SMF   002.33 269.3 m E Sg      2012/03/02 02:15:41.0  -0.1                          T                                        4864839
LOR   002.37 284.5 m E Sg      2012/03/02 02:15:42.0  -0.3                          T                1.5  .22 Ml 2.1         4864831
AVF   002.66 272.9 m E Sg      2012/03/02 02:15:51.0  -0.5                          T                                        4864840

.
EVENT     271134
    Date      Time       Latitude Longitude    Depth    Ndef Nsta Gap    Mag1  N    Mag2  N    Mag3  N   Author         ID
       rms   OT_Error      Smajor Sminor Az        Err   mdist  Mdist     Err        Err        Err      Quality

2012/03/02 02:55:05.7     44.4402    7.0020      2.0      44    8 038  Ml 1.7  5  Md 1.9  1              js067245    271155

      0.51   +-  0.07       1.5    1.1   51.51 +-  0.0    0.10   1.20   +-0.3      +-                    m i ke

NORTHERN ITALY
Sta     Dist  EvAz     Phase      Date       Time     TRes  Azim  AzRes  Slow  SRes Def   SNR       Amp   Per   Mag1   Mag2       ID
MBDF  000.33 330.2 m E Pg      2012/03/02 02:55:12.1  -0.2                          T                                        4865071
MBDF  000.33 330.2 m E Sg      2012/03/02 02:55:16.7  -0.1                          T               11.0  .24        Md 1.9  4865070
SBF   000.66 151.5 m E Pg      2012/03/02 02:55:19.1   1.0                          T                                        4865057
SBF   000.66 151.5 m E Sg      2012/03/02 02:55:26.9   0.2                          T                2.5  .22                4865058
FRF   000.92 196.4 m E Pg      2012/03/02 02:55:23.1   0.3                          T                                        4865063
FRF   000.92 196.4 m E Sg      2012/03/02 02:55:35.0   0.2                          T                2.6  .22 Ml 1.9         4865064
ORIF  000.93 301.2 m E Pg      2012/03/02 02:55:23.3   0.0                          T                                        4865068
ORIF  000.93 301.2 m E Sg      2012/03/02 02:55:36.1   0.7                          T                1.1  .22 Ml 1.5         4865067
LPG   001.07 350.5 m E Pg      2012/03/02 02:55:25.9  -0.2                          T                                        4865062
LPG   001.07 350.5 m E Sg      2012/03/02 02:55:41.3   1.3                          T                1.1  .30 Ml 1.4         4865061
LPL   001.09 350.0 m E Pg      2012/03/02 02:55:26.2  -0.2                          T                                        4865069
SMRF  001.13 246.2 m E Pg      2012/03/02 02:55:27.7   0.9                          T                                        4865065
SMRF  001.13 246.2 m E Sg      2012/03/02 02:55:42.7   1.3                          T                2.1  .22 Ml 1.8         4865066
LMR   001.16 198.0 m E Pg      2012/03/02 02:55:27.8   0.5                          T                                        4865060
LMR   001.16 198.0 m E Sg      2012/03/02 02:55:42.9   0.4                          T                2.5  .20 Ml 2.0         4865059

.
EVENT     271147
    Date      Time       Latitude Longitude    Depth    Ndef Nsta Gap    Mag1  N    Mag2  N    Mag3  N   Author         ID
       rms   OT_Error      Smajor Sminor Az        Err   mdist  Mdist     Err        Err        Err      Quality

2012/03/02 03:58:58.0     44.5194    6.7101      2.0      35    8 067  Ml 1.4  5  Md 1.3  3              js067245    271168

      0.59   +-  0.08       1.7    1.1   63.46 +-  0.0    0.08   1.19   +-0.1      +-0.1                 m i ke

FRANCE
Sta     Dist  EvAz     Phase      Date       Time     TRes  Azim  AzRes  Slow  SRes Def   SNR       Amp   Per   Mag1   Mag2       ID
MBDF  000.21 011.9 m E Pg      2012/03/02 03:59:02.5   0.1                          T                                        4865155
MBDF  000.21 011.9 m E Sg      2012/03/02 03:59:05.5   0.1                          T                2.3  .18        Md 1.2  4865154
ORIF  000.71 304.3 m E Pg      2012/03/02 03:59:11.2  -0.4                          T                                        4865165
ORIF  000.71 304.3 m E Sg      2012/03/02 03:59:21.0   0.0                          T                 .9  .24        Md 1.4  4865156
SBF   000.84 141.3 m E Pg      2012/03/02 03:59:13.8   0.0                          T                                        4865164
SBF   000.84 141.3 m E Sg      2012/03/02 03:59:24.6  -0.2                          T                                Md 1.3  4865163
SBF   000.84 141.3 m E Sn      2012/03/02 03:59:27.5   0.0                          T                                        4865162
FRF   000.96 182.8 m E Pg      2012/03/02 03:59:16.5   0.5                          T                                        4865151
FRF   000.96 182.8 m E Sg      2012/03/02 03:59:28.9   0.5                          T                                        4865161
FRF   000.96 182.8 m E Sn      2012/03/02 03:59:30.7   0.4                          T                1.1  .22 Ml 1.5         4865147
LPG   000.98 001.7 m E Pg      2012/03/02 03:59:17.1   0.4                          T                                        4865152
LPG   000.98 001.7 m E Sg      2012/03/02 03:59:29.4   0.0                          T                 .8  .22 Ml 1.4         4865149
LPL   001.00 000.9 m E Pg      2012/03/02 03:59:17.2   0.3                          T                                        4865158
LPL   001.00 000.9 m E P       2012/03/02 03:59:19.4   0.2                          T                                        4865159
LPL   001.00 000.9 m E Sg      2012/03/02 03:59:29.9   0.0                          T                 .7  .24 Ml 1.3         4865160
SMRF  000.98 236.7 m E Pg      2012/03/02 03:59:17.6   1.1                          T                                        4865153
SMRF  000.98 236.7 m E Sg      2012/03/02 03:59:30.0   0.8                          T                 .8  .27 Ml 1.3         4865148
LMR   001.19 187.1 m E Pg      2012/03/02 03:59:20.7   0.4                          T                                        4865145
LMR   001.19 187.1 m E Sg      2012/03/02 03:59:35.9   0.1                          T                 .6  .24 Ml 1.3         4865146

.
EVENT     271145
    Date      Time       Latitude Longitude    Depth    Ndef Nsta Gap    Mag1  N    Mag2  N    Mag3  N   Author         ID
       rms   OT_Error      Smajor Sminor Az        Err   mdist  Mdist     Err        Err        Err      Quality

2012/03/02 06:18:07.4     44.8125    2.9783      4.0 f    33   15 061  Ml 2.1 17  Md 2.1  6              js067245    271166

      0.47   +-  0.06       1.2     .9  105.84 +-  0.0    0.46   2.82   +-0.2      +-0.1                 m i ke

FRANCE
Sta     Dist  EvAz     Phase      Date       Time     TRes  Azim  AzRes  Slow  SRes Def   SNR       Amp   Per   Mag1   Mag2       ID
CAF   000.66 280.2 m E Pg      2012/03/02 06:18:19.9   0.0                          T   001.0                                4859509
CAF   000.66 280.2 m E P       2012/03/02 06:18:21.4   0.1                          T                                        4865186
CAF   000.66 280.2 m E Sg      2012/03/02 06:18:28.6   0.0                          T   001.0        4.0  .16        Md 2.1  4859510
LASF  000.97 139.2 m E Pg      2012/03/02 06:18:25.7   0.2                          T                                        4865174
LASF  000.97 139.2 m E Sg      2012/03/02 06:18:38.6   0.5                          T   001.0        5.0  .24 Ml 2.1 Md 2.0  4859513
RJF   001.15 295.9 m E Pg      2012/03/02 06:18:28.5  -0.3                          T                                        4865185
RJF   001.15 295.9 m E Sg      2012/03/02 06:18:43.9   0.2                          T                6.1  .20 Ml 2.0 Md 2.2  4865167
VIVF  001.21 087.3 m E Pg      2012/03/02 06:18:29.9   0.0                          T                                        4865173
VIVF  001.21 087.3 m E Sg      2012/03/02 06:18:45.7   0.1                          T   001.0        4.3  .24 Ml 2.2 Md 2.2  4859524
MTLF  001.57 200.7 m E Pg      2012/03/02 06:18:36.5  -0.1                          T                                        4865172
MTLF  001.57 200.7 m E Sg      2012/03/02 06:18:56.5  -0.4                          T   001.0        6.6  .30 Ml 2.4         4859522
BGF   001.75 357.0 m E Pn      2012/03/02 06:18:36.6  -0.2                          T                                        4865183
BGF   001.75 357.0 m E Pg      2012/03/02 06:18:39.7  -0.2                          T                                        4865170
BGF   001.75 357.0 m E Sg      2012/03/02 06:19:02.7   0.2                          T   001.0        3.7  .33 Ml 2.2         4859508
TCF   001.57 340.2 m E Pg      2012/03/02 06:18:36.8   0.1                          T                                        4865181
TCF   001.57 340.2 m E Sg      2012/03/02 06:18:57.1   0.1                          T                3.5  .28 Ml 2.2 Md 2.1  4865171
SMF   001.93 017.9 m E Pg      2012/03/02 06:18:42.7  -0.6                          T   001.0                                4859517
SMF   001.93 017.9 m E Sg      2012/03/02 06:19:07.4  -0.7                          T   001.0        1.7  .20 Ml 2.1         4859518
AVF   002.00 007.4 m E Pg      2012/03/02 06:18:43.8  -0.7                          T   001.0                                4859506
AVF   002.00 007.4 m E Sg      2012/03/02 06:19:09.5  -0.7                          T   001.0        1.2  .25 Ml 1.9         4859507
SSF   002.28 009.1 m E Pg      2012/03/02 06:18:49.6  -0.1                          T                                        4865180
SSF   002.28 009.1 m E Sg      2012/03/02 06:19:19.1   0.1                          T   001.0        1.4  .28 Ml 2.1         4859519
LOR   002.53 013.7 m E Pg      2012/03/02 06:18:54.5   0.1 197.2  2.9               T   001.0                                4859515
LOR   002.53 013.7 m E Sg      2012/03/02 06:19:26.9   0.0 195.3  1.0               T   001.0        1.5  .26 Ml 2.1         4859516
LFF   001.60 275.3 m E Sg      2012/03/02 06:18:57.8   0.1                          T   001.0        3.7  .29 Ml 2.0         4859514
HYF   002.47 354.6 m E Sg      2012/03/02 06:19:25.0   0.0                          T                                        4865182
EPF   002.61 227.9 m E Sg      2012/03/02 06:19:29.7   0.3                          T   001.0        1.6  .22 Ml 2.2         4859511
CABF  002.82 049.4 m E Sg      2012/03/02 06:19:36.4   0.2                          T   001.0         .7  .26 Ml 1.8         4859521

.
