EVENT     256430
    Date      Time       Latitude Longitude    Depth    Ndef Nsta Gap    Mag1  N    Mag2  N    Mag3  N   Author         ID
       rms   OT_Error      Smajor Sminor Az        Err   mdist  Mdist     Err        Err        Err      Quality

2011/02/27 13:00:40.2     44.1062    7.1912      2.0      22    9 151  Ml 2.0  8  Md 2.0  3              js067245    256450

      0.78   +-  0.09       2.4    1.3   59.44 +-  0.0    0.30   2.04   +-0.4      +-0.0                 m i ke

NORTHERN ITALY
Sta     Dist  EvAz     Phase      Date       Time     TRes  Azim  AzRes  Slow  SRes Def   SNR       Amp   Per   Mag1   Mag2       ID
SBF   000.30 144.0 m E Pg      2011/02/27 13:00:46.3   0.2                          T                                        4654985
SBF   000.30 144.0 m E Sg      2011/02/27 13:00:50.1  -0.1                          T               17.1  .27        Md 2.1  4654993
MBDF  000.69 334.3 m E Pg      2011/02/27 13:00:53.6   0.1                          T                                        4654994
MBDF  000.69 334.3 m E Sg      2011/02/27 13:01:02.3  -0.1                          T                5.7  .36        Md 2.0  4654990
LMR   000.92 212.9 m E Pg      2011/02/27 13:00:57.4   0.0                          T                                        4654996
LMR   000.92 212.9 m E Sg      2011/02/27 13:01:08.9  -0.4                          T               10.9  .23 Ml 2.5 Md 2.1  4654992
SMRF  001.17 264.2 m E Pg      2011/02/27 13:01:02.6   0.4                          T                                        4654988
SMRF  001.17 264.2 m E Sg      2011/02/27 13:01:17.3   0.0                          T                9.3  .22 Ml 2.5         4654991
ORIF  001.24 311.3 m E Pg      2011/02/27 13:01:03.7   0.2                          T                                        4654995
ORIF  001.24 311.3 m E Sg      2011/02/27 13:01:19.6   0.0                          T                2.3  .32 Ml 1.8         4654989
LPG   001.43 347.5 m E Pg      2011/02/27 13:01:06.5  -0.7                          T                                        4654987
LPG   001.43 347.5 m E Sg      2011/02/27 13:01:25.7   0.1                          T                 .7  .22 Ml 1.5         4654981
LPL   001.45 347.1 m E Pg      2011/02/27 13:01:07.6   0.1                          T                                        4654986
LPL   001.45 347.1 m E Sg      2011/02/27 13:01:26.2   0.1                          T                1.7  .35 Ml 1.7         4654982
VIVF  001.95 293.5 m E Pn      2011/02/27 13:01:12.4  -0.2                          T                                        4654984
VIVF  001.95 293.5 m E Sn      2011/02/27 13:01:36.3   0.0                          T                1.2  .22 Ml 1.9         4654983
PGF   002.04 139.1 m E Pn      2011/02/27 13:01:14.0   0.1                          T                                        4654980
PGF   002.04 139.1 m E Sn      2011/02/27 13:01:38.2  -0.3                          T                  1  .21 Ml 2.1         4654979

.
EVENT     256431
    Date      Time       Latitude Longitude    Depth    Ndef Nsta Gap    Mag1  N    Mag2  N    Mag3  N   Author         ID
       rms   OT_Error      Smajor Sminor Az        Err   mdist  Mdist     Err        Err        Err      Quality

2011/02/27 15:58:21.9     44.1865    6.8261      2.0      20    9 128  Ml 2.0  8  Md 2.0  3              js067245    256451

      0.08   +-  0.02        .6     .4   67.17 +-  0.0    0.54   2.28   +-0.3      +-0.0                 m i ke

FRANCE
Sta     Dist  EvAz     Phase      Date       Time     TRes  Azim  AzRes  Slow  SRes Def   SNR       Amp   Per   Mag1   Mag2       ID
SBF   000.55 126.1 m E Pg      2011/02/27 15:58:32.4   0.1                          T                                        4655015
SBF   000.55 126.1 m E Sg      2011/02/27 15:58:39.4  -0.1                          T               27.3  .42        Md 2.0  4655003
MBDF  000.54 355.9 m E Pg      2011/02/27 15:58:32.5   0.1                          T                                        4655016
MBDF  000.54 355.9 m E Sg      2011/02/27 15:58:39.5   0.0                          T                6.8  .35        Md 2.0  4654999
LMR   000.88 195.2 m E Pg      2011/02/27 15:58:38.4  -0.1                          T                                        4655013
LMR   000.88 195.2 m E Sg      2011/02/27 15:58:50.1   0.1                          T                7.1  .26 Ml 2.2 Md 2.1  4655010
SMRF  000.93 257.3 m E Pg      2011/02/27 15:58:39.4   0.1                          T                                        4655012
SMRF  000.93 257.3 m E Sg      2011/02/27 15:58:51.3  -0.1                          T               11.4  .39 Ml 2.3         4655009
ORIF  001.00 317.6 m E Pg      2011/02/27 15:58:40.6   0.0                          T                                        4655008
ORIF  001.00 317.6 m E Sg      2011/02/27 15:58:53.7   0.1                          T                6.5  .45 Ml 2.0         4655000
LPG   001.31 357.7 m E Pg      2011/02/27 15:58:46.8   0.0                          T                                        4655006
LPG   001.31 357.7 m E Sg      2011/02/27 15:59:03.7   0.0                          T                1.3  .27 Ml 1.6         4655002
LPL   001.33 357.2 m E Pg      2011/02/27 15:58:46.9  -0.1                          T                                        4655007
LPL   001.33 357.2 m E Sg      2011/02/27 15:59:04.2  -0.1                          T                1.5  .24 Ml 1.8         4655001
VIVF  001.68 294.2 m E Pn      2011/02/27 15:58:50.5  -0.1                          T                                        4655014
VIVF  001.68 294.2 m E Sn      2011/02/27 15:59:11.5   0.1                          T                1.5  .27 Ml 1.9         4655011
PGF   002.28 135.2 m E Pn      2011/02/27 15:58:58.7  -0.1                          T                                        4655005
PGF   002.28 135.2 m E Sn      2011/02/27 15:59:25.8   0.0                          T                1.8  .26 Ml 2.3         4655004

.
EVENT     256507
    Date      Time       Latitude Longitude    Depth    Ndef Nsta Gap    Mag1  N    Mag2  N    Mag3  N   Author         ID
       rms   OT_Error      Smajor Sminor Az        Err   mdist  Mdist     Err        Err        Err      Quality

2011/02/28 01:46:50.5     48.3713    9.0091     10.0      12    4 095  Ml 1.3  4                         js067245    256527

      0.27   +-  0.07       1.4    1.1  147.88 +-  0.0    0.16   2.19   +-0.3                            m i ke

GERMANY
Sta     Dist  EvAz     Phase      Date       Time     TRes  Azim  AzRes  Slow  SRes Def   SNR       Amp   Per   Mag1   Mag2       ID
CDF   001.16 272.7 m E Pg      2011/02/28 01:47:12.3   0.0                          T                                        4655712
CDF   001.16 272.7 m E Sg      2011/02/28 01:47:27.4   0.0                          T                1.2  .26 Ml 1.6         4655713
HINF  001.55 249.8 m E Pg      2011/02/28 01:47:19.4  -0.1                          T                                        4655710
HINF  001.55 249.8 m E Sg      2011/02/28 01:47:39.4  -0.1                          T                 .7  .29 Ml 1.4         4655711
HAU   001.82 259.4 m E Sg      2011/02/28 01:47:47.6  -0.2                          T                 .5  .25 Ml 1.2         4655709
PAGF  002.19 276.0 m E Sg      2011/02/28 01:47:59.5   0.0                          T                 .2  .31 Ml  .9         4655708

.
EVENT     256433
    Date      Time       Latitude Longitude    Depth    Ndef Nsta Gap    Mag1  N    Mag2  N    Mag3  N   Author         ID
       rms   OT_Error      Smajor Sminor Az        Err   mdist  Mdist     Err        Err        Err      Quality

2011/02/28 04:24:27.8     46.1701    2.5630      4.0 f    27   11 066  Ml 1.9  9  Md 1.7  3              js067245    256453

      0.64   +-  0.04        .8     .6  147.39 +-  0.0    0.16   1.98   +-0.2      +-0.0                 m i ke

FRANCE
Sta     Dist  EvAz     Phase      Date       Time     TRes  Azim  AzRes  Slow  SRes Def   SNR       Amp   Per   Mag1   Mag2       ID
TCF   000.27 295.8 m E Pg      2011/02/28 04:24:33.2   0.0                          T                                        4655026
TCF   000.27 295.8 m E Sg      2011/02/28 04:24:36.8  -0.1                          T                6.1  .16        Md 1.7  4655021
BGF   000.43 026.7 m E Pg      2011/02/28 04:24:36.3   0.2                          T                                        4655024
BGF   000.43 026.7 m E Sg      2011/02/28 04:24:41.9   0.0                          T                9.5  .30        Md 1.7  4655019
AVF   000.83 041.0 m E Pg      2011/02/28 04:24:43.3  -0.1                          T                                        4655023
AVF   000.83 041.0 m E Sg      2011/02/28 04:24:53.9  -0.2                          T                4.6  .37                4655017
SMF   001.00 061.3 m E Pg      2011/02/28 04:24:46.5  -0.1                          T                                        4655022
SMF   001.00 061.3 m E Sg      2011/02/28 04:24:59.7   0.0                          T                1.8  .17 Ml 1.8         4655018
HYF   001.10 002.7 m E Pg      2011/02/28 04:24:48.4   0.0                          T                                        4655032
HYF   001.10 002.7 m E Sg      2011/02/28 04:25:02.5  -0.1                          T                                        4655031
SSF   001.10 035.8 m E Pg      2011/02/28 04:24:48.5   0.0                          T                                        4655041
SSF   001.10 035.8 m E Sg      2011/02/28 04:25:02.8   0.0                          T                1.5  .22 Ml 1.8         4655044
RJF   001.13 220.6 m E Pg      2011/02/28 04:24:48.9  -0.1                          T                                        4655040
RJF   001.13 220.6 m E Sg      2011/02/28 04:25:03.7  -0.1                          T                3.1  .25 Ml 1.7         4655035
CAF   001.29 195.9 m E Pg      2011/02/28 04:24:52.0   0.0                          T                                        4655039
CAF   001.29 195.9 m E Sg      2011/02/28 04:25:08.7   0.0                          T                3.1  .15 Ml 2.3         4655036
LOR   001.41 038.6 m E Pg      2011/02/28 04:24:54.2  -0.1 219.7  0.1               T                                        4655042
LOR   001.41 038.6 m E Sg      2011/02/28 04:25:12.1  -0.4 217.9  -1.6              T                1.5  .22 Ml 1.8         4655043
MFF   001.92 284.0 m E Pg      2011/02/28 04:25:03.6   0.0                          T                                        4655033
MFF   001.92 284.0 m E S       2011/02/28 04:25:26.8   0.1                          T                                        4655916
MFF   001.92 284.0 m E Sg      2011/02/28 04:25:28.5   0.2                          T                1.1  .26 Ml 2.0         4655034
VIVF  001.98 130.8 m E Pg      2011/02/28 04:25:04.8   0.2                          T                                        4655038
VIVF  001.98 130.8 m E Sg      2011/02/28 04:25:30.2   0.0                          T                1.0  .27 Ml 1.8         4655037

.
EVENT     256546
    Date      Time       Latitude Longitude    Depth    Ndef Nsta Gap    Mag1  N    Mag2  N    Mag3  N   Author         ID
       rms   OT_Error      Smajor Sminor Az        Err   mdist  Mdist     Err        Err        Err      Quality

2011/02/28 08:00:57.8     48.6473    8.9332       .0 f     9    7 224  Ml 2.3  5                         js067245    256566

      1.25   +-  0.35       6.4    3.1  115.82 +-  0.0    0.82   2.13   +-0.4                            m i km

GERMANY
Sta     Dist  EvAz     Phase      Date       Time     TRes  Azim  AzRes  Slow  SRes Def   SNR       Amp   Per   Mag1   Mag2       ID
LANF  000.82 294.5 m E Pn      2011/02/28 08:01:15.1  -0.1                          T                                        4655918
LANF  000.82 294.5 m E Sn      2011/02/28 08:01:27.3  -0.2                          T               12.2  .31                4655919
CDF   001.13 258.6 m E Pg      2011/02/28 08:01:19.3   0.0                          T                                        4655727
CDF   001.13 258.6 m E Sg      2011/02/28 08:01:34.1   0.0                          T               24.2  .46 Ml 2.7         4655728
HINF  001.62 239.9 m E Sg      2011/02/28 08:01:49.0  -0.4                          T                9.8  .32 Ml 2.6         4655726
RUP   001.62 311.4 m E Sg      2011/02/28 08:01:49.4   0.0                          T                                        4655917
HAU   001.84 250.5 m E Sg      2011/02/28 08:01:56.0  -0.3                          T                9.6  .38 Ml 2.4         4655725
THEF  002.00 259.0 m E Sg      2011/02/28 08:02:01.4   0.1                          T                5.4  .37 Ml 2.4         4655920
PAGF  002.13 268.7 m E Sg      2011/02/28 08:02:05.4   0.1 103.6  17.3              T                1.3  .46 Ml 1.7         4655921

.
