EVENT     282806
    Date      Time       Latitude Longitude    Depth    Ndef Nsta Gap    Mag1  N    Mag2  N    Mag3  N   Author         ID
       rms   OT_Error      Smajor Sminor Az        Err   mdist  Mdist     Err        Err        Err      Quality

2012/09/08 01:12:34.1     46.5123    9.5028      9.0 f    80   19 103  Ml 2.3 20                         bulletin    282906
                                                                                                         _ldg
      0.78   +-  0.12       2.4    2.0  131.11 +-  0.0    0.03   4.77   +-0.2                            m i ke

SWITZERLAND
Sta     Dist  EvAz     Phase      Date       Time     TRes  Azim  AzRes  Slow  SRes Def   SNR       Amp   Per   Mag1   Mag2       ID
HINF  002.23 306.8 m E Pn      2012/09/08 01:13:09.4  -0.1                          T                                        5065032
HINF  002.23 306.8 m E Pg      2012/09/08 01:13:15.2  -0.4                          T   001.0                                5065054
HINF  002.23 306.8 m E Sn      2012/09/08 01:13:36.3   0.8                          T   001.0                                5065055
HINF  002.23 306.8 m E Sg      2012/09/08 01:13:43.6  -0.7                          T   001.0        4.9  .26 Ml 2.5         5065056
LPG   002.17 243.1 m E Pn      2012/09/08 01:13:09.6   0.7                          T                                        5065029
LPG   002.17 243.1 m E Pg      2012/09/08 01:13:14.1  -0.6                          T                                        5065190
LPG   002.17 243.1 m E Sn      2012/09/08 01:13:35.3   0.9                          T                                        5065151
LPG   002.17 243.1 m E Sg      2012/09/08 01:13:42.0  -0.7                          T                8.3  .44 Ml 2.5         5065062
LPL   002.17 243.7 m E Pn      2012/09/08 01:13:09.7   0.8                          T                                        5065030
LPL   002.17 243.7 m E Pg      2012/09/08 01:13:14.5  -0.2                          T                                        5065191
LPL   002.17 243.7 m E Sn      2012/09/08 01:13:34.6   0.2                          T   001.0                                5065047
LPL   002.17 243.7 m E Sg      2012/09/08 01:13:42.0  -0.7                          T   001.0        3.5  .34 Ml 2.3         5065048
CABF  002.36 273.6 m E Pn      2012/09/08 01:13:12.7   1.4                          T                                        5065031
CABF  002.36 273.6 m E Pg      2012/09/08 01:13:18.0   0.0                          T                                        5065165
CABF  002.36 273.6 m E Sn      2012/09/08 01:13:39.3   0.6                          T   001.0                                5065052
CABF  002.36 273.6 m E Sg      2012/09/08 01:13:47.4  -0.9                          T   001.0        4.8  .28 Ml 2.5         5065053
CDF   002.43 322.3 m E Pn      2012/09/08 01:13:13.6   1.3                          T   001.0                                5065037
CDF   002.43 322.3 m E Sn      2012/09/08 01:13:41.0   0.7                          T   001.0                                5065039
CDF   002.43 322.3 m E Sg      2012/09/08 01:13:50.0  -0.5                          T   001.0       14.9  .66 Ml 2.8         5065040
MBDF  002.62 228.0 m E Pn      2012/09/08 01:13:15.5   0.6                          T   001.0                                5065057
MBDF  002.62 228.0 m E Pg      2012/09/08 01:13:22.8  -0.1                          T                                        5065154
MBDF  002.62 228.0 m E Sn      2012/09/08 01:13:45.4   0.5                          T                2.5  .24 Ml 2.4         5065063
HAU   002.62 306.0 m E Pn      2012/09/08 01:13:16.4   1.7                          T                                        5065033
HAU   002.62 306.0 m E Sn      2012/09/08 01:13:46.3   1.6                          T   001.0                                5065042
HAU   002.62 306.0 m E Sg      2012/09/08 01:13:55.5  -0.8                          T   001.0        5.6  .30 Ml 2.4         5065043
ORIF  003.00 239.2 m E Pn      2012/09/08 01:13:20.6   0.6                          T                                        5065153
ORIF  003.00 239.2 m E Sn      2012/09/08 01:13:54.7   0.8                          T                3.0  .34 Ml 2.4         5065152
SBF   003.03 209.6 m E Pn      2012/09/08 01:13:21.8   1.5                          T                                        5065026
SBF   003.03 209.6 m E Sn      2012/09/08 01:13:55.2   0.7                          T   001.0                                5065049
SBF   003.03 209.6 m E Sg      2012/09/08 01:14:08.7  -0.4                          T                2.9  .25 Ml 2.5         5065148
FRF   003.58 215.5 m E Pn      2012/09/08 01:13:28.6   0.8                          T                                        5065028
FRF   003.58 215.5 m E Pg      2012/09/08 01:13:39.9  -0.4                          T                                        5065149
FRF   003.58 215.5 m E Sn      2012/09/08 01:14:08.7   1.0                          T   001.0        2.8  .48 Ml 2.4         5065041
SMRF  003.76 229.0 m E Pn      2012/09/08 01:13:31.8   1.5                          T   001.0                                5065060
SMRF  003.76 229.0 m E Sn      2012/09/08 01:14:13.1   1.1                          T                 .7  .27 Ml 2.0         5065150
LMR   003.82 214.9 m E Pn      2012/09/08 01:13:31.8   0.7                          T                                        5065027
LMR   003.82 214.9 m E Sn      2012/09/08 01:14:14.4   0.9                          T                  1  .26 Ml 2.2         5065061
VIVF  003.77 245.7 m E Pn      2012/09/08 01:13:31.9   1.5                          T   001.0                                5065058
VIVF  003.77 245.7 m E Sn      2012/09/08 01:14:12.9   0.6                          T   001.0         .5  .23 Ml 1.9         5065059
LOR   003.94 283.1 m E Pn      2012/09/08 01:13:33.3   0.5 103.3  4.3               T   001.0                                5065044
LOR   003.94 283.1 m E Sn      2012/09/08 01:14:17.8   1.4                          T   001.0                                5065045
LOR   003.94 283.1 m E Sg      2012/09/08 01:14:36.7  -1.0                          T   001.0         .7  .19 Ml 2.2         5065046
SMF   003.91 274.0 m E Pn      2012/09/08 01:13:34.7   2.4                          T   001.0                                5065050
SMF   003.91 274.0 m E Sg      2012/09/08 01:14:35.7  -0.8                          T   001.0        1.3  .25 Ml 2.4         5065051
SSF   004.16 279.8 m E Pn      2012/09/08 01:13:36.3   0.6                          T                                        5065164
SSF   004.16 279.8 m E Pg      2012/09/08 01:13:49.5  -1.5                          T                                        5065163
SSF   004.16 279.8 m E Sn      2012/09/08 01:14:22.2   0.7                          T                                        5065162
SSF   004.16 279.8 m E Sg      2012/09/08 01:14:43.7  -0.6                          T                1.1  .27 Ml 2.4         5065161
AVF   004.24 276.0 m E Pn      2012/09/08 01:13:37.7   0.8                          T   001.0                                5065034
AVF   004.24 276.0 m E Pg      2012/09/08 01:13:52.4  -0.2                          T                                        5065160
AVF   004.24 276.0 m E Sn      2012/09/08 01:14:24.8   1.3                          T   001.0                                5065035
AVF   004.24 276.0 m E Sg      2012/09/08 01:14:45.9  -1.2                          T                 .3  .25 Ml 1.8         5065159
BGF   004.59 273.0 m E Pn      2012/09/08 01:13:42.5   0.8                          T   001.0                                5065036
BGF   004.59 273.0 m E Pg      2012/09/08 01:13:58.9  -0.2                          T                                        5065156
BGF   004.59 273.0 m E Sn      2012/09/08 01:14:32.4   0.5                          T                1.3  .22 Ml 2.5         5065155
HYF   004.77 281.6 m E Pn      2012/09/08 01:13:46.3   2.3                          T                                        5065158
HYF   004.77 281.6 m E Sn      2012/09/08 01:14:37.3   1.2                          T                                        5065157

.
EVENT     282807
    Date      Time       Latitude Longitude    Depth    Ndef Nsta Gap    Mag1  N    Mag2  N    Mag3  N   Author         ID
       rms   OT_Error      Smajor Sminor Az        Err   mdist  Mdist     Err        Err        Err      Quality

2012/09/08 04:39:56.3     44.4609    7.2220     13.0 f    36    8 093  Ml 1.8  7  Md 1.8  3              bulletin    282907
                                                                                                         _ldg
      0.31   +-  0.05       1.3     .8   56.86 +-  0.0    0.05   1.28   +-0.4      +-0.1                 m i ke

NORTHERN ITALY
Sta     Dist  EvAz     Phase      Date       Time     TRes  Azim  AzRes  Slow  SRes Def   SNR       Amp   Per   Mag1   Mag2       ID
MBDF  000.42 309.7 m E Pg      2012/09/08 04:40:04.7  -0.1                          T                                        5065141
MBDF  000.42 309.7 m E Sg      2012/09/08 04:40:10.4  -0.2                          T               12.4  .38        Md 1.7  5065140
SBF   000.62 165.5 m E Pg      2012/09/08 04:40:08.7   0.3                          T                                        5065138
SBF   000.62 165.5 m E Sg      2012/09/08 04:40:16.8   0.3                          T                6.2  .20        Md 1.8  5065126
FRF   000.99 205.0 m E Pg      2012/09/08 04:40:15.4   0.3                          T                                        5065139
FRF   000.99 205.0 m E Sg      2012/09/08 04:40:27.7  -0.3                          T                9.7  .28 Ml 2.4 Md 1.9  5065136
ORIF  001.06 296.0 m E Pg      2012/09/08 04:40:16.8   0.3                          T                                        5065132
ORIF  001.06 296.0 m E Sg      2012/09/08 04:40:29.6  -0.6                          T                1.2  .28 Ml 1.5         5065131
LPG   001.09 342.3 m E Pg      2012/09/08 04:40:17.6   0.4                          T                                        5065134
LPG   001.09 342.3 m E Sg      2012/09/08 04:40:31.2  -0.2                          T                1.5  .26 Ml 1.6         5065129
LPL   001.11 342.0 m E Pg      2012/09/08 04:40:17.8   0.3                          T                                        5065133
LPL   001.11 342.0 m E Sg      2012/09/08 04:40:31.9  -0.1                          T                1.7  .34 Ml 1.6         5065130
LMR   001.24 204.8 m E Pn      2012/09/08 04:40:19.5   1.8                          T                                        5065137
LMR   001.24 204.8 m E Sn      2012/09/08 04:40:35.4   2.1                          T                5.4  .22 Ml 2.3         5065127
SMRF  001.28 248.3 m E Pg      2012/09/08 04:40:20.9   0.5                          T                                        5065135
SMRF  001.28 248.3 m E Sg      2012/09/08 04:40:36.6  -0.4                          T                2.4  .32 Ml 1.8         5065128

.
EVENT     282808
    Date      Time       Latitude Longitude    Depth    Ndef Nsta Gap    Mag1  N    Mag2  N    Mag3  N   Author         ID
       rms   OT_Error      Smajor Sminor Az        Err   mdist  Mdist     Err        Err        Err      Quality

2012/09/08 08:49:06.4     44.8482   11.4268      2.0      45   24 255  Ml 2.6 20                         bulletin    282908
                                                                                                         _ldg
      0.26   +-  0.14       2.6    1.7   93.87 +-  0.0    2.90   7.03   +-0.2                            m i ke

NORTHERN ITALY
Sta     Dist  EvAz     Phase      Date       Time     TRes  Azim  AzRes  Slow  SRes Def   SNR       Amp   Per   Mag1   Mag2       ID
PGF   002.90 218.3 m E Pn      2012/09/08 08:49:51.6  -0.1                          T                                        5065200
PGF   002.90 218.3 m E Sn      2012/09/08 08:50:25.4   0.3                          T                4.0  .36 Ml 2.7         5065199
SBF   003.03 252.4 m E Pn      2012/09/08 08:49:54.0   0.4                          T                                        5065236
SBF   003.03 252.4 m E Sn      2012/09/08 08:50:28.4   0.1                          T                4.0  .27 Ml 2.6         5065228
MBDF  003.32 269.5 m E Pn      2012/09/08 08:49:57.7   0.1                          T                                        5065222
LPG   003.37 282.8 m E Pn      2012/09/08 08:49:58.4   0.0                          T                                        5065232
LPG   003.37 282.8 m E Sn      2012/09/08 08:50:37.2   0.5                          T                6.0  .52 Ml 2.6         5065231
LPL   003.39 283.0 m E Pn      2012/09/08 08:49:58.7   0.0                          T                                        5065226
LPL   003.39 283.0 m E Sn      2012/09/08 08:50:37.1   0.1                          T                5.2  .34 Ml 2.7         5065225
FRF   003.67 251.1 m E Pn      2012/09/08 08:50:02.2   0.0                          T                                        5065234
FRF   003.67 251.1 m E Sn      2012/09/08 08:50:43.5   0.0                          T                3.8  .36 Ml 2.6         5065230
LMR   003.85 248.6 m E Pn      2012/09/08 08:50:04.5  -0.2                          T                                        5065235
LMR   003.85 248.6 m E Sn      2012/09/08 08:50:47.6  -0.2                          T                1.4  .25 Ml 2.4         5065229
ORIF  003.94 273.0 m E Pn      2012/09/08 08:50:06.9   0.8                          T                                        5065224
ORIF  003.94 273.0 m E Sn      2012/09/08 08:50:50.3   0.1                          T                8.8  .72 Ml 2.7         5065223
CABF  004.13 297.1 m E Pn      2012/09/08 08:50:08.5  -0.1                          T                                        5065213
CABF  004.13 297.1 m E Sn      2012/09/08 08:50:54.7   0.0                          T                2.7  .51 Ml 2.4         5065205
SMRF  004.28 260.3 m E Pn      2012/09/08 08:50:09.9  -0.7                          T                                        5065233
SMRF  004.28 260.3 m E Sn      2012/09/08 08:50:58.2   0.1                          T                 .8  .29 Ml 2.2         5065227
HINF  004.34 314.8 m E Pn      2012/09/08 08:50:11.3  -0.1                          T                                        5065212
HINF  004.34 314.8 m E Sn      2012/09/08 08:50:59.7   0.1                          T                5.1  .40 Ml 2.8         5065206
CDF   004.57 322.7 m E Pn      2012/09/08 08:50:15.0   0.4                          T                                        5065209
HAU   004.72 313.8 m E Pn      2012/09/08 08:50:17.0   0.5                          T                                        5065211
VIVF  004.80 272.5 m E Pn      2012/09/08 08:50:17.8   0.1                          T                                        5065221
VIVF  004.80 272.5 m E Sn      2012/09/08 08:51:10.2  -0.4                          T                2.0  .54 Ml 2.4         5065220
LASF  005.47 264.6 m E Pn      2012/09/08 08:50:26.5  -0.3                          T                                        5065219
LASF  005.47 264.6 m E Sn      2012/09/08 08:51:25.7  -0.9                          T                1.2  .31 Ml 2.6         5065218
SMF   005.60 291.4 m E Pn      2012/09/08 08:50:28.9   0.3                          T                                        5065217
SMF   005.60 291.4 m E Sn      2012/09/08 08:51:29.9   0.1                          T                2.7  .43 Ml 2.8         5065204
MEZF  005.71 312.1 m E Pn      2012/09/08 08:50:29.6  -0.4                          T                                        5065210
LOR   005.80 297.4 m E Pn      2012/09/08 08:50:31.0  -0.2                          T                                        5065208
LOR   005.80 297.4 m E Sn      2012/09/08 08:51:34.4   0.1                          T                5.5  .68 Ml 3.0         5065207
AVF   005.97 291.8 m E Pn      2012/09/08 08:50:33.1  -0.3                          T                                        5065216
SSF   005.95 294.6 m E Pn      2012/09/08 08:50:33.3   0.1                          T                                        5065214
TCF   006.63 285.8 m E Pn      2012/09/08 08:50:42.3  -0.2                          T                                        5065215
CAF   006.65 274.0 m E Sn      2012/09/08 08:51:55.0   0.1                          T                1.2  .22 Ml 2.9         5065202
MTLF  006.80 260.4 m E Sn      2012/09/08 08:51:58.5   0.2                          T                 .9  .42 Ml 2.6         5065201
RJF   007.03 277.2 m E Sn      2012/09/08 08:52:04.0   0.2                          T                  1  .30 Ml 2.5         5065203

.
EVENT     282811
    Date      Time       Latitude Longitude    Depth    Ndef Nsta Gap    Mag1  N    Mag2  N    Mag3  N   Author         ID
       rms   OT_Error      Smajor Sminor Az        Err   mdist  Mdist     Err        Err        Err      Quality

2012/09/08 10:49:38.0     42.5568     .8498      8.0 f    22    5 088  Ml 1.7  5  Md 1.7  3              bulletin    282911
                                                                                                         _ldg
      0.47   +-  0.09       2.1    1.6   45.88 +-  0.0    0.15   2.67   +-0.2      +-0.2                 m i ke

PYRENEES
Sta     Dist  EvAz     Phase      Date       Time     TRes  Azim  AzRes  Slow  SRes Def   SNR       Amp   Per   Mag1   Mag2       ID
EPF   000.60 321.8 m E Pg      2012/09/08 10:49:49.1  -0.4                          T                                        5065358
EPF   000.60 321.8 m E Sg      2012/09/08 10:49:56.9  -0.6                          T                2.3  .18        Md 1.5  5065354
ETSF  001.09 288.7 m E Pn      2012/09/08 10:49:58.3   0.3                          T                                        5065359
ETSF  001.09 288.7 m E Sg      2012/09/08 10:50:12.3  -0.5                          T                2.6  .18 Ml 2.0 Md 1.8  5065355
MTLF  001.27 051.6 m E Pn      2012/09/08 10:50:00.7   0.3                          T                                        5065357
MTLF  001.27 051.6 m E Sn      2012/09/08 10:50:17.5   0.9                          T                  1  .26 Ml 1.5 Md 1.9  5065356
SJPF  001.62 290.7 m E Pn      2012/09/08 10:50:05.8   0.5                          T                                        5065353
SJPF  001.62 290.7 m E Sn      2012/09/08 10:50:26.1   1.1                          T                 .8  .26 Ml 1.6         5065352
LASF  002.67 054.3 m E Pn      2012/09/08 10:50:19.7   0.3                          T                                        5065351
LASF  002.67 054.3 m E Sn      2012/09/08 10:50:50.5   0.4                          T                 .8  .33 Ml 1.8         5065350

.
