EVENT     269514
    Date      Time       Latitude Longitude    Depth    Ndef Nsta Gap    Mag1  N    Mag2  N    Mag3  N   Author         ID
       rms   OT_Error      Smajor Sminor Az        Err   mdist  Mdist     Err        Err        Err      Quality

2012/02/02 17:30:59.0     44.1134    7.2696      2.0      20    7 081  Ml 1.4  4  Md 1.4  1              js067245    269534

      0.20   +-  0.05        .9     .8   80.29 +-  0.0    0.14   2.00   +-0.2      +-                    m i ke

NORTHERN ITALY
Sta     Dist  EvAz     Phase      Date       Time     TRes  Azim  AzRes  Slow  SRes Def   SNR       Amp   Per   Mag1   Mag2       ID
SBF   000.28 154.4 m E Pg      2012/02/02 17:31:04.4  -0.2                          T                                        4831766
SBF   000.28 154.4 m E Sg      2012/02/02 17:31:08.3   0.0                          T                 .8  .16        Md 1.4  4831767
LMR   000.95 215.5 m E Pn      2012/02/02 17:31:17.7  -0.1                          T                                        4831760
LMR   000.95 215.5 m E Sn      2012/02/02 17:31:31.1  -0.1                          T                1.1  .15 Ml 1.7         4831772
FRF   000.71 219.4 m E Sg      2012/02/02 17:31:21.7  -0.1                          T                 .6  .21                4833091
MBDF  000.71 330.0 m E Sg      2012/02/02 17:31:22.1   0.2                          T                 .2  .17                4831764
LPG   001.43 345.3 m E Pn      2012/02/02 17:31:24.7   0.0                          T                                        4831768
LPG   001.43 345.3 m E Sn      2012/02/02 17:31:42.7  -0.3                          T                 .4  .20 Ml 1.3         4831769
ORIF  001.28 309.5 m E Sg      2012/02/02 17:31:39.4  -0.2                          T                 .5  .25 Ml 1.3         4831770
VIVF  002.00 292.7 m E Sg      2012/02/02 17:32:01.7  -0.4                          T                 .4  .22 Ml 1.5         4831771

.
EVENT     269512
    Date      Time       Latitude Longitude    Depth    Ndef Nsta Gap    Mag1  N    Mag2  N    Mag3  N   Author         ID
       rms   OT_Error      Smajor Sminor Az        Err   mdist  Mdist     Err        Err        Err      Quality

2012/02/02 19:02:33.6     42.8476   -1.1277      2.0      23    5 150  Ml 2.0  2  Md 1.8  2              js067245    269532

      0.32   +-  0.08       2.3    1.1  174.49 +-  0.0    0.08   3.11   +-0.0      +-0.1                 m i ke

PYRENEES
Sta     Dist  EvAz     Phase      Date       Time     TRes  Azim  AzRes  Slow  SRes Def   SNR       Amp   Per   Mag1   Mag2       ID
SJPF  000.28 345.0 m E Pg      2012/02/02 19:02:39.2   0.1                          T                                        4831789
SJPF  000.28 345.0 m E Sg      2012/02/02 19:02:42.6  -0.1                          T               17.1  .28        Md 1.9  4831788
EPF   001.09 079.9 m E Pg      2012/02/02 19:02:53.8  -0.3                          T                                        4831787
EPF   001.09 079.9 m E Sg      2012/02/02 19:03:08.4   0.0                          T                2.5  .21 Ml 1.9 Md 1.8  4831786
LFF   002.49 032.2 m E P       2012/02/02 19:03:15.4  -0.4                          T                                        4831782
RJF   003.11 036.9 m E Pn      2012/02/02 19:03:21.9   0.1                          T                                        4831783
RJF   003.11 036.9 m E Pg      2012/02/02 19:03:30.2  -1.0                          T                                        4831784
CAF   003.10 046.9 m E P       2012/02/02 19:03:24.6  -0.1                          T                                        4831785
CAF   003.10 046.9 m E Sn      2012/02/02 19:03:57.8   0.5                          T                 .6  .18 Ml 2.0         4831781

.
EVENT     269513
    Date      Time       Latitude Longitude    Depth    Ndef Nsta Gap    Mag1  N    Mag2  N    Mag3  N   Author         ID
       rms   OT_Error      Smajor Sminor Az        Err   mdist  Mdist     Err        Err        Err      Quality

2012/02/02 19:21:21.9     43.0664    -.6318      2.0      34    6 096  Ml 2.3  5  Md 2.2  2              js067245    269533

      0.75   +-  0.09       2.1    1.6  169.12 +-  0.0    0.05   2.72   +-0.2      +-0.0                 m i ke

PYRENEES
Sta     Dist  EvAz     Phase      Date       Time     TRes  Azim  AzRes  Slow  SRes Def   SNR       Amp   Per   Mag1   Mag2       ID
SJPF  000.44 276.4 m E Pg      2012/02/02 19:21:30.4   0.1                          T                                        4831793
SJPF  000.44 276.4 m E Sg      2012/02/02 19:21:35.9  -0.1                          T               16.3  .26        Md 2.2  4831790
EPF   000.71 092.6 m E Pg      2012/02/02 19:21:35.9   0.5                          T                                        4831792
EPF   000.71 092.6 m E Sg      2012/02/02 19:21:45.1   0.4                          T                7.8  .22        Md 2.2  4831791
MTLF  002.10 081.5 m E Pg      2012/02/02 19:21:59.7  -1.2                          T                                        4831860
MTLF  002.10 081.5 m E Sg      2012/02/02 19:22:27.8  -0.2                          T                3.8  .27 Ml 2.4         4831861
LFF   002.12 027.4 m E Pg      2012/02/02 19:22:00.7  -0.5                          T                                        4831869
LFF   002.12 027.4 m E Sg      2012/02/02 19:22:29.4   0.9                          T                5.3  .32 Ml 2.3         4831868
CAF   002.69 045.4 m E Pn      2012/02/02 19:22:04.6   0.2                          T                                        4831862
CAF   002.69 045.4 m E Pg      2012/02/02 19:22:11.7  -0.1                          T                                        4831867
CAF   002.69 045.4 m E Sg      2012/02/02 19:22:47.2   0.7                          T                1.7  .18 Ml 2.3         4831866
RJF   002.72 033.9 m E Pn      2012/02/02 19:22:05.1   0.4                          T                                        4831863
RJF   002.72 033.9 m E Pg      2012/02/02 19:22:12.8   0.5                          T                                        4831864
RJF   002.72 033.9 m E Sg      2012/02/02 19:22:47.5   0.2                          T                1.5  .20 Ml 1.9         4831865

.
EVENT     269509
    Date      Time       Latitude Longitude    Depth    Ndef Nsta Gap    Mag1  N    Mag2  N    Mag3  N   Author         ID
       rms   OT_Error      Smajor Sminor Az        Err   mdist  Mdist     Err        Err        Err      Quality

2012/02/02 22:16:40.7     44.7614    6.7495      2.0      40   10 080  Ml 1.9  4  Md 1.9  3              js067245    269529

      0.30   +-  0.05       1.1     .8   73.43 +-  0.0    0.04   2.18   +-0.1      +-0.1                 m i ke

FRANCE
Sta     Dist  EvAz     Phase      Date       Time     TRes  Azim  AzRes  Slow  SRes Def   SNR       Amp   Per   Mag1   Mag2       ID
MBDF  000.04 155.7 m E Pg      2012/02/02 22:16:41.9  -0.2                          T                                        4831895
MBDF  000.04 155.7 m E Sg      2012/02/02 22:16:42.7  -0.1                          T              197.7  .18        Md 1.8  4831887
ORIF  000.64 284.5 m E Pg      2012/02/02 22:16:52.5  -0.5                          T                                        4831894
ORIF  000.64 284.5 m E Sg      2012/02/02 22:16:59.8  -1.5                          T                5.1  .20        Md 1.9  4831884
LPG   000.74 000.1 m E Pg      2012/02/02 22:16:55.1   0.1                          T                                        4831893
LPG   000.74 000.1 m E Sg      2012/02/02 22:17:04.4  -0.2                          T                2.7  .28        Md 2.0  4831886
LPL   000.76 359.1 m E Pg      2012/02/02 22:16:55.5   0.2                          T                                        4831885
LPL   000.76 359.1 m E Sg      2012/02/02 22:17:06.0   0.9                          T                2.3  .22                4831883
SBF   001.02 151.0 m E Pg      2012/02/02 22:17:00.0   0.0                          T                                        4831880
SBF   001.02 151.0 m E Sg      2012/02/02 22:17:13.0  -0.3                          T                                        4831879
SBF   001.02 151.0 m E Sn      2012/02/02 22:17:14.7   0.1                          T                3.2  .21 Ml 2.0         4831878
SMRF  001.15 227.4 m E Pg      2012/02/02 22:17:02.8   0.4                          T                                        4831882
SMRF  001.15 227.4 m E Sg      2012/02/02 22:17:18.8   1.6                          T                3.0  .32 Ml 1.8         4831876
FRF   001.20 183.6 m E Pg      2012/02/02 22:17:03.3   0.1                          T                                        4831890
FRF   001.20 183.6 m E P       2012/02/02 22:17:04.6   0.0                          T                                        4831891
FRF   001.20 183.6 m E Sg      2012/02/02 22:17:19.1   0.3                          T                2.5  .19 Ml 2.1         4831881
LMR   001.44 187.0 m E Pg      2012/02/02 22:17:08.0   0.4                          T                                        4831889
LMR   001.44 187.0 m E Sg      2012/02/02 22:17:26.2   0.1                          T                                        4831875
LMR   001.44 187.0 m E S       2012/02/02 22:17:27.7   0.0                          T                1.7  .20                4831874
VIVF  001.48 274.4 m E Pg      2012/02/02 22:17:09.2   0.9                          T                                        4831892
VIVF  001.48 274.4 m E Sg      2012/02/02 22:17:27.9   0.4                          T                1.5  .26 Ml 1.8         4831888
LASF  002.18 252.7 m E Pn      2012/02/02 22:17:16.7   0.4                          T                                        4831877

.
EVENT     269510
    Date      Time       Latitude Longitude    Depth    Ndef Nsta Gap    Mag1  N    Mag2  N    Mag3  N   Author         ID
       rms   OT_Error      Smajor Sminor Az        Err   mdist  Mdist     Err        Err        Err      Quality

2012/02/02 22:44:18.8     43.9994    7.0569      3.0 f    37   10 057  Ml 2.1  5  Md 2.2  3              js067245    269530

      0.39   +-  0.04        .9     .8   27.79 +-  0.0    0.18   2.31   +-0.1      +-0.1                 m i ke

NEAR SOUTH COAST OF FRANCE
Sta     Dist  EvAz     Phase      Date       Time     TRes  Azim  AzRes  Slow  SRes Def   SNR       Amp   Per   Mag1   Mag2       ID
SBF   000.31 116.4 m E Pg      2012/02/02 22:44:24.8  -0.1                          T                                        4831914
SBF   000.31 116.4 m E Sg      2012/02/02 22:44:28.9  -0.1                          T               74.7  .29        Md 2.3  4831909
FRF   000.53 214.2 m E Pg      2012/02/02 22:44:28.6  -0.3                          T                                        4831913
FRF   000.53 214.2 m E Sg      2012/02/02 22:44:35.8   0.0                          T                7.3  .21        Md 2.1  4831907
MBDF  000.76 344.4 m E Pg      2012/02/02 22:44:33.2   0.0                          T                                        4831911
MBDF  000.76 344.4 m E Sg      2012/02/02 22:44:42.6  -0.5                          T                4.1  .28        Md 2.1  4831904
LMR   000.77 211.0 m E Pg      2012/02/02 22:44:33.2  -0.1                          T                                        4831912
LMR   000.77 211.0 m E Sg      2012/02/02 22:44:43.3  -0.1                          T                7.4  .21                4831908
SMRF  001.07 269.3 m E Pg      2012/02/02 22:44:39.1   0.3                          T                                        4831910
SMRF  001.07 269.3 m E P       2012/02/02 22:44:40.3  -0.3                          T                                        4831896
SMRF  001.07 269.3 m E Sg      2012/02/02 22:44:52.3  -0.4                          T                6.8  .27 Ml 2.3         4831906
ORIF  001.25 317.9 m E Pg      2012/02/02 22:44:43.7   1.6                          T                                        4831899
ORIF  001.25 317.9 m E Sg      2012/02/02 22:44:58.7   0.4                          T                3.5  .29 Ml 2.0         4831898
LPL   001.53 351.4 m E Pn      2012/02/02 22:44:45.0  -0.6                          T                                        4831901
LPL   001.53 351.4 m E Pg      2012/02/02 22:44:47.6   0.0                          T                                        4831903
LPG   001.51 351.8 m E Pn      2012/02/02 22:44:45.7   0.3                          T                                        4831897
LPG   001.51 351.8 m E Pg      2012/02/02 22:44:47.3  -0.1                          T                                        4831902
VIVF  001.91 297.5 m E Sn      2012/02/02 22:45:13.7   0.1                          T                1.3  .18 Ml 2.1         4831905
LASF  002.31 273.0 m E Sn      2012/02/02 22:45:23.0  -0.1                          T                1.4  .19 Ml 2.1         4831900

.
EVENT     269515
    Date      Time       Latitude Longitude    Depth    Ndef Nsta Gap    Mag1  N    Mag2  N    Mag3  N   Author         ID
       rms   OT_Error      Smajor Sminor Az        Err   mdist  Mdist     Err        Err        Err      Quality

2012/02/03 01:22:20.2     41.5713    2.6119      5.0 f    22    3 207  Ml 1.9  2                         js067245    269535

      0.44   +-  0.17       2.7    1.5  142.86 +-  0.0    0.23   3.38   +-0.1                            m i ke

SPAIN
Sta     Dist  EvAz     Phase      Date       Time     TRes  Azim  AzRes  Slow  SRes Def   SNR       Amp   Per   Mag1   Mag2       ID
MTLF  001.79 350.8 m E Pg      2012/02/03 01:22:52.3  -1.3                          T                                        4831948
MTLF  001.79 350.8 m E Sg      2012/02/03 01:23:15.5  -1.2                          T                1.0  .23 Ml 1.8         4831949
EPF   002.23 311.6 m E Sg      2012/02/03 01:23:29.9  -0.5                          T                1.1  .25 Ml 1.9         4831917
CAF   003.38 353.4 m E Sg      2012/02/03 01:24:05.0  -1.2                          T                                        4831947

.
EVENT     269603
    Date      Time       Latitude Longitude    Depth    Ndef Nsta Gap    Mag1  N    Mag2  N    Mag3  N   Author         ID
       rms   OT_Error      Smajor Sminor Az        Err   mdist  Mdist     Err        Err        Err      Quality

2012/02/03 15:31:21.2     43.8060    7.5649       .0 f    16    4 171  Ml 1.5  2  Md 1.6  2              js067245    269623

      0.21   +-  0.06       1.3     .9  147.52 +-  0.0    0.11   1.08   +-0.1      +-0.2                 m i km

NEAR SOUTH COAST OF FRANCE
Sta     Dist  EvAz     Phase      Date       Time     TRes  Azim  AzRes  Slow  SRes Def   SNR       Amp   Per   Mag1   Mag2       ID
SBF   000.11 301.4 m E Pg      2012/02/03 15:31:24.1   0.2                          T                                        4831963
SBF   000.11 301.4 m E Sg      2012/02/03 15:31:25.5  -0.2                          T               69.4  .22        Md 1.7  4831960
FRF   000.71 250.1 m E Pg      2012/02/03 15:31:34.7  -0.2                          T                                        4831961
FRF   000.71 250.1 m E Pn      2012/02/03 15:31:37.0  -0.1                          T                                        4831956
FRF   000.71 250.1 m E Sg      2012/02/03 15:31:44.3  -0.1                          T                1.9  .25                4831955
FRF   000.71 250.1 m E Sn      2012/02/03 15:31:48.2  -0.1                          T                2.7  .20        Md 1.4  4831957
LMR   000.90 238.8 m E Pg      2012/02/03 15:31:38.7   0.3                          T                                        4831962
LMR   000.90 238.8 m E Pn      2012/02/03 15:31:39.7   0.0                          T                                        4831959
LMR   000.90 238.8 m E Sg      2012/02/03 15:31:50.3   0.0                          T                                        4831954
LMR   000.90 238.8 m E Sn      2012/02/03 15:31:52.8   0.0                          T                1.1  .16 Ml 1.6         4831958
MBDF  001.08 328.5 m E Pg      2012/02/03 15:31:41.8  -0.1                          T                                        4831965
MBDF  001.08 328.5 m E Sg      2012/02/03 15:31:55.6  -0.6                          T                1.4  .37 Ml 1.4         4831964

.
