EVENT     289396
    Date      Time       Latitude Longitude    Depth    Ndef Nsta Gap    Mag1  N    Mag2  N    Mag3  N   Author         ID
       rms   OT_Error      Smajor Sminor Az        Err   mdist  Mdist     Err        Err        Err      Quality

2013/01/02 19:55:34.0     48.2347    9.0116     10.0      67   14 055  Ml 2.8 11  Md 2.6  4              bulletin    289496
                                                                                                         _ldg
      0.68   +-  0.05       1.0     .8  128.23 +-  0.0    0.18   4.51   +-0.2      +-0.5                 m i ke

GERMANY
Sta     Dist  EvAz     Phase      Date       Time     TRes  Azim  AzRes  Slow  SRes Def   SNR       Amp   Per   Mag1   Mag2       ID
LANF  001.09 313.4 m E Pg      2013/01/02 19:55:55.2   0.6                          T                                        5154802
LANF  001.09 313.4 m E Sg      2013/01/02 19:56:09.3   0.5                          T                                        5154803
CDF   001.17 279.4 m E Pg      2013/01/02 19:55:55.9  -0.2                          T                                        5153757
CDF   001.17 279.4 m E Sg      2013/01/02 19:56:10.9  -0.3                          T               52.6  .30 Ml 3.2 Md 2.2  5153756
HINF  001.51 254.7 m E Pn      2013/01/02 19:55:59.1  -0.4                          T                                        5153758
HINF  001.51 254.7 m E Pg      2013/01/02 19:56:02.1  -0.1                          T                                        5175976
HINF  001.51 254.7 m E Sn      2013/01/02 19:56:17.9  -0.1                          T                                        5153826
HINF  001.51 254.7 m E Sg      2013/01/02 19:56:21.4  -0.2                          T               17.6  .26 Ml 2.9 Md 2.5  5153827
HAU   001.80 263.7 m E Pn      2013/01/02 19:56:03.4   0.0                          T                                        5153755
HAU   001.80 263.7 m E P       2013/01/02 19:56:05.7   0.1                          T                                        5175974
HAU   001.80 263.7 m E Pg      2013/01/02 19:56:07.4  -0.1                          T                                        5175975
HAU   001.80 263.7 m E Sg      2013/01/02 19:56:30.6  -0.1                          T               17.7  .24 Ml 2.8 Md 2.5  5153754
RUP   001.95 319.5 m E Pn      2013/01/02 19:56:06.4   0.9                          T                                        5154835
RUP   001.95 319.5 m E Pg      2013/01/02 19:56:10.8   0.4                          T                                        5154836
PAGF  002.21 279.5 m E Pg      2013/01/02 19:56:15.2   0.1                          T                                        5153822
PAGF  002.21 279.5 m E Sg      2013/01/02 19:56:43.5  -0.1 112.9  15.8              T               14.6  .37 Ml 2.8 Md 3.3  5153830
CABF  002.57 231.8 m E Pg      2013/01/02 19:56:21.9   0.2                          T                                        5153823
CABF  002.57 231.8 m E Sg      2013/01/02 19:56:54.7   0.0                          T                3.7  .30 Ml 2.4         5153825
MEZF  002.65 277.3 m E Pg      2013/01/02 19:56:22.6  -0.6                          T                                        5175980
MEZF  002.65 277.3 m E Sg      2013/01/02 19:56:57.8   0.5  92.2  -2.1              T                6.5  .34 Ml 2.6         5153829
SFTF  002.66 270.8 m E Pg      2013/01/02 19:56:23.4   0.1                          T                                        5175979
SFTF  002.66 270.8 m E Sn      2013/01/02 19:56:45.8   0.4                          T                                        5175973
SFTF  002.66 270.8 m E Sg      2013/01/02 19:56:58.3   0.8  91.3  3.4               T                7.2  .23 Ml 2.8         5153828
LOR   003.61 256.4 m E Pn      2013/01/02 19:56:28.2   0.1  81.6  9.0               T                                        5175984
LOR   003.61 256.4 m E Pg      2013/01/02 19:56:40.7  -0.2  78.3  5.8               T                                        5175983
LOR   003.61 256.4 m E Sn      2013/01/02 19:57:09.1   0.9                          T                                        5175982
LOR   003.61 256.4 m E Sg      2013/01/02 19:57:26.9  -0.3  79.3  6.7               T                3.6  .24 Ml 2.7         5153821
SSF   003.90 254.5 m E Pg      2013/01/02 19:56:46.2   0.0                          T                                        5175981
SSF   003.90 254.5 m E Sg      2013/01/02 19:57:36.4   0.1                          T                3.3  .26 Ml 2.8         5153820
SMF   003.85 247.5 m E Sg      2013/01/02 19:57:34.2  -0.6                          T                                        5153824
HYF   004.41 259.7 m E Sg      2013/01/02 19:57:52.6   0.5                          T                                        5175978
BGF   004.51 250.5 m E Sg      2013/01/02 19:57:54.9  -0.4                          T                4.7  .38 Ml 2.9         5175977

.
EVENT     289397
    Date      Time       Latitude Longitude    Depth    Ndef Nsta Gap    Mag1  N    Mag2  N    Mag3  N   Author         ID
       rms   OT_Error      Smajor Sminor Az        Err   mdist  Mdist     Err        Err        Err      Quality

2013/01/02 20:26:35.7     43.0505    -.2046      2.0      13    7 105  Ml 1.7  4  Md 1.8  2              bulletin    289497
                                                                                                         _ldg
      0.28   +-  0.07       1.7    1.0  170.70 +-  0.0    0.14   2.57   +-0.2      +-0.0                 m i ke

PYRENEES
Sta     Dist  EvAz     Phase      Date       Time     TRes  Azim  AzRes  Slow  SRes Def   SNR       Amp   Per   Mag1   Mag2       ID
ETSF  000.30 239.9 m E Pg      2013/01/02 20:26:41.4  -0.2                          T                                        5153836
ETSF  000.30 239.9 m E Sg      2013/01/02 20:26:45.5  -0.2                          T               25.3  .22        Md 1.8  5153835
EPF   000.40 092.7 m E Pg      2013/01/02 20:26:43.6   0.1                          T                                        5153834
EPF   000.40 092.7 m E Sg      2013/01/02 20:26:49.3   0.5                          T                8.7  .34        Md 1.8  5153833
SJPF  000.75 275.1 m E Pg      2013/01/02 20:26:50.3   0.5                          T                                        5176000
SJPF  000.75 275.1 m E Sg      2013/01/02 20:26:59.9   0.2                          T                2.4  .24                5153840
LFF   002.01 019.5 m E Pg      2013/01/02 20:27:13.4   0.3                          T                                        5175999
LFF   002.01 019.5 m E Sg      2013/01/02 20:27:38.9   0.0                          T                1.3  .23 Ml 1.8         5153838
CAF   002.49 040.4 m E Pg      2013/01/02 20:27:21.7  -0.3                          T                                        5175998
CAF   002.49 040.4 m E Sg      2013/01/02 20:27:54.3   0.3                          T                  1  .25 Ml 1.9         5176002
RJF   002.57 028.2 m E Pg      2013/01/02 20:27:23.1  -0.3                          T                                        5175997
RJF   002.57 028.2 m E Sg      2013/01/02 20:27:56.3  -0.2                          T                 .7  .20 Ml 1.6         5176003
MTLF  001.79 079.9 m E Sg      2013/01/02 20:27:32.1  -0.1                          T                 .5  .15 Ml 1.7         5176001

.
EVENT     289398
    Date      Time       Latitude Longitude    Depth    Ndef Nsta Gap    Mag1  N    Mag2  N    Mag3  N   Author         ID
       rms   OT_Error      Smajor Sminor Az        Err   mdist  Mdist     Err        Err        Err      Quality

2013/01/02 20:35:14.8     43.0534    -.2155      2.0      16    7 104  Ml 1.8  4  Md 1.8  2              bulletin    289498
                                                                                                         _ldg
      0.41   +-  0.07       1.8    1.0  172.21 +-  0.0    0.13   2.57   +-0.2      +-0.0                 m i ke

PYRENEES
Sta     Dist  EvAz     Phase      Date       Time     TRes  Azim  AzRes  Slow  SRes Def   SNR       Amp   Per   Mag1   Mag2       ID
ETSF  000.30 238.6 m E Pg      2013/01/02 20:35:20.7   0.0                          T                                        5153846
ETSF  000.30 238.6 m E Sg      2013/01/02 20:35:24.6  -0.1                          T               28.0  .23        Md 1.8  5153845
EPF   000.41 093.1 m E Pg      2013/01/02 20:35:22.7   0.0                          T                                        5153844
EPF   000.41 093.1 m E Sg      2013/01/02 20:35:28.4   0.3                          T                7.5  .30        Md 1.8  5153843
SJPF  000.74 275.0 m E Pg      2013/01/02 20:35:29.3   0.5                          T                                        5153842
SJPF  000.74 275.0 m E Sg      2013/01/02 20:35:38.7   0.2                          T                1.8  .22                5153841
MTLF  001.80 080.0 m E Pg      2013/01/02 20:35:48.6   0.3                          T                                        5172761
MTLF  001.80 080.0 m E Sg      2013/01/02 20:36:11.1  -0.5                          T                1.2  .30 Ml 1.8         5172760
LFF   002.01 019.8 m E Pg      2013/01/02 20:35:52.5   0.4                          T                                        5172759
LFF   002.01 019.8 m E Sg      2013/01/02 20:36:17.6  -0.3                          T                2.3  .22 Ml 2.0         5172758
CAF   002.49 040.5 m E Pg      2013/01/02 20:36:00.8  -0.3                          T                                        5172763
CAF   002.49 040.5 m E Sg      2013/01/02 20:36:33.1  -0.1                          T                 .6  .18 Ml 1.8         5172762
RJF   002.57 028.4 m E Pg      2013/01/02 20:36:02.6   0.0                          T                                        5172757
RJF   002.57 028.4 m E Sg      2013/01/02 20:36:35.4  -0.2                          T                 .8  .20 Ml 1.6         5172756

.
EVENT     289399
    Date      Time       Latitude Longitude    Depth    Ndef Nsta Gap    Mag1  N    Mag2  N    Mag3  N   Author         ID
       rms   OT_Error      Smajor Sminor Az        Err   mdist  Mdist     Err        Err        Err      Quality

2013/01/02 20:36:21.3     43.0556    -.2133      2.0      13    7 144  Ml 1.7  4  Md 1.7  3              bulletin    289499
                                                                                                         _ldg
      0.39   +-  0.11       3.4    1.6  161.36 +-  0.0    0.30   2.57   +-0.2      +-0.1                 m i ke

PYRENEES
Sta     Dist  EvAz     Phase      Date       Time     TRes  Azim  AzRes  Slow  SRes Def   SNR       Amp   Per   Mag1   Mag2       ID
ETSF  000.30 238.4 m E Pg      2013/01/02 20:36:26.9  -0.4                          T                                        5153852
ETSF  000.30 238.4 m E Sg      2013/01/02 20:36:31.2  -0.1                          T               19.2  .21        Md 1.8  5153851
EPF   000.41 093.4 m E Pg      2013/01/02 20:36:29.1  -0.1                          T                                        5153850
EPF   000.41 093.4 m E Sg      2013/01/02 20:36:35.2   0.5                          T                6.7  .27        Md 1.8  5153849
SJPF  000.74 274.8 m E Pg      2013/01/02 20:36:35.8   0.4                          T                                        5153848
SJPF  000.74 274.8 m E Sg      2013/01/02 20:36:45.4   0.3                          T                2.0  .23        Md 1.7  5153847
MTLF  001.80 080.1 m E Pg      2013/01/02 20:36:55.1   0.3                          T                                        5172833
MTLF  001.80 080.1 m E Sg      2013/01/02 20:37:17.6  -0.4                          T                 .5  .17 Ml 1.6         5172832
CAF   002.49 040.5 m E Pg      2013/01/02 20:37:07.1  -0.5                          T                                        5172835
CAF   002.49 040.5 m E Sg      2013/01/02 20:37:39.8   0.2                          T                 .7  .18 Ml 1.9         5172834
LFF   002.01 019.7 m E Sg      2013/01/02 20:37:24.6   0.2                          T                1.6  .23 Ml 1.9         5176005
RJF   002.57 028.4 m E Sg      2013/01/02 20:37:41.9  -0.2                          T                 .7  .20 Ml 1.5         5176004

.
EVENT     289400
    Date      Time       Latitude Longitude    Depth    Ndef Nsta Gap    Mag1  N    Mag2  N    Mag3  N   Author         ID
       rms   OT_Error      Smajor Sminor Az        Err   mdist  Mdist     Err        Err        Err      Quality

2013/01/02 20:50:09.7     43.0504    -.2118      2.0      11    6 146  Ml 1.6  3  Md 1.5  3              bulletin    289500
                                                                                                         _ldg
      0.34   +-  0.13       4.3    1.9  162.87 +-  0.0    0.30   2.49   +-0.1      +-0.1                 m i ke

PYRENEES
Sta     Dist  EvAz     Phase      Date       Time     TRes  Azim  AzRes  Slow  SRes Def   SNR       Amp   Per   Mag1   Mag2       ID
ETSF  000.30 239.4 m E Pg      2013/01/02 20:50:15.2  -0.4                          T                                        5153858
ETSF  000.30 239.4 m E Sg      2013/01/02 20:50:19.4  -0.1                          T               12.7  .22        Md 1.6  5153857
EPF   000.41 092.7 m E Pg      2013/01/02 20:50:17.4  -0.2                          T                                        5153856
EPF   000.41 092.7 m E Sg      2013/01/02 20:50:23.4   0.5                          T                4.7  .33        Md 1.6  5153855
SJPF  000.75 275.2 m E Pg      2013/01/02 20:50:24.1   0.4                          T                                        5153854
SJPF  000.75 275.2 m E Sg      2013/01/02 20:50:33.6   0.2                          T                1.8  .31        Md 1.4  5153853
MTLF  001.80 079.9 m E Pg      2013/01/02 20:50:43.6   0.4                          T                                        5172869
MTLF  001.80 079.9 m E Sg      2013/01/02 20:51:05.8  -0.6                          T                 .6  .23 Ml 1.6         5172868
CAF   002.49 040.4 m E Pg      2013/01/02 20:50:55.7  -0.3                          T                                        5172871
CAF   002.49 040.4 m E Sg      2013/01/02 20:51:28.1   0.1                          T                 .4  .17 Ml 1.7         5172870
LFF   002.01 019.7 m E Sg      2013/01/02 20:51:12.7  -0.2                          T                1.0  .24 Ml 1.7         5176006

.
EVENT     289401
    Date      Time       Latitude Longitude    Depth    Ndef Nsta Gap    Mag1  N    Mag2  N    Mag3  N   Author         ID
       rms   OT_Error      Smajor Sminor Az        Err   mdist  Mdist     Err        Err        Err      Quality

2013/01/02 20:55:25.1     43.0516    -.2130      2.0      15    8 105  Ml 1.8  6  Md 1.8  2              bulletin    289501
                                                                                                         _ldg
      0.33   +-  0.07       1.9    1.0  172.86 +-  0.0    0.13   3.13   +-0.1      +-0.3                 m i ke

PYRENEES
Sta     Dist  EvAz     Phase      Date       Time     TRes  Azim  AzRes  Slow  SRes Def   SNR       Amp   Per   Mag1   Mag2       ID
ETSF  000.30 239.1 m E Pg      2013/01/02 20:55:30.7  -0.3                          T                                        5153864
ETSF  000.30 239.1 m E Sg      2013/01/02 20:55:34.8  -0.1                          T               25.9  .22        Md 2.0  5153863
EPF   000.41 092.8 m E Pg      2013/01/02 20:55:32.9   0.0                          T                                        5153862
EPF   000.41 092.8 m E Sg      2013/01/02 20:55:38.8   0.4                          T                7.2  .25        Md 1.6  5153861
SJPF  000.74 275.1 m E Pg      2013/01/02 20:55:39.6   0.5                          T                                        5153860
SJPF  000.74 275.1 m E Sg      2013/01/02 20:55:49.3   0.4                          T                4.0  .30                5153859
MTLF  001.80 079.9 m E Pg      2013/01/02 20:55:58.9   0.3                          T                                        5172873
MTLF  001.80 079.9 m E Sg      2013/01/02 20:56:21.4  -0.4                          T                2.1  .37 Ml 1.9         5172876
LFF   002.01 019.7 m E Pg      2013/01/02 20:56:02.5   0.1                          T                                        5176017
LFF   002.01 019.7 m E Sg      2013/01/02 20:56:28.3   0.1                          T                1.9  .27 Ml 1.9         5176019
CAF   002.49 040.5 m E Pg      2013/01/02 20:56:11.2  -0.2                          T                                        5172874
CAF   002.49 040.5 m E Sg      2013/01/02 20:56:43.6   0.2                          T                 .9  .21 Ml 2.0         5172875
RJF   002.57 028.3 m E Sg      2013/01/02 20:56:45.8  -0.1                          T                 .8  .22 Ml 1.6         5176018
LASF  003.13 069.5 m E Sg      2013/01/02 20:57:02.5  -0.9                          T                 .6  .27 Ml 1.8         5176016

.
EVENT     289402
    Date      Time       Latitude Longitude    Depth    Ndef Nsta Gap    Mag1  N    Mag2  N    Mag3  N   Author         ID
       rms   OT_Error      Smajor Sminor Az        Err   mdist  Mdist     Err        Err        Err      Quality

2013/01/02 21:02:08.9     44.5277    7.1338      4.0 f    37    7 089  Ml 1.7  4  Md 1.8  1              bulletin    289502
                                                                                                         _ldg
      0.28   +-  0.04       1.2     .7   58.33 +-  0.0    0.03   1.28   +-0.3      +-                    m i ke

NORTHERN ITALY
Sta     Dist  EvAz     Phase      Date       Time     TRes  Azim  AzRes  Slow  SRes Def   SNR       Amp   Per   Mag1   Mag2       ID
MBDF  000.33 307.7 m E Pg      2013/01/02 21:02:15.5   0.1                          T                                        5153872
MBDF  000.33 307.7 m E Sg      2013/01/02 21:02:20.0   0.1                          T               19.0  .25        Md 1.8  5153871
SBF   000.70 161.8 m E Pg      2013/01/02 21:02:22.5   0.3                          T                                        5156957
SBF   000.70 161.8 m E Sg      2013/01/02 21:02:31.5   0.2                          T                3.1  .23                5156956
ORIF  000.98 294.0 m E Pg      2013/01/02 21:02:27.6   0.3                          T                                        5153870
ORIF  000.98 294.0 m E Sg      2013/01/02 21:02:40.2   0.2                          T                1.1  .25 Ml 1.4         5153869
LPG   001.01 344.5 m E Pg      2013/01/02 21:02:28.2   0.1                          T                                        5153866
LPG   001.01 344.5 m E Sg      2013/01/02 21:02:41.8   0.5                          T                1.0  .18 Ml 1.6         5153865
LPL   001.03 344.1 m E Pg      2013/01/02 21:02:28.7   0.3                          T                                        5153868
LPL   001.03 344.1 m E Sg      2013/01/02 21:02:42.9   1.1                          T                1.8  .33 Ml 1.6         5153867
SMRF  001.25 244.3 m E Pn      2013/01/02 21:02:31.8   0.3                          T                                        5156961
SMRF  001.25 244.3 m E Sn      2013/01/02 21:02:47.9   0.1                          T                                        5156960
LMR   001.28 200.9 m E P       2013/01/02 21:02:33.4  -0.1                          T                                        5156959
LMR   001.28 200.9 m E Sn      2013/01/02 21:02:48.5   0.1                          T                                        5156958
LMR   001.28 200.9 m E Sg      2013/01/02 21:02:49.6   0.4                          T                2.7  .20 Ml 2.1         5156955

.
