EVENT     265134
    Date      Time       Latitude Longitude    Depth    Ndef Nsta Gap    Mag1  N    Mag2  N    Mag3  N   Author         ID
       rms   OT_Error      Smajor Sminor Az        Err   mdist  Mdist     Err        Err        Err      Quality

2011/10/15 15:07:44.8     45.0677    7.1866      2.0      18    7 206  Ml 2.1  5  Md 2.0  3              js067245    265154

      0.52   +-  0.23       5.1    2.6   78.88 +-  0.0    0.45   1.80   +-0.2      +-0.1                 m i ke

NORTHERN ITALY
Sta     Dist  EvAz     Phase      Date       Time     TRes  Azim  AzRes  Slow  SRes Def   SNR       Amp   Per   Mag1   Mag2       ID
MBDF  000.45 221.0 m E Pg      2011/10/15 15:07:53.1  -0.6                          T                                        4771667
MBDF  000.45 221.0 m E Pn      2011/10/15 15:07:54.1   0.1                          T                                        4771654
MBDF  000.45 221.0 m E Sg      2011/10/15 15:07:59.0  -0.6                          T               19.3  .30        Md 1.9  4771660
LPG   000.53 324.6 m E Pg      2011/10/15 15:07:54.9  -0.3                          T                                        4771665
LPG   000.53 324.6 m E Sg      2011/10/15 15:08:02.6   0.4                          T                5.8  .23        Md 2.1  4771662
LPL   000.55 324.6 m E Pg      2011/10/15 15:07:55.4  -0.2                          T                                        4771666
LPL   000.55 324.6 m E P       2011/10/15 15:07:56.8  -0.1                          T                                        4771655
LPL   000.55 324.6 m E Sg      2011/10/15 15:08:03.2   0.4                          T                4.5  .18        Md 1.9  4771661
ORIF  000.94 261.3 m E Pg      2011/10/15 15:08:02.6   0.1                          T                                        4771664
ORIF  000.94 261.3 m E Sg      2011/10/15 15:08:15.5   0.7                          T                6.8  .28 Ml 2.2         4771663
SBF   001.22 171.5 m E Pn      2011/10/15 15:08:08.1   0.8                          T                                        4771651
SBF   001.22 171.5 m E Sn      2011/10/15 15:08:24.5   1.1                          T                3.4  .17 Ml 2.2         4771650
FRF   001.56 194.6 m E Pn      2011/10/15 15:08:11.4  -0.4                          T                                        4771659
FRF   001.56 194.6 m E Sn      2011/10/15 15:08:30.8  -0.5                          T                1.6  .20 Ml 2.0         4771658
LMR   001.80 195.9 m E Pn      2011/10/15 15:08:16.5   1.4                          T                                        4771652
LMR   001.80 195.9 m E Sn      2011/10/15 15:08:36.3  -0.9                          T                 .7  .18 Ml 1.8         4771653

.
EVENT     265132
    Date      Time       Latitude Longitude    Depth    Ndef Nsta Gap    Mag1  N    Mag2  N    Mag3  N   Author         ID
       rms   OT_Error      Smajor Sminor Az        Err   mdist  Mdist     Err        Err        Err      Quality

2011/10/15 17:16:40.9     41.6142    2.3078      2.0      22    3 195  Ml 1.5  3                         js067245    265152

      0.38   +-  0.16       2.6    1.3  162.50 +-  0.0    0.18   2.49   +-0.3                            m i ke

SPAIN
Sta     Dist  EvAz     Phase      Date       Time     TRes  Azim  AzRes  Slow  SRes Def   SNR       Amp   Per   Mag1   Mag2       ID
MTLF  001.73 357.8 m E Pg      2011/10/15 17:17:12.9  -0.1                          T                                        4773953
MTLF  001.73 357.8 m E Sg      2011/10/15 17:17:34.6  -0.7                          T                 .4  .22 Ml 1.4         4771674
EPF   002.03 314.8 m E Pg      2011/10/15 17:17:18.7  -0.1                          T                                        4773952
EPF   002.03 314.8 m E Sg      2011/10/15 17:17:44.6  -0.3                          T                1.7  .36 Ml 1.9         4773954
ETSF  002.49 302.0 m E Sg      2011/10/15 17:17:59.0  -0.1                          T                 .3  .30 Ml 1.2         4773951

.
EVENT     265348
    Date      Time       Latitude Longitude    Depth    Ndef Nsta Gap    Mag1  N    Mag2  N    Mag3  N   Author         ID
       rms   OT_Error      Smajor Sminor Az        Err   mdist  Mdist     Err        Err        Err      Quality

2011/10/16 00:23:05.8     42.7735     .8076      2.0      15    4 102  Ml 1.2  3  Md 1.4  2              js067245    265368

      0.40   +-  0.08       1.7    1.3   28.95 +-  0.0    0.28   1.53   +-0.2      +-0.2                 m i ke

PYRENEES
Sta     Dist  EvAz     Phase      Date       Time     TRes  Azim  AzRes  Slow  SRes Def   SNR       Amp   Per   Mag1   Mag2       ID
EPF   000.43 306.9 m E Pg      2011/10/16 00:23:13.8  -0.3                          T                                        4774558
EPF   000.43 306.9 m E Sg      2011/10/16 00:23:19.5  -0.3                          T                3.1  .32        Md 1.6  4774559
ETSF  001.01 277.6 m E Pg      2011/10/16 00:23:24.8  -0.1                          T                                        4774556
ETSF  001.01 277.6 m E Sg      2011/10/16 00:23:37.7  -0.3                          T                 .5  .27 Ml 1.1 Md 1.3  4774557
MTLF  001.18 060.8 m E Pg      2011/10/16 00:23:27.9   0.0                          T                                        4774554
MTLF  001.18 060.8 m E Sg      2011/10/16 00:23:43.3   0.1                          T                 .9  .29 Ml 1.4         4774555
SJPF  001.53 283.5 m E Sg      2011/10/16 00:23:55.0   0.9                          T                 .3  .23 Ml 1.2         4774553

.
EVENT     265140
    Date      Time       Latitude Longitude    Depth    Ndef Nsta Gap    Mag1  N    Mag2  N    Mag3  N   Author         ID
       rms   OT_Error      Smajor Sminor Az        Err   mdist  Mdist     Err        Err        Err      Quality

2011/10/16 02:03:41.5     43.0907   -1.6859      2.0      10    2 278             Md 1.2  2              js067245    265160

      0.25   +-  0.28       4.5    2.4   84.66 +-  0.0    0.18   0.85              +-0.1                 m i ke

PYRENEES
Sta     Dist  EvAz     Phase      Date       Time     TRes  Azim  AzRes  Slow  SRes Def   SNR       Amp   Per   Mag1   Mag2       ID
SJPF  000.34 086.0 m E Pg      2011/10/16 02:03:47.9  -0.2                          T                                        4771679
SJPF  000.34 086.0 m E Sg      2011/10/16 02:03:52.4  -0.2                          T                1.5  .23        Md 1.3  4771678
ETSF  000.85 102.7 m E Pg      2011/10/16 02:03:57.3  -0.3                          T                                        4771677
ETSF  000.85 102.7 m E Sg      2011/10/16 02:04:08.2  -0.4                          T                 .5  .24        Md 1.1  4771676

.
EVENT     265141
    Date      Time       Latitude Longitude    Depth    Ndef Nsta Gap    Mag1  N    Mag2  N    Mag3  N   Author         ID
       rms   OT_Error      Smajor Sminor Az        Err   mdist  Mdist     Err        Err        Err      Quality

2011/10/16 08:13:46.0     43.1471    -.6834     10.0 f    29    7 099  Ml 1.9  4  Md 1.9  2              js067245    265161

      0.65   +-  0.08       2.1    1.1    4.25 +-  0.0    0.06   2.69   +-0.1      +-0.0                 m i ke

PYRENEES
Sta     Dist  EvAz     Phase      Date       Time     TRes  Azim  AzRes  Slow  SRes Def   SNR       Amp   Per   Mag1   Mag2       ID
ETSF  000.26 159.8 m E Pg      2011/10/16 08:13:51.2  -0.4                          T                                        4771704
ETSF  000.26 159.8 m E Sg      2011/10/16 08:13:54.3  -1.0                          T               20.0  .26        Md 1.9  4771701
SJPF  000.40 265.3 m E Pg      2011/10/16 08:13:53.8  -0.1                          T                                        4771703
SJPF  000.40 265.3 m E Sg      2011/10/16 08:13:58.9  -0.4                          T               14.3  .28        Md 1.9  4771700
EPF   000.76 098.5 m E Pg      2011/10/16 08:14:00.6   0.1                          T                                        4771702
EPF   000.76 098.5 m E Sg      2011/10/16 08:14:10.6   0.2                          T                2.4  .20                4771699
MTLF  002.13 083.8 m E Pg      2011/10/16 08:14:25.8   0.2                          T                                        4771698
MTLF  002.13 083.8 m E Sg      2011/10/16 08:14:52.6  -0.4                          T                 .8  .32 Ml 1.6         4771697
LFF   002.07 029.3 m E Sg      2011/10/16 08:14:51.3   0.3                          T                2.4  .28 Ml 2.0         4773973
CAF   002.66 047.2 m E Sg      2011/10/16 08:15:09.7   0.0                          T                 .7  .17 Ml 2.0         4773972
RJF   002.67 035.5 m E Sg      2011/10/16 08:15:10.1   0.1                          T                1.3  .19 Ml 1.9         4773971

.
EVENT     265144
    Date      Time       Latitude Longitude    Depth    Ndef Nsta Gap    Mag1  N    Mag2  N    Mag3  N   Author         ID
       rms   OT_Error      Smajor Sminor Az        Err   mdist  Mdist     Err        Err        Err      Quality

2011/10/16 13:34:23.5     48.3495   -3.3566      2.0       7    3 296             Md 1.0  2              js067245    265164

      1.49   +-  0.40       8.9     .9  103.55 +-  0.0    0.06   0.54              +-0.4                 m i ke

FRANCE
Sta     Dist  EvAz     Phase      Date       Time     TRes  Azim  AzRes  Slow  SRes Def   SNR       Amp   Per   Mag1   Mag2       ID
ROSF  000.06 103.3 m E Pg      2011/10/16 13:34:24.8  -0.2                          T                                        4771710
ROSF  000.06 103.3 m E Sg      2011/10/16 13:34:26.2   0.3                          T                3.8  .18        Md 1.2  4771709
QUIF  000.45 163.5 m E Pg      2011/10/16 13:34:32.4   0.3                          T                                        4771707
QUIF  000.45 163.5 m E Sg      2011/10/16 13:34:37.4  -0.7                          T                2.4  .20        Md  .7  4771708
SGMF  000.54 099.8 m E Sg      2011/10/16 13:34:40.8  -0.1                          T                1.2  .27                4773974

.
EVENT     265137
    Date      Time       Latitude Longitude    Depth    Ndef Nsta Gap    Mag1  N    Mag2  N    Mag3  N   Author         ID
       rms   OT_Error      Smajor Sminor Az        Err   mdist  Mdist     Err        Err        Err      Quality

2011/10/16 19:17:34.2     47.8511    5.9427     18.0 f    15    8 082  Ml 1.3  4  Md 1.4  3              js067245    265157

      1.12   +-  0.09       2.1    1.4  179.22 +-  0.0    0.31   1.53   +-0.2      +-0.1                 m i ke

FRANCE
Sta     Dist  EvAz     Phase      Date       Time     TRes  Azim  AzRes  Slow  SRes Def   SNR       Amp   Per   Mag1   Mag2       ID
HAU   000.31 060.3 m E Pg      2011/10/16 19:17:41.1   0.1                          T                                        4772004
HAU   000.31 060.3 m E Sg      2011/10/16 19:17:45.3  -0.4                          T                2.7  .18        Md 1.5  4772003
HINF  000.61 092.9 m E Pg      2011/10/16 19:17:46.2   0.0                          T                                        4772001
HINF  000.61 092.9 m E Sg      2011/10/16 19:17:54.3  -0.2                          T                4.4  .30        Md 1.5  4772002
SFTF  000.70 300.6 m E Pg      2011/10/16 19:17:47.7  -0.1 124.7  4.8               T                                        4773981
SFTF  000.70 300.6 m E Sg      2011/10/16 19:17:57.1  -0.1 107.3  -12.6             T                2.9  .19                4771999
PAGF  000.72 348.4 m E Pg      2011/10/16 19:17:48.1   0.0                          T                                        4773977
PAGF  000.72 348.4 m E Sg      2011/10/16 19:17:57.4  -0.2 170.2  2.0               T                 .1  .24        Md 1.3  4773978
MEZF  000.88 317.9 m E Pg      2011/10/16 19:17:50.9  -0.1                          T                                        4773979
MEZF  000.88 317.9 m E Sg      2011/10/16 19:18:02.5  -0.2                          T                1.1  .26 Ml 1.4         4773980
CDF   001.06 057.4 m E Pg      2011/10/16 19:17:54.0  -0.3                          T                                        4771997
CDF   001.06 057.4 m E Sg      2011/10/16 19:18:07.8  -0.3                          T                 .6  .26 Ml 1.3         4771996
LOR   001.53 248.3 m E Pg      2011/10/16 19:18:02.8   0.0                          T                                        4773975
LOR   001.53 248.3 m E Sg      2011/10/16 19:18:22.5  -0.1  75.0  8.2               T                 .7  .24 Ml 1.5         4773976
CABF  001.24 175.4 m E Sg      2011/10/16 19:18:13.9   0.0                          T                 .3  .19 Ml 1.1         4771998

.
EVENT     265138
    Date      Time       Latitude Longitude    Depth    Ndef Nsta Gap    Mag1  N    Mag2  N    Mag3  N   Author         ID
       rms   OT_Error      Smajor Sminor Az        Err   mdist  Mdist     Err        Err        Err      Quality

2011/10/16 20:14:21.9     43.5392   17.6027      2.0      82   15 049  Ml 3.6  6                         js067245    265158

      1.28   +-  0.14       5.2    2.9   29.81 +-  0.0    0.94  10.58   +-0.3                            m i ke

NORTHWESTERN BALKAN PEN.
Sta     Dist  EvAz     Phase      Date       Time     TRes  Azim  AzRes  Slow  SRes Def   SNR       Amp   Per   Mag1   Mag2       ID
PGF   006.38 264.0 m E P       2011/10/16 20:15:59.0  -0.5                          T                                        4772018
SBF   007.38 276.0 m E Pn      2011/10/16 20:16:10.5   2.2                          T                                        4772017
SBF   007.38 276.0 m E Sn      2011/10/16 20:17:28.9   1.2                          T               29.7  .86 Ml 3.9         4772009
MBDF  007.88 282.4 m E Pn      2011/10/16 20:16:16.1   0.8                          T                                        4772019
FRF   007.96 273.9 m E Pn      2011/10/16 20:16:17.1   0.9                          T                                        4772022
FRF   007.96 273.9 m E Sn      2011/10/16 20:17:40.5  -1.0                          T                                        4772082
LPG   008.00 287.9 m E Pn      2011/10/16 20:16:18.0   1.0                          T                                        4772014
LPG   008.00 287.9 m E Sn      2011/10/16 20:17:42.3  -0.5                          T                8.6  .48 Ml 3.7         4772083
LPL   008.02 288.0 m E Pn      2011/10/16 20:16:18.2   1.1                          T                                        4772015
LMR   008.08 272.4 m E Pn      2011/10/16 20:16:19.1   1.4                          T                                        4772016
LMR   008.08 272.4 m E Sn      2011/10/16 20:17:44.8   0.5                          T                1.2  .30 Ml 3.0         4772008
ORIF  008.53 283.3 m E Pn      2011/10/16 20:16:25.5   1.5                          T                                        4772021
HINF  008.65 303.3 m E Pn      2011/10/16 20:16:26.0   0.4                          T                                        4772013
HINF  008.65 303.3 m E Sn      2011/10/16 20:17:59.8   1.6                          T                5.5  .42 Ml 3.6         4772007
CDF   008.68 307.7 m E Pn      2011/10/16 20:16:26.5   0.4                          T                                        4772050
CABF  008.71 294.6 m E Pn      2011/10/16 20:16:27.3   0.9                          T                                        4772012
CABF  008.71 294.6 m E Sn      2011/10/16 20:17:59.1  -0.4                          T                4.2  .62 Ml 3.4         4772006
HAU   009.04 303.5 m E Pn      2011/10/16 20:16:33.3   2.4                          T                                        4772049
VIVF  009.38 282.5 m E Pn      2011/10/16 20:16:35.9   0.3                          T                                        4772020
SMF   010.22 292.5 m E Pn      2011/10/16 20:16:48.0   1.1                          T                                        4772010
SMF   010.22 292.5 m E Sn      2011/10/16 20:18:36.7   1.3                          T                4.6  .46 Ml 3.8         4772005
AVF   010.58 292.8 m E Pn      2011/10/16 20:16:52.9   1.2                          T                                        4772011

.
EVENT     265164
    Date      Time       Latitude Longitude    Depth    Ndef Nsta Gap    Mag1  N    Mag2  N    Mag3  N   Author         ID
       rms   OT_Error      Smajor Sminor Az        Err   mdist  Mdist     Err        Err        Err      Quality

2011/10/16 20:25:34.1     46.0272    6.8431      4.0 f     8    4 140  Ml 1.3  2  Md 1.3  2              js067245    265184

      0.27   +-  0.09       4.8    1.3  113.86 +-  0.0    0.05   1.93   +-0.2      +-0.0                 m i ke

SWITZERLAND
Sta     Dist  EvAz     Phase      Date       Time     TRes  Azim  AzRes  Slow  SRes Def   SNR       Amp   Per   Mag1   Mag2       ID
LPL   000.52 188.7 m E Pg      2011/10/16 20:25:44.3   0.0                          T                                        4772084
LPL   000.52 188.7 m E Sg      2011/10/16 20:25:51.2   0.1                          T                 .9  .29        Md 1.4  4772085
LPG   000.53 186.9 m E Pg      2011/10/16 20:25:44.6   0.0                          T                                        4772088
LPG   000.53 186.9 m E Sg      2011/10/16 20:25:51.8   0.1                          T                 .8  .24        Md 1.3  4772087
ORIF  001.30 211.8 m E Sg      2011/10/16 20:26:15.2  -0.1                          T                 .6  .37 Ml 1.2         4773982
VIVF  001.93 233.3 m E Sg      2011/10/16 20:26:34.6  -0.2                          T                 .5  .26 Ml 1.5         4772086

.
EVENT     265145
    Date      Time       Latitude Longitude    Depth    Ndef Nsta Gap    Mag1  N    Mag2  N    Mag3  N   Author         ID
       rms   OT_Error      Smajor Sminor Az        Err   mdist  Mdist     Err        Err        Err      Quality

2011/10/16 23:52:25.9     43.0918   -1.4893      2.0      11    3 207  Ml 1.1  1  Md 1.2  2              js067245    265165

      0.26   +-  0.13       2.7    1.5   64.40 +-  0.0    0.13   1.34   +-         +-0.0                 m i ke

PYRENEES
Sta     Dist  EvAz     Phase      Date       Time     TRes  Azim  AzRes  Slow  SRes Def   SNR       Amp   Per   Mag1   Mag2       ID
SJPF  000.19 083.6 m E Pg      2011/10/16 23:52:30.0   0.1                          T                                        4772115
SJPF  000.19 083.6 m E Sg      2011/10/16 23:52:32.6   0.1                          T                1.5  .31        Md 1.2  4772114
ETSF  000.71 105.5 m E Pg      2011/10/16 23:52:39.5   0.1                          T                                        4772112
ETSF  000.71 105.5 m E Sg      2011/10/16 23:52:48.2  -0.5                          T                 .5  .24        Md 1.2  4772113
EPF   001.34 092.0 m E Sg      2011/10/16 23:53:08.4   0.0                          T                 .4  .32 Ml 1.1         4773987

.
