EVENT     269617
    Date      Time       Latitude Longitude    Depth    Ndef Nsta Gap    Mag1  N    Mag2  N    Mag3  N   Author         ID
       rms   OT_Error      Smajor Sminor Az        Err   mdist  Mdist     Err        Err        Err      Quality

2012/02/05 04:43:18.7     37.9925    -.6843     10.0 f   108   18 174  Ml 3.1  8                         js067245    269637

      0.91   +-  0.15       3.6    1.8  147.93 +-  0.0    0.46  10.77   +-0.2                            m i ke

SPAIN
Sta     Dist  EvAz     Phase      Date       Time     TRes  Azim  AzRes  Slow  SRes Def   SNR       Amp   Per   Mag1   Mag2       ID
EPF   005.09 008.5 m E Pn      2012/02/05 04:44:34.1   1.0                          T                                        4832796
EPF   005.09 008.5 m E Pg      2012/02/05 04:44:52.2  -0.7                          T                                        4832782
EPF   005.09 008.5 m E Sn      2012/02/05 04:45:29.4   1.0                          T               15.5  .45 Ml 3.4         4832789
EPF   005.09 008.5 m E Sg      2012/02/05 04:45:55.7  -2.6                          T                                        4832790
SJPF  005.13 355.6 m E Pn      2012/02/05 04:44:34.8   1.3                          T                                        4832797
SJPF  005.13 355.6 m E Sn      2012/02/05 04:45:30.5   1.2                          T                6.2  .31 Ml 3.2         4832788
SJPF  005.13 355.6 m E Sg      2012/02/05 04:45:57.8  -1.7                          T               13.4  .46 Ml 3.4         4832787
MTLF  005.78 021.5 m E Pn      2012/02/05 04:44:42.8   0.5                          T                                        4832795
MTLF  005.78 021.5 m E Sg      2012/02/05 04:46:18.1  -1.6                          T                3.0  .35 Ml 3.0         4832778
LFF   007.02 008.3 m E Pn      2012/02/05 04:44:59.8   0.6                          T                                        4832799
LFF   007.02 008.3 m E Sn      2012/02/05 04:46:15.5   1.1                          T                4.0  .33 Ml 3.2         4832784
LASF  006.98 028.0 m E Pn      2012/02/05 04:45:00.6   1.9                          T                                        4832794
CAF   007.23 015.7 m E Pn      2012/02/05 04:45:02.5   0.4                          T                                        4832798
CAF   007.23 015.7 m E Sn      2012/02/05 04:46:19.9   0.5                          T                2.3  .37 Ml 3.1         4832785
RJF   007.49 012.0 m E Pn      2012/02/05 04:45:06.3   0.7                          T                                        4832800
RJF   007.49 012.0 m E Sn      2012/02/05 04:46:26.6   1.0                          T                1.2  .26 Ml 2.6         4832783
LMR   007.64 043.4 m E Pn      2012/02/05 04:45:06.6  -0.9                          T                                        4832793
LMR   007.64 043.4 m E Sn      2012/02/05 04:46:29.3   0.2                          T                1.4  .28 Ml 3.1         4832792
VIVF  007.95 028.7 m E Pn      2012/02/05 04:45:12.2   0.3                          T                                        4832771
TCF   008.56 013.6 m E Pn      2012/02/05 04:45:20.3   0.1                          T                                        4832802
MFF   008.61 002.5 m E Pn      2012/02/05 04:45:20.4  -0.5                          T                                        4832777
PGF   008.69 055.4 m E P       2012/02/05 04:45:25.9  -1.7                          T                                        4832791
AVF   009.28 017.4 m E Pn      2012/02/05 04:45:30.1   0.1                          T                                        4832786
BGF   008.95 015.9 m E P       2012/02/05 04:45:31.3   0.1                          T                                        4832770
QUIF  010.08 350.4 m E Pn      2012/02/05 04:45:41.3   0.4                          T                                        4832774
QUIF  010.08 350.4 m E P       2012/02/05 04:45:45.4  -1.4                          T                                        4832773
SGMF  010.35 353.0 m E Pn      2012/02/05 04:45:44.2  -0.3                          T                                        4832775
ROSF  010.51 350.5 m E Pn      2012/02/05 04:45:47.5   0.8                          T                                        4832776
FLN   010.77 000.7 m E Pn      2012/02/05 04:45:49.5  -0.7                          T                                        4832772

.
EVENT     269618
    Date      Time       Latitude Longitude    Depth    Ndef Nsta Gap    Mag1  N    Mag2  N    Mag3  N   Author         ID
       rms   OT_Error      Smajor Sminor Az        Err   mdist  Mdist     Err        Err        Err      Quality

2012/02/05 15:23:28.6     48.0062    9.5078      6.0 f    28    6 086  Ml 2.1  5                         js067245    269638

      0.40   +-  0.07       1.4    1.0  142.14 +-  0.0    0.27   4.35   +-0.4                            m i ke

GERMANY
Sta     Dist  EvAz     Phase      Date       Time     TRes  Azim  AzRes  Slow  SRes Def   SNR       Amp   Per   Mag1   Mag2       ID
CDF   001.55 286.1 m E Pg      2012/02/05 15:23:57.5   0.0                          T                                        4832819
CDF   001.55 286.1 m E Sn      2012/02/05 15:24:15.4   1.1                          T                                        4832804
CDF   001.55 286.1 m E Sg      2012/02/05 15:24:17.3  -0.3                          T                4.0  .20 Ml 2.5         4832818
HINF  001.80 264.9 m E Pn      2012/02/05 15:23:58.4  -0.1                          T                                        4832816
HINF  001.80 264.9 m E Pg      2012/02/05 15:24:02.1   0.0                          T                                        4832815
HINF  001.80 264.9 m E Sg      2012/02/05 15:24:25.5   0.2                          T                2.7  .32 Ml 2.1         4832811
HAU   002.12 271.2 m E Pg      2012/02/05 15:24:08.1   0.0                          T                                        4832817
HAU   002.12 271.2 m E Sn      2012/02/05 15:24:28.1   0.0                          T                                        4832808
HAU   002.12 271.2 m E Sg      2012/02/05 15:24:35.5   0.1                          T                3.3  .35 Ml 2.0         4832812
PAGF  002.59 283.7 m E Pg      2012/02/05 15:24:17.1   0.5                          T                                        4832814
PAGF  002.59 283.7 m E Sn      2012/02/05 15:24:40.2   1.2                          T                                        4832809
PAGF  002.59 283.7 m E Sg      2012/02/05 15:24:50.2   0.3 105.9  5.0               T                 .2  .18 Ml 1.4         4832813
CABF  002.71 240.3 m E Pg      2012/02/05 15:24:18.6  -0.4                          T                                        4832806
CABF  002.71 240.3 m E Sg      2012/02/05 15:24:54.0   0.1                          T                2.4  .29 Ml 2.3         4832807
AVF   004.35 256.1 m E Pn      2012/02/05 15:24:33.3   0.0                          T                                        4832805

.
EVENT     269619
    Date      Time       Latitude Longitude    Depth    Ndef Nsta Gap    Mag1  N    Mag2  N    Mag3  N   Author         ID
       rms   OT_Error      Smajor Sminor Az        Err   mdist  Mdist     Err        Err        Err      Quality

2012/02/05 17:42:50.6     44.4825    7.2955      2.0      67   18 076  Ml 2.6 15  Md 2.6  4              js067245    269639

      0.79   +-  0.08       1.8    1.2   57.80 +-  0.0    0.04   3.93   +-0.4      +-0.0                 m i ke

NORTHERN ITALY
Sta     Dist  EvAz     Phase      Date       Time     TRes  Azim  AzRes  Slow  SRes Def   SNR       Amp   Per   Mag1   Mag2       ID
MBDF  000.45 303.3 m E Pg      2012/02/05 17:42:59.2  -0.2                          T   001.0                                4830885
MBDF  000.45 303.3 m E Sg      2012/02/05 17:43:04.8  -0.5                          T              132.9  .30        Md 2.6  4832832
FRF   001.03 207.1 m E Pg      2012/02/05 17:43:09.7  -0.3                          T   001.0                                4830863
FRF   001.03 207.1 m E Sg      2012/02/05 17:43:23.2  -0.2                          T   001.0       65.4  .26 Ml 3.3 Md 2.6  4830865
LPG   001.09 339.4 m E Pg      2012/02/05 17:43:11.1  -0.3                          T   001.0                                4830874
LPG   001.09 339.4 m E Sg      2012/02/05 17:43:25.5   0.0                          T   001.0       11.8  .24 Ml 2.5         4830875
ORIF  001.10 293.8 m E Pg      2012/02/05 17:43:11.2  -0.1                          T   001.0                                4830888
ORIF  001.10 293.8 m E Sg      2012/02/05 17:43:25.5  -0.1                          T   001.0       17.9  .32 Ml 2.6 Md 2.6  4830889
LPL   001.11 339.1 m E Pg      2012/02/05 17:43:11.5  -0.2                          T   001.0                                4830876
LPL   001.11 339.1 m E Sg      2012/02/05 17:43:26.1   0.0                          T   001.0       17.6  .34 Ml 2.6         4830877
LMR   001.28 206.6 m E Pg      2012/02/05 17:43:14.3  -0.2                          T   001.0                                4830871
LMR   001.28 206.6 m E Sg      2012/02/05 17:43:30.7  -0.4                          T   001.0       47.5  .18 Ml 3.4 Md 2.5  4830873
SMRF  001.34 248.3 m E Pg      2012/02/05 17:43:16.5   0.8                          T   001.0                                4830893
SMRF  001.34 248.3 m E Sg      2012/02/05 17:43:33.0   0.1                          T               28.3  .26 Ml 3.0         4832833
VIVF  001.91 282.2 m E Pn      2012/02/05 17:43:24.1   1.6                          T   001.0                                4830890
VIVF  001.91 282.2 m E Sn      2012/02/05 17:43:46.4   0.7                          T   001.0        2.6  .20 Ml 2.3         4830891
PGF   002.30 146.7 m E Pn      2012/02/05 17:43:27.3  -0.5                          T   001.0                                4830878
PGF   002.30 146.7 m E Sn      2012/02/05 17:43:54.9  -0.1                          T   001.0        3.9  .24 Ml 2.7         4830879
CABF  002.29 338.7 m E P       2012/02/05 17:43:30.0  -0.2                          T   001.0                                4830882
LASF  002.50 261.9 m E Pn      2012/02/05 17:43:31.5   0.9                          T   001.0                                4830868
LASF  002.50 261.9 m E Pg      2012/02/05 17:43:37.8   0.7                          T   001.0                                4830869
LASF  002.50 261.9 m E Sn      2012/02/05 17:43:58.6  -1.2                          T   001.0          5  .60 Ml 2.2         4830870
HINF  003.35 354.9 m E Pn      2012/02/05 17:43:43.2   1.1                          T   001.0                                4830884
HINF  003.35 354.9 m E Sn      2012/02/05 17:44:21.2   1.1                          T                1.3  .31 Ml 2.1         4832831
SMF   003.25 312.9 m E P       2012/02/05 17:43:43.9   0.2                          T   001.0                                4830880
SMF   003.25 312.9 m E Sg      2012/02/05 17:44:33.7   1.1                          T                1.6  .27 Ml 2.3         4832834
HAU   003.58 349.8 m E Pn      2012/02/05 17:43:45.5   0.2                          T   001.0                                4830867
MTLF  003.84 254.5 m E Pn      2012/02/05 17:43:50.0   1.2                          T   001.0                                4830886
MTLF  003.84 254.5 m E Sn      2012/02/05 17:44:34.2   2.4                          T   001.0        5.5  .84 Ml 2.4         4830887
CAF   003.76 278.6 m E P       2012/02/05 17:43:50.1  -0.9                          T   001.0                                4830861
BGF   003.75 305.1 m E Pn      2012/02/05 17:43:50.1   2.5                          T   001.0                                4830860
CDF   003.93 359.8 m E Sn      2012/02/05 17:44:35.7   1.6                          T   001.0        1.4  .44 Ml 2.2         4830862

.
EVENT     269620
    Date      Time       Latitude Longitude    Depth    Ndef Nsta Gap    Mag1  N    Mag2  N    Mag3  N   Author         ID
       rms   OT_Error      Smajor Sminor Az        Err   mdist  Mdist     Err        Err        Err      Quality

2012/02/05 17:58:14.7     44.5036    7.2901     10.0      55   14 077  Ml 2.2  9  Md 2.1  3              js067245    269640

      0.78   +-  0.09       2.2    1.4   62.58 +-  0.0    0.03   3.75   +-0.4      +-0.1                 m i ke

NORTHERN ITALY
Sta     Dist  EvAz     Phase      Date       Time     TRes  Azim  AzRes  Slow  SRes Def   SNR       Amp   Per   Mag1   Mag2       ID
MBDF  000.43 301.3 m E Pg      2012/02/05 17:58:23.7   0.3                          T                                        4832970
MBDF  000.43 301.3 m E Sg      2012/02/05 17:58:29.3   0.1                          T               39.2  .32        Md 2.0  4832969
SBF   000.65 170.7 m E Pg      2012/02/05 17:58:27.4   0.2                          T                                        4832962
SBF   000.65 170.7 m E Sg      2012/02/05 17:58:35.2  -0.5                          T               15.9  .20                4832953
FRF   001.05 206.4 m E Pg      2012/02/05 17:58:34.3  -0.2                          T                                        4832965
FRF   001.05 206.4 m E Sg      2012/02/05 17:58:47.6  -0.5                          T               18.6  .28 Ml 2.7         4832960
LPG   001.06 339.2 m E Pg      2012/02/05 17:58:35.3   0.3                          T                                        4832967
LPG   001.06 339.2 m E Sg      2012/02/05 17:58:48.7  -0.2                          T                3.4  .26 Ml 2.0         4832956
LPL   001.09 338.9 m E Pg      2012/02/05 17:58:35.7   0.4                          T                                        4832964
LPL   001.09 338.9 m E Sg      2012/02/05 17:58:49.5   0.0                          T                4.0  .28 Ml 2.0 Md 2.1  4832957
ORIF  001.09 292.9 m E Pg      2012/02/05 17:58:35.8   0.6                          T                                        4832968
ORIF  001.09 292.9 m E Sg      2012/02/05 17:58:49.1  -0.3                          T                3.7  .22 Ml 2.1 Md 2.2  4832958
ORIF  001.09 292.9 m E S       2012/02/05 17:58:51.6   0.1                          T                                        4832942
LMR   001.30 206.0 m E Pg      2012/02/05 17:58:38.8  -0.1                          T                                        4832963
LMR   001.30 206.0 m E Sg      2012/02/05 17:58:55.2  -0.6                          T               16.1  .20 Ml 2.9         4832961
SMRF  001.34 247.4 m E Pg      2012/02/05 17:58:41.0   1.2                          T                                        4832966
SMRF  001.34 247.4 m E Sg      2012/02/05 17:58:58.7   1.5                          T                5.7  .26 Ml 2.3         4832959
VIVF  001.90 281.6 m E Pg      2012/02/05 17:58:48.7  -1.4                          T                                        4832955
VIVF  001.90 281.6 m E Sg      2012/02/05 17:59:12.6  -2.0                          T                1.0  .20 Ml 1.9         4832954
PGF   002.32 147.0 m E Pn      2012/02/05 17:58:51.3   0.0                          T                                        4832951
PGF   002.32 147.0 m E Sn      2012/02/05 17:59:18.1   0.0                          T                1.8  .22 Ml 2.4         4832952
HINF  003.33 354.9 m E PKP1    2012/02/05 17:59:07.6  -0.5                          T                                        4832949
HAU   003.56 349.8 m E PKP1    2012/02/05 17:59:11.0  -0.4                          T                                        4832950
CAF   003.75 278.3 m E PKP1    2012/02/05 17:59:14.1   0.0                          T                                        4832947
BGF   003.74 304.9 m E PKP1    2012/02/05 17:59:14.5   0.6                          T                                        4832948

.
EVENT     269621
    Date      Time       Latitude Longitude    Depth    Ndef Nsta Gap    Mag1  N    Mag2  N    Mag3  N   Author         ID
       rms   OT_Error      Smajor Sminor Az        Err   mdist  Mdist     Err        Err        Err      Quality

2012/02/05 18:10:10.7     41.5684    2.6035      5.0 f    29    4 206  Ml 2.1  4                         js067245    269641

      0.35   +-  0.13       2.1    1.2  143.30 +-  0.0    0.23   3.23   +-0.2                            m i ke

SPAIN
Sta     Dist  EvAz     Phase      Date       Time     TRes  Azim  AzRes  Slow  SRes Def   SNR       Amp   Per   Mag1   Mag2       ID
MTLF  001.79 351.0 m E Pg      2012/02/05 18:10:44.2   0.1                          T                                        4832985
MTLF  001.79 351.0 m E Sg      2012/02/05 18:11:07.1  -0.2                          T                1.7  .23 Ml 2.0         4832983
EPF   002.23 311.8 m E Pn      2012/02/05 18:10:46.9   0.3                          T                                        4832980
EPF   002.23 311.8 m E Sg      2012/02/05 18:11:19.8  -0.9                          T                1.9  .24 Ml 2.1         4832984
SJPF  003.23 299.8 m E Pn      2012/02/05 18:11:01.2   1.0                          T                                        4832979
SJPF  003.23 299.8 m E Sg      2012/02/05 18:11:49.9  -2.1                          T                 .5  .25 Ml 1.8         4832981
LASF  002.67 019.8 m E Sg      2012/02/05 18:11:33.6  -1.0                          T                2.3  .29 Ml 2.3         4832982

.
